"Station Name","WINDSOR A"
"Province","ONTARIO"
"Latitude","42.28"
"Longitude","-82.96"
"Elevation","189.60"
"Climate Identifier","6139525"
"WMO Identifier","71538"
"TC Identifier","YQG"
"All times are specified in Local Standard Time (LST). Add 1 hour to adjust for Daylight Saving Time where and when it is observed."

"Legend"
"E","Estimated"
"M","Missing"
"NA","Not Available"

"Date/Time","Year","Month","Day","Time","Temp (°C)","Temp Flag","Dew Point Temp (°C)","Dew Point Temp Flag","Rel Hum (%)","Rel Hum Flag","Wind Dir (10s deg)","Wind Dir Flag","Wind Spd (km/h)","Wind Spd Flag","Visibility (km)","Visibility Flag","Stn Press (kPa)","Stn Press Flag","Hmdx","Hmdx Flag","Wind Chill","Wind Chill Flag","Weather"
"2000-12-01 00:00","2000","12","01","00:00","2.0","","-2.6","","72","","35","","13","","24.1","","100.23","","","","","","Cloudy"
"2000-12-01 01:00","2000","12","01","01:00","1.7","","-2.2","","75","","36","","13","","24.1","","100.23","","","","","","Cloudy"
"2000-12-01 02:00","2000","12","01","02:00","1.4","","-1.9","","79","","35","","13","","24.1","","100.26","","","","","","Mostly Cloudy"
"2000-12-01 03:00","2000","12","01","03:00","1.0","","-2.1","","80","","1","","9","","24.1","","100.33","","","","","","Mostly Cloudy"
"2000-12-01 04:00","2000","12","01","04:00","0.4","","-3.1","","77","","1","","13","","24.1","","100.29","","","","","","Mostly Cloudy"
"2000-12-01 05:00","2000","12","01","05:00","0.1","","-3.1","","79","","2","","17","","24.1","","100.33","","","","","","Mainly Clear"
"2000-12-01 06:00","2000","12","01","06:00","-0.4","","-3.2","","81","","1","","9","","24.1","","100.36","","","","-4","","Mostly Cloudy"
"2000-12-01 07:00","2000","12","01","07:00","-0.7","","-3.6","","81","","1","","13","","24.1","","100.39","","","","-5","","Mostly Cloudy"
"2000-12-01 08:00","2000","12","01","08:00","-0.3","","-4.6","","73","","1","","20","","24.1","","100.46","","","","-6","","Mostly Cloudy"
"2000-12-01 09:00","2000","12","01","09:00","0.0","","-4.8","","70","","36","","17","","24.1","","100.46","","","","-5","","Mostly Cloudy"
"2000-12-01 10:00","2000","12","01","10:00","-0.3","","-3.9","","77","","1","","20","","19.3","","100.49","","","","-6","","Snow"
"2000-12-01 11:00","2000","12","01","11:00","0.1","","-4.2","","73","","1","","19","","24.1","","100.53","","","","","","Cloudy"
"2000-12-01 12:00","2000","12","01","12:00","-0.2","","-3.2","","80","","3","","15","","19.3","","100.53","","","","-5","","Snow"
"2000-12-01 13:00","2000","12","01","13:00","0.0","","-3.3","","78","","3","","13","","19.3","","100.49","","","","-4","","Snow"
"2000-12-01 14:00","2000","12","01","14:00","0.9","","-4.1","","69","","4","","19","","19.3","","100.46","","","","","","Mostly Cloudy"
"2000-12-01 15:00","2000","12","01","15:00","1.1","","-5.3","","62","","3","","17","","24.1","","100.49","","","","","","Cloudy"
"2000-12-01 16:00","2000","12","01","16:00","1.0","","-6.4","","58","","1","","20","","24.1","","100.56","","","","","","Mostly Cloudy"
"2000-12-01 17:00","2000","12","01","17:00","-0.8","","-2.2","","90","","6","","20","","3.2","","100.66","","","","-6","","Snow Showers"
"2000-12-01 18:00","2000","12","01","18:00","-0.3","","-2.6","","84","","6","","13","","19.3","","100.69","","","","-4","","Snow Showers"
"2000-12-01 19:00","2000","12","01","19:00","-0.5","","-5.6","","68","","1","","19","","24.1","","100.73","","","","-6","","Mostly Cloudy"
"2000-12-01 20:00","2000","12","01","20:00","-1.0","","-5.8","","70","","2","","24","","24.1","","100.79","","","","-7","","Mostly Cloudy"
"2000-12-01 21:00","2000","12","01","21:00","-1.9","","-9.0","","58","","2","","28","","24.1","","100.83","","","","-9","","Mostly Cloudy"
"2000-12-01 22:00","2000","12","01","22:00","-2.6","","-9.2","","60","","1","","17","","25.0","","100.83","","","","-8","","Mainly Clear"
"2000-12-01 23:00","2000","12","01","23:00","-3.1","","-9.1","","63","","1","","17","","25.0","","100.89","","","","-9","","Mainly Clear"
"2000-12-02 00:00","2000","12","02","00:00","-3.4","","-8.9","","66","","36","","20","","24.1","","100.89","","","","-10","","Mainly Clear"
"2000-12-02 01:00","2000","12","02","01:00","-3.9","","-10.4","","61","","36","","17","","24.1","","100.89","","","","-10","","Clear"
"2000-12-02 02:00","2000","12","02","02:00","-4.0","","-10.2","","62","","35","","17","","24.1","","100.96","","","","-10","","Mainly Clear"
"2000-12-02 03:00","2000","12","02","03:00","-4.2","","-9.3","","68","","35","","19","","24.1","","100.99","","","","-10","","Mainly Clear"
"2000-12-02 04:00","2000","12","02","04:00","-3.9","","-8.1","","73","","36","","20","","24.1","","100.99","","","","-10","","Mainly Clear"
"2000-12-02 05:00","2000","12","02","05:00","-3.5","","-8.8","","67","","35","","20","","24.1","","101.03","","","","-10","","Mostly Cloudy"
"2000-12-02 06:00","2000","12","02","06:00","-3.3","","-8.5","","67","","35","","19","","24.1","","101.09","","","","-9","","Snow Showers"
"2000-12-02 07:00","2000","12","02","07:00","-3.1","","-9.2","","63","","36","","22","","24.1","","101.16","","","","-9","","Snow Showers"
"2000-12-02 08:00","2000","12","02","08:00","-3.2","","-8.4","","67","","2","","17","","24.1","","101.23","","","","-9","","Snow Showers"
"2000-12-02 09:00","2000","12","02","09:00","-3.4","","-6.5","","79","","1","","17","","24.1","","101.29","","","","-9","","Snow Showers"
"2000-12-02 10:00","2000","12","02","10:00","-3.4","","-5.0","","89","","36","","13","","24.1","","101.36","","","","-8","","Snow Showers"
"2000-12-02 11:00","2000","12","02","11:00","-3.0","","-5.8","","81","","3","","19","","24.1","","101.39","","","","-9","","Snow Showers"
"2000-12-02 12:00","2000","12","02","12:00","-2.3","","-6.2","","75","","5","","15","","24.1","","101.36","","","","-7","","Mainly Clear"
"2000-12-02 13:00","2000","12","02","13:00","-1.6","","-5.8","","73","","5","","13","","24.1","","101.29","","","","-6","","Mainly Clear"
"2000-12-02 14:00","2000","12","02","14:00","-1.0","","-5.8","","70","","7","","17","","24.1","","101.26","","","","-6","","Mainly Clear"
"2000-12-02 15:00","2000","12","02","15:00","-0.5","","-6.5","","64","","6","","20","","24.1","","101.23","","","","-6","","Mainly Clear"
"2000-12-02 16:00","2000","12","02","16:00","-1.0","","-5.4","","72","","9","","13","","24.1","","101.26","","","","-5","","Mainly Clear"
"2000-12-02 17:00","2000","12","02","17:00","-1.0","","-7.5","","61","","3","","13","","24.1","","101.29","","","","-5","","Mostly Cloudy"
"2000-12-02 18:00","2000","12","02","18:00","-1.1","","-7.5","","62","","36","","13","","24.1","","101.33","","","","-5","","Mostly Cloudy"
"2000-12-02 19:00","2000","12","02","19:00","-2.2","","-8.1","","64","","36","","11","","24.1","","101.36","","","","-6","","Mainly Clear"
"2000-12-02 20:00","2000","12","02","20:00","-1.8","","-7.6","","65","","36","","9","","24.1","","101.39","","","","-5","","Mostly Cloudy"
"2000-12-02 21:00","2000","12","02","21:00","-1.9","","-6.8","","69","","15","","9","","24.1","","101.39","","","","-5","","Mostly Cloudy"
"2000-12-02 22:00","2000","12","02","22:00","-2.8","","-5.6","","81","","16","","4","","24.1","","101.33","","","","-4","","Mostly Cloudy"
"2000-12-02 23:00","2000","12","02","23:00","-2.7","","-5.6","","80","","","","0","","24.1","","101.33","","","","","","Mostly Cloudy"
"2000-12-03 00:00","2000","12","03","00:00","-2.5","","-5.3","","81","","","","0","","24.1","","101.33","","","","","","Mostly Cloudy"
"2000-12-03 01:00","2000","12","03","01:00","-2.4","","-6.1","","76","","24","","4","","24.1","","101.29","","","","-4","","Mostly Cloudy"
"2000-12-03 02:00","2000","12","03","02:00","-2.7","","-5.6","","80","","22","","4","","24.1","","101.29","","","","-4","","Mostly Cloudy"
"2000-12-03 03:00","2000","12","03","03:00","-3.3","","-5.8","","83","","21","","7","","24.1","","101.33","","","","-6","","Mostly Cloudy"
"2000-12-03 04:00","2000","12","03","04:00","-3.3","","-5.5","","85","","18","","4","","24.1","","101.33","","","","-5","","Mostly Cloudy"
"2000-12-03 05:00","2000","12","03","05:00","-3.3","","-6.3","","80","","24","","4","","24.1","","101.33","","","","-5","","Mostly Cloudy"
"2000-12-03 06:00","2000","12","03","06:00","-3.5","","-6.3","","81","","18","","4","","24.1","","101.36","","","","-5","","Mostly Cloudy"
"2000-12-03 07:00","2000","12","03","07:00","-4.2","","-6.6","","83","","","","0","","24.1","","101.36","","","","","","Mainly Clear"
"2000-12-03 08:00","2000","12","03","08:00","-5.0","","-6.9","","86","","18","","6","","24.1","","101.36","","","","-8","","Mainly Clear"
"2000-12-03 09:00","2000","12","03","09:00","-2.4","","-5.9","","77","","","","0","","24.1","","101.42","","","","","","Mainly Clear"
"2000-12-03 10:00","2000","12","03","10:00","-0.9","","-6.0","","68","","","","0","","24.1","","101.42","","","","","","Mainly Clear"
"2000-12-03 11:00","2000","12","03","11:00","0.5","","-6.7","","58","","","","0","","24.1","","101.42","","","","","","Mainly Clear"
"2000-12-03 12:00","2000","12","03","12:00","0.4","","-6.5","","60","","15","","4","","24.1","","101.33","","","","","","Mainly Clear"
"2000-12-03 13:00","2000","12","03","13:00","1.3","","-5.5","","60","","16","","7","","24.1","","101.23","","","","","","Mainly Clear"
"2000-12-03 14:00","2000","12","03","14:00","1.2","","-5.9","","59","","19","","7","","24.1","","101.16","","","","","","Mainly Clear"
"2000-12-03 15:00","2000","12","03","15:00","1.4","","-5.6","","60","","19","","7","","24.1","","101.13","","","","","","Mainly Clear"
"2000-12-03 16:00","2000","12","03","16:00","0.8","","-4.8","","66","","23","","11","","24.1","","101.09","","","","","","Clear"
"2000-12-03 17:00","2000","12","03","17:00","-1.0","","-4.8","","75","","21","","13","","24.1","","101.06","","","","-5","","Clear"
"2000-12-03 18:00","2000","12","03","18:00","-1.9","","-5.0","","79","","21","","11","","25.0","","101.06","","","","-6","","Clear"
"2000-12-03 19:00","2000","12","03","19:00","-2.5","","-4.9","","84","","20","","7","","25.0","","101.06","","","","-5","","Clear"
"2000-12-03 20:00","2000","12","03","20:00","-2.5","","-5.1","","82","","21","","11","","25.0","","101.03","","","","-7","","Clear"
"2000-12-03 21:00","2000","12","03","21:00","-3.2","","-5.2","","86","","20","","9","","25.0","","100.99","","","","-7","","Clear"
"2000-12-03 22:00","2000","12","03","22:00","-3.7","","-5.0","","91","","19","","7","","25.0","","100.99","","","","-7","","Clear"
"2000-12-03 23:00","2000","12","03","23:00","-3.4","","-5.1","","88","","20","","6","","25.0","","100.93","","","","-6","","Clear"
"2000-12-04 00:00","2000","12","04","00:00","-3.3","","-5.2","","87","","21","","7","","24.1","","100.89","","","","-6","","Clear"
"2000-12-04 01:00","2000","12","04","01:00","-3.6","","-5.5","","87","","20","","7","","24.1","","100.83","","","","-7","","Clear"
"2000-12-04 02:00","2000","12","04","02:00","-4.0","","-5.7","","88","","26","","6","","24.1","","100.83","","","","-7","","Clear"
"2000-12-04 03:00","2000","12","04","03:00","-4.8","","-6.3","","89","","22","","7","","24.1","","100.79","","","","-8","","Clear"
"2000-12-04 04:00","2000","12","04","04:00","-4.4","","-6.7","","84","","22","","9","","24.1","","100.73","","","","-8","","Clear"
"2000-12-04 05:00","2000","12","04","05:00","-4.8","","-7.2","","83","","22","","7","","24.1","","100.66","","","","-8","","Clear"
"2000-12-04 06:00","2000","12","04","06:00","-4.9","","-7.2","","84","","20","","9","","24.1","","100.56","","","","-9","","Clear"
"2000-12-04 07:00","2000","12","04","07:00","-3.8","","-7.5","","75","","22","","13","","24.1","","100.49","","","","-9","","Mostly Cloudy"
"2000-12-04 08:00","2000","12","04","08:00","-3.2","","-6.8","","76","","22","","17","","24.1","","100.46","","","","-9","","Mainly Clear"
"2000-12-04 09:00","2000","12","04","09:00","-2.5","","-6.4","","75","","23","","15","","24.1","","100.43","","","","-7","","Cloudy"
"2000-12-04 10:00","2000","12","04","10:00","-1.6","","-7.8","","63","","23","","20","","24.1","","100.43","","","","-7","","Cloudy"
"2000-12-04 11:00","2000","12","04","11:00","-0.7","","-7.5","","60","","23","","22","","24.1","","100.33","","","","-6","","Cloudy"
"2000-12-04 12:00","2000","12","04","12:00","0.0","","-6.5","","62","","23","","24","","24.1","","100.19","","","","-6","","Cloudy"
"2000-12-04 13:00","2000","12","04","13:00","0.4","","-5.6","","64","","21","","26","","24.1","","100.03","","","","","","Cloudy"
"2000-12-04 14:00","2000","12","04","14:00","0.8","","-4.9","","66","","22","","30","","24.1","","99.93","","","","","","Cloudy"
"2000-12-04 15:00","2000","12","04","15:00","1.3","","-4.6","","65","","22","","26","","24.1","","99.80","","","","","","Mostly Cloudy"
"2000-12-04 16:00","2000","12","04","16:00","1.0","","-3.7","","71","","22","","33","","16.1","","99.76","","","","","","Mostly Cloudy"
"2000-12-04 17:00","2000","12","04","17:00","1.1","","-3.0","","74","","22","","32","","16.1","","99.70","","","","","","Cloudy"
"2000-12-04 18:00","2000","12","04","18:00","0.9","","-2.9","","76","","22","","28","","16.1","","99.60","","","","","","Cloudy"
"2000-12-04 19:00","2000","12","04","19:00","0.4","","-2.7","","80","","22","","37","","11.3","","99.56","","","","","","Snow Showers"
"2000-12-04 20:00","2000","12","04","20:00","0.2","","-3.6","","76","","24","","41","","16.1","","99.50","","","","","","Snow Showers"
"2000-12-04 21:00","2000","12","04","21:00","-0.1","","-3.3","","79","","24","","32","","14.5","","99.46","","","","-7","","Snow"
"2000-12-04 22:00","2000","12","04","22:00","-0.2","","-2.8","","83","","23","","32","","11.3","","99.40","","","","-7","","Snow"
"2000-12-04 23:00","2000","12","04","23:00","-0.5","","-1.9","","90","","23","","30","","8.0","","99.30","","","","-7","","Freezing Drizzle,Fog"
"2000-12-05 00:00","2000","12","05","00:00","-0.2","","-1.6","","90","","23","","37","","8.0","","99.20","","","","-7","","Freezing Drizzle,Fog"
"2000-12-05 01:00","2000","12","05","01:00","0.1","","-1.4","","90","","23","","30","","8.0","","99.10","","","","","","Snow,Fog"
"2000-12-05 02:00","2000","12","05","02:00","0.4","","-1.2","","89","","23","","26","","8.0","","99.03","","","","","","Snow,Fog"
"2000-12-05 03:00","2000","12","05","03:00","0.7","","-1.7","","84","","23","","32","","9.7","","98.93","","","","","","Snow"
"2000-12-05 04:00","2000","12","05","04:00","0.9","","-1.9","","82","","23","","33","","9.7","","98.86","","","","","","Snow"
"2000-12-05 05:00","2000","12","05","05:00","0.7","","-1.7","","84","","24","","32","","9.7","","98.76","","","","","","Snow"
"2000-12-05 06:00","2000","12","05","06:00","-0.4","","-1.6","","92","","28","","28","","0.4","","98.80","","","","-7","","Heavy Snow"
"2000-12-05 07:00","2000","12","05","07:00","-2.1","","-6.2","","73","","30","","28","","24.1","","98.93","","","","-9","","Snow"
"2000-12-05 08:00","2000","12","05","08:00","-3.5","","-9.1","","65","","29","","39","","24.1","","99.06","","","","-12","","Mainly Clear"
"2000-12-05 09:00","2000","12","05","09:00","-4.0","","-8.0","","74","","29","","37","","19.3","","99.20","","","","-12","","Snow"
"2000-12-05 10:00","2000","12","05","10:00","-4.0","","-7.1","","79","","29","","24","","24.1","","99.33","","","","-11","","Mostly Cloudy"
"2000-12-05 11:00","2000","12","05","11:00","-4.8","","-10.1","","66","","29","","39","","19.3","","99.46","","","","-14","","Mostly Cloudy"
"2000-12-05 12:00","2000","12","05","12:00","-5.0","","-11.8","","59","","29","","37","","24.1","","99.56","","","","-14","","Mostly Cloudy"
"2000-12-05 13:00","2000","12","05","13:00","-5.2","","-13.0","","54","","28","","30","","24.1","","99.63","","","","-13","","Mostly Cloudy"
"2000-12-05 14:00","2000","12","05","14:00","-5.2","","-13.6","","52","","29","","32","","24.1","","99.70","","","","-13","","Mostly Cloudy"
"2000-12-05 15:00","2000","12","05","15:00","-5.9","","-14.0","","53","","29","","32","","24.1","","99.76","","","","-14","","Mostly Cloudy"
"2000-12-05 16:00","2000","12","05","16:00","-6.1","","-13.9","","54","","30","","33","","24.1","","99.90","","","","-15","","Mostly Cloudy"
"2000-12-05 17:00","2000","12","05","17:00","-6.7","","-14.5","","54","","30","","30","","24.1","","99.96","","","","-15","","Mostly Cloudy"
"2000-12-05 18:00","2000","12","05","18:00","-7.2","","-14.9","","54","","30","","26","","24.1","","100.06","","","","-15","","Mostly Cloudy"
"2000-12-05 19:00","2000","12","05","19:00","-7.2","","-14.2","","57","","32","","22","","24.1","","100.13","","","","-15","","Snow Showers"
"2000-12-05 20:00","2000","12","05","20:00","-7.6","","-14.9","","56","","30","","24","","24.1","","100.19","","","","-16","","Mostly Cloudy"
"2000-12-05 21:00","2000","12","05","21:00","-7.8","","-14.7","","58","","33","","24","","24.1","","100.23","","","","-16","","Mostly Cloudy"
"2000-12-05 22:00","2000","12","05","22:00","-8.2","","-15.6","","55","","31","","22","","24.1","","100.29","","","","-16","","Mostly Cloudy"
"2000-12-05 23:00","2000","12","05","23:00","-8.2","","-15.8","","54","","32","","13","","24.1","","100.29","","","","-14","","Mostly Cloudy"
"2000-12-06 00:00","2000","12","06","00:00","-7.9","","-13.8","","63","","28","","13","","24.1","","100.23","","","","-14","","Snow"
"2000-12-06 01:00","2000","12","06","01:00","-8.2","","-12.3","","72","","29","","11","","24.1","","100.16","","","","-13","","Snow"
"2000-12-06 02:00","2000","12","06","02:00","-9.2","","-14.9","","63","","27","","9","","24.1","","100.13","","","","-14","","Mainly Clear"
"2000-12-06 03:00","2000","12","06","03:00","-9.4","","-14.1","","69","","26","","9","","24.1","","100.13","","","","-14","","Mainly Clear"
"2000-12-06 04:00","2000","12","06","04:00","-9.8","","-13.9","","72","","27","","11","","24.1","","100.16","","","","-15","","Mostly Cloudy"
"2000-12-06 05:00","2000","12","06","05:00","-9.0","","-13.6","","69","","24","","7","","24.1","","100.09","","","","-13","","Snow"
"2000-12-06 06:00","2000","12","06","06:00","-8.6","","-13.5","","68","","25","","11","","24.1","","100.03","","","","-14","","Snow"
"2000-12-06 07:00","2000","12","06","07:00","-8.6","","-11.7","","78","","25","","11","","25.0","","99.90","","","","-14","","Snow"
"2000-12-06 08:00","2000","12","06","08:00","-8.7","","-10.9","","84","","22","","13","","19.3","","99.83","","","","-15","","Mostly Cloudy"
"2000-12-06 09:00","2000","12","06","09:00","-7.9","","-10.7","","80","","24","","22","","19.3","","99.80","","","","-16","","Mostly Cloudy"
"2000-12-06 10:00","2000","12","06","10:00","-7.3","","-11.0","","75","","25","","22","","19.3","","99.76","","","","-15","","Mostly Cloudy"
"2000-12-06 11:00","2000","12","06","11:00","-6.7","","-11.9","","66","","26","","26","","19.3","","99.70","","","","-15","","Mostly Cloudy"
"2000-12-06 12:00","2000","12","06","12:00","-6.2","","-11.9","","64","","26","","28","","19.3","","99.50","","","","-14","","Mostly Cloudy"
"2000-12-06 13:00","2000","12","06","13:00","-5.8","","-12.8","","58","","24","","24","","19.3","","99.36","","","","-13","","Mostly Cloudy"
"2000-12-06 14:00","2000","12","06","14:00","-5.1","","-14.3","","48","","25","","30","","24.1","","99.26","","","","-13","","Mostly Cloudy"
"2000-12-06 15:00","2000","12","06","15:00","-5.5","","-14.6","","49","","24","","22","","24.1","","99.16","","","","-13","","Cloudy"
"2000-12-06 16:00","2000","12","06","16:00","-5.6","","-15.0","","47","","24","","24","","24.1","","99.06","","","","-13","","Cloudy"
"2000-12-06 17:00","2000","12","06","17:00","-5.4","","-14.8","","48","","24","","19","","24.1","","99.00","","","","-12","","Cloudy"
"2000-12-06 18:00","2000","12","06","18:00","-4.9","","-14.8","","46","","25","","22","","24.1","","99.00","","","","-12","","Cloudy"
"2000-12-06 19:00","2000","12","06","19:00","-5.6","","-12.2","","60","","25","","26","","11.3","","98.93","","","","-13","","Snow Showers"
"2000-12-06 20:00","2000","12","06","20:00","-5.8","","-10.5","","69","","25","","24","","11.3","","98.90","","","","-13","","Snow"
"2000-12-06 21:00","2000","12","06","21:00","-6.1","","-8.5","","83","","25","","28","","8.0","","98.83","","","","-14","","Snow"
"2000-12-06 22:00","2000","12","06","22:00","-6.0","","-8.0","","86","","25","","28","","8.0","","98.76","","","","-14","","Snow"
"2000-12-06 23:00","2000","12","06","23:00","-5.8","","-8.3","","82","","25","","22","","8.0","","98.76","","","","-13","","Snow"
"2000-12-07 00:00","2000","12","07","00:00","-5.9","","-8.1","","84","","26","","19","","8.0","","98.73","","","","-13","","Snow"
"2000-12-07 01:00","2000","12","07","01:00","-6.1","","-7.5","","90","","27","","17","","8.0","","98.73","","","","-12","","Snow"
"2000-12-07 02:00","2000","12","07","02:00","-6.5","","-9.6","","79","","31","","17","","19.3","","98.80","","","","-13","","Snow"
"2000-12-07 03:00","2000","12","07","03:00","-7.7","","-13.5","","63","","30","","17","","24.1","","98.90","","","","-14","","Mostly Cloudy"
"2000-12-07 04:00","2000","12","07","04:00","-8.0","","-13.9","","62","","30","","15","","25.0","","98.93","","","","-14","","Mostly Cloudy"
"2000-12-07 05:00","2000","12","07","05:00","-8.2","","-13.2","","67","","31","","15","","25.0","","98.96","","","","-15","","Cloudy"
"2000-12-07 06:00","2000","12","07","06:00","-8.0","","-12.9","","68","","28","","13","","25.0","","98.96","","","","-14","","Mostly Cloudy"
"2000-12-07 07:00","2000","12","07","07:00","-8.4","","-12.8","","71","","31","","6","","25.0","","99.00","","","","-12","","Mostly Cloudy"
"2000-12-07 08:00","2000","12","07","08:00","-7.9","","-11.8","","74","","25","","7","","19.3","","99.03","","","","-12","","Cloudy"
"2000-12-07 09:00","2000","12","07","09:00","-7.4","","-11.8","","71","","22","","9","","12.9","","99.03","","","","-12","","Cloudy"
"2000-12-07 10:00","2000","12","07","10:00","-7.5","","-10.4","","80","","22","","7","","4.0","","99.06","","","","-11","","Snow"
"2000-12-07 11:00","2000","12","07","11:00","-7.4","","-9.3","","86","","22","","7","","3.2","","99.10","","","","-11","","Snow"
"2000-12-07 12:00","2000","12","07","12:00","-6.9","","-8.8","","86","","21","","6","","2.4","","99.03","","","","-10","","Snow"
"2000-12-07 13:00","2000","12","07","13:00","-6.4","","-7.9","","89","","18","","6","","1.6","","98.90","","","","-9","","Snow"
"2000-12-07 14:00","2000","12","07","14:00","-5.7","","-7.6","","86","","20","","7","","2.8","","98.83","","","","-9","","Snow"
"2000-12-07 15:00","2000","12","07","15:00","-5.6","","-7.0","","90","","16","","9","","3.2","","98.80","","","","-10","","Snow"
"2000-12-07 16:00","2000","12","07","16:00","-6.0","","-7.0","","93","","13","","11","","3.2","","98.80","","","","-11","","Snow"
"2000-12-07 17:00","2000","12","07","17:00","-6.0","","-6.8","","94","","11","","9","","3.2","","98.73","","","","-10","","Snow"
"2000-12-07 18:00","2000","12","07","18:00","-5.9","","-6.8","","93","","11","","11","","3.2","","98.73","","","","-11","","Snow"
"2000-12-07 19:00","2000","12","07","19:00","-5.9","","-6.7","","94","","9","","11","","3.2","","98.76","","","","-11","","Snow"
"2000-12-07 20:00","2000","12","07","20:00","-5.6","","-6.3","","95","","8","","11","","3.2","","98.73","","","","-10","","Snow"
"2000-12-07 21:00","2000","12","07","21:00","-5.4","","-6.2","","94","","8","","11","","3.2","","98.73","","","","-10","","Snow"
"2000-12-07 22:00","2000","12","07","22:00","-5.2","","-6.0","","94","","9","","11","","2.4","","98.63","","","","-10","","Snow"
"2000-12-07 23:00","2000","12","07","23:00","-4.5","","-5.1","","96","","7","","11","","2.4","","98.66","","","","-9","","Snow"
"2000-12-08 00:00","2000","12","08","00:00","-4.0","","-4.7","","95","","5","","11","","3.2","","98.66","","","","-8","","Snow"
"2000-12-08 01:00","2000","12","08","01:00","-3.8","","-4.5","","95","","5","","15","","4.8","","98.66","","","","-9","","Snow"
"2000-12-08 02:00","2000","12","08","02:00","-4.2","","-4.9","","95","","7","","9","","6.4","","98.66","","","","-8","","Fog"
"2000-12-08 03:00","2000","12","08","03:00","-4.3","","-5.0","","95","","6","","9","","4.8","","98.76","","","","-8","","Fog"
"2000-12-08 04:00","2000","12","08","04:00","-4.1","","-5.0","","93","","1","","13","","4.8","","98.80","","","","-9","","Fog"
"2000-12-08 05:00","2000","12","08","05:00","-4.7","","-5.7","","93","","2","","9","","4.8","","98.86","","","","-9","","Fog"
"2000-12-08 06:00","2000","12","08","06:00","-4.6","","-5.7","","92","","36","","6","","4.8","","98.90","","","","-7","","Fog"
"2000-12-08 07:00","2000","12","08","07:00","-5.2","","-6.3","","92","","35","","7","","6.4","","99.00","","","","-8","","Fog"
"2000-12-08 08:00","2000","12","08","08:00","-4.8","","-6.1","","91","","36","","4","","4.8","","99.06","","","","-7","","Snow Showers,Fog"
"2000-12-08 09:00","2000","12","08","09:00","-4.5","","-5.6","","92","","","","0","","2.4","","99.16","","","","","","Snow Showers,Fog"
"2000-12-08 10:00","2000","12","08","10:00","-3.5","","-4.7","","91","","","","0","","2.0","","99.23","","","","","","Snow,Fog"
"2000-12-08 11:00","2000","12","08","11:00","-3.0","","-4.2","","91","","29","","7","","3.6","","99.30","","","","-6","","Snow,Fog"
"2000-12-08 12:00","2000","12","08","12:00","-2.4","","-4.5","","85","","31","","17","","4.0","","99.33","","","","-8","","Snow,Fog"
"2000-12-08 13:00","2000","12","08","13:00","-1.9","","-5.5","","76","","30","","19","","12.9","","99.33","","","","-7","","Mostly Cloudy"
"2000-12-08 14:00","2000","12","08","14:00","-1.4","","-5.9","","71","","29","","17","","16.1","","99.36","","","","-7","","Mainly Clear"
"2000-12-08 15:00","2000","12","08","15:00","-1.6","","-6.6","","69","","30","","26","","16.1","","99.50","","","","-8","","Mostly Cloudy"
"2000-12-08 16:00","2000","12","08","16:00","-2.2","","-7.8","","65","","29","","26","","19.3","","99.60","","","","-9","","Snow"
"2000-12-08 17:00","2000","12","08","17:00","-2.5","","-7.3","","70","","29","","20","","19.3","","99.70","","","","-8","","Snow"
"2000-12-08 18:00","2000","12","08","18:00","-2.9","","-8.3","","66","","30","","24","","24.1","","99.83","","","","-10","","Snow"
"2000-12-08 19:00","2000","12","08","19:00","-3.7","","-9.8","","63","","29","","19","","25.0","","99.96","","","","-10","","Snow"
"2000-12-08 20:00","2000","12","08","20:00","-4.7","","-10.3","","65","","29","","17","","25.0","","100.03","","","","-11","","Mainly Clear"
"2000-12-08 21:00","2000","12","08","21:00","-5.1","","-10.7","","65","","29","","19","","25.0","","100.13","","","","-12","","Mainly Clear"
"2000-12-08 22:00","2000","12","08","22:00","-5.7","","-10.5","","69","","28","","17","","25.0","","100.19","","","","-12","","Clear"
"2000-12-08 23:00","2000","12","08","23:00","-6.3","","-10.4","","73","","28","","15","","25.0","","100.23","","","","-12","","Clear"
"2000-12-09 00:00","2000","12","09","00:00","-7.0","","-10.5","","76","","29","","13","","24.1","","100.29","","","","-13","","Clear"
"2000-12-09 01:00","2000","12","09","01:00","-7.9","","-11.0","","78","","29","","13","","24.1","","100.33","","","","-14","","Clear"
"2000-12-09 02:00","2000","12","09","02:00","-8.4","","-11.0","","81","","27","","11","","24.1","","100.39","","","","-14","","Clear"
"2000-12-09 03:00","2000","12","09","03:00","-8.7","","-11.1","","83","","29","","11","","24.1","","100.46","","","","-14","","Clear"
"2000-12-09 04:00","2000","12","09","04:00","-9.9","","-11.4","","89","","27","","6","","16.1","","100.43","","","","-13","","Clear"
"2000-12-09 05:00","2000","12","09","05:00","-10.5","","-11.8","","90","","26","","9","","16.1","","100.49","","","","-15","","Clear"
"2000-12-09 06:00","2000","12","09","06:00","-10.5","","-12.1","","88","","25","","9","","16.1","","100.53","","","","-15","","Clear"
"2000-12-09 07:00","2000","12","09","07:00","-10.7","","-11.8","","92","","26","","6","","16.1","","100.59","","","","-14","","Clear"
"2000-12-09 08:00","2000","12","09","08:00","-11.2","","-12.2","","92","","22","","7","","11.3","","100.63","","","","-15","","Mainly Clear"
"2000-12-09 09:00","2000","12","09","09:00","-9.4","","-10.4","","92","","22","","6","","11.3","","100.69","","","","-13","","Mainly Clear"
"2000-12-09 10:00","2000","12","09","10:00","-7.2","","-9.3","","85","","23","","6","","12.9","","100.73","","","","-10","","Mostly Cloudy"
"2000-12-09 11:00","2000","12","09","11:00","-5.3","","-9.3","","73","","22","","9","","16.1","","100.69","","","","-9","","Mostly Cloudy"
"2000-12-09 12:00","2000","12","09","12:00","-4.1","","-8.6","","71","","22","","15","","19.3","","100.59","","","","-9","","Mostly Cloudy"
"2000-12-09 13:00","2000","12","09","13:00","-3.9","","-8.9","","68","","21","","15","","19.3","","100.53","","","","-9","","Mostly Cloudy"
"2000-12-09 14:00","2000","12","09","14:00","-3.6","","-8.5","","69","","20","","15","","19.3","","100.43","","","","-9","","Mostly Cloudy"
"2000-12-09 15:00","2000","12","09","15:00","-3.8","","-8.9","","68","","21","","13","","19.3","","100.46","","","","-9","","Mostly Cloudy"
"2000-12-09 16:00","2000","12","09","16:00","-4.5","","-8.7","","72","","20","","11","","24.1","","100.43","","","","-9","","Cloudy"
"2000-12-09 17:00","2000","12","09","17:00","-5.5","","-9.3","","75","","18","","7","","24.1","","100.39","","","","-9","","Cloudy"
"2000-12-09 18:00","2000","12","09","18:00","-5.9","","-9.1","","78","","16","","7","","25.0","","100.33","","","","-9","","Mostly Cloudy"
"2000-12-09 19:00","2000","12","09","19:00","-5.7","","-8.9","","78","","13","","6","","25.0","","100.29","","","","-9","","Cloudy"
"2000-12-09 20:00","2000","12","09","20:00","-6.2","","-9.0","","81","","11","","4","","25.0","","100.23","","","","-8","","Cloudy"
"2000-12-09 21:00","2000","12","09","21:00","-6.6","","-9.1","","82","","","","0","","25.0","","100.19","","","","","","Mostly Cloudy"
"2000-12-09 22:00","2000","12","09","22:00","-7.5","","-9.6","","85","","14","","4","","25.0","","100.13","","","","-10","","Clear"
"2000-12-09 23:00","2000","12","09","23:00","-7.5","","-9.7","","84","","18","","4","","25.0","","100.06","","","","-10","","Mostly Cloudy"
"2000-12-10 00:00","2000","12","10","00:00","-5.7","","-8.0","","84","","16","","4","","19.3","","99.99","","","","-8","","Mostly Cloudy"
"2000-12-10 01:00","2000","12","10","01:00","-4.2","","-7.0","","81","","17","","7","","24.1","","99.90","","","","-7","","Mostly Cloudy"
"2000-12-10 02:00","2000","12","10","02:00","-2.8","","-6.4","","76","","20","","6","","24.1","","99.83","","","","-5","","Mostly Cloudy"
"2000-12-10 03:00","2000","12","10","03:00","-2.8","","-6.6","","75","","18","","13","","24.1","","99.76","","","","-7","","Mostly Cloudy"
"2000-12-10 04:00","2000","12","10","04:00","-2.7","","-6.5","","75","","20","","7","","24.1","","99.70","","","","-6","","Cloudy"
"2000-12-10 05:00","2000","12","10","05:00","-2.9","","-6.2","","78","","22","","4","","24.1","","99.70","","","","-4","","Cloudy"
"2000-12-10 06:00","2000","12","10","06:00","-3.0","","-6.1","","79","","22","","6","","19.3","","99.63","","","","-5","","Mostly Cloudy"
"2000-12-10 07:00","2000","12","10","07:00","-2.6","","-5.9","","78","","23","","6","","19.3","","99.60","","","","-5","","Cloudy"
"2000-12-10 08:00","2000","12","10","08:00","-2.9","","-6.2","","78","","22","","6","","12.9","","99.56","","","","-5","","Mostly Cloudy"
"2000-12-10 09:00","2000","12","10","09:00","-2.1","","-5.5","","77","","20","","7","","16.1","","99.56","","","","-5","","Mostly Cloudy"
"2000-12-10 10:00","2000","12","10","10:00","-1.2","","-5.1","","75","","21","","11","","16.1","","99.56","","","","-5","","Cloudy"
"2000-12-10 11:00","2000","12","10","11:00","-0.4","","-4.8","","72","","23","","13","","16.1","","99.56","","","","-5","","Cloudy"
"2000-12-10 12:00","2000","12","10","12:00","0.1","","-4.7","","70","","22","","13","","12.9","","99.46","","","","","","Cloudy"
"2000-12-10 13:00","2000","12","10","13:00","0.4","","-4.5","","70","","24","","15","","12.9","","99.43","","","","","","Cloudy"
"2000-12-10 14:00","2000","12","10","14:00","-0.3","","-3.6","","78","","25","","17","","4.8","","99.46","","","","-5","","Snow Showers"
"2000-12-10 15:00","2000","12","10","15:00","-0.9","","-2.1","","92","","23","","13","","4.0","","99.46","","","","-5","","Snow"
"2000-12-10 16:00","2000","12","10","16:00","-0.7","","-2.2","","90","","25","","15","","4.8","","99.56","","","","-5","","Snow"
"2000-12-10 17:00","2000","12","10","17:00","-0.5","","-2.1","","89","","25","","11","","4.0","","99.63","","","","-4","","Fog"
"2000-12-10 18:00","2000","12","10","18:00","-0.3","","-2.0","","88","","26","","7","","8.0","","99.70","","","","-3","","Fog"
"2000-12-10 19:00","2000","12","10","19:00","-0.3","","-2.0","","88","","23","","7","","8.0","","99.73","","","","-3","","Fog"
"2000-12-10 20:00","2000","12","10","20:00","-0.2","","-1.8","","89","","25","","13","","8.0","","99.76","","","","-4","","Fog"
"2000-12-10 21:00","2000","12","10","21:00","-0.1","","-1.7","","89","","27","","7","","8.0","","99.83","","","","-3","","Fog"
"2000-12-10 22:00","2000","12","10","22:00","0.1","","-1.6","","88","","30","","7","","8.0","","99.83","","","","","","Fog"
"2000-12-10 23:00","2000","12","10","23:00","0.4","","-1.5","","87","","33","","9","","8.0","","99.86","","","","","","Fog"
"2000-12-11 00:00","2000","12","11","00:00","0.4","","-1.4","","88","","35","","6","","6.4","","99.83","","","","","","Fog"
"2000-12-11 01:00","2000","12","11","01:00","0.3","","-1.4","","88","","2","","6","","6.4","","99.86","","","","","","Fog"
"2000-12-11 02:00","2000","12","11","02:00","0.4","","-1.5","","87","","15","","6","","4.8","","99.86","","","","","","Fog"
"2000-12-11 03:00","2000","12","11","03:00","-0.3","","-1.6","","91","","7","","9","","4.8","","99.90","","","","-3","","Fog"
"2000-12-11 04:00","2000","12","11","04:00","-0.1","","-1.3","","92","","3","","7","","4.0","","99.86","","","","-3","","Fog"
"2000-12-11 05:00","2000","12","11","05:00","-0.3","","-1.2","","94","","4","","13","","3.2","","99.83","","","","-4","","Snow,Fog"
"2000-12-11 06:00","2000","12","11","06:00","-1.4","","-2.3","","94","","4","","17","","3.2","","99.80","","","","-7","","Fog"
"2000-12-11 07:00","2000","12","11","07:00","-2.1","","-4.0","","87","","4","","20","","11.3","","99.76","","","","-8","","Snow"
"2000-12-11 08:00","2000","12","11","08:00","-2.1","","-4.3","","85","","5","","17","","19.3","","99.70","","","","-7","","Snow"
"2000-12-11 09:00","2000","12","11","09:00","-1.4","","-2.5","","92","","7","","20","","8.0","","99.56","","","","-7","","Snow"
"2000-12-11 10:00","2000","12","11","10:00","-0.9","","-2.6","","88","","7","","24","","16.1","","99.43","","","","-7","","Cloudy"
"2000-12-11 11:00","2000","12","11","11:00","-1.0","","-2.4","","90","","7","","20","","6.4","","99.33","","","","-7","","Freezing Rain,Snow"
"2000-12-11 12:00","2000","12","11","12:00","-1.5","","-2.1","","96","","5","","22","","1.2","","99.16","","","","-7","","Snow"
"2000-12-11 13:00","2000","12","11","13:00","-1.6","","-2.0","","97","","6","","30","","0.6","","98.90","","","","-9","","Moderate Snow"
"2000-12-11 14:00","2000","12","11","14:00","-1.8","","-2.2","","97","","7","","32","","0.6","","98.66","","","","-9","","Moderate Snow"
"2000-12-11 15:00","2000","12","11","15:00","-1.9","","-2.2","","98","","6","","33","","0.6","","98.43","","","","-9","","Moderate Snow"
"2000-12-11 16:00","2000","12","11","16:00","-1.5","","-2.0","","96","","6","","33","","2.4","","98.27","","","","-9","","Snow,Ice Pellets"
"2000-12-11 17:00","2000","12","11","17:00","-1.1","","-1.5","","97","","5","","26","","2.4","","98.17","","","","-7","","Freezing Rain,Ice Pellets"
"2000-12-11 18:00","2000","12","11","18:00","-1.3","","-1.6","","98","","4","","24","","3.2","","98.00","","","","-7","","Freezing Rain,Fog"
"2000-12-11 19:00","2000","12","11","19:00","-1.9","","-2.5","","96","","3","","24","","3.2","","97.80","","","","-8","","Freezing Rain,Fog"
"2000-12-11 20:00","2000","12","11","20:00","-2.0","","-2.6","","96","","4","","20","","3.2","","97.63","","","","-8","","Freezing Rain,Fog"
"2000-12-11 21:00","2000","12","11","21:00","-2.5","","-3.2","","95","","3","","20","","9.7","","97.37","","","","-8","","Snow"
"2000-12-11 22:00","2000","12","11","22:00","-2.7","","-3.3","","96","","4","","22","","1.6","","97.07","","","","-9","","Freezing Rain,Snow"
"2000-12-11 23:00","2000","12","11","23:00","-2.7","","-3.3","","96","","36","","52","E","1.6","","96.87","","","","-12","E","Freezing Rain,Snow,Ice Pellets"
"2000-12-12 00:00","2000","12","12","00:00","-3.9","","-4.9","","93","","36","","24","E","3.6","","96.87","","","","-11","E","Snow"
"2000-12-12 01:00","2000","12","12","01:00","-3.6","","-4.2","","96","","32","","26","E","0.8","","97.14","","","","-11","E","Moderate Snow"
"2000-12-12 02:00","2000","12","12","02:00","-2.9","","-3.5","","96","","32","","28","E","1.2","","97.43","","","","-10","E","Snow"
"2000-12-12 03:00","2000","12","12","03:00","-4.2","","-5.1","","93","","32","","33","E","1.6","","98.00","","","","-12","E","Snow,Blowing Snow"
"2000-12-12 04:00","2000","12","12","04:00","-6.1","","-8.1","","86","","32","","28","E","3.2","","98.50","","","","-14","E","Snow,Blowing Snow"
"2000-12-12 05:00","2000","12","12","05:00","-6.1","","-8.8","","81","","32","","30","E","16.1","","98.86","","","","-14","E","Snow"
"2000-12-12 06:00","2000","12","12","06:00","-6.8","","-10.0","","78","","27","","28","E","24.1","","99.16","","","","-15","E","Mainly Clear"
"2000-12-12 07:00","2000","12","12","07:00","-7.6","","-12.6","","67","","27","","19","E","24.1","","99.50","","","","-15","E","Mainly Clear"
"2000-12-12 08:00","2000","12","12","08:00","-7.9","","-14.0","","62","","27","","19","E","24.1","","99.76","","","","-15","E","Mainly Clear"
"2000-12-12 09:00","2000","12","12","09:00","-7.6","","-12.9","","66","","27","","19","E","25.0","","99.96","","","","-15","E","Mainly Clear"
"2000-12-12 10:00","2000","12","12","10:00","-7.3","","-14.2","","58","","32","","28","E","25.0","","100.16","","","","-16","E","Clear"
"2000-12-12 11:00","2000","12","12","11:00","-7.1","","-13.9","","58","","32","","19","E","25.0","","100.26","","","","-14","E","Clear"
"2000-12-12 12:00","2000","12","12","12:00","-6.3","","-13.7","","56","","32","","19","E","25.0","","100.29","","","","-13","E","Clear"
"2000-12-12 13:00","2000","12","12","13:00","-5.8","","-11.7","","63","","27","","19","E","25.0","","100.33","","","","-12","E","Mainly Clear"
"2000-12-12 14:00","2000","12","12","14:00","-5.6","","-11.4","","64","","27","","19","E","25.0","","100.39","","","","-12","E","Mainly Clear"
"2000-12-12 15:00","2000","12","12","15:00","-5.5","","-11.3","","64","","27","","9","","25.0","","100.53","","","","-10","","Mostly Cloudy"
"2000-12-12 16:00","2000","12","12","16:00","-5.4","","-11.5","","62","","30","","11","","24.1","","100.69","","","","-10","","Mostly Cloudy"
"2000-12-12 17:00","2000","12","12","17:00","-6.3","","-11.8","","65","","28","","6","","24.1","","100.73","","","","-9","","Mostly Cloudy"
"2000-12-12 18:00","2000","12","12","18:00","-7.6","","-12.0","","71","","","","0","","24.1","","100.79","","","","","","Mostly Cloudy"
"2000-12-12 19:00","2000","12","12","19:00","-9.2","","-11.4","","84","","","","0","","24.1","","100.83","","","","","","Mostly Cloudy"
"2000-12-12 20:00","2000","12","12","20:00","-9.1","","-11.0","","86","","18","","4","","24.1","","100.93","","","","-11","","Mostly Cloudy"
"2000-12-12 21:00","2000","12","12","21:00","-9.1","","-11.4","","83","","16","","6","","24.1","","100.93","","","","-12","","Mostly Cloudy"
"2000-12-12 22:00","2000","12","12","22:00","-8.8","","-11.0","","84","","18","","6","","24.1","","100.89","","","","-12","","Mostly Cloudy"
"2000-12-12 23:00","2000","12","12","23:00","-9.0","","-11.0","","85","","23","","4","","24.1","","100.99","","","","-11","","Mostly Cloudy"
"2000-12-13 00:00","2000","12","13","00:00","-9.6","","-10.7","","92","","22","","6","","24.1","","100.99","","","","-13","","Mainly Clear"
"2000-12-13 01:00","2000","12","13","01:00","-10.1","","-10.9","","94","","23","","6","","24.1","","101.03","","","","-14","","Clear"
"2000-12-13 02:00","2000","12","13","02:00","-10.6","","-11.5","","93","","22","","7","","24.1","","101.03","","","","-15","","Clear"
"2000-12-13 03:00","2000","12","13","03:00","-11.6","","-12.7","","92","","22","","7","","24.1","","101.09","","","","-16","","Clear"
"2000-12-13 04:00","2000","12","13","04:00","-11.9","","-13.1","","91","","24","","7","","24.1","","101.13","","","","-16","","Clear"
"2000-12-13 05:00","2000","12","13","05:00","-12.2","","-13.6","","89","","26","","7","","24.1","","101.16","","","","-17","","Clear"
"2000-12-13 06:00","2000","12","13","06:00","-12.7","","-14.2","","89","","27","","6","","24.1","","101.13","","","","-17","","Clear"
"2000-12-13 07:00","2000","12","13","07:00","-12.9","","-14.3","","89","","26","","4","","24.1","","101.19","","","","-16","","Mainly Clear"
"2000-12-13 08:00","2000","12","13","08:00","-12.5","","-14.2","","87","","26","","6","","16.1","","101.26","","","","-16","","Cloudy"
"2000-12-13 09:00","2000","12","13","09:00","-11.7","","-13.1","","89","","26","","7","","16.1","","101.33","","","","-16","","Cloudy"
"2000-12-13 10:00","2000","12","13","10:00","-10.7","","-12.2","","89","","","","0","","16.1","","101.23","","","","","","Cloudy"
"2000-12-13 11:00","2000","12","13","11:00","-9.4","","-11.2","","87","","27","","4","","16.1","","101.23","","","","-12","","Cloudy"
"2000-12-13 12:00","2000","12","13","12:00","-8.7","","-10.6","","86","","","","0","","14.5","","101.13","","","","","","Cloudy"
"2000-12-13 13:00","2000","12","13","13:00","-8.5","","-10.7","","84","","12","","4","","12.9","","101.09","","","","-11","","Cloudy"
"2000-12-13 14:00","2000","12","13","14:00","-8.3","","-10.1","","87","","8","","6","","12.9","","100.99","","","","-12","","Cloudy"
"2000-12-13 15:00","2000","12","13","15:00","-7.2","","-9.6","","83","","6","","6","","16.1","","100.89","","","","-10","","Cloudy"
"2000-12-13 16:00","2000","12","13","16:00","-7.1","","-9.4","","84","","5","","6","","1.2","","100.93","","","","-10","","Snow"
"2000-12-13 17:00","2000","12","13","17:00","-7.1","","-8.0","","93","","6","","9","","0.8","","100.76","","","","-11","","Moderate Snow"
"2000-12-13 18:00","2000","12","13","18:00","-6.3","","-7.1","","94","","6","","15","","1.2","","100.49","","","","-12","","Snow"
"2000-12-13 19:00","2000","12","13","19:00","-5.9","","-6.8","","93","","8","","15","","1.2","","100.39","","","","-12","","Snow"
"2000-12-13 20:00","2000","12","13","20:00","-5.5","","-6.3","","94","","7","","17","","1.0","","100.23","","","","-12","","Snow"
"2000-12-13 21:00","2000","12","13","21:00","-5.2","","-5.8","","96","","7","","15","","1.6","","99.99","","","","-11","","Snow"
"2000-12-13 22:00","2000","12","13","22:00","-4.9","","-5.6","","95","","8","","11","","1.2","","99.93","","","","-9","","Snow"
"2000-12-13 23:00","2000","12","13","23:00","-4.5","","-5.1","","96","","8","","11","","0.8","","99.70","","","","-9","","Moderate Snow"
"2000-12-14 00:00","2000","12","14","00:00","-3.3","","-3.8","","96","","10","","9","","1.0","","99.63","","","","-7","","Snow"
"2000-12-14 01:00","2000","12","14","01:00","-3.2","","-3.6","","97","","9","","11","","0.6","","99.50","","","","-7","","Moderate Snow"
"2000-12-14 02:00","2000","12","14","02:00","-3.2","","-3.5","","98","","8","","7","","0.6","","99.50","","","","-6","","Moderate Snow"
"2000-12-14 03:00","2000","12","14","03:00","-3.2","","-3.6","","97","","6","","11","","4.8","","99.40","","","","-7","","Snow"
"2000-12-14 04:00","2000","12","14","04:00","-2.8","","-3.2","","97","","4","","9","","4.8","","99.40","","","","-6","","Snow"
"2000-12-14 05:00","2000","12","14","05:00","-4.1","","-4.7","","96","","35","","9","","4.8","","99.43","","","","-8","","Snow,Fog"
"2000-12-14 06:00","2000","12","14","06:00","-4.2","","-5.0","","94","","35","","6","","8.0","","99.53","","","","-7","","Snow,Fog"
"2000-12-14 07:00","2000","12","14","07:00","-4.0","","-4.7","","95","","36","","7","","8.0","","99.46","","","","-7","","Snow,Fog"
"2000-12-14 08:00","2000","12","14","08:00","-3.9","","-4.7","","94","","35","","7","","6.4","","99.56","","","","-7","","Snow,Fog"
"2000-12-14 09:00","2000","12","14","09:00","-3.6","","-4.4","","94","","31","","6","","6.4","","99.80","","","","-6","","Snow,Fog"
"2000-12-14 10:00","2000","12","14","10:00","-3.3","","-4.1","","94","","29","","9","","3.2","","99.96","","","","-7","","Snow,Fog"
"2000-12-14 11:00","2000","12","14","11:00","-2.9","","-3.9","","93","","29","","6","","4.8","","99.96","","","","-5","","Snow,Fog"
"2000-12-14 12:00","2000","12","14","12:00","-2.4","","-3.8","","90","","29","","9","","8.0","","99.99","","","","-6","","Snow,Fog"
"2000-12-14 13:00","2000","12","14","13:00","-2.3","","-3.8","","89","","31","","7","","8.0","","100.06","","","","-5","","Snow,Fog"
"2000-12-14 14:00","2000","12","14","14:00","-2.2","","-4.0","","87","","33","","9","","9.7","","100.13","","","","-6","","Fog"
"2000-12-14 15:00","2000","12","14","15:00","-2.7","","-4.4","","88","","29","","13","","9.7","","100.26","","","","-7","","Fog"
"2000-12-14 16:00","2000","12","14","16:00","-2.5","","-4.3","","87","","29","","9","","12.9","","100.39","","","","-6","","Cloudy"
"2000-12-14 17:00","2000","12","14","17:00","-2.7","","-4.6","","87","","33","","9","","24.1","","100.49","","","","-6","","Cloudy"
"2000-12-14 18:00","2000","12","14","18:00","-4.0","","-6.1","","85","","26","","6","","24.1","","100.59","","","","-7","","Mostly Cloudy"
"2000-12-14 19:00","2000","12","14","19:00","-5.2","","-6.6","","90","","25","","6","","24.1","","100.66","","","","-8","","Mostly Cloudy"
"2000-12-14 20:00","2000","12","14","20:00","-5.4","","-6.6","","91","","26","","7","","16.1","","100.73","","","","-9","","Mainly Clear"
"2000-12-14 21:00","2000","12","14","21:00","-6.1","","-7.0","","93","","27","","9","","16.1","","100.79","","","","-10","","Mostly Cloudy"
"2000-12-14 22:00","2000","12","14","22:00","-6.3","","-7.4","","92","","26","","9","","16.1","","100.93","","","","-11","","Mainly Clear"
"2000-12-14 23:00","2000","12","14","23:00","-7.9","","-8.4","","96","","23","","4","","12.9","","100.89","","","","-10","","Clear"
"2000-12-15 00:00","2000","12","15","00:00","-10.6","","-11.3","","95","","21","","6","","12.9","","100.89","","","","-14","","Clear"
"2000-12-15 01:00","2000","12","15","01:00","-9.1","","-9.8","","95","","23","","7","","12.9","","100.96","","","","-13","","Clear"
"2000-12-15 02:00","2000","12","15","02:00","-9.7","","-10.2","","96","","23","","4","","4.8","","100.96","","","","-12","","Fog"
"2000-12-15 03:00","2000","12","15","03:00","-10.4","","-11.3","","93","","21","","4","","1.6","","100.99","","","","-13","","Fog"
"2000-12-15 04:00","2000","12","15","04:00","-11.2","","-12.1","","93","","","","0","","0.0","","100.96","","","","","","Freezing Fog"
"2000-12-15 05:00","2000","12","15","05:00","-10.2","","-10.6","","97","","19","","4","","0.0","","100.93","","","","-13","","Freezing Fog"
"2000-12-15 06:00","2000","12","15","06:00","-7.9","","-8.5","","95","","25","","6","","1.2","","100.99","","","","-11","","Fog"
"2000-12-15 07:00","2000","12","15","07:00","-8.3","","-8.5","","98","","25","","4","","2.0","","100.99","","","","-10","","Fog"
"2000-12-15 08:00","2000","12","15","08:00","-8.7","","-9.1","","97","","","","0","","1.6","","101.06","","","","","","Fog"
"2000-12-15 09:00","2000","12","15","09:00","-7.6","","-8.1","","96","","","","0","","4.8","","101.06","","","","","","Fog"
"2000-12-15 10:00","2000","12","15","10:00","-6.5","","-6.9","","97","","21","","6","","4.8","","101.06","","","","-9","","Fog"
"2000-12-15 11:00","2000","12","15","11:00","-5.4","","-6.0","","96","","","","0","","6.4","","100.93","","","","","","Fog"
"2000-12-15 12:00","2000","12","15","12:00","-4.9","","-5.8","","93","","18","","7","","8.0","","100.79","","","","-8","","Fog"
"2000-12-15 13:00","2000","12","15","13:00","-4.6","","-5.9","","91","","18","","11","","9.7","","100.73","","","","-9","","Fog"
"2000-12-15 14:00","2000","12","15","14:00","-4.0","","-6.1","","85","","18","","9","","9.7","","100.56","","","","-8","","Fog"
"2000-12-15 15:00","2000","12","15","15:00","-3.7","","-5.9","","85","","15","","11","","12.9","","100.36","","","","-8","","Cloudy"
"2000-12-15 16:00","2000","12","15","16:00","-3.5","","-5.5","","86","","15","","6","","11.3","","100.36","","","","-6","","Cloudy"
"2000-12-15 17:00","2000","12","15","17:00","-3.4","","-4.6","","91","","","","0","","8.0","","100.33","","","","","","Fog"
"2000-12-15 18:00","2000","12","15","18:00","-3.9","","-4.9","","93","","7","","4","","8.0","","100.26","","","","-6","","Fog"
"2000-12-15 19:00","2000","12","15","19:00","-3.6","","-4.5","","93","","7","","6","","8.0","","100.19","","","","-6","","Fog"
"2000-12-15 20:00","2000","12","15","20:00","-3.4","","-4.2","","94","","","","0","","6.4","","100.09","","","","","","Fog"
"2000-12-15 21:00","2000","12","15","21:00","-3.5","","-4.3","","94","","9","","7","","8.0","","99.96","","","","-6","","Fog"
"2000-12-15 22:00","2000","12","15","22:00","-2.4","","-3.2","","94","","","","0","","4.8","","99.96","","","","","","Snow Showers,Fog"
"2000-12-15 23:00","2000","12","15","23:00","-2.1","","-2.5","","97","","9","","4","","4.8","","99.93","","","","-4","","Fog"
"2000-12-16 00:00","2000","12","16","00:00","-1.8","","-2.4","","96","","9","","7","","8.0","","99.76","","","","-4","","Fog"
"2000-12-16 01:00","2000","12","16","01:00","-0.6","","-1.5","","94","","12","","7","","9.7","","99.70","","","","-3","","Fog"
"2000-12-16 02:00","2000","12","16","02:00","0.1","","-0.7","","94","","12","","9","","8.0","","99.63","","","","","","Rain,Fog"
"2000-12-16 03:00","2000","12","16","03:00","0.7","","-0.2","","94","","12","","11","","8.0","","99.56","","","","","","Rain,Fog"
"2000-12-16 04:00","2000","12","16","04:00","0.8","","-0.1","","94","","12","","13","","9.7","","99.43","","","","","","Rain,Fog"
"2000-12-16 05:00","2000","12","16","05:00","1.1","","0.3","","94","","11","","24","","11.3","","99.23","","","","","","Rain"
"2000-12-16 06:00","2000","12","16","06:00","1.4","","0.5","","94","","13","","19","","11.3","","99.20","","","","","","Cloudy"
"2000-12-16 07:00","2000","12","16","07:00","1.9","","0.6","","91","","13","","17","","11.3","","99.10","","","","","","Cloudy"
"2000-12-16 08:00","2000","12","16","08:00","1.8","","1.2","","96","","13","","20","","1.6","","99.03","","","","","","Rain,Fog"
"2000-12-16 09:00","2000","12","16","09:00","1.7","","1.5","","99","","14","","17","","2.0","","98.96","","","","","","Rain,Fog"
"2000-12-16 10:00","2000","12","16","10:00","2.2","","2.1","","99","","13","","20","","2.4","","98.76","","","","","","Rain,Fog"
"2000-12-16 11:00","2000","12","16","11:00","2.8","","2.5","","98","","14","","20","","4.8","","98.60","","","","","","Rain,Fog"
"2000-12-16 12:00","2000","12","16","12:00","2.7","","2.3","","97","","16","","19","","1.6","","98.40","","","","","","Rain,Fog"
"2000-12-16 13:00","2000","12","16","13:00","3.0","","2.8","","99","","16","","13","","1.2","","98.30","","","","","","Rain,Fog"
"2000-12-16 14:00","2000","12","16","14:00","2.9","","2.8","","99","","15","","7","","1.6","","98.13","","","","","","Fog"
"2000-12-16 15:00","2000","12","16","15:00","2.9","","2.9","","100","","12","","9","","0.4","","98.07","","","","","","Rain,Fog"
"2000-12-16 16:00","2000","12","16","16:00","2.8","","2.8","","100","","16","","6","","0.4","","98.03","","","","","","Rain,Fog"
"2000-12-16 17:00","2000","12","16","17:00","2.5","","2.3","","99","","","","0","","0.2","","98.00","","","","","","Fog"
"2000-12-16 18:00","2000","12","16","18:00","1.9","","1.9","","100","","9","","4","","0.0","","97.93","","","","","","Fog"
"2000-12-16 19:00","2000","12","16","19:00","2.2","","2.2","","100","","10","","9","","0.0","","97.83","","","","","","Fog"
"2000-12-16 20:00","2000","12","16","20:00","2.1","","2.1","","100","","","","0","","0.4","","97.83","","","","","","Drizzle,Fog"
"2000-12-16 21:00","2000","12","16","21:00","1.6","","1.2","","97","","","","0","","0.2","","97.73","","","","","","Fog"
"2000-12-16 22:00","2000","12","16","22:00","2.6","","2.6","","100","","9","","6","","0.2","","97.57","","","","","","Drizzle,Fog"
"2000-12-16 23:00","2000","12","16","23:00","1.9","","1.8","","99","","2","","7","","0.2","","97.47","","","","","","Drizzle,Fog"
"2000-12-17 00:00","2000","12","17","00:00","2.7","","2.4","","98","","36","","13","","0.4","","97.30","","","","","","Rain,Fog"
"2000-12-17 01:00","2000","12","17","01:00","2.6","","2.6","","100","","1","","17","","4.0","","97.24","","","","","","Drizzle,Fog"
"2000-12-17 02:00","2000","12","17","02:00","2.2","","2.2","","100","","35","","11","","4.0","","97.17","","","","","","Drizzle,Fog"
"2000-12-17 03:00","2000","12","17","03:00","1.8","","1.7","","99","","32","","15","","3.6","","97.17","","","","","","Rain,Fog"
"2000-12-17 04:00","2000","12","17","04:00","1.5","","1.3","","99","","31","","17","","4.0","","97.20","","","","","","Rain,Fog"
"2000-12-17 05:00","2000","12","17","05:00","0.6","","0.3","","98","","31","","22","","3.2","","97.24","","","","","","Snow"
"2000-12-17 06:00","2000","12","17","06:00","0.8","","0.3","","96","","30","","26","","8.0","","97.30","","","","","","Snow"
"2000-12-17 07:00","2000","12","17","07:00","-0.2","","-0.5","","98","","29","","35","","4.8","","97.43","","","","-7","","Snow"
"2000-12-17 08:00","2000","12","17","08:00","-1.1","","-1.7","","96","","28","","28","","2.0","","97.60","","","","-8","","Snow"
"2000-12-17 09:00","2000","12","17","09:00","-1.4","","-2.0","","96","","27","","33","","1.6","","97.63","","","","-9","","Snow"
"2000-12-17 10:00","2000","12","17","10:00","-1.2","","-1.8","","96","","27","","30","","1.6","","97.70","","","","-8","","Snow"
"2000-12-17 11:00","2000","12","17","11:00","-1.5","","-2.1","","96","","27","","35","","1.2","","97.77","","","","-9","","Snow"
"2000-12-17 12:00","2000","12","17","12:00","-1.8","","-2.3","","96","","26","","30","","1.0","","97.77","","","","-9","","Snow"
"2000-12-17 13:00","2000","12","17","13:00","-1.8","","-2.4","","96","","26","","33","","1.6","","97.83","","","","-9","","Snow"
"2000-12-17 14:00","2000","12","17","14:00","-5.5","","-6.7","","91","","24","","33","","2.4","","97.93","","","","-14","","Snow"
"2000-12-17 15:00","2000","12","17","15:00","-5.0","","-6.6","","89","","24","","35","","4.0","","98.07","","","","-14","","Snow"
"2000-12-17 16:00","2000","12","17","16:00","-5.8","","-7.7","","86","","24","","33","","12.9","","98.23","","","","-14","","Snow"
"2000-12-17 17:00","2000","12","17","17:00","-7.0","","-8.6","","88","","25","","39","","2.4","","98.37","","","","-17","","Snow"
"2000-12-17 18:00","2000","12","17","18:00","-8.6","","-10.6","","85","","25","","41","","1.6","","98.53","","","","-19","","Snow"
"2000-12-17 19:00","2000","12","17","19:00","-9.7","","-12.2","","82","","25","","37","","4.8","","98.70","","","","-20","","Snow"
"2000-12-17 20:00","2000","12","17","20:00","-11.1","","-13.6","","82","","25","","32","","8.0","","98.83","","","","-21","","Snow"
"2000-12-17 21:00","2000","12","17","21:00","-11.7","","-14.3","","81","","24","","32","","12.9","","98.96","","","","-22","","Snow"
"2000-12-17 22:00","2000","12","17","22:00","-12.5","","-14.9","","82","","25","","41","","3.2","","99.03","","","","-24","","Snow"
"2000-12-17 23:00","2000","12","17","23:00","-13.3","","-15.3","","85","","25","","41","","2.4","","99.16","","","","-25","","Snow"
"2000-12-18 00:00","2000","12","18","00:00","-13.9","","-15.9","","85","","25","","41","","3.2","","99.26","","","","-26","","Snow,Blowing Snow"
"2000-12-18 01:00","2000","12","18","01:00","-14.1","","-16.4","","83","","26","","37","","3.2","","99.33","","","","-26","","Snow,Blowing Snow"
"2000-12-18 02:00","2000","12","18","02:00","-14.6","","-17.2","","81","","25","","37","","8.0","","99.43","","","","-27","","Snow,Blowing Snow"
"2000-12-18 03:00","2000","12","18","03:00","-14.9","","-17.4","","81","","25","","30","","12.9","","99.50","","","","-26","","Snow"
"2000-12-18 04:00","2000","12","18","04:00","-14.9","","-17.3","","82","","24","","24","","19.3","","99.50","","","","-25","","Clear"
"2000-12-18 05:00","2000","12","18","05:00","-15.0","","-17.4","","82","","25","","26","","19.3","","99.56","","","","-25","","Clear"
"2000-12-18 06:00","2000","12","18","06:00","-15.1","","-17.3","","83","","25","","20","","24.1","","99.66","","","","-24","","Clear"
"2000-12-18 07:00","2000","12","18","07:00","-15.3","","-17.5","","83","","24","","20","","24.1","","99.76","","","","-25","","Mainly Clear"
"2000-12-18 08:00","2000","12","18","08:00","-15.5","","-17.7","","83","","25","","17","","24.1","","99.76","","","","-24","","Mainly Clear"
"2000-12-18 09:00","2000","12","18","09:00","-14.7","","-16.9","","83","","24","","22","","24.1","","99.80","","","","-24","","Mostly Cloudy"
"2000-12-18 10:00","2000","12","18","10:00","-14.0","","-17.0","","78","","24","","22","","24.1","","99.80","","","","-23","","Mostly Cloudy"
"2000-12-18 11:00","2000","12","18","11:00","-13.0","","-16.5","","75","","24","","19","","24.1","","99.76","","","","-21","","Mostly Cloudy"
"2000-12-18 12:00","2000","12","18","12:00","-12.4","","-15.5","","78","","24","","19","","24.1","","99.73","","","","-21","","Cloudy"
"2000-12-18 13:00","2000","12","18","13:00","-11.7","","-15.2","","75","","24","","22","","24.1","","99.60","","","","-20","","Mostly Cloudy"
"2000-12-18 14:00","2000","12","18","14:00","-11.5","","-15.0","","75","","25","","17","","24.1","","99.63","","","","-19","","Mostly Cloudy"
"2000-12-18 15:00","2000","12","18","15:00","-10.9","","-14.8","","73","","25","","9","","19.3","","99.56","","","","-16","","Mostly Cloudy"
"2000-12-18 16:00","2000","12","18","16:00","-10.7","","-14.3","","75","","24","","4","","16.1","","99.50","","","","-13","","Cloudy"
"2000-12-18 17:00","2000","12","18","17:00","-10.5","","-13.9","","76","","18","","6","","16.1","","99.46","","","","-14","","Cloudy"
"2000-12-18 18:00","2000","12","18","18:00","-9.9","","-13.3","","76","","10","","19","","16.1","","99.16","","","","-18","","Cloudy"
"2000-12-18 19:00","2000","12","18","19:00","-9.4","","-12.6","","77","","14","","9","","24.1","","99.23","","","","-14","","Cloudy"
"2000-12-18 20:00","2000","12","18","20:00","-9.1","","-12.0","","79","","9","","6","","19.3","","99.13","","","","-12","","Cloudy"
"2000-12-18 21:00","2000","12","18","21:00","-8.7","","-11.5","","80","","7","","6","","19.3","","99.00","","","","-12","","Cloudy"
"2000-12-18 22:00","2000","12","18","22:00","-8.9","","-10.6","","87","","4","","6","","2.4","","98.90","","","","-12","","Snow"
"2000-12-18 23:00","2000","12","18","23:00","-8.7","","-9.8","","92","","8","","7","","2.4","","98.76","","","","-13","","Snow"
"2000-12-19 00:00","2000","12","19","00:00","-7.8","","-8.6","","94","","9","","9","","2.4","","98.63","","","","-12","","Snow"
"2000-12-19 01:00","2000","12","19","01:00","-7.6","","-8.5","","93","","8","","6","","6.4","","98.57","","","","-11","","Snow"
"2000-12-19 02:00","2000","12","19","02:00","-7.5","","-8.4","","93","","10","","6","","4.8","","98.57","","","","-11","","Snow"
"2000-12-19 03:00","2000","12","19","03:00","-7.4","","-8.1","","95","","9","","6","","4.0","","98.50","","","","-11","","Snow"
"2000-12-19 04:00","2000","12","19","04:00","-6.8","","-7.6","","94","","12","","4","","4.0","","98.47","","","","-9","","Snow"
"2000-12-19 05:00","2000","12","19","05:00","-6.2","","-7.1","","93","","21","","11","","4.0","","98.47","","","","-11","","Snow"
"2000-12-19 06:00","2000","12","19","06:00","-6.9","","-7.7","","94","","23","","13","","6.4","","98.50","","","","-12","","Snow"
"2000-12-19 07:00","2000","12","19","07:00","-6.5","","-7.8","","90","","24","","19","","6.4","","98.53","","","","-13","","Snow"
"2000-12-19 08:00","2000","12","19","08:00","-7.3","","-8.7","","90","","25","","19","","8.0","","98.60","","","","-14","","Fog"
"2000-12-19 09:00","2000","12","19","09:00","-7.9","","-9.5","","88","","25","","20","","8.0","","98.66","","","","-15","","Snow"
"2000-12-19 10:00","2000","12","19","10:00","-7.8","","-9.6","","87","","25","","17","","8.0","","98.70","","","","-14","","Snow,Fog"
"2000-12-19 11:00","2000","12","19","11:00","-7.4","","-9.6","","84","","26","","24","","8.0","","98.73","","","","-15","","Snow"
"2000-12-19 12:00","2000","12","19","12:00","-7.2","","-10.2","","79","","25","","20","","6.4","","98.70","","","","-14","","Snow"
"2000-12-19 13:00","2000","12","19","13:00","-7.9","","-9.9","","86","","25","","19","","4.0","","98.70","","","","-15","","Snow"
"2000-12-19 14:00","2000","12","19","14:00","-8.0","","-10.6","","82","","26","","20","","8.0","","98.70","","","","-15","","Snow"
"2000-12-19 15:00","2000","12","19","15:00","-9.3","","-11.8","","82","","24","","24","","4.8","","98.80","","","","-18","","Snow"
"2000-12-19 16:00","2000","12","19","16:00","-10.4","","-13.4","","79","","24","","24","","8.0","","98.86","","","","-19","","Snow,Haze"
"2000-12-19 17:00","2000","12","19","17:00","-11.2","","-13.8","","81","","23","","22","","8.0","","98.93","","","","-20","","Snow,Haze"
"2000-12-19 18:00","2000","12","19","18:00","-11.6","","-14.2","","81","","23","","20","","8.0","","99.06","","","","-20","","Snow,Haze"
"2000-12-19 19:00","2000","12","19","19:00","-12.3","","-14.6","","83","","24","","19","","11.3","","99.03","","","","-21","","Snow"
"2000-12-19 20:00","2000","12","19","20:00","-12.6","","-14.8","","84","","23","","17","","8.0","","99.00","","","","-20","","Snow"
"2000-12-19 21:00","2000","12","19","21:00","-12.6","","-14.5","","86","","25","","19","","8.0","","99.10","","","","-21","","Snow"
"2000-12-19 22:00","2000","12","19","22:00","-12.3","","-14.2","","86","","26","","20","","6.4","","99.10","","","","-21","","Snow"
"2000-12-19 23:00","2000","12","19","23:00","-12.3","","-14.0","","87","","26","","17","","8.0","","99.10","","","","-20","","Snow"
"2000-12-20 00:00","2000","12","20","00:00","-12.7","","-14.2","","89","","26","","15","","11.3","","99.06","","","","-20","","Snow"
"2000-12-20 01:00","2000","12","20","01:00","-12.6","","-13.9","","90","","28","","15","","12.9","","99.13","","","","-20","","Snow"
"2000-12-20 02:00","2000","12","20","02:00","-12.3","","-13.7","","89","","27","","11","","12.9","","99.20","","","","-18","","Mainly Clear"
"2000-12-20 03:00","2000","12","20","03:00","-12.2","","-13.0","","94","","25","","9","","9.7","","99.30","","","","-17","","Snow Showers"
"2000-12-20 04:00","2000","12","20","04:00","-12.8","","-14.1","","90","","27","","11","","12.9","","99.30","","","","-19","","Snow Showers"
"2000-12-20 05:00","2000","12","20","05:00","-12.9","","-14.2","","90","","27","","13","","12.9","","99.36","","","","-20","","Snow Showers"
"2000-12-20 06:00","2000","12","20","06:00","-11.8","","-13.4","","88","","27","","15","","16.1","","99.40","","","","-19","","Snow Showers"
"2000-12-20 07:00","2000","12","20","07:00","-10.8","","-12.5","","87","","27","","9","","19.3","","99.46","","","","-16","","Snow Showers"
"2000-12-20 08:00","2000","12","20","08:00","-10.1","","-12.0","","86","","26","","9","","19.3","","99.53","","","","-15","","Mostly Cloudy"
"2000-12-20 09:00","2000","12","20","09:00","-11.6","","-13.6","","85","","23","","11","","19.3","","99.60","","","","-18","","Mainly Clear"
"2000-12-20 10:00","2000","12","20","10:00","-10.9","","-13.1","","84","","25","","13","","19.3","","99.66","","","","-17","","Mainly Clear"
"2000-12-20 11:00","2000","12","20","11:00","-10.0","","-12.0","","85","","25","","9","","19.3","","99.66","","","","-15","","Mainly Clear"
"2000-12-20 12:00","2000","12","20","12:00","-8.6","","-10.8","","84","","23","","13","","19.3","","99.66","","","","-15","","Mainly Clear"
"2000-12-20 13:00","2000","12","20","13:00","-7.2","","-10.3","","78","","22","","13","","19.3","","99.63","","","","-13","","Mostly Cloudy"
"2000-12-20 14:00","2000","12","20","14:00","-7.1","","-10.4","","77","","22","","15","","19.3","","99.63","","","","-13","","Mainly Clear"
"2000-12-20 15:00","2000","12","20","15:00","-8.1","","-11.5","","76","","21","","20","","19.3","","99.63","","","","-15","","Mainly Clear"
"2000-12-20 16:00","2000","12","20","16:00","-9.0","","-12.0","","79","","23","","19","","12.9","","99.73","","","","-16","","Mainly Clear"
"2000-12-20 17:00","2000","12","20","17:00","-8.9","","-12.0","","78","","23","","17","","12.9","","99.80","","","","-16","","Cloudy"
"2000-12-20 18:00","2000","12","20","18:00","-9.4","","-13.0","","75","","23","","19","","16.1","","99.83","","","","-17","","Mostly Cloudy"
"2000-12-20 19:00","2000","12","20","19:00","-9.1","","-12.9","","74","","23","","15","","16.1","","99.83","","","","-16","","Cloudy"
"2000-12-20 20:00","2000","12","20","20:00","-8.8","","-11.5","","81","","21","","17","","16.1","","99.80","","","","-16","","Cloudy"
"2000-12-20 21:00","2000","12","20","21:00","-8.3","","-11.0","","81","","19","","15","","16.1","","99.76","","","","-15","","Cloudy"
"2000-12-20 22:00","2000","12","20","22:00","-7.8","","-10.9","","78","","20","","13","","24.1","","99.73","","","","-14","","Cloudy"
"2000-12-20 23:00","2000","12","20","23:00","-7.4","","-10.4","","79","","19","","9","","24.1","","99.70","","","","-12","","Cloudy"
"2000-12-21 00:00","2000","12","21","00:00","-7.3","","-9.7","","83","","17","","15","","19.3","","99.66","","","","-13","","Snow Showers"
"2000-12-21 01:00","2000","12","21","01:00","-7.4","","-9.2","","87","","18","","13","","3.2","","99.66","","","","-13","","Snow"
"2000-12-21 02:00","2000","12","21","02:00","-7.1","","-9.5","","83","","17","","15","","11.3","","99.60","","","","-13","","Snow"
"2000-12-21 03:00","2000","12","21","03:00","-7.2","","-9.2","","86","","18","","15","","19.3","","99.63","","","","-13","","Snow"
"2000-12-21 04:00","2000","12","21","04:00","-6.9","","-9.5","","82","","17","","17","","24.1","","99.46","","","","-13","","Cloudy"
"2000-12-21 05:00","2000","12","21","05:00","-7.0","","-9.9","","80","","16","","17","","24.1","","99.33","","","","-13","","Cloudy"
"2000-12-21 06:00","2000","12","21","06:00","-6.5","","-9.7","","78","","17","","17","","24.1","","99.26","","","","-13","","Snow"
"2000-12-21 07:00","2000","12","21","07:00","-6.1","","-8.6","","82","","17","","19","","1.6","","99.16","","","","-13","","Snow"
"2000-12-21 08:00","2000","12","21","08:00","-6.1","","-7.4","","90","","18","","19","","1.2","","99.16","","","","-13","","Snow"
"2000-12-21 09:00","2000","12","21","09:00","-6.1","","-7.3","","91","","18","","20","","1.2","","99.10","","","","-13","","Snow"
"2000-12-21 10:00","2000","12","21","10:00","-5.4","","-6.5","","92","","20","","22","","1.6","","99.10","","","","-12","","Snow"
"2000-12-21 11:00","2000","12","21","11:00","-5.1","","-6.6","","89","","20","","24","","3.6","","99.06","","","","-12","","Snow"
"2000-12-21 12:00","2000","12","21","12:00","-4.7","","-6.2","","89","","22","","24","","2.4","","99.00","","","","-12","","Snow"
"2000-12-21 13:00","2000","12","21","13:00","-4.4","","-6.5","","85","","23","","30","","2.8","","98.96","","","","-12","","Snow"
"2000-12-21 14:00","2000","12","21","14:00","-3.7","","-7.4","","75","","24","","30","","8.0","","98.96","","","","-11","","Snow"
"2000-12-21 15:00","2000","12","21","15:00","-4.3","","-8.6","","72","","23","","41","","12.9","","99.00","","","","-13","","Snow"
"2000-12-21 16:00","2000","12","21","16:00","-5.6","","-10.5","","68","","24","","37","","16.1","","99.06","","","","-15","","Mostly Cloudy"
"2000-12-21 17:00","2000","12","21","17:00","-6.7","","-11.5","","69","","24","","26","","16.1","","99.16","","","","-15","","Mainly Clear"
"2000-12-21 18:00","2000","12","21","18:00","-8.8","","-12.3","","76","","25","","32","","24.1","","99.30","","","","-18","","Mainly Clear"
"2000-12-21 19:00","2000","12","21","19:00","-10.3","","-13.9","","75","","24","","30","","24.1","","99.36","","","","-20","","Snow"
"2000-12-21 20:00","2000","12","21","20:00","-11.9","","-15.2","","76","","24","","28","","24.1","","99.43","","","","-22","","Snow"
"2000-12-21 21:00","2000","12","21","21:00","-13.4","","-15.5","","84","","25","","33","","25.0","","99.53","","","","-24","","Mainly Clear"
"2000-12-21 22:00","2000","12","21","22:00","-14.9","","-17.8","","78","","25","","30","","25.0","","99.56","","","","-26","","Clear"
"2000-12-21 23:00","2000","12","21","23:00","-16.1","","-21.4","","64","","25","","30","","25.0","","99.56","","","","-27","","Clear"
"2000-12-22 00:00","2000","12","22","00:00","-16.9","","-21.8","","66","","25","","30","","24.1","","99.56","","","","-29","","Clear"
"2000-12-22 01:00","2000","12","22","01:00","-17.3","","-22.2","","66","","25","","24","","24.1","","99.56","","","","-28","","Clear"
"2000-12-22 02:00","2000","12","22","02:00","-17.5","","-22.5","","65","","25","","26","","24.1","","99.60","","","","-29","","Clear"
"2000-12-22 03:00","2000","12","22","03:00","-17.9","","-22.6","","67","","25","","20","","24.1","","99.60","","","","-28","","Clear"
"2000-12-22 04:00","2000","12","22","04:00","-18.2","","-23.2","","65","","25","","20","","24.1","","99.60","","","","-28","","Clear"
"2000-12-22 05:00","2000","12","22","05:00","-18.5","","-23.6","","64","","25","","28","","24.1","","99.56","","","","-30","","Mostly Cloudy"
"2000-12-22 06:00","2000","12","22","06:00","-18.4","","-23.4","","65","","25","","26","","11.3","","99.60","","","","-30","","Snow"
"2000-12-22 07:00","2000","12","22","07:00","-18.8","","-24.0","","64","","25","","22","","12.9","","99.63","","","","-29","","Snow"
"2000-12-22 08:00","2000","12","22","08:00","-19.1","","-24.0","","65","","25","","24","","24.1","","99.70","","","","-30","","Mainly Clear"
"2000-12-22 09:00","2000","12","22","09:00","-19.3","","-24.9","","61","","25","","22","","24.1","","99.76","","","","-30","","Mainly Clear"
"2000-12-22 10:00","2000","12","22","10:00","-18.5","","-24.6","","59","","25","","26","","24.1","","99.90","","","","-30","","Mainly Clear"
"2000-12-22 11:00","2000","12","22","11:00","-18.1","","-24.2","","59","","24","","26","","24.1","","99.93","","","","-29","","Mainly Clear"
"2000-12-22 12:00","2000","12","22","12:00","-17.4","","-23.3","","60","","23","","28","","24.1","","99.96","","","","-29","","Mostly Cloudy"
"2000-12-22 13:00","2000","12","22","13:00","-17.0","","-23.0","","60","","26","","30","","24.1","","99.96","","","","-29","","Mainly Clear"
"2000-12-22 14:00","2000","12","22","14:00","-16.4","","-22.6","","59","","25","","32","","24.1","","100.03","","","","-28","","Mainly Clear"
"2000-12-22 15:00","2000","12","22","15:00","-16.2","","-22.0","","61","","24","","24","","24.1","","100.06","","","","-27","","Clear"
"2000-12-22 16:00","2000","12","22","16:00","-16.3","","-22.4","","59","","25","","28","","24.1","","100.16","","","","-27","","Clear"
"2000-12-22 17:00","2000","12","22","17:00","-16.5","","-22.1","","62","","24","","28","","24.1","","100.23","","","","-28","","Clear"
"2000-12-22 18:00","2000","12","22","18:00","-16.6","","-21.6","","65","","24","","28","","25.0","","100.29","","","","-28","","Clear"
"2000-12-22 19:00","2000","12","22","19:00","-16.7","","-21.6","","66","","25","","22","","24.1","","100.33","","","","-27","","Snow Showers"
"2000-12-22 20:00","2000","12","22","20:00","-16.6","","-21.1","","68","","25","","30","","24.1","","100.43","","","","-28","","Snow Showers"
"2000-12-22 21:00","2000","12","22","21:00","-16.5","","-21.1","","68","","25","","26","","25.0","","100.46","","","","-27","","Snow Showers"
"2000-12-22 22:00","2000","12","22","22:00","-16.7","","-21.0","","69","","24","","19","","25.0","","100.49","","","","-26","","Snow Showers"
"2000-12-22 23:00","2000","12","22","23:00","-17.3","","-21.4","","70","","23","","20","","25.0","","100.59","","","","-27","","Mainly Clear"
"2000-12-23 00:00","2000","12","23","00:00","-17.6","","-21.5","","72","","24","","15","","16.1","","100.63","","","","-26","","Mainly Clear"
"2000-12-23 01:00","2000","12","23","01:00","-17.6","","-21.3","","73","","25","","17","","24.1","","100.69","","","","-27","","Mainly Clear"
"2000-12-23 02:00","2000","12","23","02:00","-17.6","","-21.2","","73","","25","","17","","19.3","","100.76","","","","-27","","Mainly Clear"
"2000-12-23 03:00","2000","12","23","03:00","-17.5","","-21.2","","73","","24","","17","","19.3","","100.86","","","","-27","","Mainly Clear"
"2000-12-23 04:00","2000","12","23","04:00","-17.9","","-21.2","","75","","25","","15","","19.3","","100.86","","","","-26","","Mostly Cloudy"
"2000-12-23 05:00","2000","12","23","05:00","-17.8","","-21.0","","76","","23","","13","","16.1","","100.79","","","","-26","","Mostly Cloudy"
"2000-12-23 06:00","2000","12","23","06:00","-17.4","","-20.3","","78","","24","","13","","12.9","","100.86","","","","-25","","Snow"
"2000-12-23 07:00","2000","12","23","07:00","-17.1","","-20.0","","78","","23","","13","","8.0","","100.86","","","","-25","","Snow"
"2000-12-23 08:00","2000","12","23","08:00","-16.7","","-19.3","","80","","23","","11","","6.4","","100.89","","","","-24","","Snow"
"2000-12-23 09:00","2000","12","23","09:00","-16.5","","-19.2","","80","","22","","13","","6.4","","100.96","","","","-24","","Haze"
"2000-12-23 10:00","2000","12","23","10:00","-16.2","","-18.8","","80","","23","","15","","8.0","","100.99","","","","-24","","Haze"
"2000-12-23 11:00","2000","12","23","11:00","-15.0","","-17.5","","81","","20","","15","","8.0","","100.99","","","","-23","","Haze"
"2000-12-23 12:00","2000","12","23","12:00","-13.9","","-16.3","","82","","22","","15","","8.0","","100.86","","","","-22","","Haze"
"2000-12-23 13:00","2000","12","23","13:00","-12.9","","-16.7","","73","","23","","17","","4.8","","100.76","","","","-21","","Snow"
"2000-12-23 14:00","2000","12","23","14:00","-12.1","","-14.5","","82","","22","","13","","3.2","","100.63","","","","-19","","Snow"
"2000-12-23 15:00","2000","12","23","15:00","-10.9","","-12.7","","87","","21","","15","","1.6","","100.59","","","","-18","","Snow"
"2000-12-23 16:00","2000","12","23","16:00","-10.1","","-11.7","","88","","20","","17","","4.8","","100.59","","","","-17","","Snow"
"2000-12-23 17:00","2000","12","23","17:00","-9.4","","-11.1","","87","","18","","13","","16.1","","100.49","","","","-15","","Cloudy"
"2000-12-23 18:00","2000","12","23","18:00","-8.8","","-10.8","","85","","16","","9","","19.3","","100.39","","","","-13","","Cloudy"
"2000-12-23 19:00","2000","12","23","19:00","-7.2","","-10.1","","80","","18","","19","","24.1","","100.26","","","","-14","","Cloudy"
"2000-12-23 20:00","2000","12","23","20:00","-6.8","","-11.1","","71","","20","","17","","24.1","","100.19","","","","-13","","Cloudy"
"2000-12-23 21:00","2000","12","23","21:00","-6.2","","-10.8","","70","","20","","19","","24.1","","100.09","","","","-13","","Cloudy"
"2000-12-23 22:00","2000","12","23","22:00","-5.9","","-10.4","","70","","21","","19","","24.1","","100.09","","","","-13","","Cloudy"
"2000-12-23 23:00","2000","12","23","23:00","-6.5","","-9.2","","81","","21","","24","","4.8","","99.99","","","","-14","","Snow Showers"
"2000-12-24 00:00","2000","12","24","00:00","-6.6","","-8.2","","88","","22","","26","","1.6","","99.93","","","","-15","","Snow"
"2000-12-24 01:00","2000","12","24","01:00","-6.2","","-8.0","","87","","22","","20","","8.0","","99.86","","","","-13","","Snow"
"2000-12-24 02:00","2000","12","24","02:00","-5.8","","-7.7","","86","","23","","20","","12.9","","99.80","","","","-13","","Snow"
"2000-12-24 03:00","2000","12","24","03:00","-5.7","","-7.9","","84","","23","","22","","19.3","","99.76","","","","-13","","Snow"
"2000-12-24 04:00","2000","12","24","04:00","-5.8","","-8.0","","84","","25","","19","","6.4","","99.73","","","","-12","","Snow"
"2000-12-24 05:00","2000","12","24","05:00","-6.0","","-8.1","","85","","25","","19","","12.9","","99.73","","","","-13","","Snow"
"2000-12-24 06:00","2000","12","24","06:00","-6.3","","-8.7","","83","","26","","24","","16.1","","99.76","","","","-14","","Snow"
"2000-12-24 07:00","2000","12","24","07:00","-6.4","","-8.9","","82","","26","","28","","8.0","","99.80","","","","-15","","Snow"
"2000-12-24 08:00","2000","12","24","08:00","-6.7","","-10.8","","73","","29","","19","","16.1","","99.83","","","","-14","","Snow"
"2000-12-24 09:00","2000","12","24","09:00","-6.8","","-10.3","","76","","26","","22","","11.3","","99.90","","","","-14","","Snow"
"2000-12-24 10:00","2000","12","24","10:00","-7.1","","-10.0","","80","","26","","26","","2.4","","99.99","","","","-15","","Snow"
"2000-12-24 11:00","2000","12","24","11:00","-7.2","","-9.6","","83","","27","","26","","4.0","","100.03","","","","-15","","Snow"
"2000-12-24 12:00","2000","12","24","12:00","-7.0","","-10.2","","78","","29","","26","","4.8","","99.99","","","","-15","","Snow"
"2000-12-24 13:00","2000","12","24","13:00","-6.2","","-11.0","","69","","29","","32","","24.1","","99.99","","","","-15","","Snow"
"2000-12-24 14:00","2000","12","24","14:00","-6.1","","-10.9","","69","","29","","24","","24.1","","100.06","","","","-14","","Snow"
"2000-12-24 15:00","2000","12","24","15:00","-6.3","","-10.5","","72","","28","","24","","19.3","","100.16","","","","-14","","Snow"
"2000-12-24 16:00","2000","12","24","16:00","-6.1","","-9.9","","74","","30","","19","","11.3","","100.29","","","","-13","","Snow"
"2000-12-24 17:00","2000","12","24","17:00","-6.9","","-11.8","","68","","31","","17","","24.1","","100.39","","","","-13","","Snow Showers"
"2000-12-24 18:00","2000","12","24","18:00","-7.6","","-11.9","","71","","29","","17","","24.1","","100.53","","","","-14","","Clear"
"2000-12-24 19:00","2000","12","24","19:00","-7.7","","-12.8","","67","","30","","19","","24.1","","100.59","","","","-15","","Mainly Clear"
"2000-12-24 20:00","2000","12","24","20:00","-7.8","","-13.7","","63","","32","","20","","24.1","","100.69","","","","-15","","Mostly Cloudy"
"2000-12-24 21:00","2000","12","24","21:00","-8.6","","-14.6","","62","","34","","26","","24.1","","100.79","","","","-17","","Mainly Clear"
"2000-12-24 22:00","2000","12","24","22:00","-9.3","","-15.7","","60","","34","","20","","24.1","","100.93","","","","-17","","Mainly Clear"
"2000-12-24 23:00","2000","12","24","23:00","-10.6","","-16.5","","62","","34","","19","","25.0","","101.03","","","","-18","","Clear"
"2000-12-25 00:00","2000","12","25","00:00","-11.5","","-16.7","","65","","33","","19","","24.1","","101.13","","","","-20","","Clear"
"2000-12-25 01:00","2000","12","25","01:00","-11.8","","-20.5","","48","","34","","19","","24.1","","101.13","","","","-20","","Clear"
"2000-12-25 02:00","2000","12","25","02:00","-12.0","","-19.3","","55","","32","","19","","24.1","","101.19","","","","-20","","Clear"
"2000-12-25 03:00","2000","12","25","03:00","-13.2","","-18.4","","65","","30","","11","","24.1","","101.33","","","","-19","","Clear"
"2000-12-25 04:00","2000","12","25","04:00","-13.9","","-18.3","","69","","29","","15","","24.1","","101.36","","","","-22","","Clear"
"2000-12-25 05:00","2000","12","25","05:00","-13.9","","-18.0","","71","","29","","13","","24.1","","101.39","","","","-21","","Clear"
"2000-12-25 06:00","2000","12","25","06:00","-14.7","","-18.5","","73","","28","","13","","24.1","","101.46","","","","-22","","Clear"
"2000-12-25 07:00","2000","12","25","07:00","-14.9","","-18.5","","74","","27","","13","","24.1","","101.56","","","","-22","","Clear"
"2000-12-25 08:00","2000","12","25","08:00","-15.0","","-17.9","","78","","27","","11","","24.1","","101.62","","","","-22","","Clear"
"2000-12-25 09:00","2000","12","25","09:00","-14.1","","-17.1","","78","","28","","13","","24.1","","101.69","","","","-21","","Clear"
"2000-12-25 10:00","2000","12","25","10:00","-12.3","","-15.6","","76","","28","","15","","24.1","","101.72","","","","-20","","Clear"
"2000-12-25 11:00","2000","12","25","11:00","-10.5","","-13.5","","79","","29","","11","","24.1","","101.76","","","","-16","","Clear"
"2000-12-25 12:00","2000","12","25","12:00","-9.5","","-13.6","","72","","29","","13","","24.1","","101.72","","","","-16","","Clear"
"2000-12-25 13:00","2000","12","25","13:00","-9.0","","-13.5","","70","","28","","13","","24.1","","101.66","","","","-15","","Clear"
"2000-12-25 14:00","2000","12","25","14:00","-8.1","","-13.3","","66","","27","","15","","24.1","","101.62","","","","-14","","Clear"
"2000-12-25 15:00","2000","12","25","15:00","-7.7","","-13.7","","62","","27","","7","","24.1","","101.59","","","","-11","","Clear"
"2000-12-25 16:00","2000","12","25","16:00","-8.0","","-14.2","","61","","27","","13","","25.0","","101.62","","","","-14","","Mainly Clear"
"2000-12-25 17:00","2000","12","25","17:00","-8.1","","-14.0","","62","","28","","11","","25.0","","101.59","","","","-13","","Mostly Cloudy"
"2000-12-25 18:00","2000","12","25","18:00","-11.3","","-14.1","","80","","20","","11","","25.0","","101.56","","","","-17","","Clear"
"2000-12-25 19:00","2000","12","25","19:00","-11.5","","-14.1","","81","","24","","11","","25.0","","101.56","","","","-17","","Clear"
"2000-12-25 20:00","2000","12","25","20:00","-11.6","","-14.5","","79","","26","","13","","25.0","","101.56","","","","-18","","Mainly Clear"
"2000-12-25 21:00","2000","12","25","21:00","-12.7","","-15.2","","82","","22","","9","","25.0","","101.52","","","","-18","","Mainly Clear"
"2000-12-25 22:00","2000","12","25","22:00","-12.4","","-14.7","","83","","23","","7","","25.0","","101.49","","","","-17","","Mostly Cloudy"
"2000-12-25 23:00","2000","12","25","23:00","-12.3","","-14.8","","82","","23","","9","","25.0","","101.46","","","","-18","","Mostly Cloudy"
"2000-12-26 00:00","2000","12","26","00:00","-11.7","","-14.6","","79","","23","","11","","24.1","","101.42","","","","-18","","Mostly Cloudy"
"2000-12-26 01:00","2000","12","26","01:00","-11.3","","-14.0","","80","","25","","11","","24.1","","101.33","","","","-17","","Mostly Cloudy"
"2000-12-26 02:00","2000","12","26","02:00","-11.7","","-14.0","","83","","25","","11","","24.1","","101.29","","","","-18","","Mostly Cloudy"
"2000-12-26 03:00","2000","12","26","03:00","-11.7","","-13.7","","85","","25","","11","","24.1","","101.26","","","","-18","","Mostly Cloudy"
"2000-12-26 04:00","2000","12","26","04:00","-12.1","","-13.8","","87","","25","","11","","24.1","","101.23","","","","-18","","Mostly Cloudy"
"2000-12-26 05:00","2000","12","26","05:00","-12.4","","-14.2","","86","","23","","11","","24.1","","101.19","","","","-18","","Mostly Cloudy"
"2000-12-26 06:00","2000","12","26","06:00","-12.6","","-14.2","","88","","23","","13","","24.1","","101.16","","","","-19","","Mostly Cloudy"
"2000-12-26 07:00","2000","12","26","07:00","-12.2","","-13.8","","88","","24","","17","","24.1","","101.13","","","","-20","","Cloudy"
"2000-12-26 08:00","2000","12","26","08:00","-11.9","","-13.2","","90","","24","","19","","11.3","","101.09","","","","-20","","Mostly Cloudy"
"2000-12-26 09:00","2000","12","26","09:00","-12.0","","-13.3","","90","","23","","19","","11.3","","100.99","","","","-20","","Mainly Clear"
"2000-12-26 10:00","2000","12","26","10:00","-10.8","","-14.0","","77","","24","","20","","19.3","","100.93","","","","-19","","Mostly Cloudy"
"2000-12-26 11:00","2000","12","26","11:00","-9.4","","-14.7","","65","","25","","19","","19.3","","100.96","","","","-17","","Mostly Cloudy"
"2000-12-26 12:00","2000","12","26","12:00","-8.5","","-14.2","","63","","24","","20","","16.1","","100.86","","","","-16","","Cloudy"
"2000-12-26 13:00","2000","12","26","13:00","-7.1","","-12.8","","64","","23","","19","","11.3","","100.73","","","","-14","","Cloudy"
"2000-12-26 14:00","2000","12","26","14:00","-6.1","","-11.6","","65","","26","","26","","19.3","","100.63","","","","-14","","Cloudy"
"2000-12-26 15:00","2000","12","26","15:00","-6.8","","-11.8","","68","","23","","19","","16.1","","100.56","","","","-14","","Cloudy"
"2000-12-26 16:00","2000","12","26","16:00","-7.2","","-11.9","","69","","23","","22","","19.3","","100.56","","","","-15","","Cloudy"
"2000-12-26 17:00","2000","12","26","17:00","-7.2","","-12.1","","68","","24","","20","","16.1","","100.49","","","","-14","","Cloudy"
"2000-12-26 18:00","2000","12","26","18:00","-7.9","","-12.0","","72","","23","","24","","24.1","","100.43","","","","-16","","Cloudy"
"2000-12-26 19:00","2000","12","26","19:00","-7.8","","-12.2","","71","","24","","22","","24.1","","100.43","","","","-15","","Cloudy"
"2000-12-26 20:00","2000","12","26","20:00","-8.0","","-11.8","","74","","24","","20","","24.1","","100.36","","","","-15","","Cloudy"
"2000-12-26 21:00","2000","12","26","21:00","-8.0","","-11.3","","77","","23","","24","","24.1","","100.29","","","","-16","","Cloudy"
"2000-12-26 22:00","2000","12","26","22:00","-8.1","","-10.7","","82","","25","","28","","16.1","","100.26","","","","-17","","Snow Showers"
"2000-12-26 23:00","2000","12","26","23:00","-8.0","","-9.9","","86","","24","","22","","12.9","","100.23","","","","-16","","Snow Showers"
"2000-12-27 00:00","2000","12","27","00:00","-7.5","","-9.4","","86","","24","","22","","11.3","","100.09","","","","-15","","Snow Showers"
"2000-12-27 01:00","2000","12","27","01:00","-7.5","","-8.9","","90","","26","","19","","9.7","","100.06","","","","-15","","Snow Showers"
"2000-12-27 02:00","2000","12","27","02:00","-7.5","","-8.7","","91","","25","","19","","8.0","","100.03","","","","-15","","Snow"
"2000-12-27 03:00","2000","12","27","03:00","-7.2","","-8.5","","90","","26","","15","","8.0","","100.09","","","","-13","","Snow"
"2000-12-27 04:00","2000","12","27","04:00","-7.0","","-8.3","","90","","26","","15","","8.0","","100.03","","","","-13","","Snow"
"2000-12-27 05:00","2000","12","27","05:00","-6.8","","-8.1","","90","","26","","13","","9.7","","99.99","","","","-12","","Snow"
"2000-12-27 06:00","2000","12","27","06:00","-6.7","","-7.8","","92","","25","","11","","6.4","","99.96","","","","-12","","Snow"
"2000-12-27 07:00","2000","12","27","07:00","-6.8","","-7.7","","93","","26","","9","","3.6","","99.96","","","","-11","","Snow"
"2000-12-27 08:00","2000","12","27","08:00","-6.7","","-7.6","","93","","28","","9","","2.8","","99.96","","","","-11","","Snow"
"2000-12-27 09:00","2000","12","27","09:00","-6.7","","-7.9","","91","","28","","13","","8.0","","99.93","","","","-12","","Snow"
"2000-12-27 10:00","2000","12","27","10:00","-6.8","","-9.2","","83","","30","","13","","4.0","","99.90","","","","-12","","Snow"
"2000-12-27 11:00","2000","12","27","11:00","-6.5","","-8.7","","84","","27","","13","","4.0","","99.90","","","","-12","","Snow"
"2000-12-27 12:00","2000","12","27","12:00","-6.2","","-7.9","","88","","27","","13","","1.6","","99.76","","","","-12","","Snow"
"2000-12-27 13:00","2000","12","27","13:00","-6.2","","-7.9","","88","","26","","15","","1.6","","99.70","","","","-12","","Snow"
"2000-12-27 14:00","2000","12","27","14:00","-5.8","","-8.4","","82","","28","","15","","11.3","","99.60","","","","-12","","Snow"
"2000-12-27 15:00","2000","12","27","15:00","-5.8","","-9.0","","78","","30","","15","","11.3","","99.56","","","","-12","","Snow"
"2000-12-27 16:00","2000","12","27","16:00","-6.3","","-8.4","","85","","34","","11","","1.6","","99.60","","","","-11","","Snow"
"2000-12-27 17:00","2000","12","27","17:00","-6.5","","-9.8","","77","","34","","22","","6.4","","99.63","","","","-14","","Snow"
"2000-12-27 18:00","2000","12","27","18:00","-7.2","","-11.1","","74","","33","","17","","24.1","","99.63","","","","-14","","Snow"
"2000-12-27 19:00","2000","12","27","19:00","-7.7","","-12.2","","70","","32","","22","","24.1","","99.70","","","","-15","","Snow"
"2000-12-27 20:00","2000","12","27","20:00","-8.6","","-12.4","","74","","33","","17","","24.1","","99.70","","","","-15","","Snow"
"2000-12-27 21:00","2000","12","27","21:00","-9.2","","-12.6","","76","","33","","20","","24.1","","99.73","","","","-17","","Mainly Clear"
"2000-12-27 22:00","2000","12","27","22:00","-9.8","","-12.9","","78","","34","","17","","24.1","","99.76","","","","-17","","Mainly Clear"
"2000-12-27 23:00","2000","12","27","23:00","-10.6","","-13.1","","82","","33","","15","","24.1","","99.80","","","","-17","","Mainly Clear"
"2000-12-28 00:00","2000","12","28","00:00","-11.8","","-16.4","","69","","35","","17","","24.1","","99.83","","","","-19","","Clear"
"2000-12-28 01:00","2000","12","28","01:00","-12.7","","-17.4","","68","","33","","22","","24.1","","99.83","","","","-22","","Clear"
"2000-12-28 02:00","2000","12","28","02:00","-13.7","","-19.0","","64","","33","","13","","24.1","","99.86","","","","-21","","Clear"
"2000-12-28 03:00","2000","12","28","03:00","-14.3","","-20.7","","58","","32","","17","","24.1","","99.96","","","","-23","","Clear"
"2000-12-28 04:00","2000","12","28","04:00","-14.9","","-20.3","","63","","34","","13","","24.1","","99.93","","","","-22","","Clear"
"2000-12-28 05:00","2000","12","28","05:00","-15.2","","-20.2","","66","","33","","7","","24.1","","99.93","","","","-20","","Clear"
"2000-12-28 06:00","2000","12","28","06:00","-15.9","","-20.2","","69","","27","","13","","24.1","","99.99","","","","-23","","Clear"
"2000-12-28 07:00","2000","12","28","07:00","-16.0","","-20.1","","71","","32","","9","","24.1","","100.03","","","","-22","","Clear"
"2000-12-28 08:00","2000","12","28","08:00","-15.2","","-18.9","","73","","33","","15","","25.0","","100.06","","","","-23","","Clear"
"2000-12-28 09:00","2000","12","28","09:00","-14.1","","-17.9","","73","","32","","13","","25.0","","100.09","","","","-21","","Clear"
"2000-12-28 10:00","2000","12","28","10:00","-12.9","","-17.2","","70","","32","","15","","25.0","","100.13","","","","-20","","Clear"
"2000-12-28 11:00","2000","12","28","11:00","-11.1","","-16.9","","62","","32","","19","","25.0","","100.09","","","","-19","","Mainly Clear"
"2000-12-28 12:00","2000","12","28","12:00","-10.2","","-16.9","","58","","33","","13","","25.0","","100.09","","","","-16","","Mainly Clear"
"2000-12-28 13:00","2000","12","28","13:00","-9.0","","-15.0","","62","","29","","15","","25.0","","99.99","","","","-16","","Mostly Cloudy"
"2000-12-28 14:00","2000","12","28","14:00","-7.4","","-13.0","","64","","31","","11","","25.0","","99.96","","","","-12","","Mostly Cloudy"
"2000-12-28 15:00","2000","12","28","15:00","-7.2","","-14.1","","58","","33","","13","","24.1","","99.93","","","","-13","","Snow Showers"
"2000-12-28 16:00","2000","12","28","16:00","-7.3","","-12.6","","66","","35","","13","","19.3","","99.93","","","","-13","","Snow Showers"
"2000-12-28 17:00","2000","12","28","17:00","-7.8","","-11.5","","75","","36","","7","","12.9","","99.96","","","","-11","","Snow"
"2000-12-28 18:00","2000","12","28","18:00","-7.6","","-10.6","","79","","36","","7","","24.1","","99.90","","","","-11","","Snow"
"2000-12-28 19:00","2000","12","28","19:00","-7.4","","-10.1","","81","","33","","6","","24.1","","99.90","","","","-11","","Snow"
"2000-12-28 20:00","2000","12","28","20:00","-7.1","","-9.4","","84","","31","","6","","24.1","","99.90","","","","-10","","Snow"
"2000-12-28 21:00","2000","12","28","21:00","-7.0","","-8.5","","89","","31","","6","","12.9","","99.83","","","","-10","","Snow"
"2000-12-28 22:00","2000","12","28","22:00","-6.8","","-7.7","","93","","34","","9","","8.0","","99.83","","","","-11","","Snow"
"2000-12-28 23:00","2000","12","28","23:00","-6.9","","-7.3","","97","","36","","6","","6.4","","99.80","","","","-10","","Snow"
"2000-12-29 00:00","2000","12","29","00:00","-6.9","","-7.3","","97","","36","","9","","4.8","","99.70","","","","-11","","Snow"
"2000-12-29 01:00","2000","12","29","01:00","-7.3","","-7.6","","98","","4","","19","","4.0","","99.56","","","","-14","","Snow"
"2000-12-29 02:00","2000","12","29","02:00","-7.6","","-7.9","","98","","4","","15","","3.2","","99.53","","","","-14","","Snow"
"2000-12-29 03:00","2000","12","29","03:00","-7.6","","-7.8","","98","","4","","15","","2.8","","99.53","","","","-14","","Snow"
"2000-12-29 04:00","2000","12","29","04:00","-7.6","","-8.0","","97","","5","","11","","6.4","","99.53","","","","-13","","Snow"
"2000-12-29 05:00","2000","12","29","05:00","-7.8","","-8.4","","95","","7","","7","","6.4","","99.56","","","","-11","","Snow"
"2000-12-29 06:00","2000","12","29","06:00","-7.9","","-8.6","","95","","5","","7","","6.4","","99.53","","","","-12","","Snow"
"2000-12-29 07:00","2000","12","29","07:00","-8.3","","-8.9","","95","","9","","7","","6.4","","99.46","","","","-12","","Snow"
"2000-12-29 08:00","2000","12","29","08:00","-8.1","","-8.9","","94","","8","","11","","8.0","","99.46","","","","-13","","Fog"
"2000-12-29 09:00","2000","12","29","09:00","-8.5","","-9.4","","93","","6","","17","","9.7","","99.43","","","","-15","","Fog"
"2000-12-29 10:00","2000","12","29","10:00","-8.9","","-10.0","","92","","5","","17","","12.9","","99.40","","","","-16","","Cloudy"
"2000-12-29 11:00","2000","12","29","11:00","-8.7","","-10.0","","90","","5","","15","","16.1","","99.33","","","","-15","","Cloudy"
"2000-12-29 12:00","2000","12","29","12:00","-8.1","","-9.3","","91","","6","","19","","16.1","","99.23","","","","-15","","Cloudy"
"2000-12-29 13:00","2000","12","29","13:00","-7.4","","-8.9","","89","","4","","22","","16.1","","99.10","","","","-15","","Cloudy"
"2000-12-29 14:00","2000","12","29","14:00","-7.0","","-8.7","","88","","4","","17","","24.1","","99.06","","","","-13","","Cloudy"
"2000-12-29 15:00","2000","12","29","15:00","-6.9","","-8.8","","86","","6","","20","","8.0","","99.03","","","","-14","","Snow"
"2000-12-29 16:00","2000","12","29","16:00","-6.9","","-8.4","","89","","3","","22","","3.6","","98.96","","","","-14","","Snow"
"2000-12-29 17:00","2000","12","29","17:00","-7.2","","-8.6","","90","","4","","22","","3.6","","98.96","","","","-15","","Snow"
"2000-12-29 18:00","2000","12","29","18:00","-7.2","","-8.2","","93","","4","","22","","3.2","","98.93","","","","-15","","Snow"
"2000-12-29 19:00","2000","12","29","19:00","-7.4","","-8.1","","95","","6","","20","","2.0","","98.93","","","","-15","","Snow"
"2000-12-29 20:00","2000","12","29","20:00","-7.8","","-8.6","","94","","5","","22","","2.4","","98.93","","","","-15","","Snow"
"2000-12-29 21:00","2000","12","29","21:00","-8.1","","-8.9","","94","","6","","20","","3.2","","98.86","","","","-15","","Snow"
"2000-12-29 22:00","2000","12","29","22:00","-8.2","","-9.0","","94","","6","","22","","3.6","","98.86","","","","-16","","Snow"
"2000-12-29 23:00","2000","12","29","23:00","-8.1","","-8.9","","94","","4","","20","","3.2","","98.83","","","","-15","","Snow"
"2000-12-30 00:00","2000","12","30","00:00","-8.4","","-9.3","","93","","5","","19","","2.8","","98.83","","","","-16","","Snow"
"2000-12-30 01:00","2000","12","30","01:00","-8.5","","-9.7","","91","","4","","20","","6.4","","98.76","","","","-16","","Snow"
"2000-12-30 02:00","2000","12","30","02:00","-8.3","","-9.5","","91","","3","","19","","4.8","","98.73","","","","-16","","Snow"
"2000-12-30 03:00","2000","12","30","03:00","-8.4","","-9.6","","91","","2","","17","","3.2","","98.73","","","","-15","","Snow"
"2000-12-30 04:00","2000","12","30","04:00","-8.4","","-9.5","","92","","1","","17","","3.2","","98.70","","","","-15","","Snow"
"2000-12-30 05:00","2000","12","30","05:00","-8.0","","-9.3","","90","","3","","19","","2.8","","98.66","","","","-15","","Snow"
"2000-12-30 06:00","2000","12","30","06:00","-7.8","","-9.0","","91","","3","","20","","3.2","","98.66","","","","-15","","Snow"
"2000-12-30 07:00","2000","12","30","07:00","-7.4","","-8.6","","91","","3","","22","","2.4","","98.66","","","","-15","","Snow"
"2000-12-30 08:00","2000","12","30","08:00","-7.3","","-8.3","","93","","2","","15","","3.2","","98.66","","","","-13","","Snow"
"2000-12-30 09:00","2000","12","30","09:00","-6.9","","-8.0","","92","","3","","17","","6.4","","98.70","","","","-13","","Snow"
"2000-12-30 10:00","2000","12","30","10:00","-6.5","","-7.9","","90","","2","","20","","1.6","","98.76","","","","-13","","Snow"
"2000-12-30 11:00","2000","12","30","11:00","-7.0","","-9.2","","84","","5","","28","","11.3","","98.83","","","","-15","","Snow"
"2000-12-30 12:00","2000","12","30","12:00","-6.5","","-8.3","","87","","5","","19","","6.4","","98.80","","","","-13","","Snow"
"2000-12-30 13:00","2000","12","30","13:00","-6.3","","-7.5","","91","","4","","19","","1.2","","98.80","","","","-13","","Snow"
"2000-12-30 14:00","2000","12","30","14:00","-5.4","","-6.9","","89","","3","","17","","8.0","","98.76","","","","-11","","Snow"
"2000-12-30 15:00","2000","12","30","15:00","-4.8","","-6.2","","90","","4","","11","","2.4","","98.80","","","","-9","","Snow"
"2000-12-30 16:00","2000","12","30","16:00","-4.4","","-5.9","","89","","1","","7","","6.4","","98.86","","","","-8","","Snow"
"2000-12-30 17:00","2000","12","30","17:00","-4.7","","-6.0","","91","","36","","13","","3.6","","98.90","","","","-10","","Snow"
"2000-12-30 18:00","2000","12","30","18:00","-4.7","","-5.8","","92","","35","","11","","3.6","","98.93","","","","-9","","Snow"
"2000-12-30 19:00","2000","12","30","19:00","-4.3","","-5.3","","93","","34","","11","","4.0","","98.96","","","","-9","","Snow"
"2000-12-30 20:00","2000","12","30","20:00","-3.8","","-4.6","","94","","35","","9","","4.8","","99.03","","","","-8","","Snow"
"2000-12-30 21:00","2000","12","30","21:00","-3.0","","-4.4","","90","","36","","20","","9.7","","99.06","","","","-9","","Snow"
"2000-12-30 22:00","2000","12","30","22:00","-3.6","","-6.1","","83","","3","","24","","19.3","","99.13","","","","-10","","Snow"
"2000-12-30 23:00","2000","12","30","23:00","-4.2","","-6.4","","85","","34","","20","","24.1","","99.16","","","","-11","","Snow"
"2000-12-31 00:00","2000","12","31","00:00","-5.5","","-7.8","","84","","33","","19","","24.1","","99.16","","","","-12","","Mainly Clear"
"2000-12-31 01:00","2000","12","31","01:00","-5.4","","-7.6","","84","","34","","24","","24.1","","99.16","","","","-13","","Mostly Cloudy"
"2000-12-31 02:00","2000","12","31","02:00","-5.4","","-7.7","","84","","33","","20","","24.1","","99.20","","","","-12","","Mostly Cloudy"
"2000-12-31 03:00","2000","12","31","03:00","-5.4","","-7.9","","83","","33","","26","","24.1","","99.26","","","","-13","","Snow"
"2000-12-31 04:00","2000","12","31","04:00","-5.7","","-8.4","","81","","33","","22","","24.1","","99.26","","","","-13","","Mostly Cloudy"
"2000-12-31 05:00","2000","12","31","05:00","-6.5","","-9.2","","81","","34","","28","","8.0","","99.30","","","","-15","","Snow"
"2000-12-31 06:00","2000","12","31","06:00","-6.7","","-9.9","","78","","33","","24","","24.1","","99.36","","","","-14","","Snow"
"2000-12-31 07:00","2000","12","31","07:00","-7.2","","-10.3","","78","","32","","22","","24.1","","99.43","","","","-15","","Cloudy"
"2000-12-31 08:00","2000","12","31","08:00","-6.8","","-9.7","","80","","32","","26","","24.1","","99.50","","","","-15","","Cloudy"
"2000-12-31 09:00","2000","12","31","09:00","-6.6","","-10.0","","77","","32","","19","","24.1","","99.56","","","","-13","","Mostly Cloudy"
"2000-12-31 10:00","2000","12","31","10:00","-6.3","","-10.0","","75","","32","","22","","24.1","","99.56","","","","-14","","Mostly Cloudy"
"2000-12-31 11:00","2000","12","31","11:00","-5.8","","-9.7","","74","","33","","19","","24.1","","99.63","","","","-12","","Mostly Cloudy"
"2000-12-31 12:00","2000","12","31","12:00","-5.7","","-9.8","","73","","32","","24","","24.1","","99.60","","","","-13","","Mostly Cloudy"
"2000-12-31 13:00","2000","12","31","13:00","-5.1","","-9.4","","72","","34","","28","","24.1","","99.56","","","","-13","","Mostly Cloudy"
"2000-12-31 14:00","2000","12","31","14:00","-5.1","","-9.6","","71","","33","","15","","24.1","","99.60","","","","-11","","Cloudy"
"2000-12-31 15:00","2000","12","31","15:00","-5.1","","-9.0","","74","","34","","17","","11.3","","99.66","","","","-11","","Snow Showers"
"2000-12-31 16:00","2000","12","31","16:00","-5.4","","-7.6","","84","","34","","13","","4.0","","99.76","","","","-11","","Snow Showers"
"2000-12-31 17:00","2000","12","31","17:00","-5.6","","-7.3","","88","","35","","6","","8.0","","99.80","","","","-8","","Snow Showers"
"2000-12-31 18:00","2000","12","31","18:00","-5.4","","-7.3","","86","","","","0","","16.1","","99.86","","","","","","Snow Showers"
"2000-12-31 19:00","2000","12","31","19:00","-4.7","","-7.1","","83","","","","0","","24.1","","99.93","","","","","","Snow Showers"
"2000-12-31 20:00","2000","12","31","20:00","-4.7","","-7.1","","83","","34","","6","","24.1","","99.96","","","","-7","","Snow Showers"
"2000-12-31 21:00","2000","12","31","21:00","-4.5","","-7.5","","80","","32","","9","","24.1","","99.99","","","","-8","","Snow Showers"
"2000-12-31 22:00","2000","12","31","22:00","-4.8","","-8.5","","75","","33","","17","","24.1","","100.03","","","","-11","","Mostly Cloudy"
"2000-12-31 23:00","2000","12","31","23:00","-4.8","","-8.9","","73","","32","","17","","24.1","","100.06","","","","-11","","Snow Showers"
