"Station Name","WINDSOR A"
"Province","ONTARIO"
"Latitude","42.28"
"Longitude","-82.96"
"Elevation","189.60"
"Climate Identifier","6139527"
"WMO Identifier",""
"TC Identifier","YQG"
"All times are specified in Local Standard Time (LST). Add 1 hour to adjust for Daylight Saving Time where and when it is observed."

"Legend"
"E","Estimated"
"M","Missing"
"NA","Not Available"

"Date/Time","Year","Month","Day","Time","Temp (°C)","Temp Flag","Dew Point Temp (°C)","Dew Point Temp Flag","Rel Hum (%)","Rel Hum Flag","Wind Dir (10s deg)","Wind Dir Flag","Wind Spd (km/h)","Wind Spd Flag","Visibility (km)","Visibility Flag","Stn Press (kPa)","Stn Press Flag","Hmdx","Hmdx Flag","Wind Chill","Wind Chill Flag","Weather"
"2016-08-01 00:00","2016","08","01","00:00","21.0","","19.3","","90","","35","","6","","24.1","","99.49","","28","","","","NA"
"2016-08-01 01:00","2016","08","01","01:00","20.0","","18.3","","90","","36","","8","","24.1","","99.47","","26","","","","Mainly Clear"
"2016-08-01 02:00","2016","08","01","02:00","19.4","","17.9","","91","","35","","8","","24.1","","99.48","","","","","","NA"
"2016-08-01 03:00","2016","08","01","03:00","18.9","","17.8","","93","","33","","4","","24.1","","99.48","","","","","","NA"
"2016-08-01 04:00","2016","08","01","04:00","19.2","","17.9","","92","","32","","9","","24.1","","99.51","","","","","","Mostly Cloudy"
"2016-08-01 05:00","2016","08","01","05:00","19.1","","18.0","","93","","32","","8","","24.1","","99.53","","","","","","NA"
"2016-08-01 06:00","2016","08","01","06:00","19.0","","18.0","","94","","36","","2","","24.1","","99.55","","","","","","NA"
"2016-08-01 07:00","2016","08","01","07:00","20.9","","19.1","","89","","1","","6","","24.1","","99.59","","28","","","","Mostly Cloudy"
"2016-08-01 08:00","2016","08","01","08:00","22.4","","20.0","","86","","1","","11","","24.1","","99.61","","30","","","","NA"
"2016-08-01 09:00","2016","08","01","09:00","23.2","","19.8","","81","","5","","7","","24.1","","99.61","","31","","","","NA"
"2016-08-01 10:00","2016","08","01","10:00","24.7","","19.2","","71","","4","","7","","24.1","","99.62","","32","","","","Mainly Clear"
"2016-08-01 11:00","2016","08","01","11:00","25.9","","20.1","","70","","5","","11","","24.1","","99.60","","34","","","","NA"
"2016-08-01 12:00","2016","08","01","12:00","26.1","","19.9","","68","","12","","4","","24.1","","99.62","","34","","","","NA"
"2016-08-01 13:00","2016","08","01","13:00","26.4","","18.4","","61","","10","","5","","24.1","","99.63","","33","","","","Mostly Cloudy"
"2016-08-01 14:00","2016","08","01","14:00","27.1","","19.6","","63","","3","","6","","24.1","","99.60","","34","","","","NA"
"2016-08-01 15:00","2016","08","01","15:00","27.4","","18.8","","59","","1","","7","","24.1","","99.54","","34","","","","NA"
"2016-08-01 16:00","2016","08","01","16:00","27.3","","18.8","","59","","11","","5","","24.1","","99.46","","34","","","","Mainly Clear"
"2016-08-01 17:00","2016","08","01","17:00","27.9","","17.9","","54","","12","","10","","24.1","","99.44","","34","","","","NA"
"2016-08-01 18:00","2016","08","01","18:00","26.4","","19.2","","64","","10","","12","","24.1","","99.43","","33","","","","NA"
"2016-08-01 19:00","2016","08","01","19:00","25.6","","19.4","","68","","8","","10","","24.1","","99.45","","33","","","","Mostly Cloudy"
"2016-08-01 20:00","2016","08","01","20:00","24.9","","18.9","","69","","6","","5","","24.1","","99.49","","32","","","","NA"
"2016-08-01 21:00","2016","08","01","21:00","22.8","","19.2","","80","","8","","8","","24.1","","99.58","","30","","","","NA"
"2016-08-01 22:00","2016","08","01","22:00","22.8","","18.4","","76","","36","","3","","24.1","","99.63","","29","","","","Mainly Clear"
"2016-08-01 23:00","2016","08","01","23:00","22.3","","20.1","","87","","5","","15","","24.1","","99.65","","30","","","","NA"
"2016-08-02 00:00","2016","08","02","00:00","21.9","","20.2","","90","","2","","9","","24.1","","99.67","","30","","","","NA"
"2016-08-02 01:00","2016","08","02","01:00","21.6","","19.9","","90","","3","","9","","24.1","","99.67","","29","","","","Mainly Clear"
"2016-08-02 02:00","2016","08","02","02:00","21.3","","19.5","","89","","1","","5","","24.1","","99.65","","28","","","","NA"
"2016-08-02 03:00","2016","08","02","03:00","20.2","","19.1","","93","","36","","3","","24.1","","99.63","","27","","","","NA"
"2016-08-02 04:00","2016","08","02","04:00","20.2","","18.9","","92","","36","","6","","24.1","","99.63","","27","","","","Mostly Cloudy"
"2016-08-02 05:00","2016","08","02","05:00","19.8","","19.0","","95","","32","","3","","24.1","","99.63","","","","","","NA"
"2016-08-02 06:00","2016","08","02","06:00","19.5","","19.0","","97","","36","","1","","24.1","","99.62","","","","","","NA"
"2016-08-02 07:00","2016","08","02","07:00","23.0","","20.8","","87","","5","","12","","24.1","","99.64","","31","","","","Clear"
"2016-08-02 08:00","2016","08","02","08:00","24.3","","20.5","","79","","5","","11","","24.1","","99.70","","32","","","","NA"
"2016-08-02 09:00","2016","08","02","09:00","25.3","","20.2","","73","","9","","8","","24.1","","99.74","","33","","","","NA"
"2016-08-02 10:00","2016","08","02","10:00","26.9","","20.9","","69","","5","","4","","24.1","","99.71","","35","","","","Mainly Clear"
"2016-08-02 11:00","2016","08","02","11:00","26.6","","19.6","","65","","3","","7","","24.1","","99.75","","34","","","","NA"
"2016-08-02 12:00","2016","08","02","12:00","27.9","","19.6","","60","","7","","13","","24.1","","99.71","","35","","","","NA"
"2016-08-02 13:00","2016","08","02","13:00","28.4","","19.5","","58","","5","","13","","24.1","","99.71","","36","","","","Mainly Clear"
"2016-08-02 14:00","2016","08","02","14:00","29.0","","18.7","","53","","8","","14","","24.1","","99.66","","36","","","","NA"
"2016-08-02 15:00","2016","08","02","15:00","29.2","","16.3","","45","","10","","11","","24.1","","99.66","","34","","","","NA"
"2016-08-02 16:00","2016","08","02","16:00","28.9","","15.7","","44","","14","","12","","24.1","","99.59","","33","","","","Mainly Clear"
"2016-08-02 17:00","2016","08","02","17:00","28.9","","15.3","","43","","11","","15","","24.1","","99.56","","33","","","","NA"
"2016-08-02 18:00","2016","08","02","18:00","28.0","","16.2","","48","","9","","15","","24.1","","99.54","","33","","","","NA"
"2016-08-02 19:00","2016","08","02","19:00","25.9","","16.6","","56","","10","","10","","24.1","","99.51","","31","","","","Mainly Clear"
"2016-08-02 20:00","2016","08","02","20:00","22.9","","16.8","","68","","11","","8","","24.1","","99.51","","28","","","","NA"
"2016-08-02 21:00","2016","08","02","21:00","22.8","","15.8","","64","","10","","3","","24.1","","99.56","","27","","","","NA"
"2016-08-02 22:00","2016","08","02","22:00","21.0","","16.5","","75","","36","","2","","24.1","","99.57","","26","","","","Clear"
"2016-08-02 23:00","2016","08","02","23:00","20.9","","15.5","","71","","32","","3","","24.1","","99.62","","25","","","","NA"
"2016-08-03 00:00","2016","08","03","00:00","20.9","","15.7","","72","","36","","5","","24.1","","99.63","","25","","","","NA"
"2016-08-03 01:00","2016","08","03","01:00","19.1","","15.8","","81","","36","","2","","24.1","","99.64","","","","","","Clear"
"2016-08-03 02:00","2016","08","03","02:00","19.8","","15.9","","78","","3","","4","","24.1","","99.63","","","","","","NA"
"2016-08-03 03:00","2016","08","03","03:00","18.8","","16.6","","87","","5","","3","","24.1","","99.62","","","","","","NA"
"2016-08-03 04:00","2016","08","03","04:00","18.2","","16.7","","91","","36","","3","","24.1","","99.59","","","","","","Clear"
"2016-08-03 05:00","2016","08","03","05:00","18.3","","16.7","","90","","2","","4","","24.1","","99.57","","","","","","NA"
"2016-08-03 06:00","2016","08","03","06:00","18.1","","17.1","","94","","12","","5","","24.1","","99.60","","","","","","NA"
"2016-08-03 07:00","2016","08","03","07:00","21.5","","19.8","","90","","9","","4","","24.1","","99.63","","29","","","","Mainly Clear"
"2016-08-03 08:00","2016","08","03","08:00","24.9","","20.3","","75","","8","","9","","24.1","","99.67","","33","","","","NA"
"2016-08-03 09:00","2016","08","03","09:00","26.4","","20.1","","68","","12","","6","","24.1","","99.66","","34","","","","NA"
"2016-08-03 10:00","2016","08","03","10:00","28.0","","18.0","","54","","11","","6","","24.1","","99.67","","34","","","","Clear"
"2016-08-03 11:00","2016","08","03","11:00","29.0","","17.7","","50","","12","","8","","24.1","","99.63","","35","","","","NA"
"2016-08-03 12:00","2016","08","03","12:00","30.1","","20.3","","55","","6","","12","","24.1","","99.61","","38","","","","NA"
"2016-08-03 13:00","2016","08","03","13:00","30.2","","19.5","","52","","9","","11","","24.1","","99.57","","37","","","","Mainly Clear"
"2016-08-03 14:00","2016","08","03","14:00","30.4","","18.1","","47","","11","","12","","24.1","","99.53","","36","","","","NA"
"2016-08-03 15:00","2016","08","03","15:00","30.7","","17.0","","43","","14","","15","","24.1","","99.50","","36","","","","NA"
"2016-08-03 16:00","2016","08","03","16:00","30.2","","15.4","","40","","13","","19","","24.1","","99.49","","34","","","","Mainly Clear"
"2016-08-03 17:00","2016","08","03","17:00","29.5","","14.8","","40","","13","","19","","24.1","","99.49","","33","","","","NA"
"2016-08-03 18:00","2016","08","03","18:00","28.6","","14.7","","42","","13","","16","","24.1","","99.49","","32","","","","NA"
"2016-08-03 19:00","2016","08","03","19:00","26.6","","16.1","","52","","13","","9","","24.1","","99.48","","31","","","","Mainly Clear"
"2016-08-03 20:00","2016","08","03","20:00","24.4","","16.3","","60","","11","","3","","24.1","","99.46","","29","","","","NA"
"2016-08-03 21:00","2016","08","03","21:00","23.0","","15.7","","63","","36","","3","","24.1","","99.49","","27","","","","NA"
"2016-08-03 22:00","2016","08","03","22:00","21.6","","16.8","","74","","36","","3","","24.1","","99.46","","27","","","","Clear"
"2016-08-03 23:00","2016","08","03","23:00","22.0","","16.4","","70","","36","","2","","24.1","","99.48","","27","","","","NA"
"2016-08-04 00:00","2016","08","04","00:00","21.5","","16.3","","72","","","","0","","24.1","","99.47","","26","","","","NA"
"2016-08-04 01:00","2016","08","04","01:00","20.3","","17.4","","83","","7","","4","","24.1","","99.46","","26","","","","Clear"
"2016-08-04 02:00","2016","08","04","02:00","19.0","","17.5","","91","","6","","5","","24.1","","99.45","","","","","","NA"
"2016-08-04 03:00","2016","08","04","03:00","19.4","","17.9","","91","","4","","8","","24.1","","99.44","","","","","","NA"
"2016-08-04 04:00","2016","08","04","04:00","18.7","","17.7","","94","","7","","4","","24.1","","99.43","","","","","","Clear"
"2016-08-04 05:00","2016","08","04","05:00","18.8","","17.3","","91","","7","","5","","24.1","","99.41","","","","","","NA"
"2016-08-04 06:00","2016","08","04","06:00","19.0","","17.5","","91","","7","","5","","24.1","","99.43","","","","","","NA"
"2016-08-04 07:00","2016","08","04","07:00","21.5","","19.8","","90","","9","","4","","24.1","","99.44","","29","","","","Clear"
"2016-08-04 08:00","2016","08","04","08:00","24.3","","21.1","","82","","12","","3","","24.1","","99.47","","33","","","","NA"
"2016-08-04 09:00","2016","08","04","09:00","27.1","","22.2","","74","","18","","9","","24.1","","99.47","","37","","","","NA"
"2016-08-04 10:00","2016","08","04","10:00","28.3","","22.7","","71","","21","","11","","24.1","","99.45","","38","","","","Clear"
"2016-08-04 11:00","2016","08","04","11:00","29.6","","21.7","","62","","18","","8","","24.1","","99.42","","39","","","","NA"
"2016-08-04 12:00","2016","08","04","12:00","30.9","","21.0","","55","","17","","15","","24.1","","99.39","","39","","","","NA"
"2016-08-04 13:00","2016","08","04","13:00","30.6","","21.9","","59","","18","","20","","24.1","","99.34","","40","","","","Mainly Clear"
"2016-08-04 14:00","2016","08","04","14:00","31.4","","18.7","","46","","16","","19","","24.1","","99.30","","38","","","","NA"
"2016-08-04 15:00","2016","08","04","15:00","31.7","","17.5","","42","","17","","13","","24.1","","99.24","","37","","","","NA"
"2016-08-04 16:00","2016","08","04","16:00","31.6","","17.0","","41","","19","","19","","24.1","","99.22","","37","","","","Mainly Clear"
"2016-08-04 17:00","2016","08","04","17:00","31.2","","18.1","","45","","17","","14","","24.1","","99.20","","37","","","","NA"
"2016-08-04 18:00","2016","08","04","18:00","29.8","","18.2","","49","","18","","16","","24.1","","99.18","","36","","","","NA"
"2016-08-04 19:00","2016","08","04","19:00","28.0","","21.0","","65","","15","","12","","24.1","","99.14","","36","","","","Mainly Clear"
"2016-08-04 20:00","2016","08","04","20:00","25.6","","21.8","","79","","15","","11","","24.1","","99.10","","35","","","","NA"
"2016-08-04 21:00","2016","08","04","21:00","23.9","","21.8","","88","","16","","8","","24.1","","99.06","","33","","","","NA"
"2016-08-04 22:00","2016","08","04","22:00","23.4","","21.9","","91","","17","","8","","24.1","","99.08","","33","","","","Clear"
"2016-08-04 23:00","2016","08","04","23:00","23.4","","22.2","","93","","18","","9","","24.1","","99.07","","33","","","","NA"
"2016-08-05 00:00","2016","08","05","00:00","24.1","","22.8","","92","","18","","13","","24.1","","99.03","","34","","","","NA"
"2016-08-05 01:00","2016","08","05","01:00","24.1","","22.4","","90","","20","","13","","24.1","","99.02","","34","","","","Clear"
"2016-08-05 02:00","2016","08","05","02:00","24.0","","22.1","","89","","19","","13","","24.1","","98.94","","33","","","","NA"
"2016-08-05 03:00","2016","08","05","03:00","23.0","","21.8","","93","","20","","12","","24.1","","98.93","","32","","","","NA"
"2016-08-05 04:00","2016","08","05","04:00","22.5","","21.3","","93","","20","","8","","24.1","","98.88","","31","","","","Mainly Clear"
"2016-08-05 05:00","2016","08","05","05:00","22.3","","21.5","","95","","20","","10","","24.1","","98.87","","31","","","","NA"
"2016-08-05 06:00","2016","08","05","06:00","22.5","","21.2","","92","","24","","9","","19.3","","98.93","","31","","","","NA"
"2016-08-05 07:00","2016","08","05","07:00","23.6","","21.4","","87","","22","","10","","24.1","","98.94","","32","","","","Mostly Cloudy"
"2016-08-05 08:00","2016","08","05","08:00","25.4","","21.6","","79","","21","","18","","24.1","","98.91","","34","","","","NA"
"2016-08-05 09:00","2016","08","05","09:00","27.4","","22.7","","75","","21","","16","","24.1","","98.87","","37","","","","NA"
"2016-08-05 10:00","2016","08","05","10:00","28.9","","23.0","","70","","23","","21","","24.1","","98.83","","39","","","","Cloudy"
"2016-08-05 11:00","2016","08","05","11:00","29.4","","23.3","","69","","22","","17","","24.1","","98.81","","40","","","","NA"
"2016-08-05 12:00","2016","08","05","12:00","25.7","","23.2","","86","","27","","35","","9.7","","98.84","","36","","","","Rain Showers,Haze"
"2016-08-05 13:00","2016","08","05","13:00","26.1","","23.2","","84","","22","","19","","16.1","","98.80","","37","","","","Mostly Cloudy"
"2016-08-05 14:00","2016","08","05","14:00","27.8","","24.1","","80","","20","","20","","24.1","","98.77","","39","","","","NA"
"2016-08-05 15:00","2016","08","05","15:00","29.6","","23.4","","69","","23","","22","","19.3","","98.70","","40","","","","NA"
"2016-08-05 16:00","2016","08","05","16:00","30.3","","22.9","","64","","21","","22","","16.1","","98.63","","40","","","","Mainly Clear"
"2016-08-05 17:00","2016","08","05","17:00","30.2","","23.3","","66","","22","","27","","16.1","","98.60","","41","","","","NA"
"2016-08-05 18:00","2016","08","05","18:00","28.9","","23.0","","70","","23","","14","","16.1","","98.61","","39","","","","NA"
"2016-08-05 19:00","2016","08","05","19:00","29.9","","20.9","","58","","27","","22","","16.1","","98.62","","38","","","","Mostly Cloudy"
"2016-08-05 20:00","2016","08","05","20:00","28.7","","20.3","","60","","29","","18","","19.3","","98.65","","37","","","","NA"
"2016-08-05 21:00","2016","08","05","21:00","28.3","","18.3","","54","","31","","21","","19.3","","98.74","","35","","","","NA"
"2016-08-05 22:00","2016","08","05","22:00","26.8","","17.2","","55","","32","","25","","24.1","","98.80","","32","","","","Mainly Clear"
"2016-08-05 23:00","2016","08","05","23:00","25.5","","16.2","","56","","32","","20","","24.1","","98.80","","30","","","","NA"
"2016-08-06 00:00","2016","08","06","00:00","24.5","","16.4","","60","","32","","20","","24.1","","98.84","","29","","","","NA"
"2016-08-06 01:00","2016","08","06","01:00","23.3","","16.7","","66","","35","","14","","24.1","","98.85","","28","","","","Clear"
"2016-08-06 02:00","2016","08","06","02:00","21.4","","17.3","","77","","36","","3","","24.1","","98.90","","27","","","","NA"
"2016-08-06 03:00","2016","08","06","03:00","21.1","","17.6","","80","","34","","9","","24.1","","98.92","","27","","","","NA"
"2016-08-06 04:00","2016","08","06","04:00","21.1","","17.2","","78","","33","","9","","24.1","","98.96","","27","","","","Mainly Clear"
"2016-08-06 05:00","2016","08","06","05:00","20.1","","16.4","","79","","32","","9","","24.1","","99.01","","25","","","","NA"
"2016-08-06 06:00","2016","08","06","06:00","19.9","","15.8","","77","","35","","8","","24.1","","99.06","","","","","","NA"
"2016-08-06 07:00","2016","08","06","07:00","21.6","","16.6","","73","","36","","13","","24.1","","99.11","","27","","","","Mainly Clear"
"2016-08-06 08:00","2016","08","06","08:00","23.1","","16.7","","67","","1","","10","","24.1","","99.12","","28","","","","NA"
"2016-08-06 09:00","2016","08","06","09:00","24.6","","15.4","","56","","1","","16","","24.1","","99.11","","29","","","","NA"
"2016-08-06 10:00","2016","08","06","10:00","25.6","","15.2","","52","","5","","7","","24.1","","99.12","","30","","","","Mainly Clear"
"2016-08-06 11:00","2016","08","06","11:00","25.2","","15.4","","54","","5","","10","","24.1","","99.13","","29","","","","NA"
"2016-08-06 12:00","2016","08","06","12:00","25.2","","14.2","","50","","33","","6","","24.1","","99.12","","29","","","","NA"
"2016-08-06 13:00","2016","08","06","13:00","26.4","","14.4","","47","","26","","5","","24.1","","99.10","","30","","","","Mostly Cloudy"
"2016-08-06 14:00","2016","08","06","14:00","27.3","","13.5","","42","","34","","13","","24.1","","99.05","","30","","","","NA"
"2016-08-06 15:00","2016","08","06","15:00","26.8","","13.7","","44","","3","","4","","24.1","","99.03","","30","","","","NA"
"2016-08-06 16:00","2016","08","06","16:00","26.5","","15.4","","50","","10","","9","","24.1","","99.01","","31","","","","Mainly Clear"
"2016-08-06 17:00","2016","08","06","17:00","26.2","","16.3","","54","","12","","3","","24.1","","98.99","","31","","","","NA"
"2016-08-06 18:00","2016","08","06","18:00","26.0","","17.5","","59","","16","","11","","24.1","","98.97","","32","","","","NA"
"2016-08-06 19:00","2016","08","06","19:00","25.0","","17.6","","63","","17","","12","","24.1","","98.98","","31","","","","Clear"
"2016-08-06 20:00","2016","08","06","20:00","22.2","","18.1","","77","","18","","11","","24.1","","99.03","","28","","","","NA"
"2016-08-06 21:00","2016","08","06","21:00","20.9","","17.6","","81","","20","","12","","24.1","","99.10","","27","","","","NA"
"2016-08-06 22:00","2016","08","06","22:00","21.2","","17.3","","78","","21","","4","","24.1","","99.13","","27","","","","Clear"
"2016-08-06 23:00","2016","08","06","23:00","19.7","","17.3","","86","","22","","4","","24.1","","99.13","","","","","","NA"
"2016-08-07 00:00","2016","08","07","00:00","20.4","","17.3","","82","","24","","8","","24.1","","99.15","","26","","","","NA"
"2016-08-07 01:00","2016","08","07","01:00","20.7","","16.0","","74","","29","","12","","24.1","","99.15","","25","","","","Clear"
"2016-08-07 02:00","2016","08","07","02:00","19.9","","15.8","","77","","29","","8","","24.1","","99.15","","","","","","NA"
"2016-08-07 03:00","2016","08","07","03:00","21.0","","15.6","","71","","36","","13","","24.1","","99.19","","25","","","","NA"
"2016-08-07 04:00","2016","08","07","04:00","21.6","","15.8","","69","","4","","21","","24.1","","99.26","","26","","","","Mostly Cloudy"
"2016-08-07 05:00","2016","08","07","05:00","20.3","","16.8","","80","","1","","11","","24.1","","99.31","","25","","","","NA"
"2016-08-07 06:00","2016","08","07","06:00","19.6","","16.5","","82","","35","","13","","24.1","","99.37","","","","","","NA"
"2016-08-07 07:00","2016","08","07","07:00","21.1","","15.7","","71","","2","","16","","24.1","","99.42","","26","","","","Mainly Clear"
"2016-08-07 08:00","2016","08","07","08:00","22.2","","14.4","","61","","1","","17","","24.1","","99.43","","26","","","","NA"
"2016-08-07 09:00","2016","08","07","09:00","23.7","","13.7","","53","","4","","10","","24.1","","99.46","","27","","","","NA"
"2016-08-07 10:00","2016","08","07","10:00","25.5","","12.9","","45","","2","","11","","24.1","","99.48","","28","","","","Mainly Clear"
"2016-08-07 11:00","2016","08","07","11:00","26.0","","13.4","","45","","36","","7","","24.1","","99.50","","29","","","","NA"
"2016-08-07 12:00","2016","08","07","12:00","27.1","","14.0","","44","","1","","15","","24.1","","99.49","","30","","","","NA"
"2016-08-07 13:00","2016","08","07","13:00","27.5","","12.2","","38","","33","","16","","24.1","","99.48","","30","","","","Mostly Cloudy"
"2016-08-07 14:00","2016","08","07","14:00","26.9","","13.8","","44","","4","","18","","24.1","","99.45","","30","","","","NA"
"2016-08-07 15:00","2016","08","07","15:00","26.2","","14.5","","48","","9","","25","","24.1","","99.41","","30","","","","NA"
"2016-08-07 16:00","2016","08","07","16:00","26.5","","14.5","","47","","8","","18","","24.1","","99.41","","30","","","","Mostly Cloudy"
"2016-08-07 17:00","2016","08","07","17:00","26.2","","13.5","","45","","5","","27","","24.1","","99.41","","29","","","","NA"
"2016-08-07 18:00","2016","08","07","18:00","25.5","","14.8","","51","","4","","21","","24.1","","99.42","","29","","","","NA"
"2016-08-07 19:00","2016","08","07","19:00","23.2","","15.6","","62","","6","","23","","24.1","","99.43","","28","","","","Mostly Cloudy"
"2016-08-07 20:00","2016","08","07","20:00","22.1","","14.6","","62","","6","","16","","24.1","","99.47","","26","","","","NA"
"2016-08-07 21:00","2016","08","07","21:00","21.1","","13.9","","63","","6","","7","","24.1","","99.53","","","","","","NA"
"2016-08-07 22:00","2016","08","07","22:00","20.2","","13.5","","65","","5","","7","","24.1","","99.53","","","","","","Mainly Clear"
"2016-08-07 23:00","2016","08","07","23:00","16.9","","13.5","","80","","36","","5","","24.1","","99.53","","","","","","NA"
"2016-08-08 00:00","2016","08","08","00:00","17.8","","13.6","","76","","4","","6","","24.1","","99.54","","","","","","NA"
"2016-08-08 01:00","2016","08","08","01:00","18.0","","13.2","","73","","4","","5","","24.1","","99.56","","","","","","Clear"
"2016-08-08 02:00","2016","08","08","02:00","16.1","","12.9","","81","","23","","8","","24.1","","99.57","","","","","","NA"
"2016-08-08 03:00","2016","08","08","03:00","14.6","","12.3","","86","","25","","4","","24.1","","99.57","","","","","","NA"
"2016-08-08 04:00","2016","08","08","04:00","16.6","","13.2","","80","","35","","4","","24.1","","99.57","","","","","","Mostly Cloudy"
"2016-08-08 05:00","2016","08","08","05:00","15.1","","13.7","","91","","10","","9","","24.1","","99.61","","","","","","NA"
"2016-08-08 06:00","2016","08","08","06:00","15.6","","12.8","","83","","36","","3","","24.1","","99.68","","","","","","NA"
"2016-08-08 07:00","2016","08","08","07:00","19.8","","16.5","","81","","4","","17","","24.1","","99.73","","","","","","Mainly Clear"
"2016-08-08 08:00","2016","08","08","08:00","21.3","","15.5","","69","","4","","20","","24.1","","99.76","","26","","","","NA"
"2016-08-08 09:00","2016","08","08","09:00","22.2","","14.2","","60","","7","","16","","24.1","","99.76","","26","","","","NA"
"2016-08-08 10:00","2016","08","08","10:00","23.4","","13.7","","54","","6","","19","","24.1","","99.76","","27","","","","Mainly Clear"
"2016-08-08 11:00","2016","08","08","11:00","24.8","","12.9","","47","","3","","18","","24.1","","99.75","","28","","","","NA"
"2016-08-08 12:00","2016","08","08","12:00","25.9","","13.6","","46","","3","","19","","24.1","","99.71","","29","","","","NA"
"2016-08-08 13:00","2016","08","08","13:00","26.8","","14.4","","46","","4","","14","","24.1","","99.66","","30","","","","Mainly Clear"
"2016-08-08 14:00","2016","08","08","14:00","27.0","","15.6","","49","","4","","14","","24.1","","99.62","","31","","","","NA"
"2016-08-08 15:00","2016","08","08","15:00","27.3","","14.5","","45","","5","","19","","24.1","","99.59","","31","","","","NA"
"2016-08-08 16:00","2016","08","08","16:00","27.4","","15.0","","46","","7","","13","","24.1","","99.55","","31","","","","Mainly Clear"
"2016-08-08 17:00","2016","08","08","17:00","27.2","","14.8","","46","","3","","10","","24.1","","99.52","","31","","","","NA"
"2016-08-08 18:00","2016","08","08","18:00","27.0","","12.5","","40","","6","","19","","24.1","","99.50","","30","","","","NA"
"2016-08-08 19:00","2016","08","08","19:00","25.0","","14.0","","50","","9","","13","","24.1","","99.50","","28","","","","Mainly Clear"
"2016-08-08 20:00","2016","08","08","20:00","21.5","","13.5","","60","","10","","10","","24.1","","99.49","","25","","","","NA"
"2016-08-08 21:00","2016","08","08","21:00","19.6","","12.5","","63","","9","","9","","24.1","","99.52","","","","","","NA"
"2016-08-08 22:00","2016","08","08","22:00","18.1","","11.7","","66","","6","","8","","24.1","","99.55","","","","","","Clear"
"2016-08-08 23:00","2016","08","08","23:00","19.0","","12.4","","65","","6","","7","","24.1","","99.55","","","","","","NA"
"2016-08-09 00:00","2016","08","09","00:00","18.3","","13.0","","71","","36","","1","","24.1","","99.57","","","","","","NA"
"2016-08-09 01:00","2016","08","09","01:00","18.8","","14.5","","76","","3","","5","","24.1","","99.55","","","","","","Clear"
"2016-08-09 02:00","2016","08","09","02:00","19.3","","16.2","","82","","4","","8","","24.1","","99.52","","","","","","NA"
"2016-08-09 03:00","2016","08","09","03:00","19.5","","16.2","","81","","5","","10","","24.1","","99.52","","","","","","NA"
"2016-08-09 04:00","2016","08","09","04:00","19.8","","17.6","","87","","5","","5","","24.1","","99.50","","","","","","Mainly Clear"
"2016-08-09 05:00","2016","08","09","05:00","18.8","","16.4","","86","","8","","5","","24.1","","99.48","","","","","","NA"
"2016-08-09 06:00","2016","08","09","06:00","18.4","","15.9","","85","","7","","6","","24.1","","99.49","","","","","","NA"
"2016-08-09 07:00","2016","08","09","07:00","20.9","","17.6","","81","","7","","3","","24.1","","99.54","","27","","","","Mainly Clear"
"2016-08-09 08:00","2016","08","09","08:00","23.8","","19.2","","75","","36","","3","","24.1","","99.54","","31","","","","NA"
"2016-08-09 09:00","2016","08","09","09:00","26.1","","20.8","","72","","13","","9","","24.1","","99.51","","34","","","","NA"
"2016-08-09 10:00","2016","08","09","10:00","28.3","","19.7","","59","","10","","7","","24.1","","99.52","","36","","","","Mostly Cloudy"
"2016-08-09 11:00","2016","08","09","11:00","28.4","","19.2","","57","","17","","7","","24.1","","99.49","","35","","","","NA"
"2016-08-09 12:00","2016","08","09","12:00","29.2","","18.8","","53","","14","","11","","24.1","","99.44","","36","","","","NA"
"2016-08-09 13:00","2016","08","09","13:00","29.4","","18.7","","52","","17","","9","","24.1","","99.40","","36","","","","Mostly Cloudy"
"2016-08-09 14:00","2016","08","09","14:00","30.6","","18.9","","49","","16","","15","","24.1","","99.37","","37","","","","NA"
"2016-08-09 15:00","2016","08","09","15:00","30.1","","18.8","","50","","21","","12","","24.1","","99.35","","37","","","","NA"
"2016-08-09 16:00","2016","08","09","16:00","29.0","","19.2","","55","","16","","16","","24.1","","99.32","","36","","","","Mostly Cloudy"
"2016-08-09 17:00","2016","08","09","17:00","29.0","","17.4","","49","","17","","12","","24.1","","99.31","","35","","","","NA"
"2016-08-09 18:00","2016","08","09","18:00","28.5","","17.0","","49","","16","","7","","24.1","","99.30","","34","","","","NA"
"2016-08-09 19:00","2016","08","09","19:00","28.1","","18.7","","56","","16","","8","","24.1","","99.27","","35","","","","Mostly Cloudy"
"2016-08-09 20:00","2016","08","09","20:00","25.5","","20.4","","73","","13","","7","","24.1","","99.32","","33","","","","NA"
"2016-08-09 21:00","2016","08","09","21:00","23.6","","21.2","","86","","13","","5","","24.1","","99.39","","32","","","","NA"
"2016-08-09 22:00","2016","08","09","22:00","22.9","","21.4","","91","","18","","5","","24.1","","99.42","","32","","","","Mostly Cloudy"
"2016-08-09 23:00","2016","08","09","23:00","22.5","","21.0","","91","","18","","11","","24.1","","99.44","","31","","","","NA"
"2016-08-10 00:00","2016","08","10","00:00","22.8","","21.3","","91","","25","","7","","24.1","","99.43","","31","","","","NA"
"2016-08-10 01:00","2016","08","10","01:00","22.5","","21.0","","91","","25","","5","","24.1","","99.42","","31","","","","Mostly Cloudy"
"2016-08-10 02:00","2016","08","10","02:00","22.2","","21.4","","95","","27","","6","","24.1","","99.41","","31","","","","NA"
"2016-08-10 03:00","2016","08","10","03:00","20.9","","20.3","","96","","14","","6","","24.1","","99.43","","29","","","","NA"
"2016-08-10 04:00","2016","08","10","04:00","21.0","","20.4","","96","","36","","2","","19.3","","99.45","","29","","","","Mainly Clear"
"2016-08-10 05:00","2016","08","10","05:00","20.1","","19.6","","97","","15","","4","","16.1","","99.49","","27","","","","NA"
"2016-08-10 06:00","2016","08","10","06:00","22.1","","21.1","","94","","33","","5","","9.7","","99.55","","31","","","","Fog"
"2016-08-10 07:00","2016","08","10","07:00","24.7","","22.4","","87","","1","","3","","12.9","","99.59","","34","","","","Mainly Clear"
"2016-08-10 08:00","2016","08","10","08:00","27.2","","20.9","","68","","33","","9","","16.1","","99.63","","36","","","","NA"
"2016-08-10 09:00","2016","08","10","09:00","29.3","","18.9","","53","","35","","7","","24.1","","99.63","","36","","","","NA"
"2016-08-10 10:00","2016","08","10","10:00","30.7","","18.7","","48","","29","","8","","24.1","","99.67","","37","","","","Mainly Clear"
"2016-08-10 11:00","2016","08","10","11:00","30.6","","19.5","","51","","11","","4","","24.1","","99.68","","38","","","","NA"
"2016-08-10 12:00","2016","08","10","12:00","31.1","","19.7","","50","","16","","3","","24.1","","99.65","","38","","","","NA"
"2016-08-10 13:00","2016","08","10","13:00","32.3","","17.7","","41","","28","","7","","24.1","","99.62","","38","","","","Mainly Clear"
"2016-08-10 14:00","2016","08","10","14:00","31.5","","20.4","","51","","14","","9","","24.1","","99.58","","39","","","","NA"
"2016-08-10 15:00","2016","08","10","15:00","31.9","","20.1","","49","","20","","11","","24.1","","99.52","","40","","","","NA"
"2016-08-10 16:00","2016","08","10","16:00","32.4","","20.9","","50","","10","","15","","19.3","","99.51","","41","","","","Mostly Cloudy"
"2016-08-10 17:00","2016","08","10","17:00","32.0","","21.2","","52","","9","","13","","19.3","","99.49","","41","","","","NA"
"2016-08-10 18:00","2016","08","10","18:00","31.3","","22.0","","57","","10","","14","","19.3","","99.47","","41","","","","NA"
"2016-08-10 19:00","2016","08","10","19:00","29.4","","21.5","","62","","16","","17","","19.3","","99.50","","38","","","","Mainly Clear"
"2016-08-10 20:00","2016","08","10","20:00","27.0","","23.5","","81","","18","","19","","19.3","","99.51","","38","","","","NA"
"2016-08-10 21:00","2016","08","10","21:00","25.4","","23.3","","88","","21","","11","","24.1","","99.53","","36","","","","NA"
"2016-08-10 22:00","2016","08","10","22:00","24.6","","23.1","","91","","23","","3","","24.1","","99.57","","35","","","","Mainly Clear"
"2016-08-10 23:00","2016","08","10","23:00","23.9","","23.1","","95","","36","","2","","24.1","","99.58","","34","","","","NA"
"2016-08-11 00:00","2016","08","11","00:00","24.2","","23.2","","94","","19","","11","","24.1","","99.59","","35","","","","NA"
"2016-08-11 01:00","2016","08","11","01:00","23.3","","22.8","","97","","18","","6","","24.1","","99.59","","33","","","","Clear"
"2016-08-11 02:00","2016","08","11","02:00","23.1","","22.6","","97","","15","","3","","24.1","","99.57","","33","","","","NA"
"2016-08-11 03:00","2016","08","11","03:00","23.1","","22.6","","97","","36","","2","","24.1","","99.55","","33","","","","NA"
"2016-08-11 04:00","2016","08","11","04:00","23.0","","22.7","","98","","36","","1","","16.1","","99.51","","33","","","","Mainly Clear"
"2016-08-11 05:00","2016","08","11","05:00","23.1","","22.9","","99","","20","","10","","9.7","","99.51","","33","","","","Fog"
"2016-08-11 06:00","2016","08","11","06:00","24.3","","23.5","","95","","22","","12","","9.7","","99.51","","35","","","","Fog"
"2016-08-11 07:00","2016","08","11","07:00","26.0","","23.5","","86","","22","","9","","24.1","","99.54","","37","","","","Mostly Cloudy"
"2016-08-11 08:00","2016","08","11","08:00","28.1","","23.4","","75","","21","","20","","24.1","","99.54","","39","","","","NA"
"2016-08-11 09:00","2016","08","11","09:00","28.8","","22.9","","70","","22","","18","","24.1","","99.47","","39","","","","NA"
"2016-08-11 10:00","2016","08","11","10:00","30.2","","23.5","","67","","21","","18","","24.1","","99.40","","41","","","","Mainly Clear"
"2016-08-11 11:00","2016","08","11","11:00","30.7","","24.0","","67","","23","","15","","24.1","","99.41","","42","","","","NA"
"2016-08-11 12:00","2016","08","11","12:00","29.4","","25.7","","80","","26","","16","","24.1","","99.39","","43","","","","NA"
"2016-08-11 13:00","2016","08","11","13:00","27.3","","24.0","","82","","29","","10","","24.1","","99.32","","39","","","","Rain Showers"
"2016-08-11 14:00","2016","08","11","14:00","32.1","","23.6","","60","","20","","21","","24.1","","99.20","","43","","","","NA"
"2016-08-11 15:00","2016","08","11","15:00","31.1","","25.1","","70","","20","","19","","24.1","","99.13","","44","","","","Rain Showers"
"2016-08-11 16:00","2016","08","11","16:00","31.9","","24.4","","64","","17","","27","","24.1","","99.02","","44","","","","Cloudy"
"2016-08-11 17:00","2016","08","11","17:00","31.0","","23.8","","65","","20","","30","","24.1","","99.03","","42","","","","NA"
"2016-08-11 18:00","2016","08","11","18:00","29.7","","23.1","","67","","19","","19","","24.1","","98.99","","40","","","","NA"
"2016-08-11 19:00","2016","08","11","19:00","29.0","","23.3","","71","","19","","17","","24.1","","99.00","","40","","","","Mostly Cloudy"
"2016-08-11 20:00","2016","08","11","20:00","27.4","","23.3","","78","","19","","15","","24.1","","99.00","","38","","","","NA"
"2016-08-11 21:00","2016","08","11","21:00","26.8","","23.7","","83","","20","","16","","24.1","","98.98","","38","","","","NA"
"2016-08-11 22:00","2016","08","11","22:00","26.6","","23.9","","85","","20","","14","","24.1","","98.98","","38","","","","Mainly Clear"
"2016-08-11 23:00","2016","08","11","23:00","26.6","","24.1","","86","","20","","19","","24.1","","98.93","","38","","","","NA"
"2016-08-12 00:00","2016","08","12","00:00","26.6","","24.1","","86","","22","","18","","24.1","","98.96","","38","","","","NA"
"2016-08-12 01:00","2016","08","12","01:00","26.6","","23.9","","85","","22","","14","","24.1","","98.95","","38","","","","Mainly Clear"
"2016-08-12 02:00","2016","08","12","02:00","26.9","","23.2","","80","","23","","18","","24.1","","98.92","","37","","","","NA"
"2016-08-12 03:00","2016","08","12","03:00","26.4","","23.5","","84","","23","","19","","24.1","","98.89","","37","","","","NA"
"2016-08-12 04:00","2016","08","12","04:00","26.3","","23.6","","85","","24","","16","","24.1","","98.85","","37","","","","Mainly Clear"
"2016-08-12 05:00","2016","08","12","05:00","25.6","","23.7","","89","","22","","14","","24.1","","98.88","","37","","","","NA"
"2016-08-12 06:00","2016","08","12","06:00","25.2","","23.7","","91","","22","","15","","19.3","","98.92","","36","","","","NA"
"2016-08-12 07:00","2016","08","12","07:00","26.3","","23.8","","86","","24","","18","","24.1","","98.96","","37","","","","Cloudy"
"2016-08-12 08:00","2016","08","12","08:00","27.4","","24.1","","82","","24","","20","","16.1","","98.94","","39","","","","NA"
"2016-08-12 09:00","2016","08","12","09:00","28.5","","24.4","","78","","24","","23","","19.3","","98.90","","40","","","","NA"
"2016-08-12 10:00","2016","08","12","10:00","30.1","","24.2","","70","","25","","21","","24.1","","98.93","","42","","","","Mostly Cloudy"
"2016-08-12 11:00","2016","08","12","11:00","30.8","","24.6","","69","","23","","13","","24.1","","98.90","","43","","","","NA"
"2016-08-12 12:00","2016","08","12","12:00","32.3","","24.0","","61","","21","","19","","24.1","","98.85","","44","","","","NA"
"2016-08-12 13:00","2016","08","12","13:00","33.0","","24.1","","59","","23","","23","","24.1","","98.77","","44","","","","Mainly Clear"
"2016-08-12 14:00","2016","08","12","14:00","32.3","","23.5","","59","","21","","27","","24.1","","98.74","","43","","","","NA"
"2016-08-12 15:00","2016","08","12","15:00","33.2","","23.8","","57","","20","","23","","24.1","","98.70","","44","","","","NA"
"2016-08-12 16:00","2016","08","12","16:00","33.0","","23.6","","57","","21","","23","","24.1","","98.71","","44","","","","Mostly Cloudy"
"2016-08-12 17:00","2016","08","12","17:00","29.9","","23.0","","66","","21","","36","","24.1","","98.70","","40","","","","Moderate Rain Showers"
"2016-08-12 18:00","2016","08","12","18:00","28.6","","23.2","","72","","22","","25","","24.1","","98.71","","39","","","","NA"
"2016-08-12 19:00","2016","08","12","19:00","27.7","","23.4","","77","","22","","19","","24.1","","98.75","","38","","","","Mostly Cloudy"
"2016-08-12 20:00","2016","08","12","20:00","25.3","","23.2","","88","","33","","11","","24.1","","98.83","","36","","","","Rain Showers"
"2016-08-12 21:00","2016","08","12","21:00","24.1","","22.9","","93","","23","","3","","24.1","","98.88","","34","","","","NA"
"2016-08-12 22:00","2016","08","12","22:00","23.6","","22.4","","93","","17","","8","","24.1","","98.85","","33","","","","Mainly Clear"
"2016-08-12 23:00","2016","08","12","23:00","23.3","","22.0","","92","","17","","8","","24.1","","98.84","","33","","","","NA"
"2016-08-13 00:00","2016","08","13","00:00","23.2","","21.7","","91","","14","","4","","24.1","","98.82","","32","","","","NA"
"2016-08-13 01:00","2016","08","13","01:00","23.8","","22.8","","94","","16","","8","","16.1","","98.77","","34","","","","Rain Showers"
"2016-08-13 02:00","2016","08","13","02:00","24.2","","23.5","","96","","19","","8","","24.1","","98.72","","35","","","","NA"
"2016-08-13 03:00","2016","08","13","03:00","25.1","","24.1","","94","","19","","10","","24.1","","98.68","","36","","","","NA"
"2016-08-13 04:00","2016","08","13","04:00","25.5","","24.0","","91","","19","","12","","24.1","","98.66","","37","","","","Mostly Cloudy"
"2016-08-13 05:00","2016","08","13","05:00","25.3","","23.8","","91","","27","","6","","24.1","","98.68","","36","","","","NA"
"2016-08-13 06:00","2016","08","13","06:00","25.0","","23.6","","92","","19","","8","","24.1","","98.65","","36","","","","NA"
"2016-08-13 07:00","2016","08","13","07:00","25.9","","23.8","","88","","21","","16","","24.1","","98.65","","37","","","","Mostly Cloudy"
"2016-08-13 08:00","2016","08","13","08:00","27.1","","23.8","","82","","21","","29","","24.1","","98.63","","38","","","","NA"
"2016-08-13 09:00","2016","08","13","09:00","27.1","","23.8","","82","","23","","18","","19.3","","98.64","","38","","","","Rain Showers"
"2016-08-13 10:00","2016","08","13","10:00","25.2","","24.0","","93","","24","","21","","12.9","","98.67","","36","","","","Rain Showers"
"2016-08-13 11:00","2016","08","13","11:00","25.4","","23.9","","91","","23","","24","","12.9","","98.64","","37","","","","Rain Showers"
"2016-08-13 12:00","2016","08","13","12:00","26.5","","24.4","","88","","23","","13","","19.3","","98.61","","38","","","","NA"
"2016-08-13 13:00","2016","08","13","13:00","28.3","","24.0","","77","","23","","31","","19.3","","98.58","","40","","","","Mostly Cloudy"
"2016-08-13 14:00","2016","08","13","14:00","28.5","","24.0","","76","","24","","23","","24.1","","98.57","","40","","","","NA"
"2016-08-13 15:00","2016","08","13","15:00","25.2","","23.5","","90","","23","","15","","11.3","","98.58","","36","","","","Rain Showers"
"2016-08-13 16:00","2016","08","13","16:00","22.8","","21.6","","93","","22","","23","","9.7","","98.67","","32","","","","Thunderstorms,Rain Showers,Fog"
"2016-08-13 17:00","2016","08","13","17:00","24.7","","23.9","","95","","21","","21","","19.3","","98.62","","36","","","","NA"
"2016-08-13 18:00","2016","08","13","18:00","25.1","","23.7","","92","","21","","22","","24.1","","98.68","","36","","","","NA"
"2016-08-13 19:00","2016","08","13","19:00","23.5","","21.8","","90","","28","","12","","16.1","","98.74","","33","","","","Rain Showers"
"2016-08-13 20:00","2016","08","13","20:00","23.7","","22.9","","95","","23","","19","","24.1","","98.72","","34","","","","NA"
"2016-08-13 21:00","2016","08","13","21:00","23.2","","22.4","","95","","24","","13","","24.1","","98.82","","33","","","","NA"
"2016-08-13 22:00","2016","08","13","22:00","23.6","","23.1","","97","","24","","14","","24.1","","98.87","","34","","","","Mainly Clear"
"2016-08-13 23:00","2016","08","13","23:00","23.6","","22.9","","96","","24","","14","","19.3","","98.91","","34","","","","NA"
"2016-08-14 00:00","2016","08","14","00:00","23.2","","22.7","","97","","26","","10","","24.1","","98.94","","33","","","","NA"
"2016-08-14 01:00","2016","08","14","01:00","22.8","","22.3","","97","","25","","11","","24.1","","98.97","","32","","","","Mostly Cloudy"
"2016-08-14 02:00","2016","08","14","02:00","23.1","","21.6","","91","","28","","16","","24.1","","99.02","","32","","","","NA"
"2016-08-14 03:00","2016","08","14","03:00","22.5","","21.3","","93","","30","","14","","24.1","","99.03","","31","","","","NA"
"2016-08-14 04:00","2016","08","14","04:00","22.1","","20.9","","93","","29","","12","","24.1","","99.07","","30","","","","Mostly Cloudy"
"2016-08-14 05:00","2016","08","14","05:00","21.1","","20.5","","96","","26","","10","","24.1","","99.14","","29","","","","NA"
"2016-08-14 06:00","2016","08","14","06:00","20.4","","20.1","","98","","25","","7","","24.1","","99.23","","28","","","","NA"
"2016-08-14 07:00","2016","08","14","07:00","22.3","","21.1","","93","","29","","11","","24.1","","99.33","","31","","","","Mostly Cloudy"
"2016-08-14 08:00","2016","08","14","08:00","23.1","","20.3","","84","","32","","12","","24.1","","99.38","","31","","","","NA"
"2016-08-14 09:00","2016","08","14","09:00","23.5","","19.9","","80","","30","","10","","24.1","","99.40","","31","","","","NA"
"2016-08-14 10:00","2016","08","14","10:00","24.2","","19.6","","75","","34","","7","","24.1","","99.42","","31","","","","Mostly Cloudy"
"2016-08-14 11:00","2016","08","14","11:00","25.2","","19.7","","71","","27","","12","","24.1","","99.46","","33","","","","NA"
"2016-08-14 12:00","2016","08","14","12:00","25.6","","20.3","","72","","23","","11","","24.1","","99.46","","33","","","","NA"
"2016-08-14 13:00","2016","08","14","13:00","25.8","","20.0","","70","","23","","9","","24.1","","99.48","","33","","","","Cloudy"
"2016-08-14 14:00","2016","08","14","14:00","26.7","","20.2","","67","","23","","12","","24.1","","99.45","","34","","","","NA"
"2016-08-14 15:00","2016","08","14","15:00","26.1","","19.6","","67","","24","","16","","24.1","","99.45","","33","","","","NA"
"2016-08-14 16:00","2016","08","14","16:00","26.1","","21.2","","74","","21","","15","","24.1","","99.42","","35","","","","Mostly Cloudy"
"2016-08-14 17:00","2016","08","14","17:00","25.8","","21.5","","77","","20","","13","","19.3","","99.45","","35","","","","NA"
"2016-08-14 18:00","2016","08","14","18:00","25.1","","21.1","","78","","21","","18","","19.3","","99.47","","34","","","","NA"
"2016-08-14 19:00","2016","08","14","19:00","22.2","","20.7","","91","","22","","10","","24.1","","99.51","","30","","","","Mostly Cloudy"
"2016-08-14 20:00","2016","08","14","20:00","22.7","","21.2","","91","","23","","10","","24.1","","99.56","","31","","","","NA"
"2016-08-14 21:00","2016","08","14","21:00","22.3","","21.0","","92","","21","","6","","24.1","","99.63","","31","","","","NA"
"2016-08-14 22:00","2016","08","14","22:00","21.3","","20.0","","92","","20","","5","","24.1","","99.65","","29","","","","Mostly Cloudy"
"2016-08-14 23:00","2016","08","14","23:00","21.3","","20.0","","92","","19","","8","","24.1","","99.69","","29","","","","NA"
"2016-08-15 00:00","2016","08","15","00:00","20.9","","20.3","","96","","20","","5","","24.1","","99.68","","29","","","","NA"
"2016-08-15 01:00","2016","08","15","01:00","20.7","","20.2","","97","","21","","7","","24.1","","99.68","","28","","","","Cloudy"
"2016-08-15 02:00","2016","08","15","02:00","20.4","","19.9","","97","","36","","1","","24.1","","99.69","","28","","","","NA"
"2016-08-15 03:00","2016","08","15","03:00","20.3","","19.8","","97","","36","","2","","24.1","","99.72","","28","","","","NA"
"2016-08-15 04:00","2016","08","15","04:00","20.0","","19.8","","99","","21","","4","","24.1","","99.74","","27","","","","Mostly Cloudy"
"2016-08-15 05:00","2016","08","15","05:00","19.9","","19.7","","99","","36","","2","","24.1","","99.73","","","","","","NA"
"2016-08-15 06:00","2016","08","15","06:00","19.5","","19.5","","100","","12","","4","","19.3","","99.78","","","","","","NA"
"2016-08-15 07:00","2016","08","15","07:00","20.6","","20.6","","100","","36","","1","","16.1","","99.80","","29","","","","Mostly Cloudy"
"2016-08-15 08:00","2016","08","15","08:00","21.8","","21.2","","96","","36","","1","","12.9","","99.84","","30","","","","NA"
"2016-08-15 09:00","2016","08","15","09:00","22.8","","20.9","","89","","36","","1","","11.3","","99.85","","31","","","","NA"
"2016-08-15 10:00","2016","08","15","10:00","23.8","","22.1","","90","","16","","5","","11.3","","99.88","","33","","","","Cloudy"
"2016-08-15 11:00","2016","08","15","11:00","24.7","","21.9","","84","","20","","5","","16.1","","99.87","","34","","","","NA"
"2016-08-15 12:00","2016","08","15","12:00","25.0","","22.0","","83","","19","","16","","16.1","","99.82","","34","","","","NA"
"2016-08-15 13:00","2016","08","15","13:00","24.9","","21.9","","83","","21","","21","","16.1","","99.83","","34","","","","Cloudy"
"2016-08-15 14:00","2016","08","15","14:00","25.2","","21.6","","80","","21","","14","","16.1","","99.81","","34","","","","NA"
"2016-08-15 15:00","2016","08","15","15:00","25.3","","22.3","","83","","21","","14","","19.3","","99.76","","35","","","","NA"
"2016-08-15 16:00","2016","08","15","16:00","24.5","","21.9","","85","","20","","16","","19.3","","99.73","","34","","","","Cloudy"
"2016-08-15 17:00","2016","08","15","17:00","25.1","","21.9","","82","","21","","17","","24.1","","99.69","","34","","","","NA"
"2016-08-15 18:00","2016","08","15","18:00","24.5","","21.5","","83","","19","","15","","24.1","","99.66","","33","","","","NA"
"2016-08-15 19:00","2016","08","15","19:00","24.0","","21.8","","87","","19","","14","","24.1","","99.69","","33","","","","Mostly Cloudy"
"2016-08-15 20:00","2016","08","15","20:00","23.6","","22.1","","91","","18","","9","","24.1","","99.68","","33","","","","NA"
"2016-08-15 21:00","2016","08","15","21:00","23.1","","22.1","","94","","17","","10","","24.1","","99.71","","33","","","","NA"
"2016-08-15 22:00","2016","08","15","22:00","23.1","","22.3","","95","","18","","11","","16.1","","99.71","","33","","","","Cloudy"
"2016-08-15 23:00","2016","08","15","23:00","22.6","","22.1","","97","","16","","6","","16.1","","99.65","","32","","","","Rain Showers"
"2016-08-16 00:00","2016","08","16","00:00","22.3","","21.8","","97","","11","","10","","12.9","","99.58","","31","","","","Rain"
"2016-08-16 01:00","2016","08","16","01:00","22.3","","21.6","","96","","9","","13","","9.7","","99.46","","31","","","","Rain,Fog"
"2016-08-16 02:00","2016","08","16","02:00","21.7","","21.1","","96","","7","","13","","4.8","","99.31","","30","","","","Rain,Fog"
"2016-08-16 03:00","2016","08","16","03:00","22.0","","21.7","","98","","21","","17","","6.4","","99.34","","31","","","","Rain,Fog"
"2016-08-16 04:00","2016","08","16","04:00","23.1","","22.4","","96","","18","","22","","4.8","","99.22","","33","","","","Rain,Fog"
"2016-08-16 05:00","2016","08","16","05:00","23.1","","22.3","","95","","18","","22","","12.9","","99.12","","33","","","","NA"
"2016-08-16 06:00","2016","08","16","06:00","23.5","","21.8","","90","","20","","26","","19.3","","99.09","","33","","","","NA"
"2016-08-16 07:00","2016","08","16","07:00","23.7","","21.8","","89","","21","","35","","19.3","","99.07","","33","","","","Rain Showers"
"2016-08-16 08:00","2016","08","16","08:00","23.9","","21.8","","88","","22","","32","","24.1","","99.05","","33","","","","NA"
"2016-08-16 09:00","2016","08","16","09:00","23.9","","22.0","","89","","21","","32","","24.1","","99.04","","33","","","","NA"
"2016-08-16 10:00","2016","08","16","10:00","23.7","","21.6","","88","","23","","26","","24.1","","99.06","","33","","","","Rain Showers"
"2016-08-16 11:00","2016","08","16","11:00","24.1","","21.8","","87","","23","","32","","24.1","","99.10","","33","","","","NA"
"2016-08-16 12:00","2016","08","16","12:00","25.0","","22.9","","88","","25","","23","","24.1","","99.16","","35","","","","NA"
"2016-08-16 13:00","2016","08","16","13:00","25.6","","21.1","","76","","28","","21","","24.1","","99.23","","34","","","","Mostly Cloudy"
"2016-08-16 14:00","2016","08","16","14:00","25.9","","20.1","","70","","30","","21","","24.1","","99.28","","34","","","","NA"
"2016-08-16 15:00","2016","08","16","15:00","27.2","","20.2","","65","","33","","21","","24.1","","99.28","","35","","","","NA"
"2016-08-16 16:00","2016","08","16","16:00","26.4","","19.7","","66","","33","","17","","24.1","","99.31","","34","","","","Mostly Cloudy"
"2016-08-16 17:00","2016","08","16","17:00","27.4","","18.6","","58","","33","","20","","24.1","","99.36","","34","","","","NA"
"2016-08-16 18:00","2016","08","16","18:00","26.0","","17.5","","59","","33","","16","","24.1","","99.39","","32","","","","NA"
"2016-08-16 19:00","2016","08","16","19:00","24.6","","18.2","","67","","36","","9","","24.1","","99.44","","31","","","","Mostly Cloudy"
"2016-08-16 20:00","2016","08","16","20:00","23.4","","17.7","","70","","2","","5","","24.1","","99.50","","29","","","","NA"
"2016-08-16 21:00","2016","08","16","21:00","21.3","","19.1","","87","","23","","4","","24.1","","99.57","","28","","","","NA"
"2016-08-16 22:00","2016","08","16","22:00","20.1","","19.3","","95","","17","","7","","24.1","","99.59","","27","","","","Mostly Cloudy"
"2016-08-16 23:00","2016","08","16","23:00","19.8","","18.8","","94","","19","","7","","24.1","","99.63","","","","","","NA"
"2016-08-17 00:00","2016","08","17","00:00","19.4","","18.8","","96","","14","","5","","24.1","","99.67","","","","","","NA"
"2016-08-17 01:00","2016","08","17","01:00","18.6","","18.4","","99","","16","","8","","24.1","","99.69","","","","","","Mainly Clear"
"2016-08-17 02:00","2016","08","17","02:00","18.4","","18.2","","99","","36","","2","","24.1","","99.66","","","","","","NA"
"2016-08-17 03:00","2016","08","17","03:00","18.4","","18.2","","99","","20","","5","","24.1","","99.65","","","","","","NA"
"2016-08-17 04:00","2016","08","17","04:00","18.2","","18.0","","99","","21","","3","","24.1","","99.67","","","","","","Mainly Clear"
"2016-08-17 05:00","2016","08","17","05:00","17.9","","17.7","","99","","16","","7","","24.1","","99.63","","","","","","NA"
"2016-08-17 06:00","2016","08","17","06:00","17.9","","17.7","","99","","20","","4","","19.3","","99.60","","","","","","NA"
"2016-08-17 07:00","2016","08","17","07:00","20.1","","19.9","","99","","23","","8","","24.1","","99.65","","28","","","","Mostly Cloudy"
"2016-08-17 08:00","2016","08","17","08:00","22.5","","21.5","","94","","26","","8","","24.1","","99.68","","31","","","","NA"
"2016-08-17 09:00","2016","08","17","09:00","24.3","","21.7","","85","","22","","10","","24.1","","99.67","","33","","","","NA"
"2016-08-17 10:00","2016","08","17","10:00","25.7","","21.5","","77","","20","","12","","24.1","","99.67","","35","","","","Mostly Cloudy"
"2016-08-17 11:00","2016","08","17","11:00","26.4","","21.3","","73","","21","","15","","24.1","","99.64","","35","","","","NA"
"2016-08-17 12:00","2016","08","17","12:00","26.3","","20.5","","70","","20","","16","","24.1","","99.57","","34","","","","NA"
"2016-08-17 13:00","2016","08","17","13:00","26.3","","21.0","","72","","22","","18","","24.1","","99.51","","35","","","","Mostly Cloudy"
"2016-08-17 14:00","2016","08","17","14:00","27.3","","21.9","","72","","20","","23","","24.1","","99.44","","37","","","","NA"
"2016-08-17 15:00","2016","08","17","15:00","26.9","","20.1","","66","","21","","24","","24.1","","99.35","","35","","","","NA"
"2016-08-17 16:00","2016","08","17","16:00","21.1","","19.4","","90","","27","","24","","12.9","","99.45","","28","","","","Rain Showers"
"2016-08-17 17:00","2016","08","17","17:00","22.7","","20.5","","87","","24","","8","","19.3","","99.43","","31","","","","NA"
"2016-08-17 18:00","2016","08","17","18:00","22.0","","20.1","","89","","22","","7","","24.1","","99.44","","30","","","","NA"
"2016-08-17 19:00","2016","08","17","19:00","22.3","","19.5","","84","","23","","9","","24.1","","99.42","","29","","","","Mostly Cloudy"
"2016-08-17 20:00","2016","08","17","20:00","20.8","","19.5","","92","","20","","7","","24.1","","99.43","","28","","","","NA"
"2016-08-17 21:00","2016","08","17","21:00","20.0","","19.2","","95","","21","","9","","24.1","","99.45","","27","","","","NA"
"2016-08-17 22:00","2016","08","17","22:00","19.9","","18.9","","94","","28","","8","","24.1","","99.49","","","","","","Mainly Clear"
"2016-08-17 23:00","2016","08","17","23:00","20.4","","19.3","","93","","24","","16","","24.1","","99.45","","27","","","","NA"
"2016-08-18 00:00","2016","08","18","00:00","19.4","","18.8","","96","","24","","9","","24.1","","99.47","","","","","","NA"
"2016-08-18 01:00","2016","08","18","01:00","19.4","","18.9","","97","","26","","9","","24.1","","99.48","","","","","","Clear"
"2016-08-18 02:00","2016","08","18","02:00","20.6","","19.6","","94","","28","","14","","24.1","","99.50","","28","","","","NA"
"2016-08-18 03:00","2016","08","18","03:00","20.7","","19.4","","92","","30","","16","","24.1","","99.49","","28","","","","NA"
"2016-08-18 04:00","2016","08","18","04:00","20.7","","18.9","","89","","31","","10","","24.1","","99.51","","27","","","","Clear"
"2016-08-18 05:00","2016","08","18","05:00","19.5","","18.7","","95","","28","","13","","24.1","","99.57","","","","","","NA"
"2016-08-18 06:00","2016","08","18","06:00","19.0","","18.4","","96","","28","","9","","19.3","","99.61","","","","","","NA"
"2016-08-18 07:00","2016","08","18","07:00","20.4","","19.3","","93","","12","","3","","24.1","","99.64","","27","","","","Clear"
"2016-08-18 08:00","2016","08","18","08:00","22.9","","19.9","","83","","33","","4","","24.1","","99.65","","30","","","","NA"
"2016-08-18 09:00","2016","08","18","09:00","24.0","","19.8","","77","","11","","4","","24.1","","99.64","","31","","","","NA"
"2016-08-18 10:00","2016","08","18","10:00","24.9","","18.7","","68","","22","","5","","24.1","","99.63","","31","","","","Mostly Cloudy"
"2016-08-18 11:00","2016","08","18","11:00","25.7","","18.0","","62","","21","","4","","24.1","","99.61","","32","","","","NA"
"2016-08-18 12:00","2016","08","18","12:00","26.4","","20.1","","68","","18","","8","","24.1","","99.58","","34","","","","NA"
"2016-08-18 13:00","2016","08","18","13:00","27.1","","18.6","","59","","16","","7","","24.1","","99.55","","34","","","","Cloudy"
"2016-08-18 14:00","2016","08","18","14:00","27.1","","20.6","","67","","18","","16","","24.1","","99.51","","35","","","","NA"
"2016-08-18 15:00","2016","08","18","15:00","27.4","","19.4","","61","","21","","17","","24.1","","99.49","","34","","","","NA"
"2016-08-18 16:00","2016","08","18","16:00","27.1","","19.3","","62","","21","","13","","24.1","","99.45","","34","","","","Mostly Cloudy"
"2016-08-18 17:00","2016","08","18","17:00","27.3","","19.0","","60","","19","","11","","24.1","","99.43","","34","","","","NA"
"2016-08-18 18:00","2016","08","18","18:00","26.5","","19.0","","63","","19","","17","","24.1","","99.37","","33","","","","NA"
"2016-08-18 19:00","2016","08","18","19:00","24.4","","20.0","","76","","19","","11","","24.1","","99.33","","32","","","","Mostly Cloudy"
"2016-08-18 20:00","2016","08","18","20:00","21.9","","19.3","","85","","18","","7","","24.1","","99.31","","29","","","","NA"
"2016-08-18 21:00","2016","08","18","21:00","21.4","","18.8","","85","","17","","8","","24.1","","99.33","","28","","","","NA"
"2016-08-18 22:00","2016","08","18","22:00","20.3","","18.8","","91","","11","","5","","24.1","","99.33","","27","","","","Mostly Cloudy"
"2016-08-18 23:00","2016","08","18","23:00","19.6","","18.6","","94","","18","","3","","24.1","","99.33","","","","","","NA"
"2016-08-19 00:00","2016","08","19","00:00","20.2","","18.9","","92","","17","","9","","24.1","","99.33","","27","","","","NA"
"2016-08-19 01:00","2016","08","19","01:00","20.0","","19.2","","95","","17","","10","","24.1","","99.34","","27","","","","Mostly Cloudy"
"2016-08-19 02:00","2016","08","19","02:00","20.0","","19.4","","96","","17","","7","","24.1","","99.32","","27","","","","NA"
"2016-08-19 03:00","2016","08","19","03:00","20.0","","19.7","","98","","17","","3","","24.1","","99.31","","27","","","","NA"
"2016-08-19 04:00","2016","08","19","04:00","19.8","","19.5","","98","","16","","6","","24.1","","99.27","","","","","","Mainly Clear"
"2016-08-19 05:00","2016","08","19","05:00","19.6","","19.1","","97","","36","","2","","24.1","","99.24","","","","","","NA"
"2016-08-19 06:00","2016","08","19","06:00","18.9","","18.7","","99","","15","","4","","24.1","","99.20","","","","","","NA"
"2016-08-19 07:00","2016","08","19","07:00","21.7","","20.2","","91","","20","","6","","24.1","","99.17","","29","","","","Mainly Clear"
"2016-08-19 08:00","2016","08","19","08:00","24.0","","20.8","","82","","18","","11","","24.1","","99.16","","32","","","","NA"
"2016-08-19 09:00","2016","08","19","09:00","25.5","","21.9","","80","","20","","16","","24.1","","99.19","","35","","","","NA"
"2016-08-19 10:00","2016","08","19","10:00","26.6","","22.3","","77","","20","","10","","24.1","","99.15","","36","","","","Mostly Cloudy"
"2016-08-19 11:00","2016","08","19","11:00","26.9","","21.8","","73","","21","","19","","24.1","","99.09","","36","","","","NA"
"2016-08-19 12:00","2016","08","19","12:00","27.9","","22.9","","74","","20","","18","","24.1","","99.07","","38","","","","NA"
"2016-08-19 13:00","2016","08","19","13:00","28.3","","22.9","","72","","19","","21","","24.1","","99.03","","38","","","","Mostly Cloudy"
"2016-08-19 14:00","2016","08","19","14:00","28.9","","22.8","","69","","19","","25","","24.1","","98.98","","39","","","","NA"
"2016-08-19 15:00","2016","08","19","15:00","29.4","","22.5","","66","","21","","23","","24.1","","98.90","","39","","","","NA"
"2016-08-19 16:00","2016","08","19","16:00","28.8","","21.0","","62","","23","","6","","24.1","","98.83","","37","","","","Mostly Cloudy"
"2016-08-19 17:00","2016","08","19","17:00","27.9","","22.5","","72","","18","","12","","24.1","","98.81","","38","","","","NA"
"2016-08-19 18:00","2016","08","19","18:00","27.1","","21.3","","70","","23","","19","","24.1","","98.84","","36","","","","NA"
"2016-08-19 19:00","2016","08","19","19:00","25.9","","19.4","","67","","24","","16","","24.1","","98.84","","33","","","","Mostly Cloudy"
"2016-08-19 20:00","2016","08","19","20:00","24.5","","20.1","","76","","25","","12","","24.1","","98.85","","32","","","","NA"
"2016-08-19 21:00","2016","08","19","21:00","22.8","","20.0","","84","","24","","11","","24.1","","98.90","","30","","","","NA"
"2016-08-19 22:00","2016","08","19","22:00","22.6","","20.0","","85","","25","","9","","24.1","","98.92","","30","","","","Mainly Clear"
"2016-08-19 23:00","2016","08","19","23:00","21.4","","20.1","","92","","19","","9","","24.1","","98.94","","29","","","","NA"
"2016-08-20 00:00","2016","08","20","00:00","21.6","","20.1","","91","","19","","10","","24.1","","98.96","","29","","","","NA"
"2016-08-20 01:00","2016","08","20","01:00","21.0","","19.8","","93","","23","","10","","24.1","","98.94","","28","","","","Mainly Clear"
"2016-08-20 02:00","2016","08","20","02:00","21.2","","20.2","","94","","23","","7","","24.1","","98.89","","29","","","","NA"
"2016-08-20 03:00","2016","08","20","03:00","21.2","","20.2","","94","","23","","12","","24.1","","98.88","","29","","","","NA"
"2016-08-20 04:00","2016","08","20","04:00","21.0","","20.2","","95","","23","","9","","24.1","","98.85","","29","","","","Mainly Clear"
"2016-08-20 05:00","2016","08","20","05:00","20.6","","20.0","","96","","21","","9","","24.1","","98.86","","28","","","","NA"
"2016-08-20 06:00","2016","08","20","06:00","20.2","","19.9","","98","","20","","7","","9.7","","98.81","","28","","","","Fog"
"2016-08-20 07:00","2016","08","20","07:00","21.8","","21.2","","96","","19","","9","","16.1","","98.78","","30","","","","Mainly Clear"
"2016-08-20 08:00","2016","08","20","08:00","23.1","","21.9","","93","","20","","16","","19.3","","98.75","","32","","","","NA"
"2016-08-20 09:00","2016","08","20","09:00","24.9","","22.6","","87","","21","","15","","24.1","","98.69","","35","","","","NA"
"2016-08-20 10:00","2016","08","20","10:00","26.6","","22.1","","76","","18","","17","","24.1","","98.63","","36","","","","Mostly Cloudy"
"2016-08-20 11:00","2016","08","20","11:00","27.4","","22.2","","73","","19","","24","","24.1","","98.59","","37","","","","NA"
"2016-08-20 12:00","2016","08","20","12:00","27.4","","22.5","","74","","20","","21","","24.1","","98.53","","37","","","","NA"
"2016-08-20 13:00","2016","08","20","13:00","27.9","","21.8","","69","","20","","31","","24.1","","98.44","","37","","","","Mostly Cloudy"
"2016-08-20 14:00","2016","08","20","14:00","28.5","","20.9","","63","","18","","32","","24.1","","98.35","","37","","","","NA"
"2016-08-20 15:00","2016","08","20","15:00","27.6","","20.3","","64","","19","","34","","24.1","","98.30","","35","","","","NA"
"2016-08-20 16:00","2016","08","20","16:00","27.4","","20.6","","66","","18","","22","","19.3","","98.19","","35","","","","Rain Showers"
"2016-08-20 17:00","2016","08","20","17:00","27.0","","21.2","","70","","19","","20","","24.1","","98.14","","36","","","","Rain Showers"
"2016-08-20 18:00","2016","08","20","18:00","23.3","","22.5","","95","","21","","19","","12.9","","98.19","","33","","","","Rain Showers"
"2016-08-20 19:00","2016","08","20","19:00","22.2","","21.7","","97","","16","","14","","24.1","","98.12","","31","","","","Cloudy"
"2016-08-20 20:00","2016","08","20","20:00","23.0","","22.3","","96","","19","","20","","24.1","","98.10","","33","","","","NA"
"2016-08-20 21:00","2016","08","20","21:00","23.6","","22.8","","95","","18","","22","","19.3","","98.05","","34","","","","NA"
"2016-08-20 22:00","2016","08","20","22:00","23.3","","22.6","","96","","22","","29","","24.1","","98.06","","33","","","","Rain Showers"
"2016-08-20 23:00","2016","08","20","23:00","22.8","","21.8","","94","","23","","26","","24.1","","98.07","","32","","","","NA"
"2016-08-21 00:00","2016","08","21","00:00","22.1","","21.1","","94","","24","","21","","24.1","","98.11","","31","","","","NA"
"2016-08-21 01:00","2016","08","21","01:00","22.0","","20.7","","92","","24","","22","","24.1","","98.13","","30","","","","Cloudy"
"2016-08-21 02:00","2016","08","21","02:00","20.5","","17.2","","81","","28","","25","","24.1","","98.20","","26","","","","NA"
"2016-08-21 03:00","2016","08","21","03:00","19.1","","16.4","","84","","27","","18","","24.1","","98.23","","","","","","NA"
"2016-08-21 04:00","2016","08","21","04:00","18.6","","15.7","","83","","26","","16","","24.1","","98.32","","","","","","Mainly Clear"
"2016-08-21 05:00","2016","08","21","05:00","17.9","","16.8","","93","","24","","16","","24.1","","98.36","","","","","","NA"
"2016-08-21 06:00","2016","08","21","06:00","17.7","","16.4","","92","","25","","16","","24.1","","98.45","","","","","","NA"
"2016-08-21 07:00","2016","08","21","07:00","18.8","","16.4","","86","","26","","22","","24.1","","98.53","","","","","","Mainly Clear"
"2016-08-21 08:00","2016","08","21","08:00","20.0","","16.3","","79","","26","","21","","24.1","","98.58","","25","","","","NA"
"2016-08-21 09:00","2016","08","21","09:00","20.9","","16.2","","74","","27","","19","","24.1","","98.61","","26","","","","NA"
"2016-08-21 10:00","2016","08","21","10:00","22.5","","15.5","","64","","29","","25","","24.1","","98.67","","27","","","","Mainly Clear"
"2016-08-21 11:00","2016","08","21","11:00","23.2","","14.4","","57","","27","","27","","24.1","","98.71","","27","","","","NA"
"2016-08-21 12:00","2016","08","21","12:00","23.6","","15.3","","59","","26","","26","","24.1","","98.73","","28","","","","NA"
"2016-08-21 13:00","2016","08","21","13:00","24.8","","14.2","","51","","25","","30","","24.1","","98.77","","28","","","","Mainly Clear"
"2016-08-21 14:00","2016","08","21","14:00","25.3","","14.3","","50","","28","","18","","24.1","","98.77","","29","","","","NA"
"2016-08-21 15:00","2016","08","21","15:00","24.2","","13.6","","51","","26","","31","","24.1","","98.81","","27","","","","NA"
"2016-08-21 16:00","2016","08","21","16:00","23.7","","14.0","","54","","28","","23","","24.1","","98.85","","27","","","","Mostly Cloudy"
"2016-08-21 17:00","2016","08","21","17:00","23.1","","13.7","","55","","30","","23","","24.1","","98.92","","26","","","","NA"
"2016-08-21 18:00","2016","08","21","18:00","21.6","","13.9","","61","","31","","21","","24.1","","98.99","","25","","","","NA"
"2016-08-21 19:00","2016","08","21","19:00","19.6","","15.1","","75","","29","","18","","24.1","","99.07","","","","","","Mostly Cloudy"
"2016-08-21 20:00","2016","08","21","20:00","18.9","","15.8","","82","","28","","14","","24.1","","99.14","","","","","","NA"
"2016-08-21 21:00","2016","08","21","21:00","19.1","","15.6","","80","","29","","14","","24.1","","99.25","","","","","","NA"
"2016-08-21 22:00","2016","08","21","22:00","17.8","","15.3","","85","","29","","11","","24.1","","99.32","","","","","","Mainly Clear"
"2016-08-21 23:00","2016","08","21","23:00","17.4","","14.9","","85","","31","","9","","24.1","","99.37","","","","","","NA"
"2016-08-22 00:00","2016","08","22","00:00","16.7","","14.2","","85","","28","","8","","24.1","","99.44","","","","","","NA"
"2016-08-22 01:00","2016","08","22","01:00","16.0","","14.0","","88","","29","","8","","24.1","","99.48","","","","","","Mainly Clear"
"2016-08-22 02:00","2016","08","22","02:00","16.2","","14.1","","87","","32","","9","","24.1","","99.51","","","","","","NA"
"2016-08-22 03:00","2016","08","22","03:00","15.1","","13.8","","92","","28","","7","","24.1","","99.56","","","","","","NA"
"2016-08-22 04:00","2016","08","22","04:00","14.7","","13.6","","93","","29","","8","","24.1","","99.59","","","","","","Mainly Clear"
"2016-08-22 05:00","2016","08","22","05:00","15.1","","13.5","","90","","32","","8","","24.1","","99.66","","","","","","NA"
"2016-08-22 06:00","2016","08","22","06:00","13.4","","12.9","","97","","36","","2","","24.1","","99.74","","","","","","NA"
"2016-08-22 07:00","2016","08","22","07:00","17.1","","14.4","","84","","32","","7","","24.1","","99.80","","","","","","Clear"
"2016-08-22 08:00","2016","08","22","08:00","18.8","","13.5","","71","","36","","3","","24.1","","99.88","","","","","","NA"
"2016-08-22 09:00","2016","08","22","09:00","20.3","","11.4","","56","","35","","5","","24.1","","99.91","","","","","","NA"
"2016-08-22 10:00","2016","08","22","10:00","21.9","","13.4","","58","","36","","9","","24.1","","99.97","","25","","","","Mostly Cloudy"
"2016-08-22 11:00","2016","08","22","11:00","21.9","","11.5","","51","","14","","5","","24.1","","99.98","","","","","","NA"
"2016-08-22 12:00","2016","08","22","12:00","22.3","","10.9","","48","","23","","8","","24.1","","99.98","","","","","","NA"
"2016-08-22 13:00","2016","08","22","13:00","23.2","","12.1","","49","","22","","6","","24.1","","99.97","","26","","","","Mostly Cloudy"
"2016-08-22 14:00","2016","08","22","14:00","23.4","","13.1","","52","","21","","10","","24.1","","99.96","","26","","","","NA"
"2016-08-22 15:00","2016","08","22","15:00","23.8","","14.4","","55","","22","","16","","24.1","","99.92","","27","","","","NA"
"2016-08-22 16:00","2016","08","22","16:00","24.1","","14.7","","55","","23","","16","","24.1","","99.92","","28","","","","Mainly Clear"
"2016-08-22 17:00","2016","08","22","17:00","23.8","","12.6","","49","","24","","12","","24.1","","99.91","","26","","","","NA"
"2016-08-22 18:00","2016","08","22","18:00","22.4","","14.1","","59","","20","","13","","24.1","","99.90","","26","","","","NA"
"2016-08-22 19:00","2016","08","22","19:00","20.6","","14.8","","69","","19","","13","","24.1","","99.92","","","","","","Mainly Clear"
"2016-08-22 20:00","2016","08","22","20:00","18.1","","14.6","","80","","21","","11","","24.1","","99.95","","","","","","NA"
"2016-08-22 21:00","2016","08","22","21:00","17.5","","14.3","","81","","19","","13","","24.1","","100.00","","","","","","NA"
"2016-08-22 22:00","2016","08","22","22:00","16.9","","13.7","","81","","20","","11","","24.1","","100.01","","","","","","Clear"
"2016-08-22 23:00","2016","08","22","23:00","16.1","","13.3","","83","","22","","8","","24.1","","100.03","","","","","","NA"
"2016-08-23 00:00","2016","08","23","00:00","16.3","","14.0","","86","","36","","3","","24.1","","100.05","","","","","","NA"
"2016-08-23 01:00","2016","08","23","01:00","14.7","","13.8","","94","","19","","3","","24.1","","100.09","","","","","","Clear"
"2016-08-23 02:00","2016","08","23","02:00","14.2","","13.6","","96","","36","","1","","24.1","","100.13","","","","","","NA"
"2016-08-23 03:00","2016","08","23","03:00","13.7","","13.1","","96","","18","","4","","24.1","","100.16","","","","","","NA"
"2016-08-23 04:00","2016","08","23","04:00","14.0","","13.1","","94","","36","","1","","24.1","","100.17","","","","","","Mainly Clear"
"2016-08-23 05:00","2016","08","23","05:00","13.7","","13.1","","96","","36","","2","","24.1","","100.19","","","","","","NA"
"2016-08-23 06:00","2016","08","23","06:00","13.3","","12.5","","95","","24","","6","","24.1","","100.24","","","","","","NA"
"2016-08-23 07:00","2016","08","23","07:00","17.1","","15.0","","87","","22","","8","","24.1","","100.26","","","","","","Mainly Clear"
"2016-08-23 08:00","2016","08","23","08:00","19.9","","15.4","","75","","22","","11","","24.1","","100.24","","","","","","NA"
"2016-08-23 09:00","2016","08","23","09:00","21.7","","14.5","","63","","22","","15","","24.1","","100.25","","25","","","","NA"
"2016-08-23 10:00","2016","08","23","10:00","23.5","","15.7","","61","","22","","20","","24.1","","100.23","","28","","","","Mostly Cloudy"
"2016-08-23 11:00","2016","08","23","11:00","24.0","","15.1","","57","","22","","22","","24.1","","100.25","","28","","","","NA"
"2016-08-23 12:00","2016","08","23","12:00","25.0","","15.2","","54","","21","","20","","24.1","","100.23","","29","","","","NA"
"2016-08-23 13:00","2016","08","23","13:00","25.4","","15.0","","52","","21","","22","","24.1","","100.18","","29","","","","Mostly Cloudy"
"2016-08-23 14:00","2016","08","23","14:00","25.8","","16.0","","54","","21","","18","","24.1","","100.13","","30","","","","NA"
"2016-08-23 15:00","2016","08","23","15:00","25.4","","15.9","","55","","19","","23","","24.1","","100.06","","30","","","","NA"
"2016-08-23 16:00","2016","08","23","16:00","25.0","","16.6","","59","","19","","15","","24.1","","100.05","","30","","","","Mostly Cloudy"
"2016-08-23 17:00","2016","08","23","17:00","25.7","","16.2","","55","","19","","18","","24.1","","100.03","","30","","","","NA"
"2016-08-23 18:00","2016","08","23","18:00","24.8","","16.4","","59","","19","","17","","24.1","","100.01","","30","","","","NA"
"2016-08-23 19:00","2016","08","23","19:00","22.2","","16.8","","71","","18","","12","","24.1","","100.02","","27","","","","Mostly Cloudy"
"2016-08-23 20:00","2016","08","23","20:00","20.7","","16.8","","78","","17","","8","","24.1","","100.04","","26","","","","NA"
"2016-08-23 21:00","2016","08","23","21:00","18.6","","16.6","","88","","15","","5","","24.1","","100.05","","","","","","NA"
"2016-08-23 22:00","2016","08","23","22:00","17.7","","16.6","","93","","16","","6","","24.1","","100.02","","","","","","Mainly Clear"
"2016-08-23 23:00","2016","08","23","23:00","17.1","","16.0","","93","","14","","4","","24.1","","99.98","","","","","","NA"
"2016-08-24 00:00","2016","08","24","00:00","17.0","","15.9","","93","","14","","3","","24.1","","99.95","","","","","","NA"
"2016-08-24 01:00","2016","08","24","01:00","17.2","","15.9","","92","","15","","5","","24.1","","99.92","","","","","","Clear"
"2016-08-24 02:00","2016","08","24","02:00","16.4","","15.6","","95","","19","","3","","24.1","","99.90","","","","","","NA"
"2016-08-24 03:00","2016","08","24","03:00","16.9","","15.8","","93","","16","","10","","24.1","","99.89","","","","","","NA"
"2016-08-24 04:00","2016","08","24","04:00","16.9","","15.8","","93","","19","","8","","24.1","","99.89","","","","","","Clear"
"2016-08-24 05:00","2016","08","24","05:00","16.9","","15.8","","93","","19","","8","","24.1","","99.92","","","","","","NA"
"2016-08-24 06:00","2016","08","24","06:00","15.5","","15.0","","97","","16","","8","","24.1","","99.90","","","","","","NA"
"2016-08-24 07:00","2016","08","24","07:00","19.2","","17.7","","91","","16","","10","","24.1","","99.86","","","","","","Mainly Clear"
"2016-08-24 08:00","2016","08","24","08:00","22.4","","19.2","","82","","18","","14","","24.1","","99.81","","29","","","","NA"
"2016-08-24 09:00","2016","08","24","09:00","24.1","","18.6","","71","","19","","21","","24.1","","99.73","","31","","","","NA"
"2016-08-24 10:00","2016","08","24","10:00","25.4","","19.2","","68","","19","","19","","24.1","","99.73","","32","","","","Mostly Cloudy"
"2016-08-24 11:00","2016","08","24","11:00","26.1","","18.6","","63","","19","","23","","24.1","","99.68","","33","","","","NA"
"2016-08-24 12:00","2016","08","24","12:00","26.1","","19.4","","66","","19","","28","","24.1","","99.62","","33","","","","NA"
"2016-08-24 13:00","2016","08","24","13:00","27.2","","20.7","","67","","19","","28","","24.1","","99.53","","35","","","","Mostly Cloudy"
"2016-08-24 14:00","2016","08","24","14:00","26.8","","21.0","","70","","19","","25","","24.1","","99.45","","35","","","","NA"
"2016-08-24 15:00","2016","08","24","15:00","27.4","","21.1","","68","","19","","33","","16.1","","99.33","","36","","","","NA"
"2016-08-24 16:00","2016","08","24","16:00","27.9","","22.0","","70","","19","","28","","16.1","","99.32","","37","","","","Cloudy"
"2016-08-24 17:00","2016","08","24","17:00","27.9","","22.5","","72","","20","","26","","16.1","","99.27","","38","","","","NA"
"2016-08-24 18:00","2016","08","24","18:00","26.6","","22.1","","76","","19","","26","","9.7","","99.18","","36","","","","Thunderstorms,Rain Showers"
"2016-08-24 19:00","2016","08","24","19:00","25.0","","22.9","","88","","22","","21","","16.1","","99.21","","35","","","","Cloudy"
"2016-08-24 20:00","2016","08","24","20:00","25.0","","22.9","","88","","21","","18","","4.8","","99.23","","35","","","","Rain Showers,Fog"
"2016-08-24 21:00","2016","08","24","21:00","24.4","","23.0","","92","","21","","15","","16.1","","99.22","","35","","","","NA"
"2016-08-24 22:00","2016","08","24","22:00","23.3","","22.5","","95","","20","","10","","19.3","","99.19","","33","","","","Mostly Cloudy"
"2016-08-24 23:00","2016","08","24","23:00","22.4","","22.1","","98","","16","","3","","19.3","","99.13","","32","","","","NA"
"2016-08-25 00:00","2016","08","25","00:00","22.0","","21.8","","99","","19","","8","","16.1","","99.16","","31","","","","NA"
"2016-08-25 01:00","2016","08","25","01:00","22.9","","22.6","","98","","24","","13","","12.9","","99.12","","33","","","","Mostly Cloudy"
"2016-08-25 02:00","2016","08","25","02:00","22.5","","22.2","","98","","23","","10","","8.1","","99.13","","32","","","","Fog"
"2016-08-25 03:00","2016","08","25","03:00"
"2016-08-25 04:00","2016","08","25","04:00","22.4","","22.1","","98","","25","","12","","8.1","","99.25","","32","","","","Fog"
"2016-08-25 05:00","2016","08","25","05:00","22.3","","21.8","","97","","25","","8","","12.9","","99.27","","31","","","","NA"
"2016-08-25 06:00","2016","08","25","06:00","21.2","","21.0","","99","","23","","9","","8.1","","99.29","","30","","","","Fog"
"2016-08-25 07:00","2016","08","25","07:00","22.4","","22.1","","98","","23","","13","","8.1","","99.30","","32","","","","Fog"
"2016-08-25 08:00","2016","08","25","08:00","24.0","","22.7","","92","","23","","10","","11.3","","99.29","","34","","","","NA"
"2016-08-25 09:00","2016","08","25","09:00","24.5","","22.6","","89","","22","","9","","24.1","","99.23","","34","","","","NA"
"2016-08-25 10:00","2016","08","25","10:00","25.8","","23.3","","86","","21","","14","","24.1","","99.26","","36","","","","Mostly Cloudy"
"2016-08-25 11:00","2016","08","25","11:00","27.6","","23.7","","79","","22","","15","","24.1","","99.26","","39","","","","NA"
"2016-08-25 12:00","2016","08","25","12:00","26.7","","23.8","","84","","20","","16","","24.1","","99.24","","38","","","","NA"
"2016-08-25 13:00","2016","08","25","13:00","28.1","","24.0","","78","","22","","21","","24.1","","99.20","","39","","","","Mainly Clear"
"2016-08-25 14:00","2016","08","25","14:00","29.5","","22.9","","67","","23","","26","","24.1","","99.17","","40","","","","NA"
"2016-08-25 15:00","2016","08","25","15:00","29.1","","23.0","","69","","24","","21","","24.1","","99.14","","39","","","","NA"
"2016-08-25 16:00","2016","08","25","16:00","27.2","","22.7","","76","","24","","18","","24.1","","99.15","","37","","","","Mostly Cloudy"
"2016-08-25 17:00","2016","08","25","17:00","28.9","","20.8","","61","","27","","30","","24.1","","99.15","","37","","","","NA"
"2016-08-25 18:00","2016","08","25","18:00","28.3","","21.2","","65","","29","","24","","24.1","","99.17","","37","","","","NA"
"2016-08-25 19:00","2016","08","25","19:00","26.9","","20.9","","69","","27","","21","","24.1","","99.24","","35","","","","Mainly Clear"
"2016-08-25 20:00","2016","08","25","20:00","26.0","","20.7","","72","","28","","14","","24.1","","99.31","","34","","","","NA"
"2016-08-25 21:00","2016","08","25","21:00","25.2","","20.8","","76","","28","","17","","24.1","","99.35","","33","","","","NA"
"2016-08-25 22:00","2016","08","25","22:00","25.0","","20.1","","74","","28","","19","","24.1","","99.38","","33","","","","Mainly Clear"
"2016-08-25 23:00","2016","08","25","23:00","23.6","","18.8","","74","","29","","14","","24.1","","99.40","","30","","","","NA"
"2016-08-26 00:00","2016","08","26","00:00","22.4","","17.4","","73","","29","","16","","24.1","","99.45","","28","","","","NA"
"2016-08-26 01:00","2016","08","26","01:00","20.8","","17.3","","80","","29","","11","","24.1","","99.50","","26","","","","Clear"
"2016-08-26 02:00","2016","08","26","02:00","19.6","","16.9","","84","","29","","11","","24.1","","99.54","","","","","","NA"
"2016-08-26 03:00","2016","08","26","03:00","18.7","","16.2","","85","","28","","9","","24.1","","99.57","","","","","","NA"
"2016-08-26 04:00","2016","08","26","04:00","18.2","","16.0","","87","","30","","10","","24.1","","99.61","","","","","","Clear"
"2016-08-26 05:00","2016","08","26","05:00","17.9","","15.7","","87","","28","","10","","24.1","","99.63","","","","","","NA"
"2016-08-26 06:00","2016","08","26","06:00","17.6","","15.8","","89","","27","","11","","24.1","","99.68","","","","","","NA"
"2016-08-26 07:00","2016","08","26","07:00","19.5","","16.8","","84","","28","","11","","24.1","","99.71","","","","","","Mainly Clear"
"2016-08-26 08:00","2016","08","26","08:00","21.8","","17.5","","76","","28","","11","","24.1","","99.76","","27","","","","NA"
"2016-08-26 09:00","2016","08","26","09:00","23.2","","17.7","","71","","26","","8","","24.1","","99.83","","29","","","","NA"
"2016-08-26 10:00","2016","08","26","10:00","24.6","","17.9","","66","","36","","2","","24.1","","99.83","","31","","","","Mainly Clear"
"2016-08-26 11:00","2016","08","26","11:00","25.9","","17.4","","59","","21","","8","","24.1","","99.84","","31","","","","NA"
"2016-08-26 12:00","2016","08","26","12:00","26.6","","16.7","","54","","28","","5","","24.1","","99.80","","32","","","","NA"
"2016-08-26 13:00","2016","08","26","13:00","27.5","","17.6","","54","","25","","11","","24.1","","99.77","","33","","","","Mainly Clear"
"2016-08-26 14:00","2016","08","26","14:00","28.1","","17.2","","51","","22","","10","","24.1","","99.73","","34","","","","NA"
"2016-08-26 15:00","2016","08","26","15:00","28.2","","18.2","","54","","23","","19","","24.1","","99.71","","34","","","","NA"
"2016-08-26 16:00","2016","08","26","16:00","28.0","","19.4","","59","","21","","14","","24.1","","99.67","","35","","","","Mainly Clear"
"2016-08-26 17:00","2016","08","26","17:00","27.4","","20.1","","64","","21","","13","","24.1","","99.66","","35","","","","NA"
"2016-08-26 18:00","2016","08","26","18:00","26.4","","19.7","","66","","20","","13","","24.1","","99.71","","34","","","","NA"
"2016-08-26 19:00","2016","08","26","19:00","23.6","","19.8","","79","","17","","7","","24.1","","99.70","","31","","","","Mostly Cloudy"
"2016-08-26 20:00","2016","08","26","20:00","22.1","","19.7","","86","","20","","8","","24.1","","99.74","","29","","","","NA"
"2016-08-26 21:00","2016","08","26","21:00","23.3","","19.7","","80","","30","","4","","24.1","","99.81","","31","","","","NA"
"2016-08-26 22:00","2016","08","26","22:00","21.6","","19.6","","88","","23","","9","","24.1","","99.83","","29","","","","Mainly Clear"
"2016-08-26 23:00","2016","08","26","23:00","20.6","","19.6","","94","","0","","1","","24.1","","99.82","","28","","","","NA"
"2016-08-27 00:00","2016","08","27","00:00","19.2","","18.9","","98","","12","","7","","24.1","","99.79","","","","","","NA"
"2016-08-27 01:00","2016","08","27","01:00","19.8","","19.5","","98","","36","","1","","24.1","","99.78","","","","","","Mainly Clear"
"2016-08-27 02:00","2016","08","27","02:00","18.9","","18.6","","98","","14","","5","","24.1","","99.82","","","","","","NA"
"2016-08-27 03:00","2016","08","27","03:00","19.2","","19.0","","99","","11","","4","","12.9","","99.82","","","","","","NA"
"2016-08-27 04:00","2016","08","27","04:00","20.0","","19.5","","97","","36","","3","","12.9","","99.82","","27","","","","Cloudy"
"2016-08-27 05:00","2016","08","27","05:00","20.1","","19.6","","97","","8","","5","","16.1","","99.81","","27","","","","NA"
"2016-08-27 06:00","2016","08","27","06:00","20.4","","19.4","","94","","9","","5","","19.3","","99.84","","27","","","","NA"
"2016-08-27 07:00","2016","08","27","07:00","21.0","","20.4","","96","","11","","8","","19.3","","99.85","","29","","","","Cloudy"
"2016-08-27 08:00","2016","08","27","08:00","23.7","","21.5","","87","","12","","13","","19.3","","99.85","","33","","","","NA"
"2016-08-27 09:00","2016","08","27","09:00","25.1","","20.9","","77","","12","","17","","24.1","","99.85","","33","","","","NA"
"2016-08-27 10:00","2016","08","27","10:00","26.0","","19.3","","66","","14","","21","","24.1","","99.84","","33","","","","Cloudy"
"2016-08-27 11:00","2016","08","27","11:00","27.2","","19.9","","64","","13","","17","","24.1","","99.77","","35","","","","NA"
"2016-08-27 12:00","2016","08","27","12:00","27.7","","19.9","","62","","13","","15","","24.1","","99.72","","35","","","","NA"
"2016-08-27 13:00","2016","08","27","13:00","28.8","","20.2","","59","","13","","12","","24.1","","99.64","","37","","","","Cloudy"
"2016-08-27 14:00","2016","08","27","14:00","26.6","","21.0","","71","","15","","9","","24.1","","99.65","","35","","","","NA"
"2016-08-27 15:00","2016","08","27","15:00","21.7","","21.2","","97","","31","","18","","2.4","","99.78","","30","","","","Thunderstorms,Heavy Rain Showers"
"2016-08-27 16:00","2016","08","27","16:00","21.4","","21.1","","98","","8","","13","","8.1","","99.72","","30","","","","Thunderstorms,Rain Showers,Fog"
"2016-08-27 17:00","2016","08","27","17:00","22.4","","21.9","","97","","9","","9","","12.9","","99.68","","32","","","","NA"
"2016-08-27 18:00","2016","08","27","18:00","22.2","","21.5","","96","","11","","9","","11.3","","99.61","","31","","","","NA"
"2016-08-27 19:00","2016","08","27","19:00","21.9","","21.3","","96","","13","","13","","12.9","","99.66","","31","","","","Mostly Cloudy"
"2016-08-27 20:00","2016","08","27","20:00","21.2","","20.7","","97","","18","","8","","24.1","","99.71","","29","","","","NA"
"2016-08-27 21:00","2016","08","27","21:00","21.0","","20.8","","99","","17","","10","","24.1","","99.72","","29","","","","NA"
"2016-08-27 22:00","2016","08","27","22:00","21.3","","21.0","","98","","19","","9","","24.1","","99.72","","30","","","","Mainly Clear"
"2016-08-27 23:00","2016","08","27","23:00","21.0","","20.5","","97","","21","","8","","24.1","","99.74","","29","","","","NA"
"2016-08-28 00:00","2016","08","28","00:00","20.9","","20.7","","99","","36","","2","","24.1","","99.76","","29","","","","NA"
"2016-08-28 01:00","2016","08","28","01:00","20.0","","20.0","","100","","17","","6","","24.1","","99.73","","28","","","","Clear"
"2016-08-28 02:00","2016","08","28","02:00","19.8","","19.8","","100","","29","","4","","6.4","","99.73","","","","","","Fog"
"2016-08-28 03:00","2016","08","28","03:00","19.6","","19.6","","100","","20","","7","","6.4","","99.80","","","","","","Fog"
"2016-08-28 04:00","2016","08","28","04:00","20.6","","20.6","","100","","24","","5","","6.4","","99.81","","29","","","","Fog"
"2016-08-28 05:00","2016","08","28","05:00","21.3","","21.3","","100","","25","","8","","0.6","","99.83","","30","","","","Fog"
"2016-08-28 06:00","2016","08","28","06:00","21.2","","21.2","","100","","22","","5","","0.4","","99.87","","30","","","","Fog"
"2016-08-28 07:00","2016","08","28","07:00","21.4","","21.4","","100","","23","","9","","0.4","","99.90","","30","","","","Fog"
"2016-08-28 08:00","2016","08","28","08:00","22.1","","22.1","","100","","25","","9","","1.6","","99.94","","32","","","","Fog"
"2016-08-28 09:00","2016","08","28","09:00","22.7","","22.7","","100","","21","","8","","4.8","","99.96","","33","","","","Fog"
"2016-08-28 10:00","2016","08","28","10:00","25.0","","23.3","","90","","27","","8","","9.7","","99.95","","36","","","","Fog"
"2016-08-28 11:00","2016","08","28","11:00","26.8","","23.3","","81","","29","","4","","9.7","","99.97","","37","","","","Fog"
"2016-08-28 12:00","2016","08","28","12:00","29.0","","21.9","","65","","30","","16","","12.9","","99.97","","38","","","","NA"
"2016-08-28 13:00","2016","08","28","13:00","28.2","","22.1","","69","","32","","13","","12.9","","99.92","","38","","","","Mostly Cloudy"
"2016-08-28 14:00","2016","08","28","14:00","27.3","","21.7","","71","","26","","10","","19.3","","99.92","","36","","","","Thunderstorms"
"2016-08-28 15:00","2016","08","28","15:00","23.6","","21.7","","89","","13","","7","","24.1","","99.93","","33","","","","NA"
"2016-08-28 16:00","2016","08","28","16:00","25.4","","22.0","","81","","15","","4","","24.1","","99.88","","35","","","","Mostly Cloudy"
"2016-08-28 17:00","2016","08","28","17:00","25.8","","23.0","","84","","20","","9","","19.3","","99.85","","36","","","","NA"
"2016-08-28 18:00","2016","08","28","18:00","26.4","","23.7","","85","","24","","9","","19.3","","99.83","","37","","","","NA"
"2016-08-28 19:00","2016","08","28","19:00","24.8","","23.1","","90","","15","","3","","19.3","","99.83","","35","","","","Mostly Cloudy"
"2016-08-28 20:00","2016","08","28","20:00","23.3","","22.5","","95","","18","","5","","24.1","","99.90","","33","","","","NA"
"2016-08-28 21:00","2016","08","28","21:00","22.4","","21.9","","97","","0","","1","","24.1","","99.96","","32","","","","NA"
"2016-08-28 22:00","2016","08","28","22:00","22.9","","21.2","","90","","6","","21","","24.1","","100.05","","31","","","","Mainly Clear"
"2016-08-28 23:00","2016","08","28","23:00","21.9","","20.2","","90","","3","","15","","24.1","","100.08","","30","","","","NA"
"2016-08-29 00:00","2016","08","29","00:00","20.8","","19.7","","93","","4","","8","","24.1","","100.09","","28","","","","NA"
"2016-08-29 01:00","2016","08","29","01:00","20.5","","19.2","","92","","5","","7","","24.1","","100.08","","27","","","","Mainly Clear"
"2016-08-29 02:00","2016","08","29","02:00","19.8","","18.8","","94","","2","","8","","24.1","","100.08","","","","","","NA"
"2016-08-29 03:00","2016","08","29","03:00","19.7","","18.7","","94","","5","","5","","24.1","","100.08","","","","","","NA"
"2016-08-29 04:00","2016","08","29","04:00","19.9","","19.1","","95","","2","","9","","24.1","","100.09","","","","","","Mainly Clear"
"2016-08-29 05:00","2016","08","29","05:00","19.5","","18.9","","96","","4","","10","","24.1","","100.14","","","","","","NA"
"2016-08-29 06:00","2016","08","29","06:00","19.3","","19.0","","98","","4","","10","","19.3","","100.21","","","","","","NA"
"2016-08-29 07:00","2016","08","29","07:00","21.0","","19.5","","91","","5","","12","","19.3","","100.24","","28","","","","Clear"
"2016-08-29 08:00","2016","08","29","08:00","22.4","","18.6","","79","","6","","13","","24.1","","100.27","","29","","","","NA"
"2016-08-29 09:00","2016","08","29","09:00","23.1","","17.7","","71","","7","","18","","24.1","","100.29","","29","","","","NA"
"2016-08-29 10:00","2016","08","29","10:00","24.0","","19.2","","74","","6","","15","","24.1","","100.30","","31","","","","Mainly Clear"
"2016-08-29 11:00","2016","08","29","11:00","24.3","","19.5","","74","","10","","13","","24.1","","100.30","","31","","","","NA"
"2016-08-29 12:00","2016","08","29","12:00","24.9","","19.6","","72","","6","","7","","24.1","","100.29","","32","","","","NA"
"2016-08-29 13:00","2016","08","29","13:00","25.6","","19.6","","69","","13","","7","","24.1","","100.25","","33","","","","Clear"
"2016-08-29 14:00","2016","08","29","14:00","26.0","","18.8","","64","","11","","9","","24.1","","100.22","","33","","","","NA"
"2016-08-29 15:00","2016","08","29","15:00","26.5","","19.0","","63","","9","","8","","24.1","","100.12","","33","","","","NA"
"2016-08-29 16:00","2016","08","29","16:00","26.5","","16.6","","54","","9","","7","","24.1","","100.09","","32","","","","Mainly Clear"
"2016-08-29 17:00","2016","08","29","17:00","26.4","","16.5","","54","","9","","7","","24.1","","100.04","","31","","","","NA"
"2016-08-29 18:00","2016","08","29","18:00","24.8","","17.9","","65","","10","","7","","24.1","","100.03","","31","","","","NA"
"2016-08-29 19:00","2016","08","29","19:00","22.4","","18.0","","76","","18","","7","","24.1","","100.00","","28","","","","Mainly Clear"
"2016-08-29 20:00","2016","08","29","20:00","20.9","","19.4","","91","","24","","9","","24.1","","100.05","","28","","","","NA"
"2016-08-29 21:00","2016","08","29","21:00","20.3","","19.7","","96","","36","","2","","24.1","","100.07","","28","","","","NA"
"2016-08-29 22:00","2016","08","29","22:00","19.2","","18.9","","98","","15","","5","","24.1","","100.02","","","","","","Mostly Cloudy"
"2016-08-29 23:00","2016","08","29","23:00","18.9","","18.4","","97","","7","","5","","24.1","","99.99","","","","","","NA"
"2016-08-30 00:00","2016","08","30","00:00","18.3","","18.1","","99","","18","","4","","24.1","","100.00","","","","","","NA"
"2016-08-30 01:00","2016","08","30","01:00","18.2","","18.2","","100","","36","","3","","24.1","","99.98","","","","","","Mostly Cloudy"
"2016-08-30 02:00","2016","08","30","02:00","17.6","","17.6","","100","","15","","7","","24.1","","99.99","","","","","","NA"
"2016-08-30 03:00","2016","08","30","03:00","17.3","","17.3","","100","","16","","4","","24.1","","99.95","","","","","","NA"
"2016-08-30 04:00","2016","08","30","04:00","17.6","","17.3","","98","","36","","1","","24.1","","99.93","","","","","","Mainly Clear"
"2016-08-30 05:00","2016","08","30","05:00","17.6","","17.4","","99","","36","","2","","24.1","","99.93","","","","","","NA"
"2016-08-30 06:00","2016","08","30","06:00","17.9","","17.7","","99","","21","","4","","24.1","","99.92","","","","","","NA"
"2016-08-30 07:00","2016","08","30","07:00","20.1","","19.8","","98","","22","","6","","9.7","","99.95","","28","","","","Fog"
"2016-08-30 08:00","2016","08","30","08:00","22.4","","20.7","","90","","24","","7","","16.1","","99.94","","31","","","","NA"
"2016-08-30 09:00","2016","08","30","09:00","23.9","","18.6","","72","","21","","13","","24.1","","99.90","","30","","","","NA"
"2016-08-30 10:00","2016","08","30","10:00","24.9","","19.2","","70","","19","","13","","24.1","","99.86","","32","","","","Mostly Cloudy"
"2016-08-30 11:00","2016","08","30","11:00","26.0","","17.3","","58","","20","","16","","24.1","","99.84","","31","","","","NA"
"2016-08-30 12:00","2016","08","30","12:00","25.6","","17.9","","62","","19","","14","","24.1","","99.81","","32","","","","NA"
"2016-08-30 13:00","2016","08","30","13:00","24.8","","16.4","","59","","19","","12","","24.1","","99.78","","30","","","","Cloudy"
"2016-08-30 14:00","2016","08","30","14:00","26.4","","15.3","","50","","19","","11","","24.1","","99.69","","31","","","","NA"
"2016-08-30 15:00","2016","08","30","15:00","26.3","","17.0","","56","","21","","4","","24.1","","99.63","","32","","","","NA"
"2016-08-30 16:00","2016","08","30","16:00","25.1","","16.9","","60","","17","","9","","24.1","","99.56","","30","","","","Cloudy"
"2016-08-30 17:00","2016","08","30","17:00","24.3","","16.7","","62","","18","","9","","24.1","","99.52","","29","","","","NA"
"2016-08-30 18:00","2016","08","30","18:00","23.8","","18.5","","72","","17","","7","","24.1","","99.47","","30","","","","NA"
"2016-08-30 19:00","2016","08","30","19:00","22.5","","18.7","","79","","16","","9","","24.1","","99.45","","29","","","","Cloudy"
"2016-08-30 20:00","2016","08","30","20:00","22.0","","19.4","","85","","14","","5","","24.1","","99.46","","29","","","","NA"
"2016-08-30 21:00","2016","08","30","21:00","21.9","","19.5","","86","","17","","5","","24.1","","99.48","","29","","","","NA"
"2016-08-30 22:00","2016","08","30","22:00","21.3","","19.1","","87","","19","","9","","24.1","","99.48","","28","","","","Mostly Cloudy"
"2016-08-30 23:00","2016","08","30","23:00","20.9","","18.7","","87","","20","","10","","24.1","","99.43","","27","","","","NA"
"2016-08-31 00:00","2016","08","31","00:00","21.5","","19.5","","88","","25","","10","","24.1","","99.40","","29","","","","NA"
"2016-08-31 01:00","2016","08","31","01:00","21.7","","19.8","","89","","27","","8","","24.1","","99.36","","29","","","","Cloudy"
"2016-08-31 02:00","2016","08","31","02:00","21.0","","20.0","","94","","20","","7","","24.1","","99.33","","29","","","","NA"
"2016-08-31 03:00","2016","08","31","03:00","21.1","","19.9","","93","","23","","5","","24.1","","99.31","","29","","","","NA"
"2016-08-31 04:00","2016","08","31","04:00","21.1","","20.1","","94","","23","","8","","24.1","","99.28","","29","","","","Rain Showers"
"2016-08-31 05:00","2016","08","31","05:00","22.3","","20.3","","88","","33","","7","","24.1","","99.28","","30","","","","Rain Showers"
"2016-08-31 06:00","2016","08","31","06:00","20.9","","20.3","","96","","36","","2","","19.3","","99.29","","29","","","","Rain Showers"
"2016-08-31 07:00","2016","08","31","07:00","21.4","","20.9","","97","","27","","8","","16.1","","99.32","","30","","","","Mostly Cloudy"
"2016-08-31 08:00","2016","08","31","08:00","22.8","","19.8","","83","","35","","5","","19.3","","99.32","","30","","","","NA"
"2016-08-31 09:00","2016","08","31","09:00","23.2","","21.0","","87","","35","","8","","12.9","","99.29","","32","","","","NA"
"2016-08-31 10:00","2016","08","31","10:00","23.6","","21.0","","85","","35","","7","","16.1","","99.30","","32","","","","Cloudy"
"2016-08-31 11:00","2016","08","31","11:00","23.9","","21.5","","86","","6","","13","","16.1","","99.28","","33","","","","NA"
"2016-08-31 12:00","2016","08","31","12:00","24.9","","21.5","","81","","4","","9","","16.1","","99.25","","34","","","","NA"
"2016-08-31 13:00","2016","08","31","13:00","25.6","","21.4","","77","","6","","20","","16.1","","99.22","","34","","","","Mostly Cloudy"
"2016-08-31 14:00","2016","08","31","14:00","25.8","","20.3","","71","","5","","22","","19.3","","99.23","","34","","","","NA"
"2016-08-31 15:00","2016","08","31","15:00","25.2","","18.3","","65","","35","","16","","24.1","","99.21","","31","","","","NA"
"2016-08-31 16:00","2016","08","31","16:00","23.6","","17.5","","68","","3","","29","","24.1","","99.21","","29","","","","Mostly Cloudy"
"2016-08-31 17:00","2016","08","31","17:00","23.7","","16.1","","62","","2","","19","","24.1","","99.23","","28","","","","NA"
"2016-08-31 18:00","2016","08","31","18:00","23.4","","14.3","","56","","2","","19","","24.1","","99.23","","27","","","","NA"
"2016-08-31 19:00","2016","08","31","19:00","21.1","","15.5","","70","","3","","27","","24.1","","99.31","","25","","","","Mostly Cloudy"
"2016-08-31 20:00","2016","08","31","20:00","20.6","","14.1","","66","","1","","24","","24.1","","99.40","","","","","","NA"
"2016-08-31 21:00","2016","08","31","21:00","19.2","","13.7","","70","","35","","12","","24.1","","99.44","","","","","","NA"
"2016-08-31 22:00","2016","08","31","22:00","18.6","","12.0","","65","","36","","12","","24.1","","99.45","","","","","","Clear"
"2016-08-31 23:00","2016","08","31","23:00","17.8","","12.3","","70","","35","","10","","24.1","","99.46","","","","","","NA"
