"Station Name","WINDSOR A"
"Province","ONTARIO"
"Latitude","42.28"
"Longitude","-82.96"
"Elevation","189.60"
"Climate Identifier","6139525"
"WMO Identifier","71538"
"TC Identifier","YQG"
"All times are specified in Local Standard Time (LST). Add 1 hour to adjust for Daylight Saving Time where and when it is observed."

"Legend"
"E","Estimated"
"M","Missing"
"NA","Not Available"

"Date/Time","Year","Month","Day","Time","Temp (°C)","Temp Flag","Dew Point Temp (°C)","Dew Point Temp Flag","Rel Hum (%)","Rel Hum Flag","Wind Dir (10s deg)","Wind Dir Flag","Wind Spd (km/h)","Wind Spd Flag","Visibility (km)","Visibility Flag","Stn Press (kPa)","Stn Press Flag","Hmdx","Hmdx Flag","Wind Chill","Wind Chill Flag","Weather"
"2007-03-01 00:00","2007","03","01","00:00","0.3","","-1.2","","90","","9","","19","","8.0","","99.52","","","","","","Fog"
"2007-03-01 01:00","2007","03","01","01:00","0.2","","-1.5","","88","","7","","19","","8.0","","99.45","","","","","","Fog"
"2007-03-01 02:00","2007","03","01","02:00","0.2","","-1.9","","86","","8","","24","","8.0","","99.39","","","","","","Haze"
"2007-03-01 03:00","2007","03","01","03:00","0.2","","-2.0","","85","","8","","22","","11.3","","99.30","","","","","","Cloudy"
"2007-03-01 04:00","2007","03","01","04:00","0.2","","-1.8","","86","","8","","26","","9.7","","99.22","","","","","","Fog"
"2007-03-01 05:00","2007","03","01","05:00","0.3","","-1.8","","86","","9","","28","","11.3","","99.06","","","","","","Cloudy"
"2007-03-01 06:00","2007","03","01","06:00","0.3","","-1.7","","86","","9","","28","","9.7","","98.97","","","","","","Snow,Fog"
"2007-03-01 07:00","2007","03","01","07:00","0.2","","-2.0","","85","","9","","30","","9.7","","98.83","","","","","","Ice Pellets,Fog"
"2007-03-01 08:00","2007","03","01","08:00","0.2","","-1.7","","87","","10","","24","","9.7","","98.91","","","","","","Rain,Fog"
"2007-03-01 09:00","2007","03","01","09:00","0.2","","-2.0","","85","","9","","35","","4.8","","98.71","","","","","","Snow Grains,Haze"
"2007-03-01 10:00","2007","03","01","10:00","0.5","","-1.8","","85","","10","","35","","6.4","","98.54","","","","","","Rain,Haze"
"2007-03-01 11:00","2007","03","01","11:00","0.5","","-1.3","","88","","10","","33","","4.0","","98.43","","","","","","Rain,Fog"
"2007-03-01 12:00","2007","03","01","12:00","0.5","","-1.1","","89","","10","","26","","2.4","","98.39","","","","","","Rain,Fog"
"2007-03-01 13:00","2007","03","01","13:00","0.9","","-0.6","","90","","11","","35","","3.2","","98.16","","","","","","Moderate Rain,Fog"
"2007-03-01 14:00","2007","03","01","14:00","0.7","","-0.6","","91","","11","","32","","6.4","","98.03","","","","","","Rain,Fog"
"2007-03-01 15:00","2007","03","01","15:00","1.0","","-0.2","","92","","11","","30","","4.8","","97.92","","","","","","Rain,Fog"
"2007-03-01 16:00","2007","03","01","16:00","1.1","","0.1","","93","","10","","30","","3.2","","97.78","","","","","","Rain,Fog"
"2007-03-01 17:00","2007","03","01","17:00","1.4","","0.5","","94","","9","","26","","4.8","","97.58","","","","","","Rain,Fog"
"2007-03-01 18:00","2007","03","01","18:00","1.7","","0.5","","92","","11","","24","","4.8","","97.48","","","","","","Rain,Fog"
"2007-03-01 19:00","2007","03","01","19:00","1.8","","0.7","","92","","11","","24","","4.8","","97.43","","","","","","Rain,Fog"
"2007-03-01 20:00","2007","03","01","20:00","1.7","","0.6","","92","","11","","37","","4.0","","97.21","","","","","","Moderate Rain,Fog"
"2007-03-01 21:00","2007","03","01","21:00","2.3","","1.2","","92","","12","","19","","4.8","","97.26","","","","","","Moderate Rain,Fog"
"2007-03-01 22:00","2007","03","01","22:00","2.2","","1.3","","94","","10","","28","","6.4","","96.97","","","","","","Moderate Rain,Fog"
"2007-03-01 23:00","2007","03","01","23:00","2.5","","1.6","","94","","11","","33","","6.4","","96.77","","","","","","Rain,Fog"
"2007-03-02 00:00","2007","03","02","00:00","2.4","","1.9","","96","","10","","26","","4.8","","96.64","","","","","","Rain Showers,Fog"
"2007-03-02 01:00","2007","03","02","01:00","2.5","","1.9","","96","","11","","33","","3.2","","96.51","","","","","","Rain Showers,Fog"
"2007-03-02 02:00","2007","03","02","02:00","2.9","","2.9","","100","","18","","13","","3.2","","96.52","","","","","","Rain Showers,Fog"
"2007-03-02 03:00","2007","03","02","03:00","3.1","","2.6","","97","","25","","39","","3.2","","96.66","","","","","","Rain Showers,Fog"
"2007-03-02 04:00","2007","03","02","04:00","2.2","","1.2","","93","","24","","30","","24.1","","96.70","","","","","","Mainly Clear"
"2007-03-02 05:00","2007","03","02","05:00","2.0","","0.7","","91","","23","","32","","24.1","","96.75","","","","","","Cloudy"
"2007-03-02 06:00","2007","03","02","06:00","2.0","","0.3","","88","","23","","37","","24.1","","96.81","","","","","","Mostly Cloudy"
"2007-03-02 07:00","2007","03","02","07:00","2.0","","-0.8","","82","","23","","35","","24.1","","96.84","","","","","","Cloudy"
"2007-03-02 08:00","2007","03","02","08:00","2.0","","-3.8","","65","","22","","39","","24.1","","96.87","","","","","","Mostly Cloudy"
"2007-03-02 09:00","2007","03","02","09:00","1.2","","-2.7","","75","","21","","32","","24.1","","96.86","","","","","","Mostly Cloudy"
"2007-03-02 10:00","2007","03","02","10:00","0.3","","-1.2","","90","","23","","41","","16.1","","96.88","","","","","","Mostly Cloudy"
"2007-03-02 11:00","2007","03","02","11:00","2.4","","-1.6","","75","","23","","37","","24.1","","96.89","","","","","","Mostly Cloudy"
"2007-03-02 12:00","2007","03","02","12:00","1.4","","-2.3","","76","","24","","37","","24.1","","96.95","","","","","","Mostly Cloudy"
"2007-03-02 13:00","2007","03","02","13:00","2.5","","-3.9","","63","","23","","37","","24.1","","96.94","","","","","","Snow Showers"
"2007-03-02 14:00","2007","03","02","14:00","2.8","","-3.4","","64","","24","","48","","24.1","","97.02","","","","","","Mostly Cloudy"
"2007-03-02 15:00","2007","03","02","15:00","1.9","","-4.4","","63","","22","","33","","16.1","","97.10","","","","","","Snow Showers"
"2007-03-02 16:00","2007","03","02","16:00","2.7","","-4.5","","59","","23","","41","","24.1","","97.16","","","","","","Mainly Clear"
"2007-03-02 17:00","2007","03","02","17:00","2.1","","-5.0","","59","","23","","32","","24.1","","97.26","","","","","","Mostly Cloudy"
"2007-03-02 18:00","2007","03","02","18:00","1.8","","-5.2","","60","","24","","44","","19.3","","97.35","","","","","","Mostly Cloudy"
"2007-03-02 19:00","2007","03","02","19:00","1.4","","-5.4","","61","","25","","26","","24.1","","97.46","","","","","","Mostly Cloudy"
"2007-03-02 20:00","2007","03","02","20:00","1.4","","-5.0","","62","","24","","33","","24.1","","97.52","","","","","","Snow Showers"
"2007-03-02 21:00","2007","03","02","21:00","0.5","","-4.5","","69","","25","","26","","24.1","","97.59","","","","","","Mainly Clear"
"2007-03-02 22:00","2007","03","02","22:00","0.3","","-5.3","","66","","24","","33","","24.1","","97.60","","","","","","Mainly Clear"
"2007-03-02 23:00","2007","03","02","23:00","0.0","","-5.6","","66","","24","","22","","24.1","","97.63","","","","-6","","Mainly Clear"
"2007-03-03 00:00","2007","03","03","00:00","0.0","","-6.4","","62","","25","","44","","24.1","","97.62","","","","-8","","Mainly Clear"
"2007-03-03 01:00","2007","03","03","01:00","-0.6","","-7.1","","61","","25","","30","","24.1","","97.62","","","","-7","","Snow Showers"
"2007-03-03 02:00","2007","03","03","02:00","-1.0","","-6.2","","68","","25","","30","","24.1","","97.62","","","","-8","","Snow Showers"
"2007-03-03 03:00","2007","03","03","03:00","-1.5","","-8.8","","57","","24","","33","","24.1","","97.65","","","","-9","","Mainly Clear"
"2007-03-03 04:00","2007","03","03","04:00","-1.7","","-8.6","","59","","24","","30","","24.1","","97.67","","","","-9","","Mainly Clear"
"2007-03-03 05:00","2007","03","03","05:00","-1.7","","-8.3","","61","","24","","30","","24.1","","97.69","","","","-9","","Mostly Cloudy"
"2007-03-03 06:00","2007","03","03","06:00","-1.8","","-8.5","","60","","24","","32","","24.1","","97.72","","","","-9","","Cloudy"
"2007-03-03 07:00","2007","03","03","07:00","-2.1","","-8.5","","62","","24","","39","","24.1","","97.75","","","","-10","","Cloudy"
"2007-03-03 08:00","2007","03","03","08:00","-2.2","","-8.6","","61","","26","","39","","24.1","","97.81","","","","-10","","Mostly Cloudy"
"2007-03-03 09:00","2007","03","03","09:00","-2.0","","-8.6","","61","","25","","39","","24.1","","97.84","","","","-10","","Mostly Cloudy"
"2007-03-03 10:00","2007","03","03","10:00","-1.2","","-8.4","","58","","26","","41","","24.1","","97.84","","","","-9","","Mostly Cloudy"
"2007-03-03 11:00","2007","03","03","11:00","-1.0","","-8.2","","58","","25","","35","","24.1","","97.89","","","","-8","","Snow Showers"
"2007-03-03 12:00","2007","03","03","12:00","-0.7","","-7.4","","60","","24","","33","","16.1","","97.94","","","","-8","","Snow Showers"
"2007-03-03 13:00","2007","03","03","13:00","-0.1","","-6.8","","61","","26","","32","","24.1","","97.95","","","","-7","","Mostly Cloudy"
"2007-03-03 14:00","2007","03","03","14:00","-0.1","","-7.3","","58","","27","","33","","24.1","","98.00","","","","-7","","Mostly Cloudy"
"2007-03-03 15:00","2007","03","03","15:00","0.0","","-6.2","","63","","25","","28","","24.1","","98.07","","","","-6","","Mostly Cloudy"
"2007-03-03 16:00","2007","03","03","16:00","0.2","","-6.5","","61","","25","","32","","24.1","","98.15","","","","","","Mostly Cloudy"
"2007-03-03 17:00","2007","03","03","17:00","-0.9","","-5.3","","72","","25","","28","","3.2","","98.26","","","","-7","","Snow Showers"
"2007-03-03 18:00","2007","03","03","18:00","-2.1","","-4.8","","82","","25","","24","","1.2","","98.35","","","","-8","","Snow Showers"
"2007-03-03 19:00","2007","03","03","19:00","-1.5","","-4.5","","80","","27","","28","","24.1","","98.45","","","","-8","","Cloudy"
"2007-03-03 20:00","2007","03","03","20:00","-1.9","","-7.5","","65","","28","","32","","24.1","","98.53","","","","-9","","Cloudy"
"2007-03-03 21:00","2007","03","03","21:00","-2.5","","-7.7","","67","","27","","22","","24.1","","98.61","","","","-9","","Cloudy"
"2007-03-03 22:00","2007","03","03","22:00","-2.6","","-7.8","","67","","29","","28","","24.1","","98.66","","","","-10","","Cloudy"
"2007-03-03 23:00","2007","03","03","23:00","-2.8","","-7.2","","72","","27","","24","","24.1","","98.71","","","","-9","","Snow Showers"
"2007-03-04 00:00","2007","03","04","00:00","-3.2","","-7.1","","74","","27","","24","","24.1","","98.75","","","","-10","","Snow Showers"
"2007-03-04 01:00","2007","03","04","01:00","-2.9","","-7.4","","71","","28","","28","","24.1","","98.79","","","","-10","","Snow Showers"
"2007-03-04 02:00","2007","03","04","02:00","-3.3","","-7.9","","70","","28","","26","","24.1","","98.85","","","","-10","","Snow Showers"
"2007-03-04 03:00","2007","03","04","03:00","-3.3","","-7.5","","73","","29","","24","","12.9","","98.90","","","","-10","","Snow Showers"
"2007-03-04 04:00","2007","03","04","04:00","-3.3","","-7.2","","74","","28","","24","","24.1","","98.95","","","","-10","","Snow Showers"
"2007-03-04 05:00","2007","03","04","05:00","-3.3","","-7.7","","72","","28","","26","","24.1","","98.99","","","","-10","","Snow Showers"
"2007-03-04 06:00","2007","03","04","06:00","-3.2","","-8.0","","69","","29","","20","","24.1","","99.04","","","","-9","","Snow Showers"
"2007-03-04 07:00","2007","03","04","07:00","-3.1","","-8.0","","69","","29","","28","","24.1","","99.05","","","","-10","","Snow Showers"
"2007-03-04 08:00","2007","03","04","08:00","-3.0","","-8.1","","68","","29","","28","","24.1","","99.14","","","","-10","","Snow Showers"
"2007-03-04 09:00","2007","03","04","09:00","-2.6","","-7.6","","68","","29","","28","","24.1","","99.21","","","","-10","","Mostly Cloudy"
"2007-03-04 10:00","2007","03","04","10:00","-2.1","","-7.3","","68","","29","","24","","24.1","","99.28","","","","-8","","Snow Showers"
"2007-03-04 11:00","2007","03","04","11:00","-1.4","","-7.9","","61","","28","","28","","24.1","","99.28","","","","-8","","Mostly Cloudy"
"2007-03-04 12:00","2007","03","04","12:00","-1.0","","-9.2","","54","","29","","32","","24.1","","99.27","","","","-8","","Mostly Cloudy"
"2007-03-04 13:00","2007","03","04","13:00","-1.0","","-8.7","","56","","27","","30","","24.1","","99.22","","","","-8","","Mostly Cloudy"
"2007-03-04 14:00","2007","03","04","14:00","0.1","","-8.9","","51","","27","","32","","24.1","","99.18","","","","","","Mostly Cloudy"
"2007-03-04 15:00","2007","03","04","15:00","0.3","","-8.7","","51","","28","","33","","24.1","","99.16","","","","","","Mostly Cloudy"
"2007-03-04 16:00","2007","03","04","16:00","0.2","","-8.2","","53","","25","","30","","24.1","","99.09","","","","","","Mostly Cloudy"
"2007-03-04 17:00","2007","03","04","17:00","0.3","","-8.4","","52","","26","","24","","24.1","","99.08","","","","","","Mostly Cloudy"
"2007-03-04 18:00","2007","03","04","18:00","-0.3","","-9.1","","51","","25","","32","","19.3","","99.08","","","","-7","","Mostly Cloudy"
"2007-03-04 19:00","2007","03","04","19:00","-0.9","","-9.6","","52","","25","","32","","24.1","","99.12","","","","-8","","Mostly Cloudy"
"2007-03-04 20:00","2007","03","04","20:00","-1.6","","-9.7","","54","","25","","28","","24.1","","99.08","","","","-8","","Mostly Cloudy"
"2007-03-04 21:00","2007","03","04","21:00","-2.0","","-9.8","","55","","25","","35","","24.1","","99.12","","","","-10","","Mostly Cloudy"
"2007-03-04 22:00","2007","03","04","22:00","-2.5","","-9.2","","60","","24","","28","","24.1","","99.07","","","","-10","","Mainly Clear"
"2007-03-04 23:00","2007","03","04","23:00","-2.6","","-9.0","","61","","24","","32","","24.1","","98.95","","","","-10","","Mainly Clear"
"2007-03-05 00:00","2007","03","05","00:00","-2.6","","-8.5","","64","","26","","26","","24.1","","98.96","","","","-9","","Mainly Clear"
"2007-03-05 01:00","2007","03","05","01:00","-2.3","","-8.0","","65","","27","","30","","24.1","","98.93","","","","-9","","Mainly Clear"
"2007-03-05 02:00","2007","03","05","02:00","-2.0","","-7.6","","65","","27","","28","","24.1","","98.92","","","","-9","","Mainly Clear"
"2007-03-05 03:00","2007","03","05","03:00","-2.0","","-7.4","","66","","27","","26","","24.1","","98.92","","","","-9","","Mainly Clear"
"2007-03-05 04:00","2007","03","05","04:00","-2.2","","-7.1","","69","","28","","22","","24.1","","98.93","","","","-8","","Clear"
"2007-03-05 05:00","2007","03","05","05:00","-1.9","","-6.8","","69","","27","","20","","24.1","","98.98","","","","-8","","Mainly Clear"
"2007-03-05 06:00","2007","03","05","06:00","-1.6","","-6.6","","69","","27","","22","","24.1","","99.00","","","","-8","","Clear"
"2007-03-05 07:00","2007","03","05","07:00","-0.8","","-5.9","","68","","29","","22","","24.1","","99.10","","","","-7","","Cloudy"
"2007-03-05 08:00","2007","03","05","08:00","-0.7","","-6.0","","67","","34","","20","","24.1","","99.21","","","","-6","","Snow Showers"
"2007-03-05 09:00","2007","03","05","09:00","-1.2","","-7.0","","65","","32","","33","","24.1","","99.33","","","","-8","","Snow Showers"
"2007-03-05 10:00","2007","03","05","10:00","-1.4","","-9.5","","54","","33","","41","","24.1","","99.44","","","","-9","","Mainly Clear"
"2007-03-05 11:00","2007","03","05","11:00","-1.8","","-12.7","","43","","33","","37","","24.1","","99.56","","","","-10","","Mainly Clear"
"2007-03-05 12:00","2007","03","05","12:00","-2.7","","-13.5","","43","","34","","37","","24.1","","99.70","","","","-11","","Mainly Clear"
"2007-03-05 13:00","2007","03","05","13:00","-2.9","","-14.3","","41","","32","","37","","24.1","","99.77","","","","-11","","Mainly Clear"
"2007-03-05 14:00","2007","03","05","14:00","-3.3","","-14.6","","41","","34","","30","","24.1","","99.86","","","","-11","","Mostly Cloudy"
"2007-03-05 15:00","2007","03","05","15:00","-3.1","","-14.4","","41","","30","","24","","24.1","","99.94","","","","-10","","Mainly Clear"
"2007-03-05 16:00","2007","03","05","16:00","-3.5","","-14.8","","41","","31","","28","","24.1","","100.01","","","","-11","","Mainly Clear"
"2007-03-05 17:00","2007","03","05","17:00","-4.0","","-15.4","","41","","32","","35","","24.1","","100.08","","","","-12","","Mainly Clear"
"2007-03-05 18:00","2007","03","05","18:00","-5.3","","-16.2","","42","","33","","37","","24.1","","100.21","","","","-14","","Mainly Clear"
"2007-03-05 19:00","2007","03","05","19:00","-6.1","","-16.3","","44","","34","","26","","24.1","","100.32","","","","-14","","Mainly Clear"
"2007-03-05 20:00","2007","03","05","20:00","-7.0","","-16.9","","45","","34","","28","","24.1","","100.45","","","","-15","","Mainly Clear"
"2007-03-05 21:00","2007","03","05","21:00","-7.9","","-15.4","","55","","35","","28","","24.1","","100.57","","","","-17","","Snow Showers"
"2007-03-05 22:00","2007","03","05","22:00","-9.0","","-18.0","","48","","33","","35","","24.1","","100.72","","","","-19","","Mainly Clear"
"2007-03-05 23:00","2007","03","05","23:00","-9.7","","-18.6","","48","","34","","32","","24.1","","100.82","","","","-19","","Mainly Clear"
"2007-03-06 00:00","2007","03","06","00:00","-10.5","","-18.6","","51","","35","","26","","24.1","","100.92","","","","-20","","Mainly Clear"
"2007-03-06 01:00","2007","03","06","01:00","-11.5","","-19.4","","52","","34","","30","","24.1","","100.99","","","","-21","","Mainly Clear"
"2007-03-06 02:00","2007","03","06","02:00","-12.0","","-20.1","","51","","34","","24","","24.1","","101.09","","","","-21","","Clear"
"2007-03-06 03:00","2007","03","06","03:00","-12.7","","-20.2","","53","","33","","19","","24.1","","101.09","","","","-21","","Clear"
"2007-03-06 04:00","2007","03","06","04:00","-12.8","","-19.9","","55","","34","","26","","24.1","","101.12","","","","-23","","Clear"
"2007-03-06 05:00","2007","03","06","05:00","-13.1","","-20.0","","56","","33","","15","","24.1","","101.18","","","","-21","","Clear"
"2007-03-06 06:00","2007","03","06","06:00","-13.3","","-20.1","","57","","34","","20","","24.1","","101.24","","","","-22","","Clear"
"2007-03-06 07:00","2007","03","06","07:00","-13.5","","-20.2","","57","","34","","17","","24.1","","101.28","","","","-22","","Clear"
"2007-03-06 08:00","2007","03","06","08:00","-13.2","","-19.7","","58","","33","","17","","24.1","","101.35","","","","-21","","Clear"
"2007-03-06 09:00","2007","03","06","09:00","-11.7","","-18.8","","56","","1","","11","","24.1","","101.38","","","","-18","","Clear"
"2007-03-06 10:00","2007","03","06","10:00","-10.7","","-18.6","","52","","2","","11","","24.1","","101.37","","","","-16","","Mainly Clear"
"2007-03-06 11:00","2007","03","06","11:00","-9.2","","-18.3","","48","","29","","4","","24.1","","101.36","","","","-11","","Mainly Clear"
"2007-03-06 12:00","2007","03","06","12:00","-7.9","","-17.8","","45","","17","","4","","24.1","","101.30","","","","-10","","Mainly Clear"
"2007-03-06 13:00","2007","03","06","13:00","-8.3","","-18.0","","45","","16","","4","","24.1","","101.27","","","","-10","","Mostly Cloudy"
"2007-03-06 14:00","2007","03","06","14:00","-7.4","","-19.4","","38","","23","","9","","24.1","","101.21","","","","-12","","Cloudy"
"2007-03-06 15:00","2007","03","06","15:00","-6.7","","-18.1","","40","","26","","11","","24.1","","101.09","","","","-12","","Cloudy"
"2007-03-06 16:00","2007","03","06","16:00","-6.4","","-17.9","","40","","23","","15","","24.1","","100.98","","","","-12","","Cloudy"
"2007-03-06 17:00","2007","03","06","17:00","-7.2","","-15.6","","51","","20","","13","","24.1","","100.86","","","","-13","","Cloudy"
"2007-03-06 18:00","2007","03","06","18:00","-7.8","","-15.8","","53","","18","","15","","24.1","","100.81","","","","-14","","Cloudy"
"2007-03-06 19:00","2007","03","06","19:00","-8.2","","-15.0","","58","","17","","17","","24.1","","100.79","","","","-15","","Snow Showers"
"2007-03-06 20:00","2007","03","06","20:00","-8.6","","-14.4","","63","","21","","11","","2.4","","100.77","","","","-14","","Snow"
"2007-03-06 21:00","2007","03","06","21:00","-8.9","","-13.2","","71","","18","","9","","2.4","","100.69","","","","-14","","Snow"
"2007-03-06 22:00","2007","03","06","22:00","-8.9","","-12.4","","76","","15","","9","","6.4","","100.59","","","","-14","","Snow"
"2007-03-06 23:00","2007","03","06","23:00","-9.1","","-12.1","","79","","14","","9","","1.2","","100.51","","","","-14","","Snow"
"2007-03-07 00:00","2007","03","07","00:00","-9.3","","-12.0","","81","","13","","7","","1.6","","100.47","","","","-13","","Snow"
"2007-03-07 01:00","2007","03","07","01:00","-9.5","","-11.9","","83","","14","","9","","1.2","","100.41","","","","-14","","Snow"
"2007-03-07 02:00","2007","03","07","02:00","-9.2","","-11.4","","84","","10","","7","","2.8","","100.37","","","","-13","","Snow"
"2007-03-07 03:00","2007","03","07","03:00","-9.4","","-11.4","","85","","9","","6","","1.2","","100.31","","","","-13","","Snow"
"2007-03-07 04:00","2007","03","07","04:00","-9.4","","-11.3","","86","","9","","4","","3.6","","100.25","","","","-12","","Snow"
"2007-03-07 05:00","2007","03","07","05:00","-9.5","","-11.7","","84","","12","","7","","4.0","","100.18","","","","-13","","Snow"
"2007-03-07 06:00","2007","03","07","06:00","-9.6","","-11.2","","88","","9","","4","","12.9","","100.16","","","","-12","","Snow"
"2007-03-07 07:00","2007","03","07","07:00","-9.4","","-11.3","","86","","9","","6","","17.7","","100.16","","","","-13","","Cloudy"
"2007-03-07 08:00","2007","03","07","08:00","-9.4","","-11.4","","85","","8","","7","","24.1","","100.18","","","","-13","","Cloudy"
"2007-03-07 09:00","2007","03","07","09:00","-8.8","","-11.0","","84","","7","","11","","24.1","","100.22","","","","-14","","Cloudy"
"2007-03-07 10:00","2007","03","07","10:00","-8.1","","-10.2","","85","","9","","9","","24.1","","100.26","","","","-13","","Mostly Cloudy"
"2007-03-07 11:00","2007","03","07","11:00","-7.5","","-9.8","","84","","9","","6","","24.1","","100.29","","","","-11","","Mostly Cloudy"
"2007-03-07 12:00","2007","03","07","12:00","-7.1","","-10.2","","78","","5","","7","","24.1","","100.31","","","","-11","","Mostly Cloudy"
"2007-03-07 13:00","2007","03","07","13:00","-6.6","","-10.8","","72","","1","","11","","24.1","","100.32","","","","-12","","Mostly Cloudy"
"2007-03-07 14:00","2007","03","07","14:00","-6.5","","-11.0","","70","","8","","9","","24.1","","100.30","","","","-11","","Mostly Cloudy"
"2007-03-07 15:00","2007","03","07","15:00","-5.6","","-10.7","","67","","12","","7","","24.1","","100.27","","","","-9","","Mostly Cloudy"
"2007-03-07 16:00","2007","03","07","16:00","-5.4","","-10.8","","66","","17","","9","","16.1","","100.27","","","","-9","","Snow Showers"
"2007-03-07 17:00","2007","03","07","17:00","-5.3","","-10.2","","68","","18","","6","","24.1","","100.28","","","","-8","","Snow Showers"
"2007-03-07 18:00","2007","03","07","18:00","-5.9","","-11.0","","67","","18","","11","","24.1","","100.31","","","","-11","","Snow Showers"
"2007-03-07 19:00","2007","03","07","19:00","-6.6","","-11.3","","69","","22","","17","","24.1","","100.35","","","","-13","","Mostly Cloudy"
"2007-03-07 20:00","2007","03","07","20:00","-7.2","","-11.5","","71","","23","","11","","24.1","","100.42","","","","-12","","Mostly Cloudy"
"2007-03-07 21:00","2007","03","07","21:00","-7.7","","-11.8","","72","","20","","9","","24.1","","100.41","","","","-12","","Mainly Clear"
"2007-03-07 22:00","2007","03","07","22:00","-8.3","","-11.8","","76","","23","","9","","24.1","","100.44","","","","-13","","Clear"
"2007-03-07 23:00","2007","03","07","23:00","-8.5","","-11.7","","78","","22","","9","","24.1","","100.42","","","","-13","","Clear"
"2007-03-08 00:00","2007","03","08","00:00","-8.8","","-12.1","","77","","22","","17","","24.1","","100.39","","","","-16","","Clear"
"2007-03-08 01:00","2007","03","08","01:00","-9.0","","-11.9","","79","","22","","13","","24.1","","100.32","","","","-15","","Clear"
"2007-03-08 02:00","2007","03","08","02:00","-8.8","","-11.7","","79","","24","","7","","24.1","","100.36","","","","-13","","Clear"
"2007-03-08 03:00","2007","03","08","03:00","-9.0","","-11.7","","81","","23","","7","","24.1","","100.35","","","","-13","","Clear"
"2007-03-08 04:00","2007","03","08","04:00","-9.0","","-11.6","","81","","25","","7","","24.1","","100.30","","","","-13","","Clear"
"2007-03-08 05:00","2007","03","08","05:00","-9.1","","-11.6","","82","","25","","6","","24.1","","100.28","","","","-12","","Clear"
"2007-03-08 06:00","2007","03","08","06:00","-9.3","","-11.3","","85","","26","","6","","24.1","","100.28","","","","-13","","Clear"
"2007-03-08 07:00","2007","03","08","07:00","-9.3","","-11.6","","83","","","","0","","9.7","","100.30","","","","","","Haze"
"2007-03-08 08:00","2007","03","08","08:00","-8.0","","-10.4","","83","","","","0","","11.3","","100.36","","","","","","Mostly Cloudy"
"2007-03-08 09:00","2007","03","08","09:00","-5.4","","-8.3","","80","","17","","6","","16.1","","100.35","","","","-8","","Mostly Cloudy"
"2007-03-08 10:00","2007","03","08","10:00","-4.7","","-8.6","","74","","9","","4","","24.1","","100.40","","","","-6","","Mostly Cloudy"
"2007-03-08 11:00","2007","03","08","11:00","-3.5","","-8.4","","69","","","","0","","24.1","","100.48","","","","","","Mostly Cloudy"
"2007-03-08 12:00","2007","03","08","12:00","-1.9","","-8.4","","61","","14","","7","","24.1","","100.48","","","","-5","","Mostly Cloudy"
"2007-03-08 13:00","2007","03","08","13:00","-1.9","","-8.3","","62","","17","","11","","24.1","","100.42","","","","-6","","Mostly Cloudy"
"2007-03-08 14:00","2007","03","08","14:00","-0.5","","-7.4","","60","","14","","9","","24.1","","100.39","","","","-4","","Mostly Cloudy"
"2007-03-08 15:00","2007","03","08","15:00","-0.8","","-7.9","","59","","12","","11","","24.1","","100.37","","","","-5","","Mostly Cloudy"
"2007-03-08 16:00","2007","03","08","16:00","-0.5","","-7.9","","57","","13","","7","","24.1","","100.34","","","","-3","","Mainly Clear"
"2007-03-08 17:00","2007","03","08","17:00","-0.8","","-7.2","","62","","14","","13","","24.1","","100.32","","","","-5","","Mainly Clear"
"2007-03-08 18:00","2007","03","08","18:00","-1.6","","-7.7","","63","","14","","15","","24.1","","100.32","","","","-6","","Mainly Clear"
"2007-03-08 19:00","2007","03","08","19:00","-3.0","","-7.9","","69","","13","","20","","19.3","","100.35","","","","-9","","Mainly Clear"
"2007-03-08 20:00","2007","03","08","20:00","-4.0","","-8.6","","70","","14","","17","","24.1","","100.40","","","","-10","","Clear"
"2007-03-08 21:00","2007","03","08","21:00","-4.4","","-8.8","","71","","14","","17","","24.1","","100.40","","","","-10","","Clear"
"2007-03-08 22:00","2007","03","08","22:00","-4.7","","-8.9","","72","","14","","9","","24.1","","100.40","","","","-9","","Clear"
"2007-03-08 23:00","2007","03","08","23:00","-4.8","","-9.0","","72","","14","","11","","24.1","","100.32","","","","-9","","Clear"
"2007-03-09 00:00","2007","03","09","00:00","-4.9","","-9.3","","71","","14","","13","","24.1","","100.26","","","","-10","","Mainly Clear"
"2007-03-09 01:00","2007","03","09","01:00","-5.0","","-9.2","","72","","11","","7","","24.1","","100.23","","","","-8","","Mainly Clear"
"2007-03-09 02:00","2007","03","09","02:00","-5.0","","-9.5","","71","","10","","11","","24.1","","100.20","","","","-10","","Clear"
"2007-03-09 03:00","2007","03","09","03:00","-5.2","","-9.5","","72","","11","","9","","24.1","","100.16","","","","-9","","Clear"
"2007-03-09 04:00","2007","03","09","04:00","-5.6","","-9.6","","73","","9","","9","","24.1","","100.12","","","","-10","","Mainly Clear"
"2007-03-09 05:00","2007","03","09","05:00","-5.4","","-9.3","","74","","14","","15","","24.1","","100.07","","","","-11","","Mainly Clear"
"2007-03-09 06:00","2007","03","09","06:00","-4.6","","-8.7","","73","","15","","17","","24.1","","99.94","","","","-10","","Mainly Clear"
"2007-03-09 07:00","2007","03","09","07:00","-4.9","","-9.3","","71","","2","","11","","19.3","","100.05","","","","-9","","Mainly Clear"
"2007-03-09 08:00","2007","03","09","08:00","-4.5","","-8.9","","71","","6","","13","","24.1","","100.17","","","","-10","","Mainly Clear"
"2007-03-09 09:00","2007","03","09","09:00","-2.7","","-7.6","","69","","13","","19","","24.1","","100.01","","","","-8","","Mainly Clear"
"2007-03-09 10:00","2007","03","09","10:00","0.0","","-6.1","","63","","14","","13","","24.1","","99.97","","","","-4","","Mainly Clear"
"2007-03-09 11:00","2007","03","09","11:00","2.5","","-4.6","","59","","15","","9","","24.1","","99.95","","","","","","Mainly Clear"
"2007-03-09 12:00","2007","03","09","12:00","3.1","","-4.8","","56","","15","","13","","24.1","","99.88","","","","","","Mainly Clear"
"2007-03-09 13:00","2007","03","09","13:00","3.3","","-4.3","","57","","16","","11","","24.1","","99.78","","","","","","Mainly Clear"
"2007-03-09 14:00","2007","03","09","14:00","4.3","","-3.7","","56","","16","","11","","24.1","","99.64","","","","","","Mostly Cloudy"
"2007-03-09 15:00","2007","03","09","15:00","5.5","","-3.4","","53","","17","","11","","24.1","","99.57","","","","","","Mostly Cloudy"
"2007-03-09 16:00","2007","03","09","16:00","5.9","","-3.1","","52","","14","","13","","24.1","","99.50","","","","","","Cloudy"
"2007-03-09 17:00","2007","03","09","17:00","5.9","","-2.8","","54","","15","","11","","24.1","","99.43","","","","","","Cloudy"
"2007-03-09 18:00","2007","03","09","18:00","5.2","","-2.7","","57","","13","","7","","24.1","","99.42","","","","","","Cloudy"
"2007-03-09 19:00","2007","03","09","19:00","3.5","","-3.0","","62","","11","","7","","24.1","","99.40","","","","","","Cloudy"
"2007-03-09 20:00","2007","03","09","20:00","1.7","","-4.0","","66","","10","","9","","24.1","","99.35","","","","","","Mainly Clear"
"2007-03-09 21:00","2007","03","09","21:00","0.5","","-4.1","","71","","9","","6","","19.3","","99.28","","","","","","Mainly Clear"
"2007-03-09 22:00","2007","03","09","22:00","0.3","","-3.4","","76","","7","","6","","19.3","","99.20","","","","","","Cloudy"
"2007-03-09 23:00","2007","03","09","23:00","1.5","","-1.9","","78","","35","","9","","9.7","","99.23","","","","","","Rain Showers,Haze"
"2007-03-10 00:00","2007","03","10","00:00","0.9","","-1.6","","83","","9","","7","","11.3","","99.07","","","","","","Cloudy"
"2007-03-10 01:00","2007","03","10","01:00","1.0","","-1.0","","86","","9","","4","","11.3","","99.00","","","","","","Rain Showers"
"2007-03-10 02:00","2007","03","10","02:00","1.2","","-0.4","","89","","","","0","","11.3","","98.98","","","","","","Rain Showers"
"2007-03-10 03:00","2007","03","10","03:00","1.7","","0.2","","90","","18","","4","","8.0","","98.87","","","","","","Rain Showers,Fog"
"2007-03-10 04:00","2007","03","10","04:00","6.7","","4.8","","88","","20","","22","","8.0","","98.79","","","","","","Rain Showers,Fog"
"2007-03-10 05:00","2007","03","10","05:00","6.8","","4.9","","88","","22","","22","","6.4","","98.85","","","","","","Rain Showers,Fog"
"2007-03-10 06:00","2007","03","10","06:00","6.4","","4.8","","89","","23","","17","","4.8","","98.91","","","","","","Fog"
"2007-03-10 07:00","2007","03","10","07:00","7.4","","6.4","","93","","24","","19","","1.6","","98.99","","","","","","Fog"
"2007-03-10 08:00","2007","03","10","08:00","7.1","","6.1","","93","","26","","19","","2.4","","99.10","","","","","","Fog"
"2007-03-10 09:00","2007","03","10","09:00","7.6","","6.3","","91","","26","","28","","8.0","","99.23","","","","","","Fog"
"2007-03-10 10:00","2007","03","10","10:00","7.6","","5.5","","87","","27","","24","","9.7","","99.29","","","","","","Haze"
"2007-03-10 11:00","2007","03","10","11:00","8.1","","4.6","","79","","27","","24","","9.7","","99.35","","","","","","Haze"
"2007-03-10 12:00","2007","03","10","12:00","8.5","","3.9","","73","","28","","24","","9.7","","99.37","","","","","","Haze"
"2007-03-10 13:00","2007","03","10","13:00","9.7","","2.3","","60","","28","","22","","12.9","","99.39","","","","","","Mostly Cloudy"
"2007-03-10 14:00","2007","03","10","14:00","10.8","","0.3","","48","","27","","26","","16.1","","99.40","","","","","","Mainly Clear"
"2007-03-10 15:00","2007","03","10","15:00","11.8","","-0.4","","43","","28","","33","","24.1","","99.40","","","","","","Mainly Clear"
"2007-03-10 16:00","2007","03","10","16:00","12.0","","-2.1","","37","","28","","37","","24.1","","99.44","","","","","","Clear"
"2007-03-10 17:00","2007","03","10","17:00","11.5","","-5.3","","30","","29","","28","","24.1","","99.52","","","","","","Clear"
"2007-03-10 18:00","2007","03","10","18:00","10.4","","-5.5","","32","","28","","32","","24.1","","99.62","","","","","","Clear"
"2007-03-10 19:00","2007","03","10","19:00","8.3","","-7.1","","33","","29","","20","","24.1","","99.73","","","","","","Clear"
"2007-03-10 20:00","2007","03","10","20:00","6.7","","-6.0","","40","","29","","19","","24.1","","99.88","","","","","","Clear"
"2007-03-10 21:00","2007","03","10","21:00","5.3","","-6.0","","44","","29","","24","","24.1","","100.01","","","","","","Clear"
"2007-03-10 22:00","2007","03","10","22:00","4.8","","-5.3","","48","","28","","20","","24.1","","100.10","","","","","","Clear"
"2007-03-10 23:00","2007","03","10","23:00","3.8","","-4.9","","53","","28","","17","","24.1","","100.14","","","","","","Clear"
"2007-03-11 00:00","2007","03","11","00:00","3.8","","-4.6","","54","","28","","22","","24.1","","100.16","","","","","","Clear"
"2007-03-11 01:00","2007","03","11","01:00","3.5","","-4.8","","55","","29","","20","","24.1","","100.17","","","","","","Clear"
"2007-03-11 02:00","2007","03","11","02:00","2.5","","-5.2","","57","","29","","17","","24.1","","100.26","","","","","","Clear"
"2007-03-11 03:00","2007","03","11","03:00","2.1","","-5.4","","58","","29","","15","","24.1","","100.26","","","","","","Clear"
"2007-03-11 04:00","2007","03","11","04:00","1.4","","-5.3","","61","","28","","13","","24.1","","100.29","","","","","","Clear"
"2007-03-11 05:00","2007","03","11","05:00","1.3","","-5.5","","60","","30","","11","","24.1","","100.39","","","","","","Clear"
"2007-03-11 06:00","2007","03","11","06:00","0.9","","-6.1","","59","","34","","11","","24.1","","100.47","","","","","","Clear"
"2007-03-11 07:00","2007","03","11","07:00","1.1","","-6.2","","58","","35","","15","","24.1","","100.62","","","","","","Clear"
"2007-03-11 08:00","2007","03","11","08:00","1.6","","-6.1","","57","","35","","13","","24.1","","100.73","","","","","","Clear"
"2007-03-11 09:00","2007","03","11","09:00","2.1","","-6.6","","53","","36","","13","","24.1","","100.81","","","","","","Clear"
"2007-03-11 10:00","2007","03","11","10:00","3.6","","-6.5","","48","","1","","11","","24.1","","100.85","","","","","","Clear"
"2007-03-11 11:00","2007","03","11","11:00","4.6","","-6.4","","45","","32","","7","","24.1","","100.85","","","","","","Clear"
"2007-03-11 12:00","2007","03","11","12:00","6.6","","-5.3","","42","","32","","9","","24.1","","100.85","","","","","","Mainly Clear"
"2007-03-11 13:00","2007","03","11","13:00","8.3","","-5.2","","38","","8","","7","","24.1","","100.84","","","","","","Mostly Cloudy"
"2007-03-11 14:00","2007","03","11","14:00","9.6","","-4.7","","36","","7","","9","","24.1","","100.79","","","","","","Mostly Cloudy"
"2007-03-11 15:00","2007","03","11","15:00","10.0","","-3.4","","39","","14","","7","","24.1","","100.72","","","","","","Cloudy"
"2007-03-11 16:00","2007","03","11","16:00","7.1","","-1.7","","53","","19","","19","","24.1","","100.73","","","","","","Cloudy"
"2007-03-11 17:00","2007","03","11","17:00","6.1","","-1.3","","59","","18","","19","","24.1","","100.66","","","","","","Mostly Cloudy"
"2007-03-11 18:00","2007","03","11","18:00","4.5","","-2.7","","59","","18","","11","","24.1","","100.64","","","","","","Mostly Cloudy"
"2007-03-11 19:00","2007","03","11","19:00","3.0","","-3.5","","62","","19","","9","","24.1","","100.65","","","","","","Mainly Clear"
"2007-03-11 20:00","2007","03","11","20:00","1.4","","-4.3","","66","","19","","7","","24.1","","100.66","","","","","","Clear"
"2007-03-11 21:00","2007","03","11","21:00","0.1","","-4.5","","71","","19","","7","","24.1","","100.65","","","","","","Clear"
"2007-03-11 22:00","2007","03","11","22:00","0.4","","-4.2","","71","","22","","7","","24.1","","100.63","","","","","","Clear"
"2007-03-11 23:00","2007","03","11","23:00","0.8","","-4.4","","68","","21","","7","","24.1","","100.58","","","","","","Clear"
"2007-03-12 00:00","2007","03","12","00:00","0.9","","-4.0","","70","","21","","13","","24.1","","100.46","","","","","","Clear"
"2007-03-12 01:00","2007","03","12","01:00","0.9","","-3.6","","72","","21","","15","","24.1","","100.40","","","","","","Clear"
"2007-03-12 02:00","2007","03","12","02:00","1.2","","-3.2","","72","","21","","11","","24.1","","100.37","","","","","","Mainly Clear"
"2007-03-12 03:00","2007","03","12","03:00","0.9","","-3.2","","74","","22","","13","","24.1","","100.29","","","","","","Mainly Clear"
"2007-03-12 04:00","2007","03","12","04:00","1.0","","-3.2","","73","","23","","9","","24.1","","100.24","","","","","","Mainly Clear"
"2007-03-12 05:00","2007","03","12","05:00","1.3","","-3.2","","72","","21","","11","","24.1","","100.21","","","","","","Mostly Cloudy"
"2007-03-12 06:00","2007","03","12","06:00","1.3","","-3.2","","72","","20","","13","","24.1","","100.17","","","","","","Mostly Cloudy"
"2007-03-12 07:00","2007","03","12","07:00","1.5","","-2.9","","72","","21","","15","","24.1","","100.16","","","","","","Mostly Cloudy"
"2007-03-12 08:00","2007","03","12","08:00","2.5","","-2.6","","69","","22","","15","","24.1","","100.15","","","","","","Cloudy"
"2007-03-12 09:00","2007","03","12","09:00","3.1","","-2.7","","66","","23","","15","","24.1","","100.15","","","","","","Cloudy"
"2007-03-12 10:00","2007","03","12","10:00","3.8","","-2.3","","64","","22","","11","","24.1","","100.11","","","","","","Cloudy"
"2007-03-12 11:00","2007","03","12","11:00","4.7","","-2.1","","61","","23","","13","","24.1","","100.07","","","","","","Cloudy"
"2007-03-12 12:00","2007","03","12","12:00","5.2","","-2.6","","57","","23","","20","","24.1","","100.01","","","","","","Rain Showers"
"2007-03-12 13:00","2007","03","12","13:00","4.1","","-0.8","","70","","20","","17","","24.1","","99.89","","","","","","Rain Showers"
"2007-03-12 14:00","2007","03","12","14:00","6.4","","1.1","","69","","21","","24","","24.1","","99.73","","","","","","Mostly Cloudy"
"2007-03-12 15:00","2007","03","12","15:00","6.5","","1.1","","68","","21","","28","","24.1","","99.65","","","","","","Mostly Cloudy"
"2007-03-12 16:00","2007","03","12","16:00","7.5","","2.2","","69","","21","","26","","24.1","","99.57","","","","","","Mostly Cloudy"
"2007-03-12 17:00","2007","03","12","17:00","7.7","","1.9","","67","","20","","24","","24.1","","99.52","","","","","","Cloudy"
"2007-03-12 18:00","2007","03","12","18:00","7.3","","1.1","","65","","21","","24","","24.1","","99.53","","","","","","Mostly Cloudy"
"2007-03-12 19:00","2007","03","12","19:00","6.2","","0.5","","67","","20","","19","","24.1","","99.49","","","","","","Mostly Cloudy"
"2007-03-12 20:00","2007","03","12","20:00","5.8","","0.7","","70","","19","","11","","24.1","","99.53","","","","","","Mostly Cloudy"
"2007-03-12 21:00","2007","03","12","21:00","5.5","","1.0","","73","","19","","11","","24.1","","99.51","","","","","","Mostly Cloudy"
"2007-03-12 22:00","2007","03","12","22:00","5.5","","0.6","","71","","20","","17","","24.1","","99.47","","","","","","Mostly Cloudy"
"2007-03-12 23:00","2007","03","12","23:00","5.0","","0.3","","72","","21","","19","","24.1","","99.43","","","","","","Mostly Cloudy"
"2007-03-13 00:00","2007","03","13","00:00","5.3","","0.5","","71","","22","","19","","24.1","","99.37","","","","","","Cloudy"
"2007-03-13 01:00","2007","03","13","01:00","5.1","","0.4","","72","","22","","17","","24.1","","99.32","","","","","","Cloudy"
"2007-03-13 02:00","2007","03","13","02:00","5.4","","0.6","","71","","23","","13","","24.1","","99.31","","","","","","Cloudy"
"2007-03-13 03:00","2007","03","13","03:00","5.0","","0.3","","72","","23","","13","","24.1","","99.25","","","","","","Mainly Clear"
"2007-03-13 04:00","2007","03","13","04:00","4.8","","-0.2","","70","","23","","15","","24.1","","99.21","","","","","","Mainly Clear"
"2007-03-13 05:00","2007","03","13","05:00","4.3","","-0.5","","71","","23","","15","","24.1","","99.21","","","","","","Mainly Clear"
"2007-03-13 06:00","2007","03","13","06:00","4.6","","-0.4","","70","","23","","13","","24.1","","99.17","","","","","","Mainly Clear"
"2007-03-13 07:00","2007","03","13","07:00","4.4","","-0.1","","73","","23","","13","","24.1","","99.18","","","","","","Mainly Clear"
"2007-03-13 08:00","2007","03","13","08:00","6.6","","1.8","","71","","23","","19","","19.3","","99.18","","","","","","Mainly Clear"
"2007-03-13 09:00","2007","03","13","09:00","10.0","","4.0","","66","","23","","20","","24.1","","99.18","","","","","","Mainly Clear"
"2007-03-13 10:00","2007","03","13","10:00","12.6","","6.0","","64","","23","","28","","19.3","","99.15","","","","","","Mainly Clear"
"2007-03-13 11:00","2007","03","13","11:00","15.3","","7.8","","61","","24","","26","","19.3","","99.11","","","","","","Mainly Clear"
"2007-03-13 12:00","2007","03","13","12:00","18.2","","10.2","","60","","23","","26","","19.3","","99.06","","","","","","Mostly Cloudy"
"2007-03-13 13:00","2007","03","13","13:00","19.8","","11.1","","57","","23","","33","","24.1","","98.98","","","","","","Mostly Cloudy"
"2007-03-13 14:00","2007","03","13","14:00","20.3","","11.3","","56","","24","","33","","24.1","","98.85","","","","","","Mostly Cloudy"
"2007-03-13 15:00","2007","03","13","15:00","20.5","","11.2","","55","","24","","37","","24.1","","98.87","","","","","","Mostly Cloudy"
"2007-03-13 16:00","2007","03","13","16:00","21.5","","12.4","","56","","23","","32","","19.3","","98.84","","","","","","Mostly Cloudy"
"2007-03-13 17:00","2007","03","13","17:00","21.4","","11.6","","54","","23","","37","","19.3","","98.83","","","","","","Mostly Cloudy"
"2007-03-13 18:00","2007","03","13","18:00","20.2","","11.1","","56","","23","","20","","24.1","","98.85","","","","","","Mostly Cloudy"
"2007-03-13 19:00","2007","03","13","19:00","18.2","","10.8","","62","","21","","17","","24.1","","98.88","","","","","","Mostly Cloudy"
"2007-03-13 20:00","2007","03","13","20:00","17.4","","10.8","","65","","22","","20","","24.1","","98.91","","","","","","Mainly Clear"
"2007-03-13 21:00","2007","03","13","21:00","14.9","","9.4","","70","","22","","19","","24.1","","98.91","","","","","","Mainly Clear"
"2007-03-13 22:00","2007","03","13","22:00","14.9","","9.7","","71","","21","","20","","24.1","","98.88","","","","","","Mainly Clear"
"2007-03-13 23:00","2007","03","13","23:00","14.2","","9.7","","74","","21","","22","","24.1","","98.82","","","","","","Mainly Clear"
"2007-03-14 00:00","2007","03","14","00:00","13.8","","9.2","","74","","21","","17","","24.1","","98.81","","","","","","Mainly Clear"
"2007-03-14 01:00","2007","03","14","01:00","13.3","","8.7","","74","","22","","15","","24.1","","98.78","","","","","","Clear"
"2007-03-14 02:00","2007","03","14","02:00","12.0","","8.0","","76","","20","","13","","24.1","","98.79","","","","","","Mainly Clear"
"2007-03-14 03:00","2007","03","14","03:00","12.4","","8.8","","79","","20","","13","","24.1","","98.72","","","","","","Mainly Clear"
"2007-03-14 04:00","2007","03","14","04:00","12.4","","9.7","","84","","21","","11","","24.1","","98.70","","","","","","Mostly Cloudy"
"2007-03-14 05:00","2007","03","14","05:00","12.0","","9.5","","85","","21","","15","","19.3","","98.70","","","","","","Mostly Cloudy"
"2007-03-14 06:00","2007","03","14","06:00","12.3","","10.4","","88","","22","","9","","12.9","","98.69","","","","","","Cloudy"
"2007-03-14 07:00","2007","03","14","07:00","12.4","","10.6","","89","","21","","17","","9.7","","98.69","","","","","","Fog"
"2007-03-14 08:00","2007","03","14","08:00","13.3","","11.4","","88","","22","","17","","9.7","","98.69","","","","","","Fog"
"2007-03-14 09:00","2007","03","14","09:00","14.9","","13.1","","89","","22","","15","","8.0","","98.71","","","","","","Fog"
"2007-03-14 10:00","2007","03","14","10:00","15.7","","13.5","","87","","22","","19","","9.7","","98.68","","","","","","Haze"
"2007-03-14 11:00","2007","03","14","11:00","17.4","","14.4","","83","","24","","22","","9.7","","98.65","","","","","","Haze"
"2007-03-14 12:00","2007","03","14","12:00","18.7","","14.3","","76","","25","","20","","9.7","","98.60","","","","","","Haze"
"2007-03-14 13:00","2007","03","14","13:00","18.8","","14.1","","74","","24","","24","","8.0","","98.60","","","","","","Haze"
"2007-03-14 14:00","2007","03","14","14:00","19.3","","14.0","","71","","26","","22","","9.7","","98.61","","","","","","Haze"
"2007-03-14 15:00","2007","03","14","15:00","18.8","","13.6","","72","","27","","22","","9.7","","98.61","","","","","","Haze"
"2007-03-14 16:00","2007","03","14","16:00","18.7","","13.2","","70","","27","","26","","9.7","","98.58","","","","","","Haze"
"2007-03-14 17:00","2007","03","14","17:00","17.3","","12.5","","73","","34","","19","","8.0","","98.58","","","","","","Haze"
"2007-03-14 18:00","2007","03","14","18:00","14.2","","11.0","","81","","35","","20","","6.4","","98.67","","","","","","Haze"
"2007-03-14 19:00","2007","03","14","19:00","8.8","","6.8","","87","","3","","32","","6.4","","98.82","","","","","","Moderate Rain Showers,Fog"
"2007-03-14 20:00","2007","03","14","20:00","5.6","","3.6","","87","","3","","30","","8.0","","99.05","","","","","","Rain Showers,Fog"
"2007-03-14 21:00","2007","03","14","21:00","4.8","","0.6","","74","","4","","37","","16.1","","99.09","","","","","","Cloudy"
"2007-03-14 22:00","2007","03","14","22:00","4.1","","-1.1","","69","","4","","22","","24.1","","99.21","","","","","","Cloudy"
"2007-03-14 23:00","2007","03","14","23:00","3.1","","-1.3","","73","","4","","19","","19.3","","99.49","","","","","","Rain Showers"
"2007-03-15 00:00","2007","03","15","00:00","1.1","","-2.0","","80","","3","","22","","1.6","","99.43","","","","","","Snow Showers"
"2007-03-15 01:00","2007","03","15","01:00","0.9","","-1.5","","84","","36","","28","","4.0","","99.51","","","","","","Snow Showers"
"2007-03-15 02:00","2007","03","15","02:00","0.7","","-1.2","","87","","3","","26","","4.8","","99.55","","","","","","Snow"
"2007-03-15 03:00","2007","03","15","03:00","0.2","","-1.7","","87","","3","","32","","4.0","","99.64","","","","","","Snow"
"2007-03-15 04:00","2007","03","15","04:00","-0.1","","-1.6","","90","","3","","20","","1.6","","99.69","","","","-5","","Snow"
"2007-03-15 05:00","2007","03","15","05:00","0.2","","-1.1","","91","","4","","7","","19.3","","99.71","","","","","","Cloudy"
"2007-03-15 06:00","2007","03","15","06:00","0.3","","-0.9","","92","","2","","6","","24.1","","99.75","","","","","","Cloudy"
"2007-03-15 07:00","2007","03","15","07:00","0.6","","-1.0","","89","","36","","7","","24.1","","99.86","","","","","","Cloudy"
"2007-03-15 08:00","2007","03","15","08:00","0.9","","-1.0","","87","","5","","22","","24.1","","100.02","","","","","","Cloudy"
"2007-03-15 09:00","2007","03","15","09:00","0.4","","-2.9","","78","","5","","26","","24.1","","100.09","","","","","","Cloudy"
"2007-03-15 10:00","2007","03","15","10:00","0.9","","-3.6","","72","","4","","24","","24.1","","100.09","","","","","","Cloudy"
"2007-03-15 11:00","2007","03","15","11:00","0.3","","-6.6","","60","","2","","24","","24.1","","100.15","","","","","","Cloudy"
"2007-03-15 12:00","2007","03","15","12:00","0.7","","-5.0","","66","","3","","30","","24.1","","100.23","","","","","","Cloudy"
"2007-03-15 13:00","2007","03","15","13:00","0.9","","-4.3","","68","","4","","35","","24.1","","100.24","","","","","","Cloudy"
"2007-03-15 14:00","2007","03","15","14:00","0.9","","-4.5","","67","","4","","37","","24.1","","100.23","","","","","","Mostly Cloudy"
"2007-03-15 15:00","2007","03","15","15:00","0.3","","-4.6","","70","","4","","33","","24.1","","100.21","","","","","","Mostly Cloudy"
"2007-03-15 16:00","2007","03","15","16:00","0.0","","-5.6","","66","","4","","30","","24.1","","100.26","","","","-6","","Mostly Cloudy"
"2007-03-15 17:00","2007","03","15","17:00","-0.8","","-7.4","","61","","3","","33","","24.1","","100.31","","","","-8","","Mostly Cloudy"
"2007-03-15 18:00","2007","03","15","18:00","-1.3","","-7.7","","62","","4","","30","","24.1","","100.35","","","","-8","","Mostly Cloudy"
"2007-03-15 19:00","2007","03","15","19:00","-2.3","","-9.4","","58","","2","","26","","24.1","","100.40","","","","-9","","Cloudy"
"2007-03-15 20:00","2007","03","15","20:00","-3.3","","-10.1","","59","","2","","35","","24.1","","100.44","","","","-11","","Mostly Cloudy"
"2007-03-15 21:00","2007","03","15","21:00","-3.5","","-9.1","","65","","2","","24","","24.1","","100.43","","","","-10","","Mostly Cloudy"
"2007-03-15 22:00","2007","03","15","22:00","-3.4","","-8.6","","67","","4","","24","","24.1","","100.38","","","","-10","","Mostly Cloudy"
"2007-03-15 23:00","2007","03","15","23:00","-2.7","","-7.5","","69","","4","","24","","24.1","","100.37","","","","-9","","Mostly Cloudy"
"2007-03-16 00:00","2007","03","16","00:00","-3.0","","-8.1","","68","","5","","20","","24.1","","100.31","","","","-9","","Mostly Cloudy"
"2007-03-16 01:00","2007","03","16","01:00","-3.3","","-8.7","","66","","5","","24","","24.1","","100.21","","","","-10","","Mainly Clear"
"2007-03-16 02:00","2007","03","16","02:00","-3.4","","-8.0","","70","","5","","19","","24.1","","100.16","","","","-9","","Mostly Cloudy"
"2007-03-16 03:00","2007","03","16","03:00","-3.6","","-7.5","","74","","4","","13","","24.1","","100.06","","","","-8","","Mostly Cloudy"
"2007-03-16 04:00","2007","03","16","04:00","-3.1","","-7.1","","74","","4","","13","","24.1","","100.06","","","","-8","","Mostly Cloudy"
"2007-03-16 05:00","2007","03","16","05:00","-3.0","","-7.0","","74","","4","","19","","24.1","","100.02","","","","-9","","Mostly Cloudy"
"2007-03-16 06:00","2007","03","16","06:00","-2.9","","-7.1","","73","","4","","17","","24.1","","99.99","","","","-8","","Mostly Cloudy"
"2007-03-16 07:00","2007","03","16","07:00","-2.9","","-7.3","","72","","4","","22","","24.1","","99.97","","","","-9","","Mostly Cloudy"
"2007-03-16 08:00","2007","03","16","08:00","-2.1","","-7.8","","65","","4","","26","","24.1","","99.97","","","","-9","","Mostly Cloudy"
"2007-03-16 09:00","2007","03","16","09:00","-1.9","","-9.0","","58","","5","","30","","24.1","","99.98","","","","-9","","Mostly Cloudy"
"2007-03-16 10:00","2007","03","16","10:00","-0.5","","-8.2","","56","","4","","32","","24.1","","99.96","","","","-7","","Mostly Cloudy"
"2007-03-16 11:00","2007","03","16","11:00","-0.3","","-7.6","","58","","4","","37","","24.1","","99.91","","","","-8","","Mostly Cloudy"
"2007-03-16 12:00","2007","03","16","12:00","0.0","","-7.6","","57","","3","","32","","24.1","","99.89","","","","-7","","Mainly Clear"
"2007-03-16 13:00","2007","03","16","13:00","0.3","","-7.1","","58","","4","","33","","24.1","","99.87","","","","","","Mostly Cloudy"
"2007-03-16 14:00","2007","03","16","14:00","0.5","","-7.1","","57","","1","","30","","24.1","","99.80","","","","","","Mostly Cloudy"
"2007-03-16 15:00","2007","03","16","15:00","0.9","","-7.1","","55","","4","","28","","24.1","","99.75","","","","","","Mostly Cloudy"
"2007-03-16 16:00","2007","03","16","16:00","1.1","","-6.8","","56","","3","","32","","24.1","","99.73","","","","","","Mainly Clear"
"2007-03-16 17:00","2007","03","16","17:00","0.6","","-7.4","","55","","3","","33","","24.1","","99.75","","","","","","Mainly Clear"
"2007-03-16 18:00","2007","03","16","18:00","-0.7","","-8.6","","55","","3","","20","","24.1","","99.81","","","","-6","","Mainly Clear"
"2007-03-16 19:00","2007","03","16","19:00","-1.2","","-9.0","","55","","3","","26","","24.1","","99.85","","","","-8","","Mainly Clear"
"2007-03-16 20:00","2007","03","16","20:00","-1.0","","-8.6","","56","","2","","26","","24.1","","99.83","","","","-7","","Mostly Cloudy"
"2007-03-16 21:00","2007","03","16","21:00","-1.1","","-8.2","","58","","1","","26","","24.1","","99.85","","","","-7","","Snow Showers"
"2007-03-16 22:00","2007","03","16","22:00","-1.9","","-7.8","","64","","36","","19","","3.2","","99.84","","","","-7","","Snow Showers"
"2007-03-16 23:00","2007","03","16","23:00","-2.5","","-6.8","","72","","36","","17","","4.0","","99.81","","","","-8","","Snow"
"2007-03-17 00:00","2007","03","17","00:00","-2.6","","-6.0","","77","","36","","13","","4.8","","99.76","","","","-7","","Snow"
"2007-03-17 01:00","2007","03","17","01:00","-3.0","","-5.9","","80","","2","","13","","4.8","","99.71","","","","-8","","Snow"
"2007-03-17 02:00","2007","03","17","02:00","-3.4","","-6.5","","79","","36","","15","","3.2","","99.65","","","","-9","","Snow"
"2007-03-17 03:00","2007","03","17","03:00","-3.6","","-6.5","","80","","34","","15","","3.2","","99.59","","","","-9","","Snow"
"2007-03-17 04:00","2007","03","17","04:00","-3.5","","-6.5","","80","","34","","15","","12.9","","99.56","","","","-9","","Snow"
"2007-03-17 05:00","2007","03","17","05:00","-3.2","","-6.9","","76","","33","","19","","24.1","","99.57","","","","-9","","Snow Showers"
"2007-03-17 06:00","2007","03","17","06:00","-3.0","","-7.2","","73","","34","","15","","24.1","","99.59","","","","-8","","Mostly Cloudy"
"2007-03-17 07:00","2007","03","17","07:00","-3.3","","-7.9","","70","","36","","19","","24.1","","99.61","","","","-9","","Mostly Cloudy"
"2007-03-17 08:00","2007","03","17","08:00","-2.9","","-7.9","","68","","35","","17","","24.1","","99.63","","","","-8","","Mostly Cloudy"
"2007-03-17 09:00","2007","03","17","09:00","-1.7","","-7.1","","67","","36","","28","","24.1","","99.66","","","","-8","","Mostly Cloudy"
"2007-03-17 10:00","2007","03","17","10:00","-0.4","","-8.0","","56","","36","","28","","24.1","","99.67","","","","-7","","Mostly Cloudy"
"2007-03-17 11:00","2007","03","17","11:00","0.5","","-10.4","","44","","35","","28","","24.1","","99.67","","","","","","Mostly Cloudy"
"2007-03-17 12:00","2007","03","17","12:00","1.1","","-10.1","","43","","1","","20","","24.1","","99.63","","","","","","Mostly Cloudy"
"2007-03-17 13:00","2007","03","17","13:00","1.7","","-9.9","","42","","34","","22","","24.1","","99.61","","","","","","Mostly Cloudy"
"2007-03-17 14:00","2007","03","17","14:00","2.0","","-7.9","","48","","36","","26","","24.1","","99.57","","","","","","Mostly Cloudy"
"2007-03-17 15:00","2007","03","17","15:00","1.5","","-7.5","","51","","33","","19","","24.1","","99.56","","","","","","Mostly Cloudy"
"2007-03-17 16:00","2007","03","17","16:00","2.3","","-9.0","","43","","33","","30","","24.1","","99.53","","","","","","Mostly Cloudy"
"2007-03-17 17:00","2007","03","17","17:00","2.2","","-11.0","","37","","32","","26","","24.1","","99.55","","","","","","Mostly Cloudy"
"2007-03-17 18:00","2007","03","17","18:00","1.9","","-11.1","","37","","33","","19","","24.1","","99.57","","","","","","Mostly Cloudy"
"2007-03-17 19:00","2007","03","17","19:00","1.6","","-10.6","","40","","36","","17","","24.1","","99.60","","","","","","Mostly Cloudy"
"2007-03-17 20:00","2007","03","17","20:00","1.4","","-10.8","","40","","34","","9","","24.1","","99.64","","","","","","Mostly Cloudy"
"2007-03-17 21:00","2007","03","17","21:00","1.1","","-10.5","","42","","32","","9","","24.1","","99.66","","","","","","Mostly Cloudy"
"2007-03-17 22:00","2007","03","17","22:00","0.6","","-10.6","","43","","32","","22","","24.1","","99.68","","","","","","Mainly Clear"
"2007-03-17 23:00","2007","03","17","23:00","0.1","","-10.7","","44","","33","","19","","24.1","","99.70","","","","","","Clear"
"2007-03-18 00:00","2007","03","18","00:00","-0.6","","-10.6","","47","","34","","13","","24.1","","99.74","","","","-5","","Clear"
"2007-03-18 01:00","2007","03","18","01:00","-1.2","","-10.4","","50","","33","","20","","24.1","","99.75","","","","-7","","Clear"
"2007-03-18 02:00","2007","03","18","02:00","-1.8","","-10.1","","53","","32","","20","","24.1","","99.79","","","","-8","","Clear"
"2007-03-18 03:00","2007","03","18","03:00","-2.2","","-10.1","","55","","32","","19","","24.1","","99.80","","","","-8","","Clear"
"2007-03-18 04:00","2007","03","18","04:00","-2.8","","-9.9","","58","","32","","19","","24.1","","99.82","","","","-9","","Clear"
"2007-03-18 05:00","2007","03","18","05:00","-3.0","","-9.7","","60","","32","","19","","24.1","","99.89","","","","-9","","Clear"
"2007-03-18 06:00","2007","03","18","06:00","-3.3","","-9.5","","62","","32","","17","","24.1","","99.94","","","","-9","","Clear"
"2007-03-18 07:00","2007","03","18","07:00","-3.6","","-9.4","","64","","32","","19","","24.1","","99.99","","","","-10","","Clear"
"2007-03-18 08:00","2007","03","18","08:00","-2.6","","-8.6","","63","","31","","24","","24.1","","100.04","","","","-9","","Clear"
"2007-03-18 09:00","2007","03","18","09:00","-1.5","","-8.3","","60","","31","","20","","24.1","","100.09","","","","-7","","Clear"
"2007-03-18 10:00","2007","03","18","10:00","0.1","","-8.5","","52","","32","","15","","24.1","","100.13","","","","","","Clear"
"2007-03-18 11:00","2007","03","18","11:00","1.2","","-9.8","","44","","30","","17","","24.1","","100.15","","","","","","Clear"
"2007-03-18 12:00","2007","03","18","12:00","1.5","","-10.4","","41","","30","","19","","24.1","","100.12","","","","","","Mainly Clear"
"2007-03-18 13:00","2007","03","18","13:00","3.4","","-10.8","","34","","29","","19","","24.1","","100.09","","","","","","Mainly Clear"
"2007-03-18 14:00","2007","03","18","14:00","4.0","","-10.8","","33","","32","","22","","24.1","","100.05","","","","","","Mainly Clear"
"2007-03-18 15:00","2007","03","18","15:00","4.1","","-11.1","","32","","29","","26","","24.1","","100.02","","","","","","Mainly Clear"
"2007-03-18 16:00","2007","03","18","16:00","4.0","","-10.8","","33","","29","","13","","24.1","","100.02","","","","","","Mostly Cloudy"
"2007-03-18 17:00","2007","03","18","17:00","4.2","","-10.5","","33","","28","","22","","24.1","","100.01","","","","","","Mainly Clear"
"2007-03-18 18:00","2007","03","18","18:00","3.8","","-11.2","","32","","31","","20","","24.1","","100.03","","","","","","Clear"
"2007-03-18 19:00","2007","03","18","19:00","2.7","","-10.6","","37","","29","","11","","24.1","","100.05","","","","","","Mainly Clear"
"2007-03-18 20:00","2007","03","18","20:00","0.9","","-10.4","","43","","19","","6","","24.1","","100.05","","","","","","Clear"
"2007-03-18 21:00","2007","03","18","21:00","-0.5","","-8.7","","54","","17","","7","","24.1","","100.06","","","","-3","","Clear"
"2007-03-18 22:00","2007","03","18","22:00","-0.4","","-7.2","","60","","18","","11","","24.1","","100.03","","","","-4","","Mainly Clear"
"2007-03-18 23:00","2007","03","18","23:00","0.1","","-6.1","","63","","19","","13","","24.1","","99.98","","","","","","Mainly Clear"
"2007-03-19 00:00","2007","03","19","00:00","0.3","","-5.3","","66","","20","","13","","24.1","","99.96","","","","","","Mainly Clear"
"2007-03-19 01:00","2007","03","19","01:00","0.9","","-4.4","","68","","21","","15","","24.1","","99.86","","","","","","Mostly Cloudy"
"2007-03-19 02:00","2007","03","19","02:00","1.5","","-4.2","","66","","21","","19","","24.1","","99.77","","","","","","Cloudy"
"2007-03-19 03:00","2007","03","19","03:00","1.8","","-4.7","","62","","21","","22","","24.1","","99.69","","","","","","Cloudy"
"2007-03-19 04:00","2007","03","19","04:00","1.8","","-5.7","","57","","20","","24","","24.1","","99.61","","","","","","Cloudy"
"2007-03-19 05:00","2007","03","19","05:00","1.8","","-6.0","","56","","20","","22","","16.1","","99.56","","","","","","Snow Showers"
"2007-03-19 06:00","2007","03","19","06:00","1.9","","-5.9","","56","","21","","19","","24.1","","99.59","","","","","","Cloudy"
"2007-03-19 07:00","2007","03","19","07:00","-0.6","","-4.2","","77","","21","","20","","0.6","","99.52","","","","-6","","Moderate Snow"
"2007-03-19 08:00","2007","03","19","08:00","-0.7","","-3.2","","83","","19","","28","","1.6","","99.37","","","","-7","","Snow"
"2007-03-19 09:00","2007","03","19","09:00","-0.5","","-2.7","","85","","20","","26","","2.4","","99.36","","","","-7","","Snow"
"2007-03-19 10:00","2007","03","19","10:00","-0.3","","-2.0","","88","","19","","28","","24.1","","99.21","","","","-7","","Cloudy"
"2007-03-19 11:00","2007","03","19","11:00","0.0","","-1.6","","89","","21","","28","","16.1","","99.10","","","","-6","","Cloudy"
"2007-03-19 12:00","2007","03","19","12:00","0.9","","-0.9","","88","","21","","26","","14.5","","99.02","","","","","","Cloudy"
"2007-03-19 13:00","2007","03","19","13:00","2.0","","0.1","","87","","22","","22","","12.9","","98.97","","","","","","Cloudy"
"2007-03-19 14:00","2007","03","19","14:00","2.8","","1.0","","88","","22","","19","","16.1","","98.89","","","","","","Cloudy"
"2007-03-19 15:00","2007","03","19","15:00","4.3","","2.3","","87","","23","","20","","12.9","","98.87","","","","","","Cloudy"
"2007-03-19 16:00","2007","03","19","16:00","5.4","","2.8","","83","","26","","24","","12.9","","98.94","","","","","","Cloudy"
"2007-03-19 17:00","2007","03","19","17:00","6.0","","2.9","","80","","25","","17","","12.9","","98.98","","","","","","Cloudy"
"2007-03-19 18:00","2007","03","19","18:00","6.3","","3.1","","80","","21","","11","","16.1","","99.02","","","","","","Cloudy"
"2007-03-19 19:00","2007","03","19","19:00","5.6","","3.2","","85","","22","","11","","9.7","","99.13","","","","","","Haze"
"2007-03-19 20:00","2007","03","19","20:00","5.9","","3.5","","85","","26","","9","","12.9","","99.31","","","","","","Mostly Cloudy"
"2007-03-19 21:00","2007","03","19","21:00","7.6","","2.9","","72","","29","","19","","19.3","","99.44","","","","","","Mostly Cloudy"
"2007-03-19 22:00","2007","03","19","22:00","6.4","","-0.4","","62","","33","","7","","24.1","","99.63","","","","","","Mostly Cloudy"
"2007-03-19 23:00","2007","03","19","23:00","5.8","","-1.4","","60","","34","","9","","24.1","","99.73","","","","","","Mainly Clear"
"2007-03-20 00:00","2007","03","20","00:00","4.8","","-2.1","","61","","34","","13","","24.1","","99.88","","","","","","Clear"
"2007-03-20 01:00","2007","03","20","01:00","3.0","","-2.8","","66","","34","","11","","24.1","","99.99","","","","","","Clear"
"2007-03-20 02:00","2007","03","20","02:00","2.6","","-4.1","","61","","35","","11","","24.1","","100.12","","","","","","Clear"
"2007-03-20 03:00","2007","03","20","03:00","2.4","","-4.8","","59","","36","","17","","24.1","","100.25","","","","","","Clear"
"2007-03-20 04:00","2007","03","20","04:00","0.3","","-5.0","","68","","1","","19","","24.1","","100.41","","","","","","Clear"
"2007-03-20 05:00","2007","03","20","05:00","-0.6","","-5.9","","67","","1","","22","","24.1","","100.54","","","","-6","","Clear"
"2007-03-20 06:00","2007","03","20","06:00","-2.2","","-7.9","","65","","1","","22","","24.1","","100.68","","","","-8","","Clear"
"2007-03-20 07:00","2007","03","20","07:00","-2.7","","-8.4","","65","","1","","17","","24.1","","100.87","","","","-8","","Mainly Clear"
"2007-03-20 08:00","2007","03","20","08:00","-2.1","","-8.0","","64","","2","","17","","24.1","","101.02","","","","-7","","Mainly Clear"
"2007-03-20 09:00","2007","03","20","09:00","-2.5","","-7.5","","68","","5","","26","","24.1","","101.19","","","","-9","","Mostly Cloudy"
"2007-03-20 10:00","2007","03","20","10:00","-2.4","","-8.4","","63","","5","","22","","24.1","","101.29","","","","-9","","Mainly Clear"
"2007-03-20 11:00","2007","03","20","11:00","-2.0","","-8.7","","60","","3","","22","","24.1","","101.39","","","","-8","","Mainly Clear"
"2007-03-20 12:00","2007","03","20","12:00","-1.5","","-8.3","","60","","5","","20","","24.1","","101.41","","","","-7","","Mainly Clear"
"2007-03-20 13:00","2007","03","20","13:00","-1.3","","-7.7","","62","","4","","26","","24.1","","101.41","","","","-8","","Mainly Clear"
"2007-03-20 14:00","2007","03","20","14:00","-0.7","","-7.4","","60","","5","","28","","24.1","","101.37","","","","-7","","Mainly Clear"
"2007-03-20 15:00","2007","03","20","15:00","-0.2","","-7.0","","60","","6","","24","","24.1","","101.32","","","","-6","","Clear"
"2007-03-20 16:00","2007","03","20","16:00","-0.1","","-7.5","","57","","5","","22","","24.1","","101.33","","","","-6","","Clear"
"2007-03-20 17:00","2007","03","20","17:00","0.2","","-6.9","","59","","6","","20","","24.1","","101.33","","","","","","Clear"
"2007-03-20 18:00","2007","03","20","18:00","-0.1","","-6.6","","62","","7","","15","","24.1","","101.31","","","","-5","","Mainly Clear"
"2007-03-20 19:00","2007","03","20","19:00","-0.5","","-6.3","","65","","7","","17","","19.3","","101.35","","","","-5","","Mostly Cloudy"
"2007-03-20 20:00","2007","03","20","20:00","-1.2","","-5.8","","71","","10","","9","","24.1","","101.31","","","","-4","","Mainly Clear"
"2007-03-20 21:00","2007","03","20","21:00","-1.7","","-6.2","","71","","9","","9","","24.1","","101.30","","","","-5","","Clear"
"2007-03-20 22:00","2007","03","20","22:00","-1.9","","-6.4","","71","","7","","15","","24.1","","101.24","","","","-7","","Clear"
"2007-03-20 23:00","2007","03","20","23:00","-1.9","","-6.8","","69","","8","","17","","24.1","","101.20","","","","-7","","Clear"
"2007-03-21 00:00","2007","03","21","00:00","-2.3","","-6.5","","73","","9","","17","","24.1","","101.17","","","","-8","","Clear"
"2007-03-21 01:00","2007","03","21","01:00","-2.5","","-6.2","","76","","10","","13","","24.1","","101.13","","","","-7","","Clear"
"2007-03-21 02:00","2007","03","21","02:00","-2.6","","-5.9","","78","","11","","15","","24.1","","101.08","","","","-8","","Clear"
"2007-03-21 03:00","2007","03","21","03:00","-2.4","","-6.2","","75","","11","","13","","24.1","","101.00","","","","-7","","Mainly Clear"
"2007-03-21 04:00","2007","03","21","04:00","-2.2","","-6.7","","71","","10","","17","","24.1","","100.87","","","","-8","","Mainly Clear"
"2007-03-21 05:00","2007","03","21","05:00","-2.0","","-6.2","","73","","11","","13","","24.1","","100.79","","","","-6","","Mostly Cloudy"
"2007-03-21 06:00","2007","03","21","06:00","-1.5","","-5.2","","76","","11","","15","","24.1","","100.74","","","","-6","","Mostly Cloudy"
"2007-03-21 07:00","2007","03","21","07:00","-0.8","","-4.5","","76","","11","","13","","24.1","","100.64","","","","-5","","Cloudy"
"2007-03-21 08:00","2007","03","21","08:00","0.0","","-3.7","","76","","13","","11","","24.1","","100.60","","","","-4","","Rain Showers"
"2007-03-21 09:00","2007","03","21","09:00","1.1","","-2.7","","76","","12","","9","","24.1","","100.51","","","","","","Rain Showers"
"2007-03-21 10:00","2007","03","21","10:00","1.3","","-2.4","","76","","18","","11","","6.4","","100.49","","","","","","Rain,Fog"
"2007-03-21 11:00","2007","03","21","11:00","1.2","","-1.6","","82","","14","","11","","9.7","","100.34","","","","","","Rain,Fog"
"2007-03-21 12:00","2007","03","21","12:00","2.7","","0.4","","85","","15","","11","","9.7","","100.26","","","","","","Haze"
"2007-03-21 13:00","2007","03","21","13:00","4.0","","2.0","","87","","16","","11","","16.1","","100.16","","","","","","Mostly Cloudy"
"2007-03-21 14:00","2007","03","21","14:00","5.8","","3.5","","85","","18","","15","","12.9","","100.02","","","","","","Cloudy"
"2007-03-21 15:00","2007","03","21","15:00","5.8","","3.6","","86","","17","","11","","9.7","","99.92","","","","","","Rain Showers,Fog"
"2007-03-21 16:00","2007","03","21","16:00","7.2","","5.1","","86","","16","","9","","9.7","","99.84","","","","","","Haze"
"2007-03-21 17:00","2007","03","21","17:00","8.4","","6.3","","87","","16","","9","","9.7","","99.73","","","","","","Haze"
"2007-03-21 18:00","2007","03","21","18:00","9.0","","7.3","","89","","14","","6","","9.7","","99.66","","","","","","Haze"
"2007-03-21 19:00","2007","03","21","19:00","8.0","","6.4","","90","","14","","6","","9.7","","99.57","","","","","","Fog"
"2007-03-21 20:00","2007","03","21","20:00","11.8","","9.2","","84","","18","","17","","12.9","","99.51","","","","","","Mainly Clear"
"2007-03-21 21:00","2007","03","21","21:00","14.5","","10.6","","77","","19","","22","","19.3","","99.48","","","","","","Mostly Cloudy"
"2007-03-21 22:00","2007","03","21","22:00","15.0","","10.2","","73","","21","","24","","24.1","","99.45","","","","","","Mostly Cloudy"
"2007-03-21 23:00","2007","03","21","23:00","14.5","","9.8","","73","","22","","20","","19.3","","99.38","","","","","","Mostly Cloudy"
"2007-03-22 00:00","2007","03","22","00:00","13.9","","8.9","","72","","23","","19","","16.1","","99.44","","","","","","Mostly Cloudy"
"2007-03-22 01:00","2007","03","22","01:00","12.9","","8.8","","76","","20","","20","","16.1","","99.30","","","","","","Mostly Cloudy"
"2007-03-22 02:00","2007","03","22","02:00","13.5","","8.8","","73","","21","","24","","12.9","","99.20","","","","","","Mostly Cloudy"
"2007-03-22 03:00","2007","03","22","03:00","13.9","","8.8","","71","","21","","32","","12.9","","99.09","","","","","","Mainly Clear"
"2007-03-22 04:00","2007","03","22","04:00","13.6","","8.7","","72","","21","","30","","12.9","","99.00","","","","","","Mainly Clear"
"2007-03-22 05:00","2007","03","22","05:00","13.9","","8.5","","70","","22","","22","","19.3","","99.01","","","","","","Mostly Cloudy"
"2007-03-22 06:00","2007","03","22","06:00","15.3","","9.1","","66","","21","","26","","19.3","","98.92","","","","","","Mostly Cloudy"
"2007-03-22 07:00","2007","03","22","07:00","14.6","","9.1","","70","","21","","33","","24.1","","98.89","","","","","","Mostly Cloudy"
"2007-03-22 08:00","2007","03","22","08:00","14.8","","9.0","","68","","22","","26","","24.1","","98.93","","","","","","Cloudy"
"2007-03-22 09:00","2007","03","22","09:00","14.8","","10.7","","76","","23","","41","","9.7","","99.04","","","","","","Thunderstorms,Rain Showers,Haze"
"2007-03-22 10:00","2007","03","22","10:00","13.8","","11.8","","88","","22","","32","","19.3","","98.96","","","","","","Rain Showers"
"2007-03-22 11:00","2007","03","22","11:00","14.8","","12.9","","88","","23","","35","","24.1","","98.98","","","","","","Cloudy"
"2007-03-22 12:00","2007","03","22","12:00","15.7","","13.2","","85","","23","","33","","24.1","","98.96","","","","","","Mostly Cloudy"
"2007-03-22 13:00","2007","03","22","13:00","16.7","","13.7","","82","","23","","32","","24.1","","99.01","","","","","","Cloudy"
"2007-03-22 14:00","2007","03","22","14:00","16.4","","13.9","","85","","26","","20","","19.3","","99.03","","","","","","Cloudy"
"2007-03-22 15:00","2007","03","22","15:00","16.7","","13.1","","79","","29","","17","","24.1","","99.07","","","","","","Mostly Cloudy"
"2007-03-22 16:00","2007","03","22","16:00","18.3","","9.3","","56","","28","","22","","24.1","","99.14","","","","","","Mainly Clear"
"2007-03-22 17:00","2007","03","22","17:00","18.4","","7.1","","48","","29","","22","","24.1","","99.18","","","","","","Mainly Clear"
"2007-03-22 18:00","2007","03","22","18:00","16.7","","4.4","","44","","30","","22","","24.1","","99.30","","","","","","Mainly Clear"
"2007-03-22 19:00","2007","03","22","19:00","14.2","","1.7","","43","","31","","24","","24.1","","99.45","","","","","","Mainly Clear"
"2007-03-22 20:00","2007","03","22","20:00","12.5","","-0.1","","42","","29","","19","","24.1","","99.57","","","","","","Clear"
"2007-03-22 21:00","2007","03","22","21:00","11.3","","-1.7","","40","","28","","17","","24.1","","99.64","","","","","","Clear"
"2007-03-22 22:00","2007","03","22","22:00","9.6","","-1.3","","46","","29","","13","","24.1","","99.66","","","","","","Clear"
"2007-03-22 23:00","2007","03","22","23:00","8.7","","-0.9","","51","","28","","11","","24.1","","99.65","","","","","","Clear"
"2007-03-23 00:00","2007","03","23","00:00","8.2","","-1.0","","52","","26","","9","","24.1","","99.68","","","","","","Clear"
"2007-03-23 01:00","2007","03","23","01:00","7.6","","-0.9","","55","","29","","11","","24.1","","99.71","","","","","","Mostly Cloudy"
"2007-03-23 02:00","2007","03","23","02:00","7.5","","-0.5","","57","","32","","6","","24.1","","99.71","","","","","","Cloudy"
"2007-03-23 03:00","2007","03","23","03:00","7.2","","-0.1","","60","","33","","4","","24.1","","99.70","","","","","","Mostly Cloudy"
"2007-03-23 04:00","2007","03","23","04:00","6.5","","0.1","","64","","35","","4","","24.1","","99.68","","","","","","Cloudy"
"2007-03-23 05:00","2007","03","23","05:00","7.6","","0.0","","59","","","","0","","24.1","","99.79","","","","","","Mostly Cloudy"
"2007-03-23 06:00","2007","03","23","06:00","6.6","","0.3","","64","","","","0","","24.1","","99.80","","","","","","Mostly Cloudy"
"2007-03-23 07:00","2007","03","23","07:00","5.6","","-0.2","","66","","2","","4","","24.1","","99.82","","","","","","Mostly Cloudy"
"2007-03-23 08:00","2007","03","23","08:00","6.5","","1.1","","68","","3","","9","","24.1","","99.95","","","","","","Mostly Cloudy"
"2007-03-23 09:00","2007","03","23","09:00","6.5","","0.8","","67","","4","","7","","24.1","","100.00","","","","","","Mostly Cloudy"
"2007-03-23 10:00","2007","03","23","10:00","7.4","","0.9","","63","","5","","9","","24.1","","100.00","","","","","","Mostly Cloudy"
"2007-03-23 11:00","2007","03","23","11:00","8.5","","1.7","","62","","6","","13","","24.1","","99.99","","","","","","Mostly Cloudy"
"2007-03-23 12:00","2007","03","23","12:00","9.3","","1.3","","57","","8","","11","","24.1","","99.98","","","","","","Mostly Cloudy"
"2007-03-23 13:00","2007","03","23","13:00","9.7","","0.5","","53","","8","","13","","24.1","","99.93","","","","","","Mostly Cloudy"
"2007-03-23 14:00","2007","03","23","14:00","10.0","","3.6","","64","","11","","11","","24.1","","99.93","","","","","","Mostly Cloudy"
"2007-03-23 15:00","2007","03","23","15:00","9.3","","3.7","","68","","12","","15","","24.1","","99.94","","","","","","Mostly Cloudy"
"2007-03-23 16:00","2007","03","23","16:00","9.7","","5.3","","74","","11","","13","","24.1","","99.97","","","","","","Cloudy"
"2007-03-23 17:00","2007","03","23","17:00","9.6","","5.3","","75","","10","","11","","24.1","","99.99","","","","","","Cloudy"
"2007-03-23 18:00","2007","03","23","18:00","9.2","","4.7","","73","","9","","13","","24.1","","100.00","","","","","","Cloudy"
"2007-03-23 19:00","2007","03","23","19:00","8.8","","4.8","","76","","9","","15","","24.1","","99.98","","","","","","Cloudy"
"2007-03-23 20:00","2007","03","23","20:00","8.3","","4.4","","76","","10","","11","","24.1","","99.98","","","","","","Cloudy"
"2007-03-23 21:00","2007","03","23","21:00","8.1","","2.6","","68","","12","","9","","24.1","","100.02","","","","","","Cloudy"
"2007-03-23 22:00","2007","03","23","22:00","7.3","","1.6","","67","","13","","9","","24.1","","100.00","","","","","","Cloudy"
"2007-03-23 23:00","2007","03","23","23:00","7.0","","0.4","","63","","10","","13","","24.1","","99.95","","","","","","Cloudy"
"2007-03-24 00:00","2007","03","24","00:00","6.9","","0.5","","64","","11","","4","","24.1","","99.95","","","","","","Cloudy"
"2007-03-24 01:00","2007","03","24","01:00","6.8","","1.4","","68","","14","","9","","24.1","","99.91","","","","","","Cloudy"
"2007-03-24 02:00","2007","03","24","02:00","6.4","","2.0","","73","","8","","9","","19.3","","99.83","","","","","","Rain Showers"
"2007-03-24 03:00","2007","03","24","03:00","6.6","","2.7","","76","","9","","7","","24.1","","99.78","","","","","","Cloudy"
"2007-03-24 04:00","2007","03","24","04:00","6.9","","2.8","","75","","13","","6","","24.1","","99.78","","","","","","Cloudy"
"2007-03-24 05:00","2007","03","24","05:00","6.8","","3.3","","78","","","","0","","24.1","","99.76","","","","","","Cloudy"
"2007-03-24 06:00","2007","03","24","06:00","6.8","","3.3","","78","","9","","6","","24.1","","99.77","","","","","","Cloudy"
"2007-03-24 07:00","2007","03","24","07:00","7.5","","4.3","","80","","19","","15","","6.4","","99.79","","","","","","Haze"
"2007-03-24 08:00","2007","03","24","08:00","7.5","","5.6","","88","","18","","6","","0.8","","99.75","","","","","","Fog"
"2007-03-24 09:00","2007","03","24","09:00","8.3","","6.7","","90","","23","","7","","2.0","","99.79","","","","","","Fog"
"2007-03-24 10:00","2007","03","24","10:00","9.9","","8.4","","90","","26","","11","","4.8","","99.81","","","","","","Rain Showers,Fog"
"2007-03-24 11:00","2007","03","24","11:00","12.2","","10.2","","88","","25","","13","","6.4","","99.75","","","","","","Fog"
"2007-03-24 12:00","2007","03","24","12:00","15.2","","12.3","","83","","25","","17","","9.7","","99.76","","","","","","Haze"
"2007-03-24 13:00","2007","03","24","13:00","16.8","","12.5","","76","","29","","22","","12.9","","99.77","","","","","","Mostly Cloudy"
"2007-03-24 14:00","2007","03","24","14:00","16.6","","12.7","","78","","31","","22","","12.9","","99.82","","","","","","Cloudy"
"2007-03-24 15:00","2007","03","24","15:00","18.4","","12.2","","67","","30","","26","","19.3","","99.86","","","","","","Mostly Cloudy"
"2007-03-24 16:00","2007","03","24","16:00","18.1","","10.7","","62","","34","","24","","24.1","","99.96","","","","","","Mostly Cloudy"
"2007-03-24 17:00","2007","03","24","17:00","17.6","","8.6","","56","","32","","20","","24.1","","100.05","","","","","","Mostly Cloudy"
"2007-03-24 18:00","2007","03","24","18:00","17.3","","7.4","","52","","32","","15","","24.1","","100.13","","","","","","Mainly Clear"
"2007-03-24 19:00","2007","03","24","19:00","16.1","","6.9","","54","","36","","6","","24.1","","100.18","","","","","","Mostly Cloudy"
"2007-03-24 20:00","2007","03","24","20:00","12.7","","5.8","","63","","2","","6","","24.1","","100.25","","","","","","Mainly Clear"
"2007-03-24 21:00","2007","03","24","21:00","10.0","","5.2","","72","","8","","17","","19.3","","100.30","","","","","","Mainly Clear"
"2007-03-24 22:00","2007","03","24","22:00","8.1","","5.2","","82","","7","","13","","24.1","","100.39","","","","","","Mainly Clear"
"2007-03-24 23:00","2007","03","24","23:00","5.9","","3.9","","87","","6","","11","","24.1","","100.43","","","","","","Mainly Clear"
"2007-03-25 00:00","2007","03","25","00:00","5.3","","3.7","","89","","3","","9","","24.1","","100.48","","","","","","Mainly Clear"
"2007-03-25 01:00","2007","03","25","01:00","5.7","","3.9","","88","","32","","4","","24.1","","100.58","","","","","","Mainly Clear"
"2007-03-25 02:00","2007","03","25","02:00","5.0","","3.2","","88","","8","","9","","24.1","","100.51","","","","","","Mainly Clear"
"2007-03-25 03:00","2007","03","25","03:00","3.8","","2.7","","93","","6","","4","","8.0","","100.54","","","","","","Fog"
"2007-03-25 04:00","2007","03","25","04:00","2.9","","1.6","","91","","6","","7","","6.4","","100.48","","","","","","Fog"
"2007-03-25 05:00","2007","03","25","05:00","3.1","","1.7","","91","","6","","7","","6.4","","100.47","","","","","","Fog"
"2007-03-25 06:00","2007","03","25","06:00","3.8","","2.3","","90","","4","","7","","11.3","","100.56","","","","","","Mostly Cloudy"
"2007-03-25 07:00","2007","03","25","07:00","3.7","","2.3","","91","","7","","9","","4.8","","100.56","","","","","","Fog"
"2007-03-25 08:00","2007","03","25","08:00","5.6","","4.1","","90","","10","","13","","6.4","","100.58","","","","","","Fog"
"2007-03-25 09:00","2007","03","25","09:00","8.2","","6.4","","88","","13","","9","","8.0","","100.65","","","","","","Fog"
"2007-03-25 10:00","2007","03","25","10:00","8.2","","5.7","","84","","11","","13","","8.0","","100.60","","","","","","Haze"
"2007-03-25 11:00","2007","03","25","11:00","10.6","","7.7","","82","","10","","9","","9.7","","100.56","","","","","","Haze"
"2007-03-25 12:00","2007","03","25","12:00","12.5","","8.3","","76","","12","","15","","9.7","","100.45","","","","","","Haze"
"2007-03-25 13:00","2007","03","25","13:00","13.9","","8.1","","68","","13","","20","","11.3","","100.38","","","","","","Mostly Cloudy"
"2007-03-25 14:00","2007","03","25","14:00","13.9","","7.9","","67","","11","","24","","19.3","","100.27","","","","","","Mostly Cloudy"
"2007-03-25 15:00","2007","03","25","15:00","14.0","","7.8","","66","","14","","20","","19.3","","100.19","","","","","","Mostly Cloudy"
"2007-03-25 16:00","2007","03","25","16:00","13.5","","7.8","","68","","12","","19","","24.1","","100.14","","","","","","Mainly Clear"
"2007-03-25 17:00","2007","03","25","17:00","12.2","","7.0","","71","","10","","20","","24.1","","100.06","","","","","","Mostly Cloudy"
"2007-03-25 18:00","2007","03","25","18:00","9.9","","4.9","","71","","13","","13","","24.1","","100.01","","","","","","Mostly Cloudy"
"2007-03-25 19:00","2007","03","25","19:00","8.2","","3.8","","74","","11","","17","","24.1","","99.94","","","","","","Cloudy"
"2007-03-25 20:00","2007","03","25","20:00","7.0","","3.0","","76","","12","","13","","24.1","","99.88","","","","","","Cloudy"
"2007-03-25 21:00","2007","03","25","21:00","7.8","","4.1","","77","","11","","7","","24.1","","99.85","","","","","","Cloudy"
"2007-03-25 22:00","2007","03","25","22:00","8.7","","5.2","","79","","7","","7","","24.1","","99.78","","","","","","Cloudy"
"2007-03-25 23:00","2007","03","25","23:00","8.2","","4.9","","80","","2","","7","","24.1","","99.76","","","","","","Cloudy"
"2007-03-26 00:00","2007","03","26","00:00","7.2","","4.0","","80","","5","","6","","24.1","","99.72","","","","","","Cloudy"
"2007-03-26 01:00","2007","03","26","01:00","7.7","","4.6","","81","","8","","7","","24.1","","99.63","","","","","","Cloudy"
"2007-03-26 02:00","2007","03","26","02:00","8.0","","5.4","","84","","8","","4","","24.1","","99.56","","","","","","Cloudy"
"2007-03-26 03:00","2007","03","26","03:00","8.3","","5.6","","83","","9","","6","","24.1","","99.50","","","","","","Cloudy"
"2007-03-26 04:00","2007","03","26","04:00","9.2","","6.4","","83","","2","","13","","24.1","","99.50","","","","","","Cloudy"
"2007-03-26 05:00","2007","03","26","05:00","8.1","","5.5","","84","","9","","7","","24.1","","99.46","","","","","","Cloudy"
"2007-03-26 06:00","2007","03","26","06:00","8.2","","5.8","","85","","14","","13","","16.1","","99.42","","","","","","Rain Showers"
"2007-03-26 07:00","2007","03","26","07:00","13.3","","10.8","","85","","20","","13","","19.3","","99.37","","","","","","Cloudy"
"2007-03-26 08:00","2007","03","26","08:00","15.5","","11.8","","79","","21","","19","","24.1","","99.33","","","","","","Cloudy"
"2007-03-26 09:00","2007","03","26","09:00","16.7","","12.3","","75","","22","","17","","24.1","","99.30","","","","","","Mostly Cloudy"
"2007-03-26 10:00","2007","03","26","10:00","20.6","","14.1","","66","","22","","22","","24.1","","99.26","","","","","","Mostly Cloudy"
"2007-03-26 11:00","2007","03","26","11:00","22.6","","14.2","","59","","23","","30","","24.1","","99.26","","26","","","","Mostly Cloudy"
"2007-03-26 12:00","2007","03","26","12:00","23.8","","14.6","","56","","22","","24","","24.1","","99.20","","28","","","","Mostly Cloudy"
"2007-03-26 13:00","2007","03","26","13:00","25.1","","14.9","","53","","23","","32","","24.1","","99.12","","29","","","","Mostly Cloudy"
"2007-03-26 14:00","2007","03","26","14:00","26.4","","15.4","","51","","23","","33","","24.1","","99.08","","31","","","","Mostly Cloudy"
"2007-03-26 15:00","2007","03","26","15:00","25.3","","15.9","","56","","26","","35","","24.1","","99.10","","30","","","","Rain Showers"
"2007-03-26 16:00","2007","03","26","16:00","25.3","","16.5","","58","","26","","28","","24.1","","99.10","","30","","","","Mostly Cloudy"
"2007-03-26 17:00","2007","03","26","17:00","26.1","","14.1","","48","","26","","33","","24.1","","99.09","","30","","","","Mainly Clear"
"2007-03-26 18:00","2007","03","26","18:00","23.8","","15.0","","58","","24","","22","","24.1","","99.15","","28","","","","Mainly Clear"
"2007-03-26 19:00","2007","03","26","19:00","21.7","","14.7","","64","","24","","22","","24.1","","99.22","","25","","","","Mainly Clear"
"2007-03-26 20:00","2007","03","26","20:00","21.0","","14.4","","66","","25","","19","","24.1","","99.27","","25","","","","Mainly Clear"
"2007-03-26 21:00","2007","03","26","21:00","19.8","","14.3","","71","","23","","11","","24.1","","99.32","","","","","","Mainly Clear"
"2007-03-26 22:00","2007","03","26","22:00","19.6","","15.0","","75","","23","","17","","24.1","","99.35","","","","","","Mostly Cloudy"
"2007-03-26 23:00","2007","03","26","23:00","19.2","","14.9","","76","","24","","15","","24.1","","99.38","","","","","","Mostly Cloudy"
"2007-03-27 00:00","2007","03","27","00:00","18.4","","14.6","","79","","23","","13","","24.1","","99.38","","","","","","Mainly Clear"
"2007-03-27 01:00","2007","03","27","01:00","16.8","","14.2","","85","","23","","11","","24.1","","99.37","","","","","","Mainly Clear"
"2007-03-27 02:00","2007","03","27","02:00","16.5","","14.1","","86","","23","","11","","24.1","","99.35","","","","","","Mainly Clear"
"2007-03-27 03:00","2007","03","27","03:00","16.3","","14.0","","86","","24","","15","","24.1","","99.34","","","","","","Mainly Clear"
"2007-03-27 04:00","2007","03","27","04:00","16.6","","13.4","","81","","24","","11","","16.1","","99.33","","","","","","Mainly Clear"
"2007-03-27 05:00","2007","03","27","05:00","15.4","","13.5","","88","","23","","11","","16.1","","99.37","","","","","","Mostly Cloudy"
"2007-03-27 06:00","2007","03","27","06:00","15.8","","13.6","","87","","23","","15","","11.3","","99.41","","","","","","Mostly Cloudy"
"2007-03-27 07:00","2007","03","27","07:00","16.1","","14.3","","89","","24","","11","","9.7","","99.47","","","","","","Fog"
"2007-03-27 08:00","2007","03","27","08:00","17.0","","14.9","","87","","23","","9","","9.7","","99.51","","","","","","Haze"
"2007-03-27 09:00","2007","03","27","09:00","19.8","","16.4","","81","","26","","15","","12.9","","99.54","","","","","","Mainly Clear"
"2007-03-27 10:00","2007","03","27","10:00","22.6","","16.4","","68","","27","","17","","24.1","","99.54","","27","","","","Mostly Cloudy"
"2007-03-27 11:00","2007","03","27","11:00","23.3","","16.4","","65","","27","","13","","24.1","","99.55","","28","","","","Mostly Cloudy"
"2007-03-27 12:00","2007","03","27","12:00","25.0","","16.8","","60","","27","","11","","24.1","","99.57","","30","","","","Mostly Cloudy"
"2007-03-27 13:00","2007","03","27","13:00","25.6","","16.5","","57","","23","","17","","24.1","","99.56","","31","","","","Mostly Cloudy"
"2007-03-27 14:00","2007","03","27","14:00","26.1","","16.9","","57","","22","","22","","24.1","","99.49","","31","","","","Mostly Cloudy"
"2007-03-27 15:00","2007","03","27","15:00","26.1","","16.8","","57","","22","","30","","24.1","","99.43","","31","","","","Mostly Cloudy"
"2007-03-27 16:00","2007","03","27","16:00","15.8","","12.7","","82","","9","","24","","12.9","","99.65","","","","","","Thunderstorms,Moderate Rain Showers"
"2007-03-27 17:00","2007","03","27","17:00","15.7","","13.6","","87","","10","","6","","19.3","","99.74","","","","","","Thunderstorms,Rain Showers"
"2007-03-27 18:00","2007","03","27","18:00","13.2","","10.8","","85","","1","","15","","12.9","","99.80","","","","","","Cloudy"
"2007-03-27 19:00","2007","03","27","19:00","11.1","","9.1","","87","","3","","19","","11.3","","99.94","","","","","","Rain Showers"
"2007-03-27 20:00","2007","03","27","20:00","11.4","","9.7","","89","","4","","15","","16.1","","100.04","","","","","","Rain Showers"
"2007-03-27 21:00","2007","03","27","21:00","12.1","","10.2","","88","","2","","19","","12.9","","100.10","","","","","","Rain Showers"
"2007-03-27 22:00","2007","03","27","22:00","10.6","","9.0","","90","","3","","17","","16.1","","100.12","","","","","","Rain Showers"
"2007-03-27 23:00","2007","03","27","23:00","10.3","","8.5","","89","","1","","22","","16.1","","100.12","","","","","","Rain Showers"
"2007-03-28 00:00","2007","03","28","00:00","10.4","","8.5","","88","","3","","28","","9.7","","100.14","","","","","","Fog"
"2007-03-28 01:00","2007","03","28","01:00","10.4","","8.0","","85","","3","","30","","12.9","","100.12","","","","","","Mostly Cloudy"
"2007-03-28 02:00","2007","03","28","02:00","9.9","","7.7","","86","","3","","28","","16.1","","100.19","","","","","","Cloudy"
"2007-03-28 03:00","2007","03","28","03:00","9.1","","6.9","","86","","3","","30","","16.1","","100.20","","","","","","Cloudy"
"2007-03-28 04:00","2007","03","28","04:00","8.9","","6.2","","83","","3","","28","","19.3","","100.27","","","","","","Cloudy"
"2007-03-28 05:00","2007","03","28","05:00","8.3","","5.0","","80","","3","","30","","24.1","","100.33","","","","","","Cloudy"
"2007-03-28 06:00","2007","03","28","06:00","7.5","","4.9","","84","","4","","26","","24.1","","100.39","","","","","","Cloudy"
"2007-03-28 07:00","2007","03","28","07:00","7.0","","3.7","","79","","4","","26","","24.1","","100.46","","","","","","Mostly Cloudy"
"2007-03-28 08:00","2007","03","28","08:00","7.3","","3.3","","76","","5","","30","","24.1","","100.58","","","","","","Cloudy"
"2007-03-28 09:00","2007","03","28","09:00","7.0","","2.7","","74","","5","","30","","24.1","","100.64","","","","","","Mostly Cloudy"
"2007-03-28 10:00","2007","03","28","10:00","7.7","","3.3","","74","","6","","32","","24.1","","100.67","","","","","","Mostly Cloudy"
"2007-03-28 11:00","2007","03","28","11:00","8.9","","3.2","","67","","7","","32","","24.1","","100.71","","","","","","Mostly Cloudy"
"2007-03-28 12:00","2007","03","28","12:00","9.8","","1.8","","57","","8","","32","","24.1","","100.73","","","","","","Mostly Cloudy"
"2007-03-28 13:00","2007","03","28","13:00","10.7","","0.5","","49","","7","","30","","24.1","","100.73","","","","","","Cloudy"
"2007-03-28 14:00","2007","03","28","14:00","10.5","","0.0","","48","","6","","24","","24.1","","100.67","","","","","","Mostly Cloudy"
"2007-03-28 15:00","2007","03","28","15:00","11.6","","-0.9","","42","","8","","32","","24.1","","100.64","","","","","","Mostly Cloudy"
"2007-03-28 16:00","2007","03","28","16:00","11.3","","-0.9","","43","","8","","30","","24.1","","100.61","","","","","","Mostly Cloudy"
"2007-03-28 17:00","2007","03","28","17:00","11.1","","-1.4","","42","","7","","9","","24.1","","100.63","","","","","","Mostly Cloudy"
"2007-03-28 18:00","2007","03","28","18:00","10.3","","-2.1","","42","","7","","30","","24.1","","100.67","","","","","","Mostly Cloudy"
"2007-03-28 19:00","2007","03","28","19:00","8.4","","-1.1","","51","","5","","24","","24.1","","100.70","","","","","","Mostly Cloudy"
"2007-03-28 20:00","2007","03","28","20:00","7.8","","-3.0","","46","","6","","30","","24.1","","100.77","","","","","","Mainly Clear"
"2007-03-28 21:00","2007","03","28","21:00","7.0","","-3.7","","46","","6","","30","","24.1","","100.83","","","","","","Mainly Clear"
"2007-03-28 22:00","2007","03","28","22:00","6.7","","-4.0","","46","","6","","30","","24.1","","100.86","","","","","","Mostly Cloudy"
"2007-03-28 23:00","2007","03","28","23:00","6.5","","-4.8","","44","","7","","35","","24.1","","100.89","","","","","","Mostly Cloudy"
"2007-03-29 00:00","2007","03","29","00:00","6.0","","-5.8","","42","","7","","33","","24.1","","100.91","","","","","","Mainly Clear"
"2007-03-29 01:00","2007","03","29","01:00","6.0","","-6.5","","40","","8","","37","","24.1","","100.92","","","","","","Mainly Clear"
"2007-03-29 02:00","2007","03","29","02:00","4.9","","-7.6","","40","","9","","37","","24.1","","100.96","","","","","","Mostly Cloudy"
"2007-03-29 03:00","2007","03","29","03:00","4.5","","-7.4","","42","","9","","30","","24.1","","100.97","","","","","","Mostly Cloudy"
"2007-03-29 04:00","2007","03","29","04:00","3.8","","-7.2","","44","","9","","32","","24.1","","100.97","","","","","","Mainly Clear"
"2007-03-29 05:00","2007","03","29","05:00","3.4","","-7.3","","45","","9","","28","","24.1","","101.00","","","","","","Mainly Clear"
"2007-03-29 06:00","2007","03","29","06:00","3.4","","-7.2","","46","","9","","32","","24.1","","101.07","","","","","","Mainly Clear"
"2007-03-29 07:00","2007","03","29","07:00","3.0","","-6.8","","48","","9","","32","","24.1","","101.13","","","","","","Mainly Clear"
"2007-03-29 08:00","2007","03","29","08:00","3.9","","-6.0","","48","","9","","32","","24.1","","101.22","","","","","","Mostly Cloudy"
"2007-03-29 09:00","2007","03","29","09:00","5.1","","-6.6","","42","","10","","32","","24.1","","101.26","","","","","","Mainly Clear"
"2007-03-29 10:00","2007","03","29","10:00","6.3","","-7.0","","38","","9","","26","","24.1","","101.30","","","","","","Mainly Clear"
"2007-03-29 11:00","2007","03","29","11:00","7.4","","-5.9","","38","","7","","30","","24.1","","101.27","","","","","","Mainly Clear"
"2007-03-29 12:00","2007","03","29","12:00","9.0","","-7.1","","31","","8","","26","","24.1","","101.20","","","","","","Clear"
"2007-03-29 13:00","2007","03","29","13:00","9.8","","-6.9","","30","","9","","30","","24.1","","101.14","","","","","","Clear"
"2007-03-29 14:00","2007","03","29","14:00","10.3","","-6.4","","30","","7","","32","","24.1","","101.04","","","","","","Clear"
"2007-03-29 15:00","2007","03","29","15:00","10.5","","-6.5","","30","","7","","33","","24.1","","100.94","","","","","","Clear"
"2007-03-29 16:00","2007","03","29","16:00","10.8","","-7.5","","27","","7","","32","","24.1","","100.87","","","","","","Clear"
"2007-03-29 17:00","2007","03","29","17:00","10.9","","-8.7","","24","","8","","28","","24.1","","100.86","","","","","","Clear"
"2007-03-29 18:00","2007","03","29","18:00","10.2","","-7.5","","28","","11","","20","","24.1","","100.83","","","","","","Mainly Clear"
"2007-03-29 19:00","2007","03","29","19:00","8.3","","-6.2","","35","","9","","13","","24.1","","100.85","","","","","","Mainly Clear"
"2007-03-29 20:00","2007","03","29","20:00","6.2","","-5.9","","42","","8","","15","","24.1","","100.87","","","","","","Clear"
"2007-03-29 21:00","2007","03","29","21:00","5.0","","-4.9","","49","","9","","9","","24.1","","100.88","","","","","","Clear"
"2007-03-29 22:00","2007","03","29","22:00","4.8","","-5.6","","47","","10","","6","","24.1","","100.85","","","","","","Clear"
"2007-03-29 23:00","2007","03","29","23:00","4.8","","-4.9","","49","","9","","9","","24.1","","100.81","","","","","","Clear"
"2007-03-30 00:00","2007","03","30","00:00","3.9","","-3.3","","59","","8","","11","","24.1","","100.79","","","","","","Clear"
"2007-03-30 01:00","2007","03","30","01:00","3.6","","-3.8","","58","","8","","11","","24.1","","100.72","","","","","","Clear"
"2007-03-30 02:00","2007","03","30","02:00","2.8","","-3.5","","63","","7","","7","","24.1","","100.71","","","","","","Clear"
"2007-03-30 03:00","2007","03","30","03:00","2.0","","-3.9","","65","","4","","11","","24.1","","100.68","","","","","","Clear"
"2007-03-30 04:00","2007","03","30","04:00","2.0","","-3.8","","65","","5","","7","","24.1","","100.63","","","","","","Mainly Clear"
"2007-03-30 05:00","2007","03","30","05:00","2.7","","-2.7","","68","","11","","6","","24.1","","100.56","","","","","","Mainly Clear"
"2007-03-30 06:00","2007","03","30","06:00","2.0","","-2.9","","70","","6","","4","","24.1","","100.58","","","","","","Mainly Clear"
"2007-03-30 07:00","2007","03","30","07:00","2.3","","-2.7","","69","","4","","7","","24.1","","100.61","","","","","","Mainly Clear"
"2007-03-30 08:00","2007","03","30","08:00","5.0","","-0.8","","66","","4","","4","","24.1","","100.61","","","","","","Mainly Clear"
"2007-03-30 09:00","2007","03","30","09:00","8.0","","0.8","","60","","8","","7","","24.1","","100.53","","","","","","Mainly Clear"
"2007-03-30 10:00","2007","03","30","10:00","9.0","","1.3","","58","","4","","7","","24.1","","100.54","","","","","","Mainly Clear"
"2007-03-30 11:00","2007","03","30","11:00","9.0","","0.8","","56","","6","","19","","24.1","","100.53","","","","","","Mainly Clear"
"2007-03-30 12:00","2007","03","30","12:00","11.5","","-1.2","","41","","4","","17","","24.1","","100.47","","","","","","Mainly Clear"
"2007-03-30 13:00","2007","03","30","13:00","12.4","","-0.6","","41","","4","","19","","24.1","","100.47","","","","","","Mainly Clear"
"2007-03-30 14:00","2007","03","30","14:00","14.2","","-0.7","","36","","5","","26","","24.1","","100.35","","","","","","Mainly Clear"
"2007-03-30 15:00","2007","03","30","15:00","14.0","","-2.7","","31","","4","","26","","24.1","","100.27","","","","","","Mostly Cloudy"
"2007-03-30 16:00","2007","03","30","16:00","13.2","","-3.3","","32","","4","","28","","24.1","","100.22","","","","","","Mostly Cloudy"
"2007-03-30 17:00","2007","03","30","17:00","12.5","","-4.1","","31","","2","","19","","24.1","","100.18","","","","","","Mostly Cloudy"
"2007-03-30 18:00","2007","03","30","18:00","12.7","","-4.4","","30","","4","","17","","24.1","","100.17","","","","","","Mostly Cloudy"
"2007-03-30 19:00","2007","03","30","19:00","10.5","","-2.4","","40","","4","","20","","24.1","","100.13","","","","","","Mostly Cloudy"
"2007-03-30 20:00","2007","03","30","20:00","9.2","","-1.4","","47","","5","","20","","24.1","","100.13","","","","","","Mostly Cloudy"
"2007-03-30 21:00","2007","03","30","21:00","7.2","","0.0","","60","","5","","11","","24.1","","100.15","","","","","","Mainly Clear"
"2007-03-30 22:00","2007","03","30","22:00","7.0","","1.0","","66","","4","","13","","24.1","","100.15","","","","","","Cloudy"
"2007-03-30 23:00","2007","03","30","23:00","6.6","","1.1","","68","","4","","13","","24.1","","100.11","","","","","","Cloudy"
"2007-03-31 00:00","2007","03","31","00:00","6.8","","1.5","","69","","4","","15","","24.1","","100.08","","","","","","Cloudy"
"2007-03-31 01:00","2007","03","31","01:00","6.8","","0.8","","66","","6","","11","","24.1","","100.05","","","","","","Cloudy"
"2007-03-31 02:00","2007","03","31","02:00","6.7","","1.1","","67","","5","","11","","24.1","","100.01","","","","","","Cloudy"
"2007-03-31 03:00","2007","03","31","03:00","6.4","","0.9","","68","","5","","13","","24.1","","99.97","","","","","","Cloudy"
"2007-03-31 04:00","2007","03","31","04:00","6.2","","1.6","","72","","5","","13","","24.1","","99.94","","","","","","Cloudy"
"2007-03-31 05:00","2007","03","31","05:00","6.2","","2.0","","74","","5","","13","","24.1","","99.90","","","","","","Cloudy"
"2007-03-31 06:00","2007","03","31","06:00","6.2","","2.2","","76","","5","","11","","16.1","","99.91","","","","","","Rain Showers"
"2007-03-31 07:00","2007","03","31","07:00","6.4","","2.4","","76","","7","","11","","19.3","","99.94","","","","","","Rain Showers"
"2007-03-31 08:00","2007","03","31","08:00","7.3","","2.3","","71","","8","","15","","24.1","","99.94","","","","","","Cloudy"
"2007-03-31 09:00","2007","03","31","09:00","7.6","","-0.2","","58","","9","","17","","24.1","","99.94","","","","","","Rain Showers"
"2007-03-31 10:00","2007","03","31","10:00","7.6","","0.4","","60","","10","","20","","24.1","","99.95","","","","","","Cloudy"
"2007-03-31 11:00","2007","03","31","11:00","7.3","","-0.9","","56","","9","","22","","24.1","","99.93","","","","","","Cloudy"
"2007-03-31 12:00","2007","03","31","12:00","7.9","","-1.3","","52","","9","","24","","24.1","","99.84","","","","","","Cloudy"
"2007-03-31 13:00","2007","03","31","13:00","9.0","","-0.9","","50","","8","","22","","24.1","","99.77","","","","","","Cloudy"
"2007-03-31 14:00","2007","03","31","14:00","9.5","","-0.9","","48","","9","","22","","24.1","","99.73","","","","","","Cloudy"
"2007-03-31 15:00","2007","03","31","15:00","9.9","","-1.4","","45","","10","","22","","24.1","","99.66","","","","","","Cloudy"
"2007-03-31 16:00","2007","03","31","16:00","10.6","","-0.1","","47","","10","","20","","24.1","","99.59","","","","","","Cloudy"
"2007-03-31 17:00","2007","03","31","17:00","9.7","","-1.4","","46","","10","","26","","24.1","","99.54","","","","","","Cloudy"
"2007-03-31 18:00","2007","03","31","18:00","9.2","","-1.3","","48","","11","","17","","24.1","","99.48","","","","","","Cloudy"
"2007-03-31 19:00","2007","03","31","19:00","8.3","","-1.9","","49","","12","","24","","24.1","","99.45","","","","","","Cloudy"
"2007-03-31 20:00","2007","03","31","20:00","7.7","","-1.8","","51","","11","","30","","24.1","","99.37","","","","","","Cloudy"
"2007-03-31 21:00","2007","03","31","21:00","7.4","","-0.8","","56","","11","","28","","24.1","","99.32","","","","","","Cloudy"
"2007-03-31 22:00","2007","03","31","22:00","7.0","","-0.5","","59","","12","","28","","24.1","","99.29","","","","","","Cloudy"
"2007-03-31 23:00","2007","03","31","23:00","6.8","","-0.5","","60","","12","","15","","24.1","","99.23","","","","","","Cloudy"
