"Station Name","WINDSOR A"
"Province","ONTARIO"
"Latitude","42.28"
"Longitude","-82.96"
"Elevation","189.60"
"Climate Identifier","6139525"
"WMO Identifier","71538"
"TC Identifier","YQG"
"All times are specified in Local Standard Time (LST). Add 1 hour to adjust for Daylight Saving Time where and when it is observed."

"Legend"
"E","Estimated"
"M","Missing"
"NA","Not Available"

"Date/Time","Year","Month","Day","Time","Temp (°C)","Temp Flag","Dew Point Temp (°C)","Dew Point Temp Flag","Rel Hum (%)","Rel Hum Flag","Wind Dir (10s deg)","Wind Dir Flag","Wind Spd (km/h)","Wind Spd Flag","Visibility (km)","Visibility Flag","Stn Press (kPa)","Stn Press Flag","Hmdx","Hmdx Flag","Wind Chill","Wind Chill Flag","Weather"
"1996-06-01 00:00","1996","06","01","00:00","12.7","","5.1","","60","","18","","6","","24.1","","100.03","","","","","","Clear"
"1996-06-01 01:00","1996","06","01","01:00","12.7","","4.6","","58","","16","","7","","24.1","","99.99","","","","","","Clear"
"1996-06-01 02:00","1996","06","01","02:00","14.0","","4.9","","54","","17","","7","","24.1","","99.96","","","","","","Clear"
"1996-06-01 03:00","1996","06","01","03:00","13.6","","4.4","","54","","16","","9","","24.1","","99.96","","","","","","Clear"
"1996-06-01 04:00","1996","06","01","04:00","13.3","","3.9","","53","","16","","7","","24.1","","99.99","","","","","","Clear"
"1996-06-01 05:00","1996","06","01","05:00","12.5","","4.0","","56","","14","","7","","24.1","","100.03","","","","","","Mainly Clear"
"1996-06-01 06:00","1996","06","01","06:00","12.5","","5.2","","61","","15","","7","","24.1","","100.03","","","","","","Mostly Cloudy"
"1996-06-01 07:00","1996","06","01","07:00","15.7","","7.9","","60","","17","","9","","24.1","","100.13","","","","","","Mostly Cloudy"
"1996-06-01 08:00","1996","06","01","08:00","18.8","","8.5","","51","","18","","11","","24.1","","100.13","","","","","","Mostly Cloudy"
"1996-06-01 09:00","1996","06","01","09:00","21.1","","8.3","","44","","18","","15","","24.1","","100.09","","","","","","Mostly Cloudy"
"1996-06-01 10:00","1996","06","01","10:00","22.4","","8.7","","42","","18","","17","","24.1","","100.06","","","","","","Mostly Cloudy"
"1996-06-01 11:00","1996","06","01","11:00","23.4","","8.9","","40","","19","","19","","19.3","","100.06","","","","","","Mainly Clear"
"1996-06-01 12:00","1996","06","01","12:00","24.4","","9.5","","39","","19","","20","","19.3","","100.03","","25","","","","Mainly Clear"
"1996-06-01 13:00","1996","06","01","13:00","24.5","","10.2","","40","","16","","22","","19.3","","99.99","","26","","","","Mainly Clear"
"1996-06-01 14:00","1996","06","01","14:00","25.2","","10.9","","41","","18","","22","","19.3","","99.93","","27","","","","Mainly Clear"
"1996-06-01 15:00","1996","06","01","15:00","25.3","","11.2","","41","","18","","20","","19.3","","99.90","","27","","","","Mainly Clear"
"1996-06-01 16:00","1996","06","01","16:00","25.5","","11.4","","41","","16","","24","","24.1","","99.83","","27","","","","Mainly Clear"
"1996-06-01 17:00","1996","06","01","17:00","26.0","","11.4","","40","","16","","26","","19.3","","99.76","","28","","","","Mostly Cloudy"
"1996-06-01 18:00","1996","06","01","18:00","24.7","","10.7","","41","","14","","24","","19.3","","99.73","","26","","","","Mostly Cloudy"
"1996-06-01 19:00","1996","06","01","19:00","22.3","","9.6","","44","","14","","22","","19.3","","99.70","","","","","","Mostly Cloudy"
"1996-06-01 20:00","1996","06","01","20:00","20.0","","8.6","","48","","14","","19","","19.3","","99.70","","","","","","Cloudy"
"1996-06-01 21:00","1996","06","01","21:00","18.6","","8.3","","51","","13","","19","","19.3","","99.70","","","","","","Mostly Cloudy"
"1996-06-01 22:00","1996","06","01","22:00","18.6","","8.4","","51","","14","","15","","19.3","","99.70","","","","","","Mostly Cloudy"
"1996-06-01 23:00","1996","06","01","23:00","18.6","","9.2","","54","","14","","17","","19.3","","99.63","","","","","","Cloudy"
"1996-06-02 00:00","1996","06","02","00:00","18.6","","11.1","","62","","15","","15","","19.3","","99.60","","","","","","Cloudy"
"1996-06-02 01:00","1996","06","02","01:00","18.9","","12.1","","65","","16","","15","","19.3","","99.53","","","","","","Cloudy"
"1996-06-02 02:00","1996","06","02","02:00","19.6","","13.4","","67","","17","","20","","19.3","","99.50","","","","","","Cloudy"
"1996-06-02 03:00","1996","06","02","03:00","20.2","","13.2","","64","","23","","28","","19.3","","99.50","","","","","","Rain"
"1996-06-02 04:00","1996","06","02","04:00","17.1","","15.2","","89","","22","","20","","19.3","","99.53","","","","","","Rain"
"1996-06-02 05:00","1996","06","02","05:00","16.4","","14.8","","90","","19","","19","","4.8","","99.50","","","","","","Rain,Fog"
"1996-06-02 06:00","1996","06","02","06:00","16.0","","14.7","","92","","18","","24","","4.8","","99.46","","","","","","Rain,Fog"
"1996-06-02 07:00","1996","06","02","07:00","16.2","","15.0","","93","","18","","28","","4.8","","99.46","","","","","","Rain,Fog"
"1996-06-02 08:00","1996","06","02","08:00"
"1996-06-02 09:00","1996","06","02","09:00","17.1","","15.5","","90","","19","","33","","9.7","","99.43","","","","","","Fog"
"1996-06-02 10:00","1996","06","02","10:00","17.9","","15.4","","85","","19","","35","","11.3","","99.40","","","","","","Cloudy"
"1996-06-02 11:00","1996","06","02","11:00","18.2","","15.4","","84","","19","","35","","11.3","","99.40","","","","","","Cloudy"
"1996-06-02 12:00","1996","06","02","12:00","17.8","","15.8","","88","","20","","30","","8.0","","99.40","","","","","","Rain Showers,Fog"
"1996-06-02 13:00","1996","06","02","13:00","17.7","","15.8","","89","","20","","32","","6.4","","99.40","","","","","","Fog"
"1996-06-02 14:00","1996","06","02","14:00","19.5","","16.4","","82","","20","","37","","11.3","","99.40","","","","","","Mostly Cloudy"
"1996-06-02 15:00","1996","06","02","15:00","20.7","","16.9","","79","","20","","33","","11.3","","99.33","","26","","","","Mostly Cloudy"
"1996-06-02 16:00","1996","06","02","16:00","21.0","","16.8","","77","","19","","30","","11.3","","99.33","","26","","","","Mostly Cloudy"
"1996-06-02 17:00","1996","06","02","17:00","21.1","","16.8","","76","","20","","30","","12.9","","99.33","","26","","","","Mostly Cloudy"
"1996-06-02 18:00","1996","06","02","18:00","20.3","","16.5","","79","","19","","24","","12.9","","99.36","","25","","","","Mostly Cloudy"
"1996-06-02 19:00","1996","06","02","19:00","20.2","","16.6","","80","","19","","22","","14.5","","99.36","","25","","","","Mostly Cloudy"
"1996-06-02 20:00","1996","06","02","20:00","19.0","","16.2","","84","","19","","20","","12.9","","99.36","","","","","","Mainly Clear"
"1996-06-02 21:00","1996","06","02","21:00","18.0","","15.9","","88","","20","","17","","8.0","","99.43","","","","","","Haze"
"1996-06-02 22:00","1996","06","02","22:00","17.8","","15.8","","88","","20","","20","","8.0","","99.43","","","","","","Fog"
"1996-06-02 23:00","1996","06","02","23:00","17.1","","15.5","","90","","23","","20","","6.4","","99.43","","","","","","Fog"
"1996-06-03 00:00","1996","06","03","00:00","16.8","","15.3","","91","","23","","24","","6.4","","99.43","","","","","","Fog"
"1996-06-03 01:00","1996","06","03","01:00","16.5","","15.1","","91","","23","","22","","6.4","","99.40","","","","","","Fog"
"1996-06-03 02:00","1996","06","03","02:00","16.6","","15.1","","91","","22","","20","","4.8","","99.36","","","","","","Fog"
"1996-06-03 03:00","1996","06","03","03:00","16.6","","15.1","","91","","22","","30","","4.8","","99.30","","","","","","Fog"
"1996-06-03 04:00","1996","06","03","04:00","16.5","","15.1","","91","","21","","28","","4.8","","99.26","","","","","","Fog"
"1996-06-03 05:00","1996","06","03","05:00","17.1","","16.0","","93","","26","","17","","4.0","","99.30","","","","","","Fog"
"1996-06-03 06:00","1996","06","03","06:00","16.7","","15.3","","91","","18","","11","","2.4","","99.26","","","","","","Fog"
"1996-06-03 07:00","1996","06","03","07:00","17.8","","15.6","","87","","20","","26","","4.8","","99.23","","","","","","Fog"
"1996-06-03 08:00","1996","06","03","08:00","18.5","","15.8","","84","","19","","22","","6.4","","99.20","","","","","","Haze"
"1996-06-03 09:00","1996","06","03","09:00","19.1","","15.6","","80","","21","","28","","6.4","","99.20","","","","","","Haze"
"1996-06-03 10:00","1996","06","03","10:00","20.2","","15.9","","76","","22","","28","","6.4","","99.16","","25","","","","Haze"
"1996-06-03 11:00","1996","06","03","11:00","20.6","","15.8","","74","","21","","20","","8.0","","99.16","","25","","","","Haze"
"1996-06-03 12:00","1996","06","03","12:00","21.7","","15.2","","67","","22","","22","","9.7","","99.06","","26","","","","Haze"
"1996-06-03 13:00","1996","06","03","13:00","20.1","","15.6","","75","","18","","24","","9.7","","99.00","","","","","","Haze"
"1996-06-03 14:00","1996","06","03","14:00","22.0","","14.6","","63","","16","","19","","12.9","","98.90","","26","","","","Mostly Cloudy"
"1996-06-03 15:00","1996","06","03","15:00","21.5","","13.8","","62","","20","","24","","16.1","","98.80","","25","","","","Mostly Cloudy"
"1996-06-03 16:00","1996","06","03","16:00","20.8","","14.5","","67","","20","","17","","12.9","","98.80","","","","","","Mostly Cloudy"
"1996-06-03 17:00","1996","06","03","17:00","15.9","","15.0","","94","","23","","30","","2.0","","98.90","","","","","","Thunderstorms,Heavy Rain Showers,Fog"
"1996-06-03 18:00","1996","06","03","18:00","15.9","","13.6","","86","","18","","6","","19.3","","98.83","","","","","","Cloudy"
"1996-06-03 19:00","1996","06","03","19:00","16.0","","14.4","","90","","17","","11","","19.3","","98.80","","","","","","Cloudy"
"1996-06-03 20:00","1996","06","03","20:00","16.0","","13.9","","87","","19","","11","","19.3","","98.80","","","","","","Mostly Cloudy"
"1996-06-03 21:00","1996","06","03","21:00","16.6","","14.2","","86","","21","","13","","19.3","","98.83","","","","","","Mostly Cloudy"
"1996-06-03 22:00","1996","06","03","22:00","16.6","","14.6","","88","","20","","13","","24.1","","98.83","","","","","","Mainly Clear"
"1996-06-03 23:00","1996","06","03","23:00","16.5","","14.4","","87","","22","","13","","11.3","","98.80","","","","","","Mostly Cloudy"
"1996-06-04 00:00","1996","06","04","00:00","16.0","","14.5","","91","","23","","7","","9.7","","98.80","","","","","","Fog"
"1996-06-04 01:00","1996","06","04","01:00","16.2","","13.2","","82","","29","","11","","19.3","","98.76","","","","","","Mostly Cloudy"
"1996-06-04 02:00","1996","06","04","02:00","15.7","","11.1","","74","","29","","9","","24.1","","98.73","","","","","","Mostly Cloudy"
"1996-06-04 03:00","1996","06","04","03:00","15.1","","10.8","","75","","29","","11","","19.3","","98.73","","","","","","Mostly Cloudy"
"1996-06-04 04:00","1996","06","04","04:00","14.6","","11.5","","82","","28","","9","","9.7","","98.76","","","","","","Rain Showers"
"1996-06-04 05:00","1996","06","04","05:00","13.5","","11.9","","90","","20","","9","","16.1","","98.80","","","","","","Rain Showers"
"1996-06-04 06:00","1996","06","04","06:00","14.0","","11.9","","87","","29","","11","","16.1","","98.83","","","","","","Mostly Cloudy"
"1996-06-04 07:00","1996","06","04","07:00","14.7","","11.7","","82","","26","","7","","16.1","","98.86","","","","","","Mostly Cloudy"
"1996-06-04 08:00","1996","06","04","08:00","15.9","","12.1","","78","","19","","7","","24.1","","98.90","","","","","","Mostly Cloudy"
"1996-06-04 09:00","1996","06","04","09:00","16.6","","11.1","","70","","26","","9","","16.1","","98.90","","","","","","Mostly Cloudy"
"1996-06-04 10:00","1996","06","04","10:00","17.5","","10.7","","64","","24","","20","","19.3","","98.90","","","","","","Mostly Cloudy"
"1996-06-04 11:00","1996","06","04","11:00","17.8","","10.7","","63","","24","","17","","24.1","","98.93","","","","","","Mostly Cloudy"
"1996-06-04 12:00","1996","06","04","12:00","17.9","","11.3","","65","","24","","22","","19.3","","98.90","","","","","","Mostly Cloudy"
"1996-06-04 13:00","1996","06","04","13:00","18.3","","11.3","","64","","23","","22","","19.3","","98.86","","","","","","Mostly Cloudy"
"1996-06-04 14:00","1996","06","04","14:00","18.9","","11.7","","63","","22","","20","","24.1","","98.83","","","","","","Mostly Cloudy"
"1996-06-04 15:00","1996","06","04","15:00","18.6","","12.3","","67","","20","","22","","24.1","","98.86","","","","","","Mostly Cloudy"
"1996-06-04 16:00","1996","06","04","16:00","18.0","","11.6","","66","","20","","26","","19.3","","98.86","","","","","","Rain Showers"
"1996-06-04 17:00","1996","06","04","17:00","17.5","","12.2","","71","","20","","24","","24.1","","98.86","","","","","","Mostly Cloudy"
"1996-06-04 18:00","1996","06","04","18:00","16.8","","12.2","","74","","24","","32","","24.1","","98.90","","","","","","Mostly Cloudy"
"1996-06-04 19:00","1996","06","04","19:00","14.0","","11.8","","87","","29","","13","","16.1","","98.93","","","","","","Rain Showers"
"1996-06-04 20:00","1996","06","04","20:00","14.2","","11.6","","84","","24","","13","","19.3","","99.00","","","","","","Mostly Cloudy"
"1996-06-04 21:00","1996","06","04","21:00","14.3","","11.5","","83","","24","","15","","19.3","","99.03","","","","","","Mostly Cloudy"
"1996-06-04 22:00","1996","06","04","22:00","14.2","","11.8","","85","","26","","9","","19.3","","99.06","","","","","","Mostly Cloudy"
"1996-06-04 23:00","1996","06","04","23:00","14.2","","11.7","","85","","25","","13","","24.1","","99.10","","","","","","Mostly Cloudy"
"1996-06-05 00:00","1996","06","05","00:00","13.8","","11.5","","86","","28","","9","","19.3","","99.13","","","","","","Mostly Cloudy"
"1996-06-05 01:00","1996","06","05","01:00","13.8","","11.1","","84","","30","","7","","24.1","","99.16","","","","","","Cloudy"
"1996-06-05 02:00","1996","06","05","02:00","13.2","","8.9","","75","","30","","19","","24.1","","99.20","","","","","","Mostly Cloudy"
"1996-06-05 03:00","1996","06","05","03:00","12.9","","7.7","","71","","28","","11","","24.1","","99.26","","","","","","Mostly Cloudy"
"1996-06-05 04:00","1996","06","05","04:00","12.1","","7.8","","75","","28","","13","","24.1","","99.33","","","","","","Mainly Clear"
"1996-06-05 05:00","1996","06","05","05:00","11.7","","8.3","","80","","26","","13","","24.1","","99.43","","","","","","Mostly Cloudy"
"1996-06-05 06:00","1996","06","05","06:00","12.4","","8.7","","78","","29","","17","","24.1","","99.50","","","","","","Mostly Cloudy"
"1996-06-05 07:00","1996","06","05","07:00","12.8","","8.4","","75","","29","","15","","24.1","","99.56","","","","","","Mostly Cloudy"
"1996-06-05 08:00","1996","06","05","08:00","13.8","","8.3","","69","","27","","11","","24.1","","99.63","","","","","","Mostly Cloudy"
"1996-06-05 09:00","1996","06","05","09:00","15.2","","9.2","","67","","29","","9","","24.1","","99.63","","","","","","Mostly Cloudy"
"1996-06-05 10:00","1996","06","05","10:00","16.1","","9.7","","66","","24","","17","","24.1","","99.63","","","","","","Mainly Clear"
"1996-06-05 11:00","1996","06","05","11:00","17.0","","9.8","","63","","23","","20","","24.1","","99.70","","","","","","Mostly Cloudy"
"1996-06-05 12:00","1996","06","05","12:00","17.7","","11.0","","65","","21","","20","","24.1","","99.70","","","","","","Mostly Cloudy"
"1996-06-05 13:00","1996","06","05","13:00","19.1","","11.5","","61","","23","","19","","24.1","","99.63","","","","","","Mostly Cloudy"
"1996-06-05 14:00","1996","06","05","14:00","18.7","","11.3","","62","","21","","24","","24.1","","99.63","","","","","","Mostly Cloudy"
"1996-06-05 15:00","1996","06","05","15:00","19.1","","11.2","","60","","24","","15","","19.3","","99.63","","","","","","Mostly Cloudy"
"1996-06-05 16:00","1996","06","05","16:00","20.7","","11.0","","54","","23","","7","","19.3","","99.63","","","","","","Mainly Clear"
"1996-06-05 17:00","1996","06","05","17:00","19.6","","11.2","","58","","19","","19","","19.3","","99.60","","","","","","Mostly Cloudy"
"1996-06-05 18:00","1996","06","05","18:00","19.6","","11.2","","58","","23","","19","","16.1","","99.60","","","","","","Mostly Cloudy"
"1996-06-05 19:00","1996","06","05","19:00","19.6","","11.2","","58","","23","","19","","19.3","","99.60","","","","","","Mostly Cloudy"
"1996-06-05 20:00","1996","06","05","20:00","17.2","","12.0","","71","","18","","9","","12.9","","99.63","","","","","","Mostly Cloudy"
"1996-06-05 21:00","1996","06","05","21:00","16.3","","12.0","","76","","16","","17","","12.9","","99.63","","","","","","Mainly Clear"
"1996-06-05 22:00","1996","06","05","22:00","15.4","","12.3","","82","","17","","11","","12.9","","99.63","","","","","","Mainly Clear"
"1996-06-05 23:00","1996","06","05","23:00","14.9","","12.3","","84","","17","","11","","12.9","","99.60","","","","","","Mainly Clear"
"1996-06-06 00:00","1996","06","06","00:00","14.7","","12.0","","84","","16","","6","","12.9","","99.60","","","","","","Mainly Clear"
"1996-06-06 01:00","1996","06","06","01:00","13.9","","11.2","","84","","16","","7","","11.3","","99.60","","","","","","Mainly Clear"
"1996-06-06 02:00","1996","06","06","02:00","13.4","","11.2","","87","","17","","7","","12.9","","99.56","","","","","","Mainly Clear"
"1996-06-06 03:00","1996","06","06","03:00","13.5","","11.1","","85","","16","","7","","12.9","","99.56","","","","","","Mainly Clear"
"1996-06-06 04:00","1996","06","06","04:00","13.4","","10.5","","83","","15","","9","","16.1","","99.53","","","","","","Mostly Cloudy"
"1996-06-06 05:00","1996","06","06","05:00","13.8","","10.7","","82","","15","","13","","16.1","","99.46","","","","","","Mostly Cloudy"
"1996-06-06 06:00","1996","06","06","06:00","15.1","","11.1","","77","","15","","15","","16.1","","99.50","","","","","","Mostly Cloudy"
"1996-06-06 07:00","1996","06","06","07:00","16.8","","11.8","","72","","16","","17","","16.1","","99.43","","","","","","Cloudy"
"1996-06-06 08:00","1996","06","06","08:00","17.2","","11.5","","69","","17","","22","","19.3","","99.40","","","","","","Rain Showers"
"1996-06-06 09:00","1996","06","06","09:00","16.8","","12.1","","74","","20","","20","","14.5","","99.43","","","","","","Rain Showers"
"1996-06-06 10:00","1996","06","06","10:00","15.7","","13.2","","85","","17","","17","","8.0","","99.33","","","","","","Rain,Fog"
"1996-06-06 11:00","1996","06","06","11:00","15.4","","14.1","","92","","16","","19","","11.3","","99.23","","","","","","Rain"
"1996-06-06 12:00","1996","06","06","12:00","16.9","","15.6","","92","","18","","24","","9.7","","99.16","","","","","","Rain Showers,Fog"
"1996-06-06 13:00","1996","06","06","13:00","18.0","","15.8","","87","","19","","33","","9.7","","99.13","","","","","","Fog"
"1996-06-06 14:00","1996","06","06","14:00","19.4","","16.4","","83","","19","","26","","9.7","","99.10","","","","","","Haze"
"1996-06-06 15:00","1996","06","06","15:00","18.9","","16.2","","84","","19","","24","","8.0","","99.06","","","","","","Haze"
"1996-06-06 16:00","1996","06","06","16:00","19.3","","16.9","","86","","21","","19","","8.0","","99.00","","","","","","Haze"
"1996-06-06 17:00","1996","06","06","17:00","20.0","","17.4","","85","","20","","11","","8.0","","98.93","","26","","","","Haze"
"1996-06-06 18:00","1996","06","06","18:00","20.4","","17.7","","84","","21","","13","","8.0","","98.90","","26","","","","Haze"
"1996-06-06 19:00","1996","06","06","19:00","20.2","","17.6","","85","","20","","13","","8.0","","98.86","","26","","","","Haze"
"1996-06-06 20:00","1996","06","06","20:00","19.7","","17.4","","87","","20","","17","","6.4","","98.90","","","","","","Haze"
"1996-06-06 21:00","1996","06","06","21:00","19.0","","17.6","","92","","21","","9","","6.4","","98.86","","","","","","Rain Showers,Fog"
"1996-06-06 22:00","1996","06","06","22:00","19.0","","17.7","","92","","19","","19","","4.0","","98.83","","","","","","Fog"
"1996-06-06 23:00","1996","06","06","23:00","18.9","","17.5","","92","","20","","13","","4.8","","98.83","","","","","","Rain Showers,Fog"
"1996-06-07 00:00","1996","06","07","00:00","18.7","","17.4","","92","","19","","22","","4.0","","98.80","","","","","","Rain Showers,Fog"
"1996-06-07 01:00","1996","06","07","01:00","18.2","","17.1","","93","","20","","11","","4.8","","98.76","","","","","","Fog"
"1996-06-07 02:00","1996","06","07","02:00","17.9","","16.9","","94","","20","","9","","6.4","","98.70","","","","","","Fog"
"1996-06-07 03:00","1996","06","07","03:00","17.9","","17.0","","94","","20","","7","","4.8","","98.66","","","","","","Fog"
"1996-06-07 04:00","1996","06","07","04:00","17.8","","17.0","","95","","","","0","","2.4","","98.63","","","","","","Rain Showers,Fog"
"1996-06-07 05:00","1996","06","07","05:00","17.9","","17.1","","95","","23","","4","","2.4","","98.60","","","","","","Fog"
"1996-06-07 06:00","1996","06","07","06:00","18.0","","17.1","","94","","19","","6","","1.2","","98.63","","","","","","Drizzle,Fog"
"1996-06-07 07:00","1996","06","07","07:00","18.4","","17.4","","94","","21","","6","","1.2","","98.63","","","","","","Drizzle,Fog"
"1996-06-07 08:00","1996","06","07","08:00","19.0","","17.4","","90","","19","","13","","2.4","","98.66","","","","","","Fog"
"1996-06-07 09:00","1996","06","07","09:00","19.2","","17.6","","90","","23","","22","","2.0","","98.66","","","","","","Fog"
"1996-06-07 10:00","1996","06","07","10:00","19.5","","17.8","","90","","23","","20","","2.8","","98.66","","","","","","Fog"
"1996-06-07 11:00","1996","06","07","11:00","20.4","","18.0","","86","","23","","17","","6.4","","98.70","","26","","","","Haze"
"1996-06-07 12:00","1996","06","07","12:00","21.9","","18.5","","81","","22","","11","","8.0","","98.70","","28","","","","Haze"
"1996-06-07 13:00","1996","06","07","13:00","22.8","","18.7","","78","","19","","11","","8.0","","98.73","","29","","","","Haze"
"1996-06-07 14:00","1996","06","07","14:00","23.3","","18.3","","74","","24","","24","","9.7","","98.70","","30","","","","Rain Showers,Haze"
"1996-06-07 15:00","1996","06","07","15:00","23.9","","18.4","","71","","21","","28","","9.7","","98.70","","30","","","","Haze"
"1996-06-07 16:00","1996","06","07","16:00","23.5","","17.9","","71","","21","","20","","16.1","","98.73","","29","","","","Cloudy"
"1996-06-07 17:00","1996","06","07","17:00","22.6","","16.2","","67","","23","","22","","19.3","","98.73","","27","","","","Cloudy"
"1996-06-07 18:00","1996","06","07","18:00","22.2","","16.2","","69","","24","","9","","24.1","","98.76","","27","","","","Mostly Cloudy"
"1996-06-07 19:00","1996","06","07","19:00","21.2","","16.1","","73","","26","","17","","24.1","","98.80","","26","","","","Mostly Cloudy"
"1996-06-07 20:00","1996","06","07","20:00","19.7","","15.7","","78","","24","","17","","24.1","","98.83","","","","","","Mostly Cloudy"
"1996-06-07 21:00","1996","06","07","21:00","18.9","","15.0","","78","","24","","9","","24.1","","98.93","","","","","","Mostly Cloudy"
"1996-06-07 22:00","1996","06","07","22:00","18.2","","14.9","","81","","24","","13","","24.1","","99.03","","","","","","Mostly Cloudy"
"1996-06-07 23:00","1996","06","07","23:00","18.2","","14.8","","81","","25","","13","","16.1","","99.00","","","","","","Cloudy"
"1996-06-08 00:00","1996","06","08","00:00","17.9","","14.6","","81","","27","","7","","19.3","","99.03","","","","","","Mostly Cloudy"
"1996-06-08 01:00","1996","06","08","01:00","16.6","","14.2","","86","","","","0","","16.1","","99.03","","","","","","Mainly Clear"
"1996-06-08 02:00","1996","06","08","02:00","15.2","","13.7","","91","","","","0","","16.1","","99.03","","","","","","Mostly Cloudy"
"1996-06-08 03:00","1996","06","08","03:00","15.3","","13.8","","91","","24","","9","","8.0","","99.03","","","","","","Fog"
"1996-06-08 04:00","1996","06","08","04:00","15.1","","13.6","","91","","22","","7","","6.4","","99.06","","","","","","Fog"
"1996-06-08 05:00","1996","06","08","05:00","14.7","","13.4","","92","","23","","7","","4.0","","99.13","","","","","","Fog"
"1996-06-08 06:00","1996","06","08","06:00","14.8","","13.7","","93","","","","0","","4.0","","99.16","","","","","","Fog"
"1996-06-08 07:00","1996","06","08","07:00","15.6","","14.1","","91","","","","0","","2.4","","99.23","","","","","","Fog"
"1996-06-08 08:00","1996","06","08","08:00","16.4","","14.8","","90","","29","","6","","2.4","","99.26","","","","","","Fog"
"1996-06-08 09:00","1996","06","08","09:00","18.3","","14.8","","80","","","","0","","4.0","","99.33","","","","","","Haze"
"1996-06-08 10:00","1996","06","08","10:00","19.4","","14.6","","74","","","","0","","8.0","","99.30","","","","","","Haze"
"1996-06-08 11:00","1996","06","08","11:00","20.6","","14.6","","68","","29","","7","","12.9","","99.33","","","","","","Mostly Cloudy"
"1996-06-08 12:00","1996","06","08","12:00","21.5","","14.7","","65","","31","","6","","16.1","","99.30","","25","","","","Mostly Cloudy"
"1996-06-08 13:00","1996","06","08","13:00","22.8","","15.9","","65","","28","","6","","16.1","","99.30","","27","","","","Mostly Cloudy"
"1996-06-08 14:00","1996","06","08","14:00","22.5","","15.1","","63","","12","","9","","16.1","","99.26","","27","","","","Cloudy"
"1996-06-08 15:00","1996","06","08","15:00","23.0","","15.1","","61","","8","","4","","16.1","","99.26","","27","","","","Mostly Cloudy"
"1996-06-08 16:00","1996","06","08","16:00","22.7","","14.8","","61","","6","","22","","16.1","","99.23","","27","","","","Mostly Cloudy"
"1996-06-08 17:00","1996","06","08","17:00","22.8","","14.9","","61","","4","","11","","16.1","","99.20","","27","","","","Mostly Cloudy"
"1996-06-08 18:00","1996","06","08","18:00","21.8","","12.7","","56","","7","","11","","16.1","","99.20","","","","","","Mostly Cloudy"
"1996-06-08 19:00","1996","06","08","19:00","21.2","","15.0","","68","","7","","17","","19.3","","99.23","","25","","","","Mostly Cloudy"
"1996-06-08 20:00","1996","06","08","20:00","19.5","","15.0","","75","","5","","19","","24.1","","99.23","","","","","","Mostly Cloudy"
"1996-06-08 21:00","1996","06","08","21:00","17.9","","15.1","","84","","4","","19","","11.3","","99.26","","","","","","Cloudy"
"1996-06-08 22:00","1996","06","08","22:00","16.3","","14.5","","89","","5","","15","","4.8","","99.30","","","","","","Rain Showers,Fog"
"1996-06-08 23:00","1996","06","08","23:00","15.4","","14.3","","93","","5","","17","","3.2","","99.26","","","","","","Rain Showers,Fog"
"1996-06-09 00:00","1996","06","09","00:00","15.5","","14.6","","94","","6","","17","","1.6","","99.26","","","","","","Rain,Fog"
"1996-06-09 01:00","1996","06","09","01:00","16.0","","15.1","","94","","6","","15","","1.2","","99.23","","","","","","Rain,Fog"
"1996-06-09 02:00","1996","06","09","02:00","16.2","","15.2","","94","","7","","17","","1.2","","99.16","","","","","","Rain,Fog"
"1996-06-09 03:00","1996","06","09","03:00","16.6","","15.3","","92","","8","","28","","2.4","","99.13","","","","","","Rain,Fog"
"1996-06-09 04:00","1996","06","09","04:00","16.6","","15.1","","91","","9","","28","","3.2","","99.10","","","","","","Rain,Fog"
"1996-06-09 05:00","1996","06","09","05:00","16.5","","15.0","","91","","8","","30","","1.6","","99.10","","","","","","Rain,Fog"
"1996-06-09 06:00","1996","06","09","06:00","16.6","","15.3","","92","","10","","22","","2.4","","99.13","","","","","","Rain,Fog"
"1996-06-09 07:00","1996","06","09","07:00","16.4","","15.3","","93","","9","","22","","4.0","","99.16","","","","","","Rain,Fog"
"1996-06-09 08:00","1996","06","09","08:00","16.4","","15.3","","93","","10","","26","","3.2","","99.16","","","","","","Rain,Fog"
"1996-06-09 09:00","1996","06","09","09:00","16.4","","15.5","","94","","10","","15","","4.0","","99.13","","","","","","Rain,Fog"
"1996-06-09 10:00","1996","06","09","10:00","16.4","","15.6","","95","","12","","15","","4.0","","99.16","","","","","","Rain,Fog"
"1996-06-09 11:00","1996","06","09","11:00","16.7","","16.0","","96","","14","","9","","1.6","","99.20","","","","","","Rain,Fog"
"1996-06-09 12:00","1996","06","09","12:00","17.1","","15.4","","90","","11","","15","","3.2","","99.20","","","","","","Rain,Fog"
"1996-06-09 13:00","1996","06","09","13:00","18.4","","17.4","","94","","14","","7","","9.7","","99.16","","","","","","Fog"
"1996-06-09 14:00","1996","06","09","14:00","21.1","","18.2","","84","","8","","9","","11.3","","99.16","","27","","","","Mostly Cloudy"
"1996-06-09 15:00","1996","06","09","15:00","22.9","","16.8","","69","","12","","13","","16.1","","99.10","","28","","","","Mostly Cloudy"
"1996-06-09 16:00","1996","06","09","16:00","23.1","","18.5","","75","","8","","19","","24.1","","99.03","","29","","","","Mostly Cloudy"
"1996-06-09 17:00","1996","06","09","17:00","22.9","","18.8","","78","","7","","22","","24.1","","99.00","","30","","","","Mostly Cloudy"
"1996-06-09 18:00","1996","06","09","18:00","23.0","","18.6","","76","","8","","20","","24.1","","99.00","","29","","","","Mostly Cloudy"
"1996-06-09 19:00","1996","06","09","19:00","22.1","","18.6","","81","","9","","22","","12.9","","99.00","","29","","","","Mostly Cloudy"
"1996-06-09 20:00","1996","06","09","20:00","20.6","","17.7","","83","","10","","15","","12.9","","99.00","","26","","","","Mostly Cloudy"
"1996-06-09 21:00","1996","06","09","21:00","20.3","","17.1","","82","","10","","19","","11.3","","99.00","","26","","","","Mostly Cloudy"
"1996-06-09 22:00","1996","06","09","22:00","19.7","","17.5","","87","","9","","13","","11.3","","99.03","","","","","","Mostly Cloudy"
"1996-06-09 23:00","1996","06","09","23:00","19.3","","17.0","","87","","11","","19","","9.7","","99.03","","","","","","Haze"
"1996-06-10 00:00","1996","06","10","00:00","18.9","","16.8","","88","","12","","19","","8.0","","99.00","","","","","","Haze"
"1996-06-10 01:00","1996","06","10","01:00","17.9","","16.2","","90","","11","","11","","6.4","","98.93","","","","","","Fog"
"1996-06-10 02:00","1996","06","10","02:00","17.5","","15.9","","90","","12","","7","","6.4","","98.93","","","","","","Fog"
"1996-06-10 03:00","1996","06","10","03:00","17.3","","15.9","","91","","10","","7","","6.4","","98.93","","","","","","Fog"
"1996-06-10 04:00","1996","06","10","04:00","17.7","","16.1","","90","","14","","6","","8.0","","98.93","","","","","","Fog"
"1996-06-10 05:00","1996","06","10","05:00","17.4","","16.1","","92","","15","","4","","6.4","","98.96","","","","","","Fog"
"1996-06-10 06:00","1996","06","10","06:00","18.1","","16.5","","90","","16","","7","","9.7","","99.03","","","","","","Fog"
"1996-06-10 07:00","1996","06","10","07:00","20.5","","17.6","","83","","21","","15","","16.1","","99.06","","26","","","","Mostly Cloudy"
"1996-06-10 08:00","1996","06","10","08:00","21.5","","17.7","","79","","22","","26","","24.1","","99.13","","27","","","","Mainly Clear"
"1996-06-10 09:00","1996","06","10","09:00","22.0","","16.8","","72","","24","","26","","24.1","","99.13","","27","","","","Mainly Clear"
"1996-06-10 10:00","1996","06","10","10:00","22.5","","17.5","","73","","22","","19","","24.1","","99.16","","28","","","","Mainly Clear"
"1996-06-10 11:00","1996","06","10","11:00","23.3","","17.1","","68","","22","","20","","24.1","","99.16","","29","","","","Mainly Clear"
"1996-06-10 12:00","1996","06","10","12:00","24.2","","16.9","","64","","21","","22","","24.1","","99.16","","29","","","","Mainly Clear"
"1996-06-10 13:00","1996","06","10","13:00","24.4","","16.6","","62","","22","","22","","24.1","","99.13","","29","","","","Mainly Clear"
"1996-06-10 14:00","1996","06","10","14:00","24.8","","16.8","","61","","19","","20","","24.1","","99.13","","30","","","","Mainly Clear"
"1996-06-10 15:00","1996","06","10","15:00","24.6","","16.0","","59","","22","","17","","25.0","","99.06","","29","","","","Mainly Clear"
"1996-06-10 16:00","1996","06","10","16:00","25.4","","16.3","","57","","21","","20","","24.1","","99.06","","30","","","","Mainly Clear"
"1996-06-10 17:00","1996","06","10","17:00","24.0","","15.9","","61","","21","","20","","24.1","","99.03","","29","","","","Mostly Cloudy"
"1996-06-10 18:00","1996","06","10","18:00","23.4","","16.7","","66","","19","","15","","24.1","","99.03","","28","","","","Mostly Cloudy"
"1996-06-10 19:00","1996","06","10","19:00","22.7","","16.0","","66","","18","","11","","24.1","","99.03","","27","","","","Mainly Clear"
"1996-06-10 20:00","1996","06","10","20:00","21.7","","16.8","","74","","16","","7","","24.1","","99.06","","27","","","","Mostly Cloudy"
"1996-06-10 21:00","1996","06","10","21:00","20.3","","16.0","","76","","17","","7","","19.3","","99.13","","25","","","","Mostly Cloudy"
"1996-06-10 22:00","1996","06","10","22:00","19.5","","15.5","","78","","19","","7","","19.3","","99.13","","","","","","Mainly Clear"
"1996-06-10 23:00","1996","06","10","23:00","18.8","","15.6","","82","","19","","6","","16.1","","99.13","","","","","","Mainly Clear"
"1996-06-11 00:00","1996","06","11","00:00","18.0","","15.8","","87","","19","","7","","12.9","","99.10","","","","","","Mostly Cloudy"
"1996-06-11 01:00","1996","06","11","01:00","17.5","","15.9","","90","","16","","7","","11.3","","99.10","","","","","","Mainly Clear"
"1996-06-11 02:00","1996","06","11","02:00","17.8","","15.8","","88","","21","","7","","11.3","","99.06","","","","","","Thunderstorms"
"1996-06-11 03:00","1996","06","11","03:00","18.7","","15.5","","82","","23","","26","","9.7","","99.06","","","","","","Thunderstorms,Haze"
"1996-06-11 04:00","1996","06","11","04:00","18.5","","14.4","","77","","31","","2","","19.3","","99.06","","","","","","Thunderstorms,Rain Showers"
"1996-06-11 05:00","1996","06","11","05:00","17.2","","14.8","","86","","28","","6","","16.1","","99.06","","","","","","Mostly Cloudy"
"1996-06-11 06:00","1996","06","11","06:00","17.4","","15.0","","86","","10","","6","","12.9","","99.10","","","","","","Mainly Clear"
"1996-06-11 07:00","1996","06","11","07:00","19.5","","15.8","","79","","12","","17","","11.3","","99.10","","","","","","Mainly Clear"
"1996-06-11 08:00","1996","06","11","08:00","19.7","","16.8","","83","","14","","11","","9.7","","99.10","","","","","","Haze"
"1996-06-11 09:00","1996","06","11","09:00","20.2","","17.0","","82","","17","","7","","9.7","","99.06","","25","","","","Haze"
"1996-06-11 10:00","1996","06","11","10:00","21.1","","17.1","","78","","16","","6","","9.7","","99.03","","26","","","","Haze"
"1996-06-11 11:00","1996","06","11","11:00","22.2","","17.1","","73","","24","","6","","11.3","","99.03","","28","","","","Mostly Cloudy"
"1996-06-11 12:00","1996","06","11","12:00","22.9","","16.7","","68","","20","","7","","12.9","","98.96","","28","","","","Mostly Cloudy"
"1996-06-11 13:00","1996","06","11","13:00"
"1996-06-11 14:00","1996","06","11","14:00","23.4","","15.8","","62","","21","","19","","19.3","","98.86","","28","","","","Mostly Cloudy"
"1996-06-11 15:00","1996","06","11","15:00","23.8","","15.6","","60","","20","","22","","24.1","","98.83","","28","","","","Mostly Cloudy"
"1996-06-11 16:00","1996","06","11","16:00","22.9","","15.7","","64","","19","","22","","24.1","","98.86","","27","","","","Mostly Cloudy"
"1996-06-11 17:00","1996","06","11","17:00","21.7","","15.8","","69","","20","","20","","24.1","","98.83","","26","","","","Rain Showers"
"1996-06-11 18:00","1996","06","11","18:00","20.9","","16.2","","74","","19","","13","","24.1","","98.83","","26","","","","Rain Showers"
"1996-06-11 19:00","1996","06","11","19:00","20.2","","15.6","","75","","19","","13","","24.1","","98.83","","25","","","","Mostly Cloudy"
"1996-06-11 20:00","1996","06","11","20:00","19.6","","15.8","","79","","17","","4","","19.3","","98.83","","","","","","Cloudy"
"1996-06-11 21:00","1996","06","11","21:00","19.0","","16.1","","83","","17","","9","","19.3","","98.86","","","","","","Mostly Cloudy"
"1996-06-11 22:00","1996","06","11","22:00","18.4","","16.1","","86","","16","","15","","16.1","","98.90","","","","","","Cloudy"
"1996-06-11 23:00","1996","06","11","23:00","17.9","","15.7","","87","","16","","9","","16.1","","98.86","","","","","","Mostly Cloudy"
"1996-06-12 00:00","1996","06","12","00:00","17.6","","15.8","","89","","16","","4","","9.7","","98.86","","","","","","Fog"
"1996-06-12 01:00","1996","06","12","01:00","17.6","","16.1","","91","","18","","2","","8.0","","98.83","","","","","","Fog"
"1996-06-12 02:00","1996","06","12","02:00","17.5","","15.9","","90","","","","0","","8.0","","98.83","","","","","","Fog"
"1996-06-12 03:00","1996","06","12","03:00","17.1","","15.9","","93","","","","0","","4.8","","98.80","","","","","","Fog"
"1996-06-12 04:00","1996","06","12","04:00","17.0","","16.0","","94","","","","0","","3.2","","98.80","","","","","","Fog"
"1996-06-12 05:00","1996","06","12","05:00","16.6","","15.5","","93","","36","","6","","0.6","","98.80","","","","","","Fog"
"1996-06-12 06:00","1996","06","12","06:00","16.9","","15.9","","94","","36","","6","","0.8","","98.86","","","","","","Fog"
"1996-06-12 07:00","1996","06","12","07:00","17.6","","16.3","","92","","","","0","","2.0","","98.90","","","","","","Fog"
"1996-06-12 08:00","1996","06","12","08:00","19.4","","16.8","","85","","16","","7","","4.8","","98.93","","","","","","Haze"
"1996-06-12 09:00","1996","06","12","09:00","19.0","","16.9","","88","","16","","7","","8.0","","98.90","","","","","","Rain Showers,Haze"
"1996-06-12 10:00","1996","06","12","10:00","19.9","","16.8","","82","","20","","6","","9.7","","98.93","","","","","","Haze"
"1996-06-12 11:00","1996","06","12","11:00","17.9","","15.8","","88","","31","","7","","9.7","","98.90","","","","","","Thunderstorms,Rain Showers,Haze"
"1996-06-12 12:00","1996","06","12","12:00","20.4","","17.3","","82","","","","0","","8.0","","98.93","","26","","","","Haze"
"1996-06-12 13:00","1996","06","12","13:00","21.0","","16.3","","75","","30","","15","","9.7","","98.93","","26","","","","Haze"
"1996-06-12 14:00","1996","06","12","14:00","18.3","","16.5","","89","","31","","9","","19.3","","98.90","","","","","","Rain Showers"
"1996-06-12 15:00","1996","06","12","15:00","18.8","","16.6","","87","","30","","4","","16.1","","98.86","","","","","","Mostly Cloudy"
"1996-06-12 16:00","1996","06","12","16:00","20.0","","15.4","","75","","36","","4","","16.1","","98.83","","","","","","Mostly Cloudy"
"1996-06-12 17:00","1996","06","12","17:00","20.6","","15.9","","74","","34","","4","","19.3","","98.80","","25","","","","Mostly Cloudy"
"1996-06-12 18:00","1996","06","12","18:00","21.3","","16.7","","75","","8","","9","","19.3","","98.83","","26","","","","Mostly Cloudy"
"1996-06-12 19:00","1996","06","12","19:00","20.6","","16.6","","78","","22","","9","","16.1","","98.86","","26","","","","Mostly Cloudy"
"1996-06-12 20:00","1996","06","12","20:00","19.3","","16.6","","84","","20","","7","","16.1","","98.86","","","","","","Mostly Cloudy"
"1996-06-12 21:00","1996","06","12","21:00","18.9","","16.8","","88","","21","","11","","16.1","","98.86","","","","","","Mostly Cloudy"
"1996-06-12 22:00","1996","06","12","22:00","18.8","","16.2","","85","","22","","7","","12.9","","98.90","","","","","","Mostly Cloudy"
"1996-06-12 23:00","1996","06","12","23:00","18.1","","16.4","","90","","17","","4","","6.4","","98.90","","","","","","Fog"
"1996-06-13 00:00","1996","06","13","00:00","17.6","","16.6","","94","","17","","6","","3.2","","98.90","","","","","","Fog"
"1996-06-13 01:00","1996","06","13","01:00","18.0","","16.7","","92","","21","","9","","3.2","","98.93","","","","","","Fog"
"1996-06-13 02:00","1996","06","13","02:00","18.1","","16.6","","91","","25","","7","","4.0","","98.96","","","","","","Fog"
"1996-06-13 03:00","1996","06","13","03:00","18.2","","16.4","","89","","26","","7","","4.0","","98.96","","","","","","Fog"
"1996-06-13 04:00","1996","06","13","04:00","17.8","","16.2","","90","","24","","7","","4.0","","99.00","","","","","","Fog"
"1996-06-13 05:00","1996","06","13","05:00","17.2","","15.8","","91","","25","","9","","4.0","","99.00","","","","","","Fog"
"1996-06-13 06:00","1996","06","13","06:00","17.8","","15.9","","89","","25","","6","","4.0","","99.03","","","","","","Fog"
"1996-06-13 07:00","1996","06","13","07:00","19.3","","16.2","","82","","26","","6","","6.4","","99.06","","","","","","Fog,Haze"
"1996-06-13 08:00","1996","06","13","08:00","20.6","","16.8","","79","","29","","4","","8.0","","99.06","","26","","","","Haze"
"1996-06-13 09:00","1996","06","13","09:00","21.4","","16.7","","75","","22","","9","","9.7","","99.06","","26","","","","Haze"
"1996-06-13 10:00","1996","06","13","10:00","22.5","","16.8","","70","","25","","11","","11.3","","99.03","","28","","","","Mainly Clear"
"1996-06-13 11:00","1996","06","13","11:00","24.1","","17.5","","67","","24","","17","","12.9","","99.03","","30","","","","Mainly Clear"
"1996-06-13 12:00","1996","06","13","12:00","23.7","","18.3","","72","","20","","26","","12.9","","99.00","","30","","","","Mainly Clear"
"1996-06-13 13:00","1996","06","13","13:00","25.7","","18.9","","66","","21","","22","","12.9","","99.00","","32","","","","Mainly Clear"
"1996-06-13 14:00","1996","06","13","14:00","27.4","","18.9","","60","","27","","19","","12.9","","98.93","","34","","","","Mainly Clear"
"1996-06-13 15:00","1996","06","13","15:00","29.1","","18.7","","54","","26","","20","","12.9","","98.86","","36","","","","Mainly Clear"
"1996-06-13 16:00","1996","06","13","16:00","29.5","","18.6","","52","","27","","22","","16.1","","98.83","","36","","","","Mainly Clear"
"1996-06-13 17:00","1996","06","13","17:00","29.4","","18.1","","51","","27","","20","","16.1","","98.80","","35","","","","Mainly Clear"
"1996-06-13 18:00","1996","06","13","18:00","29.3","","17.1","","48","","28","","22","","19.3","","98.83","","35","","","","Mainly Clear"
"1996-06-13 19:00","1996","06","13","19:00","29.0","","17.3","","49","","28","","22","","24.1","","98.83","","34","","","","Mainly Clear"
"1996-06-13 20:00","1996","06","13","20:00","27.8","","17.0","","52","","26","","11","","24.1","","98.90","","33","","","","Mostly Cloudy"
"1996-06-13 21:00","1996","06","13","21:00","26.6","","17.0","","56","","28","","15","","24.1","","98.96","","32","","","","Mostly Cloudy"
"1996-06-13 22:00","1996","06","13","22:00","26.2","","17.0","","57","","30","","17","","19.3","","99.00","","31","","","","Mostly Cloudy"
"1996-06-13 23:00","1996","06","13","23:00","20.9","","17.2","","79","","33","","11","","19.3","","99.03","","26","","","","Mostly Cloudy"
"1996-06-14 00:00","1996","06","14","00:00","20.4","","17.3","","82","","1","","13","","16.1","","99.10","","26","","","","Mainly Clear"
"1996-06-14 01:00","1996","06","14","01:00","20.2","","17.3","","83","","3","","9","","12.9","","99.06","","26","","","","Mainly Clear"
"1996-06-14 02:00","1996","06","14","02:00","19.8","","17.4","","86","","6","","9","","11.3","","99.03","","","","","","Mainly Clear"
"1996-06-14 03:00","1996","06","14","03:00","20.6","","17.4","","82","","10","","11","","11.3","","99.03","","26","","","","Mainly Clear"
"1996-06-14 04:00","1996","06","14","04:00","20.2","","17.2","","83","","10","","11","","9.7","","99.06","","26","","","","Haze"
"1996-06-14 05:00","1996","06","14","05:00","19.8","","17.2","","85","","27","","9","","8.0","","99.13","","","","","","Haze"
"1996-06-14 06:00","1996","06","14","06:00","20.3","","16.9","","81","","32","","9","","11.3","","99.16","","26","","","","Mainly Clear"
"1996-06-14 07:00","1996","06","14","07:00","22.2","","16.6","","71","","34","","9","","11.3","","99.20","","27","","","","Clear"
"1996-06-14 08:00","1996","06","14","08:00","23.3","","17.2","","69","","3","","4","","11.3","","99.23","","29","","","","Clear"
"1996-06-14 09:00","1996","06","14","09:00","24.9","","17.7","","64","","34","","4","","12.9","","99.20","","31","","","","Clear"
"1996-06-14 10:00","1996","06","14","10:00","24.5","","18.0","","67","","7","","9","","12.9","","99.20","","31","","","","Mainly Clear"
"1996-06-14 11:00","1996","06","14","11:00","26.6","","18.4","","61","","9","","4","","16.1","","99.20","","33","","","","Mainly Clear"
"1996-06-14 12:00","1996","06","14","12:00","28.1","","17.5","","53","","31","","17","","19.3","","99.16","","34","","","","Mostly Cloudy"
"1996-06-14 13:00","1996","06","14","13:00","27.4","","17.6","","55","","1","","11","","19.3","","99.20","","33","","","","Mostly Cloudy"
"1996-06-14 14:00","1996","06","14","14:00","28.5","","17.3","","51","","34","","9","","19.3","","99.20","","34","","","","Mostly Cloudy"
"1996-06-14 15:00","1996","06","14","15:00","28.8","","16.6","","48","","1","","9","","19.3","","99.13","","34","","","","Mostly Cloudy"
"1996-06-14 16:00","1996","06","14","16:00","28.6","","16.9","","49","","4","","9","","19.3","","99.10","","34","","","","Mostly Cloudy"
"1996-06-14 17:00","1996","06","14","17:00","27.8","","17.2","","53","","3","","15","","19.3","","99.10","","33","","","","Mainly Clear"
"1996-06-14 18:00","1996","06","14","18:00","26.8","","17.7","","57","","6","","13","","24.1","","99.16","","33","","","","Mainly Clear"
"1996-06-14 19:00","1996","06","14","19:00","25.9","","19.2","","67","","8","","22","","19.3","","99.20","","33","","","","Mostly Cloudy"
"1996-06-14 20:00","1996","06","14","20:00","25.2","","18.8","","68","","10","","7","","19.3","","99.23","","32","","","","Mostly Cloudy"
"1996-06-14 21:00","1996","06","14","21:00","24.3","","18.4","","70","","33","","4","","16.1","","99.30","","31","","","","Rain Showers"
"1996-06-14 22:00","1996","06","14","22:00","23.1","","19.3","","79","","","","0","","16.1","","99.30","","30","","","","Mainly Clear"
"1996-06-14 23:00","1996","06","14","23:00","22.1","","19.1","","83","","20","","4","","16.1","","99.33","","29","","","","Mainly Clear"
"1996-06-15 00:00","1996","06","15","00:00","21.8","","18.4","","81","","23","","4","","11.3","","99.33","","28","","","","Mainly Clear"
"1996-06-15 01:00","1996","06","15","01:00","21.1","","17.7","","81","","23","","4","","12.9","","99.30","","27","","","","Mainly Clear"
"1996-06-15 02:00","1996","06","15","02:00","19.6","","17.8","","89","","","","0","","9.7","","99.30","","","","","","Fog"
"1996-06-15 03:00","1996","06","15","03:00","19.3","","17.3","","88","","3","","4","","4.8","","99.33","","","","","","Fog"
"1996-06-15 04:00","1996","06","15","04:00","18.3","","16.4","","89","","4","","6","","6.4","","99.33","","","","","","Fog"
"1996-06-15 05:00","1996","06","15","05:00","18.4","","16.3","","88","","36","","6","","8.0","","99.43","","","","","","Haze"
"1996-06-15 06:00","1996","06","15","06:00","18.6","","16.4","","87","","","","0","","8.0","","99.46","","","","","","Haze"
"1996-06-15 07:00","1996","06","15","07:00","20.0","","17.1","","83","","4","","4","","8.0","","99.50","","25","","","","Haze"
"1996-06-15 08:00","1996","06","15","08:00","21.8","","17.6","","77","","4","","6","","9.7","","99.53","","28","","","","Haze"
"1996-06-15 09:00","1996","06","15","09:00","22.9","","16.7","","68","","4","","11","","9.7","","99.53","","28","","","","Haze"
"1996-06-15 10:00","1996","06","15","10:00","23.6","","11.3","","46","","5","","17","","11.3","","99.56","","26","","","","Mainly Clear"
"1996-06-15 11:00","1996","06","15","11:00","24.6","","12.4","","47","","3","","9","","12.9","","99.56","","27","","","","Clear"
"1996-06-15 12:00","1996","06","15","12:00","25.0","","12.8","","47","","8","","13","","16.1","","99.53","","28","","","","Clear"
"1996-06-15 13:00","1996","06","15","13:00","25.8","","14.0","","48","","6","","9","","19.3","","99.50","","29","","","","Clear"
"1996-06-15 14:00","1996","06","15","14:00","26.8","","13.3","","43","","6","","11","","16.1","","99.50","","30","","","","Mainly Clear"
"1996-06-15 15:00","1996","06","15","15:00","26.8","","13.2","","43","","6","","17","","16.1","","99.50","","30","","","","Mainly Clear"
"1996-06-15 16:00","1996","06","15","16:00","27.2","","13.4","","43","","11","","11","","16.1","","99.46","","30","","","","Mainly Clear"
"1996-06-15 17:00","1996","06","15","17:00","27.2","","13.3","","42","","12","","11","","16.1","","99.40","","30","","","","Mainly Clear"
"1996-06-15 18:00","1996","06","15","18:00","26.9","","12.8","","42","","9","","9","","16.1","","99.40","","30","","","","Mainly Clear"
"1996-06-15 19:00","1996","06","15","19:00","26.4","","13.1","","44","","9","","11","","16.1","","99.43","","29","","","","Mainly Clear"
"1996-06-15 20:00","1996","06","15","20:00","24.5","","15.4","","57","","15","","4","","16.1","","99.43","","29","","","","Mainly Clear"
"1996-06-15 21:00","1996","06","15","21:00","19.6","","15.4","","77","","3","","19","","11.3","","99.50","","","","","","Mostly Cloudy"
"1996-06-15 22:00","1996","06","15","22:00","18.3","","12.8","","70","","3","","19","","12.9","","99.53","","","","","","Mainly Clear"
"1996-06-15 23:00","1996","06","15","23:00","17.5","","13.0","","75","","4","","15","","9.7","","99.60","","","","","","Haze"
"1996-06-16 00:00","1996","06","16","00:00","16.8","","12.8","","77","","5","","11","","11.3","","99.63","","","","","","Clear"
"1996-06-16 01:00","1996","06","16","01:00","16.4","","12.8","","79","","5","","9","","11.3","","99.60","","","","","","Clear"
"1996-06-16 02:00","1996","06","16","02:00","16.0","","12.9","","82","","4","","11","","9.7","","99.56","","","","","","Haze"
"1996-06-16 03:00","1996","06","16","03:00","15.6","","12.9","","84","","5","","9","","9.7","","99.53","","","","","","Haze"
"1996-06-16 04:00","1996","06","16","04:00","15.5","","13.0","","85","","4","","7","","9.7","","99.53","","","","","","Haze"
"1996-06-16 05:00","1996","06","16","05:00","15.3","","12.9","","86","","3","","7","","9.7","","99.53","","","","","","Haze"
"1996-06-16 06:00","1996","06","16","06:00","15.9","","13.3","","85","","4","","7","","9.7","","99.60","","","","","","Haze"
"1996-06-16 07:00","1996","06","16","07:00","18.2","","14.9","","81","","4","","7","","9.7","","99.63","","","","","","Haze"
"1996-06-16 08:00","1996","06","16","08:00","19.6","","15.4","","77","","6","","7","","9.7","","99.63","","","","","","Haze"
"1996-06-16 09:00","1996","06","16","09:00","21.3","","16.1","","72","","6","","6","","8.0","","99.63","","26","","","","Haze"
"1996-06-16 10:00","1996","06","16","10:00","23.1","","16.9","","68","","7","","4","","9.7","","99.63","","28","","","","Haze"
"1996-06-16 11:00","1996","06","16","11:00","24.8","","17.2","","63","","4","","6","","9.7","","99.63","","30","","","","Haze"
"1996-06-16 12:00","1996","06","16","12:00","25.8","","17.1","","59","","4","","9","","9.7","","99.60","","31","","","","Haze"
"1996-06-16 13:00","1996","06","16","13:00","26.7","","17.3","","56","","3","","11","","11.3","","99.53","","32","","","","Mostly Cloudy"
"1996-06-16 14:00","1996","06","16","14:00","27.3","","17.0","","53","","4","","13","","12.9","","99.50","","33","","","","Mostly Cloudy"
"1996-06-16 15:00","1996","06","16","15:00","28.0","","16.5","","50","","6","","17","","12.9","","99.46","","33","","","","Mostly Cloudy"
"1996-06-16 16:00","1996","06","16","16:00","27.7","","14.5","","44","","6","","19","","12.9","","99.33","","31","","","","Cloudy"
"1996-06-16 17:00","1996","06","16","17:00","27.8","","14.7","","45","","6","","22","","12.9","","99.43","","32","","","","Mostly Cloudy"
"1996-06-16 18:00","1996","06","16","18:00","26.9","","13.5","","44","","8","","17","","12.9","","99.43","","30","","","","Cloudy"
"1996-06-16 19:00","1996","06","16","19:00","26.0","","13.9","","47","","12","","9","","12.9","","99.46","","29","","","","Mostly Cloudy"
"1996-06-16 20:00","1996","06","16","20:00","24.9","","13.0","","48","","10","","9","","12.9","","99.43","","28","","","","Cloudy"
"1996-06-16 21:00","1996","06","16","21:00","23.7","","13.2","","52","","8","","4","","12.9","","99.50","","27","","","","Cloudy"
"1996-06-16 22:00","1996","06","16","22:00","22.9","","12.7","","53","","8","","4","","12.9","","99.53","","26","","","","Cloudy"
"1996-06-16 23:00","1996","06","16","23:00","22.1","","13.7","","59","","5","","4","","12.9","","99.50","","25","","","","Cloudy"
"1996-06-17 00:00","1996","06","17","00:00","20.7","","16.5","","77","","4","","11","","9.7","","99.53","","26","","","","Haze"
"1996-06-17 01:00","1996","06","17","01:00","20.2","","16.5","","79","","3","","9","","8.0","","99.53","","25","","","","Haze"
"1996-06-17 02:00","1996","06","17","02:00","19.6","","16.1","","80","","4","","13","","8.0","","99.53","","","","","","Haze"
"1996-06-17 03:00","1996","06","17","03:00","19.3","","15.6","","79","","4","","15","","8.0","","99.50","","","","","","Haze"
"1996-06-17 04:00","1996","06","17","04:00","19.3","","15.9","","81","","7","","7","","8.0","","99.50","","","","","","Haze"
"1996-06-17 05:00","1996","06","17","05:00","19.4","","16.1","","81","","5","","7","","9.7","","99.46","","","","","","Haze"
"1996-06-17 06:00","1996","06","17","06:00","20.3","","17.1","","82","","8","","7","","9.7","","99.46","","26","","","","Haze"
"1996-06-17 07:00","1996","06","17","07:00","21.4","","17.4","","78","","6","","11","","8.0","","99.50","","27","","","","Haze"
"1996-06-17 08:00","1996","06","17","08:00","20.4","","16.6","","79","","4","","9","","8.0","","99.50","","25","","","","Haze"
"1996-06-17 09:00","1996","06","17","09:00","21.8","","16.3","","71","","7","","11","","8.0","","99.46","","27","","","","Haze"
"1996-06-17 10:00","1996","06","17","10:00","22.2","","16.1","","68","","5","","6","","8.0","","99.50","","27","","","","Haze"
"1996-06-17 11:00","1996","06","17","11:00","21.3","","17.3","","78","","7","","13","","8.0","","99.50","","27","","","","Rain Showers,Haze"
"1996-06-17 12:00","1996","06","17","12:00","19.6","","16.9","","84","","34","","17","","4.0","","99.63","","","","","","Rain Showers,Haze"
"1996-06-17 13:00","1996","06","17","13:00","19.1","","17.4","","90","","6","","13","","4.0","","99.53","","","","","","Rain Showers,Fog"
"1996-06-17 14:00","1996","06","17","14:00","18.0","","15.9","","88","","9","","20","","4.8","","99.43","","","","","","Rain,Fog"
"1996-06-17 15:00","1996","06","17","15:00","20.2","","15.2","","73","","8","","30","","4.8","","99.33","","","","","","Haze"
"1996-06-17 16:00","1996","06","17","16:00","20.4","","15.5","","73","","9","","32","","4.8","","99.23","","25","","","","Haze"
"1996-06-17 17:00","1996","06","17","17:00","20.1","","14.8","","72","","10","","17","","9.7","","99.20","","","","","","Haze"
"1996-06-17 18:00","1996","06","17","18:00","19.7","","14.0","","70","","10","","17","","9.7","","99.20","","","","","","Haze"
"1996-06-17 19:00","1996","06","17","19:00","18.2","","14.7","","80","","10","","15","","8.0","","99.13","","","","","","Rain,Haze"
"1996-06-17 20:00","1996","06","17","20:00","18.3","","15.1","","82","","10","","17","","6.4","","99.10","","","","","","Rain,Haze"
"1996-06-17 21:00","1996","06","17","21:00","18.3","","15.6","","84","","12","","4","","6.4","","99.20","","","","","","Rain,Haze"
"1996-06-17 22:00","1996","06","17","22:00","18.1","","14.6","","80","","8","","19","","9.7","","99.16","","","","","","Haze"
"1996-06-17 23:00","1996","06","17","23:00","17.8","","14.5","","81","","7","","24","","8.0","","99.13","","","","","","Rain,Haze"
"1996-06-18 00:00","1996","06","18","00:00","17.8","","15.6","","87","","9","","22","","8.0","","99.06","","","","","","Rain,Haze"
"1996-06-18 01:00","1996","06","18","01:00","17.2","","14.8","","86","","9","","26","","8.0","","98.96","","","","","","Haze"
"1996-06-18 02:00","1996","06","18","02:00","17.1","","15.0","","87","","10","","22","","8.0","","98.93","","","","","","Haze"
"1996-06-18 03:00","1996","06","18","03:00","17.2","","15.8","","91","","9","","19","","4.8","","98.86","","","","","","Fog"
"1996-06-18 04:00","1996","06","18","04:00","17.4","","16.2","","93","","11","","13","","3.2","","98.83","","","","","","Heavy Rain,Fog"
"1996-06-18 05:00","1996","06","18","05:00","17.6","","16.6","","94","","6","","4","","2.4","","98.90","","","","","","Rain,Fog"
"1996-06-18 06:00","1996","06","18","06:00","17.8","","16.6","","93","","12","","22","","2.4","","98.90","","","","","","Rain,Fog"
"1996-06-18 07:00","1996","06","18","07:00","17.6","","16.4","","93","","12","","11","","4.0","","98.86","","","","","","Rain,Fog"
"1996-06-18 08:00","1996","06","18","08:00","17.7","","16.5","","93","","12","","20","","6.4","","98.80","","","","","","Fog"
"1996-06-18 09:00","1996","06","18","09:00","18.6","","17.3","","92","","12","","19","","6.4","","98.80","","","","","","Fog"
"1996-06-18 10:00","1996","06","18","10:00","19.7","","17.5","","87","","13","","19","","6.4","","98.80","","","","","","Rain Showers,Fog"
"1996-06-18 11:00","1996","06","18","11:00","20.9","","18.4","","86","","14","","13","","6.4","","98.76","","27","","","","Fog"
"1996-06-18 12:00","1996","06","18","12:00","22.3","","19.4","","84","","14","","6","","6.4","","98.70","","29","","","","Haze"
"1996-06-18 13:00","1996","06","18","13:00","22.7","","19.4","","82","","16","","19","","8.0","","98.73","","30","","","","Haze"
"1996-06-18 14:00","1996","06","18","14:00","22.4","","19.0","","81","","16","","11","","8.0","","98.70","","29","","","","Haze"
"1996-06-18 15:00","1996","06","18","15:00","21.8","","19.2","","85","","9","","15","","8.0","","98.66","","29","","","","Rain Showers,Haze"
"1996-06-18 16:00","1996","06","18","16:00","19.9","","18.3","","91","","4","","19","","1.2","","98.63","","","","","","Thunderstorms,Rain Showers,Fog"
"1996-06-18 17:00","1996","06","18","17:00","21.1","","19.5","","91","","12","","20","","4.8","","98.60","","28","","","","Rain Showers,Fog"
"1996-06-18 18:00","1996","06","18","18:00","21.5","","19.3","","87","","11","","17","","4.8","","98.60","","29","","","","Haze"
"1996-06-18 19:00","1996","06","18","19:00","21.4","","19.1","","87","","11","","17","","4.8","","98.57","","28","","","","Haze"
"1996-06-18 20:00","1996","06","18","20:00","21.0","","19.0","","88","","6","","13","","6.4","","98.60","","28","","","","Rain Showers,Fog"
"1996-06-18 21:00","1996","06","18","21:00","20.1","","18.7","","92","","9","","13","","4.0","","98.60","","27","","","","Thunderstorms,Rain Showers,Fog"
"1996-06-18 22:00","1996","06","18","22:00","20.1","","18.8","","92","","11","","13","","4.0","","98.60","","27","","","","Fog"
"1996-06-18 23:00","1996","06","18","23:00","19.7","","18.5","","93","","9","","9","","3.2","","98.60","","","","","","Fog"
"1996-06-19 00:00","1996","06","19","00:00","19.3","","18.2","","93","","11","","6","","2.4","","98.60","","","","","","Fog"
"1996-06-19 01:00","1996","06","19","01:00","18.7","","17.7","","94","","2","","4","","1.2","","98.57","","","","","","Fog"
"1996-06-19 02:00","1996","06","19","02:00","18.6","","17.6","","94","","7","","4","","0.4","","98.60","","","","","","Fog"
"1996-06-19 03:00","1996","06","19","03:00"
"1996-06-19 04:00","1996","06","19","04:00","20.4","","19.4","","94","","18","","13","","3.2","","98.53","","27","","","","Fog"
"1996-06-19 05:00","1996","06","19","05:00","20.4","","19.3","","93","","19","","11","","1.6","","98.60","","27","","","","Fog"
"1996-06-19 06:00","1996","06","19","06:00","20.6","","19.4","","93","","20","","9","","0.8","","98.60","","28","","","","Rain Showers,Fog"
"1996-06-19 07:00","1996","06","19","07:00","20.9","","19.9","","94","","17","","7","","1.0","","98.63","","28","","","","Fog"
"1996-06-19 08:00","1996","06","19","08:00","20.8","","19.6","","93","","17","","11","","1.2","","98.63","","28","","","","Fog"
"1996-06-19 09:00","1996","06","19","09:00","21.5","","20.3","","93","","21","","11","","1.6","","98.63","","29","","","","Fog"
"1996-06-19 10:00","1996","06","19","10:00","23.1","","21.1","","89","","21","","13","","6.4","","98.66","","32","","","","Fog,Haze"
"1996-06-19 11:00","1996","06","19","11:00","23.4","","20.9","","86","","22","","19","","8.0","","98.66","","32","","","","Haze"
"1996-06-19 12:00","1996","06","19","12:00","25.9","","21.7","","78","","20","","20","","6.4","","98.63","","35","","","","Haze"
"1996-06-19 13:00","1996","06","19","13:00","26.7","","21.4","","73","","22","","19","","9.7","","98.57","","35","","","","Haze"
"1996-06-19 14:00","1996","06","19","14:00","27.8","","20.8","","66","","21","","17","","11.3","","98.53","","36","","","","Mostly Cloudy"
"1996-06-19 15:00","1996","06","19","15:00","28.7","","20.6","","62","","21","","22","","16.1","","98.50","","37","","","","Mostly Cloudy"
"1996-06-19 16:00","1996","06","19","16:00","28.5","","20.8","","63","","21","","20","","19.3","","98.50","","37","","","","Mainly Clear"
"1996-06-19 17:00","1996","06","19","17:00","28.3","","19.8","","60","","22","","17","","19.3","","98.47","","36","","","","Mostly Cloudy"
"1996-06-19 18:00","1996","06","19","18:00","25.3","","20.5","","75","","20","","20","","19.3","","98.47","","33","","","","Mostly Cloudy"
"1996-06-19 19:00","1996","06","19","19:00","25.3","","20.6","","75","","20","","13","","19.3","","98.50","","33","","","","Mostly Cloudy"
"1996-06-19 20:00","1996","06","19","20:00","24.2","","19.9","","77","","19","","11","","16.1","","98.50","","32","","","","Mainly Clear"
"1996-06-19 21:00","1996","06","19","21:00","23.6","","19.9","","80","","22","","11","","16.1","","98.57","","31","","","","Mostly Cloudy"
"1996-06-19 22:00","1996","06","19","22:00","22.6","","20.2","","86","","21","","11","","12.9","","98.63","","30","","","","Mostly Cloudy"
"1996-06-19 23:00","1996","06","19","23:00","22.0","","19.9","","88","","22","","11","","9.7","","98.66","","29","","","","Haze"
"1996-06-20 00:00","1996","06","20","00:00","21.9","","19.9","","88","","24","","9","","8.0","","98.63","","29","","","","Haze"
"1996-06-20 01:00","1996","06","20","01:00","21.3","","19.6","","90","","21","","9","","8.0","","98.60","","29","","","","Fog"
"1996-06-20 02:00","1996","06","20","02:00","21.2","","19.5","","90","","26","","9","","6.4","","98.57","","28","","","","Fog"
"1996-06-20 03:00","1996","06","20","03:00","21.2","","19.0","","87","","29","","9","","8.0","","98.60","","28","","","","Haze"
"1996-06-20 04:00","1996","06","20","04:00","21.0","","18.7","","87","","30","","13","","6.4","","98.63","","28","","","","Haze"
"1996-06-20 05:00","1996","06","20","05:00","20.3","","18.5","","89","","30","","11","","4.8","","98.70","","27","","","","Fog"
"1996-06-20 06:00","1996","06","20","06:00","20.8","","18.5","","87","","30","","11","","4.0","","98.73","","27","","","","Fog"
"1996-06-20 07:00","1996","06","20","07:00","21.6","","18.6","","83","","30","","13","","4.8","","98.76","","28","","","","Haze"
"1996-06-20 08:00","1996","06","20","08:00","22.2","","18.6","","80","","29","","15","","6.4","","98.80","","29","","","","Haze"
"1996-06-20 09:00","1996","06","20","09:00","22.1","","18.4","","80","","28","","15","","8.0","","98.83","","28","","","","Haze"
"1996-06-20 10:00","1996","06","20","10:00","21.9","","18.8","","83","","30","","20","","8.0","","98.86","","29","","","","Haze"
"1996-06-20 11:00","1996","06","20","11:00","22.3","","18.3","","78","","29","","17","","9.7","","98.86","","29","","","","Haze"
"1996-06-20 12:00","1996","06","20","12:00","22.5","","18.1","","76","","32","","19","","12.9","","98.86","","29","","","","Cloudy"
"1996-06-20 13:00","1996","06","20","13:00","24.0","","18.4","","71","","31","","17","","12.9","","98.80","","30","","","","Mostly Cloudy"
"1996-06-20 14:00","1996","06","20","14:00","24.6","","18.1","","67","","27","","17","","16.1","","98.80","","31","","","","Mostly Cloudy"
"1996-06-20 15:00","1996","06","20","15:00","24.6","","17.9","","66","","27","","19","","16.1","","98.83","","31","","","","Mostly Cloudy"
"1996-06-20 16:00","1996","06","20","16:00","23.5","","17.2","","68","","28","","20","","16.1","","98.90","","29","","","","Cloudy"
"1996-06-20 17:00","1996","06","20","17:00","23.1","","17.1","","69","","30","","19","","19.3","","98.86","","28","","","","Cloudy"
"1996-06-20 18:00","1996","06","20","18:00","23.4","","17.0","","67","","35","","15","","24.1","","98.86","","29","","","","Mostly Cloudy"
"1996-06-20 19:00","1996","06","20","19:00","23.5","","17.0","","67","","33","","17","","24.1","","98.90","","29","","","","Mostly Cloudy"
"1996-06-20 20:00","1996","06","20","20:00","23.2","","17.6","","71","","33","","6","","24.1","","98.90","","29","","","","Mostly Cloudy"
"1996-06-20 21:00","1996","06","20","21:00","22.8","","17.8","","73","","","","0","","24.1","","98.90","","29","","","","Mostly Cloudy"
"1996-06-20 22:00","1996","06","20","22:00","21.1","","17.7","","81","","23","","7","","16.1","","98.93","","27","","","","Mainly Clear"
"1996-06-20 23:00","1996","06","20","23:00","20.8","","17.5","","81","","23","","7","","19.3","","98.96","","26","","","","Clear"
"1996-06-21 00:00","1996","06","21","00:00","20.4","","17.7","","84","","25","","7","","16.1","","98.96","","26","","","","Clear"
"1996-06-21 01:00","1996","06","21","01:00","20.1","","17.6","","86","","26","","9","","12.9","","99.00","","26","","","","Clear"
"1996-06-21 02:00","1996","06","21","02:00","19.6","","17.6","","88","","28","","9","","8.0","","99.03","","","","","","Fog"
"1996-06-21 03:00","1996","06","21","03:00","19.5","","17.4","","88","","28","","11","","8.0","","99.06","","","","","","Fog"
"1996-06-21 04:00","1996","06","21","04:00","19.2","","17.2","","88","","29","","11","","8.0","","99.06","","","","","","Fog"
"1996-06-21 05:00","1996","06","21","05:00","19.3","","17.3","","88","","28","","11","","6.4","","99.16","","","","","","Fog"
"1996-06-21 06:00","1996","06","21","06:00","19.6","","17.3","","87","","29","","7","","6.4","","99.16","","","","","","Haze"
"1996-06-21 07:00","1996","06","21","07:00","20.8","","17.7","","82","","28","","6","","6.4","","99.16","","27","","","","Haze"
"1996-06-21 08:00","1996","06","21","08:00","22.3","","17.8","","76","","32","","7","","9.7","","99.16","","28","","","","Haze"
"1996-06-21 09:00","1996","06","21","09:00","22.3","","18.3","","78","","9","","13","","8.0","","99.13","","29","","","","Haze"
"1996-06-21 10:00","1996","06","21","10:00","22.8","","19.2","","80","","6","","7","","8.0","","99.20","","30","","","","Haze"
"1996-06-21 11:00","1996","06","21","11:00","22.6","","19.0","","80","","8","","15","","6.4","","99.16","","29","","","","Haze"
"1996-06-21 12:00","1996","06","21","12:00","24.1","","19.9","","77","","9","","19","","6.4","","99.13","","32","","","","Haze"
"1996-06-21 13:00","1996","06","21","13:00","23.1","","19.4","","80","","8","","22","","8.0","","99.10","","30","","","","Haze"
"1996-06-21 14:00","1996","06","21","14:00","23.9","","20.0","","79","","7","","13","","6.4","","99.13","","31","","","","Haze"
"1996-06-21 15:00","1996","06","21","15:00","25.3","","19.9","","72","","6","","6","","9.7","","99.06","","33","","","","Haze"
"1996-06-21 16:00","1996","06","21","16:00","24.8","","19.9","","74","","18","","13","","11.3","","99.00","","32","","","","Cloudy"
"1996-06-21 17:00","1996","06","21","17:00","24.3","","19.6","","75","","20","","13","","11.3","","99.00","","32","","","","Cloudy"
"1996-06-21 18:00","1996","06","21","18:00","24.0","","19.9","","78","","18","","11","","8.0","","98.90","","31","","","","Haze"
"1996-06-21 19:00","1996","06","21","19:00","22.9","","19.2","","80","","16","","15","","9.7","","98.76","","30","","","","Haze"
"1996-06-21 20:00","1996","06","21","20:00","22.9","","19.2","","80","","16","","15","","9.7","","98.76","","30","","","","Haze"
"1996-06-21 21:00","1996","06","21","21:00","22.7","","19.3","","81","","18","","9","","9.7","","98.73","","30","","","","Haze"
"1996-06-21 22:00","1996","06","21","22:00","22.2","","19.3","","84","","18","","11","","9.7","","98.66","","29","","","","Haze"
"1996-06-21 23:00","1996","06","21","23:00","22.2","","19.3","","84","","18","","9","","8.0","","98.63","","29","","","","Haze"
"1996-06-22 00:00","1996","06","22","00:00","23.6","","19.6","","78","","20","","19","","8.0","","98.50","","31","","","","Thunderstorms,Haze"
"1996-06-22 01:00","1996","06","22","01:00","24.1","","20.2","","79","","22","","28","","8.0","","98.47","","32","","","","Haze"
"1996-06-22 02:00","1996","06","22","02:00","25.5","","20.2","","73","","24","","32","","9.7","","98.47","","33","","","","Haze"
"1996-06-22 03:00","1996","06","22","03:00","25.0","","20.3","","75","","24","","28","","9.7","","98.47","","33","","","","Haze"
"1996-06-22 04:00","1996","06","22","04:00","24.4","","20.4","","78","","23","","28","","8.0","","98.40","","32","","","","Haze"
"1996-06-22 05:00","1996","06","22","05:00","23.8","","20.3","","81","","23","","22","","8.0","","98.40","","32","","","","Haze"
"1996-06-22 06:00","1996","06","22","06:00","24.0","","20.5","","81","","24","","22","","8.0","","98.40","","32","","","","Haze"
"1996-06-22 07:00","1996","06","22","07:00","24.8","","21.1","","80","","24","","19","","8.0","","98.40","","33","","","","Haze"
"1996-06-22 08:00","1996","06","22","08:00","26.1","","21.6","","76","","27","","22","","8.0","","98.40","","35","","","","Haze"
"1996-06-22 09:00","1996","06","22","09:00","26.5","","20.0","","68","","29","","26","","11.3","","98.43","","34","","","","Mostly Cloudy"
"1996-06-22 10:00","1996","06","22","10:00","26.7","","19.2","","63","","28","","30","","12.9","","98.50","","34","","","","Mostly Cloudy"
"1996-06-22 11:00","1996","06","22","11:00","25.9","","17.9","","61","","30","","30","","19.3","","98.57","","32","","","","Mostly Cloudy"
"1996-06-22 12:00","1996","06","22","12:00","27.2","","16.8","","53","","29","","28","","24.1","","98.60","","32","","","","Mostly Cloudy"
"1996-06-22 13:00","1996","06","22","13:00","27.5","","14.7","","46","","31","","26","","24.1","","98.57","","31","","","","Mostly Cloudy"
"1996-06-22 14:00","1996","06","22","14:00","27.8","","14.3","","44","","32","","19","","24.1","","98.60","","31","","","","Mostly Cloudy"
"1996-06-22 15:00","1996","06","22","15:00","26.9","","14.2","","46","","32","","33","","24.1","","98.63","","30","","","","Mostly Cloudy"
"1996-06-22 16:00","1996","06","22","16:00","26.1","","14.3","","48","","32","","26","","24.1","","98.63","","30","","","","Mostly Cloudy"
"1996-06-22 17:00","1996","06","22","17:00","25.8","","13.7","","47","","32","","28","","24.1","","98.66","","29","","","","Mostly Cloudy"
"1996-06-22 18:00","1996","06","22","18:00","25.2","","13.1","","47","","33","","22","","24.1","","98.73","","28","","","","Mostly Cloudy"
"1996-06-22 19:00","1996","06","22","19:00","24.2","","13.7","","52","","34","","20","","24.1","","98.76","","27","","","","Mostly Cloudy"
"1996-06-22 20:00","1996","06","22","20:00","23.4","","13.2","","53","","33","","20","","24.1","","98.86","","26","","","","Mainly Clear"
"1996-06-22 21:00","1996","06","22","21:00","22.3","","13.4","","57","","4","","30","","24.1","","98.96","","25","","","","Mainly Clear"
"1996-06-22 22:00","1996","06","22","22:00","17.2","","12.8","","75","","5","","19","","24.1","","99.03","","","","","","Mainly Clear"
"1996-06-22 23:00","1996","06","22","23:00","15.6","","11.2","","75","","5","","17","","24.1","","99.06","","","","","","Mainly Clear"
"1996-06-23 00:00","1996","06","23","00:00","14.9","","10.8","","76","","5","","15","","24.1","","99.16","","","","","","Mainly Clear"
"1996-06-23 01:00","1996","06","23","01:00","13.8","","10.4","","80","","4","","11","","24.1","","99.20","","","","","","Clear"
"1996-06-23 02:00","1996","06","23","02:00","13.1","","9.7","","80","","5","","11","","25.0","","99.20","","","","","","Clear"
"1996-06-23 03:00","1996","06","23","03:00","12.4","","9.3","","81","","4","","15","","25.0","","99.23","","","","","","Clear"
"1996-06-23 04:00","1996","06","23","04:00","12.4","","9.2","","81","","5","","6","","25.0","","99.30","","","","","","Clear"
"1996-06-23 05:00","1996","06","23","05:00","12.4","","9.3","","81","","1","","4","","24.1","","99.33","","","","","","Mainly Clear"
"1996-06-23 06:00","1996","06","23","06:00","13.0","","10.3","","84","","","","0","","24.1","","99.40","","","","","","Mainly Clear"
"1996-06-23 07:00","1996","06","23","07:00","14.8","","9.4","","70","","1","","7","","24.1","","99.43","","","","","","Mostly Cloudy"
"1996-06-23 08:00","1996","06","23","08:00","15.4","","9.4","","67","","6","","11","","24.1","","99.46","","","","","","Mostly Cloudy"
"1996-06-23 09:00","1996","06","23","09:00","16.4","","10.1","","66","","14","","6","","24.1","","99.46","","","","","","Mostly Cloudy"
"1996-06-23 10:00","1996","06","23","10:00","17.7","","10.7","","64","","15","","6","","24.1","","99.43","","","","","","Mainly Clear"
"1996-06-23 11:00","1996","06","23","11:00","19.4","","10.6","","57","","27","","7","","24.1","","99.46","","","","","","Mostly Cloudy"
"1996-06-23 12:00","1996","06","23","12:00"
"1996-06-23 13:00","1996","06","23","13:00","20.6","","11.8","","57","","6","","7","","24.1","","99.40","","","","","","Mostly Cloudy"
"1996-06-23 14:00","1996","06","23","14:00","21.4","","12.3","","56","","6","","13","","24.1","","99.36","","","","","","Mainly Clear"
"1996-06-23 15:00","1996","06","23","15:00","22.6","","13.2","","55","","12","","13","","24.1","","99.33","","26","","","","Mainly Clear"
"1996-06-23 16:00","1996","06","23","16:00","22.7","","12.7","","53","","12","","15","","24.1","","99.23","","25","","","","Mostly Cloudy"
"1996-06-23 17:00","1996","06","23","17:00","21.9","","14.4","","62","","20","","15","","24.1","","99.16","","26","","","","Mostly Cloudy"
"1996-06-23 18:00","1996","06","23","18:00","21.7","","14.0","","62","","19","","13","","24.1","","99.16","","25","","","","Mostly Cloudy"
"1996-06-23 19:00","1996","06","23","19:00","20.4","","13.3","","64","","18","","15","","24.1","","99.16","","","","","","Mostly Cloudy"
"1996-06-23 20:00","1996","06","23","20:00","19.3","","12.8","","66","","16","","7","","24.1","","99.16","","","","","","Mostly Cloudy"
"1996-06-23 21:00","1996","06","23","21:00","18.5","","12.8","","69","","14","","7","","24.1","","99.16","","","","","","Mostly Cloudy"
"1996-06-23 22:00","1996","06","23","22:00","18.2","","13.5","","74","","11","","7","","24.1","","99.13","","","","","","Mostly Cloudy"
"1996-06-23 23:00","1996","06","23","23:00","17.8","","13.6","","76","","6","","9","","24.1","","99.13","","","","","","Mostly Cloudy"
"1996-06-24 00:00","1996","06","24","00:00","17.8","","13.7","","77","","10","","9","","24.1","","99.03","","","","","","Mostly Cloudy"
"1996-06-24 01:00","1996","06","24","01:00","18.0","","13.6","","75","","13","","7","","24.1","","98.93","","","","","","Cloudy"
"1996-06-24 02:00","1996","06","24","02:00","17.9","","13.4","","75","","11","","6","","24.1","","98.90","","","","","","Cloudy"
"1996-06-24 03:00","1996","06","24","03:00","18.0","","14.0","","77","","12","","9","","24.1","","98.80","","","","","","Cloudy"
"1996-06-24 04:00","1996","06","24","04:00","18.4","","13.6","","74","","20","","6","","19.3","","98.80","","","","","","Rain Showers"
"1996-06-24 05:00","1996","06","24","05:00","17.5","","15.3","","87","","2","","6","","19.3","","98.73","","","","","","Cloudy"
"1996-06-24 06:00","1996","06","24","06:00","17.6","","15.5","","87","","8","","6","","16.1","","98.80","","","","","","Cloudy"
"1996-06-24 07:00","1996","06","24","07:00","18.2","","16.0","","87","","11","","11","","16.1","","98.70","","","","","","Mostly Cloudy"
"1996-06-24 08:00","1996","06","24","08:00","19.5","","16.4","","82","","12","","4","","16.1","","98.73","","","","","","Mostly Cloudy"
"1996-06-24 09:00","1996","06","24","09:00","22.2","","17.9","","77","","22","","7","","16.1","","98.73","","28","","","","Mostly Cloudy"
"1996-06-24 10:00","1996","06","24","10:00","23.9","","19.5","","76","","21","","19","","11.3","","98.70","","31","","","","Mostly Cloudy"
"1996-06-24 11:00","1996","06","24","11:00","25.7","","20.1","","71","","23","","20","","11.3","","98.60","","33","","","","Mostly Cloudy"
"1996-06-24 12:00","1996","06","24","12:00","26.7","","19.9","","66","","25","","22","","12.9","","98.57","","34","","","","Mostly Cloudy"
"1996-06-24 13:00","1996","06","24","13:00","28.5","","20.6","","62","","26","","17","","19.3","","98.53","","37","","","","Mostly Cloudy"
"1996-06-24 14:00","1996","06","24","14:00","26.5","","22.6","","79","","26","","15","","16.1","","98.50","","36","","","","Mainly Clear"
"1996-06-24 15:00","1996","06","24","15:00","29.5","","20.6","","59","","29","","15","","24.1","","98.47","","38","","","","Mostly Cloudy"
"1996-06-24 16:00","1996","06","24","16:00","28.4","","19.7","","59","","29","","24","","24.1","","98.47","","36","","","","Mostly Cloudy"
"1996-06-24 17:00","1996","06","24","17:00","28.3","","19.7","","60","","31","","30","","24.1","","98.50","","36","","","","Mostly Cloudy"
"1996-06-24 18:00","1996","06","24","18:00","26.8","","19.2","","63","","32","","24","","16.1","","98.53","","34","","","","Mainly Clear"
"1996-06-24 19:00","1996","06","24","19:00","26.4","","18.5","","62","","31","","28","","16.1","","98.63","","33","","","","Mainly Clear"
"1996-06-24 20:00","1996","06","24","20:00","25.2","","18.3","","66","","31","","22","","16.1","","98.70","","31","","","","Mainly Clear"
"1996-06-24 21:00","1996","06","24","21:00","24.2","","18.0","","68","","31","","26","","12.9","","98.80","","30","","","","Mainly Clear"
"1996-06-24 22:00","1996","06","24","22:00","18.8","","14.4","","76","","2","","37","","12.9","","99.00","","","","","","Mostly Cloudy"
"1996-06-24 23:00","1996","06","24","23:00","17.8","","12.6","","72","","1","","28","","19.3","","99.03","","","","","","Cloudy"
"1996-06-25 00:00","1996","06","25","00:00","16.9","","11.4","","70","","1","","26","","24.1","","99.06","","","","","","Mostly Cloudy"
"1996-06-25 01:00","1996","06","25","01:00","16.4","","11.5","","73","","36","","19","","24.1","","99.13","","","","","","Mainly Clear"
"1996-06-25 02:00","1996","06","25","02:00","16.6","","11.3","","71","","1","","15","","24.1","","99.16","","","","","","Mostly Cloudy"
"1996-06-25 03:00","1996","06","25","03:00","16.4","","11.1","","71","","36","","20","","24.1","","99.23","","","","","","Mostly Cloudy"
"1996-06-25 04:00","1996","06","25","04:00","16.1","","11.2","","73","","35","","22","","24.1","","99.30","","","","","","Mostly Cloudy"
"1996-06-25 05:00","1996","06","25","05:00","15.4","","8.9","","65","","36","","19","","24.1","","99.40","","","","","","Mainly Clear"
"1996-06-25 06:00","1996","06","25","06:00","15.0","","8.8","","66","","34","","24","","24.1","","99.46","","","","","","Mainly Clear"
"1996-06-25 07:00","1996","06","25","07:00","15.3","","9.0","","66","","34","","17","","24.1","","99.50","","","","","","Mainly Clear"
"1996-06-25 08:00","1996","06","25","08:00","16.2","","9.6","","65","","36","","13","","24.1","","99.60","","","","","","Mainly Clear"
"1996-06-25 09:00","1996","06","25","09:00","17.7","","10.0","","61","","1","","13","","24.1","","99.63","","","","","","Mostly Cloudy"
"1996-06-25 10:00","1996","06","25","10:00","19.2","","10.6","","57","","36","","13","","24.1","","99.70","","","","","","Mostly Cloudy"
"1996-06-25 11:00","1996","06","25","11:00","20.4","","10.4","","53","","1","","22","","24.1","","99.66","","","","","","Mainly Clear"
"1996-06-25 12:00","1996","06","25","12:00","20.7","","10.6","","52","","3","","20","","24.1","","99.70","","","","","","Mainly Clear"
"1996-06-25 13:00","1996","06","25","13:00","22.0","","10.8","","49","","2","","11","","24.1","","99.70","","","","","","Mainly Clear"
"1996-06-25 14:00","1996","06","25","14:00","22.6","","11.0","","48","","1","","17","","24.1","","99.73","","","","","","Mainly Clear"
"1996-06-25 15:00","1996","06","25","15:00","22.7","","11.1","","48","","4","","19","","24.1","","99.73","","25","","","","Mainly Clear"
"1996-06-25 16:00","1996","06","25","16:00","23.0","","11.1","","47","","4","","13","","24.1","","99.73","","25","","","","Mainly Clear"
"1996-06-25 17:00","1996","06","25","17:00","22.2","","10.5","","47","","5","","13","","24.1","","99.73","","","","","","Mainly Clear"
"1996-06-25 18:00","1996","06","25","18:00","21.8","","10.6","","49","","6","","19","","25.0","","99.80","","","","","","Mainly Clear"
"1996-06-25 19:00","1996","06","25","19:00","21.2","","11.1","","52","","8","","15","","25.0","","99.80","","","","","","Mainly Clear"
"1996-06-25 20:00","1996","06","25","20:00","20.6","","11.1","","54","","8","","7","","25.0","","99.86","","","","","","Mainly Clear"
"1996-06-25 21:00","1996","06","25","21:00","19.2","","11.8","","62","","10","","4","","24.1","","99.90","","","","","","Mainly Clear"
"1996-06-25 22:00","1996","06","25","22:00","18.9","","11.7","","63","","10","","6","","24.1","","99.90","","","","","","Clear"
"1996-06-25 23:00","1996","06","25","23:00","17.8","","11.4","","66","","8","","6","","24.1","","99.90","","","","","","Clear"
"1996-06-26 00:00","1996","06","26","00:00","16.6","","11.1","","70","","10","","4","","24.1","","99.90","","","","","","Clear"
"1996-06-26 01:00","1996","06","26","01:00","15.9","","9.5","","66","","12","","4","","24.1","","99.93","","","","","","Clear"
"1996-06-26 02:00","1996","06","26","02:00","15.3","","8.4","","63","","","","0","","24.1","","99.99","","","","","","Clear"
"1996-06-26 03:00","1996","06","26","03:00","14.9","","9.5","","70","","","","0","","24.1","","100.03","","","","","","Mainly Clear"
"1996-06-26 04:00","1996","06","26","04:00","14.9","","10.0","","72","","7","","2","","24.1","","100.06","","","","","","Mainly Clear"
"1996-06-26 05:00","1996","06","26","05:00","14.6","","9.2","","70","","","","0","","24.1","","100.13","","","","","","Mainly Clear"
"1996-06-26 06:00","1996","06","26","06:00","15.7","","9.3","","66","","9","","4","","24.1","","100.13","","","","","","Mainly Clear"
"1996-06-26 07:00","1996","06","26","07:00","17.9","","10.2","","61","","11","","6","","24.1","","100.19","","","","","","Clear"
"1996-06-26 08:00","1996","06","26","08:00","19.9","","11.5","","58","","12","","6","","25.0","","100.19","","","","","","Clear"
"1996-06-26 09:00","1996","06","26","09:00","21.2","","12.2","","56","","13","","6","","25.0","","100.23","","","","","","Clear"
"1996-06-26 10:00","1996","06","26","10:00","22.3","","12.9","","55","","20","","7","","25.0","","100.19","","25","","","","Clear"
"1996-06-26 11:00","1996","06","26","11:00","23.3","","13.3","","53","","9","","7","","25.0","","100.16","","26","","","","Mainly Clear"
"1996-06-26 12:00","1996","06","26","12:00","23.5","","12.5","","50","","12","","4","","25.0","","100.16","","26","","","","Mainly Clear"
"1996-06-26 13:00","1996","06","26","13:00","23.7","","12.3","","49","","8","","9","","25.0","","100.13","","26","","","","Mainly Clear"
"1996-06-26 14:00","1996","06","26","14:00","24.1","","12.8","","49","","9","","11","","24.1","","100.09","","27","","","","Mainly Clear"
"1996-06-26 15:00","1996","06","26","15:00","24.1","","12.3","","48","","5","","4","","24.1","","100.09","","27","","","","Mainly Clear"
"1996-06-26 16:00","1996","06","26","16:00","24.3","","12.9","","49","","10","","15","","24.1","","100.06","","27","","","","Mostly Cloudy"
"1996-06-26 17:00","1996","06","26","17:00","23.9","","13.8","","53","","15","","17","","24.1","","99.99","","27","","","","Mostly Cloudy"
"1996-06-26 18:00","1996","06","26","18:00","23.6","","13.8","","54","","18","","9","","24.1","","99.99","","27","","","","Mostly Cloudy"
"1996-06-26 19:00","1996","06","26","19:00","22.9","","13.4","","55","","19","","11","","24.1","","99.96","","26","","","","Mostly Cloudy"
"1996-06-26 20:00","1996","06","26","20:00","21.6","","13.7","","61","","19","","9","","24.1","","99.96","","25","","","","Mostly Cloudy"
"1996-06-26 21:00","1996","06","26","21:00","20.3","","13.6","","65","","19","","7","","24.1","","99.99","","","","","","Mostly Cloudy"
"1996-06-26 22:00","1996","06","26","22:00","19.7","","13.9","","69","","16","","7","","24.1","","99.99","","","","","","Mostly Cloudy"
"1996-06-26 23:00","1996","06","26","23:00","19.3","","14.0","","71","","20","","7","","24.1","","99.99","","","","","","Mostly Cloudy"
"1996-06-27 00:00","1996","06","27","00:00","18.6","","13.7","","73","","12","","4","","24.1","","99.99","","","","","","Mainly Clear"
"1996-06-27 01:00","1996","06","27","01:00","17.5","","13.9","","79","","","","0","","24.1","","100.03","","","","","","Mainly Clear"
"1996-06-27 02:00","1996","06","27","02:00","17.7","","13.9","","78","","","","0","","24.1","","99.99","","","","","","Mostly Cloudy"
"1996-06-27 03:00","1996","06","27","03:00","18.5","","13.9","","75","","","","0","","24.1","","99.99","","","","","","Mostly Cloudy"
"1996-06-27 04:00","1996","06","27","04:00","18.2","","14.2","","77","","","","0","","24.1","","99.99","","","","","","Mostly Cloudy"
"1996-06-27 05:00","1996","06","27","05:00","18.5","","14.8","","79","","19","","6","","19.3","","100.03","","","","","","Mostly Cloudy"
"1996-06-27 06:00","1996","06","27","06:00","19.0","","14.7","","76","","22","","6","","16.1","","100.06","","","","","","Mostly Cloudy"
"1996-06-27 07:00","1996","06","27","07:00","19.6","","15.3","","76","","22","","6","","24.1","","100.13","","","","","","Cloudy"
"1996-06-27 08:00","1996","06","27","08:00","20.0","","15.8","","77","","24","","11","","24.1","","100.13","","","","","","Rain Showers"
"1996-06-27 09:00","1996","06","27","09:00","20.5","","16.3","","77","","22","","13","","24.1","","100.09","","25","","","","Cloudy"
"1996-06-27 10:00","1996","06","27","10:00","21.5","","15.8","","70","","23","","15","","24.1","","100.06","","26","","","","Mostly Cloudy"
"1996-06-27 11:00","1996","06","27","11:00","23.5","","14.5","","57","","25","","20","","16.1","","100.03","","27","","","","Mostly Cloudy"
"1996-06-27 12:00","1996","06","27","12:00"
"1996-06-27 13:00","1996","06","27","13:00","26.8","","15.0","","48","","24","","15","","19.3","","99.83","","31","","","","Mostly Cloudy"
"1996-06-27 14:00","1996","06","27","14:00","27.7","","15.5","","47","","24","","17","","19.3","","99.80","","32","","","","Mainly Clear"
"1996-06-27 15:00","1996","06","27","15:00","28.1","","15.9","","47","","24","","19","","19.3","","99.73","","33","","","","Mainly Clear"
"1996-06-27 16:00","1996","06","27","16:00","27.8","","16.7","","51","","22","","19","","19.3","","99.70","","33","","","","Mainly Clear"
"1996-06-27 17:00","1996","06","27","17:00","27.8","","16.9","","52","","21","","17","","17.7","","99.66","","33","","","","Mainly Clear"
"1996-06-27 18:00","1996","06","27","18:00","27.1","","16.8","","53","","22","","17","","19.3","","99.63","","32","","","","Mainly Clear"
"1996-06-27 19:00","1996","06","27","19:00","26.0","","16.6","","56","","21","","13","","19.3","","99.63","","31","","","","Mainly Clear"
"1996-06-27 20:00","1996","06","27","20:00","24.7","","16.4","","60","","21","","11","","19.3","","99.63","","30","","","","Mainly Clear"
"1996-06-27 21:00","1996","06","27","21:00","23.3","","16.9","","67","","21","","11","","19.3","","99.66","","29","","","","Mainly Clear"
"1996-06-27 22:00","1996","06","27","22:00","22.4","","17.1","","72","","20","","13","","19.3","","99.70","","28","","","","Clear"
"1996-06-27 23:00","1996","06","27","23:00","21.9","","17.4","","76","","21","","13","","12.9","","99.66","","27","","","","Clear"
"1996-06-28 00:00","1996","06","28","00:00","21.9","","18.0","","79","","23","","9","","11.3","","99.66","","28","","","","Clear"
"1996-06-28 01:00","1996","06","28","01:00","21.5","","18.1","","81","","21","","7","","9.7","","99.66","","28","","","","Haze"
"1996-06-28 02:00","1996","06","28","02:00","22.0","","17.8","","77","","27","","9","","11.3","","99.73","","28","","","","Mainly Clear"
"1996-06-28 03:00","1996","06","28","03:00","21.1","","17.6","","80","","24","","6","","11.3","","99.66","","27","","","","Clear"
"1996-06-28 04:00","1996","06","28","04:00","20.5","","17.5","","83","","24","","6","","9.7","","99.70","","26","","","","Haze"
"1996-06-28 05:00","1996","06","28","05:00","20.8","","16.8","","78","","25","","7","","9.7","","99.76","","26","","","","Haze"
"1996-06-28 06:00","1996","06","28","06:00","21.6","","16.5","","73","","28","","13","","9.7","","99.76","","27","","","","Haze"
"1996-06-28 07:00","1996","06","28","07:00","23.5","","16.7","","66","","30","","9","","9.7","","99.83","","29","","","","Haze"
"1996-06-28 08:00","1996","06","28","08:00","25.9","","17.2","","59","","31","","17","","12.9","","99.83","","31","","","","Mostly Cloudy"
"1996-06-28 09:00","1996","06","28","09:00","27.1","","17.6","","56","","33","","7","","16.1","","99.83","","33","","","","Mostly Cloudy"
"1996-06-28 10:00","1996","06","28","10:00","28.4","","18.3","","54","","24","","6","","19.3","","99.80","","35","","","","Mostly Cloudy"
"1996-06-28 11:00","1996","06","28","11:00","29.0","","19.2","","56","","25","","7","","24.1","","99.80","","36","","","","Mostly Cloudy"
"1996-06-28 12:00","1996","06","28","12:00","29.2","","19.1","","55","","","","0","","19.3","","99.76","","36","","","","Mostly Cloudy"
"1996-06-28 13:00","1996","06","28","13:00","30.9","","18.7","","48","","34","","7","","19.3","","99.73","","37","","","","Mostly Cloudy"
"1996-06-28 14:00","1996","06","28","14:00","30.9","","19.5","","51","","31","","17","","24.1","","99.73","","38","","","","Mostly Cloudy"
"1996-06-28 15:00","1996","06","28","15:00","31.0","","18.9","","49","","27","","6","","19.3","","99.70","","38","","","","Mostly Cloudy"
"1996-06-28 16:00","1996","06","28","16:00","31.9","","18.4","","45","","28","","13","","19.3","","99.66","","38","","","","Mostly Cloudy"
"1996-06-28 17:00","1996","06","28","17:00","31.6","","17.8","","44","","29","","9","","19.3","","99.63","","37","","","","Mostly Cloudy"
"1996-06-28 18:00","1996","06","28","18:00","31.2","","17.5","","44","","24","","9","","19.3","","99.60","","37","","","","Mostly Cloudy"
"1996-06-28 19:00","1996","06","28","19:00","28.7","","19.8","","59","","23","","11","","24.1","","99.60","","36","","","","Mostly Cloudy"
"1996-06-28 20:00","1996","06","28","20:00","27.0","","19.0","","62","","21","","13","","19.3","","99.60","","34","","","","Mostly Cloudy"
"1996-06-28 21:00","1996","06","28","21:00","25.5","","19.2","","68","","21","","11","","16.1","","99.63","","32","","","","Mostly Cloudy"
"1996-06-28 22:00","1996","06","28","22:00","24.4","","18.6","","70","","20","","9","","16.1","","99.63","","31","","","","Mainly Clear"
"1996-06-28 23:00","1996","06","28","23:00","23.7","","18.4","","72","","21","","11","","12.9","","99.60","","30","","","","Mainly Clear"
"1996-06-29 00:00","1996","06","29","00:00","23.2","","18.7","","76","","21","","13","","9.7","","99.56","","30","","","","Haze"
"1996-06-29 01:00","1996","06","29","01:00","23.1","","18.7","","76","","21","","13","","8.0","","99.53","","30","","","","Haze"
"1996-06-29 02:00","1996","06","29","02:00","22.9","","18.4","","76","","22","","13","","8.0","","99.53","","29","","","","Haze"
"1996-06-29 03:00","1996","06","29","03:00","23.3","","19.2","","78","","22","","13","","8.0","","99.46","","30","","","","Haze"
"1996-06-29 04:00","1996","06","29","04:00","23.6","","18.4","","73","","23","","17","","9.7","","99.43","","30","","","","Haze"
"1996-06-29 05:00","1996","06","29","05:00","23.9","","17.4","","67","","25","","17","","9.7","","99.46","","29","","","","Haze"
"1996-06-29 06:00","1996","06","29","06:00","23.9","","17.0","","65","","25","","11","","11.3","","99.53","","29","","","","Mostly Cloudy"
"1996-06-29 07:00","1996","06","29","07:00","25.1","","17.2","","62","","26","","19","","19.3","","99.53","","31","","","","Mostly Cloudy"
"1996-06-29 08:00","1996","06","29","08:00","25.9","","17.5","","60","","26","","17","","12.9","","99.50","","32","","","","Mostly Cloudy"
"1996-06-29 09:00","1996","06","29","09:00","27.3","","17.8","","56","","24","","19","","9.7","","99.43","","33","","","","Haze"
"1996-06-29 10:00","1996","06","29","10:00","28.7","","18.0","","52","","26","","28","","9.7","","99.46","","35","","","","Haze"
"1996-06-29 11:00","1996","06","29","11:00","30.1","","18.7","","51","","25","","26","","9.7","","99.43","","37","","","","Haze"
"1996-06-29 12:00","1996","06","29","12:00","31.4","","18.9","","47","","25","","32","","12.9","","99.36","","38","","","","Mostly Cloudy"
"1996-06-29 13:00","1996","06","29","13:00","32.1","","18.2","","44","","25","","30","","12.9","","99.26","","38","","","","Mostly Cloudy"
"1996-06-29 14:00","1996","06","29","14:00","32.4","","18.8","","45","","24","","30","","16.1","","99.20","","39","","","","Mostly Cloudy"
"1996-06-29 15:00","1996","06","29","15:00","32.4","","18.4","","43","","25","","33","","16.1","","99.10","","39","","","","Mostly Cloudy"
"1996-06-29 16:00","1996","06","29","16:00","33.1","","17.7","","40","","24","","32","","19.3","","99.03","","39","","","","Mostly Cloudy"
"1996-06-29 17:00","1996","06","29","17:00","33.2","","17.4","","39","","25","","32","","19.3","","98.96","","39","","","","Mostly Cloudy"
"1996-06-29 18:00","1996","06","29","18:00","33.4","","17.6","","39","","25","","33","","19.3","","98.93","","39","","","","Mostly Cloudy"
"1996-06-29 19:00","1996","06","29","19:00","32.2","","17.9","","43","","25","","30","","19.3","","98.90","","38","","","","Mostly Cloudy"
"1996-06-29 20:00","1996","06","29","20:00","30.7","","18.2","","47","","25","","22","","16.1","","98.90","","37","","","","Mainly Clear"
"1996-06-29 21:00","1996","06","29","21:00","28.8","","18.5","","54","","23","","15","","16.1","","99.00","","35","","","","Mainly Clear"
"1996-06-29 22:00","1996","06","29","22:00","28.5","","18.4","","54","","23","","20","","16.1","","99.06","","35","","","","Mainly Clear"
"1996-06-29 23:00","1996","06","29","23:00","28.2","","18.3","","55","","24","","22","","16.1","","99.03","","34","","","","Clear"
"1996-06-30 00:00","1996","06","30","00:00","27.6","","18.5","","58","","24","","22","","12.9","","98.93","","34","","","","Clear"
"1996-06-30 01:00","1996","06","30","01:00","27.4","","18.4","","58","","24","","26","","11.3","","98.93","","34","","","","Mainly Clear"
"1996-06-30 02:00","1996","06","30","02:00","26.9","","18.6","","60","","24","","22","","11.3","","98.86","","33","","","","Mainly Clear"
"1996-06-30 03:00","1996","06","30","03:00","26.7","","18.6","","61","","25","","24","","11.3","","98.83","","33","","","","Mainly Clear"
"1996-06-30 04:00","1996","06","30","04:00","26.3","","18.8","","63","","25","","22","","9.7","","98.83","","33","","","","Haze"
"1996-06-30 05:00","1996","06","30","05:00","25.7","","18.9","","66","","25","","20","","9.7","","98.83","","32","","","","Haze"
"1996-06-30 06:00","1996","06","30","06:00","24.9","","19.0","","70","","23","","19","","9.7","","98.83","","32","","","","Haze"
"1996-06-30 07:00","1996","06","30","07:00","26.3","","19.7","","67","","26","","19","","9.7","","98.93","","34","","","","Haze"
"1996-06-30 08:00","1996","06","30","08:00","27.4","","20.5","","66","","27","","19","","9.7","","98.93","","35","","","","Haze"
"1996-06-30 09:00","1996","06","30","09:00","28.4","","21.0","","64","","28","","26","","12.9","","99.00","","37","","","","Mainly Clear"
"1996-06-30 10:00","1996","06","30","10:00","29.5","","21.3","","61","","31","","20","","19.3","","99.00","","38","","","","Mainly Clear"
"1996-06-30 11:00","1996","06","30","11:00","30.7","","21.4","","58","","30","","19","","24.1","","99.00","","39","","","","Mainly Clear"
"1996-06-30 12:00","1996","06","30","12:00","31.7","","19.8","","49","","29","","24","","24.1","","99.00","","39","","","","Clear"
"1996-06-30 13:00","1996","06","30","13:00","33.0","","18.7","","43","","32","","19","","24.1","","99.00","","40","","","","Mainly Clear"
"1996-06-30 14:00","1996","06","30","14:00","33.9","","18.4","","40","","32","","24","","24.1","","99.00","","40","","","","Mainly Clear"
"1996-06-30 15:00","1996","06","30","15:00","33.6","","17.7","","39","","30","","24","","25.0","","98.96","","39","","","","Mainly Clear"
"1996-06-30 16:00","1996","06","30","16:00","33.5","","17.5","","39","","29","","22","","25.0","","98.93","","39","","","","Mainly Clear"
"1996-06-30 17:00","1996","06","30","17:00","32.9","","16.9","","38","","30","","20","","25.0","","98.90","","38","","","","Mainly Clear"
"1996-06-30 18:00","1996","06","30","18:00","32.3","","15.9","","37","","28","","28","","25.0","","98.93","","37","","","","Mainly Clear"
"1996-06-30 19:00","1996","06","30","19:00","31.1","","17.5","","44","","29","","24","","25.0","","98.93","","37","","","","Mainly Clear"
"1996-06-30 20:00","1996","06","30","20:00","30.0","","16.6","","44","","31","","17","","25.0","","98.96","","35","","","","Clear"
"1996-06-30 21:00","1996","06","30","21:00","28.6","","16.0","","46","","30","","11","","25.0","","99.03","","33","","","","Mainly Clear"
"1996-06-30 22:00","1996","06","30","22:00","27.9","","14.9","","45","","30","","22","","25.0","","99.06","","32","","","","Clear"
"1996-06-30 23:00","1996","06","30","23:00","26.8","","15.0","","48","","31","","19","","24.1","","99.13","","31","","","","Clear"
