"Station Name","WINDSOR A"
"Province","ONTARIO"
"Latitude","42.28"
"Longitude","-82.96"
"Elevation","189.60"
"Climate Identifier","6139525"
"WMO Identifier","71538"
"TC Identifier","YQG"
"All times are specified in Local Standard Time (LST). Add 1 hour to adjust for Daylight Saving Time where and when it is observed."

"Legend"
"E","Estimated"
"M","Missing"
"NA","Not Available"

"Date/Time","Year","Month","Day","Time","Temp (°C)","Temp Flag","Dew Point Temp (°C)","Dew Point Temp Flag","Rel Hum (%)","Rel Hum Flag","Wind Dir (10s deg)","Wind Dir Flag","Wind Spd (km/h)","Wind Spd Flag","Visibility (km)","Visibility Flag","Stn Press (kPa)","Stn Press Flag","Hmdx","Hmdx Flag","Wind Chill","Wind Chill Flag","Weather"
"2002-03-01 00:00","2002","03","01","00:00","-2.0","","-8.3","","62","","24","","20","","24.1","","99.63","","","","-8","","Mostly Cloudy"
"2002-03-01 01:00","2002","03","01","01:00","-2.3","","-8.1","","64","","24","","22","","24.1","","99.66","","","","-8","","Cloudy"
"2002-03-01 02:00","2002","03","01","02:00","-2.1","","-7.7","","65","","24","","22","","24.1","","99.74","","","","-8","","Mostly Cloudy"
"2002-03-01 03:00","2002","03","01","03:00","-1.9","","-7.6","","65","","25","","20","","24.1","","99.77","","","","-8","","Cloudy"
"2002-03-01 04:00","2002","03","01","04:00","-1.8","","-7.3","","66","","25","","24","","19.3","","99.85","","","","-8","","Snow"
"2002-03-01 05:00","2002","03","01","05:00","-1.8","","-7.0","","68","","25","","20","","16.1","","99.91","","","","-8","","Snow"
"2002-03-01 06:00","2002","03","01","06:00","-2.3","","-6.8","","71","","25","","17","","24.1","","99.99","","","","-8","","Mostly Cloudy"
"2002-03-01 07:00","2002","03","01","07:00","-2.1","","-7.0","","69","","25","","22","","24.1","","100.06","","","","-8","","Mostly Cloudy"
"2002-03-01 08:00","2002","03","01","08:00","-2.2","","-7.2","","69","","25","","17","","24.1","","100.17","","","","-8","","Mainly Clear"
"2002-03-01 09:00","2002","03","01","09:00","-1.4","","-7.1","","65","","27","","17","","24.1","","100.27","","","","-7","","Clear"
"2002-03-01 10:00","2002","03","01","10:00","-0.6","","-7.5","","60","","29","","20","","24.1","","100.37","","","","-6","","Mainly Clear"
"2002-03-01 11:00","2002","03","01","11:00","-0.2","","-8.5","","54","","27","","28","","24.1","","100.48","","","","-7","","Mostly Cloudy"
"2002-03-01 12:00","2002","03","01","12:00","0.4","","-8.4","","52","","27","","22","","24.1","","100.50","","","","","","Mainly Clear"
"2002-03-01 13:00","2002","03","01","13:00","0.7","","-8.1","","52","","25","","15","","24.1","","100.53","","","","","","Mainly Clear"
"2002-03-01 14:00","2002","03","01","14:00","1.5","","-8.0","","49","","23","","15","","24.1","","100.52","","","","","","Mainly Clear"
"2002-03-01 15:00","2002","03","01","15:00","1.9","","-7.9","","48","","22","","13","","24.1","","100.55","","","","","","Mostly Cloudy"
"2002-03-01 16:00","2002","03","01","16:00","1.3","","-6.9","","54","","20","","15","","19.3","","100.57","","","","","","Cloudy"
"2002-03-01 17:00","2002","03","01","17:00","1.0","","-7.5","","53","","21","","9","","19.3","","100.57","","","","","","Mostly Cloudy"
"2002-03-01 18:00","2002","03","01","18:00","0.7","","-7.3","","55","","20","","6","","24.1","","100.59","","","","","","Mostly Cloudy"
"2002-03-01 19:00","2002","03","01","19:00","-0.4","","-6.8","","62","","","","0","","24.1","","100.66","","","","","","Mainly Clear"
"2002-03-01 20:00","2002","03","01","20:00","-0.7","","-6.5","","65","","14","","6","","24.1","","100.67","","","","-3","","Mainly Clear"
"2002-03-01 21:00","2002","03","01","21:00","-1.4","","-6.2","","70","","12","","9","","24.1","","100.61","","","","-5","","Mainly Clear"
"2002-03-01 22:00","2002","03","01","22:00","-1.7","","-5.9","","73","","13","","13","","24.1","","100.55","","","","-6","","Mainly Clear"
"2002-03-01 23:00","2002","03","01","23:00","-1.8","","-5.0","","79","","12","","13","","24.1","","100.49","","","","-6","","Mainly Clear"
"2002-03-02 00:00","2002","03","02","00:00","-1.6","","-5.1","","77","","9","","15","","24.1","","100.35","","","","-6","","Mostly Cloudy"
"2002-03-02 01:00","2002","03","02","01:00","-0.6","","-3.9","","78","","11","","19","","24.1","","100.25","","","","-6","","Mostly Cloudy"
"2002-03-02 02:00","2002","03","02","02:00","-0.1","","-3.6","","77","","11","","19","","24.1","","100.20","","","","-5","","Cloudy"
"2002-03-02 03:00","2002","03","02","03:00","0.1","","-3.3","","78","","10","","15","","24.1","","100.19","","","","","","Cloudy"
"2002-03-02 04:00","2002","03","02","04:00","0.1","","-3.1","","79","","8","","13","","24.1","","100.10","","","","","","Cloudy"
"2002-03-02 05:00","2002","03","02","05:00","0.4","","-3.0","","78","","9","","17","","24.1","","100.06","","","","","","Cloudy"
"2002-03-02 06:00","2002","03","02","06:00","0.2","","-2.6","","81","","9","","13","","24.1","","100.04","","","","","","Cloudy"
"2002-03-02 07:00","2002","03","02","07:00","1.2","","-2.9","","74","","15","","13","","16.1","","99.95","","","","","","Cloudy"
"2002-03-02 08:00","2002","03","02","08:00","0.8","","-1.5","","85","","12","","22","","2.0","","99.79","","","","","","Snow"
"2002-03-02 09:00","2002","03","02","09:00","1.3","","-1.1","","84","","12","","19","","12.9","","99.70","","","","","","Mostly Cloudy"
"2002-03-02 10:00","2002","03","02","10:00","4.1","","-1.6","","66","","14","","15","","19.3","","99.58","","","","","","Mostly Cloudy"
"2002-03-02 11:00","2002","03","02","11:00","4.4","","-3.7","","56","","16","","17","","24.1","","99.47","","","","","","Mostly Cloudy"
"2002-03-02 12:00","2002","03","02","12:00","4.6","","-3.5","","56","","17","","15","","24.1","","99.33","","","","","","Cloudy"
"2002-03-02 13:00","2002","03","02","13:00","5.2","","-2.1","","59","","16","","7","","24.1","","99.17","","","","","","Rain Showers"
"2002-03-02 14:00","2002","03","02","14:00","6.7","","-1.0","","58","","18","","13","","24.1","","98.98","","","","","","Rain Showers"
"2002-03-02 15:00","2002","03","02","15:00","7.0","","0.4","","63","","20","","9","","24.1","","98.75","","","","","","Cloudy"
"2002-03-02 16:00","2002","03","02","16:00","6.5","","1.5","","70","","16","","7","","19.3","","98.62","","","","","","Cloudy"
"2002-03-02 17:00","2002","03","02","17:00","6.2","","2.7","","78","","18","","11","","6.4","","98.52","","","","","","Rain Showers"
"2002-03-02 18:00","2002","03","02","18:00","6.4","","5.4","","93","","18","","22","","4.0","","98.37","","","","","","Rain Showers,Fog"
"2002-03-02 19:00","2002","03","02","19:00","6.6","","4.9","","89","","18","","20","","11.3","","98.26","","","","","","Rain Showers"
"2002-03-02 20:00","2002","03","02","20:00","6.3","","5.1","","92","","18","","24","","6.4","","98.12","","","","","","Moderate Rain Showers,Fog"
"2002-03-02 21:00","2002","03","02","21:00","6.2","","5.1","","93","","18","","20","","8.0","","97.98","","","","","","Moderate Rain Showers,Fog"
"2002-03-02 22:00","2002","03","02","22:00","5.9","","5.0","","94","","22","","24","","8.0","","97.96","","","","","","Moderate Rain Showers,Fog"
"2002-03-02 23:00","2002","03","02","23:00","5.9","","4.9","","93","","20","","24","","8.0","","97.76","","","","","","Moderate Rain Showers,Fog"
"2002-03-03 00:00","2002","03","03","00:00","6.1","","5.1","","93","","21","","15","","9.7","","97.68","","","","","","Rain Showers,Fog"
"2002-03-03 01:00","2002","03","03","01:00","6.2","","5.3","","94","","20","","20","","4.8","","97.61","","","","","","Rain,Fog"
"2002-03-03 02:00","2002","03","03","02:00","5.9","","5.0","","94","","22","","22","","6.4","","97.56","","","","","","Rain,Fog"
"2002-03-03 03:00","2002","03","03","03:00","5.4","","3.8","","89","","26","","22","","16.1","","97.56","","","","","","Rain"
"2002-03-03 04:00","2002","03","03","04:00","4.2","","1.5","","83","","26","","19","","19.3","","97.61","","","","","","Cloudy"
"2002-03-03 05:00","2002","03","03","05:00","3.3","","0.5","","82","","24","","26","","19.3","","97.68","","","","","","Cloudy"
"2002-03-03 06:00","2002","03","03","06:00","2.4","","-0.9","","79","","25","","30","","19.3","","97.73","","","","","","Cloudy"
"2002-03-03 07:00","2002","03","03","07:00","1.8","","-1.5","","79","","24","","28","","19.3","","97.75","","","","","","Cloudy"
"2002-03-03 08:00","2002","03","03","08:00","1.1","","-1.9","","80","","24","","35","","24.1","","97.80","","","","","","Mostly Cloudy"
"2002-03-03 09:00","2002","03","03","09:00","0.1","","-4.2","","73","","27","","39","","24.1","","97.95","","","","","","Mostly Cloudy"
"2002-03-03 10:00","2002","03","03","10:00","-1.0","","-5.8","","70","","28","","28","","24.1","","98.07","","","","-8","","Mostly Cloudy"
"2002-03-03 11:00","2002","03","03","11:00","-0.7","","-6.7","","64","","28","","33","","24.1","","98.23","","","","-8","","Mostly Cloudy"
"2002-03-03 12:00","2002","03","03","12:00","-0.4","","-7.9","","57","","29","","30","","25.0","","98.38","","","","-7","","Mostly Cloudy"
"2002-03-03 13:00","2002","03","03","13:00","0.3","","-8.6","","51","","29","","37","","25.0","","98.48","","","","","","Mostly Cloudy"
"2002-03-03 14:00","2002","03","03","14:00","-1.4","","-11.4","","46","","26","","39","","25.0","","98.51","","","","-9","","Mostly Cloudy"
"2002-03-03 15:00","2002","03","03","15:00","-1.4","","-10.5","","50","","29","","30","","25.0","","98.63","","","","-8","","Mostly Cloudy"
"2002-03-03 16:00","2002","03","03","16:00","-2.9","","-8.1","","67","","30","","35","","4.8","","98.77","","","","-11","","Snow Showers"
"2002-03-03 17:00","2002","03","03","17:00","-3.8","","-8.1","","72","","28","","28","","19.3","","98.87","","","","-11","","Snow Showers"
"2002-03-03 18:00","2002","03","03","18:00","-3.8","","-9.3","","66","","27","","33","","16.1","","98.96","","","","-12","","Snow Showers"
"2002-03-03 19:00","2002","03","03","19:00","-4.4","","-11.1","","59","","28","","32","","6.4","","99.13","","","","-12","","Snow Showers"
"2002-03-03 20:00","2002","03","03","20:00","-5.9","","-10.9","","68","","28","","32","","24.1","","99.20","","","","-14","","Snow Showers"
"2002-03-03 21:00","2002","03","03","21:00","-6.4","","-13.9","","55","","29","","32","","25.0","","99.26","","","","-15","","Mainly Clear"
"2002-03-03 22:00","2002","03","03","22:00","-7.0","","-14.2","","56","","31","","24","","25.0","","99.32","","","","-15","","Mainly Clear"
"2002-03-03 23:00","2002","03","03","23:00","-7.7","","-14.4","","59","","30","","22","","25.0","","99.34","","","","-15","","Mainly Clear"
"2002-03-04 00:00","2002","03","04","00:00","-7.9","","-15.0","","57","","31","","22","","25.0","","99.34","","","","-16","","Snow Showers"
"2002-03-04 01:00","2002","03","04","01:00","-8.5","","-14.9","","60","","28","","24","","25.0","","99.36","","","","-17","","Mainly Clear"
"2002-03-04 02:00","2002","03","04","02:00","-8.6","","-14.8","","61","","29","","17","","25.0","","99.39","","","","-15","","Mainly Clear"
"2002-03-04 03:00","2002","03","04","03:00","-10.1","","-14.0","","73","","26","","24","","19.3","","99.39","","","","-19","","Snow Showers"
"2002-03-04 04:00","2002","03","04","04:00","-10.9","","-15.2","","71","","27","","22","","24.1","","99.43","","","","-19","","Snow Showers"
"2002-03-04 05:00","2002","03","04","05:00","-11.9","","-16.2","","70","","25","","24","","24.1","","99.48","","","","-21","","Snow Showers"
"2002-03-04 06:00","2002","03","04","06:00","-12.3","","-16.8","","69","","27","","20","","9.7","","99.52","","","","-21","","Snow Showers"
"2002-03-04 07:00","2002","03","04","07:00","-12.7","","-17.2","","69","","27","","24","","8.0","","99.58","","","","-22","","Snow Showers"
"2002-03-04 08:00","2002","03","04","08:00","-12.4","","-16.9","","69","","26","","26","","6.4","","99.64","","","","-22","","Snow Showers"
"2002-03-04 09:00","2002","03","04","09:00","-11.9","","-17.0","","66","","27","","22","","16.1","","99.72","","","","-21","","Snow Showers"
"2002-03-04 10:00","2002","03","04","10:00","-11.2","","-16.4","","65","","27","","19","","24.1","","99.75","","","","-19","","Mainly Clear"
"2002-03-04 11:00","2002","03","04","11:00","-10.1","","-15.8","","63","","25","","20","","19.3","","99.79","","","","-18","","Mostly Cloudy"
"2002-03-04 12:00","2002","03","04","12:00","-8.9","","-16.3","","55","","27","","26","","24.1","","99.81","","","","-18","","Mostly Cloudy"
"2002-03-04 13:00","2002","03","04","13:00","-9.3","","-16.7","","55","","27","","30","","24.1","","99.82","","","","-19","","Snow Showers"
"2002-03-04 14:00","2002","03","04","14:00","-8.6","","-18.3","","45","","28","","24","","24.1","","99.79","","","","-17","","Mostly Cloudy"
"2002-03-04 15:00","2002","03","04","15:00","-8.7","","-18.8","","44","","26","","28","","25.0","","99.78","","","","-18","","Mostly Cloudy"
"2002-03-04 16:00","2002","03","04","16:00","-8.9","","-19.2","","43","","25","","24","","25.0","","99.80","","","","-17","","Mostly Cloudy"
"2002-03-04 17:00","2002","03","04","17:00","-8.7","","-21.8","","34","","26","","20","","25.0","","99.82","","","","-16","","Mostly Cloudy"
"2002-03-04 18:00","2002","03","04","18:00","-9.4","","-21.7","","36","","25","","22","","25.0","","99.85","","","","-17","","Mostly Cloudy"
"2002-03-04 19:00","2002","03","04","19:00","-9.7","","-21.5","","38","","27","","22","","25.0","","99.89","","","","-18","","Mainly Clear"
"2002-03-04 20:00","2002","03","04","20:00","-10.0","","-20.9","","41","","25","","26","","25.0","","99.95","","","","-19","","Mainly Clear"
"2002-03-04 21:00","2002","03","04","21:00","-10.0","","-19.6","","45","","25","","17","","25.0","","99.98","","","","-17","","Mainly Clear"
"2002-03-04 22:00","2002","03","04","22:00","-9.5","","-18.0","","50","","26","","15","","25.0","","100.02","","","","-16","","Mostly Cloudy"
"2002-03-04 23:00","2002","03","04","23:00","-9.2","","-17.5","","51","","25","","17","","25.0","","99.98","","","","-16","","Snow Showers"
"2002-03-05 00:00","2002","03","05","00:00","-9.3","","-14.2","","67","","24","","20","","16.1","","99.94","","","","-17","","Snow Showers"
"2002-03-05 01:00","2002","03","05","01:00","-9.2","","-13.5","","71","","23","","20","","19.3","","99.90","","","","-17","","Snow Showers"
"2002-03-05 02:00","2002","03","05","02:00","-8.7","","-11.9","","78","","23","","13","","24.1","","99.85","","","","-15","","Snow Showers"
"2002-03-05 03:00","2002","03","05","03:00","-8.2","","-10.3","","85","","21","","7","","8.0","","99.80","","","","-12","","Snow Showers"
"2002-03-05 04:00","2002","03","05","04:00","-7.3","","-9.3","","86","","22","","15","","4.0","","99.78","","","","-13","","Snow"
"2002-03-05 05:00","2002","03","05","05:00","-6.8","","-9.6","","80","","24","","15","","12.9","","99.79","","","","-13","","Snow"
"2002-03-05 06:00","2002","03","05","06:00","-6.5","","-9.8","","77","","24","","19","","19.3","","99.83","","","","-13","","Snow"
"2002-03-05 07:00","2002","03","05","07:00","-6.4","","-9.3","","80","","24","","19","","12.9","","99.84","","","","-13","","Snow"
"2002-03-05 08:00","2002","03","05","08:00","-5.9","","-9.1","","78","","25","","20","","19.3","","99.90","","","","-13","","Snow Showers"
"2002-03-05 09:00","2002","03","05","09:00","-5.3","","-9.1","","75","","25","","22","","19.3","","99.92","","","","-12","","Mostly Cloudy"
"2002-03-05 10:00","2002","03","05","10:00","-3.9","","-9.0","","68","","25","","22","","19.3","","99.94","","","","-10","","Snow Showers"
"2002-03-05 11:00","2002","03","05","11:00","-3.6","","-10.4","","59","","27","","26","","19.3","","100.01","","","","-11","","Snow Showers"
"2002-03-05 12:00","2002","03","05","12:00","-3.0","","-9.6","","60","","27","","32","","19.3","","100.05","","","","-11","","Snow Showers"
"2002-03-05 13:00","2002","03","05","13:00","-2.2","","-8.4","","62","","26","","22","","24.1","","99.99","","","","-8","","Snow Showers"
"2002-03-05 14:00","2002","03","05","14:00","-1.4","","-8.5","","58","","25","","28","","24.1","","99.96","","","","-8","","Cloudy"
"2002-03-05 15:00","2002","03","05","15:00","-0.7","","-8.3","","56","","27","","24","","24.1","","99.93","","","","-7","","Cloudy"
"2002-03-05 16:00","2002","03","05","16:00","-0.2","","-8.7","","53","","27","","22","","24.1","","99.92","","","","-6","","Mostly Cloudy"
"2002-03-05 17:00","2002","03","05","17:00","0.2","","-8.1","","54","","25","","17","","24.1","","99.90","","","","","","Cloudy"
"2002-03-05 18:00","2002","03","05","18:00","0.5","","-8.4","","51","","26","","24","","24.1","","99.91","","","","","","Cloudy"
"2002-03-05 19:00","2002","03","05","19:00","-0.2","","-6.8","","61","","24","","22","","19.3","","99.93","","","","-6","","Snow Showers"
"2002-03-05 20:00","2002","03","05","20:00","-1.7","","-4.3","","82","","24","","15","","2.4","","99.93","","","","-7","","Snow Showers"
"2002-03-05 21:00","2002","03","05","21:00","-2.1","","-3.4","","91","","23","","13","","1.6","","99.91","","","","-7","","Snow"
"2002-03-05 22:00","2002","03","05","22:00","-2.0","","-3.3","","91","","9","","4","","6.4","","99.83","","","","-3","","Snow,Fog"
"2002-03-05 23:00","2002","03","05","23:00","-2.0","","-3.2","","91","","","","0","","4.8","","99.85","","","","","","Fog"
"2002-03-06 00:00","2002","03","06","00:00","-1.9","","-3.2","","91","","10","","7","","4.8","","99.77","","","","-5","","Fog"
"2002-03-06 01:00","2002","03","06","01:00","-1.7","","-2.8","","92","","9","","9","","2.4","","99.66","","","","-5","","Fog"
"2002-03-06 02:00","2002","03","06","02:00","-1.6","","-2.5","","94","","9","","6","","2.4","","99.58","","","","-4","","Fog"
"2002-03-06 03:00","2002","03","06","03:00","-1.9","","-2.7","","94","","6","","6","","0.8","","99.50","","","","-4","","Freezing Fog"
"2002-03-06 04:00","2002","03","06","04:00","-1.4","","-2.3","","94","","2","","4","","2.0","","99.47","","","","-3","","Fog"
"2002-03-06 05:00","2002","03","06","05:00","-1.6","","-2.4","","94","","1","","4","","0.4","","99.47","","","","-3","","Freezing Fog"
"2002-03-06 06:00","2002","03","06","06:00","-2.3","","-2.8","","96","","","","0","","0.0","","99.49","","","","","","Freezing Fog"
"2002-03-06 07:00","2002","03","06","07:00","-2.9","","-3.5","","96","","2","","6","","0.0","","99.55","","","","-5","","Freezing Fog"
"2002-03-06 08:00","2002","03","06","08:00","-2.4","","-3.0","","96","","","","0","","0.4","","99.54","","","","","","Freezing Fog"
"2002-03-06 09:00","2002","03","06","09:00","-1.4","","-2.5","","92","","","","0","","1.2","","99.53","","","","","","Fog"
"2002-03-06 10:00","2002","03","06","10:00","1.5","","-0.4","","87","","","","0","","6.4","","99.57","","","","","","Fog"
"2002-03-06 11:00","2002","03","06","11:00","4.8","","-0.8","","67","","24","","13","","12.9","","99.55","","","","","","Mostly Cloudy"
"2002-03-06 12:00","2002","03","06","12:00","7.7","","-0.5","","56","","26","","19","","16.1","","99.55","","","","","","Mainly Clear"
"2002-03-06 13:00","2002","03","06","13:00","9.4","","-0.9","","49","","4","","15","","24.1","","99.56","","","","","","Mainly Clear"
"2002-03-06 14:00","2002","03","06","14:00","4.2","","-0.1","","74","","6","","20","","9.7","","99.56","","","","","","Haze"
"2002-03-06 15:00","2002","03","06","15:00","4.6","","-0.1","","72","","6","","20","","9.7","","99.58","","","","","","Haze"
"2002-03-06 16:00","2002","03","06","16:00","4.9","","-0.5","","68","","6","","19","","9.7","","99.62","","","","","","Haze"
"2002-03-06 17:00","2002","03","06","17:00","5.3","","0.0","","69","","6","","13","","9.7","","99.61","","","","","","Haze"
"2002-03-06 18:00","2002","03","06","18:00","3.7","","-0.7","","73","","8","","11","","9.7","","99.66","","","","","","Haze"
"2002-03-06 19:00","2002","03","06","19:00","2.3","","-1.3","","77","","5","","15","","11.3","","99.71","","","","","","Mostly Cloudy"
"2002-03-06 20:00","2002","03","06","20:00","1.4","","-1.4","","82","","5","","15","","11.3","","99.78","","","","","","Mostly Cloudy"
"2002-03-06 21:00","2002","03","06","21:00","0.1","","-2.1","","85","","5","","19","","11.3","","99.86","","","","","","Mostly Cloudy"
"2002-03-06 22:00","2002","03","06","22:00","-0.5","","-2.3","","88","","4","","22","","8.0","","99.92","","","","-6","","Fog"
"2002-03-06 23:00","2002","03","06","23:00","-0.3","","-2.4","","86","","6","","17","","8.0","","99.93","","","","-5","","Fog"
"2002-03-07 00:00","2002","03","07","00:00","-0.3","","-2.7","","84","","6","","17","","12.9","","99.90","","","","-5","","Cloudy"
"2002-03-07 01:00","2002","03","07","01:00","-0.2","","-2.9","","82","","5","","17","","11.3","","99.94","","","","-5","","Cloudy"
"2002-03-07 02:00","2002","03","07","02:00","-0.2","","-3.1","","81","","4","","26","","11.3","","99.97","","","","-6","","Snow Showers"
"2002-03-07 03:00","2002","03","07","03:00","-0.2","","-4.1","","75","","5","","19","","11.3","","99.93","","","","-5","","Snow Showers"
"2002-03-07 04:00","2002","03","07","04:00","-0.4","","-3.9","","77","","4","","26","","19.3","","99.94","","","","-7","","Snow Showers"
"2002-03-07 05:00","2002","03","07","05:00","-0.6","","-3.6","","80","","4","","20","","19.3","","100.04","","","","-6","","Snow Showers"
"2002-03-07 06:00","2002","03","07","06:00","-0.7","","-3.5","","81","","5","","22","","16.1","","100.08","","","","-6","","Snow Showers"
"2002-03-07 07:00","2002","03","07","07:00","-1.0","","-3.3","","84","","5","","24","","3.2","","100.09","","","","-7","","Snow Showers"
"2002-03-07 08:00","2002","03","07","08:00","-1.1","","-3.2","","86","","5","","20","","2.0","","100.15","","","","-7","","Snow"
"2002-03-07 09:00","2002","03","07","09:00","-1.2","","-3.0","","88","","5","","24","","6.4","","100.19","","","","-7","","Snow"
"2002-03-07 10:00","2002","03","07","10:00","-0.8","","-2.8","","86","","5","","19","","9.7","","100.23","","","","-6","","Snow"
"2002-03-07 11:00","2002","03","07","11:00","-0.6","","-3.0","","84","","6","","22","","11.3","","100.23","","","","-6","","Cloudy"
"2002-03-07 12:00","2002","03","07","12:00","-0.4","","-2.8","","84","","6","","22","","11.3","","100.18","","","","-6","","Cloudy"
"2002-03-07 13:00","2002","03","07","13:00","-0.2","","-2.7","","83","","7","","15","","11.3","","100.24","","","","-5","","Cloudy"
"2002-03-07 14:00","2002","03","07","14:00","-0.4","","-2.8","","84","","5","","20","","11.3","","100.19","","","","-6","","Cloudy"
"2002-03-07 15:00","2002","03","07","15:00","-0.1","","-2.8","","82","","6","","19","","9.7","","100.17","","","","-5","","Haze"
"2002-03-07 16:00","2002","03","07","16:00","0.1","","-2.6","","82","","5","","19","","6.4","","100.24","","","","","","Haze"
"2002-03-07 17:00","2002","03","07","17:00","-0.2","","-2.2","","86","","6","","19","","4.8","","100.24","","","","-5","","Snow,Fog"
"2002-03-07 18:00","2002","03","07","18:00","-0.3","","-2.1","","88","","6","","19","","4.8","","100.26","","","","-5","","Freezing Drizzle,Fog"
"2002-03-07 19:00","2002","03","07","19:00","-0.3","","-2.1","","88","","8","","15","","8.0","","100.29","","","","-5","","Freezing Drizzle,Fog"
"2002-03-07 20:00","2002","03","07","20:00","0.0","","-1.8","","88","","8","","15","","8.0","","100.28","","","","-4","","Fog"
"2002-03-07 21:00","2002","03","07","21:00","0.1","","-2.0","","86","","8","","9","","8.0","","100.29","","","","","","Fog"
"2002-03-07 22:00","2002","03","07","22:00","0.1","","-2.1","","85","","10","","15","","9.7","","100.27","","","","","","Fog"
"2002-03-07 23:00","2002","03","07","23:00","0.2","","-1.8","","86","","10","","13","","11.3","","100.23","","","","","","Cloudy"
"2002-03-08 00:00","2002","03","08","00:00","0.2","","-1.5","","88","","10","","15","","8.0","","100.18","","","","","","Fog"
"2002-03-08 01:00","2002","03","08","01:00","0.2","","-1.2","","90","","10","","17","","4.8","","100.13","","","","","","Fog"
"2002-03-08 02:00","2002","03","08","02:00","0.2","","-1.1","","91","","9","","15","","4.8","","100.02","","","","","","Fog"
"2002-03-08 03:00","2002","03","08","03:00","0.2","","-1.1","","91","","9","","11","","4.8","","99.96","","","","","","Fog"
"2002-03-08 04:00","2002","03","08","04:00","0.1","","-1.1","","92","","11","","9","","6.4","","99.90","","","","","","Fog"
"2002-03-08 05:00","2002","03","08","05:00","0.3","","-0.9","","92","","11","","9","","6.4","","99.82","","","","","","Fog"
"2002-03-08 06:00","2002","03","08","06:00","0.7","","-0.6","","91","","13","","11","","8.0","","99.77","","","","","","Fog"
"2002-03-08 07:00","2002","03","08","07:00","1.3","","-0.2","","90","","14","","9","","4.8","","99.69","","","","","","Rain Showers,Fog"
"2002-03-08 08:00","2002","03","08","08:00","4.9","","2.5","","84","","21","","9","","11.3","","99.67","","","","","","Rain Showers"
"2002-03-08 09:00","2002","03","08","09:00","7.8","","3.6","","75","","18","","15","","19.3","","99.61","","","","","","Rain Showers"
"2002-03-08 10:00","2002","03","08","10:00","10.6","","3.8","","63","","21","","22","","24.1","","99.58","","","","","","Cloudy"
"2002-03-08 11:00","2002","03","08","11:00","12.2","","4.9","","61","","21","","30","","24.1","","99.55","","","","","","Cloudy"
"2002-03-08 12:00","2002","03","08","12:00","13.5","","5.4","","58","","22","","32","","24.1","","99.50","","","","","","Cloudy"
"2002-03-08 13:00","2002","03","08","13:00","16.2","","6.6","","53","","21","","37","","24.1","","99.42","","","","","","Cloudy"
"2002-03-08 14:00","2002","03","08","14:00","16.7","","6.8","","52","","22","","37","","24.1","","99.39","","","","","","Mostly Cloudy"
"2002-03-08 15:00","2002","03","08","15:00","15.5","","6.1","","53","","23","","24","","24.1","","99.41","","","","","","Rain Showers"
"2002-03-08 16:00","2002","03","08","16:00","14.0","","6.4","","60","","18","","17","","24.1","","99.37","","","","","","Cloudy"
"2002-03-08 17:00","2002","03","08","17:00","14.2","","6.9","","61","","22","","15","","24.1","","99.39","","","","","","Rain Showers"
"2002-03-08 18:00","2002","03","08","18:00","14.3","","5.6","","56","","21","","17","","24.1","","99.42","","","","","","Mostly Cloudy"
"2002-03-08 19:00","2002","03","08","19:00","14.3","","5.4","","55","","21","","17","","24.1","","99.47","","","","","","Mostly Cloudy"
"2002-03-08 20:00","2002","03","08","20:00","14.6","","6.0","","56","","20","","20","","24.1","","99.49","","","","","","Mostly Cloudy"
"2002-03-08 21:00","2002","03","08","21:00","15.2","","5.7","","53","","20","","26","","24.1","","99.51","","","","","","Mostly Cloudy"
"2002-03-08 22:00","2002","03","08","22:00","14.6","","5.4","","54","","20","","30","","24.1","","99.52","","","","","","Mostly Cloudy"
"2002-03-08 23:00","2002","03","08","23:00","14.6","","5.3","","54","","21","","26","","24.1","","99.52","","","","","","Mostly Cloudy"
"2002-03-09 00:00","2002","03","09","00:00","14.0","","5.3","","56","","20","","20","","25.0","","99.49","","","","","","Mostly Cloudy"
"2002-03-09 01:00","2002","03","09","01:00","13.1","","5.1","","58","","19","","17","","25.0","","99.45","","","","","","Mostly Cloudy"
"2002-03-09 02:00","2002","03","09","02:00","12.4","","4.9","","60","","18","","20","","24.1","","99.34","","","","","","Mostly Cloudy"
"2002-03-09 03:00","2002","03","09","03:00","11.7","","4.8","","63","","18","","20","","24.1","","99.25","","","","","","Cloudy"
"2002-03-09 04:00","2002","03","09","04:00","11.6","","4.4","","61","","19","","19","","24.1","","99.20","","","","","","Cloudy"
"2002-03-09 05:00","2002","03","09","05:00","12.8","","4.0","","55","","18","","26","","24.1","","99.10","","","","","","Cloudy"
"2002-03-09 06:00","2002","03","09","06:00","13.2","","4.2","","54","","18","","24","","24.1","","99.03","","","","","","Cloudy"
"2002-03-09 07:00","2002","03","09","07:00","12.8","","4.1","","55","","19","","30","","25.0","","98.96","","","","","","Cloudy"
"2002-03-09 08:00","2002","03","09","08:00","12.7","","3.7","","54","","18","","28","","24.1","","98.90","","","","","","Cloudy"
"2002-03-09 09:00","2002","03","09","09:00","13.4","","4.6","","55","","18","","39","","24.1","","98.82","","","","","","Cloudy"
"2002-03-09 10:00","2002","03","09","10:00","14.5","","5.5","","55","","19","","41","","19.3","","98.70","","","","","","Cloudy"
"2002-03-09 11:00","2002","03","09","11:00","13.1","","5.7","","61","","21","","37","","8.0","","98.64","","","","","","Rain Showers"
"2002-03-09 12:00","2002","03","09","12:00","11.6","","9.0","","84","","18","","37","","6.4","","98.43","","","","","","Rain Showers"
"2002-03-09 13:00","2002","03","09","13:00","12.4","","9.3","","81","","19","","46","","19.3","","98.23","","","","","","Rain Showers"
"2002-03-09 14:00","2002","03","09","14:00","12.4","","9.7","","84","","19","","48","","19.3","","97.99","","","","","","Cloudy"
"2002-03-09 15:00","2002","03","09","15:00","13.5","","10.7","","83","","19","","56","","16.1","","97.65","","","","","","Rain Showers"
"2002-03-09 16:00","2002","03","09","16:00","9.4","","7.6","","89","","24","","56","","4.8","","97.72","","","","","","Rain Showers"
"2002-03-09 17:00","2002","03","09","17:00","4.8","","0.2","","72","","25","","70","","24.1","","98.01","","","","","","Mostly Cloudy"
"2002-03-09 18:00","2002","03","09","18:00","1.2","","-4.6","","65","","25","","57","","24.1","","98.33","","","","","","Mostly Cloudy"
"2002-03-09 19:00","2002","03","09","19:00","-0.2","","-7.6","","57","","25","","61","","24.1","","98.58","","","","-9","","Snow Showers"
"2002-03-09 20:00","2002","03","09","20:00","-1.1","","-7.8","","60","","25","","46","","19.3","","98.74","","","","-9","","Snow Showers"
"2002-03-09 21:00","2002","03","09","21:00","-1.5","","-8.9","","57","","26","","52","","19.3","","98.91","","","","-10","","Snow Showers"
"2002-03-09 22:00","2002","03","09","22:00","-2.0","","-7.8","","64","","25","","44","","11.3","","99.07","","","","-10","","Snow Showers"
"2002-03-09 23:00","2002","03","09","23:00","-3.6","","-6.1","","83","","26","","44","","0.4","","99.22","","","","-13","","Heavy Snow,Blowing Snow"
"2002-03-10 00:00","2002","03","10","00:00","-3.8","","-6.3","","83","","25","","41","","2.4","","99.25","","","","-13","","Snow,Blowing Snow"
"2002-03-10 01:00","2002","03","10","01:00","-2.8","","-9.2","","61","","26","","46","","19.3","","99.32","","","","-12","","Snow"
"2002-03-10 02:00","2002","03","10","02:00","-3.1","","-10.2","","58","","26","","39","","19.3","","99.39","","","","-11","","Snow"
"2002-03-10 03:00","2002","03","10","03:00","-3.9","","-9.6","","65","","27","","52","","4.8","","99.42","","","","-14","","Snow"
"2002-03-10 04:00","2002","03","10","04:00","-4.3","","-10.6","","61","","28","","39","","9.7","","99.48","","","","-13","","Snow"
"2002-03-10 05:00","2002","03","10","05:00","-4.4","","-13.4","","49","","29","","48","","19.3","","99.58","","","","-14","","Mostly Cloudy"
"2002-03-10 06:00","2002","03","10","06:00","-5.0","","-12.5","","56","","28","","37","","24.1","","99.56","","","","-14","","Mostly Cloudy"
"2002-03-10 07:00","2002","03","10","07:00","-5.7","","-12.5","","59","","27","","44","","24.1","","99.70","","","","-15","","Mostly Cloudy"
"2002-03-10 08:00","2002","03","10","08:00","-5.8","","-13.1","","56","","27","","44","","9.7","","99.81","","","","-16","","Snow Showers"
"2002-03-10 09:00","2002","03","10","09:00","-5.7","","-12.4","","59","","29","","43","","8.0","","99.92","","","","-15","","Snow Showers"
"2002-03-10 10:00","2002","03","10","10:00","-6.0","","-11.8","","63","","29","","46","","16.1","","100.01","","","","-16","","Snow Showers"
"2002-03-10 11:00","2002","03","10","11:00","-5.1","","-12.8","","55","","28","","50","","16.1","","100.10","","","","-15","","Snow Showers"
"2002-03-10 12:00","2002","03","10","12:00","-4.7","","-13.0","","52","","29","","46","","16.1","","100.16","","","","-14","","Snow Showers"
"2002-03-10 13:00","2002","03","10","13:00","-4.1","","-13.3","","49","","28","","54","","24.1","","100.23","","","","-14","","Snow Showers"
"2002-03-10 14:00","2002","03","10","14:00","-3.9","","-13.2","","48","","29","","37","","25.0","","100.27","","","","-12","","Mostly Cloudy"
"2002-03-10 15:00","2002","03","10","15:00","-4.2","","-13.7","","48","","29","","41","","24.1","","100.32","","","","-13","","Mostly Cloudy"
"2002-03-10 16:00","2002","03","10","16:00","-3.4","","-13.2","","47","","28","","43","","24.1","","100.39","","","","-12","","Mostly Cloudy"
"2002-03-10 17:00","2002","03","10","17:00","-4.0","","-13.1","","49","","28","","41","","24.1","","100.45","","","","-13","","Mostly Cloudy"
"2002-03-10 18:00","2002","03","10","18:00","-4.3","","-13.0","","51","","29","","32","","20.9","","100.53","","","","-12","","Mostly Cloudy"
"2002-03-10 19:00","2002","03","10","19:00","-4.6","","-12.8","","53","","29","","33","","25.0","","100.61","","","","-13","","Mainly Clear"
"2002-03-10 20:00","2002","03","10","20:00","-5.1","","-13.4","","52","","29","","22","","25.0","","100.66","","","","-12","","Mainly Clear"
"2002-03-10 21:00","2002","03","10","21:00","-5.3","","-13.0","","55","","30","","20","","25.0","","100.68","","","","-12","","Mainly Clear"
"2002-03-10 22:00","2002","03","10","22:00","-5.5","","-13.0","","55","","29","","19","","25.0","","100.74","","","","-12","","Mainly Clear"
"2002-03-10 23:00","2002","03","10","23:00","-5.7","","-12.7","","58","","27","","17","","25.0","","100.71","","","","-12","","Mainly Clear"
"2002-03-11 00:00","2002","03","11","00:00","-5.8","","-12.4","","60","","27","","11","","25.0","","100.67","","","","-11","","Mainly Clear"
"2002-03-11 01:00","2002","03","11","01:00","-5.9","","-11.8","","63","","25","","9","","24.1","","100.67","","","","-10","","Clear"
"2002-03-11 02:00","2002","03","11","02:00","-6.1","","-11.4","","66","","25","","9","","24.1","","100.71","","","","-10","","Clear"
"2002-03-11 03:00","2002","03","11","03:00","-6.0","","-11.3","","66","","26","","9","","24.1","","100.70","","","","-10","","Clear"
"2002-03-11 04:00","2002","03","11","04:00","-5.7","","-11.0","","66","","25","","7","","24.1","","100.66","","","","-9","","Mainly Clear"
"2002-03-11 05:00","2002","03","11","05:00","-5.5","","-10.5","","68","","23","","4","","24.1","","100.67","","","","-7","","Mainly Clear"
"2002-03-11 06:00","2002","03","11","06:00","-5.9","","-10.3","","71","","16","","4","","24.1","","100.66","","","","-8","","Mostly Cloudy"
"2002-03-11 07:00","2002","03","11","07:00","-5.9","","-10.0","","73","","17","","4","","24.1","","100.67","","","","-8","","Mostly Cloudy"
"2002-03-11 08:00","2002","03","11","08:00","-4.7","","-10.0","","66","","20","","6","","24.1","","100.69","","","","-7","","Mostly Cloudy"
"2002-03-11 09:00","2002","03","11","09:00","-3.7","","-9.5","","64","","18","","9","","24.1","","100.68","","","","-7","","Cloudy"
"2002-03-11 10:00","2002","03","11","10:00","-2.1","","-8.5","","62","","18","","20","","24.1","","100.58","","","","-8","","Cloudy"
"2002-03-11 11:00","2002","03","11","11:00","-1.0","","-8.8","","55","","19","","22","","24.1","","100.50","","","","-7","","Mostly Cloudy"
"2002-03-11 12:00","2002","03","11","12:00","0.0","","-8.6","","52","","19","","26","","24.1","","100.42","","","","-6","","Mostly Cloudy"
"2002-03-11 13:00","2002","03","11","13:00","0.4","","-7.6","","55","","20","","30","","24.1","","100.29","","","","","","Mostly Cloudy"
"2002-03-11 14:00","2002","03","11","14:00","1.1","","-7.4","","53","","19","","30","","24.1","","100.15","","","","","","Mostly Cloudy"
"2002-03-11 15:00","2002","03","11","15:00","1.8","","-7.1","","52","","20","","26","","24.1","","100.02","","","","","","Mostly Cloudy"
"2002-03-11 16:00","2002","03","11","16:00","2.1","","-8.0","","47","","20","","28","","24.1","","99.93","","","","","","Cloudy"
"2002-03-11 17:00","2002","03","11","17:00","1.9","","-6.4","","54","","18","","17","","19.3","","99.81","","","","","","Cloudy"
"2002-03-11 18:00","2002","03","11","18:00","1.3","","-5.9","","59","","17","","15","","19.3","","99.76","","","","","","Cloudy"
"2002-03-11 19:00","2002","03","11","19:00","1.2","","-5.7","","60","","17","","13","","24.1","","99.73","","","","","","Cloudy"
"2002-03-11 20:00","2002","03","11","20:00","1.6","","-5.3","","60","","19","","9","","24.1","","99.65","","","","","","Cloudy"
"2002-03-11 21:00","2002","03","11","21:00","1.7","","-4.8","","62","","19","","6","","24.1","","99.57","","","","","","Mostly Cloudy"
"2002-03-11 22:00","2002","03","11","22:00","1.9","","-4.8","","61","","20","","11","","24.1","","99.49","","","","","","Mostly Cloudy"
"2002-03-11 23:00","2002","03","11","23:00","2.2","","-4.7","","60","","22","","15","","24.1","","99.50","","","","","","Mostly Cloudy"
"2002-03-12 00:00","2002","03","12","00:00","2.0","","-4.8","","61","","22","","9","","24.1","","99.48","","","","","","Cloudy"
"2002-03-12 01:00","2002","03","12","01:00","2.2","","-4.8","","60","","22","","13","","24.1","","99.49","","","","","","Cloudy"
"2002-03-12 02:00","2002","03","12","02:00","2.6","","-3.7","","63","","23","","9","","24.1","","99.51","","","","","","Cloudy"
"2002-03-12 03:00","2002","03","12","03:00","2.7","","-2.7","","68","","22","","11","","24.1","","99.49","","","","","","Cloudy"
"2002-03-12 04:00","2002","03","12","04:00","2.4","","-1.8","","74","","21","","9","","24.1","","99.42","","","","","","Cloudy"
"2002-03-12 05:00","2002","03","12","05:00","1.7","","-1.8","","78","","22","","11","","24.1","","99.47","","","","","","Mainly Clear"
"2002-03-12 06:00","2002","03","12","06:00","1.1","","-2.1","","79","","22","","11","","19.3","","99.55","","","","","","Mainly Clear"
"2002-03-12 07:00","2002","03","12","07:00","0.7","","-2.2","","81","","23","","9","","16.1","","99.56","","","","","","Mainly Clear"
"2002-03-12 08:00","2002","03","12","08:00","1.9","","-1.8","","76","","26","","9","","16.1","","99.62","","","","","","Mainly Clear"
"2002-03-12 09:00","2002","03","12","09:00","3.2","","-1.2","","73","","22","","9","","12.9","","99.65","","","","","","Mainly Clear"
"2002-03-12 10:00","2002","03","12","10:00","5.2","","-1.5","","62","","25","","4","","16.1","","99.64","","","","","","Clear"
"2002-03-12 11:00","2002","03","12","11:00","6.3","","-1.0","","60","","18","","4","","19.3","","99.65","","","","","","Mainly Clear"
"2002-03-12 12:00","2002","03","12","12:00","7.4","","-0.5","","57","","18","","9","","19.3","","99.63","","","","","","Mainly Clear"
"2002-03-12 13:00","2002","03","12","13:00","8.3","","-0.5","","54","","18","","9","","24.1","","99.57","","","","","","Mainly Clear"
"2002-03-12 14:00","2002","03","12","14:00","9.0","","-0.6","","51","","15","","4","","24.1","","99.47","","","","","","Mainly Clear"
"2002-03-12 15:00","2002","03","12","15:00","8.3","","1.2","","61","","17","","17","","24.1","","99.45","","","","","","Mostly Cloudy"
"2002-03-12 16:00","2002","03","12","16:00","8.0","","0.8","","60","","18","","15","","24.1","","99.47","","","","","","Mostly Cloudy"
"2002-03-12 17:00","2002","03","12","17:00","7.5","","-0.4","","57","","19","","15","","24.1","","99.44","","","","","","Mostly Cloudy"
"2002-03-12 18:00","2002","03","12","18:00","6.9","","0.0","","61","","18","","13","","24.1","","99.39","","","","","","Mostly Cloudy"
"2002-03-12 19:00","2002","03","12","19:00","4.9","","0.3","","72","","17","","11","","24.1","","99.40","","","","","","Mainly Clear"
"2002-03-12 20:00","2002","03","12","20:00","3.5","","-0.5","","75","","18","","7","","24.1","","99.41","","","","","","Clear"
"2002-03-12 21:00","2002","03","12","21:00","2.5","","-1.5","","75","","17","","7","","19.3","","99.37","","","","","","Clear"
"2002-03-12 22:00","2002","03","12","22:00","1.9","","-1.9","","76","","13","","4","","24.1","","99.33","","","","","","Clear"
"2002-03-12 23:00","2002","03","12","23:00","1.9","","-2.0","","75","","","","0","","24.1","","99.32","","","","","","Mostly Cloudy"
"2002-03-13 00:00","2002","03","13","00:00","1.4","","-1.9","","79","","14","","7","","19.3","","99.21","","","","","","Cloudy"
"2002-03-13 01:00","2002","03","13","01:00","1.7","","-1.8","","78","","14","","6","","24.1","","99.18","","","","","","Cloudy"
"2002-03-13 02:00","2002","03","13","02:00","2.1","","-1.2","","79","","14","","6","","19.3","","99.15","","","","","","Cloudy"
"2002-03-13 03:00","2002","03","13","03:00","2.6","","-1.0","","77","","13","","4","","19.3","","99.08","","","","","","Mostly Cloudy"
"2002-03-13 04:00","2002","03","13","04:00","2.3","","-0.4","","82","","16","","6","","19.3","","98.99","","","","","","Mostly Cloudy"
"2002-03-13 05:00","2002","03","13","05:00","1.5","","-1.0","","83","","","","0","","19.3","","98.96","","","","","","Mostly Cloudy"
"2002-03-13 06:00","2002","03","13","06:00","0.5","","-1.5","","86","","","","0","","12.9","","98.93","","","","","","Mainly Clear"
"2002-03-13 07:00","2002","03","13","07:00","1.2","","-1.2","","84","","","","0","","9.7","","98.90","","","","","","Haze"
"2002-03-13 08:00","2002","03","13","08:00","2.8","","-0.4","","79","","","","0","","9.7","","98.92","","","","","","Haze"
"2002-03-13 09:00","2002","03","13","09:00","4.3","","0.7","","77","","23","","9","","8.0","","98.91","","","","","","Haze"
"2002-03-13 10:00","2002","03","13","10:00","6.5","","2.4","","75","","21","","13","","11.3","","98.85","","","","","","Mainly Clear"
"2002-03-13 11:00","2002","03","13","11:00","8.9","","3.8","","70","","23","","15","","16.1","","98.77","","","","","","Mainly Clear"
"2002-03-13 12:00","2002","03","13","12:00","10.9","","4.8","","66","","21","","17","","16.1","","98.66","","","","","","Clear"
"2002-03-13 13:00","2002","03","13","13:00","11.5","","4.9","","64","","23","","24","","16.1","","98.64","","","","","","Clear"
"2002-03-13 14:00","2002","03","13","14:00","12.4","","5.4","","62","","21","","26","","16.1","","98.58","","","","","","Clear"
"2002-03-13 15:00","2002","03","13","15:00","13.5","","5.6","","59","","21","","28","","19.3","","98.47","","","","","","Clear"
"2002-03-13 16:00","2002","03","13","16:00","14.1","","5.3","","55","","22","","28","","19.3","","98.50","","","","","","Clear"
"2002-03-13 17:00","2002","03","13","17:00","14.4","","5.0","","53","","22","","24","","24.1","","98.49","","","","","","Mainly Clear"
"2002-03-13 18:00","2002","03","13","18:00","13.5","","5.2","","57","","22","","11","","24.1","","98.53","","","","","","Mostly Cloudy"
"2002-03-13 19:00","2002","03","13","19:00","11.7","","4.2","","60","","22","","11","","24.1","","98.61","","","","","","Mostly Cloudy"
"2002-03-13 20:00","2002","03","13","20:00","10.9","","3.9","","62","","23","","11","","24.1","","98.68","","","","","","Mostly Cloudy"
"2002-03-13 21:00","2002","03","13","21:00","9.8","","3.3","","64","","22","","9","","24.1","","98.73","","","","","","Mostly Cloudy"
"2002-03-13 22:00","2002","03","13","22:00","11.4","","2.5","","54","","34","","20","","24.1","","98.83","","","","","","Mostly Cloudy"
"2002-03-13 23:00","2002","03","13","23:00","10.2","","3.0","","61","","33","","19","","24.1","","98.97","","","","","","Mostly Cloudy"
"2002-03-14 00:00","2002","03","14","00:00","9.2","","3.1","","66","","1","","11","","16.1","","99.01","","","","","","Mostly Cloudy"
"2002-03-14 01:00","2002","03","14","01:00","4.4","","1.2","","80","","5","","30","","16.1","","99.14","","","","","","Cloudy"
"2002-03-14 02:00","2002","03","14","02:00","3.2","","-0.1","","79","","4","","32","","19.3","","99.24","","","","","","Mostly Cloudy"
"2002-03-14 03:00","2002","03","14","03:00","2.6","","-0.9","","78","","4","","28","","24.1","","99.28","","","","","","Mostly Cloudy"
"2002-03-14 04:00","2002","03","14","04:00","2.2","","-1.5","","76","","4","","24","","24.1","","99.32","","","","","","Cloudy"
"2002-03-14 05:00","2002","03","14","05:00","1.4","","-1.8","","79","","5","","20","","24.1","","99.40","","","","","","Mainly Clear"
"2002-03-14 06:00","2002","03","14","06:00","1.0","","-2.3","","79","","6","","20","","25.0","","99.47","","","","","","Mostly Cloudy"
"2002-03-14 07:00","2002","03","14","07:00","0.7","","-2.7","","78","","4","","22","","24.1","","99.57","","","","","","Mostly Cloudy"
"2002-03-14 08:00","2002","03","14","08:00","1.1","","-2.7","","76","","5","","20","","24.1","","99.64","","","","","","Mostly Cloudy"
"2002-03-14 09:00","2002","03","14","09:00","2.0","","-2.3","","73","","5","","17","","24.1","","99.61","","","","","","Mainly Clear"
"2002-03-14 10:00","2002","03","14","10:00","2.5","","-2.3","","71","","5","","17","","24.1","","99.63","","","","","","Mostly Cloudy"
"2002-03-14 11:00","2002","03","14","11:00","3.2","","-2.1","","68","","5","","19","","24.1","","99.60","","","","","","Mostly Cloudy"
"2002-03-14 12:00","2002","03","14","12:00","4.0","","-1.8","","66","","7","","17","","24.1","","99.54","","","","","","Mostly Cloudy"
"2002-03-14 13:00","2002","03","14","13:00","6.1","","-0.9","","61","","7","","24","","24.1","","99.39","","","","","","Mostly Cloudy"
"2002-03-14 14:00","2002","03","14","14:00","7.3","","0.2","","61","","7","","22","","19.3","","99.25","","","","","","Cloudy"
"2002-03-14 15:00","2002","03","14","15:00","8.1","","0.4","","58","","7","","22","","24.1","","99.15","","","","","","Mostly Cloudy"
"2002-03-14 16:00","2002","03","14","16:00","8.0","","0.8","","60","","7","","26","","19.3","","99.06","","","","","","Mostly Cloudy"
"2002-03-14 17:00","2002","03","14","17:00","6.7","","0.0","","62","","8","","20","","19.3","","99.00","","","","","","Cloudy"
"2002-03-14 18:00","2002","03","14","18:00","6.9","","0.0","","61","","9","","26","","19.3","","98.83","","","","","","Cloudy"
"2002-03-14 19:00","2002","03","14","19:00","6.2","","-2.8","","52","","9","","20","","24.1","","98.80","","","","","","Cloudy"
"2002-03-14 20:00","2002","03","14","20:00","5.2","","-1.3","","63","","10","","15","","24.1","","98.72","","","","","","Cloudy"
"2002-03-14 21:00","2002","03","14","21:00","5.7","","-0.9","","62","","10","","28","","24.1","","98.58","","","","","","Cloudy"
"2002-03-14 22:00","2002","03","14","22:00","4.9","","-0.1","","70","","11","","26","","19.3","","98.59","","","","","","Cloudy"
"2002-03-14 23:00","2002","03","14","23:00","3.5","","0.0","","78","","10","","15","","19.3","","98.51","","","","","","Mostly Cloudy"
"2002-03-15 00:00","2002","03","15","00:00","2.7","","0.2","","84","","9","","11","","24.1","","98.47","","","","","","Mainly Clear"
"2002-03-15 01:00","2002","03","15","01:00","2.5","","0.3","","85","","7","","11","","19.3","","98.41","","","","","","Mostly Cloudy"
"2002-03-15 02:00","2002","03","15","02:00","3.3","","0.8","","84","","8","","9","","19.3","","98.37","","","","","","Mostly Cloudy"
"2002-03-15 03:00","2002","03","15","03:00","3.4","","1.0","","84","","11","","7","","19.3","","98.35","","","","","","Mostly Cloudy"
"2002-03-15 04:00","2002","03","15","04:00","3.9","","1.5","","84","","11","","4","","19.3","","98.29","","","","","","Mostly Cloudy"
"2002-03-15 05:00","2002","03","15","05:00","4.6","","2.2","","84","","17","","9","","19.3","","98.27","","","","","","Mostly Cloudy"
"2002-03-15 06:00","2002","03","15","06:00","8.0","","4.2","","77","","19","","15","","24.1","","98.25","","","","","","Mostly Cloudy"
"2002-03-15 07:00","2002","03","15","07:00","10.4","","5.5","","72","","22","","20","","19.3","","98.26","","","","","","Mostly Cloudy"
"2002-03-15 08:00","2002","03","15","08:00","12.3","","7.0","","70","","22","","24","","19.3","","98.31","","","","","","Mostly Cloudy"
"2002-03-15 09:00","2002","03","15","09:00","12.7","","7.6","","71","","23","","22","","16.1","","98.34","","","","","","Mostly Cloudy"
"2002-03-15 10:00","2002","03","15","10:00","16.0","","9.0","","63","","24","","33","","16.1","","98.38","","","","","","Mostly Cloudy"
"2002-03-15 11:00","2002","03","15","11:00","16.9","","8.6","","58","","26","","37","","14.5","","98.43","","","","","","Mostly Cloudy"
"2002-03-15 12:00","2002","03","15","12:00","16.4","","4.4","","45","","27","","44","","14.5","","98.58","","","","","","Cloudy"
"2002-03-15 13:00","2002","03","15","13:00","12.2","","7.7","","74","","22","","15","","19.3","","98.44","","","","","","Rain Showers"
"2002-03-15 14:00","2002","03","15","14:00","14.0","","8.4","","69","","25","","32","","24.1","","98.52","","","","","","Cloudy"
"2002-03-15 15:00","2002","03","15","15:00","14.7","","7.5","","62","","26","","26","","24.1","","98.57","","","","","","Mostly Cloudy"
"2002-03-15 16:00","2002","03","15","16:00","11.3","","5.9","","69","","29","","32","","19.3","","98.69","","","","","","Mostly Cloudy"
"2002-03-15 17:00","2002","03","15","17:00","11.7","","4.8","","63","","27","","26","","24.1","","98.72","","","","","","Mostly Cloudy"
"2002-03-15 18:00","2002","03","15","18:00","11.3","","2.9","","56","","30","","24","","24.1","","98.78","","","","","","Mostly Cloudy"
"2002-03-15 19:00","2002","03","15","19:00","9.1","","1.7","","60","","32","","24","","24.1","","98.97","","","","","","Cloudy"
"2002-03-15 20:00","2002","03","15","20:00","7.1","","-0.4","","59","","32","","24","","19.3","","99.03","","","","","","Cloudy"
"2002-03-15 21:00","2002","03","15","21:00","6.2","","-0.7","","61","","32","","20","","24.1","","99.14","","","","","","Cloudy"
"2002-03-15 22:00","2002","03","15","22:00","5.1","","-1.7","","61","","33","","24","","24.1","","99.24","","","","","","Cloudy"
"2002-03-15 23:00","2002","03","15","23:00","4.4","","-1.8","","64","","36","","20","","24.1","","99.23","","","","","","Cloudy"
"2002-03-16 00:00","2002","03","16","00:00","2.6","","-2.7","","68","","1","","26","","24.1","","99.29","","","","","","Cloudy"
"2002-03-16 01:00","2002","03","16","01:00","1.6","","-5.0","","61","","36","","20","","24.1","","99.38","","","","","","Cloudy"
"2002-03-16 02:00","2002","03","16","02:00","1.1","","-3.5","","71","","3","","22","","24.1","","99.44","","","","","","Cloudy"
"2002-03-16 03:00","2002","03","16","03:00","0.1","","-4.8","","70","","2","","20","","24.1","","99.57","","","","","","Cloudy"
"2002-03-16 04:00","2002","03","16","04:00","-0.8","","-6.0","","68","","1","","26","","24.1","","99.65","","","","-7","","Cloudy"
"2002-03-16 05:00","2002","03","16","05:00","-1.7","","-7.4","","65","","36","","22","","24.1","","99.77","","","","-8","","Cloudy"
"2002-03-16 06:00","2002","03","16","06:00","-2.4","","-8.3","","64","","1","","24","","24.1","","99.88","","","","-9","","Mostly Cloudy"
"2002-03-16 07:00","2002","03","16","07:00","-3.0","","-8.5","","66","","36","","20","","24.1","","100.00","","","","-9","","Mostly Cloudy"
"2002-03-16 08:00","2002","03","16","08:00","-3.0","","-8.4","","66","","1","","24","","24.1","","100.11","","","","-10","","Mostly Cloudy"
"2002-03-16 09:00","2002","03","16","09:00","-2.1","","-7.8","","65","","4","","22","","24.1","","100.18","","","","-8","","Mostly Cloudy"
"2002-03-16 10:00","2002","03","16","10:00","0.0","","-6.6","","61","","3","","33","","24.1","","100.26","","","","-7","","Mainly Clear"
"2002-03-16 11:00","2002","03","16","11:00","0.0","","-6.7","","61","","36","","26","","24.1","","100.31","","","","-6","","Mainly Clear"
"2002-03-16 12:00","2002","03","16","12:00","0.9","","-6.4","","58","","3","","30","","24.1","","100.35","","","","","","Mainly Clear"
"2002-03-16 13:00","2002","03","16","13:00","1.9","","-6.0","","56","","5","","22","","24.1","","100.34","","","","","","Clear"
"2002-03-16 14:00","2002","03","16","14:00","2.4","","-5.8","","55","","5","","24","","24.1","","100.38","","","","","","Clear"
"2002-03-16 15:00","2002","03","16","15:00","3.3","","-4.8","","55","","5","","26","","24.1","","100.43","","","","","","Clear"
"2002-03-16 16:00","2002","03","16","16:00","3.4","","-4.8","","55","","5","","26","","25.0","","100.41","","","","","","Clear"
"2002-03-16 17:00","2002","03","16","17:00","3.0","","-4.8","","56","","6","","20","","25.0","","100.48","","","","","","Clear"
"2002-03-16 18:00","2002","03","16","18:00","1.6","","-4.9","","62","","5","","24","","25.0","","100.54","","","","","","Clear"
"2002-03-16 19:00","2002","03","16","19:00","0.0","","-5.5","","66","","5","","22","","25.0","","100.56","","","","-6","","Clear"
"2002-03-16 20:00","2002","03","16","20:00","-0.7","","-5.2","","72","","4","","22","","25.0","","100.62","","","","-6","","Clear"
"2002-03-16 21:00","2002","03","16","21:00","-1.3","","-5.6","","73","","4","","24","","25.0","","100.64","","","","-7","","Clear"
"2002-03-16 22:00","2002","03","16","22:00","-1.9","","-5.4","","77","","4","","20","","25.0","","100.68","","","","-8","","Clear"
"2002-03-16 23:00","2002","03","16","23:00","-1.6","","-5.0","","78","","4","","17","","25.0","","100.71","","","","-7","","Clear"
"2002-03-17 00:00","2002","03","17","00:00","-1.5","","-4.5","","80","","5","","20","","24.1","","100.68","","","","-7","","Mainly Clear"
"2002-03-17 01:00","2002","03","17","01:00","-1.4","","-4.5","","79","","5","","19","","24.1","","100.63","","","","-7","","Mostly Cloudy"
"2002-03-17 02:00","2002","03","17","02:00","-1.0","","-4.1","","79","","7","","19","","24.1","","100.56","","","","-6","","Mostly Cloudy"
"2002-03-17 03:00","2002","03","17","03:00","-1.0","","-3.5","","83","","8","","15","","24.1","","100.58","","","","-6","","Mostly Cloudy"
"2002-03-17 04:00","2002","03","17","04:00","-0.6","","-3.7","","80","","9","","20","","24.1","","100.48","","","","-6","","Cloudy"
"2002-03-17 05:00","2002","03","17","05:00","-0.6","","-4.0","","78","","9","","20","","24.1","","100.45","","","","-6","","Cloudy"
"2002-03-17 06:00","2002","03","17","06:00","-0.7","","-3.8","","79","","7","","24","","24.1","","100.40","","","","-7","","Mostly Cloudy"
"2002-03-17 07:00","2002","03","17","07:00","-0.7","","-3.6","","81","","7","","24","","16.1","","100.43","","","","-7","","Cloudy"
"2002-03-17 08:00","2002","03","17","08:00","-0.1","","-3.5","","78","","8","","30","","16.1","","100.32","","","","-7","","Cloudy"
"2002-03-17 09:00","2002","03","17","09:00","0.3","","-3.4","","76","","9","","26","","16.1","","100.25","","","","","","Cloudy"
"2002-03-17 10:00","2002","03","17","10:00","1.1","","-3.6","","71","","9","","28","","19.3","","100.26","","","","","","Cloudy"
"2002-03-17 11:00","2002","03","17","11:00","2.0","","-4.5","","62","","8","","26","","19.3","","100.16","","","","","","Cloudy"
"2002-03-17 12:00","2002","03","17","12:00","1.9","","-4.7","","62","","7","","32","","24.1","","100.06","","","","","","Cloudy"
"2002-03-17 13:00","2002","03","17","13:00","2.5","","-4.8","","59","","9","","33","","24.1","","99.98","","","","","","Cloudy"
"2002-03-17 14:00","2002","03","17","14:00","2.7","","-4.5","","59","","9","","24","","24.1","","99.95","","","","","","Cloudy"
"2002-03-17 15:00","2002","03","17","15:00","3.1","","-4.4","","58","","8","","33","","24.1","","99.85","","","","","","Cloudy"
"2002-03-17 16:00","2002","03","17","16:00","3.3","","-4.1","","58","","8","","33","","24.1","","99.79","","","","","","Cloudy"
"2002-03-17 17:00","2002","03","17","17:00","3.7","","-4.5","","55","","9","","35","","24.1","","99.72","","","","","","Cloudy"
"2002-03-17 18:00","2002","03","17","18:00","3.7","","-4.7","","54","","9","","32","","24.1","","99.64","","","","","","Cloudy"
"2002-03-17 19:00","2002","03","17","19:00","3.5","","-4.4","","56","","9","","30","","24.1","","99.61","","","","","","Rain Showers"
"2002-03-17 20:00","2002","03","17","20:00","3.2","","-3.1","","63","","10","","20","","25.0","","99.55","","","","","","Cloudy"
"2002-03-17 21:00","2002","03","17","21:00","2.6","","0.1","","84","","10","","19","","19.3","","99.54","","","","","","Cloudy"
"2002-03-17 22:00","2002","03","17","22:00","2.4","","1.0","","90","","10","","13","","3.2","","99.43","","","","","","Drizzle,Fog"
"2002-03-17 23:00","2002","03","17","23:00","2.6","","1.6","","93","","11","","7","","2.4","","99.42","","","","","","Drizzle,Fog"
"2002-03-18 00:00","2002","03","18","00:00","2.7","","1.9","","94","","10","","7","","1.2","","99.30","","","","","","Drizzle,Fog"
"2002-03-18 01:00","2002","03","18","01:00","2.7","","2.1","","96","","15","","4","","0.8","","99.32","","","","","","Drizzle,Fog"
"2002-03-18 02:00","2002","03","18","02:00","3.0","","2.4","","96","","20","","7","","0.4","","99.27","","","","","","Drizzle,Fog"
"2002-03-18 03:00","2002","03","18","03:00","3.1","","2.5","","96","","23","","11","","0.4","","99.31","","","","","","Drizzle,Fog"
"2002-03-18 04:00","2002","03","18","04:00","3.1","","2.5","","96","","27","","13","","1.2","","99.33","","","","","","Drizzle,Fog"
"2002-03-18 05:00","2002","03","18","05:00","3.3","","2.6","","95","","27","","17","","4.8","","99.37","","","","","","Fog"
"2002-03-18 06:00","2002","03","18","06:00","3.3","","2.0","","91","","29","","15","","9.7","","99.47","","","","","","Fog"
"2002-03-18 07:00","2002","03","18","07:00","3.4","","1.0","","84","","29","","17","","9.7","","99.58","","","","","","Haze"
"2002-03-18 08:00","2002","03","18","08:00","3.2","","0.4","","82","","30","","22","","16.1","","99.70","","","","","","Cloudy"
"2002-03-18 09:00","2002","03","18","09:00","3.5","","0.0","","78","","29","","20","","11.3","","99.79","","","","","","Mostly Cloudy"
"2002-03-18 10:00","2002","03","18","10:00","4.3","","-0.1","","73","","28","","22","","14.5","","99.88","","","","","","Cloudy"
"2002-03-18 11:00","2002","03","18","11:00","4.8","","-0.3","","70","","29","","22","","16.1","","99.91","","","","","","Cloudy"
"2002-03-18 12:00","2002","03","18","12:00","5.2","","-0.9","","65","","28","","28","","19.3","","99.97","","","","","","Cloudy"
"2002-03-18 13:00","2002","03","18","13:00","5.1","","-1.2","","64","","29","","19","","19.3","","100.00","","","","","","Cloudy"
"2002-03-18 14:00","2002","03","18","14:00","5.5","","-1.1","","62","","30","","24","","19.3","","100.03","","","","","","Cloudy"
"2002-03-18 15:00","2002","03","18","15:00","6.0","","-1.0","","61","","30","","24","","24.1","","100.04","","","","","","Mostly Cloudy"
"2002-03-18 16:00","2002","03","18","16:00","6.1","","-0.9","","61","","31","","22","","12.9","","100.10","","","","","","Mostly Cloudy"
"2002-03-18 17:00","2002","03","18","17:00","5.1","","-1.5","","62","","32","","15","","12.9","","100.12","","","","","","Mostly Cloudy"
"2002-03-18 18:00","2002","03","18","18:00","4.4","","-1.8","","64","","32","","17","","11.3","","100.24","","","","","","Cloudy"
"2002-03-18 19:00","2002","03","18","19:00","4.2","","-2.4","","62","","32","","13","","16.1","","100.35","","","","","","Cloudy"
"2002-03-18 20:00","2002","03","18","20:00","4.2","","-2.3","","63","","36","","11","","24.1","","100.39","","","","","","Mostly Cloudy"
"2002-03-18 21:00","2002","03","18","21:00","3.8","","-2.6","","63","","36","","11","","24.1","","100.48","","","","","","Mostly Cloudy"
"2002-03-18 22:00","2002","03","18","22:00","3.7","","-2.6","","63","","3","","9","","24.1","","100.50","","","","","","Mostly Cloudy"
"2002-03-18 23:00","2002","03","18","23:00","3.2","","-1.6","","71","","6","","11","","24.1","","100.45","","","","","","Mostly Cloudy"
"2002-03-19 00:00","2002","03","19","00:00","2.6","","-2.4","","70","","7","","11","","24.1","","100.44","","","","","","Mostly Cloudy"
"2002-03-19 01:00","2002","03","19","01:00","1.8","","-2.5","","73","","8","","7","","24.1","","100.43","","","","","","Cloudy"
"2002-03-19 02:00","2002","03","19","02:00","1.2","","-2.7","","75","","9","","7","","24.1","","100.46","","","","","","Cloudy"
"2002-03-19 03:00","2002","03","19","03:00","0.7","","-2.7","","78","","14","","4","","24.1","","100.48","","","","","","Cloudy"
"2002-03-19 04:00","2002","03","19","04:00","0.5","","-2.8","","78","","16","","4","","24.1","","100.47","","","","","","Cloudy"
"2002-03-19 05:00","2002","03","19","05:00","0.6","","-3.2","","76","","12","","6","","24.1","","100.47","","","","","","Cloudy"
"2002-03-19 06:00","2002","03","19","06:00","0.3","","-3.0","","78","","10","","9","","24.1","","100.48","","","","","","Cloudy"
"2002-03-19 07:00","2002","03","19","07:00","0.4","","-2.7","","80","","7","","11","","24.1","","100.40","","","","","","Cloudy"
"2002-03-19 08:00","2002","03","19","08:00","1.0","","-2.3","","79","","13","","9","","24.1","","100.48","","","","","","Cloudy"
"2002-03-19 09:00","2002","03","19","09:00","2.0","","-2.0","","75","","14","","13","","24.1","","100.48","","","","","","Cloudy"
"2002-03-19 10:00","2002","03","19","10:00","2.8","","-1.7","","72","","12","","22","","24.1","","100.32","","","","","","Mostly Cloudy"
"2002-03-19 11:00","2002","03","19","11:00","3.7","","-1.6","","68","","13","","17","","24.1","","100.35","","","","","","Mostly Cloudy"
"2002-03-19 12:00","2002","03","19","12:00","4.0","","-1.3","","68","","11","","17","","24.1","","100.30","","","","","","Mostly Cloudy"
"2002-03-19 13:00","2002","03","19","13:00","4.6","","-1.1","","66","","12","","19","","24.1","","100.20","","","","","","Cloudy"
"2002-03-19 14:00","2002","03","19","14:00","4.0","","-1.3","","68","","10","","19","","24.1","","100.13","","","","","","Cloudy"
"2002-03-19 15:00","2002","03","19","15:00","3.9","","-1.4","","68","","11","","17","","24.1","","100.00","","","","","","Cloudy"
"2002-03-19 16:00","2002","03","19","16:00","4.4","","-0.9","","68","","10","","13","","24.1","","100.00","","","","","","Cloudy"
"2002-03-19 17:00","2002","03","19","17:00","4.1","","-0.8","","70","","11","","17","","24.1","","99.99","","","","","","Cloudy"
"2002-03-19 18:00","2002","03","19","18:00","3.8","","-0.9","","71","","10","","15","","24.1","","99.91","","","","","","Cloudy"
"2002-03-19 19:00","2002","03","19","19:00","3.4","","-0.9","","73","","9","","15","","24.1","","99.93","","","","","","Cloudy"
"2002-03-19 20:00","2002","03","19","20:00","2.8","","-1.1","","75","","11","","15","","24.1","","99.87","","","","","","Cloudy"
"2002-03-19 21:00","2002","03","19","21:00","2.5","","-1.0","","78","","7","","9","","24.1","","99.84","","","","","","Cloudy"
"2002-03-19 22:00","2002","03","19","22:00","2.7","","-1.3","","75","","9","","11","","24.1","","99.72","","","","","","Cloudy"
"2002-03-19 23:00","2002","03","19","23:00","3.3","","-0.9","","74","","8","","11","","24.1","","99.62","","","","","","Cloudy"
"2002-03-20 00:00","2002","03","20","00:00","2.7","","0.4","","85","","7","","17","","9.7","","99.48","","","","","","Rain,Fog"
"2002-03-20 01:00","2002","03","20","01:00","3.1","","0.0","","80","","7","","11","","9.7","","99.37","","","","","","Drizzle,Fog"
"2002-03-20 02:00","2002","03","20","02:00","3.3","","0.3","","81","","9","","13","","11.3","","99.27","","","","","","Rain Showers"
"2002-03-20 03:00","2002","03","20","03:00","3.2","","0.6","","83","","4","","7","","11.3","","99.20","","","","","","Rain"
"2002-03-20 04:00","2002","03","20","04:00","2.9","","0.9","","87","","4","","13","","11.3","","99.11","","","","","","Rain"
"2002-03-20 05:00","2002","03","20","05:00","2.8","","1.2","","89","","4","","11","","6.4","","99.01","","","","","","Rain,Fog"
"2002-03-20 06:00","2002","03","20","06:00","3.0","","1.2","","88","","1","","11","","8.0","","99.02","","","","","","Rain,Fog"
"2002-03-20 07:00","2002","03","20","07:00","3.0","","1.3","","89","","36","","11","","4.8","","99.03","","","","","","Rain,Fog"
"2002-03-20 08:00","2002","03","20","08:00","3.2","","1.2","","87","","36","","13","","4.8","","99.06","","","","","","Rain,Fog"
"2002-03-20 09:00","2002","03","20","09:00","3.3","","1.1","","85","","36","","17","","4.8","","99.08","","","","","","Rain,Fog"
"2002-03-20 10:00","2002","03","20","10:00","3.4","","1.4","","87","","34","","20","","4.8","","99.14","","","","","","Drizzle,Fog"
"2002-03-20 11:00","2002","03","20","11:00","4.8","","2.4","","84","","33","","15","","6.4","","99.17","","","","","","Rain,Fog"
"2002-03-20 12:00","2002","03","20","12:00","5.2","","1.9","","79","","35","","22","","8.0","","99.20","","","","","","Haze"
"2002-03-20 13:00","2002","03","20","13:00","5.6","","1.1","","73","","34","","24","","11.3","","99.29","","","","","","Mostly Cloudy"
"2002-03-20 14:00","2002","03","20","14:00","5.7","","0.7","","70","","35","","28","","12.9","","99.35","","","","","","Mostly Cloudy"
"2002-03-20 15:00","2002","03","20","15:00","6.1","","0.2","","66","","35","","19","","16.1","","99.40","","","","","","Mostly Cloudy"
"2002-03-20 16:00","2002","03","20","16:00","6.5","","0.1","","64","","34","","22","","24.1","","99.52","","","","","","Mostly Cloudy"
"2002-03-20 17:00","2002","03","20","17:00","6.0","","0.4","","67","","35","","22","","24.1","","99.61","","","","","","Cloudy"
"2002-03-20 18:00","2002","03","20","18:00","5.5","","-0.2","","67","","36","","20","","24.1","","99.66","","","","","","Cloudy"
"2002-03-20 19:00","2002","03","20","19:00","5.1","","-0.4","","68","","36","","9","","24.1","","99.71","","","","","","Mostly Cloudy"
"2002-03-20 20:00","2002","03","20","20:00","5.0","","-0.8","","66","","2","","6","","24.1","","99.72","","","","","","Mostly Cloudy"
"2002-03-20 21:00","2002","03","20","21:00","4.6","","-0.9","","67","","9","","11","","24.1","","99.77","","","","","","Mostly Cloudy"
"2002-03-20 22:00","2002","03","20","22:00","3.4","","0.4","","81","","18","","9","","24.1","","99.80","","","","","","Mostly Cloudy"
"2002-03-20 23:00","2002","03","20","23:00","3.6","","0.6","","81","","17","","7","","24.1","","99.76","","","","","","Cloudy"
"2002-03-21 00:00","2002","03","21","00:00","3.8","","0.6","","80","","21","","7","","24.1","","99.70","","","","","","Cloudy"
"2002-03-21 01:00","2002","03","21","01:00","4.1","","-2.0","","64","","22","","17","","24.1","","99.70","","","","","","Cloudy"
"2002-03-21 02:00","2002","03","21","02:00","4.4","","-1.9","","64","","25","","15","","24.1","","99.59","","","","","","Mostly Cloudy"
"2002-03-21 03:00","2002","03","21","03:00","4.1","","-2.3","","63","","25","","17","","24.1","","99.56","","","","","","Mostly Cloudy"
"2002-03-21 04:00","2002","03","21","04:00","2.4","","-2.1","","72","","22","","15","","24.1","","99.40","","","","","","Mostly Cloudy"
"2002-03-21 05:00","2002","03","21","05:00","2.7","","-1.7","","73","","24","","20","","24.1","","99.29","","","","","","Mostly Cloudy"
"2002-03-21 06:00","2002","03","21","06:00","2.2","","-1.5","","76","","23","","22","","24.1","","99.24","","","","","","Mainly Clear"
"2002-03-21 07:00","2002","03","21","07:00","2.3","","-1.5","","76","","23","","30","","9.7","","99.19","","","","","","Haze"
"2002-03-21 08:00","2002","03","21","08:00","2.9","","-1.3","","74","","25","","32","","9.7","","99.14","","","","","","Haze"
"2002-03-21 09:00","2002","03","21","09:00","2.9","","-0.7","","77","","25","","26","","8.0","","99.08","","","","","","Rain,Haze"
"2002-03-21 10:00","2002","03","21","10:00","2.9","","0.1","","82","","27","","26","","6.4","","99.11","","","","","","Rain,Fog"
"2002-03-21 11:00","2002","03","21","11:00","-2.7","","-6.9","","73","","33","","39","","6.4","","99.41","","","","-11","","Snow Showers"
"2002-03-21 12:00","2002","03","21","12:00","-3.2","","-9.4","","62","","34","","39","","24.1","","99.53","","","","-12","","Snow Showers"
"2002-03-21 13:00","2002","03","21","13:00","-2.5","","-10.3","","55","","34","","37","","25.0","","99.59","","","","-10","","Mostly Cloudy"
"2002-03-21 14:00","2002","03","21","14:00","-1.5","","-12.7","","42","","32","","28","","25.0","","99.64","","","","-8","","Mostly Cloudy"
"2002-03-21 15:00","2002","03","21","15:00","-2.9","","-14.6","","40","","32","","41","","25.0","","99.68","","","","-11","","Mostly Cloudy"
"2002-03-21 16:00","2002","03","21","16:00","-2.6","","-14.5","","39","","34","","33","","24.1","","99.75","","","","-10","","Mostly Cloudy"
"2002-03-21 17:00","2002","03","21","17:00","-3.8","","-14.0","","45","","32","","32","","24.1","","99.81","","","","-12","","Snow Showers"
"2002-03-21 18:00","2002","03","21","18:00","-4.5","","-13.6","","49","","33","","30","","24.1","","99.87","","","","-12","","Snow Showers"
"2002-03-21 19:00","2002","03","21","19:00","-6.7","","-9.9","","78","","31","","30","","1.6","","100.04","","","","-15","","Snow Showers"
"2002-03-21 20:00","2002","03","21","20:00","-6.2","","-16.0","","46","","31","","20","","24.1","","100.08","","","","-13","","Snow Showers"
"2002-03-21 21:00","2002","03","21","21:00","-6.7","","-16.7","","45","","32","","30","","24.1","","100.17","","","","-15","","Mainly Clear"
"2002-03-21 22:00","2002","03","21","22:00","-7.0","","-17.3","","44","","31","","28","","25.0","","100.24","","","","-15","","Mainly Clear"
"2002-03-21 23:00","2002","03","21","23:00","-7.5","","-16.6","","48","","31","","30","","25.0","","100.26","","","","-16","","Mainly Clear"
"2002-03-22 00:00","2002","03","22","00:00","-7.8","","-16.0","","52","","30","","30","","25.0","","100.24","","","","-17","","Mainly Clear"
"2002-03-22 01:00","2002","03","22","01:00","-8.2","","-15.3","","57","","30","","20","","25.0","","100.22","","","","-16","","Mainly Clear"
"2002-03-22 02:00","2002","03","22","02:00","-8.3","","-16.2","","53","","30","","20","","25.0","","100.19","","","","-16","","Mainly Clear"
"2002-03-22 03:00","2002","03","22","03:00","-8.4","","-15.8","","55","","29","","24","","25.0","","100.15","","","","-17","","Mainly Clear"
"2002-03-22 04:00","2002","03","22","04:00","-8.7","","-15.2","","59","","28","","22","","24.1","","100.10","","","","-17","","Mainly Clear"
"2002-03-22 05:00","2002","03","22","05:00","-8.7","","-15.1","","60","","28","","20","","24.1","","100.08","","","","-16","","Mainly Clear"
"2002-03-22 06:00","2002","03","22","06:00","-8.6","","-15.4","","58","","27","","22","","24.1","","100.09","","","","-16","","Mainly Clear"
"2002-03-22 07:00","2002","03","22","07:00","-8.4","","-15.4","","57","","28","","26","","24.1","","100.08","","","","-17","","Mainly Clear"
"2002-03-22 08:00","2002","03","22","08:00","-7.6","","-15.9","","51","","28","","26","","24.1","","100.09","","","","-16","","Mainly Clear"
"2002-03-22 09:00","2002","03","22","09:00","-7.1","","-14.9","","54","","28","","24","","24.1","","100.04","","","","-15","","Mostly Cloudy"
"2002-03-22 10:00","2002","03","22","10:00","-6.5","","-12.4","","63","","27","","28","","4.0","","100.03","","","","-15","","Snow Showers"
"2002-03-22 11:00","2002","03","22","11:00","-5.6","","-12.3","","59","","27","","33","","8.0","","99.93","","","","-14","","Snow Showers"
"2002-03-22 12:00","2002","03","22","12:00","-4.2","","-12.5","","52","","27","","33","","24.1","","99.84","","","","-12","","Snow Showers"
"2002-03-22 13:00","2002","03","22","13:00","-3.8","","-11.7","","54","","27","","35","","19.3","","99.76","","","","-12","","Snow Showers"
"2002-03-22 14:00","2002","03","22","14:00","-3.4","","-12.4","","50","","29","","37","","19.3","","99.68","","","","-12","","Snow Showers"
"2002-03-22 15:00","2002","03","22","15:00","-3.4","","-10.8","","57","","26","","37","","12.9","","99.63","","","","-12","","Snow Showers"
"2002-03-22 16:00","2002","03","22","16:00","-3.3","","-10.6","","57","","27","","30","","8.0","","99.62","","","","-11","","Snow Showers"
"2002-03-22 17:00","2002","03","22","17:00","-3.5","","-11.2","","55","","27","","33","","16.1","","99.63","","","","-11","","Mostly Cloudy"
"2002-03-22 18:00","2002","03","22","18:00","-3.6","","-11.2","","56","","26","","30","","19.3","","99.62","","","","-11","","Snow Showers"
"2002-03-22 19:00","2002","03","22","19:00","-3.2","","-11.4","","53","","27","","28","","16.1","","99.61","","","","-10","","Snow Showers"
"2002-03-22 20:00","2002","03","22","20:00","-3.1","","-10.9","","55","","26","","19","","24.1","","99.59","","","","-9","","Mostly Cloudy"
"2002-03-22 21:00","2002","03","22","21:00","-3.3","","-10.1","","59","","26","","15","","25.0","","99.58","","","","-8","","Mainly Clear"
"2002-03-22 22:00","2002","03","22","22:00","-4.1","","-10.0","","63","","24","","11","","25.0","","99.54","","","","-9","","Clear"
"2002-03-22 23:00","2002","03","22","23:00","-4.6","","-9.9","","66","","23","","9","","25.0","","99.47","","","","-8","","Clear"
"2002-03-23 00:00","2002","03","23","00:00","-3.6","","-10.4","","59","","23","","19","","25.0","","99.39","","","","-10","","Clear"
"2002-03-23 01:00","2002","03","23","01:00","-3.0","","-10.5","","56","","23","","22","","25.0","","99.30","","","","-9","","Clear"
"2002-03-23 02:00","2002","03","23","02:00","-2.5","","-10.7","","53","","24","","22","","25.0","","99.25","","","","-9","","Clear"
"2002-03-23 03:00","2002","03","23","03:00","-2.7","","-10.8","","54","","24","","24","","25.0","","99.20","","","","-9","","Clear"
"2002-03-23 04:00","2002","03","23","04:00","-2.6","","-11.1","","52","","24","","22","","25.0","","99.14","","","","-9","","Clear"
"2002-03-23 05:00","2002","03","23","05:00","-2.9","","-10.9","","54","","23","","26","","25.0","","99.09","","","","-10","","Clear"
"2002-03-23 06:00","2002","03","23","06:00"
"2002-03-23 07:00","2002","03","23","07:00","-2.7","","-10.8","","54","","25","","30","","24.1","","99.04","","","","-10","","Clear"
"2002-03-23 08:00","2002","03","23","08:00","-1.6","","-10.3","","51","","24","","30","","25.0","","99.04","","","","-9","","Clear"
"2002-03-23 09:00","2002","03","23","09:00","0.0","","-10.0","","47","","25","","33","","25.0","","99.01","","","","-7","","Clear"
"2002-03-23 10:00","2002","03","23","10:00","2.6","","-9.7","","40","","26","","37","","25.0","","98.95","","","","","","Clear"
"2002-03-23 11:00","2002","03","23","11:00","4.1","","-9.9","","35","","27","","46","","25.0","","98.92","","","","","","Clear"
"2002-03-23 12:00","2002","03","23","12:00","5.5","","-9.7","","32","","25","","44","","25.0","","98.87","","","","","","Clear"
"2002-03-23 13:00","2002","03","23","13:00","6.9","","-9.6","","30","","27","","52","","25.0","","98.83","","","","","","Clear"
"2002-03-23 14:00","2002","03","23","14:00","7.8","","-9.3","","29","","25","","50","","25.0","","98.75","","","","","","Mainly Clear"
"2002-03-23 15:00","2002","03","23","15:00","8.8","","-8.8","","28","","28","","54","","25.0","","98.74","","","","","","Mainly Clear"
"2002-03-23 16:00","2002","03","23","16:00","8.8","","-8.2","","29","","29","","48","","24.1","","98.81","","","","","","Clear"
"2002-03-23 17:00","2002","03","23","17:00","8.1","","-10.4","","26","","30","","32","","24.1","","98.88","","","","","","Mainly Clear"
"2002-03-23 18:00","2002","03","23","18:00","6.9","","-11.0","","27","","29","","28","","24.1","","98.96","","","","","","Mostly Cloudy"
"2002-03-23 19:00","2002","03","23","19:00","5.0","","-9.7","","34","","32","","26","","24.1","","99.09","","","","","","Mainly Clear"
"2002-03-23 20:00","2002","03","23","20:00","3.7","","-9.3","","38","","32","","17","","24.1","","99.17","","","","","","Mainly Clear"
"2002-03-23 21:00","2002","03","23","21:00","3.0","","-10.7","","36","","33","","13","","24.1","","99.27","","","","","","Mainly Clear"
"2002-03-23 22:00","2002","03","23","22:00","2.2","","-10.6","","38","","33","","15","","24.1","","99.36","","","","","","Mainly Clear"
"2002-03-23 23:00","2002","03","23","23:00","1.3","","-9.7","","44","","34","","6","","24.1","","99.44","","","","","","Mainly Clear"
"2002-03-24 00:00","2002","03","24","00:00","-0.4","","-8.9","","53","","36","","11","","25.0","","99.44","","","","-4","","Mainly Clear"
"2002-03-24 01:00","2002","03","24","01:00","-1.4","","-8.8","","57","","2","","7","","25.0","","99.47","","","","-4","","Clear"
"2002-03-24 02:00","2002","03","24","02:00","-2.0","","-8.9","","59","","3","","4","","25.0","","99.50","","","","-3","","Mainly Clear"
"2002-03-24 03:00","2002","03","24","03:00","-1.8","","-8.9","","58","","2","","7","","25.0","","99.47","","","","-4","","Mainly Clear"
"2002-03-24 04:00","2002","03","24","04:00","-2.8","","-8.5","","65","","5","","4","","25.0","","99.46","","","","-4","","Mainly Clear"
"2002-03-24 05:00","2002","03","24","05:00","-2.5","","-9.0","","61","","1","","6","","25.0","","99.51","","","","-5","","Mainly Clear"
"2002-03-24 06:00","2002","03","24","06:00","-3.0","","-9.3","","62","","","","0","","25.0","","99.53","","","","","","Mostly Cloudy"
"2002-03-24 07:00","2002","03","24","07:00","-2.5","","-8.1","","65","","9","","4","","25.0","","99.55","","","","-4","","Mostly Cloudy"
"2002-03-24 08:00","2002","03","24","08:00","-1.3","","-7.1","","65","","10","","9","","25.0","","99.56","","","","-5","","Cloudy"
"2002-03-24 09:00","2002","03","24","09:00","-0.1","","-6.6","","62","","11","","13","","25.0","","99.60","","","","-4","","Cloudy"
"2002-03-24 10:00","2002","03","24","10:00","0.8","","-6.6","","58","","11","","9","","25.0","","99.59","","","","","","Cloudy"
"2002-03-24 11:00","2002","03","24","11:00","2.2","","-6.0","","55","","18","","6","","25.0","","99.59","","","","","","Cloudy"
"2002-03-24 12:00","2002","03","24","12:00","3.2","","-5.0","","55","","","","0","","25.0","","99.59","","","","","","Cloudy"
"2002-03-24 13:00","2002","03","24","13:00","3.8","","-4.8","","53","","4","","15","","25.0","","99.55","","","","","","Cloudy"
"2002-03-24 14:00","2002","03","24","14:00","3.0","","-3.9","","60","","6","","11","","25.0","","99.52","","","","","","Cloudy"
"2002-03-24 15:00","2002","03","24","15:00","2.7","","-3.2","","65","","9","","11","","24.1","","99.53","","","","","","Snow Showers"
"2002-03-24 16:00","2002","03","24","16:00","1.7","","-1.1","","82","","18","","13","","2.4","","99.58","","","","","","Snow"
"2002-03-24 17:00","2002","03","24","17:00","0.9","","-0.7","","89","","15","","11","","6.4","","99.59","","","","","","Snow"
"2002-03-24 18:00","2002","03","24","18:00","0.5","","-1.1","","89","","18","","9","","8.0","","99.63","","","","","","Snow"
"2002-03-24 19:00","2002","03","24","19:00","0.2","","-1.3","","90","","18","","6","","8.0","","99.70","","","","","","Fog"
"2002-03-24 20:00","2002","03","24","20:00","0.2","","-1.4","","89","","","","0","","9.7","","99.81","","","","","","Fog"
"2002-03-24 21:00","2002","03","24","21:00","-1.3","","-4.2","","81","","5","","33","","12.9","","99.96","","","","-8","","Snow"
"2002-03-24 22:00","2002","03","24","22:00","-2.1","","-6.4","","72","","4","","37","","12.9","","100.06","","","","-10","","Snow"
"2002-03-24 23:00","2002","03","24","23:00","-2.8","","-7.4","","71","","4","","37","","24.1","","100.06","","","","-11","","Snow"
"2002-03-25 00:00","2002","03","25","00:00","-3.7","","-8.6","","69","","5","","37","","24.1","","100.10","","","","-12","","Snow"
"2002-03-25 01:00","2002","03","25","01:00","-4.2","","-10.0","","64","","4","","33","","25.0","","100.23","","","","-12","","Cloudy"
"2002-03-25 02:00","2002","03","25","02:00","-4.4","","-10.3","","63","","4","","24","","25.0","","100.30","","","","-11","","Snow Showers"
"2002-03-25 03:00","2002","03","25","03:00","-3.9","","-10.1","","62","","5","","32","","25.0","","100.27","","","","-12","","Snow Showers"
"2002-03-25 04:00","2002","03","25","04:00","-3.9","","-10.4","","61","","6","","33","","24.1","","100.25","","","","-12","","Snow Showers"
"2002-03-25 05:00","2002","03","25","05:00","-4.7","","-11.0","","61","","6","","32","","24.1","","100.37","","","","-13","","Snow Showers"
"2002-03-25 06:00","2002","03","25","06:00","-5.4","","-13.3","","54","","6","","33","","24.1","","100.43","","","","-14","","Snow Showers"
"2002-03-25 07:00","2002","03","25","07:00","-5.9","","-11.8","","63","","6","","33","","24.1","","100.40","","","","-15","","Cloudy"
"2002-03-25 08:00","2002","03","25","08:00","-5.7","","-11.3","","65","","7","","33","","24.1","","100.42","","","","-14","","Cloudy"
"2002-03-25 09:00","2002","03","25","09:00","-5.1","","-10.6","","65","","6","","32","","24.1","","100.40","","","","-13","","Cloudy"
"2002-03-25 10:00","2002","03","25","10:00","-4.8","","-10.6","","64","","7","","26","","24.1","","100.49","","","","-12","","Cloudy"
"2002-03-25 11:00","2002","03","25","11:00","-4.1","","-11.3","","57","","7","","35","","24.1","","100.35","","","","-12","","Cloudy"
"2002-03-25 12:00","2002","03","25","12:00","-4.0","","-11.6","","55","","7","","32","","25.0","","100.32","","","","-12","","Cloudy"
"2002-03-25 13:00","2002","03","25","13:00","-3.8","","-12.7","","50","","4","","28","","25.0","","100.44","","","","-11","","Cloudy"
"2002-03-25 14:00","2002","03","25","14:00","-5.7","","-9.6","","74","","3","","28","","1.0","","100.46","","","","-14","","Snow Showers"
"2002-03-25 15:00","2002","03","25","15:00","-5.3","","-8.7","","77","","5","","26","","1.2","","100.38","","","","-13","","Snow"
"2002-03-25 16:00","2002","03","25","16:00","-5.1","","-9.0","","74","","5","","33","","2.4","","100.33","","","","-13","","Snow"
"2002-03-25 17:00","2002","03","25","17:00","-4.9","","-8.6","","75","","5","","32","","1.6","","100.31","","","","-13","","Snow"
"2002-03-25 18:00","2002","03","25","18:00","-4.2","","-10.2","","63","","4","","26","","24.1","","100.37","","","","-11","","Snow"
"2002-03-25 19:00","2002","03","25","19:00","-4.2","","-10.3","","62","","5","","22","","24.1","","100.48","","","","-11","","Mostly Cloudy"
"2002-03-25 20:00","2002","03","25","20:00","-3.8","","-10.4","","60","","7","","22","","24.1","","100.41","","","","-10","","Mostly Cloudy"
"2002-03-25 21:00","2002","03","25","21:00","-3.5","","-10.0","","61","","5","","24","","24.1","","100.45","","","","-10","","Cloudy"
"2002-03-25 22:00","2002","03","25","22:00","-3.2","","-11.9","","51","","7","","22","","24.1","","100.37","","","","-10","","Cloudy"
"2002-03-25 23:00","2002","03","25","23:00","-3.5","","-11.4","","54","","7","","24","","24.1","","100.28","","","","-10","","Cloudy"
"2002-03-26 00:00","2002","03","26","00:00","-3.8","","-11.3","","56","","6","","24","","24.1","","100.25","","","","-11","","Cloudy"
"2002-03-26 01:00","2002","03","26","01:00","-3.9","","-9.5","","65","","6","","17","","24.1","","100.21","","","","-10","","Cloudy"
"2002-03-26 02:00","2002","03","26","02:00","-3.8","","-8.5","","70","","6","","13","","24.1","","100.21","","","","-9","","Cloudy"
"2002-03-26 03:00","2002","03","26","03:00","-3.6","","-8.1","","71","","6","","17","","19.3","","100.10","","","","-9","","Cloudy"
"2002-03-26 04:00","2002","03","26","04:00","-3.6","","-7.7","","73","","5","","20","","19.3","","99.93","","","","-10","","Cloudy"
"2002-03-26 05:00","2002","03","26","05:00","-3.3","","-7.3","","74","","5","","22","","19.3","","99.80","","","","-10","","Cloudy"
"2002-03-26 06:00","2002","03","26","06:00","-3.1","","-7.0","","74","","4","","20","","19.3","","99.79","","","","-9","","Cloudy"
"2002-03-26 07:00","2002","03","26","07:00","-2.7","","-6.3","","76","","5","","20","","12.9","","99.73","","","","-9","","Cloudy"
"2002-03-26 08:00","2002","03","26","08:00","-2.3","","-5.5","","79","","4","","20","","11.3","","99.68","","","","-8","","Cloudy"
"2002-03-26 09:00","2002","03","26","09:00","-2.0","","-4.7","","82","","5","","28","","11.3","","99.56","","","","-9","","Cloudy"
"2002-03-26 10:00","2002","03","26","10:00","-1.6","","-3.9","","84","","4","","24","","2.4","","99.49","","","","-8","","Snow"
"2002-03-26 11:00","2002","03","26","11:00","-1.2","","-3.5","","84","","4","","30","","4.0","","99.43","","","","-8","","Snow,Ice Pellets"
"2002-03-26 12:00","2002","03","26","12:00","-1.5","","-2.9","","90","","3","","22","","0.4","","99.42","","","","-7","","Heavy Snow"
"2002-03-26 13:00","2002","03","26","13:00","-1.2","","-2.6","","90","","2","","17","","0.8","","99.30","","","","-6","","Moderate Snow"
"2002-03-26 14:00","2002","03","26","14:00","-1.6","","-3.1","","89","","2","","24","","0.8","","99.14","","","","-8","","Moderate Snow"
"2002-03-26 15:00","2002","03","26","15:00","-1.0","","-3.2","","85","","2","","24","","1.2","","99.02","","","","-7","","Snow"
"2002-03-26 16:00","2002","03","26","16:00","-1.0","","-3.7","","82","","1","","22","","2.4","","99.07","","","","-7","","Snow"
"2002-03-26 17:00","2002","03","26","17:00","-1.3","","-3.3","","86","","36","","17","","1.0","","99.21","","","","-6","","Snow"
"2002-03-26 18:00","2002","03","26","18:00","-1.5","","-2.9","","90","","34","","13","","1.0","","99.37","","","","-6","","Snow"
"2002-03-26 19:00","2002","03","26","19:00","-1.1","","-2.5","","90","","32","","13","","1.2","","99.47","","","","-5","","Snow"
"2002-03-26 20:00","2002","03","26","20:00","-0.9","","-2.6","","88","","34","","15","","2.4","","99.50","","","","-6","","Snow"
"2002-03-26 21:00","2002","03","26","21:00","-0.5","","-3.5","","80","","35","","20","","11.3","","99.51","","","","-6","","Snow"
"2002-03-26 22:00","2002","03","26","22:00","-0.7","","-3.8","","79","","36","","20","","16.1","","99.54","","","","-6","","Snow"
"2002-03-26 23:00","2002","03","26","23:00","-0.7","","-3.4","","82","","34","","11","","16.1","","99.56","","","","-4","","Snow"
"2002-03-27 00:00","2002","03","27","00:00","-0.7","","-3.7","","80","","33","","15","","19.3","","99.65","","","","-5","","Cloudy"
"2002-03-27 01:00","2002","03","27","01:00","-0.8","","-3.8","","80","","32","","13","","19.3","","99.68","","","","-5","","Cloudy"
"2002-03-27 02:00","2002","03","27","02:00","-0.8","","-4.2","","78","","31","","15","","19.3","","99.75","","","","-5","","Cloudy"
"2002-03-27 03:00","2002","03","27","03:00","-1.4","","-6.1","","70","","33","","11","","24.1","","99.76","","","","-5","","Mainly Clear"
"2002-03-27 04:00","2002","03","27","04:00","-4.2","","-7.0","","81","","29","","6","","24.1","","99.79","","","","-7","","Mainly Clear"
"2002-03-27 05:00","2002","03","27","05:00","-4.7","","-7.2","","83","","24","","9","","24.1","","99.83","","","","-9","","Clear"
"2002-03-27 06:00","2002","03","27","06:00","-5.7","","-7.8","","85","","28","","13","","19.3","","99.91","","","","-11","","Mainly Clear"
"2002-03-27 07:00","2002","03","27","07:00","-6.5","","-8.3","","87","","27","","9","","19.3","","99.96","","","","-11","","Mostly Cloudy"
"2002-03-27 08:00","2002","03","27","08:00","-3.1","","-5.8","","82","","27","","11","","16.1","","99.97","","","","-7","","Mainly Clear"
"2002-03-27 09:00","2002","03","27","09:00","-0.4","","-5.1","","71","","27","","13","","16.1","","100.00","","","","-5","","Mainly Clear"
"2002-03-27 10:00","2002","03","27","10:00","1.3","","-5.9","","59","","28","","13","","19.3","","100.01","","","","","","Mainly Clear"
"2002-03-27 11:00","2002","03","27","11:00","2.6","","-5.9","","53","","28","","17","","24.1","","100.01","","","","","","Mainly Clear"
"2002-03-27 12:00","2002","03","27","12:00","3.6","","-4.6","","55","","25","","9","","24.1","","99.99","","","","","","Mainly Clear"
"2002-03-27 13:00","2002","03","27","13:00","4.5","","-5.6","","48","","23","","11","","24.1","","99.99","","","","","","Mainly Clear"
"2002-03-27 14:00","2002","03","27","14:00","4.0","","-3.2","","59","","21","","22","","24.1","","99.95","","","","","","Mainly Clear"
"2002-03-27 15:00","2002","03","27","15:00","3.4","","-3.8","","59","","22","","28","","24.1","","99.91","","","","","","Mainly Clear"
"2002-03-27 16:00","2002","03","27","16:00","3.2","","-3.3","","62","","22","","24","","19.3","","99.87","","","","","","Clear"
"2002-03-27 17:00","2002","03","27","17:00","2.5","","-2.7","","69","","21","","22","","16.1","","99.86","","","","","","Clear"
"2002-03-27 18:00","2002","03","27","18:00","1.7","","-2.5","","74","","22","","20","","12.9","","99.87","","","","","","Clear"
"2002-03-27 19:00","2002","03","27","19:00","0.6","","-2.7","","79","","22","","13","","9.7","","99.90","","","","","","Haze"
"2002-03-27 20:00","2002","03","27","20:00","-0.4","","-2.6","","85","","22","","11","","16.1","","99.94","","","","-4","","Clear"
"2002-03-27 21:00","2002","03","27","21:00","-0.7","","-2.8","","86","","23","","9","","16.1","","99.97","","","","-4","","Clear"
"2002-03-27 22:00","2002","03","27","22:00","-1.4","","-3.2","","88","","21","","9","","12.9","","99.96","","","","-5","","Clear"
"2002-03-27 23:00","2002","03","27","23:00","-1.8","","-4.1","","84","","22","","11","","11.3","","99.94","","","","-6","","Clear"
"2002-03-28 00:00","2002","03","28","00:00","-2.5","","-5.3","","81","","22","","11","","12.9","","99.94","","","","-7","","Clear"
"2002-03-28 01:00","2002","03","28","01:00","-3.1","","-5.6","","83","","20","","7","","16.1","","99.91","","","","-6","","Clear"
"2002-03-28 02:00","2002","03","28","02:00","-2.8","","-6.0","","79","","23","","11","","19.3","","99.91","","","","-7","","Clear"
"2002-03-28 03:00","2002","03","28","03:00","-2.9","","-6.2","","78","","24","","9","","19.3","","99.88","","","","-6","","Clear"
"2002-03-28 04:00","2002","03","28","04:00","-3.5","","-6.8","","78","","23","","9","","19.3","","99.87","","","","-7","","Clear"
"2002-03-28 05:00","2002","03","28","05:00","-3.6","","-7.0","","77","","21","","7","","19.3","","99.85","","","","-7","","Clear"
"2002-03-28 06:00","2002","03","28","06:00","-4.0","","-7.1","","79","","23","","7","","16.1","","99.89","","","","-7","","Clear"
"2002-03-28 07:00","2002","03","28","07:00","-3.4","","-6.6","","78","","23","","7","","19.3","","99.88","","","","-6","","Clear"
"2002-03-28 08:00","2002","03","28","08:00","-1.3","","-5.8","","71","","16","","7","","19.3","","99.81","","","","-4","","Mainly Clear"
"2002-03-28 09:00","2002","03","28","09:00","0.1","","-3.1","","79","","21","","22","","12.9","","99.80","","","","","","Mostly Cloudy"
"2002-03-28 10:00","2002","03","28","10:00","1.5","","-3.6","","69","","23","","32","","16.1","","99.93","","","","","","Mainly Clear"
"2002-03-28 11:00","2002","03","28","11:00","2.3","","-4.4","","61","","21","","15","","19.3","","99.81","","","","","","Mostly Cloudy"
"2002-03-28 12:00","2002","03","28","12:00","2.7","","-4.8","","58","","18","","17","","24.1","","99.68","","","","","","Cloudy"
"2002-03-28 13:00","2002","03","28","13:00","3.3","","-5.8","","51","","20","","20","","24.1","","99.65","","","","","","Cloudy"
"2002-03-28 14:00","2002","03","28","14:00","2.9","","-2.6","","67","","19","","19","","19.3","","99.53","","","","","","Cloudy"
"2002-03-28 15:00","2002","03","28","15:00","3.3","","-2.4","","66","","19","","19","","19.3","","99.37","","","","","","Cloudy"
"2002-03-28 16:00","2002","03","28","16:00","3.9","","-2.0","","65","","18","","20","","19.3","","99.32","","","","","","Cloudy"
"2002-03-28 17:00","2002","03","28","17:00","4.1","","-1.6","","66","","19","","17","","12.9","","99.27","","","","","","Mostly Cloudy"
"2002-03-28 18:00","2002","03","28","18:00","3.9","","-1.5","","68","","19","","17","","11.3","","99.24","","","","","","Mostly Cloudy"
"2002-03-28 19:00","2002","03","28","19:00","3.2","","-1.4","","72","","17","","9","","11.3","","99.20","","","","","","Cloudy"
"2002-03-28 20:00","2002","03","28","20:00","2.8","","-1.0","","76","","16","","9","","11.3","","99.25","","","","","","Cloudy"
"2002-03-28 21:00","2002","03","28","21:00","2.3","","-1.5","","76","","14","","9","","16.1","","99.21","","","","","","Cloudy"
"2002-03-28 22:00","2002","03","28","22:00","2.2","","-1.3","","78","","16","","15","","19.3","","99.15","","","","","","Cloudy"
"2002-03-28 23:00","2002","03","28","23:00","2.6","","-1.5","","74","","17","","11","","24.1","","99.11","","","","","","Cloudy"
"2002-03-29 00:00","2002","03","29","00:00","3.1","","-0.9","","75","","17","","11","","19.3","","99.06","","","","","","Cloudy"
"2002-03-29 01:00","2002","03","29","01:00","3.3","","-0.5","","76","","18","","11","","16.1","","99.03","","","","","","Cloudy"
"2002-03-29 02:00","2002","03","29","02:00","4.2","","0.1","","75","","20","","15","","16.1","","98.98","","","","","","Cloudy"
"2002-03-29 03:00","2002","03","29","03:00","4.3","","0.4","","76","","23","","9","","16.1","","99.00","","","","","","Cloudy"
"2002-03-29 04:00","2002","03","29","04:00","3.3","","-0.2","","78","","19","","9","","12.9","","98.94","","","","","","Mostly Cloudy"
"2002-03-29 05:00","2002","03","29","05:00","2.7","","-0.3","","81","","23","","7","","12.9","","98.92","","","","","","Mostly Cloudy"
"2002-03-29 06:00","2002","03","29","06:00","3.0","","-0.3","","79","","20","","11","","12.9","","98.85","","","","","","Mostly Cloudy"
"2002-03-29 07:00","2002","03","29","07:00","3.9","","0.2","","77","","27","","9","","11.3","","98.94","","","","","","Cloudy"
"2002-03-29 08:00","2002","03","29","08:00","5.4","","1.2","","74","","22","","11","","24.1","","99.03","","","","","","Cloudy"
"2002-03-29 09:00","2002","03","29","09:00","7.9","","4.1","","77","","22","","11","","12.9","","98.93","","","","","","Mostly Cloudy"
"2002-03-29 10:00","2002","03","29","10:00","7.8","","3.6","","75","","18","","15","","16.1","","98.85","","","","","","Cloudy"
"2002-03-29 11:00","2002","03","29","11:00","9.2","","4.6","","73","","22","","7","","16.1","","98.90","","","","","","Cloudy"
"2002-03-29 12:00","2002","03","29","12:00","9.5","","4.5","","71","","18","","6","","16.1","","98.75","","","","","","Cloudy"
"2002-03-29 13:00","2002","03","29","13:00","10.0","","4.8","","70","","11","","7","","16.1","","98.59","","","","","","Cloudy"
"2002-03-29 14:00","2002","03","29","14:00","10.2","","4.9","","70","","12","","11","","24.1","","98.50","","","","","","Cloudy"
"2002-03-29 15:00","2002","03","29","15:00","10.0","","5.1","","72","","15","","11","","24.1","","98.27","","","","","","Cloudy"
"2002-03-29 16:00","2002","03","29","16:00","9.1","","5.9","","80","","34","","11","","4.8","","98.19","","","","","","Rain Showers,Haze"
"2002-03-29 17:00","2002","03","29","17:00","7.8","","6.2","","90","","33","","7","","2.0","","98.27","","","","","","Rain Showers,Fog"
"2002-03-29 18:00","2002","03","29","18:00","7.3","","6.1","","92","","1","","17","","1.6","","98.16","","","","","","Rain Showers,Fog"
"2002-03-29 19:00","2002","03","29","19:00","6.7","","5.5","","92","","36","","13","","2.0","","98.02","","","","","","Rain Showers,Fog"
"2002-03-29 20:00","2002","03","29","20:00","6.5","","4.5","","87","","35","","17","","6.4","","98.13","","","","","","Fog"
"2002-03-29 21:00","2002","03","29","21:00","6.7","","4.3","","85","","33","","19","","16.1","","98.25","","","","","","Cloudy"
"2002-03-29 22:00","2002","03","29","22:00","4.8","","1.8","","81","","34","","20","","24.1","","98.38","","","","","","Cloudy"
"2002-03-29 23:00","2002","03","29","23:00","3.8","","1.1","","83","","32","","11","","25.0","","98.49","","","","","","Mostly Cloudy"
"2002-03-30 00:00","2002","03","30","00:00","3.4","","1.0","","84","","29","","13","","25.0","","98.54","","","","","","Mostly Cloudy"
"2002-03-30 01:00","2002","03","30","01:00","2.9","","0.8","","86","","25","","15","","24.1","","98.64","","","","","","Mostly Cloudy"
"2002-03-30 02:00","2002","03","30","02:00","2.6","","0.7","","87","","25","","17","","16.1","","98.67","","","","","","Mainly Clear"
"2002-03-30 03:00","2002","03","30","03:00","2.1","","0.4","","88","","25","","17","","11.3","","98.69","","","","","","Mainly Clear"
"2002-03-30 04:00","2002","03","30","04:00","1.8","","0.2","","89","","23","","17","","8.0","","98.74","","","","","","Fog"
"2002-03-30 05:00","2002","03","30","05:00","1.7","","0.4","","91","","25","","20","","4.8","","98.84","","","","","","Fog"
"2002-03-30 06:00","2002","03","30","06:00","2.6","","1.1","","90","","24","","22","","4.8","","98.90","","","","","","Fog"
"2002-03-30 07:00","2002","03","30","07:00","2.7","","1.2","","90","","23","","20","","6.4","","98.94","","","","","","Fog"
"2002-03-30 08:00","2002","03","30","08:00","3.3","","1.3","","87","","23","","35","","8.0","","98.99","","","","","","Fog"
"2002-03-30 09:00","2002","03","30","09:00","3.6","","1.0","","83","","25","","22","","9.7","","99.03","","","","","","Haze"
"2002-03-30 10:00","2002","03","30","10:00","4.4","","1.3","","80","","25","","32","","9.7","","99.10","","","","","","Haze"
"2002-03-30 11:00","2002","03","30","11:00","5.7","","1.8","","76","","23","","30","","9.7","","99.13","","","","","","Haze"
"2002-03-30 12:00","2002","03","30","12:00","7.4","","3.2","","75","","22","","33","","11.3","","99.12","","","","","","Mostly Cloudy"
"2002-03-30 13:00","2002","03","30","13:00","9.1","","3.8","","69","","23","","26","","16.1","","99.13","","","","","","Mainly Clear"
"2002-03-30 14:00","2002","03","30","14:00","10.3","","3.4","","62","","23","","35","","24.1","","99.11","","","","","","Mainly Clear"
"2002-03-30 15:00","2002","03","30","15:00","11.2","","2.9","","57","","22","","33","","24.1","","99.11","","","","","","Mostly Cloudy"
"2002-03-30 16:00","2002","03","30","16:00","11.4","","1.6","","51","","24","","33","","19.3","","99.09","","","","","","Mostly Cloudy"
"2002-03-30 17:00","2002","03","30","17:00","11.7","","1.2","","48","","25","","33","","24.1","","99.14","","","","","","Mostly Cloudy"
"2002-03-30 18:00","2002","03","30","18:00","11.2","","0.0","","46","","24","","28","","24.1","","99.18","","","","","","Mostly Cloudy"
"2002-03-30 19:00","2002","03","30","19:00","9.9","","-0.2","","49","","26","","15","","24.1","","99.29","","","","","","Mainly Clear"
"2002-03-30 20:00","2002","03","30","20:00","8.7","","-7.0","","32","","26","","15","","24.1","","99.39","","","","","","Mainly Clear"
"2002-03-30 21:00","2002","03","30","21:00","7.8","","-6.3","","36","","28","","13","","24.1","","99.48","","","","","","Mainly Clear"
"2002-03-30 22:00","2002","03","30","22:00","5.6","","-5.4","","45","","28","","9","","24.1","","99.47","","","","","","Mainly Clear"
"2002-03-30 23:00","2002","03","30","23:00","5.2","","-5.6","","46","","31","","7","","24.1","","99.51","","","","","","Mainly Clear"
"2002-03-31 00:00","2002","03","31","00:00","3.3","","-4.4","","57","","26","","6","","25.0","","99.53","","","","","","Mainly Clear"
"2002-03-31 01:00","2002","03","31","01:00","2.0","","-4.0","","64","","19","","7","","25.0","","99.52","","","","","","Mainly Clear"
"2002-03-31 02:00","2002","03","31","02:00","2.3","","-4.1","","63","","20","","6","","25.0","","99.55","","","","","","Mainly Clear"
"2002-03-31 03:00","2002","03","31","03:00","2.1","","-3.3","","67","","22","","13","","25.0","","99.55","","","","","","Mostly Cloudy"
"2002-03-31 04:00","2002","03","31","04:00","1.5","","-2.8","","73","","23","","11","","25.0","","99.52","","","","","","Mostly Cloudy"
"2002-03-31 05:00","2002","03","31","05:00","1.7","","-2.7","","73","","25","","9","","24.1","","99.51","","","","","","Mostly Cloudy"
"2002-03-31 06:00","2002","03","31","06:00","1.1","","-3.4","","72","","23","","9","","24.1","","99.54","","","","","","Mostly Cloudy"
"2002-03-31 07:00","2002","03","31","07:00","1.4","","-3.1","","72","","23","","6","","24.1","","99.61","","","","","","Mostly Cloudy"
"2002-03-31 08:00","2002","03","31","08:00","2.8","","-2.4","","69","","23","","9","","24.1","","99.60","","","","","","Mostly Cloudy"
"2002-03-31 09:00","2002","03","31","09:00","5.1","","-2.7","","57","","27","","11","","24.1","","99.57","","","","","","Mostly Cloudy"
"2002-03-31 10:00","2002","03","31","10:00","6.7","","-2.0","","54","","","","0","","24.1","","99.53","","","","","","Mostly Cloudy"
"2002-03-31 11:00","2002","03","31","11:00","8.0","","-3.4","","44","","19","","9","","24.1","","99.48","","","","","","Mostly Cloudy"
"2002-03-31 12:00","2002","03","31","12:00","9.1","","-3.8","","40","","19","","9","","24.1","","99.44","","","","","","Mostly Cloudy"
"2002-03-31 13:00","2002","03","31","13:00","9.7","","-4.6","","36","","23","","11","","24.1","","99.35","","","","","","Cloudy"
"2002-03-31 14:00","2002","03","31","14:00","10.2","","-4.9","","34","","25","","13","","24.1","","99.24","","","","","","Cloudy"
"2002-03-31 15:00","2002","03","31","15:00","10.3","","-3.3","","38","","20","","15","","24.1","","99.14","","","","","","Mostly Cloudy"
"2002-03-31 16:00","2002","03","31","16:00","10.7","","-2.5","","40","","19","","15","","24.1","","99.06","","","","","","Mostly Cloudy"
"2002-03-31 17:00","2002","03","31","17:00","10.3","","-1.7","","43","","20","","19","","24.1","","99.01","","","","","","Mostly Cloudy"
"2002-03-31 18:00","2002","03","31","18:00","9.7","","-1.8","","45","","20","","17","","19.3","","98.97","","","","","","Mostly Cloudy"
"2002-03-31 19:00","2002","03","31","19:00","7.6","","-0.5","","56","","18","","19","","19.3","","98.95","","","","","","Cloudy"
"2002-03-31 20:00","2002","03","31","20:00","6.6","","-0.5","","60","","18","","11","","19.3","","98.95","","","","","","Cloudy"
"2002-03-31 21:00","2002","03","31","21:00","6.5","","0.1","","64","","27","","6","","19.3","","98.93","","","","","","Rain Showers"
"2002-03-31 22:00","2002","03","31","22:00","5.1","","1.1","","75","","32","","26","","16.1","","98.98","","","","","","Rain Showers"
"2002-03-31 23:00","2002","03","31","23:00","3.3","","0.7","","83","","32","","13","","12.9","","99.00","","","","","","Rain Showers"
