"Station Name","WINDSOR A"
"Province","ONTARIO"
"Latitude","42.28"
"Longitude","-82.96"
"Elevation","189.60"
"Climate Identifier","6139525"
"WMO Identifier","71538"
"TC Identifier","YQG"
"All times are specified in Local Standard Time (LST). Add 1 hour to adjust for Daylight Saving Time where and when it is observed."

"Legend"
"E","Estimated"
"M","Missing"
"NA","Not Available"

"Date/Time","Year","Month","Day","Time","Temp (°C)","Temp Flag","Dew Point Temp (°C)","Dew Point Temp Flag","Rel Hum (%)","Rel Hum Flag","Wind Dir (10s deg)","Wind Dir Flag","Wind Spd (km/h)","Wind Spd Flag","Visibility (km)","Visibility Flag","Stn Press (kPa)","Stn Press Flag","Hmdx","Hmdx Flag","Wind Chill","Wind Chill Flag","Weather"
"2011-05-01 00:00","2011","05","01","00:00","10.0","","5.4","","73","","11","","15","","24.1","","99.34","","","","","","Rain Showers"
"2011-05-01 01:00","2011","05","01","01:00","10.7","","5.5","","70","","11","","13","","24.1","","99.25","","","","","","Rain Showers"
"2011-05-01 02:00","2011","05","01","02:00","11.6","","5.4","","66","","11","","13","","24.1","","99.19","","","","","","Rain Showers"
"2011-05-01 03:00","2011","05","01","03:00","12.0","","5.2","","63","","13","","15","","24.1","","99.13","","","","","","Cloudy"
"2011-05-01 04:00","2011","05","01","04:00","12.8","","6.1","","64","","15","","24","","24.1","","99.06","","","","","","Cloudy"
"2011-05-01 05:00","2011","05","01","05:00","13.4","","7.0","","65","","16","","20","","24.1","","99.01","","","","","","Cloudy"
"2011-05-01 06:00","2011","05","01","06:00","12.9","","7.2","","68","","17","","22","","16.1","","99.11","","","","","","Rain Showers"
"2011-05-01 07:00","2011","05","01","07:00","11.2","","10.2","","94","","18","","20","","4.0","","99.19","","","","","","Moderate Rain Showers,Fog"
"2011-05-01 08:00","2011","05","01","08:00","11.3","","10.2","","93","","15","","22","","12.9","","99.15","","","","","","Cloudy"
"2011-05-01 09:00","2011","05","01","09:00","12.3","","10.2","","87","","15","","26","","16.1","","99.14","","","","","","Cloudy"
"2011-05-01 10:00","2011","05","01","10:00","12.7","","10.7","","88","","17","","33","","12.9","","99.14","","","","","","Rain Showers"
"2011-05-01 11:00","2011","05","01","11:00","14.8","","12.6","","87","","19","","28","","11.3","","99.09","","","","","","Cloudy"
"2011-05-01 12:00","2011","05","01","12:00","15.5","","12.5","","82","","20","","22","","16.1","","99.17","","","","","","Cloudy"
"2011-05-01 13:00","2011","05","01","13:00","15.9","","12.8","","82","","20","","15","","16.1","","99.13","","","","","","Cloudy"
"2011-05-01 14:00","2011","05","01","14:00","16.3","","14.3","","88","","21","","20","","6.4","","99.09","","","","","","Fog"
"2011-05-01 15:00","2011","05","01","15:00","17.1","","15.4","","90","","20","","19","","4.8","","99.09","","","","","","Fog"
"2011-05-01 16:00","2011","05","01","16:00","17.9","","15.6","","86","","20","","19","","24.1","","99.08","","","","","","Mostly Cloudy"
"2011-05-01 17:00","2011","05","01","17:00","18.6","","16.1","","85","","20","","17","","24.1","","99.04","","","","","","Mostly Cloudy"
"2011-05-01 18:00","2011","05","01","18:00","17.8","","15.9","","89","","20","","24","","24.1","","99.11","","","","","","Cloudy"
"2011-05-01 19:00","2011","05","01","19:00","17.4","","15.6","","89","","21","","17","","24.1","","99.17","","","","","","Cloudy"
"2011-05-01 20:00","2011","05","01","20:00","17.1","","15.4","","90","","20","","11","","24.1","","99.20","","","","","","Cloudy"
"2011-05-01 21:00","2011","05","01","21:00","15.5","","13.9","","90","","18","","6","","24.1","","99.24","","","","","","Mostly Cloudy"
"2011-05-01 22:00","2011","05","01","22:00","14.6","","11.3","","81","","26","","6","","24.1","","99.31","","","","","","Mainly Clear"
"2011-05-01 23:00","2011","05","01","23:00","13.4","","11.0","","85","","27","","6","","24.1","","99.40","","","","","","Mostly Cloudy"
"2011-05-02 00:00","2011","05","02","00:00","15.0","","2.5","","43","","31","","13","","24.1","","99.36","","","","","","Cloudy"
"2011-05-02 01:00","2011","05","02","01:00","14.1","","1.8","","43","","32","","13","","24.1","","99.30","","","","","","Cloudy"
"2011-05-02 02:00","2011","05","02","02:00","12.8","","2.5","","49","","34","","15","","24.1","","99.32","","","","","","Cloudy"
"2011-05-02 03:00","2011","05","02","03:00","12.3","","2.0","","49","","33","","4","","24.1","","99.38","","","","","","Cloudy"
"2011-05-02 04:00","2011","05","02","04:00","12.0","","1.6","","49","","33","","11","","24.1","","99.47","","","","","","Cloudy"
"2011-05-02 05:00","2011","05","02","05:00","11.6","","1.7","","51","","29","","4","","24.1","","99.46","","","","","","Cloudy"
"2011-05-02 06:00","2011","05","02","06:00","11.3","","2.0","","53","","33","","19","","24.1","","99.59","","","","","","Cloudy"
"2011-05-02 07:00","2011","05","02","07:00","10.9","","1.9","","54","","32","","17","","24.1","","99.60","","","","","","Cloudy"
"2011-05-02 08:00","2011","05","02","08:00","10.7","","2.0","","55","","31","","6","","24.1","","99.69","","","","","","Cloudy"
"2011-05-02 09:00","2011","05","02","09:00","10.8","","2.0","","54","","27","","15","","24.1","","99.76","","","","","","Rain Showers"
"2011-05-02 10:00","2011","05","02","10:00","10.6","","2.0","","55","","30","","7","","24.1","","99.73","","","","","","Mostly Cloudy"
"2011-05-02 11:00","2011","05","02","11:00","11.7","","3.6","","58","","19","","6","","24.1","","99.63","","","","","","Mostly Cloudy"
"2011-05-02 12:00","2011","05","02","12:00","12.7","","1.8","","47","","26","","17","","24.1","","99.79","","","","","","Cloudy"
"2011-05-02 13:00","2011","05","02","13:00","13.2","","0.5","","42","","26","","17","","24.1","","99.84","","","","","","Cloudy"
"2011-05-02 14:00","2011","05","02","14:00","14.9","","0.2","","37","","29","","9","","24.1","","99.76","","","","","","Cloudy"
"2011-05-02 15:00","2011","05","02","15:00","14.8","","-1.2","","33","","29","","7","","24.1","","99.80","","","","","","Cloudy"
"2011-05-02 16:00","2011","05","02","16:00","14.9","","-0.8","","34","","27","","13","","24.1","","99.81","","","","","","Cloudy"
"2011-05-02 17:00","2011","05","02","17:00","14.5","","-1.8","","32","","29","","13","","24.1","","99.77","","","","","","Cloudy"
"2011-05-02 18:00","2011","05","02","18:00","14.4","","-1.8","","33","","28","","11","","24.1","","99.86","","","","","","Mostly Cloudy"
"2011-05-02 19:00","2011","05","02","19:00","12.8","","5.0","","59","","21","","6","","24.1","","99.87","","","","","","Mostly Cloudy"
"2011-05-02 20:00","2011","05","02","20:00","13.3","","-1.1","","37","","28","","13","","24.1","","99.94","","","","","","Mostly Cloudy"
"2011-05-02 21:00","2011","05","02","21:00","12.7","","-2.3","","35","","29","","9","","24.1","","99.96","","","","","","Cloudy"
"2011-05-02 22:00","2011","05","02","22:00","11.8","","-0.4","","43","","34","","7","","24.1","","99.89","","","","","","Cloudy"
"2011-05-02 23:00","2011","05","02","23:00","11.4","","-0.8","","43","","32","","7","","24.1","","99.85","","","","","","Cloudy"
"2011-05-03 00:00","2011","05","03","00:00","11.2","","-0.2","","45","","32","","9","","24.1","","99.94","","","","","","Cloudy"
"2011-05-03 01:00","2011","05","03","01:00","10.6","","0.0","","48","","35","","6","","24.1","","99.86","","","","","","Cloudy"
"2011-05-03 02:00","2011","05","03","02:00","8.3","","3.4","","71","","5","","20","","24.1","","99.87","","","","","","Cloudy"
"2011-05-03 03:00","2011","05","03","03:00","7.2","","2.7","","73","","4","","15","","24.1","","99.90","","","","","","Rain Showers"
"2011-05-03 04:00","2011","05","03","04:00","6.8","","1.2","","67","","4","","22","","24.1","","99.72","","","","","","Cloudy"
"2011-05-03 05:00","2011","05","03","05:00","6.2","","1.7","","73","","1","","15","","24.1","","99.70","","","","","","Rain Showers"
"2011-05-03 06:00","2011","05","03","06:00","5.1","","2.3","","82","","36","","13","","11.3","","99.72","","","","","","Rain"
"2011-05-03 07:00","2011","05","03","07:00","4.9","","2.5","","84","","36","","13","","11.3","","99.80","","","","","","Rain"
"2011-05-03 08:00","2011","05","03","08:00","4.9","","2.9","","87","","1","","13","","11.3","","99.72","","","","","","Rain"
"2011-05-03 09:00","2011","05","03","09:00","5.3","","3.0","","85","","35","","11","","12.9","","99.76","","","","","","Rain"
"2011-05-03 10:00","2011","05","03","10:00","5.8","","3.6","","86","","36","","9","","12.9","","99.74","","","","","","Rain"
"2011-05-03 11:00","2011","05","03","11:00","6.5","","4.0","","84","","33","","15","","16.1","","99.73","","","","","","Rain"
"2011-05-03 12:00","2011","05","03","12:00","7.0","","3.7","","79","","34","","15","","24.1","","99.69","","","","","","Rain"
"2011-05-03 13:00","2011","05","03","13:00","7.3","","3.9","","79","","34","","15","","19.3","","99.71","","","","","","Rain"
"2011-05-03 14:00","2011","05","03","14:00","8.2","","4.7","","79","","2","","13","","19.3","","99.71","","","","","","Rain"
"2011-05-03 15:00","2011","05","03","15:00","8.2","","4.1","","75","","4","","15","","19.3","","99.76","","","","","","Rain"
"2011-05-03 16:00","2011","05","03","16:00","8.3","","3.3","","71","","2","","15","","19.3","","99.75","","","","","","Rain"
"2011-05-03 17:00","2011","05","03","17:00","7.9","","3.0","","71","","2","","13","","24.1","","99.80","","","","","","Cloudy"
"2011-05-03 18:00","2011","05","03","18:00","7.6","","2.9","","72","","36","","11","","24.1","","99.86","","","","","","Rain"
"2011-05-03 19:00","2011","05","03","19:00","7.1","","3.3","","77","","36","","13","","24.1","","99.93","","","","","","Rain"
"2011-05-03 20:00","2011","05","03","20:00","6.9","","3.0","","76","","1","","11","","24.1","","99.97","","","","","","Mostly Cloudy"
"2011-05-03 21:00","2011","05","03","21:00","5.8","","2.6","","80","","1","","11","","24.1","","99.99","","","","","","Mainly Clear"
"2011-05-03 22:00","2011","05","03","22:00","5.0","","2.2","","82","","36","","4","","24.1","","100.01","","","","","","Clear"
"2011-05-03 23:00","2011","05","03","23:00","4.7","","2.1","","83","","32","","4","","24.1","","100.04","","","","","","Mainly Clear"
"2011-05-04 00:00","2011","05","04","00:00","3.6","","1.8","","88","","","","0","","24.1","","100.02","","","","","","Mainly Clear"
"2011-05-04 01:00","2011","05","04","01:00","2.8","","1.5","","91","","","","0","","24.1","","100.01","","","","","","Mainly Clear"
"2011-05-04 02:00","2011","05","04","02:00","3.7","","1.8","","87","","31","","7","","24.1","","100.02","","","","","","Mainly Clear"
"2011-05-04 03:00","2011","05","04","03:00","3.5","","1.8","","89","","33","","6","","24.1","","100.03","","","","","","Mostly Cloudy"
"2011-05-04 04:00","2011","05","04","04:00","3.4","","1.4","","87","","35","","9","","24.1","","100.05","","","","","","Mostly Cloudy"
"2011-05-04 05:00","2011","05","04","05:00","3.7","","1.8","","87","","33","","9","","24.1","","100.11","","","","","","Mostly Cloudy"
"2011-05-04 06:00","2011","05","04","06:00","3.7","","1.5","","86","","34","","9","","16.1","","100.14","","","","","","Mainly Clear"
"2011-05-04 07:00","2011","05","04","07:00","4.3","","2.2","","86","","33","","9","","24.1","","100.20","","","","","","Mostly Cloudy"
"2011-05-04 08:00","2011","05","04","08:00","5.8","","2.3","","78","","34","","13","","24.1","","100.25","","","","","","Mostly Cloudy"
"2011-05-04 09:00","2011","05","04","09:00","7.5","","1.3","","65","","1","","20","","24.1","","100.28","","","","","","Mostly Cloudy"
"2011-05-04 10:00","2011","05","04","10:00","8.5","","0.9","","59","","35","","11","","24.1","","100.29","","","","","","Mostly Cloudy"
"2011-05-04 11:00","2011","05","04","11:00","9.3","","-0.9","","49","","34","","15","","24.1","","100.29","","","","","","Mostly Cloudy"
"2011-05-04 12:00","2011","05","04","12:00","11.4","","1.5","","51","","29","","7","","24.1","","100.25","","","","","","Mainly Clear"
"2011-05-04 13:00","2011","05","04","13:00","12.3","","0.9","","46","","32","","19","","24.1","","100.24","","","","","","Mainly Clear"
"2011-05-04 14:00","2011","05","04","14:00","12.6","","-0.3","","41","","2","","13","","24.1","","100.21","","","","","","Mainly Clear"
"2011-05-04 15:00","2011","05","04","15:00","13.6","","-0.9","","37","","33","","15","","24.1","","100.18","","","","","","Mainly Clear"
"2011-05-04 16:00","2011","05","04","16:00","14.5","","-1.6","","33","","6","","15","","24.1","","100.18","","","","","","Mainly Clear"
"2011-05-04 17:00","2011","05","04","17:00","14.6","","-2.4","","31","","4","","17","","24.1","","100.23","","","","","","Mainly Clear"
"2011-05-04 18:00","2011","05","04","18:00","14.0","","-2.5","","32","","4","","17","","24.1","","100.24","","","","","","Clear"
"2011-05-04 19:00","2011","05","04","19:00","13.3","","-3.1","","32","","36","","15","","24.1","","100.26","","","","","","Clear"
"2011-05-04 20:00","2011","05","04","20:00","10.5","","1.2","","52","","9","","4","","24.1","","100.27","","","","","","Clear"
"2011-05-04 21:00","2011","05","04","21:00","8.6","","1.7","","62","","","","0","","24.1","","100.34","","","","","","Clear"
"2011-05-04 22:00","2011","05","04","22:00","7.7","","1.4","","64","","19","","4","","24.1","","100.35","","","","","","Clear"
"2011-05-04 23:00","2011","05","04","23:00","8.1","","0.2","","57","","23","","7","","24.1","","100.36","","","","","","Clear"
"2011-05-05 00:00","2011","05","05","00:00","8.6","","1.1","","59","","27","","19","","24.1","","100.37","","","","","","Clear"
"2011-05-05 01:00","2011","05","05","01:00","8.3","","-0.9","","52","","27","","7","","24.1","","100.33","","","","","","Clear"
"2011-05-05 02:00","2011","05","05","02:00","7.9","","-0.5","","55","","28","","11","","24.1","","100.28","","","","","","Clear"
"2011-05-05 03:00","2011","05","05","03:00","6.9","","-0.4","","60","","28","","15","","24.1","","100.26","","","","","","Clear"
"2011-05-05 04:00","2011","05","05","04:00","6.9","","-0.8","","58","","29","","15","","24.1","","100.25","","","","","","Clear"
"2011-05-05 05:00","2011","05","05","05:00","6.5","","-1.3","","57","","29","","17","","24.1","","100.25","","","","","","Clear"
"2011-05-05 06:00","2011","05","05","06:00","6.4","","-1.4","","57","","28","","17","","24.1","","100.27","","","","","","Clear"
"2011-05-05 07:00","2011","05","05","07:00","7.6","","-1.2","","54","","29","","11","","24.1","","100.31","","","","","","Clear"
"2011-05-05 08:00","2011","05","05","08:00","9.6","","-0.5","","49","","30","","9","","24.1","","100.31","","","","","","Clear"
"2011-05-05 09:00","2011","05","05","09:00","12.7","","0.5","","43","","30","","9","","24.1","","100.30","","","","","","Clear"
"2011-05-05 10:00","2011","05","05","10:00","14.3","","-0.7","","36","","34","","15","","24.1","","100.21","","","","","","Clear"
"2011-05-05 11:00","2011","05","05","11:00","15.5","","-1.2","","32","","34","","9","","24.1","","100.17","","","","","","Clear"
"2011-05-05 12:00","2011","05","05","12:00","15.8","","-2.2","","29","","31","","13","","24.1","","100.07","","","","","","Mainly Clear"
"2011-05-05 13:00","2011","05","05","13:00","17.2","","-1.9","","27","","27","","17","","24.1","","99.96","","","","","","Mainly Clear"
"2011-05-05 14:00","2011","05","05","14:00","17.5","","-2.2","","26","","27","","17","","24.1","","99.83","","","","","","Mainly Clear"
"2011-05-05 15:00","2011","05","05","15:00","17.0","","-0.8","","30","","19","","26","","24.1","","99.73","","","","","","Mainly Clear"
"2011-05-05 16:00","2011","05","05","16:00","16.9","","0.7","","33","","20","","20","","24.1","","99.62","","","","","","Mainly Clear"
"2011-05-05 17:00","2011","05","05","17:00","16.9","","1.4","","35","","21","","24","","24.1","","99.55","","","","","","Mostly Cloudy"
"2011-05-05 18:00","2011","05","05","18:00","15.8","","2.2","","40","","20","","24","","24.1","","99.49","","","","","","Mostly Cloudy"
"2011-05-05 19:00","2011","05","05","19:00","14.8","","1.7","","41","","20","","22","","24.1","","99.43","","","","","","Mostly Cloudy"
"2011-05-05 20:00","2011","05","05","20:00","13.8","","3.1","","48","","20","","17","","24.1","","99.41","","","","","","Cloudy"
"2011-05-05 21:00","2011","05","05","21:00","13.4","","4.6","","55","","21","","11","","24.1","","99.40","","","","","","Cloudy"
"2011-05-05 22:00","2011","05","05","22:00","13.5","","3.9","","52","","21","","13","","24.1","","99.33","","","","","","Cloudy"
"2011-05-05 23:00","2011","05","05","23:00","13.2","","3.4","","51","","25","","22","","24.1","","99.30","","","","","","Cloudy"
"2011-05-06 00:00","2011","05","06","00:00","12.1","","4.4","","59","","17","","6","","24.1","","99.19","","","","","","Cloudy"
"2011-05-06 01:00","2011","05","06","01:00","11.3","","6.1","","70","","18","","7","","24.1","","99.15","","","","","","Cloudy"
"2011-05-06 02:00","2011","05","06","02:00","11.5","","6.0","","69","","19","","7","","24.1","","99.06","","","","","","Rain Showers"
"2011-05-06 03:00","2011","05","06","03:00","11.9","","5.9","","67","","21","","13","","24.1","","98.99","","","","","","Rain Showers"
"2011-05-06 04:00","2011","05","06","04:00","11.7","","6.1","","68","","21","","13","","24.1","","98.95","","","","","","Cloudy"
"2011-05-06 05:00","2011","05","06","05:00","11.6","","5.9","","68","","22","","13","","24.1","","98.89","","","","","","Cloudy"
"2011-05-06 06:00","2011","05","06","06:00","11.0","","6.0","","71","","18","","7","","24.1","","98.87","","","","","","Cloudy"
"2011-05-06 07:00","2011","05","06","07:00","11.6","","6.7","","72","","22","","11","","24.1","","98.84","","","","","","Cloudy"
"2011-05-06 08:00","2011","05","06","08:00","12.3","","7.7","","73","","22","","19","","24.1","","98.82","","","","","","Cloudy"
"2011-05-06 09:00","2011","05","06","09:00","12.0","","7.8","","75","","21","","22","","24.1","","98.80","","","","","","Rain Showers"
"2011-05-06 10:00","2011","05","06","10:00","11.4","","8.6","","83","","21","","17","","16.1","","98.79","","","","","","Rain Showers"
"2011-05-06 11:00","2011","05","06","11:00","11.8","","9.9","","88","","22","","19","","16.1","","98.78","","","","","","Rain Showers"
"2011-05-06 12:00","2011","05","06","12:00","14.4","","10.2","","76","","21","","17","","19.3","","98.74","","","","","","Mostly Cloudy"
"2011-05-06 13:00","2011","05","06","13:00","15.4","","7.9","","61","","23","","15","","24.1","","98.69","","","","","","Mostly Cloudy"
"2011-05-06 14:00","2011","05","06","14:00","16.9","","5.7","","48","","23","","11","","24.1","","98.65","","","","","","Mostly Cloudy"
"2011-05-06 15:00","2011","05","06","15:00","17.3","","2.3","","37","","27","","26","","24.1","","98.61","","","","","","Mostly Cloudy"
"2011-05-06 16:00","2011","05","06","16:00","14.8","","5.9","","55","","29","","28","","24.1","","98.71","","","","","","Cloudy"
"2011-05-06 17:00","2011","05","06","17:00","14.6","","5.6","","55","","19","","11","","24.1","","98.67","","","","","","Mainly Clear"
"2011-05-06 18:00","2011","05","06","18:00","14.6","","5.0","","52","","22","","17","","24.1","","98.67","","","","","","Mainly Clear"
"2011-05-06 19:00","2011","05","06","19:00","14.4","","6.6","","59","","20","","19","","24.1","","98.69","","","","","","Mainly Clear"
"2011-05-06 20:00","2011","05","06","20:00","12.6","","6.4","","66","","22","","17","","24.1","","98.76","","","","","","Mainly Clear"
"2011-05-06 21:00","2011","05","06","21:00","11.2","","6.9","","75","","20","","17","","24.1","","98.79","","","","","","Mainly Clear"
"2011-05-06 22:00","2011","05","06","22:00","10.7","","6.9","","77","","21","","4","","24.1","","98.81","","","","","","Mainly Clear"
"2011-05-06 23:00","2011","05","06","23:00","10.0","","7.0","","82","","22","","6","","24.1","","98.85","","","","","","Mainly Clear"
"2011-05-07 00:00","2011","05","07","00:00","8.9","","6.6","","85","","19","","4","","24.1","","98.84","","","","","","Mainly Clear"
"2011-05-07 01:00","2011","05","07","01:00","9.0","","7.1","","88","","23","","6","","24.1","","98.82","","","","","","Mainly Clear"
"2011-05-07 02:00","2011","05","07","02:00","10.1","","7.3","","83","","24","","11","","19.3","","98.81","","","","","","Mostly Cloudy"
"2011-05-07 03:00","2011","05","07","03:00","10.0","","6.3","","78","","25","","9","","24.1","","98.81","","","","","","Mainly Clear"
"2011-05-07 04:00","2011","05","07","04:00","8.7","","5.9","","83","","25","","7","","24.1","","98.80","","","","","","Mainly Clear"
"2011-05-07 05:00","2011","05","07","05:00","8.3","","4.9","","79","","28","","7","","24.1","","98.81","","","","","","Mainly Clear"
"2011-05-07 06:00","2011","05","07","06:00","8.9","","4.0","","71","","32","","6","","24.1","","98.86","","","","","","Mainly Clear"
"2011-05-07 07:00","2011","05","07","07:00","10.4","","5.2","","70","","6","","4","","24.1","","98.92","","","","","","Clear"
"2011-05-07 08:00","2011","05","07","08:00","12.1","","5.9","","66","","5","","11","","24.1","","98.95","","","","","","Clear"
"2011-05-07 09:00","2011","05","07","09:00","12.9","","9.5","","80","","10","","6","","24.1","","98.94","","","","","","Mainly Clear"
"2011-05-07 10:00","2011","05","07","10:00","14.5","","7.0","","61","","","","0","","24.1","","98.94","","","","","","Mainly Clear"
"2011-05-07 11:00","2011","05","07","11:00","15.6","","7.5","","58","","12","","9","","24.1","","98.97","","","","","","Mainly Clear"
"2011-05-07 12:00","2011","05","07","12:00","16.7","","7.3","","54","","7","","9","","24.1","","98.94","","","","","","Clear"
"2011-05-07 13:00","2011","05","07","13:00","17.1","","8.4","","57","","8","","17","","24.1","","98.92","","","","","","Mainly Clear"
"2011-05-07 14:00","2011","05","07","14:00","17.8","","8.9","","56","","6","","17","","24.1","","98.88","","","","","","Mainly Clear"
"2011-05-07 15:00","2011","05","07","15:00","17.7","","8.7","","56","","8","","15","","24.1","","98.85","","","","","","Mainly Clear"
"2011-05-07 16:00","2011","05","07","16:00","15.5","","8.3","","62","","20","","15","","24.1","","98.91","","","","","","Mostly Cloudy"
"2011-05-07 17:00","2011","05","07","17:00","15.6","","9.6","","67","","13","","7","","24.1","","98.91","","","","","","Mostly Cloudy"
"2011-05-07 18:00","2011","05","07","18:00","15.5","","9.1","","66","","10","","7","","19.3","","98.93","","","","","","Mostly Cloudy"
"2011-05-07 19:00","2011","05","07","19:00","14.6","","8.2","","65","","13","","11","","19.3","","98.97","","","","","","Cloudy"
"2011-05-07 20:00","2011","05","07","20:00","13.3","","8.1","","71","","6","","19","","24.1","","99.03","","","","","","Cloudy"
"2011-05-07 21:00","2011","05","07","21:00","11.8","","6.4","","69","","4","","17","","24.1","","99.07","","","","","","Cloudy"
"2011-05-07 22:00","2011","05","07","22:00","10.8","","6.3","","74","","3","","20","","24.1","","99.11","","","","","","Cloudy"
"2011-05-07 23:00","2011","05","07","23:00","10.2","","5.6","","73","","4","","17","","24.1","","99.11","","","","","","Cloudy"
"2011-05-08 00:00","2011","05","08","00:00","9.6","","5.4","","75","","4","","15","","24.1","","99.14","","","","","","Cloudy"
"2011-05-08 01:00","2011","05","08","01:00","9.3","","5.1","","75","","4","","15","","24.1","","99.13","","","","","","Cloudy"
"2011-05-08 02:00","2011","05","08","02:00","9.0","","5.6","","79","","4","","15","","24.1","","99.15","","","","","","Cloudy"
"2011-05-08 03:00","2011","05","08","03:00","9.0","","5.8","","80","","3","","13","","24.1","","99.17","","","","","","Mostly Cloudy"
"2011-05-08 04:00","2011","05","08","04:00","8.8","","6.3","","84","","3","","11","","24.1","","99.22","","","","","","Mostly Cloudy"
"2011-05-08 05:00","2011","05","08","05:00","8.4","","6.3","","87","","3","","11","","19.3","","99.24","","","","","","Mostly Cloudy"
"2011-05-08 06:00","2011","05","08","06:00","8.2","","5.8","","85","","1","","9","","16.1","","99.32","","","","","","Mainly Clear"
"2011-05-08 07:00","2011","05","08","07:00","10.2","","6.9","","80","","4","","20","","19.3","","99.36","","","","","","Mainly Clear"
"2011-05-08 08:00","2011","05","08","08:00","10.7","","6.4","","75","","3","","20","","19.3","","99.42","","","","","","Clear"
"2011-05-08 09:00","2011","05","08","09:00","12.3","","7.2","","71","","5","","15","","19.3","","99.45","","","","","","Clear"
"2011-05-08 10:00","2011","05","08","10:00","13.8","","7.8","","67","","2","","11","","24.1","","99.47","","","","","","Clear"
"2011-05-08 11:00","2011","05","08","11:00","15.2","","8.4","","64","","3","","9","","24.1","","99.48","","","","","","Clear"
"2011-05-08 12:00","2011","05","08","12:00","16.7","","7.3","","54","","7","","15","","24.1","","99.49","","","","","","Mainly Clear"
"2011-05-08 13:00","2011","05","08","13:00","17.2","","6.6","","50","","7","","19","","24.1","","99.45","","","","","","Mainly Clear"
"2011-05-08 14:00","2011","05","08","14:00","18.1","","6.8","","48","","9","","13","","24.1","","99.47","","","","","","Mainly Clear"
"2011-05-08 15:00","2011","05","08","15:00","18.4","","5.7","","43","","4","","17","","24.1","","99.49","","","","","","Mostly Cloudy"
"2011-05-08 16:00","2011","05","08","16:00","18.7","","5.4","","42","","7","","13","","24.1","","99.44","","","","","","Mainly Clear"
"2011-05-08 17:00","2011","05","08","17:00","18.4","","3.9","","38","","6","","19","","24.1","","99.46","","","","","","Mainly Clear"
"2011-05-08 18:00","2011","05","08","18:00","16.9","","3.4","","40","","5","","20","","24.1","","99.50","","","","","","Mainly Clear"
"2011-05-08 19:00","2011","05","08","19:00","14.9","","4.0","","48","","6","","19","","24.1","","99.54","","","","","","Mostly Cloudy"
"2011-05-08 20:00","2011","05","08","20:00","12.9","","3.9","","54","","5","","19","","24.1","","99.57","","","","","","Mostly Cloudy"
"2011-05-08 21:00","2011","05","08","21:00","11.6","","3.4","","57","","4","","15","","24.1","","99.63","","","","","","Mostly Cloudy"
"2011-05-08 22:00","2011","05","08","22:00","10.8","","2.9","","58","","4","","15","","24.1","","99.64","","","","","","Mostly Cloudy"
"2011-05-08 23:00","2011","05","08","23:00","9.9","","2.9","","62","","4","","11","","24.1","","99.62","","","","","","Mainly Clear"
"2011-05-09 00:00","2011","05","09","00:00","9.0","","2.9","","66","","4","","11","","24.1","","99.61","","","","","","Mainly Clear"
"2011-05-09 01:00","2011","05","09","01:00","8.4","","3.2","","70","","2","","9","","24.1","","99.63","","","","","","Mainly Clear"
"2011-05-09 02:00","2011","05","09","02:00","7.9","","4.2","","77","","4","","15","","24.1","","99.65","","","","","","Mainly Clear"
"2011-05-09 03:00","2011","05","09","03:00","7.5","","4.2","","80","","4","","9","","24.1","","99.66","","","","","","Mainly Clear"
"2011-05-09 04:00","2011","05","09","04:00","7.2","","4.4","","82","","4","","9","","24.1","","99.71","","","","","","Mainly Clear"
"2011-05-09 05:00","2011","05","09","05:00","7.3","","3.9","","79","","36","","4","","19.3","","99.77","","","","","","Mainly Clear"
"2011-05-09 06:00","2011","05","09","06:00","7.4","","4.4","","81","","5","","7","","19.3","","99.83","","","","","","Mostly Cloudy"
"2011-05-09 07:00","2011","05","09","07:00","10.1","","6.8","","80","","5","","11","","24.1","","99.88","","","","","","Mostly Cloudy"
"2011-05-09 08:00","2011","05","09","08:00","12.5","","7.8","","73","","7","","13","","24.1","","99.86","","","","","","Mostly Cloudy"
"2011-05-09 09:00","2011","05","09","09:00","15.1","","6.3","","56","","11","","7","","24.1","","99.89","","","","","","Mainly Clear"
"2011-05-09 10:00","2011","05","09","10:00","16.1","","6.1","","51","","5","","9","","24.1","","99.85","","","","","","Clear"
"2011-05-09 11:00","2011","05","09","11:00","16.9","","5.4","","47","","6","","11","","24.1","","99.72","","","","","","Clear"
"2011-05-09 12:00","2011","05","09","12:00","17.4","","5.6","","46","","10","","15","","24.1","","99.72","","","","","","Clear"
"2011-05-09 13:00","2011","05","09","13:00","17.9","","4.6","","41","","9","","17","","24.1","","99.71","","","","","","Clear"
"2011-05-09 14:00","2011","05","09","14:00","17.9","","4.4","","41","","11","","17","","24.1","","99.67","","","","","","Clear"
"2011-05-09 15:00","2011","05","09","15:00","17.6","","3.5","","39","","10","","17","","24.1","","99.63","","","","","","Mainly Clear"
"2011-05-09 16:00","2011","05","09","16:00","17.4","","4.0","","41","","10","","13","","24.1","","99.65","","","","","","Mostly Cloudy"
"2011-05-09 17:00","2011","05","09","17:00","17.3","","5.1","","44","","11","","19","","24.1","","99.58","","","","","","Mostly Cloudy"
"2011-05-09 18:00","2011","05","09","18:00","16.5","","5.4","","48","","11","","20","","24.1","","99.43","","","","","","Mostly Cloudy"
"2011-05-09 19:00","2011","05","09","19:00","14.4","","4.4","","51","","11","","22","","24.1","","99.42","","","","","","Mostly Cloudy"
"2011-05-09 20:00","2011","05","09","20:00","13.2","","3.8","","53","","11","","13","","24.1","","99.46","","","","","","Cloudy"
"2011-05-09 21:00","2011","05","09","21:00","13.4","","2.9","","49","","10","","13","","24.1","","99.51","","","","","","Mostly Cloudy"
"2011-05-09 22:00","2011","05","09","22:00","13.3","","3.3","","51","","11","","19","","24.1","","99.40","","","","","","Rain Showers"
"2011-05-09 23:00","2011","05","09","23:00","13.4","","3.6","","51","","11","","17","","24.1","","99.40","","","","","","Cloudy"
"2011-05-10 00:00","2011","05","10","00:00","12.8","","4.1","","55","","14","","15","","24.1","","99.43","","","","","","Cloudy"
"2011-05-10 01:00","2011","05","10","01:00","13.1","","3.5","","52","","9","","19","","24.1","","99.41","","","","","","Rain Showers"
"2011-05-10 02:00","2011","05","10","02:00","12.8","","3.6","","53","","15","","15","","24.1","","99.33","","","","","","Rain Showers"
"2011-05-10 03:00","2011","05","10","03:00","12.4","","4.4","","58","","11","","13","","24.1","","99.26","","","","","","Cloudy"
"2011-05-10 04:00","2011","05","10","04:00","11.9","","3.9","","58","","11","","17","","24.1","","99.30","","","","","","Mostly Cloudy"
"2011-05-10 05:00","2011","05","10","05:00","11.6","","4.8","","63","","9","","13","","24.1","","99.33","","","","","","Rain Showers"
"2011-05-10 06:00","2011","05","10","06:00","10.1","","7.1","","82","","12","","13","","12.9","","99.40","","","","","","Thunderstorms,Moderate Rain Showers"
"2011-05-10 07:00","2011","05","10","07:00","10.4","","6.9","","79","","12","","22","","24.1","","99.28","","","","","","Cloudy"
"2011-05-10 08:00","2011","05","10","08:00","13.3","","7.7","","69","","9","","11","","24.1","","99.27","","","","","","Mostly Cloudy"
"2011-05-10 09:00","2011","05","10","09:00","14.0","","7.4","","64","","10","","15","","24.1","","99.30","","","","","","Mostly Cloudy"
"2011-05-10 10:00","2011","05","10","10:00","14.9","","6.9","","59","","10","","17","","24.1","","99.27","","","","","","Mostly Cloudy"
"2011-05-10 11:00","2011","05","10","11:00","17.6","","7.8","","53","","12","","19","","24.1","","99.20","","","","","","Mostly Cloudy"
"2011-05-10 12:00","2011","05","10","12:00","18.8","","8.7","","52","","10","","19","","24.1","","99.19","","","","","","Cloudy"
"2011-05-10 13:00","2011","05","10","13:00","19.1","","8.2","","49","","11","","24","","24.1","","99.13","","","","","","Mostly Cloudy"
"2011-05-10 14:00","2011","05","10","14:00","18.4","","7.0","","47","","10","","24","","24.1","","99.10","","","","","","Mostly Cloudy"
"2011-05-10 15:00","2011","05","10","15:00","17.9","","6.5","","47","","9","","24","","24.1","","99.05","","","","","","Cloudy"
"2011-05-10 16:00","2011","05","10","16:00","18.5","","7.0","","47","","7","","22","","24.1","","99.07","","","","","","Cloudy"
"2011-05-10 17:00","2011","05","10","17:00","17.8","","6.3","","47","","8","","20","","24.1","","99.06","","","","","","Mostly Cloudy"
"2011-05-10 18:00","2011","05","10","18:00","17.2","","4.4","","43","","10","","17","","24.1","","99.06","","","","","","Cloudy"
"2011-05-10 19:00","2011","05","10","19:00","16.8","","4.9","","45","","9","","15","","24.1","","99.06","","","","","","Mostly Cloudy"
"2011-05-10 20:00","2011","05","10","20:00","16.2","","5.0","","47","","8","","17","","24.1","","99.10","","","","","","Cloudy"
"2011-05-10 21:00","2011","05","10","21:00","15.5","","5.6","","52","","10","","15","","24.1","","99.13","","","","","","Cloudy"
"2011-05-10 22:00","2011","05","10","22:00","14.6","","4.8","","52","","10","","24","","24.1","","99.17","","","","","","Cloudy"
"2011-05-10 23:00","2011","05","10","23:00","13.4","","6.1","","61","","9","","15","","24.1","","99.15","","","","","","Mostly Cloudy"
"2011-05-11 00:00","2011","05","11","00:00","13.2","","7.4","","68","","10","","17","","24.1","","99.11","","","","","","Mostly Cloudy"
"2011-05-11 01:00","2011","05","11","01:00","13.6","","6.7","","63","","8","","9","","24.1","","99.07","","","","","","Cloudy"
"2011-05-11 02:00","2011","05","11","02:00","13.5","","5.4","","58","","9","","13","","24.1","","99.13","","","","","","Cloudy"
"2011-05-11 03:00","2011","05","11","03:00","13.3","","4.9","","57","","9","","9","","24.1","","99.17","","","","","","Mostly Cloudy"
"2011-05-11 04:00","2011","05","11","04:00","11.6","","5.8","","68","","8","","7","","24.1","","99.17","","","","","","Mostly Cloudy"
"2011-05-11 05:00","2011","05","11","05:00","11.1","","5.3","","67","","8","","13","","24.1","","99.17","","","","","","Mainly Clear"
"2011-05-11 06:00","2011","05","11","06:00","10.7","","5.5","","70","","9","","11","","24.1","","99.18","","","","","","Mainly Clear"
"2011-05-11 07:00","2011","05","11","07:00","12.8","","6.2","","64","","9","","15","","24.1","","99.19","","","","","","Mainly Clear"
"2011-05-11 08:00","2011","05","11","08:00","15.0","","7.2","","60","","9","","20","","24.1","","99.21","","","","","","Mainly Clear"
"2011-05-11 09:00","2011","05","11","09:00","16.9","","8.1","","56","","10","","11","","24.1","","99.29","","","","","","Cloudy"
"2011-05-11 10:00","2011","05","11","10:00","19.2","","9.4","","53","","12","","17","","24.1","","99.25","","","","","","Mostly Cloudy"
"2011-05-11 11:00","2011","05","11","11:00","21.2","","10.5","","50","","9","","9","","24.1","","99.28","","","","","","Mostly Cloudy"
"2011-05-11 12:00","2011","05","11","12:00","21.3","","11.2","","53","","5","","17","","24.1","","99.39","","","","","","Mostly Cloudy"
"2011-05-11 13:00","2011","05","11","13:00","22.2","","11.2","","50","","7","","22","","24.1","","99.34","","","","","","Mostly Cloudy"
"2011-05-11 14:00","2011","05","11","14:00","23.6","","11.9","","48","","7","","20","","24.1","","99.33","","26","","","","Mostly Cloudy"
"2011-05-11 15:00","2011","05","11","15:00","24.6","","12.1","","46","","7","","20","","24.1","","99.28","","27","","","","Mostly Cloudy"
"2011-05-11 16:00","2011","05","11","16:00","24.1","","11.3","","45","","13","","19","","24.1","","99.21","","26","","","","Cloudy"
"2011-05-11 17:00","2011","05","11","17:00","22.3","","8.8","","42","","15","","11","","24.1","","99.26","","","","","","Cloudy"
"2011-05-11 18:00","2011","05","11","18:00","20.2","","5.5","","38","","11","","11","","24.1","","99.21","","","","","","Cloudy"
"2011-05-11 19:00","2011","05","11","19:00","18.4","","6.2","","45","","14","","11","","24.1","","99.15","","","","","","Mostly Cloudy"
"2011-05-11 20:00","2011","05","11","20:00","17.2","","6.5","","49","","14","","13","","24.1","","99.11","","","","","","Mostly Cloudy"
"2011-05-11 21:00","2011","05","11","21:00","16.1","","7.8","","58","","9","","17","","24.1","","99.17","","","","","","Mostly Cloudy"
"2011-05-11 22:00","2011","05","11","22:00","16.1","","8.4","","60","","9","","11","","24.1","","99.24","","","","","","Mostly Cloudy"
"2011-05-11 23:00","2011","05","11","23:00","16.7","","8.2","","57","","9","","9","","24.1","","99.21","","","","","","Cloudy"
"2011-05-12 00:00","2011","05","12","00:00","16.4","","8.3","","59","","9","","11","","24.1","","99.25","","","","","","Cloudy"
"2011-05-12 01:00","2011","05","12","01:00","16.0","","9.1","","64","","9","","9","","24.1","","99.21","","","","","","Cloudy"
"2011-05-12 02:00","2011","05","12","02:00","17.3","","9.4","","60","","5","","15","","24.1","","99.21","","","","","","Thunderstorms,Rain Showers"
"2011-05-12 03:00","2011","05","12","03:00","18.1","","9.8","","58","","11","","9","","24.1","","99.18","","","","","","Cloudy"
"2011-05-12 04:00","2011","05","12","04:00","16.5","","10.3","","67","","15","","4","","24.1","","99.18","","","","","","Thunderstorms"
"2011-05-12 05:00","2011","05","12","05:00","14.6","","10.4","","76","","8","","7","","24.1","","99.03","","","","","","Cloudy"
"2011-05-12 06:00","2011","05","12","06:00","14.6","","10.9","","78","","8","","7","","24.1","","99.08","","","","","","Mostly Cloudy"
"2011-05-12 07:00","2011","05","12","07:00","15.6","","10.0","","69","","12","","20","","24.1","","99.06","","","","","","Mostly Cloudy"
"2011-05-12 08:00","2011","05","12","08:00","15.8","","10.9","","73","","14","","22","","24.1","","99.08","","","","","","Mostly Cloudy"
"2011-05-12 09:00","2011","05","12","09:00","17.7","","12.0","","69","","15","","13","","24.1","","99.07","","","","","","Mostly Cloudy"
"2011-05-12 10:00","2011","05","12","10:00","19.1","","12.6","","66","","","","0","","24.1","","99.05","","","","","","Mostly Cloudy"
"2011-05-12 11:00","2011","05","12","11:00","21.6","","14.3","","63","","14","","6","","24.1","","99.00","","25","","","","Mostly Cloudy"
"2011-05-12 12:00","2011","05","12","12:00","22.9","","15.3","","62","","8","","13","","24.1","","98.94","","27","","","","Mostly Cloudy"
"2011-05-12 13:00","2011","05","12","13:00","25.3","","17.5","","62","","4","","15","","19.3","","98.93","","31","","","","Mostly Cloudy"
"2011-05-12 14:00","2011","05","12","14:00","23.0","","15.8","","64","","5","","19","","19.3","","98.91","","27","","","","Mostly Cloudy"
"2011-05-12 15:00","2011","05","12","15:00","22.2","","15.7","","67","","7","","15","","12.9","","98.83","","27","","","","Mostly Cloudy"
"2011-05-12 16:00","2011","05","12","16:00","23.4","","17.4","","69","","7","","11","","11.3","","98.76","","29","","","","Mainly Clear"
"2011-05-12 17:00","2011","05","12","17:00","23.4","","17.9","","71","","8","","11","","9.7","","98.77","","29","","","","Haze"
"2011-05-12 18:00","2011","05","12","18:00","22.8","","17.1","","70","","15","","19","","9.7","","98.77","","28","","","","Haze"
"2011-05-12 19:00","2011","05","12","19:00","20.3","","15.7","","75","","16","","15","","9.7","","98.75","","25","","","","Haze"
"2011-05-12 20:00","2011","05","12","20:00","19.1","","15.5","","80","","17","","7","","9.7","","98.75","","","","","","Haze"
"2011-05-12 21:00","2011","05","12","21:00","18.2","","15.3","","83","","17","","6","","11.3","","98.77","","","","","","Clear"
"2011-05-12 22:00","2011","05","12","22:00","17.4","","14.5","","83","","12","","6","","11.3","","98.77","","","","","","Clear"
"2011-05-12 23:00","2011","05","12","23:00","16.6","","14.6","","88","","9","","4","","11.3","","98.71","","","","","","Mainly Clear"
"2011-05-13 00:00","2011","05","13","00:00","15.7","","14.0","","90","","","","0","","9.7","","98.70","","","","","","Fog"
"2011-05-13 01:00","2011","05","13","01:00","16.8","","14.8","","88","","8","","4","","9.7","","98.70","","","","","","Thunderstorms,Fog"
"2011-05-13 02:00","2011","05","13","02:00","17.5","","16.3","","93","","","","0","","12.9","","98.59","","","","","","Thunderstorms,Rain Showers"
"2011-05-13 03:00","2011","05","13","03:00","17.3","","15.5","","89","","2","","13","","19.3","","98.54","","","","","","Rain Showers"
"2011-05-13 04:00","2011","05","13","04:00","15.7","","14.7","","94","","8","","6","","9.7","","98.47","","","","","","Fog"
"2011-05-13 05:00","2011","05","13","05:00","15.6","","14.4","","93","","20","","11","","8.0","","98.46","","","","","","Fog"
"2011-05-13 06:00","2011","05","13","06:00","16.6","","15.3","","92","","","","0","","8.0","","98.47","","","","","","Fog"
"2011-05-13 07:00","2011","05","13","07:00","17.2","","15.7","","91","","","","0","","8.0","","98.47","","","","","","Fog"
"2011-05-13 08:00","2011","05","13","08:00","17.1","","15.4","","90","","9","","9","","6.4","","98.56","","","","","","Fog"
"2011-05-13 09:00","2011","05","13","09:00","16.0","","14.4","","90","","12","","4","","6.4","","98.55","","","","","","Fog"
"2011-05-13 10:00","2011","05","13","10:00","17.8","","15.4","","86","","4","","7","","6.4","","98.50","","","","","","Haze"
"2011-05-13 11:00","2011","05","13","11:00","19.4","","16.7","","84","","9","","6","","8.0","","98.45","","","","","","Haze"
"2011-05-13 12:00","2011","05","13","12:00","22.4","","18.2","","77","","","","0","","9.7","","98.40","","29","","","","Haze"
"2011-05-13 13:00","2011","05","13","13:00","24.0","","18.4","","71","","13","","4","","9.7","","98.31","","30","","","","Haze"
"2011-05-13 14:00","2011","05","13","14:00","24.8","","18.1","","66","","10","","4","","9.7","","98.24","","31","","","","Haze"
"2011-05-13 15:00","2011","05","13","15:00","26.1","","18.6","","63","","5","","7","","9.7","","98.17","","33","","","","Haze"
"2011-05-13 16:00","2011","05","13","16:00","26.5","","19.4","","65","","8","","9","","8.0","","98.11","","34","","","","Haze"
"2011-05-13 17:00","2011","05","13","17:00","24.9","","18.8","","69","","9","","9","","8.0","","98.09","","32","","","","Haze"
"2011-05-13 18:00","2011","05","13","18:00","24.3","","18.9","","72","","8","","9","","9.7","","98.08","","31","","","","Haze"
"2011-05-13 19:00","2011","05","13","19:00","22.7","","18.4","","77","","9","","9","","9.7","","98.11","","29","","","","Haze"
"2011-05-13 20:00","2011","05","13","20:00","19.4","","16.2","","82","","16","","9","","8.0","","98.14","","","","","","Haze"
"2011-05-13 21:00","2011","05","13","21:00","19.3","","15.7","","80","","17","","6","","12.9","","98.19","","","","","","Cloudy"
"2011-05-13 22:00","2011","05","13","22:00","20.5","","15.4","","73","","24","","13","","16.1","","98.22","","25","","","","Cloudy"
"2011-05-13 23:00","2011","05","13","23:00","20.2","","16.3","","78","","30","","17","","19.3","","98.22","","25","","","","Cloudy"
"2011-05-14 00:00","2011","05","14","00:00","18.8","","16.9","","89","","35","","19","","8.0","","98.15","","","","","","Thunderstorms,Rain Showers,Fog"
"2011-05-14 01:00","2011","05","14","01:00","17.9","","16.5","","92","","5","","13","","8.0","","98.12","","","","","","Fog"
"2011-05-14 02:00","2011","05","14","02:00","17.0","","15.8","","93","","5","","13","","6.4","","98.11","","","","","","Fog"
"2011-05-14 03:00","2011","05","14","03:00","16.8","","15.5","","92","","4","","11","","4.8","","98.13","","","","","","Fog"
"2011-05-14 04:00","2011","05","14","04:00","16.5","","15.2","","92","","2","","7","","4.8","","98.16","","","","","","Fog"
"2011-05-14 05:00","2011","05","14","05:00","16.4","","15.1","","92","","5","","6","","4.8","","98.17","","","","","","Fog"
"2011-05-14 06:00","2011","05","14","06:00","16.1","","15.1","","94","","5","","6","","4.8","","98.20","","","","","","Fog"
"2011-05-14 07:00","2011","05","14","07:00","15.5","","14.4","","93","","5","","11","","3.2","","98.24","","","","","","Fog"
"2011-05-14 08:00","2011","05","14","08:00","15.4","","14.2","","93","","3","","9","","3.2","","98.25","","","","","","Rain Showers,Fog"
"2011-05-14 09:00","2011","05","14","09:00","15.9","","14.7","","93","","3","","6","","3.2","","98.23","","","","","","Rain Showers,Fog"
"2011-05-14 10:00","2011","05","14","10:00","16.3","","15.1","","93","","3","","6","","3.2","","98.23","","","","","","Fog"
"2011-05-14 11:00","2011","05","14","11:00","16.9","","15.3","","90","","2","","7","","3.2","","98.23","","","","","","Rain Showers,Fog"
"2011-05-14 12:00","2011","05","14","12:00","17.1","","15.1","","88","","36","","13","","8.0","","98.20","","","","","","Fog"
"2011-05-14 13:00","2011","05","14","13:00","17.4","","14.9","","85","","35","","9","","9.7","","98.15","","","","","","Haze"
"2011-05-14 14:00","2011","05","14","14:00","17.5","","14.6","","83","","1","","13","","16.1","","98.10","","","","","","Cloudy"
"2011-05-14 15:00","2011","05","14","15:00","16.8","","14.1","","84","","2","","11","","16.1","","98.11","","","","","","Cloudy"
"2011-05-14 16:00","2011","05","14","16:00","16.2","","13.5","","84","","36","","13","","16.1","","98.12","","","","","","Cloudy"
"2011-05-14 17:00","2011","05","14","17:00","15.6","","13.0","","85","","1","","17","","19.3","","98.08","","","","","","Cloudy"
"2011-05-14 18:00","2011","05","14","18:00","14.3","","12.1","","87","","35","","17","","19.3","","98.10","","","","","","Cloudy"
"2011-05-14 19:00","2011","05","14","19:00","13.3","","11.1","","87","","35","","22","","19.3","","98.09","","","","","","Cloudy"
"2011-05-14 20:00","2011","05","14","20:00","12.2","","10.4","","89","","34","","19","","19.3","","98.12","","","","","","Cloudy"
"2011-05-14 21:00","2011","05","14","21:00","11.6","","9.7","","88","","35","","17","","24.1","","98.09","","","","","","Cloudy"
"2011-05-14 22:00","2011","05","14","22:00","11.2","","9.6","","90","","35","","15","","19.3","","98.08","","","","","","Cloudy"
"2011-05-14 23:00","2011","05","14","23:00","11.2","","9.5","","89","","36","","17","","19.3","","98.07","","","","","","Cloudy"
"2011-05-15 00:00","2011","05","15","00:00","11.1","","9.7","","91","","36","","15","","19.3","","98.05","","","","","","Cloudy"
"2011-05-15 01:00","2011","05","15","01:00","11.2","","10.2","","94","","36","","15","","9.7","","98.01","","","","","","Fog"
"2011-05-15 02:00","2011","05","15","02:00","11.7","","11.0","","95","","3","","17","","2.4","","97.97","","","","","","Rain Showers,Fog"
"2011-05-15 03:00","2011","05","15","03:00","12.4","","11.6","","95","","4","","20","","4.8","","98.00","","","","","","Drizzle,Fog"
"2011-05-15 04:00","2011","05","15","04:00","12.2","","11.4","","95","","2","","19","","4.8","","98.01","","","","","","Rain Showers,Fog"
"2011-05-15 05:00","2011","05","15","05:00","12.0","","10.9","","93","","2","","28","","4.8","","98.03","","","","","","Drizzle,Fog"
"2011-05-15 06:00","2011","05","15","06:00","11.4","","10.4","","94","","3","","9","","3.2","","98.09","","","","","","Drizzle,Fog"
"2011-05-15 07:00","2011","05","15","07:00","10.9","","9.7","","92","","2","","35","","9.7","","98.15","","","","","","Rain,Fog"
"2011-05-15 08:00","2011","05","15","08:00","10.1","","8.9","","92","","3","","43","","9.7","","98.21","","","","","","Rain,Fog"
"2011-05-15 09:00","2011","05","15","09:00","8.5","","7.6","","94","","2","","30","","8.0","","98.27","","","","","","Moderate Rain,Fog"
"2011-05-15 10:00","2011","05","15","10:00","8.2","","7.0","","92","","2","","33","","9.7","","98.32","","","","","","Rain,Fog"
"2011-05-15 11:00","2011","05","15","11:00","7.7","","6.5","","92","","1","","28","","12.9","","98.37","","","","","","Rain"
"2011-05-15 12:00","2011","05","15","12:00","7.3","","5.6","","89","","2","","30","","19.3","","98.41","","","","","","Rain Showers"
"2011-05-15 13:00","2011","05","15","13:00","6.9","","5.1","","88","","1","","26","","9.7","","98.46","","","","","","Rain Showers,Fog"
"2011-05-15 14:00","2011","05","15","14:00","6.5","","4.8","","89","","36","","26","","9.7","","98.50","","","","","","Moderate Rain Showers,Fog"
"2011-05-15 15:00","2011","05","15","15:00","6.4","","4.7","","89","","36","","24","","9.7","","98.51","","","","","","Rain,Fog"
"2011-05-15 16:00","2011","05","15","16:00","6.7","","4.9","","88","","1","","32","","11.3","","98.53","","","","","","Rain"
"2011-05-15 17:00","2011","05","15","17:00","6.5","","4.4","","86","","1","","24","","12.9","","98.58","","","","","","Rain"
"2011-05-15 18:00","2011","05","15","18:00","6.5","","4.1","","85","","1","","30","","12.9","","98.62","","","","","","Rain"
"2011-05-15 19:00","2011","05","15","19:00","6.3","","3.7","","83","","36","","19","","12.9","","98.70","","","","","","Rain"
"2011-05-15 20:00","2011","05","15","20:00","6.1","","3.4","","83","","1","","20","","16.1","","98.76","","","","","","Rain"
"2011-05-15 21:00","2011","05","15","21:00","6.2","","3.5","","83","","1","","15","","19.3","","98.82","","","","","","Rain"
"2011-05-15 22:00","2011","05","15","22:00","6.4","","3.6","","82","","1","","13","","16.1","","98.83","","","","","","Rain"
"2011-05-15 23:00","2011","05","15","23:00","6.5","","3.9","","83","","2","","19","","12.9","","98.82","","","","","","Rain"
"2011-05-16 00:00","2011","05","16","00:00","7.1","","4.1","","81","","3","","26","","12.9","","98.80","","","","","","Rain"
"2011-05-16 01:00","2011","05","16","01:00","6.9","","4.4","","84","","36","","19","","12.9","","98.77","","","","","","Rain"
"2011-05-16 02:00","2011","05","16","02:00","6.6","","4.4","","86","","3","","32","","12.9","","98.74","","","","","","Moderate Rain"
"2011-05-16 03:00","2011","05","16","03:00","6.1","","4.3","","88","","36","","17","","12.9","","98.73","","","","","","Rain"
"2011-05-16 04:00","2011","05","16","04:00","5.6","","3.7","","88","","1","","20","","12.9","","98.75","","","","","","Rain"
"2011-05-16 05:00","2011","05","16","05:00","5.5","","3.4","","86","","36","","17","","11.3","","98.77","","","","","","Rain"
"2011-05-16 06:00","2011","05","16","06:00","5.3","","3.4","","88","","36","","20","","16.1","","98.83","","","","","","Rain"
"2011-05-16 07:00","2011","05","16","07:00","5.2","","3.2","","87","","36","","19","","19.3","","98.87","","","","","","Rain"
"2011-05-16 08:00","2011","05","16","08:00","5.3","","2.9","","84","","36","","20","","24.1","","98.91","","","","","","Rain"
"2011-05-16 09:00","2011","05","16","09:00","5.8","","2.8","","81","","1","","22","","24.1","","98.94","","","","","","Rain"
"2011-05-16 10:00","2011","05","16","10:00","6.6","","3.2","","79","","1","","19","","24.1","","98.96","","","","","","Rain"
"2011-05-16 11:00","2011","05","16","11:00","7.6","","3.3","","74","","36","","20","","24.1","","98.98","","","","","","Rain Showers"
"2011-05-16 12:00","2011","05","16","12:00","8.2","","3.0","","70","","36","","26","","24.1","","99.00","","","","","","Cloudy"
"2011-05-16 13:00","2011","05","16","13:00","8.6","","2.0","","63","","3","","30","","24.1","","98.99","","","","","","Cloudy"
"2011-05-16 14:00","2011","05","16","14:00","8.8","","2.3","","64","","3","","26","","24.1","","98.99","","","","","","Cloudy"
"2011-05-16 15:00","2011","05","16","15:00","8.8","","2.7","","66","","3","","26","","24.1","","99.03","","","","","","Rain Showers"
"2011-05-16 16:00","2011","05","16","16:00","8.3","","2.8","","68","","2","","32","","24.1","","99.04","","","","","","Rain Showers"
"2011-05-16 17:00","2011","05","16","17:00","7.0","","1.2","","67","","2","","19","","24.1","","99.14","","","","","","Cloudy"
"2011-05-16 18:00","2011","05","16","18:00","6.6","","1.3","","69","","1","","22","","24.1","","99.15","","","","","","Cloudy"
"2011-05-16 19:00","2011","05","16","19:00","6.6","","1.4","","69","","1","","22","","24.1","","99.18","","","","","","Cloudy"
"2011-05-16 20:00","2011","05","16","20:00","6.9","","1.5","","68","","1","","17","","24.1","","99.19","","","","","","Cloudy"
"2011-05-16 21:00","2011","05","16","21:00","7.2","","2.1","","70","","36","","15","","24.1","","99.19","","","","","","Cloudy"
"2011-05-16 22:00","2011","05","16","22:00","7.6","","2.9","","72","","1","","11","","24.1","","99.21","","","","","","Cloudy"
"2011-05-16 23:00","2011","05","16","23:00","8.2","","2.9","","69","","2","","17","","24.1","","99.20","","","","","","Cloudy"
"2011-05-17 00:00","2011","05","17","00:00","8.3","","3.7","","73","","3","","19","","24.1","","99.15","","","","","","Cloudy"
"2011-05-17 01:00","2011","05","17","01:00","8.5","","4.2","","74","","3","","17","","24.1","","99.12","","","","","","Cloudy"
"2011-05-17 02:00","2011","05","17","02:00","8.4","","4.8","","78","","4","","19","","24.1","","99.10","","","","","","Cloudy"
"2011-05-17 03:00","2011","05","17","03:00","8.7","","5.5","","80","","4","","22","","24.1","","99.08","","","","","","Cloudy"
"2011-05-17 04:00","2011","05","17","04:00","8.7","","5.8","","82","","4","","22","","24.1","","99.07","","","","","","Cloudy"
"2011-05-17 05:00","2011","05","17","05:00","8.7","","6.1","","84","","3","","19","","24.1","","99.08","","","","","","Cloudy"
"2011-05-17 06:00","2011","05","17","06:00","8.7","","6.1","","84","","3","","24","","19.3","","99.07","","","","","","Cloudy"
"2011-05-17 07:00","2011","05","17","07:00","9.0","","6.5","","84","","4","","20","","24.1","","99.12","","","","","","Cloudy"
"2011-05-17 08:00","2011","05","17","08:00","8.9","","6.4","","84","","3","","24","","24.1","","99.17","","","","","","Cloudy"
"2011-05-17 09:00","2011","05","17","09:00","9.2","","6.0","","80","","4","","22","","24.1","","99.17","","","","","","Cloudy"
"2011-05-17 10:00","2011","05","17","10:00","9.3","","6.3","","81","","3","","26","","24.1","","99.17","","","","","","Cloudy"
"2011-05-17 11:00","2011","05","17","11:00","9.4","","6.3","","81","","3","","28","","24.1","","99.13","","","","","","Cloudy"
"2011-05-17 12:00","2011","05","17","12:00","10.4","","6.6","","77","","3","","32","","24.1","","99.10","","","","","","Cloudy"
"2011-05-17 13:00","2011","05","17","13:00","10.9","","7.1","","77","","3","","32","","24.1","","99.04","","","","","","Cloudy"
"2011-05-17 14:00","2011","05","17","14:00","10.9","","7.2","","78","","3","","26","","24.1","","99.00","","","","","","Cloudy"
"2011-05-17 15:00","2011","05","17","15:00","11.2","","7.3","","77","","3","","28","","24.1","","98.95","","","","","","Cloudy"
"2011-05-17 16:00","2011","05","17","16:00","11.1","","7.9","","81","","3","","22","","19.3","","98.93","","","","","","Rain Showers"
"2011-05-17 17:00","2011","05","17","17:00","10.4","","9.0","","91","","2","","20","","2.4","","98.90","","","","","","Rain,Fog"
"2011-05-17 18:00","2011","05","17","18:00","10.7","","9.6","","93","","1","","13","","8.0","","98.88","","","","","","Rain,Fog"
"2011-05-17 19:00","2011","05","17","19:00","10.8","","9.6","","92","","1","","15","","9.7","","98.87","","","","","","Rain,Fog"
"2011-05-17 20:00","2011","05","17","20:00","10.8","","9.9","","94","","36","","15","","6.4","","98.84","","","","","","Rain,Fog"
"2011-05-17 21:00","2011","05","17","21:00","10.8","","10.1","","95","","1","","17","","3.2","","98.79","","","","","","Rain,Fog"
"2011-05-17 22:00","2011","05","17","22:00","11.2","","10.5","","95","","3","","22","","1.6","","98.81","","","","","","Drizzle,Fog"
"2011-05-17 23:00","2011","05","17","23:00","11.1","","10.4","","95","","2","","20","","2.0","","98.75","","","","","","Drizzle,Fog"
"2011-05-18 00:00","2011","05","18","00:00","11.1","","10.4","","95","","3","","20","","3.2","","98.74","","","","","","Drizzle,Fog"
"2011-05-18 01:00","2011","05","18","01:00","11.2","","10.4","","95","","4","","20","","6.4","","98.71","","","","","","Fog"
"2011-05-18 02:00","2011","05","18","02:00","11.3","","10.5","","95","","5","","19","","8.0","","98.68","","","","","","Fog"
"2011-05-18 03:00","2011","05","18","03:00","11.4","","10.6","","95","","5","","15","","6.4","","98.70","","","","","","Fog"
"2011-05-18 04:00","2011","05","18","04:00","11.2","","10.6","","96","","4","","15","","4.8","","98.69","","","","","","Fog"
"2011-05-18 05:00","2011","05","18","05:00","11.3","","10.6","","95","","4","","13","","4.0","","98.74","","","","","","Fog"
"2011-05-18 06:00","2011","05","18","06:00","11.5","","10.8","","95","","5","","11","","4.8","","98.79","","","","","","Fog"
"2011-05-18 07:00","2011","05","18","07:00","11.9","","11.0","","94","","6","","9","","4.8","","98.81","","","","","","Fog"
"2011-05-18 08:00","2011","05","18","08:00","13.2","","11.9","","92","","7","","13","","6.4","","98.81","","","","","","Fog"
"2011-05-18 09:00","2011","05","18","09:00","14.0","","12.4","","90","","5","","13","","9.7","","98.81","","","","","","Fog"
"2011-05-18 10:00","2011","05","18","10:00","14.5","","12.8","","90","","4","","11","","9.7","","98.82","","","","","","Fog"
"2011-05-18 11:00","2011","05","18","11:00","14.4","","12.6","","89","","7","","6","","9.7","","98.83","","","","","","Fog"
"2011-05-18 12:00","2011","05","18","12:00","16.2","","13.9","","86","","11","","15","","19.3","","98.83","","","","","","Cloudy"
"2011-05-18 13:00","2011","05","18","13:00","16.6","","14.3","","86","","11","","19","","19.3","","98.82","","","","","","Rain Showers"
"2011-05-18 14:00","2011","05","18","14:00","16.6","","14.1","","85","","12","","15","","19.3","","98.82","","","","","","Rain Showers"
"2011-05-18 15:00","2011","05","18","15:00","15.8","","14.6","","93","","10","","9","","9.7","","98.84","","","","","","Rain Showers,Fog"
"2011-05-18 16:00","2011","05","18","16:00","16.2","","15.0","","93","","11","","11","","24.1","","98.81","","","","","","Rain Showers"
"2011-05-18 17:00","2011","05","18","17:00","16.9","","14.9","","88","","10","","9","","24.1","","98.83","","","","","","Cloudy"
"2011-05-18 18:00","2011","05","18","18:00","16.1","","13.9","","87","","16","","13","","24.1","","98.85","","","","","","Cloudy"
"2011-05-18 19:00","2011","05","18","19:00","14.4","","13.0","","91","","11","","6","","19.3","","98.86","","","","","","Mostly Cloudy"
"2011-05-18 20:00","2011","05","18","20:00","13.6","","12.3","","92","","4","","11","","12.9","","98.84","","","","","","Cloudy"
"2011-05-18 21:00","2011","05","18","21:00","13.1","","11.7","","91","","2","","6","","24.1","","98.85","","","","","","Mostly Cloudy"
"2011-05-18 22:00","2011","05","18","22:00","12.8","","11.9","","94","","5","","6","","8.0","","98.86","","","","","","Fog"
"2011-05-18 23:00","2011","05","18","23:00","12.9","","12.1","","95","","17","","6","","4.8","","98.93","","","","","","Fog"
"2011-05-19 00:00","2011","05","19","00:00","12.9","","12.1","","95","","","","0","","4.0","","98.91","","","","","","Fog"
"2011-05-19 01:00","2011","05","19","01:00","12.9","","12.2","","96","","4","","11","","4.0","","98.89","","","","","","Fog"
"2011-05-19 02:00","2011","05","19","02:00","12.5","","12.1","","97","","5","","4","","2.4","","98.87","","","","","","Fog"
"2011-05-19 03:00","2011","05","19","03:00","12.4","","12.1","","98","","15","","6","","1.6","","98.89","","","","","","Fog"
"2011-05-19 04:00","2011","05","19","04:00","12.1","","11.9","","99","","18","","7","","0.8","","98.91","","","","","","Fog"
"2011-05-19 05:00","2011","05","19","05:00","11.8","","11.3","","97","","21","","6","","2.0","","98.94","","","","","","Fog"
"2011-05-19 06:00","2011","05","19","06:00","12.1","","11.5","","96","","19","","4","","1.6","","98.98","","","","","","Fog"
"2011-05-19 07:00","2011","05","19","07:00","12.7","","11.7","","94","","17","","6","","2.4","","99.02","","","","","","Fog"
"2011-05-19 08:00","2011","05","19","08:00","13.2","","12.4","","95","","18","","7","","1.6","","99.06","","","","","","Fog"
"2011-05-19 09:00","2011","05","19","09:00","14.5","","12.8","","90","","18","","7","","4.8","","99.11","","","","","","Fog"
"2011-05-19 10:00","2011","05","19","10:00","15.3","","13.1","","87","","21","","9","","9.7","","99.15","","","","","","Haze"
"2011-05-19 11:00","2011","05","19","11:00","16.2","","13.6","","85","","21","","9","","11.3","","99.18","","","","","","Cloudy"
"2011-05-19 12:00","2011","05","19","12:00","17.3","","13.6","","79","","21","","11","","12.9","","99.21","","","","","","Mostly Cloudy"
"2011-05-19 13:00","2011","05","19","13:00","18.6","","13.8","","74","","17","","13","","12.9","","99.23","","","","","","Mostly Cloudy"
"2011-05-19 14:00","2011","05","19","14:00","19.1","","14.6","","75","","19","","19","","16.1","","99.24","","","","","","Mostly Cloudy"
"2011-05-19 15:00","2011","05","19","15:00","18.8","","14.2","","75","","18","","15","","12.9","","99.22","","","","","","Mainly Clear"
"2011-05-19 16:00","2011","05","19","16:00","18.8","","14.3","","75","","18","","13","","11.3","","99.24","","","","","","Mostly Cloudy"
"2011-05-19 17:00","2011","05","19","17:00","18.6","","13.5","","72","","21","","15","","12.9","","99.25","","","","","","Mostly Cloudy"
"2011-05-19 18:00","2011","05","19","18:00","18.1","","13.1","","73","","20","","9","","16.1","","99.28","","","","","","Mainly Clear"
"2011-05-19 19:00","2011","05","19","19:00","17.8","","13.4","","75","","18","","9","","16.1","","99.30","","","","","","Mostly Cloudy"
"2011-05-19 20:00","2011","05","19","20:00","16.9","","13.3","","79","","20","","7","","19.3","","99.34","","","","","","Mostly Cloudy"
"2011-05-19 21:00","2011","05","19","21:00","16.0","","13.6","","86","","19","","4","","24.1","","99.38","","","","","","Mostly Cloudy"
"2011-05-19 22:00","2011","05","19","22:00","15.3","","13.2","","87","","6","","6","","19.3","","99.42","","","","","","Mostly Cloudy"
"2011-05-19 23:00","2011","05","19","23:00","14.3","","13.0","","92","","17","","4","","19.3","","99.40","","","","","","Mostly Cloudy"
"2011-05-20 00:00","2011","05","20","00:00","13.5","","12.6","","94","","10","","6","","12.9","","99.43","","","","","","Mainly Clear"
"2011-05-20 01:00","2011","05","20","01:00","12.6","","11.8","","95","","","","0","","8.0","","99.41","","","","","","Fog"
"2011-05-20 02:00","2011","05","20","02:00","12.1","","11.5","","96","","","","0","","3.2","","99.40","","","","","","Fog"
"2011-05-20 03:00","2011","05","20","03:00","12.0","","11.7","","98","","","","0","","0.2","","99.43","","","","","","Fog"
"2011-05-20 04:00","2011","05","20","04:00","11.6","","11.4","","99","","","","0","","0.0","","99.46","","","","","","Fog"
"2011-05-20 05:00","2011","05","20","05:00","12.2","","12.1","","99","","","","0","","0.0","","99.49","","","","","","Fog"
"2011-05-20 06:00","2011","05","20","06:00","12.6","","12.1","","97","","19","","4","","0.2","","99.54","","","","","","Fog"
"2011-05-20 07:00","2011","05","20","07:00","13.2","","12.1","","93","","28","","6","","0.2","","99.57","","","","","","Fog"
"2011-05-20 08:00","2011","05","20","08:00","14.3","","13.7","","96","","","","0","","0.2","","99.61","","","","","","Fog"
"2011-05-20 09:00","2011","05","20","09:00","15.4","","14.7","","96","","","","0","","0.6","","99.63","","","","","","Fog"
"2011-05-20 10:00","2011","05","20","10:00","17.5","","15.6","","89","","7","","4","","8.0","","99.59","","","","","","Fog"
"2011-05-20 11:00","2011","05","20","11:00","19.4","","15.7","","79","","10","","4","","11.3","","99.58","","","","","","Mostly Cloudy"
"2011-05-20 12:00","2011","05","20","12:00","20.0","","15.0","","73","","7","","6","","19.3","","99.58","","","","","","Mainly Clear"
"2011-05-20 13:00","2011","05","20","13:00","20.7","","14.6","","68","","8","","11","","9.7","","99.55","","","","","","Haze"
"2011-05-20 14:00","2011","05","20","14:00","21.4","","14.2","","64","","8","","13","","12.9","","99.52","","25","","","","Mainly Clear"
"2011-05-20 15:00","2011","05","20","15:00","21.6","","13.9","","62","","4","","9","","19.3","","99.52","","25","","","","Mainly Clear"
"2011-05-20 16:00","2011","05","20","16:00","21.6","","13.4","","60","","8","","9","","24.1","","99.48","","25","","","","Mainly Clear"
"2011-05-20 17:00","2011","05","20","17:00","21.6","","12.3","","55","","8","","9","","24.1","","99.50","","","","","","Mostly Cloudy"
"2011-05-20 18:00","2011","05","20","18:00","21.4","","11.9","","55","","13","","6","","24.1","","99.51","","","","","","Mostly Cloudy"
"2011-05-20 19:00","2011","05","20","19:00","20.2","","14.6","","70","","20","","7","","24.1","","99.50","","","","","","Cloudy"
"2011-05-20 20:00","2011","05","20","20:00","19.0","","14.6","","76","","20","","4","","16.1","","99.48","","","","","","Cloudy"
"2011-05-20 21:00","2011","05","20","21:00","17.3","","14.4","","83","","","","0","","12.9","","99.53","","","","","","Cloudy"
"2011-05-20 22:00","2011","05","20","22:00","16.8","","14.5","","86","","6","","6","","11.3","","99.60","","","","","","Mostly Cloudy"
"2011-05-20 23:00","2011","05","20","23:00","15.7","","13.6","","87","","5","","7","","19.3","","99.64","","","","","","Mostly Cloudy"
"2011-05-21 00:00","2011","05","21","00:00","14.7","","13.3","","91","","4","","6","","19.3","","99.60","","","","","","Mostly Cloudy"
"2011-05-21 01:00","2011","05","21","01:00","14.2","","12.7","","91","","5","","9","","19.3","","99.53","","","","","","Mostly Cloudy"
"2011-05-21 02:00","2011","05","21","02:00","13.6","","12.5","","93","","5","","6","","19.3","","99.47","","","","","","Mainly Clear"
"2011-05-21 03:00","2011","05","21","03:00","13.5","","12.4","","93","","","","0","","16.1","","99.46","","","","","","Mostly Cloudy"
"2011-05-21 04:00","2011","05","21","04:00","12.9","","12.0","","94","","","","0","","11.3","","99.42","","","","","","Mainly Clear"
"2011-05-21 05:00","2011","05","21","05:00","12.8","","12.0","","95","","27","","4","","6.4","","99.50","","","","","","Fog"
"2011-05-21 06:00","2011","05","21","06:00","13.5","","12.5","","94","","27","","7","","8.0","","99.57","","","","","","Fog"
"2011-05-21 07:00","2011","05","21","07:00","15.3","","13.3","","88","","27","","4","","12.9","","99.61","","","","","","Mainly Clear"
"2011-05-21 08:00","2011","05","21","08:00","17.9","","13.6","","76","","16","","4","","24.1","","99.55","","","","","","Mostly Cloudy"
"2011-05-21 09:00","2011","05","21","09:00","19.5","","13.9","","70","","19","","4","","24.1","","99.57","","","","","","Mostly Cloudy"
"2011-05-21 10:00","2011","05","21","10:00","20.5","","14.7","","69","","18","","6","","24.1","","99.54","","","","","","Mostly Cloudy"
"2011-05-21 11:00","2011","05","21","11:00","22.1","","15.3","","65","","14","","7","","24.1","","99.51","","26","","","","Mostly Cloudy"
"2011-05-21 12:00","2011","05","21","12:00","22.5","","14.9","","62","","16","","11","","24.1","","99.50","","26","","","","Mainly Clear"
"2011-05-21 13:00","2011","05","21","13:00","23.6","","15.2","","59","","15","","13","","24.1","","99.40","","28","","","","Mostly Cloudy"
"2011-05-21 14:00","2011","05","21","14:00","23.7","","14.3","","56","","16","","17","","24.1","","99.37","","27","","","","Mostly Cloudy"
"2011-05-21 15:00","2011","05","21","15:00","23.9","","13.0","","50","","16","","13","","24.1","","99.33","","27","","","","Mostly Cloudy"
"2011-05-21 16:00","2011","05","21","16:00","24.4","","11.1","","43","","13","","11","","24.1","","99.26","","26","","","","Mostly Cloudy"
"2011-05-21 17:00","2011","05","21","17:00","24.0","","13.6","","52","","17","","13","","24.1","","99.25","","27","","","","Mostly Cloudy"
"2011-05-21 18:00","2011","05","21","18:00","23.4","","13.9","","55","","14","","7","","24.1","","99.23","","27","","","","Mostly Cloudy"
"2011-05-21 19:00","2011","05","21","19:00","22.6","","14.2","","59","","15","","9","","24.1","","99.23","","26","","","","Cloudy"
"2011-05-21 20:00","2011","05","21","20:00","20.8","","15.0","","69","","13","","11","","12.9","","99.23","","25","","","","Rain Showers"
"2011-05-21 21:00","2011","05","21","21:00","18.6","","12.8","","69","","16","","7","","16.1","","99.25","","","","","","Rain Showers"
"2011-05-21 22:00","2011","05","21","22:00","17.5","","13.9","","79","","13","","6","","19.3","","99.23","","","","","","Rain"
"2011-05-21 23:00","2011","05","21","23:00","17.5","","13.5","","77","","12","","9","","19.3","","99.16","","","","","","Rain"
"2011-05-22 00:00","2011","05","22","00:00","17.5","","13.9","","79","","11","","7","","24.1","","99.12","","","","","","Cloudy"
"2011-05-22 01:00","2011","05","22","01:00","17.6","","14.3","","81","","10","","6","","24.1","","99.06","","","","","","Cloudy"
"2011-05-22 02:00","2011","05","22","02:00","17.3","","14.5","","84","","10","","7","","24.1","","99.02","","","","","","Mostly Cloudy"
"2011-05-22 03:00","2011","05","22","03:00","18.1","","14.6","","80","","13","","6","","24.1","","99.00","","","","","","Mostly Cloudy"
"2011-05-22 04:00","2011","05","22","04:00","17.5","","15.6","","89","","16","","11","","16.1","","98.98","","","","","","Rain Showers"
"2011-05-22 05:00","2011","05","22","05:00","17.7","","15.7","","88","","16","","11","","12.9","","98.99","","","","","","Cloudy"
"2011-05-22 06:00","2011","05","22","06:00","18.0","","15.6","","86","","16","","15","","12.9","","99.00","","","","","","Mostly Cloudy"
"2011-05-22 07:00","2011","05","22","07:00","18.1","","15.8","","86","","17","","11","","12.9","","99.04","","","","","","Mostly Cloudy"
"2011-05-22 08:00","2011","05","22","08:00","20.1","","16.9","","82","","18","","11","","16.1","","99.05","","25","","","","Mainly Clear"
"2011-05-22 09:00","2011","05","22","09:00","21.7","","17.6","","78","","20","","11","","16.1","","99.01","","27","","","","Clear"
"2011-05-22 10:00","2011","05","22","10:00","22.9","","18.6","","77","","21","","11","","19.3","","99.01","","29","","","","Mainly Clear"
"2011-05-22 11:00","2011","05","22","11:00","24.9","","19.5","","72","","16","","4","","19.3","","98.94","","32","","","","Clear"
"2011-05-22 12:00","2011","05","22","12:00","26.3","","20.1","","69","","18","","19","","24.1","","98.89","","34","","","","Mainly Clear"
"2011-05-22 13:00","2011","05","22","13:00","26.1","","18.4","","63","","19","","22","","24.1","","98.86","","32","","","","Mostly Cloudy"
"2011-05-22 14:00","2011","05","22","14:00","26.6","","18.6","","62","","19","","20","","24.1","","98.83","","33","","","","Mostly Cloudy"
"2011-05-22 15:00","2011","05","22","15:00","27.1","","19.3","","62","","18","","28","","24.1","","98.76","","34","","","","Mostly Cloudy"
"2011-05-22 16:00","2011","05","22","16:00","26.9","","18.6","","60","","18","","17","","24.1","","98.69","","33","","","","Mostly Cloudy"
"2011-05-22 17:00","2011","05","22","17:00","26.4","","18.1","","60","","18","","20","","24.1","","98.58","","32","","","","Mostly Cloudy"
"2011-05-22 18:00","2011","05","22","18:00","26.4","","18.4","","61","","17","","19","","24.1","","98.57","","33","","","","Mostly Cloudy"
"2011-05-22 19:00","2011","05","22","19:00","26.1","","17.4","","59","","19","","19","","24.1","","98.54","","32","","","","Mostly Cloudy"
"2011-05-22 20:00","2011","05","22","20:00","24.4","","17.1","","64","","19","","19","","19.3","","98.51","","30","","","","Mostly Cloudy"
"2011-05-22 21:00","2011","05","22","21:00","24.7","","17.3","","63","","20","","17","","24.1","","98.52","","30","","","","Mostly Cloudy"
"2011-05-22 22:00","2011","05","22","22:00","24.4","","17.6","","66","","19","","26","","19.3","","98.50","","30","","","","Mostly Cloudy"
"2011-05-22 23:00","2011","05","22","23:00","22.3","","15.4","","65","","24","","22","","19.3","","98.57","","27","","","","Cloudy"
"2011-05-23 00:00","2011","05","23","00:00","20.2","","14.9","","72","","19","","19","","24.1","","98.48","","","","","","Mostly Cloudy"
"2011-05-23 01:00","2011","05","23","01:00","19.3","","14.8","","75","","20","","19","","24.1","","98.50","","","","","","Mostly Cloudy"
"2011-05-23 02:00","2011","05","23","02:00","18.8","","15.6","","82","","20","","19","","24.1","","98.35","","","","","","Mostly Cloudy"
"2011-05-23 03:00","2011","05","23","03:00","19.5","","15.3","","77","","20","","26","","24.1","","98.32","","","","","","Mostly Cloudy"
"2011-05-23 04:00","2011","05","23","04:00","19.1","","15.3","","79","","20","","20","","24.1","","98.28","","","","","","Mostly Cloudy"
"2011-05-23 05:00","2011","05","23","05:00","19.1","","15.6","","80","","20","","22","","16.1","","98.27","","","","","","Mostly Cloudy"
"2011-05-23 06:00","2011","05","23","06:00","18.9","","15.9","","83","","20","","24","","19.3","","98.21","","","","","","Mostly Cloudy"
"2011-05-23 07:00","2011","05","23","07:00","20.1","","16.5","","80","","20","","19","","24.1","","98.22","","25","","","","Mostly Cloudy"
"2011-05-23 08:00","2011","05","23","08:00","20.1","","16.5","","80","","20","","32","","24.1","","98.24","","25","","","","Cloudy"
"2011-05-23 09:00","2011","05","23","09:00","21.5","","17.3","","77","","21","","28","","24.1","","98.22","","27","","","","Mostly Cloudy"
"2011-05-23 10:00","2011","05","23","10:00","22.4","","17.7","","75","","21","","35","","19.3","","98.24","","28","","","","Cloudy"
"2011-05-23 11:00","2011","05","23","11:00","23.6","","17.7","","70","","21","","44","","24.1","","98.16","","29","","","","Mostly Cloudy"
"2011-05-23 12:00","2011","05","23","12:00","24.3","","17.5","","66","","22","","43","","19.3","","98.07","","30","","","","Mostly Cloudy"
"2011-05-23 13:00","2011","05","23","13:00","25.0","","18.4","","67","","22","","30","","24.1","","98.04","","31","","","","Mainly Clear"
"2011-05-23 14:00","2011","05","23","14:00","26.4","","17.9","","60","","22","","26","","24.1","","97.95","","32","","","","Mainly Clear"
"2011-05-23 15:00","2011","05","23","15:00","26.0","","17.2","","58","","20","","28","","24.1","","97.93","","31","","","","Mostly Cloudy"
"2011-05-23 16:00","2011","05","23","16:00","22.5","","18.8","","80","","23","","20","","19.3","","97.96","","29","","","","Mostly Cloudy"
"2011-05-23 17:00","2011","05","23","17:00","22.5","","18.8","","80","","30","","13","","6.4","","97.95","","29","","","","Thunderstorms,Rain Showers"
"2011-05-23 18:00","2011","05","23","18:00","20.3","","17.1","","82","","24","","30","","24.1","","97.98","","26","","","","Thunderstorms,Rain Showers"
"2011-05-23 19:00","2011","05","23","19:00","22.2","","17.1","","73","","24","","33","","24.1","","98.04","","28","","","","Mostly Cloudy"
"2011-05-23 20:00","2011","05","23","20:00","21.0","","16.6","","76","","23","","33","","24.1","","98.05","","26","","","","Mostly Cloudy"
"2011-05-23 21:00","2011","05","23","21:00","19.9","","17.1","","84","","26","","17","","24.1","","98.17","","","","","","Mainly Clear"
"2011-05-23 22:00","2011","05","23","22:00","20.2","","17.5","","84","","23","","19","","24.1","","98.22","","26","","","","Mainly Clear"
"2011-05-23 23:00","2011","05","23","23:00","19.6","","16.7","","83","","23","","20","","24.1","","98.27","","","","","","Clear"
"2011-05-24 00:00","2011","05","24","00:00","19.0","","16.7","","87","","23","","15","","24.1","","98.29","","","","","","Clear"
"2011-05-24 01:00","2011","05","24","01:00","18.9","","16.7","","87","","23","","13","","24.1","","98.36","","","","","","Mostly Cloudy"
"2011-05-24 02:00","2011","05","24","02:00","18.8","","16.2","","85","","24","","15","","24.1","","98.31","","","","","","Mostly Cloudy"
"2011-05-24 03:00","2011","05","24","03:00","18.4","","15.9","","85","","25","","15","","24.1","","98.33","","","","","","Mostly Cloudy"
"2011-05-24 04:00","2011","05","24","04:00","18.0","","15.7","","86","","26","","15","","24.1","","98.39","","","","","","Mostly Cloudy"
"2011-05-24 05:00","2011","05","24","05:00","17.6","","15.2","","86","","27","","11","","24.1","","98.48","","","","","","Mainly Clear"
"2011-05-24 06:00","2011","05","24","06:00","17.7","","15.3","","86","","27","","11","","19.3","","98.60","","","","","","Mainly Clear"
"2011-05-24 07:00","2011","05","24","07:00","18.0","","13.9","","77","","30","","17","","24.1","","98.67","","","","","","Mainly Clear"
"2011-05-24 08:00","2011","05","24","08:00","18.8","","14.3","","75","","30","","15","","24.1","","98.68","","","","","","Mainly Clear"
"2011-05-24 09:00","2011","05","24","09:00","20.1","","14.5","","70","","34","","6","","24.1","","98.70","","","","","","Mainly Clear"
"2011-05-24 10:00","2011","05","24","10:00","20.8","","14.4","","67","","34","","7","","24.1","","98.74","","","","","","Mainly Clear"
"2011-05-24 11:00","2011","05","24","11:00","21.7","","15.2","","67","","7","","17","","24.1","","98.78","","26","","","","Mainly Clear"
"2011-05-24 12:00","2011","05","24","12:00","21.0","","15.3","","70","","6","","17","","24.1","","98.85","","25","","","","Mostly Cloudy"
"2011-05-24 13:00","2011","05","24","13:00","20.5","","14.6","","69","","6","","17","","24.1","","98.87","","","","","","Mainly Clear"
"2011-05-24 14:00","2011","05","24","14:00","20.0","","14.3","","70","","6","","17","","24.1","","98.88","","","","","","Mainly Clear"
"2011-05-24 15:00","2011","05","24","15:00","20.3","","14.4","","69","","7","","17","","24.1","","98.89","","","","","","Mainly Clear"
"2011-05-24 16:00","2011","05","24","16:00","20.2","","14.1","","68","","5","","19","","24.1","","98.88","","","","","","Mainly Clear"
"2011-05-24 17:00","2011","05","24","17:00","18.7","","12.9","","69","","4","","22","","24.1","","98.89","","","","","","Mainly Clear"
"2011-05-24 18:00","2011","05","24","18:00","17.1","","11.6","","70","","4","","26","","24.1","","98.95","","","","","","Mainly Clear"
"2011-05-24 19:00","2011","05","24","19:00","15.2","","10.8","","75","","6","","22","","24.1","","99.01","","","","","","Mainly Clear"
"2011-05-24 20:00","2011","05","24","20:00","13.7","","9.8","","77","","5","","24","","24.1","","99.10","","","","","","Mainly Clear"
"2011-05-24 21:00","2011","05","24","21:00","12.8","","9.7","","81","","6","","19","","24.1","","99.13","","","","","","Clear"
"2011-05-24 22:00","2011","05","24","22:00","12.5","","9.1","","80","","4","","19","","24.1","","99.20","","","","","","Clear"
"2011-05-24 23:00","2011","05","24","23:00","11.8","","8.8","","82","","5","","15","","24.1","","99.18","","","","","","Clear"
"2011-05-25 00:00","2011","05","25","00:00","11.4","","8.4","","82","","5","","13","","24.1","","99.27","","","","","","Mainly Clear"
"2011-05-25 01:00","2011","05","25","01:00","11.9","","8.5","","80","","4","","13","","24.1","","99.21","","","","","","Mostly Cloudy"
"2011-05-25 02:00","2011","05","25","02:00","11.1","","8.0","","81","","4","","15","","24.1","","99.20","","","","","","Mainly Clear"
"2011-05-25 03:00","2011","05","25","03:00","10.4","","7.9","","84","","4","","13","","24.1","","99.12","","","","","","Mainly Clear"
"2011-05-25 04:00","2011","05","25","04:00","10.0","","7.9","","87","","4","","17","","24.1","","99.11","","","","","","Mostly Cloudy"
"2011-05-25 05:00","2011","05","25","05:00","10.5","","8.4","","87","","5","","11","","16.1","","99.10","","","","","","Mostly Cloudy"
"2011-05-25 06:00","2011","05","25","06:00","11.6","","9.3","","86","","6","","15","","19.3","","99.14","","","","","","Mostly Cloudy"
"2011-05-25 07:00","2011","05","25","07:00","12.3","","9.6","","84","","8","","17","","19.3","","99.10","","","","","","Cloudy"
"2011-05-25 08:00","2011","05","25","08:00","12.3","","10.0","","86","","7","","11","","19.3","","99.10","","","","","","Cloudy"
"2011-05-25 09:00","2011","05","25","09:00","12.6","","11.1","","91","","4","","9","","8.0","","99.08","","","","","","Rain Showers,Fog"
"2011-05-25 10:00","2011","05","25","10:00","12.6","","11.5","","93","","6","","20","","9.7","","99.01","","","","","","Fog"
"2011-05-25 11:00","2011","05","25","11:00","14.0","","12.0","","88","","17","","22","","16.1","","98.92","","","","","","Cloudy"
"2011-05-25 12:00","2011","05","25","12:00","15.6","","12.7","","83","","10","","26","","24.1","","98.78","","","","","","Cloudy"
"2011-05-25 13:00","2011","05","25","13:00","16.6","","13.1","","80","","11","","4","","24.1","","98.91","","","","","","Rain Showers"
"2011-05-25 14:00","2011","05","25","14:00","15.5","","13.9","","90","","9","","15","","8.0","","98.66","","","","","","Thunderstorms,Rain Showers,Fog"
"2011-05-25 15:00","2011","05","25","15:00","14.6","","13.5","","93","","32","","32","","0.4","","98.85","","","","","","Thunderstorms,Heavy Rain Showers,Fog"
"2011-05-25 16:00","2011","05","25","16:00","14.4","","13.6","","95","","10","","19","","6.4","","98.53","","","","","","Thunderstorms,Rain Showers,Fog"
"2011-05-25 17:00","2011","05","25","17:00","14.5","","13.6","","94","","13","","19","","4.8","","98.54","","","","","","Thunderstorms,Rain Showers,Fog"
"2011-05-25 18:00","2011","05","25","18:00","15.2","","14.2","","94","","8","","13","","8.0","","98.43","","","","","","Thunderstorms,Moderate Rain Showers,Fog"
"2011-05-25 19:00","2011","05","25","19:00","15.3","","14.3","","94","","15","","17","","12.9","","98.38","","","","","","Rain Showers"
"2011-05-25 20:00","2011","05","25","20:00","15.9","","14.6","","92","","14","","32","","19.3","","98.09","","","","","","Rain Showers"
"2011-05-25 21:00","2011","05","25","21:00","15.4","","14.3","","93","","23","","4","","24.1","","98.25","","","","","","Mostly Cloudy"
"2011-05-25 22:00","2011","05","25","22:00","15.3","","14.1","","93","","17","","15","","11.3","","98.42","","","","","","Mostly Cloudy"
"2011-05-25 23:00","2011","05","25","23:00","15.6","","14.3","","92","","18","","9","","16.1","","98.35","","","","","","Cloudy"
"2011-05-26 00:00","2011","05","26","00:00","16.9","","14.4","","85","","10","","11","","24.1","","97.91","","","","","","Rain Showers"
"2011-05-26 01:00","2011","05","26","01:00","16.3","","14.0","","86","","34","","17","","24.1","","97.93","","","","","","Cloudy"
"2011-05-26 02:00","2011","05","26","02:00","15.3","","14.1","","93","","34","","7","","24.1","","98.01","","","","","","Cloudy"
"2011-05-26 03:00","2011","05","26","03:00","16.0","","14.6","","91","","12","","17","","24.1","","98.00","","","","","","Thunderstorms,Rain Showers"
"2011-05-26 04:00","2011","05","26","04:00","15.7","","14.6","","93","","","","0","","24.1","","98.05","","","","","","Cloudy"
"2011-05-26 05:00","2011","05","26","05:00","15.9","","14.5","","91","","18","","7","","19.3","","98.09","","","","","","Cloudy"
"2011-05-26 06:00","2011","05","26","06:00","16.1","","14.6","","91","","20","","6","","19.3","","98.22","","","","","","Cloudy"
"2011-05-26 07:00","2011","05","26","07:00","16.7","","14.7","","88","","20","","11","","12.9","","98.21","","","","","","Cloudy"
"2011-05-26 08:00","2011","05","26","08:00","16.9","","15.1","","89","","22","","13","","19.3","","98.23","","","","","","Drizzle"
"2011-05-26 09:00","2011","05","26","09:00","18.9","","15.7","","82","","23","","20","","24.1","","98.26","","","","","","Cloudy"
"2011-05-26 10:00","2011","05","26","10:00","19.9","","15.7","","77","","23","","17","","19.3","","98.30","","","","","","Mostly Cloudy"
"2011-05-26 11:00","2011","05","26","11:00","20.7","","15.8","","74","","23","","24","","24.1","","98.38","","25","","","","Mostly Cloudy"
"2011-05-26 12:00","2011","05","26","12:00","21.3","","16.6","","75","","21","","17","","24.1","","98.39","","26","","","","Mostly Cloudy"
"2011-05-26 13:00","2011","05","26","13:00","20.7","","16.2","","75","","20","","13","","19.3","","98.38","","25","","","","Cloudy"
"2011-05-26 14:00","2011","05","26","14:00","17.4","","15.4","","88","","4","","24","","9.7","","98.44","","","","","","Rain Showers"
"2011-05-26 15:00","2011","05","26","15:00","13.5","","12.3","","92","","4","","17","","8.0","","98.57","","","","","","Rain Showers,Fog"
"2011-05-26 16:00","2011","05","26","16:00","11.0","","9.5","","90","","1","","28","","19.3","","98.57","","","","","","Rain Showers"
"2011-05-26 17:00","2011","05","26","17:00","10.2","","8.5","","89","","2","","28","","24.1","","98.57","","","","","","Cloudy"
"2011-05-26 18:00","2011","05","26","18:00","8.8","","7.0","","88","","36","","24","","19.3","","98.61","","","","","","Rain"
"2011-05-26 19:00","2011","05","26","19:00","8.5","","7.0","","90","","2","","24","","8.0","","98.66","","","","","","Rain Showers,Fog"
"2011-05-26 20:00","2011","05","26","20:00","8.3","","6.9","","91","","36","","22","","4.8","","98.72","","","","","","Moderate Rain Showers,Fog"
"2011-05-26 21:00","2011","05","26","21:00","8.3","","6.6","","89","","2","","15","","16.1","","98.82","","","","","","Cloudy"
"2011-05-26 22:00","2011","05","26","22:00","8.1","","6.6","","90","","36","","17","","19.3","","98.90","","","","","","Cloudy"
"2011-05-26 23:00","2011","05","26","23:00","7.9","","6.3","","90","","36","","15","","19.3","","98.90","","","","","","Cloudy"
"2011-05-27 00:00","2011","05","27","00:00","7.9","","6.1","","88","","35","","15","","19.3","","98.91","","","","","","Rain Showers"
"2011-05-27 01:00","2011","05","27","01:00","8.1","","6.5","","90","","36","","15","","16.1","","98.90","","","","","","Rain Showers"
"2011-05-27 02:00","2011","05","27","02:00","8.2","","6.9","","92","","36","","15","","11.3","","98.93","","","","","","Drizzle"
"2011-05-27 03:00","2011","05","27","03:00","8.4","","7.2","","92","","35","","11","","11.3","","98.98","","","","","","Drizzle"
"2011-05-27 04:00","2011","05","27","04:00","8.6","","7.3","","92","","36","","11","","16.1","","99.05","","","","","","Cloudy"
"2011-05-27 05:00","2011","05","27","05:00","8.7","","7.3","","91","","36","","15","","16.1","","99.05","","","","","","Rain"
"2011-05-27 06:00","2011","05","27","06:00","8.8","","7.4","","91","","36","","17","","16.1","","99.06","","","","","","Cloudy"
"2011-05-27 07:00","2011","05","27","07:00","9.3","","7.7","","90","","2","","19","","16.1","","99.10","","","","","","Cloudy"
"2011-05-27 08:00","2011","05","27","08:00","9.8","","7.5","","86","","25","","13","","19.3","","99.14","","","","","","Cloudy"
"2011-05-27 09:00","2011","05","27","09:00","10.4","","8.5","","88","","36","","13","","16.1","","99.18","","","","","","Cloudy"
"2011-05-27 10:00","2011","05","27","10:00","10.2","","8.5","","89","","34","","15","","16.1","","99.19","","","","","","Cloudy"
"2011-05-27 11:00","2011","05","27","11:00","11.4","","9.7","","89","","4","","11","","16.1","","99.18","","","","","","Cloudy"
"2011-05-27 12:00","2011","05","27","12:00","12.0","","10.1","","88","","2","","9","","11.3","","99.17","","","","","","Cloudy"
"2011-05-27 13:00","2011","05","27","13:00","12.3","","10.4","","88","","6","","11","","11.3","","99.16","","","","","","Cloudy"
"2011-05-27 14:00","2011","05","27","14:00","12.2","","10.5","","89","","3","","11","","11.3","","99.15","","","","","","Cloudy"
"2011-05-27 15:00","2011","05","27","15:00","12.5","","10.9","","90","","6","","11","","6.4","","99.13","","","","","","Drizzle,Fog"
"2011-05-27 16:00","2011","05","27","16:00","13.0","","11.3","","89","","34","","9","","9.7","","99.14","","","","","","Drizzle,Fog"
"2011-05-27 17:00","2011","05","27","17:00","12.5","","10.9","","90","","36","","9","","8.0","","99.15","","","","","","Fog"
"2011-05-27 18:00","2011","05","27","18:00","12.5","","11.4","","93","","6","","11","","2.4","","99.11","","","","","","Drizzle,Fog"
"2011-05-27 19:00","2011","05","27","19:00","12.4","","11.5","","94","","3","","9","","4.8","","99.08","","","","","","Fog"
"2011-05-27 20:00","2011","05","27","20:00","11.9","","11.3","","96","","7","","11","","1.0","","99.03","","","","","","Drizzle,Fog"
"2011-05-27 21:00","2011","05","27","21:00","12.1","","11.8","","98","","","","0","","0.4","","99.15","","","","","","Drizzle,Fog"
"2011-05-27 22:00","2011","05","27","22:00","12.4","","11.9","","97","","22","","4","","1.2","","99.19","","","","","","Fog"
"2011-05-27 23:00","2011","05","27","23:00","12.3","","12.0","","98","","","","0","","0.6","","99.07","","","","","","Drizzle,Fog"
"2011-05-28 00:00","2011","05","28","00:00","12.4","","12.0","","97","","","","0","","0.6","","99.03","","","","","","Drizzle,Fog"
"2011-05-28 01:00","2011","05","28","01:00","12.5","","12.1","","97","","","","0","","0.8","","99.03","","","","","","Drizzle,Fog"
"2011-05-28 02:00","2011","05","28","02:00","12.5","","12.1","","97","","16","","6","","1.2","","98.94","","","","","","Drizzle,Fog"
"2011-05-28 03:00","2011","05","28","03:00","12.5","","12.1","","97","","18","","6","","1.2","","98.94","","","","","","Fog"
"2011-05-28 04:00","2011","05","28","04:00","12.6","","12.1","","97","","20","","6","","0.6","","98.96","","","","","","Fog"
"2011-05-28 05:00","2011","05","28","05:00","12.9","","12.3","","96","","20","","7","","0.6","","99.00","","","","","","Fog"
"2011-05-28 06:00","2011","05","28","06:00","13.2","","13.0","","99","","13","","4","","2.0","","98.96","","","","","","Fog"
"2011-05-28 07:00","2011","05","28","07:00","13.6","","13.2","","97","","19","","7","","3.2","","98.99","","","","","","Fog"
"2011-05-28 08:00","2011","05","28","08:00","14.6","","13.2","","91","","20","","11","","4.8","","99.01","","","","","","Fog"
"2011-05-28 09:00","2011","05","28","09:00","15.1","","13.5","","90","","19","","11","","4.8","","99.00","","","","","","Drizzle,Fog"
"2011-05-28 10:00","2011","05","28","10:00","17.2","","14.2","","83","","21","","17","","8.0","","98.96","","","","","","Haze"
"2011-05-28 11:00","2011","05","28","11:00","16.6","","13.6","","82","","22","","20","","9.7","","99.03","","","","","","Haze"
"2011-05-28 12:00","2011","05","28","12:00","18.2","","13.9","","76","","19","","22","","14.5","","98.88","","","","","","Mostly Cloudy"
"2011-05-28 13:00","2011","05","28","13:00","18.9","","13.6","","71","","22","","30","","14.5","","98.86","","","","","","Mostly Cloudy"
"2011-05-28 14:00","2011","05","28","14:00","19.6","","14.0","","70","","22","","26","","11.3","","98.88","","","","","","Mostly Cloudy"
"2011-05-28 15:00","2011","05","28","15:00","20.2","","14.5","","70","","21","","22","","11.3","","98.93","","","","","","Mostly Cloudy"
"2011-05-28 16:00","2011","05","28","16:00","19.9","","14.3","","70","","23","","19","","16.1","","99.01","","","","","","Cloudy"
"2011-05-28 17:00","2011","05","28","17:00","19.5","","13.6","","69","","25","","15","","19.3","","99.00","","","","","","Cloudy"
"2011-05-28 18:00","2011","05","28","18:00","19.1","","13.9","","72","","25","","4","","24.1","","98.85","","","","","","Cloudy"
"2011-05-28 19:00","2011","05","28","19:00","17.9","","14.8","","82","","24","","15","","9.7","","99.12","","","","","","Rain Showers,Fog"
"2011-05-28 20:00","2011","05","28","20:00","16.5","","15.0","","91","","27","","6","","6.4","","99.02","","","","","","Rain,Fog"
"2011-05-28 21:00","2011","05","28","21:00","16.1","","14.9","","93","","19","","6","","8.0","","98.97","","","","","","Rain,Fog"
"2011-05-28 22:00","2011","05","28","22:00","16.0","","14.7","","92","","20","","4","","9.7","","99.04","","","","","","Fog"
"2011-05-28 23:00","2011","05","28","23:00","15.7","","14.6","","93","","17","","9","","11.3","","99.06","","","","","","Rain"
"2011-05-29 00:00","2011","05","29","00:00","15.4","","14.5","","94","","18","","4","","8.0","","99.11","","","","","","Rain,Fog"
"2011-05-29 01:00","2011","05","29","01:00","15.7","","15.0","","96","","11","","4","","6.4","","99.03","","","","","","Rain,Fog"
"2011-05-29 02:00","2011","05","29","02:00","15.5","","14.8","","96","","9","","4","","6.4","","98.99","","","","","","Fog"
"2011-05-29 03:00","2011","05","29","03:00","15.6","","14.8","","95","","","","0","","6.4","","98.99","","","","","","Fog"
"2011-05-29 04:00","2011","05","29","04:00","15.4","","14.6","","95","","9","","4","","6.4","","98.95","","","","","","Rain Showers,Fog"
"2011-05-29 05:00","2011","05","29","05:00","15.2","","14.3","","94","","9","","6","","4.8","","98.91","","","","","","Fog"
"2011-05-29 06:00","2011","05","29","06:00","15.8","","14.8","","94","","","","0","","6.4","","98.97","","","","","","Fog"
"2011-05-29 07:00","2011","05","29","07:00","16.5","","15.4","","93","","","","0","","6.4","","98.99","","","","","","Fog"
"2011-05-29 08:00","2011","05","29","08:00","19.9","","17.5","","86","","18","","6","","11.3","","99.04","","","","","","Mostly Cloudy"
"2011-05-29 09:00","2011","05","29","09:00","21.7","","18.3","","81","","25","","17","","14.5","","99.10","","28","","","","Mostly Cloudy"
"2011-05-29 10:00","2011","05","29","10:00","22.9","","18.4","","76","","28","","11","","14.5","","99.05","","29","","","","Mainly Clear"
"2011-05-29 11:00","2011","05","29","11:00","24.0","","18.9","","73","","25","","7","","11.3","","99.04","","31","","","","Mainly Clear"
"2011-05-29 12:00","2011","05","29","12:00","25.4","","19.7","","71","","26","","7","","14.5","","99.09","","33","","","","Mainly Clear"
"2011-05-29 13:00","2011","05","29","13:00","25.8","","20.2","","71","","","","0","","12.9","","99.17","","34","","","","Cloudy"
"2011-05-29 14:00","2011","05","29","14:00","26.3","","20.6","","71","","18","","6","","12.9","","99.16","","34","","","","Cloudy"
"2011-05-29 15:00","2011","05","29","15:00","24.3","","19.3","","74","","4","","15","","9.7","","99.16","","31","","","","Haze"
"2011-05-29 16:00","2011","05","29","16:00","24.5","","19.6","","74","","9","","9","","11.3","","99.17","","32","","","","Cloudy"
"2011-05-29 17:00","2011","05","29","17:00","24.5","","20.6","","79","","","","0","","11.3","","99.28","","33","","","","Rain Showers"
"2011-05-29 18:00","2011","05","29","18:00","22.6","","19.8","","84","","10","","22","","9.7","","99.11","","30","","","","Thunderstorms,Rain Showers,Haze"
"2011-05-29 19:00","2011","05","29","19:00","21.0","","18.5","","86","","23","","22","","16.1","","99.23","","27","","","","Rain Showers"
"2011-05-29 20:00","2011","05","29","20:00","20.4","","17.7","","84","","19","","22","","19.3","","99.03","","26","","","","Mostly Cloudy"
"2011-05-29 21:00","2011","05","29","21:00","20.2","","17.3","","83","","22","","22","","24.1","","99.17","","26","","","","Mostly Cloudy"
"2011-05-29 22:00","2011","05","29","22:00","19.7","","17.1","","85","","32","","9","","24.1","","99.43","","","","","","Mostly Cloudy"
"2011-05-29 23:00","2011","05","29","23:00","18.8","","16.6","","87","","36","","9","","24.1","","99.41","","","","","","Clear"
"2011-05-30 00:00","2011","05","30","00:00","17.9","","16.4","","91","","","","0","","24.1","","99.48","","","","","","Mainly Clear"
"2011-05-30 01:00","2011","05","30","01:00","17.3","","16.2","","93","","13","","4","","24.1","","99.51","","","","","","Mainly Clear"
"2011-05-30 02:00","2011","05","30","02:00","17.1","","15.8","","92","","14","","4","","24.1","","99.50","","","","","","Clear"
"2011-05-30 03:00","2011","05","30","03:00","17.0","","15.7","","92","","","","0","","24.1","","99.53","","","","","","Mainly Clear"
"2011-05-30 04:00","2011","05","30","04:00","16.9","","15.7","","93","","19","","4","","24.1","","99.58","","","","","","Mainly Clear"
"2011-05-30 05:00","2011","05","30","05:00","17.0","","15.6","","91","","17","","7","","24.1","","99.63","","","","","","Mainly Clear"
"2011-05-30 06:00","2011","05","30","06:00","18.0","","16.2","","89","","16","","6","","24.1","","99.65","","","","","","Mainly Clear"
"2011-05-30 07:00","2011","05","30","07:00","19.6","","17.2","","86","","17","","15","","24.1","","99.69","","","","","","Mainly Clear"
"2011-05-30 08:00","2011","05","30","08:00","22.2","","17.9","","77","","18","","19","","24.1","","99.67","","28","","","","Mainly Clear"
"2011-05-30 09:00","2011","05","30","09:00","24.8","","19.9","","74","","21","","20","","24.1","","99.69","","32","","","","Mainly Clear"
"2011-05-30 10:00","2011","05","30","10:00","25.8","","20.6","","73","","20","","17","","24.1","","99.68","","34","","","","Mainly Clear"
"2011-05-30 11:00","2011","05","30","11:00","27.3","","21.6","","71","","22","","17","","24.1","","99.68","","36","","","","Mainly Clear"
"2011-05-30 12:00","2011","05","30","12:00","28.7","","22.1","","68","","21","","15","","24.1","","99.68","","38","","","","Mainly Clear"
"2011-05-30 13:00","2011","05","30","13:00","30.3","","21.1","","58","","22","","22","","24.1","","99.64","","39","","","","Mainly Clear"
"2011-05-30 14:00","2011","05","30","14:00","30.5","","21.6","","59","","21","","26","","24.1","","99.66","","39","","","","Mainly Clear"
"2011-05-30 15:00","2011","05","30","15:00","31.5","","22.0","","57","","22","","19","","16.1","","99.63","","41","","","","Clear"
"2011-05-30 16:00","2011","05","30","16:00","30.4","","21.9","","61","","19","","22","","12.9","","99.61","","40","","","","Clear"
"2011-05-30 17:00","2011","05","30","17:00","30.4","","21.3","","58","","21","","26","","16.1","","99.62","","39","","","","Clear"
"2011-05-30 18:00","2011","05","30","18:00","30.3","","21.4","","59","","20","","19","","12.9","","99.61","","39","","","","Clear"
"2011-05-30 19:00","2011","05","30","19:00","29.6","","21.5","","62","","20","","15","","12.9","","99.64","","38","","","","Clear"
"2011-05-30 20:00","2011","05","30","20:00","27.8","","21.3","","68","","19","","9","","12.9","","99.69","","36","","","","Clear"
"2011-05-30 21:00","2011","05","30","21:00","25.2","","21.0","","78","","17","","9","","19.3","","99.73","","34","","","","Clear"
"2011-05-30 22:00","2011","05","30","22:00","23.7","","20.7","","83","","18","","9","","24.1","","99.78","","32","","","","Clear"
"2011-05-30 23:00","2011","05","30","23:00","23.1","","20.3","","84","","17","","7","","24.1","","99.77","","31","","","","Clear"
"2011-05-31 00:00","2011","05","31","00:00","22.8","","20.0","","84","","9","","11","","24.1","","99.73","","30","","","","Clear"
"2011-05-31 01:00","2011","05","31","01:00","23.4","","19.4","","78","","20","","13","","24.1","","99.71","","30","","","","Clear"
"2011-05-31 02:00","2011","05","31","02:00","23.3","","19.3","","78","","20","","11","","24.1","","99.68","","30","","","","Clear"
"2011-05-31 03:00","2011","05","31","03:00","22.8","","19.7","","83","","20","","9","","24.1","","99.70","","30","","","","Clear"
"2011-05-31 04:00","2011","05","31","04:00","21.9","","19.5","","86","","20","","6","","24.1","","99.71","","29","","","","Clear"
"2011-05-31 05:00","2011","05","31","05:00","22.0","","19.9","","88","","","","0","","24.1","","99.74","","29","","","","Clear"
"2011-05-31 06:00","2011","05","31","06:00","22.2","","19.7","","86","","19","","4","","24.1","","99.80","","30","","","","Clear"
"2011-05-31 07:00","2011","05","31","07:00","24.2","","20.6","","80","","22","","9","","16.1","","99.87","","32","","","","Mainly Clear"
"2011-05-31 08:00","2011","05","31","08:00","25.9","","21.2","","75","","22","","11","","16.1","","99.91","","34","","","","Mainly Clear"
"2011-05-31 09:00","2011","05","31","09:00","27.7","","21.5","","69","","24","","17","","16.1","","99.93","","37","","","","Mostly Cloudy"
"2011-05-31 10:00","2011","05","31","10:00","29.6","","21.4","","61","","24","","20","","16.1","","99.89","","38","","","","Mostly Cloudy"
"2011-05-31 11:00","2011","05","31","11:00","30.4","","20.8","","57","","23","","26","","16.1","","99.87","","39","","","","Mainly Clear"
"2011-05-31 12:00","2011","05","31","12:00","31.3","","20.3","","52","","24","","22","","16.1","","99.83","","39","","","","Mainly Clear"
"2011-05-31 13:00","2011","05","31","13:00","31.7","","20.7","","52","","22","","28","","24.1","","99.78","","40","","","","Clear"
"2011-05-31 14:00","2011","05","31","14:00","32.4","","20.6","","50","","22","","32","","24.1","","99.72","","40","","","","Mainly Clear"
"2011-05-31 15:00","2011","05","31","15:00","32.1","","20.2","","49","","22","","24","","19.3","","99.64","","40","","","","Mostly Cloudy"
"2011-05-31 16:00","2011","05","31","16:00","32.0","","19.7","","48","","21","","28","","16.1","","99.55","","39","","","","Mostly Cloudy"
"2011-05-31 17:00","2011","05","31","17:00","31.7","","19.6","","49","","21","","32","","16.1","","99.53","","39","","","","Mostly Cloudy"
"2011-05-31 18:00","2011","05","31","18:00","31.0","","19.5","","50","","22","","28","","11.3","","99.51","","38","","","","Mostly Cloudy"
"2011-05-31 19:00","2011","05","31","19:00","29.8","","19.4","","54","","21","","19","","12.9","","99.50","","37","","","","Mostly Cloudy"
"2011-05-31 20:00","2011","05","31","20:00","28.9","","18.6","","54","","22","","20","","16.1","","99.44","","35","","","","Mostly Cloudy"
"2011-05-31 21:00","2011","05","31","21:00","28.2","","18.5","","56","","22","","20","","24.1","","99.50","","35","","","","Mostly Cloudy"
"2011-05-31 22:00","2011","05","31","22:00","27.8","","18.4","","57","","23","","19","","24.1","","99.54","","34","","","","Mostly Cloudy"
"2011-05-31 23:00","2011","05","31","23:00","27.9","","18.8","","58","","23","","19","","24.1","","99.53","","35","","","","Mostly Cloudy"
