"Station Name","WINDSOR A"
"Province","ONTARIO"
"Latitude","42.28"
"Longitude","-82.96"
"Elevation","189.60"
"Climate Identifier","6139525"
"WMO Identifier","71538"
"TC Identifier","YQG"
"All times are specified in Local Standard Time (LST). Add 1 hour to adjust for Daylight Saving Time where and when it is observed."

"Legend"
"E","Estimated"
"M","Missing"
"NA","Not Available"

"Date/Time","Year","Month","Day","Time","Temp (°C)","Temp Flag","Dew Point Temp (°C)","Dew Point Temp Flag","Rel Hum (%)","Rel Hum Flag","Wind Dir (10s deg)","Wind Dir Flag","Wind Spd (km/h)","Wind Spd Flag","Visibility (km)","Visibility Flag","Stn Press (kPa)","Stn Press Flag","Hmdx","Hmdx Flag","Wind Chill","Wind Chill Flag","Weather"
"2004-02-01 00:00","2004","02","01","00:00","-11.9","","-15.7","","73","","21","","6","","24.1","","100.30","","","","-16","","Mainly Clear"
"2004-02-01 01:00","2004","02","01","01:00","-12.9","","-16.5","","74","","19","","7","","24.1","","100.36","","","","-17","","Mainly Clear"
"2004-02-01 02:00","2004","02","01","02:00","-12.2","","-15.8","","74","","22","","6","","24.1","","100.41","","","","-16","","Mostly Cloudy"
"2004-02-01 03:00","2004","02","01","03:00","-11.7","","-15.5","","73","","24","","4","","24.1","","100.48","","","","-14","","Mostly Cloudy"
"2004-02-01 04:00","2004","02","01","04:00","-11.5","","-15.3","","73","","24","","4","","24.1","","100.49","","","","-14","","Snow Showers"
"2004-02-01 05:00","2004","02","01","05:00","-12.1","","-15.8","","74","","","","0","","24.1","","100.54","","","","","","Mainly Clear"
"2004-02-01 06:00","2004","02","01","06:00","-13.9","","-17.0","","77","","18","","6","","24.1","","100.62","","","","-18","","Mainly Clear"
"2004-02-01 07:00","2004","02","01","07:00","-14.3","","-17.1","","79","","","","0","","24.1","","100.67","","","","","","Clear"
"2004-02-01 08:00","2004","02","01","08:00","-15.3","","-18.2","","78","","18","","7","","19.3","","100.78","","","","-20","","Clear"
"2004-02-01 09:00","2004","02","01","09:00","-11.7","","-15.2","","75","","","","0","","19.3","","100.84","","","","","","Clear"
"2004-02-01 10:00","2004","02","01","10:00","-9.8","","-14.8","","67","","14","","4","","19.3","","100.85","","","","-12","","Clear"
"2004-02-01 11:00","2004","02","01","11:00","-8.2","","-13.4","","66","","16","","7","","19.3","","100.87","","","","-12","","Mainly Clear"
"2004-02-01 12:00","2004","02","01","12:00","-6.8","","-12.1","","66","","14","","4","","19.3","","100.83","","","","-9","","Mainly Clear"
"2004-02-01 13:00","2004","02","01","13:00","-6.1","","-11.6","","65","","8","","4","","19.3","","100.80","","","","-8","","Mainly Clear"
"2004-02-01 14:00","2004","02","01","14:00","-5.7","","-11.0","","66","","8","","11","","24.1","","100.76","","","","-10","","Mostly Cloudy"
"2004-02-01 15:00","2004","02","01","15:00","-5.0","","-10.4","","66","","9","","11","","19.3","","100.80","","","","-10","","Mostly Cloudy"
"2004-02-01 16:00","2004","02","01","16:00","-5.0","","-10.8","","64","","11","","15","","24.1","","100.81","","","","-11","","Mostly Cloudy"
"2004-02-01 17:00","2004","02","01","17:00","-5.7","","-11.1","","66","","11","","11","","24.1","","100.84","","","","-10","","Cloudy"
"2004-02-01 18:00","2004","02","01","18:00","-6.2","","-11.2","","68","","9","","11","","24.1","","100.82","","","","-11","","Cloudy"
"2004-02-01 19:00","2004","02","01","19:00","-7.0","","-11.0","","73","","8","","15","","24.1","","100.82","","","","-13","","Cloudy"
"2004-02-01 20:00","2004","02","01","20:00","-7.0","","-10.7","","75","","8","","17","","24.1","","100.76","","","","-13","","Cloudy"
"2004-02-01 21:00","2004","02","01","21:00","-6.9","","-10.3","","77","","9","","17","","24.1","","100.75","","","","-13","","Cloudy"
"2004-02-01 22:00","2004","02","01","22:00","-7.6","","-10.8","","78","","7","","13","","24.1","","100.74","","","","-13","","Cloudy"
"2004-02-01 23:00","2004","02","01","23:00","-6.7","","-9.8","","79","","8","","11","","24.1","","100.72","","","","-12","","Cloudy"
"2004-02-02 00:00","2004","02","02","00:00","-6.8","","-9.8","","79","","8","","9","","24.1","","100.74","","","","-11","","Cloudy"
"2004-02-02 01:00","2004","02","02","01:00","-7.9","","-10.6","","81","","6","","11","","24.1","","100.71","","","","-13","","Cloudy"
"2004-02-02 02:00","2004","02","02","02:00","-7.9","","-10.3","","83","","7","","17","","24.1","","100.63","","","","-15","","Mostly Cloudy"
"2004-02-02 03:00","2004","02","02","03:00","-7.9","","-10.4","","82","","36","","7","","24.1","","100.69","","","","-12","","Mostly Cloudy"
"2004-02-02 04:00","2004","02","02","04:00","-9.2","","-11.6","","83","","6","","15","","24.1","","100.59","","","","-16","","Mostly Cloudy"
"2004-02-02 05:00","2004","02","02","05:00","-9.5","","-11.9","","83","","6","","13","","24.1","","100.53","","","","-16","","Mostly Cloudy"
"2004-02-02 06:00","2004","02","02","06:00","-9.7","","-12.3","","81","","6","","13","","24.1","","100.49","","","","-16","","Mostly Cloudy"
"2004-02-02 07:00","2004","02","02","07:00","-9.6","","-12.2","","81","","5","","11","","24.1","","100.47","","","","-15","","Mainly Clear"
"2004-02-02 08:00","2004","02","02","08:00","-9.2","","-12.0","","80","","5","","15","","19.3","","100.46","","","","-16","","Mostly Cloudy"
"2004-02-02 09:00","2004","02","02","09:00","-7.8","","-10.5","","81","","7","","15","","19.3","","100.40","","","","-14","","Mostly Cloudy"
"2004-02-02 10:00","2004","02","02","10:00","-6.1","","-9.3","","78","","7","","11","","19.3","","100.36","","","","-11","","Mostly Cloudy"
"2004-02-02 11:00","2004","02","02","11:00","-3.1","","-7.6","","71","","10","","17","","24.1","","100.29","","","","-9","","Cloudy"
"2004-02-02 12:00","2004","02","02","12:00","-2.5","","-7.1","","71","","10","","20","","24.1","","100.21","","","","-8","","Cloudy"
"2004-02-02 13:00","2004","02","02","13:00","-1.7","","-6.7","","69","","10","","17","","24.1","","100.10","","","","-7","","Cloudy"
"2004-02-02 14:00","2004","02","02","14:00","-0.8","","-5.8","","69","","9","","17","","24.1","","99.97","","","","-6","","Cloudy"
"2004-02-02 15:00","2004","02","02","15:00","-0.8","","-5.4","","71","","9","","17","","24.1","","99.87","","","","-6","","Cloudy"
"2004-02-02 16:00","2004","02","02","16:00","0.1","","-4.8","","70","","11","","17","","24.1","","99.83","","","","","","Mostly Cloudy"
"2004-02-02 17:00","2004","02","02","17:00","0.0","","-4.4","","72","","10","","20","","24.1","","99.70","","","","-5","","Cloudy"
"2004-02-02 18:00","2004","02","02","18:00","0.1","","-4.4","","72","","10","","20","","24.1","","99.60","","","","","","Cloudy"
"2004-02-02 19:00","2004","02","02","19:00","0.3","","-4.2","","72","","11","","20","","24.1","","99.51","","","","","","Mostly Cloudy"
"2004-02-02 20:00","2004","02","02","20:00","0.4","","-4.5","","70","","11","","19","","24.1","","99.42","","","","","","Mostly Cloudy"
"2004-02-02 21:00","2004","02","02","21:00","0.9","","-4.0","","70","","11","","17","","24.1","","99.28","","","","","","Mostly Cloudy"
"2004-02-02 22:00","2004","02","02","22:00","1.1","","-3.3","","72","","15","","17","","9.7","","99.25","","","","","","Rain,Fog"
"2004-02-02 23:00","2004","02","02","23:00","1.4","","-2.4","","76","","11","","11","","24.1","","99.13","","","","","","Cloudy"
"2004-02-03 00:00","2004","02","03","00:00","1.8","","-2.6","","73","","13","","15","","24.1","","99.02","","","","","","Rain"
"2004-02-03 01:00","2004","02","03","01:00","1.5","","-1.6","","80","","14","","13","","19.3","","98.96","","","","","","Rain"
"2004-02-03 02:00","2004","02","03","02:00","1.3","","-0.7","","87","","16","","9","","9.7","","98.89","","","","","","Rain,Fog"
"2004-02-03 03:00","2004","02","03","03:00","1.6","","0.5","","92","","14","","6","","8.0","","98.84","","","","","","Rain,Fog"
"2004-02-03 04:00","2004","02","03","04:00","2.0","","0.8","","92","","18","","9","","4.8","","98.77","","","","","","Rain,Fog"
"2004-02-03 05:00","2004","02","03","05:00","1.9","","0.8","","92","","17","","7","","2.4","","98.72","","","","","","Drizzle,Fog"
"2004-02-03 06:00","2004","02","03","06:00","2.1","","0.9","","92","","17","","13","","2.4","","98.70","","","","","","Drizzle,Fog"
"2004-02-03 07:00","2004","02","03","07:00","2.5","","1.2","","91","","18","","19","","2.4","","98.68","","","","","","Rain,Fog"
"2004-02-03 08:00","2004","02","03","08:00","2.4","","1.2","","92","","21","","22","","3.2","","98.70","","","","","","Rain,Fog"
"2004-02-03 09:00","2004","02","03","09:00","2.5","","1.3","","92","","22","","20","","3.2","","98.72","","","","","","Rain,Fog"
"2004-02-03 10:00","2004","02","03","10:00","2.2","","1.1","","92","","21","","15","","2.0","","98.76","","","","","","Fog"
"2004-02-03 11:00","2004","02","03","11:00","2.6","","1.3","","91","","24","","22","","3.2","","98.78","","","","","","Fog"
"2004-02-03 12:00","2004","02","03","12:00","2.5","","0.3","","85","","22","","20","","11.3","","98.79","","","","","","Cloudy"
"2004-02-03 13:00","2004","02","03","13:00","1.8","","-1.0","","82","","25","","22","","16.1","","98.77","","","","","","Cloudy"
"2004-02-03 14:00","2004","02","03","14:00","1.3","","-1.4","","82","","23","","24","","8.0","","98.79","","","","","","Snow,Haze"
"2004-02-03 15:00","2004","02","03","15:00","0.9","","-1.9","","82","","25","","24","","2.4","","98.83","","","","","","Snow,Haze"
"2004-02-03 16:00","2004","02","03","16:00","0.9","","-1.8","","82","","24","","28","","4.8","","98.90","","","","","","Snow"
"2004-02-03 17:00","2004","02","03","17:00","1.3","","-2.0","","79","","25","","30","","9.7","","99.00","","","","","","Snow"
"2004-02-03 18:00","2004","02","03","18:00","1.4","","-2.5","","75","","27","","30","","11.3","","99.14","","","","","","Snow"
"2004-02-03 19:00","2004","02","03","19:00","1.1","","-3.7","","70","","27","","33","","11.3","","99.23","","","","","","Snow"
"2004-02-03 20:00","2004","02","03","20:00","0.9","","-4.5","","67","","27","","32","","16.1","","99.38","","","","","","Snow"
"2004-02-03 21:00","2004","02","03","21:00","0.6","","-5.0","","66","","27","","32","","24.1","","99.48","","","","","","Snow"
"2004-02-03 22:00","2004","02","03","22:00","-0.2","","-5.1","","69","","27","","22","","24.1","","99.60","","","","-6","","Snow"
"2004-02-03 23:00","2004","02","03","23:00","-0.5","","-6.4","","64","","27","","33","","24.1","","99.75","","","","-7","","Snow"
"2004-02-04 00:00","2004","02","04","00:00","-0.7","","-6.8","","63","","28","","24","","24.1","","99.79","","","","-7","","Snow"
"2004-02-04 01:00","2004","02","04","01:00","-1.7","","-7.9","","63","","29","","28","","24.1","","99.90","","","","-8","","Mostly Cloudy"
"2004-02-04 02:00","2004","02","04","02:00","-2.6","","-9.2","","60","","27","","30","","24.1","","99.99","","","","-10","","Mostly Cloudy"
"2004-02-04 03:00","2004","02","04","03:00","-3.6","","-10.0","","61","","27","","22","","24.1","","100.09","","","","-10","","Mainly Clear"
"2004-02-04 04:00","2004","02","04","04:00","-4.6","","-10.5","","63","","28","","19","","24.1","","100.20","","","","-11","","Mainly Clear"
"2004-02-04 05:00","2004","02","04","05:00","-5.5","","-11.3","","64","","29","","24","","24.1","","100.30","","","","-13","","Clear"
"2004-02-04 06:00","2004","02","04","06:00","-6.2","","-11.9","","64","","28","","22","","24.1","","100.39","","","","-13","","Clear"
"2004-02-04 07:00","2004","02","04","07:00","-7.0","","-12.3","","66","","28","","20","","24.1","","100.49","","","","-14","","Clear"
"2004-02-04 08:00","2004","02","04","08:00","-7.5","","-12.7","","66","","30","","13","","24.1","","100.63","","","","-13","","Clear"
"2004-02-04 09:00","2004","02","04","09:00","-7.5","","-13.4","","63","","32","","19","","24.1","","100.72","","","","-15","","Clear"
"2004-02-04 10:00","2004","02","04","10:00","-7.0","","-13.6","","59","","32","","17","","24.1","","100.81","","","","-13","","Mainly Clear"
"2004-02-04 11:00","2004","02","04","11:00","-6.3","","-13.8","","55","","28","","17","","24.1","","100.88","","","","-13","","Mainly Clear"
"2004-02-04 12:00","2004","02","04","12:00","-5.0","","-12.7","","55","","30","","13","","24.1","","100.91","","","","-10","","Mainly Clear"
"2004-02-04 13:00","2004","02","04","13:00","-4.6","","-13.3","","51","","29","","9","","24.1","","100.88","","","","-8","","Mostly Cloudy"
"2004-02-04 14:00","2004","02","04","14:00","-3.7","","-13.2","","48","","27","","9","","24.1","","100.86","","","","-7","","Mostly Cloudy"
"2004-02-04 15:00","2004","02","04","15:00","-2.6","","-12.5","","46","","26","","11","","24.1","","100.86","","","","-7","","Mostly Cloudy"
"2004-02-04 16:00","2004","02","04","16:00","-2.6","","-12.9","","45","","28","","11","","24.1","","100.91","","","","-7","","Mostly Cloudy"
"2004-02-04 17:00","2004","02","04","17:00","-2.6","","-12.4","","47","","27","","13","","24.1","","100.96","","","","-7","","Mostly Cloudy"
"2004-02-04 18:00","2004","02","04","18:00","-3.6","","-12.8","","49","","30","","9","","24.1","","101.00","","","","-7","","Mainly Clear"
"2004-02-04 19:00","2004","02","04","19:00","-4.3","","-12.6","","52","","32","","6","","24.1","","101.06","","","","-7","","Mainly Clear"
"2004-02-04 20:00","2004","02","04","20:00","-4.5","","-13.0","","51","","36","","4","","24.1","","101.07","","","","-6","","Mostly Cloudy"
"2004-02-04 21:00","2004","02","04","21:00","-5.6","","-12.3","","59","","","","0","","24.1","","101.15","","","","","","Mainly Clear"
"2004-02-04 22:00","2004","02","04","22:00","-5.8","","-13.4","","55","","","","0","","24.1","","101.16","","","","","","Mostly Cloudy"
"2004-02-04 23:00","2004","02","04","23:00","-7.2","","-13.0","","63","","","","0","","24.1","","101.22","","","","","","Mainly Clear"
"2004-02-05 00:00","2004","02","05","00:00","-7.7","","-13.3","","64","","","","0","","24.1","","101.23","","","","","","Mainly Clear"
"2004-02-05 01:00","2004","02","05","01:00","-7.8","","-13.3","","65","","1","","7","","24.1","","101.21","","","","-11","","Mostly Cloudy"
"2004-02-05 02:00","2004","02","05","02:00","-7.9","","-12.8","","68","","2","","7","","24.1","","101.16","","","","-12","","Cloudy"
"2004-02-05 03:00","2004","02","05","03:00","-7.2","","-12.5","","66","","4","","9","","24.1","","101.19","","","","-12","","Cloudy"
"2004-02-05 04:00","2004","02","05","04:00","-7.8","","-12.5","","69","","6","","13","","24.1","","101.15","","","","-14","","Cloudy"
"2004-02-05 05:00","2004","02","05","05:00","-7.5","","-11.9","","71","","5","","13","","24.1","","101.25","","","","-13","","Cloudy"
"2004-02-05 06:00","2004","02","05","06:00","-7.6","","-12.1","","70","","6","","9","","24.1","","101.31","","","","-12","","Cloudy"
"2004-02-05 07:00","2004","02","05","07:00","-7.6","","-11.8","","72","","7","","15","","19.3","","101.25","","","","-14","","Cloudy"
"2004-02-05 08:00","2004","02","05","08:00","-6.9","","-10.7","","74","","7","","20","","19.3","","101.25","","","","-14","","Cloudy"
"2004-02-05 09:00","2004","02","05","09:00","-6.3","","-9.9","","76","","8","","19","","19.3","","101.18","","","","-13","","Cloudy"
"2004-02-05 10:00","2004","02","05","10:00","-5.4","","-9.1","","75","","9","","24","","19.3","","101.07","","","","-13","","Cloudy"
"2004-02-05 11:00","2004","02","05","11:00","-4.1","","-8.8","","70","","10","","19","","24.1","","101.13","","","","-10","","Cloudy"
"2004-02-05 12:00","2004","02","05","12:00","-3.8","","-8.4","","70","","9","","22","","24.1","","101.08","","","","-10","","Cloudy"
"2004-02-05 13:00","2004","02","05","13:00","-3.5","","-8.2","","70","","8","","32","","24.1","","100.81","","","","-11","","Cloudy"
"2004-02-05 14:00","2004","02","05","14:00","-3.2","","-7.9","","70","","6","","33","","24.1","","100.69","","","","-11","","Cloudy"
"2004-02-05 15:00","2004","02","05","15:00","-3.2","","-7.9","","70","","7","","33","","24.1","","100.58","","","","-11","","Cloudy"
"2004-02-05 16:00","2004","02","05","16:00","-2.9","","-7.5","","71","","6","","26","","24.1","","100.57","","","","-10","","Cloudy"
"2004-02-05 17:00","2004","02","05","17:00","-2.8","","-7.7","","69","","8","","22","","24.1","","100.48","","","","-9","","Cloudy"
"2004-02-05 18:00","2004","02","05","18:00","-2.8","","-7.7","","69","","8","","22","","24.1","","100.41","","","","-9","","Cloudy"
"2004-02-05 19:00","2004","02","05","19:00","-3.1","","-7.4","","72","","8","","32","","24.1","","100.26","","","","-11","","Cloudy"
"2004-02-05 20:00","2004","02","05","20:00","-3.2","","-7.3","","73","","9","","32","","24.1","","99.99","","","","-11","","Cloudy"
"2004-02-05 21:00","2004","02","05","21:00","-2.7","","-6.8","","73","","10","","33","","16.1","","99.89","","","","-10","","Snow"
"2004-02-05 22:00","2004","02","05","22:00","-2.6","","-5.8","","79","","10","","35","","9.7","","99.69","","","","-10","","Snow"
"2004-02-05 23:00","2004","02","05","23:00","-2.3","","-5.2","","80","","10","","24","","6.4","","99.57","","","","-9","","Snow"
"2004-02-06 00:00","2004","02","06","00:00","-2.0","","-4.5","","83","","11","","30","","6.4","","99.43","","","","-9","","Snow"
"2004-02-06 01:00","2004","02","06","01:00","-1.6","","-3.5","","87","","11","","24","","6.4","","99.24","","","","-8","","Freezing Rain,Snow"
"2004-02-06 02:00","2004","02","06","02:00","-1.1","","-2.6","","90","","10","","17","","6.4","","99.13","","","","-6","","Freezing Rain,Fog"
"2004-02-06 03:00","2004","02","06","03:00","-0.8","","-2.5","","88","","9","","20","","3.2","","98.95","","","","-6","","Freezing Rain,Fog"
"2004-02-06 04:00","2004","02","06","04:00","-0.8","","-2.1","","91","","9","","15","","3.2","","98.81","","","","-5","","Freezing Rain,Fog"
"2004-02-06 05:00","2004","02","06","05:00","-0.5","","-1.6","","92","","10","","19","","4.8","","98.66","","","","-6","","Freezing Rain,Fog"
"2004-02-06 06:00","2004","02","06","06:00","-0.2","","-1.2","","93","","12","","9","","3.6","","98.58","","","","-3","","Freezing Drizzle,Fog"
"2004-02-06 07:00","2004","02","06","07:00","0.1","","-0.6","","95","","11","","4","","3.6","","98.54","","","","","","Rain,Fog"
"2004-02-06 08:00","2004","02","06","08:00","0.3","","-0.5","","94","","27","","4","","1.6","","98.53","","","","","","Drizzle,Fog"
"2004-02-06 09:00","2004","02","06","09:00","0.3","","-0.3","","96","","23","","7","","0.8","","98.52","","","","","","Fog"
"2004-02-06 10:00","2004","02","06","10:00","0.9","","0.0","","94","","23","","13","","0.8","","98.50","","","","","","Fog"
"2004-02-06 11:00","2004","02","06","11:00","1.1","","0.3","","94","","24","","22","","8.0","","98.57","","","","","","Fog"
"2004-02-06 12:00","2004","02","06","12:00","1.9","","-0.3","","85","","25","","22","","9.7","","98.57","","","","","","Haze"
"2004-02-06 13:00","2004","02","06","13:00","2.3","","-0.8","","80","","25","","26","","16.1","","98.51","","","","","","Cloudy"
"2004-02-06 14:00","2004","02","06","14:00","2.5","","-1.1","","77","","27","","28","","11.3","","98.42","","","","","","Cloudy"
"2004-02-06 15:00","2004","02","06","15:00","2.0","","-1.8","","76","","27","","26","","16.1","","98.49","","","","","","Cloudy"
"2004-02-06 16:00","2004","02","06","16:00","1.7","","-2.6","","73","","25","","20","","16.1","","98.52","","","","","","Cloudy"
"2004-02-06 17:00","2004","02","06","17:00","1.1","","-3.7","","70","","25","","20","","19.3","","98.51","","","","","","Cloudy"
"2004-02-06 18:00","2004","02","06","18:00","0.9","","-3.6","","72","","24","","19","","19.3","","98.52","","","","","","Snow Showers"
"2004-02-06 19:00","2004","02","06","19:00","0.7","","-3.4","","74","","25","","17","","19.3","","98.54","","","","","","Snow Showers"
"2004-02-06 20:00","2004","02","06","20:00","0.3","","-3.4","","76","","27","","13","","24.1","","98.56","","","","","","Rain,Snow"
"2004-02-06 21:00","2004","02","06","21:00","0.2","","-3.8","","74","","28","","17","","24.1","","98.53","","","","","","Snow"
"2004-02-06 22:00","2004","02","06","22:00","-0.1","","-5.3","","68","","31","","13","","24.1","","98.54","","","","-4","","Snow"
"2004-02-06 23:00","2004","02","06","23:00","-0.5","","-6.6","","63","","30","","19","","24.1","","98.51","","","","-6","","Snow"
"2004-02-07 00:00","2004","02","07","00:00","-1.0","","-6.8","","65","","29","","15","","24.1","","98.50","","","","-6","","Snow Showers"
"2004-02-07 01:00","2004","02","07","01:00","-1.1","","-6.5","","67","","28","","13","","24.1","","98.52","","","","-5","","Snow Showers"
"2004-02-07 02:00","2004","02","07","02:00","-1.4","","-6.0","","71","","30","","17","","19.3","","98.51","","","","-7","","Snow Showers"
"2004-02-07 03:00","2004","02","07","03:00","-1.7","","-5.4","","76","","31","","15","","16.1","","98.56","","","","-7","","Snow"
"2004-02-07 04:00","2004","02","07","04:00","-2.7","","-7.6","","69","","34","","17","","16.1","","98.61","","","","-8","","Snow"
"2004-02-07 05:00","2004","02","07","05:00","-3.4","","-8.7","","67","","33","","17","","16.1","","98.65","","","","-9","","Snow"
"2004-02-07 06:00","2004","02","07","06:00","-3.8","","-9.7","","64","","32","","22","","24.1","","98.70","","","","-10","","Snow Showers"
"2004-02-07 07:00","2004","02","07","07:00","-4.3","","-9.7","","66","","34","","22","","24.1","","98.78","","","","-11","","Cloudy"
"2004-02-07 08:00","2004","02","07","08:00","-4.5","","-9.8","","66","","33","","22","","24.1","","98.88","","","","-11","","Mostly Cloudy"
"2004-02-07 09:00","2004","02","07","09:00","-4.6","","-9.8","","67","","33","","26","","24.1","","98.99","","","","-12","","Mostly Cloudy"
"2004-02-07 10:00","2004","02","07","10:00","-4.3","","-9.7","","66","","33","","24","","24.1","","99.05","","","","-11","","Mainly Clear"
"2004-02-07 11:00","2004","02","07","11:00","-3.6","","-9.6","","63","","35","","19","","24.1","","99.13","","","","-10","","Mostly Cloudy"
"2004-02-07 12:00","2004","02","07","12:00","-2.8","","-9.5","","60","","33","","17","","24.1","","99.20","","","","-8","","Mostly Cloudy"
"2004-02-07 13:00","2004","02","07","13:00","-2.4","","-9.9","","56","","32","","20","","24.1","","99.21","","","","-8","","Mostly Cloudy"
"2004-02-07 14:00","2004","02","07","14:00","-2.2","","-9.3","","58","","34","","20","","24.1","","99.25","","","","-8","","Mostly Cloudy"
"2004-02-07 15:00","2004","02","07","15:00","-2.5","","-9.8","","57","","32","","22","","24.1","","99.31","","","","-9","","Mostly Cloudy"
"2004-02-07 16:00","2004","02","07","16:00","-2.9","","-9.9","","58","","34","","19","","24.1","","99.42","","","","-9","","Mostly Cloudy"
"2004-02-07 17:00","2004","02","07","17:00","-3.6","","-10.7","","58","","34","","22","","24.1","","99.52","","","","-10","","Mostly Cloudy"
"2004-02-07 18:00","2004","02","07","18:00","-4.0","","-10.9","","59","","34","","19","","24.1","","99.67","","","","-10","","Snow Showers"
"2004-02-07 19:00","2004","02","07","19:00","-4.5","","-10.6","","62","","36","","20","","24.1","","99.83","","","","-11","","Snow Showers"
"2004-02-07 20:00","2004","02","07","20:00","-5.5","","-11.4","","63","","36","","15","","24.1","","99.95","","","","-11","","Mainly Clear"
"2004-02-07 21:00","2004","02","07","21:00","-6.8","","-12.0","","66","","36","","13","","24.1","","100.05","","","","-12","","Clear"
"2004-02-07 22:00","2004","02","07","22:00","-7.3","","-13.1","","63","","36","","15","","24.1","","100.19","","","","-13","","Clear"
"2004-02-07 23:00","2004","02","07","23:00","-8.2","","-14.0","","63","","36","","9","","24.1","","100.24","","","","-13","","Clear"
"2004-02-08 00:00","2004","02","08","00:00","-8.6","","-14.4","","63","","32","","6","","24.1","","100.32","","","","-12","","Clear"
"2004-02-08 01:00","2004","02","08","01:00","-9.0","","-14.3","","65","","32","","7","","24.1","","100.42","","","","-13","","Clear"
"2004-02-08 02:00","2004","02","08","02:00","-9.6","","-14.4","","68","","","","0","","24.1","","100.50","","","","","","Clear"
"2004-02-08 03:00","2004","02","08","03:00","-9.7","","-14.1","","70","","27","","7","","24.1","","100.55","","","","-14","","Clear"
"2004-02-08 04:00","2004","02","08","04:00","-9.9","","-13.7","","74","","27","","7","","24.1","","100.61","","","","-14","","Clear"
"2004-02-08 05:00","2004","02","08","05:00","-10.4","","-13.7","","77","","27","","11","","24.1","","100.66","","","","-16","","Clear"
"2004-02-08 06:00","2004","02","08","06:00","-10.6","","-13.7","","78","","26","","6","","19.3","","100.69","","","","-14","","Clear"
"2004-02-08 07:00","2004","02","08","07:00","-11.3","","-14.6","","77","","23","","7","","24.1","","100.74","","","","-16","","Clear"
"2004-02-08 08:00","2004","02","08","08:00","-11.5","","-15.1","","75","","23","","9","","24.1","","100.81","","","","-17","","Clear"
"2004-02-08 09:00","2004","02","08","09:00","-10.1","","-14.4","","71","","23","","9","","24.1","","100.85","","","","-15","","Mainly Clear"
"2004-02-08 10:00","2004","02","08","10:00","-8.4","","-14.3","","62","","23","","17","","24.1","","100.86","","","","-15","","Mainly Clear"
"2004-02-08 11:00","2004","02","08","11:00","-6.1","","-14.2","","53","","23","","24","","24.1","","100.83","","","","-14","","Mainly Clear"
"2004-02-08 12:00","2004","02","08","12:00","-4.6","","-13.1","","51","","22","","30","","24.1","","100.79","","","","-12","","Mainly Clear"
"2004-02-08 13:00","2004","02","08","13:00","-3.2","","-10.7","","56","","23","","26","","24.1","","100.67","","","","-10","","Mainly Clear"
"2004-02-08 14:00","2004","02","08","14:00","-2.3","","-9.7","","57","","23","","32","","24.1","","100.53","","","","-10","","Mainly Clear"
"2004-02-08 15:00","2004","02","08","15:00","-2.1","","-9.1","","59","","23","","28","","24.1","","100.51","","","","-9","","Mainly Clear"
"2004-02-08 16:00","2004","02","08","16:00","-1.8","","-8.6","","60","","22","","30","","24.1","","100.47","","","","-9","","Mainly Clear"
"2004-02-08 17:00","2004","02","08","17:00","-2.0","","-8.5","","61","","22","","28","","24.1","","100.44","","","","-9","","Mostly Cloudy"
"2004-02-08 18:00","2004","02","08","18:00","-2.9","","-8.1","","67","","22","","20","","24.1","","100.45","","","","-9","","Mostly Cloudy"
"2004-02-08 19:00","2004","02","08","19:00","-4.6","","-8.8","","72","","23","","20","","24.1","","100.47","","","","-11","","Mostly Cloudy"
"2004-02-08 20:00","2004","02","08","20:00","-5.1","","-8.9","","75","","23","","17","","24.1","","100.46","","","","-11","","Mostly Cloudy"
"2004-02-08 21:00","2004","02","08","21:00","-5.7","","-9.3","","76","","22","","13","","24.1","","100.41","","","","-11","","Mostly Cloudy"
"2004-02-08 22:00","2004","02","08","22:00","-5.7","","-9.0","","77","","20","","15","","19.3","","100.34","","","","-11","","Mostly Cloudy"
"2004-02-08 23:00","2004","02","08","23:00","-5.4","","-8.4","","79","","20","","17","","16.1","","100.27","","","","-11","","Mostly Cloudy"
"2004-02-09 00:00","2004","02","09","00:00","-4.8","","-8.5","","75","","19","","22","","19.3","","100.12","","","","-12","","Mainly Clear"
"2004-02-09 01:00","2004","02","09","01:00","-4.4","","-8.2","","75","","20","","22","","19.3","","99.98","","","","-11","","Mainly Clear"
"2004-02-09 02:00","2004","02","09","02:00","-4.5","","-8.4","","74","","20","","30","","24.1","","99.86","","","","-12","","Mainly Clear"
"2004-02-09 03:00","2004","02","09","03:00","-4.1","","-8.2","","73","","20","","26","","24.1","","99.77","","","","-11","","Mostly Cloudy"
"2004-02-09 04:00","2004","02","09","04:00","-3.9","","-7.9","","74","","21","","28","","24.1","","99.63","","","","-11","","Cloudy"
"2004-02-09 05:00","2004","02","09","05:00","-3.4","","-7.4","","74","","21","","32","","24.1","","99.52","","","","-11","","Cloudy"
"2004-02-09 06:00","2004","02","09","06:00","-2.6","","-6.8","","73","","21","","33","","24.1","","99.47","","","","-10","","Cloudy"
"2004-02-09 07:00","2004","02","09","07:00","-1.2","","-5.8","","71","","21","","32","","24.1","","99.38","","","","-8","","Cloudy"
"2004-02-09 08:00","2004","02","09","08:00","-0.6","","-5.5","","69","","22","","30","","24.1","","99.36","","","","-7","","Snow"
"2004-02-09 09:00","2004","02","09","09:00","0.1","","-5.3","","67","","22","","32","","24.1","","99.34","","","","","","Mostly Cloudy"
"2004-02-09 10:00","2004","02","09","10:00","1.4","","-5.3","","61","","23","","41","","24.1","","99.33","","","","","","Cloudy"
"2004-02-09 11:00","2004","02","09","11:00","1.6","","-5.3","","60","","24","","43","","24.1","","99.32","","","","","","Cloudy"
"2004-02-09 12:00","2004","02","09","12:00","1.8","","-5.2","","60","","23","","44","","24.1","","99.32","","","","","","Mostly Cloudy"
"2004-02-09 13:00","2004","02","09","13:00","2.1","","-4.7","","61","","25","","46","","24.1","","99.32","","","","","","Mostly Cloudy"
"2004-02-09 14:00","2004","02","09","14:00","2.3","","-4.6","","60","","23","","37","","24.1","","99.33","","","","","","Mostly Cloudy"
"2004-02-09 15:00","2004","02","09","15:00","2.2","","-4.8","","60","","23","","41","","24.1","","99.41","","","","","","Mostly Cloudy"
"2004-02-09 16:00","2004","02","09","16:00","1.8","","-5.2","","60","","24","","39","","24.1","","99.47","","","","","","Mostly Cloudy"
"2004-02-09 17:00","2004","02","09","17:00","1.3","","-5.3","","61","","24","","41","","24.1","","99.48","","","","","","Mostly Cloudy"
"2004-02-09 18:00","2004","02","09","18:00","0.9","","-5.5","","62","","24","","28","","24.1","","99.52","","","","","","Mostly Cloudy"
"2004-02-09 19:00","2004","02","09","19:00","0.5","","-5.6","","64","","26","","33","","24.1","","99.58","","","","","","Cloudy"
"2004-02-09 20:00","2004","02","09","20:00","-0.5","","-6.8","","62","","25","","30","","24.1","","99.60","","","","-7","","Mostly Cloudy"
"2004-02-09 21:00","2004","02","09","21:00","-1.1","","-7.1","","64","","26","","35","","24.1","","99.55","","","","-8","","Mostly Cloudy"
"2004-02-09 22:00","2004","02","09","22:00","-0.8","","-6.5","","65","","25","","22","","24.1","","99.57","","","","-7","","Mostly Cloudy"
"2004-02-09 23:00","2004","02","09","23:00","-0.8","","-6.8","","64","","26","","26","","24.1","","99.57","","","","-7","","Mostly Cloudy"
"2004-02-10 00:00","2004","02","10","00:00","-1.0","","-7.2","","63","","25","","33","","24.1","","99.54","","","","-8","","Cloudy"
"2004-02-10 01:00","2004","02","10","01:00","-1.0","","-7.1","","63","","25","","20","","24.1","","99.52","","","","-7","","Cloudy"
"2004-02-10 02:00","2004","02","10","02:00","-1.0","","-6.7","","65","","24","","24","","24.1","","99.45","","","","-7","","Cloudy"
"2004-02-10 03:00","2004","02","10","03:00","-1.0","","-6.1","","68","","23","","24","","24.1","","99.44","","","","-7","","Cloudy"
"2004-02-10 04:00","2004","02","10","04:00","-1.3","","-6.2","","69","","24","","20","","24.1","","99.39","","","","-7","","Mostly Cloudy"
"2004-02-10 05:00","2004","02","10","05:00","-2.0","","-6.6","","71","","23","","28","","24.1","","99.34","","","","-9","","Mostly Cloudy"
"2004-02-10 06:00","2004","02","10","06:00","-2.2","","-6.6","","72","","22","","28","","24.1","","99.34","","","","-9","","Mostly Cloudy"
"2004-02-10 07:00","2004","02","10","07:00","-2.5","","-6.8","","72","","22","","26","","24.1","","99.31","","","","-9","","Cloudy"
"2004-02-10 08:00","2004","02","10","08:00","-2.5","","-6.9","","72","","24","","26","","24.1","","99.32","","","","-9","","Cloudy"
"2004-02-10 09:00","2004","02","10","09:00","-2.3","","-7.1","","70","","23","","30","","24.1","","99.34","","","","-9","","Cloudy"
"2004-02-10 10:00","2004","02","10","10:00","-1.9","","-7.2","","67","","23","","30","","24.1","","99.32","","","","-9","","Cloudy"
"2004-02-10 11:00","2004","02","10","11:00","-1.2","","-7.3","","63","","24","","22","","24.1","","99.28","","","","-7","","Snow Showers"
"2004-02-10 12:00","2004","02","10","12:00","-0.6","","-6.8","","63","","24","","26","","24.1","","99.25","","","","-7","","Snow Showers"
"2004-02-10 13:00","2004","02","10","13:00","-0.7","","-5.7","","69","","24","","26","","9.7","","99.17","","","","-7","","Snow Showers"
"2004-02-10 14:00","2004","02","10","14:00","-0.3","","-5.8","","66","","24","","26","","16.1","","99.08","","","","-6","","Snow Showers"
"2004-02-10 15:00","2004","02","10","15:00","-0.3","","-5.5","","68","","26","","26","","11.3","","99.01","","","","-6","","Snow Showers"
"2004-02-10 16:00","2004","02","10","16:00","-0.7","","-5.4","","70","","25","","30","","24.1","","99.03","","","","-7","","Snow Showers"
"2004-02-10 17:00","2004","02","10","17:00","-0.3","","-8.6","","53","","27","","35","","24.1","","99.06","","","","-7","","Snow Showers"
"2004-02-10 18:00","2004","02","10","18:00","-2.0","","-6.8","","70","","29","","32","","16.1","","99.16","","","","-9","","Snow Showers"
"2004-02-10 19:00","2004","02","10","19:00","-3.0","","-7.5","","71","","29","","22","","24.1","","99.27","","","","-9","","Snow Showers"
"2004-02-10 20:00","2004","02","10","20:00","-3.6","","-10.6","","58","","29","","30","","24.1","","99.35","","","","-11","","Mainly Clear"
"2004-02-10 21:00","2004","02","10","21:00","-4.4","","-11.4","","58","","28","","24","","24.1","","99.40","","","","-11","","Clear"
"2004-02-10 22:00","2004","02","10","22:00","-5.0","","-11.1","","62","","28","","17","","24.1","","99.48","","","","-11","","Clear"
"2004-02-10 23:00","2004","02","10","23:00","-5.7","","-11.5","","64","","27","","19","","24.1","","99.56","","","","-12","","Clear"
"2004-02-11 00:00","2004","02","11","00:00","-6.1","","-11.2","","67","","26","","20","","24.1","","99.63","","","","-13","","Mainly Clear"
"2004-02-11 01:00","2004","02","11","01:00","-6.5","","-11.2","","69","","26","","19","","24.1","","99.71","","","","-13","","Mainly Clear"
"2004-02-11 02:00","2004","02","11","02:00","-6.7","","-11.2","","70","","28","","17","","24.1","","99.71","","","","-13","","Mostly Cloudy"
"2004-02-11 03:00","2004","02","11","03:00","-7.3","","-11.3","","73","","26","","13","","24.1","","99.76","","","","-13","","Mainly Clear"
"2004-02-11 04:00","2004","02","11","04:00","-7.2","","-10.9","","75","","25","","13","","24.1","","99.75","","","","-13","","Mostly Cloudy"
"2004-02-11 05:00","2004","02","11","05:00","-7.1","","-10.7","","75","","26","","7","","24.1","","99.77","","","","-11","","Mostly Cloudy"
"2004-02-11 06:00","2004","02","11","06:00","-7.1","","-10.6","","76","","23","","6","","24.1","","99.80","","","","-10","","Mostly Cloudy"
"2004-02-11 07:00","2004","02","11","07:00","-7.3","","-10.9","","75","","22","","9","","24.1","","99.83","","","","-12","","Mostly Cloudy"
"2004-02-11 08:00","2004","02","11","08:00","-7.5","","-10.9","","77","","22","","13","","24.1","","99.92","","","","-13","","Mostly Cloudy"
"2004-02-11 09:00","2004","02","11","09:00","-7.1","","-11.0","","74","","22","","9","","9.7","","99.97","","","","-11","","Haze"
"2004-02-11 10:00","2004","02","11","10:00","-5.4","","-10.6","","67","","22","","13","","16.1","","99.99","","","","-11","","Mainly Clear"
"2004-02-11 11:00","2004","02","11","11:00","-4.3","","-10.3","","63","","23","","15","","24.1","","99.98","","","","-10","","Mainly Clear"
"2004-02-11 12:00","2004","02","11","12:00","-3.8","","-10.3","","61","","22","","20","","24.1","","99.93","","","","-10","","Mainly Clear"
"2004-02-11 13:00","2004","02","11","13:00","-3.4","","-10.6","","57","","21","","20","","24.1","","99.95","","","","-10","","Mainly Clear"
"2004-02-11 14:00","2004","02","11","14:00","-3.2","","-9.5","","62","","20","","17","","24.1","","99.89","","","","-9","","Mostly Cloudy"
"2004-02-11 15:00","2004","02","11","15:00","-2.8","","-9.0","","62","","20","","17","","24.1","","99.87","","","","-8","","Mostly Cloudy"
"2004-02-11 16:00","2004","02","11","16:00","-1.9","","-9.0","","58","","22","","24","","24.1","","99.90","","","","-8","","Mostly Cloudy"
"2004-02-11 17:00","2004","02","11","17:00","-2.2","","-8.7","","61","","19","","19","","24.1","","99.87","","","","-8","","Mostly Cloudy"
"2004-02-11 18:00","2004","02","11","18:00","-2.2","","-8.1","","64","","17","","11","","24.1","","99.86","","","","-6","","Mostly Cloudy"
"2004-02-11 19:00","2004","02","11","19:00","-2.5","","-7.6","","68","","16","","11","","24.1","","99.86","","","","-7","","Mostly Cloudy"
"2004-02-11 20:00","2004","02","11","20:00","-2.1","","-7.2","","68","","18","","13","","24.1","","99.88","","","","-7","","Mostly Cloudy"
"2004-02-11 21:00","2004","02","11","21:00","-1.5","","-6.8","","67","","18","","9","","24.1","","99.88","","","","-5","","Mostly Cloudy"
"2004-02-11 22:00","2004","02","11","22:00","-2.6","","-7.2","","71","","17","","7","","24.1","","99.86","","","","-5","","Mainly Clear"
"2004-02-11 23:00","2004","02","11","23:00","-2.3","","-7.1","","70","","19","","11","","19.3","","99.81","","","","-6","","Mainly Clear"
"2004-02-12 00:00","2004","02","12","00:00","-2.2","","-6.8","","71","","20","","11","","24.1","","99.77","","","","-6","","Mostly Cloudy"
"2004-02-12 01:00","2004","02","12","01:00","-1.5","","-5.7","","73","","20","","15","","24.1","","99.72","","","","-6","","Cloudy"
"2004-02-12 02:00","2004","02","12","02:00","-1.3","","-5.3","","74","","21","","17","","24.1","","99.69","","","","-6","","Cloudy"
"2004-02-12 03:00","2004","02","12","03:00","-1.0","","-4.9","","75","","24","","13","","24.1","","99.72","","","","-5","","Mostly Cloudy"
"2004-02-12 04:00","2004","02","12","04:00","-1.6","","-5.3","","76","","21","","7","","24.1","","99.65","","","","-4","","Mostly Cloudy"
"2004-02-12 05:00","2004","02","12","05:00","-1.5","","-5.5","","74","","25","","6","","24.1","","99.62","","","","-4","","Mostly Cloudy"
"2004-02-12 06:00","2004","02","12","06:00","-2.7","","-6.3","","76","","23","","6","","24.1","","99.63","","","","-5","","Mainly Clear"
"2004-02-12 07:00","2004","02","12","07:00","-2.9","","-6.2","","78","","21","","11","","19.3","","99.65","","","","-7","","Mostly Cloudy"
"2004-02-12 08:00","2004","02","12","08:00","-2.8","","-6.0","","79","","24","","9","","8.0","","99.72","","","","-6","","Haze"
"2004-02-12 09:00","2004","02","12","09:00","-2.2","","-5.8","","76","","25","","13","","9.7","","99.76","","","","-7","","Haze"
"2004-02-12 10:00","2004","02","12","10:00","-1.5","","-6.1","","71","","29","","22","","9.7","","99.77","","","","-7","","Haze"
"2004-02-12 11:00","2004","02","12","11:00","-1.4","","-6.8","","67","","29","","15","","12.9","","99.78","","","","-6","","Mostly Cloudy"
"2004-02-12 12:00","2004","02","12","12:00","-1.1","","-6.9","","65","","27","","13","","19.3","","99.78","","","","-5","","Mostly Cloudy"
"2004-02-12 13:00","2004","02","12","13:00","-0.8","","-7.4","","61","","26","","17","","24.1","","99.71","","","","-6","","Mostly Cloudy"
"2004-02-12 14:00","2004","02","12","14:00","-0.1","","-7.0","","60","","27","","24","","24.1","","99.68","","","","-6","","Cloudy"
"2004-02-12 15:00","2004","02","12","15:00","-0.1","","-6.6","","62","","29","","19","","24.1","","99.68","","","","-5","","Cloudy"
"2004-02-12 16:00","2004","02","12","16:00","-0.3","","-6.1","","65","","28","","22","","12.9","","99.73","","","","-6","","Mostly Cloudy"
"2004-02-12 17:00","2004","02","12","17:00","-0.5","","-6.2","","65","","28","","20","","16.1","","99.76","","","","-6","","Cloudy"
"2004-02-12 18:00","2004","02","12","18:00","-0.4","","-6.5","","63","","29","","19","","19.3","","99.80","","","","-6","","Cloudy"
"2004-02-12 19:00","2004","02","12","19:00","-0.5","","-6.5","","64","","32","","13","","19.3","","99.85","","","","-5","","Snow Showers"
"2004-02-12 20:00","2004","02","12","20:00","-0.8","","-6.6","","65","","30","","15","","19.3","","99.87","","","","-5","","Snow Showers"
"2004-02-12 21:00","2004","02","12","21:00","-0.6","","-7.8","","58","","27","","26","","19.3","","99.87","","","","-7","","Snow Showers"
"2004-02-12 22:00","2004","02","12","22:00","-1.1","","-6.7","","66","","28","","19","","24.1","","99.88","","","","-6","","Snow Showers"
"2004-02-12 23:00","2004","02","12","23:00","-1.5","","-7.2","","65","","25","","28","","24.1","","99.85","","","","-8","","Snow Showers"
"2004-02-13 00:00","2004","02","13","00:00","-2.2","","-6.8","","71","","25","","22","","24.1","","99.82","","","","-8","","Snow Showers"
"2004-02-13 01:00","2004","02","13","01:00","-2.2","","-7.3","","68","","26","","28","","24.1","","99.81","","","","-9","","Snow Showers"
"2004-02-13 02:00","2004","02","13","02:00","-2.3","","-9.0","","60","","28","","17","","24.1","","99.76","","","","-8","","Mainly Clear"
"2004-02-13 03:00","2004","02","13","03:00","-2.3","","-8.1","","64","","25","","15","","24.1","","99.77","","","","-7","","Mostly Cloudy"
"2004-02-13 04:00","2004","02","13","04:00","-2.8","","-6.9","","73","","24","","22","","16.1","","99.71","","","","-9","","Mostly Cloudy"
"2004-02-13 05:00","2004","02","13","05:00","-2.5","","-7.9","","66","","25","","28","","24.1","","99.70","","","","-10","","Mostly Cloudy"
"2004-02-13 06:00","2004","02","13","06:00","-2.7","","-7.5","","69","","24","","15","","24.1","","99.69","","","","-8","","Snow Showers"
"2004-02-13 07:00","2004","02","13","07:00","-3.1","","-7.6","","71","","24","","20","","24.1","","99.66","","","","-9","","Cloudy"
"2004-02-13 08:00","2004","02","13","08:00","-3.3","","-9.3","","63","","26","","35","","24.1","","99.72","","","","-11","","Mostly Cloudy"
"2004-02-13 09:00","2004","02","13","09:00","-3.9","","-9.3","","66","","25","","33","","19.3","","99.73","","","","-12","","Mostly Cloudy"
"2004-02-13 10:00","2004","02","13","10:00","-3.7","","-9.6","","64","","24","","37","","19.3","","99.69","","","","-12","","Mostly Cloudy"
"2004-02-13 11:00","2004","02","13","11:00","-3.7","","-9.8","","63","","24","","39","","24.1","","99.66","","","","-12","","Mostly Cloudy"
"2004-02-13 12:00","2004","02","13","12:00","-2.9","","-10.1","","58","","24","","28","","24.1","","99.61","","","","-10","","Mainly Clear"
"2004-02-13 13:00","2004","02","13","13:00","-2.6","","-9.2","","60","","24","","41","","24.1","","99.54","","","","-11","","Mainly Clear"
"2004-02-13 14:00","2004","02","13","14:00","-2.1","","-9.0","","59","","23","","37","","24.1","","99.46","","","","-10","","Mainly Clear"
"2004-02-13 15:00","2004","02","13","15:00","-2.2","","-9.3","","58","","24","","37","","24.1","","99.37","","","","-10","","Mainly Clear"
"2004-02-13 16:00","2004","02","13","16:00","-2.2","","-9.1","","59","","24","","30","","24.1","","99.36","","","","-9","","Mostly Cloudy"
"2004-02-13 17:00","2004","02","13","17:00","-2.9","","-9.4","","61","","23","","37","","24.1","","99.30","","","","-11","","Mostly Cloudy"
"2004-02-13 18:00","2004","02","13","18:00","-3.3","","-9.8","","61","","23","","39","","24.1","","99.25","","","","-12","","Mostly Cloudy"
"2004-02-13 19:00","2004","02","13","19:00","-4.2","","-10.0","","64","","23","","41","","24.1","","99.27","","","","-13","","Mostly Cloudy"
"2004-02-13 20:00","2004","02","13","20:00","-4.4","","-9.7","","66","","23","","39","","24.1","","99.22","","","","-13","","Mostly Cloudy"
"2004-02-13 21:00","2004","02","13","21:00","-4.3","","-9.5","","67","","23","","37","","24.1","","99.21","","","","-13","","Mostly Cloudy"
"2004-02-13 22:00","2004","02","13","22:00","-4.4","","-9.3","","69","","23","","41","","19.3","","99.15","","","","-13","","Mostly Cloudy"
"2004-02-13 23:00","2004","02","13","23:00","-4.5","","-9.3","","69","","23","","33","","19.3","","99.11","","","","-13","","Mainly Clear"
"2004-02-14 00:00","2004","02","14","00:00","-4.5","","-9.3","","69","","23","","37","","24.1","","99.09","","","","-13","","Mainly Clear"
"2004-02-14 01:00","2004","02","14","01:00","-4.6","","-9.3","","70","","25","","32","","24.1","","99.10","","","","-13","","Mainly Clear"
"2004-02-14 02:00","2004","02","14","02:00","-4.8","","-9.3","","71","","24","","26","","24.1","","99.10","","","","-12","","Mainly Clear"
"2004-02-14 03:00","2004","02","14","03:00","-4.8","","-9.4","","70","","24","","22","","24.1","","99.12","","","","-12","","Clear"
"2004-02-14 04:00","2004","02","14","04:00","-4.8","","-9.6","","69","","25","","22","","24.1","","99.09","","","","-12","","Mostly Cloudy"
"2004-02-14 05:00","2004","02","14","05:00","-5.2","","-9.7","","71","","23","","17","","24.1","","99.08","","","","-11","","Mostly Cloudy"
"2004-02-14 06:00","2004","02","14","06:00","-4.7","","-9.6","","69","","24","","24","","24.1","","99.08","","","","-12","","Mostly Cloudy"
"2004-02-14 07:00","2004","02","14","07:00","-4.4","","-9.4","","68","","24","","24","","24.1","","99.14","","","","-11","","Mostly Cloudy"
"2004-02-14 08:00","2004","02","14","08:00","-4.2","","-9.6","","66","","25","","20","","24.1","","99.17","","","","-11","","Mainly Clear"
"2004-02-14 09:00","2004","02","14","09:00","-3.5","","-9.2","","65","","26","","20","","24.1","","99.23","","","","-10","","Mostly Cloudy"
"2004-02-14 10:00","2004","02","14","10:00","-2.4","","-8.6","","62","","25","","19","","24.1","","99.23","","","","-8","","Mostly Cloudy"
"2004-02-14 11:00","2004","02","14","11:00","-1.1","","-7.7","","61","","27","","19","","24.1","","99.22","","","","-6","","Mostly Cloudy"
"2004-02-14 12:00","2004","02","14","12:00","0.6","","-7.1","","56","","30","","13","","24.1","","99.16","","","","","","Mostly Cloudy"
"2004-02-14 13:00","2004","02","14","13:00","1.7","","-7.1","","52","","26","","11","","24.1","","99.17","","","","","","Mostly Cloudy"
"2004-02-14 14:00","2004","02","14","14:00","1.7","","-6.6","","54","","27","","15","","24.1","","99.19","","","","","","Mostly Cloudy"
"2004-02-14 15:00","2004","02","14","15:00","1.6","","-6.2","","56","","27","","9","","24.1","","99.14","","","","","","Mostly Cloudy"
"2004-02-14 16:00","2004","02","14","16:00","2.0","","-6.8","","52","","31","","11","","24.1","","99.19","","","","","","Mostly Cloudy"
"2004-02-14 17:00","2004","02","14","17:00","-0.5","","-5.1","","71","","5","","24","","24.1","","99.27","","","","-6","","Mostly Cloudy"
"2004-02-14 18:00","2004","02","14","18:00","-1.4","","-5.5","","74","","4","","19","","16.1","","99.34","","","","-7","","Cloudy"
"2004-02-14 19:00","2004","02","14","19:00","-3.8","","-7.3","","77","","6","","20","","11.3","","99.44","","","","-10","","Snow Showers"
"2004-02-14 20:00","2004","02","14","20:00","-4.3","","-8.0","","75","","6","","22","","11.3","","99.50","","","","-11","","Snow"
"2004-02-14 21:00","2004","02","14","21:00","-4.4","","-8.8","","71","","3","","20","","16.1","","99.55","","","","-11","","Snow"
"2004-02-14 22:00","2004","02","14","22:00","-5.5","","-9.2","","75","","7","","17","","16.1","","99.65","","","","-12","","Snow"
"2004-02-14 23:00","2004","02","14","23:00","-5.6","","-9.3","","75","","5","","17","","9.7","","99.69","","","","-12","","Snow"
"2004-02-15 00:00","2004","02","15","00:00","-5.8","","-9.1","","77","","5","","19","","4.8","","99.75","","","","-12","","Snow"
"2004-02-15 01:00","2004","02","15","01:00","-6.4","","-11.3","","68","","2","","24","","24.1","","99.86","","","","-14","","Snow"
"2004-02-15 02:00","2004","02","15","02:00","-9.1","","-16.4","","55","","1","","26","","24.1","","99.96","","","","-18","","Snow"
"2004-02-15 03:00","2004","02","15","03:00","-9.9","","-17.6","","53","","36","","19","","24.1","","100.05","","","","-18","","Mainly Clear"
"2004-02-15 04:00","2004","02","15","04:00","-10.9","","-18.1","","55","","1","","24","","24.1","","100.13","","","","-20","","Clear"
"2004-02-15 05:00","2004","02","15","05:00","-11.7","","-18.7","","56","","1","","24","","24.1","","100.21","","","","-21","","Clear"
"2004-02-15 06:00","2004","02","15","06:00","-12.1","","-19.3","","55","","36","","15","","24.1","","100.26","","","","-19","","Clear"
"2004-02-15 07:00","2004","02","15","07:00","-12.3","","-19.4","","55","","36","","20","","24.1","","100.28","","","","-21","","Mainly Clear"
"2004-02-15 08:00","2004","02","15","08:00","-12.3","","-19.0","","57","","36","","20","","24.1","","100.36","","","","-21","","Mainly Clear"
"2004-02-15 09:00","2004","02","15","09:00","-11.7","","-18.2","","58","","36","","19","","24.1","","100.45","","","","-20","","Mainly Clear"
"2004-02-15 10:00","2004","02","15","10:00","-9.7","","-15.8","","61","","1","","20","","24.1","","100.49","","","","-17","","Mainly Clear"
"2004-02-15 11:00","2004","02","15","11:00","-9.7","","-15.1","","65","","3","","22","","24.1","","100.53","","","","-18","","Clear"
"2004-02-15 12:00","2004","02","15","12:00","-9.2","","-14.9","","63","","3","","20","","24.1","","100.57","","","","-17","","Mainly Clear"
"2004-02-15 13:00","2004","02","15","13:00","-8.8","","-14.8","","62","","4","","15","","24.1","","100.52","","","","-15","","Mainly Clear"
"2004-02-15 14:00","2004","02","15","14:00","-8.2","","-14.9","","58","","4","","13","","24.1","","100.50","","","","-14","","Mainly Clear"
"2004-02-15 15:00","2004","02","15","15:00","-8.4","","-15.4","","57","","7","","11","","24.1","","100.53","","","","-14","","Mostly Cloudy"
"2004-02-15 16:00","2004","02","15","16:00","-7.9","","-15.4","","55","","4","","13","","24.1","","100.54","","","","-14","","Mainly Clear"
"2004-02-15 17:00","2004","02","15","17:00","-7.9","","-15.5","","54","","2","","15","","24.1","","100.55","","","","-14","","Mainly Clear"
"2004-02-15 18:00","2004","02","15","18:00","-8.9","","-15.3","","60","","9","","11","","24.1","","100.58","","","","-14","","Clear"
"2004-02-15 19:00","2004","02","15","19:00","-9.7","","-15.8","","61","","9","","6","","24.1","","100.67","","","","-13","","Clear"
"2004-02-15 20:00","2004","02","15","20:00","-10.1","","-15.8","","63","","11","","7","","24.1","","100.72","","","","-14","","Clear"
"2004-02-15 21:00","2004","02","15","21:00","-10.8","","-16.1","","65","","12","","6","","24.1","","100.77","","","","-14","","Clear"
"2004-02-15 22:00","2004","02","15","22:00","-11.7","","-16.1","","70","","16","","4","","24.1","","100.86","","","","-14","","Clear"
"2004-02-15 23:00","2004","02","15","23:00","-11.7","","-16.2","","69","","","","0","","24.1","","100.91","","","","","","Clear"
"2004-02-16 00:00","2004","02","16","00:00","-11.3","","-16.5","","65","","","","0","","24.1","","100.95","","","","","","Clear"
"2004-02-16 01:00","2004","02","16","01:00","-12.6","","-16.7","","71","","11","","4","","24.1","","100.93","","","","-15","","Clear"
"2004-02-16 02:00","2004","02","16","02:00","-12.7","","-16.3","","74","","","","0","","24.1","","100.96","","","","","","Clear"
"2004-02-16 03:00","2004","02","16","03:00","-12.7","","-17.4","","68","","18","","4","","24.1","","100.99","","","","-15","","Clear"
"2004-02-16 04:00","2004","02","16","04:00","-12.9","","-17.5","","68","","","","0","","24.1","","100.99","","","","","","Clear"
"2004-02-16 05:00","2004","02","16","05:00","-12.9","","-17.6","","68","","12","","4","","24.1","","101.03","","","","-16","","Clear"
"2004-02-16 06:00","2004","02","16","06:00","-13.7","","-17.7","","72","","9","","4","","24.1","","101.09","","","","-16","","Clear"
"2004-02-16 07:00","2004","02","16","07:00","-13.4","","-17.8","","69","","","","0","","24.1","","101.14","","","","","","Mainly Clear"
"2004-02-16 08:00","2004","02","16","08:00","-12.5","","-17.3","","67","","12","","4","","24.1","","101.21","","","","-15","","Clear"
"2004-02-16 09:00","2004","02","16","09:00","-9.9","","-16.5","","58","","11","","6","","24.1","","101.29","","","","-13","","Clear"
"2004-02-16 10:00","2004","02","16","10:00","-8.8","","-15.6","","58","","13","","7","","24.1","","101.36","","","","-13","","Mainly Clear"
"2004-02-16 11:00","2004","02","16","11:00","-7.7","","-16.6","","49","","13","","9","","24.1","","101.34","","","","-12","","Mainly Clear"
"2004-02-16 12:00","2004","02","16","12:00","-6.5","","-14.7","","52","","13","","13","","24.1","","101.31","","","","-12","","Mainly Clear"
"2004-02-16 13:00","2004","02","16","13:00","-6.0","","-14.3","","52","","12","","11","","24.1","","101.22","","","","-11","","Mostly Cloudy"
"2004-02-16 14:00","2004","02","16","14:00","-5.4","","-12.3","","58","","8","","13","","24.1","","101.16","","","","-11","","Mostly Cloudy"
"2004-02-16 15:00","2004","02","16","15:00","-5.5","","-12.9","","56","","10","","13","","24.1","","101.09","","","","-11","","Mostly Cloudy"
"2004-02-16 16:00","2004","02","16","16:00","-5.2","","-12.7","","56","","11","","7","","24.1","","101.09","","","","-8","","Mostly Cloudy"
"2004-02-16 17:00","2004","02","16","17:00","-5.7","","-12.3","","60","","12","","11","","24.1","","101.08","","","","-10","","Mostly Cloudy"
"2004-02-16 18:00","2004","02","16","18:00","-6.4","","-12.7","","61","","12","","11","","24.1","","101.06","","","","-11","","Cloudy"
"2004-02-16 19:00","2004","02","16","19:00","-6.9","","-12.7","","63","","10","","11","","24.1","","101.08","","","","-12","","Mostly Cloudy"
"2004-02-16 20:00","2004","02","16","20:00","-7.2","","-12.5","","66","","10","","9","","24.1","","101.05","","","","-12","","Mostly Cloudy"
"2004-02-16 21:00","2004","02","16","21:00","-7.6","","-12.1","","70","","9","","13","","24.1","","101.01","","","","-13","","Cloudy"
"2004-02-16 22:00","2004","02","16","22:00","-7.8","","-12.2","","71","","10","","9","","24.1","","100.96","","","","-12","","Cloudy"
"2004-02-16 23:00","2004","02","16","23:00","-7.8","","-12.1","","71","","9","","7","","24.1","","100.90","","","","-11","","Cloudy"
"2004-02-17 00:00","2004","02","17","00:00","-7.9","","-11.7","","74","","11","","6","","24.1","","100.84","","","","-11","","Cloudy"
"2004-02-17 01:00","2004","02","17","01:00","-8.1","","-11.8","","75","","4","","6","","24.1","","100.85","","","","-11","","Mostly Cloudy"
"2004-02-17 02:00","2004","02","17","02:00","-8.5","","-11.9","","76","","7","","6","","24.1","","100.81","","","","-12","","Mainly Clear"
"2004-02-17 03:00","2004","02","17","03:00","-8.6","","-11.8","","78","","7","","6","","24.1","","100.79","","","","-12","","Mainly Clear"
"2004-02-17 04:00","2004","02","17","04:00","-8.4","","-11.6","","78","","4","","6","","24.1","","100.76","","","","-12","","Mostly Cloudy"
"2004-02-17 05:00","2004","02","17","05:00","-8.4","","-11.6","","78","","4","","7","","24.1","","100.74","","","","-12","","Mostly Cloudy"
"2004-02-17 06:00","2004","02","17","06:00","-8.4","","-11.4","","79","","6","","7","","24.1","","100.77","","","","-12","","Mostly Cloudy"
"2004-02-17 07:00","2004","02","17","07:00","-8.0","","-11.2","","78","","7","","6","","24.1","","100.72","","","","-11","","Mostly Cloudy"
"2004-02-17 08:00","2004","02","17","08:00","-7.9","","-11.1","","78","","","","0","","16.1","","100.73","","","","","","Cloudy"
"2004-02-17 09:00","2004","02","17","09:00","-7.2","","-10.8","","75","","12","","4","","19.3","","100.73","","","","-9","","Cloudy"
"2004-02-17 10:00","2004","02","17","10:00","-5.8","","-9.9","","73","","","","0","","19.3","","100.75","","","","","","Cloudy"
"2004-02-17 11:00","2004","02","17","11:00","-3.6","","-9.6","","63","","18","","4","","24.1","","100.73","","","","-5","","Cloudy"
"2004-02-17 12:00","2004","02","17","12:00","-2.0","","-11.1","","50","","21","","6","","24.1","","100.67","","","","-4","","Cloudy"
"2004-02-17 13:00","2004","02","17","13:00","-1.4","","-11.1","","48","","24","","4","","24.1","","100.59","","","","-3","","Cloudy"
"2004-02-17 14:00","2004","02","17","14:00","-0.8","","-10.2","","49","","21","","9","","19.3","","100.52","","","","-4","","Cloudy"
"2004-02-17 15:00","2004","02","17","15:00","0.2","","-9.4","","48","","19","","11","","19.3","","100.51","","","","","","Mostly Cloudy"
"2004-02-17 16:00","2004","02","17","16:00","-0.2","","-8.0","","56","","18","","17","","24.1","","100.51","","","","-5","","Mainly Clear"
"2004-02-17 17:00","2004","02","17","17:00","-1.1","","-8.5","","57","","20","","13","","24.1","","100.49","","","","-5","","Mainly Clear"
"2004-02-17 18:00","2004","02","17","18:00","-1.5","","-8.7","","58","","21","","9","","24.1","","100.58","","","","-5","","Mainly Clear"
"2004-02-17 19:00","2004","02","17","19:00","-2.3","","-8.6","","62","","20","","11","","24.1","","100.64","","","","-6","","Clear"
"2004-02-17 20:00","2004","02","17","20:00","-3.1","","-8.8","","65","","23","","11","","24.1","","100.68","","","","-7","","Clear"
"2004-02-17 21:00","2004","02","17","21:00","-3.5","","-8.7","","67","","23","","9","","24.1","","100.67","","","","-7","","Mainly Clear"
"2004-02-17 22:00","2004","02","17","22:00","-3.8","","-8.2","","71","","24","","7","","19.3","","100.66","","","","-7","","Mainly Clear"
"2004-02-17 23:00","2004","02","17","23:00","-3.4","","-7.8","","72","","24","","6","","19.3","","100.66","","","","-6","","Mostly Cloudy"
"2004-02-18 00:00","2004","02","18","00:00","-4.7","","-8.8","","73","","24","","6","","19.3","","100.64","","","","-7","","Clear"
"2004-02-18 01:00","2004","02","18","01:00","-5.1","","-9.7","","70","","26","","7","","19.3","","100.65","","","","-8","","Clear"
"2004-02-18 02:00","2004","02","18","02:00","-4.4","","-9.7","","66","","32","","13","","24.1","","100.66","","","","-9","","Clear"
"2004-02-18 03:00","2004","02","18","03:00","-5.0","","-10.3","","66","","31","","9","","16.1","","100.68","","","","-9","","Clear"
"2004-02-18 04:00","2004","02","18","04:00","-5.4","","-9.9","","71","","31","","6","","16.1","","100.59","","","","-8","","Clear"
"2004-02-18 05:00","2004","02","18","05:00","-6.6","","-10.4","","74","","","","0","","12.9","","100.58","","","","","","Clear"
"2004-02-18 06:00","2004","02","18","06:00","-7.4","","-11.0","","75","","25","","6","","12.9","","100.52","","","","-11","","Mainly Clear"
"2004-02-18 07:00","2004","02","18","07:00","-7.0","","-10.3","","77","","25","","6","","9.7","","100.51","","","","-10","","Haze"
"2004-02-18 08:00","2004","02","18","08:00","-6.1","","-9.7","","76","","27","","9","","8.0","","100.56","","","","-10","","Haze"
"2004-02-18 09:00","2004","02","18","09:00","-4.7","","-8.4","","75","","25","","4","","8.0","","100.49","","","","-6","","Haze"
"2004-02-18 10:00","2004","02","18","10:00","-3.5","","-7.7","","73","","20","","6","","6.4","","100.44","","","","-6","","Haze"
"2004-02-18 11:00","2004","02","18","11:00","-2.6","","-7.5","","69","","22","","11","","9.7","","100.46","","","","-7","","Haze"
"2004-02-18 12:00","2004","02","18","12:00","-1.4","","-7.1","","65","","23","","15","","12.9","","100.41","","","","-6","","Mostly Cloudy"
"2004-02-18 13:00","2004","02","18","13:00","-0.7","","-6.6","","64","","21","","24","","12.9","","100.22","","","","-7","","Mostly Cloudy"
"2004-02-18 14:00","2004","02","18","14:00","-1.9","","-6.8","","69","","19","","26","","11.3","","100.01","","","","-8","","Cloudy"
"2004-02-18 15:00","2004","02","18","15:00","-1.0","","-5.4","","72","","21","","26","","9.7","","99.92","","","","-7","","Haze"
"2004-02-18 16:00","2004","02","18","16:00","-0.7","","-5.4","","70","","21","","26","","9.7","","99.83","","","","-7","","Haze"
"2004-02-18 17:00","2004","02","18","17:00","-0.1","","-4.9","","70","","21","","22","","11.3","","99.73","","","","-6","","Cloudy"
"2004-02-18 18:00","2004","02","18","18:00","0.4","","-4.6","","69","","21","","26","","11.3","","99.63","","","","","","Cloudy"
"2004-02-18 19:00","2004","02","18","19:00","0.9","","-4.1","","69","","21","","35","","9.7","","99.47","","","","","","Haze"
"2004-02-18 20:00","2004","02","18","20:00","1.1","","-3.9","","69","","21","","30","","9.7","","99.39","","","","","","Haze"
"2004-02-18 21:00","2004","02","18","21:00","1.3","","-3.2","","72","","22","","19","","11.3","","99.34","","","","","","Cloudy"
"2004-02-18 22:00","2004","02","18","22:00","2.2","","-3.4","","66","","24","","24","","11.3","","99.29","","","","","","Cloudy"
"2004-02-18 23:00","2004","02","18","23:00","2.0","","-3.4","","67","","23","","19","","11.3","","99.26","","","","","","Mostly Cloudy"
"2004-02-19 00:00","2004","02","19","00:00","1.7","","-3.3","","69","","23","","17","","16.1","","99.20","","","","","","Mostly Cloudy"
"2004-02-19 01:00","2004","02","19","01:00","1.7","","-3.1","","70","","23","","22","","19.3","","99.15","","","","","","Mostly Cloudy"
"2004-02-19 02:00","2004","02","19","02:00","1.4","","-3.0","","72","","23","","22","","12.9","","99.12","","","","","","Mostly Cloudy"
"2004-02-19 03:00","2004","02","19","03:00","0.9","","-3.2","","74","","23","","15","","12.9","","99.12","","","","","","Mostly Cloudy"
"2004-02-19 04:00","2004","02","19","04:00","0.5","","-3.0","","77","","23","","15","","12.9","","99.11","","","","","","Mostly Cloudy"
"2004-02-19 05:00","2004","02","19","05:00","0.2","","-3.1","","78","","24","","15","","11.3","","99.09","","","","","","Mostly Cloudy"
"2004-02-19 06:00","2004","02","19","06:00","-0.3","","-3.3","","80","","24","","9","","9.7","","99.11","","","","-3","","Haze"
"2004-02-19 07:00","2004","02","19","07:00","-0.3","","-3.2","","81","","26","","7","","6.4","","99.11","","","","-3","","Haze"
"2004-02-19 08:00","2004","02","19","08:00","-0.1","","-2.8","","82","","25","","7","","4.0","","99.17","","","","-3","","Haze"
"2004-02-19 09:00","2004","02","19","09:00","0.5","","-2.4","","81","","22","","6","","4.0","","99.22","","","","","","Haze"
"2004-02-19 10:00","2004","02","19","10:00","1.6","","-1.7","","79","","22","","11","","6.4","","99.23","","","","","","Haze"
"2004-02-19 11:00","2004","02","19","11:00","3.5","","-1.3","","71","","18","","4","","6.4","","99.27","","","","","","Haze"
"2004-02-19 12:00","2004","02","19","12:00","3.9","","-1.6","","67","","15","","4","","8.0","","99.24","","","","","","Haze"
"2004-02-19 13:00","2004","02","19","13:00","5.1","","-1.1","","64","","21","","7","","8.0","","99.24","","","","","","Haze"
"2004-02-19 14:00","2004","02","19","14:00","5.5","","-0.9","","63","","16","","7","","8.0","","99.08","","","","","","Haze"
"2004-02-19 15:00","2004","02","19","15:00","6.3","","-0.6","","61","","16","","11","","8.0","","99.00","","","","","","Haze"
"2004-02-19 16:00","2004","02","19","16:00","5.8","","-0.2","","65","","14","","9","","9.7","","99.02","","","","","","Haze"
"2004-02-19 17:00","2004","02","19","17:00","5.3","","-0.6","","66","","14","","9","","9.7","","99.03","","","","","","Haze"
"2004-02-19 18:00","2004","02","19","18:00","3.0","","-1.2","","74","","8","","11","","8.0","","99.01","","","","","","Haze"
"2004-02-19 19:00","2004","02","19","19:00","2.3","","-1.3","","77","","9","","4","","6.4","","99.03","","","","","","Haze"
"2004-02-19 20:00","2004","02","19","20:00","1.9","","-1.5","","78","","9","","9","","8.0","","99.00","","","","","","Haze"
"2004-02-19 21:00","2004","02","19","21:00","1.3","","-2.1","","78","","10","","11","","6.4","","98.99","","","","","","Haze"
"2004-02-19 22:00","2004","02","19","22:00","0.9","","-2.0","","81","","9","","11","","6.4","","98.97","","","","","","Haze"
"2004-02-19 23:00","2004","02","19","23:00","0.9","","-1.9","","82","","8","","9","","6.4","","98.89","","","","","","Haze"
"2004-02-20 00:00","2004","02","20","00:00","0.9","","-1.9","","82","","8","","9","","6.4","","98.87","","","","","","Haze"
"2004-02-20 01:00","2004","02","20","01:00","0.9","","-1.8","","82","","7","","13","","4.8","","98.79","","","","","","Haze"
"2004-02-20 02:00","2004","02","20","02:00","1.2","","-1.5","","82","","8","","15","","4.8","","98.67","","","","","","Haze"
"2004-02-20 03:00","2004","02","20","03:00","1.7","","-1.3","","80","","8","","15","","4.8","","98.58","","","","","","Haze"
"2004-02-20 04:00","2004","02","20","04:00","1.3","","-1.7","","80","","10","","17","","6.4","","98.39","","","","","","Haze"
"2004-02-20 05:00","2004","02","20","05:00","1.3","","-1.5","","82","","11","","15","","6.4","","98.26","","","","","","Haze"
"2004-02-20 06:00","2004","02","20","06:00","1.6","","-1.4","","80","","11","","15","","8.0","","98.14","","","","","","Haze"
"2004-02-20 07:00","2004","02","20","07:00","1.6","","-1.6","","79","","13","","13","","8.0","","98.04","","","","","","Haze"
"2004-02-20 08:00","2004","02","20","08:00","1.5","","-1.6","","80","","12","","11","","8.0","","97.93","","","","","","Haze"
"2004-02-20 09:00","2004","02","20","09:00","3.7","","-0.7","","73","","11","","4","","8.0","","97.90","","","","","","Haze"
"2004-02-20 10:00","2004","02","20","10:00","7.7","","0.8","","62","","14","","7","","9.7","","97.76","","","","","","Haze"
"2004-02-20 11:00","2004","02","20","11:00","8.3","","0.7","","59","","20","","6","","19.3","","97.64","","","","","","Mostly Cloudy"
"2004-02-20 12:00","2004","02","20","12:00","8.3","","0.8","","59","","20","","24","","16.1","","97.54","","","","","","Mostly Cloudy"
"2004-02-20 13:00","2004","02","20","13:00","7.9","","1.5","","64","","20","","22","","16.1","","97.43","","","","","","Rain"
"2004-02-20 14:00","2004","02","20","14:00","6.5","","1.4","","70","","19","","19","","16.1","","97.30","","","","","","Rain"
"2004-02-20 15:00","2004","02","20","15:00","5.7","","3.2","","84","","19","","20","","8.0","","97.25","","","","","","Moderate Rain"
"2004-02-20 16:00","2004","02","20","16:00","5.3","","3.6","","89","","18","","20","","6.4","","97.17","","","","","","Rain"
"2004-02-20 17:00","2004","02","20","17:00","5.3","","4.3","","93","","18","","19","","4.8","","97.09","","","","","","Rain"
"2004-02-20 18:00","2004","02","20","18:00","5.6","","5.6","","100","","19","","22","","4.8","","97.01","","","","","","Rain"
"2004-02-20 19:00","2004","02","20","19:00","5.4","","5.4","","100","","20","","20","","4.8","","96.96","","","","","","Rain,Fog"
"2004-02-20 20:00","2004","02","20","20:00","5.9","","5.9","","100","","21","","20","","4.8","","96.91","","","","","","Rain,Fog"
"2004-02-20 21:00","2004","02","20","21:00","5.3","","5.3","","100","","24","","41","","11.3","","96.92","","","","","","Rain"
"2004-02-20 22:00","2004","02","20","22:00","3.9","","3.9","","100","","25","","48","","16.1","","96.99","","","","","","Rain"
"2004-02-20 23:00","2004","02","20","23:00","2.7","","1.5","","92","","26","","54","","24.1","","97.11","","","","","","Cloudy"
"2004-02-21 00:00","2004","02","21","00:00","2.4","","1.3","","92","","25","","33","","24.1","","97.19","","","","","","Cloudy"
"2004-02-21 01:00","2004","02","21","01:00","2.5","","0.5","","87","","24","","30","","24.1","","97.21","","","","","","Cloudy"
"2004-02-21 02:00","2004","02","21","02:00","2.2","","1.1","","92","","25","","37","","24.1","","97.24","","","","","","Snow Showers"
"2004-02-21 03:00","2004","02","21","03:00","2.0","","-2.0","","75","","24","","37","","24.1","","97.25","","","","","","Snow Showers"
"2004-02-21 04:00","2004","02","21","04:00","0.3","","-1.8","","86","","24","","37","","6.4","","97.29","","","","","","Snow"
"2004-02-21 05:00","2004","02","21","05:00","0.5","","-2.5","","80","","25","","33","","6.4","","97.36","","","","","","Snow"
"2004-02-21 06:00","2004","02","21","06:00","-0.1","","-2.4","","84","","26","","33","","9.7","","97.47","","","","-7","","Snow"
"2004-02-21 07:00","2004","02","21","07:00","-0.4","","-2.2","","88","","27","","35","","3.2","","97.58","","","","-7","","Snow"
"2004-02-21 08:00","2004","02","21","08:00","-0.5","","-2.3","","88","","28","","37","","4.0","","97.75","","","","-8","","Snow"
"2004-02-21 09:00","2004","02","21","09:00","-0.4","","-3.5","","80","","29","","32","","4.8","","97.93","","","","-7","","Snow"
"2004-02-21 10:00","2004","02","21","10:00","-0.1","","-4.2","","74","","28","","41","","24.1","","98.03","","","","-8","","Mostly Cloudy"
"2004-02-21 11:00","2004","02","21","11:00","0.1","","-5.2","","67","","28","","44","","24.1","","98.19","","","","","","Cloudy"
"2004-02-21 12:00","2004","02","21","12:00","0.4","","-4.8","","68","","28","","30","","24.1","","98.32","","","","","","Cloudy"
"2004-02-21 13:00","2004","02","21","13:00","0.3","","-5.1","","67","","28","","35","","24.1","","98.43","","","","","","Cloudy"
"2004-02-21 14:00","2004","02","21","14:00","0.3","","-6.0","","63","","29","","37","","24.1","","98.51","","","","","","Cloudy"
"2004-02-21 15:00","2004","02","21","15:00","0.7","","-6.2","","60","","30","","33","","24.1","","98.60","","","","","","Mostly Cloudy"
"2004-02-21 16:00","2004","02","21","16:00","1.2","","-5.6","","60","","30","","32","","24.1","","98.73","","","","","","Mostly Cloudy"
"2004-02-21 17:00","2004","02","21","17:00","0.9","","-6.6","","57","","29","","33","","24.1","","98.83","","","","","","Mostly Cloudy"
"2004-02-21 18:00","2004","02","21","18:00","0.9","","-6.3","","59","","29","","24","","24.1","","98.98","","","","","","Mostly Cloudy"
"2004-02-21 19:00","2004","02","21","19:00","1.1","","-5.7","","60","","30","","24","","24.1","","99.11","","","","","","Mostly Cloudy"
"2004-02-21 20:00","2004","02","21","20:00","1.4","","-5.8","","59","","30","","20","","24.1","","99.20","","","","","","Mostly Cloudy"
"2004-02-21 21:00","2004","02","21","21:00","1.3","","-5.3","","61","","29","","19","","24.1","","99.31","","","","","","Mostly Cloudy"
"2004-02-21 22:00","2004","02","21","22:00","1.3","","-4.7","","64","","28","","19","","24.1","","99.39","","","","","","Mostly Cloudy"
"2004-02-21 23:00","2004","02","21","23:00","1.1","","-4.4","","67","","27","","15","","24.1","","99.44","","","","","","Mostly Cloudy"
"2004-02-22 00:00","2004","02","22","00:00","1.3","","-3.9","","68","","27","","15","","24.1","","99.49","","","","","","Cloudy"
"2004-02-22 01:00","2004","02","22","01:00","1.3","","-3.8","","69","","26","","13","","24.1","","99.57","","","","","","Cloudy"
"2004-02-22 02:00","2004","02","22","02:00","1.1","","-4.0","","69","","25","","11","","24.1","","99.61","","","","","","Cloudy"
"2004-02-22 03:00","2004","02","22","03:00","1.3","","-4.5","","65","","26","","13","","24.1","","99.66","","","","","","Cloudy"
"2004-02-22 04:00","2004","02","22","04:00","1.1","","-4.6","","66","","26","","13","","24.1","","99.71","","","","","","Cloudy"
"2004-02-22 05:00","2004","02","22","05:00","1.0","","-4.5","","67","","26","","11","","24.1","","99.77","","","","","","Mostly Cloudy"
"2004-02-22 06:00","2004","02","22","06:00","1.0","","-4.0","","69","","27","","11","","24.1","","99.82","","","","","","Cloudy"
"2004-02-22 07:00","2004","02","22","07:00","1.1","","-3.8","","70","","27","","11","","24.1","","99.91","","","","","","Cloudy"
"2004-02-22 08:00","2004","02","22","08:00","1.1","","-3.5","","71","","31","","9","","19.3","","99.96","","","","","","Mostly Cloudy"
"2004-02-22 09:00","2004","02","22","09:00","1.5","","-3.4","","70","","32","","9","","24.1","","100.03","","","","","","Mostly Cloudy"
"2004-02-22 10:00","2004","02","22","10:00","2.2","","-4.5","","61","","30","","11","","24.1","","100.09","","","","","","Mostly Cloudy"
"2004-02-22 11:00","2004","02","22","11:00","2.5","","-5.4","","56","","29","","9","","24.1","","100.14","","","","","","Mostly Cloudy"
"2004-02-22 12:00","2004","02","22","12:00","2.7","","-6.7","","50","","23","","9","","24.1","","100.14","","","","","","Mostly Cloudy"
"2004-02-22 13:00","2004","02","22","13:00","2.8","","-6.1","","52","","28","","7","","24.1","","100.13","","","","","","Cloudy"
"2004-02-22 14:00","2004","02","22","14:00","2.9","","-6.4","","50","","28","","7","","24.1","","100.10","","","","","","Mostly Cloudy"
"2004-02-22 15:00","2004","02","22","15:00","3.3","","-6.4","","49","","20","","6","","24.1","","100.09","","","","","","Mostly Cloudy"
"2004-02-22 16:00","2004","02","22","16:00","3.2","","-5.8","","52","","12","","9","","24.1","","100.07","","","","","","Mostly Cloudy"
"2004-02-22 17:00","2004","02","22","17:00","2.0","","-2.7","","71","","11","","17","","24.1","","100.09","","","","","","Mostly Cloudy"
"2004-02-22 18:00","2004","02","22","18:00","1.0","","-2.4","","78","","13","","15","","24.1","","100.11","","","","","","Mostly Cloudy"
"2004-02-22 19:00","2004","02","22","19:00","0.3","","-3.5","","76","","14","","7","","24.1","","100.14","","","","","","Mostly Cloudy"
"2004-02-22 20:00","2004","02","22","20:00","-0.5","","-3.2","","82","","13","","13","","24.1","","100.13","","","","-5","","Mainly Clear"
"2004-02-22 21:00","2004","02","22","21:00","-0.7","","-2.8","","86","","14","","9","","16.1","","100.14","","","","-4","","Mainly Clear"
"2004-02-22 22:00","2004","02","22","22:00","-0.7","","-3.0","","84","","16","","9","","12.9","","100.17","","","","-4","","Mainly Clear"
"2004-02-22 23:00","2004","02","22","23:00","-1.1","","-3.2","","86","","13","","6","","12.9","","100.16","","","","-3","","Mainly Clear"
"2004-02-23 00:00","2004","02","23","00:00","-1.2","","-3.1","","87","","14","","6","","11.3","","100.15","","","","-3","","Mostly Cloudy"
"2004-02-23 01:00","2004","02","23","01:00","-1.0","","-3.0","","86","","12","","7","","12.9","","100.16","","","","-4","","Mostly Cloudy"
"2004-02-23 02:00","2004","02","23","02:00","-0.8","","-3.0","","85","","13","","6","","12.9","","100.20","","","","-3","","Cloudy"
"2004-02-23 03:00","2004","02","23","03:00","-0.6","","-2.7","","86","","12","","9","","12.9","","100.17","","","","-4","","Cloudy"
"2004-02-23 04:00","2004","02","23","04:00","-0.5","","-2.7","","85","","14","","7","","12.9","","100.14","","","","-3","","Cloudy"
"2004-02-23 05:00","2004","02","23","05:00","-0.6","","-3.0","","84","","12","","6","","14.5","","100.12","","","","-3","","Mostly Cloudy"
"2004-02-23 06:00","2004","02","23","06:00","-0.8","","-3.4","","83","","10","","6","","12.9","","100.12","","","","-3","","Mostly Cloudy"
"2004-02-23 07:00","2004","02","23","07:00","-1.0","","-3.3","","84","","11","","7","","14.5","","100.12","","","","-4","","Mostly Cloudy"
"2004-02-23 08:00","2004","02","23","08:00","-0.5","","-3.0","","83","","11","","13","","12.9","","100.12","","","","-5","","Cloudy"
"2004-02-23 09:00","2004","02","23","09:00","0.2","","-3.0","","79","","13","","15","","16.1","","100.13","","","","","","Cloudy"
"2004-02-23 10:00","2004","02","23","10:00","0.8","","-3.0","","76","","11","","13","","12.9","","100.11","","","","","","Cloudy"
"2004-02-23 11:00","2004","02","23","11:00","1.8","","-2.6","","73","","12","","17","","14.5","","100.08","","","","","","Cloudy"
"2004-02-23 12:00","2004","02","23","12:00","1.8","","-2.8","","71","","13","","17","","14.5","","100.04","","","","","","Cloudy"
"2004-02-23 13:00","2004","02","23","13:00","2.2","","-3.0","","68","","14","","17","","19.3","","99.94","","","","","","Cloudy"
"2004-02-23 14:00","2004","02","23","14:00","2.5","","-3.0","","67","","11","","15","","19.3","","99.84","","","","","","Cloudy"
"2004-02-23 15:00","2004","02","23","15:00","2.0","","-3.0","","69","","10","","13","","19.3","","99.82","","","","","","Mostly Cloudy"
"2004-02-23 16:00","2004","02","23","16:00","2.3","","-3.0","","68","","11","","13","","24.1","","99.80","","","","","","Cloudy"
"2004-02-23 17:00","2004","02","23","17:00","1.5","","-3.4","","70","","12","","17","","24.1","","99.77","","","","","","Mostly Cloudy"
"2004-02-23 18:00","2004","02","23","18:00","0.7","","-3.9","","71","","9","","17","","24.1","","99.76","","","","","","Cloudy"
"2004-02-23 19:00","2004","02","23","19:00","0.2","","-4.4","","71","","9","","17","","12.9","","99.74","","","","","","Snow Showers"
"2004-02-23 20:00","2004","02","23","20:00","-0.4","","-4.0","","77","","9","","17","","4.8","","99.74","","","","-5","","Snow Showers"
"2004-02-23 21:00","2004","02","23","21:00","-1.0","","-3.6","","82","","9","","15","","1.6","","99.75","","","","-6","","Snow Showers"
"2004-02-23 22:00","2004","02","23","22:00","-1.2","","-3.4","","85","","8","","11","","3.2","","99.77","","","","-5","","Snow Showers"
"2004-02-23 23:00","2004","02","23","23:00","-1.5","","-3.5","","86","","7","","15","","3.2","","99.75","","","","-6","","Snow Showers"
"2004-02-24 00:00","2004","02","24","00:00","-1.7","","-3.7","","86","","7","","15","","3.6","","99.73","","","","-7","","Snow"
"2004-02-24 01:00","2004","02","24","01:00","-1.7","","-3.7","","86","","5","","9","","4.0","","99.72","","","","-5","","Snow"
"2004-02-24 02:00","2004","02","24","02:00","-1.5","","-3.5","","86","","6","","9","","6.4","","99.73","","","","-5","","Snow"
"2004-02-24 03:00","2004","02","24","03:00","-1.3","","-3.4","","86","","5","","13","","9.7","","99.71","","","","-6","","Snow"
"2004-02-24 04:00","2004","02","24","04:00","-1.3","","-3.6","","84","","3","","19","","8.0","","99.70","","","","-7","","Snow"
"2004-02-24 05:00","2004","02","24","05:00","-1.5","","-4.1","","82","","2","","20","","8.0","","99.74","","","","-7","","Snow"
"2004-02-24 06:00","2004","02","24","06:00","-1.7","","-4.4","","82","","3","","19","","9.7","","99.75","","","","-7","","Snow"
"2004-02-24 07:00","2004","02","24","07:00","-1.7","","-4.6","","81","","2","","24","","8.0","","99.81","","","","-8","","Snow"
"2004-02-24 08:00","2004","02","24","08:00","-1.5","","-5.3","","75","","3","","20","","9.7","","99.90","","","","-7","","Snow"
"2004-02-24 09:00","2004","02","24","09:00","-1.8","","-5.4","","76","","2","","15","","9.7","","100.01","","","","-7","","Snow"
"2004-02-24 10:00","2004","02","24","10:00","-1.4","","-6.4","","69","","3","","26","","16.1","","100.06","","","","-8","","Snow"
"2004-02-24 11:00","2004","02","24","11:00","-1.4","","-5.9","","71","","3","","24","","19.3","","100.07","","","","-8","","Mostly Cloudy"
"2004-02-24 12:00","2004","02","24","12:00","-0.1","","-5.6","","66","","3","","26","","24.1","","100.09","","","","-6","","Mostly Cloudy"
"2004-02-24 13:00","2004","02","24","13:00","0.6","","-5.3","","65","","3","","26","","24.1","","100.07","","","","","","Mostly Cloudy"
"2004-02-24 14:00","2004","02","24","14:00","0.7","","-5.5","","63","","4","","28","","24.1","","100.06","","","","","","Mostly Cloudy"
"2004-02-24 15:00","2004","02","24","15:00","1.2","","-5.2","","62","","4","","30","","24.1","","100.05","","","","","","Mainly Clear"
"2004-02-24 16:00","2004","02","24","16:00","1.2","","-5.5","","61","","3","","24","","24.1","","100.07","","","","","","Mainly Clear"
"2004-02-24 17:00","2004","02","24","17:00","1.1","","-5.5","","61","","4","","20","","24.1","","100.09","","","","","","Mainly Clear"
"2004-02-24 18:00","2004","02","24","18:00","0.2","","-5.4","","66","","4","","15","","24.1","","100.15","","","","","","Mainly Clear"
"2004-02-24 19:00","2004","02","24","19:00","-0.5","","-7.0","","61","","36","","17","","24.1","","100.23","","","","-5","","Clear"
"2004-02-24 20:00","2004","02","24","20:00","-1.1","","-6.8","","65","","36","","13","","24.1","","100.27","","","","-5","","Clear"
"2004-02-24 21:00","2004","02","24","21:00","-1.9","","-7.5","","65","","1","","13","","24.1","","100.31","","","","-6","","Clear"
"2004-02-24 22:00","2004","02","24","22:00","-2.5","","-8.7","","62","","36","","13","","24.1","","100.30","","","","-7","","Clear"
"2004-02-24 23:00","2004","02","24","23:00","-3.3","","-9.0","","65","","35","","9","","24.1","","100.31","","","","-7","","Clear"
"2004-02-25 00:00","2004","02","25","00:00","-3.3","","-9.1","","64","","35","","7","","24.1","","100.33","","","","-6","","Clear"
"2004-02-25 01:00","2004","02","25","01:00","-3.5","","-8.9","","66","","34","","7","","24.1","","100.37","","","","-6","","Clear"
"2004-02-25 02:00","2004","02","25","02:00","-3.7","","-8.4","","70","","34","","6","","24.1","","100.42","","","","-6","","Clear"
"2004-02-25 03:00","2004","02","25","03:00","-3.8","","-8.0","","73","","33","","7","","24.1","","100.42","","","","-7","","Clear"
"2004-02-25 04:00","2004","02","25","04:00","-4.0","","-8.1","","73","","34","","7","","24.1","","100.40","","","","-7","","Clear"
"2004-02-25 05:00","2004","02","25","05:00","-3.9","","-8.2","","72","","34","","7","","24.1","","100.42","","","","-7","","Mainly Clear"
"2004-02-25 06:00","2004","02","25","06:00","-4.3","","-8.6","","72","","34","","7","","24.1","","100.47","","","","-7","","Clear"
"2004-02-25 07:00","2004","02","25","07:00","-4.1","","-7.7","","76","","36","","15","","16.1","","100.50","","","","-9","","Mostly Cloudy"
"2004-02-25 08:00","2004","02","25","08:00","-3.6","","-6.0","","83","","36","","15","","8.0","","100.53","","","","-9","","Haze"
"2004-02-25 09:00","2004","02","25","09:00","-2.6","","-5.1","","83","","34","","13","","8.0","","100.59","","","","-7","","Haze"
"2004-02-25 10:00","2004","02","25","10:00","-0.8","","-4.1","","78","","32","","9","","14.5","","100.63","","","","-4","","Mainly Clear"
"2004-02-25 11:00","2004","02","25","11:00","0.6","","-3.6","","73","","33","","9","","14.5","","100.64","","","","","","Mainly Clear"
"2004-02-25 12:00","2004","02","25","12:00","2.1","","-3.1","","68","","35","","7","","14.5","","100.63","","","","","","Mainly Clear"
"2004-02-25 13:00","2004","02","25","13:00","2.2","","-2.7","","70","","9","","9","","14.5","","100.60","","","","","","Mainly Clear"
"2004-02-25 14:00","2004","02","25","14:00","2.3","","-2.7","","69","","9","","13","","14.5","","100.58","","","","","","Mainly Clear"
"2004-02-25 15:00","2004","02","25","15:00","2.5","","-3.6","","64","","7","","13","","24.1","","100.57","","","","","","Mainly Clear"
"2004-02-25 16:00","2004","02","25","16:00","2.5","","-3.9","","63","","6","","17","","24.1","","100.56","","","","","","Clear"
"2004-02-25 17:00","2004","02","25","17:00","2.0","","-3.7","","66","","5","","20","","24.1","","100.55","","","","","","Clear"
"2004-02-25 18:00","2004","02","25","18:00","1.0","","-3.8","","70","","6","","15","","24.1","","100.53","","","","","","Clear"
"2004-02-25 19:00","2004","02","25","19:00","0.2","","-4.0","","73","","6","","13","","24.1","","100.53","","","","","","Clear"
"2004-02-25 20:00","2004","02","25","20:00","-0.8","","-3.9","","79","","6","","13","","24.1","","100.55","","","","-5","","Clear"
"2004-02-25 21:00","2004","02","25","21:00","-1.5","","-4.1","","82","","5","","13","","24.1","","100.58","","","","-6","","Clear"
"2004-02-25 22:00","2004","02","25","22:00","-1.6","","-4.2","","82","","5","","13","","8.0","","100.62","","","","-6","","Haze"
"2004-02-25 23:00","2004","02","25","23:00","-1.8","","-4.3","","83","","6","","15","","3.2","","100.67","","","","-7","","Haze"
"2004-02-26 00:00","2004","02","26","00:00","-1.7","","-4.4","","82","","6","","13","","6.4","","100.66","","","","-6","","Haze"
"2004-02-26 01:00","2004","02","26","01:00","-1.8","","-4.4","","82","","4","","15","","6.4","","100.62","","","","-7","","Haze"
"2004-02-26 02:00","2004","02","26","02:00","-1.8","","-4.2","","84","","4","","13","","8.0","","100.62","","","","-6","","Haze"
"2004-02-26 03:00","2004","02","26","03:00","-1.5","","-4.2","","82","","5","","17","","8.0","","100.62","","","","-7","","Haze"
"2004-02-26 04:00","2004","02","26","04:00","-1.5","","-4.3","","81","","4","","15","","8.0","","100.62","","","","-6","","Haze"
"2004-02-26 05:00","2004","02","26","05:00","-1.5","","-4.4","","81","","5","","13","","8.0","","100.65","","","","-6","","Haze"
"2004-02-26 06:00","2004","02","26","06:00","-1.5","","-4.0","","83","","4","","9","","9.7","","100.68","","","","-5","","Haze"
"2004-02-26 07:00","2004","02","26","07:00","-1.2","","-3.9","","82","","3","","13","","9.7","","100.67","","","","-5","","Haze"
"2004-02-26 08:00","2004","02","26","08:00","-1.6","","-4.3","","82","","3","","11","","9.7","","100.70","","","","-5","","Haze"
"2004-02-26 09:00","2004","02","26","09:00","-1.2","","-4.2","","80","","5","","17","","12.9","","100.71","","","","-6","","Mostly Cloudy"
"2004-02-26 10:00","2004","02","26","10:00","-0.7","","-3.9","","79","","5","","13","","12.9","","100.70","","","","-5","","Mostly Cloudy"
"2004-02-26 11:00","2004","02","26","11:00","-0.5","","-3.2","","82","","9","","11","","8.0","","100.73","","","","-4","","Haze"
"2004-02-26 12:00","2004","02","26","12:00","0.9","","-3.1","","75","","8","","7","","9.7","","100.75","","","","","","Haze"
"2004-02-26 13:00","2004","02","26","13:00","2.4","","-2.5","","70","","8","","15","","12.9","","100.67","","","","","","Mostly Cloudy"
"2004-02-26 14:00","2004","02","26","14:00","2.6","","-2.7","","68","","7","","15","","16.1","","100.58","","","","","","Mostly Cloudy"
"2004-02-26 15:00","2004","02","26","15:00","2.3","","-3.7","","64","","7","","20","","19.3","","100.59","","","","","","Mostly Cloudy"
"2004-02-26 16:00","2004","02","26","16:00","2.5","","-3.9","","63","","8","","22","","24.1","","100.58","","","","","","Mostly Cloudy"
"2004-02-26 17:00","2004","02","26","17:00","2.1","","-3.7","","65","","8","","17","","24.1","","100.58","","","","","","Mostly Cloudy"
"2004-02-26 18:00","2004","02","26","18:00","1.3","","-3.6","","70","","6","","11","","24.1","","100.58","","","","","","Mostly Cloudy"
"2004-02-26 19:00","2004","02","26","19:00","0.1","","-3.6","","76","","5","","11","","24.1","","100.59","","","","","","Mostly Cloudy"
"2004-02-26 20:00","2004","02","26","20:00","0.3","","-3.4","","76","","5","","17","","24.1","","100.58","","","","","","Mostly Cloudy"
"2004-02-26 21:00","2004","02","26","21:00","0.0","","-4.3","","73","","4","","17","","19.3","","100.59","","","","-5","","Mostly Cloudy"
"2004-02-26 22:00","2004","02","26","22:00","-0.5","","-4.3","","75","","5","","15","","24.1","","100.59","","","","-5","","Cloudy"
"2004-02-26 23:00","2004","02","26","23:00","-0.8","","-4.5","","76","","5","","19","","24.1","","100.58","","","","-6","","Cloudy"
"2004-02-27 00:00","2004","02","27","00:00","-1.0","","-5.1","","74","","5","","17","","19.3","","100.57","","","","-6","","Mostly Cloudy"
"2004-02-27 01:00","2004","02","27","01:00","-1.4","","-5.2","","75","","4","","13","","19.3","","100.57","","","","-6","","Mostly Cloudy"
"2004-02-27 02:00","2004","02","27","02:00","-1.7","","-5.6","","75","","5","","15","","16.1","","100.58","","","","-7","","Mostly Cloudy"
"2004-02-27 03:00","2004","02","27","03:00","-2.0","","-6.2","","73","","5","","13","","19.3","","100.59","","","","-6","","Mainly Clear"
"2004-02-27 04:00","2004","02","27","04:00","-2.5","","-6.9","","72","","4","","11","","19.3","","100.58","","","","-7","","Mainly Clear"
"2004-02-27 05:00","2004","02","27","05:00","-2.6","","-7.8","","67","","5","","13","","19.3","","100.63","","","","-7","","Mainly Clear"
"2004-02-27 06:00","2004","02","27","06:00","-2.7","","-8.6","","64","","4","","15","","24.1","","100.68","","","","-8","","Mainly Clear"
"2004-02-27 07:00","2004","02","27","07:00","-2.7","","-8.9","","62","","4","","15","","19.3","","100.71","","","","-8","","Mostly Cloudy"
"2004-02-27 08:00","2004","02","27","08:00","-1.9","","-8.7","","60","","4","","11","","24.1","","100.77","","","","-6","","Mostly Cloudy"
"2004-02-27 09:00","2004","02","27","09:00","-0.9","","-9.9","","50","","6","","15","","24.1","","100.80","","","","-6","","Mostly Cloudy"
"2004-02-27 10:00","2004","02","27","10:00","-0.3","","-10.6","","46","","6","","17","","24.1","","100.81","","","","-5","","Mostly Cloudy"
"2004-02-27 11:00","2004","02","27","11:00","0.1","","-10.1","","46","","6","","15","","24.1","","100.84","","","","","","Mainly Clear"
"2004-02-27 12:00","2004","02","27","12:00","1.5","","-8.2","","48","","8","","9","","24.1","","100.85","","","","","","Mainly Clear"
"2004-02-27 13:00","2004","02","27","13:00","2.5","","-7.4","","48","","8","","9","","24.1","","100.79","","","","","","Mainly Clear"
"2004-02-27 14:00","2004","02","27","14:00","3.6","","-7.0","","46","","5","","9","","24.1","","100.79","","","","","","Clear"
"2004-02-27 15:00","2004","02","27","15:00","3.9","","-7.0","","45","","4","","13","","24.1","","100.80","","","","","","Clear"
"2004-02-27 16:00","2004","02","27","16:00","4.3","","-7.1","","43","","6","","17","","24.1","","100.81","","","","","","Clear"
"2004-02-27 17:00","2004","02","27","17:00","4.3","","-7.2","","43","","7","","13","","24.1","","100.77","","","","","","Clear"
"2004-02-27 18:00","2004","02","27","18:00","3.5","","-6.8","","47","","8","","9","","24.1","","100.81","","","","","","Clear"
"2004-02-27 19:00","2004","02","27","19:00","1.9","","-6.8","","52","","8","","6","","24.1","","100.81","","","","","","Clear"
"2004-02-27 20:00","2004","02","27","20:00","0.8","","-7.5","","54","","13","","6","","24.1","","100.82","","","","","","Clear"
"2004-02-27 21:00","2004","02","27","21:00","-0.7","","-7.0","","62","","","","0","","24.1","","100.83","","","","","","Clear"
"2004-02-27 22:00","2004","02","27","22:00","0.1","","-7.7","","56","","1","","6","","24.1","","100.87","","","","","","Clear"
"2004-02-27 23:00","2004","02","27","23:00","-0.9","","-7.8","","59","","2","","6","","24.1","","100.85","","","","-3","","Clear"
"2004-02-28 00:00","2004","02","28","00:00","-1.8","","-5.9","","74","","2","","4","","24.1","","100.85","","","","-3","","Clear"
"2004-02-28 01:00","2004","02","28","01:00","-2.4","","-5.2","","81","","7","","4","","24.1","","100.85","","","","-4","","Clear"
"2004-02-28 02:00","2004","02","28","02:00","-3.2","","-5.4","","85","","15","","6","","24.1","","100.80","","","","-6","","Mostly Cloudy"
"2004-02-28 03:00","2004","02","28","03:00","-3.4","","-5.7","","84","","22","","4","","19.3","","100.75","","","","-5","","Clear"
"2004-02-28 04:00","2004","02","28","04:00","-4.0","","-6.8","","81","","","","0","","19.3","","100.77","","","","","","Clear"
"2004-02-28 05:00","2004","02","28","05:00","-4.1","","-6.3","","85","","","","0","","16.1","","100.81","","","","","","Mostly Cloudy"
"2004-02-28 06:00","2004","02","28","06:00","-4.1","","-6.2","","85","","","","0","","14.5","","100.82","","","","","","Mostly Cloudy"
"2004-02-28 07:00","2004","02","28","07:00","-4.6","","-6.8","","85","","","","0","","14.5","","100.88","","","","","","Mainly Clear"
"2004-02-28 08:00","2004","02","28","08:00","-2.5","","-4.7","","85","","","","0","","16.1","","100.88","","","","","","Mostly Cloudy"
"2004-02-28 09:00","2004","02","28","09:00","0.7","","-3.9","","71","","19","","4","","24.1","","100.86","","","","","","Mostly Cloudy"
"2004-02-28 10:00","2004","02","28","10:00","2.8","","-5.9","","53","","19","","9","","24.1","","100.87","","","","","","Mostly Cloudy"
"2004-02-28 11:00","2004","02","28","11:00","5.0","","-6.2","","44","","23","","11","","24.1","","100.85","","","","","","Mostly Cloudy"
"2004-02-28 12:00","2004","02","28","12:00","6.6","","-5.6","","41","","22","","11","","24.1","","100.78","","","","","","Mostly Cloudy"
"2004-02-28 13:00","2004","02","28","13:00","8.0","","-5.6","","38","","22","","13","","24.1","","100.68","","","","","","Mainly Clear"
"2004-02-28 14:00","2004","02","28","14:00","9.3","","-3.6","","40","","22","","17","","24.1","","100.59","","","","","","Mostly Cloudy"
"2004-02-28 15:00","2004","02","28","15:00","9.7","","-1.1","","47","","19","","19","","24.1","","100.50","","","","","","Mostly Cloudy"
"2004-02-28 16:00","2004","02","28","16:00","9.2","","-1.3","","48","","19","","20","","19.3","","100.46","","","","","","Mostly Cloudy"
"2004-02-28 17:00","2004","02","28","17:00","8.2","","-1.8","","49","","20","","20","","19.3","","100.41","","","","","","Cloudy"
"2004-02-28 18:00","2004","02","28","18:00","6.2","","-1.5","","58","","21","","13","","19.3","","100.41","","","","","","Mainly Clear"
"2004-02-28 19:00","2004","02","28","19:00","4.6","","-2.6","","60","","20","","15","","24.1","","100.40","","","","","","Mainly Clear"
"2004-02-28 20:00","2004","02","28","20:00","3.1","","-2.9","","65","","21","","11","","24.1","","100.40","","","","","","Mainly Clear"
"2004-02-28 21:00","2004","02","28","21:00","2.5","","-2.9","","67","","22","","9","","24.1","","100.40","","","","","","Mainly Clear"
"2004-02-28 22:00","2004","02","28","22:00","2.5","","-2.7","","69","","21","","15","","24.1","","100.39","","","","","","Mainly Clear"
"2004-02-28 23:00","2004","02","28","23:00","2.5","","-2.5","","70","","21","","9","","24.1","","100.33","","","","","","Mainly Clear"
"2004-02-29 00:00","2004","02","29","00:00","2.0","","-2.4","","73","","22","","11","","24.1","","100.31","","","","","","Mainly Clear"
"2004-02-29 01:00","2004","02","29","01:00","1.5","","-2.7","","74","","22","","11","","24.1","","100.26","","","","","","Mainly Clear"
"2004-02-29 02:00","2004","02","29","02:00","1.6","","-2.7","","73","","20","","7","","24.1","","100.23","","","","","","Clear"
"2004-02-29 03:00","2004","02","29","03:00","0.6","","-3.0","","77","","22","","7","","24.1","","100.20","","","","","","Clear"
"2004-02-29 04:00","2004","02","29","04:00","0.4","","-3.0","","78","","20","","6","","24.1","","100.17","","","","","","Mainly Clear"
"2004-02-29 05:00","2004","02","29","05:00","0.5","","-3.1","","77","","22","","4","","24.1","","100.17","","","","","","Mainly Clear"
"2004-02-29 06:00","2004","02","29","06:00","0.4","","-3.3","","76","","18","","4","","24.1","","100.17","","","","","","Mainly Clear"
"2004-02-29 07:00","2004","02","29","07:00","0.3","","-3.3","","77","","20","","7","","16.1","","100.18","","","","","","Mostly Cloudy"
"2004-02-29 08:00","2004","02","29","08:00","1.8","","-2.7","","72","","21","","4","","24.1","","100.23","","","","","","Mostly Cloudy"
"2004-02-29 09:00","2004","02","29","09:00","3.0","","-2.0","","70","","21","","7","","24.1","","100.22","","","","","","Cloudy"
"2004-02-29 10:00","2004","02","29","10:00","5.4","","-1.7","","60","","21","","9","","24.1","","100.18","","","","","","Mostly Cloudy"
"2004-02-29 11:00","2004","02","29","11:00","7.7","","-1.6","","52","","21","","11","","24.1","","100.16","","","","","","Mostly Cloudy"
"2004-02-29 12:00","2004","02","29","12:00","9.6","","-0.5","","49","","20","","11","","24.1","","100.10","","","","","","Cloudy"
"2004-02-29 13:00","2004","02","29","13:00","11.1","","1.2","","50","","21","","13","","24.1","","100.02","","","","","","Cloudy"
"2004-02-29 14:00","2004","02","29","14:00","12.0","","1.6","","49","","19","","15","","24.1","","99.97","","","","","","Cloudy"
"2004-02-29 15:00","2004","02","29","15:00","12.3","","1.7","","48","","20","","17","","24.1","","99.91","","","","","","Cloudy"
"2004-02-29 16:00","2004","02","29","16:00","11.7","","1.9","","51","","20","","13","","24.1","","99.89","","","","","","Mostly Cloudy"
"2004-02-29 17:00","2004","02","29","17:00","10.7","","3.4","","61","","19","","13","","24.1","","99.85","","","","","","Cloudy"
"2004-02-29 18:00","2004","02","29","18:00","9.9","","3.2","","63","","20","","11","","19.3","","99.84","","","","","","Mostly Cloudy"
"2004-02-29 19:00","2004","02","29","19:00","7.7","","2.4","","69","","18","","11","","24.1","","99.86","","","","","","Mostly Cloudy"
"2004-02-29 20:00","2004","02","29","20:00","6.2","","1.3","","71","","18","","11","","24.1","","99.83","","","","","","Mostly Cloudy"
"2004-02-29 21:00","2004","02","29","21:00","6.9","","1.4","","68","","20","","7","","24.1","","99.82","","","","","","Mostly Cloudy"
"2004-02-29 22:00","2004","02","29","22:00","4.9","","0.6","","74","","17","","6","","24.1","","99.82","","","","","","Mostly Cloudy"
"2004-02-29 23:00","2004","02","29","23:00","3.9","","0.2","","77","","17","","7","","24.1","","99.82","","","","","","Mostly Cloudy"
