"Station Name","WINDSOR A"
"Province","ONTARIO"
"Current Station Operator","NAV Canada"
"Latitude","42.28"
"Longitude","-82.96"
"Elevation","189.60"
"Climate Identifier","6139530"
"WMO Identifier","71538"
"TC Identifier","YQG"
"All times are specified in Local Standard Time (LST). Add 1 hour to adjust for Daylight Saving Time where and when it is observed."

"Legend"
"E","Estimated"
"M","Missing"
"NA","Not Available"

"Date/Time","Year","Month","Day","Time","Temp (°C)","Temp Flag","Dew Point Temp (°C)","Dew Point Temp Flag","Rel Hum (%)","Rel Hum Flag","Wind Dir (10s deg)","Wind Dir Flag","Wind Spd (km/h)","Wind Spd Flag","Visibility (km)","Visibility Flag","Stn Press (kPa)","Stn Press Flag","Hmdx","Hmdx Flag","Wind Chill","Wind Chill Flag","Weather"
"2019-01-01 00:00","2019","01","01","00:00","6.7","","5.4","","91","","28","","34","","12.9","","97.81","","","","","","NA"
"2019-01-01 01:00","2019","01","01","01:00","3.9","","2.4","","90","","29","","32","","16.1","","98.12","","","","","","NA"
"2019-01-01 02:00","2019","01","01","02:00","3.0","","1.3","","89","","30","","28","","16.1","","98.42","","","","","","NA"
"2019-01-01 03:00","2019","01","01","03:00","2.8","","0.9","","87","","30","","28","","16.1","","98.76","","","","","","NA"
"2019-01-01 04:00","2019","01","01","04:00","2.5","","0.2","","85","","32","","22","","16.1","","98.94","","","","","","NA"
"2019-01-01 05:00","2019","01","01","05:00","2.4","","0.0","","84","","31","","17","","16.1","","99.07","","","","","","NA"
"2019-01-01 06:00","2019","01","01","06:00","2.4","","-0.2","","83","","31","","15","","16.1","","99.35","","","","","","NA"
"2019-01-01 07:00","2019","01","01","07:00","2.4","","-0.2","","83","","33","","17","","16.1","","99.52","","","","","","NA"
"2019-01-01 08:00","2019","01","01","08:00","1.9","","-0.4","","85","","32","","15","","16.1","","99.63","","","","","","NA"
"2019-01-01 09:00","2019","01","01","09:00","2.3","","-0.2","","83","","32","","11","","16.1","","99.79","","","","","","NA"
"2019-01-01 10:00","2019","01","01","10:00","2.4","","-0.7","","80","","33","","15","","16.1","","99.92","","","","","","NA"
"2019-01-01 11:00","2019","01","01","11:00","2.6","","-1.4","","75","","33","","11","","16.1","","99.98","","","","","","NA"
"2019-01-01 12:00","2019","01","01","12:00","1.3","","-0.8","","86","","4","","18","","16.1","","99.99","","","","","","Rain"
"2019-01-01 13:00","2019","01","01","13:00","0.7","","-1.5","","85","","4","","15","","16.1","","99.99","","","","","","NA"
"2019-01-01 14:00","2019","01","01","14:00","0.0","","-2.6","","83","","2","","17","","16.1","","100.00","","","","-5","","NA"
"2019-01-01 15:00","2019","01","01","15:00","-0.5","","-2.2","","89","","4","","17","","6.4","","100.09","","","","-5","","Snow"
"2019-01-01 16:00","2019","01","01","16:00","-1.3","","-2.8","","89","","1","","15","","6.4","","100.16","","","","-6","","Snow"
"2019-01-01 17:00","2019","01","01","17:00","-1.7","","-3.4","","88","","3","","18","","16.1","","100.21","","","","-7","","NA"
"2019-01-01 18:00","2019","01","01","18:00","-1.9","","-4.0","","85","","2","","13","","16.1","","100.24","","","","-6","","NA"
"2019-01-01 19:00","2019","01","01","19:00","-1.9","","-4.1","","85","","4","","18","","16.1","","100.25","","","","-7","","NA"
"2019-01-01 20:00","2019","01","01","20:00","-2.3","","-4.3","","86","","2","","17","","16.1","","100.32","","","","-8","","NA"
"2019-01-01 21:00","2019","01","01","21:00","-2.7","","-4.6","","87","","36","","13","","16.1","","100.31","","","","-7","","NA"
"2019-01-01 22:00","2019","01","01","22:00","-2.9","","-5.3","","84","","36","","11","","16.1","","100.31","","","","-7","","NA"
"2019-01-01 23:00","2019","01","01","23:00","-3.0","","-5.3","","84","","1","","11","","16.1","","100.31","","","","-7","","NA"
"2019-01-02 00:00","2019","01","02","00:00","-3.0","","-5.2","","85","","2","","9","","16.1","","100.29","","","","-7","","NA"
"2019-01-02 01:00","2019","01","02","01:00","-3.1","","-5.6","","83","","2","","11","","16.1","","100.29","","","","-7","","NA"
"2019-01-02 02:00","2019","01","02","02:00","-3.0","","-5.8","","81","","2","","11","","16.1","","100.35","","","","-7","","NA"
"2019-01-02 03:00","2019","01","02","03:00","-2.7","","-5.5","","81","","4","","11","","16.1","","100.38","","","","-7","","NA"
"2019-01-02 04:00","2019","01","02","04:00","-2.6","","-5.0","","84","","6","","9","","16.1","","100.31","","","","-6","","NA"
"2019-01-02 05:00","2019","01","02","05:00","-2.5","","-5.1","","82","","9","","9","","16.1","","100.22","","","","-6","","NA"
"2019-01-02 06:00","2019","01","02","06:00","-2.4","","-4.8","","84","","9","","11","","16.1","","100.20","","","","-6","","NA"
"2019-01-02 07:00","2019","01","02","07:00","-2.5","","-5.0","","83","","10","","13","","16.1","","100.23","","","","-7","","NA"
"2019-01-02 08:00","2019","01","02","08:00","-2.6","","-5.1","","83","","10","","11","","16.1","","100.22","","","","-7","","NA"
"2019-01-02 09:00","2019","01","02","09:00","-2.3","","-4.5","","85","","9","","9","","16.1","","100.25","","","","-6","","NA"
"2019-01-02 10:00","2019","01","02","10:00","-2.0","","-4.1","","86","","10","","11","","16.1","","100.21","","","","-6","","Snow"
"2019-01-02 11:00","2019","01","02","11:00","-1.5","","-3.2","","88","","11","","11","","16.1","","100.14","","","","-5","","NA"
"2019-01-02 12:00","2019","01","02","12:00","-1.0","","-2.1","","92","","12","","11","","16.1","","99.94","","","","-5","","NA"
"2019-01-02 13:00","2019","01","02","13:00","-0.3","","-1.4","","92","","13","","13","","16.1","","99.78","","","","-4","","NA"
"2019-01-02 14:00","2019","01","02","14:00","0.2","","-1.0","","91","","13","","11","","16.1","","99.61","","","","","","NA"
"2019-01-02 15:00","2019","01","02","15:00","0.4","","-0.5","","94","","16","","11","","14.5","","99.50","","","","","","NA"
"2019-01-02 16:00","2019","01","02","16:00","0.3","","-0.3","","96","","15","","9","","6.4","","99.36","","","","","","Rain,Fog"
"2019-01-02 17:00","2019","01","02","17:00","0.3","","0.0","","98","","16","","9","","4.8","","99.25","","","","","","Rain,Fog"
"2019-01-02 18:00","2019","01","02","18:00","0.5","","0.2","","98","","15","","11","","2.8","","99.14","","","","","","Rain,Fog"
"2019-01-02 19:00","2019","01","02","19:00","1.4","","1.1","","98","","21","","15","","3.2","","99.09","","","","","","Rain,Fog"
"2019-01-02 20:00","2019","01","02","20:00","1.7","","0.7","","93","","26","","24","","4.8","","99.15","","","","","","Rain,Fog"
"2019-01-02 21:00","2019","01","02","21:00","1.3","","-0.1","","91","","25","","32","","14.5","","99.10","","","","","","NA"
"2019-01-02 22:00","2019","01","02","22:00","0.7","","-1.1","","88","","27","","32","","8.1","","99.14","","","","","","Snow"
"2019-01-02 23:00","2019","01","02","23:00","0.3","","-2.4","","82","","27","","30","","16.1","","99.15","","","","","","NA"
"2019-01-03 00:00","2019","01","03","00:00","-0.1","","-3.1","","81","","26","","28","","16.1","","99.19","","","","-6","","NA"
"2019-01-03 01:00","2019","01","03","01:00","-0.2","","-3.3","","80","","25","","28","","16.1","","99.19","","","","-7","","NA"
"2019-01-03 02:00","2019","01","03","02:00","-0.3","","-3.3","","80","","25","","22","","16.1","","99.26","","","","-6","","NA"
"2019-01-03 03:00","2019","01","03","03:00","-0.2","","-4.1","","75","","26","","22","","16.1","","99.33","","","","-6","","NA"
"2019-01-03 04:00","2019","01","03","04:00","-0.1","","-4.5","","72","","27","","30","","16.1","","99.35","","","","-7","","NA"
"2019-01-03 05:00","2019","01","03","05:00","-0.4","","-4.5","","74","","26","","18","","16.1","","99.32","","","","-5","","NA"
"2019-01-03 06:00","2019","01","03","06:00","-0.5","","-4.9","","72","","27","","21","","16.1","","99.37","","","","-6","","NA"
"2019-01-03 07:00","2019","01","03","07:00","-0.5","","-5.3","","70","","26","","18","","16.1","","99.42","","","","-6","","NA"
"2019-01-03 08:00","2019","01","03","08:00","-0.5","","-5.3","","70","","25","","21","","16.1","","99.48","","","","-6","","NA"
"2019-01-03 09:00","2019","01","03","09:00","-0.6","","-5.2","","71","","27","","17","","16.1","","99.50","","","","-6","","NA"
"2019-01-03 10:00","2019","01","03","10:00","-0.5","","-4.9","","72","","24","","22","","16.1","","99.58","","","","-6","","NA"
"2019-01-03 11:00","2019","01","03","11:00","-0.1","","-4.3","","73","","23","","21","","16.1","","99.54","","","","-6","","NA"
"2019-01-03 12:00","2019","01","03","12:00","0.0","","-3.9","","75","","22","","28","","16.1","","99.40","","","","-6","","NA"
"2019-01-03 13:00","2019","01","03","13:00","0.6","","-3.6","","73","","24","","24","","16.1","","99.31","","","","","","NA"
"2019-01-03 14:00","2019","01","03","14:00","1.1","","-3.7","","70","","23","","28","","16.1","","99.20","","","","","","NA"
"2019-01-03 15:00","2019","01","03","15:00","2.0","","-3.3","","68","","22","","26","","16.1","","99.15","","","","","","NA"
"2019-01-03 16:00","2019","01","03","16:00","1.9","","-3.0","","70","","22","","24","","16.1","","99.13","","","","","","NA"
"2019-01-03 17:00","2019","01","03","17:00","1.3","","-2.8","","74","","23","","24","","16.1","","99.22","","","","","","NA"
"2019-01-03 18:00","2019","01","03","18:00","0.8","","-2.5","","79","","22","","26","","16.1","","99.23","","","","","","NA"
"2019-01-03 19:00","2019","01","03","19:00","0.6","","-2.6","","79","","22","","18","","16.1","","99.24","","","","","","NA"
"2019-01-03 20:00","2019","01","03","20:00","0.3","","-2.4","","82","","20","","18","","16.1","","99.23","","","","","","NA"
"2019-01-03 21:00","2019","01","03","21:00","1.0","","-2.4","","78","","22","","28","","16.1","","99.17","","","","","","NA"
"2019-01-03 22:00","2019","01","03","22:00","0.6","","-2.5","","80","","22","","26","","16.1","","99.10","","","","","","NA"
"2019-01-03 23:00","2019","01","03","23:00","0.5","","-2.4","","81","","23","","21","","16.1","","99.04","","","","","","NA"
"2019-01-04 00:00","2019","01","04","00:00","0.5","","-2.4","","81","","23","","18","","16.1","","99.03","","","","","","NA"
"2019-01-04 01:00","2019","01","04","01:00","0.2","","-2.2","","84","","22","","17","","16.1","","98.96","","","","","","NA"
"2019-01-04 02:00","2019","01","04","02:00","0.4","","-2.2","","83","","22","","24","","16.1","","98.94","","","","","","NA"
"2019-01-04 03:00","2019","01","04","03:00","0.3","","-2.1","","84","","23","","24","","16.1","","98.94","","","","","","NA"
"2019-01-04 04:00","2019","01","04","04:00","0.4","","-2.0","","84","","22","","21","","16.1","","98.85","","","","","","NA"
"2019-01-04 05:00","2019","01","04","05:00","0.4","","-2.2","","83","","22","","21","","16.1","","98.84","","","","","","NA"
"2019-01-04 06:00","2019","01","04","06:00","0.4","","-2.3","","82","","23","","18","","16.1","","98.81","","","","","","NA"
"2019-01-04 07:00","2019","01","04","07:00","0.2","","-2.2","","84","","22","","17","","16.1","","98.86","","","","","","NA"
"2019-01-04 08:00","2019","01","04","08:00","-0.4","","-2.3","","87","","21","","17","","16.1","","98.86","","","","-5","","NA"
"2019-01-04 09:00","2019","01","04","09:00","0.5","","-2.1","","83","","22","","18","","16.1","","98.89","","","","","","NA"
"2019-01-04 10:00","2019","01","04","10:00","1.9","","-1.7","","77","","22","","22","","16.1","","98.77","","","","","","NA"
"2019-01-04 11:00","2019","01","04","11:00","3.8","","-1.1","","70","","22","","21","","16.1","","98.73","","","","","","NA"
"2019-01-04 12:00","2019","01","04","12:00","4.8","","-0.6","","68","","20","","21","","16.1","","98.59","","","","","","NA"
"2019-01-04 13:00","2019","01","04","13:00","5.2","","0.0","","69","","21","","26","","16.1","","98.50","","","","","","NA"
"2019-01-04 14:00","2019","01","04","14:00","6.9","","0.6","","64","","21","","24","","16.1","","98.43","","","","","","NA"
"2019-01-04 15:00","2019","01","04","15:00","8.8","","0.5","","56","","23","","17","","16.1","","98.36","","","","","","NA"
"2019-01-04 16:00","2019","01","04","16:00","8.4","","0.2","","56","","21","","17","","16.1","","98.29","","","","","","NA"
"2019-01-04 17:00","2019","01","04","17:00","5.6","","1.2","","73","","19","","11","","16.1","","98.27","","","","","","NA"
"2019-01-04 18:00","2019","01","04","18:00","3.2","","-1.0","","74","","21","","9","","16.1","","98.25","","","","","","NA"
"2019-01-04 19:00","2019","01","04","19:00","2.5","","-1.5","","75","","20","","9","","16.1","","98.29","","","","","","NA"
"2019-01-04 20:00","2019","01","04","20:00","1.5","","-1.9","","78","","","","0","","16.1","","98.32","","","","","","NA"
"2019-01-04 21:00","2019","01","04","21:00","1.2","","-2.3","","78","","21","","4","","16.1","","98.30","","","","","","NA"
"2019-01-04 22:00","2019","01","04","22:00","-0.3","","-2.7","","84","","22","","8","","16.1","","98.26","","","","-3","","NA"
"2019-01-04 23:00","2019","01","04","23:00","0.7","","-2.1","","81","","28","","8","","16.1","","98.22","","","","","","NA"
"2019-01-05 00:00","2019","01","05","00:00","1.1","","-1.7","","82","","32","","9","","16.1","","98.15","","","","","","NA"
"2019-01-05 01:00","2019","01","05","01:00","1.8","","-1.5","","79","","35","","11","","16.1","","98.12","","","","","","NA"
"2019-01-05 02:00","2019","01","05","02:00","1.4","","-1.5","","81","","34","","13","","16.1","","98.17","","","","","","NA"
"2019-01-05 03:00","2019","01","05","03:00","1.0","","-1.9","","81","","36","","13","","16.1","","98.20","","","","","","NA"
"2019-01-05 04:00","2019","01","05","04:00","0.7","","-1.7","","84","","36","","9","","16.1","","98.19","","","","","","NA"
"2019-01-05 05:00","2019","01","05","05:00","0.2","","-1.7","","87","","34","","11","","16.1","","98.23","","","","","","NA"
"2019-01-05 06:00","2019","01","05","06:00","0.3","","-1.3","","89","","34","","9","","11.3","","98.27","","","","","","NA"
"2019-01-05 07:00","2019","01","05","07:00","0.2","","-1.3","","90","","33","","8","","9.7","","98.34","","","","","","Fog"
"2019-01-05 08:00","2019","01","05","08:00","-0.6","","-1.8","","92","","31","","5","","8.1","","98.45","","","","-2","","Fog"
"2019-01-05 09:00","2019","01","05","09:00","-0.5","","-1.4","","94","","28","","8","","6.4","","98.55","","","","-3","","Fog"
"2019-01-05 10:00","2019","01","05","10:00","2.5","","0.2","","85","","27","","4","","8.1","","98.64","","","","","","Haze"
"2019-01-05 11:00","2019","01","05","11:00","4.0","","1.0","","81","","","M","4","","9.7","","98.64","","","","","","Haze"
"2019-01-05 12:00","2019","01","05","12:00","5.5","","1.5","","75","","22","","11","","11.3","","98.59","","","","","","NA"
"2019-01-05 13:00","2019","01","05","13:00","6.6","","2.1","","73","","22","","18","","16.1","","98.54","","","","","","NA"
"2019-01-05 14:00","2019","01","05","14:00","8.0","","2.7","","69","","22","","24","","16.1","","98.48","","","","","","NA"
"2019-01-05 15:00","2019","01","05","15:00","8.6","","2.6","","66","","23","","24","","16.1","","98.52","","","","","","NA"
"2019-01-05 16:00","2019","01","05","16:00","9.0","","2.4","","63","","25","","18","","16.1","","98.58","","","","","","NA"
"2019-01-05 17:00","2019","01","05","17:00","6.7","","2.6","","75","","22","","21","","16.1","","98.58","","","","","","NA"
"2019-01-05 18:00","2019","01","05","18:00","5.3","","2.3","","81","","23","","21","","16.1","","98.65","","","","","","NA"
"2019-01-05 19:00","2019","01","05","19:00","5.0","","2.2","","82","","23","","18","","16.1","","98.70","","","","","","NA"
"2019-01-05 20:00","2019","01","05","20:00","3.1","","1.3","","88","","23","","15","","14.5","","98.73","","","","","","NA"
"2019-01-05 21:00","2019","01","05","21:00","4.1","","1.5","","83","","25","","18","","16.1","","98.76","","","","","","NA"
"2019-01-05 22:00","2019","01","05","22:00","5.9","","1.6","","74","","28","","24","","16.1","","98.85","","","","","","NA"
"2019-01-05 23:00","2019","01","05","23:00","5.5","","0.9","","72","","31","","22","","16.1","","98.96","","","","","","NA"
"2019-01-06 00:00","2019","01","06","00:00","4.3","","0.3","","75","","32","","17","","16.1","","99.06","","","","","","NA"
"2019-01-06 01:00","2019","01","06","01:00","3.6","","0.1","","78","","31","","13","","16.1","","99.19","","","","","","NA"
"2019-01-06 02:00","2019","01","06","02:00","4.2","","0.0","","74","","33","","21","","16.1","","99.33","","","","","","NA"
"2019-01-06 03:00","2019","01","06","03:00","4.0","","-0.3","","74","","33","","17","","16.1","","99.42","","","","","","NA"
"2019-01-06 04:00","2019","01","06","04:00","3.7","","-1.1","","71","","32","","13","","16.1","","99.49","","","","","","NA"
"2019-01-06 05:00","2019","01","06","05:00","3.6","","-1.2","","71","","33","","15","","16.1","","99.63","","","","","","NA"
"2019-01-06 06:00","2019","01","06","06:00","2.0","","-2.0","","75","","34","","15","","16.1","","99.76","","","","","","NA"
"2019-01-06 07:00","2019","01","06","07:00","2.3","","-3.0","","68","","33","","13","","16.1","","99.85","","","","","","NA"
"2019-01-06 08:00","2019","01","06","08:00","2.0","","-3.5","","67","","34","","8","","16.1","","99.97","","","","","","NA"
"2019-01-06 09:00","2019","01","06","09:00","2.0","","-3.6","","66","","33","","13","","16.1","","100.06","","","","","","NA"
"2019-01-06 10:00","2019","01","06","10:00","3.4","","-3.0","","63","","35","","13","","16.1","","100.17","","","","","","NA"
"2019-01-06 11:00","2019","01","06","11:00","3.1","","-4.8","","56","","36","","17","","16.1","","100.26","","","","","","NA"
"2019-01-06 12:00","2019","01","06","12:00","3.6","","-5.5","","51","","35","","15","","16.1","","100.25","","","","","","NA"
"2019-01-06 13:00","2019","01","06","13:00","3.7","","-4.3","","56","","3","","13","","16.1","","100.24","","","","","","NA"
"2019-01-06 14:00","2019","01","06","14:00","3.5","","-4.8","","55","","5","","13","","16.1","","100.30","","","","","","NA"
"2019-01-06 15:00","2019","01","06","15:00","3.6","","-5.2","","53","","5","","13","","16.1","","100.32","","","","","","NA"
"2019-01-06 16:00","2019","01","06","16:00","2.8","","-5.3","","55","","6","","13","","16.1","","100.37","","","","","","NA"
"2019-01-06 17:00","2019","01","06","17:00","0.7","","-4.4","","69","","6","","11","","16.1","","100.43","","","","","","NA"
"2019-01-06 18:00","2019","01","06","18:00","0.7","","-3.9","","71","","7","","17","","16.1","","100.51","","","","","","NA"
"2019-01-06 19:00","2019","01","06","19:00","0.4","","-4.8","","68","","7","","13","","16.1","","100.55","","","","","","NA"
"2019-01-06 20:00","2019","01","06","20:00","0.2","","-3.9","","74","","7","","17","","16.1","","100.58","","","","","","NA"
"2019-01-06 21:00","2019","01","06","21:00","0.1","","-4.4","","72","","7","","22","","16.1","","100.61","","","","","","NA"
"2019-01-06 22:00","2019","01","06","22:00","-0.1","","-3.7","","77","","8","","22","","16.1","","100.59","","","","-6","","NA"
"2019-01-06 23:00","2019","01","06","23:00","-0.5","","-4.2","","76","","8","","21","","16.1","","100.57","","","","-6","","NA"
"2019-01-07 00:00","2019","01","07","00:00","-0.9","","-4.8","","75","","8","","18","","16.1","","100.52","","","","-6","","NA"
"2019-01-07 01:00","2019","01","07","01:00","-1.0","","-5.0","","74","","9","","17","","16.1","","100.49","","","","-6","","NA"
"2019-01-07 02:00","2019","01","07","02:00","-1.1","","-4.5","","78","","9","","11","","16.1","","100.47","","","","-5","","NA"
"2019-01-07 03:00","2019","01","07","03:00","-0.7","","-3.4","","82","","9","","13","","16.1","","100.42","","","","-5","","NA"
"2019-01-07 04:00","2019","01","07","04:00","0.0","","-2.2","","85","","10","","21","","16.1","","100.32","","","","-5","","Rain"
"2019-01-07 05:00","2019","01","07","05:00","-0.2","","-2.1","","87","","11","","26","","16.1","","100.29","","","","-6","","Snow"
"2019-01-07 06:00","2019","01","07","06:00","-0.2","","-2.4","","85","","11","","22","","16.1","","100.29","","","","-6","","Snow"
"2019-01-07 07:00","2019","01","07","07:00","-0.1","","-2.5","","84","","9","","30","","16.1","","100.09","","","","-7","","NA"
"2019-01-07 08:00","2019","01","07","08:00","-0.1","","-2.2","","86","","11","","26","","16.1","","100.00","","","","-6","","Snow"
"2019-01-07 09:00","2019","01","07","09:00","0.2","","-1.9","","86","","10","","35","","16.1","","99.81","","","","","","NA"
"2019-01-07 10:00","2019","01","07","10:00","0.8","","-1.3","","86","","11","","26","","16.1","","99.78","","","","","","NA"
"2019-01-07 11:00","2019","01","07","11:00","1.5","","-1.0","","84","","11","","34","","16.1","","99.55","","","","","","NA"
"2019-01-07 12:00","2019","01","07","12:00","2.4","","-2.3","","71","","12","","26","","16.1","","99.35","","","","","","NA"
"2019-01-07 13:00","2019","01","07","13:00","3.0","","-2.6","","67","","12","","24","","16.1","","99.06","","","","","","NA"
"2019-01-07 14:00","2019","01","07","14:00","3.6","","-2.4","","65","","13","","32","","16.1","","98.80","","","","","","NA"
"2019-01-07 15:00","2019","01","07","15:00","4.7","","-1.9","","62","","15","","24","","16.1","","98.63","","","","","","NA"
"2019-01-07 16:00","2019","01","07","16:00","4.6","","0.6","","75","","16","","32","","16.1","","98.30","","","","","","Rain"
"2019-01-07 17:00","2019","01","07","17:00","6.2","","3.0","","80","","18","","30","","16.1","","98.29","","","","","","Rain"
"2019-01-07 18:00","2019","01","07","18:00","6.9","","4.9","","87","","20","","32","","8.1","","98.21","","","","","","Rain,Fog"
"2019-01-07 19:00","2019","01","07","19:00","8.4","","5.9","","84","","20","","41","","16.1","","98.13","","","","","","NA"
"2019-01-07 20:00","2019","01","07","20:00","9.1","","6.6","","84","","21","","35","","16.1","","98.13","","","","","","NA"
"2019-01-07 21:00","2019","01","07","21:00","9.8","","7.8","","87","","22","","30","","16.1","","98.18","","","","","","NA"
"2019-01-07 22:00","2019","01","07","22:00","11.4","","9.0","","85","","22","","41","","16.1","","98.22","","","","","","NA"
"2019-01-07 23:00","2019","01","07","23:00","11.0","","8.8","","86","","22","","37","","16.1","","98.24","","","","","","NA"
"2019-01-08 00:00","2019","01","08","00:00","10.8","","8.7","","87","","24","","34","","16.1","","98.32","","","","","","NA"
"2019-01-08 01:00","2019","01","08","01:00","10.0","","8.3","","89","","23","","22","","16.1","","98.39","","","","","","NA"
"2019-01-08 02:00","2019","01","08","02:00","8.9","","7.7","","92","","23","","21","","16.1","","98.50","","","","","","NA"
"2019-01-08 03:00","2019","01","08","03:00","8.6","","6.9","","89","","25","","18","","16.1","","98.62","","","","","","NA"
"2019-01-08 04:00","2019","01","08","04:00","7.7","","5.4","","85","","26","","21","","16.1","","98.63","","","","","","NA"
"2019-01-08 05:00","2019","01","08","05:00","6.4","","4.9","","90","","23","","5","","16.1","","98.58","","","","","","NA"
"2019-01-08 06:00","2019","01","08","06:00","6.1","","4.8","","92","","18","","8","","12.9","","98.57","","","","","","NA"
"2019-01-08 07:00","2019","01","08","07:00","5.6","","4.9","","95","","9","","4","","6.4","","98.57","","","","","","Fog"
"2019-01-08 08:00","2019","01","08","08:00","5.2","","4.8","","97","","12","","5","","3.2","","98.55","","","","","","Fog"
"2019-01-08 09:00","2019","01","08","09:00","5.9","","5.5","","97","","14","","4","","4.8","","98.48","","","","","","Fog"
"2019-01-08 10:00","2019","01","08","10:00","8.7","","7.2","","90","","25","","15","","9.7","","98.40","","","","","","Fog"
"2019-01-08 11:00","2019","01","08","11:00","9.4","","7.1","","85","","24","","22","","16.1","","98.34","","","","","","NA"
"2019-01-08 12:00","2019","01","08","12:00","10.0","","6.6","","79","","24","","24","","16.1","","98.18","","","","","","NA"
"2019-01-08 13:00","2019","01","08","13:00","10.8","","5.3","","69","","25","","32","","16.1","","98.09","","","","","","NA"
"2019-01-08 14:00","2019","01","08","14:00","11.1","","4.7","","64","","30","","22","","16.1","","98.06","","","","","","NA"
"2019-01-08 15:00","2019","01","08","15:00","9.6","","3.6","","66","","29","","26","","16.1","","98.04","","","","","","NA"
"2019-01-08 16:00","2019","01","08","16:00","8.3","","4.2","","75","","28","","15","","16.1","","98.08","","","","","","Rain"
"2019-01-08 17:00","2019","01","08","17:00","6.8","","3.9","","82","","28","","41","","16.1","","98.12","","","","","","Rain"
"2019-01-08 18:00","2019","01","08","18:00","5.6","","1.9","","77","","28","","39","","16.1","","98.25","","","","","","NA"
"2019-01-08 19:00","2019","01","08","19:00","5.0","","0.8","","74","","29","","30","","16.1","","98.39","","","","","","NA"
"2019-01-08 20:00","2019","01","08","20:00","4.1","","-0.9","","70","","28","","24","","16.1","","98.50","","","","","","NA"
"2019-01-08 21:00","2019","01","08","21:00","4.1","","-2.8","","61","","28","","28","","16.1","","98.57","","","","","","NA"
"2019-01-08 22:00","2019","01","08","22:00","3.6","","-2.8","","63","","29","","26","","16.1","","98.64","","","","","","NA"
"2019-01-08 23:00","2019","01","08","23:00","2.6","","-4.2","","61","","28","","26","","16.1","","98.70","","","","","","NA"
"2019-01-09 00:00","2019","01","09","00:00","2.2","","-3.7","","65","","29","","18","","16.1","","98.76","","","","","","Rain"
"2019-01-09 01:00","2019","01","09","01:00","0.8","","-4.4","","69","","30","","32","","16.1","","98.82","","","","","","Snow"
"2019-01-09 02:00","2019","01","09","02:00","0.4","","-3.6","","75","","29","","21","","16.1","","98.85","","","","","","Snow"
"2019-01-09 03:00","2019","01","09","03:00","-0.8","","-2.7","","87","","29","","22","","4.8","","98.92","","","","-7","","Snow"
"2019-01-09 04:00","2019","01","09","04:00","-0.4","","-4.4","","74","","30","","24","","16.1","","98.92","","","","-6","","Snow"
"2019-01-09 05:00","2019","01","09","05:00","-0.6","","-5.5","","70","","29","","18","","16.1","","98.93","","","","-6","","Snow"
"2019-01-09 06:00","2019","01","09","06:00","-1.2","","-5.6","","72","","29","","22","","16.1","","98.97","","","","-7","","Snow"
"2019-01-09 07:00","2019","01","09","07:00","-1.7","","-6.3","","71","","29","","30","","16.1","","99.05","","","","-9","","Snow"
"2019-01-09 08:00","2019","01","09","08:00","-2.2","","-7.5","","67","","30","","32","","16.1","","99.11","","","","-10","","Snow"
"2019-01-09 09:00","2019","01","09","09:00","-2.5","","-7.4","","69","","31","","30","","16.1","","99.22","","","","-10","","Snow"
"2019-01-09 10:00","2019","01","09","10:00","-3.4","","-5.5","","86","","28","","24","","3.6","","99.30","","","","-10","","Snow"
"2019-01-09 11:00","2019","01","09","11:00","-3.2","","-7.2","","74","","29","","21","","16.1","","99.34","","","","-9","","Snow"
"2019-01-09 12:00","2019","01","09","12:00","-3.1","","-8.2","","68","","29","","32","","16.1","","99.33","","","","-11","","Snow"
"2019-01-09 13:00","2019","01","09","13:00","-3.7","","-10.5","","60","","31","","28","","16.1","","99.33","","","","-11","","Snow"
"2019-01-09 14:00","2019","01","09","14:00","-3.5","","-10.6","","58","","29","","24","","16.1","","99.36","","","","-10","","NA"
"2019-01-09 15:00","2019","01","09","15:00","-3.3","","-11.9","","52","","32","","28","","16.1","","99.43","","","","-11","","NA"
"2019-01-09 16:00","2019","01","09","16:00","-3.9","","-10.0","","63","","30","","32","","12.9","","99.50","","","","-12","","Snow"
"2019-01-09 17:00","2019","01","09","17:00","-3.7","","-10.4","","60","","30","","28","","16.1","","99.55","","","","-11","","Snow"
"2019-01-09 18:00","2019","01","09","18:00","-3.8","","-10.1","","62","","30","","26","","16.1","","99.61","","","","-11","","Snow"
"2019-01-09 19:00","2019","01","09","19:00","-4.1","","-10.4","","62","","29","","30","","16.1","","99.62","","","","-12","","NA"
"2019-01-09 20:00","2019","01","09","20:00","-4.1","","-10.1","","63","","30","","24","","16.1","","99.65","","","","-11","","Snow"
"2019-01-09 21:00","2019","01","09","21:00","-4.3","","-9.7","","66","","30","","22","","16.1","","99.70","","","","-11","","Snow"
"2019-01-09 22:00","2019","01","09","22:00","-4.2","","-10.0","","64","","30","","24","","16.1","","99.74","","","","-11","","Snow"
"2019-01-09 23:00","2019","01","09","23:00","-4.2","","-9.8","","65","","30","","24","","16.1","","99.77","","","","-11","","Snow"
"2019-01-10 00:00","2019","01","10","00:00","-4.4","","-10.5","","63","","31","","26","","16.1","","99.78","","","","-12","","Snow"
"2019-01-10 01:00","2019","01","10","01:00","-4.6","","-11.0","","61","","33","","34","","16.1","","99.79","","","","-13","","Snow"
"2019-01-10 02:00","2019","01","10","02:00","-4.8","","-10.2","","66","","30","","26","","16.1","","99.84","","","","-12","","Snow"
"2019-01-10 03:00","2019","01","10","03:00","-5.0","","-10.9","","64","","32","","28","","16.1","","99.88","","","","-13","","Snow"
"2019-01-10 04:00","2019","01","10","04:00","-5.0","","-11.0","","63","","31","","34","","16.1","","99.91","","","","-13","","Snow"
"2019-01-10 05:00","2019","01","10","05:00","-5.1","","-11.3","","62","","31","","32","","16.1","","99.92","","","","-13","","Snow"
"2019-01-10 06:00","2019","01","10","06:00","-5.2","","-11.3","","62","","34","","21","","16.1","","99.98","","","","-12","","Snow"
"2019-01-10 07:00","2019","01","10","07:00","-5.3","","-10.9","","65","","33","","22","","16.1","","100.04","","","","-12","","Snow"
"2019-01-10 08:00","2019","01","10","08:00","-5.1","","-11.1","","63","","33","","18","","16.1","","100.10","","","","-11","","Snow"
"2019-01-10 09:00","2019","01","10","09:00","-5.2","","-11.2","","63","","34","","24","","16.1","","100.19","","","","-12","","Snow"
"2019-01-10 10:00","2019","01","10","10:00","-5.4","","-9.3","","74","","35","","15","","16.1","","100.28","","","","-11","","Snow"
"2019-01-10 11:00","2019","01","10","11:00","-5.1","","-11.4","","61","","33","","17","","16.1","","100.28","","","","-11","","Snow"
"2019-01-10 12:00","2019","01","10","12:00","-4.6","","-11.0","","61","","31","","21","","16.1","","100.23","","","","-11","","Snow"
"2019-01-10 13:00","2019","01","10","13:00","-4.2","","-11.1","","59","","33","","22","","16.1","","100.19","","","","-11","","NA"
"2019-01-10 14:00","2019","01","10","14:00","-3.5","","-10.9","","57","","31","","22","","16.1","","100.20","","","","-10","","NA"
"2019-01-10 15:00","2019","01","10","15:00","-3.4","","-11.3","","55","","33","","24","","16.1","","100.21","","","","-10","","NA"
"2019-01-10 16:00","2019","01","10","16:00","-3.3","","-10.9","","56","","32","","24","","16.1","","100.25","","","","-10","","NA"
"2019-01-10 17:00","2019","01","10","17:00","-3.7","","-11.0","","57","","32","","18","","16.1","","100.28","","","","-10","","NA"
"2019-01-10 18:00","2019","01","10","18:00","-4.5","","-11.2","","60","","32","","11","","16.1","","100.35","","","","-9","","NA"
"2019-01-10 19:00","2019","01","10","19:00","-4.7","","-10.9","","62","","32","","13","","16.1","","100.37","","","","-10","","NA"
"2019-01-10 20:00","2019","01","10","20:00","-4.7","","-10.9","","62","","32","","17","","16.1","","100.40","","","","-11","","NA"
"2019-01-10 21:00","2019","01","10","21:00","-4.7","","-10.5","","64","","31","","18","","16.1","","100.45","","","","-11","","NA"
"2019-01-10 22:00","2019","01","10","22:00","-5.3","","-10.5","","67","","2","","9","","16.1","","100.50","","","","-9","","NA"
"2019-01-10 23:00","2019","01","10","23:00","-6.1","","-10.9","","69","","1","","8","","16.1","","100.50","","","","-10","","NA"
"2019-01-11 00:00","2019","01","11","00:00","-6.2","","-10.7","","71","","34","","9","","16.1","","100.50","","","","-10","","NA"
"2019-01-11 01:00","2019","01","11","01:00","-6.4","","-11.0","","70","","33","","15","","16.1","","100.52","","","","-12","","NA"
"2019-01-11 02:00","2019","01","11","02:00","-7.3","","-11.1","","74","","34","","9","","16.1","","100.52","","","","-12","","NA"
"2019-01-11 03:00","2019","01","11","03:00","-7.0","","-11.3","","71","","32","","8","","16.1","","100.57","","","","-11","","NA"
"2019-01-11 04:00","2019","01","11","04:00","-7.5","","-11.7","","72","","33","","8","","16.1","","100.53","","","","-12","","NA"
"2019-01-11 05:00","2019","01","11","05:00","-7.6","","-11.8","","72","","33","","9","","16.1","","100.60","","","","-12","","NA"
"2019-01-11 06:00","2019","01","11","06:00","-7.7","","-11.7","","74","","34","","8","","16.1","","100.62","","","","-12","","NA"
"2019-01-11 07:00","2019","01","11","07:00","-7.4","","-11.8","","71","","34","","8","","16.1","","100.68","","","","-11","","NA"
"2019-01-11 08:00","2019","01","11","08:00","-7.3","","-11.5","","72","","30","","8","","16.1","","100.77","","","","-11","","NA"
"2019-01-11 09:00","2019","01","11","09:00","-6.5","","-11.3","","69","","","M","4","","16.1","","100.81","","","","-8","","NA"
"2019-01-11 10:00","2019","01","11","10:00","-5.7","","-11.4","","65","","35","","5","","16.1","","100.83","","","","-8","","NA"
"2019-01-11 11:00","2019","01","11","11:00","-4.8","","-11.0","","62","","","M","4","","16.1","","100.81","","","","-7","","NA"
"2019-01-11 12:00","2019","01","11","12:00","-4.0","","-10.2","","62","","","M","9","","16.1","","100.77","","","","-8","","NA"
"2019-01-11 13:00","2019","01","11","13:00","-3.6","","-10.2","","60","","","M","5","","16.1","","100.69","","","","-6","","NA"
"2019-01-11 14:00","2019","01","11","14:00","-2.7","","-10.2","","56","","14","","9","","16.1","","100.69","","","","-6","","NA"
"2019-01-11 15:00","2019","01","11","15:00","-2.0","","-9.3","","58","","20","","11","","16.1","","100.64","","","","-6","","NA"
"2019-01-11 16:00","2019","01","11","16:00","-2.6","","-10.5","","55","","19","","11","","16.1","","100.63","","","","-7","","NA"
"2019-01-11 17:00","2019","01","11","17:00","-2.9","","-10.1","","58","","20","","13","","16.1","","100.64","","","","-8","","NA"
"2019-01-11 18:00","2019","01","11","18:00","-3.4","","-10.0","","61","","16","","8","","16.1","","100.66","","","","-7","","NA"
"2019-01-11 19:00","2019","01","11","19:00","-3.5","","-8.7","","67","","17","","9","","16.1","","100.72","","","","-7","","NA"
"2019-01-11 20:00","2019","01","11","20:00","-3.7","","-8.1","","72","","14","","8","","16.1","","100.72","","","","-7","","NA"
"2019-01-11 21:00","2019","01","11","21:00","-4.4","","-7.7","","78","","15","","8","","16.1","","100.67","","","","-8","","NA"
"2019-01-11 22:00","2019","01","11","22:00","-4.5","","-7.0","","83","","12","","4","","16.1","","100.72","","","","-6","","NA"
"2019-01-11 23:00","2019","01","11","23:00","-4.4","","-7.0","","82","","11","","4","","16.1","","100.71","","","","-6","","NA"
"2019-01-12 00:00","2019","01","12","00:00","-4.1","","-6.9","","81","","","","0","","16.1","","100.72","","","","","","NA"
"2019-01-12 01:00","2019","01","12","01:00","-3.9","","-6.8","","80","","7","","5","","16.1","","100.71","","","","-6","","NA"
"2019-01-12 02:00","2019","01","12","02:00","-3.5","","-6.5","","80","","6","","5","","16.1","","100.71","","","","-6","","NA"
"2019-01-12 03:00","2019","01","12","03:00","-3.0","","-6.2","","79","","8","","8","","16.1","","100.71","","","","-6","","NA"
"2019-01-12 04:00","2019","01","12","04:00","-2.7","","-6.2","","77","","9","","8","","16.1","","100.70","","","","-6","","NA"
"2019-01-12 05:00","2019","01","12","05:00","-2.6","","-6.1","","77","","9","","5","","16.1","","100.72","","","","-5","","NA"
"2019-01-12 06:00","2019","01","12","06:00","-2.5","","-5.5","","80","","8","","8","","16.1","","100.72","","","","-6","","NA"
"2019-01-12 07:00","2019","01","12","07:00","-2.3","","-5.3","","80","","6","","8","","16.1","","100.79","","","","-5","","NA"
"2019-01-12 08:00","2019","01","12","08:00","-2.0","","-5.3","","78","","7","","13","","16.1","","100.76","","","","-6","","NA"
"2019-01-12 09:00","2019","01","12","09:00","-1.6","","-4.6","","80","","7","","17","","16.1","","100.83","","","","-7","","NA"
"2019-01-12 10:00","2019","01","12","10:00","-1.6","","-4.1","","83","","8","","18","","16.1","","100.88","","","","-7","","NA"
"2019-01-12 11:00","2019","01","12","11:00","-1.1","","-4.8","","76","","9","","17","","16.1","","100.92","","","","-6","","NA"
"2019-01-12 12:00","2019","01","12","12:00","-0.9","","-5.5","","71","","9","","18","","16.1","","100.88","","","","-6","","NA"
"2019-01-12 13:00","2019","01","12","13:00","-0.9","","-6.1","","68","","9","","22","","16.1","","100.77","","","","-7","","NA"
"2019-01-12 14:00","2019","01","12","14:00","-1.5","","-6.0","","72","","8","","22","","16.1","","100.76","","","","-7","","NA"
"2019-01-12 15:00","2019","01","12","15:00","-1.5","","-6.7","","68","","8","","30","","16.1","","100.72","","","","-8","","NA"
"2019-01-12 16:00","2019","01","12","16:00","-1.7","","-6.8","","68","","8","","28","","16.1","","100.71","","","","-8","","NA"
"2019-01-12 17:00","2019","01","12","17:00","-1.9","","-6.9","","69","","8","","24","","16.1","","100.76","","","","-8","","NA"
"2019-01-12 18:00","2019","01","12","18:00","-2.3","","-7.8","","66","","6","","21","","16.1","","100.76","","","","-8","","NA"
"2019-01-12 19:00","2019","01","12","19:00","-2.3","","-8.2","","64","","7","","26","","16.1","","100.76","","","","-9","","NA"
"2019-01-12 20:00","2019","01","12","20:00","-2.8","","-7.7","","69","","7","","24","","16.1","","100.79","","","","-9","","NA"
"2019-01-12 21:00","2019","01","12","21:00","-3.0","","-7.5","","71","","5","","24","","16.1","","100.75","","","","-10","","NA"
"2019-01-12 22:00","2019","01","12","22:00","-3.1","","-7.5","","72","","5","","21","","16.1","","100.76","","","","-9","","NA"
"2019-01-12 23:00","2019","01","12","23:00","-3.3","","-7.1","","75","","7","","22","","16.1","","100.74","","","","-10","","NA"
"2019-01-13 00:00","2019","01","13","00:00","-3.6","","-7.4","","75","","6","","24","","16.1","","100.71","","","","-10","","NA"
"2019-01-13 01:00","2019","01","13","01:00","-3.8","","-7.4","","76","","4","","22","","16.1","","100.66","","","","-10","","NA"
"2019-01-13 02:00","2019","01","13","02:00","-4.1","","-7.8","","75","","5","","24","","16.1","","100.63","","","","-11","","NA"
"2019-01-13 03:00","2019","01","13","03:00","-4.4","","-8.0","","76","","5","","18","","16.1","","100.67","","","","-10","","NA"
"2019-01-13 04:00","2019","01","13","04:00","-4.2","","-8.2","","74","","4","","22","","16.1","","100.63","","","","-11","","NA"
"2019-01-13 05:00","2019","01","13","05:00","-4.2","","-8.2","","74","","5","","24","","16.1","","100.56","","","","-11","","NA"
"2019-01-13 06:00","2019","01","13","06:00","-4.3","","-7.9","","76","","4","","21","","16.1","","100.57","","","","-11","","NA"
"2019-01-13 07:00","2019","01","13","07:00","-4.9","","-8.2","","78","","3","","18","","16.1","","100.61","","","","-11","","NA"
"2019-01-13 08:00","2019","01","13","08:00","-5.6","","-8.5","","80","","4","","24","","16.1","","100.58","","","","-13","","NA"
"2019-01-13 09:00","2019","01","13","09:00","-5.5","","-8.6","","79","","4","","28","","16.1","","100.58","","","","-13","","NA"
"2019-01-13 10:00","2019","01","13","10:00","-4.7","","-8.5","","75","","5","","28","","16.1","","100.63","","","","-12","","NA"
"2019-01-13 11:00","2019","01","13","11:00","-3.9","","-8.6","","70","","4","","26","","16.1","","100.68","","","","-11","","NA"
"2019-01-13 12:00","2019","01","13","12:00","-3.5","","-8.6","","68","","3","","22","","16.1","","100.61","","","","-10","","NA"
"2019-01-13 13:00","2019","01","13","13:00","-3.1","","-8.6","","66","","5","","22","","16.1","","100.51","","","","-9","","NA"
"2019-01-13 14:00","2019","01","13","14:00","-2.6","","-8.5","","64","","1","","26","","16.1","","100.46","","","","-9","","NA"
"2019-01-13 15:00","2019","01","13","15:00","-2.4","","-8.9","","61","","3","","26","","16.1","","100.46","","","","-9","","NA"
"2019-01-13 16:00","2019","01","13","16:00","-1.9","","-8.3","","62","","2","","26","","16.1","","100.47","","","","-8","","NA"
"2019-01-13 17:00","2019","01","13","17:00","-2.8","","-8.1","","67","","3","","22","","16.1","","100.47","","","","-9","","NA"
"2019-01-13 18:00","2019","01","13","18:00","-3.5","","-7.7","","73","","2","","17","","16.1","","100.49","","","","-9","","NA"
"2019-01-13 19:00","2019","01","13","19:00","-3.8","","-7.4","","76","","2","","18","","16.1","","100.53","","","","-10","","NA"
"2019-01-13 20:00","2019","01","13","20:00","-4.5","","-7.9","","77","","1","","15","","16.1","","100.52","","","","-10","","NA"
"2019-01-13 21:00","2019","01","13","21:00","-4.9","","-8.2","","78","","6","","15","","16.1","","100.55","","","","-10","","NA"
"2019-01-13 22:00","2019","01","13","22:00","-6.3","","-9.1","","81","","7","","11","","16.1","","100.57","","","","-11","","NA"
"2019-01-13 23:00","2019","01","13","23:00","-7.0","","-9.7","","81","","7","","11","","16.1","","100.53","","","","-12","","NA"
"2019-01-14 00:00","2019","01","14","00:00","-7.5","","-9.6","","85","","11","","11","","16.1","","100.51","","","","-13","","NA"
"2019-01-14 01:00","2019","01","14","01:00","-8.8","","-10.6","","87","","11","","9","","16.1","","100.46","","","","-13","","NA"
"2019-01-14 02:00","2019","01","14","02:00","-8.5","","-10.2","","88","","6","","4","","16.1","","100.44","","","","-11","","NA"
"2019-01-14 03:00","2019","01","14","03:00","-7.3","","-8.8","","89","","5","","4","","16.1","","100.50","","","","-9","","NA"
"2019-01-14 04:00","2019","01","14","04:00","-6.1","","-8.2","","85","","","","0","","16.1","","100.48","","","","","","NA"
"2019-01-14 05:00","2019","01","14","05:00","-6.4","","-8.5","","85","","","","0","","16.1","","100.45","","","","","","NA"
"2019-01-14 06:00","2019","01","14","06:00","-7.0","","-8.7","","88","","","","0","","16.1","","100.45","","","","","","NA"
"2019-01-14 07:00","2019","01","14","07:00","-8.0","","-9.8","","87","","27","","4","","16.1","","100.49","","","","-10","","NA"
"2019-01-14 08:00","2019","01","14","08:00","-8.5","","-9.7","","91","","","","0","","11.3","","100.48","","","","","","NA"
"2019-01-14 09:00","2019","01","14","09:00","-7.2","","-8.4","","91","","23","","4","","11.3","","100.51","","","","-9","","NA"
"2019-01-14 10:00","2019","01","14","10:00","-5.5","","-7.9","","83","","","","0","","11.3","","100.52","","","","","","NA"
"2019-01-14 11:00","2019","01","14","11:00","-3.4","","-7.4","","74","","24","","5","","16.1","","100.49","","","","-5","","NA"
"2019-01-14 12:00","2019","01","14","12:00","-2.4","","-7.5","","68","","22","","8","","16.1","","100.38","","","","-6","","NA"
"2019-01-14 13:00","2019","01","14","13:00","-1.5","","-9.4","","55","","23","","8","","16.1","","100.27","","","","-5","","NA"
"2019-01-14 14:00","2019","01","14","14:00","-0.5","","-7.9","","58","","20","","11","","16.1","","100.19","","","","-4","","NA"
"2019-01-14 15:00","2019","01","14","15:00","-0.2","","-8.0","","56","","21","","13","","16.1","","100.14","","","","-4","","NA"
"2019-01-14 16:00","2019","01","14","16:00","-0.7","","-5.9","","68","","20","","17","","16.1","","100.14","","","","-6","","NA"
"2019-01-14 17:00","2019","01","14","17:00","-1.9","","-6.1","","73","","19","","13","","16.1","","100.12","","","","-6","","NA"
"2019-01-14 18:00","2019","01","14","18:00","-3.1","","-6.4","","78","","19","","17","","16.1","","100.12","","","","-9","","NA"
"2019-01-14 19:00","2019","01","14","19:00","-3.7","","-5.9","","85","","20","","13","","16.1","","100.14","","","","-9","","NA"
"2019-01-14 20:00","2019","01","14","20:00","-4.8","","-6.8","","86","","22","","11","","16.1","","100.12","","","","-9","","NA"
"2019-01-14 21:00","2019","01","14","21:00","-5.1","","-7.4","","84","","22","","13","","16.1","","100.10","","","","-10","","NA"
"2019-01-14 22:00","2019","01","14","22:00","-5.7","","-8.1","","83","","27","","9","","16.1","","100.10","","","","-10","","NA"
"2019-01-14 23:00","2019","01","14","23:00","-5.4","","-7.7","","84","","24","","8","","16.1","","100.12","","","","-9","","NA"
"2019-01-15 00:00","2019","01","15","00:00","-4.6","","-6.4","","87","","23","","5","","16.1","","100.10","","","","-7","","NA"
"2019-01-15 01:00","2019","01","15","01:00","-3.8","","-5.8","","86","","23","","8","","16.1","","100.03","","","","-7","","NA"
"2019-01-15 02:00","2019","01","15","02:00","-3.5","","-5.7","","85","","24","","9","","16.1","","100.04","","","","-7","","NA"
"2019-01-15 03:00","2019","01","15","03:00","-3.3","","-5.6","","84","","25","","8","","16.1","","100.06","","","","-7","","NA"
"2019-01-15 04:00","2019","01","15","04:00","-2.9","","-5.6","","82","","21","","8","","16.1","","100.00","","","","-6","","NA"
"2019-01-15 05:00","2019","01","15","05:00","-2.7","","-5.4","","82","","21","","11","","16.1","","99.98","","","","-7","","NA"
"2019-01-15 06:00","2019","01","15","06:00","-2.7","","-5.2","","83","","21","","13","","16.1","","99.96","","","","-7","","NA"
"2019-01-15 07:00","2019","01","15","07:00","-2.6","","-4.9","","84","","22","","15","","16.1","","99.96","","","","-8","","NA"
"2019-01-15 08:00","2019","01","15","08:00","-2.9","","-5.1","","85","","23","","15","","12.9","","99.95","","","","-8","","NA"
"2019-01-15 09:00","2019","01","15","09:00","-3.1","","-5.4","","84","","22","","18","","12.9","","99.94","","","","-9","","NA"
"2019-01-15 10:00","2019","01","15","10:00","-3.4","","-5.0","","89","","23","","21","","4.8","","99.95","","","","-10","","Fog"
"2019-01-15 11:00","2019","01","15","11:00","-3.9","","-5.0","","92","","23","","22","","2.8","","99.93","","","","-10","","Fog"
"2019-01-15 12:00","2019","01","15","12:00","-3.6","","-5.2","","89","","22","","22","","4.8","","99.87","","","","-10","","Fog"
"2019-01-15 13:00","2019","01","15","13:00","-3.7","","-5.1","","90","","24","","24","","4.8","","99.76","","","","-11","","Fog"
"2019-01-15 14:00","2019","01","15","14:00","-3.6","","-5.5","","87","","25","","24","","9.7","","99.71","","","","-10","","Fog"
"2019-01-15 15:00","2019","01","15","15:00","-3.0","","-5.3","","84","","23","","21","","12.9","","99.69","","","","-9","","NA"
"2019-01-15 16:00","2019","01","15","16:00","-2.6","","-5.0","","84","","24","","21","","16.1","","99.66","","","","-9","","NA"
"2019-01-15 17:00","2019","01","15","17:00","-2.4","","-5.0","","83","","22","","24","","16.1","","99.59","","","","-9","","NA"
"2019-01-15 18:00","2019","01","15","18:00","-2.5","","-5.3","","81","","22","","26","","16.1","","99.56","","","","-9","","NA"
"2019-01-15 19:00","2019","01","15","19:00","-2.7","","-5.9","","79","","22","","26","","16.1","","99.53","","","","-10","","NA"
"2019-01-15 20:00","2019","01","15","20:00","-3.2","","-5.1","","87","","22","","30","","16.1","","99.45","","","","-11","","NA"
"2019-01-15 21:00","2019","01","15","21:00","-3.2","","-5.4","","85","","23","","35","","16.1","","99.37","","","","-11","","NA"
"2019-01-15 22:00","2019","01","15","22:00","-3.0","","-5.3","","84","","24","","32","","16.1","","99.36","","","","-11","","NA"
"2019-01-15 23:00","2019","01","15","23:00","-2.7","","-4.7","","86","","25","","30","","16.1","","99.35","","","","-10","","NA"
"2019-01-16 00:00","2019","01","16","00:00","-2.4","","-4.4","","86","","24","","34","","16.1","","99.35","","","","-10","","NA"
"2019-01-16 01:00","2019","01","16","01:00","-2.3","","-4.0","","88","","26","","28","","11.3","","99.32","","","","-9","","NA"
"2019-01-16 02:00","2019","01","16","02:00","-2.4","","-4.0","","89","","24","","22","","6.4","","99.35","","","","-9","","Fog"
"2019-01-16 03:00","2019","01","16","03:00","-2.3","","-3.4","","92","","23","","22","","4.8","","99.40","","","","-8","","Fog"
"2019-01-16 04:00","2019","01","16","04:00","-2.1","","-3.1","","93","","23","","18","","8.1","","99.40","","","","-8","","Fog"
"2019-01-16 05:00","2019","01","16","05:00","-1.8","","-2.6","","94","","23","","17","","6.4","","99.41","","","","-7","","Freezing Rain,Fog"
"2019-01-16 06:00","2019","01","16","06:00","-1.5","","-2.6","","92","","23","","21","","16.1","","99.46","","","","-7","","NA"
"2019-01-16 07:00","2019","01","16","07:00","-1.1","","-2.4","","91","","23","","17","","16.1","","99.55","","","","-6","","Snow"
"2019-01-16 08:00","2019","01","16","08:00","-0.8","","-2.1","","91","","25","","17","","16.1","","99.64","","","","-6","","NA"
"2019-01-16 09:00","2019","01","16","09:00","-0.5","","-1.9","","90","","25","","18","","16.1","","99.71","","","","-6","","NA"
"2019-01-16 10:00","2019","01","16","10:00","-0.1","","-1.7","","89","","27","","15","","16.1","","99.81","","","","-5","","NA"
"2019-01-16 11:00","2019","01","16","11:00","0.7","","-5.3","","64","","32","","18","","16.1","","99.91","","","","","","NA"
"2019-01-16 12:00","2019","01","16","12:00","-0.7","","-6.1","","67","","34","","21","","16.1","","100.00","","","","-6","","NA"
"2019-01-16 13:00","2019","01","16","13:00","-0.8","","-7.3","","61","","33","","24","","16.1","","99.97","","","","-7","","NA"
"2019-01-16 14:00","2019","01","16","14:00","-1.0","","-8.5","","57","","33","","18","","16.1","","100.01","","","","-6","","NA"
"2019-01-16 15:00","2019","01","16","15:00","-1.0","","-8.9","","55","","33","","13","","16.1","","100.10","","","","-5","","NA"
"2019-01-16 16:00","2019","01","16","16:00","-1.3","","-9.2","","55","","34","","15","","16.1","","100.16","","","","-6","","NA"
"2019-01-16 17:00","2019","01","16","17:00","-2.2","","-9.6","","57","","33","","13","","16.1","","100.23","","","","-7","","NA"
"2019-01-16 18:00","2019","01","16","18:00","-3.2","","-10.1","","59","","3","","13","","16.1","","100.31","","","","-8","","NA"
"2019-01-16 19:00","2019","01","16","19:00","-3.9","","-10.5","","60","","4","","13","","16.1","","100.36","","","","-9","","NA"
"2019-01-16 20:00","2019","01","16","20:00","-5.2","","-9.6","","71","","8","","15","","16.1","","100.44","","","","-11","","NA"
"2019-01-16 21:00","2019","01","16","21:00","-6.8","","-10.3","","77","","10","","9","","16.1","","100.46","","","","-11","","NA"
"2019-01-16 22:00","2019","01","16","22:00","-8.1","","-10.9","","81","","12","","9","","16.1","","100.48","","","","-13","","NA"
"2019-01-16 23:00","2019","01","16","23:00","-8.5","","-11.2","","81","","13","","5","","16.1","","100.53","","","","-11","","NA"
"2019-01-17 00:00","2019","01","17","00:00","-7.9","","-11.4","","76","","10","","11","","16.1","","100.50","","","","-13","","NA"
"2019-01-17 01:00","2019","01","17","01:00","-7.8","","-10.6","","80","","8","","5","","16.1","","100.44","","","","-10","","NA"
"2019-01-17 02:00","2019","01","17","02:00","-7.0","","-10.3","","78","","8","","8","","16.1","","100.40","","","","-11","","NA"
"2019-01-17 03:00","2019","01","17","03:00","-7.0","","-10.9","","74","","9","","9","","16.1","","100.40","","","","-11","","NA"
"2019-01-17 04:00","2019","01","17","04:00","-6.0","","-10.4","","71","","8","","13","","16.1","","100.36","","","","-11","","NA"
"2019-01-17 05:00","2019","01","17","05:00","-5.6","","-9.4","","75","","8","","11","","16.1","","100.29","","","","-10","","NA"
"2019-01-17 06:00","2019","01","17","06:00","-5.6","","-8.9","","78","","8","","9","","16.1","","100.26","","","","-10","","NA"
"2019-01-17 07:00","2019","01","17","07:00","-5.4","","-8.2","","81","","9","","9","","16.1","","100.20","","","","-9","","NA"
"2019-01-17 08:00","2019","01","17","08:00","-5.3","","-7.3","","86","","12","","9","","16.1","","100.15","","","","-9","","NA"
"2019-01-17 09:00","2019","01","17","09:00","-3.4","","-6.1","","82","","12","","17","","16.1","","100.08","","","","-9","","NA"
"2019-01-17 10:00","2019","01","17","10:00","-2.8","","-6.1","","78","","11","","22","","16.1","","100.04","","","","-9","","NA"
"2019-01-17 11:00","2019","01","17","11:00","-1.7","","-6.0","","73","","11","","21","","16.1","","99.99","","","","-8","","NA"
"2019-01-17 12:00","2019","01","17","12:00","-1.1","","-5.7","","71","","12","","22","","16.1","","99.90","","","","-7","","NA"
"2019-01-17 13:00","2019","01","17","13:00","-0.5","","-4.6","","74","","13","","17","","16.1","","99.76","","","","-5","","NA"
"2019-01-17 14:00","2019","01","17","14:00","-0.4","","-4.3","","75","","12","","18","","16.1","","99.65","","","","-5","","NA"
"2019-01-17 15:00","2019","01","17","15:00","-0.7","","-3.2","","83","","13","","17","","12.9","","99.55","","","","-6","","Snow"
"2019-01-17 16:00","2019","01","17","16:00","-0.8","","-2.7","","87","","12","","22","","11.3","","99.46","","","","-7","","Snow"
"2019-01-17 17:00","2019","01","17","17:00","-1.1","","-2.5","","90","","14","","13","","8.1","","99.40","","","","-5","","Snow"
"2019-01-17 18:00","2019","01","17","18:00","-1.4","","-2.4","","93","","12","","11","","3.6","","99.37","","","","-5","","Snow"
"2019-01-17 19:00","2019","01","17","19:00","-1.5","","-2.1","","96","","13","","8","","2.4","","99.34","","","","-5","","Snow"
"2019-01-17 20:00","2019","01","17","20:00","-1.0","","-1.6","","96","","14","","8","","3.2","","99.32","","","","-4","","Snow"
"2019-01-17 21:00","2019","01","17","21:00","-0.8","","-1.4","","96","","13","","4","","4.0","","99.29","","","","-2","","Snow"
"2019-01-17 22:00","2019","01","17","22:00","-0.9","","-1.3","","97","","","","0","","3.2","","99.27","","","","","","Snow"
"2019-01-17 23:00","2019","01","17","23:00","-0.6","","-1.0","","97","","25","","4","","2.0","","99.23","","","","-2","","Snow"
"2019-01-18 00:00","2019","01","18","00:00","-0.5","","-0.8","","98","","27","","8","","2.0","","99.26","","","","-3","","Snow"
"2019-01-18 01:00","2019","01","18","01:00","-0.4","","-1.1","","95","","28","","11","","3.2","","99.23","","","","-4","","Snow"
"2019-01-18 02:00","2019","01","18","02:00","-0.4","","-1.7","","91","","30","","15","","4.8","","99.26","","","","-5","","Snow"
"2019-01-18 03:00","2019","01","18","03:00","-0.4","","-2.1","","89","","30","","13","","4.8","","99.31","","","","-5","","Fog"
"2019-01-18 04:00","2019","01","18","04:00","-0.4","","-2.3","","87","","29","","11","","6.4","","99.36","","","","-4","","Fog"
"2019-01-18 05:00","2019","01","18","05:00","-0.6","","-2.5","","87","","28","","13","","8.1","","99.39","","","","-5","","Fog"
"2019-01-18 06:00","2019","01","18","06:00","-0.8","","-2.5","","88","","29","","9","","8.1","","99.43","","","","-4","","Fog"
"2019-01-18 07:00","2019","01","18","07:00","-0.7","","-2.8","","86","","28","","13","","8.1","","99.49","","","","-5","","Fog"
"2019-01-18 08:00","2019","01","18","08:00","-0.6","","-2.5","","87","","27","","9","","6.4","","99.58","","","","-4","","Fog"
"2019-01-18 09:00","2019","01","18","09:00","-0.4","","-2.1","","88","","23","","5","","6.4","","99.58","","","","-2","","Fog"
"2019-01-18 10:00","2019","01","18","10:00","-0.2","","-1.8","","89","","25","","11","","4.8","","99.67","","","","-4","","Fog"
"2019-01-18 11:00","2019","01","18","11:00","-0.3","","-3.4","","80","","32","","17","","12.9","","99.79","","","","-5","","NA"
"2019-01-18 12:00","2019","01","18","12:00","-0.6","","-3.8","","79","","32","","18","","14.5","","99.76","","","","-6","","NA"
"2019-01-18 13:00","2019","01","18","13:00","-0.6","","-4.7","","74","","31","","17","","16.1","","99.75","","","","-6","","NA"
"2019-01-18 14:00","2019","01","18","14:00","-1.1","","-5.3","","73","","31","","22","","16.1","","99.81","","","","-7","","NA"
"2019-01-18 15:00","2019","01","18","15:00","-1.5","","-6.3","","70","","31","","13","","16.1","","99.83","","","","-6","","NA"
"2019-01-18 16:00","2019","01","18","16:00","-1.6","","-7.1","","66","","31","","13","","16.1","","99.89","","","","-6","","NA"
"2019-01-18 17:00","2019","01","18","17:00","-1.9","","-7.4","","66","","34","","13","","16.1","","99.93","","","","-6","","NA"
"2019-01-18 18:00","2019","01","18","18:00","-2.2","","-7.8","","66","","35","","8","","16.1","","100.01","","","","-5","","NA"
"2019-01-18 19:00","2019","01","18","19:00","-2.5","","-7.8","","67","","35","","9","","16.1","","100.03","","","","-6","","NA"
"2019-01-18 20:00","2019","01","18","20:00","-2.5","","-8.0","","66","","1","","9","","16.1","","100.08","","","","-6","","NA"
"2019-01-18 21:00","2019","01","18","21:00","-2.8","","-8.1","","67","","2","","8","","16.1","","100.08","","","","-6","","NA"
"2019-01-18 22:00","2019","01","18","22:00","-3.0","","-8.5","","66","","3","","9","","16.1","","100.09","","","","-7","","NA"
"2019-01-18 23:00","2019","01","18","23:00","-2.9","","-7.6","","70","","4","","11","","16.1","","100.06","","","","-7","","NA"
"2019-01-19 00:00","2019","01","19","00:00","-3.0","","-7.9","","69","","6","","11","","16.1","","100.11","","","","-7","","NA"
"2019-01-19 01:00","2019","01","19","01:00","-3.0","","-9.0","","63","","4","","13","","16.1","","100.12","","","","-8","","NA"
"2019-01-19 02:00","2019","01","19","02:00","-3.3","","-8.9","","65","","3","","18","","16.1","","100.00","","","","-9","","NA"
"2019-01-19 03:00","2019","01","19","03:00","-4.3","","-5.7","","90","","3","","18","","3.2","","99.90","","","","-10","","Snow"
"2019-01-19 04:00","2019","01","19","04:00","-4.5","","-5.9","","90","","6","","18","","2.4","","100.01","","","","-11","","Snow"
"2019-01-19 05:00","2019","01","19","05:00","-5.1","","-6.5","","90","","6","","21","","2.0","","99.93","","","","-12","","Snow"
"2019-01-19 06:00","2019","01","19","06:00","-5.3","","-6.7","","90","","6","","17","","2.0","","99.92","","","","-11","","Snow"
"2019-01-19 07:00","2019","01","19","07:00","-5.4","","-6.6","","91","","6","","18","","2.0","","99.86","","","","-12","","Snow"
"2019-01-19 08:00","2019","01","19","08:00","-5.6","","-6.8","","91","","5","","28","","1.6","","99.71","","","","-14","","Snow"
"2019-01-19 09:00","2019","01","19","09:00","-5.8","","-7.2","","90","","4","","26","","4.8","","99.72","","","","-14","","Snow"
"2019-01-19 10:00","2019","01","19","10:00","-6.0","","-7.4","","90","","5","","32","","1.6","","99.65","","","","-15","","Snow"
"2019-01-19 11:00","2019","01","19","11:00","-6.0","","-7.4","","90","","4","","26","","1.6","","99.65","","","","-14","","Snow"
"2019-01-19 12:00","2019","01","19","12:00","-6.4","","-7.9","","89","","5","","28","","1.6","","99.58","","","","-15","","Snow"
"2019-01-19 13:00","2019","01","19","13:00","-6.6","","-8.3","","88","","4","","30","","1.6","","99.49","","","","-15","","Snow"
"2019-01-19 14:00","2019","01","19","14:00","-6.7","","-8.4","","88","","3","","28","","1.6","","99.30","","","","-15","","Snow"
"2019-01-19 15:00","2019","01","19","15:00","-6.7","","-8.5","","87","","3","","39","","1.6","","99.20","","","","-16","","Snow"
"2019-01-19 16:00","2019","01","19","16:00","-6.9","","-8.6","","88","","3","","35","","1.2","","99.13","","","","-16","","Snow"
"2019-01-19 17:00","2019","01","19","17:00","-7.1","","-8.9","","87","","4","","37","","1.2","","99.07","","","","-17","","Snow"
"2019-01-19 18:00","2019","01","19","18:00","-7.2","","-8.8","","88","","3","","37","","1.2","","99.03","","","","-17","","Snow"
"2019-01-19 19:00","2019","01","19","19:00","-6.8","","-8.6","","87","","3","","43","","1.6","","99.03","","","","-17","","Snow"
"2019-01-19 20:00","2019","01","19","20:00","-6.7","","-8.7","","86","","1","","34","","3.6","","99.01","","","","-16","","Snow"
"2019-01-19 21:00","2019","01","19","21:00","-6.8","","-9.1","","84","","2","","39","","6.4","","98.95","","","","-16","","Snow"
"2019-01-19 22:00","2019","01","19","22:00","-7.2","","-9.6","","83","","36","","32","","12.9","","98.91","","","","-16","","Snow"
"2019-01-19 23:00","2019","01","19","23:00","-7.4","","-9.8","","83","","36","","39","","6.4","","98.86","","","","-17","","Snow"
"2019-01-20 00:00","2019","01","20","00:00","-7.7","","-10.6","","80","","1","","30","","9.7","","98.94","","","","-17","","Snow"
"2019-01-20 01:00","2019","01","20","01:00","-7.8","","-10.5","","81","","1","","34","","4.8","","98.93","","","","-17","","Snow"
"2019-01-20 02:00","2019","01","20","02:00","-9.2","","-12.0","","80","","35","","32","","4.8","","98.80","","","","-19","","Snow"
"2019-01-20 03:00","2019","01","20","03:00","-9.5","","-13.2","","75","","36","","32","","8.1","","98.79","","","","-19","","Snow"
"2019-01-20 04:00","2019","01","20","04:00","-10.0","","-13.9","","73","","35","","34","","11.3","","98.96","","","","-20","","Snow"
"2019-01-20 05:00","2019","01","20","05:00","-11.0","","-15.5","","70","","35","","26","","16.1","","99.11","","","","-20","","NA"
"2019-01-20 06:00","2019","01","20","06:00","-11.7","","-16.8","","66","","34","","32","","16.1","","99.23","","","","-22","","NA"
"2019-01-20 07:00","2019","01","20","07:00","-13.8","","-17.4","","75","","32","","26","","16.1","","99.34","","","","-24","","NA"
"2019-01-20 08:00","2019","01","20","08:00","-14.7","","-18.2","","75","","32","","30","","16.1","","99.43","","","","-26","","NA"
"2019-01-20 09:00","2019","01","20","09:00","-14.2","","-18.4","","71","","33","","30","","16.1","","99.54","","","","-25","","NA"
"2019-01-20 10:00","2019","01","20","10:00","-13.1","","-17.8","","68","","33","","32","","16.1","","99.60","","","","-24","","NA"
"2019-01-20 11:00","2019","01","20","11:00","-12.7","","-17.8","","66","","33","","30","","16.1","","99.69","","","","-23","","NA"
"2019-01-20 12:00","2019","01","20","12:00","-11.8","","-18.5","","58","","35","","32","","16.1","","99.74","","","","-22","","NA"
"2019-01-20 13:00","2019","01","20","13:00","-11.4","","-18.8","","55","","34","","32","","16.1","","99.77","","","","-22","","NA"
"2019-01-20 14:00","2019","01","20","14:00","-11.6","","-19.0","","55","","35","","28","","16.1","","99.79","","","","-21","","NA"
"2019-01-20 15:00","2019","01","20","15:00","-11.6","","-19.4","","53","","35","","24","","16.1","","99.86","","","","-21","","NA"
"2019-01-20 16:00","2019","01","20","16:00","-12.4","","-20.6","","51","","34","","32","","16.1","","99.96","","","","-23","","NA"
"2019-01-20 17:00","2019","01","20","17:00","-13.3","","-21.2","","52","","33","","30","","16.1","","100.09","","","","-24","","NA"
"2019-01-20 18:00","2019","01","20","18:00","-14.2","","-19.1","","67","","33","","24","","4.8","","100.19","","","","-24","","Snow"
"2019-01-20 19:00","2019","01","20","19:00","-14.7","","-21.9","","55","","33","","24","","16.1","","100.29","","","","-25","","NA"
"2019-01-20 20:00","2019","01","20","20:00","-15.2","","-22.1","","56","","33","","21","","16.1","","100.36","","","","-25","","NA"
"2019-01-20 21:00","2019","01","20","21:00","-15.9","","-22.2","","59","","33","","17","","16.1","","100.39","","","","-25","","NA"
"2019-01-20 22:00","2019","01","20","22:00","-16.2","","-22.9","","57","","33","","22","","16.1","","100.42","","","","-26","","NA"
"2019-01-20 23:00","2019","01","20","23:00","-16.9","","-23.6","","57","","32","","21","","16.1","","100.45","","","","-27","","NA"
"2019-01-21 00:00","2019","01","21","00:00","-17.3","","-23.9","","57","","32","","28","","16.1","","100.49","","","","-29","","NA"
"2019-01-21 01:00","2019","01","21","01:00","-18.0","","-24.5","","58","","32","","32","","16.1","","100.52","","","","-30","","NA"
"2019-01-21 02:00","2019","01","21","02:00","-18.3","","-24.9","","57","","31","","28","","16.1","","100.57","","","","-30","","NA"
"2019-01-21 03:00","2019","01","21","03:00","-18.7","","-24.7","","60","","32","","24","","16.1","","100.63","","","","-30","","NA"
"2019-01-21 04:00","2019","01","21","04:00","-18.9","","-24.3","","63","","31","","18","","16.1","","100.67","","","","-29","","NA"
"2019-01-21 05:00","2019","01","21","05:00","-19.1","","-24.1","","65","","32","","22","","16.1","","100.73","","","","-30","","NA"
"2019-01-21 06:00","2019","01","21","06:00","-19.1","","-23.8","","67","","32","","17","","16.1","","100.78","","","","-29","","NA"
"2019-01-21 07:00","2019","01","21","07:00","-19.3","","-23.7","","69","","32","","18","","16.1","","100.91","","","","-29","","NA"
"2019-01-21 08:00","2019","01","21","08:00","-19.7","","-23.7","","71","","28","","17","","16.1","","101.00","","","","-29","","NA"
"2019-01-21 09:00","2019","01","21","09:00","-19.0","","-23.3","","69","","30","","18","","16.1","","101.10","","","","-29","","NA"
"2019-01-21 10:00","2019","01","21","10:00","-16.8","","-21.8","","66","","31","","17","","16.1","","101.18","","","","-26","","NA"
"2019-01-21 11:00","2019","01","21","11:00","-14.9","","-20.7","","62","","28","","17","","16.1","","101.25","","","","-23","","NA"
"2019-01-21 12:00","2019","01","21","12:00","-12.8","","-19.2","","59","","32","","13","","16.1","","101.23","","","","-20","","NA"
"2019-01-21 13:00","2019","01","21","13:00","-11.5","","-18.4","","57","","31","","13","","16.1","","101.19","","","","-18","","NA"
"2019-01-21 14:00","2019","01","21","14:00","-10.5","","-17.5","","57","","27","","18","","16.1","","101.18","","","","-18","","NA"
"2019-01-21 15:00","2019","01","21","15:00","-9.9","","-17.1","","56","","26","","11","","16.1","","101.19","","","","-15","","NA"
"2019-01-21 16:00","2019","01","21","16:00","-9.7","","-17.6","","53","","","","0","","16.1","","101.20","","","","","","NA"
"2019-01-21 17:00","2019","01","21","17:00","-11.0","","-17.2","","61","","20","","11","","16.1","","101.19","","","","-17","","NA"
"2019-01-21 18:00","2019","01","21","18:00","-12.6","","-18.5","","62","","22","","15","","16.1","","101.28","","","","-20","","NA"
"2019-01-21 19:00","2019","01","21","19:00","-13.6","","-18.9","","65","","22","","13","","16.1","","101.32","","","","-21","","NA"
"2019-01-21 20:00","2019","01","21","20:00","-15.0","","-20.0","","66","","23","","8","","16.1","","101.31","","","","-20","","NA"
"2019-01-21 21:00","2019","01","21","21:00","-16.8","","-20.8","","72","","19","","5","","16.1","","101.27","","","","-21","","NA"
"2019-01-21 22:00","2019","01","21","22:00","-17.4","","-20.1","","80","","19","","5","","16.1","","101.26","","","","-21","","NA"
"2019-01-21 23:00","2019","01","21","23:00","-16.7","","-19.8","","77","","21","","8","","16.1","","101.29","","","","-22","","NA"
"2019-01-22 00:00","2019","01","22","00:00","-16.8","","-20.1","","76","","23","","8","","16.1","","101.30","","","","-22","","NA"
"2019-01-22 01:00","2019","01","22","01:00","-17.7","","-19.9","","83","","21","","5","","16.1","","101.31","","","","-22","","NA"
"2019-01-22 02:00","2019","01","22","02:00","-18.2","","-20.5","","83","","12","","5","","16.1","","101.24","","","","-22","","NA"
"2019-01-22 03:00","2019","01","22","03:00","-18.5","","-21.0","","81","","9","","4","","16.1","","101.24","","","","-22","","NA"
"2019-01-22 04:00","2019","01","22","04:00","-18.0","","-20.2","","83","","18","","5","","16.1","","101.17","","","","-22","","NA"
"2019-01-22 05:00","2019","01","22","05:00","-15.7","","-18.0","","83","","14","","5","","16.1","","101.12","","","","-19","","NA"
"2019-01-22 06:00","2019","01","22","06:00","-10.4","","-14.5","","72","","15","","24","","16.1","","101.06","","","","-19","","NA"
"2019-01-22 07:00","2019","01","22","07:00","-9.7","","-14.4","","69","","16","","28","","16.1","","101.04","","","","-19","","NA"
"2019-01-22 08:00","2019","01","22","08:00","-9.7","","-14.9","","66","","15","","22","","16.1","","100.98","","","","-18","","NA"
"2019-01-22 09:00","2019","01","22","09:00","-9.0","","-14.4","","66","","15","","26","","16.1","","100.95","","","","-18","","NA"
"2019-01-22 10:00","2019","01","22","10:00","-8.3","","-13.4","","67","","15","","18","","16.1","","100.86","","","","-15","","NA"
"2019-01-22 11:00","2019","01","22","11:00","-8.0","","-14.2","","62","","14","","24","","16.1","","100.80","","","","-16","","NA"
"2019-01-22 12:00","2019","01","22","12:00","-7.1","","-13.9","","59","","16","","21","","16.1","","100.63","","","","-14","","NA"
"2019-01-22 13:00","2019","01","22","13:00","-6.7","","-13.9","","57","","17","","22","","16.1","","100.43","","","","-14","","NA"
"2019-01-22 14:00","2019","01","22","14:00","-5.4","","-12.4","","58","","13","","21","","16.1","","100.16","","","","-12","","NA"
"2019-01-22 15:00","2019","01","22","15:00","-4.3","","-11.7","","56","","17","","18","","16.1","","100.05","","","","-10","","NA"
"2019-01-22 16:00","2019","01","22","16:00","-3.6","","-10.0","","61","","17","","13","","16.1","","99.96","","","","-8","","NA"
"2019-01-22 17:00","2019","01","22","17:00","-2.8","","-8.2","","67","","17","","15","","16.1","","99.86","","","","-8","","Snow"
"2019-01-22 18:00","2019","01","22","18:00","-2.4","","-7.6","","67","","18","","15","","16.1","","99.81","","","","-7","","Snow"
"2019-01-22 19:00","2019","01","22","19:00","-2.2","","-6.6","","72","","18","","11","","16.1","","99.77","","","","-6","","Snow"
"2019-01-22 20:00","2019","01","22","20:00","-1.2","","-5.7","","72","","19","","17","","16.1","","99.72","","","","-6","","Snow"
"2019-01-22 21:00","2019","01","22","21:00","-1.2","","-3.2","","86","","20","","11","","4.8","","99.69","","","","-5","","Snow"
"2019-01-22 22:00","2019","01","22","22:00","-1.1","","-3.0","","87","","16","","5","","16.1","","99.62","","","","-3","","NA"
"2019-01-22 23:00","2019","01","22","23:00","-1.0","","-2.3","","91","","6","","8","","11.3","","99.54","","","","-4","","Snow"
"2019-01-23 00:00","2019","01","23","00:00","-0.9","","-1.8","","94","","10","","9","","2.8","","99.45","","","","-4","","Snow"
"2019-01-23 01:00","2019","01","23","01:00","-0.3","","-1.2","","94","","15","","11","","4.0","","99.33","","","","-4","","Fog"
"2019-01-23 02:00","2019","01","23","02:00","-0.3","","-0.7","","97","","15","","15","","3.6","","99.26","","","","-5","","Fog"
"2019-01-23 03:00","2019","01","23","03:00","0.4","","-0.2","","96","","18","","17","","3.2","","99.23","","","","","","Snow"
"2019-01-23 04:00","2019","01","23","04:00","0.3","","-0.1","","97","","17","","9","","4.0","","99.17","","","","","","Rain,Fog"
"2019-01-23 05:00","2019","01","23","05:00","0.4","","0.1","","98","","15","","11","","4.8","","99.07","","","","","","Rain,Fog"
"2019-01-23 06:00","2019","01","23","06:00","0.8","","0.5","","98","","16","","18","","16.1","","98.90","","","","","","Rain"
"2019-01-23 07:00","2019","01","23","07:00","1.4","","1.0","","97","","16","","17","","8.1","","98.79","","","","","","Rain,Fog"
"2019-01-23 08:00","2019","01","23","08:00","1.8","","1.4","","97","","17","","22","","4.8","","98.73","","","","","","Rain,Fog"
"2019-01-23 09:00","2019","01","23","09:00","2.3","","1.9","","97","","18","","22","","8.1","","98.64","","","","","","Rain,Fog"
"2019-01-23 10:00","2019","01","23","10:00","3.2","","2.6","","96","","19","","32","","16.1","","98.49","","","","","","Rain"
"2019-01-23 11:00","2019","01","23","11:00","3.5","","2.8","","95","","19","","34","","14.5","","98.35","","","","","","Rain"
"2019-01-23 12:00","2019","01","23","12:00","3.8","","2.9","","94","","19","","34","","16.1","","98.22","","","","","","NA"
"2019-01-23 13:00","2019","01","23","13:00","3.8","","3.2","","96","","20","","28","","3.2","","98.12","","","","","","Rain,Fog"
"2019-01-23 14:00","2019","01","23","14:00","4.3","","3.7","","96","","20","","30","","8.1","","98.03","","","","","","Fog"
"2019-01-23 15:00","2019","01","23","15:00","4.4","","4.0","","97","","21","","26","","3.6","","97.97","","","","","","Fog"
"2019-01-23 16:00","2019","01","23","16:00","4.2","","3.9","","98","","21","","21","","2.0","","98.01","","","","","","Rain,Fog"
"2019-01-23 17:00","2019","01","23","17:00","4.0","","3.7","","98","","21","","17","","2.8","","98.01","","","","","","Fog"
"2019-01-23 18:00","2019","01","23","18:00","4.1","","3.8","","98","","23","","18","","8.1","","97.96","","","","","","Rain,Fog"
"2019-01-23 19:00","2019","01","23","19:00","4.4","","3.6","","94","","24","","22","","16.1","","98.12","","","","","","NA"
"2019-01-23 20:00","2019","01","23","20:00","3.9","","1.6","","85","","27","","24","","16.1","","98.15","","","","","","NA"
"2019-01-23 21:00","2019","01","23","21:00","2.8","","-0.1","","81","","29","","26","","16.1","","98.19","","","","","","NA"
"2019-01-23 22:00","2019","01","23","22:00","1.0","","-2.0","","81","","28","","24","","16.1","","98.23","","","","","","NA"
"2019-01-23 23:00","2019","01","23","23:00","0.4","","-2.5","","81","","28","","21","","16.1","","98.26","","","","","","NA"
"2019-01-24 00:00","2019","01","24","00:00","0.4","","-3.0","","78","","30","","24","","16.1","","98.32","","","","","","NA"
"2019-01-24 01:00","2019","01","24","01:00","-0.8","","-4.4","","77","","32","","21","","16.1","","98.33","","","","-6","","NA"
"2019-01-24 02:00","2019","01","24","02:00","-1.5","","-6.1","","71","","33","","22","","16.1","","98.32","","","","-7","","NA"
"2019-01-24 03:00","2019","01","24","03:00","-1.6","","-5.7","","74","","32","","17","","16.1","","98.33","","","","-7","","NA"
"2019-01-24 04:00","2019","01","24","04:00","-1.8","","-6.2","","72","","31","","22","","16.1","","98.30","","","","-8","","NA"
"2019-01-24 05:00","2019","01","24","05:00","-2.0","","-6.2","","73","","33","","22","","16.1","","98.33","","","","-8","","NA"
"2019-01-24 06:00","2019","01","24","06:00","-2.2","","-7.0","","70","","33","","22","","16.1","","98.37","","","","-8","","NA"
"2019-01-24 07:00","2019","01","24","07:00","-2.2","","-7.3","","68","","31","","18","","16.1","","98.39","","","","-8","","NA"
"2019-01-24 08:00","2019","01","24","08:00","-2.2","","-7.9","","65","","33","","24","","16.1","","98.46","","","","-9","","NA"
"2019-01-24 09:00","2019","01","24","09:00","-1.9","","-7.2","","67","","31","","17","","16.1","","98.48","","","","-7","","NA"
"2019-01-24 10:00","2019","01","24","10:00","-1.9","","-7.4","","66","","29","","18","","16.1","","98.52","","","","-7","","NA"
"2019-01-24 11:00","2019","01","24","11:00","-1.6","","-7.6","","64","","29","","18","","16.1","","98.58","","","","-7","","NA"
"2019-01-24 12:00","2019","01","24","12:00","-1.7","","-7.7","","64","","29","","21","","16.1","","98.59","","","","-8","","NA"
"2019-01-24 13:00","2019","01","24","13:00","-1.6","","-6.8","","68","","25","","22","","16.1","","98.52","","","","-8","","NA"
"2019-01-24 14:00","2019","01","24","14:00","-1.8","","-7.1","","67","","27","","24","","16.1","","98.48","","","","-8","","NA"
"2019-01-24 15:00","2019","01","24","15:00","-2.0","","-7.4","","67","","25","","22","","16.1","","98.51","","","","-8","","Snow"
"2019-01-24 16:00","2019","01","24","16:00","-2.2","","-7.3","","68","","25","","18","","16.1","","98.53","","","","-8","","NA"
"2019-01-24 17:00","2019","01","24","17:00","-2.8","","-7.7","","69","","24","","22","","16.1","","98.55","","","","-9","","Snow"
"2019-01-24 18:00","2019","01","24","18:00","-3.1","","-7.2","","74","","23","","32","","16.1","","98.59","","","","-11","","Snow"
"2019-01-24 19:00","2019","01","24","19:00","-3.5","","-7.7","","73","","24","","30","","16.1","","98.66","","","","-11","","Snow"
"2019-01-24 20:00","2019","01","24","20:00","-4.1","","-6.5","","84","","23","","26","","14.5","","98.70","","","","-11","","Snow"
"2019-01-24 21:00","2019","01","24","21:00","-3.9","","-6.5","","82","","23","","28","","14.5","","98.70","","","","-11","","Snow"
"2019-01-24 22:00","2019","01","24","22:00","-3.8","","-7.3","","77","","24","","28","","16.1","","98.73","","","","-11","","Snow"
"2019-01-24 23:00","2019","01","24","23:00","-4.1","","-7.7","","76","","24","","30","","8.1","","98.74","","","","-12","","Snow"
"2019-01-25 00:00","2019","01","25","00:00","-4.5","","-8.0","","77","","24","","32","","9.7","","98.79","","","","-13","","Snow"
"2019-01-25 01:00","2019","01","25","01:00","-4.7","","-8.4","","76","","24","","32","","11.3","","98.82","","","","-13","","Snow"
"2019-01-25 02:00","2019","01","25","02:00","-5.4","","-9.9","","71","","24","","41","","16.1","","98.84","","","","-15","","NA"
"2019-01-25 03:00","2019","01","25","03:00","-6.2","","-11.4","","67","","26","","43","","16.1","","98.92","","","","-16","","NA"
"2019-01-25 04:00","2019","01","25","04:00","-7.4","","-12.0","","70","","25","","37","","16.1","","99.00","","","","-17","","NA"
"2019-01-25 05:00","2019","01","25","05:00","-8.3","","-12.7","","71","","25","","34","","16.1","","99.08","","","","-18","","NA"
"2019-01-25 06:00","2019","01","25","06:00","-9.3","","-13.3","","73","","24","","28","","16.1","","99.18","","","","-18","","NA"
"2019-01-25 07:00","2019","01","25","07:00","-9.6","","-14.1","","70","","25","","39","","16.1","","99.30","","","","-20","","Snow"
"2019-01-25 08:00","2019","01","25","08:00","-10.6","","-13.5","","79","","25","","30","","4.8","","99.43","","","","-20","","Snow"
"2019-01-25 09:00","2019","01","25","09:00","-10.3","","-15.0","","69","","27","","30","","16.1","","99.56","","","","-20","","Snow"
"2019-01-25 10:00","2019","01","25","10:00","-11.0","","-14.3","","77","","24","","30","","8.1","","99.63","","","","-21","","Snow"
"2019-01-25 11:00","2019","01","25","11:00","-10.1","","-14.7","","69","","24","","30","","16.1","","99.72","","","","-20","","Snow"
"2019-01-25 12:00","2019","01","25","12:00","-9.0","","-15.0","","62","","25","","28","","16.1","","99.73","","","","-18","","NA"
"2019-01-25 13:00","2019","01","25","13:00","-8.7","","-16.0","","56","","23","","30","","16.1","","99.71","","","","-18","","NA"
"2019-01-25 14:00","2019","01","25","14:00","-9.6","","-14.8","","66","","22","","34","","14.5","","99.69","","","","-20","","Snow"
"2019-01-25 15:00","2019","01","25","15:00","-9.9","","-16.8","","58","","23","","35","","16.1","","99.70","","","","-20","","NA"
"2019-01-25 16:00","2019","01","25","16:00","-10.1","","-17.1","","57","","23","","34","","16.1","","99.70","","","","-20","","NA"
"2019-01-25 17:00","2019","01","25","17:00","-10.8","","-18.0","","56","","24","","35","","16.1","","99.74","","","","-21","","NA"
"2019-01-25 18:00","2019","01","25","18:00","-11.5","","-18.5","","57","","24","","30","","16.1","","99.75","","","","-21","","NA"
"2019-01-25 19:00","2019","01","25","19:00","-11.4","","-18.6","","56","","23","","30","","16.1","","99.81","","","","-21","","NA"
"2019-01-25 20:00","2019","01","25","20:00","-11.6","","-18.5","","57","","24","","22","","16.1","","99.86","","","","-20","","NA"
"2019-01-25 21:00","2019","01","25","21:00","-11.5","","-18.1","","59","","24","","22","","16.1","","99.89","","","","-20","","NA"
"2019-01-25 22:00","2019","01","25","22:00","-11.6","","-17.8","","61","","25","","21","","16.1","","99.89","","","","-20","","Snow"
"2019-01-25 23:00","2019","01","25","23:00","-11.8","","-16.9","","66","","24","","24","","16.1","","99.87","","","","-21","","Snow"
"2019-01-26 00:00","2019","01","26","00:00","-11.7","","-15.0","","77","","24","","13","","14.5","","99.86","","","","-18","","Snow"
"2019-01-26 01:00","2019","01","26","01:00","-11.7","","-15.3","","75","","26","","18","","9.7","","99.84","","","","-20","","Snow"
"2019-01-26 02:00","2019","01","26","02:00","-11.8","","-15.3","","76","","27","","11","","11.3","","99.84","","","","-18","","Snow"
"2019-01-26 03:00","2019","01","26","03:00","-12.1","","-16.2","","72","","29","","13","","16.1","","99.86","","","","-19","","NA"
"2019-01-26 04:00","2019","01","26","04:00","-12.6","","-16.6","","73","","29","","13","","16.1","","99.84","","","","-19","","NA"
"2019-01-26 05:00","2019","01","26","05:00","-12.8","","-16.4","","75","","28","","11","","16.1","","99.89","","","","-19","","Snow"
"2019-01-26 06:00","2019","01","26","06:00","-13.1","","-16.5","","76","","28","","9","","16.1","","99.93","","","","-19","","NA"
"2019-01-26 07:00","2019","01","26","07:00","-12.9","","-16.5","","75","","28","","9","","16.1","","99.98","","","","-18","","NA"
"2019-01-26 08:00","2019","01","26","08:00","-12.9","","-16.6","","74","","","M","4","","16.1","","99.99","","","","-16","","NA"
"2019-01-26 09:00","2019","01","26","09:00","-12.6","","-16.7","","72","","","M","4","","16.1","","99.98","","","","-15","","NA"
"2019-01-26 10:00","2019","01","26","10:00","-11.7","","-16.5","","68","","24","","5","","16.1","","99.92","","","","-15","","NA"
"2019-01-26 11:00","2019","01","26","11:00","-11.0","","-16.4","","65","","","M","4","","16.1","","99.91","","","","-13","","NA"
"2019-01-26 12:00","2019","01","26","12:00","-9.0","","-16.3","","56","","27","","11","","16.1","","99.87","","","","-14","","NA"
"2019-01-26 13:00","2019","01","26","13:00","-8.1","","-14.9","","59","","26","","15","","16.1","","99.79","","","","-14","","NA"
"2019-01-26 14:00","2019","01","26","14:00","-7.5","","-14.6","","57","","24","","18","","16.1","","99.69","","","","-14","","NA"
"2019-01-26 15:00","2019","01","26","15:00","-7.8","","-14.9","","57","","27","","11","","16.1","","99.62","","","","-13","","NA"
"2019-01-26 16:00","2019","01","26","16:00","-7.9","","-13.0","","67","","18","","15","","16.1","","99.57","","","","-14","","NA"
"2019-01-26 17:00","2019","01","26","17:00","-8.1","","-12.9","","69","","18","","18","","16.1","","99.52","","","","-15","","Snow"
"2019-01-26 18:00","2019","01","26","18:00","-8.6","","-12.8","","72","","18","","15","","16.1","","99.47","","","","-15","","Snow"
"2019-01-26 19:00","2019","01","26","19:00","-8.6","","-12.0","","77","","16","","13","","16.1","","99.41","","","","-15","","NA"
"2019-01-26 20:00","2019","01","26","20:00","-8.5","","-11.2","","81","","17","","13","","16.1","","99.35","","","","-14","","NA"
"2019-01-26 21:00","2019","01","26","21:00","-7.8","","-10.2","","83","","18","","13","","12.9","","99.26","","","","-14","","Snow"
"2019-01-26 22:00","2019","01","26","22:00","-7.9","","-9.6","","88","","17","","13","","2.8","","99.15","","","","-14","","Snow"
"2019-01-26 23:00","2019","01","26","23:00","-7.9","","-9.3","","90","","14","","8","","2.0","","98.96","","","","-12","","Snow"
"2019-01-27 00:00","2019","01","27","00:00","-7.8","","-9.0","","91","","9","","5","","1.6","","98.78","","","","-10","","Snow"
"2019-01-27 01:00","2019","01","27","01:00","-7.6","","-8.8","","91","","34","","8","","1.0","","98.68","","","","-12","","Snow"
"2019-01-27 02:00","2019","01","27","02:00","-7.4","","-8.6","","91","","30","","11","","1.6","","98.68","","","","-12","","Snow"
"2019-01-27 03:00","2019","01","27","03:00","-7.4","","-9.6","","84","","28","","22","","8.1","","98.73","","","","-15","","Snow"
"2019-01-27 04:00","2019","01","27","04:00","-8.3","","-11.0","","81","","28","","21","","16.1","","98.82","","","","-16","","Snow"
"2019-01-27 05:00","2019","01","27","05:00","-8.6","","-11.6","","79","","27","","18","","16.1","","98.90","","","","-16","","NA"
"2019-01-27 06:00","2019","01","27","06:00","-8.9","","-12.2","","77","","27","","21","","16.1","","99.00","","","","-17","","Snow"
"2019-01-27 07:00","2019","01","27","07:00","-8.9","","-12.4","","76","","27","","21","","16.1","","99.08","","","","-17","","Snow"
"2019-01-27 08:00","2019","01","27","08:00","-8.9","","-11.8","","80","","28","","13","","8.1","","99.15","","","","-15","","Snow"
"2019-01-27 09:00","2019","01","27","09:00","-8.6","","-12.3","","75","","28","","17","","9.7","","99.25","","","","-15","","Snow"
"2019-01-27 10:00","2019","01","27","10:00","-8.8","","-12.6","","74","","28","","21","","16.1","","99.28","","","","-17","","NA"
"2019-01-27 11:00","2019","01","27","11:00","-8.9","","-14.7","","63","","29","","22","","16.1","","99.38","","","","-17","","NA"
"2019-01-27 12:00","2019","01","27","12:00","-8.8","","-14.9","","62","","30","","28","","11.3","","99.42","","","","-18","","NA"
"2019-01-27 13:00","2019","01","27","13:00","-8.8","","-15.7","","58","","27","","24","","16.1","","99.43","","","","-17","","NA"
"2019-01-27 14:00","2019","01","27","14:00","-8.6","","-15.5","","58","","27","","22","","16.1","","99.37","","","","-16","","NA"
"2019-01-27 15:00","2019","01","27","15:00","-8.4","","-16.2","","54","","27","","26","","16.1","","99.35","","","","-17","","NA"
"2019-01-27 16:00","2019","01","27","16:00","-8.1","","-16.1","","53","","27","","21","","16.1","","99.41","","","","-16","","NA"
"2019-01-27 17:00","2019","01","27","17:00","-9.3","","-16.7","","56","","29","","15","","16.1","","99.49","","","","-16","","NA"
"2019-01-27 18:00","2019","01","27","18:00","-10.6","","-17.4","","58","","26","","11","","16.1","","99.54","","","","-16","","NA"
"2019-01-27 19:00","2019","01","27","19:00","-13.5","","-18.2","","68","","22","","9","","16.1","","99.58","","","","-19","","NA"
"2019-01-27 20:00","2019","01","27","20:00","-12.9","","-18.0","","66","","26","","11","","16.1","","99.65","","","","-19","","NA"
"2019-01-27 21:00","2019","01","27","21:00","-16.6","","-19.6","","78","","23","","8","","16.1","","99.70","","","","-22","","NA"
"2019-01-27 22:00","2019","01","27","22:00","-14.7","","-18.1","","76","","23","","8","","16.1","","99.71","","","","-20","","NA"
"2019-01-27 23:00","2019","01","27","23:00","-16.9","","-18.8","","86","","","","0","","16.1","","99.65","","","","","","NA"
"2019-01-28 00:00","2019","01","28","00:00","-19.2","","-21.0","","86","","","","0","","16.1","","99.67","","","","","","NA"
"2019-01-28 01:00","2019","01","28","01:00","-20.1","","-22.0","","85","","14","","5","","14.5","","99.64","","","","-24","","NA"
"2019-01-28 02:00","2019","01","28","02:00","-20.8","","-22.8","","84","","5","","4","","12.9","","99.56","","","","-24","","NA"
"2019-01-28 03:00","2019","01","28","03:00","-18.3","","-20.4","","84","","5","","8","","16.1","","99.57","","","","-24","","NA"
"2019-01-28 04:00","2019","01","28","04:00","-13.8","","-16.1","","83","","8","","13","","16.1","","99.51","","","","-21","","NA"
"2019-01-28 05:00","2019","01","28","05:00","-13.6","","-17.5","","73","","7","","17","","16.1","","99.43","","","","-22","","NA"
"2019-01-28 06:00","2019","01","28","06:00","-13.2","","-18.2","","67","","8","","22","","16.1","","99.35","","","","-22","","NA"
"2019-01-28 07:00","2019","01","28","07:00","-12.7","","-17.1","","70","","7","","17","","16.1","","99.22","","","","-21","","NA"
"2019-01-28 08:00","2019","01","28","08:00","-12.2","","-15.9","","74","","7","","18","","16.1","","99.18","","","","-20","","NA"
"2019-01-28 09:00","2019","01","28","09:00","-11.4","","-14.7","","77","","8","","18","","16.1","","99.08","","","","-19","","NA"
"2019-01-28 10:00","2019","01","28","10:00","-7.3","","-11.7","","71","","12","","34","","16.1","","98.98","","","","-16","","NA"
"2019-01-28 11:00","2019","01","28","11:00","-7.6","","-12.3","","69","","12","","39","","8.1","","98.78","","","","-17","","Snow"
"2019-01-28 12:00","2019","01","28","12:00","-7.5","","-11.2","","75","","12","","28","","4.8","","98.60","","","","-16","","Snow"
"2019-01-28 13:00","2019","01","28","13:00","-7.2","","-9.2","","86","","12","","26","","3.2","","98.35","","","","-15","","Snow"
"2019-01-28 14:00","2019","01","28","14:00","-6.2","","-7.6","","90","","12","","24","","1.6","","98.16","","","","-14","","Snow"
"2019-01-28 15:00","2019","01","28","15:00","-4.5","","-5.8","","91","","13","","21","","4.0","","97.97","","","","-11","","Snow"
"2019-01-28 16:00","2019","01","28","16:00","-1.7","","-2.5","","94","","16","","21","","3.2","","97.91","","","","-8","","Snow"
"2019-01-28 17:00","2019","01","28","17:00","0.7","","0.0","","95","","19","","28","","2.8","","97.86","","","","","","Snow"
"2019-01-28 18:00","2019","01","28","18:00","1.7","","-0.1","","88","","21","","30","","16.1","","97.85","","","","","","Rain"
"2019-01-28 19:00","2019","01","28","19:00","1.3","","0.3","","93","","22","","24","","11.3","","97.91","","","","","","Rain"
"2019-01-28 20:00","2019","01","28","20:00","1.3","","0.3","","93","","22","","22","","16.1","","97.92","","","","","","NA"
"2019-01-28 21:00","2019","01","28","21:00","1.3","","0.4","","94","","20","","22","","6.4","","97.87","","","","","","Rain,Fog"
"2019-01-28 22:00","2019","01","28","22:00","1.5","","0.1","","91","","22","","35","","16.1","","97.85","","","","","","NA"
"2019-01-28 23:00","2019","01","28","23:00","-0.6","","-4.3","","76","","22","","43","","16.1","","97.86","","","","-8","","NA"
"2019-01-29 00:00","2019","01","29","00:00","-2.9","","-6.2","","78","","23","","37","","16.1","","97.96","","","","-11","","NA"
"2019-01-29 01:00","2019","01","29","01:00","-4.9","","-7.9","","80","","25","","37","","16.1","","98.08","","","","-14","","Snow"
"2019-01-29 02:00","2019","01","29","02:00","-6.6","","-9.8","","78","","23","","35","","16.1","","98.19","","","","-16","","Snow"
"2019-01-29 03:00","2019","01","29","03:00","-7.3","","-10.5","","78","","24","","30","","16.1","","98.30","","","","-16","","NA"
"2019-01-29 04:00","2019","01","29","04:00","-7.6","","-10.7","","79","","23","","30","","16.1","","98.36","","","","-16","","Snow"
"2019-01-29 05:00","2019","01","29","05:00","-8.3","","-11.0","","81","","23","","26","","16.1","","98.41","","","","-17","","Snow"
"2019-01-29 06:00","2019","01","29","06:00","-8.3","","-10.5","","84","","24","","22","","11.3","","98.48","","","","-16","","Snow"
"2019-01-29 07:00","2019","01","29","07:00","-8.1","","-13.3","","67","","26","","22","","16.1","","98.57","","","","-16","","Snow"
"2019-01-29 08:00","2019","01","29","08:00","-8.2","","-12.4","","72","","23","","24","","16.1","","98.64","","","","-16","","Snow"
"2019-01-29 09:00","2019","01","29","09:00","-9.4","","-12.1","","81","","23","","30","","2.4","","98.72","","","","-19","","Snow"
"2019-01-29 10:00","2019","01","29","10:00","-9.9","","-13.1","","78","","22","","32","","8.1","","98.72","","","","-20","","Snow"
"2019-01-29 11:00","2019","01","29","11:00","-9.6","","-13.9","","71","","23","","34","","11.3","","98.74","","","","-20","","NA"
"2019-01-29 12:00","2019","01","29","12:00","-9.3","","-13.4","","72","","23","","37","","4.8","","98.70","","","","-19","","Snow"
"2019-01-29 13:00","2019","01","29","13:00","-10.4","","-16.0","","64","","23","","45","","4.0","","98.60","","","","-22","","Snow"
"2019-01-29 14:00","2019","01","29","14:00","-10.7","","-15.9","","66","","23","","45","","8.1","","98.58","","","","-22","","Haze"
"2019-01-29 15:00","2019","01","29","15:00","-11.1","","-17.1","","62","","23","","48","","14.5","","98.58","","","","-23","","NA"
"2019-01-29 16:00","2019","01","29","16:00","-11.7","","-19.5","","53","","24","","43","","14.5","","98.67","","","","-23","","NA"
"2019-01-29 17:00","2019","01","29","17:00","-12.9","","-19.5","","58","","23","","39","","16.1","","98.80","","","","-25","","NA"
"2019-01-29 18:00","2019","01","29","18:00","-13.6","","-19.6","","61","","23","","34","","16.1","","98.89","","","","-25","","NA"
"2019-01-29 19:00","2019","01","29","19:00","-14.1","","-19.4","","65","","23","","30","","16.1","","98.95","","","","-25","","NA"
"2019-01-29 20:00","2019","01","29","20:00","-14.4","","-19.6","","65","","23","","35","","16.1","","99.00","","","","-26","","NA"
"2019-01-29 21:00","2019","01","29","21:00","-15.2","","-21.1","","61","","24","","37","","16.1","","99.03","","","","-27","","NA"
"2019-01-29 22:00","2019","01","29","22:00","-15.9","","-23.1","","55","","24","","35","","16.1","","99.04","","","","-28","","NA"
"2019-01-29 23:00","2019","01","29","23:00","-16.6","","-23.0","","59","","24","","28","","1.6","","99.02","","","","-28","","Snow"
"2019-01-30 00:00","2019","01","30","00:00","-17.2","","-23.8","","57","","23","","30","","16.1","","98.98","","","","-29","","NA"
"2019-01-30 01:00","2019","01","30","01:00","-17.8","","-24.6","","56","","24","","30","","16.1","","98.95","","","","-30","","NA"
"2019-01-30 02:00","2019","01","30","02:00","-18.4","","-24.9","","57","","24","","28","","16.1","","98.91","","","","-30","","NA"
"2019-01-30 03:00","2019","01","30","03:00","-19.1","","-25.2","","59","","24","","32","","16.1","","98.91","","","","-32","","NA"
"2019-01-30 04:00","2019","01","30","04:00","-19.8","","-25.5","","61","","24","","32","","16.1","","98.87","","","","-33","","NA"
"2019-01-30 05:00","2019","01","30","05:00","-20.6","","-25.9","","63","","25","","37","","16.1","","98.86","","","","-34","","NA"
"2019-01-30 06:00","2019","01","30","06:00","-21.4","","-26.5","","64","","25","","34","","16.1","","98.89","","","","-35","","NA"
"2019-01-30 07:00","2019","01","30","07:00","-21.7","","-27.0","","63","","25","","32","","16.1","","98.97","","","","-35","","NA"
"2019-01-30 08:00","2019","01","30","08:00","-21.7","","-27.2","","62","","24","","37","","14.5","","99.07","","","","-36","","NA"
"2019-01-30 09:00","2019","01","30","09:00","-21.8","","-27.9","","59","","25","","39","","16.1","","99.22","","","","-36","","NA"
"2019-01-30 10:00","2019","01","30","10:00","-21.6","","-28.0","","57","","26","","37","","12.9","","99.33","","","","-36","","NA"
"2019-01-30 11:00","2019","01","30","11:00","-21.0","","-27.1","","59","","25","","43","","9.7","","99.45","","","","-36","","Haze"
"2019-01-30 12:00","2019","01","30","12:00","-20.0","","-26.7","","56","","25","","37","","16.1","","99.50","","","","-34","","NA"
"2019-01-30 13:00","2019","01","30","13:00","-19.5","","-26.8","","53","","25","","41","","16.1","","99.55","","","","-34","","NA"
"2019-01-30 14:00","2019","01","30","14:00","-19.8","","-27.1","","53","","24","","37","","16.1","","99.62","","","","-33","","NA"
"2019-01-30 15:00","2019","01","30","15:00","-20.1","","-27.2","","54","","23","","34","","16.1","","99.70","","","","-33","","NA"
"2019-01-30 16:00","2019","01","30","16:00","-21.0","","-28.6","","51","","24","","41","","16.1","","99.79","","","","-36","","NA"
"2019-01-30 17:00","2019","01","30","17:00","-22.2","","-29.4","","53","","23","","39","","14.5","","99.87","","","","-37","","NA"
"2019-01-30 18:00","2019","01","30","18:00","-23.4","","-29.9","","56","","24","","35","","16.1","","99.92","","","","-38","","NA"
"2019-01-30 19:00","2019","01","30","19:00","-23.7","","-29.9","","58","","23","","37","","16.1","","99.99","","","","-39","","NA"
"2019-01-30 20:00","2019","01","30","20:00","-24.0","","-29.9","","59","","23","","35","","16.1","","100.05","","","","-39","","NA"
"2019-01-30 21:00","2019","01","30","21:00","-24.1","","-30.0","","59","","24","","32","","16.1","","100.11","","","","-38","","NA"
"2019-01-30 22:00","2019","01","30","22:00","-24.4","","-29.9","","61","","24","","28","","16.1","","100.16","","","","-38","","NA"
"2019-01-30 23:00","2019","01","30","23:00","-24.6","","-29.6","","64","","24","","28","","16.1","","100.19","","","","-38","","NA"
"2019-01-31 00:00","2019","01","31","00:00","-24.7","","-29.4","","66","","24","","28","","16.1","","100.20","","","","-38","","NA"
"2019-01-31 01:00","2019","01","31","01:00","-24.6","","-29.1","","67","","24","","28","","16.1","","100.23","","","","-38","","NA"
"2019-01-31 02:00","2019","01","31","02:00","-24.5","","-28.8","","68","","24","","28","","16.1","","100.24","","","","-38","","NA"
"2019-01-31 03:00","2019","01","31","03:00","-24.5","","-28.7","","69","","24","","26","","16.1","","100.28","","","","-38","","NA"
"2019-01-31 04:00","2019","01","31","04:00","-24.6","","-28.6","","70","","24","","22","","16.1","","100.29","","","","-37","","NA"
"2019-01-31 05:00","2019","01","31","05:00","-24.5","","-28.5","","70","","24","","22","","16.1","","100.32","","","","-37","","NA"
"2019-01-31 06:00","2019","01","31","06:00","-24.4","","-28.4","","70","","23","","26","","16.1","","100.37","","","","-37","","NA"
"2019-01-31 07:00","2019","01","31","07:00","-24.7","","-28.6","","71","","24","","21","","16.1","","100.40","","","","-37","","NA"
"2019-01-31 08:00","2019","01","31","08:00","-24.6","","-28.6","","70","","23","","22","","16.1","","100.45","","","","-37","","NA"
"2019-01-31 09:00","2019","01","31","09:00","-23.7","","-28.4","","66","","23","","26","","16.1","","100.50","","","","-37","","NA"
"2019-01-31 10:00","2019","01","31","10:00","-22.3","","-27.4","","64","","22","","26","","16.1","","100.54","","","","-35","","NA"
"2019-01-31 11:00","2019","01","31","11:00","-20.9","","-26.2","","63","","22","","24","","16.1","","100.53","","","","-33","","NA"
"2019-01-31 12:00","2019","01","31","12:00","-19.6","","-25.2","","62","","23","","30","","16.1","","100.52","","","","-32","","NA"
"2019-01-31 13:00","2019","01","31","13:00","-18.5","","-24.1","","62","","22","","22","","16.1","","100.48","","","","-29","","NA"
"2019-01-31 14:00","2019","01","31","14:00","-17.5","","-23.5","","60","","22","","22","","16.1","","100.46","","","","-28","","NA"
"2019-01-31 15:00","2019","01","31","15:00","-17.2","","-23.6","","58","","22","","32","","16.1","","100.44","","","","-29","","NA"
"2019-01-31 16:00","2019","01","31","16:00","-16.7","","-23.3","","58","","22","","34","","16.1","","100.50","","","","-29","","NA"
"2019-01-31 17:00","2019","01","31","17:00","-17.1","","-23.9","","56","","24","","24","","16.1","","100.51","","","","-28","","NA"
"2019-01-31 18:00","2019","01","31","18:00","-18.0","","-23.8","","61","","23","","24","","16.1","","100.54","","","","-29","","NA"
"2019-01-31 19:00","2019","01","31","19:00","-18.4","","-24.1","","62","","23","","21","","16.1","","100.59","","","","-29","","NA"
"2019-01-31 20:00","2019","01","31","20:00","-18.3","","-24.5","","59","","23","","17","","16.1","","100.59","","","","-28","","NA"
"2019-01-31 21:00","2019","01","31","21:00","-18.2","","-25.1","","56","","24","","15","","16.1","","100.61","","","","-27","","NA"
"2019-01-31 22:00","2019","01","31","22:00","-18.0","","-26.1","","50","","24","","13","","16.1","","100.58","","","","-26","","NA"
"2019-01-31 23:00","2019","01","31","23:00","-18.0","","-25.4","","53","","23","","11","","16.1","","100.63","","","","-25","","NA"
