"Station Name","WINDSOR A"
"Province","ONTARIO"
"Latitude","42.28"
"Longitude","-82.96"
"Elevation","189.60"
"Climate Identifier","6139525"
"WMO Identifier","71538"
"TC Identifier","YQG"
"All times are specified in Local Standard Time (LST). Add 1 hour to adjust for Daylight Saving Time where and when it is observed."

"Legend"
"E","Estimated"
"M","Missing"
"NA","Not Available"

"Date/Time","Year","Month","Day","Time","Temp (°C)","Temp Flag","Dew Point Temp (°C)","Dew Point Temp Flag","Rel Hum (%)","Rel Hum Flag","Wind Dir (10s deg)","Wind Dir Flag","Wind Spd (km/h)","Wind Spd Flag","Visibility (km)","Visibility Flag","Stn Press (kPa)","Stn Press Flag","Hmdx","Hmdx Flag","Wind Chill","Wind Chill Flag","Weather"
"2007-02-01 00:00","2007","02","01","00:00","-7.3","","-13.6","","61","","23","","22","","24.1","","99.08","","","","-15","","Cloudy"
"2007-02-01 01:00","2007","02","01","01:00","-7.0","","-12.9","","63","","22","","26","","24.1","","98.99","","","","-15","","Cloudy"
"2007-02-01 02:00","2007","02","01","02:00","-6.7","","-10.6","","74","","22","","20","","24.1","","98.92","","","","-14","","Cloudy"
"2007-02-01 03:00","2007","02","01","03:00","-5.7","","-11.2","","65","","22","","26","","24.1","","98.90","","","","-13","","Cloudy"
"2007-02-01 04:00","2007","02","01","04:00","-6.2","","-12.0","","63","","23","","19","","24.1","","98.83","","","","-13","","Cloudy"
"2007-02-01 05:00","2007","02","01","05:00","-6.8","","-12.1","","66","","22","","17","","24.1","","98.78","","","","-13","","Mostly Cloudy"
"2007-02-01 06:00","2007","02","01","06:00","-6.0","","-11.0","","68","","23","","22","","24.1","","98.75","","","","-13","","Mostly Cloudy"
"2007-02-01 07:00","2007","02","01","07:00","-5.7","","-11.3","","65","","23","","26","","24.1","","98.72","","","","-13","","Mostly Cloudy"
"2007-02-01 08:00","2007","02","01","08:00","-6.1","","-10.9","","69","","23","","22","","2.8","","98.71","","","","-13","","Snow Showers"
"2007-02-01 09:00","2007","02","01","09:00","-6.4","","-9.5","","79","","22","","20","","3.2","","98.69","","","","-13","","Snow Showers"
"2007-02-01 10:00","2007","02","01","10:00","-6.2","","-8.9","","81","","22","","24","","1.6","","98.70","","","","-14","","Snow Showers"
"2007-02-01 11:00","2007","02","01","11:00","-5.2","","-7.8","","82","","22","","28","","3.2","","98.68","","","","-13","","Snow Showers,Haze"
"2007-02-01 12:00","2007","02","01","12:00","-4.7","","-8.2","","76","","23","","28","","9.7","","98.68","","","","-12","","Snow Showers,Haze"
"2007-02-01 13:00","2007","02","01","13:00","-4.3","","-8.3","","74","","22","","32","","9.7","","98.59","","","","-12","","Snow Showers,Haze"
"2007-02-01 14:00","2007","02","01","14:00","-3.6","","-8.0","","71","","23","","30","","11.3","","98.54","","","","-11","","Snow Showers"
"2007-02-01 15:00","2007","02","01","15:00","-3.6","","-8.5","","69","","23","","22","","12.9","","98.50","","","","-10","","Snow Showers"
"2007-02-01 16:00","2007","02","01","16:00","-3.6","","-8.9","","67","","24","","24","","24.1","","98.50","","","","-10","","Snow Showers"
"2007-02-01 17:00","2007","02","01","17:00","-3.6","","-8.9","","67","","22","","22","","24.1","","98.48","","","","-10","","Snow Showers"
"2007-02-01 18:00","2007","02","01","18:00","-3.8","","-8.5","","70","","24","","20","","19.3","","98.49","","","","-10","","Snow Showers"
"2007-02-01 19:00","2007","02","01","19:00","-4.0","","-8.5","","71","","22","","13","","24.1","","98.50","","","","-9","","Snow Showers"
"2007-02-01 20:00","2007","02","01","20:00","-4.6","","-8.8","","72","","22","","13","","19.3","","98.56","","","","-10","","Snow Showers"
"2007-02-01 21:00","2007","02","01","21:00","-4.6","","-8.2","","76","","22","","15","","24.1","","98.59","","","","-10","","Snow Showers"
"2007-02-01 22:00","2007","02","01","22:00","-4.6","","-8.0","","77","","23","","13","","24.1","","98.60","","","","-10","","Snow Showers"
"2007-02-01 23:00","2007","02","01","23:00","-5.3","","-8.5","","78","","23","","13","","24.1","","98.58","","","","-10","","Cloudy"
"2007-02-02 00:00","2007","02","02","00:00","-5.2","","-8.2","","79","","25","","13","","24.1","","98.54","","","","-10","","Snow Showers"
"2007-02-02 01:00","2007","02","02","01:00","-5.2","","-8.2","","79","","24","","13","","19.3","","98.50","","","","-10","","Mostly Cloudy"
"2007-02-02 02:00","2007","02","02","02:00","-5.9","","-8.8","","80","","22","","11","","24.1","","98.40","","","","-11","","Mostly Cloudy"
"2007-02-02 03:00","2007","02","02","03:00","-7.1","","-9.6","","82","","22","","9","","24.1","","98.41","","","","-11","","Mainly Clear"
"2007-02-02 04:00","2007","02","02","04:00","-6.2","","-9.3","","79","","22","","9","","24.1","","98.37","","","","-10","","Mostly Cloudy"
"2007-02-02 05:00","2007","02","02","05:00","-5.8","","-9.1","","77","","23","","11","","24.1","","98.33","","","","-11","","Cloudy"
"2007-02-02 06:00","2007","02","02","06:00","-5.0","","-9.0","","73","","23","","13","","24.1","","98.23","","","","-10","","Cloudy"
"2007-02-02 07:00","2007","02","02","07:00","-5.1","","-8.6","","76","","22","","11","","24.1","","98.22","","","","-10","","Cloudy"
"2007-02-02 08:00","2007","02","02","08:00","-5.0","","-7.9","","80","","22","","13","","9.7","","98.15","","","","-10","","Haze"
"2007-02-02 09:00","2007","02","02","09:00","-4.7","","-7.8","","79","","23","","19","","8.0","","98.16","","","","-11","","Snow Showers,Haze"
"2007-02-02 10:00","2007","02","02","10:00","-4.4","","-7.7","","78","","22","","24","","8.0","","98.09","","","","-11","","Snow Showers,Haze"
"2007-02-02 11:00","2007","02","02","11:00","-3.6","","-8.4","","69","","24","","39","","19.3","","98.07","","","","-12","","Mostly Cloudy"
"2007-02-02 12:00","2007","02","02","12:00","-4.5","","-12.1","","55","","24","","26","","19.3","","98.07","","","","-12","","Mostly Cloudy"
"2007-02-02 13:00","2007","02","02","13:00","-5.0","","-13.3","","52","","27","","33","","19.3","","97.96","","","","-13","","Mostly Cloudy"
"2007-02-02 14:00","2007","02","02","14:00","-5.0","","-13.7","","50","","27","","30","","24.1","","97.95","","","","-13","","Mainly Clear"
"2007-02-02 15:00","2007","02","02","15:00","-5.4","","-12.8","","56","","25","","37","","24.1","","97.99","","","","-14","","Snow Showers"
"2007-02-02 16:00","2007","02","02","16:00","-5.7","","-13.4","","55","","27","","39","","11.3","","98.12","","","","-15","","Snow Showers"
"2007-02-02 17:00","2007","02","02","17:00","-7.9","","-12.5","","69","","26","","39","","9.7","","98.26","","","","-18","","Snow Showers"
"2007-02-02 18:00","2007","02","02","18:00","-8.4","","-13.9","","64","","27","","37","","16.1","","98.44","","","","-18","","Snow Showers"
"2007-02-02 19:00","2007","02","02","19:00","-8.9","","-16.4","","55","","27","","30","","24.1","","98.56","","","","-18","","Snow Showers"
"2007-02-02 20:00","2007","02","02","20:00","-9.6","","-16.5","","57","","27","","33","","24.1","","98.67","","","","-19","","Mainly Clear"
"2007-02-02 21:00","2007","02","02","21:00","-10.3","","-16.3","","61","","26","","26","","24.1","","98.72","","","","-19","","Mainly Clear"
"2007-02-02 22:00","2007","02","02","22:00","-10.9","","-16.6","","63","","25","","22","","24.1","","98.82","","","","-19","","Clear"
"2007-02-02 23:00","2007","02","02","23:00","-11.9","","-17.5","","63","","24","","20","","24.1","","98.86","","","","-20","","Clear"
"2007-02-03 00:00","2007","02","03","00:00","-12.7","","-17.8","","66","","24","","22","","24.1","","98.87","","","","-22","","Clear"
"2007-02-03 01:00","2007","02","03","01:00","-13.6","","-19.1","","63","","24","","22","","24.1","","98.89","","","","-23","","Mainly Clear"
"2007-02-03 02:00","2007","02","03","02:00","-14.1","","-19.6","","63","","23","","24","","24.1","","98.87","","","","-24","","Mainly Clear"
"2007-02-03 03:00","2007","02","03","03:00","-14.1","","-19.1","","66","","24","","19","","24.1","","98.87","","","","-23","","Clear"
"2007-02-03 04:00","2007","02","03","04:00","-14.3","","-19.1","","67","","23","","24","","24.1","","98.83","","","","-24","","Clear"
"2007-02-03 05:00","2007","02","03","05:00","-14.3","","-19.1","","67","","23","","24","","24.1","","98.82","","","","-24","","Clear"
"2007-02-03 06:00","2007","02","03","06:00","-14.2","","-19.1","","66","","23","","24","","24.1","","98.82","","","","-24","","Clear"
"2007-02-03 07:00","2007","02","03","07:00","-14.1","","-18.9","","67","","22","","20","","24.1","","98.81","","","","-23","","Clear"
"2007-02-03 08:00","2007","02","03","08:00","-13.7","","-18.6","","66","","22","","26","","24.1","","98.80","","","","-24","","Mainly Clear"
"2007-02-03 09:00","2007","02","03","09:00","-11.8","","-16.4","","69","","22","","24","","24.1","","98.77","","","","-21","","Mainly Clear"
"2007-02-03 10:00","2007","02","03","10:00","-11.0","","-16.4","","64","","23","","30","","24.1","","98.72","","","","-21","","Mainly Clear"
"2007-02-03 11:00","2007","02","03","11:00","-10.3","","-16.3","","61","","22","","37","","24.1","","98.61","","","","-21","","Mainly Clear"
"2007-02-03 12:00","2007","02","03","12:00","-10.1","","-14.9","","68","","23","","32","","6.4","","98.58","","","","-20","","Snow Showers"
"2007-02-03 13:00","2007","02","03","13:00","-9.5","","-14.7","","66","","24","","41","","4.8","","98.51","","","","-20","","Snow Showers"
"2007-02-03 14:00","2007","02","03","14:00","-10.1","","-14.9","","68","","25","","35","","0.4","","98.52","","","","-20","","Snow Showers,Blowing Snow"
"2007-02-03 15:00","2007","02","03","15:00","-10.6","","-14.7","","72","","25","","48","","8.0","","98.63","","","","-22","","Snow Showers"
"2007-02-03 16:00","2007","02","03","16:00","-10.3","","-16.9","","58","","26","","57","","11.3","","98.82","","","","-23","","Snow Showers"
"2007-02-03 17:00","2007","02","03","17:00","-11.3","","-18.1","","57","","25","","43","","8.0","","99.01","","","","-23","","Snow Showers"
"2007-02-03 18:00","2007","02","03","18:00","-12.0","","-18.4","","59","","26","","44","","16.1","","99.20","","","","-24","","Mainly Clear"
"2007-02-03 19:00","2007","02","03","19:00","-12.7","","-20.0","","54","","26","","44","","19.3","","99.31","","","","-25","","Mainly Clear"
"2007-02-03 20:00","2007","02","03","20:00","-13.4","","-20.9","","53","","26","","35","","24.1","","99.41","","","","-25","","Clear"
"2007-02-03 21:00","2007","02","03","21:00","-14.1","","-21.3","","54","","25","","41","","24.1","","99.47","","","","-26","","Clear"
"2007-02-03 22:00","2007","02","03","22:00","-14.8","","-21.5","","57","","26","","33","","24.1","","99.57","","","","-26","","Clear"
"2007-02-03 23:00","2007","02","03","23:00","-15.1","","-21.6","","58","","21","","30","","24.1","","99.59","","","","-26","","Clear"
"2007-02-04 00:00","2007","02","04","00:00","-15.5","","-21.7","","59","","25","","24","","24.1","","99.61","","","","-26","","Clear"
"2007-02-04 01:00","2007","02","04","01:00","-15.9","","-22.0","","59","","22","","22","","24.1","","99.63","","","","-26","","Clear"
"2007-02-04 02:00","2007","02","04","02:00","-16.5","","-22.1","","62","","25","","24","","24.1","","99.58","","","","-27","","Clear"
"2007-02-04 03:00","2007","02","04","03:00","-16.9","","-22.0","","65","","25","","22","","24.1","","99.60","","","","-27","","Clear"
"2007-02-04 04:00","2007","02","04","04:00","-17.3","","-22.3","","65","","25","","22","","24.1","","99.59","","","","-28","","Clear"
"2007-02-04 05:00","2007","02","04","05:00","-17.7","","-22.2","","68","","25","","26","","24.1","","99.59","","","","-29","","Clear"
"2007-02-04 06:00","2007","02","04","06:00","-17.9","","-22.3","","68","","25","","22","","24.1","","99.59","","","","-28","","Clear"
"2007-02-04 07:00","2007","02","04","07:00","-18.0","","-22.3","","69","","25","","20","","24.1","","99.59","","","","-28","","Mainly Clear"
"2007-02-04 08:00","2007","02","04","08:00","-18.2","","-22.3","","70","","25","","19","","24.1","","99.61","","","","-28","","Mainly Clear"
"2007-02-04 09:00","2007","02","04","09:00","-18.1","","-22.3","","70","","26","","20","","24.1","","99.63","","","","-28","","Mainly Clear"
"2007-02-04 10:00","2007","02","04","10:00","-17.1","","-22.0","","66","","26","","26","","24.1","","99.62","","","","-28","","Mainly Clear"
"2007-02-04 11:00","2007","02","04","11:00","-16.8","","-23.3","","57","","25","","22","","24.1","","99.64","","","","-27","","Mostly Cloudy"
"2007-02-04 12:00","2007","02","04","12:00","-15.6","","-21.8","","59","","25","","24","","19.3","","99.65","","","","-26","","Mostly Cloudy"
"2007-02-04 13:00","2007","02","04","13:00","-15.2","","-22.9","","52","","24","","30","","19.3","","99.59","","","","-26","","Mostly Cloudy"
"2007-02-04 14:00","2007","02","04","14:00","-14.9","","-22.4","","53","","25","","32","","16.1","","99.58","","","","-26","","Mostly Cloudy"
"2007-02-04 15:00","2007","02","04","15:00","-14.6","","-20.4","","61","","26","","37","","3.6","","99.57","","","","-27","","Snow Showers"
"2007-02-04 16:00","2007","02","04","16:00","-14.1","","-21.6","","53","","26","","30","","4.0","","99.63","","","","-25","","Snow Showers"
"2007-02-04 17:00","2007","02","04","17:00","-14.0","","-22.7","","48","","27","","37","","12.9","","99.69","","","","-26","","Snow Showers"
"2007-02-04 18:00","2007","02","04","18:00","-15.5","","-21.6","","59","","27","","37","","0.8","","99.83","","","","-28","","Moderate Snow Showers"
"2007-02-04 19:00","2007","02","04","19:00","-15.4","","-21.0","","62","","28","","22","","12.9","","99.94","","","","-25","","Snow Showers"
"2007-02-04 20:00","2007","02","04","20:00","-15.9","","-23.0","","54","","29","","26","","11.3","","100.03","","","","-27","","Snow Showers"
"2007-02-04 21:00","2007","02","04","21:00","-16.3","","-23.2","","55","","30","","32","","19.3","","100.06","","","","-28","","Mainly Clear"
"2007-02-04 22:00","2007","02","04","22:00","-16.8","","-24.7","","50","","29","","22","","19.3","","100.11","","","","-27","","Clear"
"2007-02-04 23:00","2007","02","04","23:00","-17.4","","-25.6","","49","","29","","20","","19.3","","100.13","","","","-27","","Clear"
"2007-02-05 00:00","2007","02","05","00:00","-17.8","","-26.2","","48","","28","","22","","19.3","","100.16","","","","-28","","Clear"
"2007-02-05 01:00","2007","02","05","01:00","-18.0","","-26.1","","49","","28","","22","","19.3","","100.20","","","","-28","","Clear"
"2007-02-05 02:00","2007","02","05","02:00","-18.2","","-25.6","","52","","29","","20","","24.1","","100.22","","","","-28","","Clear"
"2007-02-05 03:00","2007","02","05","03:00","-18.7","","-25.3","","56","","28","","24","","24.1","","100.26","","","","-30","","Clear"
"2007-02-05 04:00","2007","02","05","04:00","-19.0","","-25.4","","57","","27","","17","","24.1","","100.30","","","","-28","","Clear"
"2007-02-05 05:00","2007","02","05","05:00","-19.0","","-25.3","","57","","26","","19","","24.1","","100.36","","","","-29","","Clear"
"2007-02-05 06:00","2007","02","05","06:00","-19.6","","-25.7","","58","","25","","17","","24.1","","100.40","","","","-29","","Clear"
"2007-02-05 07:00","2007","02","05","07:00","-19.6","","-25.3","","61","","25","","17","","24.1","","100.45","","","","-29","","Clear"
"2007-02-05 08:00","2007","02","05","08:00","-19.3","","-24.9","","61","","26","","22","","24.1","","100.51","","","","-30","","Clear"
"2007-02-05 09:00","2007","02","05","09:00","-18.2","","-23.4","","64","","26","","26","","24.1","","100.53","","","","-29","","Clear"
"2007-02-05 10:00","2007","02","05","10:00","-16.8","","-21.8","","65","","27","","22","","24.1","","100.57","","","","-27","","Clear"
"2007-02-05 11:00","2007","02","05","11:00","-15.5","","-21.5","","60","","27","","24","","24.1","","100.59","","","","-26","","Clear"
"2007-02-05 12:00","2007","02","05","12:00","-13.6","","-20.7","","55","","27","","30","","24.1","","100.57","","","","-24","","Mainly Clear"
"2007-02-05 13:00","2007","02","05","13:00","-12.4","","-20.8","","50","","28","","32","","24.1","","100.50","","","","-23","","Mainly Clear"
"2007-02-05 14:00","2007","02","05","14:00","-11.7","","-20.7","","47","","28","","30","","24.1","","100.49","","","","-22","","Mainly Clear"
"2007-02-05 15:00","2007","02","05","15:00","-11.3","","-20.9","","45","","28","","28","","24.1","","100.51","","","","-21","","Mainly Clear"
"2007-02-05 16:00","2007","02","05","16:00","-11.4","","-20.2","","48","","26","","32","","24.1","","100.51","","","","-22","","Mostly Cloudy"
"2007-02-05 17:00","2007","02","05","17:00","-11.6","","-20.0","","50","","27","","28","","24.1","","100.54","","","","-21","","Mostly Cloudy"
"2007-02-05 18:00","2007","02","05","18:00","-12.0","","-19.7","","53","","25","","20","","19.3","","100.57","","","","-20","","Cloudy"
"2007-02-05 19:00","2007","02","05","19:00","-12.2","","-19.9","","53","","27","","28","","16.1","","100.61","","","","-22","","Snow Showers"
"2007-02-05 20:00","2007","02","05","20:00","-13.3","","-20.2","","56","","26","","26","","16.1","","100.62","","","","-23","","Snow Showers"
"2007-02-05 21:00","2007","02","05","21:00","-14.2","","-20.2","","60","","25","","28","","9.7","","100.61","","","","-25","","Snow Showers"
"2007-02-05 22:00","2007","02","05","22:00","-14.7","","-20.3","","62","","25","","20","","12.9","","100.59","","","","-24","","Snow Showers"
"2007-02-05 23:00","2007","02","05","23:00","-15.1","","-20.0","","66","","25","","22","","8.0","","100.57","","","","-25","","Snow Showers"
"2007-02-06 00:00","2007","02","06","00:00","-16.2","","-21.1","","66","","25","","15","","4.8","","100.55","","","","-24","","Snow Showers"
"2007-02-06 01:00","2007","02","06","01:00","-16.6","","-21.7","","65","","26","","17","","12.9","","100.53","","","","-25","","Snow Showers"
"2007-02-06 02:00","2007","02","06","02:00","-16.9","","-22.6","","61","","25","","19","","19.3","","100.51","","","","-26","","Mainly Clear"
"2007-02-06 03:00","2007","02","06","03:00","-17.8","","-23.5","","61","","24","","13","","24.1","","100.49","","","","-26","","Clear"
"2007-02-06 04:00","2007","02","06","04:00","-18.1","","-24.2","","59","","25","","20","","24.1","","100.45","","","","-28","","Clear"
"2007-02-06 05:00","2007","02","06","05:00","-18.2","","-24.3","","59","","26","","19","","24.1","","100.46","","","","-28","","Clear"
"2007-02-06 06:00","2007","02","06","06:00","-18.3","","-24.2","","60","","26","","17","","24.1","","100.43","","","","-28","","Clear"
"2007-02-06 07:00","2007","02","06","07:00","-18.4","","-24.0","","61","","26","","17","","24.1","","100.40","","","","-28","","Mainly Clear"
"2007-02-06 08:00","2007","02","06","08:00","-18.2","","-23.3","","64","","25","","13","","24.1","","100.36","","","","-26","","Mostly Cloudy"
"2007-02-06 09:00","2007","02","06","09:00","-17.0","","-21.7","","67","","26","","15","","24.1","","100.30","","","","-25","","Mainly Clear"
"2007-02-06 10:00","2007","02","06","10:00","-15.7","","-20.6","","66","","25","","15","","24.1","","100.26","","","","-24","","Mainly Clear"
"2007-02-06 11:00","2007","02","06","11:00","-13.9","","-19.2","","64","","25","","19","","24.1","","100.24","","","","-23","","Mostly Cloudy"
"2007-02-06 12:00","2007","02","06","12:00","-12.6","","-18.6","","61","","25","","20","","19.3","","100.19","","","","-21","","Mostly Cloudy"
"2007-02-06 13:00","2007","02","06","13:00","-12.4","","-19.0","","58","","23","","20","","24.1","","100.10","","","","-21","","Cloudy"
"2007-02-06 14:00","2007","02","06","14:00","-12.1","","-18.7","","58","","25","","22","","24.1","","99.94","","","","-21","","Cloudy"
"2007-02-06 15:00","2007","02","06","15:00","-11.7","","-18.5","","57","","21","","17","","24.1","","99.82","","","","-19","","Cloudy"
"2007-02-06 16:00","2007","02","06","16:00","-11.7","","-18.6","","57","","22","","20","","24.1","","99.74","","","","-20","","Cloudy"
"2007-02-06 17:00","2007","02","06","17:00","-12.0","","-19.1","","56","","23","","22","","24.1","","99.67","","","","-21","","Cloudy"
"2007-02-06 18:00","2007","02","06","18:00","-12.2","","-19.7","","54","","23","","17","","24.1","","99.63","","","","-20","","Cloudy"
"2007-02-06 19:00","2007","02","06","19:00","-12.7","","-18.7","","61","","22","","19","","24.1","","99.60","","","","-21","","Cloudy"
"2007-02-06 20:00","2007","02","06","20:00","-13.0","","-17.8","","67","","24","","19","","11.3","","99.58","","","","-21","","Snow Showers"
"2007-02-06 21:00","2007","02","06","21:00","-13.2","","-17.2","","72","","25","","17","","9.7","","99.55","","","","-21","","Snow Showers"
"2007-02-06 22:00","2007","02","06","22:00","-13.1","","-16.8","","74","","26","","17","","9.7","","99.53","","","","-21","","Snow Showers"
"2007-02-06 23:00","2007","02","06","23:00","-12.8","","-16.3","","75","","27","","11","","16.1","","99.50","","","","-19","","Snow Showers"
"2007-02-07 00:00","2007","02","07","00:00","-12.6","","-16.1","","75","","27","","13","","19.3","","99.50","","","","-19","","Cloudy"
"2007-02-07 01:00","2007","02","07","01:00","-12.4","","-16.1","","74","","26","","13","","24.1","","99.48","","","","-19","","Mostly Cloudy"
"2007-02-07 02:00","2007","02","07","02:00","-12.2","","-16.4","","71","","30","","22","","19.3","","99.52","","","","-21","","Snow Showers"
"2007-02-07 03:00","2007","02","07","03:00","-12.7","","-17.7","","66","","31","","24","","24.1","","99.53","","","","-22","","Mainly Clear"
"2007-02-07 04:00","2007","02","07","04:00","-13.5","","-18.2","","68","","31","","17","","24.1","","99.55","","","","-22","","Clear"
"2007-02-07 05:00","2007","02","07","05:00","-14.1","","-18.9","","67","","27","","15","","24.1","","99.60","","","","-22","","Clear"
"2007-02-07 06:00","2007","02","07","06:00","-14.1","","-18.4","","70","","28","","13","","24.1","","99.66","","","","-21","","Clear"
"2007-02-07 07:00","2007","02","07","07:00","-14.9","","-19.3","","69","","25","","11","","24.1","","99.72","","","","-21","","Clear"
"2007-02-07 08:00","2007","02","07","08:00","-15.9","","-19.7","","73","","25","","15","","19.3","","99.81","","","","-24","","Clear"
"2007-02-07 09:00","2007","02","07","09:00","-14.3","","-17.5","","77","","26","","17","","24.1","","99.88","","","","-23","","Clear"
"2007-02-07 10:00","2007","02","07","10:00","-12.4","","-16.7","","70","","26","","20","","24.1","","99.91","","","","-21","","Clear"
"2007-02-07 11:00","2007","02","07","11:00","-10.7","","-16.6","","62","","28","","30","","24.1","","99.90","","","","-20","","Mainly Clear"
"2007-02-07 12:00","2007","02","07","12:00","-9.7","","-16.6","","57","","29","","22","","24.1","","99.84","","","","-18","","Mainly Clear"
"2007-02-07 13:00","2007","02","07","13:00","-8.4","","-16.7","","51","","29","","28","","24.1","","99.76","","","","-17","","Mainly Clear"
"2007-02-07 14:00","2007","02","07","14:00","-7.5","","-15.8","","51","","28","","30","","24.1","","99.69","","","","-16","","Clear"
"2007-02-07 15:00","2007","02","07","15:00","-7.1","","-16.0","","49","","27","","32","","24.1","","99.65","","","","-16","","Clear"
"2007-02-07 16:00","2007","02","07","16:00","-6.4","","-15.4","","49","","26","","22","","24.1","","99.60","","","","-14","","Mainly Clear"
"2007-02-07 17:00","2007","02","07","17:00","-6.3","","-15.6","","48","","26","","30","","24.1","","99.58","","","","-15","","Clear"
"2007-02-07 18:00","2007","02","07","18:00","-6.9","","-16.3","","47","","26","","26","","24.1","","99.59","","","","-15","","Mainly Clear"
"2007-02-07 19:00","2007","02","07","19:00","-7.7","","-16.3","","50","","25","","26","","24.1","","99.62","","","","-16","","Mainly Clear"
"2007-02-07 20:00","2007","02","07","20:00","-8.7","","-16.0","","55","","25","","24","","24.1","","99.62","","","","-17","","Clear"
"2007-02-07 21:00","2007","02","07","21:00","-9.0","","-16.1","","56","","27","","30","","24.1","","99.62","","","","-18","","Clear"
"2007-02-07 22:00","2007","02","07","22:00","-9.7","","-16.4","","58","","27","","22","","24.1","","99.58","","","","-18","","Clear"
"2007-02-07 23:00","2007","02","07","23:00","-11.3","","-17.6","","60","","25","","20","","24.1","","99.57","","","","-20","","Clear"
"2007-02-08 00:00","2007","02","08","00:00","-11.7","","-17.3","","63","","25","","20","","24.1","","99.54","","","","-20","","Clear"
"2007-02-08 01:00","2007","02","08","01:00","-12.1","","-17.6","","64","","25","","19","","24.1","","99.51","","","","-20","","Clear"
"2007-02-08 02:00","2007","02","08","02:00","-13.3","","-18.8","","63","","25","","19","","24.1","","99.47","","","","-22","","Clear"
"2007-02-08 03:00","2007","02","08","03:00","-13.4","","-18.2","","67","","26","","24","","24.1","","99.49","","","","-23","","Clear"
"2007-02-08 04:00","2007","02","08","04:00","-13.7","","-18.9","","65","","25","","26","","24.1","","99.50","","","","-24","","Clear"
"2007-02-08 05:00","2007","02","08","05:00","-13.7","","-18.5","","67","","26","","19","","24.1","","99.58","","","","-22","","Clear"
"2007-02-08 06:00","2007","02","08","06:00","-13.1","","-17.7","","68","","27","","20","","24.1","","99.68","","","","-22","","Clear"
"2007-02-08 07:00","2007","02","08","07:00","-13.6","","-18.3","","68","","27","","19","","24.1","","99.73","","","","-22","","Clear"
"2007-02-08 08:00","2007","02","08","08:00","-11.8","","-18.1","","59","","28","","20","","24.1","","99.83","","","","-20","","Clear"
"2007-02-08 09:00","2007","02","08","09:00","-11.0","","-17.7","","58","","29","","30","","24.1","","99.92","","","","-21","","Clear"
"2007-02-08 10:00","2007","02","08","10:00","-10.2","","-16.7","","59","","29","","20","","24.1","","99.92","","","","-18","","Clear"
"2007-02-08 11:00","2007","02","08","11:00","-9.1","","-16.3","","56","","27","","24","","24.1","","99.93","","","","-17","","Clear"
"2007-02-08 12:00","2007","02","08","12:00","-7.8","","-15.2","","55","","28","","22","","24.1","","99.92","","","","-15","","Clear"
"2007-02-08 13:00","2007","02","08","13:00","-7.1","","-16.0","","49","","26","","26","","24.1","","99.84","","","","-15","","Clear"
"2007-02-08 14:00","2007","02","08","14:00","-6.1","","-15.2","","49","","27","","30","","24.1","","99.73","","","","-14","","Clear"
"2007-02-08 15:00","2007","02","08","15:00","-5.7","","-14.7","","49","","26","","28","","24.1","","99.63","","","","-14","","Clear"
"2007-02-08 16:00","2007","02","08","16:00","-6.1","","-14.4","","52","","23","","32","","24.1","","99.54","","","","-15","","Mainly Clear"
"2007-02-08 17:00","2007","02","08","17:00","-6.8","","-12.8","","62","","24","","33","","24.1","","99.53","","","","-16","","Mainly Clear"
"2007-02-08 18:00","2007","02","08","18:00","-7.6","","-12.8","","66","","24","","22","","24.1","","99.50","","","","-15","","Mainly Clear"
"2007-02-08 19:00","2007","02","08","19:00","-8.0","","-12.9","","68","","25","","24","","24.1","","99.53","","","","-16","","Clear"
"2007-02-08 20:00","2007","02","08","20:00","-8.7","","-13.8","","67","","25","","30","","24.1","","99.52","","","","-18","","Clear"
"2007-02-08 21:00","2007","02","08","21:00","-9.3","","-14.2","","67","","27","","22","","24.1","","99.56","","","","-17","","Clear"
"2007-02-08 22:00","2007","02","08","22:00","-9.3","","-13.9","","69","","27","","24","","24.1","","99.62","","","","-18","","Mostly Cloudy"
"2007-02-08 23:00","2007","02","08","23:00","-11.2","","-15.3","","72","","25","","19","","24.1","","99.64","","","","-19","","Mainly Clear"
"2007-02-09 00:00","2007","02","09","00:00","-11.9","","-15.9","","72","","25","","17","","24.1","","99.66","","","","-20","","Clear"
"2007-02-09 01:00","2007","02","09","01:00","-12.8","","-16.5","","74","","24","","13","","24.1","","99.68","","","","-20","","Clear"
"2007-02-09 02:00","2007","02","09","02:00","-12.9","","-16.2","","76","","26","","17","","24.1","","99.72","","","","-21","","Clear"
"2007-02-09 03:00","2007","02","09","03:00","-13.0","","-16.1","","78","","26","","15","","24.1","","99.76","","","","-20","","Clear"
"2007-02-09 04:00","2007","02","09","04:00","-13.1","","-15.9","","79","","27","","13","","24.1","","99.78","","","","-20","","Clear"
"2007-02-09 05:00","2007","02","09","05:00","-12.7","","-15.3","","81","","28","","13","","24.1","","99.84","","","","-20","","Clear"
"2007-02-09 06:00","2007","02","09","06:00","-12.7","","-15.3","","81","","27","","9","","24.1","","99.91","","","","-18","","Clear"
"2007-02-09 07:00","2007","02","09","07:00","-13.9","","-16.7","","79","","22","","15","","24.1","","99.97","","","","-22","","Clear"
"2007-02-09 08:00","2007","02","09","08:00","-13.6","","-16.1","","81","","26","","13","","24.1","","100.05","","","","-21","","Clear"
"2007-02-09 09:00","2007","02","09","09:00","-11.9","","-14.7","","80","","25","","11","","24.1","","100.08","","","","-18","","Clear"
"2007-02-09 10:00","2007","02","09","10:00","-9.6","","-13.6","","73","","30","","15","","24.1","","100.09","","","","-16","","Clear"
"2007-02-09 11:00","2007","02","09","11:00","-8.3","","-13.2","","68","","31","","13","","24.1","","100.06","","","","-14","","Clear"
"2007-02-09 12:00","2007","02","09","12:00","-7.0","","-12.8","","63","","32","","15","","24.1","","100.05","","","","-13","","Clear"
"2007-02-09 13:00","2007","02","09","13:00","-6.3","","-12.9","","59","","31","","7","","24.1","","100.00","","","","-10","","Clear"
"2007-02-09 14:00","2007","02","09","14:00","-5.0","","-12.4","","56","","29","","9","","24.1","","99.91","","","","-9","","Mostly Cloudy"
"2007-02-09 15:00","2007","02","09","15:00","-4.3","","-12.2","","54","","29","","11","","19.3","","99.81","","","","-9","","Cloudy"
"2007-02-09 16:00","2007","02","09","16:00","-4.2","","-12.5","","52","","24","","19","","24.1","","99.79","","","","-10","","Mostly Cloudy"
"2007-02-09 17:00","2007","02","09","17:00","-4.6","","-12.6","","54","","25","","17","","24.1","","99.79","","","","-10","","Mostly Cloudy"
"2007-02-09 18:00","2007","02","09","18:00","-5.2","","-12.9","","55","","24","","17","","24.1","","99.78","","","","-11","","Mostly Cloudy"
"2007-02-09 19:00","2007","02","09","19:00","-5.6","","-13.4","","54","","24","","17","","24.1","","99.77","","","","-12","","Mostly Cloudy"
"2007-02-09 20:00","2007","02","09","20:00","-6.5","","-12.9","","60","","23","","15","","24.1","","99.75","","","","-12","","Mostly Cloudy"
"2007-02-09 21:00","2007","02","09","21:00","-7.1","","-12.7","","64","","23","","13","","24.1","","99.69","","","","-13","","Mostly Cloudy"
"2007-02-09 22:00","2007","02","09","22:00","-7.2","","-12.4","","66","","24","","15","","24.1","","99.65","","","","-13","","Cloudy"
"2007-02-09 23:00","2007","02","09","23:00","-7.1","","-11.8","","69","","26","","26","","19.3","","99.62","","","","-15","","Cloudy"
"2007-02-10 00:00","2007","02","10","00:00","-7.7","","-12.5","","68","","26","","22","","24.1","","99.57","","","","-15","","Snow Showers"
"2007-02-10 01:00","2007","02","10","01:00","-8.6","","-13.6","","67","","27","","20","","24.1","","99.57","","","","-16","","Snow Showers"
"2007-02-10 02:00","2007","02","10","02:00","-8.7","","-13.3","","69","","27","","20","","24.1","","99.60","","","","-16","","Snow Showers"
"2007-02-10 03:00","2007","02","10","03:00","-8.8","","-12.8","","73","","27","","20","","8.0","","99.62","","","","-16","","Snow Showers"
"2007-02-10 04:00","2007","02","10","04:00","-9.1","","-12.3","","78","","27","","17","","12.9","","99.60","","","","-16","","Snow Showers"
"2007-02-10 05:00","2007","02","10","05:00","-10.1","","-13.0","","79","","28","","20","","12.9","","99.63","","","","-18","","Snow Showers"
"2007-02-10 06:00","2007","02","10","06:00","-10.7","","-13.4","","80","","25","","17","","12.9","","99.65","","","","-18","","Snow Showers"
"2007-02-10 07:00","2007","02","10","07:00","-11.4","","-14.1","","80","","23","","13","","16.1","","99.66","","","","-18","","Snow Showers"
"2007-02-10 08:00","2007","02","10","08:00","-11.8","","-14.1","","83","","23","","11","","16.1","","99.73","","","","-18","","Snow Showers"
"2007-02-10 09:00","2007","02","10","09:00","-10.7","","-13.3","","81","","22","","11","","19.3","","99.80","","","","-16","","Mainly Clear"
"2007-02-10 10:00","2007","02","10","10:00","-8.3","","-12.0","","75","","30","","20","","19.3","","99.83","","","","-16","","Mainly Clear"
"2007-02-10 11:00","2007","02","10","11:00","-7.3","","-13.3","","62","","30","","28","","19.3","","99.84","","","","-16","","Mainly Clear"
"2007-02-10 12:00","2007","02","10","12:00","-6.6","","-13.4","","58","","33","","17","","19.3","","99.87","","","","-13","","Mainly Clear"
"2007-02-10 13:00","2007","02","10","13:00","-5.3","","-12.8","","56","","30","","17","","24.1","","99.86","","","","-11","","Mainly Clear"
"2007-02-10 14:00","2007","02","10","14:00","-5.3","","-13.6","","52","","29","","20","","24.1","","99.85","","","","-12","","Mainly Clear"
"2007-02-10 15:00","2007","02","10","15:00","-4.9","","-13.6","","50","","29","","20","","24.1","","99.83","","","","-11","","Mainly Clear"
"2007-02-10 16:00","2007","02","10","16:00","-4.8","","-14.0","","49","","26","","22","","24.1","","99.87","","","","-12","","Clear"
"2007-02-10 17:00","2007","02","10","17:00","-4.9","","-14.2","","48","","28","","22","","24.1","","99.88","","","","-12","","Clear"
"2007-02-10 18:00","2007","02","10","18:00","-5.9","","-14.0","","53","","25","","20","","24.1","","99.90","","","","-13","","Clear"
"2007-02-10 19:00","2007","02","10","19:00","-6.7","","-13.9","","57","","23","","13","","24.1","","99.93","","","","-12","","Clear"
"2007-02-10 20:00","2007","02","10","20:00","-8.4","","-13.2","","68","","22","","19","","24.1","","99.94","","","","-16","","Clear"
"2007-02-10 21:00","2007","02","10","21:00","-8.6","","-12.6","","73","","23","","19","","24.1","","99.93","","","","-16","","Clear"
"2007-02-10 22:00","2007","02","10","22:00","-8.9","","-12.4","","76","","23","","19","","24.1","","99.92","","","","-16","","Mainly Clear"
"2007-02-10 23:00","2007","02","10","23:00","-9.6","","-12.8","","77","","23","","22","","24.1","","99.93","","","","-18","","Snow Showers"
"2007-02-11 00:00","2007","02","11","00:00","-10.4","","-13.8","","76","","23","","22","","24.1","","99.96","","","","-19","","Mainly Clear"
"2007-02-11 01:00","2007","02","11","01:00","-11.1","","-14.4","","77","","25","","20","","24.1","","99.94","","","","-19","","Clear"
"2007-02-11 02:00","2007","02","11","02:00","-12.1","","-15.4","","76","","24","","19","","24.1","","99.93","","","","-20","","Mainly Clear"
"2007-02-11 03:00","2007","02","11","03:00","-13.1","","-16.5","","76","","23","","19","","24.1","","99.91","","","","-22","","Mainly Clear"
"2007-02-11 04:00","2007","02","11","04:00","-13.4","","-17.0","","74","","23","","17","","24.1","","99.85","","","","-21","","Mostly Cloudy"
"2007-02-11 05:00","2007","02","11","05:00","-13.6","","-17.2","","74","","23","","17","","24.1","","99.86","","","","-22","","Cloudy"
"2007-02-11 06:00","2007","02","11","06:00","-13.6","","-17.2","","74","","22","","22","","24.1","","99.86","","","","-23","","Cloudy"
"2007-02-11 07:00","2007","02","11","07:00","-13.4","","-17.0","","74","","22","","22","","24.1","","99.84","","","","-23","","Mostly Cloudy"
"2007-02-11 08:00","2007","02","11","08:00","-13.1","","-16.5","","76","","23","","19","","12.9","","99.88","","","","-22","","Mostly Cloudy"
"2007-02-11 09:00","2007","02","11","09:00","-12.5","","-15.8","","76","","23","","22","","12.9","","99.90","","","","-21","","Mostly Cloudy"
"2007-02-11 10:00","2007","02","11","10:00","-11.3","","-15.0","","74","","24","","26","","12.9","","99.91","","","","-21","","Cloudy"
"2007-02-11 11:00","2007","02","11","11:00","-9.9","","-14.3","","70","","25","","28","","12.9","","99.87","","","","-19","","Mostly Cloudy"
"2007-02-11 12:00","2007","02","11","12:00","-8.0","","-13.0","","67","","25","","28","","12.9","","99.87","","","","-17","","Cloudy"
"2007-02-11 13:00","2007","02","11","13:00","-7.1","","-12.8","","64","","25","","22","","12.9","","99.83","","","","-15","","Cloudy"
"2007-02-11 14:00","2007","02","11","14:00","-6.1","","-12.2","","62","","24","","24","","16.1","","99.77","","","","-14","","Cloudy"
"2007-02-11 15:00","2007","02","11","15:00","-6.3","","-12.4","","62","","24","","30","","16.1","","99.77","","","","-15","","Cloudy"
"2007-02-11 16:00","2007","02","11","16:00","-5.3","","-12.1","","59","","24","","26","","19.3","","99.75","","","","-13","","Cloudy"
"2007-02-11 17:00","2007","02","11","17:00","-5.0","","-12.3","","57","","24","","26","","19.3","","99.78","","","","-12","","Cloudy"
"2007-02-11 18:00","2007","02","11","18:00","-5.2","","-11.9","","59","","24","","24","","19.3","","99.84","","","","-12","","Cloudy"
"2007-02-11 19:00","2007","02","11","19:00","-5.1","","-11.4","","61","","23","","19","","19.3","","99.89","","","","-12","","Cloudy"
"2007-02-11 20:00","2007","02","11","20:00","-5.0","","-11.2","","62","","23","","19","","19.3","","99.92","","","","-11","","Cloudy"
"2007-02-11 21:00","2007","02","11","21:00","-4.7","","-11.0","","61","","24","","19","","19.3","","99.93","","","","-11","","Cloudy"
"2007-02-11 22:00","2007","02","11","22:00","-4.4","","-11.1","","59","","24","","17","","24.1","","100.01","","","","-10","","Cloudy"
"2007-02-11 23:00","2007","02","11","23:00","-4.1","","-10.9","","59","","25","","17","","24.1","","100.00","","","","-10","","Cloudy"
"2007-02-12 00:00","2007","02","12","00:00","-4.0","","-10.5","","61","","24","","19","","24.1","","99.97","","","","-10","","Cloudy"
"2007-02-12 01:00","2007","02","12","01:00","-3.8","","-10.0","","62","","25","","24","","24.1","","100.00","","","","-11","","Cloudy"
"2007-02-12 02:00","2007","02","12","02:00","-3.6","","-9.3","","65","","25","","17","","24.1","","99.99","","","","-9","","Cloudy"
"2007-02-12 03:00","2007","02","12","03:00","-3.4","","-9.1","","65","","24","","11","","24.1","","99.98","","","","-8","","Cloudy"
"2007-02-12 04:00","2007","02","12","04:00","-3.5","","-9.1","","65","","25","","13","","24.1","","99.97","","","","-8","","Snow Showers"
"2007-02-12 05:00","2007","02","12","05:00","-4.1","","-7.9","","75","","25","","13","","8.0","","99.99","","","","-9","","Snow Showers"
"2007-02-12 06:00","2007","02","12","06:00","-4.3","","-6.8","","83","","25","","7","","4.8","","100.00","","","","-7","","Snow"
"2007-02-12 07:00","2007","02","12","07:00","-4.4","","-6.5","","85","","22","","7","","6.4","","99.98","","","","-8","","Snow"
"2007-02-12 08:00","2007","02","12","08:00","-4.5","","-6.2","","88","","23","","6","","4.0","","100.03","","","","-7","","Snow,Fog"
"2007-02-12 09:00","2007","02","12","09:00","-4.1","","-5.7","","89","","22","","6","","2.0","","100.08","","","","-7","","Snow,Fog"
"2007-02-12 10:00","2007","02","12","10:00","-3.8","","-5.5","","88","","23","","9","","1.2","","100.15","","","","-8","","Snow,Fog"
"2007-02-12 11:00","2007","02","12","11:00","-3.4","","-4.7","","91","","","","0","","1.2","","100.14","","","","","","Snow,Fog"
"2007-02-12 12:00","2007","02","12","12:00","-2.1","","-2.7","","96","","","","0","","2.0","","100.14","","","","","","Snow,Fog"
"2007-02-12 13:00","2007","02","12","13:00","-2.5","","-4.4","","87","","3","","19","","2.4","","100.10","","","","-8","","Snow,Fog"
"2007-02-12 14:00","2007","02","12","14:00","-3.3","","-5.4","","85","","5","","13","","4.8","","100.08","","","","-8","","Snow,Haze"
"2007-02-12 15:00","2007","02","12","15:00","-3.3","","-5.3","","86","","5","","17","","4.8","","100.05","","","","-9","","Snow,Fog"
"2007-02-12 16:00","2007","02","12","16:00","-3.3","","-5.6","","84","","5","","19","","9.7","","100.10","","","","-9","","Snow"
"2007-02-12 17:00","2007","02","12","17:00","-3.3","","-5.6","","84","","4","","17","","9.7","","100.15","","","","-9","","Snow"
"2007-02-12 18:00","2007","02","12","18:00","-3.4","","-6.1","","82","","7","","15","","9.7","","100.16","","","","-9","","Snow"
"2007-02-12 19:00","2007","02","12","19:00","-4.3","","-7.4","","79","","7","","19","","9.7","","100.30","","","","-10","","Snow"
"2007-02-12 20:00","2007","02","12","20:00","-5.6","","-9.1","","76","","5","","24","","9.7","","100.33","","","","-13","","Snow"
"2007-02-12 21:00","2007","02","12","21:00","-6.6","","-10.2","","76","","4","","22","","12.9","","100.38","","","","-14","","Mostly Cloudy"
"2007-02-12 22:00","2007","02","12","22:00","-7.1","","-10.9","","74","","5","","28","","19.3","","100.40","","","","-15","","Mostly Cloudy"
"2007-02-12 23:00","2007","02","12","23:00","-7.6","","-11.5","","74","","5","","24","","24.1","","100.42","","","","-16","","Mostly Cloudy"
"2007-02-13 00:00","2007","02","13","00:00","-8.5","","-13.3","","68","","5","","22","","24.1","","100.47","","","","-16","","Cloudy"
"2007-02-13 01:00","2007","02","13","01:00","-9.6","","-14.3","","69","","5","","28","","24.1","","100.45","","","","-19","","Cloudy"
"2007-02-13 02:00","2007","02","13","02:00","-10.2","","-15.0","","68","","7","","22","","24.1","","100.41","","","","-18","","Cloudy"
"2007-02-13 03:00","2007","02","13","03:00","-10.2","","-14.8","","69","","6","","37","","24.1","","100.41","","","","-21","","Cloudy"
"2007-02-13 04:00","2007","02","13","04:00","-10.6","","-15.1","","69","","5","","32","","24.1","","100.41","","","","-21","","Cloudy"
"2007-02-13 05:00","2007","02","13","05:00","-10.5","","-14.9","","70","","6","","26","","24.1","","100.45","","","","-20","","Cloudy"
"2007-02-13 06:00","2007","02","13","06:00","-11.0","","-15.6","","69","","6","","28","","24.1","","100.48","","","","-21","","Snow Showers"
"2007-02-13 07:00","2007","02","13","07:00","-11.7","","-15.7","","72","","5","","33","","24.1","","100.49","","","","-22","","Snow Showers"
"2007-02-13 08:00","2007","02","13","08:00","-11.8","","-15.7","","73","","5","","33","","24.1","","100.43","","","","-22","","Snow Showers"
"2007-02-13 09:00","2007","02","13","09:00","-11.9","","-16.0","","72","","5","","33","","24.1","","100.42","","","","-22","","Cloudy"
"2007-02-13 10:00","2007","02","13","10:00","-11.7","","-16.3","","69","","5","","33","","24.1","","100.38","","","","-22","","Cloudy"
"2007-02-13 11:00","2007","02","13","11:00","-11.5","","-16.2","","68","","6","","33","","24.1","","100.28","","","","-22","","Cloudy"
"2007-02-13 12:00","2007","02","13","12:00","-10.4","","-14.9","","70","","6","","32","","24.1","","100.23","","","","-20","","Cloudy"
"2007-02-13 13:00","2007","02","13","13:00","-9.9","","-14.5","","69","","6","","43","","24.1","","100.12","","","","-21","","Cloudy"
"2007-02-13 14:00","2007","02","13","14:00","-9.9","","-14.4","","70","","5","","35","","24.1","","99.98","","","","-20","","Cloudy"
"2007-02-13 15:00","2007","02","13","15:00","-10.3","","-14.7","","70","","4","","41","","4.0","","99.86","","","","-21","","Snow"
"2007-02-13 16:00","2007","02","13","16:00","-10.7","","-14.6","","73","","5","","43","","1.6","","99.75","","","","-22","","Snow Showers"
"2007-02-13 17:00","2007","02","13","17:00","-10.9","","-13.7","","80","","4","","37","","1.2","","99.60","","","","-22","","Snow Showers,Blowing Snow"
"2007-02-13 18:00","2007","02","13","18:00","-10.9","","-13.2","","83","","4","","48","","0.8","","99.50","","","","-23","","Snow Showers,Blowing Snow"
"2007-02-13 19:00","2007","02","13","19:00","-11.1","","-13.3","","84","","4","","41","","1.2","","99.49","","","","-22","","Snow Showers,Blowing Snow"
"2007-02-13 20:00","2007","02","13","20:00","-11.2","","-13.2","","85","","4","","50","","0.4","","99.37","","","","-23","","Heavy Snow,Blowing Snow"
"2007-02-13 21:00","2007","02","13","21:00","-11.2","","-13.2","","85","","4","","43","","0.4","","99.33","","","","-23","","Heavy Snow,Blowing Snow"
"2007-02-13 22:00","2007","02","13","22:00","-11.2","","-13.2","","85","","3","","37","","0.8","","99.32","","","","-22","","Moderate Snow,Blowing Snow"
"2007-02-13 23:00","2007","02","13","23:00","-11.4","","-13.4","","85","","3","","41","","1.2","","99.20","","","","-23","","Snow,Blowing Snow"
"2007-02-14 00:00","2007","02","14","00:00","-11.7","","-13.5","","86","","2","","41","","1.2","","99.16","","","","-23","","Snow,Blowing Snow"
"2007-02-14 01:00","2007","02","14","01:00","-11.8","","-13.7","","86","","2","","35","","1.6","","99.18","","","","-23","","Snow,Blowing Snow"
"2007-02-14 02:00","2007","02","14","02:00","-12.1","","-14.2","","84","","1","","41","","1.2","","99.12","","","","-24","","Snow,Blowing Snow"
"2007-02-14 03:00","2007","02","14","03:00","-11.9","","-14.0","","84","","2","","39","","1.6","","99.11","","","","-23","","Snow,Blowing Snow"
"2007-02-14 04:00","2007","02","14","04:00","-11.2","","-13.4","","84","","2","","33","","0.8","","99.12","","","","-22","","Moderate Snow,Blowing Snow"
"2007-02-14 05:00","2007","02","14","05:00","-11.0","","-12.9","","86","","2","","33","","1.6","","99.11","","","","-21","","Snow,Blowing Snow"
"2007-02-14 06:00","2007","02","14","06:00","-10.7","","-12.6","","86","","1","","35","","3.2","","99.18","","","","-21","","Snow"
"2007-02-14 07:00","2007","02","14","07:00","-10.3","","-12.7","","83","","1","","30","","4.0","","99.22","","","","-20","","Snow"
"2007-02-14 08:00","2007","02","14","08:00","-9.8","","-12.3","","82","","2","","28","","4.8","","99.32","","","","-19","","Snow"
"2007-02-14 09:00","2007","02","14","09:00","-9.2","","-11.9","","81","","36","","24","","8.0","","99.37","","","","-18","","Snow"
"2007-02-14 10:00","2007","02","14","10:00","-8.7","","-11.5","","80","","36","","24","","12.9","","99.39","","","","-17","","Snow"
"2007-02-14 11:00","2007","02","14","11:00","-8.1","","-11.6","","76","","35","","37","","12.9","","99.41","","","","-18","","Snow Showers"
"2007-02-14 12:00","2007","02","14","12:00","-8.3","","-12.6","","71","","34","","30","","19.3","","99.47","","","","-17","","Snow Showers"
"2007-02-14 13:00","2007","02","14","13:00","-7.9","","-12.5","","69","","36","","35","","24.1","","99.46","","","","-17","","Snow Showers"
"2007-02-14 14:00","2007","02","14","14:00","-8.0","","-13.1","","67","","33","","28","","24.1","","99.48","","","","-17","","Mainly Clear"
"2007-02-14 15:00","2007","02","14","15:00","-7.4","","-13.4","","62","","33","","30","","24.1","","99.52","","","","-16","","Mainly Clear"
"2007-02-14 16:00","2007","02","14","16:00","-8.2","","-14.1","","62","","33","","26","","24.1","","99.60","","","","-17","","Mainly Clear"
"2007-02-14 17:00","2007","02","14","17:00","-8.7","","-14.9","","61","","35","","17","","24.1","","99.65","","","","-16","","Mainly Clear"
"2007-02-14 18:00","2007","02","14","18:00","-9.7","","-16.2","","59","","33","","26","","24.1","","99.74","","","","-19","","Mainly Clear"
"2007-02-14 19:00","2007","02","14","19:00","-10.5","","-17.5","","56","","35","","9","","24.1","","99.76","","","","-15","","Mainly Clear"
"2007-02-14 20:00","2007","02","14","20:00","-10.8","","-17.6","","57","","32","","9","","24.1","","99.78","","","","-16","","Mainly Clear"
"2007-02-14 21:00","2007","02","14","21:00","-11.7","","-18.0","","59","","29","","9","","24.1","","99.76","","","","-17","","Mainly Clear"
"2007-02-14 22:00","2007","02","14","22:00","-11.7","","-18.4","","58","","31","","15","","24.1","","99.77","","","","-19","","Mainly Clear"
"2007-02-14 23:00","2007","02","14","23:00","-11.5","","-18.9","","54","","33","","17","","24.1","","99.76","","","","-19","","Clear"
"2007-02-15 00:00","2007","02","15","00:00","-12.4","","-19.4","","56","","32","","13","","24.1","","99.73","","","","-19","","Clear"
"2007-02-15 01:00","2007","02","15","01:00","-12.7","","-19.5","","57","","32","","22","","24.1","","99.75","","","","-22","","Clear"
"2007-02-15 02:00","2007","02","15","02:00","-12.9","","-19.4","","58","","32","","19","","24.1","","99.74","","","","-21","","Clear"
"2007-02-15 03:00","2007","02","15","03:00","-13.8","","-19.6","","62","","29","","17","","24.1","","99.74","","","","-22","","Clear"
"2007-02-15 04:00","2007","02","15","04:00","-14.5","","-19.5","","66","","30","","17","","24.1","","99.71","","","","-23","","Clear"
"2007-02-15 05:00","2007","02","15","05:00","-15.1","","-19.4","","70","","29","","17","","24.1","","99.71","","","","-24","","Clear"
"2007-02-15 06:00","2007","02","15","06:00","-15.0","","-19.1","","71","","29","","15","","24.1","","99.70","","","","-23","","Clear"
"2007-02-15 07:00","2007","02","15","07:00","-14.9","","-18.8","","72","","29","","15","","24.1","","99.70","","","","-23","","Clear"
"2007-02-15 08:00","2007","02","15","08:00","-14.5","","-18.0","","75","","28","","17","","24.1","","99.72","","","","-23","","Clear"
"2007-02-15 09:00","2007","02","15","09:00","-12.9","","-16.5","","74","","27","","17","","24.1","","99.73","","","","-21","","Clear"
"2007-02-15 10:00","2007","02","15","10:00","-11.2","","-15.8","","69","","29","","19","","24.1","","99.73","","","","-19","","Clear"
"2007-02-15 11:00","2007","02","15","11:00","-9.9","","-15.3","","65","","28","","22","","24.1","","99.71","","","","-18","","Mainly Clear"
"2007-02-15 12:00","2007","02","15","12:00","-8.7","","-15.1","","60","","30","","24","","24.1","","99.69","","","","-17","","Mainly Clear"
"2007-02-15 13:00","2007","02","15","13:00","-7.9","","-15.1","","56","","28","","28","","24.1","","99.61","","","","-17","","Mostly Cloudy"
"2007-02-15 14:00","2007","02","15","14:00","-7.8","","-15.9","","52","","29","","26","","24.1","","99.56","","","","-16","","Mostly Cloudy"
"2007-02-15 15:00","2007","02","15","15:00","-7.3","","-15.7","","51","","29","","26","","24.1","","99.51","","","","-15","","Mostly Cloudy"
"2007-02-15 16:00","2007","02","15","16:00","-7.2","","-15.7","","51","","30","","24","","24.1","","99.52","","","","-15","","Mostly Cloudy"
"2007-02-15 17:00","2007","02","15","17:00","-7.3","","-15.8","","51","","28","","24","","24.1","","99.48","","","","-15","","Mostly Cloudy"
"2007-02-15 18:00","2007","02","15","18:00","-7.5","","-15.8","","51","","28","","17","","24.1","","99.46","","","","-14","","Mostly Cloudy"
"2007-02-15 19:00","2007","02","15","19:00","-7.5","","-15.5","","53","","28","","30","","24.1","","99.47","","","","-16","","Mostly Cloudy"
"2007-02-15 20:00","2007","02","15","20:00","-8.0","","-13.9","","62","","27","","22","","24.1","","99.47","","","","-16","","Mostly Cloudy"
"2007-02-15 21:00","2007","02","15","21:00","-8.2","","-13.9","","63","","29","","22","","24.1","","99.45","","","","-16","","Snow"
"2007-02-15 22:00","2007","02","15","22:00","-8.9","","-15.1","","61","","29","","28","","24.1","","99.45","","","","-18","","Snow"
"2007-02-15 23:00","2007","02","15","23:00","-9.6","","-15.5","","62","","29","","22","","24.1","","99.41","","","","-18","","Mainly Clear"
"2007-02-16 00:00","2007","02","16","00:00","-9.7","","-15.2","","64","","27","","22","","24.1","","99.39","","","","-18","","Mainly Clear"
"2007-02-16 01:00","2007","02","16","01:00","-10.3","","-15.0","","68","","27","","17","","24.1","","99.38","","","","-18","","Mainly Clear"
"2007-02-16 02:00","2007","02","16","02:00","-11.0","","-14.9","","73","","25","","15","","24.1","","99.34","","","","-18","","Mainly Clear"
"2007-02-16 03:00","2007","02","16","03:00","-11.7","","-14.8","","78","","25","","17","","24.1","","99.30","","","","-19","","Mainly Clear"
"2007-02-16 04:00","2007","02","16","04:00","-12.0","","-14.6","","81","","25","","17","","24.1","","99.24","","","","-20","","Mainly Clear"
"2007-02-16 05:00","2007","02","16","05:00","-12.7","","-15.1","","82","","23","","17","","24.1","","99.24","","","","-21","","Clear"
"2007-02-16 06:00","2007","02","16","06:00","-13.7","","-16.0","","83","","24","","19","","24.1","","99.22","","","","-22","","Clear"
"2007-02-16 07:00","2007","02","16","07:00","-14.2","","-16.7","","81","","23","","17","","24.1","","99.23","","","","-22","","Clear"
"2007-02-16 08:00","2007","02","16","08:00","-13.9","","-16.2","","83","","25","","20","","19.3","","99.25","","","","-23","","Clear"
"2007-02-16 09:00","2007","02","16","09:00","-13.1","","-15.4","","83","","25","","17","","16.1","","99.27","","","","-21","","Clear"
"2007-02-16 10:00","2007","02","16","10:00","-12.0","","-14.9","","79","","24","","20","","16.1","","99.26","","","","-20","","Snow Showers"
"2007-02-16 11:00","2007","02","16","11:00","-9.9","","-14.0","","72","","25","","22","","19.3","","99.24","","","","-18","","Clear"
"2007-02-16 12:00","2007","02","16","12:00","-8.6","","-13.4","","68","","23","","28","","19.3","","99.20","","","","-17","","Clear"
"2007-02-16 13:00","2007","02","16","13:00","-8.4","","-13.7","","66","","24","","30","","19.3","","99.14","","","","-17","","Mainly Clear"
"2007-02-16 14:00","2007","02","16","14:00","-8.2","","-13.5","","66","","23","","32","","19.3","","99.07","","","","-17","","Mainly Clear"
"2007-02-16 15:00","2007","02","16","15:00","-8.8","","-14.3","","64","","23","","32","","19.3","","99.03","","","","-18","","Mostly Cloudy"
"2007-02-16 16:00","2007","02","16","16:00","-8.4","","-14.9","","59","","22","","30","","24.1","","98.99","","","","-17","","Mainly Clear"
"2007-02-16 17:00","2007","02","16","17:00","-9.2","","-16.3","","56","","23","","28","","24.1","","98.97","","","","-18","","Mainly Clear"
"2007-02-16 18:00","2007","02","16","18:00","-10.7","","-17.3","","58","","22","","26","","24.1","","98.95","","","","-20","","Mainly Clear"
"2007-02-16 19:00","2007","02","16","19:00","-12.1","","-18.0","","61","","21","","26","","24.1","","98.97","","","","-22","","Mainly Clear"
"2007-02-16 20:00","2007","02","16","20:00","-12.2","","-17.0","","67","","22","","26","","24.1","","98.94","","","","-22","","Mainly Clear"
"2007-02-16 21:00","2007","02","16","21:00","-12.5","","-17.6","","66","","23","","20","","24.1","","98.98","","","","-21","","Mainly Clear"
"2007-02-16 22:00","2007","02","16","22:00","-12.3","","-17.6","","65","","23","","22","","24.1","","98.92","","","","-21","","Mostly Cloudy"
"2007-02-16 23:00","2007","02","16","23:00","-12.4","","-17.8","","64","","23","","20","","24.1","","98.86","","","","-21","","Mainly Clear"
"2007-02-17 00:00","2007","02","17","00:00","-13.2","","-17.8","","68","","22","","11","","24.1","","98.81","","","","-19","","Mainly Clear"
"2007-02-17 01:00","2007","02","17","01:00","-13.8","","-17.5","","74","","22","","9","","24.1","","98.81","","","","-19","","Clear"
"2007-02-17 02:00","2007","02","17","02:00","-14.7","","-18.1","","75","","18","","9","","24.1","","98.77","","","","-20","","Clear"
"2007-02-17 03:00","2007","02","17","03:00","-14.4","","-17.3","","79","","18","","6","","24.1","","98.72","","","","-19","","Clear"
"2007-02-17 04:00","2007","02","17","04:00","-12.9","","-15.9","","78","","20","","9","","24.1","","98.68","","","","-18","","Mainly Clear"
"2007-02-17 05:00","2007","02","17","05:00","-11.9","","-14.9","","78","","21","","11","","24.1","","98.63","","","","-18","","Mostly Cloudy"
"2007-02-17 06:00","2007","02","17","06:00","-11.4","","-14.0","","81","","20","","7","","19.3","","98.57","","","","-16","","Mostly Cloudy"
"2007-02-17 07:00","2007","02","17","07:00","-11.2","","-14.0","","80","","21","","7","","19.3","","98.56","","","","-15","","Mostly Cloudy"
"2007-02-17 08:00","2007","02","17","08:00","-10.6","","-13.2","","81","","22","","11","","16.1","","98.57","","","","-16","","Mostly Cloudy"
"2007-02-17 09:00","2007","02","17","09:00","-9.4","","-12.3","","79","","22","","11","","16.1","","98.54","","","","-15","","Mostly Cloudy"
"2007-02-17 10:00","2007","02","17","10:00","-8.1","","-11.4","","77","","25","","17","","11.3","","98.50","","","","-15","","Cloudy"
"2007-02-17 11:00","2007","02","17","11:00","-7.2","","-10.0","","80","","26","","19","","9.7","","98.48","","","","-14","","Snow Showers,Haze"
"2007-02-17 12:00","2007","02","17","12:00","-6.0","","-9.0","","79","","28","","13","","9.7","","98.43","","","","-11","","Snow Showers,Haze"
"2007-02-17 13:00","2007","02","17","13:00","-5.4","","-8.5","","79","","26","","9","","6.4","","98.36","","","","-9","","Snow Showers,Haze"
"2007-02-17 14:00","2007","02","17","14:00","-4.7","","-7.5","","81","","24","","7","","4.0","","98.31","","","","-8","","Snow Showers,Haze"
"2007-02-17 15:00","2007","02","17","15:00","-4.3","","-7.2","","80","","24","","7","","4.0","","98.32","","","","-7","","Snow Showers,Haze"
"2007-02-17 16:00","2007","02","17","16:00","-4.0","","-6.5","","83","","27","","9","E","4.0","","98.35","","","","-8","E","Snow"
"2007-02-17 17:00","2007","02","17","17:00","-3.7","","-7.0","","78","","29","","15","","8.0","","98.40","","","","-9","","Snow"
"2007-02-17 18:00","2007","02","17","18:00","-3.7","","-7.1","","77","","31","","17","","9.7","","98.49","","","","-9","","Snow"
"2007-02-17 19:00","2007","02","17","19:00","-3.6","","-8.0","","71","","32","","9","","19.3","","98.57","","","","-7","","Snow Showers"
"2007-02-17 20:00","2007","02","17","20:00","-3.6","","-8.3","","70","","29","","17","","16.1","","98.63","","","","-9","","Snow Showers"
"2007-02-17 21:00","2007","02","17","21:00","-4.0","","-7.9","","74","","29","","17","","16.1","","98.69","","","","-10","","Snow Showers"
"2007-02-17 22:00","2007","02","17","22:00","-4.1","","-7.4","","78","","29","","17","","19.3","","98.71","","","","-10","","Cloudy"
"2007-02-17 23:00","2007","02","17","23:00","-4.3","","-7.6","","78","","31","","15","","24.1","","98.75","","","","-10","","Mostly Cloudy"
"2007-02-18 00:00","2007","02","18","00:00","-5.2","","-10.3","","67","","32","","24","","24.1","","98.82","","","","-12","","Mostly Cloudy"
"2007-02-18 01:00","2007","02","18","01:00","-6.1","","-10.9","","69","","32","","15","","24.1","","98.84","","","","-12","","Cloudy"
"2007-02-18 02:00","2007","02","18","02:00","-6.7","","-11.0","","71","","28","","13","","24.1","","98.85","","","","-12","","Mostly Cloudy"
"2007-02-18 03:00","2007","02","18","03:00","-6.8","","-11.2","","71","","29","","13","","24.1","","98.85","","","","-12","","Mostly Cloudy"
"2007-02-18 04:00","2007","02","18","04:00","-6.6","","-10.3","","75","","32","","11","","24.1","","98.86","","","","-12","","Mostly Cloudy"
"2007-02-18 05:00","2007","02","18","05:00","-6.9","","-10.3","","77","","29","","13","","9.7","","98.92","","","","-12","","Snow Showers"
"2007-02-18 06:00","2007","02","18","06:00","-7.2","","-10.0","","80","","31","","15","","8.0","","98.96","","","","-13","","Snow Showers"
"2007-02-18 07:00","2007","02","18","07:00","-7.8","","-10.5","","81","","32","","11","","24.1","","98.98","","","","-13","","Mainly Clear"
"2007-02-18 08:00","2007","02","18","08:00","-7.9","","-10.8","","80","","29","","11","","8.0","","99.07","","","","-13","","Snow Showers,Haze"
"2007-02-18 09:00","2007","02","18","09:00","-7.7","","-10.5","","80","","31","","19","","24.1","","99.15","","","","-15","","Mostly Cloudy"
"2007-02-18 10:00","2007","02","18","10:00","-6.6","","-10.2","","76","","31","","20","","24.1","","99.19","","","","-14","","Mostly Cloudy"
"2007-02-18 11:00","2007","02","18","11:00","-5.8","","-10.9","","67","","31","","22","","24.1","","99.21","","","","-13","","Snow Showers"
"2007-02-18 12:00","2007","02","18","12:00","-5.8","","-11.6","","64","","34","","19","","11.3","","99.28","","","","-12","","Snow Showers"
"2007-02-18 13:00","2007","02","18","13:00","-6.1","","-11.6","","65","","34","","24","","19.3","","99.30","","","","-14","","Mostly Cloudy"
"2007-02-18 14:00","2007","02","18","14:00","-6.2","","-13.3","","57","","1","","22","","19.3","","99.32","","","","-13","","Mostly Cloudy"
"2007-02-18 15:00","2007","02","18","15:00","-6.1","","-12.8","","59","","32","","22","","19.3","","99.39","","","","-13","","Mostly Cloudy"
"2007-02-18 16:00","2007","02","18","16:00","-5.8","","-14.3","","51","","35","","26","","24.1","","99.46","","","","-14","","Mostly Cloudy"
"2007-02-18 17:00","2007","02","18","17:00","-6.4","","-15.0","","50","","35","","20","","24.1","","99.51","","","","-13","","Mostly Cloudy"
"2007-02-18 18:00","2007","02","18","18:00","-6.2","","-15.0","","50","","33","","15","","24.1","","99.54","","","","-12","","Mostly Cloudy"
"2007-02-18 19:00","2007","02","18","19:00","-7.2","","-15.1","","53","","28","","13","","24.1","","99.65","","","","-13","","Mainly Clear"
"2007-02-18 20:00","2007","02","18","20:00","-8.0","","-14.8","","58","","24","","7","","24.1","","99.70","","","","-12","","Mainly Clear"
"2007-02-18 21:00","2007","02","18","21:00","-8.6","","-14.6","","62","","27","","7","","24.1","","99.72","","","","-12","","Mainly Clear"
"2007-02-18 22:00","2007","02","18","22:00","-11.1","","-16.1","","67","","23","","7","","24.1","","99.71","","","","-15","","Clear"
"2007-02-18 23:00","2007","02","18","23:00","-11.0","","-15.6","","69","","23","","11","","24.1","","99.76","","","","-17","","Clear"
"2007-02-19 00:00","2007","02","19","00:00","-11.7","","-15.3","","75","","24","","11","","24.1","","99.77","","","","-18","","Clear"
"2007-02-19 01:00","2007","02","19","01:00","-10.8","","-14.8","","72","","27","","9","","24.1","","99.81","","","","-16","","Clear"
"2007-02-19 02:00","2007","02","19","02:00","-10.1","","-14.2","","72","","26","","9","","24.1","","99.82","","","","-15","","Mostly Cloudy"
"2007-02-19 03:00","2007","02","19","03:00","-9.8","","-14.4","","69","","23","","7","","24.1","","99.80","","","","-14","","Mostly Cloudy"
"2007-02-19 04:00","2007","02","19","04:00","-9.9","","-14.6","","68","","23","","15","","24.1","","99.76","","","","-17","","Cloudy"
"2007-02-19 05:00","2007","02","19","05:00","-10.1","","-14.3","","71","","20","","9","","24.1","","99.68","","","","-15","","Cloudy"
"2007-02-19 06:00","2007","02","19","06:00","-9.7","","-13.9","","71","","19","","15","","24.1","","99.65","","","","-16","","Mostly Cloudy"
"2007-02-19 07:00","2007","02","19","07:00","-9.4","","-12.9","","76","","17","","11","","24.1","","99.58","","","","-15","","Cloudy"
"2007-02-19 08:00","2007","02","19","08:00","-9.0","","-12.4","","76","","16","","15","","19.3","","99.52","","","","-16","","Cloudy"
"2007-02-19 09:00","2007","02","19","09:00","-8.2","","-11.9","","75","","18","","22","","24.1","","99.37","","","","-16","","Mostly Cloudy"
"2007-02-19 10:00","2007","02","19","10:00","-6.9","","-11.6","","69","","19","","28","","24.1","","99.26","","","","-15","","Cloudy"
"2007-02-19 11:00","2007","02","19","11:00","-6.1","","-11.6","","65","","18","","28","","24.1","","99.10","","","","-14","","Mainly Clear"
"2007-02-19 12:00","2007","02","19","12:00","-5.0","","-10.8","","64","","18","","28","","24.1","","98.93","","","","-13","","Mostly Cloudy"
"2007-02-19 13:00","2007","02","19","13:00","-3.3","","-8.9","","65","","19","","32","","19.3","","98.72","","","","-11","","Mostly Cloudy"
"2007-02-19 14:00","2007","02","19","14:00","-2.1","","-7.1","","69","","20","","37","","19.3","","98.53","","","","-10","","Cloudy"
"2007-02-19 15:00","2007","02","19","15:00","-1.1","","-5.9","","70","","20","","26","","16.1","","98.37","","","","-7","","Cloudy"
"2007-02-19 16:00","2007","02","19","16:00","-0.1","","-4.8","","71","","20","","26","","16.1","","98.21","","","","-6","","Cloudy"
"2007-02-19 17:00","2007","02","19","17:00","0.9","","-3.5","","72","","20","","24","","24.1","","98.12","","","","","","Cloudy"
"2007-02-19 18:00","2007","02","19","18:00","2.3","","-2.5","","71","","20","","30","","19.3","","98.05","","","","","","Cloudy"
"2007-02-19 19:00","2007","02","19","19:00","3.9","","-1.8","","66","","22","","35","","24.1","","98.05","","","","","","Cloudy"
"2007-02-19 20:00","2007","02","19","20:00","4.0","","-2.1","","64","","22","","35","","24.1","","98.04","","","","","","Cloudy"
"2007-02-19 21:00","2007","02","19","21:00","4.4","","-2.2","","62","","22","","28","","24.1","","98.02","","","","","","Cloudy"
"2007-02-19 22:00","2007","02","19","22:00","3.8","","-2.5","","63","","22","","26","","24.1","","98.05","","","","","","Mostly Cloudy"
"2007-02-19 23:00","2007","02","19","23:00","4.0","","-2.5","","63","","22","","26","","24.1","","98.04","","","","","","Cloudy"
"2007-02-20 00:00","2007","02","20","00:00","5.0","","-2.1","","60","","24","","35","","24.1","","98.05","","","","","","Mostly Cloudy"
"2007-02-20 01:00","2007","02","20","01:00","4.5","","-2.2","","62","","24","","33","","24.1","","98.07","","","","","","Cloudy"
"2007-02-20 02:00","2007","02","20","02:00","4.2","","-2.0","","64","","23","","26","","24.1","","98.07","","","","","","Cloudy"
"2007-02-20 03:00","2007","02","20","03:00","3.9","","-1.8","","66","","23","","22","","24.1","","98.09","","","","","","Cloudy"
"2007-02-20 04:00","2007","02","20","04:00","3.7","","-1.7","","68","","24","","17","","24.1","","98.10","","","","","","Cloudy"
"2007-02-20 05:00","2007","02","20","05:00","3.7","","-1.7","","68","","23","","17","","24.1","","98.12","","","","","","Cloudy"
"2007-02-20 06:00","2007","02","20","06:00","3.1","","-1.7","","71","","22","","17","","24.1","","98.14","","","","","","Cloudy"
"2007-02-20 07:00","2007","02","20","07:00","2.5","","-1.7","","74","","23","","11","","24.1","","98.19","","","","","","Cloudy"
"2007-02-20 08:00","2007","02","20","08:00","1.7","","-2.0","","76","","22","","9","","16.1","","98.24","","","","","","Cloudy"
"2007-02-20 09:00","2007","02","20","09:00","2.6","","-1.0","","77","","22","","11","","12.9","","98.23","","","","","","Cloudy"
"2007-02-20 10:00","2007","02","20","10:00","3.9","","-0.5","","73","","24","","11","","16.1","","98.23","","","","","","Cloudy"
"2007-02-20 11:00","2007","02","20","11:00","5.0","","0.0","","70","","26","","19","","11.3","","98.22","","","","","","Cloudy"
"2007-02-20 12:00","2007","02","20","12:00","5.5","","0.2","","69","","26","","17","","11.3","","98.21","","","","","","Cloudy"
"2007-02-20 13:00","2007","02","20","13:00","5.9","","0.3","","67","","27","","17","","9.7","","98.20","","","","","","Haze"
"2007-02-20 14:00","2007","02","20","14:00","6.6","","0.7","","66","","28","","7","","9.7","","98.14","","","","","","Haze"
"2007-02-20 15:00","2007","02","20","15:00","6.5","","-0.2","","62","","29","","13","","9.7","","98.21","","","","","","Haze"
"2007-02-20 16:00","2007","02","20","16:00","6.0","","-0.5","","63","","28","","9","","9.7","","98.23","","","","","","Haze"
"2007-02-20 17:00","2007","02","20","17:00","5.6","","-0.1","","67","","3","","4","","12.9","","98.24","","","","","","Mostly Cloudy"
"2007-02-20 18:00","2007","02","20","18:00","3.2","","-1.2","","73","","4","","7","","12.9","","98.29","","","","","","Mainly Clear"
"2007-02-20 19:00","2007","02","20","19:00","2.1","","-1.6","","76","","3","","15","","9.7","","98.41","","","","","","Haze"
"2007-02-20 20:00","2007","02","20","20:00","0.1","","-2.6","","82","","5","","11","","9.7","","98.48","","","","","","Haze"
"2007-02-20 21:00","2007","02","20","21:00","-1.2","","-3.4","","85","","5","","11","","9.7","","98.54","","","","-5","","Haze"
"2007-02-20 22:00","2007","02","20","22:00","-1.9","","-3.9","","86","","5","","6","","9.7","","98.60","","","","-4","","Fog"
"2007-02-20 23:00","2007","02","20","23:00","-2.4","","-4.2","","87","","7","","4","","9.7","","98.66","","","","-4","","Fog"
"2007-02-21 00:00","2007","02","21","00:00","-1.9","","-3.7","","87","","5","","4","","11.3","","98.68","","","","-3","","Mainly Clear"
"2007-02-21 01:00","2007","02","21","01:00","-3.4","","-5.0","","89","","","","0","","11.3","","98.74","","","","","","Mostly Cloudy"
"2007-02-21 02:00","2007","02","21","02:00","-3.2","","-4.7","","89","","8","","6","","12.9","","98.72","","","","-6","","Cloudy"
"2007-02-21 03:00","2007","02","21","03:00","-3.9","","-5.5","","89","","","","0","","11.3","","98.74","","","","","","Mainly Clear"
"2007-02-21 04:00","2007","02","21","04:00","-4.5","","-6.2","","88","","19","","4","","14.5","","98.73","","","","-6","","Mainly Clear"
"2007-02-21 05:00","2007","02","21","05:00","-5.4","","-6.7","","91","","","","0","","1.2","","98.80","","","","","","Fog"
"2007-02-21 06:00","2007","02","21","06:00","-6.0","","-7.9","","86","","19","","6","","1.2","","98.87","","","","-9","","Fog"
"2007-02-21 07:00","2007","02","21","07:00","-5.5","","-7.6","","85","","21","","9","","0.4","","98.95","","","","-10","","Freezing Fog"
"2007-02-21 08:00","2007","02","21","08:00","-4.8","","-6.4","","89","","22","","7","","0.0","","99.02","","","","-8","","Freezing Fog"
"2007-02-21 09:00","2007","02","21","09:00","-4.4","","-5.6","","91","","22","","4","","0.0","","99.06","","","","-6","","Freezing Fog"
"2007-02-21 10:00","2007","02","21","10:00","-3.6","","-5.1","","89","","18","","15","","0.2","","99.04","","","","-9","","Freezing Fog"
"2007-02-21 11:00","2007","02","21","11:00","-3.3","","-4.5","","91","","20","","15","","0.2","","99.07","","","","-8","","Freezing Fog"
"2007-02-21 12:00","2007","02","21","12:00","-2.6","","-3.8","","91","","21","","13","","0.4","","99.08","","","","-7","","Freezing Fog"
"2007-02-21 13:00","2007","02","21","13:00","-1.6","","-2.5","","94","","19","","11","","0.8","","99.02","","","","-5","","Freezing Fog"
"2007-02-21 14:00","2007","02","21","14:00","-1.3","","-2.2","","94","","21","","15","","1.2","","99.00","","","","-6","","Fog"
"2007-02-21 15:00","2007","02","21","15:00","-1.1","","-1.9","","94","","21","","11","","1.6","","99.00","","","","-5","","Fog"
"2007-02-21 16:00","2007","02","21","16:00","-1.0","","-1.9","","94","","19","","15","","0.8","","98.95","","","","-6","","Freezing Fog"
"2007-02-21 17:00","2007","02","21","17:00","-0.8","","-1.8","","93","","20","","17","","0.4","","98.94","","","","-6","","Freezing Fog"
"2007-02-21 18:00","2007","02","21","18:00","-0.4","","-1.4","","93","","21","","20","","0.4","","98.96","","","","-6","","Freezing Fog"
"2007-02-21 19:00","2007","02","21","19:00","-0.2","","-1.1","","94","","21","","22","","0.2","","98.95","","","","-6","","Freezing Fog"
"2007-02-21 20:00","2007","02","21","20:00","-0.7","","-1.5","","94","","22","","15","","0.2","","98.91","","","","-5","","Freezing Fog"
"2007-02-21 21:00","2007","02","21","21:00","-0.9","","-1.6","","95","","21","","15","","0.2","","98.86","","","","-6","","Freezing Fog"
"2007-02-21 22:00","2007","02","21","22:00","-0.9","","-1.6","","95","","22","","26","","0.2","","98.83","","","","-7","","Freezing Fog"
"2007-02-21 23:00","2007","02","21","23:00","-0.7","","-1.5","","94","","23","","22","","0.0","","98.78","","","","-6","","Freezing Fog"
"2007-02-22 00:00","2007","02","22","00:00","-0.4","","-1.0","","96","","23","","22","","0.4","","98.68","","","","-6","","Freezing Fog"
"2007-02-22 01:00","2007","02","22","01:00","-0.1","","-0.7","","96","","22","","22","","0.4","","98.58","","","","-6","","Freezing Fog"
"2007-02-22 02:00","2007","02","22","02:00","-0.3","","-1.1","","94","","21","","26","","0.0","","98.46","","","","-6","","Freezing Fog"
"2007-02-22 03:00","2007","02","22","03:00","-0.2","","-0.9","","95","","21","","28","","4.0","","98.33","","","","-7","","Fog"
"2007-02-22 04:00","2007","02","22","04:00","0.2","","-0.2","","97","","21","","26","","8.0","","98.13","","","","","","Fog"
"2007-02-22 05:00","2007","02","22","05:00","0.6","","0.2","","97","","23","","22","","8.0","","98.07","","","","","","Fog"
"2007-02-22 06:00","2007","02","22","06:00","1.8","","1.4","","97","","25","","24","","6.4","","98.00","","","","","","Fog"
"2007-02-22 07:00","2007","02","22","07:00","1.7","","1.2","","96","","25","","19","","6.4","","97.98","","","","","","Fog"
"2007-02-22 08:00","2007","02","22","08:00","2.8","","2.3","","97","","26","","20","","9.7","","98.02","","","","","","Fog"
"2007-02-22 09:00","2007","02","22","09:00","3.8","","2.2","","89","","29","","39","","16.1","","98.11","","","","","","Cloudy"
"2007-02-22 10:00","2007","02","22","10:00","3.3","","-1.8","","69","","30","","39","","24.1","","98.19","","","","","","Snow Showers"
"2007-02-22 11:00","2007","02","22","11:00","2.6","","-2.6","","69","","29","","43","","24.1","","98.36","","","","","","Snow Showers"
"2007-02-22 12:00","2007","02","22","12:00","2.7","","-3.0","","66","","31","","39","","24.1","","98.48","","","","","","Cloudy"
"2007-02-22 13:00","2007","02","22","13:00","2.7","","-3.6","","63","","29","","41","","24.1","","98.53","","","","","","Cloudy"
"2007-02-22 14:00","2007","02","22","14:00","3.0","","-4.3","","59","","29","","48","","24.1","","98.58","","","","","","Cloudy"
"2007-02-22 15:00","2007","02","22","15:00","2.3","","-4.8","","59","","31","","43","","24.1","","98.69","","","","","","Mostly Cloudy"
"2007-02-22 16:00","2007","02","22","16:00","1.9","","-6.5","","54","","33","","57","","24.1","","98.87","","","","","","Mostly Cloudy"
"2007-02-22 17:00","2007","02","22","17:00","1.9","","-5.7","","57","","32","","43","","24.1","","99.05","","","","","","Mostly Cloudy"
"2007-02-22 18:00","2007","02","22","18:00"
"2007-02-22 19:00","2007","02","22","19:00","0.3","","-6.6","","60","","31","","35","","24.1","","99.39","","","","","","Mainly Clear"
"2007-02-22 20:00","2007","02","22","20:00","-0.4","","-7.7","","58","","32","","35","","24.1","","99.47","","","","-7","","Clear"
"2007-02-22 21:00","2007","02","22","21:00","-0.9","","-8.5","","56","","32","","41","","24.1","","99.59","","","","-9","","Mainly Clear"
"2007-02-22 22:00","2007","02","22","22:00","-1.9","","-9.9","","54","","34","","44","","24.1","","99.67","","","","-10","","Mainly Clear"
"2007-02-22 23:00","2007","02","22","23:00","-3.0","","-11.5","","52","","34","","41","","24.1","","99.80","","","","-11","","Mainly Clear"
"2007-02-23 00:00","2007","02","23","00:00","-4.1","","-11.8","","55","","36","","35","","24.1","","99.90","","","","-12","","Mainly Clear"
"2007-02-23 01:00","2007","02","23","01:00","-5.3","","-13.8","","51","","33","","35","","24.1","","100.04","","","","-14","","Mainly Clear"
"2007-02-23 02:00","2007","02","23","02:00","-6.1","","-14.0","","54","","34","","20","","24.1","","100.14","","","","-13","","Mainly Clear"
"2007-02-23 03:00","2007","02","23","03:00","-6.5","","-14.1","","55","","34","","17","","24.1","","100.22","","","","-13","","Clear"
"2007-02-23 04:00","2007","02","23","04:00","-7.0","","-14.2","","56","","34","","20","","24.1","","100.28","","","","-14","","Clear"
"2007-02-23 05:00","2007","02","23","05:00","-7.8","","-14.2","","60","","33","","20","","24.1","","100.35","","","","-15","","Clear"
"2007-02-23 06:00","2007","02","23","06:00","-8.3","","-14.3","","62","","33","","15","","24.1","","100.39","","","","-15","","Clear"
"2007-02-23 07:00","2007","02","23","07:00","-8.5","","-14.2","","63","","34","","15","","24.1","","100.46","","","","-15","","Mainly Clear"
"2007-02-23 08:00","2007","02","23","08:00","-8.5","","-14.0","","64","","34","","19","","24.1","","100.55","","","","-16","","Mainly Clear"
"2007-02-23 09:00","2007","02","23","09:00","-7.8","","-13.5","","64","","35","","17","","24.1","","100.63","","","","-14","","Clear"
"2007-02-23 10:00","2007","02","23","10:00","-7.0","","-12.6","","64","","3","","17","","24.1","","100.67","","","","-13","","Mainly Clear"
"2007-02-23 11:00","2007","02","23","11:00","-6.1","","-12.6","","60","","34","","17","","24.1","","100.68","","","","-12","","Clear"
"2007-02-23 12:00","2007","02","23","12:00","-5.7","","-12.8","","57","","2","","15","","24.1","","100.68","","","","-11","","Clear"
"2007-02-23 13:00","2007","02","23","13:00","-4.2","","-12.5","","52","","36","","9","","24.1","","100.60","","","","-8","","Clear"
"2007-02-23 14:00","2007","02","23","14:00","-3.9","","-12.0","","53","","4","","11","","24.1","","100.56","","","","-8","","Clear"
"2007-02-23 15:00","2007","02","23","15:00","-3.3","","-11.5","","53","","4","","13","","24.1","","100.55","","","","-8","","Mainly Clear"
"2007-02-23 16:00","2007","02","23","16:00","-3.0","","-11.1","","54","","4","","15","","24.1","","100.58","","","","-8","","Clear"
"2007-02-23 17:00","2007","02","23","17:00","-2.7","","-11.6","","50","","1","","11","","24.1","","100.57","","","","-7","","Clear"
"2007-02-23 18:00","2007","02","23","18:00","-3.8","","-11.4","","56","","5","","20","","24.1","","100.62","","","","-10","","Clear"
"2007-02-23 19:00","2007","02","23","19:00","-4.9","","-11.3","","61","","4","","19","","24.1","","100.65","","","","-11","","Clear"
"2007-02-23 20:00","2007","02","23","20:00","-5.8","","-11.4","","65","","3","","19","","24.1","","100.64","","","","-12","","Clear"
"2007-02-23 21:00","2007","02","23","21:00","-6.6","","-11.7","","67","","3","","19","","24.1","","100.67","","","","-13","","Clear"
"2007-02-23 22:00","2007","02","23","22:00","-7.5","","-12.0","","70","","3","","15","","24.1","","100.68","","","","-14","","Clear"
"2007-02-23 23:00","2007","02","23","23:00","-8.3","","-13.0","","69","","4","","13","","24.1","","100.69","","","","-14","","Clear"
"2007-02-24 00:00","2007","02","24","00:00","-8.5","","-13.2","","69","","36","","7","","24.1","","100.68","","","","-12","","Clear"
"2007-02-24 01:00","2007","02","24","01:00","-9.1","","-13.6","","70","","3","","11","","24.1","","100.66","","","","-15","","Clear"
"2007-02-24 02:00","2007","02","24","02:00","-8.5","","-12.9","","70","","33","","6","","24.1","","100.66","","","","-12","","Mostly Cloudy"
"2007-02-24 03:00","2007","02","24","03:00","-8.5","","-12.6","","72","","33","","6","","24.1","","100.63","","","","-12","","Cloudy"
"2007-02-24 04:00","2007","02","24","04:00","-7.9","","-12.0","","72","","36","","7","","24.1","","100.61","","","","-12","","Cloudy"
"2007-02-24 05:00","2007","02","24","05:00","-7.8","","-11.7","","74","","1","","9","","24.1","","100.59","","","","-12","","Cloudy"
"2007-02-24 06:00","2007","02","24","06:00","-7.4","","-11.0","","75","","34","","4","","24.1","","100.59","","","","-9","","Cloudy"
"2007-02-24 07:00","2007","02","24","07:00","-7.0","","-10.9","","74","","5","","13","","24.1","","100.63","","","","-13","","Cloudy"
"2007-02-24 08:00","2007","02","24","08:00","-7.5","","-11.1","","75","","8","","11","","24.1","","100.65","","","","-13","","Mostly Cloudy"
"2007-02-24 09:00","2007","02","24","09:00","-6.7","","-9.9","","78","","8","","11","","24.1","","100.62","","","","-12","","Mostly Cloudy"
"2007-02-24 10:00","2007","02","24","10:00","-6.3","","-10.4","","73","","7","","15","","24.1","","100.61","","","","-12","","Mostly Cloudy"
"2007-02-24 11:00","2007","02","24","11:00","-6.0","","-10.7","","69","","8","","13","","24.1","","100.57","","","","-11","","Mostly Cloudy"
"2007-02-24 12:00","2007","02","24","12:00","-5.7","","-10.6","","68","","6","","19","","24.1","","100.54","","","","-12","","Mostly Cloudy"
"2007-02-24 13:00","2007","02","24","13:00","-5.4","","-10.4","","68","","5","","17","","24.1","","100.48","","","","-11","","Mostly Cloudy"
"2007-02-24 14:00","2007","02","24","14:00","-4.6","","-9.8","","67","","5","","17","","24.1","","100.38","","","","-10","","Cloudy"
"2007-02-24 15:00","2007","02","24","15:00","-4.0","","-9.6","","65","","8","","9","","24.1","","100.26","","","","-8","","Cloudy"
"2007-02-24 16:00","2007","02","24","16:00","-3.8","","-9.3","","66","","7","","20","","24.1","","100.13","","","","-10","","Cloudy"
"2007-02-24 17:00","2007","02","24","17:00","-3.6","","-8.8","","67","","7","","26","","24.1","","100.13","","","","-11","","Cloudy"
"2007-02-24 18:00","2007","02","24","18:00","-4.3","","-9.0","","70","","9","","20","","24.1","","100.18","","","","-11","","Cloudy"
"2007-02-24 19:00","2007","02","24","19:00","-4.7","","-9.0","","72","","7","","22","","24.1","","100.13","","","","-12","","Cloudy"
"2007-02-24 20:00","2007","02","24","20:00","-5.4","","-9.4","","73","","7","","24","","24.1","","100.08","","","","-13","","Cloudy"
"2007-02-24 21:00","2007","02","24","21:00","-5.7","","-9.4","","75","","7","","24","","24.1","","99.92","","","","-13","","Cloudy"
"2007-02-24 22:00","2007","02","24","22:00","-5.4","","-8.8","","77","","8","","15","","24.1","","99.87","","","","-11","","Cloudy"
"2007-02-24 23:00","2007","02","24","23:00","-4.7","","-8.1","","77","","8","","24","","24.1","","99.79","","","","-12","","Cloudy"
"2007-02-25 00:00","2007","02","25","00:00","-4.7","","-7.9","","78","","8","","24","","24.1","","99.64","","","","-12","","Cloudy"
"2007-02-25 01:00","2007","02","25","01:00","-4.3","","-7.6","","78","","9","","24","","24.1","","99.60","","","","-11","","Cloudy"
"2007-02-25 02:00","2007","02","25","02:00","-4.2","","-7.5","","78","","8","","24","","24.1","","99.56","","","","-11","","Cloudy"
"2007-02-25 03:00","2007","02","25","03:00","-3.3","","-6.7","","77","","10","","30","","24.1","","99.34","","","","-11","","Cloudy"
"2007-02-25 04:00","2007","02","25","04:00","-3.0","","-6.7","","76","","11","","26","","16.1","","99.21","","","","-10","","Snow"
"2007-02-25 05:00","2007","02","25","05:00","-2.7","","-6.2","","77","","11","","33","","9.7","","99.01","","","","-10","","Moderate Freezing Rain,Snow,Ice Pellets"
"2007-02-25 06:00","2007","02","25","06:00","-2.4","","-5.2","","81","","9","","32","","12.9","","98.88","","","","-10","","Freezing Rain"
"2007-02-25 07:00","2007","02","25","07:00","-2.0","","-4.9","","81","","10","","28","","8.0","","98.83","","","","-9","","Freezing Rain,Haze"
"2007-02-25 08:00","2007","02","25","08:00","-1.5","","-4.4","","81","","10","","37","","19.3","","98.68","","","","-9","","Freezing Rain"
"2007-02-25 09:00","2007","02","25","09:00","-0.9","","-3.4","","83","","10","","30","","24.1","","98.57","","","","-8","","Freezing Rain"
"2007-02-25 10:00","2007","02","25","10:00","-0.3","","-2.8","","83","","10","","28","","19.3","","98.46","","","","-7","","Freezing Rain"
"2007-02-25 11:00","2007","02","25","11:00","-0.1","","-2.3","","85","","10","","28","","16.1","","98.38","","","","-6","","Freezing Rain"
"2007-02-25 12:00","2007","02","25","12:00","0.0","","-1.7","","88","","10","","19","","9.7","","98.23","","","","-5","","Rain Showers"
"2007-02-25 13:00","2007","02","25","13:00","0.1","","-1.4","","90","","10","","20","","19.3","","98.12","","","","","","Freezing Rain"
"2007-02-25 14:00","2007","02","25","14:00","0.3","","-1.2","","90","","10","","22","","24.1","","97.98","","","","","","Cloudy"
"2007-02-25 15:00","2007","02","25","15:00","0.5","","-1.0","","90","","11","","22","","19.3","","97.88","","","","","","Cloudy"
"2007-02-25 16:00","2007","02","25","16:00","0.8","","-0.7","","90","","11","","20","","16.1","","97.86","","","","","","Cloudy"
"2007-02-25 17:00","2007","02","25","17:00","0.9","","-0.6","","90","","11","","15","","16.1","","97.86","","","","","","Cloudy"
"2007-02-25 18:00","2007","02","25","18:00","0.9","","-0.2","","92","","11","","24","","16.1","","97.92","","","","","","Cloudy"
"2007-02-25 19:00","2007","02","25","19:00","0.9","","-0.2","","92","","11","","20","","16.1","","97.95","","","","","","Rain Showers"
"2007-02-25 20:00","2007","02","25","20:00","0.8","","-0.4","","92","","11","","22","","8.0","","97.93","","","","","","Drizzle,Fog"
"2007-02-25 21:00","2007","02","25","21:00","0.6","","-0.7","","91","","11","","20","","6.4","","97.92","","","","","","Drizzle,Fog"
"2007-02-25 22:00","2007","02","25","22:00","0.7","","-0.4","","92","","11","","9","","6.4","","97.93","","","","","","Drizzle,Fog"
"2007-02-25 23:00","2007","02","25","23:00","0.7","","-0.2","","94","","16","","11","","2.4","","97.97","","","","","","Rain,Drizzle,Fog"
"2007-02-26 00:00","2007","02","26","00:00","0.6","","0.1","","96","","19","","4","","2.0","","98.03","","","","","","Snow,Fog"
"2007-02-26 01:00","2007","02","26","01:00","0.9","","-0.5","","90","","24","","13","","4.0","","98.07","","","","","","Snow,Fog"
"2007-02-26 02:00","2007","02","26","02:00","1.0","","-0.1","","92","","23","","15","","4.8","","98.11","","","","","","Snow,Fog"
"2007-02-26 03:00","2007","02","26","03:00","1.2","","0.1","","92","","22","","15","","16.1","","98.12","","","","","","Cloudy"
"2007-02-26 04:00","2007","02","26","04:00","1.4","","-0.2","","89","","23","","24","","16.1","","98.12","","","","","","Cloudy"
"2007-02-26 05:00","2007","02","26","05:00","1.2","","-1.2","","84","","23","","19","","19.3","","98.22","","","","","","Cloudy"
"2007-02-26 06:00","2007","02","26","06:00","0.9","","-1.7","","83","","23","","15","","24.1","","98.21","","","","","","Cloudy"
"2007-02-26 07:00","2007","02","26","07:00","0.8","","-2.2","","80","","22","","17","","19.3","","98.24","","","","","","Cloudy"
"2007-02-26 08:00","2007","02","26","08:00","0.9","","-1.7","","83","","21","","11","","16.1","","98.31","","","","","","Snow Showers"
"2007-02-26 09:00","2007","02","26","09:00","0.9","","-1.7","","83","","20","","11","","16.1","","98.35","","","","","","Snow Showers"
"2007-02-26 10:00","2007","02","26","10:00","0.7","","-1.6","","85","","20","","11","","9.7","","98.36","","","","","","Snow Showers,Haze"
"2007-02-26 11:00","2007","02","26","11:00","0.8","","-1.5","","85","","20","","11","","6.4","","98.39","","","","","","Snow Showers,Haze"
"2007-02-26 12:00","2007","02","26","12:00","0.9","","-1.1","","86","","20","","9","","9.7","","98.42","","","","","","Snow Showers,Haze"
"2007-02-26 13:00","2007","02","26","13:00","1.1","","-1.0","","86","","22","","11","","9.7","","98.41","","","","","","Snow Showers,Haze"
"2007-02-26 14:00","2007","02","26","14:00","1.1","","-1.1","","85","","22","","13","","9.7","","98.41","","","","","","Snow Showers,Haze"
"2007-02-26 15:00","2007","02","26","15:00","1.1","","-1.1","","85","","22","","13","","9.7","","98.45","","","","","","Snow Showers,Haze"
"2007-02-26 16:00","2007","02","26","16:00","1.2","","-1.0","","85","","21","","17","","9.7","","98.49","","","","","","Snow Showers,Haze"
"2007-02-26 17:00","2007","02","26","17:00","1.1","","-1.1","","85","","21","","15","","8.0","","98.53","","","","","","Snow Showers,Haze"
"2007-02-26 18:00","2007","02","26","18:00","0.9","","-1.1","","86","","22","","17","","8.0","","98.58","","","","","","Snow Showers,Haze"
"2007-02-26 19:00","2007","02","26","19:00","0.4","","-1.5","","87","","23","","19","","8.0","","98.67","","","","","","Snow Showers"
"2007-02-26 20:00","2007","02","26","20:00","0.3","","-1.2","","90","","23","","11","","8.0","","98.71","","","","","","Snow Showers"
"2007-02-26 21:00","2007","02","26","21:00","0.2","","-1.2","","90","","24","","11","","8.0","","98.75","","","","","","Snow Showers"
"2007-02-26 22:00","2007","02","26","22:00","0.2","","-1.1","","91","","24","","9","","8.0","","98.80","","","","","","Snow Showers"
"2007-02-26 23:00","2007","02","26","23:00","0.1","","-1.1","","92","","23","","9","","8.0","","98.81","","","","","","Snow Showers"
"2007-02-27 00:00","2007","02","27","00:00","-0.1","","-1.3","","92","","23","","9","","8.0","","98.83","","","","-3","","Snow"
"2007-02-27 01:00","2007","02","27","01:00","0.0","","-1.3","","91","","25","","9","","8.0","","98.84","","","","-3","","Snow"
"2007-02-27 02:00","2007","02","27","02:00","-0.2","","-1.4","","92","","25","","7","","8.0","","98.86","","","","-3","","Snow"
"2007-02-27 03:00","2007","02","27","03:00","-0.4","","-1.4","","93","","26","","7","","8.0","","98.85","","","","-3","","Snow"
"2007-02-27 04:00","2007","02","27","04:00","-0.5","","-1.8","","91","","24","","7","","6.4","","98.89","","","","-3","","Snow"
"2007-02-27 05:00","2007","02","27","05:00","-0.6","","-1.9","","91","","25","","9","","6.4","","98.91","","","","-4","","Snow"
"2007-02-27 06:00","2007","02","27","06:00","-0.5","","-1.9","","90","","26","","11","","6.4","","98.96","","","","-4","","Snow"
"2007-02-27 07:00","2007","02","27","07:00","-0.6","","-1.9","","91","","26","","11","","4.8","","99.00","","","","-4","","Snow"
"2007-02-27 08:00","2007","02","27","08:00","-0.5","","-1.5","","93","","26","","7","","4.8","","99.06","","","","-3","","Fog"
"2007-02-27 09:00","2007","02","27","09:00","-0.1","","-1.2","","92","","27","","7","","4.8","","99.11","","","","-3","","Fog"
"2007-02-27 10:00","2007","02","27","10:00","-0.2","","-1.2","","93","","28","","9","","4.8","","99.16","","","","-3","","Fog"
"2007-02-27 11:00","2007","02","27","11:00","0.6","","-1.1","","88","","27","","11","","8.0","","99.19","","","","","","Fog"
"2007-02-27 12:00","2007","02","27","12:00","1.1","","-1.3","","84","","26","","13","","9.7","","99.23","","","","","","Haze"
"2007-02-27 13:00","2007","02","27","13:00","1.7","","-1.4","","80","","22","","13","","9.7","","99.24","","","","","","Haze"
"2007-02-27 14:00","2007","02","27","14:00","2.2","","-1.6","","76","","22","","9","","11.3","","99.28","","","","","","Cloudy"
"2007-02-27 15:00","2007","02","27","15:00","1.9","","-2.0","","75","","26","","11","","11.3","","99.31","","","","","","Cloudy"
"2007-02-27 16:00","2007","02","27","16:00","2.2","","-2.1","","73","","25","","11","","11.3","","99.37","","","","","","Cloudy"
"2007-02-27 17:00","2007","02","27","17:00","2.3","","-2.0","","73","","26","","13","","11.3","","99.43","","","","","","Cloudy"
"2007-02-27 18:00","2007","02","27","18:00","1.8","","-2.3","","74","","26","","15","","11.3","","99.51","","","","","","Cloudy"
"2007-02-27 19:00","2007","02","27","19:00","1.7","","-1.9","","77","","27","","15","","11.3","","99.56","","","","","","Cloudy"
"2007-02-27 20:00","2007","02","27","20:00","1.4","","-1.7","","80","","26","","9","","9.7","","99.57","","","","","","Haze"
"2007-02-27 21:00","2007","02","27","21:00","1.4","","-1.6","","80","","26","","13","","9.7","","99.61","","","","","","Haze"
"2007-02-27 22:00","2007","02","27","22:00","1.2","","-1.8","","80","","26","","13","","9.7","","99.63","","","","","","Haze"
"2007-02-27 23:00","2007","02","27","23:00","1.0","","-1.6","","83","","27","","11","","8.0","","99.61","","","","","","Haze"
"2007-02-28 00:00","2007","02","28","00:00","0.9","","-1.5","","84","","27","","9","","8.0","","99.61","","","","","","Haze"
"2007-02-28 01:00","2007","02","28","01:00","1.2","","-1.4","","83","","29","","11","","8.0","","99.65","","","","","","Haze"
"2007-02-28 02:00","2007","02","28","02:00","1.3","","-1.2","","83","","28","","9","","8.0","","99.68","","","","","","Haze"
"2007-02-28 03:00","2007","02","28","03:00","1.0","","-1.1","","86","","27","","9","","8.0","","99.71","","","","","","Haze"
"2007-02-28 04:00","2007","02","28","04:00","1.1","","-1.3","","84","","30","","7","","8.0","","99.73","","","","","","Haze"
"2007-02-28 05:00","2007","02","28","05:00","0.9","","-1.2","","86","","28","","11","","8.0","","99.78","","","","","","Haze"
"2007-02-28 06:00","2007","02","28","06:00","0.9","","-1.0","","87","","29","","7","","9.7","","99.83","","","","","","Fog"
"2007-02-28 07:00","2007","02","28","07:00","0.9","","-1.1","","86","","34","","4","","8.0","","99.87","","","","","","Fog"
"2007-02-28 08:00","2007","02","28","08:00","1.0","","-0.8","","88","","35","","4","","9.7","","99.92","","","","","","Fog"
"2007-02-28 09:00","2007","02","28","09:00","1.8","","-0.9","","82","","36","","6","","9.7","","99.93","","","","","","Haze"
"2007-02-28 10:00","2007","02","28","10:00","2.1","","-0.3","","84","","","","0","","8.0","","99.94","","","","","","Haze"
"2007-02-28 11:00","2007","02","28","11:00","2.4","","-0.3","","82","","14","","4","","9.7","","99.95","","","","","","Haze"
"2007-02-28 12:00","2007","02","28","12:00","2.7","","-0.2","","81","","10","","6","","9.7","","99.90","","","","","","Haze"
"2007-02-28 13:00","2007","02","28","13:00","2.7","","-0.9","","77","","6","","6","","11.3","","99.81","","","","","","Cloudy"
"2007-02-28 14:00","2007","02","28","14:00","2.4","","-1.0","","78","","12","","7","","11.3","","99.85","","","","","","Cloudy"
"2007-02-28 15:00","2007","02","28","15:00","2.6","","-0.3","","81","","7","","9","","11.3","","99.82","","","","","","Cloudy"
"2007-02-28 16:00","2007","02","28","16:00","2.3","","-0.8","","80","","7","","13","","8.0","","99.78","","","","","","Haze"
"2007-02-28 17:00","2007","02","28","17:00","1.6","","-1.1","","82","","8","","11","","9.7","","99.79","","","","","","Haze"
"2007-02-28 18:00","2007","02","28","18:00","1.1","","-1.2","","85","","8","","13","","8.0","","99.76","","","","","","Haze"
"2007-02-28 19:00","2007","02","28","19:00","0.9","","-1.4","","85","","8","","15","","8.0","","99.72","","","","","","Haze"
"2007-02-28 20:00","2007","02","28","20:00","0.7","","-1.4","","86","","9","","15","","8.0","","99.66","","","","","","Haze"
"2007-02-28 21:00","2007","02","28","21:00","0.3","","-1.5","","88","","9","","19","","6.4","","99.62","","","","","","Fog"
"2007-02-28 22:00","2007","02","28","22:00","0.5","","-1.0","","90","","8","","13","","6.4","","99.64","","","","","","Fog"
"2007-02-28 23:00","2007","02","28","23:00","0.4","","-1.1","","90","","9","","17","","6.4","","99.58","","","","","","Snow Showers,Fog"
