"Station Name","WINDSOR A"
"Province","ONTARIO"
"Latitude","42.28"
"Longitude","-82.96"
"Elevation","189.60"
"Climate Identifier","6139525"
"WMO Identifier","71538"
"TC Identifier","YQG"
"All times are specified in Local Standard Time (LST). Add 1 hour to adjust for Daylight Saving Time where and when it is observed."

"Legend"
"E","Estimated"
"M","Missing"
"NA","Not Available"

"Date/Time","Year","Month","Day","Time","Temp (°C)","Temp Flag","Dew Point Temp (°C)","Dew Point Temp Flag","Rel Hum (%)","Rel Hum Flag","Wind Dir (10s deg)","Wind Dir Flag","Wind Spd (km/h)","Wind Spd Flag","Visibility (km)","Visibility Flag","Stn Press (kPa)","Stn Press Flag","Hmdx","Hmdx Flag","Wind Chill","Wind Chill Flag","Weather"
"2014-07-01 00:00","2014","07","01","00:00","25.5","","21.2","","77","","20","","17","","24.1","","98.49","","34","","","","Cloudy"
"2014-07-01 01:00","2014","07","01","01:00","24.9","","21.1","","79","","19","","20","","24.1","","98.35","","33","","","","Cloudy"
"2014-07-01 02:00","2014","07","01","02:00","25.8","","22.4","","82","","20","","30","","24.1","","98.36","","35","","","","Cloudy"
"2014-07-01 03:00","2014","07","01","03:00","24.4","","23.3","","94","","27","","41","","16.1","","98.45","","35","","","","Thunderstorms,Rain Showers"
"2014-07-01 04:00","2014","07","01","04:00","20.9","","20.2","","96","","16","","17","","16.1","","98.05","","29","","","","Cloudy"
"2014-07-01 05:00","2014","07","01","05:00","21.7","","20.6","","93","","26","","15","","24.1","","98.00","","30","","","","Mostly Cloudy"
"2014-07-01 06:00","2014","07","01","06:00","21.2","","19.5","","90","","25","","28","","24.1","","98.23","","28","","","","Mostly Cloudy"
"2014-07-01 07:00","2014","07","01","07:00","21.5","","19.1","","86","","24","","19","","24.1","","98.32","","28","","","","Mostly Cloudy"
"2014-07-01 08:00","2014","07","01","08:00","22.4","","18.4","","78","","24","","19","","24.1","","98.40","","29","","","","Mostly Cloudy"
"2014-07-01 09:00","2014","07","01","09:00","22.0","","18.6","","81","","25","","15","","24.1","","98.50","","28","","","","Cloudy"
"2014-07-01 10:00","2014","07","01","10:00","22.6","","18.5","","78","","23","","24","","24.1","","98.49","","29","","","","Mostly Cloudy"
"2014-07-01 11:00","2014","07","01","11:00","23.9","","19.8","","78","","24","","28","","24.1","","98.51","","31","","","","Cloudy"
"2014-07-01 12:00","2014","07","01","12:00","25.5","","19.9","","71","","26","","28","","24.1","","98.51","","33","","","","Mostly Cloudy"
"2014-07-01 13:00","2014","07","01","13:00","26.6","","19.3","","64","","25","","24","","24.1","","98.53","","34","","","","Mainly Clear"
"2014-07-01 14:00","2014","07","01","14:00","27.2","","18.9","","61","","23","","28","","24.1","","98.48","","34","","","","Mainly Clear"
"2014-07-01 15:00","2014","07","01","15:00","28.2","","17.5","","52","","24","","20","","24.1","","98.41","","34","","","","Mostly Cloudy"
"2014-07-01 16:00","2014","07","01","16:00","28.9","","18.1","","52","","23","","28","","24.1","","98.40","","35","","","","Mostly Cloudy"
"2014-07-01 17:00","2014","07","01","17:00","28.3","","15.8","","47","","24","","33","","24.1","","98.41","","33","","","","Mostly Cloudy"
"2014-07-01 18:00","2014","07","01","18:00","28.5","","18.0","","53","","24","","24","","24.1","","98.43","","35","","","","Mainly Clear"
"2014-07-01 19:00","2014","07","01","19:00","28.1","","18.2","","55","","24","","24","","24.1","","98.40","","34","","","","Mainly Clear"
"2014-07-01 20:00","2014","07","01","20:00","27.2","","18.1","","58","","23","","22","","24.1","","98.44","","33","","","","Mainly Clear"
"2014-07-01 21:00","2014","07","01","21:00","26.0","","18.2","","62","","23","","19","","24.1","","98.48","","32","","","","Mainly Clear"
"2014-07-01 22:00","2014","07","01","22:00","25.2","","18.0","","64","","24","","19","","24.1","","98.49","","31","","","","Mainly Clear"
"2014-07-01 23:00","2014","07","01","23:00","24.8","","17.4","","63","","24","","15","","24.1","","98.55","","30","","","","Mostly Cloudy"
"2014-07-02 00:00","2014","07","02","00:00","24.0","","17.7","","68","","24","","13","","24.1","","98.63","","30","","","","Mainly Clear"
"2014-07-02 01:00","2014","07","02","01:00","23.1","","17.9","","73","","24","","11","","24.1","","98.64","","29","","","","Mainly Clear"
"2014-07-02 02:00","2014","07","02","02:00","23.3","","17.9","","72","","23","","13","","24.1","","98.60","","29","","","","Mainly Clear"
"2014-07-02 03:00","2014","07","02","03:00","21.7","","18.1","","80","","22","","15","","24.1","","98.57","","28","","","","Mostly Cloudy"
"2014-07-02 04:00","2014","07","02","04:00","21.8","","17.8","","78","","25","","15","","24.1","","98.59","","28","","","","Mostly Cloudy"
"2014-07-02 05:00","2014","07","02","05:00","21.3","","17.7","","80","","25","","15","","24.1","","98.62","","27","","","","Mostly Cloudy"
"2014-07-02 06:00","2014","07","02","06:00","21.2","","18.1","","82","","23","","15","","24.1","","98.69","","27","","","","Mainly Clear"
"2014-07-02 07:00","2014","07","02","07:00","22.4","","18.3","","78","","22","","20","","24.1","","98.75","","29","","","","Mainly Clear"
"2014-07-02 08:00","2014","07","02","08:00","23.4","","18.7","","75","","22","","20","","24.1","","98.78","","30","","","","Mainly Clear"
"2014-07-02 09:00","2014","07","02","09:00","24.5","","18.0","","67","","22","","20","","24.1","","98.76","","31","","","","Mainly Clear"
"2014-07-02 10:00","2014","07","02","10:00","25.7","","16.7","","58","","25","","30","","24.1","","98.78","","31","","","","Mainly Clear"
"2014-07-02 11:00","2014","07","02","11:00","26.4","","17.7","","59","","23","","28","","24.1","","98.78","","32","","","","Mainly Clear"
"2014-07-02 12:00","2014","07","02","12:00","27.1","","16.6","","53","","24","","35","","24.1","","98.78","","32","","","","Mostly Cloudy"
"2014-07-02 13:00","2014","07","02","13:00","25.2","","16.2","","57","","25","","30","","24.1","","98.81","","30","","","","Mostly Cloudy"
"2014-07-02 14:00","2014","07","02","14:00","25.6","","15.1","","52","","27","","33","","24.1","","98.83","","30","","","","Mostly Cloudy"
"2014-07-02 15:00","2014","07","02","15:00","25.3","","14.4","","51","","26","","30","","24.1","","98.88","","29","","","","Mostly Cloudy"
"2014-07-02 16:00","2014","07","02","16:00","25.4","","13.5","","48","","25","","24","","24.1","","98.90","","28","","","","Mostly Cloudy"
"2014-07-02 17:00","2014","07","02","17:00","24.9","","14.0","","51","","29","","26","","24.1","","98.93","","28","","","","Mostly Cloudy"
"2014-07-02 18:00","2014","07","02","18:00","24.5","","14.1","","52","","29","","26","","24.1","","98.97","","28","","","","Mostly Cloudy"
"2014-07-02 19:00","2014","07","02","19:00","24.1","","14.0","","53","","26","","19","","24.1","","98.99","","27","","","","Mostly Cloudy"
"2014-07-02 20:00","2014","07","02","20:00","23.0","","14.0","","57","","27","","19","","24.1","","99.02","","26","","","","Mostly Cloudy"
"2014-07-02 21:00","2014","07","02","21:00","22.5","","13.2","","56","","31","","17","","24.1","","99.09","","25","","","","Mostly Cloudy"
"2014-07-02 22:00","2014","07","02","22:00","22.1","","13.5","","58","","28","","9","","24.1","","99.14","","25","","","","Mostly Cloudy"
"2014-07-02 23:00","2014","07","02","23:00","21.5","","13.9","","62","","26","","11","","24.1","","99.16","","25","","","","Mostly Cloudy"
"2014-07-03 00:00","2014","07","03","00:00","20.6","","13.5","","64","","29","","13","","24.1","","99.14","","","","","","Mostly Cloudy"
"2014-07-03 01:00","2014","07","03","01:00","19.2","","13.5","","70","","35","","9","","24.1","","99.14","","","","","","Mainly Clear"
"2014-07-03 02:00","2014","07","03","02:00","17.9","","14.1","","78","","","","0","","24.1","","99.17","","","","","","Mainly Clear"
"2014-07-03 03:00","2014","07","03","03:00","18.4","","13.9","","75","","","","0","","24.1","","99.13","","","","","","Mainly Clear"
"2014-07-03 04:00","2014","07","03","04:00","18.6","","14.1","","75","","32","","4","","24.1","","99.09","","","","","","Mostly Cloudy"
"2014-07-03 05:00","2014","07","03","05:00","17.4","","14.5","","83","","","","0","","24.1","","99.09","","","","","","Mostly Cloudy"
"2014-07-03 06:00","2014","07","03","06:00","18.7","","14.9","","79","","","","0","","24.1","","99.12","","","","","","Mostly Cloudy"
"2014-07-03 07:00","2014","07","03","07:00","19.1","","15.3","","79","","23","","9","","24.1","","99.16","","","","","","Mostly Cloudy"
"2014-07-03 08:00","2014","07","03","08:00","19.4","","15.6","","79","","23","","19","","24.1","","99.21","","","","","","Mostly Cloudy"
"2014-07-03 09:00","2014","07","03","09:00","19.1","","15.3","","79","","24","","17","","24.1","","99.23","","","","","","Mostly Cloudy"
"2014-07-03 10:00","2014","07","03","10:00","19.6","","15.1","","75","","32","","26","","24.1","","99.27","","","","","","Cloudy"
"2014-07-03 11:00","2014","07","03","11:00","16.2","","13.7","","85","","33","","20","","24.1","","99.38","","","","","","Cloudy"
"2014-07-03 12:00","2014","07","03","12:00","16.0","","13.2","","83","","30","","19","","24.1","","99.45","","","","","","Mostly Cloudy"
"2014-07-03 13:00","2014","07","03","13:00","15.8","","12.6","","81","","31","","17","","24.1","","99.51","","","","","","Cloudy"
"2014-07-03 14:00","2014","07","03","14:00","17.0","","14.6","","86","","28","","20","","24.1","","99.51","","","","","","Mostly Cloudy"
"2014-07-03 15:00","2014","07","03","15:00","19.9","","11.3","","58","","31","","19","","24.1","","99.51","","","","","","Mostly Cloudy"
"2014-07-03 16:00","2014","07","03","16:00","21.3","","8.8","","45","","33","","19","","24.1","","99.52","","","","","","Mainly Clear"
"2014-07-03 17:00","2014","07","03","17:00","21.2","","11.5","","54","","32","","20","","24.1","","99.51","","","","","","Mostly Cloudy"
"2014-07-03 18:00","2014","07","03","18:00","20.9","","11.8","","56","","33","","17","","24.1","","99.53","","","","","","Mostly Cloudy"
"2014-07-03 19:00","2014","07","03","19:00","21.2","","12.7","","58","","36","","17","","24.1","","99.59","","","","","","Mainly Clear"
"2014-07-03 20:00","2014","07","03","20:00","19.0","","13.3","","70","","3","","15","","24.1","","99.67","","","","","","Mainly Clear"
"2014-07-03 21:00","2014","07","03","21:00","17.8","","13.5","","76","","3","","15","","24.1","","99.76","","","","","","Mainly Clear"
"2014-07-03 22:00","2014","07","03","22:00","16.9","","12.9","","77","","4","","9","","24.1","","99.78","","","","","","Mainly Clear"
"2014-07-03 23:00","2014","07","03","23:00","16.0","","13.0","","82","","6","","9","","24.1","","99.79","","","","","","Mainly Clear"
"2014-07-04 00:00","2014","07","04","00:00","15.0","","12.8","","87","","5","","7","","24.1","","99.81","","","","","","Mainly Clear"
"2014-07-04 01:00","2014","07","04","01:00","15.3","","13.2","","87","","5","","9","","24.1","","99.84","","","","","","Mainly Clear"
"2014-07-04 02:00","2014","07","04","02:00","15.4","","11.6","","78","","31","","6","","24.1","","99.87","","","","","","Mainly Clear"
"2014-07-04 03:00","2014","07","04","03:00","15.1","","12.6","","85","","2","","7","","24.1","","99.89","","","","","","Mainly Clear"
"2014-07-04 04:00","2014","07","04","04:00","14.4","","10.7","","78","","33","","7","","24.1","","99.93","","","","","","Clear"
"2014-07-04 05:00","2014","07","04","05:00","12.8","","10.2","","84","","36","","7","","24.1","","100.00","","","","","","Clear"
"2014-07-04 06:00","2014","07","04","06:00","14.1","","10.9","","81","","34","","13","","24.1","","100.10","","","","","","Clear"
"2014-07-04 07:00","2014","07","04","07:00","15.6","","9.9","","69","","35","","9","","24.1","","100.17","","","","","","Mainly Clear"
"2014-07-04 08:00","2014","07","04","08:00","16.8","","10.2","","65","","36","","9","","24.1","","100.22","","","","","","Mainly Clear"
"2014-07-04 09:00","2014","07","04","09:00","18.1","","11.0","","63","","33","","9","","24.1","","100.24","","","","","","Clear"
"2014-07-04 10:00","2014","07","04","10:00","19.4","","11.4","","60","","","","0","","24.1","","100.23","","","","","","Mainly Clear"
"2014-07-04 11:00","2014","07","04","11:00","21.0","","11.9","","56","","2","","13","","24.1","","100.23","","","","","","Mainly Clear"
"2014-07-04 12:00","2014","07","04","12:00","21.1","","11.6","","55","","6","","11","","24.1","","100.23","","","","","","Mainly Clear"
"2014-07-04 13:00","2014","07","04","13:00","21.6","","11.0","","51","","5","","13","","24.1","","100.22","","","","","","Mainly Clear"
"2014-07-04 14:00","2014","07","04","14:00","23.1","","8.7","","40","","1","","6","","24.1","","100.19","","","","","","Mainly Clear"
"2014-07-04 15:00","2014","07","04","15:00","23.2","","7.9","","37","","5","","11","","24.1","","100.16","","","","","","Mainly Clear"
"2014-07-04 16:00","2014","07","04","16:00","22.7","","9.6","","43","","36","","11","","24.1","","100.18","","","","","","Mainly Clear"
"2014-07-04 17:00","2014","07","04","17:00","23.0","","9.4","","42","","33","","15","","24.1","","100.16","","","","","","Mainly Clear"
"2014-07-04 18:00","2014","07","04","18:00","22.5","","9.0","","42","","4","","6","","24.1","","100.19","","","","","","Mainly Clear"
"2014-07-04 19:00","2014","07","04","19:00","22.2","","9.0","","43","","5","","13","","24.1","","100.22","","","","","","Mainly Clear"
"2014-07-04 20:00","2014","07","04","20:00","21.1","","9.2","","46","","11","","4","","24.1","","100.24","","","","","","Mainly Clear"
"2014-07-04 21:00","2014","07","04","21:00","18.5","","10.2","","58","","20","","4","","24.1","","100.27","","","","","","Clear"
"2014-07-04 22:00","2014","07","04","22:00","17.2","","10.1","","63","","25","","6","","24.1","","100.30","","","","","","Clear"
"2014-07-04 23:00","2014","07","04","23:00","16.5","","11.3","","71","","20","","9","","24.1","","100.30","","","","","","Clear"
"2014-07-05 00:00","2014","07","05","00:00","15.9","","9.9","","68","","20","","7","","24.1","","100.29","","","","","","Clear"
"2014-07-05 01:00","2014","07","05","01:00","16.7","","9.5","","62","","22","","7","","24.1","","100.26","","","","","","Clear"
"2014-07-05 02:00","2014","07","05","02:00","15.1","","9.3","","68","","24","","4","","24.1","","100.25","","","","","","Clear"
"2014-07-05 03:00","2014","07","05","03:00","16.0","","11.2","","73","","25","","7","","19.3","","100.26","","","","","","Clear"
"2014-07-05 04:00","2014","07","05","04:00","16.2","","9.4","","64","","26","","9","","19.3","","100.25","","","","","","Clear"
"2014-07-05 05:00","2014","07","05","05:00","13.2","","10.2","","82","","28","","6","","16.1","","100.27","","","","","","Clear"
"2014-07-05 06:00","2014","07","05","06:00","14.5","","10.5","","77","","25","","7","","12.9","","100.29","","","","","","Mainly Clear"
"2014-07-05 07:00","2014","07","05","07:00","17.8","","10.8","","64","","23","","9","","24.1","","100.32","","","","","","Mostly Cloudy"
"2014-07-05 08:00","2014","07","05","08:00","19.9","","10.2","","54","","25","","13","","24.1","","100.32","","","","","","Mostly Cloudy"
"2014-07-05 09:00","2014","07","05","09:00","21.5","","10.0","","48","","26","","17","","24.1","","100.32","","","","","","Mostly Cloudy"
"2014-07-05 10:00","2014","07","05","10:00","23.0","","9.6","","43","","25","","19","","24.1","","100.33","","","","","","Mostly Cloudy"
"2014-07-05 11:00","2014","07","05","11:00","24.0","","9.2","","39","","26","","17","","24.1","","100.26","","25","","","","Mostly Cloudy"
"2014-07-05 12:00","2014","07","05","12:00","24.8","","9.8","","39","","24","","20","","24.1","","100.24","","26","","","","Mostly Cloudy"
"2014-07-05 13:00","2014","07","05","13:00","24.5","","10.9","","42","","22","","17","","24.1","","100.14","","26","","","","Mostly Cloudy"
"2014-07-05 14:00","2014","07","05","14:00","24.8","","9.7","","38","","19","","20","","24.1","","100.08","","26","","","","Mostly Cloudy"
"2014-07-05 15:00","2014","07","05","15:00","24.4","","9.9","","40","","19","","26","","24.1","","100.01","","26","","","","Mostly Cloudy"
"2014-07-05 16:00","2014","07","05","16:00","24.3","","10.2","","41","","21","","26","","24.1","","99.94","","26","","","","Mostly Cloudy"
"2014-07-05 17:00","2014","07","05","17:00","25.1","","11.0","","41","","21","","19","","24.1","","99.86","","27","","","","Mostly Cloudy"
"2014-07-05 18:00","2014","07","05","18:00","24.3","","9.5","","39","","20","","24","","24.1","","99.83","","25","","","","Mostly Cloudy"
"2014-07-05 19:00","2014","07","05","19:00","24.3","","9.5","","39","","20","","24","","24.1","","99.81","","25","","","","Mostly Cloudy"
"2014-07-05 20:00","2014","07","05","20:00","23.0","","10.4","","45","","24","","13","","24.1","","99.77","","","","","","Mostly Cloudy"
"2014-07-05 21:00","2014","07","05","21:00","21.1","","11.0","","52","","20","","9","","24.1","","99.74","","","","","","Mainly Clear"
"2014-07-05 22:00","2014","07","05","22:00","20.0","","11.5","","58","","18","","6","","24.1","","99.71","","","","","","Mainly Clear"
"2014-07-05 23:00","2014","07","05","23:00","19.5","","13.4","","68","","19","","9","","24.1","","99.66","","","","","","Mainly Clear"
"2014-07-06 00:00","2014","07","06","00:00","19.1","","13.6","","70","","19","","9","","24.1","","99.60","","","","","","Mainly Clear"
"2014-07-06 01:00","2014","07","06","01:00","19.1","","13.8","","71","","19","","11","","24.1","","99.57","","","","","","Mainly Clear"
"2014-07-06 02:00","2014","07","06","02:00","19.1","","13.7","","71","","20","","9","","24.1","","99.55","","","","","","Clear"
"2014-07-06 03:00","2014","07","06","03:00","18.8","","13.7","","72","","20","","7","","24.1","","99.52","","","","","","Mainly Clear"
"2014-07-06 04:00","2014","07","06","04:00","18.8","","12.0","","65","","20","","13","","24.1","","99.46","","","","","","Mainly Clear"
"2014-07-06 05:00","2014","07","06","05:00","18.5","","12.2","","67","","21","","11","","24.1","","99.59","","","","","","Mainly Clear"
"2014-07-06 06:00","2014","07","06","06:00","18.9","","13.0","","69","","23","","6","","24.1","","99.40","","","","","","Mainly Clear"
"2014-07-06 07:00","2014","07","06","07:00","20.4","","13.5","","65","","21","","17","","24.1","","99.38","","","","","","Mostly Cloudy"
"2014-07-06 08:00","2014","07","06","08:00","21.5","","15.4","","68","","22","","15","","24.1","","99.38","","26","","","","Mostly Cloudy"
"2014-07-06 09:00","2014","07","06","09:00","23.3","","13.7","","55","","22","","22","","24.1","","99.32","","26","","","","Mainly Clear"
"2014-07-06 10:00","2014","07","06","10:00","24.4","","14.3","","53","","21","","19","","24.1","","99.22","","28","","","","Mainly Clear"
"2014-07-06 11:00","2014","07","06","11:00","25.3","","15.3","","54","","22","","30","","24.1","","99.19","","29","","","","Mainly Clear"
"2014-07-06 12:00","2014","07","06","12:00","25.8","","15.5","","53","","21","","35","","24.1","","99.16","","30","","","","Mainly Clear"
"2014-07-06 13:00","2014","07","06","13:00","26.0","","14.7","","50","","18","","28","","24.1","","99.08","","30","","","","Mainly Clear"
"2014-07-06 14:00","2014","07","06","14:00","26.4","","15.3","","50","","21","","28","","24.1","","99.01","","31","","","","Mostly Cloudy"
"2014-07-06 15:00","2014","07","06","15:00","26.3","","16.1","","53","","21","","26","","24.1","","98.98","","31","","","","Cloudy"
"2014-07-06 16:00","2014","07","06","16:00","26.3","","16.6","","55","","23","","24","","24.1","","98.90","","31","","","","Mostly Cloudy"
"2014-07-06 17:00","2014","07","06","17:00","26.1","","17.3","","58","","21","","26","","24.1","","98.80","","32","","","","Mostly Cloudy"
"2014-07-06 18:00","2014","07","06","18:00","26.4","","18.0","","60","","22","","26","","19.3","","98.73","","32","","","","Mostly Cloudy"
"2014-07-06 19:00","2014","07","06","19:00","25.7","","18.1","","63","","22","","26","","19.3","","98.75","","32","","","","Mostly Cloudy"
"2014-07-06 20:00","2014","07","06","20:00","25.4","","18.1","","64","","23","","24","","19.3","","98.73","","31","","","","Mostly Cloudy"
"2014-07-06 21:00","2014","07","06","21:00","24.8","","18.5","","68","","21","","26","","19.3","","98.68","","31","","","","Mostly Cloudy"
"2014-07-06 22:00","2014","07","06","22:00","24.9","","19.0","","70","","21","","26","","19.3","","98.65","","32","","","","Mostly Cloudy"
"2014-07-06 23:00","2014","07","06","23:00","24.0","","19.6","","76","","20","","26","","19.3","","98.55","","31","","","","Cloudy"
"2014-07-07 00:00","2014","07","07","00:00","24.7","","19.9","","75","","21","","24","","19.3","","98.53","","32","","","","Cloudy"
"2014-07-07 01:00","2014","07","07","01:00","21.8","","19.4","","86","","22","","28","","19.3","","98.41","","29","","","","Cloudy"
"2014-07-07 02:00","2014","07","07","02:00","24.9","","19.3","","71","","23","","37","","19.3","","98.35","","32","","","","Cloudy"
"2014-07-07 03:00","2014","07","07","03:00","24.4","","18.9","","71","","23","","28","","19.3","","98.34","","31","","","","Cloudy"
"2014-07-07 04:00","2014","07","07","04:00","24.2","","18.7","","71","","24","","26","","16.1","","98.33","","31","","","","Cloudy"
"2014-07-07 05:00","2014","07","07","05:00","23.7","","19.5","","77","","24","","22","","12.9","","98.33","","31","","","","Rain Showers"
"2014-07-07 06:00","2014","07","07","06:00","22.5","","20.0","","86","","24","","15","","9.7","","98.26","","30","","","","Rain Showers,Fog"
"2014-07-07 07:00","2014","07","07","07:00","22.6","","20.3","","87","","24","","30","","16.1","","98.31","","30","","","","Rain Showers"
"2014-07-07 08:00","2014","07","07","08:00","22.1","","20.8","","92","","26","","24","","12.9","","98.32","","30","","","","Rain Showers"
"2014-07-07 09:00","2014","07","07","09:00","22.1","","20.7","","92","","24","","26","","19.3","","98.28","","30","","","","Mostly Cloudy"
"2014-07-07 10:00","2014","07","07","10:00","25.8","","21.7","","78","","24","","33","","24.1","","98.28","","35","","","","Mostly Cloudy"
"2014-07-07 11:00","2014","07","07","11:00","26.6","","21.5","","74","","25","","30","","24.1","","98.30","","35","","","","Mostly Cloudy"
"2014-07-07 12:00","2014","07","07","12:00","28.8","","20.8","","62","","26","","26","","24.1","","98.30","","37","","","","Mostly Cloudy"
"2014-07-07 13:00","2014","07","07","13:00","29.3","","20.8","","60","","24","","28","","24.1","","98.26","","38","","","","Mostly Cloudy"
"2014-07-07 14:00","2014","07","07","14:00","24.3","","20.9","","81","","27","","13","","24.1","","98.25","","33","","","","Mostly Cloudy"
"2014-07-07 15:00","2014","07","07","15:00","28.0","","21.7","","69","","29","","17","","24.1","","98.26","","37","","","","Mostly Cloudy"
"2014-07-07 16:00","2014","07","07","16:00","26.4","","21.2","","73","","27","","26","","24.1","","98.28","","35","","","","Mainly Clear"
"2014-07-07 17:00","2014","07","07","17:00","29.0","","21.3","","63","","27","","22","","24.1","","98.23","","38","","","","Mainly Clear"
"2014-07-07 18:00","2014","07","07","18:00","29.2","","21.3","","62","","28","","24","","24.1","","98.23","","38","","","","Mainly Clear"
"2014-07-07 19:00","2014","07","07","19:00","28.4","","16.3","","48","","28","","24","","19.3","","98.32","","33","","","","Mostly Cloudy"
"2014-07-07 20:00","2014","07","07","20:00","26.7","","16.1","","52","","27","","13","","19.3","","98.40","","31","","","","Mostly Cloudy"
"2014-07-07 21:00","2014","07","07","21:00","25.4","","15.6","","55","","25","","13","","24.1","","98.48","","30","","","","Mainly Clear"
"2014-07-07 22:00","2014","07","07","22:00","24.1","","15.6","","59","","25","","9","","24.1","","98.48","","28","","","","Mainly Clear"
"2014-07-07 23:00","2014","07","07","23:00","23.3","","14.6","","58","","25","","11","","24.1","","98.49","","27","","","","Mainly Clear"
"2014-07-08 00:00","2014","07","08","00:00","21.7","","16.8","","74","","28","","11","","24.1","","98.42","","27","","","","Mainly Clear"
"2014-07-08 01:00","2014","07","08","01:00","20.9","","17.3","","80","","22","","11","","24.1","","98.33","","26","","","","Mainly Clear"
"2014-07-08 02:00","2014","07","08","02:00","20.1","","18.1","","88","","20","","11","","24.1","","98.18","","26","","","","Clear"
"2014-07-08 03:00","2014","07","08","03:00","20.3","","18.7","","91","","22","","13","","24.1","","98.24","","27","","","","Mainly Clear"
"2014-07-08 04:00","2014","07","08","04:00","20.8","","19.0","","89","","22","","19","","24.1","","98.23","","28","","","","Mostly Cloudy"
"2014-07-08 05:00","2014","07","08","05:00","21.2","","19.9","","92","","20","","11","","9.7","","98.21","","29","","","","Fog"
"2014-07-08 06:00","2014","07","08","06:00","21.4","","20.0","","92","","20","","17","","9.7","","98.12","","29","","","","Fog"
"2014-07-08 07:00","2014","07","08","07:00","22.3","","20.9","","92","","20","","17","","9.7","","98.10","","31","","","","Fog"
"2014-07-08 08:00","2014","07","08","08:00","22.6","","21.1","","91","","21","","28","","9.7","","98.10","","31","","","","Fog"
"2014-07-08 09:00","2014","07","08","09:00","23.0","","21.3","","90","","22","","19","","8.0","","98.03","","32","","","","Fog"
"2014-07-08 10:00","2014","07","08","10:00","22.6","","22.1","","97","","21","","24","","2.0","","97.89","","32","","","","Moderate Rain Showers,Fog"
"2014-07-08 11:00","2014","07","08","11:00","20.6","","19.6","","94","","26","","28","","8.0","","97.98","","28","","","","Rain Showers,Fog"
"2014-07-08 12:00","2014","07","08","12:00","21.5","","20.6","","95","","23","","11","","24.1","","97.93","","30","","","","Rain Showers"
"2014-07-08 13:00","2014","07","08","13:00","24.7","","20.8","","79","","26","","28","","24.1","","97.97","","33","","","","Mostly Cloudy"
"2014-07-08 14:00","2014","07","08","14:00","26.0","","19.0","","65","","25","","33","","24.1","","97.94","","33","","","","Mostly Cloudy"
"2014-07-08 15:00","2014","07","08","15:00","25.4","","17.3","","61","","29","","39","","24.1","","98.02","","31","","","","Mostly Cloudy"
"2014-07-08 16:00","2014","07","08","16:00","26.1","","15.8","","53","","28","","32","","24.1","","98.09","","31","","","","Mainly Clear"
"2014-07-08 17:00","2014","07","08","17:00","25.7","","14.8","","51","","27","","46","","24.1","","98.19","","30","","","","Mainly Clear"
"2014-07-08 18:00","2014","07","08","18:00","25.2","","13.9","","50","","28","","39","","24.1","","98.28","","29","","","","Mainly Clear"
"2014-07-08 19:00","2014","07","08","19:00","24.8","","14.1","","51","","28","","35","","24.1","","98.34","","28","","","","Mainly Clear"
"2014-07-08 20:00","2014","07","08","20:00","23.4","","14.4","","57","","28","","24","","24.1","","98.40","","27","","","","Mainly Clear"
"2014-07-08 21:00","2014","07","08","21:00","22.8","","14.8","","61","","25","","13","","24.1","","98.47","","27","","","","Mainly Clear"
"2014-07-08 22:00","2014","07","08","22:00","22.3","","15.4","","65","","25","","19","","24.1","","98.52","","27","","","","Mostly Cloudy"
"2014-07-08 23:00","2014","07","08","23:00","21.5","","16.0","","71","","25","","11","","24.1","","98.53","","26","","","","Mainly Clear"
"2014-07-09 00:00","2014","07","09","00:00","20.9","","15.8","","73","","25","","13","","24.1","","98.55","","25","","","","Clear"
"2014-07-09 01:00","2014","07","09","01:00","20.2","","15.6","","75","","28","","13","","24.1","","98.59","","25","","","","Clear"
"2014-07-09 02:00","2014","07","09","02:00","20.1","","15.0","","72","","29","","20","","24.1","","98.61","","","","","","Mainly Clear"
"2014-07-09 03:00","2014","07","09","03:00","19.1","","15.2","","78","","30","","11","","24.1","","98.62","","","","","","Mainly Clear"
"2014-07-09 04:00","2014","07","09","04:00","17.7","","15.5","","87","","23","","11","","24.1","","98.66","","","","","","Mainly Clear"
"2014-07-09 05:00","2014","07","09","05:00","17.4","","15.8","","90","","25","","7","","24.1","","98.69","","","","","","Mainly Clear"
"2014-07-09 06:00","2014","07","09","06:00","17.5","","16.0","","91","","26","","7","","24.1","","98.74","","","","","","Mainly Clear"
"2014-07-09 07:00","2014","07","09","07:00","18.9","","16.1","","84","","31","","7","","24.1","","98.80","","","","","","Mainly Clear"
"2014-07-09 08:00","2014","07","09","08:00","19.9","","15.7","","77","","27","","13","","24.1","","98.86","","","","","","Mostly Cloudy"
"2014-07-09 09:00","2014","07","09","09:00","21.2","","15.3","","69","","28","","19","","24.1","","98.89","","25","","","","Mostly Cloudy"
"2014-07-09 10:00","2014","07","09","10:00","21.2","","14.5","","66","","36","","19","E","24.1","","98.94","","25","","","","Mostly Cloudy"
"2014-07-09 11:00","2014","07","09","11:00","21.2","","13.9","","63","","32","","24","E","24.1","","98.99","","25","","","","Mostly Cloudy"
"2014-07-09 12:00","2014","07","09","12:00","22.2","","13.7","","59","","36","","15","E","24.1","","99.03","","25","","","","Mostly Cloudy"
"2014-07-09 13:00","2014","07","09","13:00","22.7","","15.5","","64","","18","","13","","24.1","","99.02","","27","","","","Mostly Cloudy"
"2014-07-09 14:00","2014","07","09","14:00","23.2","","15.0","","60","","6","","13","","24.1","","99.03","","27","","","","Mostly Cloudy"
"2014-07-09 15:00","2014","07","09","15:00","22.1","","14.6","","62","","8","","17","","24.1","","99.06","","26","","","","Mostly Cloudy"
"2014-07-09 16:00","2014","07","09","16:00","22.7","","14.9","","61","","7","","17","","24.1","","99.09","","27","","","","Mostly Cloudy"
"2014-07-09 17:00","2014","07","09","17:00","21.7","","13.9","","61","","9","","13","","24.1","","99.11","","25","","","","Mostly Cloudy"
"2014-07-09 18:00","2014","07","09","18:00","21.3","","14.0","","63","","7","","11","","24.1","","99.14","","25","","","","Mostly Cloudy"
"2014-07-09 19:00","2014","07","09","19:00","20.8","","14.3","","66","","6","","11","","24.1","","99.18","","","","","","Mostly Cloudy"
"2014-07-09 20:00","2014","07","09","20:00","19.9","","14.6","","72","","9","","7","","24.1","","99.22","","","","","","Mainly Clear"
"2014-07-09 21:00","2014","07","09","21:00","19.3","","14.7","","75","","10","","6","","24.1","","99.30","","","","","","Mainly Clear"
"2014-07-09 22:00","2014","07","09","22:00","18.3","","13.9","","76","","","","0","","24.1","","99.39","","","","","","Mainly Clear"
"2014-07-09 23:00","2014","07","09","23:00","18.0","","14.6","","81","","17","","6","","24.1","","99.43","","","","","","Mostly Cloudy"
"2014-07-10 00:00","2014","07","10","00:00","18.5","","14.4","","77","","2","","4","","24.1","","99.45","","","","","","Mainly Clear"
"2014-07-10 01:00","2014","07","10","01:00","17.8","","15.9","","89","","","","0","","24.1","","99.48","","","","","","Mostly Cloudy"
"2014-07-10 02:00","2014","07","10","02:00","17.1","","14.6","","85","","","","0","","24.1","","99.49","","","","","","Mainly Clear"
"2014-07-10 03:00","2014","07","10","03:00","15.9","","14.0","","88","","","","0","","24.1","","99.51","","","","","","Mainly Clear"
"2014-07-10 04:00","2014","07","10","04:00","15.8","","14.4","","91","","","","0","","24.1","","99.52","","","","","","Mainly Clear"
"2014-07-10 05:00","2014","07","10","05:00","15.4","","14.2","","93","","33","","4","","24.1","","99.57","","","","","","Mainly Clear"
"2014-07-10 06:00","2014","07","10","06:00","15.6","","14.1","","91","","3","","4","","24.1","","99.63","","","","","","Mainly Clear"
"2014-07-10 07:00","2014","07","10","07:00","18.6","","16.0","","85","","36","","9","","24.1","","99.70","","","","","","Mainly Clear"
"2014-07-10 08:00","2014","07","10","08:00","20.7","","16.9","","79","","5","","9","","24.1","","99.75","","26","","","","Mainly Clear"
"2014-07-10 09:00","2014","07","10","09:00","21.6","","15.5","","68","","5","","15","","24.1","","99.78","","26","","","","Mostly Cloudy"
"2014-07-10 10:00","2014","07","10","10:00","22.3","","14.1","","60","","4","","13","","24.1","","99.83","","26","","","","Mainly Clear"
"2014-07-10 11:00","2014","07","10","11:00","23.0","","15.3","","62","","4","","13","","24.1","","99.83","","27","","","","Mostly Cloudy"
"2014-07-10 12:00","2014","07","10","12:00","22.8","","16.5","","68","","10","","20","","24.1","","99.85","","28","","","","Mostly Cloudy"
"2014-07-10 13:00","2014","07","10","13:00","23.7","","13.5","","53","","12","","13","","24.1","","99.86","","27","","","","Mostly Cloudy"
"2014-07-10 14:00","2014","07","10","14:00","22.7","","12.5","","53","","3","","6","","24.1","","99.85","","25","","","","Mostly Cloudy"
"2014-07-10 15:00","2014","07","10","15:00","23.2","","12.7","","52","","21","","4","","24.1","","99.82","","26","","","","Mostly Cloudy"
"2014-07-10 16:00","2014","07","10","16:00","23.5","","13.3","","53","","","","0","","24.1","","99.80","","26","","","","Mainly Clear"
"2014-07-10 17:00","2014","07","10","17:00","24.1","","13.0","","50","","1","","9","","24.1","","99.76","","27","","","","Mainly Clear"
"2014-07-10 18:00","2014","07","10","18:00","23.2","","14.6","","58","","5","","13","","24.1","","99.75","","27","","","","Mainly Clear"
"2014-07-10 19:00","2014","07","10","19:00","21.4","","15.0","","67","","6","","13","","24.1","","99.80","","25","","","","Mainly Clear"
"2014-07-10 20:00","2014","07","10","20:00","20.4","","15.4","","73","","7","","9","","24.1","","99.84","","25","","","","Mainly Clear"
"2014-07-10 21:00","2014","07","10","21:00","19.8","","15.6","","77","","12","","9","","24.1","","99.89","","","","","","Mainly Clear"
"2014-07-10 22:00","2014","07","10","22:00","17.6","","14.7","","83","","6","","7","","24.1","","99.95","","","","","","Mainly Clear"
"2014-07-10 23:00","2014","07","10","23:00","17.8","","15.8","","88","","4","","13","","24.1","","99.97","","","","","","Mainly Clear"
"2014-07-11 00:00","2014","07","11","00:00","17.0","","15.4","","90","","4","","11","","24.1","","100.01","","","","","","Clear"
"2014-07-11 01:00","2014","07","11","01:00","17.0","","15.1","","89","","2","","9","","24.1","","100.02","","","","","","Clear"
"2014-07-11 02:00","2014","07","11","02:00","16.5","","14.8","","90","","2","","9","","24.1","","100.03","","","","","","Clear"
"2014-07-11 03:00","2014","07","11","03:00","16.4","","14.7","","90","","4","","6","","24.1","","100.00","","","","","","Clear"
"2014-07-11 04:00","2014","07","11","04:00","16.0","","14.4","","90","","3","","4","","24.1","","100.05","","","","","","Clear"
"2014-07-11 05:00","2014","07","11","05:00","15.4","","14.2","","93","","35","","6","","24.1","","100.06","","","","","","Clear"
"2014-07-11 06:00","2014","07","11","06:00","15.8","","14.4","","91","","35","","6","","24.1","","100.10","","","","","","Clear"
"2014-07-11 07:00","2014","07","11","07:00","18.8","","16.1","","84","","7","","4","","24.1","","100.11","","","","","","Clear"
"2014-07-11 08:00","2014","07","11","08:00","20.8","","16.7","","77","","7","","6","","24.1","","100.15","","26","","","","Clear"
"2014-07-11 09:00","2014","07","11","09:00","22.1","","15.4","","66","","9","","7","","24.1","","100.12","","26","","","","Clear"
"2014-07-11 10:00","2014","07","11","10:00","22.6","","15.7","","65","","9","","7","","24.1","","100.15","","27","","","","Mainly Clear"
"2014-07-11 11:00","2014","07","11","11:00","23.6","","14.1","","55","","11","","9","","24.1","","100.17","","27","","","","Mainly Clear"
"2014-07-11 12:00","2014","07","11","12:00","24.1","","14.3","","54","","9","","13","","24.1","","100.09","","28","","","","Mostly Cloudy"
"2014-07-11 13:00","2014","07","11","13:00","25.0","","15.8","","57","","5","","9","","24.1","","100.05","","29","","","","Mostly Cloudy"
"2014-07-11 14:00","2014","07","11","14:00","24.6","","13.3","","49","","21","","7","","24.1","","100.03","","28","","","","Cloudy"
"2014-07-11 15:00","2014","07","11","15:00","24.7","","14.3","","52","","24","","4","","24.1","","99.99","","28","","","","Mostly Cloudy"
"2014-07-11 16:00","2014","07","11","16:00","25.8","","13.9","","48","","18","","9","","24.1","","99.94","","29","","","","Mostly Cloudy"
"2014-07-11 17:00","2014","07","11","17:00","25.5","","12.1","","43","","16","","15","","24.1","","99.88","","28","","","","Mostly Cloudy"
"2014-07-11 18:00","2014","07","11","18:00","24.9","","12.8","","47","","16","","15","","24.1","","99.88","","28","","","","Mostly Cloudy"
"2014-07-11 19:00","2014","07","11","19:00","23.3","","13.2","","53","","15","","11","","24.1","","99.86","","26","","","","Mostly Cloudy"
"2014-07-11 20:00","2014","07","11","20:00","22.0","","14.6","","63","","13","","6","","24.1","","99.90","","26","","","","Mostly Cloudy"
"2014-07-11 21:00","2014","07","11","21:00","21.0","","14.7","","67","","13","","6","","24.1","","99.90","","25","","","","Mostly Cloudy"
"2014-07-11 22:00","2014","07","11","22:00","19.5","","14.5","","73","","15","","9","","24.1","","99.91","","","","","","Mainly Clear"
"2014-07-11 23:00","2014","07","11","23:00","18.6","","14.6","","78","","14","","4","","24.1","","99.95","","","","","","Mainly Clear"
"2014-07-12 00:00","2014","07","12","00:00","18.3","","15.6","","84","","13","","4","","24.1","","99.94","","","","","","Mainly Clear"
"2014-07-12 01:00","2014","07","12","01:00","18.1","","15.5","","85","","18","","4","","24.1","","99.91","","","","","","Mainly Clear"
"2014-07-12 02:00","2014","07","12","02:00","17.5","","15.8","","90","","17","","6","","24.1","","99.86","","","","","","Mainly Clear"
"2014-07-12 03:00","2014","07","12","03:00","19.0","","16.5","","85","","18","","7","","24.1","","99.81","","","","","","Mainly Clear"
"2014-07-12 04:00","2014","07","12","04:00","18.4","","16.8","","90","","15","","4","","24.1","","99.82","","","","","","Mostly Cloudy"
"2014-07-12 05:00","2014","07","12","05:00","18.2","","17.1","","93","","16","","4","","19.3","","99.80","","","","","","Mostly Cloudy"
"2014-07-12 06:00","2014","07","12","06:00","19.2","","17.4","","89","","17","","4","","24.1","","99.79","","","","","","Mainly Clear"
"2014-07-12 07:00","2014","07","12","07:00","21.9","","17.6","","77","","18","","13","","24.1","","99.75","","28","","","","Mostly Cloudy"
"2014-07-12 08:00","2014","07","12","08:00","23.3","","18.3","","74","","22","","13","","24.1","","99.81","","30","","","","Mainly Clear"
"2014-07-12 09:00","2014","07","12","09:00","25.9","","17.4","","59","","21","","11","","24.1","","99.81","","31","","","","Mainly Clear"
"2014-07-12 10:00","2014","07","12","10:00","27.0","","15.5","","49","","19","","13","","24.1","","99.76","","31","","","","Mostly Cloudy"
"2014-07-12 11:00","2014","07","12","11:00","27.6","","15.1","","46","","24","","13","","24.1","","99.71","","32","","","","Mostly Cloudy"
"2014-07-12 12:00","2014","07","12","12:00","28.2","","15.6","","46","","21","","19","","24.1","","99.72","","33","","","","Mostly Cloudy"
"2014-07-12 13:00","2014","07","12","13:00","28.5","","16.8","","49","","20","","20","","24.1","","99.66","","34","","","","Mostly Cloudy"
"2014-07-12 14:00","2014","07","12","14:00","29.1","","17.0","","48","","18","","22","","24.1","","99.60","","34","","","","Cloudy"
"2014-07-12 15:00","2014","07","12","15:00","29.2","","16.3","","46","","18","","24","","24.1","","99.51","","34","","","","Mostly Cloudy"
"2014-07-12 16:00","2014","07","12","16:00","28.3","","16.3","","48","","19","","22","","24.1","","99.41","","33","","","","Cloudy"
"2014-07-12 17:00","2014","07","12","17:00","28.4","","16.9","","50","","18","","26","","24.1","","99.34","","34","","","","Cloudy"
"2014-07-12 18:00","2014","07","12","18:00","27.5","","17.8","","55","","19","","19","","24.1","","99.32","","33","","","","Cloudy"
"2014-07-12 19:00","2014","07","12","19:00","26.8","","17.7","","57","","18","","19","","16.1","","99.27","","33","","","","Cloudy"
"2014-07-12 20:00","2014","07","12","20:00","21.6","","18.9","","85","","19","","15","","16.1","","99.25","","28","","","","Rain Showers"
"2014-07-12 21:00","2014","07","12","21:00","23.5","","21.0","","86","","19","","15","","9.7","","99.21","","32","","","","Haze"
"2014-07-12 22:00","2014","07","12","22:00","23.5","","21.1","","86","","20","","11","","9.7","","99.18","","32","","","","Haze"
"2014-07-12 23:00","2014","07","12","23:00","24.0","","20.5","","81","","21","","19","","9.7","","99.08","","32","","","","Haze"
"2014-07-13 00:00","2014","07","13","00:00","24.2","","20.0","","77","","21","","24","","12.9","","99.05","","32","","","","Cloudy"
"2014-07-13 01:00","2014","07","13","01:00","24.3","","20.5","","79","","22","","22","","12.9","","99.01","","32","","","","Cloudy"
"2014-07-13 02:00","2014","07","13","02:00","24.0","","21.1","","84","","21","","22","","11.3","","98.89","","33","","","","Rain"
"2014-07-13 03:00","2014","07","13","03:00","24.1","","21.3","","84","","21","","24","","9.7","","98.75","","33","","","","Rain"
"2014-07-13 04:00","2014","07","13","04:00","23.5","","21.7","","90","","23","","19","","8.0","","98.74","","33","","","","Rain"
"2014-07-13 05:00","2014","07","13","05:00","23.4","","21.8","","91","","23","","24","","6.4","","98.73","","33","","","","Rain,Fog"
"2014-07-13 06:00","2014","07","13","06:00","23.6","","22.0","","91","","23","","24","","8.0","","98.69","","33","","","","Fog"
"2014-07-13 07:00","2014","07","13","07:00","23.8","","22.0","","90","","23","","13","","9.7","","98.70","","33","","","","Rain Showers,Fog"
"2014-07-13 08:00","2014","07","13","08:00","22.7","","21.9","","95","","26","","15","","6.4","","98.73","","32","","","","Rain Showers,Fog"
"2014-07-13 09:00","2014","07","13","09:00","22.9","","21.2","","90","","28","","24","","24.1","","98.78","","31","","","","Rain Showers"
"2014-07-13 10:00","2014","07","13","10:00","24.9","","20.7","","78","","31","","24","","24.1","","98.81","","33","","","","Mostly Cloudy"
"2014-07-13 11:00","2014","07","13","11:00","25.7","","20.6","","73","","28","","22","","24.1","","98.86","","34","","","","Mostly Cloudy"
"2014-07-13 12:00","2014","07","13","12:00","26.8","","19.8","","66","","26","","20","","24.1","","98.88","","34","","","","Mostly Cloudy"
"2014-07-13 13:00","2014","07","13","13:00","27.1","","18.1","","58","","28","","20","","24.1","","98.87","","33","","","","Mostly Cloudy"
"2014-07-13 14:00","2014","07","13","14:00","27.8","","17.7","","54","","27","","24","","24.1","","98.86","","34","","","","Mainly Clear"
"2014-07-13 15:00","2014","07","13","15:00","28.0","","17.5","","53","","26","","20","","24.1","","98.83","","34","","","","Mainly Clear"
"2014-07-13 16:00","2014","07","13","16:00","28.6","","18.3","","54","","26","","26","","24.1","","98.79","","35","","","","Mainly Clear"
"2014-07-13 17:00","2014","07","13","17:00","27.7","","17.7","","55","","28","","19","","24.1","","98.81","","33","","","","Mainly Clear"
"2014-07-13 18:00","2014","07","13","18:00","28.1","","13.5","","41","","30","","20","","24.1","","98.84","","31","","","","Mainly Clear"
"2014-07-13 19:00","2014","07","13","19:00","26.7","","12.7","","42","","27","","20","","24.1","","98.90","","29","","","","Clear"
"2014-07-13 20:00","2014","07","13","20:00","24.1","","13.7","","52","","26","","13","","24.1","","98.93","","27","","","","Clear"
"2014-07-13 21:00","2014","07","13","21:00","22.7","","14.6","","60","","26","","9","","24.1","","98.96","","26","","","","Clear"
"2014-07-13 22:00","2014","07","13","22:00","21.6","","14.3","","63","","26","","9","","24.1","","98.96","","25","","","","Clear"
"2014-07-13 23:00","2014","07","13","23:00","20.7","","14.4","","67","","26","","9","","24.1","","98.96","","","","","","Clear"
"2014-07-14 00:00","2014","07","14","00:00","19.3","","14.5","","74","","26","","6","","24.1","","98.94","","","","","","Clear"
"2014-07-14 01:00","2014","07","14","01:00","18.5","","16.0","","85","","20","","4","","24.1","","98.89","","","","","","Clear"
"2014-07-14 02:00","2014","07","14","02:00","19.1","","16.5","","85","","14","","4","","24.1","","98.86","","","","","","Mostly Cloudy"
"2014-07-14 03:00","2014","07","14","03:00","19.3","","17.5","","89","","5","","9","","24.1","","98.85","","","","","","Mostly Cloudy"
"2014-07-14 04:00","2014","07","14","04:00","20.8","","17.2","","80","","31","","15","","12.9","","98.93","","26","","","","Rain Showers"
"2014-07-14 05:00","2014","07","14","05:00","19.1","","17.8","","92","","4","","9","","16.1","","98.89","","","","","","Cloudy"
"2014-07-14 06:00","2014","07","14","06:00","19.4","","18.4","","94","","7","","9","","12.9","","98.86","","","","","","Mostly Cloudy"
"2014-07-14 07:00","2014","07","14","07:00","20.2","","18.9","","92","","2","","4","","19.3","","98.88","","27","","","","Cloudy"
"2014-07-14 08:00","2014","07","14","08:00","21.0","","18.8","","87","","21","","4","","19.3","","98.83","","28","","","","Mostly Cloudy"
"2014-07-14 09:00","2014","07","14","09:00","22.7","","18.2","","76","","22","","6","","24.1","","98.83","","29","","","","Mostly Cloudy"
"2014-07-14 10:00","2014","07","14","10:00","24.4","","18.2","","68","","23","","19","","24.1","","98.82","","31","","","","Mostly Cloudy"
"2014-07-14 11:00","2014","07","14","11:00","25.6","","19.2","","68","","29","","15","","24.1","","98.84","","33","","","","Mostly Cloudy"
"2014-07-14 12:00","2014","07","14","12:00","26.0","","17.2","","58","","28","","13","","24.1","","98.81","","31","","","","Mostly Cloudy"
"2014-07-14 13:00","2014","07","14","13:00","27.0","","14.4","","46","","30","","19","","24.1","","98.78","","31","","","","Mostly Cloudy"
"2014-07-14 14:00","2014","07","14","14:00","27.4","","14.5","","45","","29","","13","","24.1","","98.71","","31","","","","Mostly Cloudy"
"2014-07-14 15:00","2014","07","14","15:00","27.4","","11.2","","36","","31","","7","","19.3","","98.69","","29","","","","Mainly Clear"
"2014-07-14 16:00","2014","07","14","16:00","28.0","","12.4","","38","","32","","13","","16.1","","98.69","","30","","","","Mainly Clear"
"2014-07-14 17:00","2014","07","14","17:00","26.9","","11.3","","38","","33","","7","","12.9","","98.64","","29","","","","Mostly Cloudy"
"2014-07-14 18:00","2014","07","14","18:00","24.9","","11.3","","43","","8","","13","","16.1","","98.60","","27","","","","Mostly Cloudy"
"2014-07-14 19:00","2014","07","14","19:00","23.4","","12.5","","50","","6","","15","","16.1","","98.59","","26","","","","Cloudy"
"2014-07-14 20:00","2014","07","14","20:00","21.8","","16.0","","70","","2","","11","","12.9","","98.57","","26","","","","Cloudy"
"2014-07-14 21:00","2014","07","14","21:00","20.9","","14.5","","67","","10","","13","","16.1","","98.58","","25","","","","Cloudy"
"2014-07-14 22:00","2014","07","14","22:00","20.0","","15.2","","74","","4","","2","","19.3","","98.54","","","","","","Mostly Cloudy"
"2014-07-14 23:00","2014","07","14","23:00","20.6","","15.9","","74","","6","","7","","19.3","","98.45","","25","","","","Mostly Cloudy"
"2014-07-15 00:00","2014","07","15","00:00","20.5","","14.6","","69","","36","","7","","24.1","","98.47","","","","","","Mostly Cloudy"
"2014-07-15 01:00","2014","07","15","01:00","20.0","","15.1","","73","","32","","9","","24.1","","98.41","","","","","","Mostly Cloudy"
"2014-07-15 02:00","2014","07","15","02:00","18.8","","15.4","","81","","32","","9","","24.1","","98.37","","","","","","Mostly Cloudy"
"2014-07-15 03:00","2014","07","15","03:00","18.3","","15.0","","81","","34","","9","","24.1","","98.35","","","","","","Mostly Cloudy"
"2014-07-15 04:00","2014","07","15","04:00","18.3","","15.5","","84","","26","","13","","24.1","","98.36","","","","","","Mostly Cloudy"
"2014-07-15 05:00","2014","07","15","05:00","18.7","","15.9","","84","","28","","20","","16.1","","98.38","","","","","","Cloudy"
"2014-07-15 06:00","2014","07","15","06:00","17.4","","14.8","","85","","28","","24","","19.3","","98.41","","","","","","Mostly Cloudy"
"2014-07-15 07:00","2014","07","15","07:00","18.0","","14.4","","79","","28","","20","","24.1","","98.44","","","","","","Clear"
"2014-07-15 08:00","2014","07","15","08:00","19.1","","12.9","","67","","29","","26","","24.1","","98.48","","","","","","Mainly Clear"
"2014-07-15 09:00","2014","07","15","09:00","19.8","","12.6","","63","","26","","30","","24.1","","98.53","","","","","","Mainly Clear"
"2014-07-15 10:00","2014","07","15","10:00","20.8","","10.2","","51","","28","","33","","24.1","","98.55","","","","","","Mainly Clear"
"2014-07-15 11:00","2014","07","15","11:00","20.7","","9.8","","50","","27","","26","","24.1","","98.56","","","","","","Mainly Clear"
"2014-07-15 12:00","2014","07","15","12:00","21.2","","9.4","","47","","27","","24","","24.1","","98.57","","","","","","Mainly Clear"
"2014-07-15 13:00","2014","07","15","13:00","21.2","","9.5","","47","","27","","19","","24.1","","98.61","","","","","","Rain Showers"
"2014-07-15 14:00","2014","07","15","14:00","22.3","","9.9","","45","","27","","22","E","24.1","","98.63","","","","","","Mainly Clear"
"2014-07-15 15:00","2014","07","15","15:00","20.4","","9.6","","50","","28","","30","","24.1","","98.66","","","","","","Mainly Clear"
"2014-07-15 16:00","2014","07","15","16:00","21.6","","10.9","","51","","27","","28","","24.1","","98.63","","","","","","Mostly Cloudy"
"2014-07-15 17:00","2014","07","15","17:00","21.3","","9.4","","47","","30","","26","","24.1","","98.67","","","","","","Mainly Clear"
"2014-07-15 18:00","2014","07","15","18:00","20.2","","10.3","","53","","28","","30","","24.1","","98.69","","","","","","Mostly Cloudy"
"2014-07-15 19:00","2014","07","15","19:00","19.4","","11.3","","59","","29","","20","","24.1","","98.75","","","","","","Mainly Clear"
"2014-07-15 20:00","2014","07","15","20:00","18.2","","10.4","","60","","28","","26","","24.1","","98.83","","","","","","Mainly Clear"
"2014-07-15 21:00","2014","07","15","21:00","17.1","","11.5","","70","","28","","22","","24.1","","98.86","","","","","","Mainly Clear"
"2014-07-15 22:00","2014","07","15","22:00","16.9","","11.7","","71","","29","","20","","24.1","","98.90","","","","","","Mainly Clear"
"2014-07-15 23:00","2014","07","15","23:00","15.8","","11.8","","77","","26","","13","","24.1","","98.93","","","","","","Mainly Clear"
"2014-07-16 00:00","2014","07","16","00:00","16.1","","12.3","","78","","27","","13","","24.1","","98.94","","","","","","Mostly Cloudy"
"2014-07-16 01:00","2014","07","16","01:00","16.0","","12.0","","77","","29","","11","","24.1","","98.92","","","","","","Mostly Cloudy"
"2014-07-16 02:00","2014","07","16","02:00","15.6","","11.1","","75","","31","","17","","24.1","","98.91","","","","","","Mainly Clear"
"2014-07-16 03:00","2014","07","16","03:00","14.4","","11.8","","84","","28","","11","","24.1","","98.91","","","","","","Mostly Cloudy"
"2014-07-16 04:00","2014","07","16","04:00","14.1","","11.6","","85","","28","","19","","24.1","","98.95","","","","","","Mostly Cloudy"
"2014-07-16 05:00","2014","07","16","05:00","13.4","","9.6","","78","","30","","17","","24.1","","99.01","","","","","","Mostly Cloudy"
"2014-07-16 06:00","2014","07","16","06:00","13.1","","8.7","","75","","28","","17","","24.1","","99.07","","","","","","Mostly Cloudy"
"2014-07-16 07:00","2014","07","16","07:00","14.0","","8.8","","71","","28","","15","","24.1","","99.08","","","","","","Mostly Cloudy"
"2014-07-16 08:00","2014","07","16","08:00","13.8","","9.5","","75","","30","","17","","24.1","","99.15","","","","","","Mostly Cloudy"
"2014-07-16 09:00","2014","07","16","09:00","14.0","","9.3","","73","","29","","19","","24.1","","99.18","","","","","","Cloudy"
"2014-07-16 10:00","2014","07","16","10:00","15.0","","10.1","","72","","27","","20","","24.1","","99.19","","","","","","Cloudy"
"2014-07-16 11:00","2014","07","16","11:00","16.1","","10.7","","70","","31","","19","","24.1","","99.20","","","","","","Cloudy"
"2014-07-16 12:00","2014","07","16","12:00","17.1","","10.8","","66","","28","","22","","24.1","","99.22","","","","","","Mostly Cloudy"
"2014-07-16 13:00","2014","07","16","13:00","17.5","","10.8","","65","","29","","15","","24.1","","99.20","","","","","","Mostly Cloudy"
"2014-07-16 14:00","2014","07","16","14:00","19.1","","9.7","","54","","26","","11","","24.1","","99.16","","","","","","Mostly Cloudy"
"2014-07-16 15:00","2014","07","16","15:00","19.4","","9.7","","53","","27","","13","","24.1","","99.15","","","","","","Mostly Cloudy"
"2014-07-16 16:00","2014","07","16","16:00","20.1","","9.6","","51","","34","","15","","24.1","","99.16","","","","","","Mostly Cloudy"
"2014-07-16 17:00","2014","07","16","17:00","19.0","","9.5","","54","","34","","17","","24.1","","99.17","","","","","","Mostly Cloudy"
"2014-07-16 18:00","2014","07","16","18:00","19.0","","11.0","","60","","29","","4","","24.1","","99.20","","","","","","Mostly Cloudy"
"2014-07-16 19:00","2014","07","16","19:00","19.1","","9.8","","55","","33","","11","","24.1","","99.23","","","","","","Mostly Cloudy"
"2014-07-16 20:00","2014","07","16","20:00","17.8","","10.9","","64","","3","","9","","24.1","","99.24","","","","","","Mostly Cloudy"
"2014-07-16 21:00","2014","07","16","21:00","17.9","","10.5","","62","","34","","4","","24.1","","99.29","","","","","","Mostly Cloudy"
"2014-07-16 22:00","2014","07","16","22:00","16.5","","12.3","","76","","20","","6","","24.1","","99.33","","","","","","Mostly Cloudy"
"2014-07-16 23:00","2014","07","16","23:00","16.7","","10.6","","67","","29","","11","","24.1","","99.36","","","","","","Cloudy"
"2014-07-17 00:00","2014","07","17","00:00","16.7","","11.1","","70","","28","","9","","24.1","","99.38","","","","","","Mostly Cloudy"
"2014-07-17 01:00","2014","07","17","01:00","16.1","","11.3","","73","","26","","9","","24.1","","99.37","","","","","","Cloudy"
"2014-07-17 02:00","2014","07","17","02:00","16.5","","11.1","","70","","29","","11","","24.1","","99.37","","","","","","Cloudy"
"2014-07-17 03:00","2014","07","17","03:00","16.0","","11.5","","75","","28","","9","","24.1","","99.38","","","","","","Cloudy"
"2014-07-17 04:00","2014","07","17","04:00","15.3","","11.5","","78","","29","","11","","24.1","","99.40","","","","","","Mostly Cloudy"
"2014-07-17 05:00","2014","07","17","05:00","14.3","","11.3","","82","","29","","9","","24.1","","99.48","","","","","","Mostly Cloudy"
"2014-07-17 06:00","2014","07","17","06:00","15.1","","11.4","","79","","32","","6","","24.1","","99.53","","","","","","Mainly Clear"
"2014-07-17 07:00","2014","07","17","07:00","16.5","","11.4","","72","","33","","7","","24.1","","99.58","","","","","","Mainly Clear"
"2014-07-17 08:00","2014","07","17","08:00","18.6","","10.7","","60","","31","","6","","24.1","","99.63","","","","","","Mainly Clear"
"2014-07-17 09:00","2014","07","17","09:00","20.2","","9.9","","52","","","","0","","24.1","","99.63","","","","","","Mainly Clear"
"2014-07-17 10:00","2014","07","17","10:00","21.8","","9.6","","46","","3","","6","","24.1","","99.65","","","","","","Mainly Clear"
"2014-07-17 11:00","2014","07","17","11:00","22.2","","8.3","","41","","32","","13","","24.1","","99.64","","","","","","Mainly Clear"
"2014-07-17 12:00","2014","07","17","12:00","22.0","","8.4","","42","","26","","17","","24.1","","99.62","","","","","","Mostly Cloudy"
"2014-07-17 13:00","2014","07","17","13:00","22.4","","8.4","","41","","28","","15","","24.1","","99.60","","","","","","Mostly Cloudy"
"2014-07-17 14:00","2014","07","17","14:00","23.7","","8.0","","37","","30","","15","","24.1","","99.59","","","","","","Mostly Cloudy"
"2014-07-17 15:00","2014","07","17","15:00","23.4","","9.4","","41","","22","","15","","24.1","","99.60","","","","","","Mostly Cloudy"
"2014-07-17 16:00","2014","07","17","16:00","22.7","","9.2","","42","","23","","15","","24.1","","99.60","","","","","","Mainly Clear"
"2014-07-17 17:00","2014","07","17","17:00","22.6","","10.4","","46","","27","","7","","24.1","","99.60","","","","","","Mostly Cloudy"
"2014-07-17 18:00","2014","07","17","18:00","23.8","","8.9","","39","","30","","9","","24.1","","99.63","","25","","","","Mainly Clear"
"2014-07-17 19:00","2014","07","17","19:00","23.2","","8.9","","40","","29","","11","","24.1","","99.66","","","","","","Mainly Clear"
"2014-07-17 20:00","2014","07","17","20:00","20.8","","9.8","","49","","28","","13","","24.1","","99.69","","","","","","Mainly Clear"
"2014-07-17 21:00","2014","07","17","21:00","19.0","","10.7","","59","","25","","9","","24.1","","99.76","","","","","","Mainly Clear"
"2014-07-17 22:00","2014","07","17","22:00","19.0","","10.1","","56","","27","","7","","24.1","","99.79","","","","","","Clear"
"2014-07-17 23:00","2014","07","17","23:00","16.9","","11.0","","68","","25","","4","","24.1","","99.83","","","","","","Clear"
"2014-07-18 00:00","2014","07","18","00:00","16.6","","11.1","","70","","23","","6","","24.1","","99.84","","","","","","Clear"
"2014-07-18 01:00","2014","07","18","01:00","15.5","","11.7","","78","","23","","7","","24.1","","99.86","","","","","","Clear"
"2014-07-18 02:00","2014","07","18","02:00","14.1","","10.7","","80","","29","","2","","24.1","","99.87","","","","","","Clear"
"2014-07-18 03:00","2014","07","18","03:00","14.2","","11.4","","83","","23","","4","","24.1","","99.90","","","","","","Clear"
"2014-07-18 04:00","2014","07","18","04:00","13.4","","11.2","","87","","","","0","","24.1","","99.94","","","","","","Clear"
"2014-07-18 05:00","2014","07","18","05:00","13.1","","11.2","","88","","12","","2","","24.1","","100.00","","","","","","Mainly Clear"
"2014-07-18 06:00","2014","07","18","06:00","13.5","","11.9","","90","","19","","4","","24.1","","100.05","","","","","","Cloudy"
"2014-07-18 07:00","2014","07","18","07:00","16.8","","13.5","","81","","14","","4","","16.1","","100.09","","","","","","Mainly Clear"
"2014-07-18 08:00","2014","07","18","08:00","20.2","","13.1","","64","","11","","6","","16.1","","100.12","","","","","","Mostly Cloudy"
"2014-07-18 09:00","2014","07","18","09:00","22.0","","13.2","","57","","15","","7","","24.1","","100.11","","25","","","","Mostly Cloudy"
"2014-07-18 10:00","2014","07","18","10:00","23.1","","11.9","","49","","17","","9","","24.1","","100.09","","25","","","","Cloudy"
"2014-07-18 11:00","2014","07","18","11:00","24.5","","10.7","","42","","15","","11","","24.1","","100.06","","26","","","","Cloudy"
"2014-07-18 12:00","2014","07","18","12:00","24.1","","11.5","","45","","15","","13","","24.1","","100.06","","26","","","","Mostly Cloudy"
"2014-07-18 13:00","2014","07","18","13:00","24.0","","11.0","","44","","10","","9","","24.1","","100.03","","26","","","","Mostly Cloudy"
"2014-07-18 14:00","2014","07","18","14:00","23.9","","12.3","","48","","20","","13","","24.1","","100.01","","26","","","","Mostly Cloudy"
"2014-07-18 15:00","2014","07","18","15:00","25.0","","11.4","","43","","16","","15","","24.1","","99.97","","27","","","","Mostly Cloudy"
"2014-07-18 16:00","2014","07","18","16:00","24.8","","11.0","","42","","16","","20","","24.1","","99.97","","27","","","","Mostly Cloudy"
"2014-07-18 17:00","2014","07","18","17:00","23.8","","10.1","","42","","16","","15","","24.1","","99.95","","25","","","","Cloudy"
"2014-07-18 18:00","2014","07","18","18:00","23.0","","9.1","","41","","13","","13","","24.1","","99.91","","","","","","Mostly Cloudy"
"2014-07-18 19:00","2014","07","18","19:00","21.6","","11.6","","53","","12","","7","","24.1","","99.90","","","","","","Mostly Cloudy"
"2014-07-18 20:00","2014","07","18","20:00","19.9","","12.0","","60","","12","","6","","24.1","","99.89","","","","","","Mostly Cloudy"
"2014-07-18 21:00","2014","07","18","21:00","19.0","","12.4","","66","","13","","6","","24.1","","99.90","","","","","","Mostly Cloudy"
"2014-07-18 22:00","2014","07","18","22:00","17.8","","13.4","","75","","12","","6","","24.1","","99.88","","","","","","Mostly Cloudy"
"2014-07-18 23:00","2014","07","18","23:00","18.0","","14.4","","79","","11","","6","","24.1","","99.87","","","","","","Mostly Cloudy"
"2014-07-19 00:00","2014","07","19","00:00","17.4","","14.6","","84","","11","","7","","24.1","","99.84","","","","","","Cloudy"
"2014-07-19 01:00","2014","07","19","01:00","17.5","","14.6","","83","","9","","4","","24.1","","99.80","","","","","","Cloudy"
"2014-07-19 02:00","2014","07","19","02:00","17.5","","14.9","","85","","7","","6","","24.1","","99.75","","","","","","Cloudy"
"2014-07-19 03:00","2014","07","19","03:00","17.5","","15.2","","86","","7","","6","","24.1","","99.71","","","","","","Cloudy"
"2014-07-19 04:00","2014","07","19","04:00","17.4","","15.5","","89","","10","","6","","24.1","","99.71","","","","","","Cloudy"
"2014-07-19 05:00","2014","07","19","05:00","17.3","","15.8","","91","","7","","6","","24.1","","99.71","","","","","","Cloudy"
"2014-07-19 06:00","2014","07","19","06:00","18.1","","16.7","","92","","12","","6","","16.1","","99.72","","","","","","Rain Showers"
"2014-07-19 07:00","2014","07","19","07:00","18.8","","17.4","","92","","11","","9","","11.3","","99.76","","","","","","Rain Showers"
"2014-07-19 08:00","2014","07","19","08:00","19.2","","17.8","","92","","16","","7","","9.7","","99.78","","","","","","Rain Showers,Fog"
"2014-07-19 09:00","2014","07","19","09:00","20.1","","17.8","","87","","15","","9","","11.3","","99.74","","26","","","","Mostly Cloudy"
"2014-07-19 10:00","2014","07","19","10:00","20.2","","16.6","","80","","12","","11","","19.3","","99.70","","25","","","","Cloudy"
"2014-07-19 11:00","2014","07","19","11:00","19.4","","16.7","","84","","9","","20","","19.3","","99.67","","","","","","Rain Showers"
"2014-07-19 12:00","2014","07","19","12:00","19.6","","17.1","","85","","7","","20","","16.1","","99.67","","","","","","Cloudy"
"2014-07-19 13:00","2014","07","19","13:00","19.7","","17.9","","89","","7","","11","","9.7","","99.61","","","","","","Rain Showers,Fog"
"2014-07-19 14:00","2014","07","19","14:00","19.3","","18.3","","94","","2","","17","","9.7","","99.57","","","","","","Rain Showers,Fog"
"2014-07-19 15:00","2014","07","19","15:00","19.8","","18.0","","89","","3","","19","","9.7","","99.54","","","","","","Fog"
"2014-07-19 16:00","2014","07","19","16:00","19.0","","18.1","","95","","4","","15","","8.0","","99.54","","","","","","Rain Showers,Fog"
"2014-07-19 17:00","2014","07","19","17:00","19.9","","18.0","","89","","3","","15","","9.7","","99.51","","","","","","Fog"
"2014-07-19 18:00","2014","07","19","18:00","20.8","","18.1","","85","","7","","17","","19.3","","99.46","","27","","","","Mostly Cloudy"
"2014-07-19 19:00","2014","07","19","19:00","20.4","","17.7","","84","","7","","9","","24.1","","99.49","","26","","","","Mostly Cloudy"
"2014-07-19 20:00","2014","07","19","20:00","18.9","","17.6","","92","","6","","6","","24.1","","99.48","","","","","","Mainly Clear"
"2014-07-19 21:00","2014","07","19","21:00","18.8","","17.4","","92","","35","","6","","24.1","","99.53","","","","","","Mostly Cloudy"
"2014-07-19 22:00","2014","07","19","22:00","19.1","","17.8","","92","","33","","6","","24.1","","99.55","","","","","","Mostly Cloudy"
"2014-07-19 23:00","2014","07","19","23:00","18.7","","17.4","","92","","10","","4","","12.9","","99.52","","","","","","Mainly Clear"
"2014-07-20 00:00","2014","07","20","00:00","17.3","","16.9","","97","","","","0","","11.3","","99.50","","","","","","Mainly Clear"
"2014-07-20 01:00","2014","07","20","01:00","17.1","","16.9","","99","","31","","4","","9.7","","99.48","","","","","","Fog"
"2014-07-20 02:00","2014","07","20","02:00","15.5","","15.1","","97","","31","","4","","8.0","","99.45","","","","","","Fog"
"2014-07-20 03:00","2014","07","20","03:00","15.6","","15.3","","98","","","","0","","6.4","","99.45","","","","","","Fog"
"2014-07-20 04:00","2014","07","20","04:00","14.7","","14.5","","99","","","","0","","2.4","","99.45","","","","","","Fog"
"2014-07-20 05:00","2014","07","20","05:00","14.4","","14.3","","99","","32","","6","","0.8","","99.51","","","","","","Fog"
"2014-07-20 06:00","2014","07","20","06:00","15.9","","15.8","","99","","30","","4","","0.8","","99.55","","","","","","Fog"
"2014-07-20 07:00","2014","07","20","07:00","17.2","","17.1","","99","","","","0","","0.2","","99.60","","","","","","Fog"
"2014-07-20 08:00","2014","07","20","08:00","19.2","","18.4","","95","","35","","6","","3.2","","99.63","","","","","","Fog"
"2014-07-20 09:00","2014","07","20","09:00","20.7","","18.8","","89","","35","","4","","8.0","","99.63","","27","","","","Haze"
"2014-07-20 10:00","2014","07","20","10:00","22.7","","17.5","","72","","4","","11","","12.9","","99.63","","28","","","","Mostly Cloudy"
"2014-07-20 11:00","2014","07","20","11:00","23.5","","16.2","","64","","7","","7","","12.9","","99.63","","28","","","","Mostly Cloudy"
"2014-07-20 12:00","2014","07","20","12:00","24.2","","16.5","","62","","5","","4","","19.3","","99.60","","29","","","","Mostly Cloudy"
"2014-07-20 13:00","2014","07","20","13:00","25.0","","17.8","","64","","9","","15","","16.1","","99.56","","31","","","","Mainly Clear"
"2014-07-20 14:00","2014","07","20","14:00","24.9","","17.0","","62","","6","","7","","19.3","","99.56","","30","","","","Mainly Clear"
"2014-07-20 15:00","2014","07","20","15:00","25.2","","16.3","","58","","9","","9","","24.1","","99.52","","30","","","","Mainly Clear"
"2014-07-20 16:00","2014","07","20","16:00","25.7","","16.2","","56","","6","","7","","24.1","","99.51","","30","","","","Mainly Clear"
"2014-07-20 17:00","2014","07","20","17:00","25.5","","16.4","","57","","8","","11","","24.1","","99.49","","30","","","","Mostly Cloudy"
"2014-07-20 18:00","2014","07","20","18:00","24.8","","15.9","","58","","8","","11","","24.1","","99.50","","29","","","","Mostly Cloudy"
"2014-07-20 19:00","2014","07","20","19:00","23.7","","15.5","","60","","9","","9","","24.1","","99.50","","28","","","","Mostly Cloudy"
"2014-07-20 20:00","2014","07","20","20:00","22.1","","17.8","","77","","19","","9","","24.1","","99.51","","28","","","","Mostly Cloudy"
"2014-07-20 21:00","2014","07","20","21:00","20.5","","17.8","","85","","19","","9","","24.1","","99.58","","26","","","","Mostly Cloudy"
"2014-07-20 22:00","2014","07","20","22:00","20.0","","17.2","","84","","22","","4","","19.3","","99.60","","25","","","","Mostly Cloudy"
"2014-07-20 23:00","2014","07","20","23:00","18.5","","17.0","","91","","","","0","","24.1","","99.59","","","","","","Mainly Clear"
"2014-07-21 00:00","2014","07","21","00:00","17.6","","16.3","","92","","14","","6","","24.1","","99.58","","","","","","Mainly Clear"
"2014-07-21 01:00","2014","07","21","01:00","17.1","","16.2","","94","","","","0","","19.3","","99.58","","","","","","Mainly Clear"
"2014-07-21 02:00","2014","07","21","02:00","16.5","","15.8","","96","","11","","4","","16.1","","99.58","","","","","","Clear"
"2014-07-21 03:00","2014","07","21","03:00","16.8","","16.3","","97","","","","0","","12.9","","99.59","","","","","","Clear"
"2014-07-21 04:00","2014","07","21","04:00","15.9","","15.5","","97","","","","0","","12.9","","99.64","","","","","","Clear"
"2014-07-21 05:00","2014","07","21","05:00","15.2","","14.8","","97","","14","","4","","3.2","","99.70","","","","","","Fog"
"2014-07-21 06:00","2014","07","21","06:00","16.1","","15.4","","96","","","","0","","1.6","","99.76","","","","","","Fog"
"2014-07-21 07:00","2014","07","21","07:00","18.7","","18.1","","96","","","","0","","9.7","","99.82","","","","","","Fog"
"2014-07-21 08:00","2014","07","21","08:00","22.1","","18.8","","82","","15","","6","","19.3","","99.82","","29","","","","Mainly Clear"
"2014-07-21 09:00","2014","07","21","09:00","24.0","","17.0","","65","","18","","4","","24.1","","99.82","","29","","","","Mainly Clear"
"2014-07-21 10:00","2014","07","21","10:00","25.7","","16.6","","57","","14","","9","","24.1","","99.79","","31","","","","Mainly Clear"
"2014-07-21 11:00","2014","07","21","11:00","26.5","","16.1","","53","","17","","7","","24.1","","99.80","","31","","","","Mainly Clear"
"2014-07-21 12:00","2014","07","21","12:00","27.5","","16.4","","51","","21","","11","","24.1","","99.79","","32","","","","Mainly Clear"
"2014-07-21 13:00","2014","07","21","13:00","28.1","","15.9","","47","","21","","13","","24.1","","99.78","","33","","","","Mainly Clear"
"2014-07-21 14:00","2014","07","21","14:00","28.7","","16.2","","47","","19","","17","","24.1","","99.75","","33","","","","Mostly Cloudy"
"2014-07-21 15:00","2014","07","21","15:00","28.7","","14.9","","43","","17","","17","","24.1","","99.71","","33","","","","Mainly Clear"
"2014-07-21 16:00","2014","07","21","16:00","28.6","","14.3","","42","","15","","13","","24.1","","99.70","","32","","","","Mainly Clear"
"2014-07-21 17:00","2014","07","21","17:00","28.4","","14.1","","42","","16","","13","","24.1","","99.68","","32","","","","Mainly Clear"
"2014-07-21 18:00","2014","07","21","18:00","27.5","","14.1","","44","","16","","11","","24.1","","99.69","","31","","","","Mostly Cloudy"
"2014-07-21 19:00","2014","07","21","19:00","26.2","","14.5","","49","","17","","15","","24.1","","99.69","","30","","","","Mainly Clear"
"2014-07-21 20:00","2014","07","21","20:00","23.2","","15.1","","60","","16","","11","","24.1","","99.71","","27","","","","Mainly Clear"
"2014-07-21 21:00","2014","07","21","21:00","21.0","","15.8","","72","","16","","11","","24.1","","99.73","","25","","","","Mainly Clear"
"2014-07-21 22:00","2014","07","21","22:00","20.5","","15.0","","71","","14","","6","","24.1","","99.74","","","","","","Clear"
"2014-07-21 23:00","2014","07","21","23:00","19.7","","15.0","","74","","16","","6","","24.1","","99.71","","","","","","Clear"
"2014-07-22 00:00","2014","07","22","00:00","19.3","","15.1","","77","","16","","4","","24.1","","99.71","","","","","","Clear"
"2014-07-22 01:00","2014","07","22","01:00","18.4","","15.5","","83","","14","","6","","24.1","","99.67","","","","","","Clear"
"2014-07-22 02:00","2014","07","22","02:00","18.1","","15.7","","86","","16","","6","","24.1","","99.66","","","","","","Clear"
"2014-07-22 03:00","2014","07","22","03:00","18.0","","16.2","","89","","18","","4","","24.1","","99.67","","","","","","Clear"
"2014-07-22 04:00","2014","07","22","04:00","17.9","","16.2","","90","","","","0","","24.1","","99.69","","","","","","Clear"
"2014-07-22 05:00","2014","07","22","05:00","17.1","","16.0","","93","","8","","6","","19.3","","99.69","","","","","","Clear"
"2014-07-22 06:00","2014","07","22","06:00","17.7","","16.4","","92","","14","","4","","19.3","","99.70","","","","","","Clear"
"2014-07-22 07:00","2014","07","22","07:00","20.1","","17.9","","87","","","","0","","19.3","","99.72","","26","","","","Clear"
"2014-07-22 08:00","2014","07","22","08:00","24.3","","18.1","","68","","22","","11","","24.1","","99.75","","30","","","","Clear"
"2014-07-22 09:00","2014","07","22","09:00","25.3","","19.2","","69","","21","","9","","24.1","","99.66","","32","","","","Clear"
"2014-07-22 10:00","2014","07","22","10:00","27.5","","19.8","","63","","20","","13","","24.1","","99.59","","35","","","","Clear"
"2014-07-22 11:00","2014","07","22","11:00","29.0","","19.7","","57","","20","","15","","24.1","","99.53","","36","","","","Mainly Clear"
"2014-07-22 12:00","2014","07","22","12:00","29.8","","18.6","","51","","19","","22","","24.1","","99.45","","36","","","","Clear"
"2014-07-22 13:00","2014","07","22","13:00","30.3","","18.6","","50","","19","","20","","24.1","","99.39","","37","","","","Clear"
"2014-07-22 14:00","2014","07","22","14:00","30.9","","18.7","","48","","19","","26","","19.3","","99.35","","37","","","","Clear"
"2014-07-22 15:00","2014","07","22","15:00","31.2","","19.0","","48","","22","","32","","16.1","","99.34","","38","","","","Clear"
"2014-07-22 16:00","2014","07","22","16:00","31.4","","19.3","","49","","20","","26","","16.1","","99.25","","38","","","","Clear"
"2014-07-22 17:00","2014","07","22","17:00","30.9","","19.4","","50","","22","","24","","16.1","","99.22","","38","","","","Mainly Clear"
"2014-07-22 18:00","2014","07","22","18:00","30.9","","19.4","","50","","20","","26","","19.3","","99.15","","38","","","","Mainly Clear"
"2014-07-22 19:00","2014","07","22","19:00","29.6","","19.0","","53","","21","","24","","12.9","","99.12","","36","","","","Mainly Clear"
"2014-07-22 20:00","2014","07","22","20:00","28.3","","19.6","","59","","22","","19","","12.9","","99.16","","36","","","","Mainly Clear"
"2014-07-22 21:00","2014","07","22","21:00","27.2","","19.6","","63","","22","","17","","19.3","","99.15","","34","","","","Mainly Clear"
"2014-07-22 22:00","2014","07","22","22:00","26.7","","19.2","","63","","22","","17","","19.3","","99.12","","34","","","","Mainly Clear"
"2014-07-22 23:00","2014","07","22","23:00","26.2","","19.6","","67","","24","","15","","19.3","","99.16","","33","","","","Mostly Cloudy"
"2014-07-23 00:00","2014","07","23","00:00","26.3","","19.9","","68","","23","","13","","16.1","","99.06","","34","","","","Cloudy"
"2014-07-23 01:00","2014","07","23","01:00","25.3","","21.0","","77","","24","","13","","11.3","","99.06","","34","","","","Cloudy"
"2014-07-23 02:00","2014","07","23","02:00","24.4","","21.2","","82","","20","","20","","11.3","","99.00","","33","","","","Thunderstorms,Rain Showers"
"2014-07-23 03:00","2014","07","23","03:00","23.6","","21.8","","90","","18","","19","","12.9","","99.03","","33","","","","Cloudy"
"2014-07-23 04:00","2014","07","23","04:00","23.7","","21.6","","88","","22","","15","","16.1","","99.05","","33","","","","Cloudy"
"2014-07-23 05:00","2014","07","23","05:00","23.4","","21.6","","90","","26","","9","","11.3","","99.10","","32","","","","Rain Showers"
"2014-07-23 06:00","2014","07","23","06:00","23.4","","20.1","","82","","2","","22","","19.3","","99.19","","31","","","","Cloudy"
"2014-07-23 07:00","2014","07","23","07:00","21.8","","19.2","","85","","36","","17","","16.1","","99.23","","29","","","","Cloudy"
"2014-07-23 08:00","2014","07","23","08:00","20.1","","17.3","","84","","34","","22","","24.1","","99.27","","26","","","","Cloudy"
"2014-07-23 09:00","2014","07","23","09:00","19.8","","16.4","","81","","35","","19","","24.1","","99.31","","","","","","Cloudy"
"2014-07-23 10:00","2014","07","23","10:00","19.9","","16.2","","79","","36","","19","","24.1","","99.34","","","","","","Cloudy"
"2014-07-23 11:00","2014","07","23","11:00","20.3","","15.4","","73","","1","","22","","24.1","","99.40","","25","","","","Cloudy"
"2014-07-23 12:00","2014","07","23","12:00","20.1","","14.7","","71","","1","","20","","24.1","","99.47","","","","","","Cloudy"
"2014-07-23 13:00","2014","07","23","13:00","21.5","","14.4","","64","","2","","15","","24.1","","99.50","","25","","","","Mostly Cloudy"
"2014-07-23 14:00","2014","07","23","14:00","21.1","","14.5","","66","","1","","22","","24.1","","99.53","","25","","","","Mostly Cloudy"
"2014-07-23 15:00","2014","07","23","15:00","20.8","","13.7","","64","","2","","22","","24.1","","99.48","","","","","","Mostly Cloudy"
"2014-07-23 16:00","2014","07","23","16:00","21.0","","13.8","","63","","3","","24","","24.1","","99.46","","","","","","Mostly Cloudy"
"2014-07-23 17:00","2014","07","23","17:00","21.0","","13.4","","62","","2","","17","","24.1","","99.47","","","","","","Mostly Cloudy"
"2014-07-23 18:00","2014","07","23","18:00","20.3","","13.3","","64","","5","","22","","24.1","","99.48","","","","","","Mostly Cloudy"
"2014-07-23 19:00","2014","07","23","19:00","19.1","","14.5","","75","","4","","19","","24.1","","99.52","","","","","","Mainly Clear"
"2014-07-23 20:00","2014","07","23","20:00","18.0","","14.0","","77","","3","","15","","24.1","","99.56","","","","","","Mainly Clear"
"2014-07-23 21:00","2014","07","23","21:00","18.0","","12.8","","72","","2","","20","","24.1","","99.58","","","","","","Mainly Clear"
"2014-07-23 22:00","2014","07","23","22:00","17.1","","11.8","","71","","4","","19","","24.1","","99.61","","","","","","Mainly Clear"
"2014-07-23 23:00","2014","07","23","23:00","16.2","","10.6","","69","","4","","17","","24.1","","99.61","","","","","","Mainly Clear"
"2014-07-24 00:00","2014","07","24","00:00","15.9","","10.6","","71","","36","","13","","24.1","","99.58","","","","","","Mainly Clear"
"2014-07-24 01:00","2014","07","24","01:00","15.4","","10.2","","71","","36","","13","","24.1","","99.57","","","","","","Clear"
"2014-07-24 02:00","2014","07","24","02:00","15.0","","10.2","","73","","35","","13","","24.1","","99.55","","","","","","Mainly Clear"
"2014-07-24 03:00","2014","07","24","03:00","15.5","","10.4","","72","","36","","15","","24.1","","99.53","","","","","","Mainly Clear"
"2014-07-24 04:00","2014","07","24","04:00","14.8","","10.9","","77","","36","","13","","24.1","","99.55","","","","","","Mainly Clear"
"2014-07-24 05:00","2014","07","24","05:00","14.1","","12.2","","88","","36","","13","","24.1","","99.59","","","","","","Mainly Clear"
"2014-07-24 06:00","2014","07","24","06:00","14.5","","11.8","","84","","35","","15","","24.1","","99.64","","","","","","Clear"
"2014-07-24 07:00","2014","07","24","07:00","16.3","","12.9","","80","","36","","13","","24.1","","99.69","","","","","","Mainly Clear"
"2014-07-24 08:00","2014","07","24","08:00","18.3","","14.5","","79","","4","","17","","24.1","","99.71","","","","","","Mainly Clear"
"2014-07-24 09:00","2014","07","24","09:00","19.7","","14.3","","71","","3","","19","","24.1","","99.73","","","","","","Clear"
"2014-07-24 10:00","2014","07","24","10:00","20.8","","11.8","","56","","6","","20","","24.1","","99.73","","","","","","Mainly Clear"
"2014-07-24 11:00","2014","07","24","11:00","21.4","","10.7","","50","","4","","19","","24.1","","99.73","","","","","","Mostly Cloudy"
"2014-07-24 12:00","2014","07","24","12:00","21.8","","12.0","","54","","4","","19","","24.1","","99.72","","","","","","Mostly Cloudy"
"2014-07-24 13:00","2014","07","24","13:00","22.1","","9.2","","44","","4","","26","","24.1","","99.66","","","","","","Mainly Clear"
"2014-07-24 14:00","2014","07","24","14:00","23.2","","10.2","","44","","3","","15","","24.1","","99.63","","25","","","","Mainly Clear"
"2014-07-24 15:00","2014","07","24","15:00","23.5","","10.0","","42","","4","","19","","24.1","","99.59","","25","","","","Mainly Clear"
"2014-07-24 16:00","2014","07","24","16:00","23.8","","11.0","","45","","6","","9","","24.1","","99.55","","26","","","","Mainly Clear"
"2014-07-24 17:00","2014","07","24","17:00","22.8","","10.6","","46","","7","","15","","24.1","","99.49","","","","","","Mainly Clear"
"2014-07-24 18:00","2014","07","24","18:00","21.7","","10.7","","50","","7","","9","","24.1","","99.45","","","","","","Mainly Clear"
"2014-07-24 19:00","2014","07","24","19:00","20.9","","10.9","","53","","10","","7","","24.1","","99.48","","","","","","Mainly Clear"
"2014-07-24 20:00","2014","07","24","20:00","19.1","","12.5","","66","","9","","6","","24.1","","99.55","","","","","","Mostly Cloudy"
"2014-07-24 21:00","2014","07","24","21:00","17.7","","11.8","","68","","15","","7","","24.1","","99.56","","","","","","Mainly Clear"
"2014-07-24 22:00","2014","07","24","22:00","15.9","","12.0","","78","","17","","6","","24.1","","99.58","","","","","","Clear"
"2014-07-24 23:00","2014","07","24","23:00","14.7","","11.8","","83","","15","","6","","24.1","","99.57","","","","","","Clear"
"2014-07-25 00:00","2014","07","25","00:00","14.9","","11.4","","80","","12","","4","","24.1","","99.57","","","","","","Clear"
"2014-07-25 01:00","2014","07","25","01:00","14.5","","10.0","","74","","11","","4","","24.1","","99.47","","","","","","Clear"
"2014-07-25 02:00","2014","07","25","02:00","14.0","","10.1","","77","","14","","4","","24.1","","99.47","","","","","","Clear"
"2014-07-25 03:00","2014","07","25","03:00","14.6","","9.2","","70","","22","","7","","24.1","","99.52","","","","","","Clear"
"2014-07-25 04:00","2014","07","25","04:00","13.2","","8.9","","75","","24","","9","","24.1","","99.58","","","","","","Clear"
"2014-07-25 05:00","2014","07","25","05:00","13.2","","10.5","","84","","20","","9","","24.1","","99.59","","","","","","Mainly Clear"
"2014-07-25 06:00","2014","07","25","06:00","13.4","","11.0","","85","","24","","6","","24.1","","99.61","","","","","","Mainly Clear"
"2014-07-25 07:00","2014","07","25","07:00","16.8","","12.2","","74","","24","","11","","24.1","","99.57","","","","","","Mainly Clear"
"2014-07-25 08:00","2014","07","25","08:00","18.8","","12.4","","66","","25","","17","","24.1","","99.69","","","","","","Mostly Cloudy"
"2014-07-25 09:00","2014","07","25","09:00","20.4","","10.3","","52","","23","","22","","24.1","","99.67","","","","","","Mostly Cloudy"
"2014-07-25 10:00","2014","07","25","10:00","22.4","","12.2","","52","","23","","17","","24.1","","99.59","","25","","","","Mostly Cloudy"
"2014-07-25 11:00","2014","07","25","11:00","22.9","","11.4","","48","","22","","22","","24.1","","99.53","","25","","","","Mostly Cloudy"
"2014-07-25 12:00","2014","07","25","12:00","23.0","","11.1","","47","","25","","15","","24.1","","99.49","","25","","","","Mostly Cloudy"
"2014-07-25 13:00","2014","07","25","13:00","23.2","","12.3","","50","","22","","17","","24.1","","99.40","","26","","","","Mostly Cloudy"
"2014-07-25 14:00","2014","07","25","14:00","24.0","","13.1","","51","","20","","24","","24.1","","99.35","","27","","","","Mostly Cloudy"
"2014-07-25 15:00","2014","07","25","15:00","24.2","","13.2","","50","","19","","22","","24.1","","99.29","","27","","","","Mostly Cloudy"
"2014-07-25 16:00","2014","07","25","16:00","23.8","","12.9","","50","","20","","26","","24.1","","99.24","","27","","","","Mostly Cloudy"
"2014-07-25 17:00","2014","07","25","17:00","23.8","","12.9","","50","","20","","24","","24.1","","99.22","","27","","","","Mostly Cloudy"
"2014-07-25 18:00","2014","07","25","18:00","23.0","","13.0","","53","","20","","24","","24.1","","99.23","","26","","","","Mostly Cloudy"
"2014-07-25 19:00","2014","07","25","19:00","22.7","","13.5","","56","","18","","15","","24.1","","99.21","","26","","","","Cloudy"
"2014-07-25 20:00","2014","07","25","20:00","21.5","","13.8","","62","","23","","24","","24.1","","99.22","","25","","","","Rain Showers"
"2014-07-25 21:00","2014","07","25","21:00","21.0","","13.5","","62","","24","","19","","24.1","","99.23","","","","","","Mostly Cloudy"
"2014-07-25 22:00","2014","07","25","22:00","20.1","","14.7","","71","","23","","15","","24.1","","99.25","","","","","","Mostly Cloudy"
"2014-07-25 23:00","2014","07","25","23:00","19.7","","15.0","","74","","21","","13","","24.1","","99.24","","","","","","Mostly Cloudy"
"2014-07-26 00:00","2014","07","26","00:00","17.9","","14.5","","81","","20","","6","","24.1","","99.26","","","","","","Mainly Clear"
"2014-07-26 01:00","2014","07","26","01:00","19.0","","15.1","","78","","20","","4","","24.1","","99.21","","","","","","Mainly Clear"
"2014-07-26 02:00","2014","07","26","02:00","17.1","","14.7","","86","","19","","11","","24.1","","99.16","","","","","","Clear"
"2014-07-26 03:00","2014","07","26","03:00","15.5","","14.0","","91","","17","","6","","24.1","","99.14","","","","","","Clear"
"2014-07-26 04:00","2014","07","26","04:00","14.8","","13.5","","92","","15","","4","","24.1","","99.11","","","","","","Clear"
"2014-07-26 05:00","2014","07","26","05:00","14.7","","13.4","","92","","16","","4","","16.1","","99.11","","","","","","Clear"
"2014-07-26 06:00","2014","07","26","06:00","15.1","","13.9","","93","","16","","4","","19.3","","99.11","","","","","","Mainly Clear"
"2014-07-26 07:00","2014","07","26","07:00","19.5","","14.7","","74","","23","","11","","24.1","","99.10","","","","","","Mainly Clear"
"2014-07-26 08:00","2014","07","26","08:00","21.0","","15.3","","70","","23","","11","","24.1","","99.08","","25","","","","Mostly Cloudy"
"2014-07-26 09:00","2014","07","26","09:00","23.1","","15.3","","61","","24","","15","","24.1","","99.07","","27","","","","Mostly Cloudy"
"2014-07-26 10:00","2014","07","26","10:00","23.9","","16.0","","61","","22","","6","","24.1","","98.99","","29","","","","Mostly Cloudy"
"2014-07-26 11:00","2014","07","26","11:00","25.3","","15.7","","55","","24","","9","","24.1","","99.00","","30","","","","Mostly Cloudy"
"2014-07-26 12:00","2014","07","26","12:00","26.1","","16.4","","55","","18","","19","","24.1","","98.92","","31","","","","Mostly Cloudy"
"2014-07-26 13:00","2014","07","26","13:00","26.4","","13.4","","45","","20","","15","","24.1","","98.89","","29","","","","Mostly Cloudy"
"2014-07-26 14:00","2014","07","26","14:00","27.2","","16.4","","52","","21","","22","","24.1","","98.79","","32","","","","Mostly Cloudy"
"2014-07-26 15:00","2014","07","26","15:00","26.9","","16.7","","54","","20","","22","","24.1","","98.71","","32","","","","Mostly Cloudy"
"2014-07-26 16:00","2014","07","26","16:00","26.1","","17.6","","60","","19","","26","","24.1","","98.69","","32","","","","Cloudy"
"2014-07-26 17:00","2014","07","26","17:00","25.8","","18.9","","66","","22","","26","","19.3","","98.68","","32","","","","Cloudy"
"2014-07-26 18:00","2014","07","26","18:00","25.5","","19.2","","68","","20","","19","","24.1","","98.64","","32","","","","Cloudy"
"2014-07-26 19:00","2014","07","26","19:00","25.2","","19.0","","69","","23","","17","","24.1","","98.63","","32","","","","Cloudy"
"2014-07-26 20:00","2014","07","26","20:00","24.7","","19.0","","71","","24","","17","","24.1","","98.68","","31","","","","Cloudy"
"2014-07-26 21:00","2014","07","26","21:00","24.3","","19.3","","74","","24","","13","","24.1","","98.66","","31","","","","Cloudy"
"2014-07-26 22:00","2014","07","26","22:00","23.8","","19.6","","77","","24","","13","","19.3","","98.62","","31","","","","Cloudy"
"2014-07-26 23:00","2014","07","26","23:00","23.4","","20.0","","81","","27","","22","","12.9","","98.60","","31","","","","Mostly Cloudy"
"2014-07-27 00:00","2014","07","27","00:00","22.6","","20.0","","85","","29","","20","","11.3","","98.59","","30","","","","Mainly Clear"
"2014-07-27 01:00","2014","07","27","01:00","22.0","","19.9","","88","","29","","15","","8.0","","98.61","","29","","","","Haze"
"2014-07-27 02:00","2014","07","27","02:00","21.1","","19.5","","91","","26","","13","","8.0","","98.62","","28","","","","Fog"
"2014-07-27 03:00","2014","07","27","03:00","20.5","","19.1","","92","","28","","9","","8.0","","98.62","","27","","","","Fog"
"2014-07-27 04:00","2014","07","27","04:00","20.3","","19.1","","93","","28","","9","","8.0","","98.58","","27","","","","Fog"
"2014-07-27 05:00","2014","07","27","05:00","19.9","","18.8","","93","","35","","6","","8.0","","98.51","","","","","","Fog"
"2014-07-27 06:00","2014","07","27","06:00","18.6","","18.1","","97","","20","","15","","8.0","","98.51","","","","","","Fog"
"2014-07-27 07:00","2014","07","27","07:00","20.0","","19.3","","96","","21","","17","","6.4","","98.56","","27","","","","Fog"
"2014-07-27 08:00","2014","07","27","08:00","22.7","","20.2","","86","","23","","17","","8.0","","98.56","","30","","","","Haze"
"2014-07-27 09:00","2014","07","27","09:00","23.5","","20.0","","81","","24","","19","","9.7","","98.59","","31","","","","Haze"
"2014-07-27 10:00","2014","07","27","10:00","25.3","","20.4","","74","","21","","15","","11.3","","98.50","","33","","","","Mostly Cloudy"
"2014-07-27 11:00","2014","07","27","11:00","27.0","","19.2","","62","","19","","17","","12.9","","98.42","","34","","","","Mostly Cloudy"
"2014-07-27 12:00","2014","07","27","12:00","26.0","","21.2","","75","","19","","15","","19.3","","98.39","","35","","","","Mostly Cloudy"
"2014-07-27 13:00","2014","07","27","13:00","27.5","","21.2","","69","","20","","17","","24.1","","98.35","","36","","","","Mostly Cloudy"
"2014-07-27 14:00","2014","07","27","14:00","28.6","","20.7","","62","","20","","13","","19.3","","98.19","","37","","","","Mainly Clear"
"2014-07-27 15:00","2014","07","27","15:00","28.8","","19.7","","58","","17","","13","","24.1","","98.00","","36","","","","Mostly Cloudy"
"2014-07-27 16:00","2014","07","27","16:00","26.1","","20.1","","70","","17","","28","","16.1","","97.93","","34","","","","Thunderstorms"
"2014-07-27 17:00","2014","07","27","17:00","18.7","","16.5","","87","","19","","26","","6.4","","98.24","","","","","","Thunderstorms,Moderate Rain Showers,Fog"
"2014-07-27 18:00","2014","07","27","18:00","19.1","","17.0","","88","","32","","15","","16.1","","98.10","","","","","","Thunderstorms,Rain Showers"
"2014-07-27 19:00","2014","07","27","19:00","17.4","","14.9","","85","","32","","20","","4.8","","98.43","","","","","","Thunderstorms,Rain Showers,Fog"
"2014-07-27 20:00","2014","07","27","20:00","16.7","","14.8","","89","","35","","11","","19.3","","98.24","","","","","","Mostly Cloudy"
"2014-07-27 21:00","2014","07","27","21:00","17.2","","15.3","","89","","25","","4","","24.1","","98.18","","","","","","Mostly Cloudy"
"2014-07-27 22:00","2014","07","27","22:00","16.6","","15.4","","93","","27","","13","","24.1","","98.27","","","","","","Mostly Cloudy"
"2014-07-27 23:00","2014","07","27","23:00","16.9","","15.2","","90","","31","","19","","24.1","","98.39","","","","","","Rain Showers"
"2014-07-28 00:00","2014","07","28","00:00","16.6","","15.4","","93","","30","","20","","19.3","","98.38","","","","","","Rain"
"2014-07-28 01:00","2014","07","28","01:00","16.7","","15.4","","92","","28","","20","","24.1","","98.34","","","","","","Cloudy"
"2014-07-28 02:00","2014","07","28","02:00","16.9","","15.4","","91","","30","","15","","24.1","","98.29","","","","","","Mostly Cloudy"
"2014-07-28 03:00","2014","07","28","03:00","17.4","","15.7","","90","","32","","19","","24.1","","98.29","","","","","","Mostly Cloudy"
"2014-07-28 04:00","2014","07","28","04:00","17.7","","15.7","","88","","32","","22","","24.1","","98.33","","","","","","Mostly Cloudy"
"2014-07-28 05:00","2014","07","28","05:00","17.3","","14.9","","86","","34","","30","","19.3","","98.46","","","","","","Cloudy"
"2014-07-28 06:00","2014","07","28","06:00","17.2","","14.2","","83","","35","","22","","24.1","","98.56","","","","","","Mostly Cloudy"
"2014-07-28 07:00","2014","07","28","07:00","17.1","","13.6","","80","","35","","26","","24.1","","98.65","","","","","","Cloudy"
"2014-07-28 08:00","2014","07","28","08:00","17.3","","13.1","","76","","34","","28","","24.1","","98.77","","","","","","Mostly Cloudy"
"2014-07-28 09:00","2014","07","28","09:00","17.1","","13.1","","77","","36","","28","","24.1","","98.86","","","","","","Mostly Cloudy"
"2014-07-28 10:00","2014","07","28","10:00","18.0","","12.9","","72","","34","","20","","24.1","","98.94","","","","","","Mostly Cloudy"
"2014-07-28 11:00","2014","07","28","11:00","19.2","","12.6","","66","","34","","26","","24.1","","98.99","","","","","","Mostly Cloudy"
"2014-07-28 12:00","2014","07","28","12:00","19.5","","12.0","","62","","34","","19","","24.1","","99.03","","","","","","Mostly Cloudy"
"2014-07-28 13:00","2014","07","28","13:00","18.7","","11.4","","62","","35","","26","","24.1","","99.04","","","","","","Mostly Cloudy"
"2014-07-28 14:00","2014","07","28","14:00","20.3","","11.8","","58","","35","","22","","24.1","","99.05","","","","","","Mostly Cloudy"
"2014-07-28 15:00","2014","07","28","15:00","19.5","","10.6","","56","","34","","28","","24.1","","99.10","","","","","","Mostly Cloudy"
"2014-07-28 16:00","2014","07","28","16:00","19.0","","10.4","","57","","33","","22","","24.1","","99.12","","","","","","Mostly Cloudy"
"2014-07-28 17:00","2014","07","28","17:00","17.2","","10.5","","65","","35","","26","","24.1","","99.18","","","","","","Cloudy"
"2014-07-28 18:00","2014","07","28","18:00","17.4","","10.4","","63","","1","","17","","24.1","","99.20","","","","","","Mostly Cloudy"
"2014-07-28 19:00","2014","07","28","19:00","16.6","","9.9","","65","","2","","17","","24.1","","99.22","","","","","","Mostly Cloudy"
"2014-07-28 20:00","2014","07","28","20:00","15.6","","9.1","","65","","36","","17","","24.1","","99.26","","","","","","Mostly Cloudy"
"2014-07-28 21:00","2014","07","28","21:00","14.4","","8.1","","66","","34","","15","","24.1","","99.34","","","","","","Mainly Clear"
"2014-07-28 22:00","2014","07","28","22:00","14.2","","8.6","","69","","34","","13","","24.1","","99.34","","","","","","Mostly Cloudy"
"2014-07-28 23:00","2014","07","28","23:00","13.1","","8.1","","72","","35","","9","","24.1","","99.31","","","","","","Mainly Clear"
"2014-07-29 00:00","2014","07","29","00:00","11.7","","8.4","","80","","28","","9","","24.1","","99.29","","","","","","Mainly Clear"
"2014-07-29 01:00","2014","07","29","01:00","12.5","","9.2","","80","","28","","11","","24.1","","99.29","","","","","","Mainly Clear"
"2014-07-29 02:00","2014","07","29","02:00","13.3","","9.2","","76","","29","","11","","24.1","","99.26","","","","","","Mostly Cloudy"
"2014-07-29 03:00","2014","07","29","03:00","12.9","","8.6","","75","","29","","11","","24.1","","99.26","","","","","","Mostly Cloudy"
"2014-07-29 04:00","2014","07","29","04:00","13.2","","8.9","","75","","28","","11","","24.1","","99.28","","","","","","Mostly Cloudy"
"2014-07-29 05:00","2014","07","29","05:00","13.1","","9.2","","77","","26","","11","","24.1","","99.27","","","","","","Mostly Cloudy"
"2014-07-29 06:00","2014","07","29","06:00","12.7","","8.6","","76","","28","","13","","24.1","","99.29","","","","","","Mainly Clear"
"2014-07-29 07:00","2014","07","29","07:00","13.9","","9.3","","74","","29","","13","","24.1","","99.33","","","","","","Mainly Clear"
"2014-07-29 08:00","2014","07","29","08:00","16.0","","10.2","","68","","28","","11","","24.1","","99.34","","","","","","Mainly Clear"
"2014-07-29 09:00","2014","07","29","09:00","17.6","","9.9","","61","","26","","17","","24.1","","99.36","","","","","","Clear"
"2014-07-29 10:00","2014","07","29","10:00","18.8","","10.4","","58","","25","","11","","24.1","","99.33","","","","","","Mainly Clear"
"2014-07-29 11:00","2014","07","29","11:00","19.4","","10.8","","57","","25","","17","","24.1","","99.35","","","","","","Mostly Cloudy"
"2014-07-29 12:00","2014","07","29","12:00","20.3","","10.5","","53","","25","","17","","24.1","","99.31","","","","","","Mostly Cloudy"
"2014-07-29 13:00","2014","07","29","13:00","21.1","","12.2","","57","","22","","19","","24.1","","99.26","","","","","","Cloudy"
"2014-07-29 14:00","2014","07","29","14:00","21.3","","12.3","","56","","24","","22","","24.1","","99.24","","","","","","Mostly Cloudy"
"2014-07-29 15:00","2014","07","29","15:00","21.7","","12.4","","55","","24","","26","","24.1","","99.21","","","","","","Mostly Cloudy"
"2014-07-29 16:00","2014","07","29","16:00","21.3","","13.0","","59","","23","","20","","24.1","","99.18","","","","","","Mostly Cloudy"
"2014-07-29 17:00","2014","07","29","17:00","21.2","","12.8","","59","","22","","22","","24.1","","99.18","","","","","","Mostly Cloudy"
"2014-07-29 18:00","2014","07","29","18:00","18.6","","16.1","","85","","32","","9","","24.1","","99.19","","","","","","Cloudy"
"2014-07-29 19:00","2014","07","29","19:00","18.4","","13.8","","75","","7","","4","","19.3","","99.17","","","","","","Mostly Cloudy"
"2014-07-29 20:00","2014","07","29","20:00","16.8","","15.1","","90","","15","","4","","24.1","","99.18","","","","","","Cloudy"
"2014-07-29 21:00","2014","07","29","21:00","17.8","","14.7","","82","","25","","13","","24.1","","99.22","","","","","","Cloudy"
"2014-07-29 22:00","2014","07","29","22:00","16.7","","13.8","","83","","26","","11","","24.1","","99.24","","","","","","Mostly Cloudy"
"2014-07-29 23:00","2014","07","29","23:00","17.4","","13.9","","80","","28","","17","","24.1","","99.21","","","","","","Cloudy"
"2014-07-30 00:00","2014","07","30","00:00","15.6","","13.3","","86","","24","","13","","24.1","","99.18","","","","","","Cloudy"
"2014-07-30 01:00","2014","07","30","01:00","15.5","","14.1","","91","","24","","13","","24.1","","99.20","","","","","","Mostly Cloudy"
"2014-07-30 02:00","2014","07","30","02:00","14.7","","13.8","","94","","23","","9","","24.1","","99.17","","","","","","Mostly Cloudy"
"2014-07-30 03:00","2014","07","30","03:00","14.2","","13.4","","95","","26","","9","","19.3","","99.19","","","","","","Mostly Cloudy"
"2014-07-30 04:00","2014","07","30","04:00","14.3","","12.9","","91","","26","","11","","19.3","","99.19","","","","","","Mostly Cloudy"
"2014-07-30 05:00","2014","07","30","05:00","13.4","","12.5","","94","","28","","7","","19.3","","99.22","","","","","","Mostly Cloudy"
"2014-07-30 06:00","2014","07","30","06:00","13.6","","12.7","","94","","29","","9","","16.1","","99.26","","","","","","Mostly Cloudy"
"2014-07-30 07:00","2014","07","30","07:00","15.8","","13.8","","88","","27","","9","","16.1","","99.28","","","","","","Mostly Cloudy"
"2014-07-30 08:00","2014","07","30","08:00","17.2","","14.7","","85","","26","","7","","16.1","","99.31","","","","","","Mostly Cloudy"
"2014-07-30 09:00","2014","07","30","09:00","18.7","","14.4","","76","","","","0","","16.1","","99.34","","","","","","Mostly Cloudy"
"2014-07-30 10:00","2014","07","30","10:00","20.0","","14.1","","69","","33","","4","","19.3","","99.36","","","","","","Mostly Cloudy"
"2014-07-30 11:00","2014","07","30","11:00","20.9","","13.8","","64","","35","","7","","19.3","","99.35","","","","","","Mostly Cloudy"
"2014-07-30 12:00","2014","07","30","12:00","21.3","","13.9","","63","","33","","7","","24.1","","99.32","","25","","","","Mostly Cloudy"
"2014-07-30 13:00","2014","07","30","13:00","22.1","","15.1","","65","","25","","11","","24.1","","99.29","","26","","","","Mostly Cloudy"
"2014-07-30 14:00","2014","07","30","14:00","23.3","","14.8","","59","","23","","9","","24.1","","99.25","","27","","","","Mostly Cloudy"
"2014-07-30 15:00","2014","07","30","15:00","20.8","","15.3","","71","","4","","22","","16.1","","99.23","","25","","","","Mostly Cloudy"
"2014-07-30 16:00","2014","07","30","16:00","22.4","","14.7","","62","","9","","11","","16.1","","99.23","","26","","","","Mainly Clear"
"2014-07-30 17:00","2014","07","30","17:00","22.1","","15.5","","66","","13","","13","","19.3","","99.19","","26","","","","Mostly Cloudy"
"2014-07-30 18:00","2014","07","30","18:00","20.2","","16.0","","77","","15","","7","","3.2","","99.21","","25","","","","Thunderstorms,Rain Showers"
"2014-07-30 19:00","2014","07","30","19:00","18.3","","16.5","","89","","11","","17","","19.3","","99.27","","","","","","Mostly Cloudy"
"2014-07-30 20:00","2014","07","30","20:00","18.0","","17.1","","94","","22","","6","","19.3","","99.28","","","","","","Cloudy"
"2014-07-30 21:00","2014","07","30","21:00","18.0","","15.9","","88","","18","","9","","19.3","","99.31","","","","","","Mostly Cloudy"
"2014-07-30 22:00","2014","07","30","22:00","15.2","","14.7","","97","","26","","7","","24.1","","99.30","","","","","","Mostly Cloudy"
"2014-07-30 23:00","2014","07","30","23:00","15.2","","14.8","","97","","21","","9","","19.3","","99.27","","","","","","Mostly Cloudy"
"2014-07-31 00:00","2014","07","31","00:00","15.7","","15.0","","96","","25","","13","","19.3","","99.29","","","","","","Mostly Cloudy"
"2014-07-31 01:00","2014","07","31","01:00","15.5","","14.6","","94","","25","","13","","19.3","","99.30","","","","","","Mostly Cloudy"
"2014-07-31 02:00","2014","07","31","02:00","14.9","","14.1","","95","","25","","11","","19.3","","99.27","","","","","","Mostly Cloudy"
"2014-07-31 03:00","2014","07","31","03:00","14.0","","12.8","","92","","25","","11","","19.3","","99.26","","","","","","Mostly Cloudy"
"2014-07-31 04:00","2014","07","31","04:00","12.7","","12.0","","96","","25","","11","","19.3","","99.30","","","","","","Mostly Cloudy"
"2014-07-31 05:00","2014","07","31","05:00","12.5","","11.6","","94","","24","","7","","24.1","","99.34","","","","","","Mostly Cloudy"
"2014-07-31 06:00","2014","07","31","06:00","11.9","","11.2","","95","","24","","9","","16.1","","99.37","","","","","","Mostly Cloudy"
"2014-07-31 07:00","2014","07","31","07:00","14.2","","12.7","","91","","24","","9","","24.1","","99.43","","","","","","Mainly Clear"
"2014-07-31 08:00","2014","07","31","08:00","16.2","","12.8","","80","","26","","11","","24.1","","99.45","","","","","","Mostly Cloudy"
"2014-07-31 09:00","2014","07","31","09:00","18.6","","12.9","","69","","28","","13","","24.1","","99.44","","","","","","Mainly Clear"
"2014-07-31 10:00","2014","07","31","10:00","21.0","","11.3","","54","","25","","11","","24.1","","99.45","","","","","","Mainly Clear"
"2014-07-31 11:00","2014","07","31","11:00","22.7","","13.0","","54","","23","","13","","24.1","","99.46","","25","","","","Mainly Clear"
"2014-07-31 12:00","2014","07","31","12:00","23.7","","13.5","","53","","25","","24","","24.1","","99.44","","27","","","","Mostly Cloudy"
"2014-07-31 13:00","2014","07","31","13:00","24.1","","15.6","","59","","24","","22","","24.1","","99.44","","28","","","","Mostly Cloudy"
"2014-07-31 14:00","2014","07","31","14:00","24.1","","15.1","","57","","22","","24","","24.1","","99.42","","28","","","","Mostly Cloudy"
"2014-07-31 15:00","2014","07","31","15:00","25.4","","14.8","","52","","22","","26","","24.1","","99.39","","29","","","","Mainly Clear"
"2014-07-31 16:00","2014","07","31","16:00","25.5","","15.4","","54","","21","","19","","24.1","","99.36","","30","","","","Mainly Clear"
"2014-07-31 17:00","2014","07","31","17:00","25.2","","15.7","","56","","19","","19","","24.1","","99.34","","30","","","","Mainly Clear"
"2014-07-31 18:00","2014","07","31","18:00","25.0","","15.4","","55","","22","","17","","19.3","","99.35","","29","","","","Mainly Clear"
"2014-07-31 19:00","2014","07","31","19:00","23.1","","15.8","","63","","19","","15","","16.1","","99.38","","28","","","","Mainly Clear"
"2014-07-31 20:00","2014","07","31","20:00","21.0","","16.5","","75","","19","","15","","12.9","","99.39","","26","","","","Mainly Clear"
"2014-07-31 21:00","2014","07","31","21:00","19.5","","16.9","","85","","19","","9","","16.1","","99.44","","","","","","Clear"
"2014-07-31 22:00","2014","07","31","22:00","19.5","","16.2","","81","","23","","6","","16.1","","99.47","","","","","","Clear"
"2014-07-31 23:00","2014","07","31","23:00","18.4","","16.0","","86","","24","","13","","19.3","","99.50","","","","","","Clear"
