"Station Name","WINDSOR A"
"Province","ONTARIO"
"Latitude","42.28"
"Longitude","-82.96"
"Elevation","189.60"
"Climate Identifier","6139525"
"WMO Identifier","71538"
"TC Identifier","YQG"
"All times are specified in Local Standard Time (LST). Add 1 hour to adjust for Daylight Saving Time where and when it is observed."

"Legend"
"E","Estimated"
"M","Missing"
"NA","Not Available"

"Date/Time","Year","Month","Day","Time","Temp (°C)","Temp Flag","Dew Point Temp (°C)","Dew Point Temp Flag","Rel Hum (%)","Rel Hum Flag","Wind Dir (10s deg)","Wind Dir Flag","Wind Spd (km/h)","Wind Spd Flag","Visibility (km)","Visibility Flag","Stn Press (kPa)","Stn Press Flag","Hmdx","Hmdx Flag","Wind Chill","Wind Chill Flag","Weather"
"2006-01-01 00:00","2006","01","01","00:00","2.3","","0.6","","89","","26","","17","","16.1","","98.78","","","","","","Cloudy"
"2006-01-01 01:00","2006","01","01","01:00","2.2","","0.4","","88","","25","","19","","16.1","","98.81","","","","","","Cloudy"
"2006-01-01 02:00","2006","01","01","02:00","2.3","","0.3","","87","","25","","19","","16.1","","98.86","","","","","","Cloudy"
"2006-01-01 03:00","2006","01","01","03:00","2.3","","0.2","","86","","26","","17","","16.1","","98.97","","","","","","Cloudy"
"2006-01-01 04:00","2006","01","01","04:00","2.1","","0.0","","86","","26","","17","","16.1","","99.03","","","","","","Cloudy"
"2006-01-01 05:00","2006","01","01","05:00","2.0","","-0.1","","86","","25","","15","","16.1","","99.05","","","","","","Cloudy"
"2006-01-01 06:00","2006","01","01","06:00","1.6","","-0.2","","88","","26","","17","","16.1","","99.16","","","","","","Cloudy"
"2006-01-01 07:00","2006","01","01","07:00","1.4","","-0.6","","87","","26","","13","","16.1","","99.22","","","","","","Mostly Cloudy"
"2006-01-01 08:00","2006","01","01","08:00","1.3","","-0.5","","88","","24","","7","","11.3","","99.27","","","","","","Cloudy"
"2006-01-01 09:00","2006","01","01","09:00","1.8","","-0.7","","83","","24","","13","","11.3","","99.35","","","","","","Cloudy"
"2006-01-01 10:00","2006","01","01","10:00","1.8","","-0.2","","87","","23","","11","","11.3","","99.39","","","","","","Cloudy"
"2006-01-01 11:00","2006","01","01","11:00","2.0","","0.0","","87","","23","","13","","9.7","","99.43","","","","","","Fog"
"2006-01-01 12:00","2006","01","01","12:00","2.7","","0.1","","83","","21","","7","","12.9","","99.36","","","","","","Mostly Cloudy"
"2006-01-01 13:00","2006","01","01","13:00","3.2","","-1.1","","73","","20","","13","","24.1","","99.34","","","","","","Mostly Cloudy"
"2006-01-01 14:00","2006","01","01","14:00","2.7","","-1.6","","73","","21","","19","","24.1","","99.34","","","","","","Mostly Cloudy"
"2006-01-01 15:00","2006","01","01","15:00","2.7","","-1.4","","74","","20","","15","","19.3","","99.33","","","","","","Cloudy"
"2006-01-01 16:00","2006","01","01","16:00","2.5","","-1.2","","77","","18","","13","","19.3","","99.32","","","","","","Cloudy"
"2006-01-01 17:00","2006","01","01","17:00","2.2","","-1.1","","79","","17","","9","","16.1","","99.38","","","","","","Cloudy"
"2006-01-01 18:00","2006","01","01","18:00","1.9","","-0.9","","82","","10","","17","","19.3","","99.31","","","","","","Cloudy"
"2006-01-01 19:00","2006","01","01","19:00","1.8","","-0.8","","83","","11","","6","","24.1","","99.35","","","","","","Cloudy"
"2006-01-01 20:00","2006","01","01","20:00","1.7","","-0.4","","86","","10","","11","","19.3","","99.32","","","","","","Cloudy"
"2006-01-01 21:00","2006","01","01","21:00","1.8","","-0.5","","85","","10","","7","","24.1","","99.32","","","","","","Cloudy"
"2006-01-01 22:00","2006","01","01","22:00","2.0","","0.4","","89","","8","","15","","12.9","","99.26","","","","","","Rain Showers"
"2006-01-01 23:00","2006","01","01","23:00","2.3","","1.0","","91","","8","","11","","12.9","","99.29","","","","","","Rain Showers"
"2006-01-02 00:00","2006","01","02","00:00","2.2","","0.9","","91","","8","","13","","9.7","","99.25","","","","","","Rain Showers,Fog"
"2006-01-02 01:00","2006","01","02","01:00","2.2","","1.1","","92","","7","","19","","8.0","","99.15","","","","","","Rain Showers,Fog"
"2006-01-02 02:00","2006","01","02","02:00","2.3","","1.2","","92","","7","","22","","6.4","","99.13","","","","","","Rain Showers,Fog"
"2006-01-02 03:00","2006","01","02","03:00","2.3","","1.4","","94","","7","","19","","6.4","","99.12","","","","","","Rain,Fog"
"2006-01-02 04:00","2006","01","02","04:00","2.6","","1.8","","94","","8","","19","","6.4","","99.05","","","","","","Rain,Fog"
"2006-01-02 05:00","2006","01","02","05:00","2.9","","1.9","","93","","9","","20","","8.0","","98.95","","","","","","Rain,Fog"
"2006-01-02 06:00","2006","01","02","06:00","3.2","","1.8","","91","","9","","30","","11.3","","98.89","","","","","","Rain Showers"
"2006-01-02 07:00","2006","01","02","07:00","3.5","","2.0","","90","","10","","19","","11.3","","98.91","","","","","","Rain Showers"
"2006-01-02 08:00","2006","01","02","08:00","3.8","","1.8","","87","","8","","20","","11.3","","98.87","","","","","","Rain"
"2006-01-02 09:00","2006","01","02","09:00","4.1","","2.1","","87","","9","","28","","12.9","","98.86","","","","","","Cloudy"
"2006-01-02 10:00","2006","01","02","10:00","3.7","","2.0","","89","","10","","32","","12.9","","98.83","","","","","","Rain"
"2006-01-02 11:00","2006","01","02","11:00","3.9","","2.0","","87","","8","","32","","19.3","","98.67","","","","","","Cloudy"
"2006-01-02 12:00","2006","01","02","12:00","3.9","","2.3","","89","","10","","19","","12.9","","98.76","","","","","","Rain"
"2006-01-02 13:00","2006","01","02","13:00","3.8","","2.8","","93","","9","","24","","8.0","","98.57","","","","","","Rain,Fog"
"2006-01-02 14:00","2006","01","02","14:00","3.8","","2.8","","93","","9","","28","","8.0","","98.49","","","","","","Fog"
"2006-01-02 15:00","2006","01","02","15:00","3.8","","2.7","","93","","8","","22","","8.0","","98.42","","","","","","Fog"
"2006-01-02 16:00","2006","01","02","16:00","3.8","","3.0","","95","","8","","26","","1.6","","98.43","","","","","","Drizzle,Fog"
"2006-01-02 17:00","2006","01","02","17:00","3.6","","2.8","","94","","7","","22","","2.4","","98.46","","","","","","Drizzle,Fog"
"2006-01-02 18:00","2006","01","02","18:00","3.1","","2.4","","95","","7","","37","","6.4","","98.47","","","","","","Rain Showers,Fog"
"2006-01-02 19:00","2006","01","02","19:00","2.9","","2.3","","96","","7","","24","","6.4","","98.48","","","","","","Drizzle,Fog"
"2006-01-02 20:00","2006","01","02","20:00","3.1","","2.5","","96","","8","","30","","6.4","","98.41","","","","","","Drizzle,Fog"
"2006-01-02 21:00","2006","01","02","21:00","3.1","","2.3","","94","","7","","28","","6.4","","98.41","","","","","","Fog"
"2006-01-02 22:00","2006","01","02","22:00","2.9","","2.1","","94","","5","","22","","6.4","","98.44","","","","","","Fog"
"2006-01-02 23:00","2006","01","02","23:00","3.2","","2.3","","94","","6","","26","","8.0","","98.44","","","","","","Drizzle,Fog"
"2006-01-03 00:00","2006","01","03","00:00","3.2","","2.5","","95","","4","","19","","4.8","","98.43","","","","","","Drizzle,Fog"
"2006-01-03 01:00","2006","01","03","01:00","3.3","","2.6","","95","","5","","22","","4.0","","98.48","","","","","","Drizzle,Fog"
"2006-01-03 02:00","2006","01","03","02:00","3.1","","2.4","","95","","3","","28","","4.0","","98.47","","","","","","Drizzle,Fog"
"2006-01-03 03:00","2006","01","03","03:00","3.4","","2.5","","94","","3","","22","","4.8","","98.56","","","","","","Rain,Fog"
"2006-01-03 04:00","2006","01","03","04:00","3.4","","2.5","","94","","3","","28","","4.8","","98.61","","","","","","Rain Showers,Fog"
"2006-01-03 05:00","2006","01","03","05:00","3.1","","2.6","","97","","3","","22","","3.6","","98.64","","","","","","Rain Showers,Fog"
"2006-01-03 06:00","2006","01","03","06:00","3.2","","2.7","","97","","3","","22","","3.2","","98.72","","","","","","Drizzle,Fog"
"2006-01-03 07:00","2006","01","03","07:00","3.2","","2.7","","97","","4","","17","","2.8","","98.77","","","","","","Drizzle,Fog"
"2006-01-03 08:00","2006","01","03","08:00","3.3","","2.7","","96","","3","","17","","1.6","","98.86","","","","","","Drizzle,Fog"
"2006-01-03 09:00","2006","01","03","09:00","3.4","","2.9","","97","","4","","15","","2.0","","98.91","","","","","","Drizzle,Fog"
"2006-01-03 10:00","2006","01","03","10:00","3.7","","2.9","","94","","5","","13","","4.8","","98.96","","","","","","Fog"
"2006-01-03 11:00","2006","01","03","11:00","3.9","","2.9","","93","","1","","13","","6.4","","99.10","","","","","","Fog"
"2006-01-03 12:00","2006","01","03","12:00","4.2","","2.7","","90","","1","","11","","8.0","","99.13","","","","","","Fog"
"2006-01-03 13:00","2006","01","03","13:00","4.1","","2.9","","92","","35","","11","","4.8","","99.17","","","","","","Drizzle,Fog"
"2006-01-03 14:00","2006","01","03","14:00","4.5","","3.3","","92","","5","","9","","6.4","","99.09","","","","","","Fog"
"2006-01-03 15:00","2006","01","03","15:00","4.6","","3.4","","92","","8","","17","","8.0","","98.99","","","","","","Fog"
"2006-01-03 16:00","2006","01","03","16:00","4.4","","2.9","","90","","36","","6","","8.0","","99.16","","","","","","Fog"
"2006-01-03 17:00","2006","01","03","17:00","4.2","","2.9","","91","","6","","4","","8.0","","99.20","","","","","","Fog"
"2006-01-03 18:00","2006","01","03","18:00","4.0","","2.9","","93","","","","0","","8.0","","99.22","","","","","","Fog"
"2006-01-03 19:00","2006","01","03","19:00","4.0","","2.9","","93","","","","0","","8.0","","99.28","","","","","","Fog"
"2006-01-03 20:00","2006","01","03","20:00","3.9","","3.3","","96","","","","0","","6.4","","99.30","","","","","","Drizzle,Fog"
"2006-01-03 21:00","2006","01","03","21:00","3.8","","3.3","","97","","13","","4","","4.8","","99.27","","","","","","Drizzle,Fog"
"2006-01-03 22:00","2006","01","03","22:00","3.7","","3.1","","96","","16","","6","","6.4","","99.22","","","","","","Drizzle,Fog"
"2006-01-03 23:00","2006","01","03","23:00","3.7","","2.9","","94","","","","0","","8.0","","99.17","","","","","","Fog"
"2006-01-04 00:00","2006","01","04","00:00","3.6","","2.8","","94","","20","","6","","4.8","","99.12","","","","","","Fog"
"2006-01-04 01:00","2006","01","04","01:00","3.4","","2.6","","94","","19","","11","","6.4","","99.03","","","","","","Fog"
"2006-01-04 02:00","2006","01","04","02:00","2.9","","2.2","","95","","19","","13","","4.8","","98.99","","","","","","Fog"
"2006-01-04 03:00","2006","01","04","03:00","2.9","","2.2","","95","","20","","11","","4.8","","98.98","","","","","","Fog"
"2006-01-04 04:00","2006","01","04","04:00","3.1","","2.7","","97","","20","","13","","1.6","","98.93","","","","","","Drizzle,Fog"
"2006-01-04 05:00","2006","01","04","05:00","3.7","","3.2","","97","","18","","6","","2.0","","98.86","","","","","","Drizzle,Fog"
"2006-01-04 06:00","2006","01","04","06:00","3.9","","3.7","","99","","18","","13","","1.6","","98.75","","","","","","Drizzle,Fog"
"2006-01-04 07:00","2006","01","04","07:00","4.5","","4.2","","98","","17","","15","","2.0","","98.65","","","","","","Drizzle,Fog"
"2006-01-04 08:00","2006","01","04","08:00","5.0","","4.8","","99","","18","","19","","1.6","","98.57","","","","","","Drizzle,Fog"
"2006-01-04 09:00","2006","01","04","09:00","5.3","","5.1","","99","","17","","22","","1.2","","98.46","","","","","","Drizzle,Fog"
"2006-01-04 10:00","2006","01","04","10:00","5.8","","5.6","","99","","21","","17","","2.4","","98.50","","","","","","Drizzle,Fog"
"2006-01-04 11:00","2006","01","04","11:00","6.2","","5.8","","97","","22","","20","","3.2","","98.42","","","","","","Drizzle,Fog"
"2006-01-04 12:00","2006","01","04","12:00","6.2","","5.8","","97","","23","","19","E","3.2","","98.28","","","","","","Drizzle,Fog"
"2006-01-04 13:00","2006","01","04","13:00","6.3","","5.9","","97","","21","","17","","3.2","","98.15","","","","","","Drizzle,Fog"
"2006-01-04 14:00","2006","01","04","14:00","6.5","","6.1","","97","","22","","17","","4.0","","98.06","","","","","","Drizzle,Fog"
"2006-01-04 15:00","2006","01","04","15:00","6.5","","6.0","","97","","21","","20","","3.2","","98.02","","","","","","Drizzle,Fog"
"2006-01-04 16:00","2006","01","04","16:00","6.3","","5.9","","97","","21","","15","","3.2","","98.02","","","","","","Drizzle,Fog"
"2006-01-04 17:00","2006","01","04","17:00","6.2","","5.9","","98","","22","","13","","3.2","","98.04","","","","","","Drizzle,Fog"
"2006-01-04 18:00","2006","01","04","18:00","6.2","","5.9","","98","","23","","13","","3.2","","98.06","","","","","","Drizzle,Fog"
"2006-01-04 19:00","2006","01","04","19:00","6.5","","6.1","","97","","25","","19","","8.0","","98.07","","","","","","Drizzle,Fog"
"2006-01-04 20:00","2006","01","04","20:00","6.7","","5.7","","93","","29","","22","","12.9","","98.12","","","","","","Cloudy"
"2006-01-04 21:00","2006","01","04","21:00","6.1","","4.2","","88","","28","","28","","16.1","","98.15","","","","","","Cloudy"
"2006-01-04 22:00","2006","01","04","22:00","5.6","","3.4","","86","","27","","28","","24.1","","98.17","","","","","","Cloudy"
"2006-01-04 23:00","2006","01","04","23:00","4.9","","2.4","","84","","27","","37","","24.1","","98.19","","","","","","Cloudy"
"2006-01-05 00:00","2006","01","05","00:00","4.3","","1.5","","82","","27","","30","","24.1","","98.22","","","","","","Rain Showers"
"2006-01-05 01:00","2006","01","05","01:00","4.1","","0.7","","78","","28","","35","","24.1","","98.23","","","","","","Cloudy"
"2006-01-05 02:00","2006","01","05","02:00","3.9","","0.7","","80","","28","","30","","24.1","","98.26","","","","","","Cloudy"
"2006-01-05 03:00","2006","01","05","03:00","3.3","","0.9","","84","","28","","24","","24.1","","98.36","","","","","","Rain Showers"
"2006-01-05 04:00","2006","01","05","04:00","3.1","","0.7","","84","","29","","28","","24.1","","98.39","","","","","","Cloudy"
"2006-01-05 05:00","2006","01","05","05:00","2.8","","0.6","","85","","28","","24","","19.3","","98.42","","","","","","Rain Showers"
"2006-01-05 06:00","2006","01","05","06:00","2.8","","0.4","","84","","29","","20","","24.1","","98.44","","","","","","Cloudy"
"2006-01-05 07:00","2006","01","05","07:00","2.8","","0.5","","85","","30","","17","","24.1","","98.48","","","","","","Cloudy"
"2006-01-05 08:00","2006","01","05","08:00","2.8","","0.4","","84","","31","","17","","24.1","","98.55","","","","","","Cloudy"
"2006-01-05 09:00","2006","01","05","09:00","3.0","","0.5","","84","","32","","19","","24.1","","98.61","","","","","","Cloudy"
"2006-01-05 10:00","2006","01","05","10:00","3.2","","0.2","","81","","32","","19","","24.1","","98.68","","","","","","Cloudy"
"2006-01-05 11:00","2006","01","05","11:00","3.1","","0.0","","80","","34","","19","","24.1","","98.71","","","","","","Rain Showers"
"2006-01-05 12:00","2006","01","05","12:00","2.6","","0.2","","84","","34","","17","","16.1","","98.68","","","","","","Snow Showers"
"2006-01-05 13:00","2006","01","05","13:00","2.5","","0.4","","86","","34","","20","","16.1","","98.69","","","","","","Rain Showers,Snow Showers"
"2006-01-05 14:00","2006","01","05","14:00","2.3","","0.0","","85","","34","","22","","8.0","","98.69","","","","","","Snow Showers,Haze"
"2006-01-05 15:00","2006","01","05","15:00","1.3","","-0.2","","90","","35","","19","","3.2","","98.74","","","","","","Snow Showers,Fog"
"2006-01-05 16:00","2006","01","05","16:00","0.9","","0.1","","94","","33","","17","","1.6","","98.83","","","","","","Snow Showers"
"2006-01-05 17:00","2006","01","05","17:00","1.0","","0.1","","94","","34","","7","","12.9","","98.89","","","","","","Cloudy"
"2006-01-05 18:00","2006","01","05","18:00","1.6","","-0.5","","86","","35","","11","","19.3","","98.94","","","","","","Snow Showers"
"2006-01-05 19:00","2006","01","05","19:00","0.9","","-3.0","","75","","35","","22","","24.1","","99.03","","","","","","Cloudy"
"2006-01-05 20:00","2006","01","05","20:00","0.5","","-4.7","","68","","35","","19","","24.1","","99.07","","","","","","Cloudy"
"2006-01-05 21:00","2006","01","05","21:00","-0.1","","-4.4","","73","","35","","22","","24.1","","99.10","","","","-6","","Snow Showers"
"2006-01-05 22:00","2006","01","05","22:00","-0.6","","-5.4","","70","","33","","22","","24.1","","99.13","","","","-6","","Snow Showers"
"2006-01-05 23:00","2006","01","05","23:00","-1.2","","-5.9","","70","","35","","24","","24.1","","99.16","","","","-7","","Snow Showers"
"2006-01-06 00:00","2006","01","06","00:00","-1.5","","-6.9","","67","","32","","26","","24.1","","99.18","","","","-8","","Snow Showers"
"2006-01-06 01:00","2006","01","06","01:00","-2.1","","-6.1","","74","","34","","19","","24.1","","99.19","","","","-8","","Snow Showers"
"2006-01-06 02:00","2006","01","06","02:00","-2.4","","-6.4","","74","","35","","26","","24.1","","99.21","","","","-9","","Snow Showers"
"2006-01-06 03:00","2006","01","06","03:00","-3.4","","-9.3","","64","","34","","24","","24.1","","99.29","","","","-10","","Snow Showers"
"2006-01-06 04:00","2006","01","06","04:00","-4.3","","-8.5","","72","","34","","19","","24.1","","99.33","","","","-10","","Mostly Cloudy"
"2006-01-06 05:00","2006","01","06","05:00","-5.2","","-9.9","","70","","34","","22","","24.1","","99.35","","","","-12","","Mainly Clear"
"2006-01-06 06:00","2006","01","06","06:00","-5.9","","-10.8","","68","","35","","22","","24.1","","99.40","","","","-13","","Mainly Clear"
"2006-01-06 07:00","2006","01","06","07:00","-6.0","","-9.8","","74","","34","","17","","24.1","","99.45","","","","-12","","Mainly Clear"
"2006-01-06 08:00","2006","01","06","08:00","-6.3","","-10.0","","75","","34","","17","","24.1","","99.49","","","","-13","","Snow Showers"
"2006-01-06 09:00","2006","01","06","09:00","-6.3","","-11.3","","68","","32","","20","","24.1","","99.52","","","","-13","","Mainly Clear"
"2006-01-06 10:00","2006","01","06","10:00","-6.0","","-12.2","","61","","35","","17","","24.1","","99.55","","","","-12","","Clear"
"2006-01-06 11:00","2006","01","06","11:00","-5.0","","-11.4","","61","","32","","22","","24.1","","99.56","","","","-12","","Clear"
"2006-01-06 12:00","2006","01","06","12:00","-4.3","","-11.4","","58","","32","","17","","24.1","","99.46","","","","-10","","Mainly Clear"
"2006-01-06 13:00","2006","01","06","13:00","-3.6","","-11.1","","56","","32","","17","","24.1","","99.38","","","","-9","","Mostly Cloudy"
"2006-01-06 14:00","2006","01","06","14:00","-3.5","","-10.4","","59","","29","","13","","24.1","","99.30","","","","-8","","Mainly Clear"
"2006-01-06 15:00","2006","01","06","15:00","-2.6","","-11.4","","51","","30","","19","","24.1","","99.33","","","","-8","","Mainly Clear"
"2006-01-06 16:00","2006","01","06","16:00","-2.5","","-11.0","","52","","28","","20","","24.1","","99.34","","","","-8","","Mainly Clear"
"2006-01-06 17:00","2006","01","06","17:00","-2.7","","-10.7","","54","","28","","13","","24.1","","99.30","","","","-7","","Mainly Clear"
"2006-01-06 18:00","2006","01","06","18:00","-3.2","","-10.3","","58","","25","","9","","24.1","","99.26","","","","-7","","Mostly Cloudy"
"2006-01-06 19:00","2006","01","06","19:00","-3.3","","-9.1","","64","","21","","9","","24.1","","99.21","","","","-7","","Mostly Cloudy"
"2006-01-06 20:00","2006","01","06","20:00","-3.5","","-8.3","","69","","21","","11","","24.1","","99.15","","","","-8","","Mostly Cloudy"
"2006-01-06 21:00","2006","01","06","21:00","-3.1","","-8.2","","68","","23","","15","","24.1","","99.12","","","","-8","","Mostly Cloudy"
"2006-01-06 22:00","2006","01","06","22:00","-3.3","","-8.1","","69","","23","","17","","24.1","","99.07","","","","-9","","Mostly Cloudy"
"2006-01-06 23:00","2006","01","06","23:00","-2.6","","-7.6","","68","","22","","15","","24.1","","98.99","","","","-8","","Mostly Cloudy"
"2006-01-07 00:00","2006","01","07","00:00","-2.2","","-7.1","","69","","22","","17","","24.1","","98.88","","","","-8","","Cloudy"
"2006-01-07 01:00","2006","01","07","01:00","-2.0","","-6.6","","71","","23","","22","","24.1","","98.80","","","","-8","","Cloudy"
"2006-01-07 02:00","2006","01","07","02:00","-1.9","","-6.5","","71","","22","","26","","24.1","","98.68","","","","-8","","Cloudy"
"2006-01-07 03:00","2006","01","07","03:00","-1.5","","-6.1","","71","","22","","28","","24.1","","98.65","","","","-8","","Cloudy"
"2006-01-07 04:00","2006","01","07","04:00","-1.5","","-5.6","","74","","22","","22","","24.1","","98.55","","","","-7","","Cloudy"
"2006-01-07 05:00","2006","01","07","05:00","-1.2","","-5.4","","73","","23","","28","","24.1","","98.47","","","","-8","","Cloudy"
"2006-01-07 06:00","2006","01","07","06:00","-1.0","","-5.0","","74","","23","","22","","24.1","","98.44","","","","-7","","Cloudy"
"2006-01-07 07:00","2006","01","07","07:00","-0.9","","-4.7","","75","","23","","24","","24.1","","98.44","","","","-7","","Snow Showers"
"2006-01-07 08:00","2006","01","07","08:00","-1.5","","-3.1","","89","","22","","20","","6.4","","98.43","","","","-7","","Snow Pellets"
"2006-01-07 09:00","2006","01","07","09:00","-1.3","","-2.5","","92","","23","","19","","4.8","","98.47","","","","-7","","Snow Pellets"
"2006-01-07 10:00","2006","01","07","10:00","-1.0","","-2.4","","90","","22","","24","","4.0","","98.45","","","","-7","","Snow"
"2006-01-07 11:00","2006","01","07","11:00","-0.5","","-2.2","","88","","23","","24","","6.4","","98.42","","","","-6","","Snow"
"2006-01-07 12:00","2006","01","07","12:00","-0.1","","-2.3","","85","","23","","22","","8.0","","98.33","","","","-6","","Snow"
"2006-01-07 13:00","2006","01","07","13:00","0.3","","-2.2","","83","","22","","19","","9.7","","98.24","","","","","","Snow"
"2006-01-07 14:00","2006","01","07","14:00","0.6","","-2.0","","83","","23","","24","","9.7","","98.19","","","","","","Snow"
"2006-01-07 15:00","2006","01","07","15:00","0.3","","-1.6","","87","","23","","17","","9.7","","98.23","","","","","","Snow,Fog"
"2006-01-07 16:00","2006","01","07","16:00","0.2","","-0.9","","92","","23","","19","","3.2","","98.29","","","","","","Rain,Fog"
"2006-01-07 17:00","2006","01","07","17:00","0.2","","-1.1","","91","","23","","17","","4.8","","98.35","","","","","","Snow"
"2006-01-07 18:00","2006","01","07","18:00","0.3","","-1.1","","90","","23","","17","","6.4","","98.41","","","","","","Snow"
"2006-01-07 19:00","2006","01","07","19:00","0.3","","-0.9","","92","","24","","13","","6.4","","98.49","","","","","","Freezing Rain,Snow"
"2006-01-07 20:00","2006","01","07","20:00","0.4","","-1.1","","90","","25","","17","","8.0","","98.53","","","","","","Snow"
"2006-01-07 21:00","2006","01","07","21:00","0.6","","-1.2","","88","","26","","15","","8.0","","98.59","","","","","","Snow"
"2006-01-07 22:00","2006","01","07","22:00","0.7","","-1.1","","88","","27","","19","","8.0","","98.63","","","","","","Snow"
"2006-01-07 23:00","2006","01","07","23:00","0.6","","-0.8","","90","","26","","9","","9.7","","98.67","","","","","","Fog"
"2006-01-08 00:00","2006","01","08","00:00","0.7","","-0.9","","89","","26","","9","","9.7","","98.72","","","","","","Fog"
"2006-01-08 01:00","2006","01","08","01:00","0.7","","-0.9","","89","","26","","9","","9.7","","98.76","","","","","","Fog"
"2006-01-08 02:00","2006","01","08","02:00","0.7","","-0.9","","89","","25","","9","","9.7","","98.86","","","","","","Fog"
"2006-01-08 03:00","2006","01","08","03:00","0.9","","-0.9","","88","","25","","7","","9.7","","98.92","","","","","","Fog"
"2006-01-08 04:00","2006","01","08","04:00","0.5","","-0.9","","90","","24","","6","","9.7","","98.95","","","","","","Fog"
"2006-01-08 05:00","2006","01","08","05:00","0.3","","-1.0","","91","","24","","4","","9.7","","98.99","","","","","","Fog"
"2006-01-08 06:00","2006","01","08","06:00","-0.2","","-1.3","","92","","9","","4","","9.7","","98.99","","","","-1","","Fog"
"2006-01-08 07:00","2006","01","08","07:00","-0.5","","-1.4","","94","","15","","7","","6.4","","99.01","","","","-3","","Fog"
"2006-01-08 08:00","2006","01","08","08:00","-0.8","","-1.8","","93","","13","","7","","8.0","","99.01","","","","-3","","Fog"
"2006-01-08 09:00","2006","01","08","09:00","0.0","","-1.0","","93","","15","","11","","6.4","","99.03","","","","-4","","Fog"
"2006-01-08 10:00","2006","01","08","10:00","0.7","","-0.7","","90","","13","","13","","8.0","","99.02","","","","","","Fog"
"2006-01-08 11:00","2006","01","08","11:00","1.6","","-0.9","","83","","10","","20","","12.9","","98.90","","","","","","Cloudy"
"2006-01-08 12:00","2006","01","08","12:00","2.5","","-2.5","","70","","11","","24","","19.3","","98.75","","","","","","Mostly Cloudy"
"2006-01-08 13:00","2006","01","08","13:00","3.2","","-1.1","","73","","13","","20","","24.1","","98.68","","","","","","Mostly Cloudy"
"2006-01-08 14:00","2006","01","08","14:00","3.9","","-0.3","","74","","11","","20","","24.1","","98.42","","","","","","Mostly Cloudy"
"2006-01-08 15:00","2006","01","08","15:00","3.7","","-0.4","","75","","10","","32","","24.1","","98.24","","","","","","Mainly Clear"
"2006-01-08 16:00","2006","01","08","16:00","3.2","","-0.4","","77","","10","","28","","24.1","","98.23","","","","","","Mainly Clear"
"2006-01-08 17:00","2006","01","08","17:00","2.0","","-0.6","","83","","10","","22","","16.1","","98.25","","","","","","Mainly Clear"
"2006-01-08 18:00","2006","01","08","18:00","1.3","","-0.7","","87","","10","","22","","12.9","","98.23","","","","","","Mostly Cloudy"
"2006-01-08 19:00","2006","01","08","19:00","1.7","","-0.3","","87","","11","","13","","14.5","","98.18","","","","","","Mostly Cloudy"
"2006-01-08 20:00","2006","01","08","20:00","1.8","","-0.2","","87","","10","","13","","16.1","","98.11","","","","","","Mostly Cloudy"
"2006-01-08 21:00","2006","01","08","21:00","1.9","","-0.2","","86","","9","","11","","16.1","","98.05","","","","","","Mostly Cloudy"
"2006-01-08 22:00","2006","01","08","22:00","2.0","","-0.3","","85","","9","","9","","19.3","","98.00","","","","","","Mainly Clear"
"2006-01-08 23:00","2006","01","08","23:00","0.9","","-0.8","","88","","10","","7","","19.3","","97.95","","","","","","Mainly Clear"
"2006-01-09 00:00","2006","01","09","00:00","0.9","","-0.8","","88","","1","","7","","19.3","","97.92","","","","","","Mainly Clear"
"2006-01-09 01:00","2006","01","09","01:00","0.2","","-1.1","","91","","","","0","","19.3","","97.89","","","","","","Mainly Clear"
"2006-01-09 02:00","2006","01","09","02:00","0.3","","-0.7","","93","","","","0","","16.1","","97.96","","","","","","Mostly Cloudy"
"2006-01-09 03:00","2006","01","09","03:00","0.4","","-0.9","","91","","25","","6","","11.3","","98.09","","","","","","Mainly Clear"
"2006-01-09 04:00","2006","01","09","04:00","0.6","","-0.5","","92","","29","","9","","9.7","","98.24","","","","","","Fog"
"2006-01-09 05:00","2006","01","09","05:00","1.4","","-0.3","","88","","30","","17","","9.7","","98.41","","","","","","Fog"
"2006-01-09 06:00","2006","01","09","06:00","1.7","","-0.6","","85","","29","","19","","11.3","","98.63","","","","","","Mostly Cloudy"
"2006-01-09 07:00","2006","01","09","07:00","1.8","","-1.0","","82","","30","","28","","11.3","","98.86","","","","","","Cloudy"
"2006-01-09 08:00","2006","01","09","08:00","1.8","","-1.1","","81","","32","","20","","11.3","","99.05","","","","","","Cloudy"
"2006-01-09 09:00","2006","01","09","09:00","2.0","","-1.2","","79","","29","","15","","12.9","","99.28","","","","","","Mostly Cloudy"
"2006-01-09 10:00","2006","01","09","10:00","2.3","","-1.6","","75","","30","","17","","19.3","","99.51","","","","","","Cloudy"
"2006-01-09 11:00","2006","01","09","11:00","2.6","","-1.6","","74","","31","","15","","19.3","","99.63","","","","","","Cloudy"
"2006-01-09 12:00","2006","01","09","12:00","3.0","","-1.5","","72","","29","","22","","19.3","","99.66","","","","","","Cloudy"
"2006-01-09 13:00","2006","01","09","13:00","2.8","","-1.8","","72","","31","","15","","19.3","","99.73","","","","","","Cloudy"
"2006-01-09 14:00","2006","01","09","14:00","2.8","","-1.7","","72","","29","","19","","24.1","","99.81","","","","","","Cloudy"
"2006-01-09 15:00","2006","01","09","15:00","3.8","","-1.5","","68","","29","","17","","24.1","","99.89","","","","","","Cloudy"
"2006-01-09 16:00","2006","01","09","16:00","3.8","","-1.5","","68","","29","","19","","24.1","","100.00","","","","","","Cloudy"
"2006-01-09 17:00","2006","01","09","17:00","3.7","","-1.2","","70","","29","","15","","19.3","","100.11","","","","","","Cloudy"
"2006-01-09 18:00","2006","01","09","18:00","3.6","","-0.9","","72","","28","","17","","19.3","","100.16","","","","","","Cloudy"
"2006-01-09 19:00","2006","01","09","19:00","3.4","","-1.2","","72","","28","","17","","19.3","","100.27","","","","","","Cloudy"
"2006-01-09 20:00","2006","01","09","20:00","3.1","","-1.2","","73","","29","","13","","24.1","","100.35","","","","","","Cloudy"
"2006-01-09 21:00","2006","01","09","21:00","2.8","","-1.1","","75","","28","","11","","24.1","","100.42","","","","","","Cloudy"
"2006-01-09 22:00","2006","01","09","22:00","3.1","","-3.0","","64","","29","","13","","24.1","","100.46","","","","","","Cloudy"
"2006-01-09 23:00","2006","01","09","23:00","2.7","","-3.0","","66","","31","","17","","24.1","","100.53","","","","","","Cloudy"
"2006-01-10 00:00","2006","01","10","00:00","2.5","","-3.7","","64","","30","","20","","24.1","","100.59","","","","","","Cloudy"
"2006-01-10 01:00","2006","01","10","01:00","2.0","","-4.7","","61","","30","","17","","24.1","","100.61","","","","","","Cloudy"
"2006-01-10 02:00","2006","01","10","02:00","2.0","","-5.1","","59","","30","","11","","24.1","","100.65","","","","","","Cloudy"
"2006-01-10 03:00","2006","01","10","03:00","1.7","","-5.1","","61","","31","","6","","24.1","","100.70","","","","","","Cloudy"
"2006-01-10 04:00","2006","01","10","04:00","1.5","","-5.0","","62","","29","","4","","24.1","","100.69","","","","","","Mostly Cloudy"
"2006-01-10 05:00","2006","01","10","05:00","1.6","","-5.0","","61","","23","","6","","24.1","","100.66","","","","","","Mostly Cloudy"
"2006-01-10 06:00","2006","01","10","06:00","0.6","","-5.3","","65","","24","","7","","24.1","","100.65","","","","","","Mainly Clear"
"2006-01-10 07:00","2006","01","10","07:00","-0.7","","-5.3","","71","","21","","6","","24.1","","100.66","","","","-3","","Mainly Clear"
"2006-01-10 08:00","2006","01","10","08:00","-1.3","","-4.4","","79","","18","","6","","24.1","","100.80","","","","-4","","Mainly Clear"
"2006-01-10 09:00","2006","01","10","09:00","0.2","","-3.8","","74","","14","","6","","24.1","","100.79","","","","","","Mainly Clear"
"2006-01-10 10:00","2006","01","10","10:00","2.5","","-3.9","","63","","16","","7","","24.1","","100.79","","","","","","Mainly Clear"
"2006-01-10 11:00","2006","01","10","11:00","3.0","","-3.6","","62","","17","","19","","24.1","","100.78","","","","","","Mainly Clear"
"2006-01-10 12:00","2006","01","10","12:00","3.3","","-3.4","","61","","18","","22","","24.1","","100.63","","","","","","Mainly Clear"
"2006-01-10 13:00","2006","01","10","13:00","2.3","","-3.7","","64","","18","","19","","24.1","","100.47","","","","","","Mostly Cloudy"
"2006-01-10 14:00","2006","01","10","14:00","2.3","","-3.3","","66","","18","","22","","24.1","","100.39","","","","","","Mostly Cloudy"
"2006-01-10 15:00","2006","01","10","15:00","2.5","","-2.8","","68","","18","","13","","24.1","","100.33","","","","","","Cloudy"
"2006-01-10 16:00","2006","01","10","16:00","2.6","","-2.7","","68","","16","","9","","24.1","","100.24","","","","","","Cloudy"
"2006-01-10 17:00","2006","01","10","17:00","2.5","","-1.8","","73","","14","","9","","24.1","","100.15","","","","","","Cloudy"
"2006-01-10 18:00","2006","01","10","18:00","2.1","","-1.8","","75","","9","","7","","19.3","","100.05","","","","","","Cloudy"
"2006-01-10 19:00","2006","01","10","19:00","1.9","","-1.8","","76","","8","","11","","19.3","","99.98","","","","","","Cloudy"
"2006-01-10 20:00","2006","01","10","20:00","1.6","","-1.4","","80","","9","","11","","19.3","","99.96","","","","","","Rain Showers"
"2006-01-10 21:00","2006","01","10","21:00","1.3","","-0.8","","86","","8","","11","","11.3","","99.85","","","","","","Rain Showers"
"2006-01-10 22:00","2006","01","10","22:00","1.2","","-0.1","","91","","8","","13","","9.7","","99.75","","","","","","Rain"
"2006-01-10 23:00","2006","01","10","23:00","1.5","","0.4","","92","","8","","11","","9.7","","99.65","","","","","","Rain"
"2006-01-11 00:00","2006","01","11","00:00","1.9","","1.1","","94","","8","","11","","9.7","","99.52","","","","","","Rain,Fog"
"2006-01-11 01:00","2006","01","11","01:00","2.3","","1.6","","95","","6","","9","","4.8","","99.43","","","","","","Rain,Fog"
"2006-01-11 02:00","2006","01","11","02:00","2.6","","2.0","","96","","10","","11","","6.4","","99.32","","","","","","Rain,Fog"
"2006-01-11 03:00","2006","01","11","03:00","3.1","","2.6","","97","","11","","7","","6.4","","99.18","","","","","","Fog"
"2006-01-11 04:00","2006","01","11","04:00","3.7","","3.2","","97","","11","","7","","6.4","","99.08","","","","","","Fog"
"2006-01-11 05:00","2006","01","11","05:00","4.2","","3.7","","97","","19","","9","","6.4","","99.06","","","","","","Fog"
"2006-01-11 06:00","2006","01","11","06:00","5.9","","5.1","","95","","21","","20","","6.4","","98.96","","","","","","Fog"
"2006-01-11 07:00","2006","01","11","07:00","6.1","","5.3","","95","","19","","17","","6.4","","98.91","","","","","","Fog"
"2006-01-11 08:00","2006","01","11","08:00","6.8","","6.0","","95","","20","","17","","6.4","","98.88","","","","","","Fog"
"2006-01-11 09:00","2006","01","11","09:00","7.7","","6.4","","91","","20","","19","","8.0","","98.87","","","","","","Fog"
"2006-01-11 10:00","2006","01","11","10:00","8.9","","6.9","","87","","19","","26","","12.9","","98.81","","","","","","Mostly Cloudy"
"2006-01-11 11:00","2006","01","11","11:00","8.5","","7.0","","90","","20","","32","","8.0","","98.76","","","","","","Rain Showers,Fog"
"2006-01-11 12:00","2006","01","11","12:00","8.4","","6.3","","87","","23","","24","","11.3","","98.67","","","","","","Cloudy"
"2006-01-11 13:00","2006","01","11","13:00","8.1","","4.8","","80","","24","","32","","16.1","","98.63","","","","","","Cloudy"
"2006-01-11 14:00","2006","01","11","14:00","7.2","","4.0","","80","","23","","30","","24.1","","98.60","","","","","","Mostly Cloudy"
"2006-01-11 15:00","2006","01","11","15:00","7.2","","2.9","","74","","24","","37","","24.1","","98.69","","","","","","Mostly Cloudy"
"2006-01-11 16:00","2006","01","11","16:00","5.6","","0.4","","69","","24","","32","","24.1","","98.78","","","","","","Mostly Cloudy"
"2006-01-11 17:00","2006","01","11","17:00","4.8","","0.8","","75","","24","","26","","24.1","","98.79","","","","","","Cloudy"
"2006-01-11 18:00","2006","01","11","18:00","4.0","","1.2","","82","","24","","33","","24.1","","98.86","","","","","","Cloudy"
"2006-01-11 19:00","2006","01","11","19:00","3.9","","1.3","","83","","24","","30","","24.1","","98.89","","","","","","Cloudy"
"2006-01-11 20:00","2006","01","11","20:00","3.8","","1.8","","87","","24","","26","","24.1","","98.90","","","","","","Cloudy"
"2006-01-11 21:00","2006","01","11","21:00","3.8","","1.6","","86","","23","","26","","24.1","","98.88","","","","","","Cloudy"
"2006-01-11 22:00","2006","01","11","22:00","4.0","","1.9","","86","","23","","22","","24.1","","98.88","","","","","","Cloudy"
"2006-01-11 23:00","2006","01","11","23:00","4.4","","2.3","","86","","23","","30","","24.1","","98.89","","","","","","Cloudy"
"2006-01-12 00:00","2006","01","12","00:00","4.4","","1.8","","83","","24","","22","","24.1","","98.93","","","","","","Cloudy"
"2006-01-12 01:00","2006","01","12","01:00","3.3","","1.4","","87","","24","","11","","24.1","","98.87","","","","","","Mostly Cloudy"
"2006-01-12 02:00","2006","01","12","02:00","2.5","","1.1","","90","","21","","19","","24.1","","98.82","","","","","","Mainly Clear"
"2006-01-12 03:00","2006","01","12","03:00","2.2","","0.7","","90","","22","","15","","24.1","","98.82","","","","","","Clear"
"2006-01-12 04:00","2006","01","12","04:00","2.0","","0.5","","90","","22","","13","","24.1","","98.79","","","","","","Clear"
"2006-01-12 05:00","2006","01","12","05:00","1.5","","0.3","","92","","22","","9","","24.1","","98.77","","","","","","Mainly Clear"
"2006-01-12 06:00","2006","01","12","06:00","2.2","","-0.1","","85","","23","","11","","24.1","","98.78","","","","","","Clear"
"2006-01-12 07:00","2006","01","12","07:00","1.8","","-0.5","","85","","22","","11","","24.1","","98.83","","","","","","Mainly Clear"
"2006-01-12 08:00","2006","01","12","08:00","2.1","","-0.4","","83","","21","","11","","19.3","","98.88","","","","","","Mostly Cloudy"
"2006-01-12 09:00","2006","01","12","09:00","2.7","","0.2","","84","","22","","15","","24.1","","98.90","","","","","","Mostly Cloudy"
"2006-01-12 10:00","2006","01","12","10:00","4.3","","0.8","","78","","22","","20","","19.3","","98.90","","","","","","Mainly Clear"
"2006-01-12 11:00","2006","01","12","11:00","5.7","","1.2","","73","","22","","26","","24.1","","98.87","","","","","","Mostly Cloudy"
"2006-01-12 12:00","2006","01","12","12:00","7.6","","2.3","","69","","22","","22","","24.1","","98.80","","","","","","Mostly Cloudy"
"2006-01-12 13:00","2006","01","12","13:00","8.7","","2.5","","65","","22","","20","","24.1","","98.70","","","","","","Mainly Clear"
"2006-01-12 14:00","2006","01","12","14:00","9.4","","2.7","","63","","21","","22","","24.1","","98.63","","","","","","Mostly Cloudy"
"2006-01-12 15:00","2006","01","12","15:00","10.1","","2.8","","60","","21","","26","","24.1","","98.64","","","","","","Mainly Clear"
"2006-01-12 16:00","2006","01","12","16:00","10.5","","3.9","","64","","20","","20","","24.1","","98.64","","","","","","Mainly Clear"
"2006-01-12 17:00","2006","01","12","17:00","8.9","","3.5","","69","","19","","15","","24.1","","98.63","","","","","","Mainly Clear"
"2006-01-12 18:00","2006","01","12","18:00","8.4","","2.8","","68","","20","","19","","24.1","","98.62","","","","","","Mainly Clear"
"2006-01-12 19:00","2006","01","12","19:00","7.5","","2.4","","70","","20","","24","","24.1","","98.65","","","","","","Clear"
"2006-01-12 20:00","2006","01","12","20:00","7.9","","2.2","","67","","20","","24","","24.1","","98.62","","","","","","Clear"
"2006-01-12 21:00","2006","01","12","21:00","7.3","","2.0","","69","","20","","24","","24.1","","98.60","","","","","","Clear"
"2006-01-12 22:00","2006","01","12","22:00","6.6","","1.4","","69","","19","","22","","24.1","","98.54","","","","","","Clear"
"2006-01-12 23:00","2006","01","12","23:00","6.3","","1.4","","71","","19","","22","","24.1","","98.49","","","","","","Clear"
"2006-01-13 00:00","2006","01","13","00:00","5.7","","1.0","","72","","19","","20","","24.1","","98.47","","","","","","Clear"
"2006-01-13 01:00","2006","01","13","01:00","6.0","","0.7","","69","","20","","19","","24.1","","98.42","","","","","","Mainly Clear"
"2006-01-13 02:00","2006","01","13","02:00","6.4","","0.7","","67","","20","","24","","24.1","","98.37","","","","","","Mainly Clear"
"2006-01-13 03:00","2006","01","13","03:00","7.1","","2.0","","70","","20","","19","","24.1","","98.31","","","","","","Mostly Cloudy"
"2006-01-13 04:00","2006","01","13","04:00","8.5","","3.3","","70","","20","","20","","24.1","","98.27","","","","","","Cloudy"
"2006-01-13 05:00","2006","01","13","05:00","8.3","","3.2","","70","","21","","22","","24.1","","98.19","","","","","","Cloudy"
"2006-01-13 06:00","2006","01","13","06:00","8.2","","3.2","","71","","20","","20","","24.1","","98.16","","","","","","Cloudy"
"2006-01-13 07:00","2006","01","13","07:00","8.4","","3.3","","70","","20","","17","","24.1","","98.19","","","","","","Cloudy"
"2006-01-13 08:00","2006","01","13","08:00","8.4","","4.1","","74","","20","","19","","24.1","","98.13","","","","","","Cloudy"
"2006-01-13 09:00","2006","01","13","09:00","8.4","","4.3","","75","","20","","13","","24.1","","98.09","","","","","","Cloudy"
"2006-01-13 10:00","2006","01","13","10:00","9.2","","4.8","","74","","20","","20","","16.1","","98.13","","","","","","Drizzle"
"2006-01-13 11:00","2006","01","13","11:00","8.4","","7.3","","93","","18","","20","","14.5","","97.99","","","","","","Rain"
"2006-01-13 12:00","2006","01","13","12:00","8.9","","7.8","","93","","19","","20","","9.7","","97.84","","","","","","Rain,Fog"
"2006-01-13 13:00","2006","01","13","13:00","8.8","","7.3","","90","","19","","20","","19.3","","97.67","","","","","","Rain"
"2006-01-13 14:00","2006","01","13","14:00","8.5","","6.6","","88","","17","","13","","24.1","","97.53","","","","","","Cloudy"
"2006-01-13 15:00","2006","01","13","15:00","9.8","","5.8","","76","","18","","19","","24.1","","97.44","","","","","","Cloudy"
"2006-01-13 16:00","2006","01","13","16:00","11.0","","6.3","","73","","20","","24","","24.1","","97.46","","","","","","Cloudy"
"2006-01-13 17:00","2006","01","13","17:00","10.6","","7.2","","79","","22","","20","","24.1","","97.50","","","","","","Drizzle"
"2006-01-13 18:00","2006","01","13","18:00","9.9","","8.2","","89","","21","","20","","24.1","","97.51","","","","","","Rain"
"2006-01-13 19:00","2006","01","13","19:00","9.3","","8.3","","93","","20","","15","","16.1","","97.49","","","","","","Rain"
"2006-01-13 20:00","2006","01","13","20:00","9.0","","8.2","","95","","20","","11","","8.0","","97.43","","","","","","Rain,Fog"
"2006-01-13 21:00","2006","01","13","21:00","5.4","","4.2","","92","","34","","48","","6.4","","97.46","","","","","","Rain,Fog"
"2006-01-13 22:00","2006","01","13","22:00","3.6","","2.6","","93","","36","","30","","8.0","","97.52","","","","","","Rain,Fog"
"2006-01-13 23:00","2006","01","13","23:00","2.4","","1.3","","92","","35","","28","","12.9","","97.65","","","","","","Rain"
"2006-01-14 00:00","2006","01","14","00:00","1.9","","0.7","","92","","36","","26","","8.0","","97.69","","","","","","Rain,Snow"
"2006-01-14 01:00","2006","01","14","01:00","1.5","","0.4","","92","","34","","26","","8.0","","97.67","","","","","","Rain,Snow"
"2006-01-14 02:00","2006","01","14","02:00","1.4","","-0.1","","90","","34","","28","","8.0","","97.78","","","","","","Rain,Snow"
"2006-01-14 03:00","2006","01","14","03:00","0.4","","-0.6","","93","","34","","32","","4.8","","97.89","","","","","","Snow"
"2006-01-14 04:00","2006","01","14","04:00","0.2","","-1.1","","91","","33","","37","","4.0","","97.98","","","","","","Snow"
"2006-01-14 05:00","2006","01","14","05:00","-0.2","","-1.8","","89","","34","","37","","4.0","","98.11","","","","-7","","Snow"
"2006-01-14 06:00","2006","01","14","06:00","-0.5","","-2.7","","85","","34","","32","","19.3","","98.24","","","","-7","","Snow"
"2006-01-14 07:00","2006","01","14","07:00","-1.2","","-4.3","","79","","34","","39","","24.1","","98.43","","","","-9","","Cloudy"
"2006-01-14 08:00","2006","01","14","08:00","-1.8","","-5.9","","74","","34","","37","","24.1","","98.57","","","","-10","","Mostly Cloudy"
"2006-01-14 09:00","2006","01","14","09:00","-1.9","","-7.1","","68","","35","","52","","24.1","","98.72","","","","-11","","Mostly Cloudy"
"2006-01-14 10:00","2006","01","14","10:00","-1.5","","-6.6","","68","","34","","43","","24.1","","98.85","","","","-10","","Mostly Cloudy"
"2006-01-14 11:00","2006","01","14","11:00","-1.9","","-6.8","","69","","35","","35","","24.1","","98.97","","","","-9","","Mostly Cloudy"
"2006-01-14 12:00","2006","01","14","12:00","-1.9","","-6.8","","69","","33","","32","","24.1","","99.02","","","","-9","","Mostly Cloudy"
"2006-01-14 13:00","2006","01","14","13:00","-1.9","","-6.8","","69","","34","","33","","24.1","","99.06","","","","-9","","Mostly Cloudy"
"2006-01-14 14:00","2006","01","14","14:00","-1.9","","-7.1","","68","","33","","28","","24.1","","99.12","","","","-9","","Mostly Cloudy"
"2006-01-14 15:00","2006","01","14","15:00","-1.4","","-7.2","","65","","34","","33","","24.1","","99.23","","","","-9","","Mostly Cloudy"
"2006-01-14 16:00","2006","01","14","16:00","-1.6","","-7.9","","62","","33","","33","","24.1","","99.33","","","","-9","","Mostly Cloudy"
"2006-01-14 17:00","2006","01","14","17:00","-1.6","","-7.6","","64","","35","","20","","24.1","","99.38","","","","-7","","Mainly Clear"
"2006-01-14 18:00","2006","01","14","18:00","-1.9","","-8.9","","59","","35","","17","","24.1","","99.48","","","","-7","","Mainly Clear"
"2006-01-14 19:00","2006","01","14","19:00","-2.0","","-8.6","","61","","33","","17","","24.1","","99.51","","","","-7","","Clear"
"2006-01-14 20:00","2006","01","14","20:00","-2.2","","-8.6","","61","","33","","19","","24.1","","99.58","","","","-8","","Clear"
"2006-01-14 21:00","2006","01","14","21:00","-2.7","","-9.0","","62","","36","","17","","24.1","","99.58","","","","-8","","Clear"
"2006-01-14 22:00","2006","01","14","22:00","-3.4","","-9.8","","61","","2","","17","","24.1","","99.56","","","","-9","","Clear"
"2006-01-14 23:00","2006","01","14","23:00","-3.7","","-9.8","","63","","36","","9","","24.1","","99.58","","","","-7","","Clear"
"2006-01-15 00:00","2006","01","15","00:00","-4.1","","-10.0","","63","","33","","11","","24.1","","99.63","","","","-9","","Clear"
"2006-01-15 01:00","2006","01","15","01:00","-3.8","","-10.2","","61","","32","","11","","24.1","","99.63","","","","-8","","Clear"
"2006-01-15 02:00","2006","01","15","02:00","-4.1","","-10.2","","62","","33","","13","","24.1","","99.62","","","","-9","","Clear"
"2006-01-15 03:00","2006","01","15","03:00","-4.4","","-9.7","","66","","35","","11","","24.1","","99.62","","","","-9","","Clear"
"2006-01-15 04:00","2006","01","15","04:00","-4.6","","-9.8","","67","","34","","15","","24.1","","99.65","","","","-10","","Mainly Clear"
"2006-01-15 05:00","2006","01","15","05:00","-4.8","","-9.7","","69","","35","","11","","24.1","","99.62","","","","-9","","Mainly Clear"
"2006-01-15 06:00","2006","01","15","06:00","-4.2","","-9.3","","68","","32","","11","","24.1","","99.68","","","","-9","","Mostly Cloudy"
"2006-01-15 07:00","2006","01","15","07:00","-4.7","","-9.5","","69","","32","","7","","24.1","","99.68","","","","-8","","Mainly Clear"
"2006-01-15 08:00","2006","01","15","08:00","-5.3","","-9.9","","70","","34","","4","","24.1","","99.67","","","","-7","","Mainly Clear"
"2006-01-15 09:00","2006","01","15","09:00","-3.9","","-9.1","","67","","35","","4","","24.1","","99.67","","","","-6","","Mostly Cloudy"
"2006-01-15 10:00","2006","01","15","10:00","-2.7","","-8.8","","63","","33","","6","","24.1","","99.72","","","","-5","","Mostly Cloudy"
"2006-01-15 11:00","2006","01","15","11:00","-1.6","","-9.8","","54","","30","","4","","24.1","","99.69","","","","-3","","Mostly Cloudy"
"2006-01-15 12:00","2006","01","15","12:00","-1.2","","-15.5","","33","","","","0","","24.1","","99.63","","","","","","Mostly Cloudy"
"2006-01-15 13:00","2006","01","15","13:00","-0.9","","-13.9","","37","","10","","6","","24.1","","99.51","","","","-3","","Mostly Cloudy"
"2006-01-15 14:00","2006","01","15","14:00","-1.2","","-13.3","","39","","16","","6","","24.1","","99.38","","","","-3","","Mostly Cloudy"
"2006-01-15 15:00","2006","01","15","15:00","-1.0","","-13.9","","37","","19","","4","","24.1","","99.42","","","","-2","","Mostly Cloudy"
"2006-01-15 16:00","2006","01","15","16:00","-1.2","","-15.4","","33","","14","","6","","24.1","","99.41","","","","-3","","Mostly Cloudy"
"2006-01-15 17:00","2006","01","15","17:00","-1.8","","-11.6","","47","","22","","11","","24.1","","99.42","","","","-6","","Mostly Cloudy"
"2006-01-15 18:00","2006","01","15","18:00","-2.1","","-10.3","","53","","14","","7","","24.1","","99.39","","","","-5","","Mostly Cloudy"
"2006-01-15 19:00","2006","01","15","19:00","-2.3","","-8.8","","61","","10","","11","","24.1","","99.32","","","","-6","","Mostly Cloudy"
"2006-01-15 20:00","2006","01","15","20:00","-2.6","","-8.6","","63","","10","","9","","24.1","","99.27","","","","-6","","Mostly Cloudy"
"2006-01-15 21:00","2006","01","15","21:00","-2.9","","-8.0","","68","","10","","7","","24.1","","99.25","","","","-6","","Mostly Cloudy"
"2006-01-15 22:00","2006","01","15","22:00","-3.4","","-7.8","","72","","9","","9","","24.1","","99.21","","","","-7","","Mostly Cloudy"
"2006-01-15 23:00","2006","01","15","23:00","-3.6","","-8.2","","70","","11","","9","","24.1","","99.17","","","","-7","","Mostly Cloudy"
"2006-01-16 00:00","2006","01","16","00:00","-3.8","","-7.8","","74","","9","","11","","24.1","","99.16","","","","-8","","Mostly Cloudy"
"2006-01-16 01:00","2006","01","16","01:00","-3.1","","-7.2","","73","","7","","19","","24.1","","99.08","","","","-9","","Mostly Cloudy"
"2006-01-16 02:00","2006","01","16","02:00","-3.3","","-5.7","","83","","10","","15","","24.1","","99.01","","","","-8","","Mostly Cloudy"
"2006-01-16 03:00","2006","01","16","03:00","-3.1","","-5.4","","84","","10","","19","","24.1","","98.96","","","","-9","","Mostly Cloudy"
"2006-01-16 04:00","2006","01","16","04:00","-3.1","","-5.4","","84","","10","","17","","24.1","","98.89","","","","-9","","Mostly Cloudy"
"2006-01-16 05:00","2006","01","16","05:00","-2.5","","-5.3","","81","","10","","20","","24.1","","98.78","","","","-8","","Mainly Clear"
"2006-01-16 06:00","2006","01","16","06:00","-2.1","","-5.2","","79","","11","","19","","24.1","","98.73","","","","-8","","Mainly Clear"
"2006-01-16 07:00","2006","01","16","07:00","-2.2","","-5.0","","81","","11","","19","","24.1","","98.81","","","","-8","","Mostly Cloudy"
"2006-01-16 08:00","2006","01","16","08:00","-2.5","","-5.0","","83","","10","","20","","24.1","","98.82","","","","-8","","Mostly Cloudy"
"2006-01-16 09:00","2006","01","16","09:00","-2.1","","-4.9","","81","","10","","26","","24.1","","98.81","","","","-9","","Mostly Cloudy"
"2006-01-16 10:00","2006","01","16","10:00","-1.0","","-4.7","","76","","11","","30","","24.1","","98.78","","","","-8","","Mostly Cloudy"
"2006-01-16 11:00","2006","01","16","11:00","-0.5","","-4.9","","72","","10","","32","","24.1","","98.78","","","","-7","","Mostly Cloudy"
"2006-01-16 12:00","2006","01","16","12:00","0.0","","-4.7","","71","","11","","28","","24.1","","98.74","","","","-6","","Mostly Cloudy"
"2006-01-16 13:00","2006","01","16","13:00","0.2","","-4.9","","69","","10","","30","","24.1","","98.62","","","","","","Mostly Cloudy"
"2006-01-16 14:00","2006","01","16","14:00","0.3","","-5.3","","66","","10","","28","","24.1","","98.60","","","","","","Mostly Cloudy"
"2006-01-16 15:00","2006","01","16","15:00","0.3","","-5.4","","66","","10","","32","","24.1","","98.58","","","","","","Mainly Clear"
"2006-01-16 16:00","2006","01","16","16:00","-0.1","","-5.5","","67","","11","","30","","24.1","","98.56","","","","-7","","Mainly Clear"
"2006-01-16 17:00","2006","01","16","17:00","-0.8","","-5.3","","72","","10","","20","","24.1","","98.61","","","","-6","","Mainly Clear"
"2006-01-16 18:00","2006","01","16","18:00","-1.5","","-5.0","","77","","9","","24","","24.1","","98.62","","","","-8","","Mostly Cloudy"
"2006-01-16 19:00","2006","01","16","19:00","-2.0","","-5.1","","79","","9","","22","","24.1","","98.65","","","","-8","","Mostly Cloudy"
"2006-01-16 20:00","2006","01","16","20:00","-2.1","","-4.8","","82","","8","","17","","24.1","","98.67","","","","-7","","Mainly Clear"
"2006-01-16 21:00","2006","01","16","21:00","-2.2","","-4.4","","85","","9","","15","","24.1","","98.72","","","","-7","","Mostly Cloudy"
"2006-01-16 22:00","2006","01","16","22:00","-1.6","","-4.1","","83","","9","","19","","24.1","","98.63","","","","-7","","Mainly Clear"
"2006-01-16 23:00","2006","01","16","23:00","-1.2","","-3.8","","82","","8","","19","","24.1","","98.62","","","","-7","","Mostly Cloudy"
"2006-01-17 00:00","2006","01","17","00:00","-0.8","","-3.4","","83","","9","","20","","24.1","","98.60","","","","-6","","Mostly Cloudy"
"2006-01-17 01:00","2006","01","17","01:00","-0.5","","-3.0","","83","","9","","19","","24.1","","98.52","","","","-6","","Cloudy"
"2006-01-17 02:00","2006","01","17","02:00","0.2","","-2.7","","81","","9","","17","","24.1","","98.53","","","","","","Cloudy"
"2006-01-17 03:00","2006","01","17","03:00","0.6","","-2.3","","81","","9","","22","","24.1","","98.44","","","","","","Cloudy"
"2006-01-17 04:00","2006","01","17","04:00","1.1","","-2.2","","79","","11","","17","","24.1","","98.46","","","","","","Mostly Cloudy"
"2006-01-17 05:00","2006","01","17","05:00","1.5","","-2.6","","74","","9","","15","","24.1","","98.38","","","","","","Cloudy"
"2006-01-17 06:00","2006","01","17","06:00","1.4","","-2.4","","76","","9","","19","","24.1","","98.32","","","","","","Cloudy"
"2006-01-17 07:00","2006","01","17","07:00","1.7","","-2.2","","75","","9","","20","","24.1","","98.25","","","","","","Cloudy"
"2006-01-17 08:00","2006","01","17","08:00","1.5","","-0.7","","85","","10","","19","","9.7","","98.19","","","","","","Rain,Fog"
"2006-01-17 09:00","2006","01","17","09:00","1.4","","0.0","","90","","10","","19","","8.0","","98.09","","","","","","Rain,Fog"
"2006-01-17 10:00","2006","01","17","10:00","1.8","","0.7","","92","","11","","22","","6.4","","97.97","","","","","","Rain,Fog"
"2006-01-17 11:00","2006","01","17","11:00","2.3","","1.6","","95","","11","","22","","3.2","","97.87","","","","","","Rain,Fog"
"2006-01-17 12:00","2006","01","17","12:00","2.8","","2.3","","97","","10","","20","","3.2","","97.63","","","","","","Rain,Fog"
"2006-01-17 13:00","2006","01","17","13:00","3.3","","2.7","","96","","12","","17","","3.2","","97.48","","","","","","Rain,Fog"
"2006-01-17 14:00","2006","01","17","14:00","4.2","","4.0","","99","","11","","17","","3.2","","97.30","","","","","","Rain,Fog"
"2006-01-17 15:00","2006","01","17","15:00","4.7","","4.5","","99","","10","","6","","1.6","","97.22","","","","","","Rain,Fog"
"2006-01-17 16:00","2006","01","17","16:00","5.1","","5.1","","100","","15","","4","","0.6","","97.18","","","","","","Fog"
"2006-01-17 17:00","2006","01","17","17:00","7.8","","7.5","","98","","19","","13","","0.6","","97.18","","","","","","Rain,Fog"
"2006-01-17 18:00","2006","01","17","18:00","9.0","","8.9","","99","","19","","20","","4.8","","97.14","","","","","","Rain,Fog"
"2006-01-17 19:00","2006","01","17","19:00","8.5","","8.2","","98","","25","","28","","2.4","","97.28","","","","","","Rain,Fog"
"2006-01-17 20:00","2006","01","17","20:00","5.3","","4.9","","97","","27","","11","","4.8","","97.21","","","","","","Rain,Fog"
"2006-01-17 21:00","2006","01","17","21:00","4.7","","4.1","","96","","25","","20","","6.4","","97.35","","","","","","Rain,Fog"
"2006-01-17 22:00","2006","01","17","22:00","4.0","","3.3","","95","","26","","19","","6.4","","97.26","","","","","","Rain,Fog"
"2006-01-17 23:00","2006","01","17","23:00","3.8","","2.9","","94","","24","","15","","12.9","","97.31","","","","","","Rain"
"2006-01-18 00:00","2006","01","18","00:00","3.6","","2.7","","94","","24","","13","","12.9","","97.27","","","","","","Rain"
"2006-01-18 01:00","2006","01","18","01:00","2.2","","1.2","","93","","26","","19","","12.9","","97.24","","","","","","Rain"
"2006-01-18 02:00","2006","01","18","02:00","1.6","","0.8","","94","","27","","13","","12.9","","97.22","","","","","","Rain"
"2006-01-18 03:00","2006","01","18","03:00","1.0","","0.0","","93","","29","","19","","8.0","","97.26","","","","","","Snow,Fog"
"2006-01-18 04:00","2006","01","18","04:00","0.6","","-0.2","","94","","26","","15","","1.6","","97.37","","","","","","Snow,Fog"
"2006-01-18 05:00","2006","01","18","05:00","0.5","","-0.1","","96","","25","","20","","4.0","","97.42","","","","","","Snow"
"2006-01-18 06:00","2006","01","18","06:00","0.4","","-0.3","","95","","27","","30","","3.2","","97.49","","","","","","Snow"
"2006-01-18 07:00","2006","01","18","07:00","0.3","","-0.4","","95","","27","","26","","3.2","","97.61","","","","","","Snow"
"2006-01-18 08:00","2006","01","18","08:00","0.3","","-0.5","","94","","26","","20","","0.6","","97.71","","","","","","Moderate Snow"
"2006-01-18 09:00","2006","01","18","09:00","-0.1","","-1.0","","94","","26","","28","","1.6","","97.84","","","","-6","","Snow"
"2006-01-18 10:00","2006","01","18","10:00","-0.5","","-1.7","","92","","26","","35","","2.0","","97.95","","","","-8","","Snow"
"2006-01-18 11:00","2006","01","18","11:00","-1.1","","-2.7","","89","","25","","37","","2.4","","98.09","","","","-9","","Snow"
"2006-01-18 12:00","2006","01","18","12:00","-1.4","","-3.7","","84","","26","","33","","9.7","","98.16","","","","-9","","Snow"
"2006-01-18 13:00","2006","01","18","13:00","-2.1","","-4.6","","83","","26","","33","","8.0","","98.26","","","","-10","","Snow"
"2006-01-18 14:00","2006","01","18","14:00","-2.3","","-4.9","","82","","24","","32","","9.7","","98.36","","","","-10","","Snow"
"2006-01-18 15:00","2006","01","18","15:00","-2.4","","-5.1","","82","","25","","30","","8.0","","98.50","","","","-10","","Snow"
"2006-01-18 16:00","2006","01","18","16:00","-3.0","","-5.3","","84","","23","","33","","3.6","","98.67","","","","-11","","Snow"
"2006-01-18 17:00","2006","01","18","17:00","-3.5","","-6.2","","82","","24","","35","","4.0","","98.82","","","","-12","","Snow"
"2006-01-18 18:00","2006","01","18","18:00","-3.6","","-6.5","","80","","24","","33","","8.0","","98.96","","","","-12","","Snow"
"2006-01-18 19:00","2006","01","18","19:00","-3.8","","-7.2","","77","","24","","30","","12.9","","99.11","","","","-11","","Snow"
"2006-01-18 20:00","2006","01","18","20:00","-3.8","","-7.2","","77","","23","","22","","19.3","","99.21","","","","-10","","Mostly Cloudy"
"2006-01-18 21:00","2006","01","18","21:00","-4.0","","-7.2","","78","","23","","24","","24.1","","99.28","","","","-11","","Mostly Cloudy"
"2006-01-18 22:00","2006","01","18","22:00","-3.9","","-6.8","","80","","23","","19","","24.1","","99.33","","","","-10","","Mostly Cloudy"
"2006-01-18 23:00","2006","01","18","23:00","-2.7","","-5.8","","79","","23","","26","","24.1","","99.39","","","","-10","","Mostly Cloudy"
"2006-01-19 00:00","2006","01","19","00:00","-1.8","","-4.8","","80","","24","","28","","24.1","","99.47","","","","-9","","Mostly Cloudy"
"2006-01-19 01:00","2006","01","19","01:00","-1.9","","-4.9","","80","","24","","20","","24.1","","99.49","","","","-8","","Mostly Cloudy"
"2006-01-19 02:00","2006","01","19","02:00","-2.2","","-5.2","","80","","23","","15","","24.1","","99.55","","","","-7","","Mostly Cloudy"
"2006-01-19 03:00","2006","01","19","03:00","-1.3","","-4.5","","79","","22","","11","","24.1","","99.53","","","","-5","","Mostly Cloudy"
"2006-01-19 04:00","2006","01","19","04:00","-0.8","","-4.0","","79","","20","","11","","24.1","","99.47","","","","-5","","Cloudy"
"2006-01-19 05:00","2006","01","19","05:00","-1.1","","-3.8","","82","","19","","11","","24.1","","99.46","","","","-5","","Mostly Cloudy"
"2006-01-19 06:00","2006","01","19","06:00","-1.3","","-3.8","","83","","17","","9","","24.1","","99.46","","","","-5","","Mostly Cloudy"
"2006-01-19 07:00","2006","01","19","07:00","-1.0","","-3.7","","82","","18","","7","","24.1","","99.44","","","","-4","","Mostly Cloudy"
"2006-01-19 08:00","2006","01","19","08:00","-1.2","","-3.8","","82","","16","","7","","19.3","","99.41","","","","-4","","Mostly Cloudy"
"2006-01-19 09:00","2006","01","19","09:00","-0.7","","-3.5","","81","","15","","6","","24.1","","99.39","","","","-3","","Mostly Cloudy"
"2006-01-19 10:00","2006","01","19","10:00","1.3","","-2.1","","78","","16","","11","","24.1","","99.34","","","","","","Cloudy"
"2006-01-19 11:00","2006","01","19","11:00","2.6","","-1.4","","75","","18","","11","","24.1","","99.33","","","","","","Mostly Cloudy"
"2006-01-19 12:00","2006","01","19","12:00","3.9","","-0.9","","71","","20","","24","","24.1","","99.22","","","","","","Mostly Cloudy"
"2006-01-19 13:00","2006","01","19","13:00","4.7","","-0.3","","70","","20","","22","","24.1","","99.11","","","","","","Mostly Cloudy"
"2006-01-19 14:00","2006","01","19","14:00","5.4","","0.6","","71","","20","","24","","24.1","","98.98","","","","","","Mostly Cloudy"
"2006-01-19 15:00","2006","01","19","15:00","6.3","","1.5","","71","","20","","19","","24.1","","98.91","","","","","","Mostly Cloudy"
"2006-01-19 16:00","2006","01","19","16:00","6.7","","2.2","","73","","20","","20","","24.1","","98.89","","","","","","Mostly Cloudy"
"2006-01-19 17:00","2006","01","19","17:00","6.9","","2.7","","75","","20","","24","","24.1","","98.87","","","","","","Mostly Cloudy"
"2006-01-19 18:00","2006","01","19","18:00","6.5","","2.8","","77","","19","","19","","24.1","","98.89","","","","","","Mostly Cloudy"
"2006-01-19 19:00","2006","01","19","19:00","6.6","","3.4","","80","","19","","17","","24.1","","98.92","","","","","","Mostly Cloudy"
"2006-01-19 20:00","2006","01","19","20:00","7.0","","4.0","","81","","20","","13","","24.1","","98.95","","","","","","Cloudy"
"2006-01-19 21:00","2006","01","19","21:00","7.3","","4.4","","82","","20","","15","","24.1","","98.95","","","","","","Cloudy"
"2006-01-19 22:00","2006","01","19","22:00","7.8","","4.5","","80","","20","","19","","24.1","","98.91","","","","","","Mostly Cloudy"
"2006-01-19 23:00","2006","01","19","23:00","8.7","","5.0","","78","","21","","24","","24.1","","98.89","","","","","","Mostly Cloudy"
"2006-01-20 00:00","2006","01","20","00:00","8.3","","4.9","","79","","22","","26","","24.1","","98.87","","","","","","Mostly Cloudy"
"2006-01-20 01:00","2006","01","20","01:00","8.4","","5.1","","80","","21","","24","","24.1","","98.87","","","","","","Mostly Cloudy"
"2006-01-20 02:00","2006","01","20","02:00","8.9","","5.6","","80","","21","","24","","24.1","","98.87","","","","","","Mostly Cloudy"
"2006-01-20 03:00","2006","01","20","03:00","8.9","","5.5","","79","","22","","26","","24.1","","98.94","","","","","","Mostly Cloudy"
"2006-01-20 04:00","2006","01","20","04:00","8.5","","5.3","","80","","21","","26","","24.1","","98.96","","","","","","Mostly Cloudy"
"2006-01-20 05:00","2006","01","20","05:00","8.9","","5.8","","81","","21","","26","","24.1","","98.96","","","","","","Mostly Cloudy"
"2006-01-20 06:00","2006","01","20","06:00","9.2","","6.3","","82","","21","","24","","24.1","","99.01","","","","","","Mostly Cloudy"
"2006-01-20 07:00","2006","01","20","07:00","8.7","","6.4","","85","","22","","19","","24.1","","99.07","","","","","","Mainly Clear"
"2006-01-20 08:00","2006","01","20","08:00","8.2","","6.2","","87","","22","","15","","19.3","","99.15","","","","","","Mainly Clear"
"2006-01-20 09:00","2006","01","20","09:00","7.2","","5.6","","90","","22","","17","","24.1","","99.23","","","","","","Mainly Clear"
"2006-01-20 10:00","2006","01","20","10:00","9.3","","7.1","","86","","22","","17","","24.1","","99.30","","","","","","Mainly Clear"
"2006-01-20 11:00","2006","01","20","11:00","10.9","","8.0","","82","","23","","20","","24.1","","99.36","","","","","","Mostly Cloudy"
"2006-01-20 12:00","2006","01","20","12:00","12.1","","8.6","","79","","25","","9","","24.1","","99.34","","","","","","Mostly Cloudy"
"2006-01-20 13:00","2006","01","20","13:00","12.3","","7.2","","71","","27","","22","","24.1","","99.33","","","","","","Mostly Cloudy"
"2006-01-20 14:00","2006","01","20","14:00","7.4","","5.0","","85","","8","","17","","19.3","","99.38","","","","","","Cloudy"
"2006-01-20 15:00","2006","01","20","15:00","6.5","","4.1","","85","","5","","22","","9.7","","99.38","","","","","","Haze"
"2006-01-20 16:00","2006","01","20","16:00","5.5","","3.0","","84","","5","","20","","9.7","","99.43","","","","","","Haze"
"2006-01-20 17:00","2006","01","20","17:00","4.8","","2.3","","84","","6","","19","","9.7","","99.45","","","","","","Haze"
"2006-01-20 18:00","2006","01","20","18:00","4.7","","2.4","","85","","5","","15","","11.3","","99.40","","","","","","Cloudy"
"2006-01-20 19:00","2006","01","20","19:00","3.9","","2.9","","93","","8","","20","","6.4","","99.28","","","","","","Rain Showers,Fog"
"2006-01-20 20:00","2006","01","20","20:00","3.9","","3.2","","95","","8","","19","","6.4","","99.17","","","","","","Rain Showers,Fog"
"2006-01-20 21:00","2006","01","20","21:00","4.1","","3.7","","97","","8","","11","","6.4","","99.04","","","","","","Rain Showers,Fog"
"2006-01-20 22:00","2006","01","20","22:00","3.2","","2.5","","95","","3","","22","","4.8","","99.01","","","","","","Moderate Rain Showers,Fog"
"2006-01-20 23:00","2006","01","20","23:00","2.0","","1.2","","94","","4","","24","","6.4","","98.87","","","","","","Moderate Rain Showers,Fog"
"2006-01-21 00:00","2006","01","21","00:00","2.2","","1.5","","95","","5","","26","","4.8","","98.73","","","","","","Rain,Fog"
"2006-01-21 01:00","2006","01","21","01:00","2.0","","1.4","","96","","6","","20","","6.4","","98.57","","","","","","Rain,Snow,Fog"
"2006-01-21 02:00","2006","01","21","02:00","1.8","","1.0","","94","","3","","17","","6.4","","98.53","","","","","","Rain,Snow,Fog"
"2006-01-21 03:00","2006","01","21","03:00","1.8","","0.9","","94","","2","","19","","6.4","","98.52","","","","","","Rain,Snow,Fog"
"2006-01-21 04:00","2006","01","21","04:00","0.9","","0.0","","94","","34","","24","","9.7","","98.71","","","","","","Rain,Snow,Fog"
"2006-01-21 05:00","2006","01","21","05:00","1.1","","0.1","","93","","36","","15","","12.9","","98.72","","","","","","Rain,Snow"
"2006-01-21 06:00","2006","01","21","06:00","0.9","","-0.1","","93","","35","","20","","9.7","","98.81","","","","","","Snow"
"2006-01-21 07:00","2006","01","21","07:00","0.7","","-0.3","","93","","32","","26","","4.8","","99.08","","","","","","Snow"
"2006-01-21 08:00","2006","01","21","08:00","0.6","","-1.4","","86","","32","","37","","12.9","","99.46","","","","","","Snow"
"2006-01-21 09:00","2006","01","21","09:00","0.7","","-1.6","","85","","33","","26","","24.1","","99.67","","","","","","Mostly Cloudy"
"2006-01-21 10:00","2006","01","21","10:00","0.6","","-2.1","","82","","33","","22","","24.1","","99.94","","","","","","Mostly Cloudy"
"2006-01-21 11:00","2006","01","21","11:00","0.9","","-2.9","","76","","32","","22","","24.1","","100.20","","","","","","Mostly Cloudy"
"2006-01-21 12:00","2006","01","21","12:00","1.7","","-3.6","","68","","32","","30","","24.1","","100.31","","","","","","Mostly Cloudy"
"2006-01-21 13:00","2006","01","21","13:00","2.5","","-3.5","","65","","31","","26","","24.1","","100.38","","","","","","Mainly Clear"
"2006-01-21 14:00","2006","01","21","14:00","2.6","","-4.4","","60","","33","","19","","24.1","","100.45","","","","","","Mainly Clear"
"2006-01-21 15:00","2006","01","21","15:00","3.5","","-4.1","","57","","34","","13","","24.1","","100.55","","","","","","Clear"
"2006-01-21 16:00","2006","01","21","16:00","3.3","","-4.3","","57","","34","","11","","24.1","","100.68","","","","","","Clear"
"2006-01-21 17:00","2006","01","21","17:00","3.0","","-4.5","","58","","27","","9","","24.1","","100.78","","","","","","Clear"
"2006-01-21 18:00","2006","01","21","18:00","1.9","","-4.4","","63","","30","","6","","24.1","","100.88","","","","","","Clear"
"2006-01-21 19:00","2006","01","21","19:00","0.3","","-3.9","","73","","","","0","","24.1","","100.94","","","","","","Clear"
"2006-01-21 20:00","2006","01","21","20:00","-0.9","","-4.0","","79","","","","0","","24.1","","100.99","","","","","","Clear"
"2006-01-21 21:00","2006","01","21","21:00","-1.2","","-4.0","","81","","8","","4","","24.1","","101.06","","","","-3","","Clear"
"2006-01-21 22:00","2006","01","21","22:00","-2.1","","-3.7","","89","","","","0","","24.1","","101.10","","","","","","Clear"
"2006-01-21 23:00","2006","01","21","23:00","-1.6","","-3.6","","86","","10","","6","","24.1","","101.10","","","","-4","","Clear"
"2006-01-22 00:00","2006","01","22","00:00","-1.8","","-3.4","","89","","","","0","","24.1","","101.10","","","","","","Mainly Clear"
"2006-01-22 01:00","2006","01","22","01:00","-1.9","","-3.4","","89","","16","","4","","24.1","","101.10","","","","-3","","Mainly Clear"
"2006-01-22 02:00","2006","01","22","02:00","-1.9","","-3.1","","91","","17","","7","","24.1","","101.10","","","","-5","","Clear"
"2006-01-22 03:00","2006","01","22","03:00","-2.1","","-3.2","","92","","16","","6","","24.1","","101.16","","","","-4","","Clear"
"2006-01-22 04:00","2006","01","22","04:00","-2.6","","-3.5","","94","","17","","6","","24.1","","101.19","","","","-5","","Clear"
"2006-01-22 05:00","2006","01","22","05:00","-1.9","","-3.0","","92","","15","","6","","24.1","","101.16","","","","-4","","Mainly Clear"
"2006-01-22 06:00","2006","01","22","06:00","-2.1","","-3.1","","93","","16","","9","","24.1","","101.14","","","","-6","","Mainly Clear"
"2006-01-22 07:00","2006","01","22","07:00","-2.0","","-3.2","","91","","16","","7","","24.1","","101.15","","","","-5","","Mainly Clear"
"2006-01-22 08:00","2006","01","22","08:00","-3.3","","-4.4","","92","","14","","6","","24.1","","101.17","","","","-6","","Mostly Cloudy"
"2006-01-22 09:00","2006","01","22","09:00","-1.2","","-2.5","","91","","","","0","","24.1","","101.14","","","","","","Mostly Cloudy"
"2006-01-22 10:00","2006","01","22","10:00","-0.1","","-2.6","","83","","18","","13","","24.1","","101.18","","","","-4","","Mainly Clear"
"2006-01-22 11:00","2006","01","22","11:00","0.9","","-2.7","","77","","17","","15","","24.1","","101.08","","","","","","Mostly Cloudy"
"2006-01-22 12:00","2006","01","22","12:00","1.8","","-2.6","","73","","16","","15","","24.1","","101.05","","","","","","Cloudy"
"2006-01-22 13:00","2006","01","22","13:00","2.0","","-3.2","","68","","17","","6","","24.1","","100.93","","","","","","Cloudy"
"2006-01-22 14:00","2006","01","22","14:00","2.0","","-3.5","","67","","13","","6","","24.1","","100.78","","","","","","Cloudy"
"2006-01-22 15:00","2006","01","22","15:00","2.3","","-2.7","","69","","8","","7","","24.1","","100.65","","","","","","Cloudy"
"2006-01-22 16:00","2006","01","22","16:00","2.0","","-2.7","","71","","7","","15","","24.1","","100.56","","","","","","Cloudy"
"2006-01-22 17:00","2006","01","22","17:00","0.8","","-2.0","","82","","5","","9","","24.1","","100.52","","","","","","Mostly Cloudy"
"2006-01-22 18:00","2006","01","22","18:00","0.3","","-2.3","","83","","8","","9","","24.1","","100.48","","","","","","Cloudy"
"2006-01-22 19:00","2006","01","22","19:00","0.4","","-1.9","","85","","11","","6","","24.1","","100.47","","","","","","Cloudy"
"2006-01-22 20:00","2006","01","22","20:00","-0.1","","-2.2","","86","","6","","9","","24.1","","100.37","","","","-3","","Cloudy"
"2006-01-22 21:00","2006","01","22","21:00","-0.2","","-1.9","","88","","4","","9","","24.1","","100.28","","","","-3","","Cloudy"
"2006-01-22 22:00","2006","01","22","22:00","0.2","","-1.5","","88","","3","","9","","24.1","","100.18","","","","","","Cloudy"
"2006-01-22 23:00","2006","01","22","23:00","0.1","","-1.4","","90","","5","","9","","24.1","","100.07","","","","","","Cloudy"
"2006-01-23 00:00","2006","01","23","00:00","0.0","","-1.4","","90","","6","","6","","24.1","","99.96","","","","-2","","Cloudy"
"2006-01-23 01:00","2006","01","23","01:00","0.2","","-1.5","","88","","35","","4","","24.1","","99.96","","","","","","Cloudy"
"2006-01-23 02:00","2006","01","23","02:00","0.2","","-1.5","","88","","35","","9","","24.1","","99.81","","","","","","Cloudy"
"2006-01-23 03:00","2006","01","23","03:00","-0.2","","-2.3","","86","","34","","7","","24.1","","99.84","","","","-3","","Cloudy"
"2006-01-23 04:00","2006","01","23","04:00","-1.0","","-2.7","","88","","35","","6","","16.1","","99.71","","","","-3","","Mostly Cloudy"
"2006-01-23 05:00","2006","01","23","05:00","-1.2","","-3.2","","86","","34","","9","","12.9","","99.68","","","","-4","","Mostly Cloudy"
"2006-01-23 06:00","2006","01","23","06:00","-0.9","","-3.0","","86","","33","","9","","19.3","","99.69","","","","-4","","Mostly Cloudy"
"2006-01-23 07:00","2006","01","23","07:00","-1.1","","-3.8","","82","","33","","13","","19.3","","99.68","","","","-5","","Mostly Cloudy"
"2006-01-23 08:00","2006","01","23","08:00","-1.6","","-5.3","","76","","33","","11","","19.3","","99.68","","","","-5","","Mainly Clear"
"2006-01-23 09:00","2006","01","23","09:00","-0.9","","-4.9","","74","","32","","19","","24.1","","99.69","","","","-6","","Mainly Clear"
"2006-01-23 10:00","2006","01","23","10:00","-0.7","","-3.4","","82","","32","","13","","16.1","","99.71","","","","-5","","Mainly Clear"
"2006-01-23 11:00","2006","01","23","11:00","0.0","","-3.4","","78","","32","","17","","16.1","","99.75","","","","-5","","Mostly Cloudy"
"2006-01-23 12:00","2006","01","23","12:00","0.0","","-3.6","","77","","32","","19","","12.9","","99.70","","","","-5","","Mostly Cloudy"
"2006-01-23 13:00","2006","01","23","13:00","1.3","","-3.6","","70","","28","","17","","19.3","","99.62","","","","","","Mainly Clear"
"2006-01-23 14:00","2006","01","23","14:00","2.0","","-3.9","","65","","28","","15","","19.3","","99.52","","","","","","Clear"
"2006-01-23 15:00","2006","01","23","15:00","3.4","","-3.9","","59","","27","","17","","19.3","","99.49","","","","","","Clear"
"2006-01-23 16:00","2006","01","23","16:00","3.7","","-5.6","","51","","27","","20","","24.1","","99.47","","","","","","Mainly Clear"
"2006-01-23 17:00","2006","01","23","17:00","3.5","","-6.5","","48","","29","","17","","24.1","","99.50","","","","","","Clear"
"2006-01-23 18:00","2006","01","23","18:00","2.4","","-5.1","","58","","25","","11","","24.1","","99.53","","","","","","Clear"
"2006-01-23 19:00","2006","01","23","19:00","1.2","","-5.3","","62","","24","","9","","24.1","","99.49","","","","","","Clear"
"2006-01-23 20:00","2006","01","23","20:00","0.3","","-4.9","","68","","23","","11","","24.1","","99.48","","","","","","Clear"
"2006-01-23 21:00","2006","01","23","21:00","-0.1","","-5.0","","70","","23","","13","","24.1","","99.42","","","","-4","","Clear"
"2006-01-23 22:00","2006","01","23","22:00","-0.1","","-4.7","","71","","23","","15","","24.1","","99.37","","","","-5","","Clear"
"2006-01-23 23:00","2006","01","23","23:00","0.0","","-4.1","","74","","22","","17","","24.1","","99.25","","","","-5","","Clear"
"2006-01-24 00:00","2006","01","24","00:00","-0.1","","-4.0","","75","","22","","15","","24.1","","99.16","","","","-5","","Clear"
"2006-01-24 01:00","2006","01","24","01:00","0.2","","-3.2","","78","","22","","24","","24.1","","99.10","","","","","","Clear"
"2006-01-24 02:00","2006","01","24","02:00","-0.7","","-4.0","","78","","22","","19","","24.1","","98.97","","","","-6","","Clear"
"2006-01-24 03:00","2006","01","24","03:00","-0.5","","-4.7","","73","","21","","22","","24.1","","98.98","","","","-6","","Clear"
"2006-01-24 04:00","2006","01","24","04:00","0.1","","-6.2","","63","","22","","24","","24.1","","98.76","","","","","","Mainly Clear"
"2006-01-24 05:00","2006","01","24","05:00","-0.5","","-5.8","","67","","21","","24","","24.1","","98.57","","","","-6","","Mainly Clear"
"2006-01-24 06:00","2006","01","24","06:00","0.6","","-4.9","","67","","21","","28","","24.1","","98.39","","","","","","Mostly Cloudy"
"2006-01-24 07:00","2006","01","24","07:00","0.9","","-5.5","","62","","22","","35","","24.1","","98.22","","","","","","Cloudy"
"2006-01-24 08:00","2006","01","24","08:00","0.5","","-5.8","","63","","23","","32","","24.1","","98.16","","","","","","Mostly Cloudy"
"2006-01-24 09:00","2006","01","24","09:00","0.8","","-4.5","","68","","23","","37","","16.1","","98.11","","","","","","Cloudy"
"2006-01-24 10:00","2006","01","24","10:00","0.9","","-3.6","","72","","23","","30","","12.9","","98.06","","","","","","Snow Showers"
"2006-01-24 11:00","2006","01","24","11:00","-0.1","","-1.8","","88","","21","","32","","4.8","","97.89","","","","-7","","Snow,Fog"
"2006-01-24 12:00","2006","01","24","12:00","1.6","","-1.7","","79","","24","","32","","9.7","","97.83","","","","","","Haze"
"2006-01-24 13:00","2006","01","24","13:00","2.2","","-1.1","","79","","25","","35","","12.9","","97.73","","","","","","Cloudy"
"2006-01-24 14:00","2006","01","24","14:00","2.6","","-0.8","","78","","24","","28","","8.0","","97.64","","","","","","Haze"
"2006-01-24 15:00","2006","01","24","15:00","3.3","","-0.8","","74","","23","","32","","9.7","","97.62","","","","","","Haze"
"2006-01-24 16:00","2006","01","24","16:00","3.1","","-0.2","","79","","24","","30","","11.3","","97.69","","","","","","Cloudy"
"2006-01-24 17:00","2006","01","24","17:00","3.2","","-0.1","","79","","24","","24","","12.9","","97.75","","","","","","Rain Showers,Snow Showers"
"2006-01-24 18:00","2006","01","24","18:00","3.0","","-0.1","","80","","26","","28","","11.3","","97.83","","","","","","Rain Showers"
"2006-01-24 19:00","2006","01","24","19:00","2.7","","-0.4","","80","","27","","43","","19.3","","97.90","","","","","","Rain Showers"
"2006-01-24 20:00","2006","01","24","20:00","2.2","","-0.4","","83","","27","","32","","24.1","","97.96","","","","","","Snow Showers"
"2006-01-24 21:00","2006","01","24","21:00","2.3","","-0.9","","79","","27","","26","","24.1","","98.04","","","","","","Snow Showers"
"2006-01-24 22:00","2006","01","24","22:00","1.3","","-3.1","","72","","29","","39","","24.1","","98.13","","","","","","Mostly Cloudy"
"2006-01-24 23:00","2006","01","24","23:00","0.9","","-5.4","","63","","29","","37","","24.1","","98.23","","","","","","Mostly Cloudy"
"2006-01-25 00:00","2006","01","25","00:00","0.3","","-5.7","","64","","30","","39","","24.1","","98.33","","","","","","Snow Showers"
"2006-01-25 01:00","2006","01","25","01:00","0.1","","-6.2","","63","","31","","28","","24.1","","98.41","","","","","","Cloudy"
"2006-01-25 02:00","2006","01","25","02:00","-0.3","","-5.3","","69","","29","","37","","24.1","","98.47","","","","-8","","Snow Showers"
"2006-01-25 03:00","2006","01","25","03:00","-0.1","","-6.7","","61","","30","","30","","24.1","","98.57","","","","-7","","Snow Showers"
"2006-01-25 04:00","2006","01","25","04:00","-0.3","","-6.5","","63","","29","","37","","24.1","","98.62","","","","-8","","Cloudy"
"2006-01-25 05:00","2006","01","25","05:00","-0.3","","-6.6","","62","","30","","30","","24.1","","98.70","","","","-7","","Cloudy"
"2006-01-25 06:00","2006","01","25","06:00","0.1","","-6.9","","59","","31","","35","","24.1","","98.81","","","","","","Snow Showers"
"2006-01-25 07:00","2006","01","25","07:00","0.1","","-7.0","","59","","31","","32","","24.1","","98.93","","","","","","Snow Showers"
"2006-01-25 08:00","2006","01","25","08:00","-0.1","","-6.8","","61","","30","","33","","24.1","","99.10","","","","-7","","Cloudy"
"2006-01-25 09:00","2006","01","25","09:00","-0.4","","-6.7","","62","","32","","32","","19.3","","99.23","","","","-7","","Snow Showers"
"2006-01-25 10:00","2006","01","25","10:00","-0.5","","-6.4","","64","","32","","32","","16.1","","99.35","","","","-7","","Snow Showers"
"2006-01-25 11:00","2006","01","25","11:00","-0.5","","-5.8","","67","","31","","33","","19.3","","99.47","","","","-7","","Snow Showers"
"2006-01-25 12:00","2006","01","25","12:00","-0.5","","-6.8","","62","","32","","35","","24.1","","99.54","","","","-8","","Snow Showers"
"2006-01-25 13:00","2006","01","25","13:00","-0.1","","-7.7","","57","","31","","35","","24.1","","99.56","","","","-7","","Snow Showers"
"2006-01-25 14:00","2006","01","25","14:00","0.6","","-8.5","","50","","32","","30","","24.1","","99.60","","","","","","Mostly Cloudy"
"2006-01-25 15:00","2006","01","25","15:00","0.3","","-8.2","","53","","31","","33","","24.1","","99.69","","","","","","Mostly Cloudy"
"2006-01-25 16:00","2006","01","25","16:00","0.1","","-8.9","","51","","32","","33","","24.1","","99.79","","","","","","Mostly Cloudy"
"2006-01-25 17:00","2006","01","25","17:00","-0.2","","-9.0","","51","","31","","26","","24.1","","99.88","","","","-6","","Mostly Cloudy"
"2006-01-25 18:00","2006","01","25","18:00","-0.8","","-9.6","","51","","31","","26","","24.1","","99.98","","","","-7","","Mostly Cloudy"
"2006-01-25 19:00","2006","01","25","19:00","-1.2","","-9.5","","53","","32","","26","","24.1","","100.07","","","","-8","","Mostly Cloudy"
"2006-01-25 20:00","2006","01","25","20:00","-1.6","","-9.0","","57","","31","","32","","24.1","","100.18","","","","-9","","Mostly Cloudy"
"2006-01-25 21:00","2006","01","25","21:00","-1.9","","-9.2","","57","","32","","30","","24.1","","100.25","","","","-9","","Mostly Cloudy"
"2006-01-25 22:00","2006","01","25","22:00","-2.1","","-9.1","","59","","31","","28","","24.1","","100.31","","","","-9","","Mostly Cloudy"
"2006-01-25 23:00","2006","01","25","23:00","-2.5","","-9.2","","60","","32","","26","","24.1","","100.38","","","","-9","","Mostly Cloudy"
"2006-01-26 00:00","2006","01","26","00:00","-2.5","","-8.8","","62","","33","","24","","24.1","","100.41","","","","-9","","Mostly Cloudy"
"2006-01-26 01:00","2006","01","26","01:00","-2.6","","-8.5","","64","","32","","24","","24.1","","100.42","","","","-9","","Mostly Cloudy"
"2006-01-26 02:00","2006","01","26","02:00","-2.9","","-8.3","","66","","34","","15","","24.1","","100.44","","","","-8","","Snow Showers"
"2006-01-26 03:00","2006","01","26","03:00","-3.3","","-8.8","","66","","35","","19","","24.1","","100.51","","","","-9","","Mainly Clear"
"2006-01-26 04:00","2006","01","26","04:00","-3.6","","-8.8","","67","","35","","11","","24.1","","100.56","","","","-8","","Mainly Clear"
"2006-01-26 05:00","2006","01","26","05:00","-3.8","","-8.7","","69","","33","","11","","24.1","","100.66","","","","-8","","Mostly Cloudy"
"2006-01-26 06:00","2006","01","26","06:00","-3.4","","-8.9","","66","","33","","17","","24.1","","100.71","","","","-9","","Snow Showers"
"2006-01-26 07:00","2006","01","26","07:00","-3.6","","-8.5","","69","","35","","19","","24.1","","100.78","","","","-10","","Snow Showers"
"2006-01-26 08:00","2006","01","26","08:00","-4.4","","-8.5","","73","","36","","9","","24.1","","100.84","","","","-8","","Mainly Clear"
"2006-01-26 09:00","2006","01","26","09:00","-3.8","","-8.1","","72","","36","","6","","24.1","","100.97","","","","-6","","Mainly Clear"
"2006-01-26 10:00","2006","01","26","10:00","-2.9","","-8.8","","64","","36","","11","","24.1","","101.03","","","","-7","","Mainly Clear"
"2006-01-26 11:00","2006","01","26","11:00","-2.1","","-9.0","","59","","34","","15","","24.1","","101.10","","","","-7","","Mainly Clear"
"2006-01-26 12:00","2006","01","26","12:00","-0.9","","-9.0","","54","","29","","15","","24.1","","101.12","","","","-6","","Mainly Clear"
"2006-01-26 13:00","2006","01","26","13:00","-0.5","","-9.2","","52","","32","","19","","24.1","","101.09","","","","-6","","Mainly Clear"
"2006-01-26 14:00","2006","01","26","14:00","0.3","","-9.2","","49","","34","","9","","24.1","","101.02","","","","","","Mainly Clear"
"2006-01-26 15:00","2006","01","26","15:00","1.1","","-9.0","","47","","2","","4","","24.1","","101.01","","","","","","Clear"
"2006-01-26 16:00","2006","01","26","16:00","1.7","","-8.6","","46","","10","","7","","24.1","","101.04","","","","","","Clear"
"2006-01-26 17:00","2006","01","26","17:00","0.9","","-8.0","","51","","10","","9","","24.1","","101.03","","","","","","Clear"
"2006-01-26 18:00","2006","01","26","18:00","-1.1","","-6.3","","68","","21","","13","","24.1","","101.06","","","","-5","","Clear"
"2006-01-26 19:00","2006","01","26","19:00","-1.9","","-6.2","","72","","21","","13","","24.1","","101.10","","","","-6","","Clear"
"2006-01-26 20:00","2006","01","26","20:00","-1.9","","-5.9","","74","","19","","9","","24.1","","101.12","","","","-5","","Clear"
"2006-01-26 21:00","2006","01","26","21:00","-2.3","","-5.6","","78","","19","","11","","24.1","","101.13","","","","-6","","Clear"
"2006-01-26 22:00","2006","01","26","22:00","-1.9","","-5.5","","76","","19","","13","","24.1","","101.11","","","","-6","","Clear"
"2006-01-26 23:00","2006","01","26","23:00","-1.9","","-5.5","","76","","19","","11","","24.1","","101.12","","","","-6","","Clear"
"2006-01-27 00:00","2006","01","27","00:00","-2.2","","-5.2","","80","","19","","13","","24.1","","101.07","","","","-7","","Clear"
"2006-01-27 01:00","2006","01","27","01:00","-1.5","","-5.0","","77","","21","","13","","24.1","","101.05","","","","-6","","Clear"
"2006-01-27 02:00","2006","01","27","02:00","-1.9","","-5.0","","79","","20","","11","","24.1","","101.03","","","","-6","","Clear"
"2006-01-27 03:00","2006","01","27","03:00","-1.5","","-4.8","","78","","20","","13","","24.1","","101.02","","","","-6","","Clear"
"2006-01-27 04:00","2006","01","27","04:00","-1.7","","-4.8","","79","","21","","13","","24.1","","101.02","","","","-6","","Clear"
"2006-01-27 05:00","2006","01","27","05:00","-1.5","","-4.8","","78","","21","","17","","24.1","","101.02","","","","-7","","Clear"
"2006-01-27 06:00","2006","01","27","06:00","-1.5","","-4.8","","78","","20","","17","","24.1","","101.01","","","","-7","","Clear"
"2006-01-27 07:00","2006","01","27","07:00","-1.8","","-4.7","","81","","21","","13","","24.1","","101.01","","","","-6","","Clear"
"2006-01-27 08:00","2006","01","27","08:00","-1.7","","-4.5","","81","","21","","13","","19.3","","101.00","","","","-6","","Mainly Clear"
"2006-01-27 09:00","2006","01","27","09:00","-0.5","","-3.9","","78","","21","","17","","19.3","","100.96","","","","-5","","Mainly Clear"
"2006-01-27 10:00","2006","01","27","10:00","1.6","","-3.3","","70","","21","","20","","24.1","","100.93","","","","","","Mainly Clear"
"2006-01-27 11:00","2006","01","27","11:00","2.5","","-3.8","","63","","21","","22","","24.1","","100.87","","","","","","Mainly Clear"
"2006-01-27 12:00","2006","01","27","12:00","3.1","","-3.5","","62","","21","","26","","24.1","","100.76","","","","","","Mostly Cloudy"
"2006-01-27 13:00","2006","01","27","13:00","3.3","","-3.5","","61","","21","","26","","24.1","","100.61","","","","","","Mostly Cloudy"
"2006-01-27 14:00","2006","01","27","14:00","4.7","","-2.8","","58","","21","","35","","24.1","","100.55","","","","","","Cloudy"
"2006-01-27 15:00","2006","01","27","15:00","4.8","","-2.8","","58","","21","","22","","24.1","","100.46","","","","","","Cloudy"
"2006-01-27 16:00","2006","01","27","16:00","4.8","","-2.2","","60","","20","","20","","24.1","","100.37","","","","","","Mostly Cloudy"
"2006-01-27 17:00","2006","01","27","17:00","4.6","","-2.1","","62","","20","","19","","24.1","","100.36","","","","","","Mostly Cloudy"
"2006-01-27 18:00","2006","01","27","18:00","4.3","","-1.9","","64","","20","","19","","24.1","","100.29","","","","","","Mostly Cloudy"
"2006-01-27 19:00","2006","01","27","19:00","4.5","","-1.8","","64","","20","","30","","24.1","","100.26","","","","","","Mostly Cloudy"
"2006-01-27 20:00","2006","01","27","20:00","4.2","","-2.1","","64","","21","","28","","24.1","","100.22","","","","","","Mostly Cloudy"
"2006-01-27 21:00","2006","01","27","21:00","3.4","","-1.9","","68","","21","","22","","24.1","","100.19","","","","","","Mostly Cloudy"
"2006-01-27 22:00","2006","01","27","22:00","3.8","","-1.6","","68","","21","","19","","24.1","","100.15","","","","","","Mostly Cloudy"
"2006-01-27 23:00","2006","01","27","23:00","3.9","","-1.4","","68","","22","","24","","24.1","","100.08","","","","","","Mostly Cloudy"
"2006-01-28 00:00","2006","01","28","00:00","3.7","","-1.2","","70","","22","","20","","24.1","","100.06","","","","","","Mostly Cloudy"
"2006-01-28 01:00","2006","01","28","01:00","3.4","","-1.0","","73","","23","","17","","24.1","","100.11","","","","","","Mostly Cloudy"
"2006-01-28 02:00","2006","01","28","02:00","3.1","","-1.1","","74","","23","","15","","24.1","","100.08","","","","","","Mostly Cloudy"
"2006-01-28 03:00","2006","01","28","03:00","4.7","","-1.2","","66","","23","","19","","24.1","","100.09","","","","","","Mostly Cloudy"
"2006-01-28 04:00","2006","01","28","04:00","3.7","","-1.3","","70","","22","","13","","24.1","","100.10","","","","","","Mostly Cloudy"
"2006-01-28 05:00","2006","01","28","05:00","3.1","","-1.2","","73","","22","","11","","24.1","","100.14","","","","","","Mostly Cloudy"
"2006-01-28 06:00","2006","01","28","06:00","2.9","","-1.1","","75","","21","","6","","24.1","","100.14","","","","","","Mostly Cloudy"
"2006-01-28 07:00","2006","01","28","07:00","2.4","","-0.9","","79","","20","","9","","24.1","","100.13","","","","","","Mostly Cloudy"
"2006-01-28 08:00","2006","01","28","08:00","2.8","","-0.9","","77","","22","","7","","24.1","","100.12","","","","","","Mostly Cloudy"
"2006-01-28 09:00","2006","01","28","09:00","3.3","","-0.5","","76","","21","","9","","24.1","","100.10","","","","","","Mostly Cloudy"
"2006-01-28 10:00","2006","01","28","10:00","4.1","","-0.2","","74","","22","","9","","24.1","","100.11","","","","","","Mostly Cloudy"
"2006-01-28 11:00","2006","01","28","11:00","5.5","","0.0","","68","","21","","11","","24.1","","100.07","","","","","","Mostly Cloudy"
"2006-01-28 12:00","2006","01","28","12:00","8.3","","0.6","","58","","22","","15","","24.1","","99.95","","","","","","Mainly Clear"
"2006-01-28 13:00","2006","01","28","13:00","9.0","","0.4","","55","","23","","11","","24.1","","99.85","","","","","","Mostly Cloudy"
"2006-01-28 14:00","2006","01","28","14:00","9.8","","0.6","","53","","20","","11","","24.1","","99.77","","","","","","Mostly Cloudy"
"2006-01-28 15:00","2006","01","28","15:00","10.1","","1.4","","55","","20","","13","","24.1","","99.71","","","","","","Cloudy"
"2006-01-28 16:00","2006","01","28","16:00","9.3","","1.4","","58","","20","","15","","16.1","","99.65","","","","","","Rain Showers"
"2006-01-28 17:00","2006","01","28","17:00","8.9","","1.8","","61","","18","","7","","16.1","","99.55","","","","","","Cloudy"
"2006-01-28 18:00","2006","01","28","18:00","7.8","","2.2","","68","","16","","9","","12.9","","99.54","","","","","","Cloudy"
"2006-01-28 19:00","2006","01","28","19:00","7.1","","1.7","","68","","17","","9","","16.1","","99.51","","","","","","Cloudy"
"2006-01-28 20:00","2006","01","28","20:00","6.6","","2.0","","72","","15","","11","","19.3","","99.41","","","","","","Cloudy"
"2006-01-28 21:00","2006","01","28","21:00","8.2","","2.2","","66","","17","","15","","24.1","","99.31","","","","","","Cloudy"
"2006-01-28 22:00","2006","01","28","22:00","8.5","","2.1","","64","","17","","11","","24.1","","99.25","","","","","","Cloudy"
"2006-01-28 23:00","2006","01","28","23:00","7.5","","2.0","","68","","15","","13","","24.1","","99.06","","","","","","Cloudy"
"2006-01-29 00:00","2006","01","29","00:00","7.5","","1.6","","66","","16","","15","","24.1","","98.98","","","","","","Cloudy"
"2006-01-29 01:00","2006","01","29","01:00","7.3","","0.8","","63","","15","","19","","24.1","","98.80","","","","","","Cloudy"
"2006-01-29 02:00","2006","01","29","02:00","7.3","","0.2","","61","","15","","17","","24.1","","98.65","","","","","","Cloudy"
"2006-01-29 03:00","2006","01","29","03:00","7.6","","0.9","","62","","18","","20","","16.1","","98.64","","","","","","Rain Showers"
"2006-01-29 04:00","2006","01","29","04:00","5.3","","3.3","","87","","15","","17","","16.1","","98.39","","","","","","Rain Showers"
"2006-01-29 05:00","2006","01","29","05:00","5.2","","3.6","","89","","15","","22","","8.0","","98.27","","","","","","Rain Showers,Fog"
"2006-01-29 06:00","2006","01","29","06:00","5.9","","4.9","","93","","15","","26","","8.0","","98.02","","","","","","Rain Showers,Fog"
"2006-01-29 07:00","2006","01","29","07:00","6.4","","5.6","","95","","15","","33","","8.0","","97.80","","","","","","Rain Showers,Fog"
"2006-01-29 08:00","2006","01","29","08:00","6.6","","5.8","","95","","15","","35","","8.0","","97.66","","","","","","Rain Showers,Fog"
"2006-01-29 09:00","2006","01","29","09:00","6.6","","5.6","","93","","17","","28","","9.7","","97.51","","","","","","Rain,Fog"
"2006-01-29 10:00","2006","01","29","10:00","7.6","","6.4","","92","","19","","33","","12.9","","97.41","","","","","","Rain"
"2006-01-29 11:00","2006","01","29","11:00","7.6","","6.4","","92","","20","","35","","12.9","","97.34","","","","","","Rain"
"2006-01-29 12:00","2006","01","29","12:00","8.2","","7.2","","93","","20","","33","","12.9","","97.20","","","","","","Rain"
"2006-01-29 13:00","2006","01","29","13:00","9.2","","8.2","","93","","21","","30","","12.9","","97.12","","","","","","Cloudy"
"2006-01-29 14:00","2006","01","29","14:00","10.7","","8.9","","89","","23","","22","","24.1","","97.11","","","","","","Cloudy"
"2006-01-29 15:00","2006","01","29","15:00","11.5","","8.0","","79","","24","","35","","9.7","","97.14","","","","","","Rain Showers,Fog"
"2006-01-29 16:00","2006","01","29","16:00","11.1","","8.0","","81","","24","","39","","24.1","","97.25","","","","","","Rain Showers"
"2006-01-29 17:00","2006","01","29","17:00","11.0","","7.8","","81","","24","","30","","24.1","","97.38","","","","","","Cloudy"
"2006-01-29 18:00","2006","01","29","18:00","10.5","","8.4","","87","","24","","32","","12.9","","97.48","","","","","","Rain Showers"
"2006-01-29 19:00","2006","01","29","19:00","10.3","","8.1","","86","","24","","26","","19.3","","97.56","","","","","","Cloudy"
"2006-01-29 20:00","2006","01","29","20:00","10.1","","6.1","","76","","25","","28","","24.1","","97.65","","","","","","Mostly Cloudy"
"2006-01-29 21:00","2006","01","29","21:00","9.0","","6.2","","83","","24","","30","","24.1","","97.73","","","","","","Mostly Cloudy"
"2006-01-29 22:00","2006","01","29","22:00","9.0","","5.0","","76","","25","","33","","24.1","","97.79","","","","","","Cloudy"
"2006-01-29 23:00","2006","01","29","23:00","8.6","","4.9","","78","","24","","28","","24.1","","97.83","","","","","","Cloudy"
"2006-01-30 00:00","2006","01","30","00:00","8.1","","5.1","","81","","24","","26","","24.1","","97.86","","","","","","Cloudy"
"2006-01-30 01:00","2006","01","30","01:00","7.8","","3.9","","76","","24","","20","","24.1","","97.86","","","","","","Cloudy"
"2006-01-30 02:00","2006","01","30","02:00","7.4","","3.4","","76","","24","","26","","24.1","","97.90","","","","","","Cloudy"
"2006-01-30 03:00","2006","01","30","03:00","6.4","","3.1","","79","","23","","20","","24.1","","97.97","","","","","","Mainly Clear"
"2006-01-30 04:00","2006","01","30","04:00","6.4","","3.0","","79","","23","","19","","12.9","","98.00","","","","","","Mostly Cloudy"
"2006-01-30 05:00","2006","01","30","05:00","5.6","","3.9","","89","","21","","17","","12.9","","97.98","","","","","","Rain Showers"
"2006-01-30 06:00","2006","01","30","06:00","5.8","","3.3","","84","","24","","20","","24.1","","98.02","","","","","","Mostly Cloudy"
"2006-01-30 07:00","2006","01","30","07:00","5.4","","3.2","","86","","22","","20","","24.1","","98.03","","","","","","Mostly Cloudy"
"2006-01-30 08:00","2006","01","30","08:00","4.9","","2.7","","86","","22","","17","","19.3","","98.06","","","","","","Mostly Cloudy"
"2006-01-30 09:00","2006","01","30","09:00","4.7","","2.7","","87","","21","","19","","19.3","","98.09","","","","","","Cloudy"
"2006-01-30 10:00","2006","01","30","10:00","5.4","","2.4","","81","","22","","26","","16.1","","98.11","","","","","","Cloudy"
"2006-01-30 11:00","2006","01","30","11:00","5.1","","2.5","","83","","22","","28","","16.1","","98.16","","","","","","Cloudy"
"2006-01-30 12:00","2006","01","30","12:00","6.6","","1.6","","70","","24","","32","","19.3","","98.14","","","","","","Mostly Cloudy"
"2006-01-30 13:00","2006","01","30","13:00","7.4","","0.2","","60","","24","","28","","24.1","","98.14","","","","","","Mostly Cloudy"
"2006-01-30 14:00","2006","01","30","14:00","6.9","","-0.3","","60","","23","","35","","24.1","","98.10","","","","","","Mostly Cloudy"
"2006-01-30 15:00","2006","01","30","15:00","7.5","","0.3","","60","","22","","30","","24.1","","98.08","","","","","","Mostly Cloudy"
"2006-01-30 16:00","2006","01","30","16:00","6.3","","0.5","","66","","26","","24","","24.1","","98.13","","","","","","Mostly Cloudy"
"2006-01-30 17:00","2006","01","30","17:00","5.5","","-0.2","","67","","27","","20","","24.1","","98.15","","","","","","Mostly Cloudy"
"2006-01-30 18:00","2006","01","30","18:00","4.6","","-0.4","","70","","26","","30","","24.1","","98.25","","","","","","Cloudy"
"2006-01-30 19:00","2006","01","30","19:00","4.1","","-0.9","","70","","26","","24","","24.1","","98.29","","","","","","Cloudy"
"2006-01-30 20:00","2006","01","30","20:00","4.0","","-1.5","","67","","26","","17","","24.1","","98.32","","","","","","Cloudy"
"2006-01-30 21:00","2006","01","30","21:00","3.5","","-1.5","","70","","27","","22","","24.1","","98.32","","","","","","Mostly Cloudy"
"2006-01-30 22:00","2006","01","30","22:00","2.9","","-1.6","","72","","27","","22","","24.1","","98.36","","","","","","Mostly Cloudy"
"2006-01-30 23:00","2006","01","30","23:00","2.5","","-0.7","","79","","28","","17","","19.3","","98.39","","","","","","Drizzle"
"2006-01-31 00:00","2006","01","31","00:00","1.7","","-1.4","","80","","33","","15","","24.1","","98.44","","","","","","Rain Showers"
"2006-01-31 01:00","2006","01","31","01:00","0.7","","-2.3","","80","","30","","22","","24.1","","98.49","","","","","","Mainly Clear"
"2006-01-31 02:00","2006","01","31","02:00","0.8","","-2.8","","77","","31","","13","","24.1","","98.52","","","","","","Cloudy"
"2006-01-31 03:00","2006","01","31","03:00","0.6","","-3.9","","72","","30","","19","","24.1","","98.58","","","","","","Snow Showers"
"2006-01-31 04:00","2006","01","31","04:00","0.3","","-4.2","","72","","30","","17","","19.3","","98.60","","","","","","Snow Showers"
"2006-01-31 05:00","2006","01","31","05:00","0.0","","-3.6","","77","","28","","15","","24.1","","98.64","","","","-4","","Snow Showers"
"2006-01-31 06:00","2006","01","31","06:00","0.0","","-4.2","","73","","29","","17","","24.1","","98.69","","","","-5","","Snow Showers"
"2006-01-31 07:00","2006","01","31","07:00","-0.1","","-4.9","","70","","29","","24","","24.1","","98.78","","","","-6","","Snow Showers"
"2006-01-31 08:00","2006","01","31","08:00","-0.1","","-4.8","","71","","29","","22","","24.1","","98.83","","","","-6","","Cloudy"
"2006-01-31 09:00","2006","01","31","09:00","0.1","","-4.4","","72","","28","","20","","24.1","","98.89","","","","","","Cloudy"
"2006-01-31 10:00","2006","01","31","10:00","0.5","","-3.8","","73","","28","","24","","24.1","","98.94","","","","","","Snow Showers"
"2006-01-31 11:00","2006","01","31","11:00","0.9","","-3.7","","71","","27","","20","","24.1","","99.01","","","","","","Snow Showers"
"2006-01-31 12:00","2006","01","31","12:00","1.6","","-4.3","","65","","28","","22","","24.1","","99.02","","","","","","Snow Showers"
"2006-01-31 13:00","2006","01","31","13:00","1.7","","-4.5","","63","","29","","19","","24.1","","99.02","","","","","","Snow Showers"
"2006-01-31 14:00","2006","01","31","14:00","1.7","","-4.7","","62","","29","","24","","24.1","","99.03","","","","","","Snow Showers"
"2006-01-31 15:00","2006","01","31","15:00","2.0","","-4.1","","64","","28","","20","","24.1","","99.06","","","","","","Snow Showers"
"2006-01-31 16:00","2006","01","31","16:00","2.0","","-4.4","","63","","27","","20","","24.1","","99.11","","","","","","Cloudy"
"2006-01-31 17:00","2006","01","31","17:00","2.0","","-5.1","","59","","28","","20","","24.1","","99.18","","","","","","Cloudy"
"2006-01-31 18:00","2006","01","31","18:00","1.6","","-5.2","","61","","27","","13","","24.1","","99.19","","","","","","Cloudy"
"2006-01-31 19:00","2006","01","31","19:00","1.5","","-5.1","","61","","27","","13","","24.1","","99.23","","","","","","Cloudy"
"2006-01-31 20:00","2006","01","31","20:00","1.4","","-5.4","","61","","26","","17","","24.1","","99.24","","","","","","Mostly Cloudy"
"2006-01-31 21:00","2006","01","31","21:00","1.2","","-4.4","","66","","24","","11","","24.1","","99.27","","","","","","Mostly Cloudy"
"2006-01-31 22:00","2006","01","31","22:00","1.1","","-3.4","","72","","23","","13","","24.1","","99.29","","","","","","Mostly Cloudy"
"2006-01-31 23:00","2006","01","31","23:00","0.7","","-3.1","","76","","22","","11","","24.1","","99.25","","","","","","Mostly Cloudy"
