"Station Name","WINDSOR A"
"Province","ONTARIO"
"Latitude","42.28"
"Longitude","-82.96"
"Elevation","189.60"
"Climate Identifier","6139525"
"WMO Identifier","71538"
"TC Identifier","YQG"
"All times are specified in Local Standard Time (LST). Add 1 hour to adjust for Daylight Saving Time where and when it is observed."

"Legend"
"E","Estimated"
"M","Missing"
"NA","Not Available"

"Date/Time","Year","Month","Day","Time","Temp (°C)","Temp Flag","Dew Point Temp (°C)","Dew Point Temp Flag","Rel Hum (%)","Rel Hum Flag","Wind Dir (10s deg)","Wind Dir Flag","Wind Spd (km/h)","Wind Spd Flag","Visibility (km)","Visibility Flag","Stn Press (kPa)","Stn Press Flag","Hmdx","Hmdx Flag","Wind Chill","Wind Chill Flag","Weather"
"2009-02-01 00:00","2009","02","01","00:00","-2.7","","-5.4","","82","","22","","28","","24.1","","98.13","","","","-10","","Mainly Clear"
"2009-02-01 01:00","2009","02","01","01:00","-0.5","","-3.8","","78","","23","","32","","24.1","","98.07","","","","-7","","Clear"
"2009-02-01 02:00","2009","02","01","02:00","0.0","","-3.4","","78","","23","","37","","24.1","","98.02","","","","-7","","Clear"
"2009-02-01 03:00","2009","02","01","03:00","0.5","","-3.0","","77","","23","","32","","24.1","","97.99","","","","","","Clear"
"2009-02-01 04:00","2009","02","01","04:00","0.6","","-2.8","","78","","24","","30","","24.1","","98.01","","","","","","Mainly Clear"
"2009-02-01 05:00","2009","02","01","05:00","0.6","","-2.8","","78","","24","","24","","24.1","","98.09","","","","","","Mainly Clear"
"2009-02-01 06:00","2009","02","01","06:00","0.3","","-3.0","","78","","24","","24","","24.1","","98.18","","","","","","Clear"
"2009-02-01 07:00","2009","02","01","07:00","0.2","","-3.0","","79","","25","","20","","24.1","","98.27","","","","","","Mainly Clear"
"2009-02-01 08:00","2009","02","01","08:00","-0.3","","-3.3","","80","","25","","20","","24.1","","98.40","","","","-6","","Mainly Clear"
"2009-02-01 09:00","2009","02","01","09:00","0.6","","-3.0","","77","","26","","19","","24.1","","98.53","","","","","","Mainly Clear"
"2009-02-01 10:00","2009","02","01","10:00","2.5","","-3.0","","67","","27","","20","","24.1","","98.65","","","","","","Mainly Clear"
"2009-02-01 11:00","2009","02","01","11:00","3.4","","-3.6","","60","","27","","20","","24.1","","98.73","","","","","","Mainly Clear"
"2009-02-01 12:00","2009","02","01","12:00","4.3","","-4.3","","54","","25","","22","","24.1","","98.74","","","","","","Mainly Clear"
"2009-02-01 13:00","2009","02","01","13:00","4.0","","-3.0","","60","","22","","20","","24.1","","98.74","","","","","","Mainly Clear"
"2009-02-01 14:00","2009","02","01","14:00","3.7","","-3.4","","60","","22","","30","","24.1","","98.71","","","","","","Mainly Clear"
"2009-02-01 15:00","2009","02","01","15:00","3.7","","-3.5","","59","","22","","24","","24.1","","98.73","","","","","","Cloudy"
"2009-02-01 16:00","2009","02","01","16:00","3.7","","-3.7","","58","","23","","22","","24.1","","98.78","","","","","","Mostly Cloudy"
"2009-02-01 17:00","2009","02","01","17:00","3.1","","-4.3","","58","","23","","28","","24.1","","98.84","","","","","","Cloudy"
"2009-02-01 18:00","2009","02","01","18:00","2.5","","-4.6","","59","","23","","28","","24.1","","98.90","","","","","","Cloudy"
"2009-02-01 19:00","2009","02","01","19:00","2.3","","-4.4","","61","","23","","22","","24.1","","98.95","","","","","","Cloudy"
"2009-02-01 20:00","2009","02","01","20:00","2.1","","-4.5","","62","","23","","22","","24.1","","98.99","","","","","","Cloudy"
"2009-02-01 21:00","2009","02","01","21:00","1.7","","-4.6","","63","","25","","19","","24.1","","99.03","","","","","","Cloudy"
"2009-02-01 22:00","2009","02","01","22:00","1.5","","-5.1","","61","","26","","19","","24.1","","99.08","","","","","","Cloudy"
"2009-02-01 23:00","2009","02","01","23:00","1.2","","-6.8","","55","","28","","20","","24.1","","99.12","","","","","","Cloudy"
"2009-02-02 00:00","2009","02","02","00:00","0.8","","-7.5","","54","","28","","13","","24.1","","99.14","","","","","","Cloudy"
"2009-02-02 01:00","2009","02","02","01:00","-0.1","","-7.4","","58","","28","","15","","24.1","","99.13","","","","-5","","Mostly Cloudy"
"2009-02-02 02:00","2009","02","02","02:00","-1.1","","-7.6","","61","","27","","13","","24.1","","99.13","","","","-5","","Mainly Clear"
"2009-02-02 03:00","2009","02","02","03:00","-2.0","","-7.6","","65","","26","","9","","24.1","","99.16","","","","-5","","Mainly Clear"
"2009-02-02 04:00","2009","02","02","04:00","-3.2","","-8.0","","69","","23","","9","","24.1","","99.17","","","","-7","","Mainly Clear"
"2009-02-02 05:00","2009","02","02","05:00","-4.8","","-8.8","","74","","22","","13","","24.1","","99.21","","","","-10","","Mainly Clear"
"2009-02-02 06:00","2009","02","02","06:00","-5.4","","-8.7","","78","","23","","13","","24.1","","99.23","","","","-11","","Clear"
"2009-02-02 07:00","2009","02","02","07:00","-6.1","","-9.2","","79","","23","","13","","24.1","","99.26","","","","-11","","Mainly Clear"
"2009-02-02 08:00","2009","02","02","08:00","-6.1","","-8.7","","82","","24","","7","","24.1","","99.31","","","","-9","","Mainly Clear"
"2009-02-02 09:00","2009","02","02","09:00","-5.2","","-7.9","","81","","25","","7","","24.1","","99.35","","","","-8","","Clear"
"2009-02-02 10:00","2009","02","02","10:00","-3.3","","-7.2","","74","","21","","6","","24.1","","99.34","","","","-6","","Clear"
"2009-02-02 11:00","2009","02","02","11:00","-2.2","","-6.7","","71","","20","","7","","19.3","","99.31","","","","-5","","Clear"
"2009-02-02 12:00","2009","02","02","12:00","-0.6","","-6.1","","66","","18","","9","","19.3","","99.27","","","","-4","","Clear"
"2009-02-02 13:00","2009","02","02","13:00","-0.6","","-5.7","","68","","19","","15","","19.3","","99.19","","","","-5","","Mainly Clear"
"2009-02-02 14:00","2009","02","02","14:00","0.3","","-5.0","","68","","21","","17","","24.1","","99.13","","","","","","Mainly Clear"
"2009-02-02 15:00","2009","02","02","15:00","0.3","","-4.9","","68","","20","","20","","24.1","","99.12","","","","","","Mainly Clear"
"2009-02-02 16:00","2009","02","02","16:00","0.5","","-5.6","","64","","22","","20","","24.1","","99.12","","","","","","Mainly Clear"
"2009-02-02 17:00","2009","02","02","17:00","-1.0","","-5.5","","71","","19","","17","","19.3","","99.16","","","","-6","","Mainly Clear"
"2009-02-02 18:00","2009","02","02","18:00","-2.1","","-6.2","","73","","22","","17","","19.3","","99.23","","","","-7","","Mainly Clear"
"2009-02-02 19:00","2009","02","02","19:00","-2.2","","-6.5","","72","","23","","17","","19.3","","99.25","","","","-8","","Mostly Cloudy"
"2009-02-02 20:00","2009","02","02","20:00","-2.9","","-7.0","","73","","25","","9","","19.3","","99.23","","","","-6","","Mostly Cloudy"
"2009-02-02 21:00","2009","02","02","21:00","-2.6","","-6.8","","73","","26","","9","","19.3","","99.23","","","","-6","","Mostly Cloudy"
"2009-02-02 22:00","2009","02","02","22:00","-2.3","","-6.9","","71","","27","","7","","19.3","","99.20","","","","-5","","Mostly Cloudy"
"2009-02-02 23:00","2009","02","02","23:00","-2.2","","-7.1","","69","","26","","15","","19.3","","99.20","","","","-7","","Snow Showers"
"2009-02-03 00:00","2009","02","03","00:00","-2.9","","-7.3","","72","","28","","22","","8.0","","99.18","","","","-9","","Snow Showers"
"2009-02-03 01:00","2009","02","03","01:00","-4.1","","-6.4","","84","","27","","19","","4.0","","99.18","","","","-10","","Snow Showers"
"2009-02-03 02:00","2009","02","03","02:00","-4.6","","-7.7","","79","","27","","11","","19.3","","99.16","","","","-9","","Snow Showers"
"2009-02-03 03:00","2009","02","03","03:00","-5.9","","-10.2","","72","","25","","9","","24.1","","99.15","","","","-10","","Mainly Clear"
"2009-02-03 04:00","2009","02","03","04:00","-6.8","","-11.1","","71","","27","","6","","24.1","","99.16","","","","-10","","Mostly Cloudy"
"2009-02-03 05:00","2009","02","03","05:00","-7.8","","-11.3","","76","","25","","6","","24.1","","99.15","","","","-11","","Mainly Clear"
"2009-02-03 06:00","2009","02","03","06:00","-9.4","","-12.0","","81","","25","","6","","24.1","","99.13","","","","-13","","Mainly Clear"
"2009-02-03 07:00","2009","02","03","07:00","-9.7","","-12.0","","83","","23","","9","","24.1","","99.15","","","","-15","","Mainly Clear"
"2009-02-03 08:00","2009","02","03","08:00","-10.6","","-12.6","","85","","25","","7","","16.1","","99.15","","","","-15","","Mainly Clear"
"2009-02-03 09:00","2009","02","03","09:00","-9.1","","-11.2","","85","","26","","7","","12.9","","99.15","","","","-13","","Mainly Clear"
"2009-02-03 10:00","2009","02","03","10:00","-6.8","","-10.2","","77","","27","","6","","12.9","","99.14","","","","-10","","Clear"
"2009-02-03 11:00","2009","02","03","11:00","-5.6","","-10.5","","68","","27","","13","","16.1","","99.16","","","","-11","","Mainly Clear"
"2009-02-03 12:00","2009","02","03","12:00","-4.6","","-10.7","","62","","27","","11","","19.3","","99.13","","","","-9","","Mainly Clear"
"2009-02-03 13:00","2009","02","03","13:00","-3.6","","-11.2","","56","","27","","11","","19.3","","99.08","","","","-8","","Mainly Clear"
"2009-02-03 14:00","2009","02","03","14:00","-3.0","","-11.7","","51","","27","","15","","24.1","","99.04","","","","-8","","Mainly Clear"
"2009-02-03 15:00","2009","02","03","15:00","-2.7","","-11.3","","52","","29","","17","","24.1","","99.06","","","","-8","","Mainly Clear"
"2009-02-03 16:00","2009","02","03","16:00","-2.4","","-11.9","","48","","32","","9","","24.1","","99.10","","","","-6","","Mostly Cloudy"
"2009-02-03 17:00","2009","02","03","17:00","-3.6","","-9.2","","65","","31","","20","","19.3","","99.18","","","","-10","","Snow Showers"
"2009-02-03 18:00","2009","02","03","18:00","-5.1","","-9.0","","74","","32","","24","","4.8","","99.27","","","","-12","","Snow Showers"
"2009-02-03 19:00","2009","02","03","19:00","-5.7","","-8.5","","81","","32","","15","","3.2","","99.35","","","","-11","","Snow Showers"
"2009-02-03 20:00","2009","02","03","20:00","-6.4","","-9.2","","80","","32","","24","","4.8","","99.41","","","","-14","","Snow Showers"
"2009-02-03 21:00","2009","02","03","21:00","-7.8","","-11.6","","74","","34","","24","","19.3","","99.48","","","","-16","","Snow Showers"
"2009-02-03 22:00","2009","02","03","22:00","-8.9","","-12.9","","73","","33","","32","","19.3","","99.56","","","","-18","","Snow Showers"
"2009-02-03 23:00","2009","02","03","23:00","-9.9","","-13.9","","73","","33","","24","","9.7","","99.61","","","","-18","","Snow Showers,Blowing Snow"
"2009-02-04 00:00","2009","02","04","00:00","-10.3","","-14.2","","73","","34","","30","","9.7","","99.63","","","","-20","","Snow Showers,Blowing Snow"
"2009-02-04 01:00","2009","02","04","01:00","-10.2","","-14.0","","74","","34","","30","","11.3","","99.64","","","","-20","","Snow Showers"
"2009-02-04 02:00","2009","02","04","02:00","-11.0","","-14.9","","73","","33","","26","","12.9","","99.70","","","","-20","","Snow Showers"
"2009-02-04 03:00","2009","02","04","03:00","-11.7","","-15.4","","74","","33","","26","","12.9","","99.77","","","","-21","","Snow Showers"
"2009-02-04 04:00","2009","02","04","04:00","-12.2","","-16.3","","71","","33","","26","","19.3","","99.83","","","","-22","","Snow Showers"
"2009-02-04 05:00","2009","02","04","05:00","-12.6","","-16.6","","72","","32","","30","","24.1","","99.89","","","","-23","","Cloudy"
"2009-02-04 06:00","2009","02","04","06:00","-12.5","","-16.5","","72","","32","","30","","24.1","","99.96","","","","-23","","Cloudy"
"2009-02-04 07:00","2009","02","04","07:00","-13.1","","-16.9","","73","","32","","28","","24.1","","100.04","","","","-23","","Cloudy"
"2009-02-04 08:00","2009","02","04","08:00","-13.7","","-17.4","","74","","32","","20","","24.1","","100.13","","","","-23","","Mainly Clear"
"2009-02-04 09:00","2009","02","04","09:00","-13.2","","-16.8","","74","","32","","26","","24.1","","100.24","","","","-23","","Mainly Clear"
"2009-02-04 10:00","2009","02","04","10:00","-12.5","","-16.8","","70","","33","","22","","24.1","","100.29","","","","-21","","Mainly Clear"
"2009-02-04 11:00","2009","02","04","11:00","-11.7","","-16.6","","67","","34","","22","","24.1","","100.39","","","","-20","","Mainly Clear"
"2009-02-04 12:00","2009","02","04","12:00","-10.5","","-16.7","","60","","33","","20","","24.1","","100.42","","","","-18","","Mainly Clear"
"2009-02-04 13:00","2009","02","04","13:00","-10.2","","-16.0","","62","","32","","26","","24.1","","100.42","","","","-19","","Mainly Clear"
"2009-02-04 14:00","2009","02","04","14:00","-9.9","","-16.8","","57","","34","","22","","24.1","","100.43","","","","-18","","Mainly Clear"
"2009-02-04 15:00","2009","02","04","15:00","-10.1","","-17.6","","54","","35","","20","","24.1","","100.51","","","","-18","","Mainly Clear"
"2009-02-04 16:00","2009","02","04","16:00","-9.9","","-18.0","","52","","33","","19","","24.1","","100.56","","","","-18","","Mostly Cloudy"
"2009-02-04 17:00","2009","02","04","17:00","-10.2","","-18.0","","53","","34","","19","","24.1","","100.64","","","","-18","","Mostly Cloudy"
"2009-02-04 18:00","2009","02","04","18:00","-11.5","","-18.9","","54","","32","","17","","24.1","","100.74","","","","-19","","Mainly Clear"
"2009-02-04 19:00","2009","02","04","19:00","-12.3","","-19.3","","56","","33","","17","","24.1","","100.79","","","","-20","","Clear"
"2009-02-04 20:00","2009","02","04","20:00","-13.2","","-19.6","","59","","33","","17","","24.1","","100.84","","","","-21","","Clear"
"2009-02-04 21:00","2009","02","04","21:00","-13.8","","-19.9","","60","","33","","15","","24.1","","100.85","","","","-21","","Clear"
"2009-02-04 22:00","2009","02","04","22:00","-14.0","","-19.7","","62","","32","","15","","24.1","","100.89","","","","-22","","Clear"
"2009-02-04 23:00","2009","02","04","23:00","-14.5","","-19.9","","63","","29","","13","","24.1","","100.90","","","","-22","","Clear"
"2009-02-05 00:00","2009","02","05","00:00","-14.9","","-21.6","","57","","27","","9","","24.1","","100.94","","","","-21","","Clear"
"2009-02-05 01:00","2009","02","05","01:00","-15.9","","-21.5","","62","","27","","9","","24.1","","100.89","","","","-22","","Clear"
"2009-02-05 02:00","2009","02","05","02:00","-16.6","","-21.8","","64","","31","","9","","24.1","","100.93","","","","-23","","Clear"
"2009-02-05 03:00","2009","02","05","03:00","-16.3","","-21.6","","64","","27","","9","","24.1","","100.94","","","","-22","","Clear"
"2009-02-05 04:00","2009","02","05","04:00","-17.0","","-22.0","","65","","27","","9","","24.1","","100.94","","","","-23","","Mainly Clear"
"2009-02-05 05:00","2009","02","05","05:00","-17.7","","-22.0","","69","","26","","11","","24.1","","100.95","","","","-25","","Mainly Clear"
"2009-02-05 06:00","2009","02","05","06:00","-18.0","","-22.1","","70","","27","","9","","24.1","","100.96","","","","-24","","Mainly Clear"
"2009-02-05 07:00","2009","02","05","07:00","-18.1","","-22.5","","68","","26","","7","","24.1","","100.99","","","","-23","","Mainly Clear"
"2009-02-05 08:00","2009","02","05","08:00","-18.2","","-22.3","","70","","23","","6","","24.1","","100.99","","","","-23","","Mainly Clear"
"2009-02-05 09:00","2009","02","05","09:00","-16.9","","-21.2","","69","","22","","7","","24.1","","101.02","","","","-22","","Mostly Cloudy"
"2009-02-05 10:00","2009","02","05","10:00","-14.5","","-19.6","","65","","22","","11","","24.1","","101.00","","","","-21","","Mainly Clear"
"2009-02-05 11:00","2009","02","05","11:00","-12.5","","-19.2","","57","","22","","13","","24.1","","100.97","","","","-19","","Mainly Clear"
"2009-02-05 12:00","2009","02","05","12:00","-11.4","","-18.9","","54","","20","","13","","24.1","","100.92","","","","-18","","Mainly Clear"
"2009-02-05 13:00","2009","02","05","13:00","-10.5","","-16.9","","59","","19","","17","","24.1","","100.82","","","","-18","","Mainly Clear"
"2009-02-05 14:00","2009","02","05","14:00","-9.7","","-16.8","","56","","19","","24","","24.1","","100.69","","","","-18","","Mainly Clear"
"2009-02-05 15:00","2009","02","05","15:00","-9.7","","-15.2","","64","","20","","26","","24.1","","100.62","","","","-19","","Mostly Cloudy"
"2009-02-05 16:00","2009","02","05","16:00","-8.7","","-14.5","","63","","20","","26","","24.1","","100.53","","","","-17","","Mainly Clear"
"2009-02-05 17:00","2009","02","05","17:00","-9.0","","-14.0","","67","","19","","30","","24.1","","100.39","","","","-18","","Mostly Cloudy"
"2009-02-05 18:00","2009","02","05","18:00","-8.4","","-13.3","","68","","20","","26","","12.9","","100.34","","","","-17","","Cloudy"
"2009-02-05 19:00","2009","02","05","19:00","-7.9","","-12.4","","70","","20","","26","","19.3","","100.28","","","","-16","","Cloudy"
"2009-02-05 20:00","2009","02","05","20:00","-8.2","","-12.7","","70","","20","","28","","24.1","","100.19","","","","-17","","Mainly Clear"
"2009-02-05 21:00","2009","02","05","21:00","-8.5","","-13.0","","70","","20","","22","","24.1","","100.19","","","","-16","","Mainly Clear"
"2009-02-05 22:00","2009","02","05","22:00","-9.0","","-13.6","","69","","21","","22","","24.1","","100.22","","","","-17","","Mainly Clear"
"2009-02-05 23:00","2009","02","05","23:00","-9.1","","-13.9","","68","","21","","19","","24.1","","100.21","","","","-17","","Mainly Clear"
"2009-02-06 00:00","2009","02","06","00:00","-9.6","","-14.2","","69","","19","","9","","24.1","","100.26","","","","-14","","Clear"
"2009-02-06 01:00","2009","02","06","01:00","-10.1","","-14.3","","71","","20","","17","","24.1","","100.14","","","","-17","","Clear"
"2009-02-06 02:00","2009","02","06","02:00","-10.2","","-14.5","","71","","20","","13","","24.1","","100.15","","","","-16","","Clear"
"2009-02-06 03:00","2009","02","06","03:00","-10.2","","-14.7","","70","","21","","11","","24.1","","100.15","","","","-16","","Mostly Cloudy"
"2009-02-06 04:00","2009","02","06","04:00","-10.1","","-14.4","","71","","23","","11","","24.1","","100.10","","","","-16","","Cloudy"
"2009-02-06 05:00","2009","02","06","05:00","-9.9","","-14.2","","71","","22","","17","","24.1","","100.09","","","","-17","","Cloudy"
"2009-02-06 06:00","2009","02","06","06:00","-10.3","","-14.4","","72","","22","","15","","24.1","","100.06","","","","-17","","Mostly Cloudy"
"2009-02-06 07:00","2009","02","06","07:00","-11.2","","-14.8","","75","","23","","13","","24.1","","100.06","","","","-18","","Mostly Cloudy"
"2009-02-06 08:00","2009","02","06","08:00","-11.2","","-14.6","","76","","23","","6","","24.1","","100.10","","","","-15","","Mainly Clear"
"2009-02-06 09:00","2009","02","06","09:00","-9.2","","-13.2","","73","","","","0","","24.1","","100.17","","","","","","Mainly Clear"
"2009-02-06 10:00","2009","02","06","10:00","-6.8","","-12.7","","63","","23","","6","","24.1","","100.20","","","","-10","","Mainly Clear"
"2009-02-06 11:00","2009","02","06","11:00","-4.4","","-12.0","","55","","","","0","","24.1","","100.21","","","","","","Mainly Clear"
"2009-02-06 12:00","2009","02","06","12:00","-3.6","","-11.5","","54","","18","","6","","24.1","","100.21","","","","-6","","Mainly Clear"
"2009-02-06 13:00","2009","02","06","13:00","-2.9","","-11.1","","53","","16","","7","","24.1","","100.11","","","","-6","","Mainly Clear"
"2009-02-06 14:00","2009","02","06","14:00","-2.6","","-11.1","","52","","18","","9","","24.1","","100.06","","","","-6","","Mainly Clear"
"2009-02-06 15:00","2009","02","06","15:00","-2.3","","-10.7","","52","","14","","11","","24.1","","100.02","","","","-6","","Mainly Clear"
"2009-02-06 16:00","2009","02","06","16:00","-2.4","","-9.7","","57","","16","","11","","24.1","","100.03","","","","-6","","Mainly Clear"
"2009-02-06 17:00","2009","02","06","17:00","-3.8","","-10.6","","59","","17","","7","","24.1","","99.99","","","","-7","","Mainly Clear"
"2009-02-06 18:00","2009","02","06","18:00","-5.3","","-11.5","","62","","","","0","","24.1","","99.96","","","","","","Mainly Clear"
"2009-02-06 19:00","2009","02","06","19:00","-6.0","","-11.5","","65","","14","","6","","24.1","","99.97","","","","-9","","Mainly Clear"
"2009-02-06 20:00","2009","02","06","20:00","-6.4","","-10.7","","71","","14","","9","","24.1","","99.88","","","","-11","","Mainly Clear"
"2009-02-06 21:00","2009","02","06","21:00","-6.7","","-9.7","","79","","16","","11","","24.1","","99.81","","","","-12","","Mainly Clear"
"2009-02-06 22:00","2009","02","06","22:00","-5.7","","-8.1","","83","","14","","6","","24.1","","99.74","","","","-9","","Mostly Cloudy"
"2009-02-06 23:00","2009","02","06","23:00","-4.4","","-7.6","","78","","15","","6","","24.1","","99.64","","","","-7","","Mostly Cloudy"
"2009-02-07 00:00","2009","02","07","00:00","-1.5","","-6.3","","70","","17","","15","","24.1","","99.53","","","","-6","","Cloudy"
"2009-02-07 01:00","2009","02","07","01:00","0.4","","-4.9","","68","","19","","20","","24.1","","99.46","","","","","","Mostly Cloudy"
"2009-02-07 02:00","2009","02","07","02:00","1.2","","-3.5","","71","","19","","22","","24.1","","99.42","","","","","","Cloudy"
"2009-02-07 03:00","2009","02","07","03:00","1.7","","-2.2","","75","","20","","24","","24.1","","99.34","","","","","","Cloudy"
"2009-02-07 04:00","2009","02","07","04:00","3.6","","0.8","","82","","20","","24","","24.1","","99.19","","","","","","Cloudy"
"2009-02-07 05:00","2009","02","07","05:00","4.1","","2.0","","86","","20","","26","","19.3","","99.11","","","","","","Mostly Cloudy"
"2009-02-07 06:00","2009","02","07","06:00","5.1","","2.9","","86","","20","","32","","24.1","","99.02","","","","","","Mostly Cloudy"
"2009-02-07 07:00","2009","02","07","07:00","5.5","","2.8","","83","","21","","35","","24.1","","98.98","","","","","","Mostly Cloudy"
"2009-02-07 08:00","2009","02","07","08:00","5.7","","2.9","","82","","21","","37","","24.1","","98.94","","","","","","Mostly Cloudy"
"2009-02-07 09:00","2009","02","07","09:00","6.5","","3.2","","79","","21","","37","","24.1","","98.92","","","","","","Mostly Cloudy"
"2009-02-07 10:00","2009","02","07","10:00","6.7","","3.1","","78","","21","","37","","24.1","","98.89","","","","","","Mainly Clear"
"2009-02-07 11:00","2009","02","07","11:00","6.2","","2.9","","79","","21","","33","","24.1","","98.90","","","","","","Mostly Cloudy"
"2009-02-07 12:00","2009","02","07","12:00","6.4","","3.2","","80","","22","","30","","19.3","","98.91","","","","","","Cloudy"
"2009-02-07 13:00","2009","02","07","13:00","8.3","","4.6","","77","","23","","33","","19.3","","98.86","","","","","","Cloudy"
"2009-02-07 14:00","2009","02","07","14:00","8.1","","4.6","","79","","23","","32","","19.3","","98.84","","","","","","Mostly Cloudy"
"2009-02-07 15:00","2009","02","07","15:00","8.1","","4.8","","80","","23","","28","","19.3","","98.83","","","","","","Mostly Cloudy"
"2009-02-07 16:00","2009","02","07","16:00","7.4","","4.7","","83","","23","","30","","19.3","","98.86","","","","","","Mostly Cloudy"
"2009-02-07 17:00","2009","02","07","17:00","6.2","","4.1","","86","","22","","22","","19.3","","98.90","","","","","","Mostly Cloudy"
"2009-02-07 18:00","2009","02","07","18:00","5.8","","4.3","","90","","22","","22","","19.3","","98.93","","","","","","Mainly Clear"
"2009-02-07 19:00","2009","02","07","19:00","5.7","","4.5","","92","","22","","22","","19.3","","99.00","","","","","","Mainly Clear"
"2009-02-07 20:00","2009","02","07","20:00","6.6","","5.5","","93","","23","","26","","19.3","","99.04","","","","","","Mostly Cloudy"
"2009-02-07 21:00","2009","02","07","21:00","7.2","","6.1","","93","","23","","22","","16.1","","99.08","","","","","","Mostly Cloudy"
"2009-02-07 22:00","2009","02","07","22:00","7.0","","6.1","","94","","23","","28","","9.7","","99.12","","","","","","Fog"
"2009-02-07 23:00","2009","02","07","23:00","6.7","","5.9","","95","","23","","24","","9.7","","99.15","","","","","","Fog"
"2009-02-08 00:00","2009","02","08","00:00","6.4","","5.7","","95","","25","","15","","6.4","","99.22","","","","","","Fog"
"2009-02-08 01:00","2009","02","08","01:00","5.3","","4.8","","97","","27","","19","","8.0","","99.28","","","","","","Fog"
"2009-02-08 02:00","2009","02","08","02:00","5.5","","1.4","","75","","30","","22","","19.3","","99.41","","","","","","Clear"
"2009-02-08 03:00","2009","02","08","03:00","4.5","","0.0","","73","","30","","22","","24.1","","99.49","","","","","","Clear"
"2009-02-08 04:00","2009","02","08","04:00","3.9","","-0.6","","72","","31","","20","","16.1","","99.63","","","","","","Clear"
"2009-02-08 05:00","2009","02","08","05:00","3.3","","-0.9","","74","","32","","26","","11.3","","99.77","","","","","","Mainly Clear"
"2009-02-08 06:00","2009","02","08","06:00","2.3","","-0.9","","79","","31","","11","","11.3","","99.83","","","","","","Mostly Cloudy"
"2009-02-08 07:00","2009","02","08","07:00","3.0","","-0.7","","77","","32","","9","","11.3","","99.97","","","","","","Cloudy"
"2009-02-08 08:00","2009","02","08","08:00","2.8","","-1.2","","75","","34","","17","","12.9","","100.10","","","","","","Cloudy"
"2009-02-08 09:00","2009","02","08","09:00","2.0","","-3.3","","68","","35","","19","","24.1","","100.22","","","","","","Mainly Clear"
"2009-02-08 10:00","2009","02","08","10:00","2.5","","-3.5","","65","","32","","15","","24.1","","100.33","","","","","","Mainly Clear"
"2009-02-08 11:00","2009","02","08","11:00","2.7","","-4.4","","59","","33","","13","","24.1","","100.40","","","","","","Mainly Clear"
"2009-02-08 12:00","2009","02","08","12:00","3.1","","-4.7","","57","","31","","7","","24.1","","100.47","","","","","","Mainly Clear"
"2009-02-08 13:00","2009","02","08","13:00","4.6","","-4.4","","52","","","","0","","24.1","","100.43","","","","","","Clear"
"2009-02-08 14:00","2009","02","08","14:00","4.2","","-3.8","","56","","16","","9","","24.1","","100.34","","","","","","Clear"
"2009-02-08 15:00","2009","02","08","15:00","4.8","","-3.8","","54","","18","","17","","24.1","","100.29","","","","","","Clear"
"2009-02-08 16:00","2009","02","08","16:00","3.8","","-2.6","","63","","20","","22","","24.1","","100.33","","","","","","Clear"
"2009-02-08 17:00","2009","02","08","17:00","3.1","","-2.1","","69","","20","","17","","24.1","","100.35","","","","","","Clear"
"2009-02-08 18:00","2009","02","08","18:00","1.9","","-2.5","","73","","20","","19","","24.1","","100.33","","","","","","Clear"
"2009-02-08 19:00","2009","02","08","19:00","0.9","","-2.6","","77","","21","","13","","24.1","","100.40","","","","","","Clear"
"2009-02-08 20:00","2009","02","08","20:00","0.1","","-2.7","","81","","21","","9","","16.1","","100.41","","","","","","Clear"
"2009-02-08 21:00","2009","02","08","21:00","0.0","","-2.7","","82","","22","","6","","16.1","","100.43","","","","-2","","Clear"
"2009-02-08 22:00","2009","02","08","22:00","-0.5","","-2.9","","84","","23","","11","","19.3","","100.42","","","","-4","","Clear"
"2009-02-08 23:00","2009","02","08","23:00","-0.8","","-2.9","","86","","23","","11","","12.9","","100.39","","","","-5","","Clear"
"2009-02-09 00:00","2009","02","09","00:00","-0.8","","-2.8","","86","","24","","11","","11.3","","100.41","","","","-5","","Clear"
"2009-02-09 01:00","2009","02","09","01:00","-1.6","","-3.2","","89","","","","0","","9.7","","100.41","","","","","","Fog"
"2009-02-09 02:00","2009","02","09","02:00","-2.3","","-3.7","","90","","22","","7","","9.7","","100.45","","","","-5","","Fog"
"2009-02-09 03:00","2009","02","09","03:00","-2.9","","-4.1","","91","","","","0","","9.7","","100.48","","","","","","Fog"
"2009-02-09 04:00","2009","02","09","04:00","-3.4","","-4.5","","92","","","","0","","9.7","","100.48","","","","","","Fog"
"2009-02-09 05:00","2009","02","09","05:00","-3.3","","-4.5","","91","","26","","6","","8.0","","100.52","","","","-6","","Fog"
"2009-02-09 06:00","2009","02","09","06:00","-3.2","","-4.4","","91","","27","","6","","9.7","","100.55","","","","-6","","Fog"
"2009-02-09 07:00","2009","02","09","07:00","-3.8","","-5.0","","91","","","","0","","8.0","","100.50","","","","","","Fog"
"2009-02-09 08:00","2009","02","09","08:00","-4.0","","-5.3","","91","","","","0","","1.6","","100.45","","","","","","Fog"
"2009-02-09 09:00","2009","02","09","09:00","-1.6","","-2.7","","92","","","","0","","2.8","","100.50","","","","","","Fog"
"2009-02-09 10:00","2009","02","09","10:00","0.4","","-2.2","","83","","","","0","","6.4","","100.54","","","","","","Haze"
"2009-02-09 11:00","2009","02","09","11:00","1.9","","-1.6","","78","","14","","9","","8.0","","100.53","","","","","","Haze"
"2009-02-09 12:00","2009","02","09","12:00","2.7","","-1.4","","74","","14","","17","","9.7","","100.39","","","","","","Haze"
"2009-02-09 13:00","2009","02","09","13:00","2.3","","-1.4","","77","","18","","13","","9.7","","100.32","","","","","","Haze"
"2009-02-09 14:00","2009","02","09","14:00","2.8","","-0.6","","78","","20","","15","","8.0","","100.27","","","","","","Haze"
"2009-02-09 15:00","2009","02","09","15:00","2.6","","-0.5","","80","","14","","13","","6.4","","100.18","","","","","","Haze"
"2009-02-09 16:00","2009","02","09","16:00","2.5","","-0.5","","81","","12","","9","","6.4","","100.09","","","","","","Haze"
"2009-02-09 17:00","2009","02","09","17:00","2.4","","-0.5","","81","","12","","11","","8.0","","99.98","","","","","","Haze"
"2009-02-09 18:00","2009","02","09","18:00","1.5","","-1.0","","83","","11","","15","","4.8","","99.93","","","","","","Haze"
"2009-02-09 19:00","2009","02","09","19:00","0.9","","-1.1","","86","","11","","15","","4.0","","99.88","","","","","","Fog"
"2009-02-09 20:00","2009","02","09","20:00","1.1","","-1.3","","84","","11","","17","","9.7","","99.72","","","","","","Haze"
"2009-02-09 21:00","2009","02","09","21:00","2.5","","-1.1","","77","","13","","20","","9.7","","99.58","","","","","","Haze"
"2009-02-09 22:00","2009","02","09","22:00","3.4","","-0.9","","73","","13","","9","","9.7","","99.57","","","","","","Haze"
"2009-02-09 23:00","2009","02","09","23:00","3.1","","-0.9","","75","","12","","15","","9.7","","99.44","","","","","","Haze"
"2009-02-10 00:00","2009","02","10","00:00","2.9","","-0.6","","78","","11","","15","","19.3","","99.39","","","","","","Cloudy"
"2009-02-10 01:00","2009","02","10","01:00","2.1","","-0.5","","83","","6","","9","","16.1","","99.33","","","","","","Cloudy"
"2009-02-10 02:00","2009","02","10","02:00","2.6","","-0.2","","82","","","","0","","16.1","","99.31","","","","","","Cloudy"
"2009-02-10 03:00","2009","02","10","03:00","2.3","","0.6","","89","","9","","11","","8.0","","99.25","","","","","","Rain,Fog"
"2009-02-10 04:00","2009","02","10","04:00","2.6","","1.3","","91","","14","","15","","8.0","","99.11","","","","","","Rain,Fog"
"2009-02-10 05:00","2009","02","10","05:00","3.6","","2.5","","93","","15","","9","","9.7","","99.03","","","","","","Fog"
"2009-02-10 06:00","2009","02","10","06:00","5.7","","4.9","","95","","19","","20","","8.0","","98.97","","","","","","Fog"
"2009-02-10 07:00","2009","02","10","07:00","7.0","","6.2","","95","","19","","24","","6.4","","98.94","","","","","","Fog"
"2009-02-10 08:00","2009","02","10","08:00","6.2","","5.5","","95","","20","","20","","6.4","","98.92","","","","","","Fog"
"2009-02-10 09:00","2009","02","10","09:00","7.1","","6.2","","94","","21","","20","","6.4","","98.95","","","","","","Fog"
"2009-02-10 10:00","2009","02","10","10:00","7.5","","6.5","","93","","21","","20","","9.7","","98.93","","","","","","Fog"
"2009-02-10 11:00","2009","02","10","11:00","8.5","","7.3","","92","","20","","24","","9.7","","98.88","","","","","","Fog"
"2009-02-10 12:00","2009","02","10","12:00","10.4","","8.4","","87","","20","","28","","16.1","","98.85","","","","","","Mostly Cloudy"
"2009-02-10 13:00","2009","02","10","13:00","12.7","","9.7","","82","","22","","33","","16.1","","98.76","","","","","","Mostly Cloudy"
"2009-02-10 14:00","2009","02","10","14:00","12.5","","9.4","","81","","21","","33","","24.1","","98.70","","","","","","Mostly Cloudy"
"2009-02-10 15:00","2009","02","10","15:00","13.0","","9.7","","80","","22","","35","","24.1","","98.71","","","","","","Mostly Cloudy"
"2009-02-10 16:00","2009","02","10","16:00","12.3","","9.3","","82","","21","","30","","19.3","","98.74","","","","","","Mostly Cloudy"
"2009-02-10 17:00","2009","02","10","17:00","12.2","","9.3","","82","","21","","37","","19.3","","98.76","","","","","","Mostly Cloudy"
"2009-02-10 18:00","2009","02","10","18:00","11.6","","9.1","","85","","21","","35","","19.3","","98.77","","","","","","Mostly Cloudy"
"2009-02-10 19:00","2009","02","10","19:00","10.8","","8.7","","87","","21","","28","","24.1","","98.84","","","","","","Clear"
"2009-02-10 20:00","2009","02","10","20:00","9.5","","7.9","","90","","21","","30","","16.1","","98.89","","","","","","Mainly Clear"
"2009-02-10 21:00","2009","02","10","21:00","9.2","","8.0","","92","","22","","24","","9.7","","98.93","","","","","","Fog"
"2009-02-10 22:00","2009","02","10","22:00","9.2","","8.1","","93","","21","","20","","8.0","","98.96","","","","","","Fog"
"2009-02-10 23:00","2009","02","10","23:00","7.8","","7.0","","95","","22","","22","","6.4","","98.90","","","","","","Fog"
"2009-02-11 00:00","2009","02","11","00:00","7.1","","6.6","","97","","20","","11","","2.0","","98.88","","","","","","Fog"
"2009-02-11 01:00","2009","02","11","01:00","7.2","","6.6","","96","","20","","11","","1.6","","98.85","","","","","","Rain Showers,Fog"
"2009-02-11 02:00","2009","02","11","02:00","7.6","","7.1","","97","","20","","11","","3.2","","98.82","","","","","","Fog"
"2009-02-11 03:00","2009","02","11","03:00","7.9","","7.5","","97","","21","","11","","1.6","","98.80","","","","","","Fog"
"2009-02-11 04:00","2009","02","11","04:00","7.5","","7.2","","98","","19","","9","","0.2","","98.72","","","","","","Fog"
"2009-02-11 05:00","2009","02","11","05:00","8.2","","8.2","","100","","19","","6","","0.2","","98.63","","","","","","Fog"
"2009-02-11 06:00","2009","02","11","06:00","8.3","","8.2","","99","","17","","7","","0.2","","98.54","","","","","","Fog"
"2009-02-11 07:00","2009","02","11","07:00","8.4","","8.0","","97","","18","","6","","0.6","","98.52","","","","","","Fog"
"2009-02-11 08:00","2009","02","11","08:00","9.6","","9.4","","99","","18","","15","","1.2","","98.43","","","","","","Rain,Fog"
"2009-02-11 09:00","2009","02","11","09:00","10.0","","9.7","","98","","18","","20","","2.4","","98.34","","","","","","Rain,Fog"
"2009-02-11 10:00","2009","02","11","10:00","10.6","","10.4","","99","","18","","19","","3.2","","98.17","","","","","","Rain"
"2009-02-11 11:00","2009","02","11","11:00","10.4","","10.1","","98","","18","","24","","3.2","","98.07","","","","","","Rain"
"2009-02-11 12:00","2009","02","11","12:00","10.1","","9.7","","97","","18","","20","","3.2","","97.94","","","","","","Rain"
"2009-02-11 13:00","2009","02","11","13:00","10.6","","10.2","","97","","17","","15","","4.0","","97.76","","","","","","Rain"
"2009-02-11 14:00","2009","02","11","14:00","10.7","","10.1","","96","","18","","22","","8.0","","97.57","","","","","","Rain"
"2009-02-11 15:00","2009","02","11","15:00","11.1","","10.6","","97","","18","","19","","8.0","","97.38","","","","","","Rain"
"2009-02-11 16:00","2009","02","11","16:00","11.6","","10.5","","93","","19","","22","","9.7","","97.24","","","","","","Rain,Fog"
"2009-02-11 17:00","2009","02","11","17:00","12.1","","11.1","","94","","19","","22","","9.7","","97.11","","","","","","Rain,Fog"
"2009-02-11 18:00","2009","02","11","18:00","11.9","","11.3","","96","","17","","7","","4.8","","96.86","","","","","","Rain,Fog"
"2009-02-11 19:00","2009","02","11","19:00","11.5","","11.1","","97","","24","","20","","3.2","","96.90","","","","","","Rain,Fog"
"2009-02-11 20:00","2009","02","11","20:00","10.7","","10.1","","96","","21","","13","","8.0","","96.74","","","","","","Rain,Fog"
"2009-02-11 21:00","2009","02","11","21:00","10.4","","9.2","","92","","19","","19","","19.3","","96.66","","","","","","Cloudy"
"2009-02-11 22:00","2009","02","11","22:00","9.2","","6.0","","80","","22","","33","","24.1","","96.61","","","","","","Mostly Cloudy"
"2009-02-11 23:00","2009","02","11","23:00","8.1","","5.4","","83","","22","","19","","24.1","","96.65","","","","","","Cloudy"
"2009-02-12 00:00","2009","02","12","00:00","8.3","","6.0","","85","","24","","20","","16.1","","96.70","","","","","","Rain Showers"
"2009-02-12 01:00","2009","02","12","01:00","8.3","","6.8","","90","","29","","63","","12.9","","96.82","","","","","","Rain"
"2009-02-12 02:00","2009","02","12","02:00","6.9","","3.9","","81","","29","","56","","19.3","","97.21","","","","","","Rain"
"2009-02-12 03:00","2009","02","12","03:00","4.9","","2.2","","83","","27","","52","","12.9","","97.57","","","","","","Rain"
"2009-02-12 04:00","2009","02","12","04:00","5.3","","2.0","","79","","27","","46","","19.3","","97.83","","","","","","Cloudy"
"2009-02-12 05:00","2009","02","12","05:00","4.2","","1.3","","81","","28","","43","","19.3","","98.03","","","","","","Cloudy"
"2009-02-12 06:00","2009","02","12","06:00","3.9","","0.4","","78","","27","","37","","19.3","","98.19","","","","","","Cloudy"
"2009-02-12 07:00","2009","02","12","07:00","3.7","","0.0","","77","","27","","39","","19.3","","98.30","","","","","","Cloudy"
"2009-02-12 08:00","2009","02","12","08:00","3.8","","-0.1","","76","","27","","30","","19.3","","98.42","","","","","","Cloudy"
"2009-02-12 09:00","2009","02","12","09:00","3.7","","-0.2","","76","","27","","33","","19.3","","98.51","","","","","","Cloudy"
"2009-02-12 10:00","2009","02","12","10:00","3.7","","-0.4","","75","","27","","35","","19.3","","98.56","","","","","","Cloudy"
"2009-02-12 11:00","2009","02","12","11:00","3.1","","-1.6","","71","","27","","39","","19.3","","98.64","","","","","","Cloudy"
"2009-02-12 12:00","2009","02","12","12:00","3.1","","-3.3","","63","","28","","30","","24.1","","98.73","","","","","","Cloudy"
"2009-02-12 13:00","2009","02","12","13:00","2.9","","-3.4","","63","","28","","44","","24.1","","98.77","","","","","","Cloudy"
"2009-02-12 14:00","2009","02","12","14:00","3.9","","-3.6","","58","","28","","35","","24.1","","98.79","","","","","","Mostly Cloudy"
"2009-02-12 15:00","2009","02","12","15:00","3.9","","-3.4","","59","","28","","37","","24.1","","98.89","","","","","","Mostly Cloudy"
"2009-02-12 16:00","2009","02","12","16:00","3.8","","-3.4","","59","","29","","37","","24.1","","98.97","","","","","","Cloudy"
"2009-02-12 17:00","2009","02","12","17:00","3.3","","-3.4","","61","","27","","41","","24.1","","99.07","","","","","","Cloudy"
"2009-02-12 18:00","2009","02","12","18:00","3.0","","-3.2","","64","","28","","32","","24.1","","99.14","","","","","","Cloudy"
"2009-02-12 19:00","2009","02","12","19:00","3.0","","-3.1","","64","","27","","26","","24.1","","99.18","","","","","","Cloudy"
"2009-02-12 20:00","2009","02","12","20:00","2.8","","-2.8","","67","","28","","32","","24.1","","99.25","","","","","","Mostly Cloudy"
"2009-02-12 21:00","2009","02","12","21:00","2.6","","-3.4","","65","","28","","35","","24.1","","99.27","","","","","","Mostly Cloudy"
"2009-02-12 22:00","2009","02","12","22:00","2.3","","-4.1","","63","","28","","28","","24.1","","99.28","","","","","","Mostly Cloudy"
"2009-02-12 23:00","2009","02","12","23:00","2.1","","-4.0","","64","","28","","24","","24.1","","99.31","","","","","","Mostly Cloudy"
"2009-02-13 00:00","2009","02","13","00:00","1.8","","-4.2","","64","","28","","24","","24.1","","99.32","","","","","","Mostly Cloudy"
"2009-02-13 01:00","2009","02","13","01:00","1.7","","-4.0","","66","","28","","20","","24.1","","99.33","","","","","","Mostly Cloudy"
"2009-02-13 02:00","2009","02","13","02:00","1.7","","-3.8","","67","","29","","20","","24.1","","99.35","","","","","","Mostly Cloudy"
"2009-02-13 03:00","2009","02","13","03:00","1.7","","-3.7","","67","","28","","17","","24.1","","99.39","","","","","","Cloudy"
"2009-02-13 04:00","2009","02","13","04:00","1.0","","-4.4","","67","","27","","20","","24.1","","99.42","","","","","","Cloudy"
"2009-02-13 05:00","2009","02","13","05:00","0.6","","-4.5","","69","","28","","22","","24.1","","99.47","","","","","","Cloudy"
"2009-02-13 06:00","2009","02","13","06:00","0.4","","-4.7","","69","","29","","20","","24.1","","99.52","","","","","","Mostly Cloudy"
"2009-02-13 07:00","2009","02","13","07:00","0.4","","-4.5","","70","","29","","19","","24.1","","99.57","","","","","","Mostly Cloudy"
"2009-02-13 08:00","2009","02","13","08:00","0.3","","-4.4","","71","","29","","15","","12.9","","99.63","","","","","","Snow Showers"
"2009-02-13 09:00","2009","02","13","09:00","0.7","","-3.9","","71","","28","","15","","11.3","","99.70","","","","","","Snow Showers"
"2009-02-13 10:00","2009","02","13","10:00","1.1","","-3.6","","71","","30","","17","","11.3","","99.70","","","","","","Snow Showers"
"2009-02-13 11:00","2009","02","13","11:00","2.0","","-3.0","","69","","31","","15","","11.3","","99.71","","","","","","Snow Showers"
"2009-02-13 12:00","2009","02","13","12:00","2.2","","-3.0","","68","","32","","17","","16.1","","99.78","","","","","","Cloudy"
"2009-02-13 13:00","2009","02","13","13:00","2.2","","-3.1","","68","","32","","9","","24.1","","99.77","","","","","","Cloudy"
"2009-02-13 14:00","2009","02","13","14:00","0.8","","-2.7","","77","","5","","13","","24.1","","99.78","","","","","","Cloudy"
"2009-02-13 15:00","2009","02","13","15:00","0.1","","-2.7","","81","","5","","11","","9.7","","99.81","","","","","","Haze"
"2009-02-13 16:00","2009","02","13","16:00","-0.1","","-2.9","","81","","6","","9","","19.3","","99.81","","","","-3","","Cloudy"
"2009-02-13 17:00","2009","02","13","17:00","-0.4","","-3.1","","82","","6","","7","","19.3","","99.82","","","","-3","","Cloudy"
"2009-02-13 18:00","2009","02","13","18:00","-0.6","","-3.1","","83","","9","","11","","19.3","","99.77","","","","-4","","Cloudy"
"2009-02-13 19:00","2009","02","13","19:00","-0.7","","-2.9","","85","","9","","6","","12.9","","99.75","","","","-3","","Snow Showers"
"2009-02-13 20:00","2009","02","13","20:00","-0.7","","-2.8","","86","","9","","6","","12.9","","99.73","","","","-3","","Snow Showers"
"2009-02-13 21:00","2009","02","13","21:00","-0.7","","-2.8","","86","","9","","9","","11.3","","99.70","","","","-4","","Cloudy"
"2009-02-13 22:00","2009","02","13","22:00","-1.0","","-3.4","","84","","7","","15","","24.1","","99.72","","","","-6","","Cloudy"
"2009-02-13 23:00","2009","02","13","23:00","-1.4","","-3.9","","83","","7","","13","","24.1","","99.75","","","","-6","","Cloudy"
"2009-02-14 00:00","2009","02","14","00:00","-1.5","","-4.2","","82","","6","","7","","24.1","","99.75","","","","-4","","Cloudy"
"2009-02-14 01:00","2009","02","14","01:00","-1.6","","-4.4","","81","","7","","17","","24.1","","99.72","","","","-7","","Cloudy"
"2009-02-14 02:00","2009","02","14","02:00","-1.9","","-4.4","","83","","6","","15","","4.8","","99.58","","","","-7","","Snow"
"2009-02-14 03:00","2009","02","14","03:00","-2.5","","-4.2","","88","","6","","17","","1.6","","99.51","","","","-8","","Snow"
"2009-02-14 04:00","2009","02","14","04:00","-2.9","","-4.3","","90","","6","","19","","1.6","","99.42","","","","-9","","Snow"
"2009-02-14 05:00","2009","02","14","05:00","-3.2","","-4.6","","90","","5","","15","","2.0","","99.40","","","","-8","","Snow"
"2009-02-14 06:00","2009","02","14","06:00","-3.5","","-4.9","","90","","5","","13","","1.6","","99.42","","","","-8","","Snow"
"2009-02-14 07:00","2009","02","14","07:00","-3.5","","-5.0","","89","","5","","11","","2.4","","99.43","","","","-8","","Snow"
"2009-02-14 08:00","2009","02","14","08:00","-3.5","","-5.0","","89","","5","","15","","2.0","","99.40","","","","-9","","Snow"
"2009-02-14 09:00","2009","02","14","09:00","-3.3","","-4.6","","91","","4","","13","","2.4","","99.41","","","","-8","","Snow"
"2009-02-14 10:00","2009","02","14","10:00","-3.1","","-4.8","","88","","5","","15","","2.4","","99.44","","","","-8","","Snow"
"2009-02-14 11:00","2009","02","14","11:00","-3.2","","-5.0","","87","","5","","17","","1.6","","99.45","","","","-9","","Snow"
"2009-02-14 12:00","2009","02","14","12:00","-3.3","","-5.3","","86","","2","","20","","3.2","","99.46","","","","-9","","Snow"
"2009-02-14 13:00","2009","02","14","13:00","-3.0","","-5.5","","83","","2","","20","","11.3","","99.43","","","","-9","","Snow"
"2009-02-14 14:00","2009","02","14","14:00","-2.6","","-5.9","","78","","2","","19","","24.1","","99.39","","","","-8","","Mostly Cloudy"
"2009-02-14 15:00","2009","02","14","15:00","-2.2","","-5.9","","76","","4","","15","","24.1","","99.43","","","","-7","","Snow Showers"
"2009-02-14 16:00","2009","02","14","16:00","-2.2","","-5.8","","76","","5","","13","","24.1","","99.49","","","","-7","","Cloudy"
"2009-02-14 17:00","2009","02","14","17:00","-2.2","","-5.4","","79","","4","","7","","24.1","","99.56","","","","-5","","Snow Showers"
"2009-02-14 18:00","2009","02","14","18:00","-2.3","","-5.4","","79","","1","","7","","24.1","","99.62","","","","-5","","Cloudy"
"2009-02-14 19:00","2009","02","14","19:00","-1.9","","-6.4","","71","","4","","7","","24.1","","99.70","","","","-5","","Cloudy"
"2009-02-14 20:00","2009","02","14","20:00","-2.3","","-5.7","","77","","","","0","","24.1","","99.74","","","","","","Snow Showers"
"2009-02-14 21:00","2009","02","14","21:00","-2.2","","-5.9","","76","","35","","4","","16.1","","99.80","","","","-4","","Snow Showers"
"2009-02-14 22:00","2009","02","14","22:00","-2.3","","-6.0","","76","","","","0","","12.9","","99.85","","","","","","Snow Showers"
"2009-02-14 23:00","2009","02","14","23:00","-2.7","","-5.0","","84","","","","0","","19.3","","99.88","","","","","","Snow Showers"
"2009-02-15 00:00","2009","02","15","00:00","-3.0","","-4.8","","87","","","","0","","9.7","","99.88","","","","","","Snow Showers"
"2009-02-15 01:00","2009","02","15","01:00","-3.0","","-4.5","","89","","","","0","","9.7","","99.91","","","","","","Snow Showers"
"2009-02-15 02:00","2009","02","15","02:00","-2.9","","-4.4","","89","","","","0","","9.7","","99.92","","","","","","Snow Showers"
"2009-02-15 03:00","2009","02","15","03:00","-3.5","","-4.8","","91","","","","0","","11.3","","99.94","","","","","","Snow Showers"
"2009-02-15 04:00","2009","02","15","04:00","-3.9","","-5.1","","91","","","","0","","19.3","","99.98","","","","","","Snow Showers"
"2009-02-15 05:00","2009","02","15","05:00","-3.0","","-4.9","","87","","","","0","","19.3","","100.00","","","","","","Snow Showers"
"2009-02-15 06:00","2009","02","15","06:00","-2.9","","-5.2","","84","","27","","7","","11.3","","100.02","","","","-6","","Snow Showers"
"2009-02-15 07:00","2009","02","15","07:00","-3.2","","-5.4","","85","","27","","7","","14.5","","100.04","","","","-6","","Snow Showers"
"2009-02-15 08:00","2009","02","15","08:00","-3.6","","-6.1","","83","","30","","7","","24.1","","100.10","","","","-7","","Mostly Cloudy"
"2009-02-15 09:00","2009","02","15","09:00","-3.1","","-5.9","","81","","33","","9","","24.1","","100.13","","","","-7","","Mostly Cloudy"
"2009-02-15 10:00","2009","02","15","10:00","-2.9","","-6.9","","74","","32","","9","","24.1","","100.15","","","","-6","","Mostly Cloudy"
"2009-02-15 11:00","2009","02","15","11:00","-2.2","","-7.8","","65","","32","","9","","24.1","","100.14","","","","-6","","Mainly Clear"
"2009-02-15 12:00","2009","02","15","12:00","-1.3","","-8.4","","58","","27","","7","","24.1","","100.10","","","","-4","","Mainly Clear"
"2009-02-15 13:00","2009","02","15","13:00","-0.9","","-8.4","","57","","32","","15","","24.1","","100.06","","","","-6","","Mostly Cloudy"
"2009-02-15 14:00","2009","02","15","14:00","-1.5","","-7.3","","65","","33","","11","","24.1","","100.04","","","","-5","","Snow Showers"
"2009-02-15 15:00","2009","02","15","15:00","-1.6","","-7.1","","66","","33","","19","","12.9","","100.06","","","","-7","","Snow Showers"
"2009-02-15 16:00","2009","02","15","16:00","-1.6","","-7.9","","62","","32","","13","","19.3","","100.09","","","","-6","","Snow Showers"
"2009-02-15 17:00","2009","02","15","17:00","-1.7","","-7.5","","65","","33","","13","","19.3","","100.12","","","","-6","","Snow Showers"
"2009-02-15 18:00","2009","02","15","18:00","-1.9","","-8.0","","63","","34","","11","","24.1","","100.15","","","","-6","","Cloudy"
"2009-02-15 19:00","2009","02","15","19:00","-2.1","","-8.9","","60","","34","","7","","24.1","","100.18","","","","-5","","Mostly Cloudy"
"2009-02-15 20:00","2009","02","15","20:00","-2.3","","-8.5","","62","","33","","7","","24.1","","100.18","","","","-5","","Mostly Cloudy"
"2009-02-15 21:00","2009","02","15","21:00","-2.6","","-8.2","","65","","34","","4","","24.1","","100.18","","","","-4","","Mostly Cloudy"
"2009-02-15 22:00","2009","02","15","22:00","-2.5","","-9.3","","60","","32","","9","","24.1","","100.21","","","","-6","","Cloudy"
"2009-02-15 23:00","2009","02","15","23:00","-2.7","","-10.0","","57","","33","","9","","24.1","","100.22","","","","-6","","Mostly Cloudy"
"2009-02-16 00:00","2009","02","16","00:00","-3.2","","-9.7","","61","","34","","11","","24.1","","100.24","","","","-7","","Mostly Cloudy"
"2009-02-16 01:00","2009","02","16","01:00","-3.4","","-8.8","","66","","35","","9","","24.1","","100.27","","","","-7","","Mostly Cloudy"
"2009-02-16 02:00","2009","02","16","02:00","-4.0","","-8.9","","69","","33","","7","","24.1","","100.32","","","","-7","","Mainly Clear"
"2009-02-16 03:00","2009","02","16","03:00","-3.6","","-8.8","","67","","33","","9","","24.1","","100.33","","","","-7","","Mostly Cloudy"
"2009-02-16 04:00","2009","02","16","04:00","-3.5","","-8.6","","68","","33","","9","","24.1","","100.34","","","","-7","","Mostly Cloudy"
"2009-02-16 05:00","2009","02","16","05:00","-3.3","","-8.4","","68","","34","","17","","24.1","","100.36","","","","-9","","Mostly Cloudy"
"2009-02-16 06:00","2009","02","16","06:00","-3.6","","-8.4","","69","","32","","15","","24.1","","100.39","","","","-9","","Mostly Cloudy"
"2009-02-16 07:00","2009","02","16","07:00","-3.9","","-8.2","","72","","32","","13","","24.1","","100.44","","","","-9","","Mostly Cloudy"
"2009-02-16 08:00","2009","02","16","08:00","-4.4","","-7.9","","77","","33","","13","","24.1","","100.49","","","","-9","","Mainly Clear"
"2009-02-16 09:00","2009","02","16","09:00","-4.0","","-7.7","","75","","35","","19","","24.1","","100.54","","","","-10","","Mainly Clear"
"2009-02-16 10:00","2009","02","16","10:00","-3.3","","-8.1","","69","","35","","11","","24.1","","100.55","","","","-8","","Mainly Clear"
"2009-02-16 11:00","2009","02","16","11:00","-2.3","","-8.6","","62","","31","","7","","24.1","","100.59","","","","-5","","Mainly Clear"
"2009-02-16 12:00","2009","02","16","12:00","-1.4","","-8.9","","57","","30","","15","","24.1","","100.61","","","","-6","","Mainly Clear"
"2009-02-16 13:00","2009","02","16","13:00","-0.6","","-9.7","","50","","32","","13","","24.1","","100.61","","","","-5","","Mainly Clear"
"2009-02-16 14:00","2009","02","16","14:00","-0.3","","-10.0","","48","","30","","13","","24.1","","100.57","","","","-4","","Mainly Clear"
"2009-02-16 15:00","2009","02","16","15:00","0.0","","-9.8","","48","","26","","9","","24.1","","100.54","","","","-3","","Mainly Clear"
"2009-02-16 16:00","2009","02","16","16:00","0.2","","-10.1","","46","","31","","6","","24.1","","100.51","","","","","","Mainly Clear"
"2009-02-16 17:00","2009","02","16","17:00","0.4","","-9.6","","47","","31","","9","","24.1","","100.50","","","","","","Mainly Clear"
"2009-02-16 18:00","2009","02","16","18:00","-0.6","","-9.7","","50","","26","","13","","24.1","","100.48","","","","-5","","Mainly Clear"
"2009-02-16 19:00","2009","02","16","19:00","-1.5","","-9.5","","54","","24","","9","","24.1","","100.46","","","","-5","","Mainly Clear"
"2009-02-16 20:00","2009","02","16","20:00","-2.2","","-8.8","","61","","24","","9","","24.1","","100.45","","","","-6","","Mainly Clear"
"2009-02-16 21:00","2009","02","16","21:00","-2.9","","-8.4","","66","","24","","7","","24.1","","100.41","","","","-6","","Mainly Clear"
"2009-02-16 22:00","2009","02","16","22:00","-3.8","","-8.4","","70","","24","","6","","24.1","","100.43","","","","-6","","Mainly Clear"
"2009-02-16 23:00","2009","02","16","23:00","-3.8","","-7.8","","74","","20","","9","","24.1","","100.40","","","","-8","","Mostly Cloudy"
"2009-02-17 00:00","2009","02","17","00:00","-4.6","","-7.4","","81","","20","","6","","24.1","","100.35","","","","-7","","Mainly Clear"
"2009-02-17 01:00","2009","02","17","01:00","-5.0","","-7.6","","82","","18","","9","","24.1","","100.31","","","","-9","","Mainly Clear"
"2009-02-17 02:00","2009","02","17","02:00","-4.7","","-7.4","","81","","18","","9","","24.1","","100.29","","","","-9","","Mainly Clear"
"2009-02-17 03:00","2009","02","17","03:00","-4.0","","-6.5","","83","","21","","9","","24.1","","100.26","","","","-8","","Mainly Clear"
"2009-02-17 04:00","2009","02","17","04:00","-3.4","","-6.0","","82","","21","","9","","24.1","","100.21","","","","-7","","Mainly Clear"
"2009-02-17 05:00","2009","02","17","05:00","-3.2","","-5.8","","82","","20","","11","","24.1","","100.18","","","","-7","","Mostly Cloudy"
"2009-02-17 06:00","2009","02","17","06:00","-3.0","","-5.9","","80","","20","","13","","24.1","","100.15","","","","-8","","Cloudy"
"2009-02-17 07:00","2009","02","17","07:00","-3.1","","-6.3","","79","","19","","13","","24.1","","100.10","","","","-8","","Mostly Cloudy"
"2009-02-17 08:00","2009","02","17","08:00","-2.9","","-6.5","","76","","19","","13","","24.1","","100.06","","","","-8","","Cloudy"
"2009-02-17 09:00","2009","02","17","09:00","-2.3","","-6.2","","75","","19","","19","","24.1","","100.03","","","","-8","","Cloudy"
"2009-02-17 10:00","2009","02","17","10:00","-1.3","","-6.6","","67","","20","","28","","24.1","","99.98","","","","-8","","Cloudy"
"2009-02-17 11:00","2009","02","17","11:00","-0.1","","-6.6","","62","","21","","28","","24.1","","99.89","","","","-6","","Mostly Cloudy"
"2009-02-17 12:00","2009","02","17","12:00","0.3","","-6.8","","59","","21","","32","","24.1","","99.79","","","","","","Mostly Cloudy"
"2009-02-17 13:00","2009","02","17","13:00","1.1","","-6.0","","59","","19","","32","","24.1","","99.64","","","","","","Mostly Cloudy"
"2009-02-17 14:00","2009","02","17","14:00","2.1","","-5.9","","55","","19","","32","","24.1","","99.53","","","","","","Mostly Cloudy"
"2009-02-17 15:00","2009","02","17","15:00","2.5","","-5.5","","56","","20","","32","","24.1","","99.43","","","","","","Mostly Cloudy"
"2009-02-17 16:00","2009","02","17","16:00","2.3","","-5.3","","57","","18","","26","","24.1","","99.32","","","","","","Mostly Cloudy"
"2009-02-17 17:00","2009","02","17","17:00","2.2","","-5.0","","59","","17","","19","","24.1","","99.23","","","","","","Mostly Cloudy"
"2009-02-17 18:00","2009","02","17","18:00","1.6","","-4.7","","63","","17","","20","","24.1","","99.14","","","","","","Cloudy"
"2009-02-17 19:00","2009","02","17","19:00","0.9","","-4.4","","68","","14","","13","","24.1","","99.10","","","","","","Mostly Cloudy"
"2009-02-17 20:00","2009","02","17","20:00","0.6","","-3.7","","73","","14","","11","","24.1","","99.05","","","","","","Mostly Cloudy"
"2009-02-17 21:00","2009","02","17","21:00","0.8","","-3.4","","73","","14","","11","","24.1","","98.96","","","","","","Mostly Cloudy"
"2009-02-17 22:00","2009","02","17","22:00","1.2","","-3.6","","70","","14","","17","","24.1","","98.79","","","","","","Mostly Cloudy"
"2009-02-17 23:00","2009","02","17","23:00","1.7","","-4.5","","63","","16","","22","","24.1","","98.70","","","","","","Cloudy"
"2009-02-18 00:00","2009","02","18","00:00","1.4","","-1.9","","79","","13","","15","","4.8","","98.55","","","","","","Snow"
"2009-02-18 01:00","2009","02","18","01:00","2.0","","-3.3","","68","","16","","17","","24.1","","98.47","","","","","","Cloudy"
"2009-02-18 02:00","2009","02","18","02:00","2.4","","-3.1","","67","","16","","17","","24.1","","98.31","","","","","","Cloudy"
"2009-02-18 03:00","2009","02","18","03:00","2.5","","-1.5","","75","","18","","20","","24.1","","98.15","","","","","","Snow Showers"
"2009-02-18 04:00","2009","02","18","04:00","2.0","","-0.6","","83","","18","","22","","16.1","","97.93","","","","","","Snow Showers"
"2009-02-18 05:00","2009","02","18","05:00","2.0","","-0.5","","83","","15","","13","","24.1","","97.78","","","","","","Cloudy"
"2009-02-18 06:00","2009","02","18","06:00","3.0","","-1.5","","72","","18","","19","","24.1","","97.74","","","","","","Cloudy"
"2009-02-18 07:00","2009","02","18","07:00","2.8","","-0.9","","77","","18","","15","","16.1","","97.64","","","","","","Snow"
"2009-02-18 08:00","2009","02","18","08:00","2.5","","-0.2","","82","","16","","11","","16.1","","97.56","","","","","","Cloudy"
"2009-02-18 09:00","2009","02","18","09:00","3.1","","1.1","","87","","18","","13","","9.7","","97.37","","","","","","Fog"
"2009-02-18 10:00","2009","02","18","10:00","3.5","","1.7","","88","","20","","15","","6.4","","97.33","","","","","","Rain Showers,Fog"
"2009-02-18 11:00","2009","02","18","11:00","3.5","","2.3","","92","","19","","15","","6.4","","97.22","","","","","","Rain Showers,Fog"
"2009-02-18 12:00","2009","02","18","12:00","3.9","","3.0","","94","","18","","11","","6.4","","97.10","","","","","","Rain Showers,Fog"
"2009-02-18 13:00","2009","02","18","13:00","4.1","","3.3","","95","","20","","11","","3.2","","96.99","","","","","","Rain Showers,Fog"
"2009-02-18 14:00","2009","02","18","14:00","4.6","","4.0","","96","","20","","9","","3.2","","96.86","","","","","","Rain Showers,Fog"
"2009-02-18 15:00","2009","02","18","15:00","4.6","","3.9","","95","","24","","13","","6.4","","96.84","","","","","","Rain Showers,Fog"
"2009-02-18 16:00","2009","02","18","16:00","4.3","","3.4","","94","","27","","17","","9.7","","96.87","","","","","","Rain Showers,Fog"
"2009-02-18 17:00","2009","02","18","17:00","4.1","","2.6","","90","","28","","22","","19.3","","96.97","","","","","","Cloudy"
"2009-02-18 18:00","2009","02","18","18:00","4.0","","2.3","","89","","29","","20","","12.9","","97.07","","","","","","Cloudy"
"2009-02-18 19:00","2009","02","18","19:00","3.9","","2.2","","89","","28","","26","","9.7","","97.18","","","","","","Rain Showers,Fog"
"2009-02-18 20:00","2009","02","18","20:00","3.3","","0.7","","83","","28","","28","","19.3","","97.29","","","","","","Cloudy"
"2009-02-18 21:00","2009","02","18","21:00","3.0","","0.4","","83","","29","","24","","19.3","","97.37","","","","","","Cloudy"
"2009-02-18 22:00","2009","02","18","22:00","2.5","","-0.4","","81","","31","","19","","19.3","","97.46","","","","","","Cloudy"
"2009-02-18 23:00","2009","02","18","23:00","2.1","","-1.1","","79","","29","","20","","19.3","","97.50","","","","","","Snow Showers"
"2009-02-19 00:00","2009","02","19","00:00","1.4","","-0.9","","85","","29","","24","","19.3","","97.55","","","","","","Snow Showers"
"2009-02-19 01:00","2009","02","19","01:00","-0.3","","-1.8","","90","","29","","22","","2.0","","97.59","","","","-6","","Snow"
"2009-02-19 02:00","2009","02","19","02:00","-1.8","","-4.4","","82","","30","","30","","9.7","","97.65","","","","-9","","Snow"
"2009-02-19 03:00","2009","02","19","03:00","-3.6","","-8.0","","71","","29","","33","","24.1","","97.73","","","","-12","","Snow"
"2009-02-19 04:00","2009","02","19","04:00","-4.8","","-9.5","","70","","31","","32","","16.1","","97.82","","","","-13","","Snow"
"2009-02-19 05:00","2009","02","19","05:00","-5.8","","-11.6","","64","","31","","35","","19.3","","97.90","","","","-15","","Snow"
"2009-02-19 06:00","2009","02","19","06:00","-6.5","","-12.2","","64","","29","","33","","16.1","","97.97","","","","-15","","Snow"
"2009-02-19 07:00","2009","02","19","07:00","-7.1","","-12.5","","65","","30","","30","","16.1","","98.10","","","","-16","","Snow"
"2009-02-19 08:00","2009","02","19","08:00","-7.2","","-13.0","","63","","29","","39","","24.1","","98.16","","","","-17","","Snow Showers"
"2009-02-19 09:00","2009","02","19","09:00","-7.1","","-13.2","","62","","29","","30","","24.1","","98.25","","","","-16","","Snow Showers"
"2009-02-19 10:00","2009","02","19","10:00","-6.9","","-13.4","","60","","29","","39","","24.1","","98.31","","","","-17","","Mostly Cloudy"
"2009-02-19 11:00","2009","02","19","11:00","-6.1","","-12.7","","60","","30","","35","","24.1","","98.35","","","","-15","","Snow Showers"
"2009-02-19 12:00","2009","02","19","12:00","-6.0","","-12.8","","59","","29","","32","","24.1","","98.44","","","","-15","","Snow Showers"
"2009-02-19 13:00","2009","02","19","13:00","-5.7","","-12.9","","57","","29","","35","","24.1","","98.48","","","","-14","","Snow Showers"
"2009-02-19 14:00","2009","02","19","14:00","-5.5","","-12.9","","56","","29","","37","","24.1","","98.53","","","","-14","","Snow Showers"
"2009-02-19 15:00","2009","02","19","15:00","-5.4","","-12.8","","56","","28","","37","","24.1","","98.59","","","","-14","","Snow Showers"
"2009-02-19 16:00","2009","02","19","16:00","-5.3","","-14.2","","50","","30","","37","","24.1","","98.68","","","","-14","","Mostly Cloudy"
"2009-02-19 17:00","2009","02","19","17:00","-5.7","","-13.6","","54","","31","","32","","19.3","","98.76","","","","-14","","Snow Showers"
"2009-02-19 18:00","2009","02","19","18:00","-5.6","","-14.1","","51","","30","","30","","24.1","","98.81","","","","-14","","Mostly Cloudy"
"2009-02-19 19:00","2009","02","19","19:00","-6.1","","-14.2","","53","","30","","28","","24.1","","98.91","","","","-14","","Mostly Cloudy"
"2009-02-19 20:00","2009","02","19","20:00","-6.4","","-14.2","","54","","29","","35","","24.1","","98.99","","","","-15","","Mostly Cloudy"
"2009-02-19 21:00","2009","02","19","21:00","-7.1","","-15.0","","53","","30","","39","","24.1","","99.06","","","","-17","","Mostly Cloudy"
"2009-02-19 22:00","2009","02","19","22:00","-7.5","","-15.2","","54","","29","","28","","24.1","","99.07","","","","-16","","Mainly Clear"
"2009-02-19 23:00","2009","02","19","23:00","-7.5","","-15.1","","54","","28","","30","","24.1","","99.05","","","","-16","","Clear"
"2009-02-20 00:00","2009","02","20","00:00","-7.5","","-14.4","","58","","28","","30","","24.1","","99.05","","","","-16","","Clear"
"2009-02-20 01:00","2009","02","20","01:00","-7.6","","-13.7","","62","","28","","24","","24.1","","99.06","","","","-16","","Mainly Clear"
"2009-02-20 02:00","2009","02","20","02:00","-7.7","","-12.1","","71","","28","","20","","11.3","","99.08","","","","-15","","Snow Showers"
"2009-02-20 03:00","2009","02","20","03:00","-7.9","","-14.2","","61","","29","","30","","24.1","","99.08","","","","-17","","Clear"
"2009-02-20 04:00","2009","02","20","04:00","-8.3","","-15.8","","55","","29","","22","","24.1","","99.09","","","","-16","","Clear"
"2009-02-20 05:00","2009","02","20","05:00","-8.5","","-15.5","","57","","28","","26","","24.1","","99.12","","","","-17","","Clear"
"2009-02-20 06:00","2009","02","20","06:00","-8.5","","-14.9","","60","","28","","22","","24.1","","99.14","","","","-16","","Clear"
"2009-02-20 07:00","2009","02","20","07:00","-8.5","","-14.2","","63","","28","","30","","24.1","","99.18","","","","-18","","Clear"
"2009-02-20 08:00","2009","02","20","08:00","-8.3","","-13.9","","64","","27","","32","","24.1","","99.25","","","","-18","","Clear"
"2009-02-20 09:00","2009","02","20","09:00","-7.1","","-13.5","","60","","29","","32","","24.1","","99.32","","","","-16","","Mainly Clear"
"2009-02-20 10:00","2009","02","20","10:00","-6.1","","-12.7","","60","","29","","32","","24.1","","99.34","","","","-15","","Mainly Clear"
"2009-02-20 11:00","2009","02","20","11:00","-4.9","","-12.1","","57","","28","","30","","24.1","","99.37","","","","-13","","Mainly Clear"
"2009-02-20 12:00","2009","02","20","12:00","-3.6","","-11.8","","53","","27","","33","","24.1","","99.39","","","","-12","","Mainly Clear"
"2009-02-20 13:00","2009","02","20","13:00","-2.7","","-11.7","","50","","29","","26","","24.1","","99.36","","","","-10","","Mainly Clear"
"2009-02-20 14:00","2009","02","20","14:00","-2.5","","-11.5","","50","","29","","26","","24.1","","99.37","","","","-9","","Mostly Cloudy"
"2009-02-20 15:00","2009","02","20","15:00","-2.2","","-11.2","","50","","29","","24","","24.1","","99.38","","","","-9","","Mostly Cloudy"
"2009-02-20 16:00","2009","02","20","16:00","-1.2","","-10.4","","50","","29","","30","","24.1","","99.40","","","","-8","","Mostly Cloudy"
"2009-02-20 17:00","2009","02","20","17:00","-1.9","","-10.8","","51","","29","","24","","24.1","","99.46","","","","-8","","Mostly Cloudy"
"2009-02-20 18:00","2009","02","20","18:00","-2.3","","-10.6","","53","","29","","17","","19.3","","99.52","","","","-8","","Mostly Cloudy"
"2009-02-20 19:00","2009","02","20","19:00","-2.9","","-10.7","","55","","28","","15","","24.1","","99.57","","","","-8","","Mostly Cloudy"
"2009-02-20 20:00","2009","02","20","20:00","-3.3","","-10.8","","56","","29","","13","","24.1","","99.64","","","","-8","","Mainly Clear"
"2009-02-20 21:00","2009","02","20","21:00","-3.8","","-10.7","","59","","29","","13","","24.1","","99.69","","","","-9","","Mainly Clear"
"2009-02-20 22:00","2009","02","20","22:00","-4.6","","-10.7","","62","","29","","9","","24.1","","99.68","","","","-8","","Mainly Clear"
"2009-02-20 23:00","2009","02","20","23:00","-4.9","","-10.7","","64","","31","","7","","24.1","","99.70","","","","-8","","Clear"
"2009-02-21 00:00","2009","02","21","00:00","-5.6","","-10.6","","68","","23","","7","","24.1","","99.74","","","","-9","","Clear"
"2009-02-21 01:00","2009","02","21","01:00","-5.6","","-10.5","","68","","25","","7","","24.1","","99.78","","","","-9","","Clear"
"2009-02-21 02:00","2009","02","21","02:00","-6.5","","-10.6","","73","","27","","7","","24.1","","99.84","","","","-10","","Mainly Clear"
"2009-02-21 03:00","2009","02","21","03:00","-7.4","","-10.5","","78","","","","0","","24.1","","99.83","","","","","","Mainly Clear"
"2009-02-21 04:00","2009","02","21","04:00","-7.8","","-10.7","","80","","","","0","","24.1","","99.79","","","","","","Mainly Clear"
"2009-02-21 05:00","2009","02","21","05:00","-7.8","","-10.3","","82","","","","0","","24.1","","99.74","","","","","","Clear"
"2009-02-21 06:00","2009","02","21","06:00","-8.2","","-10.7","","82","","13","","6","","24.1","","99.71","","","","-11","","Mainly Clear"
"2009-02-21 07:00","2009","02","21","07:00","-8.2","","-10.7","","82","","15","","9","","24.1","","99.72","","","","-13","","Mostly Cloudy"
"2009-02-21 08:00","2009","02","21","08:00","-6.4","","-9.4","","79","","12","","13","","24.1","","99.63","","","","-12","","Mostly Cloudy"
"2009-02-21 09:00","2009","02","21","09:00","-3.8","","-7.9","","73","","14","","24","","19.3","","99.52","","","","-11","","Cloudy"
"2009-02-21 10:00","2009","02","21","10:00","-3.4","","-8.5","","68","","13","","33","","24.1","","99.40","","","","-11","","Cloudy"
"2009-02-21 11:00","2009","02","21","11:00","-2.5","","-8.4","","64","","14","","33","","16.1","","99.25","","","","-10","","Snow Showers"
"2009-02-21 12:00","2009","02","21","12:00","-4.0","","-5.8","","87","","13","","32","","0.6","","99.03","","","","-12","","Moderate Snow Showers"
"2009-02-21 13:00","2009","02","21","13:00","-2.9","","-4.7","","87","","14","","32","","9.7","","98.85","","","","-10","","Snow Showers"
"2009-02-21 14:00","2009","02","21","14:00","-2.3","","-3.7","","90","","15","","32","","0.4","","98.69","","","","-10","","Heavy Snow Showers"
"2009-02-21 15:00","2009","02","21","15:00","-0.8","","-2.0","","92","","16","","28","","0.6","","98.55","","","","-7","","Moderate Snow Showers"
"2009-02-21 16:00","2009","02","21","16:00","0.2","","-0.6","","94","","19","","39","","0.8","","98.51","","","","","","Moderate Snow"
"2009-02-21 17:00","2009","02","21","17:00","0.4","","-0.3","","95","","20","","35","","1.2","","98.52","","","","","","Snow"
"2009-02-21 18:00","2009","02","21","18:00","0.2","","-2.0","","85","","23","","39","","19.3","","98.70","","","","","","Mostly Cloudy"
"2009-02-21 19:00","2009","02","21","19:00","-2.6","","-7.1","","71","","24","","52","","24.1","","98.79","","","","-12","","Mainly Clear"
"2009-02-21 20:00","2009","02","21","20:00","-3.6","","-8.6","","68","","24","","44","","19.3","","98.85","","","","-13","","Snow Showers"
"2009-02-21 21:00","2009","02","21","21:00","-4.5","","-9.6","","67","","23","","37","","16.1","","98.87","","","","-13","","Snow Showers"
"2009-02-21 22:00","2009","02","21","22:00","-5.3","","-10.0","","69","","23","","37","","19.3","","98.88","","","","-14","","Cloudy"
"2009-02-21 23:00","2009","02","21","23:00","-5.2","","-9.3","","73","","23","","39","","24.1","","98.86","","","","-14","","Mostly Cloudy"
"2009-02-22 00:00","2009","02","22","00:00","-5.4","","-9.3","","74","","22","","35","","24.1","","98.81","","","","-14","","Mainly Clear"
"2009-02-22 01:00","2009","02","22","01:00","-5.1","","-8.8","","75","","22","","37","","9.7","","98.79","","","","-14","","Snow Showers"
"2009-02-22 02:00","2009","02","22","02:00","-5.0","","-8.7","","75","","23","","41","","19.3","","98.80","","","","-14","","Mainly Clear"
"2009-02-22 03:00","2009","02","22","03:00","-4.4","","-8.0","","76","","23","","33","","6.4","","98.81","","","","-13","","Snow Showers"
"2009-02-22 04:00","2009","02","22","04:00","-4.6","","-7.3","","81","","23","","37","","6.4","","98.84","","","","-13","","Snow Showers"
"2009-02-22 05:00","2009","02","22","05:00","-4.6","","-6.7","","85","","24","","32","","1.6","","98.90","","","","-13","","Snow Showers"
"2009-02-22 06:00","2009","02","22","06:00","-4.0","","-6.3","","84","","27","","24","","11.3","","98.99","","","","-11","","Snow Showers"
"2009-02-22 07:00","2009","02","22","07:00","-4.2","","-8.1","","74","","29","","39","","19.3","","99.10","","","","-13","","Mostly Cloudy"
"2009-02-22 08:00","2009","02","22","08:00","-5.5","","-9.9","","71","","29","","33","","24.1","","99.24","","","","-14","","Mainly Clear"
"2009-02-22 09:00","2009","02","22","09:00","-5.7","","-10.3","","70","","30","","26","","24.1","","99.35","","","","-13","","Mainly Clear"
"2009-02-22 10:00","2009","02","22","10:00","-5.0","","-10.5","","65","","31","","28","","24.1","","99.42","","","","-13","","Clear"
"2009-02-22 11:00","2009","02","22","11:00","-4.1","","-9.8","","64","","30","","28","","24.1","","99.50","","","","-12","","Mostly Cloudy"
"2009-02-22 12:00","2009","02","22","12:00","-3.4","","-10.0","","60","","31","","33","","24.1","","99.56","","","","-11","","Mostly Cloudy"
"2009-02-22 13:00","2009","02","22","13:00","-2.7","","-9.8","","58","","30","","30","","24.1","","99.60","","","","-10","","Mostly Cloudy"
"2009-02-22 14:00","2009","02","22","14:00","-2.5","","-10.4","","55","","32","","33","","24.1","","99.64","","","","-10","","Snow Showers"
"2009-02-22 15:00","2009","02","22","15:00","-1.9","","-10.2","","53","","29","","28","","24.1","","99.69","","","","-9","","Snow Showers"
"2009-02-22 16:00","2009","02","22","16:00","-1.9","","-9.0","","58","","28","","26","","24.1","","99.78","","","","-8","","Mostly Cloudy"
"2009-02-22 17:00","2009","02","22","17:00","-1.9","","-9.2","","57","","29","","24","","24.1","","99.90","","","","-8","","Snow Showers"
"2009-02-22 18:00","2009","02","22","18:00","-3.6","","-7.2","","76","","28","","20","","19.3","","100.02","","","","-10","","Snow Showers"
"2009-02-22 19:00","2009","02","22","19:00","-4.0","","-7.0","","80","","30","","19","","24.1","","100.12","","","","-10","","Snow Showers"
"2009-02-22 20:00","2009","02","22","20:00","-3.6","","-8.1","","71","","31","","19","","24.1","","100.20","","","","-10","","Snow Showers"
"2009-02-22 21:00","2009","02","22","21:00","-4.1","","-7.5","","77","","31","","20","","16.1","","100.29","","","","-10","","Snow Showers"
"2009-02-22 22:00","2009","02","22","22:00","-4.3","","-9.0","","70","","30","","20","","24.1","","100.37","","","","-11","","Mainly Clear"
"2009-02-22 23:00","2009","02","22","23:00","-4.7","","-11.8","","58","","32","","32","","24.1","","100.42","","","","-13","","Mainly Clear"
"2009-02-23 00:00","2009","02","23","00:00","-5.4","","-12.3","","58","","31","","24","","24.1","","100.44","","","","-13","","Clear"
"2009-02-23 01:00","2009","02","23","01:00","-6.1","","-13.0","","58","","31","","28","","24.1","","100.50","","","","-14","","Clear"
"2009-02-23 02:00","2009","02","23","02:00","-6.4","","-12.9","","60","","32","","24","","24.1","","100.53","","","","-14","","Clear"
"2009-02-23 03:00","2009","02","23","03:00","-7.1","","-12.8","","64","","31","","20","","24.1","","100.54","","","","-14","","Clear"
"2009-02-23 04:00","2009","02","23","04:00","-7.6","","-12.4","","68","","31","","20","","24.1","","100.55","","","","-15","","Clear"
"2009-02-23 05:00","2009","02","23","05:00","-8.2","","-11.9","","75","","30","","20","","24.1","","100.61","","","","-16","","Clear"
"2009-02-23 06:00","2009","02","23","06:00","-8.7","","-12.1","","76","","31","","19","","24.1","","100.69","","","","-16","","Clear"
"2009-02-23 07:00","2009","02","23","07:00","-8.9","","-12.1","","78","","31","","20","","24.1","","100.77","","","","-16","","Clear"
"2009-02-23 08:00","2009","02","23","08:00","-8.5","","-12.3","","74","","32","","17","","24.1","","100.88","","","","-15","","Clear"
"2009-02-23 09:00","2009","02","23","09:00","-7.8","","-13.1","","66","","33","","22","","24.1","","100.96","","","","-15","","Clear"
"2009-02-23 10:00","2009","02","23","10:00","-7.0","","-13.2","","61","","35","","24","","24.1","","101.00","","","","-15","","Clear"
"2009-02-23 11:00","2009","02","23","11:00","-6.4","","-14.1","","54","","35","","20","","24.1","","101.02","","","","-13","","Clear"
"2009-02-23 12:00","2009","02","23","12:00","-5.7","","-14.2","","51","","34","","20","","24.1","","101.01","","","","-12","","Mainly Clear"
"2009-02-23 13:00","2009","02","23","13:00","-4.8","","-14.4","","47","","35","","17","","24.1","","100.98","","","","-11","","Mainly Clear"
"2009-02-23 14:00","2009","02","23","14:00","-4.2","","-14.9","","43","","33","","22","","24.1","","100.92","","","","-11","","Mainly Clear"
"2009-02-23 15:00","2009","02","23","15:00","-3.8","","-15.1","","41","","32","","19","","24.1","","100.93","","","","-10","","Mainly Clear"
"2009-02-23 16:00","2009","02","23","16:00","-3.9","","-15.4","","40","","34","","13","","24.1","","100.94","","","","-9","","Mainly Clear"
"2009-02-23 17:00","2009","02","23","17:00","-4.2","","-15.7","","40","","36","","13","","24.1","","100.96","","","","-9","","Mainly Clear"
"2009-02-23 18:00","2009","02","23","18:00","-5.3","","-15.0","","46","","36","","17","","24.1","","100.96","","","","-11","","Mainly Clear"
"2009-02-23 19:00","2009","02","23","19:00","-6.5","","-15.9","","47","","36","","9","","24.1","","100.98","","","","-11","","Clear"
"2009-02-23 20:00","2009","02","23","20:00","-6.8","","-16.0","","48","","35","","6","","24.1","","101.01","","","","-10","","Clear"
"2009-02-23 21:00","2009","02","23","21:00","-8.0","","-16.0","","53","","4","","7","","24.1","","101.04","","","","-12","","Clear"
"2009-02-23 22:00","2009","02","23","22:00","-9.0","","-15.0","","62","","","","0","","24.1","","101.05","","","","","","Clear"
"2009-02-23 23:00","2009","02","23","23:00","-11.2","","-15.6","","70","","","","0","","24.1","","101.04","","","","","","Clear"
"2009-02-24 00:00","2009","02","24","00:00","-11.7","","-15.4","","74","","18","","6","","24.1","","101.01","","","","-15","","Clear"
"2009-02-24 01:00","2009","02","24","01:00","-10.7","","-14.4","","74","","22","","7","","24.1","","101.03","","","","-15","","Clear"
"2009-02-24 02:00","2009","02","24","02:00","-11.0","","-14.8","","73","","","","0","","24.1","","101.01","","","","","","Clear"
"2009-02-24 03:00","2009","02","24","03:00","-10.6","","-14.9","","71","","21","","7","","24.1","","100.96","","","","-15","","Clear"
"2009-02-24 04:00","2009","02","24","04:00","-10.6","","-15.0","","70","","19","","4","","24.1","","100.89","","","","-13","","Clear"
"2009-02-24 05:00","2009","02","24","05:00","-9.9","","-14.4","","70","","","","0","","24.1","","100.88","","","","","","Mainly Clear"
"2009-02-24 06:00","2009","02","24","06:00","-10.6","","-14.4","","74","","","","0","","24.1","","100.91","","","","","","Mainly Clear"
"2009-02-24 07:00","2009","02","24","07:00","-11.7","","-14.6","","79","","","","0","","24.1","","100.91","","","","","","Mainly Clear"
"2009-02-24 08:00","2009","02","24","08:00","-10.5","","-13.5","","79","","","","0","","24.1","","100.95","","","","","","Mainly Clear"
"2009-02-24 09:00","2009","02","24","09:00","-6.6","","-11.6","","68","","","","0","","24.1","","100.95","","","","","","Mostly Cloudy"
"2009-02-24 10:00","2009","02","24","10:00","-5.0","","-10.7","","64","","15","","7","","24.1","","100.94","","","","-8","","Mostly Cloudy"
"2009-02-24 11:00","2009","02","24","11:00","-3.8","","-11.2","","56","","21","","15","","24.1","","100.90","","","","-9","","Mostly Cloudy"
"2009-02-24 12:00","2009","02","24","12:00","-3.5","","-11.2","","55","","18","","20","","24.1","","100.85","","","","-10","","Mostly Cloudy"
"2009-02-24 13:00","2009","02","24","13:00","-3.0","","-11.4","","52","","19","","22","","24.1","","100.75","","","","-9","","Mostly Cloudy"
"2009-02-24 14:00","2009","02","24","14:00","-2.9","","-10.8","","54","","20","","20","","24.1","","100.68","","","","-9","","Mostly Cloudy"
"2009-02-24 15:00","2009","02","24","15:00","-2.9","","-10.2","","57","","20","","22","","24.1","","100.63","","","","-9","","Mostly Cloudy"
"2009-02-24 16:00","2009","02","24","16:00","-2.9","","-10.1","","58","","18","","20","","24.1","","100.60","","","","-9","","Mostly Cloudy"
"2009-02-24 17:00","2009","02","24","17:00","-2.6","","-9.3","","60","","19","","19","","24.1","","100.55","","","","-8","","Mostly Cloudy"
"2009-02-24 18:00","2009","02","24","18:00","-2.9","","-9.0","","63","","18","","17","","24.1","","100.46","","","","-8","","Mostly Cloudy"
"2009-02-24 19:00","2009","02","24","19:00","-3.8","","-9.2","","66","","14","","9","","24.1","","100.48","","","","-8","","Mainly Clear"
"2009-02-24 20:00","2009","02","24","20:00","-4.7","","-9.4","","70","","15","","13","","24.1","","100.43","","","","-10","","Mostly Cloudy"
"2009-02-24 21:00","2009","02","24","21:00","-5.3","","-9.6","","72","","16","","7","","24.1","","100.38","","","","-9","","Mainly Clear"
"2009-02-24 22:00","2009","02","24","22:00","-5.2","","-9.1","","74","","15","","6","","24.1","","100.37","","","","-8","","Mainly Clear"
"2009-02-24 23:00","2009","02","24","23:00","-5.8","","-9.0","","78","","14","","11","","24.1","","100.31","","","","-11","","Mainly Clear"
"2009-02-25 00:00","2009","02","25","00:00","-5.2","","-7.8","","82","","16","","11","","24.1","","100.25","","","","-10","","Mostly Cloudy"
"2009-02-25 01:00","2009","02","25","01:00","-3.7","","-7.7","","74","","18","","11","","24.1","","100.24","","","","-8","","Mainly Clear"
"2009-02-25 02:00","2009","02","25","02:00","-3.3","","-8.3","","68","","18","","11","","24.1","","100.25","","","","-8","","Mainly Clear"
"2009-02-25 03:00","2009","02","25","03:00","-3.9","","-8.5","","70","","17","","13","","24.1","","100.18","","","","-9","","Mostly Cloudy"
"2009-02-25 04:00","2009","02","25","04:00","-4.6","","-8.2","","76","","18","","9","","24.1","","100.15","","","","-8","","Mostly Cloudy"
"2009-02-25 05:00","2009","02","25","05:00","-5.0","","-8.5","","76","","18","","11","","24.1","","100.17","","","","-10","","Mainly Clear"
"2009-02-25 06:00","2009","02","25","06:00","-5.4","","-8.4","","79","","16","","13","","24.1","","100.14","","","","-11","","Mainly Clear"
"2009-02-25 07:00","2009","02","25","07:00","-4.5","","-7.9","","77","","18","","13","","24.1","","100.13","","","","-10","","Mainly Clear"
"2009-02-25 08:00","2009","02","25","08:00","-3.6","","-7.5","","74","","17","","13","","24.1","","100.12","","","","-8","","Mostly Cloudy"
"2009-02-25 09:00","2009","02","25","09:00","-1.7","","-7.1","","67","","18","","19","","24.1","","100.07","","","","-7","","Cloudy"
"2009-02-25 10:00","2009","02","25","10:00","0.0","","-7.1","","59","","19","","17","","24.1","","100.06","","","","-5","","Cloudy"
"2009-02-25 11:00","2009","02","25","11:00","0.8","","-6.7","","57","","18","","19","","24.1","","100.02","","","","","","Cloudy"
"2009-02-25 12:00","2009","02","25","12:00","1.8","","-5.7","","57","","19","","20","","24.1","","99.92","","","","","","Cloudy"
"2009-02-25 13:00","2009","02","25","13:00","3.1","","-5.0","","55","","18","","24","","24.1","","99.79","","","","","","Mostly Cloudy"
"2009-02-25 14:00","2009","02","25","14:00","3.7","","-4.4","","55","","18","","22","","24.1","","99.66","","","","","","Mostly Cloudy"
"2009-02-25 15:00","2009","02","25","15:00","4.8","","-3.5","","55","","20","","11","","24.1","","99.59","","","","","","Mostly Cloudy"
"2009-02-25 16:00","2009","02","25","16:00","4.9","","-2.3","","60","","22","","7","","24.1","","99.54","","","","","","Cloudy"
"2009-02-25 17:00","2009","02","25","17:00","4.4","","-1.9","","64","","18","","11","","24.1","","99.52","","","","","","Cloudy"
"2009-02-25 18:00","2009","02","25","18:00","4.8","","1.0","","76","","17","","17","","16.1","","99.41","","","","","","Rain"
"2009-02-25 19:00","2009","02","25","19:00","5.3","","1.8","","78","","19","","19","","16.1","","99.36","","","","","","Rain"
"2009-02-25 20:00","2009","02","25","20:00","6.8","","1.1","","67","","20","","20","","24.1","","99.36","","","","","","Cloudy"
"2009-02-25 21:00","2009","02","25","21:00","6.2","","0.9","","69","","20","","20","","24.1","","99.35","","","","","","Cloudy"
"2009-02-25 22:00","2009","02","25","22:00","5.3","","1.1","","74","","22","","17","","24.1","","99.37","","","","","","Cloudy"
"2009-02-25 23:00","2009","02","25","23:00","5.2","","1.2","","75","","23","","13","","24.1","","99.40","","","","","","Cloudy"
"2009-02-26 00:00","2009","02","26","00:00","5.6","","1.4","","74","","25","","9","","24.1","","99.45","","","","","","Mostly Cloudy"
"2009-02-26 01:00","2009","02","26","01:00","4.1","","0.9","","80","","24","","7","","24.1","","99.52","","","","","","Mostly Cloudy"
"2009-02-26 02:00","2009","02","26","02:00","4.4","","1.3","","80","","28","","13","","24.1","","99.60","","","","","","Clear"
"2009-02-26 03:00","2009","02","26","03:00","3.4","","0.5","","81","","29","","13","","19.3","","99.68","","","","","","Clear"
"2009-02-26 04:00","2009","02","26","04:00","2.5","","-0.1","","83","","27","","7","","16.1","","99.72","","","","","","Clear"
"2009-02-26 05:00","2009","02","26","05:00","2.5","","0.0","","84","","34","","7","","12.9","","99.81","","","","","","Mostly Cloudy"
"2009-02-26 06:00","2009","02","26","06:00","2.5","","-0.5","","81","","","","0","","12.9","","99.85","","","","","","Mostly Cloudy"
"2009-02-26 07:00","2009","02","26","07:00","0.7","","-1.5","","85","","","","0","","11.3","","99.89","","","","","","Mainly Clear"
"2009-02-26 08:00","2009","02","26","08:00","0.9","","-0.9","","88","","","","0","","11.3","","99.93","","","","","","Mostly Cloudy"
"2009-02-26 09:00","2009","02","26","09:00","4.0","","0.0","","75","","","","0","","9.7","","99.94","","","","","","Haze"
"2009-02-26 10:00","2009","02","26","10:00","4.8","","0.0","","71","","","","0","","11.3","","99.94","","","","","","Mostly Cloudy"
"2009-02-26 11:00","2009","02","26","11:00","5.6","","0.2","","68","","9","","9","","12.9","","99.91","","","","","","Mostly Cloudy"
"2009-02-26 12:00","2009","02","26","12:00","5.5","","0.2","","69","","11","","13","","12.9","","99.87","","","","","","Cloudy"
"2009-02-26 13:00","2009","02","26","13:00","4.9","","1.1","","76","","15","","17","","11.3","","99.82","","","","","","Cloudy"
"2009-02-26 14:00","2009","02","26","14:00","5.0","","1.4","","78","","16","","15","","11.3","","99.71","","","","","","Mostly Cloudy"
"2009-02-26 15:00","2009","02","26","15:00","5.5","","1.7","","76","","14","","9","","9.7","","99.61","","","","","","Haze"
"2009-02-26 16:00","2009","02","26","16:00","4.5","","1.5","","81","","11","","15","","8.0","","99.50","","","","","","Haze"
"2009-02-26 17:00","2009","02","26","17:00","3.7","","1.4","","85","","9","","11","","4.8","","99.34","","","","","","Haze"
"2009-02-26 18:00","2009","02","26","18:00","3.4","","1.6","","88","","13","","17","","2.4","","99.22","","","","","","Rain,Fog"
"2009-02-26 19:00","2009","02","26","19:00","3.6","","2.3","","91","","12","","19","","2.4","","99.04","","","","","","Rain,Fog"
"2009-02-26 20:00","2009","02","26","20:00","4.1","","3.3","","95","","14","","22","","2.4","","98.87","","","","","","Rain Showers,Fog"
"2009-02-26 21:00","2009","02","26","21:00","6.1","","5.4","","95","","15","","28","","4.8","","98.67","","","","","","Rain Showers,Fog"
"2009-02-26 22:00","2009","02","26","22:00","6.9","","5.7","","92","","16","","28","","6.4","","98.49","","","","","","Rain Showers,Fog"
"2009-02-26 23:00","2009","02","26","23:00","7.3","","6.2","","93","","16","","28","","8.0","","98.28","","","","","","Rain Showers,Fog"
"2009-02-27 00:00","2009","02","27","00:00","8.6","","6.8","","88","","17","","39","","16.1","","98.05","","","","","","Cloudy"
"2009-02-27 01:00","2009","02","27","01:00","10.0","","7.1","","82","","18","","39","","19.3","","97.87","","","","","","Cloudy"
"2009-02-27 02:00","2009","02","27","02:00","9.5","","7.4","","87","","20","","33","","19.3","","97.76","","","","","","Rain Showers"
"2009-02-27 03:00","2009","02","27","03:00","9.4","","8.0","","91","","20","","37","","16.1","","97.70","","","","","","Moderate Rain Showers"
"2009-02-27 04:00","2009","02","27","04:00","9.7","","8.7","","93","","22","","33","","19.3","","97.64","","","","","","Cloudy"
"2009-02-27 05:00","2009","02","27","05:00","9.7","","9.2","","97","","20","","17","","3.2","","97.61","","","","","","Rain Showers,Fog"
"2009-02-27 06:00","2009","02","27","06:00","9.5","","9.0","","97","","20","","22","","8.0","","97.61","","","","","","Rain Showers,Fog"
"2009-02-27 07:00","2009","02","27","07:00","9.1","","8.5","","96","","22","","19","","8.0","","97.66","","","","","","Rain Showers,Fog"
"2009-02-27 08:00","2009","02","27","08:00","9.9","","9.4","","97","","27","","13","","1.2","","97.80","","","","","","Rain Showers,Fog"
"2009-02-27 09:00","2009","02","27","09:00","7.8","","6.3","","90","","33","","26","","24.1","","98.02","","","","","","Cloudy"
"2009-02-27 10:00","2009","02","27","10:00","3.9","","1.0","","81","","34","","32","","24.1","","98.27","","","","","","Cloudy"
"2009-02-27 11:00","2009","02","27","11:00","2.6","","-0.3","","81","","34","","30","","24.1","","98.52","","","","","","Cloudy"
"2009-02-27 12:00","2009","02","27","12:00","0.9","","-1.7","","83","","33","","30","","11.3","","98.77","","","","","","Drizzle"
"2009-02-27 13:00","2009","02","27","13:00","0.1","","-2.7","","81","","33","","22","","11.3","","98.93","","","","","","Snow Showers"
"2009-02-27 14:00","2009","02","27","14:00","-0.1","","-4.4","","73","","34","","22","","24.1","","99.08","","","","-6","","Cloudy"
"2009-02-27 15:00","2009","02","27","15:00","-0.2","","-4.8","","71","","34","","20","","24.1","","99.23","","","","-5","","Cloudy"
"2009-02-27 16:00","2009","02","27","16:00","-0.7","","-5.2","","72","","34","","20","","24.1","","99.41","","","","-6","","Cloudy"
"2009-02-27 17:00","2009","02","27","17:00","-2.6","","-6.6","","74","","2","","26","","24.1","","99.61","","","","-9","","Cloudy"
"2009-02-27 18:00","2009","02","27","18:00","-4.0","","-9.1","","68","","36","","26","","24.1","","99.84","","","","-11","","Cloudy"
"2009-02-27 19:00","2009","02","27","19:00","-4.7","","-10.2","","65","","1","","22","","19.3","","100.02","","","","-12","","Snow Showers"
"2009-02-27 20:00","2009","02","27","20:00","-5.4","","-11.1","","64","","2","","20","","24.1","","100.16","","","","-12","","Snow Showers"
"2009-02-27 21:00","2009","02","27","21:00","-6.0","","-11.9","","63","","2","","26","","24.1","","100.30","","","","-14","","Snow Showers"
"2009-02-27 22:00","2009","02","27","22:00","-6.1","","-11.8","","64","","1","","26","","24.1","","100.40","","","","-14","","Snow Showers"
"2009-02-27 23:00","2009","02","27","23:00","-6.2","","-11.9","","64","","1","","22","","24.1","","100.45","","","","-13","","Snow Showers"
"2009-02-28 00:00","2009","02","28","00:00","-6.4","","-11.2","","69","","35","","19","","19.3","","100.51","","","","-13","","Snow Showers"
"2009-02-28 01:00","2009","02","28","01:00","-6.6","","-12.0","","65","","36","","24","","24.1","","100.50","","","","-14","","Snow Showers"
"2009-02-28 02:00","2009","02","28","02:00","-6.9","","-12.2","","66","","36","","19","","24.1","","100.52","","","","-14","","Snow Showers"
"2009-02-28 03:00","2009","02","28","03:00","-6.9","","-11.8","","68","","1","","15","","24.1","","100.49","","","","-13","","Snow Showers"
"2009-02-28 04:00","2009","02","28","04:00","-7.1","","-11.6","","70","","1","","20","","12.9","","100.49","","","","-14","","Snow Showers"
"2009-02-28 05:00","2009","02","28","05:00","-8.3","","-11.5","","78","","6","","24","","3.2","","100.61","","","","-16","","Snow Showers"
"2009-02-28 06:00","2009","02","28","06:00","-9.2","","-12.2","","79","","6","","19","","2.4","","100.72","","","","-17","","Snow Showers"
"2009-02-28 07:00","2009","02","28","07:00","-10.1","","-12.7","","81","","4","","22","","8.0","","100.70","","","","-18","","Snow Showers"
"2009-02-28 08:00","2009","02","28","08:00","-10.3","","-14.0","","74","","1","","20","","24.1","","100.71","","","","-18","","Mainly Clear"
"2009-02-28 09:00","2009","02","28","09:00","-9.9","","-14.2","","71","","3","","20","","24.1","","100.72","","","","-18","","Mainly Clear"
"2009-02-28 10:00","2009","02","28","10:00","-9.2","","-13.4","","71","","4","","30","","24.1","","100.71","","","","-18","","Snow Showers"
"2009-02-28 11:00","2009","02","28","11:00","-9.0","","-13.1","","72","","3","","22","","24.1","","100.67","","","","-17","","Snow Showers"
"2009-02-28 12:00","2009","02","28","12:00","-7.6","","-11.9","","71","","4","","24","","24.1","","100.65","","","","-16","","Mostly Cloudy"
"2009-02-28 13:00","2009","02","28","13:00","-7.0","","-13.0","","62","","5","","24","","24.1","","100.56","","","","-15","","Mostly Cloudy"
"2009-02-28 14:00","2009","02","28","14:00","-6.2","","-12.9","","59","","5","","19","","24.1","","100.47","","","","-13","","Mostly Cloudy"
"2009-02-28 15:00","2009","02","28","15:00","-6.4","","-14.2","","54","","9","","15","","24.1","","100.49","","","","-12","","Mainly Clear"
"2009-02-28 16:00","2009","02","28","16:00","-6.1","","-12.2","","62","","6","","11","","24.1","","100.44","","","","-11","","Mostly Cloudy"
"2009-02-28 17:00","2009","02","28","17:00","-6.3","","-12.3","","62","","4","","15","","24.1","","100.35","","","","-12","","Mostly Cloudy"
"2009-02-28 18:00","2009","02","28","18:00","-6.4","","-11.9","","65","","2","","13","","24.1","","100.34","","","","-12","","Mostly Cloudy"
"2009-02-28 19:00","2009","02","28","19:00","-6.8","","-11.9","","67","","2","","11","","24.1","","100.34","","","","-12","","Mainly Clear"
"2009-02-28 20:00","2009","02","28","20:00","-6.8","","-12.9","","62","","1","","11","","24.1","","100.33","","","","-12","","Clear"
"2009-02-28 21:00","2009","02","28","21:00","-6.9","","-13.1","","61","","3","","13","","24.1","","100.31","","","","-12","","Clear"
"2009-02-28 22:00","2009","02","28","22:00","-7.0","","-12.8","","63","","4","","13","","24.1","","100.31","","","","-13","","Clear"
"2009-02-28 23:00","2009","02","28","23:00","-7.1","","-12.9","","63","","2","","15","","24.1","","100.29","","","","-13","","Clear"
