"Station Name","WINDSOR A"
"Province","ONTARIO"
"Latitude","42.28"
"Longitude","-82.96"
"Elevation","189.60"
"Climate Identifier","6139527"
"WMO Identifier",""
"TC Identifier","YQG"
"All times are specified in Local Standard Time (LST). Add 1 hour to adjust for Daylight Saving Time where and when it is observed."

"Legend"
"E","Estimated"
"M","Missing"
"NA","Not Available"

"Date/Time","Year","Month","Day","Time","Temp (°C)","Temp Flag","Dew Point Temp (°C)","Dew Point Temp Flag","Rel Hum (%)","Rel Hum Flag","Wind Dir (10s deg)","Wind Dir Flag","Wind Spd (km/h)","Wind Spd Flag","Visibility (km)","Visibility Flag","Stn Press (kPa)","Stn Press Flag","Hmdx","Hmdx Flag","Wind Chill","Wind Chill Flag","Weather"
"2018-02-01 00:00","2018","02","01","00:00","2.0","","-2.1","","74","","23","","14","","24.1","","98.50","","","","","","NA"
"2018-02-01 01:00","2018","02","01","01:00","1.6","","-1.9","","77","","23","","14","","24.1","","98.49","","","","","","Cloudy"
"2018-02-01 02:00","2018","02","01","02:00","1.6","","-2.0","","77","","24","","16","","24.1","","98.49","","","","","","NA"
"2018-02-01 03:00","2018","02","01","03:00","1.0","","-1.9","","81","","23","","14","","24.1","","98.53","","","","","","NA"
"2018-02-01 04:00","2018","02","01","04:00","0.9","","-1.8","","82","","22","","16","","24.1","","98.50","","","","","","Cloudy"
"2018-02-01 05:00","2018","02","01","05:00","1.0","","-1.6","","83","","21","","18","","24.1","","98.48","","","","","","NA"
"2018-02-01 06:00","2018","02","01","06:00","1.1","","-1.5","","82","","22","","22","","24.1","","98.49","","","","","","NA"
"2018-02-01 07:00","2018","02","01","07:00","1.2","","-1.6","","81","","22","","22","","24.1","","98.49","","","","","","Mostly Cloudy"
"2018-02-01 08:00","2018","02","01","08:00","0.7","","-1.8","","83","","21","","20","","16.1","","98.49","","","","","","NA"
"2018-02-01 09:00","2018","02","01","09:00","1.7","","-1.7","","78","","23","","23","","24.1","","98.55","","","","","","NA"
"2018-02-01 10:00","2018","02","01","10:00","2.5","","-2.5","","69","","27","","23","","24.1","","98.63","","","","","","Mostly Cloudy"
"2018-02-01 11:00","2018","02","01","11:00","2.8","","-3.0","","66","","26","","26","","24.1","","98.63","","","","","","NA"
"2018-02-01 12:00","2018","02","01","12:00","2.8","","-3.6","","63","","26","","35","","19.3","","98.69","","","","","","NA"
"2018-02-01 13:00","2018","02","01","13:00","1.7","","-3.9","","67","","28","","28","","19.3","","98.72","","","","","","Mostly Cloudy"
"2018-02-01 14:00","2018","02","01","14:00","1.7","","-6.0","","56","","27","","27","","19.3","","98.78","","","","","","NA"
"2018-02-01 15:00","2018","02","01","15:00","0.6","","-11.1","","41","","29","","32","","19.3","","98.88","","","","","","NA"
"2018-02-01 16:00","2018","02","01","16:00","-1.0","","-11.6","","45","","30","","34","","24.1","","99.04","","","","-8","","Mostly Cloudy"
"2018-02-01 17:00","2018","02","01","17:00","-3.1","","-12.4","","49","","28","","31","","24.1","","99.21","","","","-11","","NA"
"2018-02-01 18:00","2018","02","01","18:00","-5.7","","-9.7","","74","","33","","26","","9.7","","99.37","","","","-13","","Snow Showers"
"2018-02-01 19:00","2018","02","01","19:00","-6.5","","-11.9","","66","","29","","26","","9.7","","99.54","","","","-14","","Snow"
"2018-02-01 20:00","2018","02","01","20:00","-8.4","","-12.9","","70","","33","","22","","16.1","","99.70","","","","-16","","Snow"
"2018-02-01 21:00","2018","02","01","21:00","-9.6","","-14.5","","68","","32","","23","","16.1","","99.82","","","","-18","","Snow"
"2018-02-01 22:00","2018","02","01","22:00","-10.6","","-17.7","","56","","31","","32","","24.1","","99.94","","","","-21","","Snow"
"2018-02-01 23:00","2018","02","01","23:00","-11.3","","-19.5","","51","","31","","27","","24.1","","100.03","","","","-21","","NA"
"2018-02-02 00:00","2018","02","02","00:00","-11.7","","-19.4","","53","","33","","24","","24.1","","100.08","","","","-21","","NA"
"2018-02-02 01:00","2018","02","02","01:00","-11.9","","-19.2","","55","","30","","23","","24.1","","100.14","","","","-21","","Clear"
"2018-02-02 02:00","2018","02","02","02:00","-12.1","","-18.8","","58","","29","","25","","24.1","","100.15","","","","-21","","NA"
"2018-02-02 03:00","2018","02","02","03:00","-12.2","","-18.0","","62","","29","","19","","24.1","","100.22","","","","-20","","NA"
"2018-02-02 04:00","2018","02","02","04:00","-12.3","","-17.5","","65","","29","","24","","24.1","","100.28","","","","-22","","Clear"
"2018-02-02 05:00","2018","02","02","05:00","-12.3","","-17.1","","68","","29","","19","","24.1","","100.30","","","","-21","","NA"
"2018-02-02 06:00","2018","02","02","06:00","-12.1","","-16.8","","68","","29","","21","","24.1","","100.39","","","","-21","","NA"
"2018-02-02 07:00","2018","02","02","07:00","-11.6","","-16.3","","68","","29","","24","","24.1","","100.46","","","","-21","","Mostly Cloudy"
"2018-02-02 08:00","2018","02","02","08:00","-11.3","","-16.5","","66","","28","","25","","24.1","","100.52","","","","-20","","NA"
"2018-02-02 09:00","2018","02","02","09:00","-10.7","","-16.3","","64","","28","","21","","24.1","","100.57","","","","-19","","NA"
"2018-02-02 10:00","2018","02","02","10:00","-9.8","","-17.0","","56","","30","","22","","24.1","","100.65","","","","-18","","Mostly Cloudy"
"2018-02-02 11:00","2018","02","02","11:00","-8.7","","-17.5","","50","","29","","26","","24.1","","100.69","","","","-17","","NA"
"2018-02-02 12:00","2018","02","02","12:00","-8.6","","-18.0","","47","","30","","23","","24.1","","100.69","","","","-17","","NA"
"2018-02-02 13:00","2018","02","02","13:00","-7.5","","-18.4","","42","","30","","23","","24.1","","100.64","","","","-15","","Mostly Cloudy"
"2018-02-02 14:00","2018","02","02","14:00","-7.2","","-17.6","","44","","25","","23","","24.1","","100.57","","","","-15","","NA"
"2018-02-02 15:00","2018","02","02","15:00","-7.4","","-18.5","","41","","28","","18","","24.1","","100.50","","","","-14","","NA"
"2018-02-02 16:00","2018","02","02","16:00","-7.5","","-16.9","","48","","26","","33","","24.1","","100.52","","","","-17","","Mostly Cloudy"
"2018-02-02 17:00","2018","02","02","17:00","-7.8","","-16.6","","50","","27","","20","","24.1","","100.50","","","","-15","","NA"
"2018-02-02 18:00","2018","02","02","18:00","-7.9","","-14.9","","57","","24","","27","","24.1","","100.51","","","","-16","","NA"
"2018-02-02 19:00","2018","02","02","19:00","-8.1","","-16.1","","53","","26","","20","","24.1","","100.51","","","","-15","","Mostly Cloudy"
"2018-02-02 20:00","2018","02","02","20:00","-8.0","","-16.1","","52","","26","","30","","24.1","","100.54","","","","-17","","NA"
"2018-02-02 21:00","2018","02","02","21:00","-8.5","","-16.0","","55","","26","","30","","24.1","","100.48","","","","-18","","NA"
"2018-02-02 22:00","2018","02","02","22:00","-9.6","","-16.0","","60","","25","","24","","24.1","","100.50","","","","-18","","Clear"
"2018-02-02 23:00","2018","02","02","23:00","-10.5","","-16.3","","63","","26","","19","","24.1","","100.46","","","","-18","","NA"
"2018-02-03 00:00","2018","02","03","00:00","-11.0","","-16.3","","65","","25","","17","","24.1","","100.47","","","","-18","","NA"
"2018-02-03 01:00","2018","02","03","01:00","-11.1","","-15.9","","68","","24","","13","","24.1","","100.43","","","","-18","","Mostly Cloudy"
"2018-02-03 02:00","2018","02","03","02:00","-10.2","","-15.3","","67","","22","","18","","24.1","","100.36","","","","-18","","NA"
"2018-02-03 03:00","2018","02","03","03:00","-9.2","","-15.5","","61","","23","","19","","24.1","","100.30","","","","-17","","NA"
"2018-02-03 04:00","2018","02","03","04:00","-9.0","","-15.5","","59","","24","","17","","24.1","","100.23","","","","-16","","Cloudy"
"2018-02-03 05:00","2018","02","03","05:00","-8.4","","-14.9","","60","","23","","18","","24.1","","100.21","","","","-15","","NA"
"2018-02-03 06:00","2018","02","03","06:00","-7.8","","-14.7","","58","","23","","21","","24.1","","100.19","","","","-15","","NA"
"2018-02-03 07:00","2018","02","03","07:00","-7.4","","-14.2","","59","","22","","27","","24.1","","100.15","","","","-16","","Snow"
"2018-02-03 08:00","2018","02","03","08:00","-6.9","","-13.4","","60","","22","","22","","19.3","","100.11","","","","-14","","NA"
"2018-02-03 09:00","2018","02","03","09:00","-6.7","","-12.3","","64","","22","","29","","16.1","","100.12","","","","-15","","Snow"
"2018-02-03 10:00","2018","02","03","10:00","-6.1","","-11.0","","69","","22","","23","","19.3","","100.05","","","","-13","","Cloudy"
"2018-02-03 11:00","2018","02","03","11:00","-4.9","","-10.1","","67","","22","","22","","19.3","","99.98","","","","-12","","NA"
"2018-02-03 12:00","2018","02","03","12:00","-4.1","","-9.7","","65","","21","","34","","11.3","","99.91","","","","-12","","Snow"
"2018-02-03 13:00","2018","02","03","13:00","-4.3","","-7.5","","78","","22","","23","","4.0","","99.77","","","","-11","","Snow,Blowing Snow"
"2018-02-03 14:00","2018","02","03","14:00","-3.3","","-7.3","","74","","21","","24","","3.2","","99.61","","","","-10","","Snow,Blowing Snow"
"2018-02-03 15:00","2018","02","03","15:00","-2.2","","-8.6","","62","","21","","27","","11.3","","99.45","","","","-9","","Snow"
"2018-02-03 16:00","2018","02","03","16:00","-1.4","","-8.6","","58","","21","","39","","16.1","","99.35","","","","-9","","Snow"
"2018-02-03 17:00","2018","02","03","17:00","-0.9","","-8.6","","56","","20","","26","","16.1","","99.22","","","","-7","","Snow"
"2018-02-03 18:00","2018","02","03","18:00","-0.9","","-7.8","","60","","19","","26","","19.3","","99.09","","","","-7","","NA"
"2018-02-03 19:00","2018","02","03","19:00","-0.8","","-8.2","","58","","19","","30","","19.3","","99.04","","","","-8","","Cloudy"
"2018-02-03 20:00","2018","02","03","20:00","-0.4","","-8.3","","55","","19","","34","","19.3","","98.98","","","","-7","","NA"
"2018-02-03 21:00","2018","02","03","21:00","-0.2","","-8.4","","54","","19","","39","","19.3","","98.83","","","","-8","","NA"
"2018-02-03 22:00","2018","02","03","22:00","-0.2","","-7.8","","56","","20","","36","","19.3","","98.82","","","","-7","","Cloudy"
"2018-02-03 23:00","2018","02","03","23:00","0.1","","-7.7","","56","","20","","34","","19.3","","98.77","","","","","","NA"
"2018-02-04 00:00","2018","02","04","00:00","0.6","","-8.3","","52","","22","","28","","24.1","","98.79","","","","","","NA"
"2018-02-04 01:00","2018","02","04","01:00","1.2","","-9.7","","44","","22","","30","","24.1","","98.77","","","","","","Cloudy"
"2018-02-04 02:00","2018","02","04","02:00","0.3","","-5.0","","68","","23","","39","","9.7","","98.73","","","","","","Snow"
"2018-02-04 03:00","2018","02","04","03:00","-1.1","","-2.4","","91","","21","","18","","4.8","","98.71","","","","-6","","Snow"
"2018-02-04 04:00","2018","02","04","04:00","-0.4","","-1.5","","93","","21","","19","","12.9","","98.64","","","","-6","","Snow"
"2018-02-04 05:00","2018","02","04","05:00","0.0","","-1.6","","89","","22","","24","","8.1","","98.62","","","","-6","","Snow Showers"
"2018-02-04 06:00","2018","02","04","06:00","-0.2","","-0.9","","95","","21","","23","","1.0","","98.64","","","","-6","","Moderate Snow Showers"
"2018-02-04 07:00","2018","02","04","07:00","-0.2","","-0.8","","95","","20","","25","","1.0","","98.61","","","","-6","","Snow"
"2018-02-04 08:00","2018","02","04","08:00","-0.3","","-1.1","","95","","21","","22","","1.2","","98.61","","","","-6","","Snow"
"2018-02-04 09:00","2018","02","04","09:00","0.0","","-0.7","","95","","21","","23","","1.2","","98.61","","","","-6","","Snow"
"2018-02-04 10:00","2018","02","04","10:00","0.3","","-0.4","","95","","21","","23","","1.2","","98.60","","","","","","Snow"
"2018-02-04 11:00","2018","02","04","11:00","0.5","","-0.4","","94","","21","","18","","2.4","","98.56","","","","","","Snow"
"2018-02-04 12:00","2018","02","04","12:00","0.6","","-0.4","","93","","23","","15","","4.8","","98.51","","","","","","Snow"
"2018-02-04 13:00","2018","02","04","13:00","0.9","","-0.4","","91","","23","","13","","11.3","","98.40","","","","","","Cloudy"
"2018-02-04 14:00","2018","02","04","14:00","0.9","","-0.8","","89","","25","","13","","11.3","","98.40","","","","","","NA"
"2018-02-04 15:00","2018","02","04","15:00","-2.1","","-3.7","","89","","36","","26","","2.8","","98.46","","","","-9","","Snow"
"2018-02-04 16:00","2018","02","04","16:00","-3.9","","-6.2","","84","","36","","24","","4.0","","98.58","","","","-11","","Snow"
"2018-02-04 17:00","2018","02","04","17:00","-4.8","","-7.5","","82","","35","","27","","2.8","","98.71","","","","-12","","Snow"
"2018-02-04 18:00","2018","02","04","18:00","-5.9","","-8.5","","82","","36","","21","","2.8","","98.83","","","","-13","","Snow"
"2018-02-04 19:00","2018","02","04","19:00","-6.8","","-9.2","","83","","35","","30","","2.8","","98.98","","","","-15","","Snow"
"2018-02-04 20:00","2018","02","04","20:00","-7.6","","-9.9","","83","","33","","26","","2.8","","99.16","","","","-16","","Snow"
"2018-02-04 21:00","2018","02","04","21:00","-8.4","","-10.8","","83","","32","","29","","3.2","","99.28","","","","-17","","Snow"
"2018-02-04 22:00","2018","02","04","22:00","-8.9","","-11.6","","81","","32","","23","","3.2","","99.42","","","","-17","","Snow"
"2018-02-04 23:00","2018","02","04","23:00","-9.7","","-13.5","","74","","33","","18","","19.3","","99.54","","","","-17","","NA"
"2018-02-05 00:00","2018","02","05","00:00","-11.2","","-16.3","","66","","31","","25","","24.1","","99.64","","","","-20","","NA"
"2018-02-05 01:00","2018","02","05","01:00","-12.1","","-17.7","","63","","32","","18","","24.1","","99.71","","","","-20","","Clear"
"2018-02-05 02:00","2018","02","05","02:00","-12.7","","-18.2","","64","","31","","14","","24.1","","99.77","","","","-20","","NA"
"2018-02-05 03:00","2018","02","05","03:00","-15.1","","-19.1","","72","","27","","14","","19.3","","99.80","","","","-23","","NA"
"2018-02-05 04:00","2018","02","05","04:00","-16.6","","-19.4","","79","","24","","13","","19.3","","99.87","","","","-24","","Mainly Clear"
"2018-02-05 05:00","2018","02","05","05:00","-14.7","","-17.3","","81","","24","","7","","19.3","","99.93","","","","-19","","NA"
"2018-02-05 06:00","2018","02","05","06:00","-14.4","","-17.3","","79","","22","","12","","16.1","","99.93","","","","-21","","NA"
"2018-02-05 07:00","2018","02","05","07:00","-13.1","","-16.3","","77","","20","","11","","16.1","","99.96","","","","-19","","Mostly Cloudy"
"2018-02-05 08:00","2018","02","05","08:00","-12.0","","-15.4","","76","","23","","14","","11.3","","100.05","","","","-19","","NA"
"2018-02-05 09:00","2018","02","05","09:00","-10.4","","-14.9","","70","","24","","16","","11.3","","100.17","","","","-17","","NA"
"2018-02-05 10:00","2018","02","05","10:00","-9.3","","-14.8","","65","","23","","25","","16.1","","100.15","","","","-18","","Mostly Cloudy"
"2018-02-05 11:00","2018","02","05","11:00","-8.8","","-14.1","","66","","25","","23","","16.1","","100.13","","","","-17","","NA"
"2018-02-05 12:00","2018","02","05","12:00","-8.1","","-14.6","","60","","23","","26","","19.3","","100.08","","","","-16","","NA"
"2018-02-05 13:00","2018","02","05","13:00","-8.2","","-14.6","","60","","23","","30","","19.3","","100.02","","","","-17","","Mainly Clear"
"2018-02-05 14:00","2018","02","05","14:00","-8.2","","-14.9","","59","","22","","29","","19.3","","99.92","","","","-17","","NA"
"2018-02-05 15:00","2018","02","05","15:00","-8.1","","-14.5","","60","","23","","29","","24.1","","99.92","","","","-17","","NA"
"2018-02-05 16:00","2018","02","05","16:00","-8.8","","-15.5","","59","","23","","32","","24.1","","99.88","","","","-18","","Mostly Cloudy"
"2018-02-05 17:00","2018","02","05","17:00","-9.1","","-16.2","","57","","22","","26","","24.1","","99.89","","","","-18","","NA"
"2018-02-05 18:00","2018","02","05","18:00","-9.0","","-15.7","","59","","23","","25","","24.1","","99.93","","","","-17","","NA"
"2018-02-05 19:00","2018","02","05","19:00","-9.2","","-16.5","","56","","22","","25","","24.1","","99.92","","","","-18","","Cloudy"
"2018-02-05 20:00","2018","02","05","20:00","-9.2","","-16.4","","56","","24","","26","","24.1","","100.05","","","","-18","","NA"
"2018-02-05 21:00","2018","02","05","21:00","-9.1","","-16.7","","54","","23","","23","","19.3","","100.01","","","","-17","","NA"
"2018-02-05 22:00","2018","02","05","22:00","-10.1","","-12.9","","80","","23","","18","","4.8","","99.97","","","","-18","","Snow"
"2018-02-05 23:00","2018","02","05","23:00","-10.2","","-12.3","","85","","24","","9","","4.8","","99.94","","","","-15","","Snow"
"2018-02-06 00:00","2018","02","06","00:00","-10.2","","-12.4","","84","","24","","13","","3.2","","99.90","","","","-16","","Snow"
"2018-02-06 01:00","2018","02","06","01:00","-10.0","","-12.0","","85","","25","","14","","3.2","","99.93","","","","-16","","Snow"
"2018-02-06 02:00","2018","02","06","02:00","-10.1","","-12.2","","84","","25","","13","","2.4","","99.92","","","","-16","","Snow"
"2018-02-06 03:00","2018","02","06","03:00","-9.9","","-12.4","","82","","26","","16","","4.8","","99.99","","","","-17","","Snow"
"2018-02-06 04:00","2018","02","06","04:00","-10.8","","-13.4","","81","","26","","13","","19.3","","99.98","","","","-17","","Mostly Cloudy"
"2018-02-06 05:00","2018","02","06","05:00","-11.9","","-14.2","","83","","24","","8","","19.3","","100.01","","","","-17","","NA"
"2018-02-06 06:00","2018","02","06","06:00","-11.0","","-13.6","","82","","24","","14","","19.3","","100.11","","","","-18","","NA"
"2018-02-06 07:00","2018","02","06","07:00","-13.9","","-16.1","","83","","24","","12","","19.3","","100.23","","","","-21","","Mainly Clear"
"2018-02-06 08:00","2018","02","06","08:00","-13.1","","-15.0","","86","","24","","14","","16.1","","100.33","","","","-20","","NA"
"2018-02-06 09:00","2018","02","06","09:00","-11.8","","-14.3","","81","","25","","13","","16.1","","100.43","","","","-18","","NA"
"2018-02-06 10:00","2018","02","06","10:00","-9.5","","-13.0","","76","","25","","17","","16.1","","100.57","","","","-17","","Mostly Cloudy"
"2018-02-06 11:00","2018","02","06","11:00","-7.6","","-12.4","","68","","27","","16","","24.1","","100.62","","","","-14","","NA"
"2018-02-06 12:00","2018","02","06","12:00","-6.9","","-13.2","","61","","27","","10","","24.1","","100.62","","","","-12","","NA"
"2018-02-06 13:00","2018","02","06","13:00","-6.4","","-11.6","","67","","24","","17","","12.9","","100.65","","","","-13","","Snow Showers"
"2018-02-06 14:00","2018","02","06","14:00","-6.1","","-12.8","","60","","23","","7","","19.3","","100.60","","","","-9","","Snow Showers"
"2018-02-06 15:00","2018","02","06","15:00","-5.2","","-13.0","","55","","23","","11","","24.1","","100.59","","","","-10","","NA"
"2018-02-06 16:00","2018","02","06","16:00","-5.3","","-14.0","","51","","24","","8","","19.3","","100.64","","","","-9","","Mostly Cloudy"
"2018-02-06 17:00","2018","02","06","17:00","-7.6","","-14.1","","60","","16","","11","","19.3","","100.64","","","","-13","","NA"
"2018-02-06 18:00","2018","02","06","18:00","-9.2","","-13.2","","73","","12","","9","","19.3","","100.69","","","","-14","","NA"
"2018-02-06 19:00","2018","02","06","19:00","-9.3","","-12.9","","75","","15","","9","","19.3","","100.72","","","","-14","","Cloudy"
"2018-02-06 20:00","2018","02","06","20:00","-9.7","","-13.3","","75","","16","","12","","19.3","","100.71","","","","-16","","NA"
"2018-02-06 21:00","2018","02","06","21:00","-9.7","","-12.8","","78","","16","","9","","19.3","","100.72","","","","-15","","NA"
"2018-02-06 22:00","2018","02","06","22:00","-10.4","","-12.9","","82","","14","","5","","19.3","","100.67","","","","-13","","Cloudy"
"2018-02-06 23:00","2018","02","06","23:00","-9.3","","-12.1","","80","","36","","2","","19.3","","100.60","","","","-10","","NA"
"2018-02-07 00:00","2018","02","07","00:00","-8.9","","-11.4","","82","","8","","6","","16.1","","100.47","","","","-12","","NA"
"2018-02-07 01:00","2018","02","07","01:00","-8.3","","-11.2","","80","","7","","5","","16.1","","100.47","","","","-11","","Cloudy"
"2018-02-07 02:00","2018","02","07","02:00","-7.8","","-11.2","","77","","6","","9","","9.7","","100.41","","","","-12","","Snow"
"2018-02-07 03:00","2018","02","07","03:00","-8.2","","-10.2","","85","","8","","8","","3.2","","100.37","","","","-12","","Snow"
"2018-02-07 04:00","2018","02","07","04:00","-8.4","","-9.9","","89","","5","","13","","1.6","","100.21","","","","-14","","Snow"
"2018-02-07 05:00","2018","02","07","05:00","-8.3","","-9.8","","89","","7","","12","","1.2","","100.15","","","","-14","","Snow"
"2018-02-07 06:00","2018","02","07","06:00","-8.3","","-9.8","","89","","6","","13","","1.2","","100.06","","","","-14","","Snow"
"2018-02-07 07:00","2018","02","07","07:00","-8.3","","-9.9","","89","","3","","17","","1.6","","100.00","","","","-15","","Snow"
"2018-02-07 08:00","2018","02","07","08:00","-8.6","","-10.3","","88","","3","","16","","2.0","","99.96","","","","-15","","Snow"
"2018-02-07 09:00","2018","02","07","09:00","-8.6","","-10.3","","87","","3","","15","","1.6","","99.95","","","","-15","","Snow,Blowing Snow"
"2018-02-07 10:00","2018","02","07","10:00","-7.9","","-10.0","","85","","35","","11","","1.6","","99.94","","","","-13","","Snow"
"2018-02-07 11:00","2018","02","07","11:00","-6.9","","-10.5","","76","","36","","10","","8.1","","99.91","","","","-12","","Snow Showers"
"2018-02-07 12:00","2018","02","07","12:00","-6.2","","-10.4","","72","","34","","18","","8.1","","99.90","","","","-13","","Snow Showers"
"2018-02-07 13:00","2018","02","07","13:00","-5.4","","-10.6","","67","","34","","16","","9.7","","99.85","","","","-11","","Snow Showers"
"2018-02-07 14:00","2018","02","07","14:00","-5.3","","-11.3","","63","","31","","17","","16.1","","99.88","","","","-11","","NA"
"2018-02-07 15:00","2018","02","07","15:00","-4.0","","-11.7","","56","","29","","18","","19.3","","99.91","","","","-10","","NA"
"2018-02-07 16:00","2018","02","07","16:00","-3.5","","-11.8","","53","","32","","17","","24.1","","99.97","","","","-9","","Mostly Cloudy"
"2018-02-07 17:00","2018","02","07","17:00","-4.8","","-12.3","","56","","30","","22","","24.1","","100.06","","","","-12","","NA"
"2018-02-07 18:00","2018","02","07","18:00","-5.8","","-13.3","","56","","31","","16","","24.1","","100.17","","","","-12","","NA"
"2018-02-07 19:00","2018","02","07","19:00","-6.0","","-13.4","","56","","32","","14","","24.1","","100.32","","","","-12","","Mostly Cloudy"
"2018-02-07 20:00","2018","02","07","20:00","-6.1","","-12.8","","59","","35","","7","","24.1","","100.37","","","","-9","","NA"
"2018-02-07 21:00","2018","02","07","21:00","-6.3","","-12.5","","62","","36","","1","","24.1","","100.45","","","","-7","","NA"
"2018-02-07 22:00","2018","02","07","22:00","-7.0","","-12.3","","67","","3","","3","","24.1","","100.46","","","","-9","","Cloudy"
"2018-02-07 23:00","2018","02","07","23:00","-8.6","","-12.4","","74","","13","","4","","24.1","","100.45","","","","-11","","Snow"
"2018-02-08 00:00","2018","02","08","00:00","-7.9","","-11.9","","73","","19","","7","","9.7","","100.49","","","","-12","","Snow"
"2018-02-08 01:00","2018","02","08","01:00","-7.9","","-10.6","","81","","17","","5","","8.1","","100.51","","","","-11","","Snow"
"2018-02-08 02:00","2018","02","08","02:00","-7.7","","-10.1","","83","","35","","5","","8.1","","100.51","","","","-10","","Snow"
"2018-02-08 03:00","2018","02","08","03:00","-7.1","","-11.8","","70","","30","","10","","12.9","","100.51","","","","-12","","Snow Showers"
"2018-02-08 04:00","2018","02","08","04:00","-9.0","","-12.2","","78","","30","","8","","16.1","","100.49","","","","-13","","Mostly Cloudy"
"2018-02-08 05:00","2018","02","08","05:00","-10.4","","-13.4","","78","","27","","13","","16.1","","100.52","","","","-17","","NA"
"2018-02-08 06:00","2018","02","08","06:00","-11.1","","-14.6","","76","","28","","8","","16.1","","100.58","","","","-16","","NA"
"2018-02-08 07:00","2018","02","08","07:00","-11.1","","-13.9","","80","","28","","9","","16.1","","100.63","","","","-16","","Mostly Cloudy"
"2018-02-08 08:00","2018","02","08","08:00","-10.7","","-13.5","","80","","23","","10","","16.1","","100.70","","","","-16","","NA"
"2018-02-08 09:00","2018","02","08","09:00","-10.2","","-12.8","","82","","20","","5","","12.9","","100.63","","","","-13","","NA"
"2018-02-08 10:00","2018","02","08","10:00","-9.2","","-12.5","","77","","21","","18","","12.9","","100.61","","","","-16","","Snow"
"2018-02-08 11:00","2018","02","08","11:00","-8.3","","-11.3","","79","","22","","19","","9.7","","100.61","","","","-16","","Snow,Haze"
"2018-02-08 12:00","2018","02","08","12:00","-7.5","","-11.8","","72","","22","","17","","9.7","","100.61","","","","-14","","Snow,Haze"
"2018-02-08 13:00","2018","02","08","13:00","-7.2","","-11.8","","70","","22","","27","","12.9","","100.55","","","","-15","","Mostly Cloudy"
"2018-02-08 14:00","2018","02","08","14:00","-6.6","","-12.3","","64","","23","","30","","12.9","","100.50","","","","-15","","Blowing Snow"
"2018-02-08 15:00","2018","02","08","15:00","-7.1","","-12.2","","67","","22","","26","","11.3","","100.44","","","","-15","","Blowing Snow"
"2018-02-08 16:00","2018","02","08","16:00","-7.2","","-12.1","","69","","23","","25","","11.3","","100.51","","","","-15","","Snow,Blowing Snow"
"2018-02-08 17:00","2018","02","08","17:00","-7.4","","-12.0","","70","","22","","23","","11.3","","100.53","","","","-15","","NA"
"2018-02-08 18:00","2018","02","08","18:00","-7.8","","-12.2","","71","","21","","22","","11.3","","100.56","","","","-15","","Snow,Blowing Snow"
"2018-02-08 19:00","2018","02","08","19:00","-8.1","","-12.4","","71","","22","","24","","16.1","","100.66","","","","-16","","Snow,Blowing Snow"
"2018-02-08 20:00","2018","02","08","20:00","-8.7","","-13.5","","68","","21","","18","","19.3","","100.65","","","","-16","","Blowing Snow"
"2018-02-08 21:00","2018","02","08","21:00","-10.3","","-14.6","","71","","23","","21","","24.1","","100.70","","","","-18","","NA"
"2018-02-08 22:00","2018","02","08","22:00","-11.9","","-15.7","","73","","23","","13","","24.1","","100.69","","","","-19","","Mainly Clear"
"2018-02-08 23:00","2018","02","08","23:00","-10.7","","-14.9","","72","","24","","13","","24.1","","100.67","","","","-17","","NA"
"2018-02-09 00:00","2018","02","09","00:00","-13.2","","-15.8","","81","","18","","4","","17.7","","100.66","","","","-16","","NA"
"2018-02-09 01:00","2018","02","09","01:00","-11.5","","-14.3","","80","","21","","7","","11.3","","100.67","","","","-16","","Cloudy"
"2018-02-09 02:00","2018","02","09","02:00","-9.4","","-13.1","","74","","23","","11","","9.7","","100.67","","","","-15","","Snow"
"2018-02-09 03:00","2018","02","09","03:00","-9.2","","-11.8","","82","","21","","6","","3.2","","100.62","","","","-13","","Snow"
"2018-02-09 04:00","2018","02","09","04:00","-9.3","","-10.9","","88","","22","","6","","1.0","","100.61","","","","-13","","Snow"
"2018-02-09 05:00","2018","02","09","05:00","-9.4","","-10.8","","89","","10","","7","","0.6","","100.51","","","","-13","","Moderate Snow"
"2018-02-09 06:00","2018","02","09","06:00","-9.2","","-10.8","","89","","10","","9","","1.2","","100.44","","","","-14","","Snow"
"2018-02-09 07:00","2018","02","09","07:00","-8.8","","-10.3","","89","","11","","13","","1.0","","100.34","","","","-15","","Snow"
"2018-02-09 08:00","2018","02","09","08:00","-8.4","","-9.8","","89","","10","","11","","1.0","","100.26","","","","-14","","Snow"
"2018-02-09 09:00","2018","02","09","09:00","-7.4","","-8.9","","90","","9","","9","","0.8","","100.29","","","","-12","","Moderate Snow"
"2018-02-09 10:00","2018","02","09","10:00","-6.5","","-8.0","","89","","10","","14","","0.8","","100.16","","","","-12","","Moderate Snow"
"2018-02-09 11:00","2018","02","09","11:00","-5.6","","-7.1","","89","","10","","17","","0.8","","100.11","","","","-12","","Moderate Snow"
"2018-02-09 12:00","2018","02","09","12:00","-5.1","","-6.7","","88","","10","","16","","1.2","","99.98","","","","-11","","Snow"
"2018-02-09 13:00","2018","02","09","13:00","-4.3","","-5.9","","89","","12","","14","","1.0","","99.82","","","","-9","","Snow"
"2018-02-09 14:00","2018","02","09","14:00","-3.8","","-5.3","","89","","7","","5","","0.6","","99.72","","","","-6","","Moderate Snow"
"2018-02-09 15:00","2018","02","09","15:00","-4.0","","-5.4","","90","","3","","11","","0.8","","99.65","","","","-8","","Snow"
"2018-02-09 16:00","2018","02","09","16:00","-4.4","","-5.7","","91","","2","","6","","0.8","","99.68","","","","-7","","Snow"
"2018-02-09 17:00","2018","02","09","17:00","-4.3","","-5.5","","91","","1","","8","","1.0","","99.70","","","","-8","","Snow"
"2018-02-09 18:00","2018","02","09","18:00","-4.5","","-5.6","","92","","2","","13","","1.2","","99.73","","","","-10","","Snow"
"2018-02-09 19:00","2018","02","09","19:00","-4.6","","-5.8","","91","","3","","12","","3.2","","99.78","","","","-9","","Snow"
"2018-02-09 20:00","2018","02","09","20:00","-4.8","","-5.9","","91","","3","","12","","4.8","","99.82","","","","-10","","Snow"
"2018-02-09 21:00","2018","02","09","21:00","-4.8","","-5.9","","92","","4","","8","","4.8","","99.81","","","","-8","","Snow"
"2018-02-09 22:00","2018","02","09","22:00","-4.8","","-6.1","","91","","3","","6","","4.8","","99.84","","","","-8","","Snow"
"2018-02-09 23:00","2018","02","09","23:00","-4.9","","-6.2","","91","","35","","8","","6.4","","99.84","","","","-8","","Snow"
"2018-02-10 00:00","2018","02","10","00:00","-5.0","","-6.7","","88","","36","","10","","4.8","","99.84","","","","-9","","Snow"
"2018-02-10 01:00","2018","02","10","01:00","-5.5","","-7.2","","88","","36","","11","","6.4","","99.87","","","","-10","","Snow"
"2018-02-10 02:00","2018","02","10","02:00","-5.8","","-7.6","","87","","35","","16","","8.1","","99.88","","","","-12","","Snow"
"2018-02-10 03:00","2018","02","10","03:00","-6.0","","-7.7","","88","","36","","10","","6.4","","99.86","","","","-10","","Snow"
"2018-02-10 04:00","2018","02","10","04:00","-6.1","","-8.0","","86","","36","","12","","6.4","","99.88","","","","-11","","Snow"
"2018-02-10 05:00","2018","02","10","05:00","-6.1","","-7.8","","87","","3","","17","","8.1","","99.82","","","","-12","","Snow"
"2018-02-10 06:00","2018","02","10","06:00","-6.0","","-8.0","","86","","3","","13","","11.3","","99.88","","","","-11","","NA"
"2018-02-10 07:00","2018","02","10","07:00","-6.0","","-7.8","","87","","3","","16","","8.1","","99.82","","","","-12","","Fog"
"2018-02-10 08:00","2018","02","10","08:00","-5.8","","-7.9","","85","","36","","13","","4.8","","99.90","","","","-11","","Snow"
"2018-02-10 09:00","2018","02","10","09:00","-5.8","","-7.5","","88","","3","","16","","1.6","","99.84","","","","-12","","Snow"
"2018-02-10 10:00","2018","02","10","10:00","-5.7","","-7.3","","88","","4","","13","","1.2","","99.82","","","","-11","","Snow,Blowing Snow"
"2018-02-10 11:00","2018","02","10","11:00","-5.3","","-7.0","","88","","3","","18","","2.4","","99.79","","","","-12","","Snow,Fog,Blowing Snow"
"2018-02-10 12:00","2018","02","10","12:00","-5.2","","-7.3","","85","","3","","18","","3.2","","99.84","","","","-11","","Snow,Fog,Blowing Snow"
"2018-02-10 13:00","2018","02","10","13:00","-4.8","","-6.6","","88","","36","","16","","2.4","","99.75","","","","-11","","Snow,Fog,Blowing Snow"
"2018-02-10 14:00","2018","02","10","14:00","-5.0","","-7.0","","86","","2","","17","","4.8","","99.65","","","","-11","","Snow,Fog,Blowing Snow"
"2018-02-10 15:00","2018","02","10","15:00","-5.0","","-7.1","","85","","3","","25","","6.4","","99.62","","","","-12","","Fog,Blowing Snow"
"2018-02-10 16:00","2018","02","10","16:00","-5.4","","-7.6","","84","","1","","21","","6.4","","99.70","","","","-12","","Fog,Blowing Snow"
"2018-02-10 17:00","2018","02","10","17:00","-5.4","","-7.4","","86","","1","","16","","6.4","","99.71","","","","-11","","Fog,Blowing Snow"
"2018-02-10 18:00","2018","02","10","18:00","-5.3","","-7.7","","84","","2","","16","","19.3","","99.77","","","","-11","","Blowing Snow"
"2018-02-10 19:00","2018","02","10","19:00","-5.3","","-8.0","","81","","1","","15","","19.3","","99.81","","","","-11","","Cloudy"
"2018-02-10 20:00","2018","02","10","20:00","-5.5","","-8.0","","83","","4","","17","","19.3","","99.82","","","","-12","","NA"
"2018-02-10 21:00","2018","02","10","21:00","-5.7","","-8.2","","82","","2","","15","","19.3","","99.80","","","","-11","","NA"
"2018-02-10 22:00","2018","02","10","22:00","-5.9","","-8.4","","83","","3","","16","","19.3","","99.73","","","","-12","","Cloudy"
"2018-02-10 23:00","2018","02","10","23:00","-6.0","","-8.5","","83","","2","","18","","19.3","","99.74","","","","-12","","NA"
"2018-02-11 00:00","2018","02","11","00:00","-6.1","","-8.3","","85","","4","","18","","16.1","","99.66","","","","-13","","NA"
"2018-02-11 01:00","2018","02","11","01:00","-6.2","","-8.1","","86","","3","","18","","11.3","","99.63","","","","-13","","Cloudy"
"2018-02-11 02:00","2018","02","11","02:00","-6.2","","-7.6","","90","","3","","17","","2.0","","99.51","","","","-12","","Snow"
"2018-02-11 03:00","2018","02","11","03:00","-5.8","","-7.0","","91","","4","","16","","8.1","","99.43","","","","-12","","Snow"
"2018-02-11 04:00","2018","02","11","04:00","-5.5","","-6.6","","92","","8","","19","","8.1","","99.22","","","","-12","","Fog"
"2018-02-11 05:00","2018","02","11","05:00","-5.2","","-6.4","","92","","4","","15","","6.4","","99.13","","","","-11","","Fog"
"2018-02-11 06:00","2018","02","11","06:00","-5.0","","-6.2","","91","","4","","14","","6.4","","99.09","","","","-10","","Fog"
"2018-02-11 07:00","2018","02","11","07:00","-4.5","","-5.8","","91","","6","","22","","6.4","","98.91","","","","-11","","Fog"
"2018-02-11 08:00","2018","02","11","08:00","-4.4","","-5.4","","93","","4","","18","","1.2","","98.89","","","","-10","","Freezing Rain,Fog"
"2018-02-11 09:00","2018","02","11","09:00","-4.3","","-5.2","","93","","3","","23","","1.0","","98.78","","","","-11","","Freezing Drizzle,Ice Pellets,Fog"
"2018-02-11 10:00","2018","02","11","10:00","-3.9","","-5.0","","92","","1","","19","","1.0","","98.73","","","","-10","","Freezing Drizzle,Ice Pellets,Fog"
"2018-02-11 11:00","2018","02","11","11:00","-3.4","","-4.5","","92","","4","","13","","1.6","","98.68","","","","-8","","Freezing Drizzle,Fog"
"2018-02-11 12:00","2018","02","11","12:00","-2.6","","-4.0","","90","","4","","5","","6.4","","98.58","","","","-5","","Fog"
"2018-02-11 13:00","2018","02","11","13:00","-2.3","","-4.0","","89","","30","","13","","8.1","","98.59","","","","-7","","Fog"
"2018-02-11 14:00","2018","02","11","14:00","-2.1","","-3.6","","89","","30","","16","","4.8","","98.55","","","","-7","","Fog"
"2018-02-11 15:00","2018","02","11","15:00","-2.2","","-3.6","","90","","29","","21","","4.8","","98.71","","","","-8","","Fog"
"2018-02-11 16:00","2018","02","11","16:00","-2.6","","-4.8","","85","","30","","23","","19.3","","98.78","","","","-9","","Cloudy"
"2018-02-11 17:00","2018","02","11","17:00","-2.8","","-5.5","","82","","29","","18","","19.3","","98.96","","","","-8","","NA"
"2018-02-11 18:00","2018","02","11","18:00","-2.9","","-5.6","","81","","27","","21","","19.3","","99.25","","","","-9","","NA"
"2018-02-11 19:00","2018","02","11","19:00","-3.0","","-5.8","","81","","28","","18","","19.3","","99.39","","","","-9","","Mostly Cloudy"
"2018-02-11 20:00","2018","02","11","20:00","-3.4","","-6.4","","79","","29","","22","","19.3","","99.51","","","","-10","","NA"
"2018-02-11 21:00","2018","02","11","21:00","-3.7","","-7.0","","78","","28","","20","","19.3","","99.64","","","","-10","","NA"
"2018-02-11 22:00","2018","02","11","22:00","-4.0","","-7.2","","79","","28","","21","","19.3","","99.80","","","","-10","","Cloudy"
"2018-02-11 23:00","2018","02","11","23:00","-4.2","","-7.9","","76","","28","","16","","19.3","","99.94","","","","-10","","NA"
"2018-02-12 00:00","2018","02","12","00:00","-4.5","","-8.4","","74","","28","","17","","19.3","","100.10","","","","-10","","NA"
"2018-02-12 01:00","2018","02","12","01:00","-5.3","","-9.1","","75","","29","","17","","24.1","","100.21","","","","-11","","Mostly Cloudy"
"2018-02-12 02:00","2018","02","12","02:00","-5.8","","-9.5","","75","","27","","17","","24.1","","100.35","","","","-12","","NA"
"2018-02-12 03:00","2018","02","12","03:00","-6.5","","-9.9","","77","","28","","14","","24.1","","100.44","","","","-12","","NA"
"2018-02-12 04:00","2018","02","12","04:00","-7.6","","-10.4","","80","","27","","10","","24.1","","100.54","","","","-12","","Clear"
"2018-02-12 05:00","2018","02","12","05:00","-8.4","","-11.2","","81","","28","","12","","24.1","","100.66","","","","-14","","NA"
"2018-02-12 06:00","2018","02","12","06:00","-8.5","","-11.0","","82","","27","","13","","24.1","","100.78","","","","-14","","NA"
"2018-02-12 07:00","2018","02","12","07:00","-8.7","","-11.5","","80","","29","","13","","24.1","","100.90","","","","-15","","Clear"
"2018-02-12 08:00","2018","02","12","08:00","-9.2","","-11.9","","81","","28","","10","","24.1","","101.05","","","","-14","","NA"
"2018-02-12 09:00","2018","02","12","09:00","-6.9","","-11.3","","71","","32","","17","","24.1","","101.19","","","","-13","","NA"
"2018-02-12 10:00","2018","02","12","10:00","-6.1","","-11.4","","66","","34","","14","","24.1","","101.27","","","","-12","","Clear"
"2018-02-12 11:00","2018","02","12","11:00","-5.0","","-11.2","","62","","34","","14","","24.1","","101.38","","","","-10","","NA"
"2018-02-12 12:00","2018","02","12","12:00","-4.0","","-11.1","","58","","2","","6","","24.1","","101.44","","","","-7","","NA"
"2018-02-12 13:00","2018","02","12","13:00","-3.6","","-11.2","","56","","34","","10","","24.1","","101.46","","","","-8","","Clear"
"2018-02-12 14:00","2018","02","12","14:00","-3.5","","-10.6","","58","","14","","13","","24.1","","101.47","","","","-8","","NA"
"2018-02-12 15:00","2018","02","12","15:00","-3.8","","-10.9","","58","","12","","12","","24.1","","101.52","","","","-8","","NA"
"2018-02-12 16:00","2018","02","12","16:00","-4.0","","-11.4","","57","","13","","12","","24.1","","101.55","","","","-9","","Mainly Clear"
"2018-02-12 17:00","2018","02","12","17:00","-4.7","","-11.0","","61","","13","","10","","24.1","","101.61","","","","-9","","NA"
"2018-02-12 18:00","2018","02","12","18:00","-6.3","","-11.5","","66","","14","","8","","19.3","","101.68","","","","-10","","NA"
"2018-02-12 19:00","2018","02","12","19:00","-8.4","","-12.2","","75","","12","","6","","19.3","","101.76","","","","-12","","Mainly Clear"
"2018-02-12 20:00","2018","02","12","20:00","-10.2","","-12.6","","83","","16","","7","","19.3","","101.77","","","","-14","","NA"
"2018-02-12 21:00","2018","02","12","21:00","-10.1","","-12.6","","82","","36","","1","","19.3","","101.84","","","","-11","","NA"
"2018-02-12 22:00","2018","02","12","22:00","-12.1","","-14.0","","86","","4","","5","","19.3","","101.90","","","","-15","","Mainly Clear"
"2018-02-12 23:00","2018","02","12","23:00","-12.2","","-14.0","","87","","10","","6","","24.1","","101.92","","","","-16","","NA"
"2018-02-13 00:00","2018","02","13","00:00","-11.8","","-13.2","","90","","7","","7","","19.3","","101.91","","","","-16","","NA"
"2018-02-13 01:00","2018","02","13","01:00","-12.7","","-14.0","","90","","36","","2","","19.3","","101.93","","","","-14","","Mainly Clear"
"2018-02-13 02:00","2018","02","13","02:00","-14.9","","-16.7","","87","","5","","4","","19.3","","101.93","","","","-18","","NA"
"2018-02-13 03:00","2018","02","13","03:00","-15.3","","-17.4","","84","","7","","6","","19.3","","101.92","","","","-20","","NA"
"2018-02-13 04:00","2018","02","13","04:00","-15.5","","-17.5","","85","","7","","5","","19.3","","101.86","","","","-19","","Mainly Clear"
"2018-02-13 05:00","2018","02","13","05:00","-14.8","","-16.7","","86","","5","","8","","16.1","","101.83","","","","-20","","NA"
"2018-02-13 06:00","2018","02","13","06:00","-14.0","","-15.9","","86","","4","","7","","19.3","","101.83","","","","-19","","NA"
"2018-02-13 07:00","2018","02","13","07:00","-13.9","","-15.7","","86","","7","","3","","16.1","","101.88","","","","-16","","Mostly Cloudy"
"2018-02-13 08:00","2018","02","13","08:00","-15.6","","-17.6","","85","","13","","4","","12.9","","101.83","","","","-19","","NA"
"2018-02-13 09:00","2018","02","13","09:00","-13.3","","-15.2","","86","","10","","4","","16.1","","101.81","","","","-16","","NA"
"2018-02-13 10:00","2018","02","13","10:00","-10.1","","-11.6","","89","","12","","7","","24.1","","101.73","","","","-14","","Mostly Cloudy"
"2018-02-13 11:00","2018","02","13","11:00","-7.8","","-10.0","","85","","13","","4","","24.1","","101.64","","","","-10","","NA"
"2018-02-13 12:00","2018","02","13","12:00","-5.2","","-11.7","","61","","12","","7","","24.1","","101.58","","","","-8","","NA"
"2018-02-13 13:00","2018","02","13","13:00","-4.8","","-11.6","","59","","11","","9","","24.1","","101.39","","","","-9","","Cloudy"
"2018-02-13 14:00","2018","02","13","14:00","-4.0","","-11.2","","57","","9","","10","","24.1","","101.15","","","","-8","","NA"
"2018-02-13 15:00","2018","02","13","15:00","-3.9","","-10.6","","60","","8","","12","","24.1","","101.01","","","","-9","","NA"
"2018-02-13 16:00","2018","02","13","16:00","-4.1","","-10.3","","62","","8","","10","","19.3","","100.98","","","","-8","","Mostly Cloudy"
"2018-02-13 17:00","2018","02","13","17:00","-4.1","","-8.8","","70","","11","","9","","19.3","","100.95","","","","-8","","NA"
"2018-02-13 18:00","2018","02","13","18:00","-4.5","","-8.1","","77","","10","","13","","19.3","","100.76","","","","-10","","NA"
"2018-02-13 19:00","2018","02","13","19:00","-4.6","","-7.7","","79","","11","","10","","19.3","","100.68","","","","-9","","Mostly Cloudy"
"2018-02-13 20:00","2018","02","13","20:00","-4.6","","-7.2","","82","","16","","9","","16.1","","100.58","","","","-8","","NA"
"2018-02-13 21:00","2018","02","13","21:00","-4.2","","-7.0","","80","","19","","8","","16.1","","100.52","","","","-8","","NA"
"2018-02-13 22:00","2018","02","13","22:00","-5.2","","-7.4","","84","","2","","4","","16.1","","100.46","","","","-7","","Mostly Cloudy"
"2018-02-13 23:00","2018","02","13","23:00","-5.5","","-7.5","","86","","17","","5","","11.3","","100.38","","","","-8","","NA"
"2018-02-14 00:00","2018","02","14","00:00","-5.0","","-7.3","","84","","19","","8","","11.3","","100.25","","","","-9","","NA"
"2018-02-14 01:00","2018","02","14","01:00","-5.9","","-8.1","","85","","21","","9","","11.3","","100.18","","","","-10","","Clear"
"2018-02-14 02:00","2018","02","14","02:00","-5.8","","-7.4","","89","","19","","14","","16.1","","100.08","","","","-11","","NA"
"2018-02-14 03:00","2018","02","14","03:00","-5.7","","-7.1","","90","","21","","16","","24.1","","100.05","","","","-12","","NA"
"2018-02-14 04:00","2018","02","14","04:00","-6.3","","-7.3","","92","","22","","10","","8.1","","100.00","","","","-11","","Fog"
"2018-02-14 05:00","2018","02","14","05:00","-5.2","","-6.2","","93","","22","","15","","6.4","","99.95","","","","-11","","Blowing Sand"
"2018-02-14 06:00","2018","02","14","06:00","-3.5","","-5.0","","89","","23","","21","","8.1","","99.96","","","","-10","","Fog"
"2018-02-14 07:00","2018","02","14","07:00","-4.0","","-5.3","","91","","22","","17","","4.8","","99.96","","","","-10","","Fog"
"2018-02-14 08:00","2018","02","14","08:00","-4.0","","-5.2","","91","","23","","15","","6.4","","99.97","","","","-9","","Fog"
"2018-02-14 09:00","2018","02","14","09:00","-2.1","","-3.6","","89","","21","","19","","6.4","","99.96","","","","-8","","Fog"
"2018-02-14 10:00","2018","02","14","10:00","0.2","","-2.0","","85","","21","","16","","8.1","","99.96","","","","","","Haze"
"2018-02-14 11:00","2018","02","14","11:00","2.0","","-0.9","","81","","22","","18","","8.1","","99.90","","","","","","Haze"
"2018-02-14 12:00","2018","02","14","12:00","3.5","","-0.6","","75","","23","","24","","12.9","","99.83","","","","","","NA"
"2018-02-14 13:00","2018","02","14","13:00","4.0","","-0.4","","73","","21","","24","","12.9","","99.73","","","","","","Clear"
"2018-02-14 14:00","2018","02","14","14:00","4.2","","-0.3","","73","","21","","18","","12.9","","99.57","","","","","","NA"
"2018-02-14 15:00","2018","02","14","15:00","4.4","","-0.3","","72","","20","","24","","12.9","","99.47","","","","","","NA"
"2018-02-14 16:00","2018","02","14","16:00","4.0","","0.0","","75","","21","","22","","12.9","","99.40","","","","","","Mostly Cloudy"
"2018-02-14 17:00","2018","02","14","17:00","3.6","","0.2","","78","","21","","20","","12.9","","99.31","","","","","","NA"
"2018-02-14 18:00","2018","02","14","18:00","3.2","","0.5","","83","","20","","19","","12.9","","99.27","","","","","","NA"
"2018-02-14 19:00","2018","02","14","19:00","2.7","","1.4","","91","","21","","20","","12.9","","99.23","","","","","","Mostly Cloudy"
"2018-02-14 20:00","2018","02","14","20:00","2.4","","1.9","","96","","20","","18","","2.4","","99.16","","","","","","Fog"
"2018-02-14 21:00","2018","02","14","21:00","2.1","","1.7","","97","","19","","13","","0.4","","99.07","","","","","","Fog"
"2018-02-14 22:00","2018","02","14","22:00","2.3","","1.9","","97","","19","","14","","0.4","","99.02","","","","","","Fog"
"2018-02-14 23:00","2018","02","14","23:00","2.2","","1.9","","98","","20","","15","","0.2","","98.92","","","","","","Fog"
"2018-02-15 00:00","2018","02","15","00:00","2.3","","2.0","","98","","20","","16","","0.2","","98.87","","","","","","Fog"
"2018-02-15 01:00","2018","02","15","01:00","2.5","","2.1","","98","","21","","14","","0.6","","98.83","","","","","","Drizzle,Fog"
"2018-02-15 02:00","2018","02","15","02:00","3.2","","2.9","","98","","22","","22","","1.6","","98.75","","","","","","Drizzle,Fog"
"2018-02-15 03:00","2018","02","15","03:00","2.8","","2.5","","98","","21","","17","","0.2","","98.68","","","","","","Fog"
"2018-02-15 04:00","2018","02","15","04:00","2.8","","2.5","","98","","22","","14","","0.2","","98.64","","","","","","Drizzle,Fog"
"2018-02-15 05:00","2018","02","15","05:00","2.9","","2.6","","98","","21","","18","","0.2","","98.60","","","","","","Drizzle,Fog"
"2018-02-15 06:00","2018","02","15","06:00","3.3","","3.0","","98","","21","","20","","0.6","","98.57","","","","","","Fog"
"2018-02-15 07:00","2018","02","15","07:00","4.7","","4.4","","98","","23","","22","","2.8","","98.57","","","","","","Fog"
"2018-02-15 08:00","2018","02","15","08:00","5.3","","5.1","","98","","24","","24","","6.4","","98.57","","","","","","Fog"
"2018-02-15 09:00","2018","02","15","09:00","5.2","","5.0","","98","","23","","25","","6.4","","98.58","","","","","","Fog"
"2018-02-15 10:00","2018","02","15","10:00","6.1","","5.8","","98","","24","","30","","6.4","","98.61","","","","","","Fog"
"2018-02-15 11:00","2018","02","15","11:00","5.8","","5.5","","98","","23","","22","","0.6","","98.55","","","","","","Fog"
"2018-02-15 12:00","2018","02","15","12:00","4.6","","4.3","","98","","20","","10","","0.8","","98.38","","","","","","Fog"
"2018-02-15 13:00","2018","02","15","13:00","5.5","","5.3","","98","","23","","14","","0.6","","98.46","","","","","","Moderate Drizzle,Fog"
"2018-02-15 14:00","2018","02","15","14:00","5.4","","5.2","","98","","24","","9","","0.6","","98.30","","","","","","Rain,Fog"
"2018-02-15 15:00","2018","02","15","15:00","5.9","","5.6","","98","","22","","17","","0.4","","98.27","","","","","","Rain,Fog"
"2018-02-15 16:00","2018","02","15","16:00","5.6","","5.3","","98","","20","","18","","0.6","","98.18","","","","","","Rain,Fog"
"2018-02-15 17:00","2018","02","15","17:00","6.0","","5.8","","98","","27","","8","","0.6","","98.19","","","","","","Fog"
"2018-02-15 18:00","2018","02","15","18:00","3.8","","3.5","","98","","19","","13","","0.6","","98.15","","","","","","Fog"
"2018-02-15 19:00","2018","02","15","19:00","4.6","","4.4","","98","","30","","9","","0.6","","98.20","","","","","","Rain,Fog"
"2018-02-15 20:00","2018","02","15","20:00","5.4","","5.2","","98","","28","","15","","1.6","","98.27","","","","","","Rain,Fog"
"2018-02-15 21:00","2018","02","15","21:00","6.2","","5.9","","98","","32","","9","","2.0","","98.28","","","","","","Rain,Fog"
"2018-02-15 22:00","2018","02","15","22:00","5.8","","5.6","","98","","30","","10","","8.1","","98.34","","","","","","Fog"
"2018-02-15 23:00","2018","02","15","23:00","5.3","","4.1","","92","","33","","12","","8.1","","98.36","","","","","","Fog"
"2018-02-16 00:00","2018","02","16","00:00","5.1","","3.0","","86","","35","","9","","12.9","","98.41","","","","","","NA"
"2018-02-16 01:00","2018","02","16","01:00","4.2","","2.4","","89","","1","","11","","9.7","","98.45","","","","","","Fog"
"2018-02-16 02:00","2018","02","16","02:00","1.8","","-0.4","","86","","6","","11","","12.9","","98.48","","","","","","NA"
"2018-02-16 03:00","2018","02","16","03:00","2.0","","-0.5","","83","","1","","8","","12.9","","98.55","","","","","","NA"
"2018-02-16 04:00","2018","02","16","04:00","2.0","","-0.3","","85","","33","","5","","12.9","","98.65","","","","","","Cloudy"
"2018-02-16 05:00","2018","02","16","05:00","2.4","","-0.2","","83","","32","","13","","12.9","","98.66","","","","","","NA"
"2018-02-16 06:00","2018","02","16","06:00","2.1","","-1.6","","76","","32","","18","","11.3","","98.82","","","","","","NA"
"2018-02-16 07:00","2018","02","16","07:00","1.6","","-2.1","","77","","34","","23","","11.3","","98.89","","","","","","Cloudy"
"2018-02-16 08:00","2018","02","16","08:00","0.5","","-2.9","","78","","34","","23","","12.9","","99.04","","","","","","NA"
"2018-02-16 09:00","2018","02","16","09:00","-0.2","","-3.5","","78","","34","","23","","12.9","","99.22","","","","-6","","NA"
"2018-02-16 10:00","2018","02","16","10:00","-0.5","","-4.4","","75","","35","","21","","12.9","","99.31","","","","-6","","Cloudy"
"2018-02-16 11:00","2018","02","16","11:00","-0.6","","-5.3","","70","","33","","28","","16.1","","99.44","","","","-7","","NA"
"2018-02-16 12:00","2018","02","16","12:00","-0.2","","-5.6","","67","","33","","28","","24.1","","99.55","","","","-7","","NA"
"2018-02-16 13:00","2018","02","16","13:00","0.7","","-6.4","","59","","35","","17","","24.1","","99.61","","","","","","Mostly Cloudy"
"2018-02-16 14:00","2018","02","16","14:00","0.8","","-6.8","","57","","33","","21","","24.1","","99.69","","","","","","NA"
"2018-02-16 15:00","2018","02","16","15:00","0.3","","-6.6","","60","","34","","17","","24.1","","99.79","","","","","","NA"
"2018-02-16 16:00","2018","02","16","16:00","-0.3","","-8.7","","53","","32","","25","","24.1","","99.93","","","","-6","","Mostly Cloudy"
"2018-02-16 17:00","2018","02","16","17:00","0.0","","-8.7","","52","","32","","14","","24.1","","100.00","","","","-4","","NA"
"2018-02-16 18:00","2018","02","16","18:00","0.0","","-7.9","","55","","32","","9","","24.1","","100.05","","","","-3","","NA"
"2018-02-16 19:00","2018","02","16","19:00","-0.9","","-9.6","","52","","29","","16","","24.1","","100.15","","","","-6","","Mostly Cloudy"
"2018-02-16 20:00","2018","02","16","20:00","-1.9","","-9.7","","55","","29","","7","","24.1","","100.17","","","","-5","","NA"
"2018-02-16 21:00","2018","02","16","21:00","-3.2","","-7.2","","74","","21","","8","","24.1","","100.21","","","","-6","","NA"
"2018-02-16 22:00","2018","02","16","22:00","-3.2","","-7.7","","71","","21","","11","","24.1","","100.19","","","","-7","","Mainly Clear"
"2018-02-16 23:00","2018","02","16","23:00","-3.7","","-7.2","","77","","20","","12","","24.1","","100.21","","","","-8","","NA"
"2018-02-17 00:00","2018","02","17","00:00","-3.9","","-7.3","","78","","22","","13","","24.1","","100.19","","","","-9","","NA"
"2018-02-17 01:00","2018","02","17","01:00","-4.3","","-7.3","","80","","22","","8","","24.1","","100.18","","","","-8","","Clear"
"2018-02-17 02:00","2018","02","17","02:00","-5.1","","-7.5","","83","","23","","7","","24.1","","100.18","","","","-8","","NA"
"2018-02-17 03:00","2018","02","17","03:00","-4.7","","-7.5","","81","","19","","11","","24.1","","100.10","","","","-9","","NA"
"2018-02-17 04:00","2018","02","17","04:00","-6.6","","-8.6","","86","","20","","6","","19.3","","100.15","","","","-10","","Clear"
"2018-02-17 05:00","2018","02","17","05:00","-5.7","","-7.7","","86","","17","","8","","19.3","","100.10","","","","-9","","NA"
"2018-02-17 06:00","2018","02","17","06:00","-4.6","","-6.3","","88","","18","","13","","19.3","","100.07","","","","-10","","NA"
"2018-02-17 07:00","2018","02","17","07:00","-4.2","","-6.4","","85","","17","","11","","19.3","","100.01","","","","-9","","Mostly Cloudy"
"2018-02-17 08:00","2018","02","17","08:00","-3.3","","-6.2","","80","","19","","14","","19.3","","100.01","","","","-8","","NA"
"2018-02-17 09:00","2018","02","17","09:00","-2.2","","-6.1","","74","","19","","18","","19.3","","99.99","","","","-8","","NA"
"2018-02-17 10:00","2018","02","17","10:00","-1.4","","-5.9","","72","","20","","21","","19.3","","99.90","","","","-7","","Cloudy"
"2018-02-17 11:00","2018","02","17","11:00","-1.2","","-5.3","","74","","21","","14","","24.1","","99.77","","","","-6","","NA"
"2018-02-17 12:00","2018","02","17","12:00","-1.0","","-5.4","","72","","19","","21","","24.1","","99.63","","","","-7","","NA"
"2018-02-17 13:00","2018","02","17","13:00","-0.8","","-5.2","","72","","23","","21","","24.1","","99.56","","","","-6","","Cloudy"
"2018-02-17 14:00","2018","02","17","14:00","-0.7","","-4.8","","74","","20","","21","","24.1","","99.47","","","","-6","","NA"
"2018-02-17 15:00","2018","02","17","15:00","-0.8","","-4.3","","77","","19","","17","","24.1","","99.29","","","","-6","","NA"
"2018-02-17 16:00","2018","02","17","16:00","-0.3","","-4.1","","76","","20","","20","","19.3","","99.32","","","","-6","","Mostly Cloudy"
"2018-02-17 17:00","2018","02","17","17:00","-0.3","","-3.5","","79","","20","","13","","19.3","","99.28","","","","-4","","NA"
"2018-02-17 18:00","2018","02","17","18:00","-0.6","","-3.3","","82","","19","","14","","19.3","","99.33","","","","-5","","NA"
"2018-02-17 19:00","2018","02","17","19:00","-0.6","","-3.0","","84","","19","","14","","19.3","","99.28","","","","-5","","Cloudy"
"2018-02-17 20:00","2018","02","17","20:00","-0.7","","-2.9","","86","","22","","9","","19.3","","99.26","","","","-4","","NA"
"2018-02-17 21:00","2018","02","17","21:00","-0.6","","-2.8","","85","","20","","14","","19.3","","99.24","","","","-5","","NA"
"2018-02-17 22:00","2018","02","17","22:00","-0.5","","-2.4","","87","","23","","15","","19.3","","99.31","","","","-5","","Cloudy"
"2018-02-17 23:00","2018","02","17","23:00","-0.8","","-1.9","","93","","25","","14","","3.2","","99.37","","","","-5","","Snow"
"2018-02-18 00:00","2018","02","18","00:00","-2.6","","-3.7","","92","","24","","10","","11.3","","99.38","","","","-6","","NA"
"2018-02-18 01:00","2018","02","18","01:00","-2.8","","-3.9","","92","","25","","13","","11.3","","99.48","","","","-7","","Mainly Clear"
"2018-02-18 02:00","2018","02","18","02:00","-2.0","","-3.1","","92","","24","","13","","9.7","","99.63","","","","-6","","Fog"
"2018-02-18 03:00","2018","02","18","03:00","-1.4","","-2.5","","92","","23","","14","","8.1","","99.74","","","","-6","","Fog"
"2018-02-18 04:00","2018","02","18","04:00","-1.5","","-3.1","","89","","25","","16","","8.1","","99.90","","","","-6","","Fog"
"2018-02-18 05:00","2018","02","18","05:00","-0.3","","-3.5","","79","","28","","18","","8.1","","100.04","","","","-5","","Fog,Haze"
"2018-02-18 06:00","2018","02","18","06:00","-0.3","","-3.3","","80","","23","","14","","12.9","","100.20","","","","-5","","NA"
"2018-02-18 07:00","2018","02","18","07:00","-0.8","","-3.5","","82","","26","","8","","12.9","","100.25","","","","-4","","Mostly Cloudy"
"2018-02-18 08:00","2018","02","18","08:00","-1.8","","-5.8","","74","","27","","11","","19.3","","100.29","","","","-6","","NA"
"2018-02-18 09:00","2018","02","18","09:00","-1.0","","-4.7","","76","","21","","8","","19.3","","100.36","","","","-4","","NA"
"2018-02-18 10:00","2018","02","18","10:00","0.7","","-4.7","","68","","21","","13","","24.1","","100.44","","","","","","Mainly Clear"
"2018-02-18 11:00","2018","02","18","11:00","1.0","","-4.9","","65","","18","","16","","24.1","","100.41","","","","","","NA"
"2018-02-18 12:00","2018","02","18","12:00","1.4","","-4.7","","64","","18","","18","","24.1","","100.38","","","","","","NA"
"2018-02-18 13:00","2018","02","18","13:00","1.1","","-3.3","","72","","20","","23","","24.1","","100.39","","","","","","Cloudy"
"2018-02-18 14:00","2018","02","18","14:00","0.3","","-3.7","","74","","21","","26","","24.1","","100.37","","","","","","NA"
"2018-02-18 15:00","2018","02","18","15:00","0.6","","-3.2","","76","","21","","25","","24.1","","100.36","","","","","","NA"
"2018-02-18 16:00","2018","02","18","16:00","0.7","","-3.0","","76","","20","","26","","19.3","","100.32","","","","","","Cloudy"
"2018-02-18 17:00","2018","02","18","17:00","0.8","","-2.8","","77","","18","","18","","19.3","","100.24","","","","","","NA"
"2018-02-18 18:00","2018","02","18","18:00","0.0","","-2.5","","84","","15","","7","","19.3","","100.14","","","","-2","","NA"
"2018-02-18 19:00","2018","02","18","19:00","-1.0","","-2.8","","88","","15","","9","","19.3","","100.12","","","","-4","","Cloudy"
"2018-02-18 20:00","2018","02","18","20:00","-1.1","","-2.9","","88","","13","","11","","19.3","","100.03","","","","-5","","NA"
"2018-02-18 21:00","2018","02","18","21:00","-0.9","","-2.4","","90","","13","","14","","19.3","","99.94","","","","-5","","NA"
"2018-02-18 22:00","2018","02","18","22:00","-0.6","","-2.6","","86","","13","","10","","19.3","","99.89","","","","-4","","Cloudy"
"2018-02-18 23:00","2018","02","18","23:00","0.1","","-2.4","","83","","16","","16","","19.3","","99.79","","","","","","NA"
"2018-02-19 00:00","2018","02","19","00:00","0.2","","-2.5","","82","","16","","19","","19.3","","99.58","","","","","","NA"
"2018-02-19 01:00","2018","02","19","01:00","0.3","","-2.5","","82","","17","","19","","19.3","","99.57","","","","","","Mainly Clear"
"2018-02-19 02:00","2018","02","19","02:00","0.2","","-2.3","","83","","17","","14","","24.1","","99.55","","","","","","NA"
"2018-02-19 03:00","2018","02","19","03:00","-0.2","","-2.3","","85","","15","","8","","24.1","","99.42","","","","-3","","NA"
"2018-02-19 04:00","2018","02","19","04:00","0.0","","-2.0","","87","","14","","9","","24.1","","99.37","","","","-3","","Mostly Cloudy"
"2018-02-19 05:00","2018","02","19","05:00","0.6","","-1.5","","86","","17","","7","","24.1","","99.45","","","","","","NA"
"2018-02-19 06:00","2018","02","19","06:00","0.9","","-1.1","","86","","15","","10","","19.3","","99.39","","","","","","Rain"
"2018-02-19 07:00","2018","02","19","07:00","1.1","","-0.2","","91","","17","","13","","19.3","","99.27","","","","","","Mostly Cloudy"
"2018-02-19 08:00","2018","02","19","08:00","1.8","","0.4","","90","","18","","10","","3.2","","99.37","","","","","","Drizzle,Fog"
"2018-02-19 09:00","2018","02","19","09:00","2.4","","1.9","","96","","20","","17","","1.6","","99.40","","","","","","Drizzle,Fog"
"2018-02-19 10:00","2018","02","19","10:00","3.0","","2.5","","97","","19","","19","","2.4","","99.32","","","","","","Drizzle,Fog"
"2018-02-19 11:00","2018","02","19","11:00","3.5","","3.1","","97","","21","","14","","2.0","","99.34","","","","","","Fog"
"2018-02-19 12:00","2018","02","19","12:00","3.5","","3.1","","97","","19","","16","","1.2","","99.36","","","","","","Rain,Fog"
"2018-02-19 13:00","2018","02","19","13:00","4.1","","3.8","","98","","19","","12","","1.6","","99.26","","","","","","Rain,Fog"
"2018-02-19 14:00","2018","02","19","14:00","4.0","","3.6","","98","","12","","7","","0.4","","99.15","","","","","","Rain,Fog"
"2018-02-19 15:00","2018","02","19","15:00","5.6","","5.3","","98","","17","","12","","0.4","","99.06","","","","","","Rain,Fog"
"2018-02-19 16:00","2018","02","19","16:00","8.5","","8.2","","98","","19","","22","","0.8","","99.02","","","","","","Rain,Fog"
"2018-02-19 17:00","2018","02","19","17:00","9.9","","9.6","","98","","21","","27","","4.0","","99.04","","","","","","Fog"
"2018-02-19 18:00","2018","02","19","18:00","10.0","","9.8","","98","","21","","24","","4.0","","99.10","","","","","","Rain,Fog"
"2018-02-19 19:00","2018","02","19","19:00","11.1","","10.8","","98","","20","","25","","6.4","","99.16","","","","","","Rain,Fog"
"2018-02-19 20:00","2018","02","19","20:00","10.2","","9.9","","98","","20","","23","","9.7","","99.18","","","","","","Fog"
"2018-02-19 21:00","2018","02","19","21:00","13.0","","11.9","","93","","23","","37","","11.3","","99.24","","","","","","Rain"
"2018-02-19 22:00","2018","02","19","22:00","13.0","","11.4","","90","","22","","32","","11.3","","99.19","","","","","","Rain"
"2018-02-19 23:00","2018","02","19","23:00","10.6","","9.8","","95","","21","","19","","16.1","","99.20","","","","","","NA"
"2018-02-20 00:00","2018","02","20","00:00","9.2","","8.8","","97","","20","","13","","0.4","","99.21","","","","","","Fog"
"2018-02-20 01:00","2018","02","20","01:00","9.4","","9.1","","98","","20","","18","","0.8","","99.22","","","","","","Fog"
"2018-02-20 02:00","2018","02","20","02:00","10.3","","10.0","","98","","21","","15","","4.8","","99.26","","","","","","Rain Showers,Fog"
"2018-02-20 03:00","2018","02","20","03:00","10.8","","10.6","","98","","20","","5","","6.4","","99.26","","","","","","Fog"
"2018-02-20 04:00","2018","02","20","04:00","9.0","","8.8","","98","","19","","7","","1.6","","99.24","","","","","","Rain Showers,Fog"
"2018-02-20 05:00","2018","02","20","05:00","9.3","","9.1","","98","","17","","15","","11.3","","99.22","","","","","","Rain"
"2018-02-20 06:00","2018","02","20","06:00","10.3","","10.1","","98","","19","","18","","16.1","","99.20","","","","","","NA"
"2018-02-20 07:00","2018","02","20","07:00","11.8","","11.0","","94","","21","","23","","16.1","","99.25","","","","","","Rain"
"2018-02-20 08:00","2018","02","20","08:00","11.6","","10.5","","93","","20","","19","","12.9","","99.28","","","","","","NA"
"2018-02-20 09:00","2018","02","20","09:00","10.9","","10.1","","94","","20","","21","","12.9","","99.27","","","","","","NA"
"2018-02-20 10:00","2018","02","20","10:00","12.5","","11.4","","93","","20","","31","","9.7","","99.27","","","","","","Rain,Fog"
"2018-02-20 11:00","2018","02","20","11:00","13.1","","12.3","","95","","21","","25","","9.7","","99.31","","","","","","Rain,Fog"
"2018-02-20 12:00","2018","02","20","12:00","13.8","","13.1","","95","","21","","31","","8.1","","99.33","","","","","","Rain,Fog"
"2018-02-20 13:00","2018","02","20","13:00","14.8","","13.8","","93","","21","","37","","9.7","","99.33","","","","","","Rain,Fog"
"2018-02-20 14:00","2018","02","20","14:00","14.3","","13.5","","94","","21","","27","","9.7","","99.35","","","","","","Rain,Fog"
"2018-02-20 15:00","2018","02","20","15:00","14.5","","13.9","","97","","21","","30","","6.4","","99.37","","","","","","Rain,Fog"
"2018-02-20 16:00","2018","02","20","16:00","14.7","","13.9","","95","","20","","21","","11.3","","99.32","","","","","","Cloudy"
"2018-02-20 17:00","2018","02","20","17:00","14.4","","13.8","","96","","18","","21","","11.3","","99.31","","","","","","NA"
"2018-02-20 18:00","2018","02","20","18:00","14.3","","13.2","","93","","18","","20","","12.9","","99.30","","","","","","NA"
"2018-02-20 19:00","2018","02","20","19:00","15.9","","13.2","","84","","19","","22","","16.1","","99.29","","","","","","Mostly Cloudy"
"2018-02-20 20:00","2018","02","20","20:00","17.0","","12.7","","76","","19","","32","","19.3","","99.22","","","","","","NA"
"2018-02-20 21:00","2018","02","20","21:00","16.4","","13.1","","81","","19","","28","","19.3","","99.24","","","","","","Rain"
"2018-02-20 22:00","2018","02","20","22:00","15.6","","12.7","","83","","29","","22","","24.1","","99.43","","","","","","Mostly Cloudy"
"2018-02-20 23:00","2018","02","20","23:00","12.8","","11.4","","91","","22","","4","","24.1","","99.45","","","","","","NA"
"2018-02-21 00:00","2018","02","21","00:00","12.0","","11.3","","96","","25","","7","","19.3","","99.49","","","","","","NA"
"2018-02-21 01:00","2018","02","21","01:00","10.8","","10.3","","97","","18","","9","","19.3","","99.49","","","","","","Mostly Cloudy"
"2018-02-21 02:00","2018","02","21","02:00","9.9","","9.5","","97","","23","","4","","19.3","","99.45","","","","","","NA"
"2018-02-21 03:00","2018","02","21","03:00","10.7","","10.4","","98","","23","","8","","8.1","","99.48","","","","","","Rain Showers,Fog"
"2018-02-21 04:00","2018","02","21","04:00","11.0","","10.7","","98","","25","","7","","6.4","","99.52","","","","","","Rain,Fog"
"2018-02-21 05:00","2018","02","21","05:00","10.9","","10.6","","98","","33","","30","","11.3","","99.63","","","","","","Moderate Rain,Fog"
"2018-02-21 06:00","2018","02","21","06:00","7.0","","5.5","","90","","32","","30","","8.1","","99.83","","","","","","Rain,Fog"
"2018-02-21 07:00","2018","02","21","07:00","5.2","","4.1","","93","","33","","19","","11.3","","100.02","","","","","","Rain"
"2018-02-21 08:00","2018","02","21","08:00","4.9","","3.9","","93","","33","","16","","9.7","","100.19","","","","","","Rain,Fog"
"2018-02-21 09:00","2018","02","21","09:00","4.1","","2.7","","91","","34","","22","","11.3","","100.37","","","","","","Rain"
"2018-02-21 10:00","2018","02","21","10:00","3.8","","2.5","","91","","33","","18","","9.7","","100.51","","","","","","Rain,Fog"
"2018-02-21 11:00","2018","02","21","11:00","3.5","","1.9","","89","","35","","19","","12.9","","100.68","","","","","","Rain"
"2018-02-21 12:00","2018","02","21","12:00","3.8","","1.3","","84","","35","","16","","24.1","","100.76","","","","","","NA"
"2018-02-21 13:00","2018","02","21","13:00","2.5","","1.2","","91","","6","","19","","24.1","","100.84","","","","","","Cloudy"
"2018-02-21 14:00","2018","02","21","14:00","2.4","","1.1","","91","","6","","17","","24.1","","100.93","","","","","","NA"
"2018-02-21 15:00","2018","02","21","15:00","2.5","","1.2","","91","","5","","16","","24.1","","101.00","","","","","","NA"
"2018-02-21 16:00","2018","02","21","16:00","1.5","","0.1","","90","","6","","22","","24.1","","101.10","","","","","","Cloudy"
"2018-02-21 17:00","2018","02","21","17:00","1.1","","-0.6","","88","","7","","18","","24.1","","101.13","","","","","","NA"
"2018-02-21 18:00","2018","02","21","18:00","0.2","","-1.9","","86","","6","","19","","19.3","","101.21","","","","","","NA"
"2018-02-21 19:00","2018","02","21","19:00","-0.2","","-2.4","","85","","6","","16","","24.1","","101.31","","","","-5","","Mostly Cloudy"
"2018-02-21 20:00","2018","02","21","20:00","-0.4","","-2.7","","85","","6","","18","","24.1","","101.34","","","","-5","","NA"
"2018-02-21 21:00","2018","02","21","21:00","-0.6","","-2.8","","85","","6","","14","","24.1","","101.40","","","","-5","","NA"
"2018-02-21 22:00","2018","02","21","22:00","-0.9","","-2.9","","86","","6","","12","","24.1","","101.42","","","","-5","","Cloudy"
"2018-02-21 23:00","2018","02","21","23:00","-1.2","","-3.2","","86","","4","","16","","24.1","","101.45","","","","-6","","NA"
"2018-02-22 00:00","2018","02","22","00:00","-1.2","","-3.4","","85","","3","","16","","24.1","","101.46","","","","-6","","NA"
"2018-02-22 01:00","2018","02","22","01:00","-1.4","","-3.6","","85","","3","","24","","24.1","","101.45","","","","-8","","Cloudy"
"2018-02-22 02:00","2018","02","22","02:00","-1.5","","-3.8","","84","","3","","22","","24.1","","101.41","","","","-7","","NA"
"2018-02-22 03:00","2018","02","22","03:00","-1.5","","-4.3","","82","","5","","23","","24.1","","101.38","","","","-8","","NA"
"2018-02-22 04:00","2018","02","22","04:00","-1.6","","-4.3","","82","","5","","24","","24.1","","101.25","","","","-8","","Cloudy"
"2018-02-22 05:00","2018","02","22","05:00","-1.6","","-4.2","","82","","5","","18","","24.1","","101.27","","","","-7","","NA"
"2018-02-22 06:00","2018","02","22","06:00","-1.4","","-4.3","","81","","4","","22","","24.1","","101.26","","","","-7","","NA"
"2018-02-22 07:00","2018","02","22","07:00","-1.4","","-4.2","","81","","4","","22","","24.1","","101.25","","","","-7","","Cloudy"
"2018-02-22 08:00","2018","02","22","08:00","-1.3","","-4.0","","82","","3","","22","","19.3","","101.26","","","","-7","","NA"
"2018-02-22 09:00","2018","02","22","09:00","-1.2","","-3.9","","82","","2","","23","","19.3","","101.31","","","","-7","","NA"
"2018-02-22 10:00","2018","02","22","10:00","-1.1","","-4.5","","78","","3","","22","","19.3","","101.39","","","","-7","","Cloudy"
"2018-02-22 11:00","2018","02","22","11:00","-0.9","","-4.1","","79","","3","","30","","19.3","","101.44","","","","-8","","NA"
"2018-02-22 12:00","2018","02","22","12:00","-0.3","","-4.1","","76","","4","","28","","19.3","","101.39","","","","-7","","NA"
"2018-02-22 13:00","2018","02","22","13:00","0.8","","-3.9","","71","","3","","27","","24.1","","101.37","","","","","","Mostly Cloudy"
"2018-02-22 14:00","2018","02","22","14:00","1.8","","-3.7","","67","","5","","27","","24.1","","101.19","","","","","","NA"
"2018-02-22 15:00","2018","02","22","15:00","2.6","","-2.9","","67","","3","","24","","24.1","","101.23","","","","","","NA"
"2018-02-22 16:00","2018","02","22","16:00","2.7","","-3.0","","66","","3","","23","","24.1","","101.15","","","","","","Mainly Clear"
"2018-02-22 17:00","2018","02","22","17:00","2.6","","-2.9","","67","","5","","21","","24.1","","101.11","","","","","","NA"
"2018-02-22 18:00","2018","02","22","18:00","1.4","","-2.5","","76","","4","","14","","24.1","","101.12","","","","","","NA"
"2018-02-22 19:00","2018","02","22","19:00","1.3","","-2.1","","78","","3","","26","","24.1","","101.11","","","","","","Cloudy"
"2018-02-22 20:00","2018","02","22","20:00","1.0","","-1.9","","81","","5","","19","","24.1","","101.08","","","","","","NA"
"2018-02-22 21:00","2018","02","22","21:00","0.9","","-1.3","","85","","6","","22","","24.1","","101.05","","","","","","NA"
"2018-02-22 22:00","2018","02","22","22:00","0.4","","-1.4","","87","","6","","19","","24.1","","100.96","","","","","","Cloudy"
"2018-02-22 23:00","2018","02","22","23:00","0.5","","-1.1","","89","","5","","18","","24.1","","100.89","","","","","","NA"
"2018-02-23 00:00","2018","02","23","00:00","0.9","","-0.6","","90","","7","","16","","11.3","","100.83","","","","","","NA"
"2018-02-23 01:00","2018","02","23","01:00","1.2","","-0.3","","89","","9","","22","","11.3","","100.72","","","","","","Cloudy"
"2018-02-23 02:00","2018","02","23","02:00","1.0","","-0.3","","91","","7","","18","","11.3","","100.62","","","","","","NA"
"2018-02-23 03:00","2018","02","23","03:00","1.1","","-0.1","","92","","8","","16","","11.3","","100.57","","","","","","NA"
"2018-02-23 04:00","2018","02","23","04:00","1.2","","0.6","","95","","12","","16","","8.1","","100.45","","","","","","Drizzle,Fog"
"2018-02-23 05:00","2018","02","23","05:00","1.2","","0.7","","97","","12","","19","","8.1","","100.29","","","","","","Drizzle,Fog"
"2018-02-23 06:00","2018","02","23","06:00","1.2","","0.8","","97","","13","","21","","8.1","","100.19","","","","","","Fog"
"2018-02-23 07:00","2018","02","23","07:00","1.6","","1.1","","97","","12","","12","","8.1","","100.10","","","","","","Rain,Fog"
"2018-02-23 08:00","2018","02","23","08:00","2.1","","1.7","","97","","13","","15","","2.0","","99.94","","","","","","Rain,Fog"
"2018-02-23 09:00","2018","02","23","09:00","2.7","","2.3","","97","","14","","10","","3.2","","99.83","","","","","","Drizzle,Fog"
"2018-02-23 10:00","2018","02","23","10:00","3.9","","3.5","","98","","16","","14","","4.8","","99.69","","","","","","Rain,Fog"
"2018-02-23 11:00","2018","02","23","11:00","4.6","","4.2","","97","","21","","8","","2.4","","99.65","","","","","","Moderate Rain,Fog"
"2018-02-23 12:00","2018","02","23","12:00","5.5","","5.0","","97","","20","","14","","16.1","","99.62","","","","","","NA"
"2018-02-23 13:00","2018","02","23","13:00","6.7","","6.0","","95","","23","","23","","19.3","","99.57","","","","","","Cloudy"
"2018-02-23 14:00","2018","02","23","14:00","7.6","","6.7","","94","","24","","21","","16.1","","99.55","","","","","","NA"
"2018-02-23 15:00","2018","02","23","15:00","8.9","","7.5","","91","","25","","28","","16.1","","99.57","","","","","","NA"
"2018-02-23 16:00","2018","02","23","16:00","9.0","","7.5","","91","","24","","18","","16.1","","99.63","","","","","","Cloudy"
"2018-02-23 17:00","2018","02","23","17:00","9.2","","7.0","","86","","25","","25","","19.3","","99.72","","","","","","NA"
"2018-02-23 18:00","2018","02","23","18:00","8.4","","6.5","","87","","25","","20","","19.3","","99.77","","","","","","NA"
"2018-02-23 19:00","2018","02","23","19:00","8.2","","6.0","","86","","27","","34","","24.1","","99.86","","","","","","Cloudy"
"2018-02-23 20:00","2018","02","23","20:00","7.7","","5.4","","85","","26","","21","","24.1","","99.93","","","","","","NA"
"2018-02-23 21:00","2018","02","23","21:00","7.3","","5.1","","86","","27","","17","","24.1","","99.91","","","","","","NA"
"2018-02-23 22:00","2018","02","23","22:00","7.1","","4.6","","84","","28","","17","","24.1","","99.96","","","","","","Mostly Cloudy"
"2018-02-23 23:00","2018","02","23","23:00","5.8","","2.8","","81","","29","","20","","24.1","","99.99","","","","","","NA"
"2018-02-24 00:00","2018","02","24","00:00","5.0","","2.3","","83","","28","","16","","24.1","","100.04","","","","","","NA"
"2018-02-24 01:00","2018","02","24","01:00","4.7","","1.7","","81","","31","","18","","24.1","","100.07","","","","","","Mostly Cloudy"
"2018-02-24 02:00","2018","02","24","02:00","4.1","","1.4","","82","","34","","13","","24.1","","100.15","","","","","","NA"
"2018-02-24 03:00","2018","02","24","03:00","3.6","","0.8","","82","","35","","18","","24.1","","100.04","","","","","","NA"
"2018-02-24 04:00","2018","02","24","04:00","3.2","","0.1","","80","","1","","8","","24.1","","100.12","","","","","","Mostly Cloudy"
"2018-02-24 05:00","2018","02","24","05:00","3.0","","-0.1","","80","","36","","12","","19.3","","100.10","","","","","","NA"
"2018-02-24 06:00","2018","02","24","06:00","2.7","","-0.3","","81","","3","","10","","19.3","","100.11","","","","","","NA"
"2018-02-24 07:00","2018","02","24","07:00","2.5","","-0.4","","81","","4","","11","","24.1","","100.10","","","","","","Cloudy"
"2018-02-24 08:00","2018","02","24","08:00","2.4","","-0.2","","83","","3","","10","","19.3","","100.08","","","","","","NA"
"2018-02-24 09:00","2018","02","24","09:00","2.9","","0.1","","82","","4","","15","","19.3","","100.06","","","","","","NA"
"2018-02-24 10:00","2018","02","24","10:00","3.0","","-0.2","","79","","6","","17","","19.3","","100.11","","","","","","Cloudy"
"2018-02-24 11:00","2018","02","24","11:00","3.0","","0.0","","80","","7","","16","","19.3","","100.09","","","","","","NA"
"2018-02-24 12:00","2018","02","24","12:00","2.7","","0.2","","84","","6","","19","","19.3","","100.06","","","","","","NA"
"2018-02-24 13:00","2018","02","24","13:00","2.1","","-0.3","","84","","4","","19","","19.3","","99.95","","","","","","Cloudy"
"2018-02-24 14:00","2018","02","24","14:00","2.5","","-0.4","","82","","3","","16","","24.1","","99.83","","","","","","NA"
"2018-02-24 15:00","2018","02","24","15:00","3.3","","0.6","","83","","5","","20","","24.1","","99.72","","","","","","NA"
"2018-02-24 16:00","2018","02","24","16:00","4.3","","1.4","","81","","5","","20","","19.3","","99.65","","","","","","Mostly Cloudy"
"2018-02-24 17:00","2018","02","24","17:00","3.7","","0.9","","82","","6","","18","","19.3","","99.62","","","","","","NA"
"2018-02-24 18:00","2018","02","24","18:00","3.1","","0.6","","83","","8","","17","","19.3","","99.53","","","","","","NA"
"2018-02-24 19:00","2018","02","24","19:00","3.0","","0.2","","82","","9","","23","","19.3","","99.49","","","","","","Cloudy"
"2018-02-24 20:00","2018","02","24","20:00","2.5","","-0.2","","83","","10","","21","","19.3","","99.34","","","","","","NA"
"2018-02-24 21:00","2018","02","24","21:00","2.5","","0.7","","88","","10","","27","","19.3","","99.17","","","","","","NA"
"2018-02-24 22:00","2018","02","24","22:00","2.4","","0.8","","89","","10","","23","","19.3","","99.05","","","","","","Rain"
"2018-02-24 23:00","2018","02","24","23:00","2.0","","0.8","","92","","9","","25","","19.3","","98.90","","","","","","Rain"
"2018-02-25 00:00","2018","02","25","00:00","2.0","","1.2","","94","","11","","33","","8.1","","98.51","","","","","","Rain,Fog"
"2018-02-25 01:00","2018","02","25","01:00","2.4","","1.8","","95","","10","","29","","8.1","","98.21","","","","","","Fog"
"2018-02-25 02:00","2018","02","25","02:00","3.1","","2.6","","97","","12","","32","","6.4","","98.01","","","","","","Fog"
"2018-02-25 03:00","2018","02","25","03:00","3.9","","3.5","","97","","12","","22","","2.4","","97.86","","","","","","Fog"
"2018-02-25 04:00","2018","02","25","04:00","4.8","","4.5","","98","","13","","16","","0.6","","97.69","","","","","","Fog"
"2018-02-25 05:00","2018","02","25","05:00","7.2","","6.9","","98","","18","","21","","4.0","","97.62","","","","","","Rain,Fog"
"2018-02-25 06:00","2018","02","25","06:00","9.6","","9.1","","97","","23","","37","","11.3","","97.76","","","","","","NA"
"2018-02-25 07:00","2018","02","25","07:00","9.1","","5.3","","77","","23","","43","","24.1","","97.95","","","","","","Mostly Cloudy"
"2018-02-25 08:00","2018","02","25","08:00","7.3","","3.3","","75","","26","","37","","24.1","","98.21","","","","","","NA"
"2018-02-25 09:00","2018","02","25","09:00","5.4","","1.9","","78","","25","","36","","24.1","","98.44","","","","","","NA"
"2018-02-25 10:00","2018","02","25","10:00","5.8","","0.7","","69","","25","","39","","24.1","","98.58","","","","","","Mainly Clear"
"2018-02-25 11:00","2018","02","25","11:00","5.7","","-0.1","","66","","25","","43","","24.1","","98.70","","","","","","NA"
"2018-02-25 12:00","2018","02","25","12:00","5.5","","-1.0","","63","","25","","45","","24.1","","98.79","","","","","","NA"
"2018-02-25 13:00","2018","02","25","13:00","6.5","","0.1","","64","","24","","38","","24.1","","98.83","","","","","","Mainly Clear"
"2018-02-25 14:00","2018","02","25","14:00","6.0","","-0.5","","63","","23","","49","","24.1","","98.91","","","","","","NA"
"2018-02-25 15:00","2018","02","25","15:00","6.3","","-1.8","","56","","24","","50","","24.1","","98.95","","","","","","NA"
"2018-02-25 16:00","2018","02","25","16:00","6.2","","-0.9","","61","","24","","38","","19.3","","98.94","","","","","","Clear"
"2018-02-25 17:00","2018","02","25","17:00","5.9","","-1.7","","58","","24","","39","","19.3","","99.03","","","","","","NA"
"2018-02-25 18:00","2018","02","25","18:00","4.8","","-2.0","","61","","24","","35","","19.3","","99.16","","","","","","NA"
"2018-02-25 19:00","2018","02","25","19:00","4.2","","-2.7","","61","","24","","32","","19.3","","99.27","","","","","","Clear"
"2018-02-25 20:00","2018","02","25","20:00","3.7","","-2.3","","65","","24","","28","","19.3","","99.34","","","","","","NA"
"2018-02-25 21:00","2018","02","25","21:00","3.1","","-2.2","","69","","24","","23","","19.3","","99.44","","","","","","NA"
"2018-02-25 22:00","2018","02","25","22:00","2.3","","-2.3","","72","","24","","21","","19.3","","99.46","","","","","","Clear"
"2018-02-25 23:00","2018","02","25","23:00","1.6","","-2.4","","75","","24","","18","","19.3","","99.49","","","","","","NA"
"2018-02-26 00:00","2018","02","26","00:00","0.9","","-2.0","","81","","22","","17","","24.1","","99.49","","","","","","NA"
"2018-02-26 01:00","2018","02","26","01:00","0.8","","-2.1","","81","","22","","18","","24.1","","99.55","","","","","","Clear"
"2018-02-26 02:00","2018","02","26","02:00","0.3","","-2.3","","83","","23","","16","","40.2","","99.58","","","","","","NA"
"2018-02-26 03:00","2018","02","26","03:00","0.2","","-2.4","","83","","23","","18","","24.1","","99.63","","","","","","NA"
"2018-02-26 04:00","2018","02","26","04:00","-0.1","","-2.5","","84","","23","","17","","24.1","","99.69","","","","-5","","Clear"
"2018-02-26 05:00","2018","02","26","05:00","-0.7","","-2.9","","85","","23","","12","","24.1","","99.77","","","","-5","","NA"
"2018-02-26 06:00","2018","02","26","06:00","-0.8","","-3.0","","85","","23","","13","","24.1","","99.85","","","","-5","","NA"
"2018-02-26 07:00","2018","02","26","07:00","-1.2","","-3.1","","87","","23","","13","","24.1","","99.89","","","","-5","","Clear"
"2018-02-26 08:00","2018","02","26","08:00","0.0","","-2.5","","83","","23","","11","","24.1","","100.01","","","","-4","","NA"
"2018-02-26 09:00","2018","02","26","09:00","2.4","","-2.7","","69","","25","","17","","24.1","","100.09","","","","","","NA"
"2018-02-26 10:00","2018","02","26","10:00","3.7","","-2.4","","64","","23","","15","","24.1","","100.15","","","","","","Clear"
"2018-02-26 11:00","2018","02","26","11:00","5.4","","-3.9","","51","","23","","15","","24.1","","100.19","","","","","","NA"
"2018-02-26 12:00","2018","02","26","12:00","6.7","","-2.4","","52","","22","","20","","24.1","","100.19","","","","","","NA"
"2018-02-26 13:00","2018","02","26","13:00","7.8","","-1.9","","50","","23","","23","","24.1","","100.16","","","","","","Clear"
"2018-02-26 14:00","2018","02","26","14:00","8.3","","-0.8","","52","","21","","22","","24.1","","100.13","","","","","","NA"
"2018-02-26 15:00","2018","02","26","15:00","8.6","","-0.8","","52","","21","","26","","24.1","","100.11","","","","","","NA"
"2018-02-26 16:00","2018","02","26","16:00","9.2","","-2.3","","45","","21","","23","","24.1","","100.09","","","","","","Clear"
"2018-02-26 17:00","2018","02","26","17:00","8.8","","-1.3","","49","","20","","22","","24.1","","100.09","","","","","","NA"
"2018-02-26 18:00","2018","02","26","18:00","6.7","","0.3","","64","","19","","14","","24.1","","100.12","","","","","","NA"
"2018-02-26 19:00","2018","02","26","19:00","4.8","","-0.5","","69","","20","","14","","24.1","","100.16","","","","","","Clear"
"2018-02-26 20:00","2018","02","26","20:00","2.8","","-0.7","","77","","21","","14","","24.1","","100.21","","","","","","NA"
"2018-02-26 21:00","2018","02","26","21:00","1.6","","-1.5","","80","","21","","12","","24.1","","100.25","","","","","","NA"
"2018-02-26 22:00","2018","02","26","22:00","2.1","","-1.3","","78","","20","","13","","24.1","","100.26","","","","","","Clear"
"2018-02-26 23:00","2018","02","26","23:00","1.9","","-1.1","","80","","21","","13","","24.1","","100.27","","","","","","NA"
"2018-02-27 00:00","2018","02","27","00:00","1.0","","-1.5","","83","","22","","12","","24.1","","100.29","","","","","","NA"
"2018-02-27 01:00","2018","02","27","01:00","0.8","","-1.8","","83","","21","","10","","24.1","","100.30","","","","","","Clear"
"2018-02-27 02:00","2018","02","27","02:00","1.6","","-1.1","","82","","21","","14","","24.1","","100.31","","","","","","NA"
"2018-02-27 03:00","2018","02","27","03:00","1.6","","-1.3","","81","","22","","13","","24.1","","100.30","","","","","","NA"
"2018-02-27 04:00","2018","02","27","04:00","1.3","","-1.3","","83","","21","","14","","24.1","","100.28","","","","","","Clear"
"2018-02-27 05:00","2018","02","27","05:00","0.6","","-2.0","","83","","22","","9","","24.1","","100.29","","","","","","NA"
"2018-02-27 06:00","2018","02","27","06:00","-0.3","","-2.3","","86","","22","","11","","24.1","","100.30","","","","-4","","NA"
"2018-02-27 07:00","2018","02","27","07:00","1.1","","-1.7","","82","","21","","17","","24.1","","100.35","","","","","","Clear"
"2018-02-27 08:00","2018","02","27","08:00","2.1","","-1.7","","76","","21","","17","","24.1","","100.38","","","","","","NA"
"2018-02-27 09:00","2018","02","27","09:00","4.5","","-1.7","","64","","21","","22","","24.1","","100.35","","","","","","NA"
"2018-02-27 10:00","2018","02","27","10:00","6.9","","-1.5","","55","","22","","27","","24.1","","100.34","","","","","","Clear"
"2018-02-27 11:00","2018","02","27","11:00","8.9","","1.0","","57","","21","","21","","24.1","","100.27","","","","","","NA"
"2018-02-27 12:00","2018","02","27","12:00","9.6","","-0.1","","50","","20","","31","","24.1","","100.18","","","","","","NA"
"2018-02-27 13:00","2018","02","27","13:00","11.5","","0.0","","45","","22","","34","","24.1","","100.04","","","","","","Mainly Clear"
"2018-02-27 14:00","2018","02","27","14:00","12.5","","0.2","","43","","20","","37","","24.1","","99.92","","","","","","NA"
"2018-02-27 15:00","2018","02","27","15:00","13.4","","1.8","","45","","21","","30","","24.1","","99.82","","","","","","NA"
"2018-02-27 16:00","2018","02","27","16:00","13.6","","1.6","","44","","22","","33","","24.1","","99.74","","","","","","Mostly Cloudy"
"2018-02-27 17:00","2018","02","27","17:00","12.8","","1.4","","46","","22","","26","","24.1","","99.68","","","","","","NA"
"2018-02-27 18:00","2018","02","27","18:00","10.8","","1.5","","52","","20","","29","","24.1","","99.64","","","","","","NA"
"2018-02-27 19:00","2018","02","27","19:00","8.7","","1.5","","61","","21","","18","","24.1","","99.60","","","","","","Mainly Clear"
"2018-02-27 20:00","2018","02","27","20:00","8.0","","1.1","","62","","20","","19","","24.1","","99.53","","","","","","NA"
"2018-02-27 21:00","2018","02","27","21:00","6.3","","0.6","","67","","19","","15","","24.1","","99.51","","","","","","NA"
"2018-02-27 22:00","2018","02","27","22:00","5.6","","0.2","","68","","20","","13","","32.2","","99.47","","","","","","Mainly Clear"
"2018-02-27 23:00","2018","02","27","23:00","5.1","","-0.1","","69","","19","","11","","24.1","","99.38","","","","","","NA"
"2018-02-28 00:00","2018","02","28","00:00","4.6","","0.1","","73","","20","","13","","24.1","","99.42","","","","","","NA"
"2018-02-28 01:00","2018","02","28","01:00","3.5","","0.1","","78","","17","","11","","24.1","","99.37","","","","","","Mostly Cloudy"
"2018-02-28 02:00","2018","02","28","02:00","4.7","","0.6","","74","","18","","15","","24.1","","99.29","","","","","","NA"
"2018-02-28 03:00","2018","02","28","03:00","5.3","","1.0","","74","","18","","17","","24.1","","99.17","","","","","","NA"
"2018-02-28 04:00","2018","02","28","04:00","4.8","","1.0","","77","","18","","16","","24.1","","99.01","","","","","","Mostly Cloudy"
"2018-02-28 05:00","2018","02","28","05:00","4.8","","0.8","","76","","19","","18","","24.1","","98.93","","","","","","NA"
"2018-02-28 06:00","2018","02","28","06:00","6.0","","1.4","","72","","19","","18","","24.1","","98.88","","","","","","NA"
"2018-02-28 07:00","2018","02","28","07:00","7.1","","1.6","","68","","21","","26","","24.1","","98.88","","","","","","Mostly Cloudy"
"2018-02-28 08:00","2018","02","28","08:00","5.8","","1.9","","76","","21","","16","","24.1","","98.86","","","","","","NA"
"2018-02-28 09:00","2018","02","28","09:00","7.5","","3.0","","73","","21","","19","","24.1","","98.83","","","","","","NA"
"2018-02-28 10:00","2018","02","28","10:00","8.6","","4.6","","76","","22","","23","","24.1","","98.84","","","","","","Mostly Cloudy"
"2018-02-28 11:00","2018","02","28","11:00","11.1","","5.3","","67","","23","","22","","24.1","","98.79","","","","","","NA"
"2018-02-28 12:00","2018","02","28","12:00","13.5","","8.5","","72","","23","","27","","24.1","","98.77","","","","","","NA"
"2018-02-28 13:00","2018","02","28","13:00","14.1","","8.4","","68","","24","","27","","24.1","","98.68","","","","","","Clear"
"2018-02-28 14:00","2018","02","28","14:00","15.3","","8.6","","64","","24","","25","","24.1","","98.66","","","","","","NA"
"2018-02-28 15:00","2018","02","28","15:00","15.7","","8.9","","64","","25","","27","","24.1","","98.63","","","","","","NA"
"2018-02-28 16:00","2018","02","28","16:00","14.8","","9.5","","70","","22","","26","","16.1","","98.65","","","","","","Mostly Cloudy"
"2018-02-28 17:00","2018","02","28","17:00","13.5","","9.1","","74","","22","","22","","16.1","","98.67","","","","","","NA"
"2018-02-28 18:00","2018","02","28","18:00","12.9","","8.8","","76","","24","","14","","16.1","","98.74","","","","","","NA"
"2018-02-28 19:00","2018","02","28","19:00","5.9","","1.0","","71","","4","","30","","16.1","","98.86","","","","","","Mostly Cloudy"
"2018-02-28 20:00","2018","02","28","20:00","4.6","","1.1","","78","","5","","22","","16.1","","98.95","","","","","","NA"
"2018-02-28 21:00","2018","02","28","21:00","3.2","","0.7","","84","","4","","23","","11.3","","98.96","","","","","","NA"
"2018-02-28 22:00","2018","02","28","22:00","2.2","","0.6","","89","","3","","28","","11.3","","98.98","","","","","","Mostly Cloudy"
"2018-02-28 23:00","2018","02","28","23:00","1.8","","0.8","","93","","3","","29","","24.1","","98.95","","","","","","NA"
