"Station Name","WINDSOR A"
"Province","ONTARIO"
"Latitude","42.28"
"Longitude","-82.96"
"Elevation","189.60"
"Climate Identifier","6139525"
"WMO Identifier","71538"
"TC Identifier","YQG"
"All times are specified in Local Standard Time (LST). Add 1 hour to adjust for Daylight Saving Time where and when it is observed."

"Legend"
"E","Estimated"
"M","Missing"
"NA","Not Available"

"Date/Time","Year","Month","Day","Time","Temp (°C)","Temp Flag","Dew Point Temp (°C)","Dew Point Temp Flag","Rel Hum (%)","Rel Hum Flag","Wind Dir (10s deg)","Wind Dir Flag","Wind Spd (km/h)","Wind Spd Flag","Visibility (km)","Visibility Flag","Stn Press (kPa)","Stn Press Flag","Hmdx","Hmdx Flag","Wind Chill","Wind Chill Flag","Weather"
"2014-02-01 00:00","2014","02","01","00:00","-1.7","","-2.5","","94","","24","","7","","6.4","","99.75","","","","-4","","Snow Showers,Fog"
"2014-02-01 01:00","2014","02","01","01:00","-2.1","","-2.5","","97","","27","","4","","6.4","","99.75","","","","-4","","Snow Showers,Fog"
"2014-02-01 02:00","2014","02","01","02:00","-2.5","","-2.8","","98","","35","","4","","3.2","","99.73","","","","-4","","Snow Showers,Fog"
"2014-02-01 03:00","2014","02","01","03:00","-2.6","","-2.7","","99","","8","","4","","2.4","","99.74","","","","-4","","Snow,Fog"
"2014-02-01 04:00","2014","02","01","04:00","-2.6","","-2.7","","99","","12","","4","","2.4","","99.69","","","","-4","","Snow,Fog"
"2014-02-01 05:00","2014","02","01","05:00","-2.7","","-2.8","","99","","9","","7","","3.2","","99.65","","","","-6","","Snow,Fog"
"2014-02-01 06:00","2014","02","01","06:00","-2.6","","-2.7","","99","","8","","7","","4.8","","99.63","","","","-5","","Snow,Fog"
"2014-02-01 07:00","2014","02","01","07:00","-2.5","","-2.5","","100","","11","","9","","4.8","","99.53","","","","-6","","Freezing Drizzle,Snow,Fog"
"2014-02-01 08:00","2014","02","01","08:00","-1.8","","-1.8","","100","","12","","13","","1.2","","99.44","","","","-6","","Fog"
"2014-02-01 09:00","2014","02","01","09:00","-1.2","","-1.2","","100","","10","","9","","1.0","","99.45","","","","-4","","Snow,Fog"
"2014-02-01 10:00","2014","02","01","10:00","-0.7","","-0.8","","99","","11","","13","","0.6","","99.33","","","","-5","","Moderate Snow,Freezing Fog"
"2014-02-01 11:00","2014","02","01","11:00","-0.5","","-0.5","","100","","11","","13","","1.0","","99.19","","","","-5","","Snow,Fog"
"2014-02-01 12:00","2014","02","01","12:00","0.2","","0.0","","99","","11","","6","","1.2","","99.12","","","","","","Snow,Fog"
"2014-02-01 13:00","2014","02","01","13:00","0.9","","0.9","","100","","15","","9","","2.0","","98.89","","","","","","Rain,Snow Pellets,Fog"
"2014-02-01 14:00","2014","02","01","14:00","1.5","","1.5","","100","","17","","11","","2.8","","98.66","","","","","","Rain,Fog"
"2014-02-01 15:00","2014","02","01","15:00","2.0","","2.0","","100","","23","","13","","2.4","","98.71","","","","","","Rain,Fog"
"2014-02-01 16:00","2014","02","01","16:00","1.7","","1.7","","100","","21","","15","","2.4","","98.65","","","","","","Moderate Rain,Fog"
"2014-02-01 17:00","2014","02","01","17:00","1.8","","1.8","","100","","25","","15","","2.4","","98.73","","","","","","Rain,Fog"
"2014-02-01 18:00","2014","02","01","18:00","1.6","","1.6","","100","","23","","15","","2.0","","98.71","","","","","","Rain,Fog"
"2014-02-01 19:00","2014","02","01","19:00","1.3","","1.3","","100","","26","","7","","1.6","","98.76","","","","","","Rain,Fog"
"2014-02-01 20:00","2014","02","01","20:00","1.3","","1.3","","100","","26","","13","","3.2","","98.85","","","","","","Rain,Snow,Fog"
"2014-02-01 21:00","2014","02","01","21:00","0.7","","0.7","","100","","29","","9","","2.0","","98.88","","","","","","Snow,Fog"
"2014-02-01 22:00","2014","02","01","22:00","0.1","","0.1","","100","","35","","13","","2.0","","98.98","","","","","","Snow,Fog"
"2014-02-01 23:00","2014","02","01","23:00","-1.3","","-1.5","","99","","36","","15","","3.2","","99.05","","","","-6","","Snow,Fog"
"2014-02-02 00:00","2014","02","02","00:00","-1.9","","-2.3","","97","","35","","11","","4.0","","99.14","","","","-6","","Snow,Fog"
"2014-02-02 01:00","2014","02","02","01:00","-2.0","","-2.8","","94","","34","","13","","8.0","","99.21","","","","-6","","Snow,Fog"
"2014-02-02 02:00","2014","02","02","02:00","-2.3","","-3.6","","91","","34","","9","","9.7","","99.22","","","","-6","","Fog"
"2014-02-02 03:00","2014","02","02","03:00","-2.8","","-4.0","","91","","33","","15","","9.7","","99.34","","","","-8","","Fog"
"2014-02-02 04:00","2014","02","02","04:00","-3.2","","-4.4","","91","","32","","15","","9.7","","99.38","","","","-8","","Fog"
"2014-02-02 05:00","2014","02","02","05:00","-3.8","","-5.0","","91","","33","","13","","9.7","","99.41","","","","-9","","Fog"
"2014-02-02 06:00","2014","02","02","06:00","-3.9","","-5.1","","91","","33","","13","","11.3","","99.50","","","","-9","","Cloudy"
"2014-02-02 07:00","2014","02","02","07:00","-4.1","","-5.8","","88","","34","","9","","11.3","","99.53","","","","-8","","Cloudy"
"2014-02-02 08:00","2014","02","02","08:00","-4.2","","-5.8","","89","","35","","7","","19.3","","99.60","","","","-7","","Cloudy"
"2014-02-02 09:00","2014","02","02","09:00","-4.3","","-5.9","","89","","30","","9","","24.1","","99.67","","","","-8","","Mostly Cloudy"
"2014-02-02 10:00","2014","02","02","10:00","-4.3","","-6.3","","86","","31","","15","","24.1","","99.72","","","","-10","","Cloudy"
"2014-02-02 11:00","2014","02","02","11:00","-4.5","","-6.8","","84","","35","","11","","19.3","","99.81","","","","-9","","Cloudy"
"2014-02-02 12:00","2014","02","02","12:00","-4.7","","-6.7","","86","","32","","17","","24.1","","99.84","","","","-11","","Cloudy"
"2014-02-02 13:00","2014","02","02","13:00","-4.2","","-6.8","","82","","31","","15","","24.1","","99.83","","","","-10","","Cloudy"
"2014-02-02 14:00","2014","02","02","14:00","-3.6","","-6.6","","80","","32","","15","","24.1","","99.76","","","","-9","","Cloudy"
"2014-02-02 15:00","2014","02","02","15:00","-3.4","","-6.8","","77","","31","","17","","24.1","","99.79","","","","-9","","Cloudy"
"2014-02-02 16:00","2014","02","02","16:00","-3.8","","-8.4","","70","","31","","19","","19.3","","99.99","","","","-10","","Cloudy"
"2014-02-02 17:00","2014","02","02","17:00","-3.8","","-8.0","","73","","33","","13","","19.3","","99.96","","","","-9","","Cloudy"
"2014-02-02 18:00","2014","02","02","18:00","-4.6","","-8.9","","72","","34","","11","","16.1","","100.05","","","","-9","","Cloudy"
"2014-02-02 19:00","2014","02","02","19:00","-4.9","","-9.3","","71","","34","","4","","16.1","","100.12","","","","-7","","Cloudy"
"2014-02-02 20:00","2014","02","02","20:00","-5.5","","-9.7","","72","","35","","6","","19.3","","100.12","","","","-8","","Mainly Clear"
"2014-02-02 21:00","2014","02","02","21:00","-5.2","","-10.0","","69","","35","","6","","19.3","","100.14","","","","-8","","Cloudy"
"2014-02-02 22:00","2014","02","02","22:00","-5.1","","-9.6","","71","","36","","7","","24.1","","100.15","","","","-8","","Mostly Cloudy"
"2014-02-02 23:00","2014","02","02","23:00","-5.4","","-9.5","","73","","1","","7","","24.1","","100.15","","","","-9","","Mostly Cloudy"
"2014-02-03 00:00","2014","02","03","00:00","-6.1","","-10.2","","73","","1","","9","","24.1","","100.15","","","","-10","","Cloudy"
"2014-02-03 01:00","2014","02","03","01:00","-6.7","","-9.2","","82","","5","","13","","24.1","","100.16","","","","-12","","Cloudy"
"2014-02-03 02:00","2014","02","03","02:00","-7.7","","-10.1","","83","","3","","7","","24.1","","100.16","","","","-11","","Mostly Cloudy"
"2014-02-03 03:00","2014","02","03","03:00","-7.7","","-11.0","","77","","36","","7","","24.1","","100.19","","","","-11","","Cloudy"
"2014-02-03 04:00","2014","02","03","04:00","-8.4","","-11.1","","81","","1","","7","","24.1","","100.17","","","","-12","","Cloudy"
"2014-02-03 05:00","2014","02","03","05:00","-9.0","","-11.2","","84","","36","","9","","24.1","","100.14","","","","-14","","Cloudy"
"2014-02-03 06:00","2014","02","03","06:00","-9.3","","-11.8","","82","","36","","9","","24.1","","100.18","","","","-14","","Mostly Cloudy"
"2014-02-03 07:00","2014","02","03","07:00","-10.3","","-12.8","","82","","36","","11","","24.1","","100.22","","","","-16","","Mainly Clear"
"2014-02-03 08:00","2014","02","03","08:00","-11.2","","-13.2","","85","","36","","11","","24.1","","100.32","","","","-17","","Mainly Clear"
"2014-02-03 09:00","2014","02","03","09:00","-9.9","","-13.0","","78","","1","","6","","24.1","","100.38","","","","-13","","Clear"
"2014-02-03 10:00","2014","02","03","10:00","-8.5","","-11.8","","77","","2","","9","","24.1","","100.45","","","","-13","","Clear"
"2014-02-03 11:00","2014","02","03","11:00","-7.2","","-10.3","","78","","4","","9","","24.1","","100.49","","","","-12","","Clear"
"2014-02-03 12:00","2014","02","03","12:00","-6.5","","-10.5","","73","","9","","7","","24.1","","100.45","","","","-10","","Clear"
"2014-02-03 13:00","2014","02","03","13:00","-6.1","","-10.5","","71","","15","","7","","24.1","","100.36","","","","-9","","Clear"
"2014-02-03 14:00","2014","02","03","14:00","-5.4","","-10.1","","69","","17","","9","","24.1","","100.36","","","","-9","","Mainly Clear"
"2014-02-03 15:00","2014","02","03","15:00","-5.2","","-10.7","","65","","14","","11","","24.1","","100.37","","","","-10","","Mainly Clear"
"2014-02-03 16:00","2014","02","03","16:00","-4.9","","-10.6","","64","","14","","11","","24.1","","100.41","","","","-9","","Clear"
"2014-02-03 17:00","2014","02","03","17:00","-5.6","","-10.3","","69","","20","","13","","24.1","","100.47","","","","-11","","Clear"
"2014-02-03 18:00","2014","02","03","18:00","-6.8","","-10.7","","74","","19","","13","","24.1","","100.44","","","","-12","","Mainly Clear"
"2014-02-03 19:00","2014","02","03","19:00","-7.9","","-11.0","","78","","19","","7","","24.1","","100.46","","","","-12","","Clear"
"2014-02-03 20:00","2014","02","03","20:00","-7.8","","-10.6","","80","","21","","11","","24.1","","100.49","","","","-13","","Mainly Clear"
"2014-02-03 21:00","2014","02","03","21:00","-8.3","","-10.6","","83","","21","","11","","24.1","","100.51","","","","-14","","Clear"
"2014-02-03 22:00","2014","02","03","22:00","-8.5","","-10.4","","86","","21","","11","","24.1","","100.53","","","","-14","","Mainly Clear"
"2014-02-03 23:00","2014","02","03","23:00","-9.7","","-11.0","","90","","27","","7","","19.3","","100.60","","","","-14","","Mainly Clear"
"2014-02-04 00:00","2014","02","04","00:00","-10.0","","-11.5","","89","","22","","7","","19.3","","100.60","","","","-14","","Mainly Clear"
"2014-02-04 01:00","2014","02","04","01:00","-10.2","","-11.3","","92","","22","","7","","24.1","","100.62","","","","-14","","Mainly Clear"
"2014-02-04 02:00","2014","02","04","02:00","-11.0","","-12.0","","92","","18","","4","","24.1","","100.61","","","","-13","","Mainly Clear"
"2014-02-04 03:00","2014","02","04","03:00","-11.7","","-12.6","","93","","","","0","","24.1","","100.62","","","","","","Mainly Clear"
"2014-02-04 04:00","2014","02","04","04:00","-11.2","","-12.4","","91","","26","","6","","24.1","","100.62","","","","-15","","Mainly Clear"
"2014-02-04 05:00","2014","02","04","05:00","-11.7","","-12.7","","92","","","","0","","24.1","","100.67","","","","","","Mainly Clear"
"2014-02-04 06:00","2014","02","04","06:00","-11.0","","-12.4","","89","","23","","4","","24.1","","100.76","","","","-13","","Mainly Clear"
"2014-02-04 07:00","2014","02","04","07:00","-11.9","","-12.9","","92","","18","","4","","12.9","","100.75","","","","-14","","Cloudy"
"2014-02-04 08:00","2014","02","04","08:00","-11.7","","-12.8","","92","","","","0","","9.7","","100.73","","","","","","Fog"
"2014-02-04 09:00","2014","02","04","09:00","-9.7","","-11.2","","89","","","","0","","9.7","","100.76","","","","","","Fog"
"2014-02-04 10:00","2014","02","04","10:00","-8.4","","-10.7","","83","","","","0","","9.7","","100.80","","","","","","Haze"
"2014-02-04 11:00","2014","02","04","11:00","-8.1","","-10.2","","85","","","","0","","9.7","","100.78","","","","","","Haze"
"2014-02-04 12:00","2014","02","04","12:00","-7.2","","-10.2","","79","","8","","6","","11.3","","100.68","","","","-10","","Mostly Cloudy"
"2014-02-04 13:00","2014","02","04","13:00","-5.7","","-11.3","","65","","8","","11","","16.1","","100.51","","","","-10","","Mostly Cloudy"
"2014-02-04 14:00","2014","02","04","14:00","-5.8","","-11.0","","67","","8","","7","","16.1","","100.49","","","","-9","","Cloudy"
"2014-02-04 15:00","2014","02","04","15:00","-5.7","","-10.6","","68","","7","","9","","16.1","","100.42","","","","-10","","Cloudy"
"2014-02-04 16:00","2014","02","04","16:00","-5.7","","-10.0","","72","","8","","7","","16.1","","100.45","","","","-9","","Cloudy"
"2014-02-04 17:00","2014","02","04","17:00","-5.9","","-9.3","","77","","7","","7","","16.1","","100.45","","","","-9","","Cloudy"
"2014-02-04 18:00","2014","02","04","18:00","-6.0","","-8.3","","84","","7","","13","","11.3","","100.35","","","","-11","","Cloudy"
"2014-02-04 19:00","2014","02","04","19:00","-5.8","","-8.2","","83","","6","","13","","11.3","","100.35","","","","-11","","Cloudy"
"2014-02-04 20:00","2014","02","04","20:00","-5.9","","-9.1","","78","","6","","17","","11.3","","100.24","","","","-12","","Snow"
"2014-02-04 21:00","2014","02","04","21:00","-6.0","","-9.0","","79","","6","","19","","11.3","","100.15","","","","-13","","Snow"
"2014-02-04 22:00","2014","02","04","22:00","-6.5","","-8.1","","88","","6","","19","","2.4","","100.06","","","","-13","","Snow"
"2014-02-04 23:00","2014","02","04","23:00","-6.6","","-7.6","","93","","4","","20","","1.6","","99.98","","","","-14","","Snow"
"2014-02-05 00:00","2014","02","05","00:00","-6.6","","-7.6","","93","","4","","30","","2.0","","99.75","","","","-15","","Snow"
"2014-02-05 01:00","2014","02","05","01:00","-6.9","","-7.9","","93","","6","","28","","1.6","","99.65","","","","-15","","Snow"
"2014-02-05 02:00","2014","02","05","02:00","-6.8","","-7.6","","94","","5","","26","","1.6","","99.50","","","","-15","","Snow"
"2014-02-05 03:00","2014","02","05","03:00","-6.8","","-7.4","","95","","4","","30","","1.6","","99.47","","","","-15","","Snow"
"2014-02-05 04:00","2014","02","05","04:00","-6.6","","-7.4","","94","","4","","33","","3.2","","99.29","","","","-15","","Snow"
"2014-02-05 05:00","2014","02","05","05:00","-6.4","","-7.3","","93","","4","","32","","3.2","","99.09","","","","-15","","Snow,Blowing Snow"
"2014-02-05 06:00","2014","02","05","06:00","-6.1","","-6.8","","95","","4","","39","","1.6","","98.83","","","","-15","","Snow,Blowing Snow"
"2014-02-05 07:00","2014","02","05","07:00","-6.1","","-6.8","","95","","2","","37","","1.2","","98.83","","","","-15","","Snow,Blowing Snow"
"2014-02-05 08:00","2014","02","05","08:00","-6.0","","-6.6","","96","","2","","28","","0.6","","98.91","","","","-14","","Snow,Blowing Snow"
"2014-02-05 09:00","2014","02","05","09:00","-6.1","","-6.6","","96","","2","","35","","0.2","","98.85","","","","-15","","Moderate Snow,Blowing Snow"
"2014-02-05 10:00","2014","02","05","10:00","-6.0","","-6.8","","94","","2","","32","","0.6","","98.95","","","","-15","","Snow,Blowing Snow"
"2014-02-05 11:00","2014","02","05","11:00","-5.7","","-6.5","","94","","1","","26","","0.4","","99.10","","","","-13","","Moderate Snow,Blowing Snow"
"2014-02-05 12:00","2014","02","05","12:00","-5.7","","-6.8","","92","","1","","24","","1.0","","99.16","","","","-13","","Snow,Blowing Snow"
"2014-02-05 13:00","2014","02","05","13:00","-5.3","","-6.8","","89","","36","","26","","1.6","","99.29","","","","-13","","Snow,Blowing Snow"
"2014-02-05 14:00","2014","02","05","14:00","-4.7","","-7.4","","81","","1","","30","","16.1","","99.35","","","","-13","","Snow"
"2014-02-05 15:00","2014","02","05","15:00","-5.0","","-7.8","","81","","35","","32","","19.3","","99.52","","","","-13","","Snow Showers"
"2014-02-05 16:00","2014","02","05","16:00","-5.4","","-9.8","","71","","35","","26","","19.3","","99.66","","","","-13","","Mainly Clear"
"2014-02-05 17:00","2014","02","05","17:00","-6.1","","-10.7","","70","","36","","20","","24.1","","99.82","","","","-13","","Mainly Clear"
"2014-02-05 18:00","2014","02","05","18:00","-6.9","","-11.2","","71","","1","","20","","16.1","","100.01","","","","-14","","Mainly Clear"
"2014-02-05 19:00","2014","02","05","19:00","-7.3","","-11.6","","71","","36","","24","","19.3","","100.14","","","","-15","","Snow Showers"
"2014-02-05 20:00","2014","02","05","20:00","-8.4","","-13.0","","69","","36","","19","","24.1","","100.25","","","","-16","","Mainly Clear"
"2014-02-05 21:00","2014","02","05","21:00","-9.9","","-13.9","","73","","34","","9","","19.3","","100.36","","","","-15","","Mainly Clear"
"2014-02-05 22:00","2014","02","05","22:00","-11.0","","-14.5","","75","","35","","6","","24.1","","100.42","","","","-15","","Mainly Clear"
"2014-02-05 23:00","2014","02","05","23:00","-11.0","","-14.6","","75","","33","","7","","16.1","","100.43","","","","-15","","Mainly Clear"
"2014-02-06 00:00","2014","02","06","00:00","-10.8","","-14.3","","75","","33","","9","","16.1","","100.45","","","","-16","","Mainly Clear"
"2014-02-06 01:00","2014","02","06","01:00","-12.6","","-14.8","","84","","31","","7","","19.3","","100.46","","","","-17","","Mainly Clear"
"2014-02-06 02:00","2014","02","06","02:00","-13.4","","-15.0","","88","","28","","9","","19.3","","100.46","","","","-19","","Mainly Clear"
"2014-02-06 03:00","2014","02","06","03:00","-14.2","","-15.2","","92","","23","","7","","19.3","","100.47","","","","-19","","Mainly Clear"
"2014-02-06 04:00","2014","02","06","04:00","-14.1","","-15.3","","91","","25","","11","","19.3","","100.46","","","","-21","","Mainly Clear"
"2014-02-06 05:00","2014","02","06","05:00","-12.4","","-14.6","","84","","31","","9","","24.1","","100.48","","","","-18","","Mostly Cloudy"
"2014-02-06 06:00","2014","02","06","06:00","-13.5","","-15.6","","84","","27","","9","","24.1","","100.50","","","","-19","","Mainly Clear"
"2014-02-06 07:00","2014","02","06","07:00","-14.5","","-15.3","","94","","21","","6","","24.1","","100.47","","","","-19","","Mostly Cloudy"
"2014-02-06 08:00","2014","02","06","08:00","-13.4","","-14.8","","89","","23","","9","","19.3","","100.50","","","","-19","","Cloudy"
"2014-02-06 09:00","2014","02","06","09:00","-12.4","","-14.0","","88","","23","","13","","9.7","","100.50","","","","-19","","Snow Showers"
"2014-02-06 10:00","2014","02","06","10:00","-12.0","","-13.5","","89","","21","","9","","9.7","","100.49","","","","-17","","Snow Showers"
"2014-02-06 11:00","2014","02","06","11:00","-10.6","","-12.9","","83","","22","","20","","11.3","","100.48","","","","-19","","Snow Showers"
"2014-02-06 12:00","2014","02","06","12:00","-8.7","","-11.2","","82","","21","","26","","11.3","","100.45","","","","-17","","Snow Showers"
"2014-02-06 13:00","2014","02","06","13:00","-8.4","","-10.7","","83","","21","","26","","11.3","","100.33","","","","-17","","Snow Showers"
"2014-02-06 14:00","2014","02","06","14:00","-7.0","","-11.2","","72","","24","","32","","16.1","","100.22","","","","-16","","Snow Showers"
"2014-02-06 15:00","2014","02","06","15:00","-7.2","","-11.0","","74","","22","","30","","12.9","","100.17","","","","-16","","Snow Showers"
"2014-02-06 16:00","2014","02","06","16:00","-7.5","","-10.7","","78","","24","","24","","16.1","","100.16","","","","-15","","Snow Showers"
"2014-02-06 17:00","2014","02","06","17:00","-8.5","","-12.3","","74","","24","","30","","24.1","","100.14","","","","-18","","Snow Showers"
"2014-02-06 18:00","2014","02","06","18:00","-10.1","","-14.0","","73","","23","","28","","24.1","","100.15","","","","-19","","Mainly Clear"
"2014-02-06 19:00","2014","02","06","19:00","-11.4","","-15.2","","73","","24","","28","","24.1","","100.20","","","","-21","","Mainly Clear"
"2014-02-06 20:00","2014","02","06","20:00","-12.7","","-16.0","","76","","24","","24","","24.1","","100.22","","","","-22","","Mostly Cloudy"
"2014-02-06 21:00","2014","02","06","21:00","-13.3","","-16.5","","77","","25","","26","","24.1","","100.26","","","","-23","","Mainly Clear"
"2014-02-06 22:00","2014","02","06","22:00","-13.6","","-16.5","","79","","24","","24","","24.1","","100.33","","","","-23","","Cloudy"
"2014-02-06 23:00","2014","02","06","23:00","-13.8","","-16.9","","77","","25","","28","","24.1","","100.36","","","","-24","","Cloudy"
"2014-02-07 00:00","2014","02","07","00:00","-14.6","","-20.6","","60","","25","","28","","24.1","","100.33","","","","-25","","Cloudy"
"2014-02-07 01:00","2014","02","07","01:00","-16.2","","-21.1","","66","","24","","19","","24.1","","100.32","","","","-25","","Mainly Clear"
"2014-02-07 02:00","2014","02","07","02:00","-17.4","","-22.0","","67","","24","","22","","24.1","","100.30","","","","-28","","Mainly Clear"
"2014-02-07 03:00","2014","02","07","03:00","-18.0","","-22.6","","67","","24","","20","","24.1","","100.32","","","","-28","","Mainly Clear"
"2014-02-07 04:00","2014","02","07","04:00","-18.7","","-22.6","","71","","23","","20","","24.1","","100.32","","","","-29","","Mainly Clear"
"2014-02-07 05:00","2014","02","07","05:00","-18.0","","-21.9","","71","","23","","19","","24.1","","100.32","","","","-28","","Mostly Cloudy"
"2014-02-07 06:00","2014","02","07","06:00","-18.7","","-22.3","","73","","23","","22","","24.1","","100.33","","","","-29","","Mostly Cloudy"
"2014-02-07 07:00","2014","02","07","07:00","-19.1","","-22.7","","73","","23","","24","","19.3","","100.34","","","","-30","","Cloudy"
"2014-02-07 08:00","2014","02","07","08:00","-18.8","","-22.4","","73","","22","","26","","16.1","","100.37","","","","-30","","Cloudy"
"2014-02-07 09:00","2014","02","07","09:00","-17.9","","-21.5","","73","","22","","24","","12.9","","100.42","","","","-29","","Cloudy"
"2014-02-07 10:00","2014","02","07","10:00","-17.4","","-21.1","","73","","22","","20","","12.9","","100.44","","","","-27","","Cloudy"
"2014-02-07 11:00","2014","02","07","11:00","-16.3","","-20.7","","69","","23","","9","","16.1","","100.46","","","","-22","","Mostly Cloudy"
"2014-02-07 12:00","2014","02","07","12:00","-14.8","","-19.7","","66","","24","","32","","19.3","","100.41","","","","-26","","Mainly Clear"
"2014-02-07 13:00","2014","02","07","13:00","-13.6","","-18.6","","66","","23","","35","","19.3","","100.33","","","","-25","","Clear"
"2014-02-07 14:00","2014","02","07","14:00","-12.6","","-18.1","","63","","23","","26","","19.3","","100.29","","","","-22","","Clear"
"2014-02-07 15:00","2014","02","07","15:00","-12.4","","-19.0","","58","","23","","32","","24.1","","100.26","","","","-23","","Clear"
"2014-02-07 16:00","2014","02","07","16:00","-12.2","","-19.0","","57","","24","","32","","24.1","","100.30","","","","-23","","Clear"
"2014-02-07 17:00","2014","02","07","17:00","-12.7","","-19.2","","58","","23","","30","","24.1","","100.33","","","","-23","","Clear"
"2014-02-07 18:00","2014","02","07","18:00","-13.2","","-19.5","","59","","23","","24","","24.1","","100.36","","","","-23","","Clear"
"2014-02-07 19:00","2014","02","07","19:00","-13.8","","-19.6","","62","","23","","26","","24.1","","100.40","","","","-24","","Clear"
"2014-02-07 20:00","2014","02","07","20:00","-14.2","","-19.7","","63","","23","","24","","24.1","","100.41","","","","-24","","Clear"
"2014-02-07 21:00","2014","02","07","21:00","-14.5","","-20.0","","63","","23","","20","","24.1","","100.41","","","","-24","","Clear"
"2014-02-07 22:00","2014","02","07","22:00","-15.9","","-20.6","","67","","23","","19","","24.1","","100.41","","","","-25","","Clear"
"2014-02-07 23:00","2014","02","07","23:00","-15.6","","-20.7","","65","","23","","19","","24.1","","100.38","","","","-25","","Clear"
"2014-02-08 00:00","2014","02","08","00:00","-16.1","","-20.9","","66","","24","","17","","24.1","","100.39","","","","-25","","Clear"
"2014-02-08 01:00","2014","02","08","01:00","-16.4","","-21.0","","68","","24","","17","","24.1","","100.39","","","","-25","","Mainly Clear"
"2014-02-08 02:00","2014","02","08","02:00","-15.9","","-20.8","","66","","25","","19","","24.1","","100.36","","","","-25","","Mostly Cloudy"
"2014-02-08 03:00","2014","02","08","03:00","-15.2","","-20.0","","67","","25","","15","","24.1","","100.36","","","","-23","","Mostly Cloudy"
"2014-02-08 04:00","2014","02","08","04:00","-14.5","","-19.3","","67","","23","","17","","24.1","","100.35","","","","-23","","Mostly Cloudy"
"2014-02-08 05:00","2014","02","08","05:00","-14.6","","-19.2","","68","","24","","13","","24.1","","100.35","","","","-22","","Mostly Cloudy"
"2014-02-08 06:00","2014","02","08","06:00","-15.1","","-19.4","","70","","24","","13","","24.1","","100.34","","","","-22","","Mostly Cloudy"
"2014-02-08 07:00","2014","02","08","07:00","-15.1","","-19.5","","69","","24","","13","","24.1","","100.33","","","","-22","","Mostly Cloudy"
"2014-02-08 08:00","2014","02","08","08:00","-14.3","","-18.6","","70","","21","","11","","24.1","","100.39","","","","-21","","Cloudy"
"2014-02-08 09:00","2014","02","08","09:00","-13.6","","-18.1","","69","","22","","13","","19.3","","100.42","","","","-21","","Cloudy"
"2014-02-08 10:00","2014","02","08","10:00","-12.5","","-17.1","","68","","23","","6","","19.3","","100.36","","","","-16","","Snow"
"2014-02-08 11:00","2014","02","08","11:00","-11.7","","-15.0","","76","","20","","6","","19.3","","100.30","","","","-15","","Snow"
"2014-02-08 12:00","2014","02","08","12:00","-10.6","","-14.3","","74","","22","","11","","9.7","","100.26","","","","-16","","Snow"
"2014-02-08 13:00","2014","02","08","13:00","-9.6","","-13.1","","76","","23","","13","","12.9","","100.19","","","","-16","","Snow"
"2014-02-08 14:00","2014","02","08","14:00","-8.2","","-12.1","","73","","20","","11","","12.9","","100.13","","","","-13","","Snow"
"2014-02-08 15:00","2014","02","08","15:00","-8.3","","-11.7","","76","","19","","15","","9.7","","100.08","","","","-15","","Snow"
"2014-02-08 16:00","2014","02","08","16:00","-9.1","","-12.0","","79","","20","","17","","24.1","","100.03","","","","-16","","Mostly Cloudy"
"2014-02-08 17:00","2014","02","08","17:00","-9.5","","-11.8","","83","","19","","13","","24.1","","100.00","","","","-16","","Mostly Cloudy"
"2014-02-08 18:00","2014","02","08","18:00","-9.8","","-12.3","","82","","21","","15","","8.0","","100.01","","","","-16","","Snow"
"2014-02-08 19:00","2014","02","08","19:00","-10.3","","-11.6","","90","","20","","17","","2.4","","100.03","","","","-18","","Snow"
"2014-02-08 20:00","2014","02","08","20:00","-10.4","","-11.5","","92","","20","","13","","4.8","","100.02","","","","-17","","Snow"
"2014-02-08 21:00","2014","02","08","21:00","-10.4","","-11.5","","92","","21","","15","","2.4","","99.99","","","","-17","","Snow"
"2014-02-08 22:00","2014","02","08","22:00","-10.4","","-11.4","","92","","21","","13","","9.7","","99.96","","","","-17","","Snow"
"2014-02-08 23:00","2014","02","08","23:00","-10.7","","-11.5","","94","","21","","11","","6.4","","99.95","","","","-16","","Snow"
"2014-02-09 00:00","2014","02","09","00:00","-10.6","","-11.5","","93","","22","","7","","8.0","","99.89","","","","-15","","Snow"
"2014-02-09 01:00","2014","02","09","01:00","-10.6","","-11.4","","94","","19","","6","","11.3","","99.83","","","","-14","","Snow"
"2014-02-09 02:00","2014","02","09","02:00","-10.6","","-11.5","","93","","19","","6","","9.7","","99.77","","","","-14","","Snow"
"2014-02-09 03:00","2014","02","09","03:00","-10.8","","-11.6","","94","","17","","6","","9.7","","99.73","","","","-14","","Snow"
"2014-02-09 04:00","2014","02","09","04:00","-10.7","","-11.5","","94","","","","0","","9.7","","99.71","","","","","","Snow"
"2014-02-09 05:00","2014","02","09","05:00","-10.6","","-11.4","","94","","","","0","","11.3","","99.66","","","","","","Snow"
"2014-02-09 06:00","2014","02","09","06:00","-10.2","","-10.9","","95","","","","0","","2.4","","99.68","","","","","","Snow"
"2014-02-09 07:00","2014","02","09","07:00","-10.2","","-10.9","","95","","7","","4","","2.4","","99.56","","","","-13","","Snow"
"2014-02-09 08:00","2014","02","09","08:00","-10.2","","-11.0","","94","","","","0","","2.4","","99.54","","","","","","Snow"
"2014-02-09 09:00","2014","02","09","09:00","-9.7","","-10.6","","93","","","","0","","1.6","","99.50","","","","","","Snow"
"2014-02-09 10:00","2014","02","09","10:00","-8.7","","-10.1","","90","","","","0","","1.6","","99.47","","","","","","Snow"
"2014-02-09 11:00","2014","02","09","11:00","-8.2","","-10.2","","85","","28","","7","","3.2","","99.44","","","","-12","","Snow"
"2014-02-09 12:00","2014","02","09","12:00","-7.9","","-10.5","","82","","27","","13","","9.7","","99.40","","","","-14","","Haze"
"2014-02-09 13:00","2014","02","09","13:00","-7.0","","-10.5","","76","","30","","17","","11.3","","99.36","","","","-13","","Mostly Cloudy"
"2014-02-09 14:00","2014","02","09","14:00","-6.5","","-11.1","","70","","28","","20","","19.3","","99.34","","","","-13","","Mostly Cloudy"
"2014-02-09 15:00","2014","02","09","15:00","-5.4","","-11.1","","64","","29","","19","","19.3","","99.36","","","","-12","","Mainly Clear"
"2014-02-09 16:00","2014","02","09","16:00","-4.7","","-11.4","","59","","30","","19","","24.1","","99.36","","","","-11","","Mostly Cloudy"
"2014-02-09 17:00","2014","02","09","17:00","-5.8","","-10.3","","70","","31","","19","","16.1","","99.45","","","","-12","","Snow Showers"
"2014-02-09 18:00","2014","02","09","18:00","-6.0","","-10.9","","68","","29","","15","","12.9","","99.58","","","","-12","","Snow Showers"
"2014-02-09 19:00","2014","02","09","19:00","-6.2","","-9.8","","76","","29","","13","","24.1","","99.74","","","","-12","","Cloudy"
"2014-02-09 20:00","2014","02","09","20:00","-6.6","","-11.3","","69","","30","","7","","24.1","","99.73","","","","-10","","Mostly Cloudy"
"2014-02-09 21:00","2014","02","09","21:00","-9.4","","-12.1","","81","","25","","9","","24.1","","99.77","","","","-14","","Mostly Cloudy"
"2014-02-09 22:00","2014","02","09","22:00","-7.9","","-11.0","","78","","27","","11","","24.1","","99.82","","","","-13","","Cloudy"
"2014-02-09 23:00","2014","02","09","23:00","-7.1","","-9.7","","82","","27","","15","","12.9","","99.81","","","","-13","","Snow Showers"
"2014-02-10 00:00","2014","02","10","00:00","-7.4","","-10.7","","77","","28","","17","","19.3","","99.83","","","","-14","","Snow Showers"
"2014-02-10 01:00","2014","02","10","01:00","-8.3","","-11.6","","77","","26","","15","","24.1","","99.83","","","","-15","","Mostly Cloudy"
"2014-02-10 02:00","2014","02","10","02:00","-8.5","","-11.1","","81","","27","","19","","19.3","","99.87","","","","-16","","Snow Showers"
"2014-02-10 03:00","2014","02","10","03:00","-8.8","","-10.9","","85","","28","","13","","11.3","","99.89","","","","-15","","Snow Showers"
"2014-02-10 04:00","2014","02","10","04:00","-9.1","","-11.2","","85","","29","","17","","16.1","","99.92","","","","-16","","Snow Showers"
"2014-02-10 05:00","2014","02","10","05:00","-10.0","","-11.9","","86","","29","","11","","19.3","","99.94","","","","-16","","Mostly Cloudy"
"2014-02-10 06:00","2014","02","10","06:00","-10.6","","-12.2","","88","","28","","17","","19.3","","99.99","","","","-18","","Mostly Cloudy"
"2014-02-10 07:00","2014","02","10","07:00","-11.7","","-12.8","","92","","29","","11","","16.1","","100.05","","","","-18","","Mainly Clear"
"2014-02-10 08:00","2014","02","10","08:00","-11.7","","-12.9","","91","","28","","13","","11.3","","100.13","","","","-18","","Clear"
"2014-02-10 09:00","2014","02","10","09:00","-10.3","","-12.1","","87","","29","","17","","12.9","","100.20","","","","-18","","Clear"
"2014-02-10 10:00","2014","02","10","10:00","-9.2","","-11.8","","81","","28","","20","","16.1","","100.25","","","","-17","","Clear"
"2014-02-10 11:00","2014","02","10","11:00","-7.9","","-12.0","","72","","29","","17","","19.3","","100.27","","","","-15","","Mainly Clear"
"2014-02-10 12:00","2014","02","10","12:00","-7.5","","-12.2","","69","","28","","13","","19.3","","100.26","","","","-13","","Mainly Clear"
"2014-02-10 13:00","2014","02","10","13:00","-7.1","","-13.3","","61","","30","","15","","24.1","","100.20","","","","-13","","Mainly Clear"
"2014-02-10 14:00","2014","02","10","14:00","-6.6","","-12.7","","62","","30","","19","","16.1","","100.14","","","","-13","","Snow Showers"
"2014-02-10 15:00","2014","02","10","15:00","-6.4","","-13.5","","57","","31","","15","","16.1","","100.15","","","","-12","","Snow Showers"
"2014-02-10 16:00","2014","02","10","16:00","-6.4","","-12.6","","61","","29","","15","","16.1","","100.20","","","","-12","","Snow Showers"
"2014-02-10 17:00","2014","02","10","17:00","-6.8","","-13.7","","58","","31","","15","","19.3","","100.22","","","","-13","","Mostly Cloudy"
"2014-02-10 18:00","2014","02","10","18:00","-7.0","","-13.3","","61","","32","","11","","19.3","","100.29","","","","-12","","Mostly Cloudy"
"2014-02-10 19:00","2014","02","10","19:00","-7.2","","-14.1","","58","","31","","15","","19.3","","100.33","","","","-13","","Mostly Cloudy"
"2014-02-10 20:00","2014","02","10","20:00","-7.3","","-13.1","","63","","35","","4","","19.3","","100.38","","","","-9","","Cloudy"
"2014-02-10 21:00","2014","02","10","21:00","-7.6","","-12.2","","70","","36","","13","","24.1","","100.40","","","","-13","","Mostly Cloudy"
"2014-02-10 22:00","2014","02","10","22:00","-8.1","","-12.3","","72","","33","","11","","24.1","","100.45","","","","-13","","Mostly Cloudy"
"2014-02-10 23:00","2014","02","10","23:00","-9.7","","-14.8","","66","","31","","24","","24.1","","100.49","","","","-18","","Snow Showers"
"2014-02-11 00:00","2014","02","11","00:00","-10.6","","-15.0","","70","","29","","17","","24.1","","100.51","","","","-18","","Mostly Cloudy"
"2014-02-11 01:00","2014","02","11","01:00","-11.1","","-15.1","","72","","30","","13","","24.1","","100.52","","","","-18","","Mostly Cloudy"
"2014-02-11 02:00","2014","02","11","02:00","-11.1","","-15.0","","73","","30","","11","","24.1","","100.56","","","","-17","","Mostly Cloudy"
"2014-02-11 03:00","2014","02","11","03:00","-11.7","","-15.2","","75","","29","","13","","24.1","","100.58","","","","-18","","Mostly Cloudy"
"2014-02-11 04:00","2014","02","11","04:00","-12.8","","-15.8","","78","","28","","9","","24.1","","100.57","","","","-18","","Mainly Clear"
"2014-02-11 05:00","2014","02","11","05:00","-13.1","","-15.8","","80","","31","","4","","24.1","","100.60","","","","-16","","Mostly Cloudy"
"2014-02-11 06:00","2014","02","11","06:00","-12.0","","-15.4","","76","","34","","11","","24.1","","100.66","","","","-18","","Cloudy"
"2014-02-11 07:00","2014","02","11","07:00","-11.3","","-14.4","","78","","3","","9","","24.1","","100.72","","","","-16","","Snow Showers"
"2014-02-11 08:00","2014","02","11","08:00","-11.7","","-14.9","","77","","3","","13","","16.1","","100.82","","","","-18","","Snow Showers"
"2014-02-11 09:00","2014","02","11","09:00","-12.7","","-15.1","","82","","6","","17","","4.8","","100.88","","","","-21","","Snow Showers"
"2014-02-11 10:00","2014","02","11","10:00","-12.2","","-14.4","","84","","4","","13","","4.0","","100.92","","","","-19","","Snow Showers"
"2014-02-11 11:00","2014","02","11","11:00","-12.3","","-14.7","","82","","6","","7","","6.4","","100.96","","","","-17","","Snow Showers"
"2014-02-11 12:00","2014","02","11","12:00","-11.4","","-14.3","","79","","9","","11","","11.3","","100.96","","","","-17","","Snow Showers"
"2014-02-11 13:00","2014","02","11","13:00","-10.7","","-15.2","","69","","5","","7","","12.9","","100.92","","","","-15","","Mainly Clear"
"2014-02-11 14:00","2014","02","11","14:00","-10.8","","-14.9","","72","","12","","7","","11.3","","100.90","","","","-15","","Snow Showers"
"2014-02-11 15:00","2014","02","11","15:00","-10.7","","-15.0","","71","","16","","9","","16.1","","100.89","","","","-16","","Snow Showers"
"2014-02-11 16:00","2014","02","11","16:00","-11.0","","-16.0","","67","","14","","9","","16.1","","100.90","","","","-16","","Mostly Cloudy"
"2014-02-11 17:00","2014","02","11","17:00","-11.7","","-17.9","","60","","12","","9","","24.1","","100.90","","","","-17","","Mainly Clear"
"2014-02-11 18:00","2014","02","11","18:00","-13.1","","-20.0","","56","","13","","6","","24.1","","100.95","","","","-17","","Mainly Clear"
"2014-02-11 19:00","2014","02","11","19:00","-14.2","","-19.9","","62","","15","","7","","24.1","","100.96","","","","-19","","Mainly Clear"
"2014-02-11 20:00","2014","02","11","20:00","-15.6","","-20.1","","68","","15","","7","","24.1","","100.94","","","","-21","","Mostly Cloudy"
"2014-02-11 21:00","2014","02","11","21:00","-16.7","","-20.6","","72","","","","0","","24.1","","100.95","","","","","","Mostly Cloudy"
"2014-02-11 22:00","2014","02","11","22:00","-17.7","","-21.1","","75","","17","","6","","24.1","","100.90","","","","-22","","Mainly Clear"
"2014-02-11 23:00","2014","02","11","23:00","-17.6","","-20.6","","77","","22","","6","","24.1","","100.92","","","","-22","","Mainly Clear"
"2014-02-12 00:00","2014","02","12","00:00","-18.1","","-21.1","","77","","15","","7","","24.1","","100.87","","","","-23","","Clear"
"2014-02-12 01:00","2014","02","12","01:00","-19.5","","-22.5","","77","","17","","6","","24.1","","100.86","","","","-24","","Clear"
"2014-02-12 02:00","2014","02","12","02:00","-17.6","","-19.9","","82","","15","","6","","24.1","","100.80","","","","-22","","Clear"
"2014-02-12 03:00","2014","02","12","03:00","-20.1","","-23.2","","76","","14","","4","","24.1","","100.73","","","","-24","","Clear"
"2014-02-12 04:00","2014","02","12","04:00","-19.9","","-23.1","","76","","","","0","","24.1","","100.65","","","","","","Clear"
"2014-02-12 05:00","2014","02","12","05:00","-20.8","","-23.7","","77","","","","0","","24.1","","100.70","","","","","","Clear"
"2014-02-12 06:00","2014","02","12","06:00","-21.3","","-24.7","","74","","","","0","","12.9","","100.69","","","","","","Clear"
"2014-02-12 07:00","2014","02","12","07:00","-22.2","","-25.6","","74","","","","0","","0.8","","100.63","","","","","","Freezing Fog"
"2014-02-12 08:00","2014","02","12","08:00","-19.6","","-22.2","","80","","5","","6","","8.0","","100.57","","","","-25","","Haze"
"2014-02-12 09:00","2014","02","12","09:00","-16.9","","-19.0","","84","","","","0","","9.7","","100.51","","","","","","Haze"
"2014-02-12 10:00","2014","02","12","10:00","-16.9","","-19.4","","81","","8","","6","","11.3","","100.47","","","","-21","","Mainly Clear"
"2014-02-12 11:00","2014","02","12","11:00","-15.5","","-18.2","","80","","","","0","","12.9","","100.48","","","","","","Mainly Clear"
"2014-02-12 12:00","2014","02","12","12:00","-11.7","","-15.4","","74","","13","","6","","24.1","","100.38","","","","-15","","Mainly Clear"
"2014-02-12 13:00","2014","02","12","13:00","-9.9","","-15.0","","66","","11","","6","","24.1","","100.22","","","","-13","","Mainly Clear"
"2014-02-12 14:00","2014","02","12","14:00","-9.6","","-14.8","","66","","15","","7","","24.1","","100.07","","","","-14","","Mainly Clear"
"2014-02-12 15:00","2014","02","12","15:00","-8.7","","-14.2","","64","","16","","7","","24.1","","99.94","","","","-13","","Mainly Clear"
"2014-02-12 16:00","2014","02","12","16:00","-8.6","","-14.0","","65","","13","","9","","19.3","","99.88","","","","-13","","Mostly Cloudy"
"2014-02-12 17:00","2014","02","12","17:00","-8.3","","-14.0","","63","","","","0","","24.1","","99.89","","","","","","Mostly Cloudy"
"2014-02-12 18:00","2014","02","12","18:00","-9.8","","-14.3","","70","","13","","6","","24.1","","99.83","","","","-13","","Mostly Cloudy"
"2014-02-12 19:00","2014","02","12","19:00","-11.7","","-14.6","","79","","12","","9","","24.1","","99.84","","","","-17","","Mostly Cloudy"
"2014-02-12 20:00","2014","02","12","20:00","-13.1","","-14.5","","89","","14","","7","","24.1","","99.83","","","","-18","","Mostly Cloudy"
"2014-02-12 21:00","2014","02","12","21:00","-12.1","","-13.6","","89","","13","","7","","19.3","","99.84","","","","-16","","Mostly Cloudy"
"2014-02-12 22:00","2014","02","12","22:00","-11.6","","-13.1","","89","","","","0","","16.1","","99.79","","","","","","Cloudy"
"2014-02-12 23:00","2014","02","12","23:00","-11.1","","-13.2","","84","","","","0","","16.1","","99.73","","","","","","Cloudy"
"2014-02-13 00:00","2014","02","13","00:00","-10.7","","-13.1","","82","","11","","6","","12.9","","99.63","","","","-14","","Cloudy"
"2014-02-13 01:00","2014","02","13","01:00","-10.4","","-13.4","","79","","14","","9","","12.9","","99.60","","","","-15","","Cloudy"
"2014-02-13 02:00","2014","02","13","02:00","-10.2","","-13.6","","76","","","","0","","24.1","","99.50","","","","","","Cloudy"
"2014-02-13 03:00","2014","02","13","03:00","-8.9","","-12.9","","73","","34","","11","","24.1","","99.40","","","","-14","","Cloudy"
"2014-02-13 04:00","2014","02","13","04:00","-8.5","","-12.1","","75","","7","","7","","24.1","","99.44","","","","-12","","Cloudy"
"2014-02-13 05:00","2014","02","13","05:00","-9.7","","-12.3","","81","","6","","13","","24.1","","99.38","","","","-16","","Mostly Cloudy"
"2014-02-13 06:00","2014","02","13","06:00","-10.8","","-12.6","","87","","6","","9","","24.1","","99.36","","","","-16","","Mainly Clear"
"2014-02-13 07:00","2014","02","13","07:00","-11.3","","-13.1","","87","","6","","7","","24.1","","99.31","","","","-16","","Mainly Clear"
"2014-02-13 08:00","2014","02","13","08:00","-11.8","","-13.9","","84","","7","","7","","24.1","","99.23","","","","-16","","Mainly Clear"
"2014-02-13 09:00","2014","02","13","09:00","-11.7","","-14.2","","82","","7","","9","","24.1","","99.19","","","","-17","","Mainly Clear"
"2014-02-13 10:00","2014","02","13","10:00","-9.3","","-13.3","","73","","7","","9","","24.1","","99.11","","","","-14","","Mainly Clear"
"2014-02-13 11:00","2014","02","13","11:00","-7.8","","-12.5","","69","","4","","7","","24.1","","99.06","","","","-11","","Mainly Clear"
"2014-02-13 12:00","2014","02","13","12:00","-7.4","","-11.8","","71","","6","","4","","24.1","","98.94","","","","-9","","Mainly Clear"
"2014-02-13 13:00","2014","02","13","13:00","-6.9","","-12.6","","64","","11","","6","","24.1","","98.78","","","","-10","","Mainly Clear"
"2014-02-13 14:00","2014","02","13","14:00","-6.2","","-12.4","","61","","13","","7","","24.1","","98.65","","","","-10","","Mainly Clear"
"2014-02-13 15:00","2014","02","13","15:00","-5.4","","-11.5","","62","","11","","11","","24.1","","98.53","","","","-10","","Mainly Clear"
"2014-02-13 16:00","2014","02","13","16:00","-5.2","","-11.9","","59","","14","","6","","24.1","","98.46","","","","-8","","Mainly Clear"
"2014-02-13 17:00","2014","02","13","17:00","-6.1","","-12.7","","60","","17","","7","","24.1","","98.43","","","","-9","","Mostly Cloudy"
"2014-02-13 18:00","2014","02","13","18:00","-6.7","","-12.2","","65","","18","","6","","24.1","","98.37","","","","-10","","Mostly Cloudy"
"2014-02-13 19:00","2014","02","13","19:00","-8.4","","-12.5","","72","","16","","6","","24.1","","98.28","","","","-12","","Mostly Cloudy"
"2014-02-13 20:00","2014","02","13","20:00","-8.4","","-12.4","","73","","15","","6","","24.1","","98.18","","","","-12","","Mostly Cloudy"
"2014-02-13 21:00","2014","02","13","21:00","-7.0","","-11.5","","70","","28","","4","","24.1","","98.16","","","","-9","","Cloudy"
"2014-02-13 22:00","2014","02","13","22:00","-7.3","","-11.0","","75","","16","","7","","24.1","","98.02","","","","-11","","Cloudy"
"2014-02-13 23:00","2014","02","13","23:00","-7.0","","-10.3","","77","","16","","9","","24.1","","97.88","","","","-11","","Cloudy"
"2014-02-14 00:00","2014","02","14","00:00","-6.9","","-10.1","","78","","16","","7","","24.1","","97.74","","","","-10","","Cloudy"
"2014-02-14 01:00","2014","02","14","01:00","-6.8","","-9.8","","79","","17","","6","","24.1","","97.65","","","","-10","","Cloudy"
"2014-02-14 02:00","2014","02","14","02:00","-6.7","","-9.0","","84","","","","0","","16.1","","97.56","","","","","","Cloudy"
"2014-02-14 03:00","2014","02","14","03:00","-6.3","","-8.7","","83","","","","0","","16.1","","97.50","","","","","","Snow"
"2014-02-14 04:00","2014","02","14","04:00","-6.3","","-8.0","","88","","25","","6","","9.7","","97.48","","","","-9","","Snow"
"2014-02-14 05:00","2014","02","14","05:00","-6.2","","-7.2","","93","","27","","6","","8.0","","97.52","","","","-9","","Snow"
"2014-02-14 06:00","2014","02","14","06:00","-5.7","","-6.6","","93","","27","","9","","9.7","","97.60","","","","-10","","Snow"
"2014-02-14 07:00","2014","02","14","07:00","-4.8","","-6.0","","91","","29","","11","","8.0","","97.62","","","","-9","","Snow"
"2014-02-14 08:00","2014","02","14","08:00","-3.9","","-5.2","","91","","27","","20","","6.4","","97.75","","","","-10","","Snow"
"2014-02-14 09:00","2014","02","14","09:00","-2.8","","-4.1","","91","","28","","17","","2.4","","97.82","","","","-8","","Snow"
"2014-02-14 10:00","2014","02","14","10:00","-2.6","","-3.8","","91","","26","","22","","4.8","","97.91","","","","-9","","Snow,Fog"
"2014-02-14 11:00","2014","02","14","11:00","-2.2","","-4.6","","84","","27","","30","","9.7","","97.97","","","","-9","","Snow"
"2014-02-14 12:00","2014","02","14","12:00","-1.3","","-5.5","","73","","27","","26","","9.7","","98.03","","","","-8","","Haze"
"2014-02-14 13:00","2014","02","14","13:00","-2.1","","-5.7","","76","","26","","32","","9.7","","98.03","","","","-9","","Snow Showers"
"2014-02-14 14:00","2014","02","14","14:00","-1.9","","-7.1","","68","","27","","26","","11.3","","98.09","","","","-8","","Snow Showers"
"2014-02-14 15:00","2014","02","14","15:00","-2.1","","-7.4","","67","","26","","26","","16.1","","98.14","","","","-9","","Cloudy"
"2014-02-14 16:00","2014","02","14","16:00","-2.2","","-7.3","","68","","30","","19","","9.7","","98.18","","","","-8","","Snow Showers"
"2014-02-14 17:00","2014","02","14","17:00","-2.7","","-8.2","","66","","31","","20","","9.7","","98.22","","","","-9","","Snow Showers"
"2014-02-14 18:00","2014","02","14","18:00","-3.2","","-9.5","","62","","30","","17","","9.7","","98.29","","","","-9","","Haze"
"2014-02-14 19:00","2014","02","14","19:00","-3.3","","-9.1","","64","","30","","13","","16.1","","98.29","","","","-8","","Cloudy"
"2014-02-14 20:00","2014","02","14","20:00","-4.0","","-9.0","","68","","30","","13","","16.1","","98.42","","","","-9","","Cloudy"
"2014-02-14 21:00","2014","02","14","21:00","-4.5","","-8.5","","74","","29","","13","","16.1","","98.48","","","","-10","","Cloudy"
"2014-02-14 22:00","2014","02","14","22:00","-4.8","","-8.6","","75","","29","","11","","19.3","","98.49","","","","-9","","Cloudy"
"2014-02-14 23:00","2014","02","14","23:00","-5.0","","-8.3","","78","","29","","13","","16.1","","98.53","","","","-10","","Cloudy"
"2014-02-15 00:00","2014","02","15","00:00","-5.4","","-8.3","","80","","32","","15","","12.9","","98.54","","","","-11","","Cloudy"
"2014-02-15 01:00","2014","02","15","01:00","-5.2","","-8.3","","79","","32","","15","","11.3","","98.56","","","","-11","","Snow Showers"
"2014-02-15 02:00","2014","02","15","02:00","-5.2","","-8.0","","81","","34","","24","","11.3","","98.58","","","","-12","","Snow Showers"
"2014-02-15 03:00","2014","02","15","03:00","-5.8","","-8.5","","81","","34","","19","","11.3","","98.66","","","","-12","","Snow Showers"
"2014-02-15 04:00","2014","02","15","04:00","-7.1","","-10.2","","78","","33","","17","","16.1","","98.75","","","","-14","","Mostly Cloudy"
"2014-02-15 05:00","2014","02","15","05:00","-8.8","","-11.7","","79","","32","","20","","19.3","","98.88","","","","-16","","Mostly Cloudy"
"2014-02-15 06:00","2014","02","15","06:00","-10.8","","-14.0","","77","","32","","17","","24.1","","99.01","","","","-18","","Mainly Clear"
"2014-02-15 07:00","2014","02","15","07:00","-11.9","","-15.2","","76","","32","","24","","24.1","","99.08","","","","-21","","Clear"
"2014-02-15 08:00","2014","02","15","08:00","-12.8","","-16.0","","77","","32","","19","","24.1","","99.18","","","","-21","","Clear"
"2014-02-15 09:00","2014","02","15","09:00","-12.7","","-16.2","","75","","33","","24","","24.1","","99.27","","","","-22","","Clear"
"2014-02-15 10:00","2014","02","15","10:00","-11.7","","-15.8","","72","","34","","19","","24.1","","99.29","","","","-20","","Clear"
"2014-02-15 11:00","2014","02","15","11:00","-10.6","","-15.6","","67","","34","","17","","24.1","","99.33","","","","-18","","Clear"
"2014-02-15 12:00","2014","02","15","12:00","-8.9","","-14.7","","63","","32","","17","","24.1","","99.35","","","","-16","","Clear"
"2014-02-15 13:00","2014","02","15","13:00","-7.8","","-14.1","","61","","30","","15","","24.1","","99.35","","","","-14","","Clear"
"2014-02-15 14:00","2014","02","15","14:00","-6.8","","-14.0","","56","","29","","15","","24.1","","99.33","","","","-13","","Clear"
"2014-02-15 15:00","2014","02","15","15:00","-6.4","","-13.7","","56","","27","","13","","24.1","","99.34","","","","-12","","Clear"
"2014-02-15 16:00","2014","02","15","16:00","-5.8","","-13.2","","56","","30","","15","","24.1","","99.35","","","","-12","","Clear"
"2014-02-15 17:00","2014","02","15","17:00","-5.6","","-13.5","","54","","29","","13","","24.1","","99.38","","","","-11","","Clear"
"2014-02-15 18:00","2014","02","15","18:00","-6.4","","-14.0","","55","","25","","13","","24.1","","99.45","","","","-12","","Mainly Clear"
"2014-02-15 19:00","2014","02","15","19:00","-7.9","","-13.9","","62","","23","","11","","24.1","","99.52","","","","-13","","Mainly Clear"
"2014-02-15 20:00","2014","02","15","20:00","-9.0","","-14.2","","66","","22","","11","","24.1","","99.54","","","","-14","","Mainly Clear"
"2014-02-15 21:00","2014","02","15","21:00","-9.9","","-14.2","","71","","24","","6","","24.1","","99.49","","","","-13","","Mainly Clear"
"2014-02-15 22:00","2014","02","15","22:00","-11.6","","-14.5","","79","","22","","7","","24.1","","99.49","","","","-16","","Mostly Cloudy"
"2014-02-15 23:00","2014","02","15","23:00","-11.1","","-14.0","","79","","22","","7","","24.1","","99.49","","","","-15","","Cloudy"
"2014-02-16 00:00","2014","02","16","00:00","-12.5","","-14.7","","84","","","","0","","19.3","","99.45","","","","","","Mostly Cloudy"
"2014-02-16 01:00","2014","02","16","01:00","-12.2","","-14.0","","86","","","","0","","16.1","","99.44","","","","","","Mostly Cloudy"
"2014-02-16 02:00","2014","02","16","02:00","-13.1","","-13.9","","94","","15","","4","","12.9","","99.38","","","","-16","","Mostly Cloudy"
"2014-02-16 03:00","2014","02","16","03:00","-11.7","","-12.6","","93","","19","","6","","9.7","","99.33","","","","-15","","Fog"
"2014-02-16 04:00","2014","02","16","04:00","-11.7","","-12.7","","92","","18","","7","","9.7","","99.25","","","","-16","","Fog"
"2014-02-16 05:00","2014","02","16","05:00","-10.8","","-12.1","","90","","22","","9","","8.0","","99.22","","","","-16","","Fog"
"2014-02-16 06:00","2014","02","16","06:00","-10.6","","-12.0","","89","","25","","4","","8.0","","99.23","","","","-13","","Snow Showers,Fog"
"2014-02-16 07:00","2014","02","16","07:00","-10.4","","-11.5","","92","","","","0","","6.4","","99.21","","","","","","Snow Showers,Fog"
"2014-02-16 08:00","2014","02","16","08:00","-10.2","","-11.3","","92","","","","0","","1.6","","99.26","","","","","","Snow,Fog"
"2014-02-16 09:00","2014","02","16","09:00","-9.5","","-10.4","","93","","","","0","","1.2","","99.31","","","","","","Snow,Fog"
"2014-02-16 10:00","2014","02","16","10:00","-7.7","","-9.1","","90","","","","0","","1.2","","99.36","","","","","","Snow,Fog"
"2014-02-16 11:00","2014","02","16","11:00","-7.1","","-8.5","","90","","","","0","","1.2","","99.42","","","","","","Snow"
"2014-02-16 12:00","2014","02","16","12:00","-6.1","","-8.0","","86","","36","","9","","2.8","","99.44","","","","-10","","Snow"
"2014-02-16 13:00","2014","02","16","13:00","-6.3","","-8.0","","88","","5","","11","","9.7","","99.44","","","","-11","","Snow,Fog"
"2014-02-16 14:00","2014","02","16","14:00","-5.6","","-8.3","","81","","4","","13","","12.9","","99.48","","","","-11","","Mostly Cloudy"
"2014-02-16 15:00","2014","02","16","15:00","-5.7","","-8.3","","82","","4","","13","","12.9","","99.57","","","","-11","","Mostly Cloudy"
"2014-02-16 16:00","2014","02","16","16:00","-5.3","","-8.9","","76","","4","","11","","8.0","","99.72","","","","-10","","Snow Showers"
"2014-02-16 17:00","2014","02","16","17:00","-5.2","","-9.7","","71","","36","","17","","9.7","","99.88","","","","-11","","Snow Showers"
"2014-02-16 18:00","2014","02","16","18:00","-6.3","","-9.0","","81","","4","","28","","3.2","","100.05","","","","-14","","Snow Showers"
"2014-02-16 19:00","2014","02","16","19:00","-8.3","","-11.4","","78","","4","","19","","19.3","","100.20","","","","-16","","Snow Showers"
"2014-02-16 20:00","2014","02","16","20:00","-9.7","","-12.8","","78","","4","","17","","24.1","","100.29","","","","-17","","Mainly Clear"
"2014-02-16 21:00","2014","02","16","21:00","-11.2","","-13.5","","83","","4","","15","","24.1","","100.39","","","","-18","","Clear"
"2014-02-16 22:00","2014","02","16","22:00","-11.4","","-14.2","","80","","3","","13","","24.1","","100.53","","","","-18","","Clear"
"2014-02-16 23:00","2014","02","16","23:00","-12.4","","-14.7","","83","","2","","9","","24.1","","100.53","","","","-18","","Mainly Clear"
"2014-02-17 00:00","2014","02","17","00:00","-16.1","","-16.5","","97","","7","","6","","24.1","","100.57","","","","-21","","Mainly Clear"
"2014-02-17 01:00","2014","02","17","01:00","-17.3","","-17.5","","98","","14","","4","","24.1","","100.60","","","","-20","","Clear"
"2014-02-17 02:00","2014","02","17","02:00","-16.0","","-16.8","","94","","9","","6","","24.1","","100.58","","","","-20","","Mainly Clear"
"2014-02-17 03:00","2014","02","17","03:00","-17.8","","-22.1","","69","","","","0","","16.1","","100.59","","","","","","Clear"
"2014-02-17 04:00","2014","02","17","04:00","-18.6","","-22.3","","73","","","","0","","12.9","","100.60","","","","","","Clear"
"2014-02-17 05:00","2014","02","17","05:00","-18.0","","-21.3","","75","","","","0","","12.9","","100.66","","","","","","Mostly Cloudy"
"2014-02-17 06:00","2014","02","17","06:00","-16.4","","-18.8","","82","","6","","4","","16.1","","100.64","","","","-19","","Mostly Cloudy"
"2014-02-17 07:00","2014","02","17","07:00","-17.0","","-19.6","","80","","7","","9","","16.1","","100.60","","","","-23","","Mostly Cloudy"
"2014-02-17 08:00","2014","02","17","08:00","-16.6","","-19.3","","80","","8","","11","","19.3","","100.60","","","","-24","","Mostly Cloudy"
"2014-02-17 09:00","2014","02","17","09:00","-15.9","","-18.3","","82","","8","","15","","24.1","","100.55","","","","-24","","Mostly Cloudy"
"2014-02-17 10:00","2014","02","17","10:00","-14.3","","-16.3","","85","","10","","11","","24.1","","100.50","","","","-21","","Mostly Cloudy"
"2014-02-17 11:00","2014","02","17","11:00","-11.1","","-14.2","","78","","12","","19","","24.1","","100.38","","","","-19","","Mostly Cloudy"
"2014-02-17 12:00","2014","02","17","12:00","-10.1","","-14.1","","72","","12","","17","","24.1","","100.26","","","","-17","","Mostly Cloudy"
"2014-02-17 13:00","2014","02","17","13:00","-8.8","","-12.9","","72","","11","","15","","24.1","","100.04","","","","-15","","Cloudy"
"2014-02-17 14:00","2014","02","17","14:00","-8.0","","-12.2","","72","","11","","15","","24.1","","99.89","","","","-14","","Cloudy"
"2014-02-17 15:00","2014","02","17","15:00","-8.0","","-11.2","","78","","10","","20","","24.1","","99.67","","","","-15","","Cloudy"
"2014-02-17 16:00","2014","02","17","16:00","-8.3","","-11.3","","79","","9","","22","","24.1","","99.44","","","","-16","","Cloudy"
"2014-02-17 17:00","2014","02","17","17:00","-7.9","","-11.2","","77","","8","","28","","24.1","","99.10","","","","-17","","Cloudy"
"2014-02-17 18:00","2014","02","17","18:00","-7.4","","-11.1","","75","","9","","26","","24.1","","98.80","","","","-16","","Cloudy"
"2014-02-17 19:00","2014","02","17","19:00","-6.6","","-10.4","","74","","11","","26","","24.1","","98.67","","","","-15","","Cloudy"
"2014-02-17 20:00","2014","02","17","20:00","-7.1","","-7.9","","94","","12","","33","","0.6","","98.50","","","","-16","","Snow,Blowing Snow"
"2014-02-17 21:00","2014","02","17","21:00","-5.7","","-6.0","","98","","13","","20","","0.6","","98.33","","","","-12","","Moderate Snow"
"2014-02-17 22:00","2014","02","17","22:00","-3.8","","-4.2","","97","","13","","20","","4.0","","98.21","","","","-10","","Snow"
"2014-02-17 23:00","2014","02","17","23:00","-3.0","","-3.3","","98","","15","","20","","4.0","","98.05","","","","-9","","Snow"
"2014-02-18 00:00","2014","02","18","00:00","-1.7","","-1.9","","99","","21","","19","","4.8","","97.95","","","","-7","","Snow"
"2014-02-18 01:00","2014","02","18","01:00","-2.5","","-3.3","","94","","25","","30","","4.8","","98.02","","","","-10","","Snow"
"2014-02-18 02:00","2014","02","18","02:00","-3.6","","-4.9","","91","","26","","35","","4.8","","98.11","","","","-12","","Snow"
"2014-02-18 03:00","2014","02","18","03:00","-4.6","","-5.4","","94","","27","","28","","1.6","","98.26","","","","-12","","Snow"
"2014-02-18 04:00","2014","02","18","04:00","-4.8","","-7.3","","83","","28","","33","","4.8","","98.41","","","","-13","","Snow"
"2014-02-18 05:00","2014","02","18","05:00","-5.6","","-7.5","","86","","29","","28","","4.8","","98.61","","","","-14","","Snow"
"2014-02-18 06:00","2014","02","18","06:00","-6.2","","-7.6","","90","","29","","32","","4.0","","98.76","","","","-15","","Snow"
"2014-02-18 07:00","2014","02","18","07:00","-6.0","","-8.6","","82","","28","","32","","11.3","","98.88","","","","-15","","Mostly Cloudy"
"2014-02-18 08:00","2014","02","18","08:00","-5.5","","-8.3","","81","","29","","32","","24.1","","99.04","","","","-14","","Mostly Cloudy"
"2014-02-18 09:00","2014","02","18","09:00","-4.7","","-8.0","","78","","29","","24","","24.1","","99.15","","","","-12","","Mostly Cloudy"
"2014-02-18 10:00","2014","02","18","10:00","-4.0","","-7.5","","77","","29","","24","","24.1","","99.27","","","","-11","","Mostly Cloudy"
"2014-02-18 11:00","2014","02","18","11:00","-3.1","","-6.8","","76","","28","","26","","24.1","","99.29","","","","-10","","Mostly Cloudy"
"2014-02-18 12:00","2014","02","18","12:00","-1.8","","-6.5","","70","","27","","24","","24.1","","99.33","","","","-8","","Mostly Cloudy"
"2014-02-18 13:00","2014","02","18","13:00","-1.1","","-5.9","","70","","24","","28","","24.1","","99.27","","","","-8","","Mainly Clear"
"2014-02-18 14:00","2014","02","18","14:00","-0.7","","-5.3","","71","","22","","30","","24.1","","99.23","","","","-7","","Mainly Clear"
"2014-02-18 15:00","2014","02","18","15:00","-0.7","","-4.9","","73","","20","","20","","24.1","","99.11","","","","-6","","Mostly Cloudy"
"2014-02-18 16:00","2014","02","18","16:00","-0.2","","-3.6","","78","","20","","20","","9.7","","99.07","","","","-5","","Haze"
"2014-02-18 17:00","2014","02","18","17:00","-0.4","","-3.1","","82","","19","","17","","9.7","","99.00","","","","-5","","Haze"
"2014-02-18 18:00","2014","02","18","18:00","-0.4","","-2.6","","85","","16","","17","","9.7","","98.82","","","","-5","","Haze"
"2014-02-18 19:00","2014","02","18","19:00","0.9","","-2.0","","81","","19","","20","","11.3","","98.79","","","","","","Cloudy"
"2014-02-18 20:00","2014","02","18","20:00","1.7","","-2.1","","76","","18","","15","","24.1","","98.73","","","","","","Cloudy"
"2014-02-18 21:00","2014","02","18","21:00","2.7","","-2.0","","71","","20","","22","","24.1","","98.66","","","","","","Cloudy"
"2014-02-18 22:00","2014","02","18","22:00","2.6","","-2.1","","71","","20","","22","","24.1","","98.56","","","","","","Cloudy"
"2014-02-18 23:00","2014","02","18","23:00","3.4","","-2.2","","67","","21","","22","","24.1","","98.43","","","","","","Cloudy"
"2014-02-19 00:00","2014","02","19","00:00","3.4","","-2.5","","65","","21","","26","","24.1","","98.28","","","","","","Cloudy"
"2014-02-19 01:00","2014","02","19","01:00","3.1","","-2.7","","66","","22","","24","","24.1","","98.18","","","","","","Mostly Cloudy"
"2014-02-19 02:00","2014","02","19","02:00","3.9","","-2.1","","65","","22","","26","","24.1","","98.10","","","","","","Mostly Cloudy"
"2014-02-19 03:00","2014","02","19","03:00","3.3","","-1.7","","70","","22","","19","","24.1","","98.05","","","","","","Cloudy"
"2014-02-19 04:00","2014","02","19","04:00","1.2","","-2.3","","77","","22","","9","","24.1","","97.97","","","","","","Mostly Cloudy"
"2014-02-19 05:00","2014","02","19","05:00","-0.1","","-2.7","","83","","19","","6","","24.1","","97.98","","","","-2","","Mainly Clear"
"2014-02-19 06:00","2014","02","19","06:00","0.2","","-2.4","","83","","22","","9","","24.1","","98.03","","","","","","Mostly Cloudy"
"2014-02-19 07:00","2014","02","19","07:00","0.3","","-2.2","","83","","24","","9","","24.1","","98.02","","","","","","Mainly Clear"
"2014-02-19 08:00","2014","02","19","08:00","0.5","","-1.9","","84","","28","","7","","24.1","","98.08","","","","","","Mostly Cloudy"
"2014-02-19 09:00","2014","02","19","09:00","2.7","","-0.9","","77","","29","","17","","24.1","","98.16","","","","","","Mostly Cloudy"
"2014-02-19 10:00","2014","02","19","10:00","3.1","","-1.0","","74","","29","","20","","19.3","","98.31","","","","","","Cloudy"
"2014-02-19 11:00","2014","02","19","11:00","3.3","","-1.4","","71","","31","","26","","16.1","","98.44","","","","","","Mostly Cloudy"
"2014-02-19 12:00","2014","02","19","12:00","1.6","","0.8","","94","","32","","20","","6.4","","98.60","","","","","","Snow Showers"
"2014-02-19 13:00","2014","02","19","13:00","3.7","","0.2","","78","","30","","26","","12.9","","98.63","","","","","","Mostly Cloudy"
"2014-02-19 14:00","2014","02","19","14:00","4.8","","0.3","","73","","28","","24","","19.3","","98.74","","","","","","Clear"
"2014-02-19 15:00","2014","02","19","15:00","6.1","","0.0","","65","","28","","26","","24.1","","98.84","","","","","","Clear"
"2014-02-19 16:00","2014","02","19","16:00","6.7","","-1.5","","56","","27","","22","","19.3","","98.99","","","","","","Clear"
"2014-02-19 17:00","2014","02","19","17:00","6.6","","-1.4","","57","","25","","22","","16.1","","99.09","","","","","","Clear"
"2014-02-19 18:00","2014","02","19","18:00","4.3","","-0.9","","69","","23","","22","","16.1","","99.26","","","","","","Clear"
"2014-02-19 19:00","2014","02","19","19:00","3.5","","-0.7","","74","","23","","20","","19.3","","99.39","","","","","","Clear"
"2014-02-19 20:00","2014","02","19","20:00","2.3","","-0.9","","79","","22","","35","","24.1","","99.46","","","","","","Clear"
"2014-02-19 21:00","2014","02","19","21:00","1.7","","-0.9","","83","","24","","17","","24.1","","99.47","","","","","","Clear"
"2014-02-19 22:00","2014","02","19","22:00","0.2","","-1.4","","89","","23","","11","","19.3","","99.48","","","","","","Mainly Clear"
"2014-02-19 23:00","2014","02","19","23:00","-0.5","","-1.6","","92","","18","","4","","19.3","","99.47","","","","-2","","Mainly Clear"
"2014-02-20 00:00","2014","02","20","00:00","-1.2","","-2.0","","94","","20","","6","","12.9","","99.46","","","","-3","","Mostly Cloudy"
"2014-02-20 01:00","2014","02","20","01:00","-1.5","","-2.2","","95","","22","","11","","11.3","","99.52","","","","-5","","Cloudy"
"2014-02-20 02:00","2014","02","20","02:00","-1.5","","-2.1","","96","","22","","15","","11.3","","99.57","","","","-6","","Cloudy"
"2014-02-20 03:00","2014","02","20","03:00","-1.5","","-2.1","","96","","22","","7","","8.0","","99.54","","","","-4","","Fog"
"2014-02-20 04:00","2014","02","20","04:00","-1.2","","-1.8","","96","","17","","4","","8.0","","99.45","","","","-3","","Fog"
"2014-02-20 05:00","2014","02","20","05:00","-1.7","","-2.2","","96","","14","","6","","4.8","","99.38","","","","-4","","Fog"
"2014-02-20 06:00","2014","02","20","06:00","-2.2","","-2.5","","98","","6","","9","","4.8","","99.29","","","","-6","","Fog"
"2014-02-20 07:00","2014","02","20","07:00","-1.8","","-2.3","","96","","9","","11","","4.0","","99.25","","","","-6","","Fog"
"2014-02-20 08:00","2014","02","20","08:00","-1.6","","-2.4","","94","","14","","15","","4.0","","99.22","","","","-6","","Fog"
"2014-02-20 09:00","2014","02","20","09:00","0.6","","-1.3","","87","","9","","15","","6.4","","99.13","","","","","","Fog"
"2014-02-20 10:00","2014","02","20","10:00","1.0","","-0.9","","87","","10","","19","","8.0","","99.10","","","","","","Fog"
"2014-02-20 11:00","2014","02","20","11:00","1.1","","-0.9","","86","","7","","11","","8.0","","99.05","","","","","","Thunderstorms,Rain Showers,Fog"
"2014-02-20 12:00","2014","02","20","12:00","0.0","","0.0","","100","","7","","24","","0.8","","98.87","","","","-6","","Snow Showers,Fog"
"2014-02-20 13:00","2014","02","20","13:00","0.7","","0.7","","100","","8","","20","","4.0","","98.70","","","","","","Moderate Rain,Fog"
"2014-02-20 14:00","2014","02","20","14:00","0.7","","0.7","","100","","10","","26","","4.0","","98.51","","","","","","Rain,Fog"
"2014-02-20 15:00","2014","02","20","15:00","0.9","","0.9","","100","","10","","22","","6.4","","98.44","","","","","","Rain,Fog"
"2014-02-20 16:00","2014","02","20","16:00","1.4","","1.4","","100","","12","","26","","6.4","","98.32","","","","","","Rain,Fog"
"2014-02-20 17:00","2014","02","20","17:00","1.8","","1.8","","100","","12","","24","","6.4","","98.26","","","","","","Rain,Fog"
"2014-02-20 18:00","2014","02","20","18:00","2.0","","2.0","","100","","11","","28","","4.8","","98.11","","","","","","Rain,Fog"
"2014-02-20 19:00","2014","02","20","19:00","2.0","","2.0","","100","","10","","20","","8.0","","97.97","","","","","","Rain,Fog"
"2014-02-20 20:00","2014","02","20","20:00","2.3","","2.3","","100","","10","","13","","4.8","","97.89","","","","","","Rain Showers,Fog"
"2014-02-20 21:00","2014","02","20","21:00","2.4","","2.4","","100","","11","","13","","8.0","","97.76","","","","","","Fog"
"2014-02-20 22:00","2014","02","20","22:00","2.7","","2.7","","100","","9","","13","","12.9","","97.59","","","","","","Cloudy"
"2014-02-20 23:00","2014","02","20","23:00","3.9","","3.9","","100","","11","","6","","12.9","","97.50","","","","","","Cloudy"
"2014-02-21 00:00","2014","02","21","00:00","8.6","","8.4","","99","","20","","41","","12.9","","97.42","","","","","","Rain Showers"
"2014-02-21 01:00","2014","02","21","01:00","8.6","","7.8","","95","","20","","35","","16.1","","97.39","","","","","","Cloudy"
"2014-02-21 02:00","2014","02","21","02:00","6.3","","6.1","","99","","22","","28","","12.9","","97.45","","","","","","Cloudy"
"2014-02-21 03:00","2014","02","21","03:00","3.8","","1.7","","86","","24","","41","","19.3","","97.51","","","","","","Cloudy"
"2014-02-21 04:00","2014","02","21","04:00","2.8","","-0.3","","80","","23","","37","","19.3","","97.58","","","","","","Cloudy"
"2014-02-21 05:00","2014","02","21","05:00","2.6","","-0.5","","80","","23","","35","","24.1","","97.65","","","","","","Cloudy"
"2014-02-21 06:00","2014","02","21","06:00","2.6","","-1.1","","77","","23","","35","","24.1","","97.75","","","","","","Cloudy"
"2014-02-21 07:00","2014","02","21","07:00","2.6","","-1.4","","75","","23","","39","","24.1","","97.75","","","","","","Mostly Cloudy"
"2014-02-21 08:00","2014","02","21","08:00","2.5","","-1.8","","73","","23","","35","","24.1","","97.76","","","","","","Mostly Cloudy"
"2014-02-21 09:00","2014","02","21","09:00","2.5","","-1.4","","75","","23","","35","","24.1","","97.79","","","","","","Mostly Cloudy"
"2014-02-21 10:00","2014","02","21","10:00","3.3","","-3.0","","63","","23","","50","","24.1","","97.78","","","","","","Mostly Cloudy"
"2014-02-21 11:00","2014","02","21","11:00","3.0","","-2.2","","69","","23","","44","","24.1","","97.81","","","","","","Mostly Cloudy"
"2014-02-21 12:00","2014","02","21","12:00","3.2","","-2.5","","66","","23","","54","","24.1","","97.86","","","","","","Mostly Cloudy"
"2014-02-21 13:00","2014","02","21","13:00","2.7","","-2.7","","68","","23","","54","","24.1","","97.85","","","","","","Mostly Cloudy"
"2014-02-21 14:00","2014","02","21","14:00","2.5","","-3.2","","66","","23","","46","","24.1","","97.89","","","","","","Mostly Cloudy"
"2014-02-21 15:00","2014","02","21","15:00","1.7","","-4.4","","64","","24","","57","","24.1","","97.96","","","","","","Cloudy"
"2014-02-21 16:00","2014","02","21","16:00","1.8","","-4.5","","63","","23","","59","","24.1","","98.04","","","","","","Mostly Cloudy"
"2014-02-21 17:00","2014","02","21","17:00","1.7","","-4.9","","62","","24","","39","","24.1","","98.13","","","","","","Mainly Clear"
"2014-02-21 18:00","2014","02","21","18:00","1.3","","-6.6","","56","","25","","56","","24.1","","98.22","","","","","","Mainly Clear"
"2014-02-21 19:00","2014","02","21","19:00","0.9","","-6.6","","57","","25","","41","","24.1","","98.31","","","","","","Clear"
"2014-02-21 20:00","2014","02","21","20:00","0.5","","-7.3","","56","","24","","41","","24.1","","98.37","","","","","","Clear"
"2014-02-21 21:00","2014","02","21","21:00","0.4","","-8.5","","51","","24","","43","","24.1","","98.44","","","","","","Clear"
"2014-02-21 22:00","2014","02","21","22:00","0.6","","-7.5","","55","","25","","41","","24.1","","98.54","","","","","","Clear"
"2014-02-21 23:00","2014","02","21","23:00","1.2","","-6.2","","58","","24","","41","","24.1","","98.57","","","","","","Mainly Clear"
"2014-02-22 00:00","2014","02","22","00:00","2.0","","-4.8","","61","","24","","41","","24.1","","98.57","","","","","","Mainly Clear"
"2014-02-22 01:00","2014","02","22","01:00","2.5","","-4.4","","60","","24","","41","","24.1","","98.56","","","","","","Mostly Cloudy"
"2014-02-22 02:00","2014","02","22","02:00","2.4","","-1.5","","75","","24","","39","","11.3","","98.59","","","","","","Snow Showers"
"2014-02-22 03:00","2014","02","22","03:00","2.1","","-0.4","","83","","24","","24","","24.1","","98.57","","","","","","Cloudy"
"2014-02-22 04:00","2014","02","22","04:00","2.0","","-0.4","","84","","24","","26","","24.1","","98.55","","","","","","Cloudy"
"2014-02-22 05:00","2014","02","22","05:00","1.3","","-0.8","","86","","23","","22","","24.1","","98.49","","","","","","Mainly Clear"
"2014-02-22 06:00","2014","02","22","06:00","0.7","","-0.9","","89","","24","","22","","24.1","","98.58","","","","","","Mainly Clear"
"2014-02-22 07:00","2014","02","22","07:00","0.7","","-0.9","","89","","24","","22","","24.1","","98.67","","","","","","Mainly Clear"
"2014-02-22 08:00","2014","02","22","08:00","0.2","","-12.2","","39","","24","","32","","24.1","","98.84","","","","","","Clear"
"2014-02-22 09:00","2014","02","22","09:00","0.2","","-13.1","","36","","25","","35","","24.1","","98.94","","","","","","Clear"
"2014-02-22 10:00","2014","02","22","10:00","0.4","","-12.6","","37","","27","","43","","24.1","","98.97","","","","","","Clear"
"2014-02-22 11:00","2014","02","22","11:00","1.5","","-12.2","","35","","26","","41","","24.1","","99.01","","","","","","Mainly Clear"
"2014-02-22 12:00","2014","02","22","12:00","1.8","","-9.1","","44","","24","","35","","24.1","","99.09","","","","","","Mainly Clear"
"2014-02-22 13:00","2014","02","22","13:00","2.5","","-8.4","","44","","26","","33","","24.1","","99.09","","","","","","Mostly Cloudy"
"2014-02-22 14:00","2014","02","22","14:00","2.9","","-8.5","","43","","24","","30","","24.1","","99.09","","","","","","Mostly Cloudy"
"2014-02-22 15:00","2014","02","22","15:00","3.1","","-9.7","","38","","26","","37","","24.1","","99.10","","","","","","Mostly Cloudy"
"2014-02-22 16:00","2014","02","22","16:00","3.1","","-8.4","","43","","25","","35","","24.1","","99.11","","","","","","Mostly Cloudy"
"2014-02-22 17:00","2014","02","22","17:00","2.5","","-7.9","","46","","24","","22","","24.1","","99.11","","","","","","Mostly Cloudy"
"2014-02-22 18:00","2014","02","22","18:00","2.0","","-6.8","","52","","24","","20","","24.1","","99.14","","","","","","Mostly Cloudy"
"2014-02-22 19:00","2014","02","22","19:00","1.4","","-5.9","","58","","24","","20","","24.1","","99.17","","","","","","Mostly Cloudy"
"2014-02-22 20:00","2014","02","22","20:00","1.0","","-4.6","","66","","24","","17","","24.1","","99.19","","","","","","Mostly Cloudy"
"2014-02-22 21:00","2014","02","22","21:00","1.2","","-4.9","","64","","25","","20","","24.1","","99.22","","","","","","Mostly Cloudy"
"2014-02-22 22:00","2014","02","22","22:00","1.1","","-4.9","","64","","25","","15","","24.1","","99.24","","","","","","Mostly Cloudy"
"2014-02-22 23:00","2014","02","22","23:00","0.7","","-4.0","","71","","25","","15","","24.1","","99.23","","","","","","Cloudy"
"2014-02-23 00:00","2014","02","23","00:00","0.9","","-5.2","","64","","27","","19","","24.1","","99.19","","","","","","Cloudy"
"2014-02-23 01:00","2014","02","23","01:00","0.6","","-6.6","","58","","28","","20","","24.1","","99.23","","","","","","Cloudy"
"2014-02-23 02:00","2014","02","23","02:00","-0.1","","-7.8","","56","","27","","11","","24.1","","99.24","","","","-4","","Cloudy"
"2014-02-23 03:00","2014","02","23","03:00","-0.5","","-9.0","","53","","26","","17","","24.1","","99.25","","","","-5","","Cloudy"
"2014-02-23 04:00","2014","02","23","04:00","-1.4","","-8.8","","57","","26","","13","","24.1","","99.24","","","","-6","","Cloudy"
"2014-02-23 05:00","2014","02","23","05:00","-2.7","","-8.9","","62","","28","","9","","24.1","","99.30","","","","-6","","Mostly Cloudy"
"2014-02-23 06:00","2014","02","23","06:00","-3.5","","-9.5","","63","","27","","9","","24.1","","99.37","","","","-7","","Mainly Clear"
"2014-02-23 07:00","2014","02","23","07:00","-3.6","","-9.5","","64","","27","","13","","24.1","","99.41","","","","-8","","Mostly Cloudy"
"2014-02-23 08:00","2014","02","23","08:00","-3.7","","-9.1","","66","","27","","20","","24.1","","99.47","","","","-10","","Mostly Cloudy"
"2014-02-23 09:00","2014","02","23","09:00","-3.5","","-9.1","","65","","27","","17","","24.1","","99.53","","","","-9","","Mostly Cloudy"
"2014-02-23 10:00","2014","02","23","10:00","-3.4","","-9.6","","62","","27","","22","","24.1","","99.51","","","","-10","","Mostly Cloudy"
"2014-02-23 11:00","2014","02","23","11:00","-2.4","","-9.5","","58","","27","","24","","24.1","","99.51","","","","-9","","Mostly Cloudy"
"2014-02-23 12:00","2014","02","23","12:00","-1.7","","-9.2","","57","","26","","22","","24.1","","99.47","","","","-8","","Mostly Cloudy"
"2014-02-23 13:00","2014","02","23","13:00","-0.8","","-9.7","","51","","28","","26","","24.1","","99.39","","","","-7","","Mostly Cloudy"
"2014-02-23 14:00","2014","02","23","14:00","-0.3","","-10.2","","47","","27","","32","","24.1","","99.36","","","","-7","","Mainly Clear"
"2014-02-23 15:00","2014","02","23","15:00","0.3","","-11.4","","41","","29","","30","","24.1","","99.35","","","","","","Mainly Clear"
"2014-02-23 16:00","2014","02","23","16:00","0.3","","-11.5","","41","","27","","33","","24.1","","99.35","","","","","","Mostly Cloudy"
"2014-02-23 17:00","2014","02","23","17:00","-0.3","","-12.4","","40","","29","","26","","24.1","","99.36","","","","-6","","Mainly Clear"
"2014-02-23 18:00","2014","02","23","18:00","-1.4","","-12.7","","42","","29","","24","","24.1","","99.40","","","","-8","","Clear"
"2014-02-23 19:00","2014","02","23","19:00","-2.5","","-13.0","","44","","29","","24","","24.1","","99.47","","","","-9","","Clear"
"2014-02-23 20:00","2014","02","23","20:00","-3.3","","-13.5","","45","","27","","24","","24.1","","99.47","","","","-10","","Clear"
"2014-02-23 21:00","2014","02","23","21:00","-3.8","","-12.8","","50","","27","","24","","24.1","","99.48","","","","-11","","Clear"
"2014-02-23 22:00","2014","02","23","22:00","-4.5","","-12.1","","55","","26","","32","","24.1","","99.54","","","","-13","","Clear"
"2014-02-23 23:00","2014","02","23","23:00","-5.6","","-11.3","","64","","26","","26","","24.1","","99.54","","","","-13","","Clear"
"2014-02-24 00:00","2014","02","24","00:00","-6.0","","-11.2","","67","","25","","17","","24.1","","99.51","","","","-12","","Mostly Cloudy"
"2014-02-24 01:00","2014","02","24","01:00","-6.1","","-11.1","","68","","26","","20","","24.1","","99.48","","","","-13","","Mainly Clear"
"2014-02-24 02:00","2014","02","24","02:00","-6.3","","-11.2","","68","","25","","17","","24.1","","99.48","","","","-13","","Mostly Cloudy"
"2014-02-24 03:00","2014","02","24","03:00","-6.8","","-11.0","","72","","25","","20","","24.1","","99.47","","","","-14","","Mostly Cloudy"
"2014-02-24 04:00","2014","02","24","04:00","-6.2","","-11.1","","68","","25","","15","","24.1","","99.45","","","","-12","","Mostly Cloudy"
"2014-02-24 05:00","2014","02","24","05:00","-5.7","","-12.7","","58","","29","","20","","24.1","","99.48","","","","-12","","Mostly Cloudy"
"2014-02-24 06:00","2014","02","24","06:00","-6.2","","-11.4","","67","","29","","20","","24.1","","99.53","","","","-13","","Snow Showers"
"2014-02-24 07:00","2014","02","24","07:00","-6.5","","-13.1","","59","","29","","19","","24.1","","99.57","","","","-13","","Snow Showers"
"2014-02-24 08:00","2014","02","24","08:00","-6.7","","-13.1","","60","","29","","30","","24.1","","99.64","","","","-15","","Snow Showers"
"2014-02-24 09:00","2014","02","24","09:00","-6.4","","-12.2","","63","","29","","22","","19.3","","99.70","","","","-14","","Snow Showers"
"2014-02-24 10:00","2014","02","24","10:00","-6.2","","-11.9","","64","","31","","28","","19.3","","99.71","","","","-14","","Snow Showers"
"2014-02-24 11:00","2014","02","24","11:00","-5.8","","-11.8","","63","","28","","35","","19.3","","99.71","","","","-15","","Snow Showers"
"2014-02-24 12:00","2014","02","24","12:00","-5.4","","-11.7","","61","","29","","30","","24.1","","99.72","","","","-14","","Snow Showers"
"2014-02-24 13:00","2014","02","24","13:00","-4.4","","-12.1","","55","","28","","24","","24.1","","99.67","","","","-11","","Mostly Cloudy"
"2014-02-24 14:00","2014","02","24","14:00","-4.1","","-11.4","","57","","25","","26","","24.1","","99.65","","","","-11","","Mostly Cloudy"
"2014-02-24 15:00","2014","02","24","15:00","-4.0","","-11.3","","57","","26","","32","","24.1","","99.66","","","","-12","","Mostly Cloudy"
"2014-02-24 16:00","2014","02","24","16:00","-3.7","","-11.6","","54","","26","","32","","24.1","","99.69","","","","-12","","Mostly Cloudy"
"2014-02-24 17:00","2014","02","24","17:00","-4.0","","-11.8","","55","","28","","32","","24.1","","99.70","","","","-12","","Mostly Cloudy"
"2014-02-24 18:00","2014","02","24","18:00","-4.6","","-12.1","","56","","27","","39","","24.1","","99.75","","","","-13","","Mostly Cloudy"
"2014-02-24 19:00","2014","02","24","19:00","-4.9","","-11.7","","59","","29","","22","","24.1","","99.77","","","","-12","","Mostly Cloudy"
"2014-02-24 20:00","2014","02","24","20:00","-5.2","","-11.2","","63","","30","","24","","24.1","","99.81","","","","-12","","Mostly Cloudy"
"2014-02-24 21:00","2014","02","24","21:00","-5.6","","-12.8","","57","","29","","28","","24.1","","99.83","","","","-14","","Mostly Cloudy"
"2014-02-24 22:00","2014","02","24","22:00","-6.0","","-12.8","","59","","28","","28","","24.1","","99.81","","","","-14","","Cloudy"
"2014-02-24 23:00","2014","02","24","23:00","-6.0","","-11.8","","63","","30","","20","","24.1","","99.82","","","","-13","","Snow Showers"
"2014-02-25 00:00","2014","02","25","00:00","-7.4","","-10.6","","78","","35","","17","","11.3","","99.79","","","","-14","","Snow Showers"
"2014-02-25 01:00","2014","02","25","01:00","-8.1","","-12.2","","72","","34","","20","","19.3","","99.80","","","","-15","","Cloudy"
"2014-02-25 02:00","2014","02","25","02:00","-8.5","","-14.6","","61","","34","","20","","24.1","","99.80","","","","-16","","Cloudy"
"2014-02-25 03:00","2014","02","25","03:00","-8.9","","-14.9","","62","","34","","17","","24.1","","99.80","","","","-16","","Cloudy"
"2014-02-25 04:00","2014","02","25","04:00","-9.0","","-15.8","","58","","31","","13","","24.1","","99.80","","","","-15","","Cloudy"
"2014-02-25 05:00","2014","02","25","05:00","-9.1","","-16.0","","57","","33","","15","","24.1","","99.79","","","","-16","","Cloudy"
"2014-02-25 06:00","2014","02","25","06:00","-9.1","","-15.3","","61","","28","","11","","24.1","","99.79","","","","-15","","Mostly Cloudy"
"2014-02-25 07:00","2014","02","25","07:00","-9.7","","-15.3","","64","","28","","11","","16.1","","99.79","","","","-15","","Mainly Clear"
"2014-02-25 08:00","2014","02","25","08:00","-9.7","","-14.7","","67","","25","","9","","19.3","","99.82","","","","-15","","Mainly Clear"
"2014-02-25 09:00","2014","02","25","09:00","-8.8","","-13.4","","69","","25","","13","","24.1","","99.82","","","","-15","","Clear"
"2014-02-25 10:00","2014","02","25","10:00","-7.5","","-12.5","","67","","26","","11","","24.1","","99.81","","","","-13","","Mainly Clear"
"2014-02-25 11:00","2014","02","25","11:00","-6.4","","-12.2","","63","","24","","19","","24.1","","99.80","","","","-13","","Mostly Cloudy"
"2014-02-25 12:00","2014","02","25","12:00","-6.0","","-13.5","","55","","26","","22","","24.1","","99.73","","","","-13","","Mostly Cloudy"
"2014-02-25 13:00","2014","02","25","13:00","-5.5","","-12.1","","60","","28","","19","","24.1","","99.61","","","","-12","","Mostly Cloudy"
"2014-02-25 14:00","2014","02","25","14:00","-5.0","","-12.1","","57","","27","","22","","24.1","","99.54","","","","-12","","Cloudy"
"2014-02-25 15:00","2014","02","25","15:00","-4.5","","-10.7","","62","","25","","22","","19.3","","99.45","","","","-11","","Snow Showers"
"2014-02-25 16:00","2014","02","25","16:00","-5.9","","-8.8","","80","","24","","28","","1.6","","99.42","","","","-14","","Snow Showers"
"2014-02-25 17:00","2014","02","25","17:00","-5.0","","-10.8","","64","","25","","28","","12.9","","99.37","","","","-13","","Snow Showers"
"2014-02-25 18:00","2014","02","25","18:00","-5.0","","-10.3","","66","","24","","19","","16.1","","99.32","","","","-11","","Mostly Cloudy"
"2014-02-25 19:00","2014","02","25","19:00","-5.2","","-11.2","","63","","25","","28","","12.9","","99.30","","","","-13","","Snow Showers"
"2014-02-25 20:00","2014","02","25","20:00","-6.1","","-12.3","","61","","27","","33","","11.3","","99.30","","","","-15","","Snow Showers"
"2014-02-25 21:00","2014","02","25","21:00","-6.5","","-13.3","","58","","26","","28","","12.9","","99.28","","","","-15","","Snow Showers"
"2014-02-25 22:00","2014","02","25","22:00","-7.6","","-9.8","","84","","31","","26","","0.8","","99.33","","","","-16","","Moderate Snow Showers"
"2014-02-25 23:00","2014","02","25","23:00","-8.6","","-14.6","","62","","29","","28","","16.1","","99.36","","","","-17","","Snow Showers"
"2014-02-26 00:00","2014","02","26","00:00","-9.5","","-13.3","","74","","29","","32","","16.1","","99.36","","","","-19","","Snow Showers"
"2014-02-26 01:00","2014","02","26","01:00","-10.1","","-16.9","","57","","31","","17","","24.1","","99.37","","","","-17","","Mainly Clear"
"2014-02-26 02:00","2014","02","26","02:00","-10.8","","-17.1","","60","","30","","20","","24.1","","99.41","","","","-19","","Mainly Clear"
"2014-02-26 03:00","2014","02","26","03:00","-11.4","","-16.8","","64","","31","","20","","24.1","","99.40","","","","-20","","Mainly Clear"
"2014-02-26 04:00","2014","02","26","04:00","-11.7","","-16.6","","67","","31","","20","","24.1","","99.40","","","","-20","","Mainly Clear"
"2014-02-26 05:00","2014","02","26","05:00","-12.2","","-16.3","","71","","31","","22","","24.1","","99.47","","","","-21","","Mainly Clear"
"2014-02-26 06:00","2014","02","26","06:00","-12.9","","-15.5","","81","","31","","15","","24.1","","99.53","","","","-20","","Mainly Clear"
"2014-02-26 07:00","2014","02","26","07:00","-13.3","","-17.8","","69","","23","","11","","24.1","","99.60","","","","-20","","Mainly Clear"
"2014-02-26 08:00","2014","02","26","08:00","-13.3","","-17.5","","71","","29","","13","","24.1","","99.63","","","","-20","","Mainly Clear"
"2014-02-26 09:00","2014","02","26","09:00","-12.7","","-18.1","","64","","29","","20","","24.1","","99.68","","","","-21","","Mainly Clear"
"2014-02-26 10:00","2014","02","26","10:00","-12.1","","-22.4","","42","","28","","24","","24.1","","99.67","","","","-21","","Mainly Clear"
"2014-02-26 11:00","2014","02","26","11:00","-11.3","","-21.0","","45","","26","","28","","24.1","","99.59","","","","-21","","Mostly Cloudy"
"2014-02-26 12:00","2014","02","26","12:00","-10.5","","-19.3","","48","","27","","20","","24.1","","99.53","","","","-18","","Mostly Cloudy"
"2014-02-26 13:00","2014","02","26","13:00","-10.2","","-19.9","","45","","25","","30","","24.1","","99.38","","","","-20","","Mainly Clear"
"2014-02-26 14:00","2014","02","26","14:00","-9.6","","-16.9","","55","","23","","30","","24.1","","99.24","","","","-19","","Mostly Cloudy"
"2014-02-26 15:00","2014","02","26","15:00","-9.9","","-18.4","","50","","24","","32","","24.1","","99.12","","","","-20","","Mostly Cloudy"
"2014-02-26 16:00","2014","02","26","16:00","-9.5","","-17.2","","53","","24","","37","","24.1","","98.98","","","","-20","","Mostly Cloudy"
"2014-02-26 17:00","2014","02","26","17:00","-9.9","","-16.9","","57","","23","","35","","24.1","","98.90","","","","-20","","Mostly Cloudy"
"2014-02-26 18:00","2014","02","26","18:00","-10.6","","-18.0","","54","","23","","33","","24.1","","98.75","","","","-21","","Mostly Cloudy"
"2014-02-26 19:00","2014","02","26","19:00","-10.8","","-16.8","","61","","23","","28","","24.1","","98.67","","","","-20","","Mostly Cloudy"
"2014-02-26 20:00","2014","02","26","20:00","-10.9","","-18.2","","55","","23","","35","","24.1","","98.60","","","","-21","","Mainly Clear"
"2014-02-26 21:00","2014","02","26","21:00","-10.7","","-18.5","","53","","23","","33","","24.1","","98.43","","","","-21","","Mostly Cloudy"
"2014-02-26 22:00","2014","02","26","22:00","-10.9","","-17.8","","57","","22","","30","","24.1","","98.31","","","","-21","","Mostly Cloudy"
"2014-02-26 23:00","2014","02","26","23:00","-10.9","","-17.0","","61","","24","","28","","24.1","","98.29","","","","-20","","Mainly Clear"
"2014-02-27 00:00","2014","02","27","00:00","-10.6","","-17.0","","59","","24","","33","","24.1","","98.15","","","","-21","","Mainly Clear"
"2014-02-27 01:00","2014","02","27","01:00","-10.6","","-16.9","","60","","24","","39","","24.1","","98.05","","","","-21","","Mainly Clear"
"2014-02-27 02:00","2014","02","27","02:00","-10.8","","-16.6","","62","","23","","30","","24.1","","97.91","","","","-21","","Mainly Clear"
"2014-02-27 03:00","2014","02","27","03:00","-10.5","","-16.0","","64","","23","","33","","24.1","","97.78","","","","-21","","Mainly Clear"
"2014-02-27 04:00","2014","02","27","04:00","-9.7","","-14.7","","67","","24","","30","","16.1","","97.73","","","","-19","","Cloudy"
"2014-02-27 05:00","2014","02","27","05:00","-9.7","","-13.5","","74","","25","","28","","4.0","","97.74","","","","-19","","Snow Showers"
"2014-02-27 06:00","2014","02","27","06:00","-9.5","","-12.6","","78","","26","","28","","11.3","","97.82","","","","-19","","Snow Showers"
"2014-02-27 07:00","2014","02","27","07:00","-9.6","","-14.6","","67","","29","","26","","19.3","","97.91","","","","-18","","Mostly Cloudy"
"2014-02-27 08:00","2014","02","27","08:00","-10.2","","-16.4","","60","","31","","35","","9.7","","98.09","","","","-20","","Snow Showers"
"2014-02-27 09:00","2014","02","27","09:00","-11.7","","-17.6","","62","","33","","30","","11.3","","98.35","","","","-22","","Mostly Cloudy"
"2014-02-27 10:00","2014","02","27","10:00","-12.9","","-19.5","","58","","34","","37","","24.1","","98.60","","","","-24","","Mostly Cloudy"
"2014-02-27 11:00","2014","02","27","11:00","-12.5","","-26.9","","29","","32","","35","","24.1","","98.80","","","","-23","","Mainly Clear"
"2014-02-27 12:00","2014","02","27","12:00","-13.1","","-24.5","","38","","32","","39","","24.1","","98.97","","","","-25","","Mostly Cloudy"
"2014-02-27 13:00","2014","02","27","13:00","-12.4","","-23.6","","39","","31","","35","","24.1","","99.09","","","","-23","","Mostly Cloudy"
"2014-02-27 14:00","2014","02","27","14:00","-11.7","","-26.8","","27","","28","","37","","24.1","","99.22","","","","-23","","Mostly Cloudy"
"2014-02-27 15:00","2014","02","27","15:00","-11.8","","-24.9","","33","","31","","37","","24.1","","99.34","","","","-23","","Mainly Clear"
"2014-02-27 16:00","2014","02","27","16:00","-12.4","","-25.9","","31","","31","","30","","24.1","","99.45","","","","-23","","Mostly Cloudy"
"2014-02-27 17:00","2014","02","27","17:00","-12.2","","-26.4","","30","","31","","28","","24.1","","99.54","","","","-22","","Mostly Cloudy"
"2014-02-27 18:00","2014","02","27","18:00","-12.6","","-25.2","","34","","31","","30","","24.1","","99.65","","","","-23","","Mainly Clear"
"2014-02-27 19:00","2014","02","27","19:00","-13.2","","-25.7","","34","","31","","19","","24.1","","99.72","","","","-22","","Mainly Clear"
"2014-02-27 20:00","2014","02","27","20:00","-13.5","","-25.7","","35","","33","","15","","24.1","","99.81","","","","-21","","Clear"
"2014-02-27 21:00","2014","02","27","21:00","-13.8","","-24.3","","41","","35","","13","","24.1","","99.88","","","","-21","","Clear"
"2014-02-27 22:00","2014","02","27","22:00","-14.5","","-23.4","","47","","35","","13","","24.1","","99.94","","","","-22","","Clear"
"2014-02-27 23:00","2014","02","27","23:00","-14.8","","-23.8","","46","","35","","13","","24.1","","99.98","","","","-22","","Clear"
"2014-02-28 00:00","2014","02","28","00:00","-15.2","","-24.2","","46","","36","","9","","24.1","","100.02","","","","-21","","Clear"
"2014-02-28 01:00","2014","02","28","01:00","-16.0","","-25.3","","45","","36","","7","","24.1","","100.09","","","","-21","","Clear"
"2014-02-28 02:00","2014","02","28","02:00","-16.3","","-24.3","","50","","6","","9","","24.1","","100.16","","","","-22","","Clear"
"2014-02-28 03:00","2014","02","28","03:00","-16.8","","-25.5","","47","","7","","13","","24.1","","100.18","","","","-25","","Clear"
"2014-02-28 04:00","2014","02","28","04:00","-17.3","","-25.0","","51","","6","","9","","24.1","","100.20","","","","-24","","Clear"
"2014-02-28 05:00","2014","02","28","05:00","-17.6","","-25.4","","51","","9","","7","","24.1","","100.24","","","","-23","","Clear"
"2014-02-28 06:00","2014","02","28","06:00","-17.7","","-25.1","","52","","9","","7","","24.1","","100.31","","","","-23","","Clear"
"2014-02-28 07:00","2014","02","28","07:00","-17.7","","-24.8","","54","","10","","6","","24.1","","100.37","","","","-22","","Clear"
"2014-02-28 08:00","2014","02","28","08:00","-17.0","","-24.7","","51","","9","","4","","24.1","","100.44","","","","-20","","Mainly Clear"
"2014-02-28 09:00","2014","02","28","09:00","-15.3","","-24.7","","44","","11","","13","","24.1","","100.42","","","","-23","","Mainly Clear"
"2014-02-28 10:00","2014","02","28","10:00","-13.6","","-23.7","","42","","11","","13","","24.1","","100.43","","","","-21","","Mostly Cloudy"
"2014-02-28 11:00","2014","02","28","11:00","-12.0","","-19.8","","52","","14","","17","","24.1","","100.44","","","","-20","","Mainly Clear"
"2014-02-28 12:00","2014","02","28","12:00","-11.0","","-17.2","","60","","17","","22","","9.7","","100.45","","","","-20","","Snow Showers"
"2014-02-28 13:00","2014","02","28","13:00","-10.6","","-18.2","","54","","18","","15","","24.1","","100.36","","","","-17","","Mainly Clear"
"2014-02-28 14:00","2014","02","28","14:00","-9.7","","-17.2","","54","","18","","15","","24.1","","100.27","","","","-16","","Mainly Clear"
"2014-02-28 15:00","2014","02","28","15:00","-9.3","","-16.6","","55","","17","","13","","24.1","","100.13","","","","-15","","Mainly Clear"
"2014-02-28 16:00","2014","02","28","16:00","-8.6","","-16.5","","53","","17","","15","","24.1","","100.10","","","","-15","","Mostly Cloudy"
"2014-02-28 17:00","2014","02","28","17:00","-8.5","","-15.5","","57","","16","","17","","24.1","","100.00","","","","-15","","Mostly Cloudy"
"2014-02-28 18:00","2014","02","28","18:00","-8.5","","-15.9","","55","","16","","13","","24.1","","100.06","","","","-14","","Mostly Cloudy"
"2014-02-28 19:00","2014","02","28","19:00","-8.2","","-14.7","","59","","13","","19","","24.1","","99.93","","","","-15","","Mostly Cloudy"
"2014-02-28 20:00","2014","02","28","20:00","-8.2","","-13.6","","65","","12","","19","","24.1","","99.88","","","","-15","","Cloudy"
"2014-02-28 21:00","2014","02","28","21:00","-8.3","","-13.8","","64","","12","","20","","24.1","","99.84","","","","-16","","Cloudy"
"2014-02-28 22:00","2014","02","28","22:00","-8.5","","-12.4","","73","","13","","13","","24.1","","99.83","","","","-14","","Cloudy"
"2014-02-28 23:00","2014","02","28","23:00","-8.5","","-11.7","","78","","14","","11","","24.1","","99.76","","","","-14","","Cloudy"
