"Station Name","WINDSOR A"
"Province","ONTARIO"
"Latitude","42.28"
"Longitude","-82.96"
"Elevation","189.60"
"Climate Identifier","6139525"
"WMO Identifier","71538"
"TC Identifier","YQG"
"All times are specified in Local Standard Time (LST). Add 1 hour to adjust for Daylight Saving Time where and when it is observed."

"Legend"
"E","Estimated"
"M","Missing"
"NA","Not Available"

"Date/Time","Year","Month","Day","Time","Temp (°C)","Temp Flag","Dew Point Temp (°C)","Dew Point Temp Flag","Rel Hum (%)","Rel Hum Flag","Wind Dir (10s deg)","Wind Dir Flag","Wind Spd (km/h)","Wind Spd Flag","Visibility (km)","Visibility Flag","Stn Press (kPa)","Stn Press Flag","Hmdx","Hmdx Flag","Wind Chill","Wind Chill Flag","Weather"
"2004-06-01 00:00","2004","06","01","00:00","14.7","","11.7","","82","","23","","7","","24.1","","97.97","","","","","","Mostly Cloudy"
"2004-06-01 01:00","2004","06","01","01:00","15.0","","12.1","","83","","23","","11","","24.1","","97.95","","","","","","Mostly Cloudy"
"2004-06-01 02:00","2004","06","01","02:00","15.3","","11.4","","78","","23","","15","","24.1","","97.95","","","","","","Mostly Cloudy"
"2004-06-01 03:00","2004","06","01","03:00","14.7","","10.9","","78","","23","","15","","24.1","","97.95","","","","","","Mostly Cloudy"
"2004-06-01 04:00","2004","06","01","04:00","14.7","","10.4","","75","","24","","17","","24.1","","97.96","","","","","","Mostly Cloudy"
"2004-06-01 05:00","2004","06","01","05:00","14.0","","10.4","","79","","24","","13","","24.1","","97.98","","","","","","Mainly Clear"
"2004-06-01 06:00","2004","06","01","06:00","14.1","","10.5","","79","","23","","19","","24.1","","98.00","","","","","","Mainly Clear"
"2004-06-01 07:00","2004","06","01","07:00","15.5","","10.4","","72","","25","","22","","24.1","","98.01","","","","","","Mainly Clear"
"2004-06-01 08:00","2004","06","01","08:00","16.9","","10.6","","66","","24","","20","","24.1","","98.04","","","","","","Mainly Clear"
"2004-06-01 09:00","2004","06","01","09:00","18.4","","11.1","","62","","24","","20","","24.1","","98.08","","","","","","Mainly Clear"
"2004-06-01 10:00","2004","06","01","10:00","19.6","","11.3","","59","","22","","26","","24.1","","98.07","","","","","","Mainly Clear"
"2004-06-01 11:00","2004","06","01","11:00","20.8","","11.5","","55","","23","","24","","24.1","","98.08","","","","","","Mainly Clear"
"2004-06-01 12:00","2004","06","01","12:00","22.3","","11.6","","51","","24","","32","","24.1","","98.06","","","","","","Mostly Cloudy"
"2004-06-01 13:00","2004","06","01","13:00","23.2","","10.7","","45","","26","","30","","24.1","","98.05","","25","","","","Mostly Cloudy"
"2004-06-01 14:00","2004","06","01","14:00","22.9","","11.6","","49","","24","","26","","24.1","","98.05","","25","","","","Mostly Cloudy"
"2004-06-01 15:00","2004","06","01","15:00","22.8","","11.7","","50","","24","","22","","24.1","","98.05","","25","","","","Mostly Cloudy"
"2004-06-01 16:00","2004","06","01","16:00","23.1","","9.0","","41","","28","","35","","24.1","","98.08","","","","","","Rain Showers"
"2004-06-01 17:00","2004","06","01","17:00","18.6","","11.4","","63","","30","","19","","24.1","","98.14","","","","","","Rain Showers"
"2004-06-01 18:00","2004","06","01","18:00","21.8","","9.6","","46","","27","","11","","24.1","","98.12","","","","","","Mostly Cloudy"
"2004-06-01 19:00","2004","06","01","19:00","20.6","","9.5","","49","","25","","15","","24.1","","98.18","","","","","","Mostly Cloudy"
"2004-06-01 20:00","2004","06","01","20:00","20.2","","9.8","","51","","25","","9","","24.1","","98.23","","","","","","Mostly Cloudy"
"2004-06-01 21:00","2004","06","01","21:00","19.0","","10.6","","58","","25","","4","","24.1","","98.23","","","","","","Mostly Cloudy"
"2004-06-01 22:00","2004","06","01","22:00","16.5","","11.7","","73","","20","","13","","24.1","","98.28","","","","","","Mostly Cloudy"
"2004-06-01 23:00","2004","06","01","23:00","17.7","","12.5","","72","","26","","11","","24.1","","98.37","","","","","","Cloudy"
"2004-06-02 00:00","2004","06","02","00:00","17.0","","11.9","","72","","","","0","","24.1","","98.32","","","","","","Mostly Cloudy"
"2004-06-02 01:00","2004","06","02","01:00","16.1","","11.9","","76","","25","","11","","24.1","","98.37","","","","","","Mainly Clear"
"2004-06-02 02:00","2004","06","02","02:00","15.3","","11.9","","80","","23","","11","","24.1","","98.39","","","","","","Clear"
"2004-06-02 03:00","2004","06","02","03:00","14.0","","11.6","","85","","","","0","","24.1","","98.40","","","","","","Clear"
"2004-06-02 04:00","2004","06","02","04:00","14.0","","11.6","","85","","23","","9","","24.1","","98.42","","","","","","Mainly Clear"
"2004-06-02 05:00","2004","06","02","05:00","14.5","","11.7","","83","","25","","13","","19.3","","98.49","","","","","","Mostly Cloudy"
"2004-06-02 06:00","2004","06","02","06:00","14.9","","11.8","","82","","25","","13","","24.1","","98.55","","","","","","Mostly Cloudy"
"2004-06-02 07:00","2004","06","02","07:00","15.6","","12.4","","81","","28","","11","","24.1","","98.62","","","","","","Mostly Cloudy"
"2004-06-02 08:00","2004","06","02","08:00","16.6","","11.4","","71","","28","","11","","24.1","","98.66","","","","","","Mostly Cloudy"
"2004-06-02 09:00","2004","06","02","09:00","18.1","","11.7","","66","","28","","11","","24.1","","98.71","","","","","","Mostly Cloudy"
"2004-06-02 10:00","2004","06","02","10:00","20.2","","11.4","","57","","28","","9","","24.1","","98.75","","","","","","Mostly Cloudy"
"2004-06-02 11:00","2004","06","02","11:00","19.6","","11.5","","59","","26","","15","","24.1","","98.77","","","","","","Mostly Cloudy"
"2004-06-02 12:00","2004","06","02","12:00","19.7","","12.3","","62","","27","","11","","24.1","","98.80","","","","","","Rain Showers"
"2004-06-02 13:00","2004","06","02","13:00","16.8","","15.0","","89","","26","","19","","19.3","","98.82","","","","","","Moderate Rain Showers"
"2004-06-02 14:00","2004","06","02","14:00","16.9","","15.0","","89","","25","","15","","19.3","","98.86","","","","","","Rain Showers"
"2004-06-02 15:00","2004","06","02","15:00","17.7","","15.2","","85","","28","","11","","24.1","","98.86","","","","","","Mostly Cloudy"
"2004-06-02 16:00","2004","06","02","16:00","17.8","","15.2","","85","","4","","6","","19.3","","98.92","","","","","","Mostly Cloudy"
"2004-06-02 17:00","2004","06","02","17:00","16.4","","14.9","","91","","4","","11","","19.3","","98.98","","","","","","Rain Showers"
"2004-06-02 18:00","2004","06","02","18:00","16.3","","13.6","","84","","1","","13","","24.1","","99.03","","","","","","Mostly Cloudy"
"2004-06-02 19:00","2004","06","02","19:00","16.0","","14.4","","90","","3","","7","","24.1","","99.09","","","","","","Mostly Cloudy"
"2004-06-02 20:00","2004","06","02","20:00","15.2","","13.6","","90","","3","","7","","19.3","","99.18","","","","","","Mostly Cloudy"
"2004-06-02 21:00","2004","06","02","21:00","14.2","","12.4","","89","","5","","11","","24.1","","99.30","","","","","","Mainly Clear"
"2004-06-02 22:00","2004","06","02","22:00","14.0","","12.3","","89","","1","","6","","24.1","","99.37","","","","","","Mainly Clear"
"2004-06-02 23:00","2004","06","02","23:00","13.4","","11.7","","89","","36","","7","","24.1","","99.42","","","","","","Mainly Clear"
"2004-06-03 00:00","2004","06","03","00:00","12.9","","10.8","","87","","1","","7","","24.1","","99.43","","","","","","Mainly Clear"
"2004-06-03 01:00","2004","06","03","01:00","12.4","","10.0","","85","","36","","11","","24.1","","99.43","","","","","","Mainly Clear"
"2004-06-03 02:00","2004","06","03","02:00","11.7","","10.1","","90","","35","","11","","24.1","","99.50","","","","","","Clear"
"2004-06-03 03:00","2004","06","03","03:00","11.8","","9.8","","88","","","","0","","24.1","","99.61","","","","","","Clear"
"2004-06-03 04:00","2004","06","03","04:00","12.3","","10.2","","87","","31","","6","","24.1","","99.66","","","","","","Clear"
"2004-06-03 05:00","2004","06","03","05:00","11.0","","9.8","","92","","35","","6","","24.1","","99.69","","","","","","Clear"
"2004-06-03 06:00","2004","06","03","06:00","11.7","","10.0","","89","","36","","4","","24.1","","99.76","","","","","","Clear"
"2004-06-03 07:00","2004","06","03","07:00","14.3","","10.5","","78","","36","","6","","24.1","","99.85","","","","","","Clear"
"2004-06-03 08:00","2004","06","03","08:00","16.3","","10.0","","66","","36","","7","","24.1","","99.91","","","","","","Clear"
"2004-06-03 09:00","2004","06","03","09:00","17.9","","10.8","","63","","2","","6","","24.1","","99.93","","","","","","Clear"
"2004-06-03 10:00","2004","06","03","10:00","18.9","","9.7","","55","","8","","6","","24.1","","99.92","","","","","","Clear"
"2004-06-03 11:00","2004","06","03","11:00","20.4","","9.3","","49","","14","","4","","24.1","","99.95","","","","","","Mainly Clear"
"2004-06-03 12:00","2004","06","03","12:00","20.6","","8.8","","47","","7","","7","","24.1","","99.92","","","","","","Mostly Cloudy"
"2004-06-03 13:00","2004","06","03","13:00","20.4","","10.6","","53","","9","","11","","24.1","","99.88","","","","","","Mostly Cloudy"
"2004-06-03 14:00","2004","06","03","14:00","19.9","","11.4","","58","","6","","24","","24.1","","99.89","","","","","","Mostly Cloudy"
"2004-06-03 15:00","2004","06","03","15:00","18.2","","10.2","","60","","5","","32","","24.1","","99.93","","","","","","Mainly Clear"
"2004-06-03 16:00","2004","06","03","16:00","17.1","","7.3","","52","","4","","30","","24.1","","100.01","","","","","","Mainly Clear"
"2004-06-03 17:00","2004","06","03","17:00","16.0","","6.1","","52","","7","","22","","24.1","","100.04","","","","","","Mostly Cloudy"
"2004-06-03 18:00","2004","06","03","18:00","16.2","","4.0","","44","","5","","24","","24.1","","100.06","","","","","","Mostly Cloudy"
"2004-06-03 19:00","2004","06","03","19:00","15.3","","4.3","","48","","5","","20","","24.1","","100.09","","","","","","Mainly Clear"
"2004-06-03 20:00","2004","06","03","20:00","13.7","","3.9","","52","","5","","19","","24.1","","100.13","","","","","","Mainly Clear"
"2004-06-03 21:00","2004","06","03","21:00","12.8","","4.6","","57","","5","","13","","24.1","","100.17","","","","","","Mainly Clear"
"2004-06-03 22:00","2004","06","03","22:00","11.6","","4.9","","63","","4","","17","","24.1","","100.20","","","","","","Mainly Clear"
"2004-06-03 23:00","2004","06","03","23:00","11.0","","4.0","","62","","5","","11","","24.1","","100.21","","","","","","Mostly Cloudy"
"2004-06-04 00:00","2004","06","04","00:00","10.4","","5.3","","71","","5","","11","","24.1","","100.20","","","","","","Mainly Clear"
"2004-06-04 01:00","2004","06","04","01:00","9.8","","5.4","","74","","5","","11","","24.1","","100.18","","","","","","Mainly Clear"
"2004-06-04 02:00","2004","06","04","02:00","9.8","","5.6","","75","","4","","15","","24.1","","100.15","","","","","","Mainly Clear"
"2004-06-04 03:00","2004","06","04","03:00","9.6","","6.5","","81","","5","","9","","24.1","","100.15","","","","","","Clear"
"2004-06-04 04:00","2004","06","04","04:00","9.0","","7.3","","89","","5","","11","","24.1","","100.16","","","","","","Clear"
"2004-06-04 05:00","2004","06","04","05:00","10.0","","7.4","","84","","8","","6","","24.1","","100.19","","","","","","Mainly Clear"
"2004-06-04 06:00","2004","06","04","06:00","11.4","","6.9","","74","","9","","6","","24.1","","100.24","","","","","","Mainly Clear"
"2004-06-04 07:00","2004","06","04","07:00","12.7","","6.0","","64","","9","","9","","24.1","","100.25","","","","","","Mainly Clear"
"2004-06-04 08:00","2004","06","04","08:00","14.3","","6.0","","57","","9","","9","","24.1","","100.25","","","","","","Mainly Clear"
"2004-06-04 09:00","2004","06","04","09:00","15.5","","5.6","","52","","7","","9","","24.1","","100.24","","","","","","Mainly Clear"
"2004-06-04 10:00","2004","06","04","10:00","16.1","","8.2","","59","","5","","13","","24.1","","100.19","","","","","","Mainly Clear"
"2004-06-04 11:00","2004","06","04","11:00","16.6","","5.8","","49","","3","","13","","24.1","","100.16","","","","","","Mainly Clear"
"2004-06-04 12:00","2004","06","04","12:00","16.8","","3.9","","42","","5","","17","","24.1","","100.14","","","","","","Mainly Clear"
"2004-06-04 13:00","2004","06","04","13:00","17.7","","3.7","","39","","4","","17","","24.1","","100.10","","","","","","Mainly Clear"
"2004-06-04 14:00","2004","06","04","14:00","18.6","","0.6","","30","","4","","17","","24.1","","100.01","","","","","","Mostly Cloudy"
"2004-06-04 15:00","2004","06","04","15:00","19.1","","2.7","","34","","6","","17","","24.1","","99.95","","","","","","Mostly Cloudy"
"2004-06-04 16:00","2004","06","04","16:00","19.8","","2.7","","32","","8","","13","","24.1","","99.91","","","","","","Mostly Cloudy"
"2004-06-04 17:00","2004","06","04","17:00","20.2","","4.6","","36","","7","","13","","24.1","","99.89","","","","","","Mostly Cloudy"
"2004-06-04 18:00","2004","06","04","18:00","18.7","","6.8","","46","","10","","19","","24.1","","99.84","","","","","","Mostly Cloudy"
"2004-06-04 19:00","2004","06","04","19:00","17.9","","6.1","","46","","11","","15","","24.1","","99.82","","","","","","Mostly Cloudy"
"2004-06-04 20:00","2004","06","04","20:00","16.7","","5.6","","48","","11","","7","","24.1","","99.82","","","","","","Mainly Clear"
"2004-06-04 21:00","2004","06","04","21:00","15.6","","6.0","","53","","","","0","","24.1","","99.85","","","","","","Mainly Clear"
"2004-06-04 22:00","2004","06","04","22:00","14.7","","6.4","","57","","9","","4","","24.1","","99.90","","","","","","Mainly Clear"
"2004-06-04 23:00","2004","06","04","23:00","13.1","","7.8","","70","","4","","9","","24.1","","99.86","","","","","","Mainly Clear"
"2004-06-05 00:00","2004","06","05","00:00","12.0","","7.9","","76","","3","","7","","24.1","","99.82","","","","","","Mostly Cloudy"
"2004-06-05 01:00","2004","06","05","01:00","12.3","","7.9","","74","","3","","7","","24.1","","99.79","","","","","","Mostly Cloudy"
"2004-06-05 02:00","2004","06","05","02:00","12.2","","7.8","","74","","","","0","","24.1","","99.74","","","","","","Mostly Cloudy"
"2004-06-05 03:00","2004","06","05","03:00","11.7","","8.1","","79","","34","","4","","24.1","","99.71","","","","","","Mostly Cloudy"
"2004-06-05 04:00","2004","06","05","04:00","11.0","","7.9","","81","","35","","6","","24.1","","99.70","","","","","","Mainly Clear"
"2004-06-05 05:00","2004","06","05","05:00","10.3","","7.5","","83","","1","","6","","24.1","","99.70","","","","","","Mostly Cloudy"
"2004-06-05 06:00","2004","06","05","06:00","11.1","","7.5","","78","","","","0","","24.1","","99.70","","","","","","Mostly Cloudy"
"2004-06-05 07:00","2004","06","05","07:00","13.2","","9.5","","78","","36","","7","","19.3","","99.73","","","","","","Mainly Clear"
"2004-06-05 08:00","2004","06","05","08:00","15.4","","8.4","","63","","34","","7","","19.3","","99.77","","","","","","Mainly Clear"
"2004-06-05 09:00","2004","06","05","09:00","17.5","","10.1","","62","","9","","6","","24.1","","99.77","","","","","","Mainly Clear"
"2004-06-05 10:00","2004","06","05","10:00","18.8","","10.0","","57","","9","","6","","24.1","","99.76","","","","","","Mainly Clear"
"2004-06-05 11:00","2004","06","05","11:00","19.6","","8.7","","49","","11","","9","","24.1","","99.72","","","","","","Mainly Clear"
"2004-06-05 12:00","2004","06","05","12:00","20.5","","8.3","","45","","9","","7","","24.1","","99.66","","","","","","Clear"
"2004-06-05 13:00","2004","06","05","13:00","20.5","","7.2","","42","","12","","6","","24.1","","99.60","","","","","","Clear"
"2004-06-05 14:00","2004","06","05","14:00","21.2","","7.7","","42","","9","","6","","24.1","","99.57","","","","","","Clear"
"2004-06-05 15:00","2004","06","05","15:00","21.8","","7.6","","40","","5","","4","","24.1","","99.51","","","","","","Mainly Clear"
"2004-06-05 16:00","2004","06","05","16:00","22.2","","6.4","","36","","10","","11","","24.1","","99.44","","","","","","Mainly Clear"
"2004-06-05 17:00","2004","06","05","17:00","21.4","","11.8","","54","","21","","20","","24.1","","99.45","","","","","","Mainly Clear"
"2004-06-05 18:00","2004","06","05","18:00","20.8","","11.0","","53","","18","","17","","24.1","","99.45","","","","","","Mostly Cloudy"
"2004-06-05 19:00","2004","06","05","19:00","19.8","","11.2","","58","","18","","15","","16.1","","99.45","","","","","","Mostly Cloudy"
"2004-06-05 20:00","2004","06","05","20:00","17.7","","11.5","","67","","16","","15","","12.9","","99.43","","","","","","Mostly Cloudy"
"2004-06-05 21:00","2004","06","05","21:00","15.8","","12.5","","81","","17","","7","","24.1","","99.47","","","","","","Mainly Clear"
"2004-06-05 22:00","2004","06","05","22:00","15.3","","12.8","","85","","15","","9","","24.1","","99.46","","","","","","Mainly Clear"
"2004-06-05 23:00","2004","06","05","23:00","14.8","","13.5","","92","","17","","7","","19.3","","99.42","","","","","","Mainly Clear"
"2004-06-06 00:00","2004","06","06","00:00","14.7","","13.6","","93","","16","","7","","16.1","","99.39","","","","","","Mainly Clear"
"2004-06-06 01:00","2004","06","06","01:00","14.4","","13.7","","96","","15","","7","","9.7","","99.34","","","","","","Fog"
"2004-06-06 02:00","2004","06","06","02:00","13.9","","13.5","","97","","16","","6","","4.8","","99.33","","","","","","Fog"
"2004-06-06 03:00","2004","06","06","03:00","13.7","","13.5","","99","","17","","6","","3.2","","99.32","","","","","","Fog"
"2004-06-06 04:00","2004","06","06","04:00","14.8","","14.4","","97","","17","","6","","3.2","","99.33","","","","","","Fog"
"2004-06-06 05:00","2004","06","06","05:00","15.3","","14.7","","96","","18","","6","","3.2","","99.33","","","","","","Fog"
"2004-06-06 06:00","2004","06","06","06:00","15.8","","14.9","","94","","17","","9","","3.2","","99.34","","","","","","Fog"
"2004-06-06 07:00","2004","06","06","07:00","16.8","","15.3","","91","","18","","13","","6.4","","99.35","","","","","","Fog"
"2004-06-06 08:00","2004","06","06","08:00","17.4","","15.7","","90","","19","","13","","6.4","","99.34","","","","","","Fog"
"2004-06-06 09:00","2004","06","06","09:00","18.7","","14.8","","78","","18","","19","","8.0","","99.31","","","","","","Haze"
"2004-06-06 10:00","2004","06","06","10:00","19.7","","13.7","","68","","22","","20","","9.7","","99.32","","","","","","Haze"
"2004-06-06 11:00","2004","06","06","11:00","19.8","","14.0","","69","","19","","15","","9.7","","99.29","","","","","","Haze"
"2004-06-06 12:00","2004","06","06","12:00","21.9","","14.7","","64","","21","","15","","9.7","","99.27","","26","","","","Haze"
"2004-06-06 13:00","2004","06","06","13:00","23.3","","15.0","","60","","23","","13","","9.7","","99.25","","27","","","","Haze"
"2004-06-06 14:00","2004","06","06","14:00","24.3","","14.1","","53","","21","","15","","19.3","","99.21","","28","","","","Mostly Cloudy"
"2004-06-06 15:00","2004","06","06","15:00","25.3","","14.5","","51","","20","","24","","12.9","","99.17","","29","","","","Mostly Cloudy"
"2004-06-06 16:00","2004","06","06","16:00","24.4","","14.9","","55","","20","","20","","12.9","","99.17","","28","","","","Mostly Cloudy"
"2004-06-06 17:00","2004","06","06","17:00","25.3","","11.9","","43","","23","","24","","12.9","","99.16","","28","","","","Mainly Clear"
"2004-06-06 18:00","2004","06","06","18:00","24.4","","13.5","","51","","21","","22","","11.3","","99.19","","27","","","","Mainly Clear"
"2004-06-06 19:00","2004","06","06","19:00","23.0","","13.8","","56","","20","","17","","16.1","","99.23","","26","","","","Mostly Cloudy"
"2004-06-06 20:00","2004","06","06","20:00","22.2","","15.2","","65","","20","","15","","12.9","","99.22","","26","","","","Mostly Cloudy"
"2004-06-06 21:00","2004","06","06","21:00","21.3","","15.7","","70","","19","","9","","19.3","","99.26","","26","","","","Mostly Cloudy"
"2004-06-06 22:00","2004","06","06","22:00","21.2","","15.2","","69","","20","","11","","19.3","","99.30","","25","","","","Mostly Cloudy"
"2004-06-06 23:00","2004","06","06","23:00","20.4","","15.0","","71","","20","","15","","19.3","","99.33","","","","","","Mainly Clear"
"2004-06-07 00:00","2004","06","07","00:00","19.7","","15.3","","76","","20","","13","","16.1","","99.37","","","","","","Mainly Clear"
"2004-06-07 01:00","2004","06","07","01:00","19.5","","15.6","","78","","20","","13","","16.1","","99.35","","","","","","Mainly Clear"
"2004-06-07 02:00","2004","06","07","02:00","18.9","","15.8","","82","","21","","9","","9.7","","99.36","","","","","","Haze"
"2004-06-07 03:00","2004","06","07","03:00","18.4","","15.7","","84","","22","","9","","9.7","","99.38","","","","","","Haze"
"2004-06-07 04:00","2004","06","07","04:00","18.1","","15.6","","85","","21","","11","","9.7","","99.43","","","","","","Haze"
"2004-06-07 05:00","2004","06","07","05:00","17.7","","15.4","","86","","22","","9","","4.8","","99.49","","","","","","Haze"
"2004-06-07 06:00","2004","06","07","06:00","18.4","","15.2","","82","","23","","7","","4.8","","99.54","","","","","","Haze"
"2004-06-07 07:00","2004","06","07","07:00","19.9","","15.1","","74","","23","","11","","8.0","","99.56","","","","","","Haze"
"2004-06-07 08:00","2004","06","07","08:00","21.2","","15.3","","69","","22","","9","","8.0","","99.58","","25","","","","Haze"
"2004-06-07 09:00","2004","06","07","09:00","23.1","","16.1","","65","","22","","7","","9.7","","99.62","","28","","","","Haze"
"2004-06-07 10:00","2004","06","07","10:00","25.2","","15.9","","56","","25","","13","","11.3","","99.61","","30","","","","Mainly Clear"
"2004-06-07 11:00","2004","06","07","11:00","25.8","","16.4","","56","","22","","17","","11.3","","99.59","","31","","","","Mostly Cloudy"
"2004-06-07 12:00","2004","06","07","12:00","26.9","","16.4","","53","","22","","22","","11.3","","99.55","","32","","","","Mainly Clear"
"2004-06-07 13:00","2004","06","07","13:00","27.4","","15.8","","49","","21","","30","","12.9","","99.54","","32","","","","Mostly Cloudy"
"2004-06-07 14:00","2004","06","07","14:00","27.4","","15.6","","49","","20","","28","","12.9","","99.50","","32","","","","Mostly Cloudy"
"2004-06-07 15:00","2004","06","07","15:00","27.6","","14.8","","46","","20","","28","","12.9","","99.48","","31","","","","Mostly Cloudy"
"2004-06-07 16:00","2004","06","07","16:00","27.7","","14.7","","45","","19","","26","","11.3","","99.44","","31","","","","Mostly Cloudy"
"2004-06-07 17:00","2004","06","07","17:00","28.0","","14.2","","43","","20","","24","","11.3","","99.42","","31","","","","Mostly Cloudy"
"2004-06-07 18:00","2004","06","07","18:00","27.7","","14.5","","44","","19","","28","","11.3","","99.40","","31","","","","Mostly Cloudy"
"2004-06-07 19:00","2004","06","07","19:00","26.9","","14.2","","46","","20","","28","","11.3","","99.40","","30","","","","Mainly Clear"
"2004-06-07 20:00","2004","06","07","20:00","24.9","","14.4","","52","","19","","15","","9.7","","99.41","","29","","","","Haze"
"2004-06-07 21:00","2004","06","07","21:00","23.3","","14.7","","58","","18","","15","","19.3","","99.46","","27","","","","Mainly Clear"
"2004-06-07 22:00","2004","06","07","22:00","23.1","","14.7","","59","","19","","11","","19.3","","99.51","","27","","","","Clear"
"2004-06-07 23:00","2004","06","07","23:00","22.6","","14.7","","61","","19","","17","","19.3","","99.52","","26","","","","Mainly Clear"
"2004-06-08 00:00","2004","06","08","00:00","22.5","","14.7","","61","","20","","13","","19.3","","99.56","","26","","","","Mainly Clear"
"2004-06-08 01:00","2004","06","08","01:00","21.4","","15.1","","67","","19","","13","","19.3","","99.60","","25","","","","Clear"
"2004-06-08 02:00","2004","06","08","02:00","21.0","","15.4","","70","","19","","15","","19.3","","99.60","","25","","","","Clear"
"2004-06-08 03:00","2004","06","08","03:00","20.5","","15.8","","74","","20","","15","","16.1","","99.59","","25","","","","Clear"
"2004-06-08 04:00","2004","06","08","04:00","20.2","","16.2","","78","","20","","15","","12.9","","99.58","","25","","","","Clear"
"2004-06-08 05:00","2004","06","08","05:00","19.8","","16.7","","82","","20","","11","","8.0","","99.61","","","","","","Haze"
"2004-06-08 06:00","2004","06","08","06:00","20.3","","17.2","","82","","21","","17","","6.4","","99.66","","26","","","","Haze"
"2004-06-08 07:00","2004","06","08","07:00","21.9","","18.1","","79","","22","","11","","4.8","","99.74","","28","","","","Haze"
"2004-06-08 08:00","2004","06","08","08:00","23.9","","18.8","","73","","24","","15","","6.4","","99.77","","31","","","","Haze"
"2004-06-08 09:00","2004","06","08","09:00","25.3","","19.6","","71","","22","","15","","8.0","","99.73","","33","","","","Haze"
"2004-06-08 10:00","2004","06","08","10:00","27.4","","20.3","","65","","24","","17","","9.7","","99.69","","35","","","","Haze"
"2004-06-08 11:00","2004","06","08","11:00","28.2","","20.9","","65","","22","","20","","11.3","","99.64","","37","","","","Mostly Cloudy"
"2004-06-08 12:00","2004","06","08","12:00","28.9","","21.1","","63","","21","","24","","11.3","","99.60","","37","","","","Mainly Clear"
"2004-06-08 13:00","2004","06","08","13:00","29.6","","20.7","","59","","22","","26","","11.3","","99.53","","38","","","","Mainly Clear"
"2004-06-08 14:00","2004","06","08","14:00","30.4","","20.2","","55","","20","","26","","11.3","","99.49","","38","","","","Mainly Clear"
"2004-06-08 15:00","2004","06","08","15:00","30.7","","19.4","","51","","21","","28","","11.3","","99.45","","38","","","","Mainly Clear"
"2004-06-08 16:00","2004","06","08","16:00","31.7","","19.4","","48","","22","","26","","12.9","","99.45","","39","","","","Mainly Clear"
"2004-06-08 17:00","2004","06","08","17:00","31.6","","19.1","","48","","22","","26","","19.3","","99.46","","38","","","","Mainly Clear"
"2004-06-08 18:00","2004","06","08","18:00","31.5","","19.0","","48","","23","","20","","24.1","","99.45","","38","","","","Mainly Clear"
"2004-06-08 19:00","2004","06","08","19:00","30.4","","18.6","","49","","22","","15","","24.1","","99.44","","37","","","","Clear"
"2004-06-08 20:00","2004","06","08","20:00","29.2","","18.6","","53","","22","","15","","24.1","","99.47","","36","","","","Mainly Clear"
"2004-06-08 21:00","2004","06","08","21:00","27.7","","18.7","","58","","21","","13","","24.1","","99.53","","34","","","","Clear"
"2004-06-08 22:00","2004","06","08","22:00","26.4","","18.9","","63","","20","","11","","19.3","","99.52","","33","","","","Clear"
"2004-06-08 23:00","2004","06","08","23:00","25.2","","19.2","","69","","21","","15","","24.1","","99.54","","32","","","","Clear"
"2004-06-09 00:00","2004","06","09","00:00","25.0","","19.4","","71","","21","","11","","24.1","","99.50","","32","","","","Clear"
"2004-06-09 01:00","2004","06","09","01:00","24.2","","19.6","","76","","21","","13","","19.3","","99.49","","31","","","","Clear"
"2004-06-09 02:00","2004","06","09","02:00","24.0","","19.4","","75","","23","","9","","19.3","","99.48","","31","","","","Mainly Clear"
"2004-06-09 03:00","2004","06","09","03:00","24.0","","19.1","","74","","22","","9","","19.3","","99.42","","31","","","","Mainly Clear"
"2004-06-09 04:00","2004","06","09","04:00","23.8","","19.1","","75","","21","","9","","16.1","","99.47","","31","","","","Mostly Cloudy"
"2004-06-09 05:00","2004","06","09","05:00","23.5","","19.4","","78","","23","","9","","12.9","","99.49","","31","","","","Mostly Cloudy"
"2004-06-09 06:00","2004","06","09","06:00","23.8","","19.6","","77","","21","","9","","12.9","","99.55","","31","","","","Mostly Cloudy"
"2004-06-09 07:00","2004","06","09","07:00","24.8","","20.2","","76","","23","","13","","12.9","","99.51","","33","","","","Mostly Cloudy"
"2004-06-09 08:00","2004","06","09","08:00","26.3","","20.9","","72","","23","","17","","12.9","","99.46","","35","","","","Mainly Clear"
"2004-06-09 09:00","2004","06","09","09:00","27.8","","21.2","","67","","25","","17","","14.5","","99.47","","36","","","","Mostly Cloudy"
"2004-06-09 10:00","2004","06","09","10:00","29.6","","22.0","","64","","27","","19","","16.1","","99.48","","39","","","","Mostly Cloudy"
"2004-06-09 11:00","2004","06","09","11:00","30.4","","22.0","","61","","25","","17","","17.7","","99.49","","40","","","","Mostly Cloudy"
"2004-06-09 12:00","2004","06","09","12:00","31.5","","21.9","","57","","24","","20","","19.3","","99.42","","41","","","","Mostly Cloudy"
"2004-06-09 13:00","2004","06","09","13:00","31.5","","22.1","","58","","23","","22","","19.3","","99.26","","41","","","","Mostly Cloudy"
"2004-06-09 14:00","2004","06","09","14:00","25.9","","16.6","","57","","32","","22","","19.3","","99.25","","31","","","","Thunderstorms"
"2004-06-09 15:00","2004","06","09","15:00","23.3","","20.2","","83","","30","","13","","19.3","","99.36","","31","","","","Mostly Cloudy"
"2004-06-09 16:00","2004","06","09","16:00","24.8","","18.7","","69","","5","","9","","24.1","","99.39","","31","","","","Mostly Cloudy"
"2004-06-09 17:00","2004","06","09","17:00","23.6","","20.5","","83","","9","","7","","24.1","","99.37","","32","","","","Mostly Cloudy"
"2004-06-09 18:00","2004","06","09","18:00","24.3","","20.2","","78","","","","0","","24.1","","99.34","","32","","","","Mostly Cloudy"
"2004-06-09 19:00","2004","06","09","19:00","23.0","","21.2","","90","","31","","6","","6.4","","99.40","","32","","","","Thunderstorms,Rain Showers"
"2004-06-09 20:00","2004","06","09","20:00","21.3","","19.2","","88","","21","","20","","11.3","","99.45","","28","","","","Thunderstorms,Rain Showers"
"2004-06-09 21:00","2004","06","09","21:00","20.4","","19.3","","93","","18","","9","","24.1","","99.38","","27","","","","Rain Showers"
"2004-06-09 22:00","2004","06","09","22:00","21.0","","19.5","","91","","35","","15","","24.1","","99.39","","28","","","","Cloudy"
"2004-06-09 23:00","2004","06","09","23:00","21.2","","20.0","","93","","22","","9","","19.3","","99.37","","29","","","","Cloudy"
"2004-06-10 00:00","2004","06","10","00:00","21.2","","19.5","","90","","1","","11","","19.3","","99.39","","28","","","","Cloudy"
"2004-06-10 01:00","2004","06","10","01:00","17.8","","17.2","","96","","4","","13","","6.4","","99.37","","","","","","Rain Showers,Fog"
"2004-06-10 02:00","2004","06","10","02:00","17.2","","16.8","","97","","5","","11","","4.8","","99.33","","","","","","Fog"
"2004-06-10 03:00","2004","06","10","03:00","16.8","","16.3","","97","","6","","9","","4.8","","99.28","","","","","","Fog"
"2004-06-10 04:00","2004","06","10","04:00","16.7","","15.6","","93","","4","","11","","9.7","","99.29","","","","","","Rain Showers,Fog"
"2004-06-10 05:00","2004","06","10","05:00","16.7","","15.5","","93","","5","","9","","9.7","","99.30","","","","","","Fog"
"2004-06-10 06:00","2004","06","10","06:00","16.7","","15.6","","93","","5","","15","","9.7","","99.31","","","","","","Fog"
"2004-06-10 07:00","2004","06","10","07:00","16.4","","15.4","","94","","5","","11","","9.7","","99.35","","","","","","Fog"
"2004-06-10 08:00","2004","06","10","08:00","16.4","","15.3","","93","","4","","19","","9.7","","99.35","","","","","","Rain Showers,Fog"
"2004-06-10 09:00","2004","06","10","09:00","16.3","","14.8","","91","","4","","19","","8.0","","99.39","","","","","","Rain Showers,Fog"
"2004-06-10 10:00","2004","06","10","10:00","15.7","","15.2","","97","","4","","19","","4.8","","99.43","","","","","","Rain Showers,Fog"
"2004-06-10 11:00","2004","06","10","11:00","16.3","","15.4","","94","","4","","20","","6.4","","99.40","","","","","","Rain Showers,Fog"
"2004-06-10 12:00","2004","06","10","12:00","16.3","","15.3","","94","","3","","20","","9.7","","99.40","","","","","","Rain,Fog"
"2004-06-10 13:00","2004","06","10","13:00","16.4","","15.4","","94","","3","","20","","9.7","","99.35","","","","","","Rain,Fog"
"2004-06-10 14:00","2004","06","10","14:00","16.0","","15.3","","96","","4","","15","","2.8","","99.36","","","","","","Rain,Fog"
"2004-06-10 15:00","2004","06","10","15:00","16.1","","15.6","","97","","4","","17","","2.4","","99.33","","","","","","Rain,Fog"
"2004-06-10 16:00","2004","06","10","16:00","15.9","","15.4","","97","","5","","17","","1.2","","99.31","","","","","","Rain,Fog"
"2004-06-10 17:00","2004","06","10","17:00","16.2","","15.5","","96","","9","","11","","4.8","","99.30","","","","","","Fog"
"2004-06-10 18:00","2004","06","10","18:00","15.6","","15.2","","97","","10","","11","","4.0","","99.30","","","","","","Rain,Fog"
"2004-06-10 19:00","2004","06","10","19:00","15.4","","14.8","","96","","10","","9","","8.0","","99.35","","","","","","Rain,Fog"
"2004-06-10 20:00","2004","06","10","20:00","15.2","","14.4","","95","","9","","13","","8.0","","99.34","","","","","","Rain,Fog"
"2004-06-10 21:00","2004","06","10","21:00","15.0","","14.4","","96","","11","","11","","8.0","","99.33","","","","","","Fog"
"2004-06-10 22:00","2004","06","10","22:00","15.0","","14.3","","96","","10","","7","","8.0","","99.36","","","","","","Rain,Fog"
"2004-06-10 23:00","2004","06","10","23:00","14.9","","14.3","","96","","12","","9","","9.7","","99.36","","","","","","Rain,Fog"
"2004-06-11 00:00","2004","06","11","00:00","14.6","","13.9","","96","","12","","7","","6.4","","99.37","","","","","","Rain,Fog"
"2004-06-11 01:00","2004","06","11","01:00","14.2","","13.5","","96","","10","","9","","8.0","","99.32","","","","","","Rain,Fog"
"2004-06-11 02:00","2004","06","11","02:00","14.2","","11.8","","85","","9","","11","","16.1","","99.26","","","","","","Rain"
"2004-06-11 03:00","2004","06","11","03:00","14.2","","12.7","","91","","8","","9","","12.9","","99.24","","","","","","Rain"
"2004-06-11 04:00","2004","06","11","04:00","13.9","","10.2","","78","","10","","13","","16.1","","99.24","","","","","","Rain"
"2004-06-11 05:00","2004","06","11","05:00","12.9","","10.9","","88","","9","","13","","16.1","","99.23","","","","","","Rain"
"2004-06-11 06:00","2004","06","11","06:00","12.1","","9.8","","86","","9","","15","","16.1","","99.23","","","","","","Rain"
"2004-06-11 07:00","2004","06","11","07:00","12.4","","11.1","","92","","9","","11","","19.3","","99.24","","","","","","Rain"
"2004-06-11 08:00","2004","06","11","08:00","13.4","","11.7","","89","","9","","20","","16.1","","99.18","","","","","","Rain"
"2004-06-11 09:00","2004","06","11","09:00","13.7","","11.4","","86","","8","","19","","24.1","","99.19","","","","","","Rain"
"2004-06-11 10:00","2004","06","11","10:00","14.6","","11.5","","82","","8","","24","","24.1","","99.20","","","","","","Rain"
"2004-06-11 11:00","2004","06","11","11:00","14.7","","11.4","","81","","8","","19","","24.1","","99.21","","","","","","Rain"
"2004-06-11 12:00","2004","06","11","12:00","14.9","","11.9","","82","","9","","17","","24.1","","99.24","","","","","","Rain"
"2004-06-11 13:00","2004","06","11","13:00","16.0","","10.9","","72","","7","","32","","24.1","","99.24","","","","","","Rain"
"2004-06-11 14:00","2004","06","11","14:00","16.3","","10.6","","69","","7","","30","","24.1","","99.28","","","","","","Rain"
"2004-06-11 15:00","2004","06","11","15:00","17.0","","7.8","","55","","9","","28","","24.1","","99.30","","","","","","Cloudy"
"2004-06-11 16:00","2004","06","11","16:00","17.1","","6.9","","51","","8","","30","","24.1","","99.32","","","","","","Cloudy"
"2004-06-11 17:00","2004","06","11","17:00","16.8","","8.4","","58","","9","","24","","24.1","","99.29","","","","","","Mostly Cloudy"
"2004-06-11 18:00","2004","06","11","18:00","16.7","","9.1","","61","","10","","13","","24.1","","99.37","","","","","","Mostly Cloudy"
"2004-06-11 19:00","2004","06","11","19:00","16.6","","9.4","","62","","10","","11","","19.3","","99.37","","","","","","Mostly Cloudy"
"2004-06-11 20:00","2004","06","11","20:00","15.6","","10.6","","72","","10","","11","","19.3","","99.37","","","","","","Mainly Clear"
"2004-06-11 21:00","2004","06","11","21:00","14.7","","9.7","","72","","9","","4","","24.1","","99.46","","","","","","Mainly Clear"
"2004-06-11 22:00","2004","06","11","22:00","14.2","","9.3","","72","","11","","13","","24.1","","99.52","","","","","","Mainly Clear"
"2004-06-11 23:00","2004","06","11","23:00","14.1","","10.0","","76","","9","","9","","24.1","","99.59","","","","","","Mainly Clear"
"2004-06-12 00:00","2004","06","12","00:00","14.8","","8.4","","65","","9","","15","","24.1","","99.57","","","","","","Mostly Cloudy"
"2004-06-12 01:00","2004","06","12","01:00","14.4","","7.6","","64","","9","","13","","24.1","","99.54","","","","","","Mainly Clear"
"2004-06-12 02:00","2004","06","12","02:00","13.5","","7.3","","66","","9","","15","","24.1","","99.48","","","","","","Mainly Clear"
"2004-06-12 03:00","2004","06","12","03:00","13.5","","7.8","","68","","10","","13","","24.1","","99.43","","","","","","Mainly Clear"
"2004-06-12 04:00","2004","06","12","04:00","13.3","","9.0","","75","","10","","11","","24.1","","99.46","","","","","","Mainly Clear"
"2004-06-12 05:00","2004","06","12","05:00","13.1","","9.8","","80","","8","","11","","24.1","","99.44","","","","","","Mostly Cloudy"
"2004-06-12 06:00","2004","06","12","06:00","13.9","","10.8","","82","","6","","6","","24.1","","99.60","","","","","","Mostly Cloudy"
"2004-06-12 07:00","2004","06","12","07:00","14.4","","11.9","","85","","6","","9","","24.1","","99.65","","","","","","Mostly Cloudy"
"2004-06-12 08:00","2004","06","12","08:00","15.2","","12.5","","84","","9","","6","","24.1","","99.73","","","","","","Mostly Cloudy"
"2004-06-12 09:00","2004","06","12","09:00","15.5","","13.5","","88","","7","","15","","24.1","","99.66","","","","","","Rain Showers"
"2004-06-12 10:00","2004","06","12","10:00","16.3","","11.3","","72","","10","","22","","24.1","","99.55","","","","","","Cloudy"
"2004-06-12 11:00","2004","06","12","11:00","16.4","","11.4","","72","","14","","22","","24.1","","99.41","","","","","","Cloudy"
"2004-06-12 12:00","2004","06","12","12:00","18.2","","13.4","","74","","12","","20","","24.1","","99.43","","","","","","Mostly Cloudy"
"2004-06-12 13:00","2004","06","12","13:00","19.5","","14.4","","72","","8","","19","","24.1","","99.36","","","","","","Mostly Cloudy"
"2004-06-12 14:00","2004","06","12","14:00","20.4","","15.3","","73","","11","","17","","24.1","","99.38","","25","","","","Mostly Cloudy"
"2004-06-12 15:00","2004","06","12","15:00","21.4","","15.4","","69","","13","","15","","24.1","","99.41","","26","","","","Mostly Cloudy"
"2004-06-12 16:00","2004","06","12","16:00","21.7","","15.6","","68","","12","","13","","24.1","","99.34","","26","","","","Mostly Cloudy"
"2004-06-12 17:00","2004","06","12","17:00","21.9","","15.2","","66","","10","","15","","24.1","","99.33","","26","","","","Mostly Cloudy"
"2004-06-12 18:00","2004","06","12","18:00","20.9","","14.6","","67","","13","","11","","19.3","","99.34","","25","","","","Mostly Cloudy"
"2004-06-12 19:00","2004","06","12","19:00","20.2","","14.9","","72","","11","","13","","19.3","","99.35","","","","","","Mostly Cloudy"
"2004-06-12 20:00","2004","06","12","20:00","18.4","","13.6","","74","","11","","11","","19.3","","99.35","","","","","","Mostly Cloudy"
"2004-06-12 21:00","2004","06","12","21:00","17.4","","12.7","","74","","10","","9","","24.1","","99.39","","","","","","Mostly Cloudy"
"2004-06-12 22:00","2004","06","12","22:00","17.0","","13.2","","78","","7","","6","","24.1","","99.37","","","","","","Mostly Cloudy"
"2004-06-12 23:00","2004","06","12","23:00","16.9","","13.3","","79","","7","","6","","24.1","","99.29","","","","","","Mostly Cloudy"
"2004-06-13 00:00","2004","06","13","00:00","16.4","","13.6","","84","","2","","6","","24.1","","99.29","","","","","","Mainly Clear"
"2004-06-13 01:00","2004","06","13","01:00","16.2","","13.6","","85","","36","","6","","24.1","","99.23","","","","","","Mainly Clear"
"2004-06-13 02:00","2004","06","13","02:00","16.3","","14.0","","86","","7","","6","","24.1","","99.17","","","","","","Mainly Clear"
"2004-06-13 03:00","2004","06","13","03:00","17.0","","14.9","","87","","36","","4","","24.1","","99.21","","","","","","Cloudy"
"2004-06-13 04:00","2004","06","13","04:00","17.2","","15.2","","88","","7","","4","","24.1","","99.18","","","","","","Mostly Cloudy"
"2004-06-13 05:00","2004","06","13","05:00","16.3","","15.3","","94","","12","","7","","16.1","","99.13","","","","","","Mainly Clear"
"2004-06-13 06:00","2004","06","13","06:00","16.7","","15.5","","93","","14","","4","","16.1","","99.16","","","","","","Cloudy"
"2004-06-13 07:00","2004","06","13","07:00","18.4","","17.4","","94","","15","","9","","4.0","","99.16","","","","","","Fog"
"2004-06-13 08:00","2004","06","13","08:00","20.2","","19.1","","93","","20","","15","","3.2","","99.22","","27","","","","Fog"
"2004-06-13 09:00","2004","06","13","09:00","20.6","","19.4","","93","","21","","15","","3.2","","99.21","","28","","","","Fog"
"2004-06-13 10:00","2004","06","13","10:00","22.6","","20.6","","88","","21","","15","","4.0","","99.14","","31","","","","Fog"
"2004-06-13 11:00","2004","06","13","11:00","23.0","","20.2","","84","","20","","13","","4.8","","99.07","","31","","","","Haze"
"2004-06-13 12:00","2004","06","13","12:00","23.3","","20.3","","83","","19","","24","","4.8","","99.05","","31","","","","Haze"
"2004-06-13 13:00","2004","06","13","13:00","25.1","","20.9","","78","","19","","24","","8.0","","98.98","","33","","","","Haze"
"2004-06-13 14:00","2004","06","13","14:00","26.2","","21.6","","76","","19","","22","","9.7","","98.90","","35","","","","Haze"
"2004-06-13 15:00","2004","06","13","15:00","25.8","","20.9","","74","","18","","28","","9.7","","98.82","","34","","","","Haze"
"2004-06-13 16:00","2004","06","13","16:00","25.8","","20.8","","74","","18","","26","","12.9","","98.77","","34","","","","Mostly Cloudy"
"2004-06-13 17:00","2004","06","13","17:00","26.0","","21.1","","74","","17","","17","","16.1","","98.57","","35","","","","Mostly Cloudy"
"2004-06-13 18:00","2004","06","13","18:00","25.3","","21.2","","78","","18","","15","","19.3","","98.55","","34","","","","Rain Showers"
"2004-06-13 19:00","2004","06","13","19:00","24.5","","21.2","","82","","20","","17","","16.1","","98.57","","33","","","","Rain Showers"
"2004-06-13 20:00","2004","06","13","20:00","23.8","","21.6","","88","","23","","22","","19.3","","98.57","","33","","","","Thunderstorms,Rain Showers"
"2004-06-13 21:00","2004","06","13","21:00","22.2","","20.0","","87","","22","","9","","24.1","","98.61","","30","","","","Mostly Cloudy"
"2004-06-13 22:00","2004","06","13","22:00","21.2","","19.1","","88","","22","","13","","24.1","","98.72","","28","","","","Mainly Clear"
"2004-06-13 23:00","2004","06","13","23:00","20.2","","18.4","","89","","23","","13","","24.1","","98.76","","27","","","","Clear"
"2004-06-14 00:00","2004","06","14","00:00","19.7","","18.4","","92","","22","","11","","19.3","","98.82","","","","","","Mainly Clear"
"2004-06-14 01:00","2004","06","14","01:00","19.5","","18.6","","95","","24","","11","","12.9","","98.86","","","","","","Clear"
"2004-06-14 02:00","2004","06","14","02:00","19.6","","18.7","","95","","24","","13","","9.7","","98.88","","","","","","Fog"
"2004-06-14 03:00","2004","06","14","03:00","19.5","","18.7","","95","","25","","11","","8.0","","98.91","","","","","","Fog"
"2004-06-14 04:00","2004","06","14","04:00","19.1","","18.4","","96","","23","","9","","8.0","","98.92","","","","","","Fog"
"2004-06-14 05:00","2004","06","14","05:00","18.8","","18.3","","97","","21","","9","","6.4","","98.98","","","","","","Fog"
"2004-06-14 06:00","2004","06","14","06:00","19.4","","18.7","","96","","22","","7","","4.8","","99.01","","","","","","Fog"
"2004-06-14 07:00","2004","06","14","07:00","20.7","","19.2","","91","","23","","17","","11.3","","99.04","","28","","","","Mainly Clear"
"2004-06-14 08:00","2004","06","14","08:00","22.4","","19.8","","85","","22","","13","","24.1","","99.05","","30","","","","Mainly Clear"
"2004-06-14 09:00","2004","06","14","09:00","24.1","","20.1","","78","","22","","7","","24.1","","99.00","","32","","","","Mostly Cloudy"
"2004-06-14 10:00","2004","06","14","10:00","25.2","","20.3","","74","","20","","15","","24.1","","98.97","","33","","","","Mostly Cloudy"
"2004-06-14 11:00","2004","06","14","11:00","25.9","","20.3","","71","","21","","22","","24.1","","98.98","","34","","","","Mainly Clear"
"2004-06-14 12:00","2004","06","14","12:00","26.4","","20.2","","69","","21","","26","","24.1","","98.95","","34","","","","Mainly Clear"
"2004-06-14 13:00","2004","06","14","13:00","27.5","","19.8","","63","","22","","26","","24.1","","98.87","","35","","","","Mainly Clear"
"2004-06-14 14:00","2004","06","14","14:00","27.7","","19.6","","61","","21","","32","","24.1","","98.81","","35","","","","Mostly Cloudy"
"2004-06-14 15:00","2004","06","14","15:00","26.8","","19.8","","66","","22","","26","","24.1","","98.77","","34","","","","Rain Showers"
"2004-06-14 16:00","2004","06","14","16:00","22.0","","18.4","","80","","25","","20","","24.1","","98.72","","28","","","","Mainly Clear"
"2004-06-14 17:00","2004","06","14","17:00","23.3","","18.3","","74","","22","","26","","24.1","","98.76","","30","","","","Mainly Clear"
"2004-06-14 18:00","2004","06","14","18:00","23.0","","18.8","","77","","21","","22","","24.1","","98.82","","30","","","","Mainly Clear"
"2004-06-14 19:00","2004","06","14","19:00","23.4","","19.1","","77","","22","","13","","24.1","","98.84","","30","","","","Mainly Clear"
"2004-06-14 20:00","2004","06","14","20:00","23.8","","18.3","","71","","27","","19","","24.1","","98.90","","30","","","","Clear"
"2004-06-14 21:00","2004","06","14","21:00","22.9","","17.2","","70","","24","","9","","24.1","","98.98","","28","","","","Clear"
"2004-06-14 22:00","2004","06","14","22:00","22.3","","17.2","","73","","26","","9","","24.1","","99.05","","28","","","","Clear"
"2004-06-14 23:00","2004","06","14","23:00","21.4","","18.2","","82","","21","","4","","24.1","","99.10","","28","","","","Mainly Clear"
"2004-06-15 00:00","2004","06","15","00:00","20.4","","18.3","","88","","21","","6","","24.1","","99.07","","27","","","","Mainly Clear"
"2004-06-15 01:00","2004","06","15","01:00","20.2","","18.2","","88","","21","","4","","24.1","","99.06","","26","","","","Clear"
"2004-06-15 02:00","2004","06","15","02:00","20.2","","17.7","","86","","27","","4","","24.1","","99.06","","26","","","","Mainly Clear"
"2004-06-15 03:00","2004","06","15","03:00","19.5","","17.6","","89","","22","","6","","19.3","","99.11","","","","","","Mainly Clear"
"2004-06-15 04:00","2004","06","15","04:00","18.4","","17.2","","93","","","","0","","24.1","","99.14","","","","","","Mostly Cloudy"
"2004-06-15 05:00","2004","06","15","05:00","18.0","","17.0","","94","","","","0","","24.1","","99.21","","","","","","Mainly Clear"
"2004-06-15 06:00","2004","06","15","06:00","18.5","","17.1","","92","","","","0","","19.3","","99.26","","","","","","Mostly Cloudy"
"2004-06-15 07:00","2004","06","15","07:00","21.2","","18.3","","84","","36","","4","","24.1","","99.30","","27","","","","Mainly Clear"
"2004-06-15 08:00","2004","06","15","08:00","22.7","","17.7","","73","","4","","9","","24.1","","99.33","","28","","","","Mostly Cloudy"
"2004-06-15 09:00","2004","06","15","09:00","23.3","","17.7","","71","","4","","7","","24.1","","99.40","","29","","","","Mostly Cloudy"
"2004-06-15 10:00","2004","06","15","10:00","24.8","","17.9","","66","","9","","6","","24.1","","99.44","","31","","","","Mostly Cloudy"
"2004-06-15 11:00","2004","06","15","11:00","25.1","","18.2","","66","","9","","7","","24.1","","99.43","","31","","","","Mostly Cloudy"
"2004-06-15 12:00","2004","06","15","12:00","25.9","","17.3","","59","","12","","6","","24.1","","99.47","","31","","","","Mostly Cloudy"
"2004-06-15 13:00","2004","06","15","13:00","26.1","","18.3","","62","","5","","6","","24.1","","99.46","","32","","","","Mostly Cloudy"
"2004-06-15 14:00","2004","06","15","14:00","26.7","","17.4","","57","","8","","13","","24.1","","99.46","","32","","","","Mostly Cloudy"
"2004-06-15 15:00","2004","06","15","15:00","27.0","","16.9","","54","","10","","13","","24.1","","99.46","","32","","","","Mainly Clear"
"2004-06-15 16:00","2004","06","15","16:00","26.9","","17.1","","55","","6","","22","","24.1","","99.45","","32","","","","Mostly Cloudy"
"2004-06-15 17:00","2004","06","15","17:00","24.8","","18.1","","66","","6","","20","","24.1","","99.44","","31","","","","Mostly Cloudy"
"2004-06-15 18:00","2004","06","15","18:00","23.4","","17.6","","70","","5","","22","","24.1","","99.50","","29","","","","Mostly Cloudy"
"2004-06-15 19:00","2004","06","15","19:00","22.5","","17.2","","72","","5","","13","","24.1","","99.60","","28","","","","Mostly Cloudy"
"2004-06-15 20:00","2004","06","15","20:00","20.9","","17.1","","79","","4","","15","","24.1","","99.63","","26","","","","Mostly Cloudy"
"2004-06-15 21:00","2004","06","15","21:00","19.5","","16.3","","82","","4","","17","","24.1","","99.69","","","","","","Mostly Cloudy"
"2004-06-15 22:00","2004","06","15","22:00","18.6","","16.0","","85","","4","","15","","24.1","","99.75","","","","","","Mostly Cloudy"
"2004-06-15 23:00","2004","06","15","23:00","18.2","","15.4","","84","","4","","13","","24.1","","99.77","","","","","","Mostly Cloudy"
"2004-06-16 00:00","2004","06","16","00:00","17.6","","14.7","","83","","4","","17","","24.1","","99.79","","","","","","Mostly Cloudy"
"2004-06-16 01:00","2004","06","16","01:00","17.0","","14.7","","86","","5","","7","","24.1","","99.77","","","","","","Mostly Cloudy"
"2004-06-16 02:00","2004","06","16","02:00","17.4","","14.8","","85","","3","","4","","24.1","","99.77","","","","","","Mostly Cloudy"
"2004-06-16 03:00","2004","06","16","03:00","17.6","","15.4","","87","","4","","7","","24.1","","99.73","","","","","","Mostly Cloudy"
"2004-06-16 04:00","2004","06","16","04:00","17.8","","15.9","","89","","8","","6","","24.1","","99.74","","","","","","Mostly Cloudy"
"2004-06-16 05:00","2004","06","16","05:00","18.3","","15.6","","84","","9","","7","","19.3","","99.76","","","","","","Cloudy"
"2004-06-16 06:00","2004","06","16","06:00","18.5","","16.2","","86","","8","","6","","16.1","","99.80","","","","","","Cloudy"
"2004-06-16 07:00","2004","06","16","07:00","18.9","","16.4","","85","","9","","7","","12.9","","99.82","","","","","","Cloudy"
"2004-06-16 08:00","2004","06","16","08:00","20.5","","17.2","","81","","9","","13","","12.9","","99.79","","26","","","","Cloudy"
"2004-06-16 09:00","2004","06","16","09:00","21.6","","17.1","","76","","8","","13","","12.9","","99.80","","27","","","","Cloudy"
"2004-06-16 10:00","2004","06","16","10:00","22.6","","17.9","","75","","12","","13","","19.3","","99.76","","29","","","","Mostly Cloudy"
"2004-06-16 11:00","2004","06","16","11:00","22.8","","18.2","","75","","12","","13","","16.1","","99.77","","29","","","","Cloudy"
"2004-06-16 12:00","2004","06","16","12:00","23.7","","17.9","","70","","13","","15","","19.3","","99.77","","30","","","","Cloudy"
"2004-06-16 13:00","2004","06","16","13:00","23.8","","17.6","","68","","14","","13","","19.3","","99.73","","30","","","","Cloudy"
"2004-06-16 14:00","2004","06","16","14:00","22.7","","18.9","","79","","15","","9","","12.9","","99.73","","29","","","","Rain Showers"
"2004-06-16 15:00","2004","06","16","15:00","22.5","","19.1","","81","","12","","9","","16.1","","99.67","","29","","","","Rain Showers"
"2004-06-16 16:00","2004","06","16","16:00","22.1","","19.2","","84","","9","","7","","11.3","","99.60","","29","","","","Rain Showers"
"2004-06-16 17:00","2004","06","16","17:00","21.6","","19.6","","88","","13","","9","","9.7","","99.57","","29","","","","Rain Showers,Fog"
"2004-06-16 18:00","2004","06","16","18:00","22.0","","19.6","","86","","8","","4","","9.7","","99.51","","29","","","","Haze"
"2004-06-16 19:00","2004","06","16","19:00","22.6","","19.9","","85","","13","","9","","8.0","","99.50","","30","","","","Haze"
"2004-06-16 20:00","2004","06","16","20:00","22.1","","19.4","","85","","12","","6","","9.7","","99.49","","29","","","","Haze"
"2004-06-16 21:00","2004","06","16","21:00","20.7","","19.4","","92","","6","","9","","9.7","","99.45","","28","","","","Fog"
"2004-06-16 22:00","2004","06","16","22:00","20.3","","19.4","","95","","6","","11","","4.8","","99.46","","27","","","","Fog"
"2004-06-16 23:00","2004","06","16","23:00","19.6","","18.7","","95","","10","","15","","4.8","","99.41","","","","","","Moderate Rain,Fog"
"2004-06-17 00:00","2004","06","17","00:00","18.9","","18.4","","97","","9","","9","","4.0","","99.36","","","","","","Thunderstorms,Heavy Rain,Fog"
"2004-06-17 01:00","2004","06","17","01:00","19.8","","19.6","","99","","13","","4","","3.2","","99.30","","","","","","Heavy Rain,Fog"
"2004-06-17 02:00","2004","06","17","02:00","20.3","","19.9","","98","","11","","7","","3.2","","99.24","","28","","","","Rain,Fog"
"2004-06-17 03:00","2004","06","17","03:00","19.8","","19.6","","99","","11","","6","","3.2","","99.15","","","","","","Rain,Fog"
"2004-06-17 04:00","2004","06","17","04:00","20.0","","19.9","","99","","30","","9","","1.6","","99.17","","27","","","","Thunderstorms,Heavy Rain,Fog"
"2004-06-17 05:00","2004","06","17","05:00","20.7","","20.3","","98","","19","","4","","4.8","","99.13","","29","","","","Fog"
"2004-06-17 06:00","2004","06","17","06:00","20.9","","20.5","","98","","3","","7","","1.2","","99.16","","29","","","","Fog"
"2004-06-17 07:00","2004","06","17","07:00","19.8","","19.5","","98","","","","0","","1.2","","99.12","","","","","","Rain Showers,Fog"
"2004-06-17 08:00","2004","06","17","08:00","20.9","","20.3","","96","","","","0","","1.6","","99.16","","29","","","","Fog"
"2004-06-17 09:00","2004","06","17","09:00","22.1","","21.2","","95","","","","0","","2.0","","99.17","","31","","","","Fog"
"2004-06-17 10:00","2004","06","17","10:00","24.1","","22.4","","90","","25","","17","","6.4","","99.16","","34","","","","Fog"
"2004-06-17 11:00","2004","06","17","11:00","24.7","","22.0","","85","","28","","11","","9.7","","99.15","","34","","","","Haze"
"2004-06-17 12:00","2004","06","17","12:00","25.7","","22.3","","82","","27","","9","","9.7","","99.12","","35","","","","Haze"
"2004-06-17 13:00","2004","06","17","13:00","26.7","","22.5","","78","","28","","15","","9.7","","99.09","","36","","","","Haze"
"2004-06-17 14:00","2004","06","17","14:00","27.8","","22.6","","73","","28","","13","","12.9","","99.02","","38","","","","Mostly Cloudy"
"2004-06-17 15:00","2004","06","17","15:00","28.7","","21.9","","67","","27","","13","","16.1","","99.01","","38","","","","Mostly Cloudy"
"2004-06-17 16:00","2004","06","17","16:00","26.1","","22.4","","80","","7","","11","","12.9","","98.99","","36","","","","Mostly Cloudy"
"2004-06-17 17:00","2004","06","17","17:00","22.8","","21.6","","93","","","","0","","24.1","","99.03","","32","","","","Thunderstorms"
"2004-06-17 18:00","2004","06","17","18:00","23.3","","22.2","","94","","15","","7","","16.1","","99.06","","33","","","","Mostly Cloudy"
"2004-06-17 19:00","2004","06","17","19:00","24.0","","21.6","","86","","22","","9","","16.1","","99.09","","33","","","","Mostly Cloudy"
"2004-06-17 20:00","2004","06","17","20:00","23.2","","21.6","","91","","20","","9","","16.1","","99.07","","32","","","","Mostly Cloudy"
"2004-06-17 21:00","2004","06","17","21:00","22.8","","21.5","","92","","24","","9","","16.1","","99.09","","32","","","","Mainly Clear"
"2004-06-17 22:00","2004","06","17","22:00","22.5","","21.4","","94","","23","","7","","12.9","","99.10","","31","","","","Mainly Clear"
"2004-06-17 23:00","2004","06","17","23:00","22.1","","21.1","","94","","22","","6","","12.9","","99.12","","31","","","","Mostly Cloudy"
"2004-06-18 00:00","2004","06","18","00:00","22.4","","21.2","","93","","27","","13","","11.3","","99.14","","31","","","","Mainly Clear"
"2004-06-18 01:00","2004","06","18","01:00","22.5","","20.9","","91","","28","","11","","9.7","","99.15","","31","","","","Fog"
"2004-06-18 02:00","2004","06","18","02:00","22.3","","20.9","","92","","28","","9","","9.7","","99.11","","31","","","","Fog"
"2004-06-18 03:00","2004","06","18","03:00","22.3","","20.6","","90","","29","","17","","9.7","","99.11","","30","","","","Fog"
"2004-06-18 04:00","2004","06","18","04:00","21.9","","19.9","","88","","29","","17","","12.9","","99.19","","29","","","","Mostly Cloudy"
"2004-06-18 05:00","2004","06","18","05:00","21.6","","19.1","","86","","32","","20","","8.0","","99.22","","28","","","","Haze"
"2004-06-18 06:00","2004","06","18","06:00","21.5","","19.0","","86","","34","","15","","6.4","","99.26","","28","","","","Haze"
"2004-06-18 07:00","2004","06","18","07:00","20.6","","18.3","","87","","35","","15","","8.0","","99.31","","27","","","","Haze"
"2004-06-18 08:00","2004","06","18","08:00","20.7","","18.0","","85","","34","","17","","9.7","","99.42","","27","","","","Haze"
"2004-06-18 09:00","2004","06","18","09:00","20.9","","18.3","","85","","2","","11","","12.9","","99.47","","27","","","","Cloudy"
"2004-06-18 10:00","2004","06","18","10:00","21.4","","18.6","","84","","36","","13","","8.0","","99.47","","28","","","","Haze"
"2004-06-18 11:00","2004","06","18","11:00","22.2","","17.7","","76","","34","","17","","19.3","","99.50","","28","","","","Mostly Cloudy"
"2004-06-18 12:00","2004","06","18","12:00","22.9","","18.1","","74","","31","","13","","19.3","","99.49","","29","","","","Mostly Cloudy"
"2004-06-18 13:00","2004","06","18","13:00","24.0","","16.7","","64","","28","","11","","16.1","","99.44","","29","","","","Mostly Cloudy"
"2004-06-18 14:00","2004","06","18","14:00","24.9","","17.0","","62","","28","","17","","19.3","","99.44","","30","","","","Mostly Cloudy"
"2004-06-18 15:00","2004","06","18","15:00","25.6","","15.8","","55","","27","","19","","24.1","","99.43","","30","","","","Mostly Cloudy"
"2004-06-18 16:00","2004","06","18","16:00","26.4","","15.3","","50","","31","","15","","24.1","","99.38","","31","","","","Mostly Cloudy"
"2004-06-18 17:00","2004","06","18","17:00","26.2","","14.8","","49","","35","","17","","24.1","","99.40","","30","","","","Mostly Cloudy"
"2004-06-18 18:00","2004","06","18","18:00","26.0","","15.3","","52","","34","","9","","24.1","","99.36","","30","","","","Mostly Cloudy"
"2004-06-18 19:00","2004","06","18","19:00","25.2","","14.7","","52","","32","","15","","24.1","","99.38","","29","","","","Mostly Cloudy"
"2004-06-18 20:00","2004","06","18","20:00","24.8","","15.0","","54","","29","","11","","24.1","","99.38","","29","","","","Mostly Cloudy"
"2004-06-18 21:00","2004","06","18","21:00","24.1","","15.3","","58","","27","","9","","24.1","","99.41","","28","","","","Cloudy"
"2004-06-18 22:00","2004","06","18","22:00","23.7","","15.8","","61","","29","","19","","24.1","","99.46","","28","","","","Rain Showers"
"2004-06-18 23:00","2004","06","18","23:00","22.3","","17.2","","73","","30","","17","","24.1","","99.44","","28","","","","Rain Showers"
"2004-06-19 00:00","2004","06","19","00:00","21.4","","17.1","","76","","31","","20","","24.1","","99.50","","27","","","","Cloudy"
"2004-06-19 01:00","2004","06","19","01:00","19.8","","16.0","","79","","33","","19","","24.1","","99.51","","","","","","Rain Showers"
"2004-06-19 02:00","2004","06","19","02:00","19.9","","14.6","","72","","32","","11","","24.1","","99.45","","","","","","Cloudy"
"2004-06-19 03:00","2004","06","19","03:00","19.8","","14.8","","73","","31","","19","","24.1","","99.49","","","","","","Cloudy"
"2004-06-19 04:00","2004","06","19","04:00","15.5","","10.3","","71","","2","","30","","24.1","","99.60","","","","","","Cloudy"
"2004-06-19 05:00","2004","06","19","05:00","15.0","","8.5","","65","","2","","24","","24.1","","99.69","","","","","","Mostly Cloudy"
"2004-06-19 06:00","2004","06","19","06:00","14.6","","8.1","","65","","2","","24","","24.1","","99.74","","","","","","Mostly Cloudy"
"2004-06-19 07:00","2004","06","19","07:00","14.8","","7.8","","63","","1","","17","","24.1","","99.81","","","","","","Mainly Clear"
"2004-06-19 08:00","2004","06","19","08:00","14.6","","6.9","","60","","34","","15","","24.1","","99.81","","","","","","Mostly Cloudy"
"2004-06-19 09:00","2004","06","19","09:00","15.4","","7.0","","57","","32","","20","","24.1","","99.89","","","","","","Mainly Clear"
"2004-06-19 10:00","2004","06","19","10:00","16.0","","5.5","","50","","33","","24","","24.1","","99.88","","","","","","Mainly Clear"
"2004-06-19 11:00","2004","06","19","11:00","16.8","","6.6","","51","","34","","20","","24.1","","99.89","","","","","","Mainly Clear"
"2004-06-19 12:00","2004","06","19","12:00","17.6","","6.1","","47","","32","","26","","24.1","","99.91","","","","","","Mainly Clear"
"2004-06-19 13:00","2004","06","19","13:00","18.1","","7.6","","50","","32","","20","","24.1","","99.91","","","","","","Mostly Cloudy"
"2004-06-19 14:00","2004","06","19","14:00","18.7","","7.1","","47","","34","","20","","24.1","","99.87","","","","","","Mostly Cloudy"
"2004-06-19 15:00","2004","06","19","15:00","19.5","","6.6","","43","","36","","17","","24.1","","99.86","","","","","","Mainly Clear"
"2004-06-19 16:00","2004","06","19","16:00","19.3","","5.9","","41","","1","","13","","24.1","","99.85","","","","","","Mainly Clear"
"2004-06-19 17:00","2004","06","19","17:00","19.4","","5.3","","40","","34","","22","","24.1","","99.87","","","","","","Mostly Cloudy"
"2004-06-19 18:00","2004","06","19","18:00","17.9","","6.1","","46","","5","","20","","24.1","","99.88","","","","","","Mainly Clear"
"2004-06-19 19:00","2004","06","19","19:00","17.4","","6.8","","50","","8","","13","","24.1","","99.88","","","","","","Mainly Clear"
"2004-06-19 20:00","2004","06","19","20:00","16.0","","7.7","","58","","7","","11","","24.1","","99.88","","","","","","Mainly Clear"
"2004-06-19 21:00","2004","06","19","21:00","14.8","","8.6","","66","","9","","11","","24.1","","99.88","","","","","","Mainly Clear"
"2004-06-19 22:00","2004","06","19","22:00","13.2","","8.9","","75","","13","","9","","24.1","","99.90","","","","","","Clear"
"2004-06-19 23:00","2004","06","19","23:00","12.1","","7.3","","72","","16","","7","","24.1","","99.94","","","","","","Clear"
"2004-06-20 00:00","2004","06","20","00:00","11.5","","7.7","","77","","18","","4","","24.1","","99.94","","","","","","Clear"
"2004-06-20 01:00","2004","06","20","01:00","11.3","","6.1","","70","","","","0","","24.1","","99.95","","","","","","Clear"
"2004-06-20 02:00","2004","06","20","02:00","10.7","","7.0","","78","","","","0","","24.1","","99.91","","","","","","Clear"
"2004-06-20 03:00","2004","06","20","03:00","10.4","","6.3","","76","","19","","4","","24.1","","99.87","","","","","","Clear"
"2004-06-20 04:00","2004","06","20","04:00","10.4","","4.9","","69","","20","","4","","24.1","","99.86","","","","","","Clear"
"2004-06-20 05:00","2004","06","20","05:00","10.0","","5.6","","74","","24","","4","","24.1","","99.87","","","","","","Mainly Clear"
"2004-06-20 06:00","2004","06","20","06:00","11.8","","6.1","","68","","24","","7","","24.1","","99.88","","","","","","Mainly Clear"
"2004-06-20 07:00","2004","06","20","07:00","14.2","","7.8","","65","","26","","7","","24.1","","99.87","","","","","","Mostly Cloudy"
"2004-06-20 08:00","2004","06","20","08:00","16.3","","7.3","","55","","26","","7","","24.1","","99.88","","","","","","Mostly Cloudy"
"2004-06-20 09:00","2004","06","20","09:00","17.2","","6.0","","48","","26","","7","","24.1","","99.86","","","","","","Mainly Clear"
"2004-06-20 10:00","2004","06","20","10:00","17.8","","5.0","","43","","26","","9","","24.1","","99.82","","","","","","Clear"
"2004-06-20 11:00","2004","06","20","11:00","18.9","","6.4","","44","","27","","9","","24.1","","99.76","","","","","","Mainly Clear"
"2004-06-20 12:00","2004","06","20","12:00","20.6","","7.7","","43","","25","","9","","24.1","","99.67","","","","","","Mainly Clear"
"2004-06-20 13:00","2004","06","20","13:00","20.8","","7.2","","41","","23","","13","","24.1","","99.63","","","","","","Mainly Clear"
"2004-06-20 14:00","2004","06","20","14:00","20.8","","7.8","","43","","20","","19","","24.1","","99.60","","","","","","Mainly Clear"
"2004-06-20 15:00","2004","06","20","15:00","20.8","","8.7","","46","","25","","15","","24.1","","99.56","","","","","","Mainly Clear"
"2004-06-20 16:00","2004","06","20","16:00","21.4","","7.8","","42","","23","","17","","24.1","","99.50","","","","","","Mainly Clear"
"2004-06-20 17:00","2004","06","20","17:00","21.2","","7.8","","42","","20","","19","","24.1","","99.43","","","","","","Mainly Clear"
"2004-06-20 18:00","2004","06","20","18:00","21.0","","7.8","","43","","20","","20","","24.1","","99.38","","","","","","Mainly Clear"
"2004-06-20 19:00","2004","06","20","19:00","20.2","","8.4","","47","","21","","17","","24.1","","99.33","","","","","","Mainly Clear"
"2004-06-20 20:00","2004","06","20","20:00","19.1","","9.1","","52","","20","","15","","24.1","","99.31","","","","","","Mainly Clear"
"2004-06-20 21:00","2004","06","20","21:00","17.3","","10.1","","63","","19","","11","","24.1","","99.30","","","","","","Clear"
"2004-06-20 22:00","2004","06","20","22:00","16.5","","10.6","","68","","19","","9","","24.1","","99.31","","","","","","Clear"
"2004-06-20 23:00","2004","06","20","23:00","15.9","","10.3","","69","","18","","7","","24.1","","99.26","","","","","","Clear"
"2004-06-21 00:00","2004","06","21","00:00","15.7","","11.3","","75","","18","","9","","24.1","","99.24","","","","","","Clear"
"2004-06-21 01:00","2004","06","21","01:00","15.1","","11.5","","79","","16","","4","","24.1","","99.23","","","","","","Clear"
"2004-06-21 02:00","2004","06","21","02:00","15.1","","11.5","","79","","18","","4","","24.1","","99.22","","","","","","Clear"
"2004-06-21 03:00","2004","06","21","03:00","14.2","","11.4","","83","","16","","4","","24.1","","99.18","","","","","","Mainly Clear"
"2004-06-21 04:00","2004","06","21","04:00","14.8","","11.7","","82","","","","0","","24.1","","99.16","","","","","","Mostly Cloudy"
"2004-06-21 05:00","2004","06","21","05:00","15.2","","11.3","","78","","","","0","","24.1","","99.13","","","","","","Mainly Clear"
"2004-06-21 06:00","2004","06","21","06:00","15.3","","12.1","","81","","19","","4","","24.1","","99.11","","","","","","Mainly Clear"
"2004-06-21 07:00","2004","06","21","07:00","17.7","","11.8","","68","","21","","13","","24.1","","99.09","","","","","","Mainly Clear"
"2004-06-21 08:00","2004","06","21","08:00","18.8","","12.9","","69","","21","","9","","24.1","","99.08","","","","","","Mostly Cloudy"
"2004-06-21 09:00","2004","06","21","09:00","19.9","","13.0","","64","","22","","17","","24.1","","99.03","","","","","","Mostly Cloudy"
"2004-06-21 10:00","2004","06","21","10:00","20.2","","12.3","","60","","22","","15","","24.1","","98.97","","","","","","Mostly Cloudy"
"2004-06-21 11:00","2004","06","21","11:00","20.9","","12.1","","57","","21","","19","","24.1","","98.92","","","","","","Mostly Cloudy"
"2004-06-21 12:00","2004","06","21","12:00","21.5","","12.0","","55","","22","","22","","24.1","","98.88","","","","","","Rain Showers"
"2004-06-21 13:00","2004","06","21","13:00","20.3","","14.7","","70","","25","","15","","24.1","","98.83","","","","","","Rain Showers"
"2004-06-21 14:00","2004","06","21","14:00","23.6","","13.4","","53","","22","","22","","24.1","","98.70","","27","","","","Mostly Cloudy"
"2004-06-21 15:00","2004","06","21","15:00","23.9","","12.9","","50","","19","","22","","24.1","","98.62","","27","","","","Mostly Cloudy"
"2004-06-21 16:00","2004","06","21","16:00","23.8","","13.2","","51","","21","","26","","24.1","","98.58","","27","","","","Mostly Cloudy"
"2004-06-21 17:00","2004","06","21","17:00","24.2","","13.8","","52","","21","","22","","24.1","","98.51","","27","","","","Cloudy"
"2004-06-21 18:00","2004","06","21","18:00","23.7","","14.6","","57","","24","","9","","24.1","","98.49","","27","","","","Cloudy"
"2004-06-21 19:00","2004","06","21","19:00","22.0","","16.2","","70","","31","","15","","16.1","","98.56","","27","","","","Rain Showers"
"2004-06-21 20:00","2004","06","21","20:00","16.6","","15.3","","92","","6","","15","","19.3","","98.52","","","","","","Rain Showers"
"2004-06-21 21:00","2004","06","21","21:00","16.8","","15.7","","93","","8","","7","","19.3","","98.50","","","","","","Rain Showers"
"2004-06-21 22:00","2004","06","21","22:00","17.0","","16.1","","94","","9","","4","","16.1","","98.45","","","","","","Rain Showers"
"2004-06-21 23:00","2004","06","21","23:00","17.3","","16.2","","93","","","","0","","12.9","","98.43","","","","","","Cloudy"
"2004-06-22 00:00","2004","06","22","00:00","17.7","","16.4","","92","","","","0","","12.9","","98.37","","","","","","Mostly Cloudy"
"2004-06-22 01:00","2004","06","22","01:00","18.4","","17.1","","92","","19","","7","","11.3","","98.34","","","","","","Cloudy"
"2004-06-22 02:00","2004","06","22","02:00","19.3","","17.1","","87","","22","","15","","12.9","","98.32","","","","","","Mostly Cloudy"
"2004-06-22 03:00","2004","06","22","03:00","19.6","","16.9","","84","","22","","13","","11.3","","98.32","","","","","","Cloudy"
"2004-06-22 04:00","2004","06","22","04:00","19.6","","17.0","","85","","25","","13","","11.3","","98.37","","","","","","Cloudy"
"2004-06-22 05:00","2004","06","22","05:00","19.3","","16.7","","85","","28","","13","","9.7","","98.40","","","","","","Haze"
"2004-06-22 06:00","2004","06","22","06:00","18.7","","15.5","","82","","30","","24","","9.7","","98.44","","","","","","Haze"
"2004-06-22 07:00","2004","06","22","07:00","18.8","","15.2","","80","","28","","15","","24.1","","98.49","","","","","","Mainly Clear"
"2004-06-22 08:00","2004","06","22","08:00","19.5","","14.8","","74","","28","","13","","24.1","","98.55","","","","","","Mostly Cloudy"
"2004-06-22 09:00","2004","06","22","09:00","20.1","","14.5","","70","","27","","19","","24.1","","98.63","","","","","","Mostly Cloudy"
"2004-06-22 10:00","2004","06","22","10:00","21.5","","15.0","","66","","29","","19","","24.1","","98.61","","25","","","","Mostly Cloudy"
"2004-06-22 11:00","2004","06","22","11:00","22.6","","15.2","","63","","27","","20","","24.1","","98.63","","27","","","","Mostly Cloudy"
"2004-06-22 12:00","2004","06","22","12:00","22.8","","14.6","","60","","27","","26","","24.1","","98.71","","27","","","","Mostly Cloudy"
"2004-06-22 13:00","2004","06","22","13:00","23.2","","12.8","","52","","27","","35","","24.1","","98.76","","26","","","","Mostly Cloudy"
"2004-06-22 14:00","2004","06","22","14:00","23.3","","11.6","","48","","27","","24","","24.1","","98.78","","25","","","","Mostly Cloudy"
"2004-06-22 15:00","2004","06","22","15:00","23.4","","12.2","","49","","25","","22","","24.1","","98.78","","26","","","","Mostly Cloudy"
"2004-06-22 16:00","2004","06","22","16:00","23.8","","11.2","","45","","28","","26","","24.1","","98.79","","26","","","","Mostly Cloudy"
"2004-06-22 17:00","2004","06","22","17:00","22.9","","9.5","","43","","27","","22","","24.1","","98.82","","","","","","Mostly Cloudy"
"2004-06-22 18:00","2004","06","22","18:00","22.6","","10.5","","46","","28","","24","","24.1","","98.85","","","","","","Mostly Cloudy"
"2004-06-22 19:00","2004","06","22","19:00","21.9","","9.6","","45","","28","","24","","24.1","","98.92","","","","","","Mostly Cloudy"
"2004-06-22 20:00","2004","06","22","20:00","20.6","","8.9","","47","","29","","26","","24.1","","99.00","","","","","","Mostly Cloudy"
"2004-06-22 21:00","2004","06","22","21:00","19.3","","8.0","","48","","29","","24","","24.1","","99.08","","","","","","Mainly Clear"
"2004-06-22 22:00","2004","06","22","22:00","18.2","","8.1","","52","","29","","20","","24.1","","99.16","","","","","","Mainly Clear"
"2004-06-22 23:00","2004","06","22","23:00","17.0","","8.3","","57","","30","","13","","24.1","","99.19","","","","","","Clear"
"2004-06-23 00:00","2004","06","23","00:00","15.7","","8.6","","63","","30","","13","","24.1","","99.22","","","","","","Clear"
"2004-06-23 01:00","2004","06","23","01:00","15.0","","8.5","","65","","26","","9","","24.1","","99.25","","","","","","Clear"
"2004-06-23 02:00","2004","06","23","02:00","14.0","","8.5","","69","","24","","7","","24.1","","99.26","","","","","","Clear"
"2004-06-23 03:00","2004","06","23","03:00","13.1","","9.0","","76","","23","","11","","24.1","","99.28","","","","","","Clear"
"2004-06-23 04:00","2004","06","23","04:00","12.7","","9.0","","78","","26","","6","","24.1","","99.30","","","","","","Clear"
"2004-06-23 05:00","2004","06","23","05:00","12.3","","9.2","","81","","22","","7","","24.1","","99.33","","","","","","Clear"
"2004-06-23 06:00","2004","06","23","06:00","13.5","","9.9","","79","","","","0","","24.1","","99.35","","","","","","Clear"
"2004-06-23 07:00","2004","06","23","07:00","15.5","","10.3","","71","","24","","7","","24.1","","99.36","","","","","","Clear"
"2004-06-23 08:00","2004","06","23","08:00","17.2","","10.3","","64","","23","","11","","24.1","","99.39","","","","","","Clear"
"2004-06-23 09:00","2004","06","23","09:00","18.9","","9.4","","54","","26","","19","","24.1","","99.40","","","","","","Clear"
"2004-06-23 10:00","2004","06","23","10:00","20.7","","9.9","","50","","22","","19","","24.1","","99.36","","","","","","Clear"
"2004-06-23 11:00","2004","06","23","11:00","21.9","","10.4","","48","","24","","22","","24.1","","99.34","","","","","","Clear"
"2004-06-23 12:00","2004","06","23","12:00","23.3","","10.4","","44","","22","","24","","24.1","","99.32","","25","","","","Clear"
"2004-06-23 13:00","2004","06","23","13:00","24.1","","11.2","","44","","21","","26","","24.1","","99.27","","26","","","","Clear"
"2004-06-23 14:00","2004","06","23","14:00","24.4","","11.7","","45","","20","","22","","24.1","","99.24","","27","","","","Clear"
"2004-06-23 15:00","2004","06","23","15:00","25.2","","12.7","","46","","21","","20","","24.1","","99.22","","28","","","","Mainly Clear"
"2004-06-23 16:00","2004","06","23","16:00","25.1","","12.0","","44","","21","","26","","24.1","","99.18","","27","","","","Mainly Clear"
"2004-06-23 17:00","2004","06","23","17:00","25.5","","12.7","","45","","19","","26","","24.1","","99.14","","28","","","","Mainly Clear"
"2004-06-23 18:00","2004","06","23","18:00","25.1","","12.5","","45","","20","","24","","24.1","","99.10","","28","","","","Mainly Clear"
"2004-06-23 19:00","2004","06","23","19:00","24.5","","12.8","","48","","20","","20","","24.1","","99.10","","27","","","","Mainly Clear"
"2004-06-23 20:00","2004","06","23","20:00","23.1","","13.4","","54","","19","","15","","24.1","","99.08","","26","","","","Mostly Cloudy"
"2004-06-23 21:00","2004","06","23","21:00","21.8","","14.3","","62","","19","","15","","24.1","","99.06","","25","","","","Mainly Clear"
"2004-06-23 22:00","2004","06","23","22:00","22.4","","13.6","","57","","20","","22","","24.1","","99.05","","26","","","","Mainly Clear"
"2004-06-23 23:00","2004","06","23","23:00","22.3","","13.9","","59","","21","","22","","24.1","","99.04","","26","","","","Mostly Cloudy"
"2004-06-24 00:00","2004","06","24","00:00","22.0","","14.6","","63","","22","","17","","24.1","","99.04","","26","","","","Mostly Cloudy"
"2004-06-24 01:00","2004","06","24","01:00","21.7","","13.2","","58","","22","","26","","24.1","","98.99","","25","","","","Mostly Cloudy"
"2004-06-24 02:00","2004","06","24","02:00","21.5","","12.6","","57","","23","","24","","24.1","","99.04","","","","","","Mostly Cloudy"
"2004-06-24 03:00","2004","06","24","03:00","19.8","","13.9","","69","","22","","20","","24.1","","98.96","","","","","","Rain Showers"
"2004-06-24 04:00","2004","06","24","04:00","19.9","","13.0","","64","","22","","28","","24.1","","98.90","","","","","","Mostly Cloudy"
"2004-06-24 05:00","2004","06","24","05:00","19.8","","13.1","","65","","23","","28","","24.1","","98.88","","","","","","Mostly Cloudy"
"2004-06-24 06:00","2004","06","24","06:00","19.1","","13.6","","70","","23","","19","","24.1","","98.90","","","","","","Mainly Clear"
"2004-06-24 07:00","2004","06","24","07:00","19.8","","13.9","","69","","24","","20","","24.1","","98.98","","","","","","Mainly Clear"
"2004-06-24 08:00","2004","06","24","08:00","20.5","","14.3","","68","","26","","22","","24.1","","99.01","","","","","","Clear"
"2004-06-24 09:00","2004","06","24","09:00","21.6","","14.6","","64","","26","","20","","24.1","","99.04","","25","","","","Clear"
"2004-06-24 10:00","2004","06","24","10:00","22.8","","14.3","","59","","23","","20","","24.1","","99.09","","26","","","","Clear"
"2004-06-24 11:00","2004","06","24","11:00","24.0","","13.9","","53","","27","","22","","24.1","","99.14","","27","","","","Clear"
"2004-06-24 12:00","2004","06","24","12:00","24.5","","10.9","","42","","30","","26","","24.1","","99.19","","26","","","","Mainly Clear"
"2004-06-24 13:00","2004","06","24","13:00","23.0","","11.5","","48","","29","","26","","24.1","","99.26","","25","","","","Mainly Clear"
"2004-06-24 14:00","2004","06","24","14:00","22.6","","10.6","","47","","32","","15","","24.1","","99.27","","","","","","Mainly Clear"
"2004-06-24 15:00","2004","06","24","15:00","21.9","","8.7","","43","","32","","22","","24.1","","99.31","","","","","","Mostly Cloudy"
"2004-06-24 16:00","2004","06","24","16:00","20.2","","7.5","","44","","30","","20","","24.1","","99.42","","","","","","Cloudy"
"2004-06-24 17:00","2004","06","24","17:00","19.0","","7.5","","47","","32","","26","","24.1","","99.41","","","","","","Rain Showers"
"2004-06-24 18:00","2004","06","24","18:00","16.9","","10.9","","68","","32","","24","","24.1","","99.44","","","","","","Cloudy"
"2004-06-24 19:00","2004","06","24","19:00","15.6","","9.9","","69","","31","","22","","24.1","","99.54","","","","","","Mostly Cloudy"
"2004-06-24 20:00","2004","06","24","20:00","14.8","","8.9","","68","","32","","26","","24.1","","99.66","","","","","","Mostly Cloudy"
"2004-06-24 21:00","2004","06","24","21:00","14.2","","8.7","","69","","34","","11","","24.1","","99.74","","","","","","Mostly Cloudy"
"2004-06-24 22:00","2004","06","24","22:00","13.3","","7.8","","69","","34","","17","","24.1","","99.86","","","","","","Mostly Cloudy"
"2004-06-24 23:00","2004","06","24","23:00","13.0","","7.5","","69","","34","","15","","24.1","","99.88","","","","","","Cloudy"
"2004-06-25 00:00","2004","06","25","00:00","12.9","","8.0","","72","","32","","17","","24.1","","99.88","","","","","","Cloudy"
"2004-06-25 01:00","2004","06","25","01:00","12.9","","8.0","","72","","34","","9","","24.1","","99.84","","","","","","Mostly Cloudy"
"2004-06-25 02:00","2004","06","25","02:00","12.8","","8.4","","75","","36","","4","","24.1","","99.84","","","","","","Mostly Cloudy"
"2004-06-25 03:00","2004","06","25","03:00","12.8","","8.3","","74","","35","","6","","24.1","","99.85","","","","","","Mostly Cloudy"
"2004-06-25 04:00","2004","06","25","04:00","12.6","","8.2","","75","","34","","9","","24.1","","99.83","","","","","","Mostly Cloudy"
"2004-06-25 05:00","2004","06","25","05:00","12.6","","8.5","","76","","2","","11","","24.1","","99.79","","","","","","Mostly Cloudy"
"2004-06-25 06:00","2004","06","25","06:00","12.8","","7.8","","72","","3","","11","","24.1","","99.84","","","","","","Mostly Cloudy"
"2004-06-25 07:00","2004","06","25","07:00","13.1","","8.5","","74","","2","","7","","24.1","","99.90","","","","","","Mostly Cloudy"
"2004-06-25 08:00","2004","06","25","08:00","14.1","","9.6","","74","","7","","6","","24.1","","99.90","","","","","","Mostly Cloudy"
"2004-06-25 09:00","2004","06","25","09:00","14.1","","9.1","","72","","6","","7","","24.1","","99.87","","","","","","Mostly Cloudy"
"2004-06-25 10:00","2004","06","25","10:00","15.1","","8.8","","66","","","","0","","24.1","","99.86","","","","","","Mostly Cloudy"
"2004-06-25 11:00","2004","06","25","11:00","15.6","","8.2","","61","","","","0","","24.1","","99.78","","","","","","Mostly Cloudy"
"2004-06-25 12:00","2004","06","25","12:00","16.8","","8.5","","58","","6","","7","","24.1","","99.70","","","","","","Mostly Cloudy"
"2004-06-25 13:00","2004","06","25","13:00","17.1","","8.2","","56","","","","0","","24.1","","99.63","","","","","","Mainly Clear"
"2004-06-25 14:00","2004","06","25","14:00","18.3","","8.2","","52","","9","","6","","24.1","","99.57","","","","","","Mainly Clear"
"2004-06-25 15:00","2004","06","25","15:00","18.6","","8.0","","50","","10","","9","","24.1","","99.54","","","","","","Mostly Cloudy"
"2004-06-25 16:00","2004","06","25","16:00","19.5","","9.3","","52","","16","","6","","24.1","","99.47","","","","","","Mostly Cloudy"
"2004-06-25 17:00","2004","06","25","17:00","19.0","","10.2","","57","","17","","15","","24.1","","99.43","","","","","","Mainly Clear"
"2004-06-25 18:00","2004","06","25","18:00","18.4","","10.2","","59","","19","","19","","24.1","","99.40","","","","","","Mainly Clear"
"2004-06-25 19:00","2004","06","25","19:00","17.3","","10.1","","63","","19","","19","","24.1","","99.41","","","","","","Mainly Clear"
"2004-06-25 20:00","2004","06","25","20:00","16.2","","10.4","","68","","18","","13","","24.1","","99.41","","","","","","Mainly Clear"
"2004-06-25 21:00","2004","06","25","21:00","15.3","","10.8","","75","","18","","7","","24.1","","99.43","","","","","","Mainly Clear"
"2004-06-25 22:00","2004","06","25","22:00","14.6","","10.6","","77","","","","0","","24.1","","99.46","","","","","","Mainly Clear"
"2004-06-25 23:00","2004","06","25","23:00","14.3","","10.7","","79","","","","0","","24.1","","99.45","","","","","","Clear"
"2004-06-26 00:00","2004","06","26","00:00","14.4","","11.0","","80","","21","","4","","24.1","","99.40","","","","","","Clear"
"2004-06-26 01:00","2004","06","26","01:00","14.2","","10.8","","80","","27","","13","","24.1","","99.41","","","","","","Clear"
"2004-06-26 02:00","2004","06","26","02:00","12.9","","10.1","","83","","24","","11","","24.1","","99.37","","","","","","Clear"
"2004-06-26 03:00","2004","06","26","03:00","13.2","","8.1","","71","","28","","7","","24.1","","99.36","","","","","","Mainly Clear"
"2004-06-26 04:00","2004","06","26","04:00","12.4","","7.8","","73","","27","","7","","24.1","","99.36","","","","","","Mainly Clear"
"2004-06-26 05:00","2004","06","26","05:00","12.5","","7.4","","71","","27","","7","","24.1","","99.40","","","","","","Mostly Cloudy"
"2004-06-26 06:00","2004","06","26","06:00","13.8","","7.2","","64","","29","","17","","24.1","","99.46","","","","","","Mainly Clear"
"2004-06-26 07:00","2004","06","26","07:00","15.0","","8.0","","63","","31","","20","","24.1","","99.50","","","","","","Clear"
"2004-06-26 08:00","2004","06","26","08:00","16.2","","8.4","","60","","33","","11","","24.1","","99.55","","","","","","Clear"
"2004-06-26 09:00","2004","06","26","09:00","17.7","","8.1","","53","","33","","11","","24.1","","99.56","","","","","","Mainly Clear"
"2004-06-26 10:00","2004","06","26","10:00","19.1","","7.9","","48","","31","","15","","24.1","","99.56","","","","","","Mainly Clear"
"2004-06-26 11:00","2004","06","26","11:00","19.5","","7.1","","44","","31","","9","","24.1","","99.58","","","","","","Mostly Cloudy"
"2004-06-26 12:00","2004","06","26","12:00","20.4","","7.6","","44","","31","","28","","24.1","","99.57","","","","","","Mostly Cloudy"
"2004-06-26 13:00","2004","06","26","13:00","20.4","","7.4","","43","","25","","13","","24.1","","99.53","","","","","","Mostly Cloudy"
"2004-06-26 14:00","2004","06","26","14:00","21.7","","7.7","","40","","29","","15","","24.1","","99.51","","","","","","Mostly Cloudy"
"2004-06-26 15:00","2004","06","26","15:00","22.7","","7.2","","37","","29","","17","","24.1","","99.47","","","","","","Mainly Clear"
"2004-06-26 16:00","2004","06","26","16:00","22.3","","6.4","","36","","27","","17","","24.1","","99.44","","","","","","Mainly Clear"
"2004-06-26 17:00","2004","06","26","17:00","23.0","","7.3","","36","","28","","15","","24.1","","99.43","","","","","","Mainly Clear"
"2004-06-26 18:00","2004","06","26","18:00","21.9","","7.7","","40","","27","","19","","24.1","","99.43","","","","","","Mainly Clear"
"2004-06-26 19:00","2004","06","26","19:00","21.6","","7.8","","41","","27","","20","","24.1","","99.46","","","","","","Mainly Clear"
"2004-06-26 20:00","2004","06","26","20:00","20.5","","7.8","","44","","28","","24","","24.1","","99.50","","","","","","Mainly Clear"
"2004-06-26 21:00","2004","06","26","21:00","19.4","","7.2","","45","","30","","17","","24.1","","99.57","","","","","","Mainly Clear"
"2004-06-26 22:00","2004","06","26","22:00","18.1","","7.5","","50","","28","","15","","24.1","","99.63","","","","","","Clear"
"2004-06-26 23:00","2004","06","26","23:00","17.1","","7.8","","54","","24","","11","","24.1","","99.64","","","","","","Clear"
"2004-06-27 00:00","2004","06","27","00:00","16.1","","8.1","","59","","25","","11","","24.1","","99.64","","","","","","Clear"
"2004-06-27 01:00","2004","06","27","01:00","15.5","","8.3","","62","","25","","11","","24.1","","99.64","","","","","","Clear"
"2004-06-27 02:00","2004","06","27","02:00","14.7","","8.4","","66","","26","","7","","24.1","","99.62","","","","","","Clear"
"2004-06-27 03:00","2004","06","27","03:00","14.0","","8.6","","70","","23","","9","","24.1","","99.65","","","","","","Clear"
"2004-06-27 04:00","2004","06","27","04:00","13.7","","8.7","","72","","25","","13","","24.1","","99.64","","","","","","Clear"
"2004-06-27 05:00","2004","06","27","05:00","13.3","","8.8","","74","","23","","11","","24.1","","99.68","","","","","","Clear"
"2004-06-27 06:00","2004","06","27","06:00","14.1","","9.0","","71","","24","","11","","24.1","","99.71","","","","","","Mainly Clear"
"2004-06-27 07:00","2004","06","27","07:00","16.6","","9.5","","63","","25","","13","","24.1","","99.75","","","","","","Mainly Clear"
"2004-06-27 08:00","2004","06","27","08:00","18.9","","10.3","","57","","29","","13","","24.1","","99.76","","","","","","Clear"
"2004-06-27 09:00","2004","06","27","09:00","20.3","","9.8","","51","","29","","20","","24.1","","99.77","","","","","","Clear"
"2004-06-27 10:00","2004","06","27","10:00","21.0","","9.8","","49","","26","","20","","24.1","","99.75","","","","","","Mainly Clear"
"2004-06-27 11:00","2004","06","27","11:00","22.3","","8.7","","42","","27","","28","","24.1","","99.73","","","","","","Mostly Cloudy"
"2004-06-27 12:00","2004","06","27","12:00","21.6","","8.7","","44","","27","","22","","24.1","","99.73","","","","","","Mostly Cloudy"
"2004-06-27 13:00","2004","06","27","13:00","22.6","","8.7","","41","","27","","28","","24.1","","99.69","","","","","","Mostly Cloudy"
"2004-06-27 14:00","2004","06","27","14:00","23.2","","8.6","","39","","26","","28","","24.1","","99.67","","","","","","Mostly Cloudy"
"2004-06-27 15:00","2004","06","27","15:00","23.0","","7.5","","37","","30","","15","","24.1","","99.63","","","","","","Mainly Clear"
"2004-06-27 16:00","2004","06","27","16:00","23.9","","8.2","","37","","33","","20","","24.1","","99.59","","","","","","Mainly Clear"
"2004-06-27 17:00","2004","06","27","17:00","24.0","","8.2","","36","","29","","22","","24.1","","99.58","","","","","","Mainly Clear"
"2004-06-27 18:00","2004","06","27","18:00","23.4","","8.3","","38","","28","","22","","24.1","","99.55","","","","","","Mainly Clear"
"2004-06-27 19:00","2004","06","27","19:00","22.8","","8.1","","39","","27","","15","","24.1","","99.55","","","","","","Mostly Cloudy"
"2004-06-27 20:00","2004","06","27","20:00","21.9","","8.5","","42","","30","","13","","24.1","","99.55","","","","","","Mostly Cloudy"
"2004-06-27 21:00","2004","06","27","21:00","20.9","","8.2","","44","","","","0","","24.1","","99.56","","","","","","Mostly Cloudy"
"2004-06-27 22:00","2004","06","27","22:00","18.8","","9.3","","54","","","","0","","24.1","","99.58","","","","","","Mostly Cloudy"
"2004-06-27 23:00","2004","06","27","23:00","17.1","","10.4","","65","","20","","4","","24.1","","99.59","","","","","","Mostly Cloudy"
"2004-06-28 00:00","2004","06","28","00:00","17.2","","10.0","","63","","26","","7","","24.1","","99.56","","","","","","Mostly Cloudy"
"2004-06-28 01:00","2004","06","28","01:00","17.2","","10.6","","65","","13","","6","","24.1","","99.47","","","","","","Cloudy"
"2004-06-28 02:00","2004","06","28","02:00","18.5","","9.6","","56","","29","","19","","24.1","","99.54","","","","","","Cloudy"
"2004-06-28 03:00","2004","06","28","03:00","17.7","","9.6","","59","","29","","17","","24.1","","99.57","","","","","","Rain Showers"
"2004-06-28 04:00","2004","06","28","04:00","15.9","","12.3","","79","","33","","4","","16.1","","99.55","","","","","","Rain Showers"
"2004-06-28 05:00","2004","06","28","05:00","15.1","","12.4","","84","","2","","4","","24.1","","99.54","","","","","","Rain Showers"
"2004-06-28 06:00","2004","06","28","06:00","15.0","","13.2","","89","","1","","7","","24.1","","99.55","","","","","","Mostly Cloudy"
"2004-06-28 07:00","2004","06","28","07:00","15.5","","13.2","","86","","16","","4","","24.1","","99.59","","","","","","Mostly Cloudy"
"2004-06-28 08:00","2004","06","28","08:00","16.1","","12.5","","79","","","","0","","24.1","","99.59","","","","","","Mostly Cloudy"
"2004-06-28 09:00","2004","06","28","09:00","16.8","","13.0","","78","","","","0","","24.1","","99.57","","","","","","Mostly Cloudy"
"2004-06-28 10:00","2004","06","28","10:00","17.3","","13.0","","76","","17","","4","","19.3","","99.56","","","","","","Rain Showers"
"2004-06-28 11:00","2004","06","28","11:00","18.1","","14.2","","78","","33","","4","","24.1","","99.56","","","","","","Mostly Cloudy"
"2004-06-28 12:00","2004","06","28","12:00","19.3","","14.1","","72","","32","","6","","11.3","","99.56","","","","","","Cloudy"
"2004-06-28 13:00","2004","06","28","13:00","18.6","","13.8","","74","","3","","9","","24.1","","99.53","","","","","","Cloudy"
"2004-06-28 14:00","2004","06","28","14:00","18.8","","13.6","","72","","4","","13","","24.1","","99.52","","","","","","Cloudy"
"2004-06-28 15:00","2004","06","28","15:00","19.5","","13.3","","67","","4","","9","","19.3","","99.51","","","","","","Mostly Cloudy"
"2004-06-28 16:00","2004","06","28","16:00","20.7","","13.1","","62","","3","","4","","19.3","","99.49","","","","","","Mostly Cloudy"
"2004-06-28 17:00","2004","06","28","17:00","21.3","","11.1","","52","","5","","15","","19.3","","99.48","","","","","","Mostly Cloudy"
"2004-06-28 18:00","2004","06","28","18:00","20.0","","13.0","","64","","14","","9","","19.3","","99.47","","","","","","Mostly Cloudy"
"2004-06-28 19:00","2004","06","28","19:00","20.3","","12.8","","62","","14","","11","","16.1","","99.50","","","","","","Mainly Clear"
"2004-06-28 20:00","2004","06","28","20:00","19.2","","13.6","","70","","17","","9","","19.3","","99.54","","","","","","Mainly Clear"
"2004-06-28 21:00","2004","06","28","21:00","17.5","","13.6","","78","","17","","6","","24.1","","99.59","","","","","","Mainly Clear"
"2004-06-28 22:00","2004","06","28","22:00","16.7","","13.3","","80","","19","","4","","24.1","","99.64","","","","","","Mainly Clear"
"2004-06-28 23:00","2004","06","28","23:00","15.9","","12.6","","81","","22","","7","","24.1","","99.65","","","","","","Mainly Clear"
"2004-06-29 00:00","2004","06","29","00:00","16.1","","12.1","","77","","24","","9","","24.1","","99.67","","","","","","Mainly Clear"
"2004-06-29 01:00","2004","06","29","01:00","15.8","","11.6","","76","","26","","9","","24.1","","99.66","","","","","","Mainly Clear"
"2004-06-29 02:00","2004","06","29","02:00","15.4","","11.4","","77","","25","","9","","24.1","","99.68","","","","","","Clear"
"2004-06-29 03:00","2004","06","29","03:00","14.8","","10.9","","77","","25","","6","","24.1","","99.69","","","","","","Clear"
"2004-06-29 04:00","2004","06","29","04:00","14.0","","10.9","","82","","26","","9","","24.1","","99.68","","","","","","Mainly Clear"
"2004-06-29 05:00","2004","06","29","05:00","14.4","","9.9","","74","","27","","11","","24.1","","99.68","","","","","","Mainly Clear"
"2004-06-29 06:00","2004","06","29","06:00","15.2","","9.8","","70","","25","","13","","24.1","","99.68","","","","","","Clear"
"2004-06-29 07:00","2004","06","29","07:00","17.0","","10.0","","63","","26","","17","","24.1","","99.67","","","","","","Clear"
"2004-06-29 08:00","2004","06","29","08:00","18.8","","11.1","","61","","26","","24","","24.1","","99.66","","","","","","Clear"
"2004-06-29 09:00","2004","06","29","09:00","20.5","","11.8","","57","","25","","20","","24.1","","99.65","","","","","","Clear"
"2004-06-29 10:00","2004","06","29","10:00","22.1","","11.7","","52","","24","","22","","24.1","","99.63","","","","","","Clear"
"2004-06-29 11:00","2004","06","29","11:00","23.9","","11.9","","47","","25","","32","","24.1","","99.63","","26","","","","Clear"
"2004-06-29 12:00","2004","06","29","12:00","24.7","","11.7","","44","","24","","26","","24.1","","99.62","","27","","","","Mainly Clear"
"2004-06-29 13:00","2004","06","29","13:00","25.2","","11.9","","43","","25","","26","","24.1","","99.58","","27","","","","Mainly Clear"
"2004-06-29 14:00","2004","06","29","14:00","26.0","","12.9","","44","","25","","32","","24.1","","99.56","","29","","","","Mainly Clear"
"2004-06-29 15:00","2004","06","29","15:00","26.4","","12.4","","42","","27","","30","","24.1","","99.53","","29","","","","Mainly Clear"
"2004-06-29 16:00","2004","06","29","16:00","26.3","","12.3","","42","","25","","26","","24.1","","99.50","","29","","","","Mostly Cloudy"
"2004-06-29 17:00","2004","06","29","17:00","26.4","","12.0","","41","","27","","24","","24.1","","99.47","","29","","","","Mostly Cloudy"
"2004-06-29 18:00","2004","06","29","18:00","26.5","","11.4","","39","","27","","33","","24.1","","99.49","","28","","","","Mainly Clear"
"2004-06-29 19:00","2004","06","29","19:00","25.8","","11.2","","40","","29","","17","","24.1","","99.53","","28","","","","Mainly Clear"
"2004-06-29 20:00","2004","06","29","20:00","24.7","","11.3","","43","","29","","15","","24.1","","99.59","","27","","","","Mainly Clear"
"2004-06-29 21:00","2004","06","29","21:00","23.3","","11.2","","46","","28","","13","","24.1","","99.66","","25","","","","Mainly Clear"
"2004-06-29 22:00","2004","06","29","22:00","22.4","","11.1","","49","","4","","11","","24.1","","99.71","","","","","","Mostly Cloudy"
"2004-06-29 23:00","2004","06","29","23:00","19.1","","14.2","","73","","13","","4","","24.1","","99.72","","","","","","Mainly Clear"
"2004-06-30 00:00","2004","06","30","00:00","18.1","","14.0","","77","","20","","4","","24.1","","99.71","","","","","","Clear"
"2004-06-30 01:00","2004","06","30","01:00","17.9","","13.7","","76","","","","0","","24.1","","99.73","","","","","","Clear"
"2004-06-30 02:00","2004","06","30","02:00","17.5","","13.0","","75","","22","","7","","24.1","","99.74","","","","","","Clear"
"2004-06-30 03:00","2004","06","30","03:00","17.6","","12.5","","72","","23","","7","","24.1","","99.74","","","","","","Mainly Clear"
"2004-06-30 04:00","2004","06","30","04:00","17.0","","12.3","","74","","21","","4","","24.1","","99.75","","","","","","Mainly Clear"
"2004-06-30 05:00","2004","06","30","05:00","16.6","","12.3","","76","","20","","7","","24.1","","99.75","","","","","","Mainly Clear"
"2004-06-30 06:00","2004","06","30","06:00","16.8","","12.5","","76","","21","","7","","19.3","","99.77","","","","","","Mainly Clear"
"2004-06-30 07:00","2004","06","30","07:00","18.4","","12.6","","69","","25","","7","","24.1","","99.79","","","","","","Mostly Cloudy"
"2004-06-30 08:00","2004","06","30","08:00","19.5","","13.2","","67","","25","","9","","24.1","","99.81","","","","","","Mainly Clear"
"2004-06-30 09:00","2004","06","30","09:00","22.4","","13.9","","59","","25","","11","","24.1","","99.83","","26","","","","Mainly Clear"
"2004-06-30 10:00","2004","06","30","10:00","24.1","","14.3","","54","","23","","7","","24.1","","99.80","","28","","","","Mainly Clear"
"2004-06-30 11:00","2004","06","30","11:00","25.6","","14.6","","51","","24","","17","","24.1","","99.79","","29","","","","Mainly Clear"
"2004-06-30 12:00","2004","06","30","12:00","27.0","","14.0","","45","","23","","22","","24.1","","99.79","","30","","","","Mostly Cloudy"
"2004-06-30 13:00","2004","06","30","13:00","26.6","","14.3","","47","","22","","17","","24.1","","99.76","","30","","","","Mostly Cloudy"
"2004-06-30 14:00","2004","06","30","14:00","28.1","","13.6","","41","","21","","20","","24.1","","99.71","","31","","","","Mainly Clear"
"2004-06-30 15:00","2004","06","30","15:00","28.4","","12.8","","38","","23","","26","","24.1","","99.65","","31","","","","Mainly Clear"
"2004-06-30 16:00","2004","06","30","16:00","28.4","","13.3","","39","","22","","24","","24.1","","99.62","","31","","","","Mainly Clear"
"2004-06-30 17:00","2004","06","30","17:00","27.7","","13.6","","42","","21","","28","","19.3","","99.60","","31","","","","Mainly Clear"
"2004-06-30 18:00","2004","06","30","18:00","27.3","","13.8","","43","","22","","22","","16.1","","99.56","","31","","","","Mainly Clear"
"2004-06-30 19:00","2004","06","30","19:00","26.4","","13.7","","46","","21","","19","","12.9","","99.53","","30","","","","Clear"
"2004-06-30 20:00","2004","06","30","20:00","25.0","","13.6","","49","","21","","15","","12.9","","99.54","","28","","","","Clear"
"2004-06-30 21:00","2004","06","30","21:00","23.3","","13.7","","55","","20","","11","","19.3","","99.56","","26","","","","Clear"
"2004-06-30 22:00","2004","06","30","22:00","22.2","","14.6","","62","","21","","15","","24.1","","99.58","","26","","","","Clear"
"2004-06-30 23:00","2004","06","30","23:00","21.3","","15.2","","68","","21","","9","","24.1","","99.61","","25","","","","Clear"
