"Station Name","WINDSOR A"
"Province","ONTARIO"
"Latitude","42.28"
"Longitude","-82.96"
"Elevation","189.60"
"Climate Identifier","6139525"
"WMO Identifier","71538"
"TC Identifier","YQG"
"All times are specified in Local Standard Time (LST). Add 1 hour to adjust for Daylight Saving Time where and when it is observed."

"Legend"
"E","Estimated"
"M","Missing"
"NA","Not Available"

"Date/Time","Year","Month","Day","Time","Temp (°C)","Temp Flag","Dew Point Temp (°C)","Dew Point Temp Flag","Rel Hum (%)","Rel Hum Flag","Wind Dir (10s deg)","Wind Dir Flag","Wind Spd (km/h)","Wind Spd Flag","Visibility (km)","Visibility Flag","Stn Press (kPa)","Stn Press Flag","Hmdx","Hmdx Flag","Wind Chill","Wind Chill Flag","Weather"
"2003-08-01 00:00","2003","08","01","00:00","20.4","","18.3","","88","","21","","4","","11.3","","99.34","","27","","","","Clear"
"2003-08-01 01:00","2003","08","01","01:00","19.0","","17.2","","89","","","","0","","8.0","","99.35","","","","","","Fog"
"2003-08-01 02:00","2003","08","01","02:00","19.1","","18.1","","94","","12","","6","","6.4","","99.29","","","","","","Fog"
"2003-08-01 03:00","2003","08","01","03:00","18.2","","17.4","","95","","","","0","","4.8","","99.26","","","","","","Fog"
"2003-08-01 04:00","2003","08","01","04:00","18.1","","18.0","","99","","","","0","","0.6","","99.23","","","","","","Fog"
"2003-08-01 05:00","2003","08","01","05:00","18.3","","18.2","","99","","","","0","","0.8","","99.24","","","","","","Fog"
"2003-08-01 06:00","2003","08","01","06:00","19.0","","18.9","","99","","","","0","","1.0","","99.29","","","","","","Fog"
"2003-08-01 07:00","2003","08","01","07:00","18.7","","18.7","","100","","","","0","","0.0","","99.31","","","","","","Fog"
"2003-08-01 08:00","2003","08","01","08:00","22.3","","21.4","","95","","21","","6","","2.8","","99.34","","31","","","","Fog"
"2003-08-01 09:00","2003","08","01","09:00","25.0","","20.8","","78","","22","","7","","4.8","","99.35","","33","","","","Haze"
"2003-08-01 10:00","2003","08","01","10:00","26.7","","20.6","","69","","22","","11","","4.8","","99.33","","35","","","","Haze"
"2003-08-01 11:00","2003","08","01","11:00","27.7","","18.6","","58","","19","","11","","6.4","","99.35","","34","","","","Haze"
"2003-08-01 12:00","2003","08","01","12:00","28.4","","18.7","","56","","20","","19","","6.4","","99.28","","35","","","","Haze"
"2003-08-01 13:00","2003","08","01","13:00","28.9","","18.6","","54","","20","","22","","6.4","","99.16","","35","","","","Haze"
"2003-08-01 14:00","2003","08","01","14:00","29.2","","19.6","","56","","18","","22","","6.4","","99.23","","36","","","","Haze"
"2003-08-01 15:00","2003","08","01","15:00","28.9","","19.5","","57","","22","","26","","6.4","","99.20","","36","","","","Haze"
"2003-08-01 16:00","2003","08","01","16:00","24.7","","14.6","","53","","31","","32","","6.4","","99.21","","28","","","","Thunderstorms,Haze"
"2003-08-01 17:00","2003","08","01","17:00","23.4","","20.2","","82","","","","0","","14.5","","99.14","","31","","","","Mostly Cloudy"
"2003-08-01 18:00","2003","08","01","18:00","22.4","","19.3","","83","","8","","9","","11.3","","99.15","","29","","","","Cloudy"
"2003-08-01 19:00","2003","08","01","19:00","18.6","","17.5","","93","","27","","46","","6.4","","99.37","","","","","","Thunderstorms,Moderate Rain Showers,Fog"
"2003-08-01 20:00","2003","08","01","20:00","20.2","","16.7","","80","","35","","15","","19.3","","99.20","","25","","","","Thunderstorms,Rain Showers"
"2003-08-01 21:00","2003","08","01","21:00","18.8","","17.5","","92","","13","","11","","24.1","","99.22","","","","","","Rain Showers"
"2003-08-01 22:00","2003","08","01","22:00","19.1","","17.3","","89","","16","","19","","24.1","","99.09","","","","","","Rain Showers"
"2003-08-01 23:00","2003","08","01","23:00","19.3","","17.8","","91","","","","0","","24.1","","99.13","","","","","","Mostly Cloudy"
"2003-08-02 00:00","2003","08","02","00:00","20.1","","18.1","","88","","25","","9","","24.1","","99.16","","26","","","","Rain Showers"
"2003-08-02 01:00","2003","08","02","01:00","18.8","","17.3","","91","","22","","11","","19.3","","99.11","","","","","","Rain Showers"
"2003-08-02 02:00","2003","08","02","02:00","19.2","","18.2","","94","","19","","15","","16.1","","99.09","","","","","","Rain Showers"
"2003-08-02 03:00","2003","08","02","03:00","19.2","","18.2","","94","","17","","19","","24.1","","98.98","","","","","","Mostly Cloudy"
"2003-08-02 04:00","2003","08","02","04:00","18.8","","17.7","","93","","18","","6","","24.1","","98.98","","","","","","Mainly Clear"
"2003-08-02 05:00","2003","08","02","05:00","18.1","","17.6","","97","","4","","4","","16.1","","98.98","","","","","","Mainly Clear"
"2003-08-02 06:00","2003","08","02","06:00","18.1","","17.7","","98","","9","","4","","11.3","","99.07","","","","","","Mostly Cloudy"
"2003-08-02 07:00","2003","08","02","07:00","19.5","","18.5","","94","","9","","4","","11.3","","99.13","","","","","","Mostly Cloudy"
"2003-08-02 08:00","2003","08","02","08:00","20.9","","19.5","","92","","12","","4","","12.9","","99.11","","28","","","","Mostly Cloudy"
"2003-08-02 09:00","2003","08","02","09:00","21.8","","19.2","","85","","21","","9","","16.1","","99.12","","29","","","","Mostly Cloudy"
"2003-08-02 10:00","2003","08","02","10:00","22.6","","19.4","","82","","22","","11","","16.1","","99.12","","30","","","","Mostly Cloudy"
"2003-08-02 11:00","2003","08","02","11:00","23.3","","19.3","","78","","24","","15","","24.1","","99.12","","30","","","","Mostly Cloudy"
"2003-08-02 12:00","2003","08","02","12:00","24.7","","19.6","","73","","20","","11","","24.1","","99.11","","32","","","","Mainly Clear"
"2003-08-02 13:00","2003","08","02","13:00","25.1","","19.5","","71","","22","","9","","24.1","","99.11","","32","","","","Mainly Clear"
"2003-08-02 14:00","2003","08","02","14:00","26.7","","19.8","","66","","21","","11","","24.1","","99.09","","34","","","","Mainly Clear"
"2003-08-02 15:00","2003","08","02","15:00","26.0","","20.0","","70","","22","","13","","24.1","","99.05","","34","","","","Mainly Clear"
"2003-08-02 16:00","2003","08","02","16:00","26.7","","20.0","","67","","21","","13","","16.1","","99.03","","34","","","","Mainly Clear"
"2003-08-02 17:00","2003","08","02","17:00","26.3","","20.6","","71","","20","","13","","16.1","","99.03","","34","","","","Mostly Cloudy"
"2003-08-02 18:00","2003","08","02","18:00","25.3","","20.2","","73","","18","","15","","12.9","","99.03","","33","","","","Mostly Cloudy"
"2003-08-02 19:00","2003","08","02","19:00","24.0","","20.5","","81","","20","","17","","9.7","","99.09","","32","","","","Haze"
"2003-08-02 20:00","2003","08","02","20:00","23.3","","20.4","","84","","20","","15","","11.3","","99.08","","31","","","","Rain Showers"
"2003-08-02 21:00","2003","08","02","21:00","23.0","","19.1","","79","","23","","13","","19.3","","99.10","","30","","","","Mostly Cloudy"
"2003-08-02 22:00","2003","08","02","22:00","22.5","","18.5","","78","","23","","6","","24.1","","99.09","","29","","","","Mostly Cloudy"
"2003-08-02 23:00","2003","08","02","23:00","22.8","","18.2","","75","","25","","7","","24.1","","99.09","","29","","","","Cloudy"
"2003-08-03 00:00","2003","08","03","00:00","21.6","","19.0","","85","","17","","9","","24.1","","99.15","","28","","","","Cloudy"
"2003-08-03 01:00","2003","08","03","01:00","22.2","","20.6","","91","","20","","11","","16.1","","99.19","","30","","","","Cloudy"
"2003-08-03 02:00","2003","08","03","02:00","22.0","","20.3","","90","","23","","11","","9.7","","99.19","","30","","","","Rain Showers,Fog"
"2003-08-03 03:00","2003","08","03","03:00","21.3","","20.6","","96","","19","","6","","6.4","","99.16","","29","","","","Rain Showers,Fog"
"2003-08-03 04:00","2003","08","03","04:00","21.2","","20.4","","95","","22","","6","","19.3","","99.16","","29","","","","Rain Showers"
"2003-08-03 05:00","2003","08","03","05:00","21.1","","19.5","","91","","26","","6","","24.1","","99.12","","28","","","","Mostly Cloudy"
"2003-08-03 06:00","2003","08","03","06:00","20.7","","19.6","","93","","13","","4","","16.1","","99.17","","28","","","","Cloudy"
"2003-08-03 07:00","2003","08","03","07:00","20.9","","19.6","","92","","11","","4","","12.9","","99.17","","28","","","","Mostly Cloudy"
"2003-08-03 08:00","2003","08","03","08:00","21.3","","20.0","","92","","17","","4","","19.3","","99.17","","29","","","","Mostly Cloudy"
"2003-08-03 09:00","2003","08","03","09:00","22.6","","19.9","","85","","18","","11","","24.1","","99.18","","30","","","","Mostly Cloudy"
"2003-08-03 10:00","2003","08","03","10:00","23.5","","19.5","","78","","17","","11","","24.1","","99.14","","31","","","","Cloudy"
"2003-08-03 11:00","2003","08","03","11:00","23.1","","19.5","","80","","19","","13","","24.1","","99.13","","30","","","","Rain Showers"
"2003-08-03 12:00","2003","08","03","12:00","21.6","","20.5","","93","","20","","13","","12.9","","99.09","","30","","","","Rain Showers"
"2003-08-03 13:00","2003","08","03","13:00","20.9","","20.0","","95","","22","","6","","9.7","","99.11","","28","","","","Rain Showers,Fog"
"2003-08-03 14:00","2003","08","03","14:00","21.1","","20.3","","95","","13","","7","","6.4","","99.04","","29","","","","Rain Showers,Fog"
"2003-08-03 15:00","2003","08","03","15:00","21.2","","20.0","","93","","21","","11","","8.0","","98.99","","29","","","","Rain Showers,Fog"
"2003-08-03 16:00","2003","08","03","16:00","22.6","","19.4","","82","","","","0","","12.9","","98.97","","30","","","","Mostly Cloudy"
"2003-08-03 17:00","2003","08","03","17:00","24.4","","18.9","","71","","22","","6","","19.3","","98.93","","31","","","","Mostly Cloudy"
"2003-08-03 18:00","2003","08","03","18:00","23.3","","18.4","","74","","21","","7","","19.3","","98.88","","30","","","","Mainly Clear"
"2003-08-03 19:00","2003","08","03","19:00","22.8","","18.8","","78","","20","","7","","11.3","","98.92","","29","","","","Clear"
"2003-08-03 20:00","2003","08","03","20:00","21.3","","19.5","","89","","18","","7","","11.3","","98.93","","28","","","","Mainly Clear"
"2003-08-03 21:00","2003","08","03","21:00","20.4","","19.1","","92","","18","","7","","19.3","","98.95","","27","","","","Mainly Clear"
"2003-08-03 22:00","2003","08","03","22:00","20.1","","18.9","","93","","19","","6","","19.3","","98.98","","27","","","","Mainly Clear"
"2003-08-03 23:00","2003","08","03","23:00","20.9","","17.7","","82","","23","","7","","24.1","","98.98","","27","","","","Thunderstorms,Rain Showers"
"2003-08-04 00:00","2003","08","04","00:00","19.7","","18.2","","91","","23","","7","","24.1","","98.94","","","","","","Thunderstorms"
"2003-08-04 01:00","2003","08","04","01:00","19.5","","18.0","","91","","24","","15","","16.1","","98.96","","","","","","Thunderstorms,Rain Showers"
"2003-08-04 02:00","2003","08","04","02:00","18.4","","17.5","","94","","29","","7","","24.1","","98.91","","","","","","Mainly Clear"
"2003-08-04 03:00","2003","08","04","03:00","18.1","","17.1","","94","","26","","7","","24.1","","98.96","","","","","","Clear"
"2003-08-04 04:00","2003","08","04","04:00","17.7","","17.0","","96","","","","0","","24.1","","98.95","","","","","","Clear"
"2003-08-04 05:00","2003","08","04","05:00","17.4","","16.8","","96","","31","","4","","11.3","","98.97","","","","","","Mainly Clear"
"2003-08-04 06:00","2003","08","04","06:00","17.4","","16.7","","96","","20","","4","","11.3","","99.01","","","","","","Mostly Cloudy"
"2003-08-04 07:00","2003","08","04","07:00","18.3","","17.2","","93","","","","0","","12.9","","99.02","","","","","","Mostly Cloudy"
"2003-08-04 08:00","2003","08","04","08:00","19.5","","17.8","","90","","20","","4","","16.1","","99.04","","","","","","Mostly Cloudy"
"2003-08-04 09:00","2003","08","04","09:00","21.0","","18.3","","85","","","","0","","19.3","","99.01","","27","","","","Mostly Cloudy"
"2003-08-04 10:00","2003","08","04","10:00","22.8","","17.7","","73","","24","","11","","24.1","","99.02","","29","","","","Mostly Cloudy"
"2003-08-04 11:00","2003","08","04","11:00","24.0","","18.8","","73","","19","","6","","24.1","","98.99","","31","","","","Mostly Cloudy"
"2003-08-04 12:00","2003","08","04","12:00","25.1","","19.0","","69","","19","","9","","24.1","","99.01","","32","","","","Mostly Cloudy"
"2003-08-04 13:00","2003","08","04","13:00","25.5","","18.8","","66","","17","","13","","24.1","","98.97","","32","","","","Cloudy"
"2003-08-04 14:00","2003","08","04","14:00","25.3","","18.7","","67","","17","","13","","24.1","","98.88","","32","","","","Mostly Cloudy"
"2003-08-04 15:00","2003","08","04","15:00","25.9","","17.7","","61","","21","","11","","19.3","","98.88","","32","","","","Mostly Cloudy"
"2003-08-04 16:00","2003","08","04","16:00","25.3","","17.8","","63","","18","","9","","19.3","","98.83","","31","","","","Mostly Cloudy"
"2003-08-04 17:00","2003","08","04","17:00","25.8","","18.6","","64","","19","","9","","19.3","","98.79","","32","","","","Mostly Cloudy"
"2003-08-04 18:00","2003","08","04","18:00","24.2","","18.6","","71","","20","","15","","19.3","","98.82","","31","","","","Mostly Cloudy"
"2003-08-04 19:00","2003","08","04","19:00","23.3","","19.1","","77","","20","","15","","11.3","","98.84","","30","","","","Mostly Cloudy"
"2003-08-04 20:00","2003","08","04","20:00","22.5","","19.9","","85","","23","","6","","11.3","","98.85","","30","","","","Rain Showers"
"2003-08-04 21:00","2003","08","04","21:00","21.0","","20.2","","95","","21","","4","","9.7","","98.89","","29","","","","Fog"
"2003-08-04 22:00","2003","08","04","22:00","20.9","","19.9","","94","","26","","6","","9.7","","98.89","","28","","","","Fog"
"2003-08-04 23:00","2003","08","04","23:00","20.7","","19.9","","95","","26","","6","","11.3","","98.91","","28","","","","Mostly Cloudy"
"2003-08-05 00:00","2003","08","05","00:00","20.6","","19.3","","92","","24","","7","","19.3","","98.89","","28","","","","Mostly Cloudy"
"2003-08-05 01:00","2003","08","05","01:00","20.3","","18.6","","90","","25","","6","","19.3","","98.86","","27","","","","Mostly Cloudy"
"2003-08-05 02:00","2003","08","05","02:00","19.7","","18.8","","95","","19","","7","","11.3","","98.83","","","","","","Cloudy"
"2003-08-05 03:00","2003","08","05","03:00","19.5","","18.8","","96","","25","","6","","11.3","","98.81","","","","","","Cloudy"
"2003-08-05 04:00","2003","08","05","04:00","19.1","","18.6","","97","","23","","6","","8.0","","98.81","","","","","","Fog"
"2003-08-05 05:00","2003","08","05","05:00","18.8","","18.3","","97","","21","","6","","8.0","","98.83","","","","","","Fog"
"2003-08-05 06:00","2003","08","05","06:00","19.0","","18.5","","97","","26","","6","","4.8","","98.86","","","","","","Fog"
"2003-08-05 07:00","2003","08","05","07:00","20.4","","19.2","","93","","","","0","","6.4","","98.89","","27","","","","Fog"
"2003-08-05 08:00","2003","08","05","08:00","21.0","","19.5","","91","","","","0","","6.4","","98.90","","28","","","","Fog"
"2003-08-05 09:00","2003","08","05","09:00","22.4","","20.6","","90","","19","","4","","6.4","","98.92","","30","","","","Fog"
"2003-08-05 10:00","2003","08","05","10:00","22.6","","20.2","","86","","7","","9","","9.7","","98.91","","30","","","","Haze"
"2003-08-05 11:00","2003","08","05","11:00","23.8","","20.3","","81","","6","","7","","9.7","","98.93","","32","","","","Haze"
"2003-08-05 12:00","2003","08","05","12:00","24.9","","19.5","","72","","8","","4","","12.9","","98.89","","32","","","","Mostly Cloudy"
"2003-08-05 13:00","2003","08","05","13:00","26.1","","19.0","","65","","1","","7","","16.1","","98.84","","33","","","","Mostly Cloudy"
"2003-08-05 14:00","2003","08","05","14:00","26.6","","18.2","","60","","7","","17","","19.3","","98.84","","33","","","","Mostly Cloudy"
"2003-08-05 15:00","2003","08","05","15:00","21.3","","16.9","","76","","16","","24","","19.3","","98.84","","27","","","","Mostly Cloudy"
"2003-08-05 16:00","2003","08","05","16:00","22.4","","18.5","","79","","33","","24","","19.3","","98.83","","29","","","","Mostly Cloudy"
"2003-08-05 17:00","2003","08","05","17:00","22.8","","17.8","","73","","26","","6","","24.1","","98.79","","29","","","","Mostly Cloudy"
"2003-08-05 18:00","2003","08","05","18:00","23.3","","18.6","","75","","28","","6","","19.3","","98.83","","30","","","","Mostly Cloudy"
"2003-08-05 19:00","2003","08","05","19:00","23.0","","18.9","","78","","32","","6","","16.1","","98.86","","30","","","","Mostly Cloudy"
"2003-08-05 20:00","2003","08","05","20:00","21.4","","19.0","","86","","36","","13","","16.1","","98.85","","28","","","","Rain Showers"
"2003-08-05 21:00","2003","08","05","21:00","21.4","","18.6","","84","","2","","4","","19.3","","98.87","","28","","","","Mostly Cloudy"
"2003-08-05 22:00","2003","08","05","22:00","21.3","","18.9","","86","","32","","7","","19.3","","98.88","","28","","","","Mostly Cloudy"
"2003-08-05 23:00","2003","08","05","23:00","20.4","","18.9","","91","","33","","7","","12.9","","98.86","","27","","","","Mainly Clear"
"2003-08-06 00:00","2003","08","06","00:00","20.1","","18.8","","92","","35","","7","","9.7","","98.87","","27","","","","Fog"
"2003-08-06 01:00","2003","08","06","01:00","19.9","","19.0","","95","","34","","4","","8.0","","98.87","","","","","","Fog"
"2003-08-06 02:00","2003","08","06","02:00","19.8","","18.9","","95","","","","0","","8.0","","98.86","","","","","","Fog"
"2003-08-06 03:00","2003","08","06","03:00","19.3","","18.5","","95","","28","","4","","8.0","","98.88","","","","","","Fog"
"2003-08-06 04:00","2003","08","06","04:00","19.0","","18.3","","96","","9","","4","","8.0","","98.88","","","","","","Fog"
"2003-08-06 05:00","2003","08","06","05:00","18.4","","17.9","","97","","","","0","","4.8","","98.90","","","","","","Fog"
"2003-08-06 06:00","2003","08","06","06:00","18.0","","17.5","","97","","","","0","","3.2","","98.92","","","","","","Fog"
"2003-08-06 07:00","2003","08","06","07:00","20.6","","19.2","","92","","26","","6","","2.8","","98.96","","28","","","","Fog"
"2003-08-06 08:00","2003","08","06","08:00","22.2","","19.6","","85","","27","","6","","6.4","","98.97","","29","","","","Haze"
"2003-08-06 09:00","2003","08","06","09:00","23.5","","18.8","","75","","35","","15","","9.7","","98.99","","30","","","","Haze"
"2003-08-06 10:00","2003","08","06","10:00","24.5","","18.7","","70","","1","","9","","16.1","","98.99","","31","","","","Mostly Cloudy"
"2003-08-06 11:00","2003","08","06","11:00","25.1","","18.4","","66","","34","","15","","24.1","","98.99","","31","","","","Mostly Cloudy"
"2003-08-06 12:00","2003","08","06","12:00","25.8","","16.3","","56","","35","","7","","24.1","","98.97","","31","","","","Mostly Cloudy"
"2003-08-06 13:00","2003","08","06","13:00","26.4","","17.6","","58","","36","","11","","24.1","","98.94","","32","","","","Mostly Cloudy"
"2003-08-06 14:00","2003","08","06","14:00","28.1","","17.1","","51","","32","","6","","24.1","","98.91","","33","","","","Mostly Cloudy"
"2003-08-06 15:00","2003","08","06","15:00","27.3","","17.4","","55","","27","","11","","24.1","","98.85","","33","","","","Mostly Cloudy"
"2003-08-06 16:00","2003","08","06","16:00","28.1","","16.8","","50","","30","","13","","24.1","","98.80","","33","","","","Mostly Cloudy"
"2003-08-06 17:00","2003","08","06","17:00","27.6","","16.4","","50","","33","","11","","24.1","","98.80","","32","","","","Mostly Cloudy"
"2003-08-06 18:00","2003","08","06","18:00","27.0","","18.3","","59","","6","","11","","24.1","","98.80","","33","","","","Mostly Cloudy"
"2003-08-06 19:00","2003","08","06","19:00","25.7","","18.7","","65","","10","","6","","24.1","","98.82","","32","","","","Mostly Cloudy"
"2003-08-06 20:00","2003","08","06","20:00","24.8","","19.2","","71","","8","","9","","24.1","","98.87","","32","","","","Mostly Cloudy"
"2003-08-06 21:00","2003","08","06","21:00","24.5","","18.4","","69","","","","0","","24.1","","98.93","","31","","","","Mostly Cloudy"
"2003-08-06 22:00","2003","08","06","22:00","23.4","","18.5","","74","","3","","11","","24.1","","98.96","","30","","","","Mainly Clear"
"2003-08-06 23:00","2003","08","06","23:00","22.6","","19.5","","83","","3","","7","","24.1","","98.99","","30","","","","Mainly Clear"
"2003-08-07 00:00","2003","08","07","00:00","22.6","","18.4","","77","","36","","6","","24.1","","98.99","","29","","","","Mainly Clear"
"2003-08-07 01:00","2003","08","07","01:00","21.7","","17.8","","79","","34","","6","","24.1","","98.97","","28","","","","Mainly Clear"
"2003-08-07 02:00","2003","08","07","02:00","21.0","","17.7","","81","","36","","7","","24.1","","98.95","","27","","","","Mainly Clear"
"2003-08-07 03:00","2003","08","07","03:00","20.9","","17.7","","82","","36","","4","","24.1","","98.94","","27","","","","Clear"
"2003-08-07 04:00","2003","08","07","04:00","20.1","","17.4","","84","","34","","7","","24.1","","98.93","","26","","","","Clear"
"2003-08-07 05:00","2003","08","07","05:00","20.2","","17.7","","86","","35","","4","","24.1","","98.94","","26","","","","Mainly Clear"
"2003-08-07 06:00","2003","08","07","06:00","20.0","","17.7","","87","","","","0","","24.1","","98.97","","26","","","","Mainly Clear"
"2003-08-07 07:00","2003","08","07","07:00","20.8","","18.2","","85","","19","","4","","24.1","","99.04","","27","","","","Mainly Clear"
"2003-08-07 08:00","2003","08","07","08:00","22.9","","18.7","","77","","","","0","","24.1","","99.06","","29","","","","Mainly Clear"
"2003-08-07 09:00","2003","08","07","09:00","24.4","","19.1","","72","","","","0","","24.1","","99.07","","31","","","","Clear"
"2003-08-07 10:00","2003","08","07","10:00","26.0","","19.1","","66","","1","","7","","24.1","","99.06","","33","","","","Clear"
"2003-08-07 11:00","2003","08","07","11:00","26.5","","17.3","","57","","","","0","","24.1","","99.04","","32","","","","Mainly Clear"
"2003-08-07 12:00","2003","08","07","12:00","27.2","","15.9","","50","","29","","4","","24.1","","98.99","","32","","","","Mostly Cloudy"
"2003-08-07 13:00","2003","08","07","13:00","27.7","","16.6","","51","","11","","4","","24.1","","98.96","","33","","","","Mostly Cloudy"
"2003-08-07 14:00","2003","08","07","14:00","27.7","","17.3","","53","","9","","7","","24.1","","98.92","","33","","","","Mostly Cloudy"
"2003-08-07 15:00","2003","08","07","15:00","26.8","","20.0","","66","","13","","20","","24.1","","98.93","","34","","","","Mostly Cloudy"
"2003-08-07 16:00","2003","08","07","16:00","25.8","","18.3","","63","","15","","13","","24.1","","98.92","","32","","","","Mostly Cloudy"
"2003-08-07 17:00","2003","08","07","17:00","25.8","","17.2","","59","","19","","11","","24.1","","98.92","","31","","","","Mainly Clear"
"2003-08-07 18:00","2003","08","07","18:00","25.4","","18.4","","65","","18","","6","","24.1","","98.94","","32","","","","Mostly Cloudy"
"2003-08-07 19:00","2003","08","07","19:00","24.8","","20.3","","76","","16","","4","","24.1","","98.97","","33","","","","Mostly Cloudy"
"2003-08-07 20:00","2003","08","07","20:00","24.4","","18.5","","70","","36","","4","","24.1","","99.01","","31","","","","Mostly Cloudy"
"2003-08-07 21:00","2003","08","07","21:00","23.8","","18.7","","73","","3","","7","","24.1","","99.09","","30","","","","Mostly Cloudy"
"2003-08-07 22:00","2003","08","07","22:00","22.0","","19.7","","87","","5","","11","","24.1","","99.10","","29","","","","Mostly Cloudy"
"2003-08-07 23:00","2003","08","07","23:00","21.7","","19.9","","90","","4","","11","","24.1","","99.11","","29","","","","Mostly Cloudy"
"2003-08-08 00:00","2003","08","08","00:00","21.1","","18.9","","87","","4","","11","","24.1","","99.11","","28","","","","Mainly Clear"
"2003-08-08 01:00","2003","08","08","01:00","20.9","","19.4","","91","","5","","15","","19.3","","99.07","","28","","","","Mainly Clear"
"2003-08-08 02:00","2003","08","08","02:00","20.3","","19.5","","95","","6","","13","","11.3","","99.07","","27","","","","Mainly Clear"
"2003-08-08 03:00","2003","08","08","03:00","19.8","","18.7","","93","","3","","11","","12.9","","99.08","","","","","","Mainly Clear"
"2003-08-08 04:00","2003","08","08","04:00","19.9","","18.6","","92","","1","","11","","12.9","","99.10","","","","","","Mostly Cloudy"
"2003-08-08 05:00","2003","08","08","05:00","19.4","","17.8","","90","","2","","11","","11.3","","99.13","","","","","","Mostly Cloudy"
"2003-08-08 06:00","2003","08","08","06:00","19.1","","17.5","","90","","1","","13","","11.3","","99.19","","","","","","Mostly Cloudy"
"2003-08-08 07:00","2003","08","08","07:00","19.3","","17.3","","88","","1","","13","","9.7","","99.22","","","","","","Fog"
"2003-08-08 08:00","2003","08","08","08:00","20.4","","18.0","","86","","36","","9","","9.7","","99.27","","26","","","","Haze"
"2003-08-08 09:00","2003","08","08","09:00","21.3","","18.3","","83","","3","","11","","11.3","","99.27","","28","","","","Mostly Cloudy"
"2003-08-08 10:00","2003","08","08","10:00","23.3","","18.6","","75","","5","","11","","12.9","","99.24","","30","","","","Mainly Clear"
"2003-08-08 11:00","2003","08","08","11:00","24.5","","19.5","","74","","5","","11","","16.1","","99.23","","32","","","","Mainly Clear"
"2003-08-08 12:00","2003","08","08","12:00","25.1","","19.1","","69","","4","","13","","24.1","","99.22","","32","","","","Mainly Clear"
"2003-08-08 13:00","2003","08","08","13:00","26.3","","18.9","","64","","7","","13","","24.1","","99.20","","33","","","","Mainly Clear"
"2003-08-08 14:00","2003","08","08","14:00","26.5","","17.4","","57","","5","","13","","24.1","","99.15","","32","","","","Mainly Clear"
"2003-08-08 15:00","2003","08","08","15:00","26.9","","18.1","","59","","7","","17","","24.1","","99.13","","33","","","","Mainly Clear"
"2003-08-08 16:00","2003","08","08","16:00","26.7","","17.7","","58","","5","","20","","24.1","","99.12","","32","","","","Mainly Clear"
"2003-08-08 17:00","2003","08","08","17:00","25.7","","18.2","","63","","5","","28","","24.1","","99.14","","32","","","","Mainly Clear"
"2003-08-08 18:00","2003","08","08","18:00","23.7","","18.4","","72","","4","","28","","24.1","","99.18","","30","","","","Mostly Cloudy"
"2003-08-08 19:00","2003","08","08","19:00","22.8","","17.7","","73","","5","","22","","19.3","","99.24","","29","","","","Mostly Cloudy"
"2003-08-08 20:00","2003","08","08","20:00","21.7","","16.7","","73","","5","","22","","19.3","","99.31","","27","","","","Mainly Clear"
"2003-08-08 21:00","2003","08","08","21:00","21.0","","16.8","","77","","4","","15","","24.1","","99.34","","26","","","","Mostly Cloudy"
"2003-08-08 22:00","2003","08","08","22:00","20.4","","15.3","","73","","4","","17","","24.1","","99.36","","25","","","","Mainly Clear"
"2003-08-08 23:00","2003","08","08","23:00","20.1","","15.9","","77","","3","","15","","24.1","","99.35","","25","","","","Mostly Cloudy"
"2003-08-09 00:00","2003","08","09","00:00","19.5","","15.3","","77","","36","","9","","24.1","","99.35","","","","","","Mostly Cloudy"
"2003-08-09 01:00","2003","08","09","01:00","19.0","","15.7","","81","","1","","9","","24.1","","99.34","","","","","","Mainly Clear"
"2003-08-09 02:00","2003","08","09","02:00","18.5","","15.9","","85","","1","","11","","24.1","","99.32","","","","","","Mainly Clear"
"2003-08-09 03:00","2003","08","09","03:00","18.1","","16.0","","88","","36","","13","","24.1","","99.33","","","","","","Mainly Clear"
"2003-08-09 04:00","2003","08","09","04:00","18.3","","16.1","","87","","36","","11","","24.1","","99.34","","","","","","Mainly Clear"
"2003-08-09 05:00","2003","08","09","05:00","18.1","","16.3","","89","","1","","13","","24.1","","99.34","","","","","","Mainly Clear"
"2003-08-09 06:00","2003","08","09","06:00","18.3","","16.6","","90","","36","","9","","24.1","","99.39","","","","","","Mostly Cloudy"
"2003-08-09 07:00","2003","08","09","07:00","19.3","","16.9","","86","","36","","11","","24.1","","99.42","","","","","","Mainly Clear"
"2003-08-09 08:00","2003","08","09","08:00","21.0","","17.3","","79","","4","","19","","24.1","","99.44","","26","","","","Mostly Cloudy"
"2003-08-09 09:00","2003","08","09","09:00","21.6","","17.3","","77","","5","","19","","24.1","","99.45","","27","","","","Mostly Cloudy"
"2003-08-09 10:00","2003","08","09","10:00","23.1","","16.1","","65","","5","","19","","24.1","","99.44","","28","","","","Mostly Cloudy"
"2003-08-09 11:00","2003","08","09","11:00","23.7","","15.9","","62","","4","","15","","24.1","","99.44","","28","","","","Mostly Cloudy"
"2003-08-09 12:00","2003","08","09","12:00","24.3","","16.2","","61","","5","","15","","24.1","","99.44","","29","","","","Mostly Cloudy"
"2003-08-09 13:00","2003","08","09","13:00","25.4","","16.9","","59","","4","","13","","24.1","","99.43","","31","","","","Mostly Cloudy"
"2003-08-09 14:00","2003","08","09","14:00","25.1","","16.3","","58","","5","","15","","24.1","","99.41","","30","","","","Mostly Cloudy"
"2003-08-09 15:00","2003","08","09","15:00","25.8","","16.4","","56","","5","","13","","24.1","","99.34","","31","","","","Mostly Cloudy"
"2003-08-09 16:00","2003","08","09","16:00","26.3","","16.5","","55","","4","","6","","24.1","","99.29","","31","","","","Mostly Cloudy"
"2003-08-09 17:00","2003","08","09","17:00","25.9","","16.4","","56","","4","","13","","24.1","","99.27","","31","","","","Mostly Cloudy"
"2003-08-09 18:00","2003","08","09","18:00","25.7","","16.9","","58","","5","","15","","24.1","","99.24","","31","","","","Mostly Cloudy"
"2003-08-09 19:00","2003","08","09","19:00","24.8","","17.0","","62","","5","","17","","24.1","","99.29","","30","","","","Mostly Cloudy"
"2003-08-09 20:00","2003","08","09","20:00","23.0","","17.5","","71","","5","","20","","19.3","","99.32","","29","","","","Mostly Cloudy"
"2003-08-09 21:00","2003","08","09","21:00","22.5","","17.0","","71","","4","","15","","24.1","","99.35","","28","","","","Mainly Clear"
"2003-08-09 22:00","2003","08","09","22:00","21.6","","17.0","","75","","1","","11","","24.1","","99.41","","27","","","","Mainly Clear"
"2003-08-09 23:00","2003","08","09","23:00","20.5","","17.5","","83","","5","","13","","24.1","","99.42","","26","","","","Mostly Cloudy"
"2003-08-10 00:00","2003","08","10","00:00","20.0","","16.8","","82","","36","","7","","24.1","","99.40","","25","","","","Mostly Cloudy"
"2003-08-10 01:00","2003","08","10","01:00","19.5","","16.2","","81","","35","","7","","24.1","","99.36","","","","","","Mostly Cloudy"
"2003-08-10 02:00","2003","08","10","02:00","18.9","","16.4","","85","","34","","7","","24.1","","99.34","","","","","","Mainly Clear"
"2003-08-10 03:00","2003","08","10","03:00","18.5","","16.4","","88","","35","","9","","24.1","","99.35","","","","","","Mainly Clear"
"2003-08-10 04:00","2003","08","10","04:00","18.5","","15.8","","84","","35","","11","","24.1","","99.41","","","","","","Mainly Clear"
"2003-08-10 05:00","2003","08","10","05:00","18.1","","15.2","","83","","35","","9","","24.1","","99.44","","","","","","Mostly Cloudy"
"2003-08-10 06:00","2003","08","10","06:00","18.1","","15.3","","84","","1","","9","","24.1","","99.47","","","","","","Mostly Cloudy"
"2003-08-10 07:00","2003","08","10","07:00","18.9","","15.6","","81","","35","","9","","24.1","","99.47","","","","","","Mostly Cloudy"
"2003-08-10 08:00","2003","08","10","08:00","20.5","","16.0","","75","","1","","9","","24.1","","99.48","","25","","","","Mostly Cloudy"
"2003-08-10 09:00","2003","08","10","09:00","22.5","","15.3","","64","","5","","11","","24.1","","99.46","","27","","","","Mostly Cloudy"
"2003-08-10 10:00","2003","08","10","10:00","23.1","","15.3","","61","","2","","11","","24.1","","99.48","","27","","","","Mostly Cloudy"
"2003-08-10 11:00","2003","08","10","11:00","24.2","","15.5","","58","","34","","9","","24.1","","99.47","","28","","","","Mostly Cloudy"
"2003-08-10 12:00","2003","08","10","12:00","25.1","","15.3","","55","","33","","9","","24.1","","99.44","","29","","","","Mostly Cloudy"
"2003-08-10 13:00","2003","08","10","13:00","24.8","","15.0","","54","","2","","9","","24.1","","99.40","","29","","","","Mostly Cloudy"
"2003-08-10 14:00","2003","08","10","14:00","24.1","","15.1","","57","","","","0","","24.1","","99.39","","28","","","","Mostly Cloudy"
"2003-08-10 15:00","2003","08","10","15:00","24.7","","15.6","","57","","35","","13","","24.1","","99.34","","29","","","","Mostly Cloudy"
"2003-08-10 16:00","2003","08","10","16:00","24.8","","15.3","","56","","1","","11","","24.1","","99.28","","29","","","","Mostly Cloudy"
"2003-08-10 17:00","2003","08","10","17:00","24.8","","15.7","","57","","33","","9","","24.1","","99.25","","29","","","","Mostly Cloudy"
"2003-08-10 18:00","2003","08","10","18:00","24.8","","16.3","","59","","6","","6","","24.1","","99.24","","30","","","","Mostly Cloudy"
"2003-08-10 19:00","2003","08","10","19:00","24.0","","16.5","","63","","10","","6","","24.1","","99.24","","29","","","","Mostly Cloudy"
"2003-08-10 20:00","2003","08","10","20:00","23.0","","16.6","","67","","9","","4","","24.1","","99.27","","28","","","","Mostly Cloudy"
"2003-08-10 21:00","2003","08","10","21:00","22.3","","16.8","","71","","18","","6","","24.1","","99.32","","27","","","","Mostly Cloudy"
"2003-08-10 22:00","2003","08","10","22:00","22.4","","16.7","","70","","19","","4","","24.1","","99.33","","27","","","","Mostly Cloudy"
"2003-08-10 23:00","2003","08","10","23:00","21.2","","16.9","","76","","","","0","","24.1","","99.33","","26","","","","Mainly Clear"
"2003-08-11 00:00","2003","08","11","00:00","20.2","","16.6","","80","","","","0","","24.1","","99.34","","25","","","","Mainly Clear"
"2003-08-11 01:00","2003","08","11","01:00","20.0","","16.7","","81","","21","","4","","24.1","","99.31","","25","","","","Mostly Cloudy"
"2003-08-11 02:00","2003","08","11","02:00","20.2","","17.0","","82","","","","0","","24.1","","99.27","","25","","","","Mostly Cloudy"
"2003-08-11 03:00","2003","08","11","03:00","20.9","","17.3","","80","","33","","4","","24.1","","99.24","","26","","","","Mostly Cloudy"
"2003-08-11 04:00","2003","08","11","04:00","20.8","","17.2","","80","","36","","6","","24.1","","99.23","","26","","","","Mostly Cloudy"
"2003-08-11 05:00","2003","08","11","05:00","21.0","","17.1","","78","","32","","4","","24.1","","99.26","","26","","","","Mostly Cloudy"
"2003-08-11 06:00","2003","08","11","06:00","20.9","","17.7","","82","","33","","11","","16.1","","99.31","","27","","","","Mostly Cloudy"
"2003-08-11 07:00","2003","08","11","07:00","20.9","","18.3","","85","","2","","7","","24.1","","99.30","","27","","","","Mostly Cloudy"
"2003-08-11 08:00","2003","08","11","08:00","21.8","","18.6","","82","","8","","4","","24.1","","99.36","","28","","","","Mostly Cloudy"
"2003-08-11 09:00","2003","08","11","09:00","22.5","","17.9","","75","","7","","7","","24.1","","99.37","","28","","","","Mostly Cloudy"
"2003-08-11 10:00","2003","08","11","10:00","22.1","","18.5","","80","","8","","13","","24.1","","99.42","","28","","","","Mostly Cloudy"
"2003-08-11 11:00","2003","08","11","11:00","23.0","","17.9","","73","","6","","4","","24.1","","99.41","","29","","","","Mostly Cloudy"
"2003-08-11 12:00","2003","08","11","12:00","23.5","","17.1","","67","","9","","7","","24.1","","99.42","","29","","","","Mostly Cloudy"
"2003-08-11 13:00","2003","08","11","13:00","24.7","","16.2","","59","","4","","11","","24.1","","99.39","","29","","","","Mostly Cloudy"
"2003-08-11 14:00","2003","08","11","14:00","25.3","","15.6","","55","","5","","13","","24.1","","99.35","","30","","","","Mostly Cloudy"
"2003-08-11 15:00","2003","08","11","15:00","24.9","","14.7","","53","","10","","13","","24.1","","99.31","","29","","","","Mostly Cloudy"
"2003-08-11 16:00","2003","08","11","16:00","25.4","","15.6","","55","","7","","11","","20.9","","99.32","","30","","","","Mostly Cloudy"
"2003-08-11 17:00","2003","08","11","17:00","24.9","","17.5","","63","","3","","17","","19.3","","99.32","","31","","","","Mostly Cloudy"
"2003-08-11 18:00","2003","08","11","18:00","23.7","","18.1","","71","","5","","19","","19.3","","99.36","","30","","","","Mostly Cloudy"
"2003-08-11 19:00","2003","08","11","19:00","23.0","","18.8","","77","","4","","20","","24.1","","99.37","","30","","","","Mostly Cloudy"
"2003-08-11 20:00","2003","08","11","20:00","22.4","","19.0","","81","","3","","26","","16.1","","99.44","","29","","","","Cloudy"
"2003-08-11 21:00","2003","08","11","21:00","21.8","","19.2","","85","","4","","32","","19.3","","99.51","","29","","","","Mostly Cloudy"
"2003-08-11 22:00","2003","08","11","22:00","21.7","","19.7","","88","","4","","20","","19.3","","99.52","","29","","","","Mostly Cloudy"
"2003-08-11 23:00","2003","08","11","23:00","21.7","","19.9","","90","","5","","20","","24.1","","99.52","","29","","","","Mostly Cloudy"
"2003-08-12 00:00","2003","08","12","00:00","20.8","","19.0","","89","","4","","15","","24.1","","99.56","","28","","","","Mostly Cloudy"
"2003-08-12 01:00","2003","08","12","01:00","20.7","","19.2","","91","","5","","17","","24.1","","99.57","","28","","","","Mostly Cloudy"
"2003-08-12 02:00","2003","08","12","02:00","20.4","","18.5","","89","","5","","20","","24.1","","99.58","","27","","","","Cloudy"
"2003-08-12 03:00","2003","08","12","03:00","20.7","","18.5","","87","","6","","19","","24.1","","99.62","","27","","","","Cloudy"
"2003-08-12 04:00","2003","08","12","04:00","20.5","","18.5","","88","","4","","13","","24.1","","99.63","","27","","","","Cloudy"
"2003-08-12 05:00","2003","08","12","05:00","20.8","","18.7","","88","","5","","15","","24.1","","99.69","","27","","","","Cloudy"
"2003-08-12 06:00","2003","08","12","06:00","20.7","","18.6","","88","","6","","19","","19.3","","99.73","","27","","","","Cloudy"
"2003-08-12 07:00","2003","08","12","07:00","20.9","","18.8","","88","","7","","13","","11.3","","99.80","","28","","","","Cloudy"
"2003-08-12 08:00","2003","08","12","08:00","21.2","","18.9","","87","","6","","13","","16.1","","99.80","","28","","","","Mostly Cloudy"
"2003-08-12 09:00","2003","08","12","09:00","21.7","","19.0","","85","","7","","17","","11.3","","99.86","","28","","","","Mostly Cloudy"
"2003-08-12 10:00","2003","08","12","10:00","21.8","","19.0","","84","","8","","9","","11.3","","99.89","","29","","","","Mostly Cloudy"
"2003-08-12 11:00","2003","08","12","11:00","23.3","","19.6","","80","","2","","11","","12.9","","99.88","","31","","","","Mostly Cloudy"
"2003-08-12 12:00","2003","08","12","12:00","25.2","","19.3","","70","","4","","19","","12.9","","99.86","","32","","","","Mostly Cloudy"
"2003-08-12 13:00","2003","08","12","13:00","25.6","","19.0","","67","","3","","20","","12.9","","99.89","","32","","","","Mainly Clear"
"2003-08-12 14:00","2003","08","12","14:00","25.7","","18.7","","65","","7","","20","","12.9","","99.89","","32","","","","Mostly Cloudy"
"2003-08-12 15:00","2003","08","12","15:00","23.9","","19.6","","77","","7","","19","","9.7","","99.91","","31","","","","Haze"
"2003-08-12 16:00","2003","08","12","16:00","24.4","","20.0","","76","","5","","17","","11.3","","99.92","","32","","","","Mostly Cloudy"
"2003-08-12 17:00","2003","08","12","17:00","24.3","","19.7","","76","","6","","17","","14.5","","99.93","","32","","","","Mostly Cloudy"
"2003-08-12 18:00","2003","08","12","18:00","23.8","","19.5","","77","","4","","26","","12.9","","99.98","","31","","","","Mostly Cloudy"
"2003-08-12 19:00","2003","08","12","19:00","22.6","","19.5","","83","","5","","17","","16.1","","100.04","","30","","","","Mostly Cloudy"
"2003-08-12 20:00","2003","08","12","20:00","21.6","","19.0","","85","","5","","17","","19.3","","100.09","","28","","","","Mainly Clear"
"2003-08-12 21:00","2003","08","12","21:00","20.8","","18.7","","88","","7","","9","","24.1","","100.12","","27","","","","Clear"
"2003-08-12 22:00","2003","08","12","22:00","20.2","","18.4","","89","","6","","11","","24.1","","100.16","","27","","","","Mainly Clear"
"2003-08-12 23:00","2003","08","12","23:00","19.8","","18.3","","91","","6","","7","","24.1","","100.16","","","","","","Mainly Clear"
"2003-08-13 00:00","2003","08","13","00:00","19.5","","18.3","","93","","6","","9","","24.1","","100.18","","","","","","Mainly Clear"
"2003-08-13 01:00","2003","08","13","01:00","19.5","","18.5","","94","","4","","7","","24.1","","100.18","","","","","","Mostly Cloudy"
"2003-08-13 02:00","2003","08","13","02:00","20.2","","18.9","","92","","1","","11","","24.1","","100.18","","27","","","","Mostly Cloudy"
"2003-08-13 03:00","2003","08","13","03:00","20.1","","18.9","","93","","36","","6","","24.1","","100.20","","27","","","","Cloudy"
"2003-08-13 04:00","2003","08","13","04:00","19.7","","18.4","","92","","36","","11","","12.9","","100.26","","","","","","Cloudy"
"2003-08-13 05:00","2003","08","13","05:00","19.5","","18.5","","94","","3","","7","","9.7","","100.28","","","","","","Haze"
"2003-08-13 06:00","2003","08","13","06:00","20.1","","19.7","","98","","3","","11","","4.0","","100.34","","27","","","","Haze"
"2003-08-13 07:00","2003","08","13","07:00","20.3","","19.5","","95","","5","","7","","2.4","","100.40","","27","","","","Fog"
"2003-08-13 08:00","2003","08","13","08:00","20.4","","19.8","","96","","2","","13","","1.6","","100.46","","28","","","","Fog"
"2003-08-13 09:00","2003","08","13","09:00","20.0","","19.5","","97","","2","","11","","2.4","","100.51","","27","","","","Fog"
"2003-08-13 10:00","2003","08","13","10:00","21.7","","20.2","","91","","8","","11","","6.4","","100.55","","29","","","","Fog"
"2003-08-13 11:00","2003","08","13","11:00","24.4","","20.9","","81","","7","","9","","9.7","","100.55","","33","","","","Haze"
"2003-08-13 12:00","2003","08","13","12:00","25.7","","20.9","","75","","6","","11","","12.9","","100.54","","34","","","","Mainly Clear"
"2003-08-13 13:00","2003","08","13","13:00","27.4","","20.1","","64","","10","","9","","24.1","","100.51","","35","","","","Mainly Clear"
"2003-08-13 14:00","2003","08","13","14:00","27.7","","20.2","","64","","7","","13","","24.1","","100.49","","35","","","","Mainly Clear"
"2003-08-13 15:00","2003","08","13","15:00","28.8","","18.4","","53","","9","","6","","24.1","","100.46","","35","","","","Mainly Clear"
"2003-08-13 16:00","2003","08","13","16:00","29.3","","18.3","","52","","7","","11","","24.1","","100.43","","36","","","","Mainly Clear"
"2003-08-13 17:00","2003","08","13","17:00","29.0","","18.4","","53","","6","","6","","19.3","","100.41","","35","","","","Mainly Clear"
"2003-08-13 18:00","2003","08","13","18:00","28.5","","19.1","","57","","9","","7","","12.9","","100.40","","35","","","","Clear"
"2003-08-13 19:00","2003","08","13","19:00","27.0","","20.0","","66","","10","","9","","11.3","","100.41","","35","","","","Mainly Clear"
"2003-08-13 20:00","2003","08","13","20:00","24.8","","21.6","","82","","19","","9","","11.3","","100.46","","34","","","","Mainly Clear"
"2003-08-13 21:00","2003","08","13","21:00","24.0","","21.3","","85","","","","0","","16.1","","100.52","","33","","","","Mainly Clear"
"2003-08-13 22:00","2003","08","13","22:00","22.7","","20.8","","89","","4","","9","","16.1","","100.56","","31","","","","Clear"
"2003-08-13 23:00","2003","08","13","23:00","22.8","","19.9","","84","","4","","6","","24.1","","100.59","","30","","","","Clear"
"2003-08-14 00:00","2003","08","14","00:00","22.1","","19.2","","84","","3","","7","","24.1","","100.64","","29","","","","Clear"
"2003-08-14 01:00","2003","08","14","01:00","22.1","","19.0","","83","","36","","6","","24.1","","100.63","","29","","","","Clear"
"2003-08-14 02:00","2003","08","14","02:00","21.4","","18.6","","84","","1","","6","","24.1","","100.64","","28","","","","Clear"
"2003-08-14 03:00","2003","08","14","03:00","21.5","","18.4","","83","","3","","11","","24.1","","100.64","","28","","","","Clear"
"2003-08-14 04:00","2003","08","14","04:00","20.6","","18.3","","87","","36","","4","","24.1","","100.65","","27","","","","Clear"
"2003-08-14 05:00","2003","08","14","05:00","20.7","","18.0","","85","","1","","6","","24.1","","100.67","","27","","","","Clear"
"2003-08-14 06:00","2003","08","14","06:00","20.3","","18.2","","88","","36","","6","","19.3","","100.71","","26","","","","Clear"
"2003-08-14 07:00","2003","08","14","07:00","21.6","","19.2","","86","","5","","6","","16.1","","100.74","","29","","","","Clear"
"2003-08-14 08:00","2003","08","14","08:00","24.6","","20.6","","78","","","","0","","24.1","","100.74","","33","","","","Clear"
"2003-08-14 09:00","2003","08","14","09:00","26.0","","21.2","","75","","7","","7","","24.1","","100.75","","35","","","","Clear"
"2003-08-14 10:00","2003","08","14","10:00","27.0","","20.2","","66","","7","","9","","24.1","","100.75","","35","","","","Clear"
"2003-08-14 11:00","2003","08","14","11:00","28.6","","18.2","","53","","3","","7","","24.1","","100.73","","35","","","","Mainly Clear"
"2003-08-14 12:00","2003","08","14","12:00","29.8","","19.0","","52","","","","0","","24.1","","100.67","","37","","","","Mainly Clear"
"2003-08-14 13:00","2003","08","14","13:00","30.5","","17.8","","47","","9","","6","","24.1","","100.59","","36","","","","Mainly Clear"
"2003-08-14 14:00","2003","08","14","14:00","30.9","","18.3","","47","","8","","6","","24.1","","100.51","","37","","","","Mainly Clear"
"2003-08-14 15:00","2003","08","14","15:00","31.2","","20.6","","53","","20","","7","","19.3","","100.44","","39","","","","Mainly Clear"
"2003-08-14 16:00","2003","08","14","16:00","30.4","","21.5","","59","","24","","13","","12.9","","100.40","","39","","","","Mainly Clear"
"2003-08-14 17:00","2003","08","14","17:00","29.5","","20.8","","60","","21","","15","","11.3","","100.40","","38","","","","Mainly Clear"
"2003-08-14 18:00","2003","08","14","18:00","28.8","","20.3","","60","","18","","15","","11.3","","100.40","","37","","","","Clear"
"2003-08-14 19:00","2003","08","14","19:00","27.2","","19.9","","64","","19","","11","","11.3","","100.40","","35","","","","Clear"
"2003-08-14 20:00","2003","08","14","20:00","25.7","","19.4","","68","","20","","11","","11.3","","100.40","","33","","","","Clear"
"2003-08-14 21:00","2003","08","14","21:00","25.0","","18.9","","69","","20","","7","","11.3","","100.40","","32","","","","Clear"
"2003-08-14 22:00","2003","08","14","22:00","24.7","","19.9","","75","","","","0","","11.3","","100.40","","32","","","","Clear"
"2003-08-14 23:00","2003","08","14","23:00","24.1","","19.7","","76","","21","","4","","24.1","","100.39","","31","","","","Clear"
"2003-08-15 00:00","2003","08","15","00:00","23.7","","20.5","","82","","21","","4","","24.1","","100.36","","32","","","","Clear"
"2003-08-15 01:00","2003","08","15","01:00","23.3","","20.9","","86","","22","","4","","24.1","","100.32","","32","","","","Clear"
"2003-08-15 02:00","2003","08","15","02:00","23.3","","21.8","","91","","23","","4","","12.9","","100.30","","32","","","","Clear"
"2003-08-15 03:00","2003","08","15","03:00","23.1","","21.9","","93","","26","","4","","4.8","","100.27","","32","","","","Fog"
"2003-08-15 04:00","2003","08","15","04:00","23.1","","21.9","","93","","27","","7","","4.8","","100.25","","32","","","","Fog"
"2003-08-15 05:00","2003","08","15","05:00","23.3","","20.9","","86","","25","","6","","6.4","","100.25","","32","","","","Haze"
"2003-08-15 06:00","2003","08","15","06:00","23.0","","20.8","","87","","24","","6","","4.8","","100.23","","31","","","","Haze"
"2003-08-15 07:00","2003","08","15","07:00","23.7","","20.9","","84","","27","","19","","4.0","","100.26","","32","","","","Haze"
"2003-08-15 08:00","2003","08","15","08:00","23.3","","22.3","","94","","26","","9","","2.4","","100.24","","33","","","","Fog"
"2003-08-15 09:00","2003","08","15","09:00","23.9","","22.6","","92","","20","","9","","3.2","","100.19","","34","","","","Fog"
"2003-08-15 10:00","2003","08","15","10:00","25.3","","22.8","","86","","20","","11","","4.8","","100.17","","35","","","","Haze"
"2003-08-15 11:00","2003","08","15","11:00","26.0","","23.0","","84","","19","","7","","4.8","","100.14","","36","","","","Haze"
"2003-08-15 12:00","2003","08","15","12:00","28.1","","22.9","","73","","18","","9","","4.8","","100.06","","38","","","","Haze"
"2003-08-15 13:00","2003","08","15","13:00","26.4","","23.6","","85","","22","","13","","4.8","","100.01","","37","","","","Rain Showers,Haze"
"2003-08-15 14:00","2003","08","15","14:00","25.4","","23.4","","89","","22","","7","","6.4","","99.92","","36","","","","Rain Showers,Haze"
"2003-08-15 15:00","2003","08","15","15:00","27.3","","23.5","","80","","22","","13","","6.4","","99.83","","38","","","","Haze"
"2003-08-15 16:00","2003","08","15","16:00","26.2","","22.6","","81","","24","","11","","8.0","","99.75","","36","","","","Haze"
"2003-08-15 17:00","2003","08","15","17:00","27.2","","22.4","","75","","27","","11","","11.3","","99.65","","37","","","","Cloudy"
"2003-08-15 18:00","2003","08","15","18:00","26.8","","22.2","","76","","25","","11","","11.3","","99.58","","36","","","","Cloudy"
"2003-08-15 19:00","2003","08","15","19:00","26.0","","22.6","","82","","23","","9","","11.3","","99.56","","36","","","","Mostly Cloudy"
"2003-08-15 20:00","2003","08","15","20:00","24.9","","22.6","","87","","24","","9","","11.3","","99.53","","35","","","","Mostly Cloudy"
"2003-08-15 21:00","2003","08","15","21:00","24.8","","22.6","","88","","25","","11","","11.3","","99.55","","35","","","","Cloudy"
"2003-08-15 22:00","2003","08","15","22:00","24.7","","22.7","","89","","24","","9","","11.3","","99.53","","35","","","","Mainly Clear"
"2003-08-15 23:00","2003","08","15","23:00","24.2","","22.6","","91","","25","","9","","9.7","","99.51","","34","","","","Fog"
"2003-08-16 00:00","2003","08","16","00:00","24.8","","22.3","","86","","28","","13","","11.3","","99.46","","34","","","","Mostly Cloudy"
"2003-08-16 01:00","2003","08","16","01:00","24.3","","21.8","","86","","29","","13","","6.4","","99.41","","33","","","","Haze"
"2003-08-16 02:00","2003","08","16","02:00","23.8","","21.2","","85","","30","","13","","4.8","","99.35","","32","","","","Haze"
"2003-08-16 03:00","2003","08","16","03:00","23.4","","20.8","","85","","30","","11","","4.8","","99.32","","32","","","","Haze"
"2003-08-16 04:00","2003","08","16","04:00","23.1","","20.5","","85","","29","","13","","6.4","","99.28","","31","","","","Haze"
"2003-08-16 05:00","2003","08","16","05:00","22.8","","20.1","","85","","27","","7","","8.0","","99.24","","30","","","","Haze"
"2003-08-16 06:00","2003","08","16","06:00","23.0","","20.3","","85","","22","","9","","4.8","","99.24","","31","","","","Haze"
"2003-08-16 07:00","2003","08","16","07:00","23.3","","20.7","","85","","28","","11","","4.8","","99.21","","31","","","","Haze"
"2003-08-16 08:00","2003","08","16","08:00","24.9","","21.7","","82","","29","","15","","4.8","","99.20","","34","","","","Haze"
"2003-08-16 09:00","2003","08","16","09:00","26.6","","21.9","","75","","29","","13","","6.4","","99.16","","36","","","","Haze"
"2003-08-16 10:00","2003","08","16","10:00","28.9","","21.8","","66","","32","","11","","6.4","","99.16","","38","","","","Haze"
"2003-08-16 11:00","2003","08","16","11:00","29.9","","21.6","","61","","30","","11","","8.0","","99.14","","39","","","","Haze"
"2003-08-16 12:00","2003","08","16","12:00","30.4","","21.3","","58","","30","","19","","11.3","","99.09","","39","","","","Mainly Clear"
"2003-08-16 13:00","2003","08","16","13:00","30.4","","21.9","","61","","29","","22","","11.3","","98.99","","40","","","","Mostly Cloudy"
"2003-08-16 14:00","2003","08","16","14:00","27.6","","21.2","","68","","4","","19","","11.3","","98.93","","36","","","","Mostly Cloudy"
"2003-08-16 15:00","2003","08","16","15:00","25.3","","19.6","","71","","4","","19","","6.4","","98.91","","33","","","","Rain Showers"
"2003-08-16 16:00","2003","08","16","16:00","23.5","","21.3","","87","","6","","17","","11.3","","98.98","","32","","","","Cloudy"
"2003-08-16 17:00","2003","08","16","17:00","22.9","","21.3","","91","","5","","9","","11.3","","99.04","","32","","","","Rain Showers"
"2003-08-16 18:00","2003","08","16","18:00","22.9","","21.5","","92","","","","0","","11.3","","99.01","","32","","","","Mostly Cloudy"
"2003-08-16 19:00","2003","08","16","19:00","22.8","","17.2","","71","","4","","17","","24.1","","99.01","","28","","","","Mainly Clear"
"2003-08-16 20:00","2003","08","16","20:00","22.1","","16.7","","71","","4","","11","","24.1","","99.09","","27","","","","Mainly Clear"
"2003-08-16 21:00","2003","08","16","21:00","21.6","","15.0","","66","","2","","13","","24.1","","99.14","","26","","","","Clear"
"2003-08-16 22:00","2003","08","16","22:00","20.5","","15.8","","74","","1","","11","","24.1","","99.17","","25","","","","Clear"
"2003-08-16 23:00","2003","08","16","23:00","19.8","","16.3","","80","","1","","11","","24.1","","99.19","","","","","","Clear"
"2003-08-17 00:00","2003","08","17","00:00","19.4","","16.4","","83","","1","","15","","24.1","","99.21","","","","","","Clear"
"2003-08-17 01:00","2003","08","17","01:00","19.0","","16.9","","88","","36","","9","","24.1","","99.24","","","","","","Clear"
"2003-08-17 02:00","2003","08","17","02:00","18.8","","17.0","","89","","36","","9","","24.1","","99.25","","","","","","Clear"
"2003-08-17 03:00","2003","08","17","03:00","18.0","","16.8","","93","","36","","11","","24.1","","99.28","","","","","","Clear"
"2003-08-17 04:00","2003","08","17","04:00","17.8","","16.7","","93","","36","","11","","24.1","","99.28","","","","","","Clear"
"2003-08-17 05:00","2003","08","17","05:00","17.5","","16.6","","94","","4","","7","","24.1","","99.33","","","","","","Clear"
"2003-08-17 06:00","2003","08","17","06:00","17.3","","16.3","","94","","3","","13","","24.1","","99.43","","","","","","Clear"
"2003-08-17 07:00","2003","08","17","07:00","19.3","","15.5","","79","","4","","22","","24.1","","99.49","","","","","","Clear"
"2003-08-17 08:00","2003","08","17","08:00","20.2","","13.5","","65","","5","","24","","24.1","","99.51","","","","","","Clear"
"2003-08-17 09:00","2003","08","17","09:00","20.9","","13.5","","63","","6","","28","","24.1","","99.55","","","","","","Clear"
"2003-08-17 10:00","2003","08","17","10:00","21.6","","14.6","","64","","5","","24","","24.1","","99.58","","25","","","","Clear"
"2003-08-17 11:00","2003","08","17","11:00","22.5","","15.0","","63","","5","","24","","24.1","","99.57","","26","","","","Mainly Clear"
"2003-08-17 12:00","2003","08","17","12:00","23.4","","14.9","","59","","5","","26","","24.1","","99.57","","27","","","","Mainly Clear"
"2003-08-17 13:00","2003","08","17","13:00","24.0","","14.7","","56","","4","","22","","24.1","","99.54","","28","","","","Mainly Clear"
"2003-08-17 14:00","2003","08","17","14:00","24.0","","15.0","","57","","5","","30","","24.1","","99.53","","28","","","","Mainly Clear"
"2003-08-17 15:00","2003","08","17","15:00","23.7","","14.3","","56","","5","","28","","24.1","","99.50","","27","","","","Mainly Clear"
"2003-08-17 16:00","2003","08","17","16:00","23.2","","13.8","","55","","5","","24","","24.1","","99.49","","26","","","","Mostly Cloudy"
"2003-08-17 17:00","2003","08","17","17:00","23.0","","13.3","","54","","6","","26","","24.1","","99.48","","26","","","","Mostly Cloudy"
"2003-08-17 18:00","2003","08","17","18:00","22.7","","13.3","","55","","7","","22","","24.1","","99.50","","26","","","","Mainly Clear"
"2003-08-17 19:00","2003","08","17","19:00","21.2","","13.6","","62","","5","","20","","24.1","","99.50","","","","","","Mainly Clear"
"2003-08-17 20:00","2003","08","17","20:00","19.9","","13.5","","67","","4","","13","","24.1","","99.57","","","","","","Mainly Clear"
"2003-08-17 21:00","2003","08","17","21:00","18.1","","14.0","","77","","5","","15","","24.1","","99.60","","","","","","Clear"
"2003-08-17 22:00","2003","08","17","22:00","17.8","","15.0","","84","","5","","15","","24.1","","99.60","","","","","","Clear"
"2003-08-17 23:00","2003","08","17","23:00","17.0","","14.5","","85","","6","","11","","24.1","","99.63","","","","","","Clear"
"2003-08-18 00:00","2003","08","18","00:00","17.6","","14.7","","83","","36","","7","","24.1","","99.67","","","","","","Clear"
"2003-08-18 01:00","2003","08","18","01:00","16.9","","14.4","","85","","36","","7","","24.1","","99.69","","","","","","Clear"
"2003-08-18 02:00","2003","08","18","02:00","16.2","","14.1","","87","","1","","7","","24.1","","99.68","","","","","","Clear"
"2003-08-18 03:00","2003","08","18","03:00","16.1","","14.3","","89","","36","","7","","24.1","","99.68","","","","","","Clear"
"2003-08-18 04:00","2003","08","18","04:00","16.0","","14.0","","88","","36","","7","","24.1","","99.69","","","","","","Clear"
"2003-08-18 05:00","2003","08","18","05:00","15.8","","13.7","","87","","34","","6","","24.1","","99.73","","","","","","Mainly Clear"
"2003-08-18 06:00","2003","08","18","06:00","15.5","","13.5","","88","","36","","7","","24.1","","99.76","","","","","","Mostly Cloudy"
"2003-08-18 07:00","2003","08","18","07:00","16.7","","14.4","","86","","36","","6","","24.1","","99.79","","","","","","Mostly Cloudy"
"2003-08-18 08:00","2003","08","18","08:00","19.7","","15.9","","79","","4","","11","","24.1","","99.84","","","","","","Mostly Cloudy"
"2003-08-18 09:00","2003","08","18","09:00","21.2","","15.0","","68","","5","","11","","24.1","","99.84","","25","","","","Mostly Cloudy"
"2003-08-18 10:00","2003","08","18","10:00","22.0","","14.5","","62","","5","","11","","24.1","","99.89","","26","","","","Mostly Cloudy"
"2003-08-18 11:00","2003","08","18","11:00","24.0","","13.6","","52","","7","","11","","24.1","","99.91","","27","","","","Mostly Cloudy"
"2003-08-18 12:00","2003","08","18","12:00","24.0","","13.7","","53","","8","","13","","24.1","","99.91","","27","","","","Mostly Cloudy"
"2003-08-18 13:00","2003","08","18","13:00","24.3","","13.5","","51","","9","","9","","24.1","","99.89","","27","","","","Mostly Cloudy"
"2003-08-18 14:00","2003","08","18","14:00","24.4","","12.6","","48","","8","","11","","24.1","","99.87","","27","","","","Mostly Cloudy"
"2003-08-18 15:00","2003","08","18","15:00","25.5","","13.6","","48","","7","","6","","24.1","","99.87","","29","","","","Mainly Clear"
"2003-08-18 16:00","2003","08","18","16:00","25.5","","12.4","","44","","10","","4","","24.1","","99.83","","28","","","","Mainly Clear"
"2003-08-18 17:00","2003","08","18","17:00","25.4","","13.0","","46","","25","","4","","24.1","","99.82","","28","","","","Mainly Clear"
"2003-08-18 18:00","2003","08","18","18:00","24.4","","16.3","","61","","20","","11","","24.1","","99.81","","29","","","","Clear"
"2003-08-18 19:00","2003","08","18","19:00","23.2","","16.0","","64","","18","","9","","24.1","","99.81","","28","","","","Clear"
"2003-08-18 20:00","2003","08","18","20:00","22.0","","15.8","","68","","21","","7","","24.1","","99.81","","26","","","","Clear"
"2003-08-18 21:00","2003","08","18","21:00","20.2","","15.9","","76","","18","","6","","24.1","","99.81","","25","","","","Clear"
"2003-08-18 22:00","2003","08","18","22:00","19.7","","15.7","","78","","22","","4","","24.1","","99.84","","","","","","Clear"
"2003-08-18 23:00","2003","08","18","23:00","18.7","","15.2","","80","","","","0","","24.1","","99.83","","","","","","Clear"
"2003-08-19 00:00","2003","08","19","00:00","17.4","","15.1","","86","","","","0","","24.1","","99.87","","","","","","Clear"
"2003-08-19 01:00","2003","08","19","01:00","17.9","","15.2","","84","","34","","4","","24.1","","99.94","","","","","","Clear"
"2003-08-19 02:00","2003","08","19","02:00","17.7","","15.1","","85","","","","0","","24.1","","99.92","","","","","","Mainly Clear"
"2003-08-19 03:00","2003","08","19","03:00","17.3","","15.3","","88","","","","0","","24.1","","99.93","","","","","","Clear"
"2003-08-19 04:00","2003","08","19","04:00","16.6","","14.8","","89","","","","0","","24.1","","99.98","","","","","","Clear"
"2003-08-19 05:00","2003","08","19","05:00","15.8","","14.7","","93","","25","","4","","24.1","","99.98","","","","","","Clear"
"2003-08-19 06:00","2003","08","19","06:00","15.8","","14.5","","92","","","","0","","19.3","","99.97","","","","","","Clear"
"2003-08-19 07:00","2003","08","19","07:00","18.4","","15.4","","83","","","","0","","16.1","","100.01","","","","","","Mainly Clear"
"2003-08-19 08:00","2003","08","19","08:00","21.6","","17.2","","76","","","","0","","19.3","","100.03","","27","","","","Mainly Clear"
"2003-08-19 09:00","2003","08","19","09:00","23.1","","17.3","","70","","13","","9","","24.1","","100.03","","29","","","","Mainly Clear"
"2003-08-19 10:00","2003","08","19","10:00","24.7","","15.8","","58","","15","","4","","24.1","","100.02","","29","","","","Mainly Clear"
"2003-08-19 11:00","2003","08","19","11:00","25.5","","16.2","","56","","22","","6","","24.1","","100.05","","30","","","","Mainly Clear"
"2003-08-19 12:00","2003","08","19","12:00","26.1","","15.3","","51","","28","","4","","24.1","","100.02","","30","","","","Mainly Clear"
"2003-08-19 13:00","2003","08","19","13:00","26.9","","15.8","","51","","19","","7","","24.1","","100.02","","31","","","","Mainly Clear"
"2003-08-19 14:00","2003","08","19","14:00","26.8","","17.7","","57","","20","","9","","24.1","","99.98","","33","","","","Mainly Clear"
"2003-08-19 15:00","2003","08","19","15:00","26.9","","17.0","","55","","21","","15","","24.1","","99.92","","32","","","","Mainly Clear"
"2003-08-19 16:00","2003","08","19","16:00","27.0","","15.2","","48","","20","","9","","24.1","","99.92","","31","","","","Mainly Clear"
"2003-08-19 17:00","2003","08","19","17:00","26.4","","11.7","","40","","20","","9","","24.1","","99.90","","29","","","","Mainly Clear"
"2003-08-19 18:00","2003","08","19","18:00","25.7","","13.4","","47","","18","","9","","24.1","","99.82","","29","","","","Mostly Cloudy"
"2003-08-19 19:00","2003","08","19","19:00","24.3","","14.5","","54","","19","","7","","24.1","","99.79","","28","","","","Mostly Cloudy"
"2003-08-19 20:00","2003","08","19","20:00","21.7","","15.2","","67","","18","","6","","24.1","","99.79","","26","","","","Mainly Clear"
"2003-08-19 21:00","2003","08","19","21:00","20.8","","15.0","","69","","","","0","","24.1","","99.86","","25","","","","Mainly Clear"
"2003-08-19 22:00","2003","08","19","22:00","19.3","","15.1","","77","","","","0","","24.1","","99.90","","","","","","Clear"
"2003-08-19 23:00","2003","08","19","23:00","17.9","","15.2","","84","","19","","4","","24.1","","99.89","","","","","","Clear"
"2003-08-20 00:00","2003","08","20","00:00","19.4","","15.7","","79","","22","","4","","24.1","","99.90","","","","","","Clear"
"2003-08-20 01:00","2003","08","20","01:00","18.6","","15.9","","84","","22","","4","","24.1","","99.82","","","","","","Clear"
"2003-08-20 02:00","2003","08","20","02:00","18.8","","16.6","","87","","","","0","","24.1","","99.84","","","","","","Clear"
"2003-08-20 03:00","2003","08","20","03:00","17.6","","15.2","","86","","","","0","","24.1","","99.84","","","","","","Clear"
"2003-08-20 04:00","2003","08","20","04:00","17.3","","16.2","","93","","19","","4","","24.1","","99.82","","","","","","Clear"
"2003-08-20 05:00","2003","08","20","05:00","17.8","","16.7","","93","","17","","6","","24.1","","99.81","","","","","","Mainly Clear"
"2003-08-20 06:00","2003","08","20","06:00","17.9","","16.8","","93","","18","","4","","19.3","","99.84","","","","","","Mainly Clear"
"2003-08-20 07:00","2003","08","20","07:00","20.2","","18.3","","89","","","","0","","16.1","","99.85","","26","","","","Mainly Clear"
"2003-08-20 08:00","2003","08","20","08:00","23.4","","19.9","","81","","18","","6","","16.1","","99.86","","31","","","","Mainly Clear"
"2003-08-20 09:00","2003","08","20","09:00","24.8","","19.5","","72","","20","","7","","19.3","","99.85","","32","","","","Mainly Clear"
"2003-08-20 10:00","2003","08","20","10:00","26.0","","18.7","","64","","21","","9","","19.3","","99.84","","33","","","","Mainly Clear"
"2003-08-20 11:00","2003","08","20","11:00","27.0","","16.7","","53","","25","","11","","19.3","","99.82","","32","","","","Mainly Clear"
"2003-08-20 12:00","2003","08","20","12:00","27.5","","17.1","","53","","21","","11","","16.1","","99.78","","33","","","","Mainly Clear"
"2003-08-20 13:00","2003","08","20","13:00","28.0","","17.3","","52","","21","","15","","19.3","","99.75","","33","","","","Mainly Clear"
"2003-08-20 14:00","2003","08","20","14:00","28.3","","18.2","","54","","25","","11","","19.3","","99.71","","34","","","","Mainly Clear"
"2003-08-20 15:00","2003","08","20","15:00","28.9","","17.9","","51","","18","","20","","16.1","","99.66","","35","","","","Mostly Cloudy"
"2003-08-20 16:00","2003","08","20","16:00","27.9","","17.5","","53","","20","","19","","12.9","","99.59","","34","","","","Mostly Cloudy"
"2003-08-20 17:00","2003","08","20","17:00","27.9","","18.0","","55","","23","","17","","12.9","","99.57","","34","","","","Mostly Cloudy"
"2003-08-20 18:00","2003","08","20","18:00","26.8","","18.3","","60","","19","","13","","12.9","","99.57","","33","","","","Mainly Clear"
"2003-08-20 19:00","2003","08","20","19:00","24.8","","19.0","","70","","18","","6","","9.7","","99.57","","32","","","","Haze"
"2003-08-20 20:00","2003","08","20","20:00","23.5","","19.3","","77","","17","","13","","11.3","","99.54","","31","","","","Mainly Clear"
"2003-08-20 21:00","2003","08","20","21:00","22.3","","19.2","","83","","16","","4","","11.3","","99.53","","29","","","","Mainly Clear"
"2003-08-20 22:00","2003","08","20","22:00","21.6","","19.1","","86","","18","","9","","9.7","","99.50","","28","","","","Haze"
"2003-08-20 23:00","2003","08","20","23:00","21.6","","19.7","","89","","19","","11","","8.0","","99.53","","29","","","","Fog"
"2003-08-21 00:00","2003","08","21","00:00","21.6","","20.0","","91","","19","","9","","6.4","","99.55","","29","","","","Fog"
"2003-08-21 01:00","2003","08","21","01:00","21.2","","20.1","","93","","16","","7","","6.4","","99.47","","29","","","","Fog"
"2003-08-21 02:00","2003","08","21","02:00","21.4","","20.8","","96","","21","","7","","4.8","","99.44","","30","","","","Fog"
"2003-08-21 03:00","2003","08","21","03:00","21.1","","20.9","","99","","20","","11","","4.0","","99.41","","29","","","","Fog"
"2003-08-21 04:00","2003","08","21","04:00","20.9","","20.2","","96","","24","","6","","4.0","","99.40","","29","","","","Fog"
"2003-08-21 05:00","2003","08","21","05:00","20.4","","19.6","","95","","18","","7","","2.4","","99.34","","28","","","","Fog"
"2003-08-21 06:00","2003","08","21","06:00","20.4","","19.0","","92","","21","","11","","2.0","","99.36","","27","","","","Fog"
"2003-08-21 07:00","2003","08","21","07:00","21.1","","19.1","","88","","21","","7","","3.6","","99.34","","28","","","","Fog"
"2003-08-21 08:00","2003","08","21","08:00","23.4","","19.9","","81","","25","","11","","8.0","","99.37","","31","","","","Haze"
"2003-08-21 09:00","2003","08","21","09:00","25.3","","20.0","","72","","22","","20","","8.0","","99.31","","33","","","","Haze"
"2003-08-21 10:00","2003","08","21","10:00","26.9","","20.1","","66","","22","","20","","12.9","","99.23","","35","","","","Mainly Clear"
"2003-08-21 11:00","2003","08","21","11:00","28.6","","21.7","","66","","21","","20","","11.3","","99.22","","38","","","","Mostly Cloudy"
"2003-08-21 12:00","2003","08","21","12:00","29.5","","22.1","","64","","20","","20","","11.3","","99.17","","39","","","","Mainly Clear"
"2003-08-21 13:00","2003","08","21","13:00","30.3","","21.8","","60","","20","","22","","11.3","","99.10","","39","","","","Mainly Clear"
"2003-08-21 14:00","2003","08","21","14:00","31.2","","21.3","","56","","21","","28","","11.3","","99.04","","40","","","","Clear"
"2003-08-21 15:00","2003","08","21","15:00","31.7","","21.2","","54","","20","","35","","11.3","","98.95","","40","","","","Mainly Clear"
"2003-08-21 16:00","2003","08","21","16:00","31.6","","22.7","","59","","21","","37","","11.3","","98.88","","42","","","","Mainly Clear"
"2003-08-21 17:00","2003","08","21","17:00","31.1","","23.6","","64","","21","","32","","12.9","","98.84","","42","","","","Mostly Cloudy"
"2003-08-21 18:00","2003","08","21","18:00","30.7","","23.3","","65","","22","","24","","11.3","","98.79","","41","","","","Mostly Cloudy"
"2003-08-21 19:00","2003","08","21","19:00","29.4","","23.2","","69","","21","","26","","9.7","","98.69","","40","","","","Haze"
"2003-08-21 20:00","2003","08","21","20:00","28.9","","22.9","","70","","22","","24","","9.7","","98.75","","39","","","","Haze"
"2003-08-21 21:00","2003","08","21","21:00","28.2","","23.4","","75","","23","","13","","9.7","","98.82","","39","","","","Haze"
"2003-08-21 22:00","2003","08","21","22:00","28.9","","23.5","","73","","25","","20","","11.3","","98.89","","40","","","","Thunderstorms,Rain Showers"
"2003-08-21 23:00","2003","08","21","23:00","26.9","","17.6","","57","","27","","30","","24.1","","98.86","","33","","","","Cloudy"
"2003-08-22 00:00","2003","08","22","00:00","26.1","","19.3","","66","","25","","19","","24.1","","98.91","","33","","","","Cloudy"
"2003-08-22 01:00","2003","08","22","01:00","25.1","","21.1","","79","","27","","17","","24.1","","98.98","","34","","","","Cloudy"
"2003-08-22 02:00","2003","08","22","02:00","24.8","","22.0","","84","","30","","15","","24.1","","98.92","","34","","","","Mainly Clear"
"2003-08-22 03:00","2003","08","22","03:00","24.1","","21.7","","86","","29","","6","","24.1","","98.97","","33","","","","Clear"
"2003-08-22 04:00","2003","08","22","04:00","23.5","","20.8","","85","","1","","7","","24.1","","99.02","","32","","","","Mainly Clear"
"2003-08-22 05:00","2003","08","22","05:00","21.9","","19.8","","88","","5","","9","","24.1","","99.10","","29","","","","Clear"
"2003-08-22 06:00","2003","08","22","06:00","21.9","","19.5","","86","","1","","13","","16.1","","99.16","","29","","","","Mainly Clear"
"2003-08-22 07:00","2003","08","22","07:00","22.4","","18.7","","80","","4","","19","","24.1","","99.23","","29","","","","Mainly Clear"
"2003-08-22 08:00","2003","08","22","08:00","22.6","","18.1","","76","","4","","20","","24.1","","99.31","","29","","","","Mostly Cloudy"
"2003-08-22 09:00","2003","08","22","09:00","23.4","","17.3","","69","","2","","9","","24.1","","99.36","","29","","","","Mostly Cloudy"
"2003-08-22 10:00","2003","08","22","10:00","22.7","","15.7","","65","","7","","19","","24.1","","99.41","","27","","","","Mainly Clear"
"2003-08-22 11:00","2003","08","22","11:00","24.0","","15.3","","58","","2","","9","","24.1","","99.41","","28","","","","Mainly Clear"
"2003-08-22 12:00","2003","08","22","12:00","24.5","","14.7","","54","","10","","9","","24.1","","99.41","","28","","","","Mainly Clear"
"2003-08-22 13:00","2003","08","22","13:00","26.0","","14.6","","49","","7","","11","","24.1","","99.40","","30","","","","Mainly Clear"
"2003-08-22 14:00","2003","08","22","14:00","26.9","","13.2","","43","","2","","17","","24.1","","99.38","","30","","","","Mainly Clear"
"2003-08-22 15:00","2003","08","22","15:00","27.2","","14.1","","45","","2","","11","","24.1","","99.34","","31","","","","Mainly Clear"
"2003-08-22 16:00","2003","08","22","16:00","26.8","","13.0","","42","","5","","17","","24.1","","99.30","","30","","","","Mainly Clear"
"2003-08-22 17:00","2003","08","22","17:00","26.0","","13.9","","47","","6","","19","","24.1","","99.29","","29","","","","Mainly Clear"
"2003-08-22 18:00","2003","08","22","18:00","25.3","","13.5","","48","","6","","15","","24.1","","99.29","","28","","","","Mainly Clear"
"2003-08-22 19:00","2003","08","22","19:00","24.7","","13.9","","51","","4","","6","","24.1","","99.33","","28","","","","Clear"
"2003-08-22 20:00","2003","08","22","20:00","23.7","","11.7","","47","","1","","7","","24.1","","99.42","","26","","","","Clear"
"2003-08-22 21:00","2003","08","22","21:00","22.3","","12.5","","54","","34","","4","","24.1","","99.43","","25","","","","Clear"
"2003-08-22 22:00","2003","08","22","22:00","20.8","","14.2","","66","","24","","7","","24.1","","99.44","","","","","","Clear"
"2003-08-22 23:00","2003","08","22","23:00","20.2","","14.1","","68","","28","","7","","24.1","","99.45","","","","","","Clear"
"2003-08-23 00:00","2003","08","23","00:00","20.9","","12.6","","59","","34","","15","","24.1","","99.48","","","","","","Clear"
"2003-08-23 01:00","2003","08","23","01:00","20.9","","12.4","","58","","36","","13","","24.1","","99.49","","","","","","Clear"
"2003-08-23 02:00","2003","08","23","02:00","20.3","","12.8","","62","","36","","13","","24.1","","99.52","","","","","","Clear"
"2003-08-23 03:00","2003","08","23","03:00","19.1","","13.7","","71","","36","","15","","24.1","","99.55","","","","","","Clear"
"2003-08-23 04:00","2003","08","23","04:00","18.4","","14.1","","76","","7","","15","","24.1","","99.60","","","","","","Clear"
"2003-08-23 05:00","2003","08","23","05:00","17.5","","13.5","","77","","36","","11","","24.1","","99.65","","","","","","Mainly Clear"
"2003-08-23 06:00","2003","08","23","06:00","17.3","","13.2","","77","","36","","11","","24.1","","99.71","","","","","","Mainly Clear"
"2003-08-23 07:00","2003","08","23","07:00","18.4","","13.5","","73","","36","","13","","24.1","","99.78","","","","","","Mainly Clear"
"2003-08-23 08:00","2003","08","23","08:00","19.8","","14.8","","73","","3","","13","","24.1","","99.80","","","","","","Mostly Cloudy"
"2003-08-23 09:00","2003","08","23","09:00","21.6","","16.1","","71","","4","","15","","24.1","","99.88","","26","","","","Mostly Cloudy"
"2003-08-23 10:00","2003","08","23","10:00","22.1","","16.4","","70","","3","","22","","24.1","","99.91","","27","","","","Mostly Cloudy"
"2003-08-23 11:00","2003","08","23","11:00","23.0","","14.6","","59","","4","","17","","24.1","","99.96","","27","","","","Mainly Clear"
"2003-08-23 12:00","2003","08","23","12:00","24.0","","12.6","","49","","5","","17","","24.1","","99.97","","27","","","","Mainly Clear"
"2003-08-23 13:00","2003","08","23","13:00","23.9","","13.5","","52","","7","","17","","24.1","","99.93","","27","","","","Mainly Clear"
"2003-08-23 14:00","2003","08","23","14:00","24.2","","13.5","","51","","8","","17","","24.1","","99.91","","27","","","","Mostly Cloudy"
"2003-08-23 15:00","2003","08","23","15:00","24.4","","12.9","","49","","6","","28","","24.1","","99.88","","27","","","","Mostly Cloudy"
"2003-08-23 16:00","2003","08","23","16:00","24.0","","8.7","","38","","7","","24","","24.1","","99.87","","25","","","","Mostly Cloudy"
"2003-08-23 17:00","2003","08","23","17:00","23.6","","6.8","","34","","6","","19","","24.1","","99.86","","","","","","Mostly Cloudy"
"2003-08-23 18:00","2003","08","23","18:00","22.7","","6.5","","35","","7","","22","","24.1","","99.90","","","","","","Mostly Cloudy"
"2003-08-23 19:00","2003","08","23","19:00","20.4","","7.2","","42","","7","","17","","24.1","","99.91","","","","","","Mostly Cloudy"
"2003-08-23 20:00","2003","08","23","20:00","19.8","","5.7","","40","","8","","11","","24.1","","99.87","","","","","","Mostly Cloudy"
"2003-08-23 21:00","2003","08","23","21:00","18.9","","6.8","","45","","8","","11","","24.1","","99.90","","","","","","Mostly Cloudy"
"2003-08-23 22:00","2003","08","23","22:00","18.2","","7.2","","49","","","","0","","24.1","","99.95","","","","","","Mostly Cloudy"
"2003-08-23 23:00","2003","08","23","23:00","17.6","","11.1","","66","","3","","4","","24.1","","99.94","","","","","","Mainly Clear"
"2003-08-24 00:00","2003","08","24","00:00","16.7","","10.9","","69","","20","","4","","24.1","","99.95","","","","","","Mostly Cloudy"
"2003-08-24 01:00","2003","08","24","01:00","17.4","","11.2","","67","","16","","4","","24.1","","99.96","","","","","","Mostly Cloudy"
"2003-08-24 02:00","2003","08","24","02:00","17.8","","10.8","","64","","","","0","","24.1","","99.96","","","","","","Mostly Cloudy"
"2003-08-24 03:00","2003","08","24","03:00","17.4","","11.4","","68","","17","","6","","24.1","","99.97","","","","","","Mostly Cloudy"
"2003-08-24 04:00","2003","08","24","04:00","15.3","","10.1","","71","","17","","4","","24.1","","99.98","","","","","","Mostly Cloudy"
"2003-08-24 05:00","2003","08","24","05:00","14.4","","10.1","","75","","16","","4","","24.1","","99.98","","","","","","Mainly Clear"
"2003-08-24 06:00","2003","08","24","06:00","13.8","","10.6","","81","","","","0","","24.1","","99.99","","","","","","Mainly Clear"
"2003-08-24 07:00","2003","08","24","07:00","15.2","","11.5","","79","","","","0","","24.1","","100.04","","","","","","Clear"
"2003-08-24 08:00","2003","08","24","08:00","19.1","","10.0","","56","","12","","4","","24.1","","100.08","","","","","","Clear"
"2003-08-24 09:00","2003","08","24","09:00","20.8","","7.8","","43","","16","","9","","24.1","","100.04","","","","","","Mainly Clear"
"2003-08-24 10:00","2003","08","24","10:00","21.7","","8.8","","44","","22","","7","","24.1","","100.01","","","","","","Mostly Cloudy"
"2003-08-24 11:00","2003","08","24","11:00","23.1","","10.4","","45","","17","","9","","24.1","","99.94","","25","","","","Mostly Cloudy"
"2003-08-24 12:00","2003","08","24","12:00","23.0","","9.7","","43","","24","","13","","24.1","","99.94","","","","","","Cloudy"
"2003-08-24 13:00","2003","08","24","13:00","23.8","","6.4","","33","","22","","9","","24.1","","99.89","","","","","","Cloudy"
"2003-08-24 14:00","2003","08","24","14:00","24.1","","9.3","","39","","21","","19","","24.1","","99.67","","25","","","","Cloudy"
"2003-08-24 15:00","2003","08","24","15:00","23.3","","14.4","","57","","22","","20","","24.1","","99.59","","27","","","","Cloudy"
"2003-08-24 16:00","2003","08","24","16:00","24.3","","12.7","","48","","23","","22","","24.1","","99.49","","27","","","","Cloudy"
"2003-08-24 17:00","2003","08","24","17:00","24.5","","13.0","","49","","22","","15","","24.1","","99.44","","27","","","","Mostly Cloudy"
"2003-08-24 18:00","2003","08","24","18:00","24.8","","14.5","","53","","23","","15","","24.1","","99.37","","28","","","","Mostly Cloudy"
"2003-08-24 19:00","2003","08","24","19:00","24.0","","14.2","","54","","22","","13","","24.1","","99.34","","27","","","","Mainly Clear"
"2003-08-24 20:00","2003","08","24","20:00","22.7","","15.3","","63","","20","","9","","24.1","","99.33","","27","","","","Mainly Clear"
"2003-08-24 21:00","2003","08","24","21:00","21.8","","15.9","","69","","21","","11","","24.1","","99.34","","26","","","","Clear"
"2003-08-24 22:00","2003","08","24","22:00","21.7","","15.7","","69","","22","","13","","24.1","","99.33","","26","","","","Clear"
"2003-08-24 23:00","2003","08","24","23:00","21.6","","15.8","","70","","22","","17","","24.1","","99.28","","26","","","","Clear"
"2003-08-25 00:00","2003","08","25","00:00","21.7","","15.7","","69","","23","","17","","24.1","","99.27","","26","","","","Clear"
"2003-08-25 01:00","2003","08","25","01:00","22.0","","15.3","","66","","24","","19","","24.1","","99.21","","26","","","","Clear"
"2003-08-25 02:00","2003","08","25","02:00","21.2","","15.7","","71","","25","","15","","24.1","","99.19","","26","","","","Clear"
"2003-08-25 03:00","2003","08","25","03:00","20.7","","16.0","","74","","25","","13","","24.1","","99.18","","25","","","","Clear"
"2003-08-25 04:00","2003","08","25","04:00","20.0","","16.3","","79","","25","","11","","24.1","","99.18","","25","","","","Clear"
"2003-08-25 05:00","2003","08","25","05:00","19.8","","16.6","","82","","26","","9","","24.1","","99.20","","","","","","Clear"
"2003-08-25 06:00","2003","08","25","06:00","19.8","","16.8","","83","","25","","7","","24.1","","99.25","","","","","","Clear"
"2003-08-25 07:00","2003","08","25","07:00","20.2","","17.1","","82","","24","","7","","19.3","","99.29","","26","","","","Mainly Clear"
"2003-08-25 08:00","2003","08","25","08:00","22.4","","18.1","","77","","27","","11","","19.3","","99.33","","28","","","","Mainly Clear"
"2003-08-25 09:00","2003","08","25","09:00","25.2","","19.5","","71","","31","","7","","19.3","","99.34","","32","","","","Mainly Clear"
"2003-08-25 10:00","2003","08","25","10:00","27.2","","19.4","","62","","36","","4","","19.3","","99.36","","34","","","","Mainly Clear"
"2003-08-25 11:00","2003","08","25","11:00","29.5","","19.5","","55","","","","0","","19.3","","99.34","","37","","","","Mostly Cloudy"
"2003-08-25 12:00","2003","08","25","12:00","30.4","","20.8","","57","","","","0","","19.3","","99.33","","39","","","","Mostly Cloudy"
"2003-08-25 13:00","2003","08","25","13:00","30.9","","21.2","","56","","23","","9","","16.1","","99.31","","39","","","","Mainly Clear"
"2003-08-25 14:00","2003","08","25","14:00","30.7","","21.8","","59","","27","","11","","16.1","","99.31","","40","","","","Cloudy"
"2003-08-25 15:00","2003","08","25","15:00","29.9","","22.7","","65","","23","","13","","11.3","","99.26","","40","","","","Cloudy"
"2003-08-25 16:00","2003","08","25","16:00","28.9","","22.8","","70","","21","","15","","12.9","","99.20","","39","","","","Cloudy"
"2003-08-25 17:00","2003","08","25","17:00","29.3","","23.3","","70","","21","","17","","16.1","","99.19","","40","","","","Mostly Cloudy"
"2003-08-25 18:00","2003","08","25","18:00","29.1","","23.4","","71","","23","","15","","19.3","","99.22","","40","","","","Mostly Cloudy"
"2003-08-25 19:00","2003","08","25","19:00","27.9","","23.5","","77","","24","","7","","12.9","","99.23","","39","","","","Mostly Cloudy"
"2003-08-25 20:00","2003","08","25","20:00","26.8","","23.4","","82","","18","","7","","9.7","","99.21","","37","","","","Haze"
"2003-08-25 21:00","2003","08","25","21:00","25.5","","23.3","","88","","22","","6","","9.7","","99.27","","36","","","","Haze"
"2003-08-25 22:00","2003","08","25","22:00","24.8","","23.2","","91","","22","","6","","9.7","","99.30","","35","","","","Fog"
"2003-08-25 23:00","2003","08","25","23:00","24.6","","23.6","","94","","23","","4","","9.7","","99.29","","35","","","","Fog"
"2003-08-26 00:00","2003","08","26","00:00","25.1","","23.6","","91","","33","","9","","9.7","","99.21","","36","","","","Thunderstorms,Rain Showers,Fog"
"2003-08-26 01:00","2003","08","26","01:00","23.2","","22.3","","95","","19","","7","","9.7","","99.19","","33","","","","Rain Showers,Fog"
"2003-08-26 02:00","2003","08","26","02:00","22.2","","20.7","","91","","23","","13","","19.3","","99.16","","30","","","","Cloudy"
"2003-08-26 03:00","2003","08","26","03:00","22.4","","20.8","","91","","26","","11","","19.3","","99.10","","31","","","","Mostly Cloudy"
"2003-08-26 04:00","2003","08","26","04:00","21.9","","20.9","","94","","24","","9","","16.1","","99.06","","30","","","","Mostly Cloudy"
"2003-08-26 05:00","2003","08","26","05:00","21.1","","19.8","","92","","25","","13","","16.1","","99.01","","29","","","","Mostly Cloudy"
"2003-08-26 06:00","2003","08","26","06:00","21.2","","19.6","","91","","24","","11","","9.7","","99.02","","28","","","","Fog"
"2003-08-26 07:00","2003","08","26","07:00","21.2","","20.1","","93","","29","","13","","4.8","","99.11","","29","","","","Thunderstorms,Rain Showers,Fog"
"2003-08-26 08:00","2003","08","26","08:00","21.3","","20.3","","94","","36","","7","","8.0","","99.17","","29","","","","Thunderstorms,Heavy Rain Showers,Fog"
"2003-08-26 09:00","2003","08","26","09:00","20.9","","20.7","","99","","18","","7","","11.3","","99.12","","29","","","","Rain Showers"
"2003-08-26 10:00","2003","08","26","10:00","21.7","","21.5","","99","","21","","13","","8.0","","99.07","","31","","","","Fog"
"2003-08-26 11:00","2003","08","26","11:00","24.4","","22.1","","87","","21","","24","","11.3","","99.03","","34","","","","Mostly Cloudy"
"2003-08-26 12:00","2003","08","26","12:00","26.0","","22.1","","79","","22","","24","","12.9","","99.01","","35","","","","Mostly Cloudy"
"2003-08-26 13:00","2003","08","26","13:00","27.0","","22.6","","77","","24","","30","","12.9","","98.93","","37","","","","Mostly Cloudy"
"2003-08-26 14:00","2003","08","26","14:00","29.2","","21.9","","65","","27","","26","","16.1","","98.83","","38","","","","Mostly Cloudy"
"2003-08-26 15:00","2003","08","26","15:00","29.6","","22.3","","65","","25","","22","","12.9","","98.76","","39","","","","Mostly Cloudy"
"2003-08-26 16:00","2003","08","26","16:00","29.8","","22.2","","64","","26","","20","","11.3","","98.72","","39","","","","Mostly Cloudy"
"2003-08-26 17:00","2003","08","26","17:00","28.9","","22.5","","68","","24","","26","","11.3","","98.74","","39","","","","Mostly Cloudy"
"2003-08-26 18:00","2003","08","26","18:00","28.1","","22.0","","70","","26","","32","","11.3","","98.78","","37","","","","Cloudy"
"2003-08-26 19:00","2003","08","26","19:00","27.3","","22.2","","74","","27","","20","","9.7","","98.72","","37","","","","Haze"
"2003-08-26 20:00","2003","08","26","20:00","26.7","","22.4","","77","","26","","15","","12.9","","98.80","","36","","","","Mainly Clear"
"2003-08-26 21:00","2003","08","26","21:00","25.2","","22.6","","86","","25","","17","","11.3","","98.90","","35","","","","Mostly Cloudy"
"2003-08-26 22:00","2003","08","26","22:00","24.0","","22.4","","91","","24","","13","","8.0","","98.94","","34","","","","Fog"
"2003-08-26 23:00","2003","08","26","23:00","23.1","","21.5","","91","","26","","11","","9.7","","98.97","","32","","","","Fog"
"2003-08-27 00:00","2003","08","27","00:00","22.6","","20.8","","90","","26","","11","","11.3","","98.98","","31","","","","Mainly Clear"
"2003-08-27 01:00","2003","08","27","01:00","22.0","","20.6","","92","","26","","9","","9.7","","98.97","","30","","","","Fog"
"2003-08-27 02:00","2003","08","27","02:00","21.7","","20.5","","93","","29","","6","","8.0","","98.94","","30","","","","Fog"
"2003-08-27 03:00","2003","08","27","03:00","21.6","","20.5","","93","","23","","7","","9.7","","98.99","","30","","","","Fog"
"2003-08-27 04:00","2003","08","27","04:00","21.6","","20.9","","96","","23","","6","","8.0","","98.99","","30","","","","Rain Showers,Fog"
"2003-08-27 05:00","2003","08","27","05:00","21.3","","21.0","","98","","23","","20","","8.0","","99.09","","30","","","","Fog"
"2003-08-27 06:00","2003","08","27","06:00","20.8","","20.6","","99","","1","","6","","8.0","","98.99","","29","","","","Fog"
"2003-08-27 07:00","2003","08","27","07:00","21.6","","21.2","","98","","24","","7","","4.8","","99.05","","30","","","","Fog"
"2003-08-27 08:00","2003","08","27","08:00","22.9","","21.6","","92","","26","","7","","6.4","","99.08","","32","","","","Fog"
"2003-08-27 09:00","2003","08","27","09:00","25.1","","21.0","","78","","29","","11","","9.7","","99.13","","34","","","","Haze"
"2003-08-27 10:00","2003","08","27","10:00","26.9","","19.9","","66","","32","","11","","12.9","","99.20","","34","","","","Clear"
"2003-08-27 11:00","2003","08","27","11:00","27.5","","19.0","","60","","35","","11","","16.1","","99.24","","34","","","","Mainly Clear"
"2003-08-27 12:00","2003","08","27","12:00","27.9","","18.5","","57","","5","","19","","19.3","","99.22","","34","","","","Mainly Clear"
"2003-08-27 13:00","2003","08","27","13:00","27.4","","18.9","","60","","6","","22","","24.1","","99.23","","34","","","","Mostly Cloudy"
"2003-08-27 14:00","2003","08","27","14:00","26.7","","17.5","","57","","6","","22","","24.1","","99.26","","32","","","","Mostly Cloudy"
"2003-08-27 15:00","2003","08","27","15:00","26.5","","17.3","","57","","7","","19","","19.3","","99.25","","32","","","","Mostly Cloudy"
"2003-08-27 16:00","2003","08","27","16:00","26.1","","16.2","","54","","8","","17","","19.3","","99.22","","31","","","","Mostly Cloudy"
"2003-08-27 17:00","2003","08","27","17:00","24.8","","15.5","","56","","5","","22","","19.3","","99.28","","29","","","","Mostly Cloudy"
"2003-08-27 18:00","2003","08","27","18:00","23.0","","14.6","","59","","6","","20","","19.3","","99.40","","27","","","","Mostly Cloudy"
"2003-08-27 19:00","2003","08","27","19:00","21.3","","15.0","","67","","7","","20","","19.3","","99.43","","25","","","","Mostly Cloudy"
"2003-08-27 20:00","2003","08","27","20:00","19.5","","13.2","","67","","7","","15","","24.1","","99.54","","","","","","Mainly Clear"
"2003-08-27 21:00","2003","08","27","21:00","18.3","","13.0","","71","","7","","15","","24.1","","99.61","","","","","","Mostly Cloudy"
"2003-08-27 22:00","2003","08","27","22:00","17.6","","12.9","","74","","7","","11","","24.1","","99.63","","","","","","Mainly Clear"
"2003-08-27 23:00","2003","08","27","23:00","16.7","","13.0","","79","","16","","7","","24.1","","99.66","","","","","","Mainly Clear"
"2003-08-28 00:00","2003","08","28","00:00","16.1","","12.4","","79","","6","","13","","24.1","","99.65","","","","","","Mainly Clear"
"2003-08-28 01:00","2003","08","28","01:00","15.3","","12.2","","82","","12","","7","","24.1","","99.68","","","","","","Mainly Clear"
"2003-08-28 02:00","2003","08","28","02:00","14.2","","10.0","","76","","15","","9","","24.1","","99.72","","","","","","Mainly Clear"
"2003-08-28 03:00","2003","08","28","03:00","14.4","","8.5","","68","","10","","7","","24.1","","99.77","","","","","","Mainly Clear"
"2003-08-28 04:00","2003","08","28","04:00","14.3","","8.4","","68","","13","","6","","24.1","","99.79","","","","","","Mainly Clear"
"2003-08-28 05:00","2003","08","28","05:00","14.2","","8.6","","69","","13","","7","","24.1","","99.82","","","","","","Mainly Clear"
"2003-08-28 06:00","2003","08","28","06:00","12.8","","9.4","","80","","8","","7","","24.1","","99.85","","","","","","Mostly Cloudy"
"2003-08-28 07:00","2003","08","28","07:00","14.8","","11.3","","80","","7","","4","","24.1","","99.87","","","","","","Mostly Cloudy"
"2003-08-28 08:00","2003","08","28","08:00","18.0","","12.4","","70","","9","","9","","24.1","","99.89","","","","","","Mostly Cloudy"
"2003-08-28 09:00","2003","08","28","09:00","20.6","","8.8","","47","","10","","13","","24.1","","99.89","","","","","","Mostly Cloudy"
"2003-08-28 10:00","2003","08","28","10:00","21.8","","9.2","","45","","12","","11","","24.1","","99.89","","","","","","Mostly Cloudy"
"2003-08-28 11:00","2003","08","28","11:00","23.4","","13.6","","54","","14","","9","","24.1","","99.81","","27","","","","Mostly Cloudy"
"2003-08-28 12:00","2003","08","28","12:00","24.9","","15.3","","55","","14","","11","","24.1","","99.77","","29","","","","Mostly Cloudy"
"2003-08-28 13:00","2003","08","28","13:00","25.1","","14.5","","52","","14","","15","","24.1","","99.67","","29","","","","Mostly Cloudy"
"2003-08-28 14:00","2003","08","28","14:00","25.8","","15.0","","51","","19","","19","","24.1","","99.57","","30","","","","Mostly Cloudy"
"2003-08-28 15:00","2003","08","28","15:00","26.0","","15.9","","54","","15","","13","","24.1","","99.51","","31","","","","Mainly Clear"
"2003-08-28 16:00","2003","08","28","16:00","25.9","","15.8","","54","","18","","11","","24.1","","99.46","","30","","","","Mostly Cloudy"
"2003-08-28 17:00","2003","08","28","17:00","25.4","","15.6","","55","","16","","13","","19.3","","99.38","","30","","","","Mostly Cloudy"
"2003-08-28 18:00","2003","08","28","18:00","24.8","","15.9","","58","","14","","15","","19.3","","99.35","","29","","","","Mostly Cloudy"
"2003-08-28 19:00","2003","08","28","19:00","22.8","","15.9","","65","","14","","11","","19.3","","99.33","","27","","","","Mainly Clear"
"2003-08-28 20:00","2003","08","28","20:00","20.8","","16.6","","77","","15","","9","","24.1","","99.26","","26","","","","Mainly Clear"
"2003-08-28 21:00","2003","08","28","21:00","20.1","","17.6","","86","","14","","9","","24.1","","99.27","","26","","","","Mainly Clear"
"2003-08-28 22:00","2003","08","28","22:00","20.4","","19.0","","92","","17","","11","","24.1","","99.22","","27","","","","Clear"
"2003-08-28 23:00","2003","08","28","23:00","22.5","","20.7","","90","","18","","7","","24.1","","99.20","","31","","","","Clear"
"2003-08-29 00:00","2003","08","29","00:00","23.8","","21.8","","89","","20","","15","","16.1","","99.14","","33","","","","Mainly Clear"
"2003-08-29 01:00","2003","08","29","01:00","24.0","","22.5","","91","","20","","17","","8.0","","99.09","","34","","","","Fog"
"2003-08-29 02:00","2003","08","29","02:00","24.4","","22.6","","90","","21","","20","","8.0","","99.06","","34","","","","Fog"
"2003-08-29 03:00","2003","08","29","03:00","24.0","","22.8","","93","","22","","17","","6.4","","99.07","","34","","","","Fog"
"2003-08-29 04:00","2003","08","29","04:00","23.8","","22.6","","93","","21","","15","","6.4","","99.05","","34","","","","Fog"
"2003-08-29 05:00","2003","08","29","05:00","23.8","","22.5","","92","","22","","19","","8.0","","99.00","","34","","","","Fog"
"2003-08-29 06:00","2003","08","29","06:00","24.7","","22.4","","87","","23","","20","","8.0","","99.01","","34","","","","Haze"
"2003-08-29 07:00","2003","08","29","07:00","24.8","","22.3","","86","","25","","24","","6.4","","99.08","","34","","","","Haze"
"2003-08-29 08:00","2003","08","29","08:00","24.9","","22.7","","88","","24","","19","","9.7","","99.04","","35","","","","Haze"
"2003-08-29 09:00","2003","08","29","09:00","25.9","","22.7","","83","","26","","20","","9.7","","99.08","","36","","","","Haze"
"2003-08-29 10:00","2003","08","29","10:00","26.3","","22.2","","78","","26","","20","","9.7","","99.12","","36","","","","Haze"
"2003-08-29 11:00","2003","08","29","11:00","25.5","","22.2","","82","","25","","26","","12.9","","99.18","","35","","","","Cloudy"
"2003-08-29 12:00","2003","08","29","12:00","24.4","","22.8","","91","","27","","20","","6.4","","99.23","","34","","","","Rain Showers,Fog"
"2003-08-29 13:00","2003","08","29","13:00","24.0","","23.2","","95","","26","","15","","4.8","","99.20","","34","","","","Rain Showers,Fog"
"2003-08-29 14:00","2003","08","29","14:00","24.2","","23.4","","95","","26","","20","","8.0","","99.17","","35","","","","Rain Showers,Fog"
"2003-08-29 15:00","2003","08","29","15:00","25.5","","23.2","","87","","26","","17","","11.3","","99.16","","36","","","","Mostly Cloudy"
"2003-08-29 16:00","2003","08","29","16:00","25.5","","22.9","","86","","25","","15","","11.3","","99.17","","36","","","","Cloudy"
"2003-08-29 17:00","2003","08","29","17:00","25.4","","23.2","","88","","24","","15","","11.3","","99.21","","36","","","","Cloudy"
"2003-08-29 18:00","2003","08","29","18:00","25.4","","23.2","","88","","25","","11","","16.1","","99.27","","36","","","","Cloudy"
"2003-08-29 19:00","2003","08","29","19:00","25.0","","23.1","","89","","27","","9","","16.1","","99.30","","35","","","","Cloudy"
"2003-08-29 20:00","2003","08","29","20:00","24.7","","21.0","","80","","28","","11","","19.3","","99.39","","33","","","","Cloudy"
"2003-08-29 21:00","2003","08","29","21:00","24.7","","19.5","","73","","33","","17","","19.3","","99.45","","32","","","","Cloudy"
"2003-08-29 22:00","2003","08","29","22:00","20.3","","18.0","","87","","5","","24","","24.1","","99.58","","26","","","","Mostly Cloudy"
"2003-08-29 23:00","2003","08","29","23:00","19.8","","17.3","","86","","4","","20","","24.1","","99.66","","","","","","Mostly Cloudy"
"2003-08-30 00:00","2003","08","30","00:00","19.4","","16.1","","81","","4","","22","","24.1","","99.69","","","","","","Mostly Cloudy"
"2003-08-30 01:00","2003","08","30","01:00","18.8","","14.8","","78","","2","","15","","24.1","","99.75","","","","","","Mostly Cloudy"
"2003-08-30 02:00","2003","08","30","02:00","18.4","","14.1","","76","","2","","19","","24.1","","99.76","","","","","","Mostly Cloudy"
"2003-08-30 03:00","2003","08","30","03:00","17.2","","12.3","","73","","36","","13","","24.1","","99.81","","","","","","Mostly Cloudy"
"2003-08-30 04:00","2003","08","30","04:00","16.3","","12.2","","77","","1","","19","","24.1","","99.86","","","","","","Mostly Cloudy"
"2003-08-30 05:00","2003","08","30","05:00","15.6","","11.5","","77","","36","","13","","24.1","","99.93","","","","","","Mostly Cloudy"
"2003-08-30 06:00","2003","08","30","06:00","15.0","","10.9","","76","","36","","13","","24.1","","99.98","","","","","","Mostly Cloudy"
"2003-08-30 07:00","2003","08","30","07:00","15.2","","10.4","","73","","36","","15","","24.1","","100.04","","","","","","Mostly Cloudy"
"2003-08-30 08:00","2003","08","30","08:00","16.2","","10.8","","70","","2","","15","","24.1","","100.08","","","","","","Mostly Cloudy"
"2003-08-30 09:00","2003","08","30","09:00","17.0","","11.4","","70","","1","","15","","24.1","","100.13","","","","","","Mostly Cloudy"
"2003-08-30 10:00","2003","08","30","10:00","17.9","","11.5","","66","","4","","15","","24.1","","100.18","","","","","","Mostly Cloudy"
"2003-08-30 11:00","2003","08","30","11:00","19.2","","11.7","","62","","4","","13","","24.1","","100.24","","","","","","Mostly Cloudy"
"2003-08-30 12:00","2003","08","30","12:00","20.3","","12.0","","59","","4","","13","","24.1","","100.25","","","","","","Mostly Cloudy"
"2003-08-30 13:00","2003","08","30","13:00","20.9","","11.5","","55","","10","","4","","24.1","","100.23","","","","","","Mostly Cloudy"
"2003-08-30 14:00","2003","08","30","14:00","20.8","","11.3","","55","","7","","13","","24.1","","100.22","","","","","","Mostly Cloudy"
"2003-08-30 15:00","2003","08","30","15:00","21.1","","10.4","","50","","7","","13","","24.1","","100.22","","","","","","Mostly Cloudy"
"2003-08-30 16:00","2003","08","30","16:00","20.9","","11.4","","55","","8","","13","","24.1","","100.19","","","","","","Mostly Cloudy"
"2003-08-30 17:00","2003","08","30","17:00","21.3","","11.2","","53","","9","","11","","24.1","","100.17","","","","","","Mostly Cloudy"
"2003-08-30 18:00","2003","08","30","18:00","20.4","","11.3","","56","","9","","11","","24.1","","100.16","","","","","","Mostly Cloudy"
"2003-08-30 19:00","2003","08","30","19:00","19.4","","10.9","","58","","11","","6","","24.1","","100.18","","","","","","Mostly Cloudy"
"2003-08-30 20:00","2003","08","30","20:00","17.8","","10.6","","63","","11","","9","","24.1","","100.26","","","","","","Mostly Cloudy"
"2003-08-30 21:00","2003","08","30","21:00","16.6","","9.4","","62","","8","","9","","24.1","","100.29","","","","","","Mostly Cloudy"
"2003-08-30 22:00","2003","08","30","22:00","15.7","","9.2","","65","","13","","4","","24.1","","100.35","","","","","","Mostly Cloudy"
"2003-08-30 23:00","2003","08","30","23:00","15.1","","9.0","","67","","6","","4","","24.1","","100.34","","","","","","Mainly Clear"
"2003-08-31 00:00","2003","08","31","00:00","15.1","","8.5","","65","","","","0","","24.1","","100.38","","","","","","Mainly Clear"
"2003-08-31 01:00","2003","08","31","01:00","14.9","","7.9","","63","","","","0","","24.1","","100.37","","","","","","Mostly Cloudy"
"2003-08-31 02:00","2003","08","31","02:00","14.9","","8.9","","67","","","","0","","24.1","","100.38","","","","","","Mostly Cloudy"
"2003-08-31 03:00","2003","08","31","03:00","14.8","","9.6","","71","","36","","4","","24.1","","100.38","","","","","","Mostly Cloudy"
"2003-08-31 04:00","2003","08","31","04:00","15.0","","10.1","","72","","3","","4","","24.1","","100.36","","","","","","Mostly Cloudy"
"2003-08-31 05:00","2003","08","31","05:00","14.7","","10.9","","78","","4","","6","","24.1","","100.34","","","","","","Mostly Cloudy"
"2003-08-31 06:00","2003","08","31","06:00","14.5","","11.7","","83","","","","0","","24.1","","100.36","","","","","","Mostly Cloudy"
"2003-08-31 07:00","2003","08","31","07:00","15.3","","10.7","","74","","","","0","","24.1","","100.38","","","","","","Mostly Cloudy"
"2003-08-31 08:00","2003","08","31","08:00","16.7","","12.5","","76","","9","","6","","24.1","","100.39","","","","","","Mostly Cloudy"
"2003-08-31 09:00","2003","08","31","09:00","18.8","","13.4","","71","","9","","6","","24.1","","100.40","","","","","","Mostly Cloudy"
"2003-08-31 10:00","2003","08","31","10:00","21.4","","9.2","","46","","7","","9","","24.1","","100.37","","","","","","Mostly Cloudy"
"2003-08-31 11:00","2003","08","31","11:00","23.0","","11.5","","48","","13","","19","","24.1","","100.35","","25","","","","Mostly Cloudy"
"2003-08-31 12:00","2003","08","31","12:00","22.6","","13.5","","56","","11","","6","","24.1","","100.28","","26","","","","Mostly Cloudy"
"2003-08-31 13:00","2003","08","31","13:00","22.9","","14.3","","58","","16","","15","","24.1","","100.25","","26","","","","Mostly Cloudy"
"2003-08-31 14:00","2003","08","31","14:00","23.0","","14.1","","57","","17","","9","","24.1","","100.22","","26","","","","Mostly Cloudy"
"2003-08-31 15:00","2003","08","31","15:00","21.3","","12.6","","58","","18","","15","","24.1","","100.17","","","","","","Cloudy"
"2003-08-31 16:00","2003","08","31","16:00","20.9","","12.8","","60","","18","","11","","24.1","","100.12","","","","","","Cloudy"
"2003-08-31 17:00","2003","08","31","17:00","20.3","","13.2","","64","","15","","11","","24.1","","100.10","","","","","","Rain Showers"
"2003-08-31 18:00","2003","08","31","18:00","19.6","","14.2","","71","","10","","6","","24.1","","100.07","","","","","","Rain Showers"
"2003-08-31 19:00","2003","08","31","19:00","18.9","","15.0","","78","","","","0","","24.1","","100.09","","","","","","Rain Showers"
"2003-08-31 20:00","2003","08","31","20:00","17.6","","15.2","","86","","10","","4","","24.1","","100.07","","","","","","Rain Showers"
"2003-08-31 21:00","2003","08","31","21:00","17.5","","15.3","","87","","11","","6","","24.1","","100.11","","","","","","Rain"
"2003-08-31 22:00","2003","08","31","22:00","16.7","","15.0","","90","","16","","4","","24.1","","100.09","","","","","","Rain"
"2003-08-31 23:00","2003","08","31","23:00","16.1","","13.1","","82","","","","0","","24.1","","100.08","","","","","","Rain"
