"Station Name","WINDSOR A"
"Province","ONTARIO"
"Latitude","42.28"
"Longitude","-82.96"
"Elevation","189.60"
"Climate Identifier","6139525"
"WMO Identifier","71538"
"TC Identifier","YQG"
"All times are specified in Local Standard Time (LST). Add 1 hour to adjust for Daylight Saving Time where and when it is observed."

"Legend"
"E","Estimated"
"M","Missing"
"NA","Not Available"

"Date/Time","Year","Month","Day","Time","Temp (°C)","Temp Flag","Dew Point Temp (°C)","Dew Point Temp Flag","Rel Hum (%)","Rel Hum Flag","Wind Dir (10s deg)","Wind Dir Flag","Wind Spd (km/h)","Wind Spd Flag","Visibility (km)","Visibility Flag","Stn Press (kPa)","Stn Press Flag","Hmdx","Hmdx Flag","Wind Chill","Wind Chill Flag","Weather"
"2003-06-01 00:00","2003","06","01","00:00","6.9","","0.2","","62","","35","","17","","25.0","","99.07","","","","","","Clear"
"2003-06-01 01:00","2003","06","01","01:00","6.8","","0.6","","65","","34","","19","","25.0","","99.07","","","","","","Clear"
"2003-06-01 02:00","2003","06","01","02:00","7.2","","1.3","","66","","36","","17","","25.0","","99.08","","","","","","Clear"
"2003-06-01 03:00","2003","06","01","03:00","6.9","","1.9","","70","","34","","17","","25.0","","99.10","","","","","","Clear"
"2003-06-01 04:00","2003","06","01","04:00","6.5","","2.0","","73","","35","","13","","25.0","","99.11","","","","","","Clear"
"2003-06-01 05:00","2003","06","01","05:00","5.8","","2.1","","77","","34","","15","","24.1","","99.17","","","","","","Mainly Clear"
"2003-06-01 06:00","2003","06","01","06:00","6.5","","2.3","","74","","34","","17","","24.1","","99.26","","","","","","Clear"
"2003-06-01 07:00","2003","06","01","07:00","7.7","","2.5","","70","","34","","17","","24.1","","99.30","","","","","","Clear"
"2003-06-01 08:00","2003","06","01","08:00","9.1","","1.9","","61","","36","","19","","24.1","","99.34","","","","","","Clear"
"2003-06-01 09:00","2003","06","01","09:00","11.0","","1.9","","53","","36","","20","","24.1","","99.32","","","","","","Clear"
"2003-06-01 10:00","2003","06","01","10:00","12.3","","3.2","","54","","1","","22","","24.1","","99.35","","","","","","Clear"
"2003-06-01 11:00","2003","06","01","11:00","13.5","","1.3","","43","","2","","28","","24.1","","99.37","","","","","","Clear"
"2003-06-01 12:00","2003","06","01","12:00","15.0","","2.2","","42","","2","","13","","24.1","","99.39","","","","","","Clear"
"2003-06-01 13:00","2003","06","01","13:00","15.8","","3.5","","44","","7","","15","","24.1","","99.38","","","","","","Clear"
"2003-06-01 14:00","2003","06","01","14:00","16.1","","3.9","","44","","6","","24","","24.1","","99.36","","","","","","Clear"
"2003-06-01 15:00","2003","06","01","15:00","16.4","","3.0","","41","","6","","17","","24.1","","99.35","","","","","","Clear"
"2003-06-01 16:00","2003","06","01","16:00","16.6","","2.8","","40","","6","","20","","24.1","","99.34","","","","","","Mostly Cloudy"
"2003-06-01 17:00","2003","06","01","17:00","16.6","","2.7","","39","","5","","17","","24.1","","99.36","","","","","","Mainly Clear"
"2003-06-01 18:00","2003","06","01","18:00","16.3","","2.9","","41","","6","","15","","24.1","","99.38","","","","","","Mainly Clear"
"2003-06-01 19:00","2003","06","01","19:00","15.2","","5.2","","51","","6","","13","","24.1","","99.40","","","","","","Mainly Clear"
"2003-06-01 20:00","2003","06","01","20:00","14.0","","5.4","","56","","8","","6","","24.1","","99.40","","","","","","Mainly Clear"
"2003-06-01 21:00","2003","06","01","21:00","12.5","","5.7","","63","","23","","9","","24.1","","99.42","","","","","","Clear"
"2003-06-01 22:00","2003","06","01","22:00","12.2","","4.9","","61","","22","","11","","24.1","","99.43","","","","","","Clear"
"2003-06-01 23:00","2003","06","01","23:00","11.5","","6.0","","69","","24","","9","","24.1","","99.42","","","","","","Clear"
"2003-06-02 00:00","2003","06","02","00:00","11.3","","7.3","","76","","27","","9","","24.1","","99.41","","","","","","Clear"
"2003-06-02 01:00","2003","06","02","01:00","11.0","","6.5","","74","","27","","9","","24.1","","99.41","","","","","","Clear"
"2003-06-02 02:00","2003","06","02","02:00","10.8","","5.9","","72","","26","","13","","24.1","","99.42","","","","","","Mainly Clear"
"2003-06-02 03:00","2003","06","02","03:00","10.4","","5.4","","71","","27","","11","","24.1","","99.40","","","","","","Mainly Clear"
"2003-06-02 04:00","2003","06","02","04:00","10.1","","4.8","","70","","26","","7","","24.1","","99.43","","","","","","Mainly Clear"
"2003-06-02 05:00","2003","06","02","05:00","8.7","","4.9","","77","","26","","6","","19.3","","99.45","","","","","","Mainly Clear"
"2003-06-02 06:00","2003","06","02","06:00","9.0","","5.2","","77","","24","","9","","16.1","","99.49","","","","","","Clear"
"2003-06-02 07:00","2003","06","02","07:00","10.6","","4.6","","66","","29","","7","","24.1","","99.51","","","","","","Clear"
"2003-06-02 08:00","2003","06","02","08:00","12.8","","4.5","","57","","27","","6","","24.1","","99.58","","","","","","Clear"
"2003-06-02 09:00","2003","06","02","09:00","15.8","","4.9","","48","","","","0","","24.1","","99.61","","","","","","Mainly Clear"
"2003-06-02 10:00","2003","06","02","10:00","17.8","","5.6","","45","","7","","6","","24.1","","99.54","","","","","","Mostly Cloudy"
"2003-06-02 11:00","2003","06","02","11:00","18.5","","4.1","","38","","","","0","","24.1","","99.55","","","","","","Mostly Cloudy"
"2003-06-02 12:00","2003","06","02","12:00","19.3","","2.1","","32","","19","","6","","24.1","","99.50","","","","","","Mostly Cloudy"
"2003-06-02 13:00","2003","06","02","13:00","20.7","","4.3","","34","","17","","7","","24.1","","99.44","","","","","","Mostly Cloudy"
"2003-06-02 14:00","2003","06","02","14:00","19.8","","5.1","","38","","19","","13","","24.1","","99.42","","","","","","Mostly Cloudy"
"2003-06-02 15:00","2003","06","02","15:00","19.6","","5.7","","40","","18","","15","","24.1","","99.35","","","","","","Mostly Cloudy"
"2003-06-02 16:00","2003","06","02","16:00","20.4","","6.6","","41","","19","","17","","24.1","","99.31","","","","","","Mostly Cloudy"
"2003-06-02 17:00","2003","06","02","17:00","19.8","","5.6","","39","","15","","15","","24.1","","99.29","","","","","","Cloudy"
"2003-06-02 18:00","2003","06","02","18:00","18.7","","5.7","","42","","18","","15","","24.1","","99.29","","","","","","Cloudy"
"2003-06-02 19:00","2003","06","02","19:00","17.6","","5.3","","44","","17","","15","","16.1","","99.28","","","","","","Cloudy"
"2003-06-02 20:00","2003","06","02","20:00","16.1","","7.7","","57","","16","","11","","24.1","","99.27","","","","","","Cloudy"
"2003-06-02 21:00","2003","06","02","21:00","15.4","","6.9","","57","","18","","9","","24.1","","99.30","","","","","","Cloudy"
"2003-06-02 22:00","2003","06","02","22:00","15.1","","6.3","","56","","13","","4","","24.1","","99.29","","","","","","Cloudy"
"2003-06-02 23:00","2003","06","02","23:00","14.3","","7.3","","63","","","","0","","24.1","","99.24","","","","","","Cloudy"
"2003-06-03 00:00","2003","06","03","00:00","14.2","","7.6","","64","","10","","4","","24.1","","99.22","","","","","","Cloudy"
"2003-06-03 01:00","2003","06","03","01:00","13.9","","7.3","","64","","","","0","","24.1","","99.22","","","","","","Cloudy"
"2003-06-03 02:00","2003","06","03","02:00","13.8","","7.2","","64","","12","","6","","24.1","","99.18","","","","","","Cloudy"
"2003-06-03 03:00","2003","06","03","03:00","13.1","","8.2","","72","","6","","7","","24.1","","99.18","","","","","","Cloudy"
"2003-06-03 04:00","2003","06","03","04:00","13.1","","7.5","","69","","9","","7","","24.1","","99.13","","","","","","Cloudy"
"2003-06-03 05:00","2003","06","03","05:00","13.5","","6.0","","60","","11","","7","","24.1","","99.12","","","","","","Mostly Cloudy"
"2003-06-03 06:00","2003","06","03","06:00","13.3","","7.0","","66","","9","","7","","24.1","","99.23","","","","","","Cloudy"
"2003-06-03 07:00","2003","06","03","07:00","12.8","","7.1","","68","","8","","13","","24.1","","99.17","","","","","","Cloudy"
"2003-06-03 08:00","2003","06","03","08:00","13.1","","7.9","","71","","8","","15","","24.1","","99.10","","","","","","Cloudy"
"2003-06-03 09:00","2003","06","03","09:00","14.3","","7.7","","64","","9","","19","","24.1","","99.05","","","","","","Cloudy"
"2003-06-03 10:00","2003","06","03","10:00","15.0","","7.7","","62","","9","","20","","24.1","","99.01","","","","","","Cloudy"
"2003-06-03 11:00","2003","06","03","11:00","15.3","","6.6","","56","","10","","19","","24.1","","99.01","","","","","","Cloudy"
"2003-06-03 12:00","2003","06","03","12:00","15.1","","7.1","","59","","11","","19","","24.1","","99.01","","","","","","Cloudy"
"2003-06-03 13:00","2003","06","03","13:00","15.1","","6.8","","58","","7","","20","","24.1","","98.98","","","","","","Cloudy"
"2003-06-03 14:00","2003","06","03","14:00","14.9","","6.2","","56","","8","","22","","24.1","","98.92","","","","","","Cloudy"
"2003-06-03 15:00","2003","06","03","15:00","15.6","","6.1","","53","","7","","19","","24.1","","98.89","","","","","","Cloudy"
"2003-06-03 16:00","2003","06","03","16:00","15.7","","7.4","","58","","5","","19","","24.1","","98.85","","","","","","Cloudy"
"2003-06-03 17:00","2003","06","03","17:00","15.6","","6.9","","56","","6","","22","","24.1","","98.84","","","","","","Cloudy"
"2003-06-03 18:00","2003","06","03","18:00","15.7","","6.9","","56","","6","","22","","24.1","","98.80","","","","","","Cloudy"
"2003-06-03 19:00","2003","06","03","19:00","15.5","","6.7","","56","","4","","19","","24.1","","98.79","","","","","","Cloudy"
"2003-06-03 20:00","2003","06","03","20:00","14.6","","6.4","","58","","4","","22","","24.1","","98.80","","","","","","Cloudy"
"2003-06-03 21:00","2003","06","03","21:00","14.3","","6.0","","57","","4","","24","","24.1","","98.83","","","","","","Cloudy"
"2003-06-03 22:00","2003","06","03","22:00","14.2","","6.1","","58","","4","","22","","25.0","","98.82","","","","","","Cloudy"
"2003-06-03 23:00","2003","06","03","23:00","13.9","","6.0","","59","","5","","22","","24.1","","98.83","","","","","","Cloudy"
"2003-06-04 00:00","2003","06","04","00:00","13.6","","5.9","","60","","4","","22","","24.1","","98.77","","","","","","Mostly Cloudy"
"2003-06-04 01:00","2003","06","04","01:00","13.5","","5.2","","57","","5","","20","","24.1","","98.71","","","","","","Mostly Cloudy"
"2003-06-04 02:00","2003","06","04","02:00","13.5","","5.1","","57","","5","","24","","24.1","","98.63","","","","","","Cloudy"
"2003-06-04 03:00","2003","06","04","03:00","13.4","","6.6","","63","","5","","20","","24.1","","98.64","","","","","","Cloudy"
"2003-06-04 04:00","2003","06","04","04:00","13.2","","7.1","","66","","6","","20","","24.1","","98.64","","","","","","Cloudy"
"2003-06-04 05:00","2003","06","04","05:00","13.0","","7.1","","67","","5","","22","","24.1","","98.62","","","","","","Cloudy"
"2003-06-04 06:00","2003","06","04","06:00","12.6","","8.0","","74","","5","","24","","19.3","","98.58","","","","","","Cloudy"
"2003-06-04 07:00","2003","06","04","07:00","11.7","","9.3","","85","","6","","22","","8.0","","98.59","","","","","","Drizzle,Haze"
"2003-06-04 08:00","2003","06","04","08:00","11.1","","9.7","","91","","5","","20","","1.6","","98.56","","","","","","Rain,Fog"
"2003-06-04 09:00","2003","06","04","09:00","11.1","","9.9","","92","","4","","15","","1.2","","98.58","","","","","","Rain,Fog"
"2003-06-04 10:00","2003","06","04","10:00","11.5","","10.4","","93","","4","","15","","1.6","","98.56","","","","","","Rain,Fog"
"2003-06-04 11:00","2003","06","04","11:00","12.0","","10.9","","93","","5","","17","","1.6","","98.52","","","","","","Rain,Fog"
"2003-06-04 12:00","2003","06","04","12:00","12.7","","11.4","","92","","9","","15","","2.4","","98.52","","","","","","Rain,Fog"
"2003-06-04 13:00","2003","06","04","13:00","12.7","","11.5","","92","","13","","9","","2.4","","98.49","","","","","","Rain,Fog"
"2003-06-04 14:00","2003","06","04","14:00","12.9","","11.7","","92","","16","","6","","3.2","","98.47","","","","","","Drizzle,Fog"
"2003-06-04 15:00","2003","06","04","15:00","13.4","","11.7","","89","","22","","4","","4.8","","98.44","","","","","","Fog"
"2003-06-04 16:00","2003","06","04","16:00","13.6","","11.9","","89","","25","","11","","4.8","","98.47","","","","","","Fog"
"2003-06-04 17:00","2003","06","04","17:00","13.5","","11.8","","89","","24","","9","","4.0","","98.48","","","","","","Fog"
"2003-06-04 18:00","2003","06","04","18:00","13.3","","11.5","","89","","27","","11","","4.8","","98.51","","","","","","Fog"
"2003-06-04 19:00","2003","06","04","19:00","13.1","","11.2","","88","","25","","15","","6.4","","98.55","","","","","","Rain,Fog"
"2003-06-04 20:00","2003","06","04","20:00","12.8","","10.9","","88","","24","","15","","2.4","","98.56","","","","","","Rain,Fog"
"2003-06-04 21:00","2003","06","04","21:00","12.7","","10.6","","87","","25","","11","","4.0","","98.56","","","","","","Rain,Fog"
"2003-06-04 22:00","2003","06","04","22:00","12.5","","10.6","","88","","24","","15","","6.4","","98.58","","","","","","Fog"
"2003-06-04 23:00","2003","06","04","23:00","12.4","","10.4","","88","","25","","11","","6.4","","98.55","","","","","","Fog"
"2003-06-05 00:00","2003","06","05","00:00","12.3","","10.2","","87","","23","","11","","6.4","","98.54","","","","","","Haze"
"2003-06-05 01:00","2003","06","05","01:00","12.2","","10.2","","88","","23","","13","","6.4","","98.54","","","","","","Fog"
"2003-06-05 02:00","2003","06","05","02:00","12.2","","10.2","","88","","25","","15","","6.4","","98.56","","","","","","Fog"
"2003-06-05 03:00","2003","06","05","03:00","12.1","","9.9","","86","","24","","15","","8.0","","98.56","","","","","","Haze"
"2003-06-05 04:00","2003","06","05","04:00","11.9","","9.4","","85","","26","","20","","9.7","","98.59","","","","","","Haze"
"2003-06-05 05:00","2003","06","05","05:00","11.6","","9.1","","85","","27","","19","","9.7","","98.61","","","","","","Haze"
"2003-06-05 06:00","2003","06","05","06:00","11.6","","9.3","","86","","27","","13","","11.3","","98.65","","","","","","Cloudy"
"2003-06-05 07:00","2003","06","05","07:00","12.0","","9.4","","84","","27","","15","","12.9","","98.67","","","","","","Cloudy"
"2003-06-05 08:00","2003","06","05","08:00","12.3","","9.4","","82","","30","","17","","24.1","","98.68","","","","","","Cloudy"
"2003-06-05 09:00","2003","06","05","09:00","12.3","","9.5","","83","","31","","20","","24.1","","98.73","","","","","","Cloudy"
"2003-06-05 10:00","2003","06","05","10:00","12.0","","10.2","","89","","32","","19","","8.0","","98.80","","","","","","Drizzle,Fog"
"2003-06-05 11:00","2003","06","05","11:00","12.7","","9.6","","81","","32","","15","","12.9","","98.90","","","","","","Cloudy"
"2003-06-05 12:00","2003","06","05","12:00","13.2","","9.6","","79","","31","","17","","19.3","","98.95","","","","","","Cloudy"
"2003-06-05 13:00","2003","06","05","13:00","14.2","","9.6","","74","","35","","22","","24.1","","98.95","","","","","","Cloudy"
"2003-06-05 14:00","2003","06","05","14:00","14.6","","9.9","","73","","32","","19","","24.1","","99.00","","","","","","Cloudy"
"2003-06-05 15:00","2003","06","05","15:00","15.3","","9.7","","69","","31","","17","","12.9","","99.01","","","","","","Cloudy"
"2003-06-05 16:00","2003","06","05","16:00","15.7","","9.6","","67","","32","","17","","19.3","","99.04","","","","","","Cloudy"
"2003-06-05 17:00","2003","06","05","17:00","15.6","","9.4","","67","","33","","9","","19.3","","99.07","","","","","","Cloudy"
"2003-06-05 18:00","2003","06","05","18:00","16.4","","9.6","","64","","1","","13","","12.9","","99.06","","","","","","Mainly Clear"
"2003-06-05 19:00","2003","06","05","19:00","16.0","","9.9","","67","","4","","4","","11.3","","99.08","","","","","","Mostly Cloudy"
"2003-06-05 20:00","2003","06","05","20:00","14.3","","10.4","","77","","16","","9","","11.3","","99.09","","","","","","Mainly Clear"
"2003-06-05 21:00","2003","06","05","21:00","13.1","","10.0","","81","","20","","7","","16.1","","99.14","","","","","","Mainly Clear"
"2003-06-05 22:00","2003","06","05","22:00","11.7","","9.6","","87","","21","","7","","19.3","","99.15","","","","","","Mainly Clear"
"2003-06-05 23:00","2003","06","05","23:00","12.8","","10.3","","85","","","","0","","19.3","","99.18","","","","","","Mostly Cloudy"
"2003-06-06 00:00","2003","06","06","00:00","12.9","","10.4","","85","","23","","6","","16.1","","99.25","","","","","","Mostly Cloudy"
"2003-06-06 01:00","2003","06","06","01:00","11.9","","10.1","","89","","25","","6","","16.1","","99.25","","","","","","Mostly Cloudy"
"2003-06-06 02:00","2003","06","06","02:00","11.6","","10.1","","91","","23","","7","","9.7","","99.27","","","","","","Fog"
"2003-06-06 03:00","2003","06","06","03:00","11.1","","9.7","","91","","23","","11","","9.7","","99.27","","","","","","Fog"
"2003-06-06 04:00","2003","06","06","04:00","11.2","","9.4","","89","","","","0","","16.1","","99.26","","","","","","Mainly Clear"
"2003-06-06 05:00","2003","06","06","05:00","10.7","","8.9","","89","","22","","11","","16.1","","99.32","","","","","","Mainly Clear"
"2003-06-06 06:00","2003","06","06","06:00","11.6","","9.0","","84","","","","0","","24.1","","99.33","","","","","","Clear"
"2003-06-06 07:00","2003","06","06","07:00","14.0","","10.0","","77","","","","0","","19.3","","99.39","","","","","","Clear"
"2003-06-06 08:00","2003","06","06","08:00","16.0","","10.2","","68","","16","","4","","19.3","","99.40","","","","","","Mainly Clear"
"2003-06-06 09:00","2003","06","06","09:00","18.5","","10.4","","59","","22","","4","","19.3","","99.40","","","","","","Mainly Clear"
"2003-06-06 10:00","2003","06","06","10:00","20.4","","9.8","","51","","22","","9","","19.3","","99.39","","","","","","Mostly Cloudy"
"2003-06-06 11:00","2003","06","06","11:00","21.9","","9.7","","46","","22","","15","","24.1","","99.38","","","","","","Mainly Clear"
"2003-06-06 12:00","2003","06","06","12:00","22.2","","7.6","","39","","19","","11","","24.1","","99.32","","","","","","Mostly Cloudy"
"2003-06-06 13:00","2003","06","06","13:00","23.0","","6.0","","33","","22","","13","","24.1","","99.28","","","","","","Cloudy"
"2003-06-06 14:00","2003","06","06","14:00","23.0","","7.2","","36","","18","","15","","24.1","","99.22","","","","","","Cloudy"
"2003-06-06 15:00","2003","06","06","15:00","22.9","","7.0","","36","","19","","13","","16.1","","99.17","","","","","","Cloudy"
"2003-06-06 16:00","2003","06","06","16:00","22.3","","8.4","","41","","16","","9","","24.1","","99.11","","","","","","Cloudy"
"2003-06-06 17:00","2003","06","06","17:00","22.1","","6.5","","36","","15","","11","","24.1","","99.12","","","","","","Cloudy"
"2003-06-06 18:00","2003","06","06","18:00","21.5","","8.1","","42","","13","","7","","24.1","","99.09","","","","","","Cloudy"
"2003-06-06 19:00","2003","06","06","19:00","20.6","","9.3","","48","","13","","9","","24.1","","99.09","","","","","","Cloudy"
"2003-06-06 20:00","2003","06","06","20:00","18.5","","10.1","","58","","13","","13","","24.1","","99.03","","","","","","Cloudy"
"2003-06-06 21:00","2003","06","06","21:00","17.8","","8.7","","55","","20","","7","","24.1","","99.06","","","","","","Cloudy"
"2003-06-06 22:00","2003","06","06","22:00","17.3","","9.4","","60","","15","","6","","24.1","","99.10","","","","","","Cloudy"
"2003-06-06 23:00","2003","06","06","23:00","16.4","","11.2","","71","","7","","4","","25.0","","99.02","","","","","","Cloudy"
"2003-06-07 00:00","2003","06","07","00:00","16.3","","10.7","","69","","6","","6","","25.0","","99.00","","","","","","Cloudy"
"2003-06-07 01:00","2003","06","07","01:00","16.2","","9.8","","66","","7","","6","","25.0","","98.94","","","","","","Cloudy"
"2003-06-07 02:00","2003","06","07","02:00","15.6","","10.8","","73","","7","","9","","25.0","","98.87","","","","","","Cloudy"
"2003-06-07 03:00","2003","06","07","03:00","15.5","","10.9","","74","","9","","7","","25.0","","98.82","","","","","","Cloudy"
"2003-06-07 04:00","2003","06","07","04:00","15.2","","9.8","","70","","9","","11","","25.0","","98.78","","","","","","Mostly Cloudy"
"2003-06-07 05:00","2003","06","07","05:00","14.2","","10.1","","76","","6","","4","","19.3","","98.74","","","","","","Mostly Cloudy"
"2003-06-07 06:00","2003","06","07","06:00","14.7","","10.4","","75","","","","0","","16.1","","98.77","","","","","","Mostly Cloudy"
"2003-06-07 07:00","2003","06","07","07:00","16.2","","11.8","","75","","23","","4","","16.1","","98.77","","","","","","Mostly Cloudy"
"2003-06-07 08:00","2003","06","07","08:00","17.7","","12.6","","72","","23","","7","","19.3","","98.77","","","","","","Mostly Cloudy"
"2003-06-07 09:00","2003","06","07","09:00","19.0","","12.3","","65","","25","","9","","11.3","","98.78","","","","","","Mostly Cloudy"
"2003-06-07 10:00","2003","06","07","10:00","20.4","","13.4","","64","","22","","6","","12.9","","98.75","","","","","","Mostly Cloudy"
"2003-06-07 11:00","2003","06","07","11:00","21.7","","13.3","","59","","34","","7","","16.1","","98.72","","25","","","","Mainly Clear"
"2003-06-07 12:00","2003","06","07","12:00","23.2","","10.7","","45","","18","","7","","24.1","","98.66","","25","","","","Mainly Clear"
"2003-06-07 13:00","2003","06","07","13:00","23.4","","7.2","","35","","","","0","","19.3","","98.63","","","","","","Mostly Cloudy"
"2003-06-07 14:00","2003","06","07","14:00","23.4","","11.8","","48","","17","","9","","19.3","","98.60","","26","","","","Mostly Cloudy"
"2003-06-07 15:00","2003","06","07","15:00","24.4","","11.1","","43","","21","","4","","19.3","","98.59","","26","","","","Mostly Cloudy"
"2003-06-07 16:00","2003","06","07","16:00","24.2","","10.7","","43","","20","","15","","16.1","","98.56","","26","","","","Mainly Clear"
"2003-06-07 17:00","2003","06","07","17:00","23.8","","10.4","","43","","20","","13","","12.9","","98.55","","25","","","","Mainly Clear"
"2003-06-07 18:00","2003","06","07","18:00","23.2","","10.4","","44","","18","","13","","12.9","","98.54","","25","","","","Mainly Clear"
"2003-06-07 19:00","2003","06","07","19:00","21.9","","10.7","","49","","16","","13","","12.9","","98.59","","","","","","Mainly Clear"
"2003-06-07 20:00","2003","06","07","20:00","19.9","","12.1","","61","","16","","9","","12.9","","98.61","","","","","","Mainly Clear"
"2003-06-07 21:00","2003","06","07","21:00","18.9","","11.2","","61","","16","","13","","24.1","","98.66","","","","","","Mostly Cloudy"
"2003-06-07 22:00","2003","06","07","22:00","17.7","","11.8","","68","","17","","7","","24.1","","98.67","","","","","","Mainly Clear"
"2003-06-07 23:00","2003","06","07","23:00","17.6","","11.6","","68","","18","","9","","25.0","","98.67","","","","","","Mostly Cloudy"
"2003-06-08 00:00","2003","06","08","00:00","17.8","","11.5","","67","","19","","6","","25.0","","98.67","","","","","","Mostly Cloudy"
"2003-06-08 01:00","2003","06","08","01:00","17.6","","11.6","","68","","18","","6","","25.0","","98.64","","","","","","Mostly Cloudy"
"2003-06-08 02:00","2003","06","08","02:00","16.6","","11.9","","74","","9","","6","","24.1","","98.58","","","","","","Mostly Cloudy"
"2003-06-08 03:00","2003","06","08","03:00","16.2","","12.2","","77","","5","","9","","16.1","","98.53","","","","","","Mostly Cloudy"
"2003-06-08 04:00","2003","06","08","04:00","16.0","","11.9","","77","","2","","6","","16.1","","98.53","","","","","","Mostly Cloudy"
"2003-06-08 05:00","2003","06","08","05:00","15.0","","11.9","","82","","15","","6","","8.0","","98.52","","","","","","Haze"
"2003-06-08 06:00","2003","06","08","06:00","16.1","","13.2","","83","","16","","4","","4.0","","98.52","","","","","","Haze"
"2003-06-08 07:00","2003","06","08","07:00","18.1","","14.8","","81","","20","","9","","3.2","","98.50","","","","","","Haze"
"2003-06-08 08:00","2003","06","08","08:00","20.2","","15.3","","73","","22","","20","","6.4","","98.52","","","","","","Haze"
"2003-06-08 09:00","2003","06","08","09:00","20.5","","15.1","","71","","21","","19","","9.7","","98.47","","25","","","","Haze"
"2003-06-08 10:00","2003","06","08","10:00","21.0","","15.3","","70","","21","","22","","9.7","","98.43","","25","","","","Haze"
"2003-06-08 11:00","2003","06","08","11:00","20.0","","15.6","","76","","23","","20","","8.0","","98.47","","","","","","Haze"
"2003-06-08 12:00","2003","06","08","12:00","20.4","","13.5","","65","","27","","17","","9.7","","98.42","","","","","","Haze"
"2003-06-08 13:00","2003","06","08","13:00","19.7","","13.7","","68","","26","","11","","9.7","","98.37","","","","","","Haze"
"2003-06-08 14:00","2003","06","08","14:00","18.9","","14.3","","75","","16","","17","","9.7","","98.27","","","","","","Haze"
"2003-06-08 15:00","2003","06","08","15:00","19.4","","14.0","","71","","17","","13","","9.7","","98.20","","","","","","Haze"
"2003-06-08 16:00","2003","06","08","16:00","18.6","","14.1","","75","","17","","11","","9.7","","98.13","","","","","","Haze"
"2003-06-08 17:00","2003","06","08","17:00","17.8","","14.0","","78","","17","","20","","9.7","","98.06","","","","","","Rain Showers,Haze"
"2003-06-08 18:00","2003","06","08","18:00","18.1","","13.7","","75","","18","","20","","14.5","","98.07","","","","","","Mostly Cloudy"
"2003-06-08 19:00","2003","06","08","19:00","19.5","","11.3","","59","","20","","24","","12.9","","98.08","","","","","","Mainly Clear"
"2003-06-08 20:00","2003","06","08","20:00","18.3","","11.5","","65","","22","","17","","16.1","","98.12","","","","","","Mostly Cloudy"
"2003-06-08 21:00","2003","06","08","21:00","16.7","","10.6","","67","","26","","15","","19.3","","98.20","","","","","","Mostly Cloudy"
"2003-06-08 22:00","2003","06","08","22:00","16.6","","10.0","","65","","24","","19","","25.0","","98.23","","","","","","Mostly Cloudy"
"2003-06-08 23:00","2003","06","08","23:00","16.1","","10.0","","67","","25","","20","","25.0","","98.22","","","","","","Mainly Clear"
"2003-06-09 00:00","2003","06","09","00:00","16.2","","10.4","","68","","24","","28","","25.0","","98.17","","","","","","Drizzle"
"2003-06-09 01:00","2003","06","09","01:00","15.7","","10.4","","71","","26","","26","","25.0","","98.17","","","","","","Mainly Clear"
"2003-06-09 02:00","2003","06","09","02:00","14.8","","9.9","","72","","26","","22","","25.0","","98.22","","","","","","Clear"
"2003-06-09 03:00","2003","06","09","03:00","14.2","","10.2","","77","","24","","15","","25.0","","98.24","","","","","","Mainly Clear"
"2003-06-09 04:00","2003","06","09","04:00","14.1","","10.7","","80","","24","","20","","25.0","","98.26","","","","","","Mainly Clear"
"2003-06-09 05:00","2003","06","09","05:00","14.2","","10.7","","79","","25","","20","","19.3","","98.34","","","","","","Mostly Cloudy"
"2003-06-09 06:00","2003","06","09","06:00","14.2","","10.8","","80","","26","","19","","11.3","","98.41","","","","","","Mostly Cloudy"
"2003-06-09 07:00","2003","06","09","07:00","15.3","","10.4","","73","","26","","22","","16.1","","98.51","","","","","","Mainly Clear"
"2003-06-09 08:00","2003","06","09","08:00","16.4","","10.6","","69","","27","","28","","19.3","","98.56","","","","","","Mostly Cloudy"
"2003-06-09 09:00","2003","06","09","09:00","17.8","","10.7","","63","","28","","28","","19.3","","98.59","","","","","","Mostly Cloudy"
"2003-06-09 10:00","2003","06","09","10:00","18.6","","10.6","","60","","27","","32","","24.1","","98.62","","","","","","Mostly Cloudy"
"2003-06-09 11:00","2003","06","09","11:00","18.9","","9.6","","55","","27","","26","","24.1","","98.66","","","","","","Mostly Cloudy"
"2003-06-09 12:00","2003","06","09","12:00","19.7","","9.3","","51","","29","","30","","24.1","","98.72","","","","","","Mainly Clear"
"2003-06-09 13:00","2003","06","09","13:00","20.7","","9.1","","47","","28","","33","","24.1","","98.73","","","","","","Mostly Cloudy"
"2003-06-09 14:00","2003","06","09","14:00","21.2","","9.2","","46","","29","","28","","24.1","","98.78","","","","","","Mostly Cloudy"
"2003-06-09 15:00","2003","06","09","15:00","21.8","","8.9","","44","","29","","22","","24.1","","98.81","","","","","","Mostly Cloudy"
"2003-06-09 16:00","2003","06","09","16:00","21.5","","9.1","","45","","31","","24","","24.1","","98.86","","","","","","Mostly Cloudy"
"2003-06-09 17:00","2003","06","09","17:00","21.3","","9.7","","47","","32","","17","","24.1","","98.90","","","","","","Mostly Cloudy"
"2003-06-09 18:00","2003","06","09","18:00","22.0","","9.6","","45","","29","","19","","19.3","","98.93","","","","","","Mainly Clear"
"2003-06-09 19:00","2003","06","09","19:00","22.1","","8.4","","41","","29","","20","","16.1","","98.98","","","","","","Mainly Clear"
"2003-06-09 20:00","2003","06","09","20:00","20.6","","8.5","","46","","29","","19","","19.3","","99.04","","","","","","Clear"
"2003-06-09 21:00","2003","06","09","21:00","19.1","","8.6","","51","","30","","7","","24.1","","99.09","","","","","","Clear"
"2003-06-09 22:00","2003","06","09","22:00","16.5","","9.2","","62","","22","","7","","24.1","","99.17","","","","","","Clear"
"2003-06-09 23:00","2003","06","09","23:00","15.6","","9.3","","66","","","","0","","25.0","","99.16","","","","","","Clear"
"2003-06-10 00:00","2003","06","10","00:00","14.6","","9.3","","70","","","","0","","25.0","","99.11","","","","","","Clear"
"2003-06-10 01:00","2003","06","10","01:00","13.5","","9.3","","76","","","","0","","25.0","","99.15","","","","","","Mainly Clear"
"2003-06-10 02:00","2003","06","10","02:00","13.8","","9.1","","73","","","","0","","25.0","","99.23","","","","","","Clear"
"2003-06-10 03:00","2003","06","10","03:00","12.5","","8.7","","78","","9","","4","","25.0","","99.20","","","","","","Mainly Clear"
"2003-06-10 04:00","2003","06","10","04:00","12.4","","8.9","","79","","","","0","","25.0","","99.15","","","","","","Mainly Clear"
"2003-06-10 05:00","2003","06","10","05:00","12.8","","9.2","","79","","16","","4","","24.1","","99.17","","","","","","Mainly Clear"
"2003-06-10 06:00","2003","06","10","06:00","14.7","","10.5","","76","","","","0","","24.1","","99.20","","","","","","Mainly Clear"
"2003-06-10 07:00","2003","06","10","07:00","17.4","","12.0","","71","","14","","7","","12.9","","99.16","","","","","","Mainly Clear"
"2003-06-10 08:00","2003","06","10","08:00","20.3","","11.4","","57","","17","","15","","24.1","","99.12","","","","","","Mostly Cloudy"
"2003-06-10 09:00","2003","06","10","09:00","20.8","","12.6","","59","","19","","20","","19.3","","99.09","","","","","","Mostly Cloudy"
"2003-06-10 10:00","2003","06","10","10:00","21.8","","13.3","","58","","21","","19","","11.3","","99.04","","25","","","","Cloudy"
"2003-06-10 11:00","2003","06","10","11:00","22.6","","13.5","","56","","20","","22","","11.3","","99.00","","26","","","","Cloudy"
"2003-06-10 12:00","2003","06","10","12:00","23.5","","11.2","","46","","20","","28","","19.3","","98.87","","25","","","","Cloudy"
"2003-06-10 13:00","2003","06","10","13:00","23.9","","12.0","","47","","21","","19","","19.3","","98.87","","26","","","","Cloudy"
"2003-06-10 14:00","2003","06","10","14:00","23.5","","11.8","","48","","21","","19","","16.1","","98.84","","26","","","","Rain Showers"
"2003-06-10 15:00","2003","06","10","15:00","23.6","","12.4","","49","","22","","19","","24.1","","98.78","","26","","","","Mostly Cloudy"
"2003-06-10 16:00","2003","06","10","16:00","22.9","","11.2","","48","","20","","26","","24.1","","98.74","","25","","","","Cloudy"
"2003-06-10 17:00","2003","06","10","17:00","22.0","","10.9","","49","","20","","22","","24.1","","98.72","","","","","","Mostly Cloudy"
"2003-06-10 18:00","2003","06","10","18:00","19.9","","12.2","","61","","18","","20","","19.3","","98.67","","","","","","Rain Showers"
"2003-06-10 19:00","2003","06","10","19:00","20.7","","12.7","","60","","18","","22","","24.1","","98.55","","","","","","Mostly Cloudy"
"2003-06-10 20:00","2003","06","10","20:00","21.0","","12.7","","59","","19","","20","","24.1","","98.54","","","","","","Rain Showers"
"2003-06-10 21:00","2003","06","10","21:00","20.2","","13.0","","63","","18","","19","","24.1","","98.48","","","","","","Mostly Cloudy"
"2003-06-10 22:00","2003","06","10","22:00","20.7","","13.2","","62","","20","","20","","24.1","","98.48","","","","","","Cloudy"
"2003-06-10 23:00","2003","06","10","23:00","20.4","","13.1","","63","","20","","17","","25.0","","98.46","","","","","","Cloudy"
"2003-06-11 00:00","2003","06","11","00:00","20.3","","13.0","","63","","22","","19","","25.0","","98.45","","","","","","Cloudy"
"2003-06-11 01:00","2003","06","11","01:00","20.3","","13.9","","67","","22","","19","","25.0","","98.44","","","","","","Mostly Cloudy"
"2003-06-11 02:00","2003","06","11","02:00","20.7","","14.2","","66","","23","","13","","25.0","","98.43","","","","","","Cloudy"
"2003-06-11 03:00","2003","06","11","03:00","20.6","","14.5","","68","","23","","15","","25.0","","98.42","","","","","","Mostly Cloudy"
"2003-06-11 04:00","2003","06","11","04:00","20.1","","14.6","","71","","24","","17","","24.1","","98.46","","","","","","Mostly Cloudy"
"2003-06-11 05:00","2003","06","11","05:00","19.2","","14.6","","75","","24","","11","","9.7","","98.49","","","","","","Haze"
"2003-06-11 06:00","2003","06","11","06:00","19.0","","14.8","","77","","23","","15","","8.0","","98.55","","","","","","Haze"
"2003-06-11 07:00","2003","06","11","07:00","20.0","","15.3","","74","","23","","15","","6.4","","98.59","","","","","","Haze"
"2003-06-11 08:00","2003","06","11","08:00","21.0","","15.7","","72","","23","","24","","6.4","","98.65","","25","","","","Haze"
"2003-06-11 09:00","2003","06","11","09:00","21.8","","14.3","","62","","26","","19","","8.0","","98.68","","25","","","","Haze"
"2003-06-11 10:00","2003","06","11","10:00","22.4","","14.5","","61","","26","","15","","8.0","","98.69","","26","","","","Haze"
"2003-06-11 11:00","2003","06","11","11:00","24.2","","10.4","","42","","26","","11","","9.7","","98.68","","26","","","","Haze"
"2003-06-11 12:00","2003","06","11","12:00","24.5","","11.4","","44","","27","","11","","11.3","","98.69","","26","","","","Mainly Clear"
"2003-06-11 13:00","2003","06","11","13:00","26.5","","9.5","","34","","27","","11","","11.3","","98.66","","28","","","","Mostly Cloudy"
"2003-06-11 14:00","2003","06","11","14:00","19.9","","10.4","","54","","6","","26","","11.3","","98.76","","","","","","Mostly Cloudy"
"2003-06-11 15:00","2003","06","11","15:00","19.0","","9.4","","54","","8","","24","","24.1","","98.83","","","","","","Rain Showers"
"2003-06-11 16:00","2003","06","11","16:00","17.3","","16.3","","94","","9","","17","","9.7","","98.84","","","","","","Rain Showers,Fog"
"2003-06-11 17:00","2003","06","11","17:00","17.7","","15.1","","85","","8","","20","","12.9","","98.85","","","","","","Mostly Cloudy"
"2003-06-11 18:00","2003","06","11","18:00","17.5","","14.1","","80","","7","","24","","24.1","","98.87","","","","","","Mostly Cloudy"
"2003-06-11 19:00","2003","06","11","19:00","16.4","","13.2","","81","","6","","24","","24.1","","98.93","","","","","","Mostly Cloudy"
"2003-06-11 20:00","2003","06","11","20:00","15.6","","12.5","","82","","5","","24","","24.1","","98.96","","","","","","Mostly Cloudy"
"2003-06-11 21:00","2003","06","11","21:00","15.4","","12.2","","81","","5","","19","","24.1","","99.02","","","","","","Cloudy"
"2003-06-11 22:00","2003","06","11","22:00","15.5","","12.0","","80","","4","","22","","24.1","","98.99","","","","","","Cloudy"
"2003-06-11 23:00","2003","06","11","23:00","14.7","","11.9","","83","","5","","17","","25.0","","99.00","","","","","","Cloudy"
"2003-06-12 00:00","2003","06","12","00:00","14.2","","12.0","","87","","6","","17","","25.0","","98.99","","","","","","Cloudy"
"2003-06-12 01:00","2003","06","12","01:00","14.0","","12.1","","88","","4","","15","","25.0","","98.95","","","","","","Rain Showers"
"2003-06-12 02:00","2003","06","12","02:00","14.0","","12.3","","89","","5","","15","","25.0","","98.89","","","","","","Drizzle"
"2003-06-12 03:00","2003","06","12","03:00","13.8","","13.3","","97","","5","","11","","9.7","","98.85","","","","","","Rain Showers,Fog"
"2003-06-12 04:00","2003","06","12","04:00","14.6","","14.2","","97","","5","","11","","9.7","","98.81","","","","","","Rain Showers,Fog"
"2003-06-12 05:00","2003","06","12","05:00","15.4","","14.8","","96","","8","","20","","6.4","","98.82","","","","","","Rain Showers,Fog"
"2003-06-12 06:00","2003","06","12","06:00","15.5","","15.0","","97","","8","","20","","4.8","","98.82","","","","","","Rain Showers,Fog"
"2003-06-12 07:00","2003","06","12","07:00","15.6","","14.9","","96","","8","","17","","3.2","","98.85","","","","","","Rain,Fog"
"2003-06-12 08:00","2003","06","12","08:00","15.7","","15.2","","97","","9","","17","","4.8","","98.83","","","","","","Rain,Fog"
"2003-06-12 09:00","2003","06","12","09:00","16.1","","15.4","","96","","8","","19","","4.0","","98.80","","","","","","Rain,Fog"
"2003-06-12 10:00","2003","06","12","10:00","16.2","","15.5","","96","","8","","20","","6.4","","98.76","","","","","","Rain,Fog"
"2003-06-12 11:00","2003","06","12","11:00","16.3","","15.5","","95","","10","","22","","2.0","","98.73","","","","","","Moderate Rain,Fog"
"2003-06-12 12:00","2003","06","12","12:00","16.0","","15.1","","94","","9","","19","","1.6","","98.67","","","","","","Heavy Rain,Fog"
"2003-06-12 13:00","2003","06","12","13:00","16.2","","15.2","","94","","8","","20","","4.8","","98.64","","","","","","Rain,Fog"
"2003-06-12 14:00","2003","06","12","14:00","16.1","","15.2","","94","","8","","15","","4.0","","98.60","","","","","","Rain,Fog"
"2003-06-12 15:00","2003","06","12","15:00","16.5","","15.3","","93","","6","","17","","4.8","","98.57","","","","","","Rain,Fog"
"2003-06-12 16:00","2003","06","12","16:00","16.9","","16.4","","97","","5","","15","","2.0","","98.54","","","","","","Drizzle,Fog"
"2003-06-12 17:00","2003","06","12","17:00","17.1","","16.4","","96","","6","","13","","2.4","","98.54","","","","","","Rain,Fog"
"2003-06-12 18:00","2003","06","12","18:00","17.0","","16.4","","96","","6","","20","","2.4","","98.55","","","","","","Rain,Fog"
"2003-06-12 19:00","2003","06","12","19:00","16.4","","15.1","","92","","6","","17","","2.4","","98.55","","","","","","Drizzle,Fog"
"2003-06-12 20:00","2003","06","12","20:00","16.5","","15.0","","91","","4","","15","","2.4","","98.57","","","","","","Drizzle,Fog"
"2003-06-12 21:00","2003","06","12","21:00","16.3","","14.8","","91","","4","","17","","3.2","","98.61","","","","","","Drizzle,Fog"
"2003-06-12 22:00","2003","06","12","22:00","16.1","","14.7","","91","","3","","13","","2.0","","98.62","","","","","","Drizzle,Fog"
"2003-06-12 23:00","2003","06","12","23:00","15.3","","14.1","","93","","36","","13","","1.0","","98.63","","","","","","Drizzle,Fog"
"2003-06-13 00:00","2003","06","13","00:00","14.9","","13.8","","93","","34","","11","","1.0","","98.63","","","","","","Fog"
"2003-06-13 01:00","2003","06","13","01:00","14.6","","13.6","","94","","35","","9","","0.4","","98.62","","","","","","Fog"
"2003-06-13 02:00","2003","06","13","02:00","14.6","","13.5","","93","","34","","9","","1.0","","98.61","","","","","","Fog"
"2003-06-13 03:00","2003","06","13","03:00","14.6","","13.6","","94","","30","","15","","1.2","","98.65","","","","","","Fog"
"2003-06-13 04:00","2003","06","13","04:00","14.6","","13.5","","93","","29","","13","","2.4","","98.66","","","","","","Fog"
"2003-06-13 05:00","2003","06","13","05:00","14.6","","13.4","","93","","29","","9","","4.0","","98.69","","","","","","Fog"
"2003-06-13 06:00","2003","06","13","06:00","14.9","","13.4","","91","","22","","9","","4.8","","98.74","","","","","","Drizzle,Fog"
"2003-06-13 07:00","2003","06","13","07:00","15.3","","13.6","","90","","26","","7","","4.8","","98.77","","","","","","Drizzle,Fog"
"2003-06-13 08:00","2003","06","13","08:00","15.8","","13.7","","87","","27","","9","","4.8","","98.78","","","","","","Haze"
"2003-06-13 09:00","2003","06","13","09:00","16.7","","14.6","","87","","25","","13","","6.4","","98.83","","","","","","Haze"
"2003-06-13 10:00","2003","06","13","10:00","17.6","","14.8","","84","","25","","9","","6.4","","98.82","","","","","","Haze"
"2003-06-13 11:00","2003","06","13","11:00","18.9","","15.5","","81","","26","","9","","6.4","","98.86","","","","","","Haze"
"2003-06-13 12:00","2003","06","13","12:00","20.7","","16.0","","74","","26","","11","","6.4","","98.85","","25","","","","Haze"
"2003-06-13 13:00","2003","06","13","13:00","21.4","","16.1","","72","","27","","9","","11.3","","98.82","","26","","","","Mostly Cloudy"
"2003-06-13 14:00","2003","06","13","14:00","22.1","","17.1","","73","","26","","9","","11.3","","98.79","","27","","","","Cloudy"
"2003-06-13 15:00","2003","06","13","15:00","22.4","","17.8","","75","","21","","13","","12.9","","98.76","","28","","","","Mostly Cloudy"
"2003-06-13 16:00","2003","06","13","16:00","22.4","","17.2","","72","","23","","13","","12.9","","98.76","","28","","","","Cloudy"
"2003-06-13 17:00","2003","06","13","17:00","22.8","","17.8","","73","","28","","4","","9.7","","98.73","","29","","","","Haze"
"2003-06-13 18:00","2003","06","13","18:00","23.0","","17.3","","70","","31","","6","","11.3","","98.74","","28","","","","Mostly Cloudy"
"2003-06-13 19:00","2003","06","13","19:00","20.8","","16.4","","76","","6","","13","","19.3","","98.79","","26","","","","Mostly Cloudy"
"2003-06-13 20:00","2003","06","13","20:00","19.8","","16.4","","81","","5","","9","","16.1","","98.79","","","","","","Mostly Cloudy"
"2003-06-13 21:00","2003","06","13","21:00","18.8","","16.3","","85","","6","","9","","12.9","","98.88","","","","","","Mostly Cloudy"
"2003-06-13 22:00","2003","06","13","22:00","18.5","","16.2","","86","","4","","9","","12.9","","98.93","","","","","","Mostly Cloudy"
"2003-06-13 23:00","2003","06","13","23:00","18.2","","16.3","","89","","8","","7","","11.3","","98.94","","","","","","Mostly Cloudy"
"2003-06-14 00:00","2003","06","14","00:00","17.9","","16.4","","91","","7","","6","","8.0","","98.97","","","","","","Fog"
"2003-06-14 01:00","2003","06","14","01:00","16.8","","15.9","","94","","","","0","","3.2","","98.95","","","","","","Fog"
"2003-06-14 02:00","2003","06","14","02:00","16.6","","15.7","","94","","1","","4","","4.0","","98.96","","","","","","Fog"
"2003-06-14 03:00","2003","06","14","03:00","16.5","","15.7","","95","","","","0","","4.0","","98.95","","","","","","Fog"
"2003-06-14 04:00","2003","06","14","04:00","16.0","","15.3","","96","","","","0","","0.8","","98.99","","","","","","Fog"
"2003-06-14 05:00","2003","06","14","05:00","15.3","","15.0","","98","","3","","7","","0.2","","99.04","","","","","","Fog"
"2003-06-14 06:00","2003","06","14","06:00","16.0","","15.5","","97","","","","0","","1.2","","99.12","","","","","","Fog"
"2003-06-14 07:00","2003","06","14","07:00","16.9","","16.2","","96","","4","","7","","4.8","","99.15","","","","","","Fog"
"2003-06-14 08:00","2003","06","14","08:00","18.2","","16.8","","92","","7","","6","","4.8","","99.20","","","","","","Fog"
"2003-06-14 09:00","2003","06","14","09:00","20.8","","17.2","","80","","7","","11","","8.0","","99.23","","26","","","","Haze"
"2003-06-14 10:00","2003","06","14","10:00","21.7","","16.4","","72","","7","","11","","9.7","","99.30","","27","","","","Haze"
"2003-06-14 11:00","2003","06","14","11:00","22.3","","16.3","","69","","9","","13","","16.1","","99.30","","27","","","","Mostly Cloudy"
"2003-06-14 12:00","2003","06","14","12:00","23.2","","16.4","","66","","12","","9","","12.9","","99.30","","28","","","","Mostly Cloudy"
"2003-06-14 13:00","2003","06","14","13:00","23.6","","16.4","","64","","8","","13","","16.1","","99.27","","28","","","","Cloudy"
"2003-06-14 14:00","2003","06","14","14:00","24.0","","15.5","","59","","10","","9","","16.1","","99.25","","28","","","","Cloudy"
"2003-06-14 15:00","2003","06","14","15:00","24.3","","15.8","","59","","7","","13","","16.1","","99.24","","29","","","","Cloudy"
"2003-06-14 16:00","2003","06","14","16:00","24.6","","15.9","","58","","9","","15","","16.1","","99.21","","29","","","","Mostly Cloudy"
"2003-06-14 17:00","2003","06","14","17:00","25.0","","15.6","","56","","9","","13","","16.1","","99.20","","29","","","","Cloudy"
"2003-06-14 18:00","2003","06","14","18:00","24.9","","15.5","","56","","11","","9","","19.3","","99.19","","29","","","","Mostly Cloudy"
"2003-06-14 19:00","2003","06","14","19:00","22.8","","17.5","","72","","21","","9","","16.1","","99.23","","28","","","","Mostly Cloudy"
"2003-06-14 20:00","2003","06","14","20:00","21.1","","17.2","","78","","20","","7","","12.9","","99.30","","27","","","","Mainly Clear"
"2003-06-14 21:00","2003","06","14","21:00","20.7","","16.9","","79","","","","0","","16.1","","99.36","","26","","","","Mostly Cloudy"
"2003-06-14 22:00","2003","06","14","22:00","20.0","","17.1","","83","","7","","6","","12.9","","99.41","","25","","","","Mostly Cloudy"
"2003-06-14 23:00","2003","06","14","23:00","18.6","","14.7","","78","","3","","13","","24.1","","99.44","","","","","","Mainly Clear"
"2003-06-15 00:00","2003","06","15","00:00","17.4","","13.8","","79","","3","","11","","24.1","","99.47","","","","","","Mainly Clear"
"2003-06-15 01:00","2003","06","15","01:00","16.7","","13.3","","80","","3","","13","","24.1","","99.51","","","","","","Mainly Clear"
"2003-06-15 02:00","2003","06","15","02:00","16.0","","12.4","","79","","3","","11","","24.1","","99.49","","","","","","Mainly Clear"
"2003-06-15 03:00","2003","06","15","03:00","15.5","","12.7","","83","","36","","6","","24.1","","99.48","","","","","","Clear"
"2003-06-15 04:00","2003","06","15","04:00","15.3","","13.0","","86","","","","0","","24.1","","99.50","","","","","","Mostly Cloudy"
"2003-06-15 05:00","2003","06","15","05:00","14.9","","12.2","","84","","36","","9","","24.1","","99.52","","","","","","Mainly Clear"
"2003-06-15 06:00","2003","06","15","06:00","15.7","","12.7","","82","","35","","6","","24.1","","99.55","","","","","","Mainly Clear"
"2003-06-15 07:00","2003","06","15","07:00","17.8","","13.2","","74","","2","","13","","24.1","","99.59","","","","","","Clear"
"2003-06-15 08:00","2003","06","15","08:00","18.2","","12.8","","71","","4","","19","","25.0","","99.63","","","","","","Clear"
"2003-06-15 09:00","2003","06","15","09:00","19.5","","13.7","","69","","5","","9","","25.0","","99.62","","","","","","Clear"
"2003-06-15 10:00","2003","06","15","10:00","21.0","","14.5","","66","","6","","11","","25.0","","99.64","","25","","","","Mainly Clear"
"2003-06-15 11:00","2003","06","15","11:00","22.2","","14.6","","62","","7","","13","","25.0","","99.66","","26","","","","Clear"
"2003-06-15 12:00","2003","06","15","12:00","23.3","","14.9","","59","","7","","17","","25.0","","99.65","","27","","","","Clear"
"2003-06-15 13:00","2003","06","15","13:00","24.6","","14.1","","52","","4","","20","","25.0","","99.64","","28","","","","Mainly Clear"
"2003-06-15 14:00","2003","06","15","14:00","25.5","","14.0","","49","","4","","28","","25.0","","99.63","","29","","","","Mainly Clear"
"2003-06-15 15:00","2003","06","15","15:00","25.5","","12.9","","46","","6","","22","","25.0","","99.62","","28","","","","Mainly Clear"
"2003-06-15 16:00","2003","06","15","16:00","25.1","","12.9","","47","","5","","20","","25.0","","99.60","","28","","","","Mainly Clear"
"2003-06-15 17:00","2003","06","15","17:00","24.2","","12.6","","48","","5","","28","","25.0","","99.62","","27","","","","Mainly Clear"
"2003-06-15 18:00","2003","06","15","18:00","22.7","","12.5","","53","","5","","26","","25.0","","99.65","","25","","","","Mainly Clear"
"2003-06-15 19:00","2003","06","15","19:00","20.7","","11.5","","56","","5","","24","","25.0","","99.68","","","","","","Mainly Clear"
"2003-06-15 20:00","2003","06","15","20:00","18.6","","10.1","","58","","5","","20","","25.0","","99.70","","","","","","Mainly Clear"
"2003-06-15 21:00","2003","06","15","21:00","16.8","","8.8","","59","","5","","15","","25.0","","99.75","","","","","","Mainly Clear"
"2003-06-15 22:00","2003","06","15","22:00","15.7","","10.0","","69","","5","","13","","25.0","","99.79","","","","","","Mainly Clear"
"2003-06-15 23:00","2003","06","15","23:00","16.0","","6.3","","53","","2","","9","","24.1","","99.80","","","","","","Clear"
"2003-06-16 00:00","2003","06","16","00:00","15.5","","5.1","","50","","2","","9","","24.1","","99.77","","","","","","Mainly Clear"
"2003-06-16 01:00","2003","06","16","01:00","14.4","","7.2","","62","","4","","9","","24.1","","99.77","","","","","","Mainly Clear"
"2003-06-16 02:00","2003","06","16","02:00","13.8","","4.9","","55","","5","","9","","24.1","","99.76","","","","","","Mainly Clear"
"2003-06-16 03:00","2003","06","16","03:00","13.3","","8.3","","72","","4","","9","","24.1","","99.75","","","","","","Mostly Cloudy"
"2003-06-16 04:00","2003","06","16","04:00","12.9","","9.6","","80","","3","","9","","24.1","","99.77","","","","","","Mostly Cloudy"
"2003-06-16 05:00","2003","06","16","05:00","13.0","","10.4","","84","","4","","11","","24.1","","99.81","","","","","","Mostly Cloudy"
"2003-06-16 06:00","2003","06","16","06:00","14.6","","11.8","","83","","4","","11","","24.1","","99.84","","","","","","Mostly Cloudy"
"2003-06-16 07:00","2003","06","16","07:00","16.6","","12.2","","75","","6","","13","","24.1","","99.90","","","","","","Clear"
"2003-06-16 08:00","2003","06","16","08:00","17.8","","12.4","","71","","6","","13","","24.1","","99.92","","","","","","Clear"
"2003-06-16 09:00","2003","06","16","09:00","19.5","","11.5","","60","","5","","13","","24.1","","99.92","","","","","","Clear"
"2003-06-16 10:00","2003","06","16","10:00","20.7","","9.5","","49","","8","","13","","24.1","","99.92","","","","","","Clear"
"2003-06-16 11:00","2003","06","16","11:00","22.3","","8.8","","42","","7","","17","","24.1","","99.92","","","","","","Clear"
"2003-06-16 12:00","2003","06","16","12:00","22.9","","5.6","","33","","6","","19","","24.1","","99.90","","","","","","Clear"
"2003-06-16 13:00","2003","06","16","13:00","23.7","","4.0","","28","","9","","26","","24.1","","99.89","","","","","","Clear"
"2003-06-16 14:00","2003","06","16","14:00","24.2","","3.2","","25","","10","","22","","24.1","","99.88","","","","","","Clear"
"2003-06-16 15:00","2003","06","16","15:00","24.2","","5.1","","29","","7","","24","","24.1","","99.83","","","","","","Clear"
"2003-06-16 16:00","2003","06","16","16:00","24.6","","6.4","","31","","10","","20","","25.0","","99.80","","","","","","Clear"
"2003-06-16 17:00","2003","06","16","17:00","24.7","","4.8","","28","","11","","19","","25.0","","99.76","","","","","","Mainly Clear"
"2003-06-16 18:00","2003","06","16","18:00","24.5","","5.9","","30","","10","","22","","25.0","","99.75","","","","","","Mainly Clear"
"2003-06-16 19:00","2003","06","16","19:00","23.4","","9.1","","40","","10","","17","","25.0","","99.74","","","","","","Mainly Clear"
"2003-06-16 20:00","2003","06","16","20:00","19.5","","10.6","","56","","4","","22","","25.0","","99.76","","","","","","Mainly Clear"
"2003-06-16 21:00","2003","06","16","21:00","18.0","","10.2","","60","","5","","19","","25.0","","99.78","","","","","","Mainly Clear"
"2003-06-16 22:00","2003","06","16","22:00","16.8","","10.7","","67","","4","","11","","25.0","","99.84","","","","","","Mainly Clear"
"2003-06-16 23:00","2003","06","16","23:00","16.3","","11.3","","72","","3","","13","","25.0","","99.83","","","","","","Mainly Clear"
"2003-06-17 00:00","2003","06","17","00:00","16.0","","10.7","","71","","4","","15","","25.0","","99.78","","","","","","Mainly Clear"
"2003-06-17 01:00","2003","06","17","01:00","15.8","","11.7","","77","","3","","11","","25.0","","99.75","","","","","","Mostly Cloudy"
"2003-06-17 02:00","2003","06","17","02:00","16.2","","12.6","","79","","4","","11","","25.0","","99.72","","","","","","Mostly Cloudy"
"2003-06-17 03:00","2003","06","17","03:00","16.2","","12.8","","80","","6","","11","","25.0","","99.68","","","","","","Mostly Cloudy"
"2003-06-17 04:00","2003","06","17","04:00","15.7","","13.0","","84","","6","","13","","25.0","","99.63","","","","","","Mostly Cloudy"
"2003-06-17 05:00","2003","06","17","05:00","16.0","","13.6","","86","","5","","7","","24.1","","99.64","","","","","","Mostly Cloudy"
"2003-06-17 06:00","2003","06","17","06:00","16.9","","14.1","","84","","4","","9","","24.1","","99.64","","","","","","Mostly Cloudy"
"2003-06-17 07:00","2003","06","17","07:00","16.7","","13.5","","81","","4","","13","","24.1","","99.63","","","","","","Mostly Cloudy"
"2003-06-17 08:00","2003","06","17","08:00","17.3","","13.9","","80","","5","","15","","24.1","","99.65","","","","","","Mostly Cloudy"
"2003-06-17 09:00","2003","06","17","09:00","18.0","","14.4","","79","","6","","9","","24.1","","99.65","","","","","","Mostly Cloudy"
"2003-06-17 10:00","2003","06","17","10:00","17.4","","15.5","","89","","4","","7","","12.9","","99.62","","","","","","Rain Showers"
"2003-06-17 11:00","2003","06","17","11:00","18.7","","16.1","","85","","3","","9","","9.7","","99.61","","","","","","Haze"
"2003-06-17 12:00","2003","06","17","12:00","22.4","","17.2","","72","","3","","7","","9.7","","99.55","","28","","","","Haze"
"2003-06-17 13:00","2003","06","17","13:00","22.6","","16.6","","69","","6","","15","","16.1","","99.48","","28","","","","Mostly Cloudy"
"2003-06-17 14:00","2003","06","17","14:00","23.0","","17.2","","70","","8","","19","","16.1","","99.42","","28","","","","Mostly Cloudy"
"2003-06-17 15:00","2003","06","17","15:00","22.6","","17.2","","72","","16","","15","","11.3","","99.38","","28","","","","Cloudy"
"2003-06-17 16:00","2003","06","17","16:00","21.6","","16.8","","74","","17","","17","","11.3","","99.39","","27","","","","Cloudy"
"2003-06-17 17:00","2003","06","17","17:00","20.5","","16.7","","79","","17","","9","","11.3","","99.36","","26","","","","Cloudy"
"2003-06-17 18:00","2003","06","17","18:00","19.8","","16.6","","82","","16","","7","","11.3","","99.33","","","","","","Cloudy"
"2003-06-17 19:00","2003","06","17","19:00","19.4","","16.7","","84","","11","","7","","8.0","","99.31","","","","","","Haze"
"2003-06-17 20:00","2003","06","17","20:00","18.7","","16.6","","88","","12","","11","","11.3","","99.26","","","","","","Mostly Cloudy"
"2003-06-17 21:00","2003","06","17","21:00","18.4","","16.7","","90","","11","","11","","11.3","","99.29","","","","","","Cloudy"
"2003-06-17 22:00","2003","06","17","22:00","18.1","","16.6","","91","","13","","13","","11.3","","99.25","","","","","","Cloudy"
"2003-06-17 23:00","2003","06","17","23:00","17.8","","16.6","","93","","14","","6","","8.0","","99.24","","","","","","Fog"
"2003-06-18 00:00","2003","06","18","00:00","17.9","","16.6","","92","","7","","4","","6.4","","99.21","","","","","","Fog"
"2003-06-18 01:00","2003","06","18","01:00","17.8","","16.4","","92","","6","","6","","6.4","","99.18","","","","","","Fog"
"2003-06-18 02:00","2003","06","18","02:00","17.6","","16.2","","92","","27","","4","","6.4","","99.15","","","","","","Fog"
"2003-06-18 03:00","2003","06","18","03:00","17.2","","16.3","","94","","14","","4","","6.4","","99.12","","","","","","Fog"
"2003-06-18 04:00","2003","06","18","04:00","17.3","","16.5","","95","","22","","4","","6.4","","99.13","","","","","","Fog"
"2003-06-18 05:00","2003","06","18","05:00","17.4","","16.4","","94","","","","0","","3.2","","99.15","","","","","","Fog"
"2003-06-18 06:00","2003","06","18","06:00","17.8","","16.6","","93","","","","0","","2.8","","99.14","","","","","","Fog"
"2003-06-18 07:00","2003","06","18","07:00","18.6","","16.6","","88","","","","0","","4.8","","99.13","","","","","","Fog"
"2003-06-18 08:00","2003","06","18","08:00","20.1","","16.8","","81","","26","","6","","6.4","","99.15","","25","","","","Haze"
"2003-06-18 09:00","2003","06","18","09:00","20.7","","16.6","","77","","27","","11","","8.0","","99.13","","26","","","","Haze"
"2003-06-18 10:00","2003","06","18","10:00","22.6","","17.2","","72","","25","","13","","9.7","","99.11","","28","","","","Haze"
"2003-06-18 11:00","2003","06","18","11:00","23.2","","18.0","","73","","21","","4","","9.7","","99.05","","29","","","","Haze"
"2003-06-18 12:00","2003","06","18","12:00","24.5","","17.8","","66","","19","","13","","9.7","","99.00","","30","","","","Haze"
"2003-06-18 13:00","2003","06","18","13:00","25.3","","18.1","","64","","21","","13","","12.9","","98.95","","31","","","","Mostly Cloudy"
"2003-06-18 14:00","2003","06","18","14:00","25.7","","17.8","","62","","20","","17","","12.9","","98.90","","32","","","","Mainly Clear"
"2003-06-18 15:00","2003","06","18","15:00","27.0","","18.3","","59","","21","","11","","11.3","","98.84","","33","","","","Mostly Cloudy"
"2003-06-18 16:00","2003","06","18","16:00","26.3","","18.2","","61","","20","","22","","11.3","","98.79","","32","","","","Mainly Clear"
"2003-06-18 17:00","2003","06","18","17:00","25.3","","16.8","","59","","19","","22","","11.3","","98.72","","30","","","","Mostly Cloudy"
"2003-06-18 18:00","2003","06","18","18:00","25.1","","16.6","","59","","20","","20","","11.3","","98.70","","30","","","","Mostly Cloudy"
"2003-06-18 19:00","2003","06","18","19:00","23.8","","16.1","","62","","19","","17","","8.0","","98.70","","28","","","","Haze"
"2003-06-18 20:00","2003","06","18","20:00","22.5","","16.5","","69","","18","","15","","8.0","","98.68","","27","","","","Haze"
"2003-06-18 21:00","2003","06","18","21:00","22.8","","17.4","","72","","4","","15","","11.3","","98.78","","28","","","","Thunderstorms,Rain Showers"
"2003-06-18 22:00","2003","06","18","22:00","18.9","","17.5","","92","","13","","11","","24.1","","98.72","","","","","","Mostly Cloudy"
"2003-06-18 23:00","2003","06","18","23:00","18.9","","17.4","","91","","16","","9","","24.1","","98.70","","","","","","Mostly Cloudy"
"2003-06-19 00:00","2003","06","19","00:00","18.8","","18.2","","96","","35","","15","","2.4","","98.83","","","","","","Thunderstorms,Heavy Rain Showers,Fog"
"2003-06-19 01:00","2003","06","19","01:00","18.4","","18.0","","98","","6","","9","","8.0","","98.76","","","","","","Thunderstorms,Rain Showers,Fog"
"2003-06-19 02:00","2003","06","19","02:00","18.8","","18.6","","99","","1","","13","","3.6","","98.79","","","","","","Rain,Fog"
"2003-06-19 03:00","2003","06","19","03:00","18.6","","17.5","","93","","5","","35","","4.8","","98.80","","","","","","Moderate Rain,Fog"
"2003-06-19 04:00","2003","06","19","04:00","15.6","","10.5","","72","","36","","11","","16.1","","98.92","","","","","","Rain"
"2003-06-19 05:00","2003","06","19","05:00","15.3","","10.8","","75","","1","","17","","19.3","","98.95","","","","","","Cloudy"
"2003-06-19 06:00","2003","06","19","06:00","15.4","","11.1","","76","","1","","15","","19.3","","98.97","","","","","","Rain Showers"
"2003-06-19 07:00","2003","06","19","07:00","15.0","","11.1","","77","","2","","26","","24.1","","99.06","","","","","","Mostly Cloudy"
"2003-06-19 08:00","2003","06","19","08:00","15.4","","11.1","","76","","2","","30","","25.0","","99.10","","","","","","Mostly Cloudy"
"2003-06-19 09:00","2003","06","19","09:00","17.6","","10.9","","65","","3","","22","","25.0","","99.17","","","","","","Mainly Clear"
"2003-06-19 10:00","2003","06","19","10:00","18.5","","9.0","","54","","3","","24","","25.0","","99.21","","","","","","Mainly Clear"
"2003-06-19 11:00","2003","06","19","11:00","18.9","","10.2","","57","","4","","32","","25.0","","99.26","","","","","","Mainly Clear"
"2003-06-19 12:00","2003","06","19","12:00","18.6","","9.7","","56","","4","","32","","25.0","","99.29","","","","","","Mainly Clear"
"2003-06-19 13:00","2003","06","19","13:00","18.7","","9.9","","57","","5","","28","","25.0","","99.30","","","","","","Mainly Clear"
"2003-06-19 14:00","2003","06","19","14:00","18.4","","9.5","","56","","5","","32","","25.0","","99.32","","","","","","Mainly Clear"
"2003-06-19 15:00","2003","06","19","15:00","17.4","","9.4","","59","","5","","26","","24.1","","99.35","","","","","","Mainly Clear"
"2003-06-19 16:00","2003","06","19","16:00","17.0","","9.6","","62","","5","","26","","24.1","","99.36","","","","","","Mainly Clear"
"2003-06-19 17:00","2003","06","19","17:00","17.1","","9.3","","60","","2","","24","","24.1","","99.40","","","","","","Mainly Clear"
"2003-06-19 18:00","2003","06","19","18:00","16.3","","7.2","","55","","4","","28","","24.1","","99.41","","","","","","Mainly Clear"
"2003-06-19 19:00","2003","06","19","19:00","15.6","","6.5","","55","","4","","28","","24.1","","99.46","","","","","","Clear"
"2003-06-19 20:00","2003","06","19","20:00","14.7","","5.6","","54","","1","","30","","24.1","","99.46","","","","","","Clear"
"2003-06-19 21:00","2003","06","19","21:00","14.0","","5.6","","57","","1","","28","","24.1","","99.46","","","","","","Clear"
"2003-06-19 22:00","2003","06","19","22:00","13.4","","6.1","","61","","2","","20","","24.1","","99.52","","","","","","Clear"
"2003-06-19 23:00","2003","06","19","23:00","13.0","","6.1","","63","","1","","17","","24.1","","99.54","","","","","","Clear"
"2003-06-20 00:00","2003","06","20","00:00","12.8","","6.2","","64","","1","","13","","24.1","","99.55","","","","","","Clear"
"2003-06-20 01:00","2003","06","20","01:00","12.1","","6.3","","68","","36","","13","","24.1","","99.58","","","","","","Clear"
"2003-06-20 02:00","2003","06","20","02:00","12.0","","6.1","","67","","36","","13","","24.1","","99.60","","","","","","Clear"
"2003-06-20 03:00","2003","06","20","03:00","11.7","","5.5","","66","","36","","13","","24.1","","99.62","","","","","","Clear"
"2003-06-20 04:00","2003","06","20","04:00","11.5","","5.4","","66","","36","","13","","24.1","","99.61","","","","","","Clear"
"2003-06-20 05:00","2003","06","20","05:00","11.6","","5.6","","67","","36","","15","","24.1","","99.66","","","","","","Clear"
"2003-06-20 06:00","2003","06","20","06:00","12.7","","6.0","","64","","1","","15","","24.1","","99.68","","","","","","Clear"
"2003-06-20 07:00","2003","06","20","07:00","14.2","","6.7","","61","","1","","15","","25.0","","99.71","","","","","","Clear"
"2003-06-20 08:00","2003","06","20","08:00","15.8","","7.3","","57","","2","","13","","25.0","","99.77","","","","","","Clear"
"2003-06-20 09:00","2003","06","20","09:00","17.1","","6.2","","49","","3","","20","","25.0","","99.81","","","","","","Clear"
"2003-06-20 10:00","2003","06","20","10:00","18.3","","6.3","","45","","5","","13","","25.0","","99.83","","","","","","Clear"
"2003-06-20 11:00","2003","06","20","11:00","19.4","","5.8","","41","","4","","26","","25.0","","99.78","","","","","","Mainly Clear"
"2003-06-20 12:00","2003","06","20","12:00","20.3","","7.7","","44","","6","","26","","25.0","","99.74","","","","","","Mainly Clear"
"2003-06-20 13:00","2003","06","20","13:00","21.2","","7.8","","42","","6","","26","","25.0","","99.67","","","","","","Mainly Clear"
"2003-06-20 14:00","2003","06","20","14:00","21.4","","8.8","","44","","5","","19","","25.0","","99.59","","","","","","Mainly Clear"
"2003-06-20 15:00","2003","06","20","15:00","22.2","","9.4","","44","","5","","20","","24.1","","99.52","","","","","","Mainly Clear"
"2003-06-20 16:00","2003","06","20","16:00","22.5","","9.7","","44","","6","","30","","24.1","","99.48","","","","","","Mainly Clear"
"2003-06-20 17:00","2003","06","20","17:00","21.9","","8.3","","42","","5","","37","","24.1","","99.43","","","","","","Mainly Clear"
"2003-06-20 18:00","2003","06","20","18:00","21.3","","8.5","","44","","4","","32","","24.1","","99.43","","","","","","Mainly Clear"
"2003-06-20 19:00","2003","06","20","19:00","20.6","","9.7","","50","","5","","19","","24.1","","99.41","","","","","","Mainly Clear"
"2003-06-20 20:00","2003","06","20","20:00","18.7","","10.1","","57","","4","","17","","24.1","","99.44","","","","","","Mainly Clear"
"2003-06-20 21:00","2003","06","20","21:00","16.8","","11.4","","70","","7","","11","","24.1","","99.50","","","","","","Mainly Clear"
"2003-06-20 22:00","2003","06","20","22:00","16.3","","10.8","","70","","9","","11","","24.1","","99.54","","","","","","Mostly Cloudy"
"2003-06-20 23:00","2003","06","20","23:00","15.0","","10.6","","75","","7","","11","","24.1","","99.56","","","","","","Mostly Cloudy"
"2003-06-21 00:00","2003","06","21","00:00","15.1","","9.8","","71","","2","","11","","24.1","","99.53","","","","","","Mostly Cloudy"
"2003-06-21 01:00","2003","06","21","01:00","14.2","","10.0","","76","","3","","11","","24.1","","99.52","","","","","","Mostly Cloudy"
"2003-06-21 02:00","2003","06","21","02:00","14.2","","10.4","","78","","1","","9","","24.1","","99.47","","","","","","Mostly Cloudy"
"2003-06-21 03:00","2003","06","21","03:00","13.5","","10.2","","80","","1","","7","","24.1","","99.46","","","","","","Mainly Clear"
"2003-06-21 04:00","2003","06","21","04:00","13.5","","10.2","","80","","34","","7","","24.1","","99.47","","","","","","Mainly Clear"
"2003-06-21 05:00","2003","06","21","05:00","13.2","","10.0","","81","","35","","9","","19.3","","99.53","","","","","","Mainly Clear"
"2003-06-21 06:00","2003","06","21","06:00","14.5","","9.9","","74","","36","","9","","24.1","","99.53","","","","","","Mainly Clear"
"2003-06-21 07:00","2003","06","21","07:00","16.4","","8.7","","60","","35","","11","","25.0","","99.56","","","","","","Mainly Clear"
"2003-06-21 08:00","2003","06","21","08:00","18.8","","9.4","","54","","35","","19","","25.0","","99.56","","","","","","Mainly Clear"
"2003-06-21 09:00","2003","06","21","09:00","20.9","","10.0","","50","","34","","19","","25.0","","99.55","","","","","","Mainly Clear"
"2003-06-21 10:00","2003","06","21","10:00","22.7","","10.4","","46","","36","","22","","25.0","","99.50","","","","","","Mainly Clear"
"2003-06-21 11:00","2003","06","21","11:00","24.0","","9.4","","40","","2","","22","","25.0","","99.49","","25","","","","Mainly Clear"
"2003-06-21 12:00","2003","06","21","12:00","24.4","","11.1","","43","","4","","19","","25.0","","99.46","","26","","","","Mainly Clear"
"2003-06-21 13:00","2003","06","21","13:00","24.9","","10.7","","41","","6","","20","","25.0","","99.44","","27","","","","Mainly Clear"
"2003-06-21 14:00","2003","06","21","14:00","25.6","","11.0","","40","","5","","22","","24.1","","99.40","","27","","","","Mainly Clear"
"2003-06-21 15:00","2003","06","21","15:00","25.3","","11.4","","42","","7","","24","","24.1","","99.36","","27","","","","Mainly Clear"
"2003-06-21 16:00","2003","06","21","16:00","24.9","","11.0","","42","","6","","17","","24.1","","99.33","","27","","","","Clear"
"2003-06-21 17:00","2003","06","21","17:00","24.7","","11.2","","43","","6","","19","","24.1","","99.31","","27","","","","Clear"
"2003-06-21 18:00","2003","06","21","18:00","24.5","","10.8","","42","","6","","11","","24.1","","99.27","","26","","","","Clear"
"2003-06-21 19:00","2003","06","21","19:00","23.4","","11.6","","47","","5","","11","","24.1","","99.26","","25","","","","Clear"
"2003-06-21 20:00","2003","06","21","20:00","22.3","","11.3","","50","","7","","4","","24.1","","99.24","","","","","","Clear"
"2003-06-21 21:00","2003","06","21","21:00","21.1","","11.1","","53","","4","","4","","24.1","","99.27","","","","","","Mainly Clear"
"2003-06-21 22:00","2003","06","21","22:00","18.8","","12.5","","67","","16","","6","","24.1","","99.32","","","","","","Clear"
"2003-06-21 23:00","2003","06","21","23:00","17.9","","12.2","","69","","12","","6","","24.1","","99.32","","","","","","Clear"
"2003-06-22 00:00","2003","06","22","00:00","17.0","","11.8","","71","","","","0","","24.1","","99.31","","","","","","Clear"
"2003-06-22 01:00","2003","06","22","01:00","16.4","","10.5","","68","","","","0","","24.1","","99.30","","","","","","Clear"
"2003-06-22 02:00","2003","06","22","02:00","16.2","","10.9","","71","","","","0","","24.1","","99.28","","","","","","Clear"
"2003-06-22 03:00","2003","06","22","03:00","15.3","","10.4","","73","","31","","4","","24.1","","99.30","","","","","","Clear"
"2003-06-22 04:00","2003","06","22","04:00","15.1","","11.0","","76","","","","0","","24.1","","99.29","","","","","","Clear"
"2003-06-22 05:00","2003","06","22","05:00","15.3","","11.5","","78","","32","","7","","19.3","","99.35","","","","","","Mainly Clear"
"2003-06-22 06:00","2003","06","22","06:00","16.6","","12.1","","75","","32","","6","","16.1","","99.37","","","","","","Mainly Clear"
"2003-06-22 07:00","2003","06","22","07:00","18.6","","12.6","","68","","30","","7","","24.1","","99.40","","","","","","Mainly Clear"
"2003-06-22 08:00","2003","06","22","08:00","21.9","","13.2","","58","","2","","6","","24.1","","99.42","","25","","","","Mainly Clear"
"2003-06-22 09:00","2003","06","22","09:00","23.1","","11.9","","49","","1","","9","","24.1","","99.44","","25","","","","Mainly Clear"
"2003-06-22 10:00","2003","06","22","10:00","25.0","","12.1","","45","","34","","11","","24.1","","99.40","","27","","","","Mainly Clear"
"2003-06-22 11:00","2003","06","22","11:00","26.3","","11.8","","40","","5","","7","","24.1","","99.37","","28","","","","Mainly Clear"
"2003-06-22 12:00","2003","06","22","12:00","27.0","","11.7","","39","","4","","7","","24.1","","99.33","","29","","","","Mainly Clear"
"2003-06-22 13:00","2003","06","22","13:00","28.2","","12.5","","38","","4","","13","","24.1","","99.29","","31","","","","Mostly Cloudy"
"2003-06-22 14:00","2003","06","22","14:00","28.7","","11.4","","34","","","","0","","24.1","","99.24","","31","","","","Mostly Cloudy"
"2003-06-22 15:00","2003","06","22","15:00","28.9","","12.4","","36","","14","","4","","24.1","","99.18","","31","","","","Mostly Cloudy"
"2003-06-22 16:00","2003","06","22","16:00","29.4","","10.5","","31","","","","0","","24.1","","99.15","","31","","","","Mostly Cloudy"
"2003-06-22 17:00","2003","06","22","17:00","29.3","","9.2","","29","","4","","4","","24.1","","99.11","","30","","","","Mostly Cloudy"
"2003-06-22 18:00","2003","06","22","18:00","28.9","","9.1","","29","","31","","13","","24.1","","99.11","","30","","","","Mainly Clear"
"2003-06-22 19:00","2003","06","22","19:00","28.0","","9.6","","32","","29","","15","","24.1","","99.12","","29","","","","Mainly Clear"
"2003-06-22 20:00","2003","06","22","20:00","25.9","","9.9","","36","","30","","11","","24.1","","99.11","","27","","","","Mainly Clear"
"2003-06-22 21:00","2003","06","22","21:00","24.7","","8.9","","37","","30","","7","","24.1","","99.13","","25","","","","Mainly Clear"
"2003-06-22 22:00","2003","06","22","22:00","22.3","","10.1","","46","","27","","6","","24.1","","99.14","","","","","","Clear"
"2003-06-22 23:00","2003","06","22","23:00","20.3","","10.9","","55","","7","","9","","24.1","","99.15","","","","","","Clear"
"2003-06-23 00:00","2003","06","23","00:00","18.4","","11.5","","64","","23","","4","","24.1","","99.16","","","","","","Clear"
"2003-06-23 01:00","2003","06","23","01:00","18.1","","11.1","","64","","","","0","","24.1","","99.16","","","","","","Clear"
"2003-06-23 02:00","2003","06","23","02:00","18.6","","10.8","","60","","29","","7","","24.1","","99.17","","","","","","Clear"
"2003-06-23 03:00","2003","06","23","03:00","17.7","","11.2","","66","","28","","11","","24.1","","99.21","","","","","","Clear"
"2003-06-23 04:00","2003","06","23","04:00","17.0","","11.2","","69","","26","","6","","24.1","","99.26","","","","","","Clear"
"2003-06-23 05:00","2003","06","23","05:00","17.4","","11.2","","67","","26","","7","","16.1","","99.32","","","","","","Clear"
"2003-06-23 06:00","2003","06","23","06:00","19.5","","11.6","","60","","29","","9","","16.1","","99.34","","","","","","Clear"
"2003-06-23 07:00","2003","06","23","07:00","21.4","","12.9","","58","","30","","6","","19.3","","99.36","","","","","","Clear"
"2003-06-23 08:00","2003","06","23","08:00","24.2","","12.5","","48","","28","","7","","19.3","","99.38","","27","","","","Clear"
"2003-06-23 09:00","2003","06","23","09:00","26.1","","11.3","","40","","34","","13","","24.1","","99.39","","28","","","","Clear"
"2003-06-23 10:00","2003","06","23","10:00","27.5","","11.9","","38","","33","","11","","24.1","","99.38","","30","","","","Clear"
"2003-06-23 11:00","2003","06","23","11:00","27.6","","12.1","","38","","29","","19","","24.1","","99.38","","30","","","","Clear"
"2003-06-23 12:00","2003","06","23","12:00","28.9","","12.9","","37","","33","","7","","24.1","","99.37","","32","","","","Mainly Clear"
"2003-06-23 13:00","2003","06","23","13:00","29.6","","12.7","","35","","34","","15","","24.1","","99.34","","32","","","","Mainly Clear"
"2003-06-23 14:00","2003","06","23","14:00","30.4","","12.5","","33","","28","","15","","19.3","","99.31","","33","","","","Mainly Clear"
"2003-06-23 15:00","2003","06","23","15:00","31.1","","13.4","","34","","26","","9","","24.1","","99.28","","34","","","","Mainly Clear"
"2003-06-23 16:00","2003","06","23","16:00","31.2","","13.0","","33","","32","","6","","24.1","","99.27","","34","","","","Clear"
"2003-06-23 17:00","2003","06","23","17:00","30.8","","13.0","","34","","22","","11","","19.3","","99.23","","34","","","","Clear"
"2003-06-23 18:00","2003","06","23","18:00","30.9","","13.4","","34","","23","","13","","19.3","","99.22","","34","","","","Clear"
"2003-06-23 19:00","2003","06","23","19:00","28.9","","13.7","","39","","22","","17","","24.1","","99.22","","32","","","","Mainly Clear"
"2003-06-23 20:00","2003","06","23","20:00","26.7","","14.0","","46","","22","","15","","24.1","","99.24","","30","","","","Mainly Clear"
"2003-06-23 21:00","2003","06","23","21:00","24.8","","13.6","","50","","22","","15","","24.1","","99.31","","28","","","","Mainly Clear"
"2003-06-23 22:00","2003","06","23","22:00","24.2","","13.0","","50","","21","","15","","24.1","","99.36","","27","","","","Clear"
"2003-06-23 23:00","2003","06","23","23:00","22.9","","14.8","","60","","21","","13","","24.1","","99.40","","27","","","","Clear"
"2003-06-24 00:00","2003","06","24","00:00","22.3","","16.1","","68","","","","0","","24.1","","99.41","","27","","","","Clear"
"2003-06-24 01:00","2003","06","24","01:00","21.4","","16.4","","73","","23","","4","","24.1","","99.43","","26","","","","Clear"
"2003-06-24 02:00","2003","06","24","02:00","20.4","","16.7","","79","","22","","4","","24.1","","99.43","","25","","","","Clear"
"2003-06-24 03:00","2003","06","24","03:00","18.8","","16.5","","86","","21","","4","","24.1","","99.42","","","","","","Clear"
"2003-06-24 04:00","2003","06","24","04:00","19.3","","16.5","","84","","22","","6","","19.3","","99.45","","","","","","Clear"
"2003-06-24 05:00","2003","06","24","05:00","19.2","","15.5","","79","","25","","4","","11.3","","99.53","","","","","","Mostly Cloudy"
"2003-06-24 06:00","2003","06","24","06:00","19.7","","15.6","","77","","23","","4","","11.3","","99.61","","","","","","Mostly Cloudy"
"2003-06-24 07:00","2003","06","24","07:00","21.7","","15.3","","67","","21","","6","","12.9","","99.62","","26","","","","Mainly Clear"
"2003-06-24 08:00","2003","06","24","08:00","24.2","","15.3","","58","","25","","11","","24.1","","99.66","","28","","","","Mainly Clear"
"2003-06-24 09:00","2003","06","24","09:00","26.1","","15.4","","52","","27","","9","","24.1","","99.66","","30","","","","Mainly Clear"
"2003-06-24 10:00","2003","06","24","10:00","27.9","","15.7","","47","","25","","15","","24.1","","99.69","","32","","","","Mostly Cloudy"
"2003-06-24 11:00","2003","06","24","11:00","28.9","","15.3","","44","","26","","19","","24.1","","99.70","","33","","","","Mostly Cloudy"
"2003-06-24 12:00","2003","06","24","12:00","30.2","","16.3","","43","","25","","19","","24.1","","99.69","","35","","","","Mostly Cloudy"
"2003-06-24 13:00","2003","06","24","13:00","29.9","","15.6","","42","","24","","13","","24.1","","99.70","","34","","","","Mostly Cloudy"
"2003-06-24 14:00","2003","06","24","14:00","29.7","","15.7","","43","","22","","17","","24.1","","99.60","","34","","","","Mostly Cloudy"
"2003-06-24 15:00","2003","06","24","15:00","29.9","","16.3","","44","","22","","19","","19.3","","99.50","","35","","","","Mostly Cloudy"
"2003-06-24 16:00","2003","06","24","16:00","30.3","","15.9","","42","","21","","22","","19.3","","99.49","","35","","","","Mostly Cloudy"
"2003-06-24 17:00","2003","06","24","17:00","30.0","","15.1","","40","","21","","22","","19.3","","99.51","","34","","","","Mainly Clear"
"2003-06-24 18:00","2003","06","24","18:00","29.6","","14.8","","41","","20","","19","","19.3","","99.54","","33","","","","Mainly Clear"
"2003-06-24 19:00","2003","06","24","19:00","27.6","","15.5","","48","","18","","15","","19.3","","99.56","","32","","","","Mainly Clear"
"2003-06-24 20:00","2003","06","24","20:00","25.7","","16.7","","58","","19","","13","","19.3","","99.51","","31","","","","Mainly Clear"
"2003-06-24 21:00","2003","06","24","21:00","24.2","","16.4","","62","","18","","13","","24.1","","99.51","","29","","","","Clear"
"2003-06-24 22:00","2003","06","24","22:00","22.9","","16.3","","66","","19","","11","","24.1","","99.54","","28","","","","Clear"
"2003-06-24 23:00","2003","06","24","23:00","22.9","","17.0","","69","","20","","11","","24.1","","99.53","","28","","","","Clear"
"2003-06-25 00:00","2003","06","25","00:00","22.1","","17.2","","74","","","","0","","24.1","","99.49","","28","","","","Clear"
"2003-06-25 01:00","2003","06","25","01:00","22.4","","17.7","","75","","22","","4","","24.1","","99.48","","28","","","","Clear"
"2003-06-25 02:00","2003","06","25","02:00","21.1","","17.6","","80","","18","","6","","24.1","","99.55","","27","","","","Clear"
"2003-06-25 03:00","2003","06","25","03:00","21.0","","17.2","","79","","19","","4","","24.1","","99.59","","26","","","","Clear"
"2003-06-25 04:00","2003","06","25","04:00","21.6","","16.0","","70","","24","","11","","24.1","","99.61","","26","","","","Clear"
"2003-06-25 05:00","2003","06","25","05:00","21.1","","15.3","","69","","22","","7","","11.3","","99.60","","25","","","","Clear"
"2003-06-25 06:00","2003","06","25","06:00","21.9","","15.7","","68","","23","","7","","11.3","","99.60","","26","","","","Clear"
"2003-06-25 07:00","2003","06","25","07:00","23.4","","15.7","","62","","25","","11","","16.1","","99.61","","28","","","","Clear"
"2003-06-25 08:00","2003","06","25","08:00","25.1","","17.0","","61","","25","","13","","19.3","","99.63","","30","","","","Clear"
"2003-06-25 09:00","2003","06","25","09:00","27.7","","18.2","","56","","26","","17","","24.1","","99.61","","34","","","","Clear"
"2003-06-25 10:00","2003","06","25","10:00","28.9","","18.3","","53","","24","","15","","24.1","","99.59","","35","","","","Mainly Clear"
"2003-06-25 11:00","2003","06","25","11:00","30.1","","18.5","","50","","24","","13","","24.1","","99.55","","36","","","","Mainly Clear"
"2003-06-25 12:00","2003","06","25","12:00","31.2","","18.2","","46","","25","","17","","24.1","","99.49","","37","","","","Mainly Clear"
"2003-06-25 13:00","2003","06","25","13:00","30.9","","19.0","","49","","22","","22","","24.1","","99.44","","38","","","","Mainly Clear"
"2003-06-25 14:00","2003","06","25","14:00","30.9","","18.1","","46","","23","","24","","12.9","","99.38","","37","","","","Clear"
"2003-06-25 15:00","2003","06","25","15:00","31.4","","17.7","","44","","21","","26","","12.9","","99.34","","37","","","","Mainly Clear"
"2003-06-25 16:00","2003","06","25","16:00","31.9","","17.5","","42","","22","","26","","16.1","","99.29","","38","","","","Mainly Clear"
"2003-06-25 17:00","2003","06","25","17:00","31.6","","17.7","","44","","20","","24","","16.1","","99.23","","37","","","","Clear"
"2003-06-25 18:00","2003","06","25","18:00","30.9","","17.2","","44","","21","","20","","16.1","","99.17","","36","","","","Clear"
"2003-06-25 19:00","2003","06","25","19:00","30.1","","17.3","","46","","21","","20","","16.1","","99.16","","36","","","","Clear"
"2003-06-25 20:00","2003","06","25","20:00","28.6","","17.2","","50","","22","","11","","16.1","","99.17","","34","","","","Clear"
"2003-06-25 21:00","2003","06","25","21:00","26.8","","18.1","","59","","21","","13","","16.1","","99.23","","33","","","","Clear"
"2003-06-25 22:00","2003","06","25","22:00","26.4","","17.9","","60","","21","","13","","19.3","","99.20","","32","","","","Clear"
"2003-06-25 23:00","2003","06","25","23:00","25.6","","17.7","","62","","21","","13","","19.3","","99.16","","31","","","","Clear"
"2003-06-26 00:00","2003","06","26","00:00","24.9","","17.7","","64","","21","","15","","24.1","","99.13","","31","","","","Clear"
"2003-06-26 01:00","2003","06","26","01:00","24.2","","18.1","","69","","21","","15","","24.1","","99.09","","30","","","","Clear"
"2003-06-26 02:00","2003","06","26","02:00","23.7","","18.2","","71","","20","","13","","19.3","","99.02","","30","","","","Clear"
"2003-06-26 03:00","2003","06","26","03:00","22.3","","18.3","","78","","20","","15","","12.9","","98.98","","29","","","","Clear"
"2003-06-26 04:00","2003","06","26","04:00","22.6","","18.1","","76","","21","","15","","12.9","","98.98","","29","","","","Mainly Clear"
"2003-06-26 05:00","2003","06","26","05:00","22.6","","18.3","","77","","20","","15","","8.0","","98.95","","29","","","","Haze"
"2003-06-26 06:00","2003","06","26","06:00","23.4","","18.7","","75","","21","","22","","8.0","","98.96","","30","","","","Haze"
"2003-06-26 07:00","2003","06","26","07:00","24.4","","19.1","","72","","22","","24","","9.7","","98.95","","31","","","","Haze"
"2003-06-26 08:00","2003","06","26","08:00","25.3","","19.7","","71","","22","","24","","8.0","","98.92","","33","","","","Haze"
"2003-06-26 09:00","2003","06","26","09:00","26.9","","20.6","","68","","23","","20","","8.0","","98.88","","35","","","","Haze"
"2003-06-26 10:00","2003","06","26","10:00","28.4","","21.1","","65","","25","","19","","8.0","","98.81","","37","","","","Haze"
"2003-06-26 11:00","2003","06","26","11:00","28.6","","21.4","","65","","22","","26","","8.0","","98.79","","37","","","","Haze"
"2003-06-26 12:00","2003","06","26","12:00","29.4","","22.0","","64","","24","","24","","9.7","","98.71","","39","","","","Haze"
"2003-06-26 13:00","2003","06","26","13:00","29.9","","21.7","","62","","24","","20","","9.7","","98.62","","39","","","","Haze"
"2003-06-26 14:00","2003","06","26","14:00","29.6","","21.6","","62","","24","","24","","9.7","","98.56","","39","","","","Haze"
"2003-06-26 15:00","2003","06","26","15:00","28.9","","20.2","","59","","21","","30","","9.7","","98.53","","37","","","","Haze"
"2003-06-26 16:00","2003","06","26","16:00","26.5","","20.6","","70","","20","","33","","19.3","","98.52","","35","","","","Mostly Cloudy"
"2003-06-26 17:00","2003","06","26","17:00","26.1","","20.4","","71","","21","","33","","19.3","","98.48","","34","","","","Mostly Cloudy"
"2003-06-26 18:00","2003","06","26","18:00","22.7","","21.3","","92","","27","","24","","12.9","","98.57","","31","","","","Rain Showers"
"2003-06-26 19:00","2003","06","26","19:00","22.0","","20.1","","89","","29","","26","","19.3","","98.65","","30","","","","Rain Showers"
"2003-06-26 20:00","2003","06","26","20:00","19.1","","17.0","","88","","29","","20","","24.1","","98.75","","","","","","Mostly Cloudy"
"2003-06-26 21:00","2003","06","26","21:00","19.3","","14.7","","75","","29","","26","","24.1","","98.82","","","","","","Mostly Cloudy"
"2003-06-26 22:00","2003","06","26","22:00","18.7","","13.0","","69","","28","","17","","24.1","","98.89","","","","","","Mostly Cloudy"
"2003-06-26 23:00","2003","06","26","23:00","18.8","","12.2","","65","","27","","20","","24.1","","98.92","","","","","","Mostly Cloudy"
"2003-06-27 00:00","2003","06","27","00:00","18.1","","12.4","","69","","25","","13","","24.1","","98.94","","","","","","Mostly Cloudy"
"2003-06-27 01:00","2003","06","27","01:00","17.7","","12.6","","72","","25","","15","","24.1","","98.96","","","","","","Mostly Cloudy"
"2003-06-27 02:00","2003","06","27","02:00","17.5","","12.3","","72","","25","","13","","24.1","","98.98","","","","","","Mostly Cloudy"
"2003-06-27 03:00","2003","06","27","03:00","16.8","","12.0","","73","","25","","11","","24.1","","99.00","","","","","","Mostly Cloudy"
"2003-06-27 04:00","2003","06","27","04:00","16.2","","11.7","","75","","25","","11","","24.1","","99.06","","","","","","Mainly Clear"
"2003-06-27 05:00","2003","06","27","05:00","15.6","","11.1","","75","","26","","11","","24.1","","99.12","","","","","","Mainly Clear"
"2003-06-27 06:00","2003","06","27","06:00","15.6","","11.4","","76","","25","","11","","24.1","","99.17","","","","","","Mostly Cloudy"
"2003-06-27 07:00","2003","06","27","07:00","16.2","","11.7","","75","","25","","13","","24.1","","99.23","","","","","","Mainly Clear"
"2003-06-27 08:00","2003","06","27","08:00","18.0","","11.5","","66","","25","","15","","24.1","","99.26","","","","","","Mainly Clear"
"2003-06-27 09:00","2003","06","27","09:00","19.5","","10.6","","56","","26","","22","","24.1","","99.26","","","","","","Mainly Clear"
"2003-06-27 10:00","2003","06","27","10:00","21.2","","11.4","","54","","27","","20","","24.1","","99.27","","","","","","Mainly Clear"
"2003-06-27 11:00","2003","06","27","11:00","22.7","","10.9","","47","","25","","20","","24.1","","99.25","","","","","","Mainly Clear"
"2003-06-27 12:00","2003","06","27","12:00","23.9","","11.5","","46","","24","","28","","24.1","","99.24","","26","","","","Mainly Clear"
"2003-06-27 13:00","2003","06","27","13:00","24.6","","10.1","","40","","24","","30","","24.1","","99.20","","26","","","","Mainly Clear"
"2003-06-27 14:00","2003","06","27","14:00","25.3","","10.8","","40","","26","","22","","24.1","","99.19","","27","","","","Mainly Clear"
"2003-06-27 15:00","2003","06","27","15:00","25.2","","9.8","","38","","26","","15","","24.1","","99.16","","26","","","","Mostly Cloudy"
"2003-06-27 16:00","2003","06","27","16:00","26.1","","10.4","","37","","25","","24","","24.1","","99.13","","28","","","","Mainly Clear"
"2003-06-27 17:00","2003","06","27","17:00","26.1","","9.7","","36","","24","","20","","24.1","","99.11","","27","","","","Mostly Cloudy"
"2003-06-27 18:00","2003","06","27","18:00","26.0","","9.1","","34","","24","","20","","24.1","","99.08","","27","","","","Mainly Clear"
"2003-06-27 19:00","2003","06","27","19:00","25.4","","9.4","","36","","25","","15","","24.1","","99.09","","26","","","","Mainly Clear"
"2003-06-27 20:00","2003","06","27","20:00","23.4","","12.7","","51","","21","","11","","24.1","","99.10","","26","","","","Mainly Clear"
"2003-06-27 21:00","2003","06","27","21:00","21.9","","12.9","","57","","22","","13","","24.1","","99.16","","25","","","","Mainly Clear"
"2003-06-27 22:00","2003","06","27","22:00","21.2","","11.7","","55","","23","","11","","25.0","","99.19","","","","","","Mainly Clear"
"2003-06-27 23:00","2003","06","27","23:00","21.2","","10.8","","51","","23","","15","","25.0","","99.19","","","","","","Clear"
"2003-06-28 00:00","2003","06","28","00:00","19.3","","12.5","","65","","22","","11","","25.0","","99.18","","","","","","Clear"
"2003-06-28 01:00","2003","06","28","01:00","19.0","","15.0","","78","","21","","11","","25.0","","99.21","","","","","","Clear"
"2003-06-28 02:00","2003","06","28","02:00","18.7","","14.7","","78","","22","","9","","25.0","","99.20","","","","","","Mainly Clear"
"2003-06-28 03:00","2003","06","28","03:00","18.4","","12.9","","70","","23","","9","","25.0","","99.18","","","","","","Mainly Clear"
"2003-06-28 04:00","2003","06","28","04:00","18.6","","13.6","","73","","20","","13","","25.0","","99.17","","","","","","Mainly Clear"
"2003-06-28 05:00","2003","06","28","05:00","18.4","","12.8","","70","","23","","7","","25.0","","99.22","","","","","","Mostly Cloudy"
"2003-06-28 06:00","2003","06","28","06:00","19.1","","13.3","","69","","22","","13","","25.0","","99.24","","","","","","Mostly Cloudy"
"2003-06-28 07:00","2003","06","28","07:00","20.4","","12.2","","59","","23","","22","","24.1","","99.30","","","","","","Mostly Cloudy"
"2003-06-28 08:00","2003","06","28","08:00","21.2","","12.3","","57","","25","","17","","24.1","","99.30","","","","","","Rain Showers"
"2003-06-28 09:00","2003","06","28","09:00","21.3","","13.2","","60","","27","","11","","24.1","","99.33","","","","","","Mostly Cloudy"
"2003-06-28 10:00","2003","06","28","10:00","24.1","","13.3","","51","","23","","15","","24.1","","99.30","","27","","","","Mostly Cloudy"
"2003-06-28 11:00","2003","06","28","11:00","24.7","","15.2","","55","","21","","28","","24.1","","99.34","","29","","","","Mostly Cloudy"
"2003-06-28 12:00","2003","06","28","12:00","25.0","","14.5","","52","","22","","28","","24.1","","99.33","","29","","","","Mostly Cloudy"
"2003-06-28 13:00","2003","06","28","13:00","23.5","","13.3","","53","","22","","33","","24.1","","99.33","","26","","","","Mostly Cloudy"
"2003-06-28 14:00","2003","06","28","14:00","22.7","","15.3","","63","","22","","19","","24.1","","99.27","","27","","","","Rain Showers"
"2003-06-28 15:00","2003","06","28","15:00","24.0","","16.2","","62","","21","","15","","24.1","","99.22","","29","","","","Mostly Cloudy"
"2003-06-28 16:00","2003","06","28","16:00","25.2","","14.4","","51","","19","","20","","24.1","","99.13","","29","","","","Mostly Cloudy"
"2003-06-28 17:00","2003","06","28","17:00","25.0","","14.7","","53","","20","","24","","24.1","","99.12","","29","","","","Mostly Cloudy"
"2003-06-28 18:00","2003","06","28","18:00","24.9","","15.0","","54","","20","","22","","24.1","","99.11","","29","","","","Cloudy"
"2003-06-28 19:00","2003","06","28","19:00","23.6","","11.2","","46","","29","","33","","24.1","","99.26","","25","","","","Mostly Cloudy"
"2003-06-28 20:00","2003","06","28","20:00","19.9","","15.2","","74","","23","","20","","24.1","","99.25","","","","","","Thunderstorms,Rain Showers"
"2003-06-28 21:00","2003","06","28","21:00","19.6","","15.1","","75","","21","","13","","24.1","","99.25","","","","","","Mainly Clear"
"2003-06-28 22:00","2003","06","28","22:00","19.4","","15.2","","77","","22","","15","","24.1","","99.25","","","","","","Mainly Clear"
"2003-06-28 23:00","2003","06","28","23:00","19.5","","15.8","","79","","22","","13","","24.1","","99.23","","","","","","Clear"
"2003-06-29 00:00","2003","06","29","00:00","20.0","","15.8","","77","","23","","20","","24.1","","99.27","","","","","","Mainly Clear"
"2003-06-29 01:00","2003","06","29","01:00","19.9","","15.5","","76","","23","","13","","24.1","","99.24","","","","","","Mainly Clear"
"2003-06-29 02:00","2003","06","29","02:00","19.1","","16.8","","87","","22","","11","","24.1","","99.23","","","","","","Mainly Clear"
"2003-06-29 03:00","2003","06","29","03:00","19.8","","17.4","","86","","21","","13","","16.1","","99.19","","","","","","Mostly Cloudy"
"2003-06-29 04:00","2003","06","29","04:00","19.5","","17.2","","87","","22","","15","","16.1","","99.20","","","","","","Mostly Cloudy"
"2003-06-29 05:00","2003","06","29","05:00","20.4","","15.9","","75","","23","","19","","16.1","","99.24","","25","","","","Mostly Cloudy"
"2003-06-29 06:00","2003","06","29","06:00","20.2","","15.8","","76","","24","","17","","24.1","","99.25","","25","","","","Mostly Cloudy"
"2003-06-29 07:00","2003","06","29","07:00","20.8","","16.3","","75","","25","","20","","24.1","","99.31","","26","","","","Mainly Clear"
"2003-06-29 08:00","2003","06","29","08:00","21.7","","16.5","","72","","25","","20","","24.1","","99.39","","27","","","","Mostly Cloudy"
"2003-06-29 09:00","2003","06","29","09:00","21.5","","16.7","","74","","25","","13","","24.1","","99.45","","27","","","","Mostly Cloudy"
"2003-06-29 10:00","2003","06","29","10:00","21.9","","16.9","","73","","26","","15","","24.1","","99.46","","27","","","","Mostly Cloudy"
"2003-06-29 11:00","2003","06","29","11:00","23.4","","17.9","","71","","23","","20","","24.1","","99.46","","29","","","","Mostly Cloudy"
"2003-06-29 12:00","2003","06","29","12:00","24.8","","17.6","","64","","25","","24","","24.1","","99.47","","31","","","","Mostly Cloudy"
"2003-06-29 13:00","2003","06","29","13:00","26.6","","17.8","","59","","22","","24","","24.1","","99.45","","32","","","","Mostly Cloudy"
"2003-06-29 14:00","2003","06","29","14:00","27.0","","15.5","","49","","23","","24","","24.1","","99.41","","31","","","","Mostly Cloudy"
"2003-06-29 15:00","2003","06","29","15:00","25.6","","17.5","","61","","21","","22","","24.1","","99.37","","31","","","","Mostly Cloudy"
"2003-06-29 16:00","2003","06","29","16:00","24.7","","18.6","","69","","20","","17","","24.1","","99.34","","31","","","","Mostly Cloudy"
"2003-06-29 17:00","2003","06","29","17:00","22.1","","16.6","","71","","5","","9","","24.1","","99.40","","27","","","","Mostly Cloudy"
"2003-06-29 18:00","2003","06","29","18:00","22.7","","16.8","","69","","12","","4","","24.1","","99.46","","28","","","","Mostly Cloudy"
"2003-06-29 19:00","2003","06","29","19:00","25.2","","16.3","","58","","28","","20","","24.1","","99.49","","30","","","","Mostly Cloudy"
"2003-06-29 20:00","2003","06","29","20:00","24.8","","11.8","","44","","26","","19","","24.1","","99.49","","27","","","","Mostly Cloudy"
"2003-06-29 21:00","2003","06","29","21:00","23.3","","12.2","","50","","28","","17","","24.1","","99.60","","26","","","","Mostly Cloudy"
"2003-06-29 22:00","2003","06","29","22:00","22.3","","11.6","","51","","30","","15","","24.1","","99.68","","","","","","Mostly Cloudy"
"2003-06-29 23:00","2003","06","29","23:00","20.8","","11.9","","57","","30","","11","","24.1","","99.71","","","","","","Mainly Clear"
"2003-06-30 00:00","2003","06","30","00:00","19.6","","12.1","","62","","30","","9","","24.1","","99.75","","","","","","Mostly Cloudy"
"2003-06-30 01:00","2003","06","30","01:00","18.8","","12.2","","65","","31","","6","","24.1","","99.76","","","","","","Mostly Cloudy"
"2003-06-30 02:00","2003","06","30","02:00","18.3","","12.3","","68","","27","","7","","24.1","","99.79","","","","","","Mostly Cloudy"
"2003-06-30 03:00","2003","06","30","03:00","17.7","","12.4","","71","","32","","6","","24.1","","99.82","","","","","","Mostly Cloudy"
"2003-06-30 04:00","2003","06","30","04:00","16.9","","12.5","","75","","26","","7","","24.1","","99.88","","","","","","Mostly Cloudy"
"2003-06-30 05:00","2003","06","30","05:00","16.1","","12.7","","80","","24","","4","","24.1","","99.94","","","","","","Mostly Cloudy"
"2003-06-30 06:00","2003","06","30","06:00","16.5","","13.3","","81","","27","","4","","24.1","","99.98","","","","","","Mostly Cloudy"
"2003-06-30 07:00","2003","06","30","07:00","19.1","","14.6","","75","","18","","4","","24.1","","100.01","","","","","","Mostly Cloudy"
"2003-06-30 08:00","2003","06","30","08:00","20.7","","14.8","","69","","19","","7","","24.1","","100.05","","25","","","","Mostly Cloudy"
"2003-06-30 09:00","2003","06","30","09:00","21.7","","14.1","","62","","22","","9","","24.1","","100.03","","25","","","","Mostly Cloudy"
"2003-06-30 10:00","2003","06","30","10:00","22.8","","13.9","","57","","22","","13","","24.1","","100.02","","26","","","","Mostly Cloudy"
"2003-06-30 11:00","2003","06","30","11:00","23.4","","13.4","","53","","23","","9","","24.1","","100.00","","26","","","","Mostly Cloudy"
"2003-06-30 12:00","2003","06","30","12:00","24.4","","13.7","","51","","26","","4","","24.1","","99.99","","28","","","","Mostly Cloudy"
"2003-06-30 13:00","2003","06","30","13:00","24.8","","13.2","","48","","","","0","","24.1","","99.96","","28","","","","Mostly Cloudy"
"2003-06-30 14:00","2003","06","30","14:00","25.8","","14.4","","49","","15","","11","","24.1","","99.95","","29","","","","Mostly Cloudy"
"2003-06-30 15:00","2003","06","30","15:00","25.8","","14.7","","50","","21","","20","","24.1","","99.91","","30","","","","Mostly Cloudy"
"2003-06-30 16:00","2003","06","30","16:00","25.5","","14.6","","51","","21","","22","","24.1","","99.89","","29","","","","Mainly Clear"
"2003-06-30 17:00","2003","06","30","17:00","25.1","","14.6","","52","","22","","24","","24.1","","99.85","","29","","","","Mainly Clear"
"2003-06-30 18:00","2003","06","30","18:00","24.8","","14.3","","52","","20","","19","","24.1","","99.79","","28","","","","Mainly Clear"
"2003-06-30 19:00","2003","06","30","19:00","24.2","","13.2","","50","","20","","17","","24.1","","99.81","","27","","","","Mainly Clear"
"2003-06-30 20:00","2003","06","30","20:00","22.5","","13.9","","58","","20","","13","","24.1","","99.79","","26","","","","Mainly Clear"
"2003-06-30 21:00","2003","06","30","21:00","21.0","","14.6","","67","","20","","11","","24.1","","99.84","","25","","","","Mainly Clear"
"2003-06-30 22:00","2003","06","30","22:00","20.2","","15.3","","73","","20","","9","","24.1","","99.87","","","","","","Mainly Clear"
"2003-06-30 23:00","2003","06","30","23:00","20.2","","16.0","","77","","21","","11","","25.0","","99.88","","25","","","","Clear"
