"Station Name","WINDSOR A"
"Province","ONTARIO"
"Latitude","42.28"
"Longitude","-82.96"
"Elevation","189.60"
"Climate Identifier","6139525"
"WMO Identifier","71538"
"TC Identifier","YQG"
"All times are specified in Local Standard Time (LST). Add 1 hour to adjust for Daylight Saving Time where and when it is observed."

"Legend"
"E","Estimated"
"M","Missing"
"NA","Not Available"

"Date/Time","Year","Month","Day","Time","Temp (°C)","Temp Flag","Dew Point Temp (°C)","Dew Point Temp Flag","Rel Hum (%)","Rel Hum Flag","Wind Dir (10s deg)","Wind Dir Flag","Wind Spd (km/h)","Wind Spd Flag","Visibility (km)","Visibility Flag","Stn Press (kPa)","Stn Press Flag","Hmdx","Hmdx Flag","Wind Chill","Wind Chill Flag","Weather"
"2002-02-01 00:00","2002","02","01","00:00","-0.2","","-0.9","","95","","5","","9","","4.8","","98.77","","","","-3","","Freezing Rain,Snow,Fog"
"2002-02-01 01:00","2002","02","01","01:00","0.2","","-0.4","","96","","5","","4","E","4.8","","98.65","","","","","","Rain,Fog"
"2002-02-01 02:00","2002","02","01","02:00","0.6","","-0.1","","95","","9","","19","","4.8","","98.20","","","","","","Rain,Fog"
"2002-02-01 03:00","2002","02","01","03:00","2.3","","1.9","","97","","15","","11","","4.8","","97.98","","","","","","Rain,Fog"
"2002-02-01 04:00","2002","02","01","04:00","2.3","","2.0","","98","","21","","9","","0.8","","97.86","","","","","","Fog"
"2002-02-01 05:00","2002","02","01","05:00","2.0","","2.0","","100","","25","","11","","2.4","","97.83","","","","","","Fog"
"2002-02-01 06:00","2002","02","01","06:00","4.6","","4.1","","97","","25","","28","","2.4","","97.87","","","","","","Drizzle,Fog"
"2002-02-01 07:00","2002","02","01","07:00","3.3","","2.9","","97","","26","","24","","6.4","","97.88","","","","","","Drizzle,Fog"
"2002-02-01 08:00","2002","02","01","08:00","3.6","","1.6","","87","","25","","50","","24.1","","97.96","","","","","","Cloudy"
"2002-02-01 09:00","2002","02","01","09:00","2.2","","-1.6","","76","","24","","52","","24.1","","98.14","","","","","","Cloudy"
"2002-02-01 10:00","2002","02","01","10:00","2.2","","-1.5","","76","","25","","43","","24.1","","98.27","","","","","","Cloudy"
"2002-02-01 11:00","2002","02","01","11:00","2.6","","-1.9","","72","","26","","56","","24.1","","98.42","","","","","","Cloudy"
"2002-02-01 12:00","2002","02","01","12:00","1.3","","-2.1","","78","","28","","52","","24.1","","98.67","","","","","","Snow Showers"
"2002-02-01 13:00","2002","02","01","13:00","1.8","","-5.8","","57","","28","","44","","24.1","","98.84","","","","","","Mostly Cloudy"
"2002-02-01 14:00","2002","02","01","14:00","0.7","","-7.4","","55","","30","","48","","25.0","","99.07","","","","","","Mostly Cloudy"
"2002-02-01 15:00","2002","02","01","15:00","0.4","","-7.1","","57","","30","","32","","25.0","","99.29","","","","","","Mostly Cloudy"
"2002-02-01 16:00","2002","02","01","16:00","0.5","","-6.7","","58","","29","","33","","25.0","","99.52","","","","","","Snow Showers"
"2002-02-01 17:00","2002","02","01","17:00","0.6","","-6.6","","58","","29","","19","","25.0","","99.71","","","","","","Mostly Cloudy"
"2002-02-01 18:00","2002","02","01","18:00","0.2","","-7.9","","54","","30","","28","","25.0","","99.90","","","","","","Mostly Cloudy"
"2002-02-01 19:00","2002","02","01","19:00","-0.4","","-8.6","","54","","32","","30","","25.0","","100.04","","","","-7","","Mostly Cloudy"
"2002-02-01 20:00","2002","02","01","20:00","-0.9","","-9.3","","53","","33","","33","","25.0","","100.18","","","","-8","","Mainly Clear"
"2002-02-01 21:00","2002","02","01","21:00","-1.8","","-9.4","","56","","32","","26","","25.0","","100.30","","","","-8","","Mainly Clear"
"2002-02-01 22:00","2002","02","01","22:00","-2.2","","-8.8","","61","","32","","17","","25.0","","100.38","","","","-8","","Clear"
"2002-02-01 23:00","2002","02","01","23:00","-2.8","","-8.0","","67","","30","","15","","25.0","","100.45","","","","-8","","Clear"
"2002-02-02 00:00","2002","02","02","00:00","-3.2","","-8.0","","69","","30","","7","","25.0","","100.47","","","","-6","","Clear"
"2002-02-02 01:00","2002","02","02","01:00","-3.9","","-7.8","","74","","23","","9","","25.0","","100.52","","","","-8","","Mainly Clear"
"2002-02-02 02:00","2002","02","02","02:00","-3.4","","-7.2","","75","","25","","11","","25.0","","100.48","","","","-8","","Mostly Cloudy"
"2002-02-02 03:00","2002","02","02","03:00","-3.2","","-6.8","","76","","26","","13","","25.0","","100.52","","","","-8","","Mostly Cloudy"
"2002-02-02 04:00","2002","02","02","04:00","-2.8","","-5.9","","79","","26","","11","","25.0","","100.51","","","","-7","","Mostly Cloudy"
"2002-02-02 05:00","2002","02","02","05:00","-3.0","","-5.7","","82","","26","","13","","25.0","","100.53","","","","-8","","Mainly Clear"
"2002-02-02 06:00","2002","02","02","06:00","-2.9","","-6.0","","79","","29","","15","","25.0","","100.56","","","","-8","","Mainly Clear"
"2002-02-02 07:00","2002","02","02","07:00","-3.5","","-6.2","","82","","26","","11","","24.1","","100.60","","","","-8","","Mainly Clear"
"2002-02-02 08:00","2002","02","02","08:00","-4.0","","-6.2","","85","","26","","13","","24.1","","100.67","","","","-9","","Mainly Clear"
"2002-02-02 09:00","2002","02","02","09:00","-2.7","","-6.6","","74","","27","","13","","24.1","","100.69","","","","-7","","Mainly Clear"
"2002-02-02 10:00","2002","02","02","10:00","-1.7","","-7.7","","64","","30","","20","","24.1","","100.72","","","","-7","","Clear"
"2002-02-02 11:00","2002","02","02","11:00","-1.2","","-7.9","","60","","29","","20","","24.1","","100.73","","","","-7","","Clear"
"2002-02-02 12:00","2002","02","02","12:00","-0.5","","-8.5","","55","","29","","19","","24.1","","100.73","","","","-6","","Mostly Cloudy"
"2002-02-02 13:00","2002","02","02","13:00","0.1","","-8.9","","51","","29","","15","","24.1","","100.65","","","","","","Mostly Cloudy"
"2002-02-02 14:00","2002","02","02","14:00","0.7","","-9.1","","48","","29","","15","","24.1","","100.59","","","","","","Mostly Cloudy"
"2002-02-02 15:00","2002","02","02","15:00","1.2","","-7.9","","51","","26","","9","","24.1","","100.51","","","","","","Mostly Cloudy"
"2002-02-02 16:00","2002","02","02","16:00","1.2","","-8.9","","47","","26","","15","","24.1","","100.48","","","","","","Mainly Clear"
"2002-02-02 17:00","2002","02","02","17:00","0.5","","-6.7","","58","","22","","15","","24.1","","100.44","","","","","","Mainly Clear"
"2002-02-02 18:00","2002","02","02","18:00","-0.6","","-7.6","","59","","23","","13","","24.1","","100.43","","","","-5","","Mainly Clear"
"2002-02-02 19:00","2002","02","02","19:00","-1.3","","-6.3","","69","","20","","9","","24.1","","100.40","","","","-5","","Mainly Clear"
"2002-02-02 20:00","2002","02","02","20:00","-1.1","","-5.1","","74","","20","","11","","24.1","","100.28","","","","-5","","Mainly Clear"
"2002-02-02 21:00","2002","02","02","21:00","-1.4","","-6.3","","69","","22","","13","","24.1","","100.18","","","","-6","","Clear"
"2002-02-02 22:00","2002","02","02","22:00","-1.2","","-5.8","","71","","22","","15","","24.1","","100.13","","","","-6","","Clear"
"2002-02-02 23:00","2002","02","02","23:00","-0.8","","-5.8","","69","","22","","22","","24.1","","100.03","","","","-7","","Clear"
"2002-02-03 00:00","2002","02","03","00:00","-0.9","","-5.1","","73","","22","","20","","25.0","","99.90","","","","-6","","Clear"
"2002-02-03 01:00","2002","02","03","01:00","-0.8","","-5.3","","72","","22","","22","","25.0","","99.76","","","","-7","","Clear"
"2002-02-03 02:00","2002","02","03","02:00","-0.7","","-5.7","","69","","22","","22","","25.0","","99.66","","","","-6","","Clear"
"2002-02-03 03:00","2002","02","03","03:00","-0.4","","-5.8","","67","","23","","26","","25.0","","99.60","","","","-7","","Mostly Cloudy"
"2002-02-03 04:00","2002","02","03","04:00","-0.5","","-6.2","","65","","23","","26","","25.0","","99.48","","","","-7","","Mostly Cloudy"
"2002-02-03 05:00","2002","02","03","05:00","-0.3","","-6.9","","61","","24","","26","","25.0","","99.40","","","","-6","","Mainly Clear"
"2002-02-03 06:00","2002","02","03","06:00","-0.5","","-6.6","","63","","24","","24","","25.0","","99.38","","","","-6","","Mostly Cloudy"
"2002-02-03 07:00","2002","02","03","07:00","-0.6","","-6.4","","65","","24","","26","","24.1","","99.38","","","","-7","","Cloudy"
"2002-02-03 08:00","2002","02","03","08:00","0.5","","-5.5","","64","","24","","22","","24.1","","99.34","","","","","","Mostly Cloudy"
"2002-02-03 09:00","2002","02","03","09:00","-0.3","","-4.8","","72","","24","","22","","24.1","","99.32","","","","-6","","Mostly Cloudy"
"2002-02-03 10:00","2002","02","03","10:00","0.1","","-4.2","","73","","25","","19","","24.1","","99.30","","","","","","Mostly Cloudy"
"2002-02-03 11:00","2002","02","03","11:00","0.7","","-3.5","","73","","25","","19","","24.1","","99.33","","","","","","Mostly Cloudy"
"2002-02-03 12:00","2002","02","03","12:00","1.4","","-3.7","","69","","26","","22","","24.1","","99.32","","","","","","Mostly Cloudy"
"2002-02-03 13:00","2002","02","03","13:00","2.0","","-4.0","","64","","26","","22","","24.1","","99.26","","","","","","Mostly Cloudy"
"2002-02-03 14:00","2002","02","03","14:00","2.5","","-4.2","","61","","25","","28","","24.1","","99.22","","","","","","Mostly Cloudy"
"2002-02-03 15:00","2002","02","03","15:00","2.6","","-4.7","","59","","25","","28","","24.1","","99.16","","","","","","Mainly Clear"
"2002-02-03 16:00","2002","02","03","16:00","2.6","","-4.4","","60","","26","","26","","19.3","","99.12","","","","","","Mostly Cloudy"
"2002-02-03 17:00","2002","02","03","17:00","2.2","","-3.8","","64","","25","","20","","16.1","","99.10","","","","","","Mostly Cloudy"
"2002-02-03 18:00","2002","02","03","18:00","1.6","","-3.6","","68","","24","","15","","12.9","","99.09","","","","","","Mostly Cloudy"
"2002-02-03 19:00","2002","02","03","19:00","1.1","","-3.9","","69","","24","","19","","24.1","","99.09","","","","","","Mainly Clear"
"2002-02-03 20:00","2002","02","03","20:00","0.4","","-3.6","","74","","24","","20","","24.1","","99.07","","","","","","Mainly Clear"
"2002-02-03 21:00","2002","02","03","21:00","0.3","","-3.6","","75","","25","","19","","24.1","","99.02","","","","","","Mainly Clear"
"2002-02-03 22:00","2002","02","03","22:00","0.4","","-3.4","","76","","25","","22","","12.9","","98.95","","","","","","Snow Showers"
"2002-02-03 23:00","2002","02","03","23:00","-0.3","","-3.5","","79","","26","","20","","24.1","","98.87","","","","-6","","Mainly Clear"
"2002-02-04 00:00","2002","02","04","00:00","-0.1","","-3.0","","81","","26","","17","","24.1","","98.81","","","","-5","","Cloudy"
"2002-02-04 01:00","2002","02","04","01:00","-2.3","","-5.5","","79","","32","","30","","11.3","","98.83","","","","-9","","Snow"
"2002-02-04 02:00","2002","02","04","02:00","-2.7","","-6.6","","74","","30","","28","","19.3","","98.84","","","","-10","","Snow"
"2002-02-04 03:00","2002","02","04","03:00","-3.5","","-8.5","","68","","31","","35","","19.3","","98.89","","","","-12","","Snow"
"2002-02-04 04:00","2002","02","04","04:00","-4.9","","-8.8","","74","","31","","22","","9.7","","98.95","","","","-12","","Snow"
"2002-02-04 05:00","2002","02","04","05:00","-5.4","","-8.3","","80","","30","","26","","11.3","","99.00","","","","-13","","Snow"
"2002-02-04 06:00","2002","02","04","06:00","-5.4","","-9.3","","74","","31","","32","","16.1","","99.10","","","","-14","","Snow"
"2002-02-04 07:00","2002","02","04","07:00","-5.6","","-9.1","","76","","34","","28","","4.8","","99.26","","","","-14","","Snow"
"2002-02-04 08:00","2002","02","04","08:00","-7.5","","-13.0","","65","","35","","35","","24.1","","99.46","","","","-17","","Mainly Clear"
"2002-02-04 09:00","2002","02","04","09:00","-8.7","","-14.2","","64","","34","","39","","24.1","","99.67","","","","-19","","Mostly Cloudy"
"2002-02-04 10:00","2002","02","04","10:00","-9.0","","-14.9","","62","","33","","44","","24.1","","99.82","","","","-20","","Mostly Cloudy"
"2002-02-04 11:00","2002","02","04","11:00","-9.0","","-14.9","","62","","33","","43","","24.1","","100.00","","","","-20","","Mostly Cloudy"
"2002-02-04 12:00","2002","02","04","12:00","-8.5","","-14.9","","60","","34","","37","","24.1","","100.11","","","","-18","","Mostly Cloudy"
"2002-02-04 13:00","2002","02","04","13:00","-8.4","","-15.3","","57","","34","","30","","24.1","","100.18","","","","-17","","Mostly Cloudy"
"2002-02-04 14:00","2002","02","04","14:00","-8.1","","-15.8","","54","","33","","37","","24.1","","100.27","","","","-18","","Mainly Clear"
"2002-02-04 15:00","2002","02","04","15:00","-8.1","","-19.2","","40","","36","","32","","24.1","","100.34","","","","-17","","Mainly Clear"
"2002-02-04 16:00","2002","02","04","16:00","-7.7","","-19.6","","38","","34","","30","","25.0","","100.42","","","","-17","","Clear"
"2002-02-04 17:00","2002","02","04","17:00","-7.7","","-20.9","","34","","26","","20","","25.0","","100.51","","","","-15","","Clear"
"2002-02-04 18:00","2002","02","04","18:00","-7.6","","-20.6","","34","","35","","17","","25.0","","100.62","","","","-14","","Clear"
"2002-02-04 19:00","2002","02","04","19:00","-7.8","","-19.6","","38","","33","","9","","25.0","","100.73","","","","-12","","Clear"
"2002-02-04 20:00","2002","02","04","20:00","-7.9","","-19.1","","40","","33","","11","","25.0","","100.76","","","","-13","","Clear"
"2002-02-04 21:00","2002","02","04","21:00","-8.3","","-17.5","","47","","29","","11","","25.0","","100.76","","","","-14","","Clear"
"2002-02-04 22:00","2002","02","04","22:00","-8.1","","-16.1","","53","","30","","9","","25.0","","100.78","","","","-13","","Clear"
"2002-02-04 23:00","2002","02","04","23:00","-8.3","","-15.5","","56","","29","","11","","25.0","","100.79","","","","-14","","Clear"
"2002-02-05 00:00","2002","02","05","00:00","-8.9","","-15.3","","60","","28","","9","","25.0","","100.77","","","","-14","","Clear"
"2002-02-05 01:00","2002","02","05","01:00","-9.1","","-15.0","","62","","27","","9","","25.0","","100.76","","","","-14","","Clear"
"2002-02-05 02:00","2002","02","05","02:00","-9.1","","-14.7","","64","","26","","11","","25.0","","100.73","","","","-15","","Mainly Clear"
"2002-02-05 03:00","2002","02","05","03:00","-9.2","","-13.9","","69","","24","","11","","25.0","","100.68","","","","-15","","Mainly Clear"
"2002-02-05 04:00","2002","02","05","04:00","-8.6","","-13.9","","65","","25","","15","","25.0","","100.61","","","","-15","","Mainly Clear"
"2002-02-05 05:00","2002","02","05","05:00","-8.7","","-12.9","","72","","24","","13","","25.0","","100.58","","","","-15","","Mainly Clear"
"2002-02-05 06:00","2002","02","05","06:00","-8.5","","-12.4","","73","","25","","15","","25.0","","100.56","","","","-15","","Clear"
"2002-02-05 07:00","2002","02","05","07:00","-7.8","","-11.6","","74","","24","","19","","24.1","","100.48","","","","-15","","Mainly Clear"
"2002-02-05 08:00","2002","02","05","08:00","-7.1","","-11.3","","72","","24","","30","","24.1","","100.39","","","","-16","","Mainly Clear"
"2002-02-05 09:00","2002","02","05","09:00","-6.0","","-11.5","","65","","25","","28","","24.1","","100.29","","","","-14","","Mainly Clear"
"2002-02-05 10:00","2002","02","05","10:00","-4.7","","-11.8","","58","","25","","32","","24.1","","100.26","","","","-13","","Mainly Clear"
"2002-02-05 11:00","2002","02","05","11:00","-2.4","","-12.9","","44","","26","","33","","24.1","","100.21","","","","-10","","Mainly Clear"
"2002-02-05 12:00","2002","02","05","12:00","-1.5","","-14.6","","36","","26","","30","","24.1","","100.13","","","","-8","","Mainly Clear"
"2002-02-05 13:00","2002","02","05","13:00","-0.5","","-13.0","","38","","27","","39","","24.1","","100.05","","","","-8","","Mainly Clear"
"2002-02-05 14:00","2002","02","05","14:00","0.1","","-9.6","","48","","27","","35","","24.1","","100.00","","","","","","Mostly Cloudy"
"2002-02-05 15:00","2002","02","05","15:00","0.2","","-8.1","","54","","27","","30","","25.0","","99.98","","","","","","Mostly Cloudy"
"2002-02-05 16:00","2002","02","05","16:00","0.2","","-7.9","","54","","26","","28","","24.1","","100.01","","","","","","Mainly Clear"
"2002-02-05 17:00","2002","02","05","17:00","-0.1","","-7.4","","58","","28","","22","","24.1","","100.03","","","","-6","","Mainly Clear"
"2002-02-05 18:00","2002","02","05","18:00","-0.8","","-7.4","","61","","25","","19","","24.1","","100.03","","","","-6","","Clear"
"2002-02-05 19:00","2002","02","05","19:00","-1.3","","-7.4","","63","","27","","15","","24.1","","100.09","","","","-6","","Clear"
"2002-02-05 20:00","2002","02","05","20:00","-1.7","","-7.3","","66","","28","","11","","24.1","","100.13","","","","-6","","Clear"
"2002-02-05 21:00","2002","02","05","21:00","-2.4","","-7.1","","70","","29","","11","","24.1","","100.12","","","","-6","","Clear"
"2002-02-05 22:00","2002","02","05","22:00","-2.5","","-7.0","","71","","28","","13","","19.3","","100.12","","","","-7","","Mainly Clear"
"2002-02-05 23:00","2002","02","05","23:00","-1.8","","-6.9","","68","","28","","15","","19.3","","100.07","","","","-7","","Mainly Clear"
"2002-02-06 00:00","2002","02","06","00:00","-2.3","","-7.0","","70","","29","","19","","24.1","","100.07","","","","-8","","Mostly Cloudy"
"2002-02-06 01:00","2002","02","06","01:00","-1.8","","-6.4","","71","","29","","15","","25.0","","100.06","","","","-7","","Cloudy"
"2002-02-06 02:00","2002","02","06","02:00","-2.4","","-6.9","","71","","24","","13","","24.1","","100.08","","","","-7","","Cloudy"
"2002-02-06 03:00","2002","02","06","03:00","-2.4","","-6.7","","72","","23","","13","","19.3","","100.08","","","","-7","","Cloudy"
"2002-02-06 04:00","2002","02","06","04:00","-2.3","","-7.0","","70","","25","","13","","19.3","","100.02","","","","-7","","Cloudy"
"2002-02-06 05:00","2002","02","06","05:00","-2.5","","-6.5","","74","","23","","13","","19.3","","99.97","","","","-7","","Cloudy"
"2002-02-06 06:00","2002","02","06","06:00","-2.3","","-6.1","","75","","26","","9","","19.3","","99.96","","","","-6","","Cloudy"
"2002-02-06 07:00","2002","02","06","07:00","-2.3","","-5.8","","77","","24","","11","","19.3","","99.89","","","","-6","","Cloudy"
"2002-02-06 08:00","2002","02","06","08:00","-2.7","","-5.7","","80","","23","","17","","9.7","","99.97","","","","-8","","Haze"
"2002-02-06 09:00","2002","02","06","09:00","-2.2","","-5.6","","77","","25","","17","","9.7","","99.98","","","","-8","","Haze"
"2002-02-06 10:00","2002","02","06","10:00","-1.8","","-5.5","","76","","25","","15","","9.7","","99.92","","","","-7","","Haze"
"2002-02-06 11:00","2002","02","06","11:00","-0.9","","-5.5","","71","","25","","20","","16.1","","99.91","","","","-6","","Mainly Clear"
"2002-02-06 12:00","2002","02","06","12:00","0.6","","-5.3","","65","","25","","20","","19.3","","99.87","","","","","","Mostly Cloudy"
"2002-02-06 13:00","2002","02","06","13:00","1.8","","-4.8","","62","","25","","20","","19.3","","99.78","","","","","","Mostly Cloudy"
"2002-02-06 14:00","2002","02","06","14:00","3.0","","-3.8","","61","","23","","22","","19.3","","99.65","","","","","","Mostly Cloudy"
"2002-02-06 15:00","2002","02","06","15:00","3.5","","-4.3","","57","","23","","30","","19.3","","99.59","","","","","","Mostly Cloudy"
"2002-02-06 16:00","2002","02","06","16:00","4.4","","-4.3","","53","","24","","24","","24.1","","99.59","","","","","","Mostly Cloudy"
"2002-02-06 17:00","2002","02","06","17:00","3.0","","-4.5","","58","","23","","17","","24.1","","99.58","","","","","","Mostly Cloudy"
"2002-02-06 18:00","2002","02","06","18:00","2.4","","-4.8","","59","","23","","17","","24.1","","99.56","","","","","","Mostly Cloudy"
"2002-02-06 19:00","2002","02","06","19:00","1.8","","-4.4","","63","","23","","13","","24.1","","99.51","","","","","","Mostly Cloudy"
"2002-02-06 20:00","2002","02","06","20:00","1.5","","-5.7","","59","","23","","17","","25.0","","99.48","","","","","","Mostly Cloudy"
"2002-02-06 21:00","2002","02","06","21:00","1.4","","-6.8","","54","","23","","19","","25.0","","99.46","","","","","","Mostly Cloudy"
"2002-02-06 22:00","2002","02","06","22:00","0.3","","-6.3","","61","","23","","11","","25.0","","99.40","","","","","","Mostly Cloudy"
"2002-02-06 23:00","2002","02","06","23:00","0.0","","-5.6","","66","","22","","17","","25.0","","99.36","","","","-5","","Mostly Cloudy"
"2002-02-07 00:00","2002","02","07","00:00","0.2","","-5.6","","65","","23","","17","","25.0","","99.31","","","","","","Mainly Clear"
"2002-02-07 01:00","2002","02","07","01:00","-0.1","","-5.2","","68","","24","","15","","25.0","","99.23","","","","-5","","Mostly Cloudy"
"2002-02-07 02:00","2002","02","07","02:00","-0.2","","-5.5","","67","","23","","19","","25.0","","99.16","","","","-5","","Mostly Cloudy"
"2002-02-07 03:00","2002","02","07","03:00","-0.3","","-6.1","","65","","23","","19","","25.0","","99.08","","","","-5","","Mostly Cloudy"
"2002-02-07 04:00","2002","02","07","04:00","-0.5","","-6.6","","63","","24","","19","","25.0","","99.01","","","","-6","","Mostly Cloudy"
"2002-02-07 05:00","2002","02","07","05:00","-0.4","","-7.0","","61","","24","","19","","25.0","","99.00","","","","-6","","Mostly Cloudy"
"2002-02-07 06:00","2002","02","07","06:00","-1.0","","-7.1","","63","","23","","13","","25.0","","98.97","","","","-5","","Mainly Clear"
"2002-02-07 07:00","2002","02","07","07:00","-1.6","","-7.0","","67","","24","","17","","25.0","","98.95","","","","-7","","Mainly Clear"
"2002-02-07 08:00","2002","02","07","08:00","-1.3","","-7.0","","65","","25","","19","","25.0","","98.96","","","","-7","","Clear"
"2002-02-07 09:00","2002","02","07","09:00","-0.3","","-6.6","","62","","25","","20","","24.1","","98.95","","","","-6","","Clear"
"2002-02-07 10:00","2002","02","07","10:00","1.0","","-6.3","","58","","26","","20","","24.1","","98.96","","","","","","Clear"
"2002-02-07 11:00","2002","02","07","11:00","2.0","","-5.2","","59","","28","","24","","24.1","","98.93","","","","","","Clear"
"2002-02-07 12:00","2002","02","07","12:00","3.3","","-4.1","","58","","28","","26","","24.1","","98.92","","","","","","Clear"
"2002-02-07 13:00","2002","02","07","13:00","4.8","","-2.6","","59","","30","","26","","24.1","","98.89","","","","","","Clear"
"2002-02-07 14:00","2002","02","07","14:00","3.7","","-2.0","","66","","30","","26","","12.9","","98.91","","","","","","Mainly Clear"
"2002-02-07 15:00","2002","02","07","15:00","3.2","","-1.9","","69","","27","","20","","16.1","","98.90","","","","","","Mainly Clear"
"2002-02-07 16:00","2002","02","07","16:00","4.2","","-1.5","","66","","29","","22","","16.1","","98.96","","","","","","Mainly Clear"
"2002-02-07 17:00","2002","02","07","17:00","4.0","","-1.6","","67","","29","","19","","12.9","","99.02","","","","","","Clear"
"2002-02-07 18:00","2002","02","07","18:00","3.2","","-1.8","","70","","31","","19","","12.9","","99.12","","","","","","Clear"
"2002-02-07 19:00","2002","02","07","19:00","2.6","","-1.9","","72","","30","","13","","11.3","","99.20","","","","","","Clear"
"2002-02-07 20:00","2002","02","07","20:00","2.2","","-2.0","","74","","26","","13","","12.9","","99.23","","","","","","Clear"
"2002-02-07 21:00","2002","02","07","21:00","1.5","","-2.0","","78","","29","","19","","12.9","","99.27","","","","","","Clear"
"2002-02-07 22:00","2002","02","07","22:00","1.6","","-2.3","","75","","30","","24","","16.1","","99.33","","","","","","Clear"
"2002-02-07 23:00","2002","02","07","23:00","1.2","","-2.4","","77","","30","","22","","19.3","","99.34","","","","","","Clear"
"2002-02-08 00:00","2002","02","08","00:00","0.7","","-2.5","","79","","29","","15","","19.3","","99.36","","","","","","Clear"
"2002-02-08 01:00","2002","02","08","01:00","0.0","","-2.7","","82","","29","","17","","19.3","","99.40","","","","-5","","Mainly Clear"
"2002-02-08 02:00","2002","02","08","02:00","0.0","","-2.8","","81","","29","","9","","19.3","","99.41","","","","-3","","Clear"
"2002-02-08 03:00","2002","02","08","03:00","-1.7","","-3.4","","88","","20","","13","","16.1","","99.42","","","","-6","","Clear"
"2002-02-08 04:00","2002","02","08","04:00","-1.7","","-3.3","","89","","20","","11","","8.0","","99.38","","","","-6","","Fog"
"2002-02-08 05:00","2002","02","08","05:00","-1.4","","-2.8","","90","","20","","17","","4.8","","99.34","","","","-7","","Fog"
"2002-02-08 06:00","2002","02","08","06:00","-1.7","","-3.0","","91","","21","","19","","4.8","","99.30","","","","-7","","Fog"
"2002-02-08 07:00","2002","02","08","07:00","-1.8","","-3.2","","90","","21","","15","","6.4","","99.32","","","","-7","","Fog"
"2002-02-08 08:00","2002","02","08","08:00","-1.6","","-3.0","","90","","21","","22","","2.8","","99.25","","","","-8","","Fog"
"2002-02-08 09:00","2002","02","08","09:00","0.3","","-2.3","","83","","23","","24","","6.4","","99.27","","","","","","Fog"
"2002-02-08 10:00","2002","02","08","10:00","0.6","","-2.4","","80","","23","","22","","8.0","","99.27","","","","","","Haze"
"2002-02-08 11:00","2002","02","08","11:00","2.9","","-2.6","","67","","27","","28","","9.7","","99.31","","","","","","Haze"
"2002-02-08 12:00","2002","02","08","12:00","3.8","","-2.4","","64","","27","","28","","9.7","","99.29","","","","","","Haze"
"2002-02-08 13:00","2002","02","08","13:00","5.4","","-1.9","","59","","26","","22","","11.3","","99.27","","","","","","Clear"
"2002-02-08 14:00","2002","02","08","14:00","6.9","","-1.5","","55","","27","","22","","12.9","","99.31","","","","","","Clear"
"2002-02-08 15:00","2002","02","08","15:00","7.7","","-1.3","","53","","27","","19","","11.3","","99.35","","","","","","Clear"
"2002-02-08 16:00","2002","02","08","16:00","8.0","","-1.4","","51","","30","","20","","12.9","","99.43","","","","","","Clear"
"2002-02-08 17:00","2002","02","08","17:00","7.7","","-1.6","","52","","28","","13","","16.1","","99.50","","","","","","Clear"
"2002-02-08 18:00","2002","02","08","18:00","5.9","","-1.8","","58","","32","","7","","17.7","","99.63","","","","","","Clear"
"2002-02-08 19:00","2002","02","08","19:00","5.5","","-2.2","","58","","35","","6","","12.9","","99.76","","","","","","Clear"
"2002-02-08 20:00","2002","02","08","20:00","2.3","","-2.3","","72","","9","","11","","11.3","","99.85","","","","","","Clear"
"2002-02-08 21:00","2002","02","08","21:00","2.2","","-1.7","","75","","9","","13","","11.3","","99.94","","","","","","Clear"
"2002-02-08 22:00","2002","02","08","22:00","1.1","","-1.7","","82","","11","","11","","9.7","","100.01","","","","","","Haze"
"2002-02-08 23:00","2002","02","08","23:00","0.8","","-1.9","","82","","10","","7","","8.0","","100.03","","","","","","Haze"
"2002-02-09 00:00","2002","02","09","00:00","0.4","","-2.1","","83","","9","","7","","9.7","","100.06","","","","","","Haze"
"2002-02-09 01:00","2002","02","09","01:00","0.2","","-2.3","","83","","10","","9","","9.7","","100.12","","","","","","Haze"
"2002-02-09 02:00","2002","02","09","02:00","-0.1","","-2.6","","83","","11","","7","","9.7","","100.13","","","","-3","","Haze"
"2002-02-09 03:00","2002","02","09","03:00","-0.5","","-2.8","","84","","9","","6","","8.0","","100.16","","","","-3","","Haze"
"2002-02-09 04:00","2002","02","09","04:00","-1.2","","-3.2","","86","","9","","6","","8.0","","100.16","","","","-3","","Haze"
"2002-02-09 05:00","2002","02","09","05:00","-1.1","","-2.7","","89","","8","","9","","8.0","","100.16","","","","-4","","Haze"
"2002-02-09 06:00","2002","02","09","06:00","-1.1","","-2.6","","90","","9","","9","","6.4","","100.18","","","","-4","","Haze"
"2002-02-09 07:00","2002","02","09","07:00","-0.4","","-2.4","","86","","10","","11","","8.0","","100.22","","","","-4","","Haze"
"2002-02-09 08:00","2002","02","09","08:00","-0.2","","-2.3","","86","","10","","15","","6.4","","100.23","","","","-5","","Haze"
"2002-02-09 09:00","2002","02","09","09:00","1.1","","-1.3","","84","","11","","13","","8.0","","100.28","","","","","","Haze"
"2002-02-09 10:00","2002","02","09","10:00","2.4","","-0.3","","82","","11","","17","","8.0","","100.29","","","","","","Haze"
"2002-02-09 11:00","2002","02","09","11:00","3.7","","0.2","","78","","13","","17","","8.0","","100.28","","","","","","Haze"
"2002-02-09 12:00","2002","02","09","12:00","4.4","","0.3","","75","","11","","13","","8.0","","100.27","","","","","","Haze"
"2002-02-09 13:00","2002","02","09","13:00","5.7","","1.3","","73","","12","","15","","9.7","","100.18","","","","","","Haze"
"2002-02-09 14:00","2002","02","09","14:00","6.7","","2.1","","72","","10","","13","","9.7","","100.11","","","","","","Haze"
"2002-02-09 15:00","2002","02","09","15:00","7.0","","2.0","","70","","11","","15","","9.7","","100.02","","","","","","Haze"
"2002-02-09 16:00","2002","02","09","16:00","6.7","","2.0","","72","","12","","17","","11.3","","100.01","","","","","","Mostly Cloudy"
"2002-02-09 17:00","2002","02","09","17:00","5.7","","1.5","","74","","11","","15","","11.3","","99.98","","","","","","Mostly Cloudy"
"2002-02-09 18:00","2002","02","09","18:00","3.7","","0.2","","78","","10","","13","","11.3","","99.98","","","","","","Mostly Cloudy"
"2002-02-09 19:00","2002","02","09","19:00","2.4","","-0.4","","82","","8","","13","","11.3","","99.98","","","","","","Mostly Cloudy"
"2002-02-09 20:00","2002","02","09","20:00","1.5","","-0.9","","84","","11","","17","","11.3","","99.92","","","","","","Mostly Cloudy"
"2002-02-09 21:00","2002","02","09","21:00","1.9","","-0.8","","82","","11","","22","","9.7","","99.82","","","","","","Haze"
"2002-02-09 22:00","2002","02","09","22:00","2.1","","-0.5","","83","","12","","19","","9.7","","99.77","","","","","","Haze"
"2002-02-09 23:00","2002","02","09","23:00","1.8","","-0.6","","84","","11","","17","","11.3","","99.69","","","","","","Mostly Cloudy"
"2002-02-10 00:00","2002","02","10","00:00","1.7","","-0.7","","84","","11","","13","","11.3","","99.62","","","","","","Mostly Cloudy"
"2002-02-10 01:00","2002","02","10","01:00","2.0","","-0.6","","83","","10","","9","","12.9","","99.54","","","","","","Cloudy"
"2002-02-10 02:00","2002","02","10","02:00","2.2","","-0.5","","82","","12","","7","","12.9","","99.47","","","","","","Cloudy"
"2002-02-10 03:00","2002","02","10","03:00","2.2","","-0.7","","81","","16","","6","","24.1","","99.39","","","","","","Cloudy"
"2002-02-10 04:00","2002","02","10","04:00","6.1","","-1.5","","58","","20","","15","","24.1","","99.32","","","","","","Cloudy"
"2002-02-10 05:00","2002","02","10","05:00","7.0","","-0.9","","57","","20","","20","","24.1","","99.26","","","","","","Cloudy"
"2002-02-10 06:00","2002","02","10","06:00","7.2","","-0.6","","58","","20","","20","","24.1","","99.22","","","","","","Mostly Cloudy"
"2002-02-10 07:00","2002","02","10","07:00","7.6","","-0.1","","58","","22","","20","","19.3","","99.20","","","","","","Rain Showers"
"2002-02-10 08:00","2002","02","10","08:00","5.8","","2.3","","78","","22","","28","","4.8","","99.27","","","","","","Rain Showers"
"2002-02-10 09:00","2002","02","10","09:00","5.5","","3.6","","88","","21","","20","","16.1","","99.22","","","","","","Rain Showers"
"2002-02-10 10:00","2002","02","10","10:00","6.2","","3.7","","84","","21","","20","","19.3","","99.16","","","","","","Mostly Cloudy"
"2002-02-10 11:00","2002","02","10","11:00","6.7","","4.5","","86","","22","","24","","19.3","","99.15","","","","","","Mostly Cloudy"
"2002-02-10 12:00","2002","02","10","12:00","6.5","","4.7","","88","","22","","22","","19.3","","99.08","","","","","","Mostly Cloudy"
"2002-02-10 13:00","2002","02","10","13:00","8.3","","5.6","","83","","24","","26","","19.3","","98.93","","","","","","Mainly Clear"
"2002-02-10 14:00","2002","02","10","14:00","8.4","","6.1","","85","","23","","17","","24.1","","98.84","","","","","","Mostly Cloudy"
"2002-02-10 15:00","2002","02","10","15:00","8.7","","6.0","","83","","22","","17","","19.3","","98.76","","","","","","Mostly Cloudy"
"2002-02-10 16:00","2002","02","10","16:00","8.5","","5.9","","84","","22","","11","","19.3","","98.75","","","","","","Rain Showers"
"2002-02-10 17:00","2002","02","10","17:00","6.7","","5.0","","89","","28","","6","","9.7","","98.74","","","","","","Rain Showers,Fog"
"2002-02-10 18:00","2002","02","10","18:00","0.9","","-1.1","","86","","1","","26","","12.9","","98.87","","","","","","Rain Showers"
"2002-02-10 19:00","2002","02","10","19:00","-1.0","","-2.4","","90","","1","","28","","4.0","","98.99","","","","-8","","Snow"
"2002-02-10 20:00","2002","02","10","20:00","-1.6","","-3.1","","89","","36","","24","","2.4","","99.07","","","","-8","","Snow"
"2002-02-10 21:00","2002","02","10","21:00","-1.7","","-4.3","","82","","36","","35","","6.4","","99.12","","","","-9","","Snow"
"2002-02-10 22:00","2002","02","10","22:00","-1.4","","-5.4","","74","","36","","35","","16.1","","99.25","","","","-9","","Snow"
"2002-02-10 23:00","2002","02","10","23:00","-1.7","","-6.0","","72","","36","","37","","16.1","","99.40","","","","-9","","Snow"
"2002-02-11 00:00","2002","02","11","00:00","-2.1","","-6.0","","75","","35","","33","","19.3","","99.55","","","","-10","","Snow Showers"
"2002-02-11 01:00","2002","02","11","01:00","-2.4","","-6.9","","71","","34","","37","","24.1","","99.71","","","","-10","","Snow Showers"
"2002-02-11 02:00","2002","02","11","02:00","-2.9","","-7.8","","69","","34","","32","","19.3","","99.82","","","","-10","","Snow Showers"
"2002-02-11 03:00","2002","02","11","03:00","-3.6","","-8.4","","69","","35","","26","","19.3","","99.92","","","","-11","","Snow Showers"
"2002-02-11 04:00","2002","02","11","04:00","-4.7","","-10.3","","65","","34","","26","","19.3","","100.04","","","","-12","","Snow Showers"
"2002-02-11 05:00","2002","02","11","05:00","-6.0","","-11.5","","65","","34","","24","","24.1","","100.14","","","","-13","","Snow Showers"
"2002-02-11 06:00","2002","02","11","06:00","-6.6","","-12.0","","65","","35","","22","","24.1","","100.22","","","","-14","","Mainly Clear"
"2002-02-11 07:00","2002","02","11","07:00","-7.2","","-12.8","","64","","34","","17","","24.1","","100.31","","","","-14","","Mainly Clear"
"2002-02-11 08:00","2002","02","11","08:00","-7.5","","-12.7","","66","","34","","19","","25.0","","100.41","","","","-15","","Clear"
"2002-02-11 09:00","2002","02","11","09:00","-7.3","","-12.6","","66","","35","","13","","25.0","","100.42","","","","-13","","Clear"
"2002-02-11 10:00","2002","02","11","10:00","-6.9","","-12.5","","64","","35","","11","","25.0","","100.40","","","","-12","","Clear"
"2002-02-11 11:00","2002","02","11","11:00","-6.1","","-12.1","","62","","35","","7","","25.0","","100.37","","","","-9","","Clear"
"2002-02-11 12:00","2002","02","11","12:00","-4.8","","-12.2","","56","","29","","9","","25.0","","100.31","","","","-9","","Clear"
"2002-02-11 13:00","2002","02","11","13:00","-3.3","","-10.2","","59","","22","","7","","24.1","","100.23","","","","-6","","Clear"
"2002-02-11 14:00","2002","02","11","14:00","-2.6","","-9.7","","58","","20","","11","","25.0","","100.13","","","","-7","","Clear"
"2002-02-11 15:00","2002","02","11","15:00","-2.6","","-8.5","","64","","19","","15","","25.0","","100.01","","","","-8","","Mainly Clear"
"2002-02-11 16:00","2002","02","11","16:00","-2.8","","-8.9","","63","","21","","22","","25.0","","99.98","","","","-9","","Mostly Cloudy"
"2002-02-11 17:00","2002","02","11","17:00","-3.1","","-8.0","","69","","20","","22","","25.0","","99.81","","","","-9","","Mostly Cloudy"
"2002-02-11 18:00","2002","02","11","18:00","-2.6","","-7.6","","68","","20","","20","","24.1","","99.77","","","","-9","","Cloudy"
"2002-02-11 19:00","2002","02","11","19:00","-1.8","","-6.4","","71","","20","","22","","25.0","","99.61","","","","-8","","Cloudy"
"2002-02-11 20:00","2002","02","11","20:00","-1.3","","-5.7","","72","","20","","24","","25.0","","99.50","","","","-7","","Cloudy"
"2002-02-11 21:00","2002","02","11","21:00","-0.5","","-5.0","","72","","21","","28","","24.1","","99.39","","","","-7","","Cloudy"
"2002-02-11 22:00","2002","02","11","22:00","-0.4","","-4.7","","73","","20","","30","","24.1","","99.18","","","","-7","","Mostly Cloudy"
"2002-02-11 23:00","2002","02","11","23:00","0.0","","-4.5","","72","","21","","30","","24.1","","98.97","","","","-6","","Cloudy"
"2002-02-12 00:00","2002","02","12","00:00","0.3","","-4.2","","72","","22","","37","","24.1","","98.76","","","","","","Cloudy"
"2002-02-12 01:00","2002","02","12","01:00","1.1","","-4.5","","66","","23","","39","","24.1","","98.66","","","","","","Cloudy"
"2002-02-12 02:00","2002","02","12","02:00","1.2","","-5.5","","61","","23","","41","","24.1","","98.51","","","","","","Cloudy"
"2002-02-12 03:00","2002","02","12","03:00","1.8","","-5.7","","57","","23","","41","","24.1","","98.39","","","","","","Cloudy"
"2002-02-12 04:00","2002","02","12","04:00","1.8","","-5.3","","59","","23","","41","","24.1","","98.29","","","","","","Cloudy"
"2002-02-12 05:00","2002","02","12","05:00","1.9","","-5.0","","60","","23","","35","","24.1","","98.21","","","","","","Cloudy"
"2002-02-12 06:00","2002","02","12","06:00","1.9","","-4.8","","61","","24","","33","","24.1","","98.21","","","","","","Cloudy"
"2002-02-12 07:00","2002","02","12","07:00","2.0","","-4.5","","62","","24","","33","","24.1","","98.22","","","","","","Cloudy"
"2002-02-12 08:00","2002","02","12","08:00","2.2","","-3.9","","64","","24","","26","","24.1","","98.24","","","","","","Mostly Cloudy"
"2002-02-12 09:00","2002","02","12","09:00","2.4","","-3.4","","65","","24","","28","","24.1","","98.25","","","","","","Mostly Cloudy"
"2002-02-12 10:00","2002","02","12","10:00","2.9","","-2.8","","66","","24","","30","","24.1","","98.28","","","","","","Cloudy"
"2002-02-12 11:00","2002","02","12","11:00","3.8","","-2.6","","63","","25","","30","","24.1","","98.31","","","","","","Cloudy"
"2002-02-12 12:00","2002","02","12","12:00","4.5","","-2.4","","61","","26","","33","","24.1","","98.33","","","","","","Mostly Cloudy"
"2002-02-12 13:00","2002","02","12","13:00","5.6","","-3.1","","53","","27","","35","","25.0","","98.35","","","","","","Mostly Cloudy"
"2002-02-12 14:00","2002","02","12","14:00","5.9","","-4.4","","48","","28","","48","","25.0","","98.40","","","","","","Mainly Clear"
"2002-02-12 15:00","2002","02","12","15:00","6.6","","-5.0","","43","","28","","52","","25.0","","98.46","","","","","","Mainly Clear"
"2002-02-12 16:00","2002","02","12","16:00","4.6","","-8.4","","38","","29","","43","","25.0","","98.65","","","","","","Mainly Clear"
"2002-02-12 17:00","2002","02","12","17:00","4.3","","-8.8","","38","","30","","33","","25.0","","98.76","","","","","","Mostly Cloudy"
"2002-02-12 18:00","2002","02","12","18:00","3.7","","-8.0","","42","","27","","33","","25.0","","98.83","","","","","","Mostly Cloudy"
"2002-02-12 19:00","2002","02","12","19:00","3.2","","-6.0","","51","","28","","28","","24.1","","98.93","","","","","","Snow Showers"
"2002-02-12 20:00","2002","02","12","20:00","3.0","","-4.9","","56","","27","","22","","24.1","","98.95","","","","","","Snow Showers"
"2002-02-12 21:00","2002","02","12","21:00","2.5","","-3.5","","65","","31","","37","","19.3","","99.04","","","","","","Snow Showers"
"2002-02-12 22:00","2002","02","12","22:00","0.2","","-4.7","","70","","34","","26","","24.1","","99.24","","","","","","Snow Showers"
"2002-02-12 23:00","2002","02","12","23:00","-1.6","","-7.7","","63","","35","","24","","24.1","","99.39","","","","-8","","Snow Showers"
"2002-02-13 00:00","2002","02","13","00:00","-3.3","","-9.5","","62","","34","","28","","24.1","","99.56","","","","-11","","Snow Showers"
"2002-02-13 01:00","2002","02","13","01:00","-4.1","","-11.8","","55","","35","","19","","24.1","","99.69","","","","-10","","Snow Showers"
"2002-02-13 02:00","2002","02","13","02:00","-4.9","","-13.3","","52","","36","","24","","24.1","","99.83","","","","-12","","Snow Showers"
"2002-02-13 03:00","2002","02","13","03:00","-5.1","","-13.9","","50","","34","","22","","24.1","","99.94","","","","-12","","Snow Showers"
"2002-02-13 04:00","2002","02","13","04:00","-5.3","","-13.5","","52","","34","","15","","24.1","","100.03","","","","-11","","Snow Showers"
"2002-02-13 05:00","2002","02","13","05:00","-5.6","","-12.3","","59","","36","","19","","24.1","","100.10","","","","-12","","Snow Showers"
"2002-02-13 06:00","2002","02","13","06:00","-5.8","","-11.7","","63","","35","","15","","24.1","","100.20","","","","-12","","Snow Showers"
"2002-02-13 07:00","2002","02","13","07:00","-6.0","","-14.1","","53","","1","","13","","24.1","","100.27","","","","-11","","Snow Showers"
"2002-02-13 08:00","2002","02","13","08:00","-5.8","","-14.3","","51","","32","","13","","24.1","","100.36","","","","-11","","Snow Showers"
"2002-02-13 09:00","2002","02","13","09:00","-5.9","","-13.4","","55","","32","","13","","25.0","","100.42","","","","-11","","Snow Showers"
"2002-02-13 10:00","2002","02","13","10:00","-5.0","","-14.1","","49","","31","","4","","25.0","","100.45","","","","-7","","Mainly Clear"
"2002-02-13 11:00","2002","02","13","11:00","-3.7","","-13.8","","45","","26","","9","","25.0","","100.50","","","","-7","","Mainly Clear"
"2002-02-13 12:00","2002","02","13","12:00","-3.4","","-14.5","","42","","26","","6","","25.0","","100.48","","","","-6","","Clear"
"2002-02-13 13:00","2002","02","13","13:00","-3.0","","-14.6","","40","","21","","11","","25.0","","100.44","","","","-7","","Clear"
"2002-02-13 14:00","2002","02","13","14:00","-1.8","","-14.4","","38","","27","","9","","25.0","","100.39","","","","-5","","Clear"
"2002-02-13 15:00","2002","02","13","15:00","-1.0","","-14.4","","35","","25","","20","","25.0","","100.36","","","","-7","","Clear"
"2002-02-13 16:00","2002","02","13","16:00","-0.8","","-13.4","","38","","24","","17","","25.0","","100.32","","","","-6","","Mainly Clear"
"2002-02-13 17:00","2002","02","13","17:00","-0.9","","-13.5","","38","","24","","19","","25.0","","100.31","","","","-6","","Mainly Clear"
"2002-02-13 18:00","2002","02","13","18:00","-1.6","","-12.8","","42","","23","","19","","25.0","","100.30","","","","-7","","Mainly Clear"
"2002-02-13 19:00","2002","02","13","19:00","-2.1","","-10.7","","52","","23","","13","","25.0","","100.32","","","","-7","","Clear"
"2002-02-13 20:00","2002","02","13","20:00","-2.5","","-10.4","","55","","23","","15","","25.0","","100.32","","","","-7","","Clear"
"2002-02-13 21:00","2002","02","13","21:00","-2.9","","-9.5","","60","","22","","13","","25.0","","100.28","","","","-8","","Clear"
"2002-02-13 22:00","2002","02","13","22:00","-2.4","","-10.0","","56","","23","","17","","25.0","","100.27","","","","-8","","Clear"
"2002-02-13 23:00","2002","02","13","23:00","-2.4","","-10.0","","56","","23","","20","","25.0","","100.23","","","","-8","","Clear"
"2002-02-14 00:00","2002","02","14","00:00","-2.6","","-8.1","","66","","22","","15","","25.0","","100.20","","","","-8","","Clear"
"2002-02-14 01:00","2002","02","14","01:00","-2.3","","-9.4","","58","","23","","19","","25.0","","100.20","","","","-8","","Clear"
"2002-02-14 02:00","2002","02","14","02:00","-2.9","","-9.8","","59","","23","","15","","25.0","","100.16","","","","-8","","Clear"
"2002-02-14 03:00","2002","02","14","03:00","-3.2","","-9.7","","61","","24","","17","","25.0","","100.16","","","","-9","","Clear"
"2002-02-14 04:00","2002","02","14","04:00","-3.6","","-9.6","","63","","22","","17","","25.0","","100.13","","","","-9","","Mainly Clear"
"2002-02-14 05:00","2002","02","14","05:00","-3.6","","-9.3","","65","","22","","15","","25.0","","100.13","","","","-9","","Mainly Clear"
"2002-02-14 06:00","2002","02","14","06:00","-3.3","","-9.5","","62","","23","","17","","25.0","","100.13","","","","-9","","Mainly Clear"
"2002-02-14 07:00","2002","02","14","07:00","-3.4","","-9.2","","64","","23","","19","","24.1","","100.12","","","","-9","","Clear"
"2002-02-14 08:00","2002","02","14","08:00","-3.0","","-9.0","","63","","22","","22","","25.0","","100.13","","","","-9","","Clear"
"2002-02-14 09:00","2002","02","14","09:00","-1.6","","-8.7","","58","","23","","26","","25.0","","100.16","","","","-8","","Clear"
"2002-02-14 10:00","2002","02","14","10:00","0.1","","-7.9","","55","","23","","26","","25.0","","100.15","","","","","","Clear"
"2002-02-14 11:00","2002","02","14","11:00","2.1","","-7.2","","50","","23","","28","","25.0","","100.11","","","","","","Clear"
"2002-02-14 12:00","2002","02","14","12:00","3.4","","-6.2","","49","","23","","24","","25.0","","100.09","","","","","","Mainly Clear"
"2002-02-14 13:00","2002","02","14","13:00","4.4","","-6.7","","44","","21","","32","","25.0","","100.03","","","","","","Mainly Clear"
"2002-02-14 14:00","2002","02","14","14:00","5.0","","-6.4","","43","","21","","32","","25.0","","99.93","","","","","","Mostly Cloudy"
"2002-02-14 15:00","2002","02","14","15:00","5.3","","-7.0","","41","","21","","30","","25.0","","99.86","","","","","","Mainly Clear"
"2002-02-14 16:00","2002","02","14","16:00","5.3","","-6.6","","42","","22","","35","","24.1","","99.80","","","","","","Mostly Cloudy"
"2002-02-14 17:00","2002","02","14","17:00","4.4","","-6.0","","47","","21","","30","","25.0","","99.74","","","","","","Mostly Cloudy"
"2002-02-14 18:00","2002","02","14","18:00","3.3","","-5.9","","51","","21","","28","","25.0","","99.70","","","","","","Cloudy"
"2002-02-14 19:00","2002","02","14","19:00","2.8","","-5.7","","54","","21","","26","","25.0","","99.65","","","","","","Mostly Cloudy"
"2002-02-14 20:00","2002","02","14","20:00","2.9","","-6.1","","52","","21","","28","","25.0","","99.55","","","","","","Mostly Cloudy"
"2002-02-14 21:00","2002","02","14","21:00","2.3","","-5.6","","56","","21","","26","","25.0","","99.57","","","","","","Cloudy"
"2002-02-14 22:00","2002","02","14","22:00","1.8","","-5.4","","59","","21","","26","","25.0","","99.48","","","","","","Mostly Cloudy"
"2002-02-14 23:00","2002","02","14","23:00","1.8","","-5.1","","60","","22","","20","","25.0","","99.49","","","","","","Cloudy"
"2002-02-15 00:00","2002","02","15","00:00","2.2","","-5.6","","56","","22","","22","","25.0","","99.43","","","","","","Cloudy"
"2002-02-15 01:00","2002","02","15","01:00","1.9","","-5.2","","59","","22","","17","","25.0","","99.38","","","","","","Cloudy"
"2002-02-15 02:00","2002","02","15","02:00","1.5","","-5.0","","62","","22","","20","","25.0","","99.29","","","","","","Cloudy"
"2002-02-15 03:00","2002","02","15","03:00","1.8","","-5.4","","59","","22","","24","","25.0","","99.17","","","","","","Cloudy"
"2002-02-15 04:00","2002","02","15","04:00","1.7","","-5.3","","60","","22","","22","","25.0","","99.10","","","","","","Mostly Cloudy"
"2002-02-15 05:00","2002","02","15","05:00","1.7","","-4.9","","62","","21","","19","","25.0","","99.03","","","","","","Mostly Cloudy"
"2002-02-15 06:00","2002","02","15","06:00","2.0","","-4.6","","62","","22","","22","","25.0","","98.97","","","","","","Cloudy"
"2002-02-15 07:00","2002","02","15","07:00","2.1","","-4.2","","63","","21","","20","","24.1","","98.88","","","","","","Cloudy"
"2002-02-15 08:00","2002","02","15","08:00","2.6","","-3.9","","62","","22","","22","","24.1","","98.84","","","","","","Cloudy"
"2002-02-15 09:00","2002","02","15","09:00","3.1","","-3.7","","61","","22","","24","","24.1","","98.78","","","","","","Cloudy"
"2002-02-15 10:00","2002","02","15","10:00","3.5","","-3.7","","59","","22","","26","","24.1","","98.71","","","","","","Cloudy"
"2002-02-15 11:00","2002","02","15","11:00","4.4","","-3.6","","56","","23","","26","","24.1","","98.70","","","","","","Cloudy"
"2002-02-15 12:00","2002","02","15","12:00","6.2","","-2.8","","52","","24","","33","","24.1","","98.62","","","","","","Mainly Clear"
"2002-02-15 13:00","2002","02","15","13:00","8.1","","-1.7","","50","","23","","39","","24.1","","98.49","","","","","","Mainly Clear"
"2002-02-15 14:00","2002","02","15","14:00","8.6","","-1.9","","48","","24","","33","","24.1","","98.44","","","","","","Mostly Cloudy"
"2002-02-15 15:00","2002","02","15","15:00","9.0","","-2.3","","45","","25","","39","","24.1","","98.46","","","","","","Mostly Cloudy"
"2002-02-15 16:00","2002","02","15","16:00","8.4","","-2.9","","45","","26","","39","","25.0","","98.54","","","","","","Mostly Cloudy"
"2002-02-15 17:00","2002","02","15","17:00","7.0","","-2.0","","53","","29","","30","","19.3","","98.66","","","","","","Mostly Cloudy"
"2002-02-15 18:00","2002","02","15","18:00","5.8","","-1.9","","58","","27","","30","","19.3","","98.75","","","","","","Mainly Clear"
"2002-02-15 19:00","2002","02","15","19:00","4.8","","-1.7","","63","","27","","32","","19.3","","98.87","","","","","","Mostly Cloudy"
"2002-02-15 20:00","2002","02","15","20:00","4.5","","-1.3","","66","","27","","24","","16.1","","98.92","","","","","","Cloudy"
"2002-02-15 21:00","2002","02","15","21:00","4.2","","-1.0","","69","","27","","30","","16.1","","98.94","","","","","","Cloudy"
"2002-02-15 22:00","2002","02","15","22:00","3.9","","-0.8","","71","","26","","19","","12.9","","98.92","","","","","","Cloudy"
"2002-02-15 23:00","2002","02","15","23:00","3.7","","-1.2","","70","","27","","24","","11.3","","98.91","","","","","","Cloudy"
"2002-02-16 00:00","2002","02","16","00:00","3.3","","-1.6","","70","","27","","20","","16.1","","98.93","","","","","","Cloudy"
"2002-02-16 01:00","2002","02","16","01:00","3.1","","-1.9","","70","","26","","24","","12.9","","98.93","","","","","","Cloudy"
"2002-02-16 02:00","2002","02","16","02:00","2.4","","-2.5","","70","","26","","19","","16.1","","98.92","","","","","","Mostly Cloudy"
"2002-02-16 03:00","2002","02","16","03:00","1.4","","-2.6","","75","","23","","13","","16.1","","98.85","","","","","","Cloudy"
"2002-02-16 04:00","2002","02","16","04:00","1.5","","-2.7","","74","","23","","20","","16.1","","98.78","","","","","","Cloudy"
"2002-02-16 05:00","2002","02","16","05:00","1.1","","-2.8","","75","","23","","19","","16.1","","98.73","","","","","","Cloudy"
"2002-02-16 06:00","2002","02","16","06:00","1.3","","-2.8","","74","","23","","26","","16.1","","98.69","","","","","","Snow Showers"
"2002-02-16 07:00","2002","02","16","07:00","1.0","","-2.1","","80","","22","","20","","6.4","","98.61","","","","","","Snow Showers"
"2002-02-16 08:00","2002","02","16","08:00","1.0","","-1.8","","82","","21","","20","","24.1","","98.53","","","","","","Cloudy"
"2002-02-16 09:00","2002","02","16","09:00","1.4","","-1.9","","79","","22","","24","","24.1","","98.45","","","","","","Cloudy"
"2002-02-16 10:00","2002","02","16","10:00","1.9","","-2.2","","74","","23","","20","","24.1","","98.39","","","","","","Cloudy"
"2002-02-16 11:00","2002","02","16","11:00","2.5","","-2.2","","71","","22","","19","","16.1","","98.31","","","","","","Snow Showers"
"2002-02-16 12:00","2002","02","16","12:00","0.9","","-0.9","","88","","24","","26","","1.0","","98.26","","","","","","Snow Showers"
"2002-02-16 13:00","2002","02","16","13:00","0.6","","-0.6","","92","","25","","15","","1.2","","98.18","","","","","","Snow Showers"
"2002-02-16 14:00","2002","02","16","14:00","0.8","","-0.3","","92","","25","","11","","1.6","","98.15","","","","","","Snow"
"2002-02-16 15:00","2002","02","16","15:00","2.0","","0.6","","90","","26","","20","","8.0","","98.16","","","","","","Rain Showers"
"2002-02-16 16:00","2002","02","16","16:00","2.2","","0.6","","89","","27","","19","","6.4","","98.23","","","","","","Rain,Fog"
"2002-02-16 17:00","2002","02","16","17:00","2.3","","0.5","","88","","31","","20","","12.9","","98.36","","","","","","Rain"
"2002-02-16 18:00","2002","02","16","18:00","2.2","","-0.5","","82","","33","","22","","12.9","","98.48","","","","","","Mostly Cloudy"
"2002-02-16 19:00","2002","02","16","19:00","1.9","","-0.7","","83","","32","","15","","11.3","","98.61","","","","","","Cloudy"
"2002-02-16 20:00","2002","02","16","20:00","2.0","","-0.3","","85","","29","","15","","11.3","","98.70","","","","","","Rain"
"2002-02-16 21:00","2002","02","16","21:00","0.5","","-1.3","","88","","33","","19","","12.9","","98.79","","","","","","Snow"
"2002-02-16 22:00","2002","02","16","22:00","0.9","","-3.5","","72","","32","","24","","25.0","","98.85","","","","","","Mainly Clear"
"2002-02-16 23:00","2002","02","16","23:00","0.2","","-4.0","","73","","33","","20","","25.0","","98.89","","","","","","Mainly Clear"
"2002-02-17 00:00","2002","02","17","00:00","-0.7","","-5.6","","69","","32","","19","","25.0","","98.91","","","","-6","","Clear"
"2002-02-17 01:00","2002","02","17","01:00","-0.8","","-7.0","","63","","33","","20","","25.0","","98.96","","","","-6","","Clear"
"2002-02-17 02:00","2002","02","17","02:00","-1.6","","-7.8","","63","","32","","22","","25.0","","98.99","","","","-8","","Mainly Clear"
"2002-02-17 03:00","2002","02","17","03:00","-1.9","","-7.6","","65","","33","","22","","25.0","","99.06","","","","-8","","Mostly Cloudy"
"2002-02-17 04:00","2002","02","17","04:00","-2.5","","-8.9","","61","","33","","20","","25.0","","99.11","","","","-8","","Mostly Cloudy"
"2002-02-17 05:00","2002","02","17","05:00","-2.6","","-8.9","","62","","34","","24","","25.0","","99.18","","","","-9","","Mostly Cloudy"
"2002-02-17 06:00","2002","02","17","06:00","-2.6","","-9.0","","61","","33","","24","","25.0","","99.27","","","","-9","","Cloudy"
"2002-02-17 07:00","2002","02","17","07:00","-3.1","","-8.8","","65","","34","","17","","25.0","","99.38","","","","-9","","Mainly Clear"
"2002-02-17 08:00","2002","02","17","08:00","-2.8","","-8.3","","66","","34","","26","","24.1","","99.50","","","","-10","","Snow Showers"
"2002-02-17 09:00","2002","02","17","09:00","-2.5","","-8.3","","64","","35","","22","","24.1","","99.61","","","","-9","","Mainly Clear"
"2002-02-17 10:00","2002","02","17","10:00","-2.5","","-8.1","","65","","36","","32","","24.1","","99.71","","","","-10","","Snow Showers"
"2002-02-17 11:00","2002","02","17","11:00","-1.9","","-9.3","","57","","1","","24","","24.1","","99.78","","","","-8","","Snow Showers"
"2002-02-17 12:00","2002","02","17","12:00","-1.8","","-7.9","","63","","34","","20","","24.1","","99.86","","","","-8","","Mostly Cloudy"
"2002-02-17 13:00","2002","02","17","13:00","-1.3","","-8.9","","56","","34","","19","","24.1","","99.90","","","","-7","","Mostly Cloudy"
"2002-02-17 14:00","2002","02","17","14:00","-1.2","","-9.4","","54","","36","","19","","24.1","","99.93","","","","-7","","Mostly Cloudy"
"2002-02-17 15:00","2002","02","17","15:00","-1.3","","-10.0","","52","","36","","22","","24.1","","99.97","","","","-7","","Mostly Cloudy"
"2002-02-17 16:00","2002","02","17","16:00","-0.7","","-10.5","","47","","36","","22","","24.1","","100.08","","","","-6","","Mostly Cloudy"
"2002-02-17 17:00","2002","02","17","17:00","-1.3","","-11.1","","47","","33","","17","","24.1","","100.15","","","","-6","","Mainly Clear"
"2002-02-17 18:00","2002","02","17","18:00","-2.1","","-10.8","","51","","35","","15","","24.1","","100.18","","","","-7","","Mainly Clear"
"2002-02-17 19:00","2002","02","17","19:00","-3.1","","-10.8","","55","","36","","6","","25.0","","100.25","","","","-6","","Clear"
"2002-02-17 20:00","2002","02","17","20:00","-3.9","","-8.9","","68","","5","","11","","25.0","","100.31","","","","-8","","Mainly Clear"
"2002-02-17 21:00","2002","02","17","21:00","-4.2","","-9.4","","67","","6","","9","","25.0","","100.29","","","","-8","","Clear"
"2002-02-17 22:00","2002","02","17","22:00","-4.6","","-9.4","","69","","9","","7","","25.0","","100.32","","","","-8","","Clear"
"2002-02-17 23:00","2002","02","17","23:00","-5.1","","-8.8","","75","","15","","4","","25.0","","100.36","","","","-7","","Clear"
"2002-02-18 00:00","2002","02","18","00:00","-5.4","","-9.3","","74","","16","","7","","25.0","","100.36","","","","-9","","Clear"
"2002-02-18 01:00","2002","02","18","01:00","-6.0","","-9.6","","76","","17","","7","","25.0","","100.36","","","","-9","","Clear"
"2002-02-18 02:00","2002","02","18","02:00","-6.3","","-10.1","","74","","18","","9","","25.0","","100.38","","","","-11","","Clear"
"2002-02-18 03:00","2002","02","18","03:00","-6.0","","-10.0","","73","","15","","6","","25.0","","100.36","","","","-9","","Clear"
"2002-02-18 04:00","2002","02","18","04:00","-6.2","","-9.4","","78","","15","","6","","25.0","","100.38","","","","-9","","Clear"
"2002-02-18 05:00","2002","02","18","05:00","-6.5","","-9.2","","81","","","","0","","25.0","","100.39","","","","","","Clear"
"2002-02-18 06:00","2002","02","18","06:00","-6.3","","-8.5","","84","","20","","6","","25.0","","100.40","","","","-9","","Clear"
"2002-02-18 07:00","2002","02","18","07:00","-5.5","","-7.8","","84","","18","","6","","25.0","","100.48","","","","-8","","Mainly Clear"
"2002-02-18 08:00","2002","02","18","08:00","-3.8","","-6.9","","79","","18","","7","","24.1","","100.48","","","","-7","","Mostly Cloudy"
"2002-02-18 09:00","2002","02","18","09:00","-2.2","","-5.9","","76","","19","","15","","24.1","","100.45","","","","-7","","Mostly Cloudy"
"2002-02-18 10:00","2002","02","18","10:00","-0.9","","-5.3","","72","","20","","22","","24.1","","100.46","","","","-7","","Mostly Cloudy"
"2002-02-18 11:00","2002","02","18","11:00","0.8","","-5.4","","63","","20","","24","","24.1","","100.40","","","","","","Mostly Cloudy"
"2002-02-18 12:00","2002","02","18","12:00","1.9","","-5.2","","59","","20","","24","","24.1","","100.36","","","","","","Mostly Cloudy"
"2002-02-18 13:00","2002","02","18","13:00","2.2","","-4.6","","61","","20","","30","","24.1","","100.25","","","","","","Mostly Cloudy"
"2002-02-18 14:00","2002","02","18","14:00","2.4","","-4.6","","60","","20","","28","","24.1","","100.16","","","","","","Mostly Cloudy"
"2002-02-18 15:00","2002","02","18","15:00","3.2","","-4.4","","57","","20","","28","","24.1","","100.12","","","","","","Mostly Cloudy"
"2002-02-18 16:00","2002","02","18","16:00","4.0","","-4.6","","53","","21","","28","","19.3","","100.11","","","","","","Mostly Cloudy"
"2002-02-18 17:00","2002","02","18","17:00","4.0","","-4.1","","55","","20","","24","","16.1","","100.08","","","","","","Mostly Cloudy"
"2002-02-18 18:00","2002","02","18","18:00","2.7","","-4.0","","61","","19","","17","","16.1","","100.05","","","","","","Mostly Cloudy"
"2002-02-18 19:00","2002","02","18","19:00","2.1","","-4.1","","63","","17","","13","","24.1","","100.00","","","","","","Mostly Cloudy"
"2002-02-18 20:00","2002","02","18","20:00","1.8","","-3.8","","66","","18","","13","","24.1","","99.99","","","","","","Mostly Cloudy"
"2002-02-18 21:00","2002","02","18","21:00","1.1","","-4.0","","69","","19","","11","","25.0","","99.96","","","","","","Mainly Clear"
"2002-02-18 22:00","2002","02","18","22:00","2.0","","-5.0","","60","","19","","17","","25.0","","99.92","","","","","","Mainly Clear"
"2002-02-18 23:00","2002","02","18","23:00","1.9","","-5.3","","59","","20","","19","","25.0","","99.87","","","","","","Mostly Cloudy"
"2002-02-19 00:00","2002","02","19","00:00","1.1","","-5.0","","64","","19","","11","","25.0","","99.86","","","","","","Mainly Clear"
"2002-02-19 01:00","2002","02","19","01:00","0.8","","-4.6","","67","","18","","11","","25.0","","99.82","","","","","","Mostly Cloudy"
"2002-02-19 02:00","2002","02","19","02:00","1.1","","-4.2","","68","","18","","11","","25.0","","99.79","","","","","","Cloudy"
"2002-02-19 03:00","2002","02","19","03:00","0.9","","-4.2","","69","","18","","6","","25.0","","99.77","","","","","","Mostly Cloudy"
"2002-02-19 04:00","2002","02","19","04:00","0.3","","-4.4","","71","","15","","7","","25.0","","99.72","","","","","","Mostly Cloudy"
"2002-02-19 05:00","2002","02","19","05:00","0.2","","-4.3","","72","","14","","6","","25.0","","99.69","","","","","","Mostly Cloudy"
"2002-02-19 06:00","2002","02","19","06:00","0.2","","-3.9","","74","","16","","7","","25.0","","99.69","","","","","","Mostly Cloudy"
"2002-02-19 07:00","2002","02","19","07:00","0.0","","-4.2","","73","","17","","11","","24.1","","99.66","","","","-4","","Mostly Cloudy"
"2002-02-19 08:00","2002","02","19","08:00","1.0","","-4.5","","67","","17","","9","","24.1","","99.61","","","","","","Mostly Cloudy"
"2002-02-19 09:00","2002","02","19","09:00","2.3","","-4.7","","60","","20","","11","","24.1","","99.62","","","","","","Cloudy"
"2002-02-19 10:00","2002","02","19","10:00","3.6","","-4.2","","57","","19","","11","","24.1","","99.54","","","","","","Cloudy"
"2002-02-19 11:00","2002","02","19","11:00","4.5","","-4.8","","51","","19","","15","","24.1","","99.50","","","","","","Mostly Cloudy"
"2002-02-19 12:00","2002","02","19","12:00","5.8","","-3.4","","52","","21","","15","","24.1","","99.44","","","","","","Cloudy"
"2002-02-19 13:00","2002","02","19","13:00","4.4","","-1.3","","66","","20","","17","","24.1","","99.47","","","","","","Rain Showers"
"2002-02-19 14:00","2002","02","19","14:00","4.0","","0.3","","77","","18","","17","","24.1","","99.27","","","","","","Rain"
"2002-02-19 15:00","2002","02","19","15:00","4.7","","0.9","","76","","18","","19","","24.1","","99.21","","","","","","Rain"
"2002-02-19 16:00","2002","02","19","16:00"
"2002-02-19 17:00","2002","02","19","17:00","6.1","","1.5","","72","","18","","19","","19.3","","99.13","","","","","","Cloudy"
"2002-02-19 18:00","2002","02","19","18:00","5.6","","1.1","","73","","18","","13","","12.9","","99.10","","","","","","Rain"
"2002-02-19 19:00","2002","02","19","19:00","5.7","","0.6","","70","","17","","15","","19.3","","99.07","","","","","","Rain"
"2002-02-19 20:00","2002","02","19","20:00","5.5","","1.6","","76","","20","","9","","24.1","","99.09","","","","","","Cloudy"
"2002-02-19 21:00","2002","02","19","21:00","4.8","","2.3","","84","","20","","13","","12.9","","99.07","","","","","","Rain Showers"
"2002-02-19 22:00","2002","02","19","22:00","4.5","","2.6","","87","","17","","9","","19.3","","98.96","","","","","","Cloudy"
"2002-02-19 23:00","2002","02","19","23:00","4.8","","2.9","","87","","17","","13","","19.3","","98.89","","","","","","Cloudy"
"2002-02-20 00:00","2002","02","20","00:00","5.2","","2.6","","83","","19","","9","","19.3","","98.79","","","","","","Rain"
"2002-02-20 01:00","2002","02","20","01:00","5.2","","2.4","","82","","14","","6","","19.3","","98.72","","","","","","Rain"
"2002-02-20 02:00","2002","02","20","02:00","5.7","","1.3","","73","","18","","17","","11.3","","98.66","","","","","","Rain"
"2002-02-20 03:00","2002","02","20","03:00","5.8","","1.4","","73","","18","","22","","12.9","","98.54","","","","","","Rain"
"2002-02-20 04:00","2002","02","20","04:00","5.3","","3.8","","90","","20","","26","","9.7","","98.47","","","","","","Rain,Fog"
"2002-02-20 05:00","2002","02","20","05:00","5.9","","4.7","","92","","20","","28","","8.0","","98.43","","","","","","Rain,Fog"
"2002-02-20 06:00","2002","02","20","06:00","6.2","","4.6","","89","","19","","26","","11.3","","98.38","","","","","","Rain"
"2002-02-20 07:00","2002","02","20","07:00","6.1","","5.1","","93","","18","","24","","8.0","","98.28","","","","","","Rain,Fog"
"2002-02-20 08:00","2002","02","20","08:00","6.2","","5.1","","93","","18","","22","","9.7","","98.18","","","","","","Fog"
"2002-02-20 09:00","2002","02","20","09:00","6.6","","4.9","","89","","18","","22","","11.3","","98.09","","","","","","Rain Showers"
"2002-02-20 10:00","2002","02","20","10:00","6.2","","4.7","","90","","18","","13","","24.1","","97.99","","","","","","Rain"
"2002-02-20 11:00","2002","02","20","11:00","7.5","","4.4","","81","","19","","22","","24.1","","97.88","","","","","","Rain"
"2002-02-20 12:00","2002","02","20","12:00","7.8","","5.0","","82","","19","","22","","24.1","","97.76","","","","","","Rain Showers"
"2002-02-20 13:00","2002","02","20","13:00","8.0","","5.8","","86","","20","","28","","11.3","","97.62","","","","","","Rain Showers"
"2002-02-20 14:00","2002","02","20","14:00","8.2","","7.0","","92","","21","","28","","4.8","","97.55","","","","","","Rain,Fog"
"2002-02-20 15:00","2002","02","20","15:00","8.8","","7.3","","90","","22","","37","","24.1","","97.50","","","","","","Mostly Cloudy"
"2002-02-20 16:00","2002","02","20","16:00","10.1","","8.0","","87","","20","","30","","24.1","","97.47","","","","","","Mostly Cloudy"
"2002-02-20 17:00","2002","02","20","17:00","9.1","","7.0","","87","","22","","30","","19.3","","97.52","","","","","","Mostly Cloudy"
"2002-02-20 18:00","2002","02","20","18:00","8.1","","5.7","","85","","22","","24","","24.1","","97.57","","","","","","Mainly Clear"
"2002-02-20 19:00","2002","02","20","19:00","7.8","","5.7","","87","","21","","22","","25.0","","97.61","","","","","","Mainly Clear"
"2002-02-20 20:00","2002","02","20","20:00","8.7","","5.3","","79","","25","","26","","25.0","","97.66","","","","","","Mostly Cloudy"
"2002-02-20 21:00","2002","02","20","21:00","8.4","","3.0","","69","","25","","43","","25.0","","97.73","","","","","","Mostly Cloudy"
"2002-02-20 22:00","2002","02","20","22:00","7.6","","3.6","","76","","24","","30","","24.1","","97.74","","","","","","Cloudy"
"2002-02-20 23:00","2002","02","20","23:00","6.8","","3.4","","79","","25","","26","","19.3","","97.79","","","","","","Cloudy"
"2002-02-21 00:00","2002","02","21","00:00","5.9","","2.6","","79","","25","","35","","19.3","","97.85","","","","","","Cloudy"
"2002-02-21 01:00","2002","02","21","01:00","5.1","","1.1","","75","","24","","39","","24.1","","97.89","","","","","","Cloudy"
"2002-02-21 02:00","2002","02","21","02:00","4.5","","0.9","","77","","25","","32","","24.1","","97.95","","","","","","Cloudy"
"2002-02-21 03:00","2002","02","21","03:00","3.4","","1.3","","86","","23","","24","","9.7","","97.98","","","","","","Rain,Fog"
"2002-02-21 04:00","2002","02","21","04:00","3.3","","1.0","","85","","23","","24","","16.1","","97.99","","","","","","Rain"
"2002-02-21 05:00","2002","02","21","05:00","3.7","","0.2","","78","","24","","28","","19.3","","98.03","","","","","","Rain"
"2002-02-21 06:00","2002","02","21","06:00","2.8","","0.4","","84","","25","","26","","16.1","","98.10","","","","","","Rain"
"2002-02-21 07:00","2002","02","21","07:00","2.6","","0.2","","84","","24","","22","","16.1","","98.12","","","","","","Rain"
"2002-02-21 08:00","2002","02","21","08:00","2.6","","-0.9","","78","","24","","32","","19.3","","98.19","","","","","","Rain Showers"
"2002-02-21 09:00","2002","02","21","09:00","1.9","","0.2","","88","","22","","26","","9.7","","98.24","","","","","","Rain Showers,Snow Showers"
"2002-02-21 10:00","2002","02","21","10:00","1.7","","0.2","","90","","23","","28","","8.0","","98.27","","","","","","Snow Showers"
"2002-02-21 11:00","2002","02","21","11:00","2.2","","-0.2","","84","","24","","30","","8.0","","98.31","","","","","","Snow Showers"
"2002-02-21 12:00","2002","02","21","12:00","2.1","","0.0","","86","","24","","30","","8.0","","98.38","","","","","","Snow Showers"
"2002-02-21 13:00","2002","02","21","13:00","2.2","","0.1","","86","","25","","28","","8.0","","98.41","","","","","","Snow Showers"
"2002-02-21 14:00","2002","02","21","14:00","2.3","","0.1","","85","","27","","26","","9.7","","98.47","","","","","","Snow Showers"
"2002-02-21 15:00","2002","02","21","15:00","1.5","","-0.6","","86","","27","","26","","2.4","","98.59","","","","","","Snow Showers"
"2002-02-21 16:00","2002","02","21","16:00","1.3","","-0.5","","88","","29","","26","","3.2","","98.70","","","","","","Snow Showers"
"2002-02-21 17:00","2002","02","21","17:00","0.7","","-1.2","","87","","30","","20","","2.4","","98.84","","","","","","Snow Showers"
"2002-02-21 18:00","2002","02","21","18:00","0.1","","-1.7","","88","","33","","20","","2.8","","98.94","","","","","","Snow Showers,Fog"
"2002-02-21 19:00","2002","02","21","19:00","-0.4","","-2.2","","88","","35","","13","","2.8","","99.03","","","","-5","","Snow,Fog"
"2002-02-21 20:00","2002","02","21","20:00","-0.5","","-3.3","","81","","35","","15","","8.0","","99.09","","","","-5","","Snow"
"2002-02-21 21:00","2002","02","21","21:00","-0.9","","-4.1","","79","","35","","20","","4.8","","99.14","","","","-6","","Snow"
"2002-02-21 22:00","2002","02","21","22:00","-1.0","","-4.5","","77","","35","","19","","19.3","","99.20","","","","-6","","Snow"
"2002-02-21 23:00","2002","02","21","23:00","-1.1","","-5.0","","75","","33","","17","","24.1","","99.22","","","","-6","","Snow"
"2002-02-22 00:00","2002","02","22","00:00","-1.2","","-4.7","","77","","33","","17","","19.3","","99.23","","","","-6","","Snow"
"2002-02-22 01:00","2002","02","22","01:00","-1.4","","-4.8","","78","","34","","22","","24.1","","99.27","","","","-7","","Snow"
"2002-02-22 02:00","2002","02","22","02:00","-1.5","","-4.6","","79","","33","","20","","24.1","","99.32","","","","-7","","Snow"
"2002-02-22 03:00","2002","02","22","03:00","-1.8","","-5.2","","78","","34","","22","","19.3","","99.35","","","","-8","","Snow"
"2002-02-22 04:00","2002","02","22","04:00","-2.0","","-5.7","","76","","34","","20","","24.1","","99.37","","","","-8","","Snow"
"2002-02-22 05:00","2002","02","22","05:00","-2.5","","-6.3","","75","","34","","22","","19.3","","99.46","","","","-9","","Snow"
"2002-02-22 06:00","2002","02","22","06:00","-3.0","","-6.8","","75","","34","","22","","11.3","","99.53","","","","-9","","Snow"
"2002-02-22 07:00","2002","02","22","07:00","-3.4","","-6.6","","78","","33","","15","","9.7","","99.57","","","","-9","","Snow"
"2002-02-22 08:00","2002","02","22","08:00","-3.7","","-8.3","","70","","33","","20","","24.1","","99.66","","","","-10","","Snow Showers"
"2002-02-22 09:00","2002","02","22","09:00","-3.4","","-8.2","","69","","34","","20","","24.1","","99.73","","","","-10","","Snow"
"2002-02-22 10:00","2002","02","22","10:00","-3.2","","-8.6","","66","","34","","17","","24.1","","99.76","","","","-9","","Cloudy"
"2002-02-22 11:00","2002","02","22","11:00","-3.0","","-8.1","","68","","31","","15","","24.1","","99.78","","","","-8","","Mostly Cloudy"
"2002-02-22 12:00","2002","02","22","12:00","-2.5","","-8.5","","63","","35","","13","","24.1","","99.79","","","","-7","","Mostly Cloudy"
"2002-02-22 13:00","2002","02","22","13:00","-2.1","","-8.3","","62","","34","","9","","24.1","","99.76","","","","-6","","Mostly Cloudy"
"2002-02-22 14:00","2002","02","22","14:00","-0.3","","-7.6","","58","","36","","15","","24.1","","99.74","","","","-5","","Mostly Cloudy"
"2002-02-22 15:00","2002","02","22","15:00","0.0","","-7.6","","57","","","","0","","25.0","","99.71","","","","","","Mainly Clear"
"2002-02-22 16:00","2002","02","22","16:00","-0.3","","-7.0","","61","","6","","9","","25.0","","99.74","","","","-3","","Clear"
"2002-02-22 17:00","2002","02","22","17:00","-1.2","","-6.9","","65","","9","","17","","25.0","","99.77","","","","-6","","Clear"
"2002-02-22 18:00","2002","02","22","18:00","-1.8","","-7.3","","66","","11","","11","","25.0","","99.84","","","","-6","","Clear"
"2002-02-22 19:00","2002","02","22","19:00","-2.2","","-7.1","","69","","7","","9","","25.0","","99.92","","","","-6","","Clear"
"2002-02-22 20:00","2002","02","22","20:00","-2.8","","-7.1","","72","","5","","13","","25.0","","99.94","","","","-7","","Clear"
"2002-02-22 21:00","2002","02","22","21:00","-3.8","","-8.1","","72","","4","","9","","25.0","","99.98","","","","-8","","Clear"
"2002-02-22 22:00","2002","02","22","22:00","-4.1","","-8.6","","71","","4","","9","","25.0","","99.98","","","","-8","","Clear"
"2002-02-22 23:00","2002","02","22","23:00","-4.1","","-8.5","","71","","6","","4","","25.0","","99.95","","","","-6","","Clear"
"2002-02-23 00:00","2002","02","23","00:00","-4.8","","-7.9","","79","","","","0","","25.0","","99.93","","","","","","Mainly Clear"
"2002-02-23 01:00","2002","02","23","01:00","-5.2","","-8.0","","81","","","","0","","25.0","","99.93","","","","","","Clear"
"2002-02-23 02:00","2002","02","23","02:00","-5.6","","-7.9","","84","","34","","4","","24.1","","99.95","","","","-7","","Clear"
"2002-02-23 03:00","2002","02","23","03:00","-6.0","","-7.9","","86","","","","0","","24.1","","99.92","","","","","","Clear"
"2002-02-23 04:00","2002","02","23","04:00","-6.3","","-7.9","","88","","","","0","","24.1","","99.92","","","","","","Mainly Clear"
"2002-02-23 05:00","2002","02","23","05:00","-6.1","","-8.5","","83","","","","0","","24.1","","99.94","","","","","","Mainly Clear"
"2002-02-23 06:00","2002","02","23","06:00","-6.1","","-8.4","","84","","18","","4","","24.1","","99.95","","","","-8","","Mainly Clear"
"2002-02-23 07:00","2002","02","23","07:00","-5.7","","-7.5","","87","","17","","4","","19.3","","99.93","","","","-8","","Mainly Clear"
"2002-02-23 08:00","2002","02","23","08:00","-4.7","","-7.2","","83","","16","","7","","24.1","","99.96","","","","-8","","Mainly Clear"
"2002-02-23 09:00","2002","02","23","09:00","-2.7","","-7.1","","72","","16","","7","","24.1","","100.01","","","","-6","","Mainly Clear"
"2002-02-23 10:00","2002","02","23","10:00","-1.4","","-6.4","","69","","16","","9","","24.1","","100.06","","","","-5","","Mainly Clear"
"2002-02-23 11:00","2002","02","23","11:00","-1.0","","-6.4","","67","","18","","13","","24.1","","100.04","","","","-5","","Mostly Cloudy"
"2002-02-23 12:00","2002","02","23","12:00","0.0","","-6.6","","61","","18","","13","","24.1","","99.97","","","","-4","","Mainly Clear"
"2002-02-23 13:00","2002","02","23","13:00","0.4","","-5.9","","63","","23","","15","","24.1","","99.93","","","","","","Mainly Clear"
"2002-02-23 14:00","2002","02","23","14:00","1.2","","-5.3","","62","","19","","17","","24.1","","99.86","","","","","","Mainly Clear"
"2002-02-23 15:00","2002","02","23","15:00","1.3","","-5.9","","59","","18","","15","","24.1","","99.77","","","","","","Clear"
"2002-02-23 16:00","2002","02","23","16:00","1.3","","-5.0","","63","","19","","20","","24.1","","99.72","","","","","","Clear"
"2002-02-23 17:00","2002","02","23","17:00","1.6","","-5.4","","60","","21","","15","","24.1","","99.75","","","","","","Clear"
"2002-02-23 18:00","2002","02","23","18:00","0.6","","-4.5","","69","","17","","13","","24.1","","99.69","","","","","","Clear"
"2002-02-23 19:00","2002","02","23","19:00","-0.4","","-3.8","","78","","16","","15","","24.1","","99.73","","","","-5","","Mainly Clear"
"2002-02-23 20:00","2002","02","23","20:00","-0.9","","-3.6","","82","","16","","9","","24.1","","99.78","","","","-4","","Mainly Clear"
"2002-02-23 21:00","2002","02","23","21:00","-0.7","","-3.3","","83","","16","","13","","24.1","","99.73","","","","-5","","Mostly Cloudy"
"2002-02-23 22:00","2002","02","23","22:00","0.0","","-3.0","","80","","16","","19","","24.1","","99.71","","","","-5","","Mostly Cloudy"
"2002-02-23 23:00","2002","02","23","23:00","0.4","","-2.9","","78","","18","","15","","24.1","","99.68","","","","","","Mostly Cloudy"
"2002-02-24 00:00","2002","02","24","00:00","0.5","","-3.2","","76","","18","","11","","24.1","","99.69","","","","","","Mostly Cloudy"
"2002-02-24 01:00","2002","02","24","01:00","1.1","","-3.2","","73","","20","","13","","24.1","","99.70","","","","","","Mostly Cloudy"
"2002-02-24 02:00","2002","02","24","02:00","1.5","","-3.0","","72","","21","","19","","24.1","","99.69","","","","","","Mostly Cloudy"
"2002-02-24 03:00","2002","02","24","03:00","1.4","","-3.0","","72","","22","","19","","24.1","","99.66","","","","","","Mostly Cloudy"
"2002-02-24 04:00","2002","02","24","04:00","1.3","","-2.8","","74","","22","","17","","19.3","","99.67","","","","","","Mostly Cloudy"
"2002-02-24 05:00","2002","02","24","05:00"
"2002-02-24 06:00","2002","02","24","06:00","0.4","","-2.8","","79","","20","","13","","19.3","","99.65","","","","","","Clear"
"2002-02-24 07:00","2002","02","24","07:00","0.4","","-3.0","","78","","21","","15","","16.1","","99.70","","","","","","Mainly Clear"
"2002-02-24 08:00","2002","02","24","08:00","1.0","","-3.0","","75","","21","","15","","24.1","","99.72","","","","","","Mainly Clear"
"2002-02-24 09:00","2002","02","24","09:00","2.9","","-2.5","","68","","22","","22","","24.1","","99.77","","","","","","Mostly Cloudy"
"2002-02-24 10:00","2002","02","24","10:00","4.1","","-2.4","","63","","22","","24","","24.1","","99.77","","","","","","Mainly Clear"
"2002-02-24 11:00","2002","02","24","11:00","5.6","","-1.8","","59","","20","","20","","24.1","","99.74","","","","","","Mostly Cloudy"
"2002-02-24 12:00","2002","02","24","12:00","7.2","","-0.1","","60","","20","","22","","24.1","","99.68","","","","","","Mainly Clear"
"2002-02-24 13:00","2002","02","24","13:00","8.4","","-0.7","","53","","21","","26","","24.1","","99.61","","","","","","Mainly Clear"
"2002-02-24 14:00","2002","02","24","14:00","9.8","","-0.6","","48","","21","","30","","24.1","","99.55","","","","","","Mainly Clear"
"2002-02-24 15:00","2002","02","24","15:00","9.5","","-0.4","","50","","20","","24","","24.1","","99.51","","","","","","Mostly Cloudy"
"2002-02-24 16:00","2002","02","24","16:00","9.7","","0.0","","51","","20","","24","","24.1","","99.49","","","","","","Mostly Cloudy"
"2002-02-24 17:00","2002","02","24","17:00","10.4","","0.3","","50","","20","","26","","24.1","","99.43","","","","","","Mainly Clear"
"2002-02-24 18:00","2002","02","24","18:00","8.6","","0.1","","55","","19","","22","","24.1","","99.37","","","","","","Mainly Clear"
"2002-02-24 19:00","2002","02","24","19:00","7.3","","-0.3","","58","","19","","19","","24.1","","99.36","","","","","","Mostly Cloudy"
"2002-02-24 20:00","2002","02","24","20:00","7.7","","-1.4","","52","","20","","26","","24.1","","99.36","","","","","","Mostly Cloudy"
"2002-02-24 21:00","2002","02","24","21:00","7.4","","-1.8","","52","","20","","24","","25.0","","99.32","","","","","","Mostly Cloudy"
"2002-02-24 22:00","2002","02","24","22:00","6.8","","-1.0","","57","","19","","20","","25.0","","99.25","","","","","","Mostly Cloudy"
"2002-02-24 23:00","2002","02","24","23:00","5.8","","-1.5","","59","","20","","20","","25.0","","99.23","","","","","","Mostly Cloudy"
"2002-02-25 00:00","2002","02","25","00:00","4.7","","-1.9","","62","","19","","17","","24.1","","99.13","","","","","","Mostly Cloudy"
"2002-02-25 01:00","2002","02","25","01:00","5.2","","-2.4","","58","","23","","17","","24.1","","99.11","","","","","","Mostly Cloudy"
"2002-02-25 02:00","2002","02","25","02:00","4.9","","-2.4","","59","","20","","15","","24.1","","99.09","","","","","","Mostly Cloudy"
"2002-02-25 03:00","2002","02","25","03:00","5.1","","-2.5","","58","","20","","17","","24.1","","99.01","","","","","","Mostly Cloudy"
"2002-02-25 04:00","2002","02","25","04:00","5.1","","-3.2","","55","","20","","19","","24.1","","98.95","","","","","","Mostly Cloudy"
"2002-02-25 05:00","2002","02","25","05:00","5.0","","-3.2","","55","","20","","24","","24.1","","98.88","","","","","","Mostly Cloudy"
"2002-02-25 06:00","2002","02","25","06:00","5.5","","-3.2","","53","","21","","24","","24.1","","98.84","","","","","","Mostly Cloudy"
"2002-02-25 07:00","2002","02","25","07:00","5.1","","-2.7","","57","","22","","22","","24.1","","98.85","","","","","","Mostly Cloudy"
"2002-02-25 08:00","2002","02","25","08:00","5.1","","-2.5","","58","","22","","24","","24.1","","98.84","","","","","","Mostly Cloudy"
"2002-02-25 09:00","2002","02","25","09:00","7.1","","-1.5","","54","","22","","26","","24.1","","98.83","","","","","","Mainly Clear"
"2002-02-25 10:00","2002","02","25","10:00","9.6","","-0.9","","48","","23","","32","","24.1","","98.83","","","","","","Mainly Clear"
"2002-02-25 11:00","2002","02","25","11:00","11.2","","0.6","","48","","22","","24","","24.1","","98.79","","","","","","Mainly Clear"
"2002-02-25 12:00","2002","02","25","12:00","12.8","","1.0","","44","","24","","32","","24.1","","98.74","","","","","","Mainly Clear"
"2002-02-25 13:00","2002","02","25","13:00","13.9","","2.5","","46","","21","","35","","24.1","","98.67","","","","","","Mainly Clear"
"2002-02-25 14:00","2002","02","25","14:00","14.9","","3.2","","45","","23","","33","","24.1","","98.68","","","","","","Clear"
"2002-02-25 15:00","2002","02","25","15:00","15.1","","3.3","","45","","25","","37","","24.1","","98.69","","","","","","Mainly Clear"
"2002-02-25 16:00","2002","02","25","16:00","14.9","","3.9","","48","","24","","33","","24.1","","98.70","","","","","","Mainly Clear"
"2002-02-25 17:00","2002","02","25","17:00","14.2","","4.3","","51","","24","","30","","24.1","","98.71","","","","","","Mainly Clear"
"2002-02-25 18:00","2002","02","25","18:00","12.4","","4.3","","58","","24","","22","","19.3","","98.77","","","","","","Mainly Clear"
"2002-02-25 19:00","2002","02","25","19:00","10.8","","4.0","","63","","24","","20","","19.3","","98.82","","","","","","Mostly Cloudy"
"2002-02-25 20:00","2002","02","25","20:00","9.9","","3.7","","65","","31","","20","","19.3","","98.79","","","","","","Mostly Cloudy"
"2002-02-25 21:00","2002","02","25","21:00","6.3","","3.3","","81","","4","","20","","16.1","","98.78","","","","","","Rain"
"2002-02-25 22:00","2002","02","25","22:00","3.7","","1.9","","88","","4","","22","","9.7","","98.82","","","","","","Rain,Fog"
"2002-02-25 23:00","2002","02","25","23:00","3.2","","1.6","","89","","6","","20","","6.4","","98.71","","","","","","Rain,Fog"
"2002-02-26 00:00","2002","02","26","00:00","2.8","","1.4","","90","","5","","20","","6.4","","98.66","","","","","","Rain,Fog"
"2002-02-26 01:00","2002","02","26","01:00","1.0","","-0.3","","91","","1","","11","","8.0","","98.62","","","","","","Rain,Snow"
"2002-02-26 02:00","2002","02","26","02:00","0.4","","-0.8","","92","","5","","20","","2.4","","98.58","","","","","","Snow"
"2002-02-26 03:00","2002","02","26","03:00","0.1","","-0.9","","93","","4","","24","","1.2","","98.45","","","","","","Snow"
"2002-02-26 04:00","2002","02","26","04:00","-0.2","","-1.5","","91","","3","","24","","11.3","","98.30","","","","-6","","Snow"
"2002-02-26 05:00","2002","02","26","05:00","-0.4","","-1.8","","90","","36","","17","","4.0","","98.23","","","","-5","","Snow"
"2002-02-26 06:00","2002","02","26","06:00","-0.5","","-2.0","","90","","1","","17","","4.8","","98.07","","","","-5","","Snow"
"2002-02-26 07:00","2002","02","26","07:00","-0.4","","-2.2","","88","","34","","17","","6.4","","98.08","","","","-5","","Snow"
"2002-02-26 08:00","2002","02","26","08:00","-0.8","","-2.0","","92","","32","","22","","0.8","","98.10","","","","-7","","Moderate Snow"
"2002-02-26 09:00","2002","02","26","09:00","-1.0","","-2.2","","92","","33","","20","","0.8","","98.09","","","","-7","","Moderate Snow"
"2002-02-26 10:00","2002","02","26","10:00","-0.9","","-2.2","","91","","31","","24","","3.2","","98.08","","","","-7","","Snow"
"2002-02-26 11:00","2002","02","26","11:00","-0.7","","-2.4","","88","","30","","17","","19.3","","98.07","","","","-6","","Snow"
"2002-02-26 12:00","2002","02","26","12:00","-0.5","","-3.1","","83","","29","","24","","19.3","","98.05","","","","-6","","Snow"
"2002-02-26 13:00","2002","02","26","13:00","-0.6","","-3.3","","82","","27","","20","","19.3","","98.13","","","","-6","","Snow"
"2002-02-26 14:00","2002","02","26","14:00","-1.4","","-2.7","","91","","27","","20","","1.2","","98.10","","","","-7","","Snow"
"2002-02-26 15:00","2002","02","26","15:00","-1.1","","-2.5","","90","","26","","26","","3.6","","98.11","","","","-7","","Snow"
"2002-02-26 16:00","2002","02","26","16:00","-0.7","","-3.2","","83","","26","","26","","9.7","","98.15","","","","-7","","Snow"
"2002-02-26 17:00","2002","02","26","17:00","-0.7","","-4.1","","78","","26","","30","","19.3","","98.18","","","","-7","","Snow"
"2002-02-26 18:00","2002","02","26","18:00","-1.0","","-5.2","","73","","26","","30","","24.1","","98.26","","","","-8","","Cloudy"
"2002-02-26 19:00","2002","02","26","19:00","-1.6","","-4.3","","82","","25","","20","","12.9","","98.31","","","","-7","","Snow Showers"
"2002-02-26 20:00","2002","02","26","20:00","-2.1","","-4.4","","84","","25","","26","","11.3","","98.31","","","","-9","","Snow Showers"
"2002-02-26 21:00","2002","02","26","21:00","-3.1","","-5.4","","84","","24","","30","","4.8","","98.30","","","","-11","","Snow"
"2002-02-26 22:00","2002","02","26","22:00","-3.4","","-5.9","","83","","25","","32","","16.1","","98.30","","","","-11","","Snow"
"2002-02-26 23:00","2002","02","26","23:00","-4.0","","-5.9","","87","","25","","30","","3.2","","98.27","","","","-12","","Snow"
"2002-02-27 00:00","2002","02","27","00:00","-4.1","","-6.3","","85","","24","","28","","6.4","","98.26","","","","-12","","Snow"
"2002-02-27 01:00","2002","02","27","01:00","-4.4","","-6.6","","85","","24","","24","","8.0","","98.26","","","","-11","","Snow"
"2002-02-27 02:00","2002","02","27","02:00","-5.1","","-7.1","","86","","25","","28","","2.4","","98.25","","","","-13","","Snow"
"2002-02-27 03:00","2002","02","27","03:00","-5.1","","-7.3","","85","","24","","26","","6.4","","98.25","","","","-13","","Snow"
"2002-02-27 04:00","2002","02","27","04:00","-5.0","","-7.1","","85","","25","","22","","11.3","","98.24","","","","-12","","Snow"
"2002-02-27 05:00","2002","02","27","05:00","-4.9","","-7.3","","83","","25","","24","","11.3","","98.26","","","","-12","","Snow"
"2002-02-27 06:00","2002","02","27","06:00","-4.9","","-7.9","","79","","26","","22","","12.9","","98.27","","","","-12","","Snow"
"2002-02-27 07:00","2002","02","27","07:00","-5.4","","-8.1","","81","","26","","24","","6.4","","98.30","","","","-13","","Snow"
"2002-02-27 08:00","2002","02","27","08:00","-5.4","","-8.2","","81","","27","","22","","14.5","","98.35","","","","-12","","Snow"
"2002-02-27 09:00","2002","02","27","09:00"
"2002-02-27 10:00","2002","02","27","10:00","-4.6","","-7.5","","80","","27","","22","","4.8","","98.43","","","","-11","","Snow"
"2002-02-27 11:00","2002","02","27","11:00","-3.5","","-7.7","","73","","29","","26","","4.8","","98.47","","","","-11","","Snow Showers"
"2002-02-27 12:00","2002","02","27","12:00","-3.2","","-7.8","","70","","29","","28","","4.8","","98.51","","","","-10","","Snow Showers"
"2002-02-27 13:00","2002","02","27","13:00","-3.7","","-7.1","","77","","29","","32","","1.6","","98.53","","","","-12","","Snow Showers"
"2002-02-27 14:00","2002","02","27","14:00","-2.9","","-8.5","","65","","32","","28","","4.8","","98.55","","","","-10","","Snow Showers"
"2002-02-27 15:00","2002","02","27","15:00","-2.6","","-8.6","","63","","32","","26","","24.1","","98.61","","","","-9","","Snow Showers"
"2002-02-27 16:00","2002","02","27","16:00","-2.7","","-8.6","","64","","31","","28","","19.3","","98.69","","","","-10","","Snow Showers"
"2002-02-27 17:00","2002","02","27","17:00","-2.6","","-8.2","","65","","31","","28","","12.9","","98.77","","","","-10","","Snow Showers"
"2002-02-27 18:00","2002","02","27","18:00","-3.0","","-8.3","","67","","32","","28","","24.1","","98.88","","","","-10","","Snow Showers"
"2002-02-27 19:00","2002","02","27","19:00","-3.3","","-9.6","","62","","31","","24","","24.1","","98.98","","","","-10","","Snow Showers"
"2002-02-27 20:00","2002","02","27","20:00","-3.6","","-9.7","","63","","30","","17","","25.0","","99.05","","","","-9","","Mainly Clear"
"2002-02-27 21:00","2002","02","27","21:00","-4.0","","-11.2","","57","","30","","15","","25.0","","99.15","","","","-9","","Clear"
"2002-02-27 22:00","2002","02","27","22:00","-4.3","","-11.5","","57","","29","","17","","25.0","","99.23","","","","-10","","Clear"
"2002-02-27 23:00","2002","02","27","23:00","-4.7","","-11.6","","58","","29","","19","","25.0","","99.29","","","","-11","","Clear"
"2002-02-28 00:00","2002","02","28","00:00","-5.5","","-11.5","","63","","29","","15","","24.1","","99.34","","","","-11","","Clear"
"2002-02-28 01:00","2002","02","28","01:00","-6.1","","-11.7","","65","","28","","13","","24.1","","99.40","","","","-11","","Clear"
"2002-02-28 02:00","2002","02","28","02:00","-6.2","","-11.8","","64","","28","","13","","24.1","","99.45","","","","-12","","Clear"
"2002-02-28 03:00","2002","02","28","03:00","-6.9","","-11.9","","67","","28","","13","","24.1","","99.46","","","","-12","","Clear"
"2002-02-28 04:00","2002","02","28","04:00","-7.5","","-11.6","","72","","24","","13","","24.1","","99.49","","","","-13","","Clear"
"2002-02-28 05:00","2002","02","28","05:00","-7.8","","-11.2","","77","","25","","15","","24.1","","99.50","","","","-14","","Clear"
"2002-02-28 06:00","2002","02","28","06:00","-8.0","","-10.3","","83","","24","","19","","19.3","","99.52","","","","-15","","Clear"
"2002-02-28 07:00","2002","02","28","07:00","-8.4","","-11.3","","80","","25","","19","","19.3","","99.57","","","","-16","","Mostly Cloudy"
"2002-02-28 08:00","2002","02","28","08:00","-7.4","","-11.5","","72","","25","","13","","19.3","","99.56","","","","-13","","Mostly Cloudy"
"2002-02-28 09:00","2002","02","28","09:00","-6.3","","-10.9","","70","","24","","19","","19.3","","99.59","","","","-13","","Mostly Cloudy"
"2002-02-28 10:00","2002","02","28","10:00","-5.8","","-11.3","","65","","24","","24","","19.3","","99.61","","","","-13","","Mostly Cloudy"
"2002-02-28 11:00","2002","02","28","11:00","-5.7","","-11.5","","64","","24","","26","","19.3","","99.59","","","","-13","","Mostly Cloudy"
"2002-02-28 12:00","2002","02","28","12:00","-5.0","","-11.9","","58","","24","","35","","24.1","","99.57","","","","-14","","Cloudy"
"2002-02-28 13:00","2002","02","28","13:00","-4.6","","-12.0","","56","","24","","37","","24.1","","99.50","","","","-13","","Cloudy"
"2002-02-28 14:00","2002","02","28","14:00","-3.9","","-13.0","","49","","24","","35","","24.1","","99.46","","","","-12","","Cloudy"
"2002-02-28 15:00","2002","02","28","15:00","-3.5","","-12.6","","49","","23","","32","","24.1","","99.43","","","","-11","","Cloudy"
"2002-02-28 16:00","2002","02","28","16:00","-3.0","","-11.7","","51","","25","","28","","24.1","","99.46","","","","-10","","Cloudy"
"2002-02-28 17:00","2002","02","28","17:00","-2.8","","-12.6","","47","","24","","28","","25.0","","99.47","","","","-10","","Cloudy"
"2002-02-28 18:00","2002","02","28","18:00","-2.8","","-11.6","","51","","24","","24","","25.0","","99.47","","","","-9","","Mostly Cloudy"
"2002-02-28 19:00","2002","02","28","19:00","-2.9","","-11.0","","54","","23","","19","","25.0","","99.48","","","","-9","","Mostly Cloudy"
"2002-02-28 20:00","2002","02","28","20:00","-2.1","","-10.3","","53","","23","","32","","25.0","","99.56","","","","-9","","Cloudy"
"2002-02-28 21:00","2002","02","28","21:00","-2.2","","-9.4","","58","","23","","26","","24.1","","99.60","","","","-9","","Mostly Cloudy"
"2002-02-28 22:00","2002","02","28","22:00","-1.9","","-9.2","","57","","24","","26","","24.1","","99.60","","","","-8","","Mainly Clear"
"2002-02-28 23:00","2002","02","28","23:00","-1.9","","-8.6","","60","","25","","26","","24.1","","99.62","","","","-8","","Mostly Cloudy"
