"Station Name","WINDSOR A"
"Province","ONTARIO"
"Latitude","42.28"
"Longitude","-82.96"
"Elevation","189.60"
"Climate Identifier","6139525"
"WMO Identifier","71538"
"TC Identifier","YQG"
"All times are specified in Local Standard Time (LST). Add 1 hour to adjust for Daylight Saving Time where and when it is observed."

"Legend"
"E","Estimated"
"M","Missing"
"NA","Not Available"

"Date/Time","Year","Month","Day","Time","Temp (°C)","Temp Flag","Dew Point Temp (°C)","Dew Point Temp Flag","Rel Hum (%)","Rel Hum Flag","Wind Dir (10s deg)","Wind Dir Flag","Wind Spd (km/h)","Wind Spd Flag","Visibility (km)","Visibility Flag","Stn Press (kPa)","Stn Press Flag","Hmdx","Hmdx Flag","Wind Chill","Wind Chill Flag","Weather"
"1994-06-01 00:00","1994","06","01","00:00","17.2","","10.7","","66","","28","","13","","24.1","","98.80","","","","","","Clear"
"1994-06-01 01:00","1994","06","01","01:00","17.3","","8.9","","58","","28","","13","","19.3","","98.80","","","","","","Clear"
"1994-06-01 02:00","1994","06","01","02:00","16.5","","8.2","","58","","29","","13","","24.1","","98.83","","","","","","Clear"
"1994-06-01 03:00","1994","06","01","03:00","15.7","","7.9","","60","","29","","13","","24.1","","98.80","","","","","","Clear"
"1994-06-01 04:00","1994","06","01","04:00","14.5","","8.0","","65","","30","","11","","24.1","","98.83","","","","","","Clear"
"1994-06-01 05:00","1994","06","01","05:00","14.4","","8.1","","66","","30","","13","","24.1","","98.93","","","","","","Clear"
"1994-06-01 06:00","1994","06","01","06:00","14.6","","8.6","","67","","31","","9","","24.1","","98.96","","","","","","Clear"
"1994-06-01 07:00","1994","06","01","07:00","15.8","","8.9","","64","","32","","15","","24.1","","99.00","","","","","","Clear"
"1994-06-01 08:00","1994","06","01","08:00","17.2","","9.0","","58","","32","","13","","24.1","","99.00","","","","","","Mainly Clear"
"1994-06-01 09:00","1994","06","01","09:00","17.5","","9.4","","59","","35","","26","","24.1","","99.10","","","","","","Mostly Cloudy"
"1994-06-01 10:00","1994","06","01","10:00","11.7","","6.3","","69","","2","","20","","24.1","","99.23","","","","","","Cloudy"
"1994-06-01 11:00","1994","06","01","11:00","13.1","","6.8","","66","","1","","24","","24.1","","99.26","","","","","","Mainly Clear"
"1994-06-01 12:00","1994","06","01","12:00","13.1","","6.4","","64","","35","","24","","24.1","","99.30","","","","","","Mostly Cloudy"
"1994-06-01 13:00","1994","06","01","13:00","16.1","","6.1","","51","","34","","24","","24.1","","99.26","","","","","","Mainly Clear"
"1994-06-01 14:00","1994","06","01","14:00","16.8","","3.7","","42","","34","","24","","24.1","","99.30","","","","","","Mainly Clear"
"1994-06-01 15:00","1994","06","01","15:00","17.8","","2.0","","35","","34","","19","","24.1","","99.30","","","","","","Mainly Clear"
"1994-06-01 16:00","1994","06","01","16:00","18.5","","0.2","","29","","35","","22","","24.1","","99.23","","","","","","Mainly Clear"
"1994-06-01 17:00","1994","06","01","17:00","18.5","","-0.5","","28","","34","","22","","24.1","","99.23","","","","","","Mainly Clear"
"1994-06-01 18:00","1994","06","01","18:00","17.7","","-0.7","","29","","32","","19","","24.1","","99.23","","","","","","Mostly Cloudy"
"1994-06-01 19:00","1994","06","01","19:00","16.6","","-1.3","","29","","32","","22","","24.1","","99.30","","","","","","Mostly Cloudy"
"1994-06-01 20:00","1994","06","01","20:00","15.1","","-0.5","","34","","36","","9","","24.1","","99.33","","","","","","Mostly Cloudy"
"1994-06-01 21:00","1994","06","01","21:00","14.3","","-1.0","","35","","35","","11","","24.1","","99.43","","","","","","Mostly Cloudy"
"1994-06-01 22:00","1994","06","01","22:00","13.8","","-3.1","","31","","36","","22","","24.1","","99.50","","","","","","Mostly Cloudy"
"1994-06-01 23:00","1994","06","01","23:00","12.1","","-3.3","","34","","1","","20","","25.0","","99.53","","","","","","Mainly Clear"
"1994-06-02 00:00","1994","06","02","00:00","10.6","","-2.5","","40","","1","","11","","25.0","","99.53","","","","","","Mainly Clear"
"1994-06-02 01:00","1994","06","02","01:00","9.6","","-0.6","","49","","36","","9","","25.0","","99.53","","","","","","Mainly Clear"
"1994-06-02 02:00","1994","06","02","02:00","9.4","","-2.6","","43","","1","","13","","25.0","","99.50","","","","","","Mostly Cloudy"
"1994-06-02 03:00","1994","06","02","03:00","8.3","","-1.3","","51","","35","","11","","25.0","","99.56","","","","","","Mainly Clear"
"1994-06-02 04:00","1994","06","02","04:00","7.7","","-0.6","","56","","35","","9","","25.0","","99.56","","","","","","Clear"
"1994-06-02 05:00","1994","06","02","05:00","6.8","","-0.4","","60","","35","","7","","24.1","","99.63","","","","","","Clear"
"1994-06-02 06:00","1994","06","02","06:00","8.7","","0.0","","54","","31","","11","","24.1","","99.70","","","","","","Clear"
"1994-06-02 07:00","1994","06","02","07:00","10.2","","1.2","","54","","34","","11","","25.0","","99.73","","","","","","Mainly Clear"
"1994-06-02 08:00","1994","06","02","08:00","11.5","","2.0","","52","","36","","13","","25.0","","99.73","","","","","","Mostly Cloudy"
"1994-06-02 09:00","1994","06","02","09:00","13.1","","2.0","","47","","36","","15","","25.0","","99.80","","","","","","Mostly Cloudy"
"1994-06-02 10:00","1994","06","02","10:00","14.8","","3.0","","45","","35","","15","","25.0","","99.80","","","","","","Mainly Clear"
"1994-06-02 11:00","1994","06","02","11:00","15.7","","3.2","","43","","36","","15","","25.0","","99.76","","","","","","Mainly Clear"
"1994-06-02 12:00","1994","06","02","12:00","16.6","","3.5","","42","","36","","15","","25.0","","99.73","","","","","","Mainly Clear"
"1994-06-02 13:00","1994","06","02","13:00","17.8","","3.4","","38","","36","","15","","25.0","","99.73","","","","","","Mainly Clear"
"1994-06-02 14:00","1994","06","02","14:00","19.0","","4.5","","38","","1","","15","","25.0","","99.70","","","","","","Mainly Clear"
"1994-06-02 15:00","1994","06","02","15:00","19.9","","4.7","","37","","2","","15","","25.0","","99.70","","","","","","Clear"
"1994-06-02 16:00","1994","06","02","16:00","19.6","","5.5","","40","","6","","17","","25.0","","99.73","","","","","","Mainly Clear"
"1994-06-02 17:00","1994","06","02","17:00","18.8","","5.6","","42","","5","","26","","25.0","","99.73","","","","","","Mainly Clear"
"1994-06-02 18:00","1994","06","02","18:00","16.5","","4.7","","46","","7","","26","","25.0","","99.80","","","","","","Clear"
"1994-06-02 19:00","1994","06","02","19:00","15.6","","4.6","","48","","4","","17","","25.0","","99.83","","","","","","Clear"
"1994-06-02 20:00","1994","06","02","20:00","13.6","","4.6","","54","","5","","15","","25.0","","99.86","","","","","","Clear"
"1994-06-02 21:00","1994","06","02","21:00","12.5","","3.2","","53","","5","","13","","25.0","","99.93","","","","","","Clear"
"1994-06-02 22:00","1994","06","02","22:00","11.9","","3.6","","57","","","","0","","25.0","","99.96","","","","","","Clear"
"1994-06-02 23:00","1994","06","02","23:00","11.0","","3.5","","60","","7","","7","","25.0","","99.96","","","","","","Clear"
"1994-06-03 00:00","1994","06","03","00:00","11.1","","3.2","","58","","3","","4","","25.0","","99.99","","","","","","Clear"
"1994-06-03 01:00","1994","06","03","01:00","10.7","","3.9","","63","","","","0","","25.0","","99.99","","","","","","Clear"
"1994-06-03 02:00","1994","06","03","02:00","9.7","","4.3","","69","","","","0","","25.0","","99.99","","","","","","Clear"
"1994-06-03 03:00","1994","06","03","03:00","7.6","","4.5","","81","","","","0","","25.0","","100.03","","","","","","Clear"
"1994-06-03 04:00","1994","06","03","04:00","8.7","","4.3","","74","","","","0","","25.0","","99.99","","","","","","Clear"
"1994-06-03 05:00","1994","06","03","05:00","8.6","","4.0","","73","","","","0","","25.0","","100.03","","","","","","Clear"
"1994-06-03 06:00","1994","06","03","06:00","10.3","","4.3","","66","","30","","6","","25.0","","100.09","","","","","","Mainly Clear"
"1994-06-03 07:00","1994","06","03","07:00","12.9","","5.1","","59","","","","0","","25.0","","100.13","","","","","","Clear"
"1994-06-03 08:00","1994","06","03","08:00","14.3","","4.8","","53","","","","0","","24.1","","100.13","","","","","","Mainly Clear"
"1994-06-03 09:00","1994","06","03","09:00","15.9","","4.7","","47","","5","","4","","24.1","","100.13","","","","","","Mainly Clear"
"1994-06-03 10:00","1994","06","03","10:00","16.9","","4.4","","43","","3","","6","","24.1","","100.09","","","","","","Mainly Clear"
"1994-06-03 11:00","1994","06","03","11:00","18.2","","3.8","","38","","3","","6","","24.1","","100.06","","","","","","Mostly Cloudy"
"1994-06-03 12:00","1994","06","03","12:00","18.2","","4.1","","39","","6","","9","","24.1","","100.03","","","","","","Mostly Cloudy"
"1994-06-03 13:00","1994","06","03","13:00","19.0","","5.1","","40","","6","","11","","24.1","","99.96","","","","","","Mostly Cloudy"
"1994-06-03 14:00","1994","06","03","14:00","19.9","","5.5","","39","","9","","9","","24.1","","99.93","","","","","","Mostly Cloudy"
"1994-06-03 15:00","1994","06","03","15:00","21.0","","6.0","","38","","6","","11","","24.1","","99.86","","","","","","Mostly Cloudy"
"1994-06-03 16:00","1994","06","03","16:00","21.2","","5.8","","37","","5","","7","","25.0","","99.83","","","","","","Mostly Cloudy"
"1994-06-03 17:00","1994","06","03","17:00","21.8","","6.0","","36","","10","","11","","25.0","","99.76","","","","","","Mostly Cloudy"
"1994-06-03 18:00","1994","06","03","18:00","21.8","","5.7","","35","","9","","7","","25.0","","99.70","","","","","","Mostly Cloudy"
"1994-06-03 19:00","1994","06","03","19:00","19.7","","7.8","","46","","20","","13","","25.0","","99.70","","","","","","Mostly Cloudy"
"1994-06-03 20:00","1994","06","03","20:00","18.1","","7.2","","49","","21","","7","","25.0","","99.66","","","","","","Mostly Cloudy"
"1994-06-03 21:00","1994","06","03","21:00","16.3","","7.6","","56","","22","","6","","25.0","","99.66","","","","","","Mainly Clear"
"1994-06-03 22:00","1994","06","03","22:00","15.3","","8.3","","63","","","","0","","25.0","","99.70","","","","","","Mainly Clear"
"1994-06-03 23:00","1994","06","03","23:00","14.7","","10.2","","74","","","","0","","25.0","","99.70","","","","","","Clear"
"1994-06-04 00:00","1994","06","04","00:00","12.2","","9.5","","84","","","","0","","24.1","","99.73","","","","","","Clear"
"1994-06-04 01:00","1994","06","04","01:00","12.2","","9.7","","85","","","","0","","24.1","","99.70","","","","","","Clear"
"1994-06-04 02:00","1994","06","04","02:00","11.2","","9.1","","87","","","","0","","24.1","","99.66","","","","","","Clear"
"1994-06-04 03:00","1994","06","04","03:00","11.1","","8.9","","86","","","","0","","24.1","","99.66","","","","","","Clear"
"1994-06-04 04:00","1994","06","04","04:00","10.4","","9.1","","92","","","","0","","19.3","","99.70","","","","","","Mainly Clear"
"1994-06-04 05:00","1994","06","04","05:00","10.6","","9.1","","90","","","","0","","24.1","","99.73","","","","","","Mainly Clear"
"1994-06-04 06:00","1994","06","04","06:00","11.5","","9.8","","89","","","","0","","16.1","","99.73","","","","","","Mainly Clear"
"1994-06-04 07:00","1994","06","04","07:00","15.1","","11.6","","80","","","","0","","24.1","","99.76","","","","","","Mainly Clear"
"1994-06-04 08:00","1994","06","04","08:00","18.3","","10.3","","60","","","","0","","24.1","","99.73","","","","","","Mainly Clear"
"1994-06-04 09:00","1994","06","04","09:00","20.0","","9.8","","52","","","","0","","24.1","","99.73","","","","","","Mainly Clear"
"1994-06-04 10:00","1994","06","04","10:00","21.5","","8.8","","44","","24","","4","","24.1","","99.70","","","","","","Mainly Clear"
"1994-06-04 11:00","1994","06","04","11:00","21.9","","7.2","","39","","22","","4","","24.1","","99.66","","","","","","Mainly Clear"
"1994-06-04 12:00","1994","06","04","12:00","22.7","","8.2","","39","","20","","4","","24.1","","99.60","","","","","","Mainly Clear"
"1994-06-04 13:00","1994","06","04","13:00","23.5","","8.8","","39","","10","","2","","24.1","","99.56","","","","","","Mainly Clear"
"1994-06-04 14:00","1994","06","04","14:00","23.8","","8.5","","38","","","","0","","24.1","","99.53","","","","","","Mainly Clear"
"1994-06-04 15:00","1994","06","04","15:00","23.8","","7.1","","34","","19","","6","","24.1","","99.50","","","","","","Clear"
"1994-06-04 16:00","1994","06","04","16:00","23.4","","5.8","","32","","14","","7","","24.1","","99.46","","","","","","Clear"
"1994-06-04 17:00","1994","06","04","17:00","23.0","","4.0","","29","","17","","13","","25.0","","99.43","","","","","","Clear"
"1994-06-04 18:00","1994","06","04","18:00","22.7","","2.6","","27","","14","","13","","25.0","","99.40","","","","","","Clear"
"1994-06-04 19:00","1994","06","04","19:00","21.5","","2.3","","28","","15","","7","","25.0","","99.40","","","","","","Clear"
"1994-06-04 20:00","1994","06","04","20:00","19.2","","1.6","","31","","17","","7","","24.1","","99.36","","","","","","Clear"
"1994-06-04 21:00","1994","06","04","21:00","17.5","","3.5","","39","","15","","6","","24.1","","99.40","","","","","","Clear"
"1994-06-04 22:00","1994","06","04","22:00","16.4","","5.6","","49","","15","","6","","24.1","","99.40","","","","","","Clear"
"1994-06-04 23:00","1994","06","04","23:00","15.5","","7.1","","57","","16","","6","","25.0","","99.40","","","","","","Clear"
"1994-06-05 00:00","1994","06","05","00:00","14.7","","7.5","","62","","17","","6","","25.0","","99.40","","","","","","Clear"
"1994-06-05 01:00","1994","06","05","01:00","14.8","","8.6","","66","","","","0","","24.1","","99.36","","","","","","Clear"
"1994-06-05 02:00","1994","06","05","02:00","14.2","","9.0","","71","","","","0","","24.1","","99.40","","","","","","Clear"
"1994-06-05 03:00","1994","06","05","03:00","14.2","","9.2","","72","","","","0","","24.1","","99.36","","","","","","Clear"
"1994-06-05 04:00","1994","06","05","04:00","11.8","","8.9","","82","","11","","4","","24.1","","99.30","","","","","","Clear"
"1994-06-05 05:00","1994","06","05","05:00","11.5","","8.7","","83","","","","0","","24.1","","99.33","","","","","","Mainly Clear"
"1994-06-05 06:00","1994","06","05","06:00","12.6","","9.2","","80","","7","","4","","24.1","","99.33","","","","","","Mainly Clear"
"1994-06-05 07:00","1994","06","05","07:00","16.6","","11.3","","71","","","","0","","24.1","","99.36","","","","","","Mainly Clear"
"1994-06-05 08:00","1994","06","05","08:00","20.4","","13.1","","63","","","","0","","24.1","","99.36","","","","","","Mainly Clear"
"1994-06-05 09:00","1994","06","05","09:00","23.3","","12.2","","50","","18","","6","","24.1","","99.33","","26","","","","Mostly Cloudy"
"1994-06-05 10:00","1994","06","05","10:00","24.8","","11.2","","42","","20","","17","","24.1","","99.30","","27","","","","Mostly Cloudy"
"1994-06-05 11:00","1994","06","05","11:00","24.9","","12.0","","45","","20","","15","","25.0","","99.26","","27","","","","Mainly Clear"
"1994-06-05 12:00","1994","06","05","12:00","26.1","","10.6","","38","","21","","13","","25.0","","99.23","","28","","","","Mainly Clear"
"1994-06-05 13:00","1994","06","05","13:00","27.3","","9.8","","33","","26","","17","","25.0","","99.16","","28","","","","Mostly Cloudy"
"1994-06-05 14:00","1994","06","05","14:00","28.9","","6.2","","24","","22","","17","","25.0","","99.10","","29","","","","Mostly Cloudy"
"1994-06-05 15:00","1994","06","05","15:00","28.5","","8.4","","28","","23","","17","","25.0","","99.03","","29","","","","Mostly Cloudy"
"1994-06-05 16:00","1994","06","05","16:00","28.2","","8.2","","28","","19","","15","","25.0","","98.96","","29","","","","Mostly Cloudy"
"1994-06-05 17:00","1994","06","05","17:00","28.4","","8.9","","29","","17","","17","","24.1","","98.90","","29","","","","Mostly Cloudy"
"1994-06-05 18:00","1994","06","05","18:00","26.9","","9.8","","34","","15","","13","","24.1","","98.80","","28","","","","Mostly Cloudy"
"1994-06-05 19:00","1994","06","05","19:00","24.4","","9.4","","39","","15","","11","","24.1","","98.80","","25","","","","Mostly Cloudy"
"1994-06-05 20:00","1994","06","05","20:00","22.8","","9.6","","43","","15","","19","","24.1","","98.76","","","","","","Mostly Cloudy"
"1994-06-05 21:00","1994","06","05","21:00","21.7","","9.2","","45","","14","","17","","24.1","","98.80","","","","","","Mostly Cloudy"
"1994-06-05 22:00","1994","06","05","22:00","20.2","","9.9","","52","","14","","13","","24.1","","98.76","","","","","","Mostly Cloudy"
"1994-06-05 23:00","1994","06","05","23:00","20.0","","10.4","","54","","15","","17","","24.1","","98.66","","","","","","Cloudy"
"1994-06-06 00:00","1994","06","06","00:00","22.1","","12.6","","55","","18","","19","","24.1","","98.63","","25","","","","Cloudy"
"1994-06-06 01:00","1994","06","06","01:00","22.7","","12.1","","51","","19","","22","","24.1","","98.50","","25","","","","Cloudy"
"1994-06-06 02:00","1994","06","06","02:00","23.1","","12.4","","51","","19","","24","","24.1","","98.43","","26","","","","Cloudy"
"1994-06-06 03:00","1994","06","06","03:00","17.6","","16.0","","90","","18","","11","","9.7","","98.40","","","","","","Rain Showers,Fog"
"1994-06-06 04:00","1994","06","06","04:00","19.1","","15.4","","79","","19","","9","","12.9","","98.37","","","","","","Mainly Clear"
"1994-06-06 05:00","1994","06","06","05:00","19.2","","15.4","","79","","21","","7","","9.7","","98.37","","","","","","Haze"
"1994-06-06 06:00","1994","06","06","06:00","20.3","","16.7","","80","","23","","6","","9.7","","98.43","","25","","","","Haze"
"1994-06-06 07:00","1994","06","06","07:00","21.9","","17.5","","76","","26","","9","","9.7","","98.43","","28","","","","Haze"
"1994-06-06 08:00","1994","06","06","08:00","23.2","","17.5","","70","","26","","15","","12.9","","98.43","","29","","","","Mostly Cloudy"
"1994-06-06 09:00","1994","06","06","09:00","24.7","","18.0","","66","","25","","24","","17.7","","98.40","","31","","","","Mostly Cloudy"
"1994-06-06 10:00","1994","06","06","10:00","26.2","","17.9","","60","","26","","28","","19.3","","98.37","","32","","","","Mainly Clear"
"1994-06-06 11:00","1994","06","06","11:00","26.3","","17.9","","60","","28","","33","","24.1","","98.37","","32","","","","Mostly Cloudy"
"1994-06-06 12:00","1994","06","06","12:00","27.5","","17.3","","54","","27","","33","","24.1","","98.37","","33","","","","Mostly Cloudy"
"1994-06-06 13:00","1994","06","06","13:00","28.0","","16.9","","51","","26","","41","","25.0","","98.33","","33","","","","Mostly Cloudy"
"1994-06-06 14:00","1994","06","06","14:00","27.8","","16.4","","50","","27","","30","","25.0","","98.30","","33","","","","Mainly Clear"
"1994-06-06 15:00","1994","06","06","15:00","27.2","","15.8","","50","","28","","30","","24.1","","98.30","","32","","","","Mostly Cloudy"
"1994-06-06 16:00","1994","06","06","16:00","27.4","","15.6","","49","","28","","33","","24.1","","98.27","","32","","","","Mostly Cloudy"
"1994-06-06 17:00","1994","06","06","17:00","26.6","","15.5","","51","","29","","30","","24.1","","98.30","","31","","","","Mainly Clear"
"1994-06-06 18:00","1994","06","06","18:00","25.7","","15.3","","53","","30","","26","","24.1","","98.33","","30","","","","Mainly Clear"
"1994-06-06 19:00","1994","06","06","19:00","24.6","","15.0","","55","","30","","20","","24.1","","98.37","","29","","","","Mainly Clear"
"1994-06-06 20:00","1994","06","06","20:00","23.3","","15.1","","60","","30","","26","","24.1","","98.43","","27","","","","Mainly Clear"
"1994-06-06 21:00","1994","06","06","21:00","21.3","","15.4","","69","","34","","15","","24.1","","98.53","","26","","","","Mostly Cloudy"
"1994-06-06 22:00","1994","06","06","22:00","20.8","","15.2","","70","","35","","7","","24.1","","98.60","","25","","","","Mostly Cloudy"
"1994-06-06 23:00","1994","06","06","23:00","19.2","","15.0","","77","","36","","9","","24.1","","98.60","","","","","","Mainly Clear"
"1994-06-07 00:00","1994","06","07","00:00","18.3","","14.4","","78","","35","","6","","24.1","","98.60","","","","","","Clear"
"1994-06-07 01:00","1994","06","07","01:00","17.1","","13.7","","80","","33","","4","","16.1","","98.63","","","","","","Clear"
"1994-06-07 02:00","1994","06","07","02:00","16.8","","13.6","","81","","","","0","","16.1","","98.60","","","","","","Clear"
"1994-06-07 03:00","1994","06","07","03:00","15.3","","14.1","","93","","","","0","","9.7","","98.60","","","","","","Fog"
"1994-06-07 04:00","1994","06","07","04:00","14.3","","13.7","","96","","","","0","","4.8","","98.66","","","","","","Fog"
"1994-06-07 05:00","1994","06","07","05:00","14.6","","13.9","","96","","20","","6","","2.4","","98.70","","","","","","Fog"
"1994-06-07 06:00","1994","06","07","06:00","15.4","","14.4","","94","","","","0","","3.2","","98.76","","","","","","Fog"
"1994-06-07 07:00","1994","06","07","07:00","17.4","","15.6","","89","","","","0","","3.2","","98.80","","","","","","Fog"
"1994-06-07 08:00","1994","06","07","08:00","19.0","","16.1","","83","","19","","4","","6.4","","98.80","","","","","","Haze"
"1994-06-07 09:00","1994","06","07","09:00","20.9","","15.7","","72","","","","0","","6.4","","98.76","","25","","","","Haze"
"1994-06-07 10:00","1994","06","07","10:00","22.4","","15.9","","67","","","","0","","8.0","","98.76","","27","","","","Haze"
"1994-06-07 11:00","1994","06","07","11:00","23.5","","15.2","","60","","","","0","","8.0","","98.73","","28","","","","Haze"
"1994-06-07 12:00","1994","06","07","12:00","24.1","","16.3","","62","","25","","4","","9.7","","98.73","","29","","","","Haze"
"1994-06-07 13:00","1994","06","07","13:00","25.8","","16.4","","56","","12","","4","","9.7","","98.70","","31","","","","Haze"
"1994-06-07 14:00","1994","06","07","14:00","26.2","","16.2","","54","","13","","4","","9.7","","98.66","","31","","","","Haze"
"1994-06-07 15:00","1994","06","07","15:00","26.4","","16.1","","53","","8","","6","","11.3","","98.60","","31","","","","Mostly Cloudy"
"1994-06-07 16:00","1994","06","07","16:00","27.1","","17.5","","56","","4","","15","","11.3","","98.57","","33","","","","Mostly Cloudy"
"1994-06-07 17:00","1994","06","07","17:00","17.9","","13.7","","76","","3","","41","","11.3","","98.70","","","","","","Rain Showers"
"1994-06-07 18:00","1994","06","07","18:00","16.6","","12.8","","78","","5","","37","","11.3","","98.80","","","","","","Mostly Cloudy"
"1994-06-07 19:00","1994","06","07","19:00","14.2","","10.7","","79","","5","","32","","12.9","","98.93","","","","","","Cloudy"
"1994-06-07 20:00","1994","06","07","20:00","12.7","","9.3","","80","","5","","33","","16.1","","98.96","","","","","","Cloudy"
"1994-06-07 21:00","1994","06","07","21:00","12.7","","8.2","","74","","2","","30","","16.1","","99.03","","","","","","Cloudy"
"1994-06-07 22:00","1994","06","07","22:00","12.0","","7.4","","73","","2","","26","","19.3","","99.13","","","","","","Cloudy"
"1994-06-07 23:00","1994","06","07","23:00","12.0","","7.5","","74","","3","","26","","24.1","","99.13","","","","","","Cloudy"
"1994-06-08 00:00","1994","06","08","00:00","11.7","","8.1","","79","","2","","20","","24.1","","99.16","","","","","","Mostly Cloudy"
"1994-06-08 01:00","1994","06","08","01:00","11.5","","7.5","","76","","2","","22","","24.1","","99.23","","","","","","Cloudy"
"1994-06-08 02:00","1994","06","08","02:00","11.8","","7.7","","76","","4","","33","","24.1","","99.23","","","","","","Mostly Cloudy"
"1994-06-08 03:00","1994","06","08","03:00","11.5","","7.7","","77","","4","","33","","24.1","","99.30","","","","","","Cloudy"
"1994-06-08 04:00","1994","06","08","04:00","10.5","","8.2","","86","","4","","28","","19.3","","99.30","","","","","","Rain Showers"
"1994-06-08 05:00","1994","06","08","05:00","10.5","","7.9","","84","","4","","26","","19.3","","99.40","","","","","","Rain Showers"
"1994-06-08 06:00","1994","06","08","06:00","10.3","","7.9","","85","","4","","22","","24.1","","99.46","","","","","","Rain Showers"
"1994-06-08 07:00","1994","06","08","07:00","10.4","","7.5","","82","","3","","20","","24.1","","99.50","","","","","","Mostly Cloudy"
"1994-06-08 08:00","1994","06","08","08:00","10.5","","7.4","","81","","3","","28","","24.1","","99.53","","","","","","Mostly Cloudy"
"1994-06-08 09:00","1994","06","08","09:00","11.3","","7.0","","75","","5","","28","","24.1","","99.53","","","","","","Mostly Cloudy"
"1994-06-08 10:00","1994","06","08","10:00","13.1","","7.7","","70","","4","","24","","24.1","","99.56","","","","","","Mainly Clear"
"1994-06-08 11:00","1994","06","08","11:00","14.5","","7.2","","62","","3","","30","","25.0","","99.66","","","","","","Mostly Cloudy"
"1994-06-08 12:00","1994","06","08","12:00","15.9","","6.1","","52","","5","","30","","25.0","","99.66","","","","","","Mostly Cloudy"
"1994-06-08 13:00","1994","06","08","13:00","15.8","","4.7","","48","","3","","30","","25.0","","99.66","","","","","","Mainly Clear"
"1994-06-08 14:00","1994","06","08","14:00","16.5","","3.9","","43","","4","","26","","25.0","","99.66","","","","","","Mainly Clear"
"1994-06-08 15:00","1994","06","08","15:00","16.6","","4.6","","45","","4","","26","","25.0","","99.60","","","","","","Mainly Clear"
"1994-06-08 16:00","1994","06","08","16:00","16.6","","2.7","","39","","5","","28","","25.0","","99.56","","","","","","Mainly Clear"
"1994-06-08 17:00","1994","06","08","17:00","15.4","","2.0","","40","","6","","26","","25.0","","99.53","","","","","","Mainly Clear"
"1994-06-08 18:00","1994","06","08","18:00","14.5","","3.1","","46","","6","","22","","25.0","","99.60","","","","","","Mainly Clear"
"1994-06-08 19:00","1994","06","08","19:00","13.5","","3.1","","49","","5","","19","","25.0","","99.60","","","","","","Mainly Clear"
"1994-06-08 20:00","1994","06","08","20:00","12.1","","2.4","","51","","6","","15","","25.0","","99.66","","","","","","Mainly Clear"
"1994-06-08 21:00","1994","06","08","21:00","10.5","","2.6","","58","","6","","11","","25.0","","99.70","","","","","","Mainly Clear"
"1994-06-08 22:00","1994","06","08","22:00","9.7","","0.5","","53","","8","","6","","25.0","","99.76","","","","","","Clear"
"1994-06-08 23:00","1994","06","08","23:00","8.7","","1.6","","61","","3","","6","","24.1","","99.76","","","","","","Clear"
"1994-06-09 00:00","1994","06","09","00:00","8.8","","-0.5","","52","","36","","6","","24.1","","99.73","","","","","","Clear"
"1994-06-09 01:00","1994","06","09","01:00","8.4","","-0.3","","54","","36","","6","","24.1","","99.73","","","","","","Clear"
"1994-06-09 02:00","1994","06","09","02:00","7.7","","0.8","","62","","36","","6","","24.1","","99.73","","","","","","Clear"
"1994-06-09 03:00","1994","06","09","03:00","7.6","","1.3","","64","","","","0","","24.1","","99.73","","","","","","Clear"
"1994-06-09 04:00","1994","06","09","04:00","6.6","","1.3","","69","","36","","6","","24.1","","99.70","","","","","","Mainly Clear"
"1994-06-09 05:00","1994","06","09","05:00","6.8","","2.9","","76","","","","0","","24.1","","99.73","","","","","","Mainly Clear"
"1994-06-09 06:00","1994","06","09","06:00","8.4","","4.0","","74","","1","","9","","24.1","","99.73","","","","","","Mainly Clear"
"1994-06-09 07:00","1994","06","09","07:00","11.1","","5.5","","68","","5","","13","","24.1","","99.73","","","","","","Mostly Cloudy"
"1994-06-09 08:00","1994","06","09","08:00","12.4","","6.8","","69","","7","","9","","24.1","","99.73","","","","","","Mostly Cloudy"
"1994-06-09 09:00","1994","06","09","09:00","14.0","","5.6","","57","","7","","9","","24.1","","99.73","","","","","","Mostly Cloudy"
"1994-06-09 10:00","1994","06","09","10:00","16.0","","3.8","","44","","2","","6","","25.0","","99.73","","","","","","Mostly Cloudy"
"1994-06-09 11:00","1994","06","09","11:00","17.5","","-2.9","","25","","5","","7","","25.0","","99.66","","","","","","Mainly Clear"
"1994-06-09 12:00","1994","06","09","12:00","18.9","","-4.2","","21","","6","","7","","25.0","","99.66","","","","","","Mainly Clear"
"1994-06-09 13:00","1994","06","09","13:00","20.3","","-6.0","","16","","3","","7","","25.0","","99.60","","","","","","Mainly Clear"
"1994-06-09 14:00","1994","06","09","14:00","21.2","","-6.2","","15","","4","","7","","25.0","","99.53","","","","","","Mainly Clear"
"1994-06-09 15:00","1994","06","09","15:00","21.7","","-7.1","","14","","4","","6","","25.0","","99.56","","","","","","Mainly Clear"
"1994-06-09 16:00","1994","06","09","16:00","22.6","","-6.9","","13","","","","0","","25.0","","99.53","","","","","","Mainly Clear"
"1994-06-09 17:00","1994","06","09","17:00","23.1","","-2.2","","18","","5","","7","","25.0","","99.40","","","","","","Mainly Clear"
"1994-06-09 18:00","1994","06","09","18:00","22.7","","0.7","","23","","5","","9","","25.0","","99.36","","","","","","Mainly Clear"
"1994-06-09 19:00","1994","06","09","19:00","21.8","","2.3","","28","","","","0","","25.0","","99.46","","","","","","Mostly Cloudy"
"1994-06-09 20:00","1994","06","09","20:00","20.5","","1.9","","29","","","","0","","25.0","","99.53","","","","","","Mostly Cloudy"
"1994-06-09 21:00","1994","06","09","21:00","17.3","","6.7","","50","","21","","6","","25.0","","99.56","","","","","","Mostly Cloudy"
"1994-06-09 22:00","1994","06","09","22:00","15.8","","6.9","","55","","","","0","","25.0","","99.56","","","","","","Mostly Cloudy"
"1994-06-09 23:00","1994","06","09","23:00","15.0","","6.6","","57","","","","0","","24.1","","99.50","","","","","","Mainly Clear"
"1994-06-10 00:00","1994","06","10","00:00","13.4","","7.1","","66","","","","0","","24.1","","99.50","","","","","","Clear"
"1994-06-10 01:00","1994","06","10","01:00","12.9","","6.9","","67","","","","0","","24.1","","99.50","","","","","","Clear"
"1994-06-10 02:00","1994","06","10","02:00","12.8","","6.0","","63","","","","0","","24.1","","99.50","","","","","","Clear"
"1994-06-10 03:00","1994","06","10","03:00","13.5","","7.9","","69","","","","0","","24.1","","99.50","","","","","","Mainly Clear"
"1994-06-10 04:00","1994","06","10","04:00","12.7","","8.0","","73","","35","","4","","24.1","","99.56","","","","","","Mainly Clear"
"1994-06-10 05:00","1994","06","10","05:00","12.2","","8.2","","77","","","","0","","24.1","","99.60","","","","","","Mostly Cloudy"
"1994-06-10 06:00","1994","06","10","06:00","13.0","","8.1","","72","","","","0","","24.1","","99.63","","","","","","Mostly Cloudy"
"1994-06-10 07:00","1994","06","10","07:00","16.6","","11.7","","73","","4","","4","","24.1","","99.63","","","","","","Mostly Cloudy"
"1994-06-10 08:00","1994","06","10","08:00","18.7","","10.4","","58","","4","","7","","24.1","","99.63","","","","","","Mainly Clear"
"1994-06-10 09:00","1994","06","10","09:00","20.0","","9.4","","50","","4","","7","","24.1","","99.63","","","","","","Mainly Clear"
"1994-06-10 10:00","1994","06","10","10:00","21.6","","9.9","","47","","4","","6","","24.1","","99.63","","","","","","Mostly Cloudy"
"1994-06-10 11:00","1994","06","10","11:00","22.8","","10.1","","45","","3","","9","","24.1","","99.60","","","","","","Mostly Cloudy"
"1994-06-10 12:00","1994","06","10","12:00","24.4","","8.9","","37","","3","","11","","24.1","","99.56","","25","","","","Mostly Cloudy"
"1994-06-10 13:00","1994","06","10","13:00","25.2","","7.7","","33","","5","","15","","24.1","","99.53","","25","","","","Mostly Cloudy"
"1994-06-10 14:00","1994","06","10","14:00","25.7","","7.0","","30","","6","","17","","24.1","","99.46","","26","","","","Mostly Cloudy"
"1994-06-10 15:00","1994","06","10","15:00","26.2","","6.8","","29","","5","","22","","24.1","","99.40","","26","","","","Mostly Cloudy"
"1994-06-10 16:00","1994","06","10","16:00","26.4","","5.3","","26","","6","","22","","24.1","","99.33","","26","","","","Mostly Cloudy"
"1994-06-10 17:00","1994","06","10","17:00","26.1","","4.9","","26","","6","","22","","24.1","","99.30","","25","","","","Mostly Cloudy"
"1994-06-10 18:00","1994","06","10","18:00","25.2","","6.7","","31","","6","","17","","24.1","","99.23","","25","","","","Mostly Cloudy"
"1994-06-10 19:00","1994","06","10","19:00","24.8","","7.0","","32","","8","","13","","24.1","","99.23","","25","","","","Mainly Clear"
"1994-06-10 20:00","1994","06","10","20:00","22.3","","4.1","","30","","13","","11","","24.1","","99.26","","","","","","Mainly Clear"
"1994-06-10 21:00","1994","06","10","21:00","20.6","","4.1","","34","","13","","11","","24.1","","99.30","","","","","","Mainly Clear"
"1994-06-10 22:00","1994","06","10","22:00","20.0","","5.0","","37","","11","","9","","24.1","","99.26","","","","","","Mainly Clear"
"1994-06-10 23:00","1994","06","10","23:00","17.1","","6.3","","49","","6","","9","","24.1","","99.26","","","","","","Mainly Clear"
"1994-06-11 00:00","1994","06","11","00:00","16.9","","7.0","","52","","7","","7","","24.1","","99.23","","","","","","Mostly Cloudy"
"1994-06-11 01:00","1994","06","11","01:00","17.5","","9.4","","59","","7","","7","","24.1","","99.20","","","","","","Mostly Cloudy"
"1994-06-11 02:00","1994","06","11","02:00","16.8","","10.8","","68","","36","","2","","19.3","","99.13","","","","","","Mainly Clear"
"1994-06-11 03:00","1994","06","11","03:00","16.1","","10.5","","69","","","","0","","19.3","","99.10","","","","","","Mostly Cloudy"
"1994-06-11 04:00","1994","06","11","04:00","15.0","","11.5","","80","","","","0","","19.3","","99.03","","","","","","Mainly Clear"
"1994-06-11 05:00","1994","06","11","05:00","14.8","","11.0","","78","","","","0","","16.1","","99.06","","","","","","Mainly Clear"
"1994-06-11 06:00","1994","06","11","06:00","15.6","","10.8","","73","","","","0","","16.1","","99.03","","","","","","Mainly Clear"
"1994-06-11 07:00","1994","06","11","07:00","17.5","","12.9","","74","","","","0","","16.1","","99.06","","","","","","Mostly Cloudy"
"1994-06-11 08:00","1994","06","11","08:00","18.6","","13.4","","72","","","","0","","16.1","","99.06","","","","","","Mostly Cloudy"
"1994-06-11 09:00","1994","06","11","09:00","21.3","","13.7","","62","","","","0","","16.1","","99.06","","","","","","Mostly Cloudy"
"1994-06-11 10:00","1994","06","11","10:00","22.0","","13.0","","57","","28","","6","","12.9","","99.03","","25","","","","Mostly Cloudy"
"1994-06-11 11:00","1994","06","11","11:00","24.5","","11.9","","45","","30","","6","","12.9","","99.00","","27","","","","Mostly Cloudy"
"1994-06-11 12:00","1994","06","11","12:00","24.6","","13.0","","48","","","","0","","16.1","","99.00","","27","","","","Mostly Cloudy"
"1994-06-11 13:00","1994","06","11","13:00","25.9","","12.0","","42","","20","","6","","16.1","","98.93","","28","","","","Mainly Clear"
"1994-06-11 14:00","1994","06","11","14:00","27.8","","10.5","","34","","27","","17","","19.3","","98.86","","29","","","","Mainly Clear"
"1994-06-11 15:00","1994","06","11","15:00","27.4","","10.2","","34","","28","","22","","24.1","","98.83","","29","","","","Mainly Clear"
"1994-06-11 16:00","1994","06","11","16:00","27.5","","7.1","","27","","30","","19","","24.1","","98.86","","28","","","","Mainly Clear"
"1994-06-11 17:00","1994","06","11","17:00","27.1","","7.9","","30","","27","","22","","24.1","","98.83","","27","","","","Mainly Clear"
"1994-06-11 18:00","1994","06","11","18:00","26.9","","8.1","","30","","28","","19","","24.1","","98.80","","27","","","","Mainly Clear"
"1994-06-11 19:00","1994","06","11","19:00","26.3","","8.4","","32","","27","","15","","24.1","","98.80","","27","","","","Mainly Clear"
"1994-06-11 20:00","1994","06","11","20:00","24.8","","8.5","","35","","27","","9","","24.1","","98.80","","25","","","","Mainly Clear"
"1994-06-11 21:00","1994","06","11","21:00","22.4","","9.4","","44","","24","","9","","24.1","","98.86","","","","","","Mainly Clear"
"1994-06-11 22:00","1994","06","11","22:00","21.2","","10.3","","50","","23","","11","","24.1","","98.90","","","","","","Clear"
"1994-06-11 23:00","1994","06","11","23:00","19.9","","10.5","","55","","22","","11","","19.3","","98.90","","","","","","Mostly Cloudy"
"1994-06-12 00:00","1994","06","12","00:00","19.7","","11.6","","60","","24","","15","","19.3","","98.90","","","","","","Mostly Cloudy"
"1994-06-12 01:00","1994","06","12","01:00","20.2","","12.0","","59","","27","","20","","19.3","","98.96","","","","","","Mostly Cloudy"
"1994-06-12 02:00","1994","06","12","02:00","19.9","","11.4","","58","","30","","19","","19.3","","98.93","","","","","","Mostly Cloudy"
"1994-06-12 03:00","1994","06","12","03:00","19.1","","11.6","","62","","24","","6","","19.3","","98.86","","","","","","Mostly Cloudy"
"1994-06-12 04:00","1994","06","12","04:00","18.4","","12.0","","66","","23","","9","","19.3","","98.86","","","","","","Mostly Cloudy"
"1994-06-12 05:00","1994","06","12","05:00","17.7","","12.3","","71","","24","","11","","24.1","","98.90","","","","","","Mainly Clear"
"1994-06-12 06:00","1994","06","12","06:00","18.1","","13.5","","74","","21","","11","","24.1","","99.00","","","","","","Mainly Clear"
"1994-06-12 07:00","1994","06","12","07:00","20.1","","12.8","","63","","23","","15","","24.1","","99.03","","","","","","Clear"
"1994-06-12 08:00","1994","06","12","08:00","21.6","","13.0","","58","","24","","17","","24.1","","99.03","","","","","","Clear"
"1994-06-12 09:00","1994","06","12","09:00","23.9","","14.2","","55","","24","","28","","24.1","","99.03","","27","","","","Clear"
"1994-06-12 10:00","1994","06","12","10:00","25.2","","14.6","","52","","24","","26","","24.1","","99.00","","29","","","","Clear"
"1994-06-12 11:00","1994","06","12","11:00","26.9","","14.8","","47","","24","","28","","24.1","","99.00","","31","","","","Mainly Clear"
"1994-06-12 12:00","1994","06","12","12:00","25.5","","16.4","","57","","24","","19","","24.1","","99.00","","30","","","","Mostly Cloudy"
"1994-06-12 13:00","1994","06","12","13:00","26.7","","15.6","","51","","25","","13","","24.1","","98.96","","31","","","","Mainly Clear"
"1994-06-12 14:00","1994","06","12","14:00","28.5","","12.6","","37","","24","","22","","24.1","","98.93","","31","","","","Mostly Cloudy"
"1994-06-12 15:00","1994","06","12","15:00","27.6","","16.0","","49","","22","","20","","24.1","","98.96","","32","","","","Mostly Cloudy"
"1994-06-12 16:00","1994","06","12","16:00","26.8","","14.7","","47","","21","","20","","24.1","","98.93","","31","","","","Mainly Clear"
"1994-06-12 17:00","1994","06","12","17:00","27.1","","15.0","","48","","21","","19","","24.1","","98.90","","31","","","","Mostly Cloudy"
"1994-06-12 18:00","1994","06","12","18:00","28.8","","14.6","","42","","27","","19","","24.1","","98.90","","33","","","","Mostly Cloudy"
"1994-06-12 19:00","1994","06","12","19:00","25.5","","15.8","","55","","22","","17","","24.1","","98.93","","30","","","","Mainly Clear"
"1994-06-12 20:00","1994","06","12","20:00","24.8","","15.6","","57","","23","","13","","24.1","","98.96","","29","","","","Mainly Clear"
"1994-06-12 21:00","1994","06","12","21:00","23.0","","15.3","","62","","22","","6","","24.1","","99.03","","27","","","","Mainly Clear"
"1994-06-12 22:00","1994","06","12","22:00","21.0","","15.5","","71","","21","","4","","24.1","","99.10","","25","","","","Mainly Clear"
"1994-06-12 23:00","1994","06","12","23:00","20.1","","15.3","","74","","","","0","","24.1","","99.03","","","","","","Mainly Clear"
"1994-06-13 00:00","1994","06","13","00:00","20.6","","15.8","","74","","21","","9","","24.1","","99.03","","25","","","","Mainly Clear"
"1994-06-13 01:00","1994","06","13","01:00","20.1","","15.5","","75","","22","","9","","24.1","","99.06","","","","","","Mainly Clear"
"1994-06-13 02:00","1994","06","13","02:00","20.2","","15.9","","76","","21","","11","","16.1","","99.06","","25","","","","Mainly Clear"
"1994-06-13 03:00","1994","06","13","03:00","20.2","","17.0","","82","","22","","7","","12.9","","99.03","","25","","","","Mostly Cloudy"
"1994-06-13 04:00","1994","06","13","04:00","19.9","","17.0","","83","","21","","7","","11.3","","99.03","","","","","","Mostly Cloudy"
"1994-06-13 05:00","1994","06","13","05:00","19.9","","16.7","","82","","18","","11","","11.3","","98.96","","","","","","Mostly Cloudy"
"1994-06-13 06:00","1994","06","13","06:00","20.3","","17.5","","84","","19","","19","","9.7","","98.96","","26","","","","Haze"
"1994-06-13 07:00","1994","06","13","07:00","21.5","","17.2","","77","","21","","28","","11.3","","98.96","","27","","","","Cloudy"
"1994-06-13 08:00","1994","06","13","08:00","21.5","","17.2","","77","","23","","20","","11.3","","99.03","","27","","","","Cloudy"
"1994-06-13 09:00","1994","06","13","09:00","20.4","","17.8","","85","","21","","19","","11.3","","99.03","","26","","","","Rain Showers"
"1994-06-13 10:00","1994","06","13","10:00","19.7","","17.9","","89","","21","","17","","9.7","","98.96","","","","","","Thunderstorms,Rain Showers,Haze"
"1994-06-13 11:00","1994","06","13","11:00","21.9","","19.1","","84","","20","","33","","16.1","","98.90","","29","","","","Mostly Cloudy"
"1994-06-13 12:00","1994","06","13","12:00","24.6","","20.0","","76","","21","","28","","12.9","","98.86","","32","","","","Cloudy"
"1994-06-13 13:00","1994","06","13","13:00","25.4","","21.6","","80","","22","","26","","9.7","","98.70","","34","","","","Haze"
"1994-06-13 14:00","1994","06","13","14:00","26.9","","21.8","","74","","19","","20","","9.7","","98.63","","36","","","","Haze"
"1994-06-13 15:00","1994","06","13","15:00","27.1","","20.4","","67","","21","","19","","9.7","","98.53","","35","","","","Rain Showers,Haze"
"1994-06-13 16:00","1994","06","13","16:00","21.0","","18.7","","87","","36","","22","","4.0","","98.70","","28","","","","Thunderstorms,Moderate Rain Showers,Fog"
"1994-06-13 17:00","1994","06","13","17:00","21.1","","19.7","","92","","29","","9","","9.7","","98.80","","28","","","","Rain Showers,Fog"
"1994-06-13 18:00","1994","06","13","18:00","20.1","","18.1","","88","","23","","11","","12.9","","98.70","","26","","","","Thunderstorms,Moderate Rain Showers"
"1994-06-13 19:00","1994","06","13","19:00","18.9","","17.2","","90","","23","","26","","19.3","","98.76","","","","","","Thunderstorms"
"1994-06-13 20:00","1994","06","13","20:00","19.5","","18.4","","93","","24","","17","","16.1","","98.83","","","","","","Mostly Cloudy"
"1994-06-13 21:00","1994","06","13","21:00","19.9","","18.5","","92","","21","","19","","12.9","","98.90","","","","","","Thunderstorms"
"1994-06-13 22:00","1994","06","13","22:00","20.3","","19.5","","95","","26","","7","","12.9","","98.90","","27","","","","Cloudy"
"1994-06-13 23:00","1994","06","13","23:00","20.3","","19.1","","93","","23","","17","","8.0","","98.96","","27","","","","Fog"
"1994-06-14 00:00","1994","06","14","00:00","20.0","","18.6","","92","","25","","11","","9.7","","99.00","","26","","","","Fog"
"1994-06-14 01:00","1994","06","14","01:00","19.6","","18.7","","95","","30","","7","","9.7","","98.96","","","","","","Fog"
"1994-06-14 02:00","1994","06","14","02:00","19.4","","18.7","","96","","","","0","","8.0","","99.00","","","","","","Fog"
"1994-06-14 03:00","1994","06","14","03:00","19.0","","18.3","","96","","25","","6","","6.4","","99.03","","","","","","Fog"
"1994-06-14 04:00","1994","06","14","04:00","19.5","","18.8","","96","","","","0","","4.8","","99.10","","","","","","Fog"
"1994-06-14 05:00","1994","06","14","05:00","16.5","","15.4","","93","","4","","22","","4.8","","99.13","","","","","","Fog"
"1994-06-14 06:00","1994","06","14","06:00","16.2","","14.6","","90","","5","","17","","8.0","","99.23","","","","","","Fog"
"1994-06-14 07:00","1994","06","14","07:00","16.6","","15.3","","92","","9","","9","","6.4","","99.36","","","","","","Fog"
"1994-06-14 08:00","1994","06","14","08:00","16.6","","15.6","","94","","","","0","","6.4","","99.46","","","","","","Fog"
"1994-06-14 09:00","1994","06","14","09:00","17.8","","15.6","","87","","7","","4","","11.3","","99.43","","","","","","Cloudy"
"1994-06-14 10:00","1994","06","14","10:00","19.0","","16.7","","87","","9","","4","","9.7","","99.46","","","","","","Fog"
"1994-06-14 11:00","1994","06","14","11:00","21.2","","18.3","","84","","10","","7","","9.7","","99.43","","27","","","","Haze"
"1994-06-14 12:00","1994","06","14","12:00","22.9","","19.7","","82","","13","","7","","9.7","","99.43","","30","","","","Haze"
"1994-06-14 13:00","1994","06","14","13:00","22.7","","18.4","","77","","5","","9","","9.7","","99.46","","29","","","","Haze"
"1994-06-14 14:00","1994","06","14","14:00","23.5","","19.9","","80","","","","0","","9.7","","99.43","","31","","","","Haze"
"1994-06-14 15:00","1994","06","14","15:00","26.3","","21.7","","76","","7","","6","","9.7","","99.40","","35","","","","Haze"
"1994-06-14 16:00","1994","06","14","16:00","25.7","","20.9","","75","","4","","6","","9.7","","99.36","","34","","","","Haze"
"1994-06-14 17:00","1994","06","14","17:00","25.7","","21.2","","76","","7","","9","","9.7","","99.33","","34","","","","Haze"
"1994-06-14 18:00","1994","06","14","18:00","25.3","","21.5","","80","","9","","9","","9.7","","99.33","","34","","","","Haze"
"1994-06-14 19:00","1994","06","14","19:00","26.0","","22.7","","82","","12","","4","","9.7","","99.33","","36","","","","Haze"
"1994-06-14 20:00","1994","06","14","20:00","24.3","","20.7","","80","","","","0","","9.7","","99.36","","32","","","","Haze"
"1994-06-14 21:00","1994","06","14","21:00","22.2","","18.9","","82","","15","","7","","11.3","","99.43","","29","","","","Mostly Cloudy"
"1994-06-14 22:00","1994","06","14","22:00","21.5","","19.0","","86","","16","","6","","11.3","","99.46","","28","","","","Mainly Clear"
"1994-06-14 23:00","1994","06","14","23:00","21.5","","19.1","","86","","18","","9","","11.3","","99.46","","28","","","","Mainly Clear"
"1994-06-15 00:00","1994","06","15","00:00","21.9","","19.5","","86","","20","","9","","9.7","","99.46","","29","","","","Haze"
"1994-06-15 01:00","1994","06","15","01:00","22.8","","19.9","","84","","21","","11","","9.7","","99.43","","30","","","","Haze"
"1994-06-15 02:00","1994","06","15","02:00","22.7","","19.9","","84","","23","","15","","9.7","","99.40","","30","","","","Haze"
"1994-06-15 03:00","1994","06","15","03:00","22.4","","19.8","","85","","22","","13","","9.7","","99.43","","30","","","","Haze"
"1994-06-15 04:00","1994","06","15","04:00","21.8","","19.8","","88","","20","","6","","8.0","","99.50","","29","","","","Haze"
"1994-06-15 05:00","1994","06","15","05:00","22.2","","20.1","","88","","20","","11","","6.4","","99.56","","30","","","","Fog,Haze"
"1994-06-15 06:00","1994","06","15","06:00","22.9","","20.4","","86","","20","","11","","6.4","","99.63","","31","","","","Haze"
"1994-06-15 07:00","1994","06","15","07:00","24.4","","21.1","","82","","20","","9","","6.4","","99.76","","33","","","","Haze"
"1994-06-15 08:00","1994","06","15","08:00","26.1","","21.9","","78","","22","","11","","8.0","","99.80","","35","","","","Haze"
"1994-06-15 09:00","1994","06","15","09:00","27.6","","22.4","","73","","22","","19","","6.4","","99.80","","37","","","","Haze"
"1994-06-15 10:00","1994","06","15","10:00","29.1","","23.1","","70","","21","","13","","6.4","","99.80","","39","","","","Haze"
"1994-06-15 11:00","1994","06","15","11:00","29.8","","23.6","","69","","18","","9","","6.4","","99.80","","41","","","","Haze"
"1994-06-15 12:00","1994","06","15","12:00","30.9","","24.1","","67","","20","","9","","6.4","","99.76","","42","","","","Haze"
"1994-06-15 13:00","1994","06","15","13:00","31.0","","24.0","","66","","19","","17","","9.7","","99.73","","42","","","","Haze"
"1994-06-15 14:00","1994","06","15","14:00","31.8","","22.3","","57","","16","","15","","11.3","","99.70","","41","","","","Mainly Clear"
"1994-06-15 15:00","1994","06","15","15:00","32.1","","22.3","","56","","20","","19","","11.3","","99.70","","42","","","","Mostly Cloudy"
"1994-06-15 16:00","1994","06","15","16:00","32.5","","22.6","","56","","19","","15","","11.3","","99.70","","42","","","","Mostly Cloudy"
"1994-06-15 17:00","1994","06","15","17:00","31.7","","23.1","","60","","18","","19","","11.3","","99.70","","42","","","","Mostly Cloudy"
"1994-06-15 18:00","1994","06","15","18:00","29.9","","22.0","","63","","17","","22","","9.7","","99.70","","39","","","","Haze"
"1994-06-15 19:00","1994","06","15","19:00","28.8","","21.6","","65","","17","","15","","9.7","","99.70","","38","","","","Haze"
"1994-06-15 20:00","1994","06","15","20:00","27.4","","20.7","","67","","17","","13","","11.3","","99.70","","36","","","","Mostly Cloudy"
"1994-06-15 21:00","1994","06","15","21:00","26.1","","19.8","","68","","16","","13","","12.9","","99.70","","34","","","","Mainly Clear"
"1994-06-15 22:00","1994","06","15","22:00","24.8","","20.8","","78","","18","","9","","12.9","","99.76","","33","","","","Mainly Clear"
"1994-06-15 23:00","1994","06","15","23:00","24.5","","21.0","","81","","22","","2","","11.3","","99.80","","33","","","","Mainly Clear"
"1994-06-16 00:00","1994","06","16","00:00","23.9","","21.0","","84","","","","0","","9.7","","99.83","","32","","","","Haze"
"1994-06-16 01:00","1994","06","16","01:00","23.9","","20.8","","83","","21","","4","","9.7","","99.83","","32","","","","Haze"
"1994-06-16 02:00","1994","06","16","02:00","24.1","","20.7","","81","","23","","11","","9.7","","99.83","","32","","","","Haze"
"1994-06-16 03:00","1994","06","16","03:00","23.3","","20.4","","84","","21","","7","","9.7","","99.83","","31","","","","Haze"
"1994-06-16 04:00","1994","06","16","04:00","23.4","","20.6","","84","","","","0","","9.7","","99.86","","31","","","","Haze"
"1994-06-16 05:00","1994","06","16","05:00","22.2","","20.4","","90","","","","0","","4.8","","99.93","","30","","","","Fog,Haze"
"1994-06-16 06:00","1994","06","16","06:00","23.5","","20.9","","85","","22","","4","","9.7","","99.96","","32","","","","Haze"
"1994-06-16 07:00","1994","06","16","07:00","26.2","","21.4","","75","","22","","7","","9.7","","99.99","","35","","","","Haze"
"1994-06-16 08:00","1994","06","16","08:00","28.1","","21.5","","67","","22","","6","","9.7","","100.03","","37","","","","Haze"
"1994-06-16 09:00","1994","06","16","09:00","28.3","","21.3","","66","","25","","4","","8.0","","100.03","","37","","","","Haze"
"1994-06-16 10:00","1994","06","16","10:00","29.7","","22.3","","65","","22","","6","","9.7","","99.99","","39","","","","Haze"
"1994-06-16 11:00","1994","06","16","11:00","32.0","","22.8","","58","","","","0","","9.7","","99.96","","42","","","","Haze"
"1994-06-16 12:00","1994","06","16","12:00","32.7","","22.7","","56","","15","","6","","9.7","","99.93","","43","","","","Haze"
"1994-06-16 13:00","1994","06","16","13:00","33.3","","22.1","","52","","16","","6","","9.7","","99.90","","43","","","","Haze"
"1994-06-16 14:00","1994","06","16","14:00","33.2","","22.0","","52","","20","","17","","12.9","","99.83","","43","","","","Mostly Cloudy"
"1994-06-16 15:00","1994","06","16","15:00","33.7","","21.1","","48","","22","","13","","12.9","","99.80","","42","","","","Mostly Cloudy"
"1994-06-16 16:00","1994","06","16","16:00","33.5","","21.5","","50","","19","","15","","12.9","","99.76","","42","","","","Mostly Cloudy"
"1994-06-16 17:00","1994","06","16","17:00","32.0","","21.2","","53","","18","","13","","12.9","","99.73","","41","","","","Mostly Cloudy"
"1994-06-16 18:00","1994","06","16","18:00","31.0","","21.8","","58","","18","","7","","12.9","","99.73","","40","","","","Mostly Cloudy"
"1994-06-16 19:00","1994","06","16","19:00","29.8","","21.9","","63","","18","","7","","12.9","","99.76","","39","","","","Mostly Cloudy"
"1994-06-16 20:00","1994","06","16","20:00","29.4","","21.5","","63","","23","","7","","11.3","","99.80","","38","","","","Mostly Cloudy"
"1994-06-16 21:00","1994","06","16","21:00","27.5","","20.6","","66","","","","0","","11.3","","99.83","","36","","","","Mostly Cloudy"
"1994-06-16 22:00","1994","06","16","22:00","27.3","","20.5","","66","","","","0","","11.3","","99.83","","35","","","","Mostly Cloudy"
"1994-06-16 23:00","1994","06","16","23:00","25.8","","21.3","","76","","19","","6","","11.3","","99.83","","34","","","","Mostly Cloudy"
"1994-06-17 00:00","1994","06","17","00:00","24.8","","21.6","","82","","","","0","","11.3","","99.83","","34","","","","Mostly Cloudy"
"1994-06-17 01:00","1994","06","17","01:00","25.2","","21.7","","81","","","","0","","11.3","","99.80","","34","","","","Cloudy"
"1994-06-17 02:00","1994","06","17","02:00","25.5","","21.3","","78","","","","0","","11.3","","99.76","","34","","","","Cloudy"
"1994-06-17 03:00","1994","06","17","03:00","25.6","","21.0","","76","","29","","6","","11.3","","99.76","","34","","","","Cloudy"
"1994-06-17 04:00","1994","06","17","04:00","25.1","","20.9","","78","","","","0","","11.3","","99.80","","33","","","","Mostly Cloudy"
"1994-06-17 05:00","1994","06","17","05:00","25.3","","20.6","","75","","","","0","","12.9","","99.83","","33","","","","Mostly Cloudy"
"1994-06-17 06:00","1994","06","17","06:00","26.3","","20.9","","72","","","","0","","16.1","","99.83","","35","","","","Mostly Cloudy"
"1994-06-17 07:00","1994","06","17","07:00","27.7","","21.0","","67","","","","0","","12.9","","99.86","","36","","","","Mostly Cloudy"
"1994-06-17 08:00","1994","06","17","08:00","29.0","","21.1","","62","","36","","6","","12.9","","99.90","","38","","","","Mainly Clear"
"1994-06-17 09:00","1994","06","17","09:00","30.5","","20.8","","56","","7","","4","","16.1","","99.86","","39","","","","Mainly Clear"
"1994-06-17 10:00","1994","06","17","10:00","31.2","","20.3","","52","","7","","9","","16.1","","99.86","","39","","","","Mainly Clear"
"1994-06-17 11:00","1994","06","17","11:00","31.8","","20.9","","53","","10","","9","","16.1","","99.86","","40","","","","Mainly Clear"
"1994-06-17 12:00","1994","06","17","12:00","33.0","","21.3","","50","","4","","7","","16.1","","99.86","","42","","","","Mainly Clear"
"1994-06-17 13:00","1994","06","17","13:00","33.2","","20.7","","48","","","","0","","16.1","","99.80","","41","","","","Mainly Clear"
"1994-06-17 14:00","1994","06","17","14:00","33.5","","20.6","","47","","14","","4","","16.1","","99.76","","42","","","","Mainly Clear"
"1994-06-17 15:00","1994","06","17","15:00","33.5","","20.7","","47","","7","","11","","16.1","","99.76","","42","","","","Mainly Clear"
"1994-06-17 16:00","1994","06","17","16:00","33.5","","20.4","","46","","9","","11","","16.1","","99.66","","41","","","","Mainly Clear"
"1994-06-17 17:00","1994","06","17","17:00","33.2","","20.4","","47","","6","","13","","16.1","","99.63","","41","","","","Mainly Clear"
"1994-06-17 18:00","1994","06","17","18:00","33.1","","19.5","","45","","9","","7","","16.1","","99.63","","40","","","","Mainly Clear"
"1994-06-17 19:00","1994","06","17","19:00","30.9","","20.6","","54","","","","0","","16.1","","99.60","","39","","","","Mainly Clear"
"1994-06-17 20:00","1994","06","17","20:00","29.6","","21.3","","61","","15","","6","","16.1","","99.63","","38","","","","Mostly Cloudy"
"1994-06-17 21:00","1994","06","17","21:00","29.1","","21.4","","63","","","","0","","12.9","","99.66","","38","","","","Mainly Clear"
"1994-06-17 22:00","1994","06","17","22:00","28.1","","21.6","","68","","","","0","","11.3","","99.70","","37","","","","Mostly Cloudy"
"1994-06-17 23:00","1994","06","17","23:00","26.6","","21.7","","75","","","","0","","11.3","","99.70","","36","","","","Mainly Clear"
"1994-06-18 00:00","1994","06","18","00:00","26.0","","22.0","","79","","","","0","","11.3","","99.70","","35","","","","Mainly Clear"
"1994-06-18 01:00","1994","06","18","01:00","24.9","","21.9","","83","","","","0","","11.3","","99.66","","34","","","","Mainly Clear"
"1994-06-18 02:00","1994","06","18","02:00","25.0","","22.4","","86","","","","0","","11.3","","99.63","","35","","","","Clear"
"1994-06-18 03:00","1994","06","18","03:00","24.1","","22.3","","90","","","","0","","11.3","","99.63","","34","","","","Clear"
"1994-06-18 04:00","1994","06","18","04:00","24.1","","22.4","","90","","","","0","","11.3","","99.63","","34","","","","Clear"
"1994-06-18 05:00","1994","06","18","05:00","23.5","","22.2","","92","","","","0","","1.0","","99.66","","33","","","","Fog"
"1994-06-18 06:00","1994","06","18","06:00","24.7","","23.5","","93","","","","0","","1.2","","99.66","","35","","","","Fog"
"1994-06-18 07:00","1994","06","18","07:00","26.8","","23.0","","80","","","","0","","1.2","","99.70","","37","","","","Haze"
"1994-06-18 08:00","1994","06","18","08:00","29.0","","22.2","","67","","","","0","","4.0","","99.73","","39","","","","Haze"
"1994-06-18 09:00","1994","06","18","09:00","30.9","","22.0","","59","","","","0","","6.4","","99.73","","40","","","","Haze"
"1994-06-18 10:00","1994","06","18","10:00","31.7","","22.4","","58","","","","0","","6.4","","99.73","","41","","","","Haze"
"1994-06-18 11:00","1994","06","18","11:00","32.3","","22.2","","55","","","","0","","9.7","","99.70","","42","","","","Haze"
"1994-06-18 12:00","1994","06","18","12:00","33.7","","20.3","","46","","6","","4","","9.7","","99.66","","42","","","","Haze"
"1994-06-18 13:00","1994","06","18","13:00","33.7","","20.9","","47","","7","","7","","9.7","","99.63","","42","","","","Haze"
"1994-06-18 14:00","1994","06","18","14:00","32.7","","20.1","","48","","9","","11","","11.3","","99.63","","40","","","","Mainly Clear"
"1994-06-18 15:00","1994","06","18","15:00","30.8","","22.8","","62","","23","","9","","9.7","","99.56","","41","","","","Haze"
"1994-06-18 16:00","1994","06","18","16:00","33.1","","19.9","","46","","","","0","","11.3","","99.56","","41","","","","Mainly Clear"
"1994-06-18 17:00","1994","06","18","17:00","33.7","","19.6","","44","","11","","4","","11.3","","99.53","","41","","","","Mainly Clear"
"1994-06-18 18:00","1994","06","18","18:00","33.3","","19.1","","43","","","","0","","11.3","","99.50","","40","","","","Mainly Clear"
"1994-06-18 19:00","1994","06","18","19:00","31.7","","22.1","","57","","","","0","","11.3","","99.46","","41","","","","Mainly Clear"
"1994-06-18 20:00","1994","06","18","20:00","30.5","","21.9","","60","","24","","4","","11.3","","99.50","","40","","","","Mainly Clear"
"1994-06-18 21:00","1994","06","18","21:00","28.6","","22.2","","68","","","","0","","11.3","","99.53","","38","","","","Mainly Clear"
"1994-06-18 22:00","1994","06","18","22:00","27.8","","22.7","","74","","","","0","","11.3","","99.56","","38","","","","Clear"
"1994-06-18 23:00","1994","06","18","23:00","27.3","","22.6","","76","","","","0","","11.3","","99.60","","37","","","","Clear"
"1994-06-19 00:00","1994","06","19","00:00","27.2","","21.3","","70","","","","0","","11.3","","99.63","","36","","","","Clear"
"1994-06-19 01:00","1994","06","19","01:00","23.1","","20.1","","83","","4","","28","","12.9","","99.66","","31","","","","Clear"
"1994-06-19 02:00","1994","06","19","02:00","22.1","","18.5","","80","","4","","24","","12.9","","99.66","","28","","","","Clear"
"1994-06-19 03:00","1994","06","19","03:00","21.5","","18.0","","80","","4","","22","","24.1","","99.66","","28","","","","Clear"
"1994-06-19 04:00","1994","06","19","04:00","20.6","","15.3","","72","","4","","22","","24.1","","99.70","","25","","","","Clear"
"1994-06-19 05:00","1994","06","19","05:00","19.8","","15.3","","75","","4","","17","","24.1","","99.73","","","","","","Mainly Clear"
"1994-06-19 06:00","1994","06","19","06:00","20.0","","16.2","","79","","5","","17","","24.1","","99.73","","25","","","","Mainly Clear"
"1994-06-19 07:00","1994","06","19","07:00","20.7","","16.7","","78","","5","","17","","24.1","","99.76","","26","","","","Mainly Clear"
"1994-06-19 08:00","1994","06","19","08:00","22.2","","17.0","","72","","4","","13","","24.1","","99.83","","27","","","","Mainly Clear"
"1994-06-19 09:00","1994","06","19","09:00","24.6","","15.6","","57","","4","","11","","24.1","","99.83","","29","","","","Mainly Clear"
"1994-06-19 10:00","1994","06","19","10:00","25.8","","15.5","","53","","4","","13","","24.1","","99.83","","30","","","","Mainly Clear"
"1994-06-19 11:00","1994","06","19","11:00","27.2","","16.0","","50","","4","","19","","24.1","","99.83","","32","","","","Mainly Clear"
"1994-06-19 12:00","1994","06","19","12:00","27.9","","16.0","","48","","4","","20","","24.1","","99.83","","33","","","","Clear"
"1994-06-19 13:00","1994","06","19","13:00","29.7","","15.8","","43","","4","","19","","24.1","","99.83","","34","","","","Mainly Clear"
"1994-06-19 14:00","1994","06","19","14:00","30.2","","14.6","","39","","6","","20","","24.1","","99.76","","34","","","","Mainly Clear"
"1994-06-19 15:00","1994","06","19","15:00","30.5","","14.4","","38","","6","","20","","24.1","","99.76","","34","","","","Mainly Clear"
"1994-06-19 16:00","1994","06","19","16:00","30.5","","16.1","","42","","4","","22","","24.1","","99.70","","35","","","","Mainly Clear"
"1994-06-19 17:00","1994","06","19","17:00","28.8","","18.4","","53","","5","","20","","24.1","","99.63","","35","","","","Mainly Clear"
"1994-06-19 18:00","1994","06","19","18:00","27.1","","18.6","","60","","6","","22","","24.1","","99.66","","34","","","","Mostly Cloudy"
"1994-06-19 19:00","1994","06","19","19:00","25.1","","16.7","","60","","6","","22","","24.1","","99.70","","30","","","","Mostly Cloudy"
"1994-06-19 20:00","1994","06","19","20:00","22.8","","15.3","","63","","6","","19","","24.1","","99.73","","27","","","","Mostly Cloudy"
"1994-06-19 21:00","1994","06","19","21:00","21.9","","15.1","","65","","6","","13","","24.1","","99.76","","26","","","","Mostly Cloudy"
"1994-06-19 22:00","1994","06","19","22:00","21.6","","14.4","","64","","3","","11","","24.1","","99.80","","25","","","","Mostly Cloudy"
"1994-06-19 23:00","1994","06","19","23:00","21.4","","14.5","","65","","5","","15","","24.1","","99.80","","25","","","","Cloudy"
"1994-06-20 00:00","1994","06","20","00:00","20.9","","15.3","","70","","4","","15","","24.1","","99.76","","25","","","","Cloudy"
"1994-06-20 01:00","1994","06","20","01:00","21.0","","15.9","","73","","6","","11","","24.1","","99.73","","26","","","","Cloudy"
"1994-06-20 02:00","1994","06","20","02:00","20.6","","16.5","","77","","5","","11","","24.1","","99.73","","26","","","","Cloudy"
"1994-06-20 03:00","1994","06","20","03:00","20.0","","16.6","","81","","4","","9","","24.1","","99.70","","25","","","","Cloudy"
"1994-06-20 04:00","1994","06","20","04:00","19.3","","17.0","","87","","4","","7","","16.1","","99.63","","","","","","Mainly Clear"
"1994-06-20 05:00","1994","06","20","05:00","19.1","","17.3","","89","","6","","4","","16.1","","99.63","","","","","","Mostly Cloudy"
"1994-06-20 06:00","1994","06","20","06:00","20.3","","17.9","","86","","","","0","","12.9","","99.66","","26","","","","Mostly Cloudy"
"1994-06-20 07:00","1994","06","20","07:00","21.8","","18.0","","79","","","","0","","16.1","","99.63","","28","","","","Mostly Cloudy"
"1994-06-20 08:00","1994","06","20","08:00","23.9","","18.0","","70","","","","0","","16.1","","99.60","","30","","","","Mostly Cloudy"
"1994-06-20 09:00","1994","06","20","09:00","25.7","","18.8","","66","","","","0","","24.1","","99.56","","32","","","","Mostly Cloudy"
"1994-06-20 10:00","1994","06","20","10:00","27.4","","18.9","","60","","","","0","","24.1","","99.53","","34","","","","Mostly Cloudy"
"1994-06-20 11:00","1994","06","20","11:00","29.2","","18.9","","54","","","","0","","24.1","","99.50","","36","","","","Mostly Cloudy"
"1994-06-20 12:00","1994","06","20","12:00","29.6","","19.5","","55","","","","0","","19.3","","99.46","","37","","","","Cloudy"
"1994-06-20 13:00","1994","06","20","13:00","30.3","","18.7","","50","","","","0","","16.1","","99.33","","37","","","","Cloudy"
"1994-06-20 14:00","1994","06","20","14:00","30.0","","18.0","","49","","19","","6","","19.3","","99.26","","36","","","","Cloudy"
"1994-06-20 15:00","1994","06","20","15:00","22.2","","19.7","","86","","29","","33","","4.8","","99.33","","30","","","","Thunderstorms,Moderate Rain Showers,Fog"
"1994-06-20 16:00","1994","06","20","16:00","21.5","","20.0","","91","","21","","6","","8.0","","99.23","","29","","","","Thunderstorms,Rain Showers,Fog"
"1994-06-20 17:00","1994","06","20","17:00","24.1","","20.4","","80","","26","","6","","9.7","","99.06","","32","","","","Haze"
"1994-06-20 18:00","1994","06","20","18:00","24.7","","19.8","","74","","25","","11","","9.7","","99.10","","32","","","","Haze"
"1994-06-20 19:00","1994","06","20","19:00","24.0","","19.9","","78","","21","","15","","9.7","","99.13","","31","","","","Haze"
"1994-06-20 20:00","1994","06","20","20:00","22.8","","20.0","","84","","22","","17","","8.0","","99.13","","30","","","","Haze"
"1994-06-20 21:00","1994","06","20","21:00","22.6","","20.5","","88","","22","","17","","9.7","","99.13","","31","","","","Haze"
"1994-06-20 22:00","1994","06","20","22:00","22.6","","20.8","","90","","23","","17","","8.0","","99.03","","31","","","","Haze"
"1994-06-20 23:00","1994","06","20","23:00","22.6","","20.9","","90","","24","","17","","8.0","","99.03","","31","","","","Haze"
"1994-06-21 00:00","1994","06","21","00:00","22.3","","20.7","","91","","24","","11","","6.4","","99.00","","30","","","","Fog"
"1994-06-21 01:00","1994","06","21","01:00","21.9","","20.6","","92","","22","","6","","4.8","","98.93","","30","","","","Fog"
"1994-06-21 02:00","1994","06","21","02:00","21.9","","20.8","","93","","24","","7","","4.8","","98.90","","30","","","","Fog"
"1994-06-21 03:00","1994","06","21","03:00","22.2","","21.0","","93","","24","","7","","4.0","","98.83","","31","","","","Fog"
"1994-06-21 04:00","1994","06","21","04:00","22.5","","21.1","","92","","26","","6","","3.2","","98.80","","31","","","","Fog"
"1994-06-21 05:00","1994","06","21","05:00","22.7","","21.2","","91","","25","","7","","2.4","","98.86","","31","","","","Fog"
"1994-06-21 06:00","1994","06","21","06:00","22.9","","21.0","","89","","25","","6","","2.4","","98.86","","31","","","","Fog"
"1994-06-21 07:00","1994","06","21","07:00","24.8","","21.4","","81","","29","","19","","4.0","","98.86","","34","","","","Haze"
"1994-06-21 08:00","1994","06","21","08:00","26.1","","21.7","","77","","30","","19","","4.8","","98.90","","35","","","","Haze"
"1994-06-21 09:00","1994","06","21","09:00","27.5","","21.4","","69","","29","","15","","8.0","","98.90","","36","","","","Haze"
"1994-06-21 10:00","1994","06","21","10:00","28.6","","20.5","","62","","29","","11","","16.1","","98.90","","37","","","","Mainly Clear"
"1994-06-21 11:00","1994","06","21","11:00","29.4","","20.5","","59","","31","","17","","17.7","","98.90","","37","","","","Mostly Cloudy"
"1994-06-21 12:00","1994","06","21","12:00","29.7","","20.6","","58","","32","","19","","19.3","","98.86","","38","","","","Mostly Cloudy"
"1994-06-21 13:00","1994","06","21","13:00","30.1","","18.5","","50","","33","","28","","19.3","","98.86","","36","","","","Mostly Cloudy"
"1994-06-21 14:00","1994","06","21","14:00","31.0","","18.1","","46","","33","","24","","20.9","","98.83","","37","","","","Mainly Clear"
"1994-06-21 15:00","1994","06","21","15:00","31.3","","16.1","","40","","33","","24","","24.1","","98.90","","36","","","","Mainly Clear"
"1994-06-21 16:00","1994","06","21","16:00","30.8","","15.4","","39","","33","","20","","24.1","","98.73","","35","","","","Mainly Clear"
"1994-06-21 17:00","1994","06","21","17:00","31.0","","14.6","","37","","33","","24","","24.1","","98.70","","35","","","","Clear"
"1994-06-21 18:00","1994","06","21","18:00","30.7","","14.7","","38","","34","","19","","24.1","","98.73","","34","","","","Clear"
"1994-06-21 19:00","1994","06","21","19:00","29.5","","11.4","","33","","36","","19","","24.1","","98.76","","31","","","","Clear"
"1994-06-21 20:00","1994","06","21","20:00","27.3","","10.3","","35","","36","","15","","24.1","","98.86","","29","","","","Mainly Clear"
"1994-06-21 21:00","1994","06","21","21:00","25.9","","8.9","","34","","36","","15","","24.1","","98.93","","27","","","","Mainly Clear"
"1994-06-21 22:00","1994","06","21","22:00","21.9","","13.3","","58","","4","","22","","24.1","","99.06","","25","","","","Mainly Clear"
"1994-06-21 23:00","1994","06","21","23:00","19.2","","13.8","","71","","5","","20","","24.1","","99.20","","","","","","Clear"
"1994-06-22 00:00","1994","06","22","00:00","17.9","","13.0","","73","","5","","11","","24.1","","99.20","","","","","","Clear"
"1994-06-22 01:00","1994","06","22","01:00","17.0","","12.7","","76","","5","","11","","24.1","","99.20","","","","","","Clear"
"1994-06-22 02:00","1994","06","22","02:00","16.6","","12.6","","77","","4","","9","","24.1","","99.16","","","","","","Clear"
"1994-06-22 03:00","1994","06","22","03:00","16.8","","12.6","","76","","","","0","","24.1","","99.20","","","","","","Clear"
"1994-06-22 04:00","1994","06","22","04:00","16.7","","12.4","","76","","","","0","","24.1","","99.20","","","","","","Clear"
"1994-06-22 05:00","1994","06","22","05:00","16.3","","12.6","","79","","","","0","","24.1","","99.23","","","","","","Mainly Clear"
"1994-06-22 06:00","1994","06","22","06:00","16.9","","12.6","","76","","35","","4","","24.1","","99.23","","","","","","Mainly Clear"
"1994-06-22 07:00","1994","06","22","07:00","19.2","","13.2","","68","","","","0","","24.1","","99.26","","","","","","Mainly Clear"
"1994-06-22 08:00","1994","06","22","08:00","20.8","","13.1","","61","","6","","6","","24.1","","99.30","","","","","","Mostly Cloudy"
"1994-06-22 09:00","1994","06","22","09:00","21.7","","11.4","","52","","4","","7","","25.0","","99.26","","","","","","Mostly Cloudy"
"1994-06-22 10:00","1994","06","22","10:00","23.0","","12.0","","50","","","","0","","25.0","","99.20","","25","","","","Mostly Cloudy"
"1994-06-22 11:00","1994","06","22","11:00","23.8","","12.2","","48","","5","","4","","25.0","","99.16","","26","","","","Mainly Clear"
"1994-06-22 12:00","1994","06","22","12:00","25.0","","12.3","","45","","","","0","","25.0","","99.16","","27","","","","Mainly Clear"
"1994-06-22 13:00","1994","06","22","13:00","26.1","","12.7","","43","","","","0","","25.0","","99.13","","29","","","","Mostly Cloudy"
"1994-06-22 14:00","1994","06","22","14:00","26.6","","12.0","","40","","12","","4","","24.1","","99.06","","29","","","","Mostly Cloudy"
"1994-06-22 15:00","1994","06","22","15:00","27.4","","12.7","","40","","7","","4","","24.1","","99.03","","30","","","","Mostly Cloudy"
"1994-06-22 16:00","1994","06","22","16:00","27.5","","12.6","","40","","6","","9","","19.3","","99.00","","30","","","","Mostly Cloudy"
"1994-06-22 17:00","1994","06","22","17:00","27.7","","13.3","","41","","15","","7","","19.3","","98.96","","31","","","","Mostly Cloudy"
"1994-06-22 18:00","1994","06","22","18:00","26.8","","14.0","","45","","15","","4","","19.3","","98.93","","30","","","","Mainly Clear"
"1994-06-22 19:00","1994","06","22","19:00","26.1","","14.3","","48","","17","","7","","19.3","","98.86","","30","","","","Mostly Cloudy"
"1994-06-22 20:00","1994","06","22","20:00","23.2","","15.3","","61","","19","","7","","19.3","","98.93","","27","","","","Mostly Cloudy"
"1994-06-22 21:00","1994","06","22","21:00","22.2","","15.5","","66","","21","","7","","19.3","","98.93","","26","","","","Mostly Cloudy"
"1994-06-22 22:00","1994","06","22","22:00","21.3","","15.5","","70","","20","","7","","19.3","","98.96","","26","","","","Mostly Cloudy"
"1994-06-22 23:00","1994","06","22","23:00","21.2","","15.6","","70","","22","","9","","24.1","","98.96","","26","","","","Mostly Cloudy"
"1994-06-23 00:00","1994","06","23","00:00","20.7","","16.5","","77","","20","","9","","24.1","","98.96","","26","","","","Mostly Cloudy"
"1994-06-23 01:00","1994","06","23","01:00","20.7","","16.9","","79","","22","","9","","24.1","","98.96","","26","","","","Mostly Cloudy"
"1994-06-23 02:00","1994","06","23","02:00","20.5","","17.3","","82","","","","0","","24.1","","98.93","","26","","","","Mostly Cloudy"
"1994-06-23 03:00","1994","06","23","03:00","20.4","","17.2","","82","","","","0","","24.1","","98.86","","26","","","","Mostly Cloudy"
"1994-06-23 04:00","1994","06","23","04:00","18.9","","16.9","","88","","","","0","","24.1","","98.83","","","","","","Mostly Cloudy"
"1994-06-23 05:00","1994","06","23","05:00","19.1","","16.9","","87","","","","0","","24.1","","98.86","","","","","","Mostly Cloudy"
"1994-06-23 06:00","1994","06","23","06:00","19.4","","16.9","","85","","","","0","","11.3","","98.90","","","","","","Mostly Cloudy"
"1994-06-23 07:00","1994","06","23","07:00","21.1","","17.5","","80","","","","0","","9.7","","98.90","","27","","","","Haze"
"1994-06-23 08:00","1994","06","23","08:00","23.2","","17.5","","70","","3","","9","","11.3","","98.86","","29","","","","Mostly Cloudy"
"1994-06-23 09:00","1994","06","23","09:00","21.9","","16.5","","71","","7","","6","","16.1","","98.83","","27","","","","Mostly Cloudy"
"1994-06-23 10:00","1994","06","23","10:00","22.3","","16.9","","71","","5","","6","","12.9","","98.83","","28","","","","Mostly Cloudy"
"1994-06-23 11:00","1994","06","23","11:00","23.1","","17.1","","69","","5","","7","","12.9","","98.80","","28","","","","Cloudy"
"1994-06-23 12:00","1994","06","23","12:00","22.9","","16.5","","67","","5","","11","","16.1","","98.80","","28","","","","Cloudy"
"1994-06-23 13:00","1994","06","23","13:00","23.4","","20.1","","82","","4","","11","","16.1","","98.70","","31","","","","Cloudy"
"1994-06-23 14:00","1994","06","23","14:00","22.7","","17.3","","72","","6","","13","","16.1","","98.63","","28","","","","Rain Showers"
"1994-06-23 15:00","1994","06","23","15:00","22.6","","17.7","","74","","7","","13","","12.9","","98.53","","28","","","","Cloudy"
"1994-06-23 16:00","1994","06","23","16:00","22.0","","17.6","","76","","3","","28","","12.9","","98.47","","28","","","","Cloudy"
"1994-06-23 17:00","1994","06","23","17:00","20.0","","15.0","","73","","4","","22","","19.3","","98.50","","","","","","Cloudy"
"1994-06-23 18:00","1994","06","23","18:00","19.5","","14.9","","75","","6","","22","","19.3","","98.40","","","","","","Cloudy"
"1994-06-23 19:00","1994","06","23","19:00","18.6","","16.4","","87","","5","","20","","19.3","","98.43","","","","","","Rain Showers"
"1994-06-23 20:00","1994","06","23","20:00","18.7","","15.9","","84","","7","","22","","19.3","","98.33","","","","","","Rain Showers"
"1994-06-23 21:00","1994","06","23","21:00","18.7","","15.2","","80","","9","","24","","16.1","","98.30","","","","","","Cloudy"
"1994-06-23 22:00","1994","06","23","22:00","17.5","","15.7","","89","","8","","22","","11.3","","98.23","","","","","","Rain Showers"
"1994-06-23 23:00","1994","06","23","23:00","17.4","","16.3","","93","","8","","22","","11.3","","98.17","","","","","","Rain Showers"
"1994-06-24 00:00","1994","06","24","00:00","17.3","","16.5","","95","","8","","13","","11.3","","98.10","","","","","","Rain Showers"
"1994-06-24 01:00","1994","06","24","01:00","17.6","","16.9","","96","","8","","17","","11.3","","98.00","","","","","","Rain Showers"
"1994-06-24 02:00","1994","06","24","02:00","17.4","","16.8","","96","","8","","17","","1.6","","97.93","","","","","","Thunderstorms,Heavy Rain Showers,Fog"
"1994-06-24 03:00","1994","06","24","03:00","17.6","","17.0","","96","","7","","17","","4.8","","97.90","","","","","","Rain Showers,Fog"
"1994-06-24 04:00","1994","06","24","04:00","18.2","","17.3","","94","","8","","20","","6.4","","97.80","","","","","","Drizzle,Fog"
"1994-06-24 05:00","1994","06","24","05:00","18.5","","17.6","","94","","9","","24","","6.4","","97.73","","","","","","Drizzle,Fog"
"1994-06-24 06:00","1994","06","24","06:00","18.0","","17.1","","94","","9","","22","","4.8","","97.70","","","","","","Drizzle,Fog"
"1994-06-24 07:00","1994","06","24","07:00","18.2","","17.4","","95","","10","","20","","4.8","","97.67","","","","","","Fog"
"1994-06-24 08:00","1994","06","24","08:00","18.7","","17.7","","94","","11","","24","","3.2","","97.60","","","","","","Rain Showers,Fog"
"1994-06-24 09:00","1994","06","24","09:00","19.1","","18.3","","95","","14","","6","","6.4","","97.53","","","","","","Rain Showers,Fog"
"1994-06-24 10:00","1994","06","24","10:00","19.8","","19.1","","96","","11","","6","","4.8","","97.50","","","","","","Rain Showers,Fog"
"1994-06-24 11:00","1994","06","24","11:00","20.9","","20.1","","95","","13","","9","","6.4","","97.47","","29","","","","Rain Showers,Fog"
"1994-06-24 12:00","1994","06","24","12:00","22.6","","21.6","","94","","11","","9","","6.4","","97.47","","32","","","","Fog"
"1994-06-24 13:00","1994","06","24","13:00","22.6","","21.3","","92","","21","","15","","6.4","","97.40","","31","","","","Rain Showers,Fog"
"1994-06-24 14:00","1994","06","24","14:00","22.7","","21.7","","94","","19","","20","","9.7","","97.37","","32","","","","Fog"
"1994-06-24 15:00","1994","06","24","15:00","23.4","","21.6","","90","","22","","15","","11.3","","97.37","","32","","","","Cloudy"
"1994-06-24 16:00","1994","06","24","16:00","22.9","","21.0","","89","","19","","15","","12.9","","97.30","","31","","","","Cloudy"
"1994-06-24 17:00","1994","06","24","17:00","22.6","","20.8","","90","","18","","11","","12.9","","97.30","","31","","","","Rain Showers"
"1994-06-24 18:00","1994","06","24","18:00","22.6","","21.1","","91","","18","","9","","12.9","","97.27","","31","","","","Rain Showers"
"1994-06-24 19:00","1994","06","24","19:00","21.8","","20.3","","91","","18","","11","","12.9","","97.27","","30","","","","Rain Showers"
"1994-06-24 20:00","1994","06","24","20:00","21.6","","20.4","","93","","17","","13","","12.9","","97.30","","30","","","","Rain Showers"
"1994-06-24 21:00","1994","06","24","21:00","21.4","","20.3","","93","","17","","7","","12.9","","97.30","","29","","","","Cloudy"
"1994-06-24 22:00","1994","06","24","22:00","21.2","","20.2","","94","","17","","7","","11.3","","97.27","","29","","","","Mostly Cloudy"
"1994-06-24 23:00","1994","06","24","23:00","21.2","","20.4","","95","","15","","11","","9.7","","97.27","","29","","","","Fog"
"1994-06-25 00:00","1994","06","25","00:00","20.4","","19.2","","93","","21","","17","","9.7","","97.27","","27","","","","Fog"
"1994-06-25 01:00","1994","06","25","01:00","19.6","","18.0","","90","","23","","15","","9.7","","97.27","","","","","","Fog"
"1994-06-25 02:00","1994","06","25","02:00","19.0","","17.2","","89","","21","","19","","12.9","","97.24","","","","","","Cloudy"
"1994-06-25 03:00","1994","06","25","03:00","18.5","","16.7","","89","","21","","22","","12.9","","97.24","","","","","","Cloudy"
"1994-06-25 04:00","1994","06","25","04:00","17.6","","16.8","","95","","20","","15","","8.0","","97.24","","","","","","Fog"
"1994-06-25 05:00","1994","06","25","05:00","17.5","","16.3","","93","","21","","17","","8.0","","97.24","","","","","","Rain Showers,Fog"
"1994-06-25 06:00","1994","06","25","06:00","15.3","","14.8","","97","","29","","19","","4.0","","97.33","","","","","","Rain,Drizzle,Fog"
"1994-06-25 07:00","1994","06","25","07:00","14.5","","14.1","","97","","29","","19","","3.2","","97.40","","","","","","Rain,Drizzle,Fog"
"1994-06-25 08:00","1994","06","25","08:00","13.8","","13.5","","98","","29","","19","","6.4","","97.50","","","","","","Drizzle,Fog"
"1994-06-25 09:00","1994","06","25","09:00","14.2","","13.6","","96","","31","","15","","4.8","","97.57","","","","","","Rain,Drizzle,Fog"
"1994-06-25 10:00","1994","06","25","10:00","14.2","","13.7","","97","","31","","24","","2.0","","97.70","","","","","","Rain,Drizzle,Fog"
"1994-06-25 11:00","1994","06","25","11:00","14.8","","13.7","","93","","30","","28","","16.1","","97.80","","","","","","Cloudy"
"1994-06-25 12:00","1994","06","25","12:00","15.0","","13.8","","93","","30","","28","","9.7","","97.90","","","","","","Drizzle,Fog"
"1994-06-25 13:00","1994","06","25","13:00","16.0","","13.9","","87","","29","","28","","16.1","","98.03","","","","","","Cloudy"
"1994-06-25 14:00","1994","06","25","14:00","16.0","","14.6","","91","","28","","19","","16.1","","98.10","","","","","","Cloudy"
"1994-06-25 15:00","1994","06","25","15:00","15.9","","15.0","","94","","25","","6","","3.2","","98.10","","","","","","Rain Showers,Fog"
"1994-06-25 16:00","1994","06","25","16:00","17.7","","16.1","","90","","27","","9","","12.9","","98.10","","","","","","Mostly Cloudy"
"1994-06-25 17:00","1994","06","25","17:00","21.1","","14.9","","68","","27","","15","","14.5","","98.10","","25","","","","Mostly Cloudy"
"1994-06-25 18:00","1994","06","25","18:00","20.6","","15.0","","70","","26","","19","","14.5","","98.20","","25","","","","Rain Showers"
"1994-06-25 19:00","1994","06","25","19:00","18.7","","16.6","","88","","26","","15","","14.5","","98.23","","","","","","Cloudy"
"1994-06-25 20:00","1994","06","25","20:00","19.2","","16.2","","83","","25","","11","","16.1","","98.27","","","","","","Mainly Clear"
"1994-06-25 21:00","1994","06","25","21:00","18.3","","15.9","","86","","23","","9","","19.3","","98.30","","","","","","Mostly Cloudy"
"1994-06-25 22:00","1994","06","25","22:00","18.7","","15.6","","82","","25","","11","","24.1","","98.37","","","","","","Mainly Clear"
"1994-06-25 23:00","1994","06","25","23:00","18.1","","15.7","","86","","26","","7","","19.3","","98.37","","","","","","Mostly Cloudy"
"1994-06-26 00:00","1994","06","26","00:00","18.2","","16.1","","88","","26","","7","","19.3","","98.40","","","","","","Mostly Cloudy"
"1994-06-26 01:00","1994","06","26","01:00","18.6","","15.0","","80","","28","","7","","24.1","","98.43","","","","","","Cloudy"
"1994-06-26 02:00","1994","06","26","02:00","18.0","","15.2","","84","","26","","2","","24.1","","98.43","","","","","","Mostly Cloudy"
"1994-06-26 03:00","1994","06","26","03:00","16.7","","14.9","","89","","23","","2","","19.3","","98.47","","","","","","Mainly Clear"
"1994-06-26 04:00","1994","06","26","04:00","16.0","","14.9","","93","","20","","7","","19.3","","98.47","","","","","","Mainly Clear"
"1994-06-26 05:00","1994","06","26","05:00","15.5","","14.6","","94","","","","0","","16.1","","98.47","","","","","","Mainly Clear"
"1994-06-26 06:00","1994","06","26","06:00","16.4","","14.8","","90","","","","0","","16.1","","98.50","","","","","","Mostly Cloudy"
"1994-06-26 07:00","1994","06","26","07:00","18.9","","15.2","","79","","15","","11","","24.1","","98.57","","","","","","Mostly Cloudy"
"1994-06-26 08:00","1994","06","26","08:00","21.1","","17.5","","80","","15","","13","","24.1","","98.57","","27","","","","Mainly Clear"
"1994-06-26 09:00","1994","06","26","09:00","22.6","","17.6","","73","","19","","9","","24.1","","98.57","","28","","","","Mostly Cloudy"
"1994-06-26 10:00","1994","06","26","10:00","23.2","","17.9","","72","","18","","15","","16.1","","98.57","","29","","","","Mostly Cloudy"
"1994-06-26 11:00","1994","06","26","11:00","23.2","","17.7","","71","","18","","22","","12.9","","98.57","","29","","","","Mostly Cloudy"
"1994-06-26 12:00","1994","06","26","12:00","22.5","","18.0","","76","","20","","13","","9.7","","98.53","","29","","","","Haze"
"1994-06-26 13:00","1994","06","26","13:00","23.6","","18.2","","72","","23","","15","","9.7","","98.57","","30","","","","Haze"
"1994-06-26 14:00","1994","06","26","14:00","21.9","","18.0","","79","","19","","17","","12.9","","98.60","","28","","","","Cloudy"
"1994-06-26 15:00","1994","06","26","15:00","22.1","","16.0","","68","","16","","4","","16.1","","98.60","","27","","","","Cloudy"
"1994-06-26 16:00","1994","06","26","16:00","21.5","","16.8","","75","","7","","9","","16.1","","98.60","","27","","","","Cloudy"
"1994-06-26 17:00","1994","06","26","17:00","19.7","","17.1","","85","","5","","13","","16.1","","98.57","","","","","","Cloudy"
"1994-06-26 18:00","1994","06","26","18:00","20.1","","17.0","","82","","6","","13","","16.1","","98.57","","25","","","","Rain Showers"
"1994-06-26 19:00","1994","06","26","19:00","19.6","","17.6","","88","","7","","11","","11.3","","98.57","","","","","","Rain Showers"
"1994-06-26 20:00","1994","06","26","20:00","18.3","","17.4","","94","","9","","15","","3.2","","98.60","","","","","","Moderate Rain Showers,Fog"
"1994-06-26 21:00","1994","06","26","21:00","18.4","","17.7","","96","","7","","19","","4.0","","98.63","","","","","","Rain Showers,Fog"
"1994-06-26 22:00","1994","06","26","22:00","16.1","","14.3","","89","","3","","22","","11.3","","98.70","","","","","","Rain Showers"
"1994-06-26 23:00","1994","06","26","23:00","16.2","","14.6","","90","","5","","13","","19.3","","98.66","","","","","","Drizzle"
"1994-06-27 00:00","1994","06","27","00:00","16.5","","14.5","","88","","4","","17","","24.1","","98.66","","","","","","Cloudy"
"1994-06-27 01:00","1994","06","27","01:00","17.1","","14.9","","87","","3","","15","","24.1","","98.63","","","","","","Cloudy"
"1994-06-27 02:00","1994","06","27","02:00","17.3","","14.4","","83","","4","","19","","24.1","","98.66","","","","","","Cloudy"
"1994-06-27 03:00","1994","06","27","03:00","17.5","","14.2","","81","","4","","22","","24.1","","98.63","","","","","","Cloudy"
"1994-06-27 04:00","1994","06","27","04:00","16.1","","13.6","","85","","2","","17","","24.1","","98.63","","","","","","Mainly Clear"
"1994-06-27 05:00","1994","06","27","05:00","14.8","","12.7","","87","","2","","15","","24.1","","98.70","","","","","","Mainly Clear"
"1994-06-27 06:00","1994","06","27","06:00","15.3","","12.5","","83","","3","","15","","24.1","","98.80","","","","","","Mainly Clear"
"1994-06-27 07:00","1994","06","27","07:00","16.6","","13.2","","80","","2","","20","","24.1","","98.80","","","","","","Mainly Clear"
"1994-06-27 08:00","1994","06","27","08:00","17.5","","13.5","","77","","2","","24","","25.0","","98.83","","","","","","Mainly Clear"
"1994-06-27 09:00","1994","06","27","09:00","18.9","","13.5","","71","","2","","22","","25.0","","98.83","","","","","","Mainly Clear"
"1994-06-27 10:00","1994","06","27","10:00","19.0","","13.9","","72","","3","","22","","25.0","","98.90","","","","","","Mostly Cloudy"
"1994-06-27 11:00","1994","06","27","11:00","19.1","","13.4","","70","","2","","26","","25.0","","98.90","","","","","","Mostly Cloudy"
"1994-06-27 12:00","1994","06","27","12:00","19.3","","13.3","","68","","4","","24","","25.0","","98.90","","","","","","Mostly Cloudy"
"1994-06-27 13:00","1994","06","27","13:00","19.5","","14.1","","71","","4","","24","","25.0","","98.90","","","","","","Mostly Cloudy"
"1994-06-27 14:00","1994","06","27","14:00","19.9","","13.9","","68","","2","","26","","25.0","","98.86","","","","","","Mostly Cloudy"
"1994-06-27 15:00","1994","06","27","15:00","20.2","","13.9","","67","","2","","20","","25.0","","98.86","","","","","","Mostly Cloudy"
"1994-06-27 16:00","1994","06","27","16:00","19.9","","14.1","","69","","1","","20","","24.1","","98.86","","","","","","Mostly Cloudy"
"1994-06-27 17:00","1994","06","27","17:00","19.9","","14.1","","69","","1","","19","","24.1","","98.83","","","","","","Mostly Cloudy"
"1994-06-27 18:00","1994","06","27","18:00","20.2","","14.0","","68","","4","","17","","24.1","","98.90","","","","","","Mostly Cloudy"
"1994-06-27 19:00","1994","06","27","19:00","18.9","","14.0","","73","","5","","17","","24.1","","98.90","","","","","","Mainly Clear"
"1994-06-27 20:00","1994","06","27","20:00","18.1","","13.7","","75","","6","","11","","24.1","","98.93","","","","","","Mainly Clear"
"1994-06-27 21:00","1994","06","27","21:00","18.0","","13.4","","74","","35","","7","","24.1","","99.00","","","","","","Mostly Cloudy"
"1994-06-27 22:00","1994","06","27","22:00","17.8","","13.1","","74","","33","","4","","24.1","","99.00","","","","","","Mostly Cloudy"
"1994-06-27 23:00","1994","06","27","23:00","17.1","","13.0","","77","","","","0","","24.1","","99.00","","","","","","Mainly Clear"
"1994-06-28 00:00","1994","06","28","00:00","15.8","","13.0","","83","","","","0","","24.1","","98.96","","","","","","Mostly Cloudy"
"1994-06-28 01:00","1994","06","28","01:00","15.3","","12.9","","86","","26","","2","","24.1","","98.96","","","","","","Mainly Clear"
"1994-06-28 02:00","1994","06","28","02:00","16.1","","13.3","","83","","26","","2","","24.1","","98.96","","","","","","Mostly Cloudy"
"1994-06-28 03:00","1994","06","28","03:00","16.4","","13.8","","85","","","","0","","24.1","","98.96","","","","","","Mostly Cloudy"
"1994-06-28 04:00","1994","06","28","04:00","15.7","","14.3","","91","","","","0","","24.1","","98.90","","","","","","Mainly Clear"
"1994-06-28 05:00","1994","06","28","05:00","15.2","","14.3","","94","","","","0","","19.3","","98.86","","","","","","Mainly Clear"
"1994-06-28 06:00","1994","06","28","06:00","15.7","","14.8","","94","","","","0","","19.3","","98.90","","","","","","Mainly Clear"
"1994-06-28 07:00","1994","06","28","07:00","17.6","","14.4","","82","","","","0","","19.3","","98.86","","","","","","Mainly Clear"
"1994-06-28 08:00","1994","06","28","08:00","19.4","","15.8","","80","","","","0","","24.1","","98.86","","","","","","Mainly Clear"
"1994-06-28 09:00","1994","06","28","09:00","21.6","","16.2","","71","","22","","7","","24.1","","98.83","","26","","","","Clear"
"1994-06-28 10:00","1994","06","28","10:00","22.9","","15.5","","63","","23","","9","","24.1","","98.80","","27","","","","Mainly Clear"
"1994-06-28 11:00","1994","06","28","11:00","24.2","","16.1","","61","","23","","15","","19.3","","98.76","","29","","","","Mostly Cloudy"
"1994-06-28 12:00","1994","06","28","12:00","24.5","","16.9","","63","","20","","22","","24.1","","98.73","","30","","","","Mainly Clear"
"1994-06-28 13:00","1994","06","28","13:00","25.8","","16.9","","58","","21","","20","","24.1","","98.70","","31","","","","Mainly Clear"
"1994-06-28 14:00","1994","06","28","14:00","26.2","","16.9","","57","","20","","26","","24.1","","98.60","","31","","","","Mainly Clear"
"1994-06-28 15:00","1994","06","28","15:00","26.3","","17.3","","58","","19","","24","","24.1","","98.47","","32","","","","Mainly Clear"
"1994-06-28 16:00","1994","06","28","16:00","25.8","","18.1","","63","","18","","20","","24.1","","98.40","","32","","","","Rain Showers"
"1994-06-28 17:00","1994","06","28","17:00","26.5","","18.7","","62","","18","","22","","24.1","","98.30","","33","","","","Mainly Clear"
"1994-06-28 18:00","1994","06","28","18:00","25.8","","18.6","","64","","20","","19","","24.1","","98.27","","32","","","","Mainly Clear"
"1994-06-28 19:00","1994","06","28","19:00","24.3","","19.0","","72","","18","","19","","11.3","","98.23","","31","","","","Mostly Cloudy"
"1994-06-28 20:00","1994","06","28","20:00","23.0","","18.6","","76","","18","","17","","8.0","","98.20","","29","","","","Thunderstorms,Haze"
"1994-06-28 21:00","1994","06","28","21:00","16.9","","15.4","","91","","23","","41","","6.4","","98.23","","","","","","Thunderstorms,Moderate Rain Showers"
"1994-06-28 22:00","1994","06","28","22:00","20.9","","18.4","","86","","24","","13","","16.1","","98.27","","27","","","","Cloudy"
"1994-06-28 23:00","1994","06","28","23:00","20.2","","18.3","","89","","22","","9","","16.1","","98.27","","26","","","","Cloudy"
"1994-06-29 00:00","1994","06","29","00:00","19.7","","18.3","","92","","20","","13","","12.9","","98.23","","","","","","Cloudy"
"1994-06-29 01:00","1994","06","29","01:00","19.8","","17.6","","87","","23","","7","","16.1","","98.17","","","","","","Cloudy"
"1994-06-29 02:00","1994","06","29","02:00","19.2","","17.4","","89","","21","","6","","16.1","","98.10","","","","","","Mostly Cloudy"
"1994-06-29 03:00","1994","06","29","03:00","19.4","","17.2","","87","","24","","9","","24.1","","98.10","","","","","","Mainly Clear"
"1994-06-29 04:00","1994","06","29","04:00","18.4","","16.9","","91","","21","","7","","16.1","","98.07","","","","","","Mainly Clear"
"1994-06-29 05:00","1994","06","29","05:00","18.3","","16.9","","92","","23","","11","","12.9","","98.03","","","","","","Mainly Clear"
"1994-06-29 06:00","1994","06","29","06:00","19.2","","17.0","","87","","24","","15","","14.5","","98.07","","","","","","Clear"
"1994-06-29 07:00","1994","06","29","07:00","20.7","","17.3","","81","","24","","17","","14.5","","98.10","","26","","","","Mainly Clear"
"1994-06-29 08:00","1994","06","29","08:00","21.5","","17.3","","77","","25","","15","","14.5","","98.07","","27","","","","Mainly Clear"
"1994-06-29 09:00","1994","06","29","09:00","22.0","","17.2","","74","","24","","22","","17.7","","98.07","","27","","","","Mainly Clear"
"1994-06-29 10:00","1994","06","29","10:00","23.2","","17.1","","69","","24","","20","","24.1","","98.07","","29","","","","Mostly Cloudy"
"1994-06-29 11:00","1994","06","29","11:00","23.9","","16.9","","65","","24","","22","","24.1","","98.07","","29","","","","Mostly Cloudy"
"1994-06-29 12:00","1994","06","29","12:00","23.9","","17.3","","67","","25","","22","","24.1","","98.03","","29","","","","Mainly Clear"
"1994-06-29 13:00","1994","06","29","13:00","20.6","","17.6","","83","","24","","20","","3.2","","98.03","","26","","","","Thunderstorms,Heavy Rain Showers"
"1994-06-29 14:00","1994","06","29","14:00","21.5","","17.7","","79","","24","","26","","16.1","","98.07","","27","","","","Mostly Cloudy"
"1994-06-29 15:00","1994","06","29","15:00","22.2","","17.8","","76","","25","","20","","19.3","","98.07","","28","","","","Mostly Cloudy"
"1994-06-29 16:00","1994","06","29","16:00","24.9","","15.8","","57","","28","","24","","24.1","","98.07","","29","","","","Mostly Cloudy"
"1994-06-29 17:00","1994","06","29","17:00","24.0","","14.5","","55","","28","","22","","24.1","","98.10","","28","","","","Mostly Cloudy"
"1994-06-29 18:00","1994","06","29","18:00","24.4","","14.5","","54","","29","","22","","24.1","","98.10","","28","","","","Mostly Cloudy"
"1994-06-29 19:00","1994","06","29","19:00","22.4","","14.3","","60","","30","","24","","24.1","","98.20","","26","","","","Mostly Cloudy"
"1994-06-29 20:00","1994","06","29","20:00","20.9","","14.2","","66","","29","","22","","24.1","","98.23","","","","","","Mainly Clear"
"1994-06-29 21:00","1994","06","29","21:00","20.4","","14.3","","68","","29","","17","","24.1","","98.27","","","","","","Mainly Clear"
"1994-06-29 22:00","1994","06","29","22:00","19.5","","14.2","","71","","27","","13","","24.1","","98.30","","","","","","Mainly Clear"
"1994-06-29 23:00","1994","06","29","23:00","18.9","","14.3","","75","","28","","11","","24.1","","98.30","","","","","","Mainly Clear"
"1994-06-30 00:00","1994","06","30","00:00","18.3","","14.4","","78","","26","","9","","24.1","","98.30","","","","","","Mainly Clear"
"1994-06-30 01:00","1994","06","30","01:00","18.6","","14.7","","78","","31","","15","","24.1","","98.33","","","","","","Mostly Cloudy"
"1994-06-30 02:00","1994","06","30","02:00","18.3","","14.8","","80","","31","","17","","24.1","","98.37","","","","","","Mostly Cloudy"
"1994-06-30 03:00","1994","06","30","03:00","18.4","","15.0","","81","","30","","13","","19.3","","98.43","","","","","","Mostly Cloudy"
"1994-06-30 04:00","1994","06","30","04:00","18.3","","15.0","","81","","30","","13","","16.1","","98.50","","","","","","Cloudy"
"1994-06-30 05:00","1994","06","30","05:00","18.1","","15.3","","84","","29","","11","","12.9","","98.60","","","","","","Cloudy"
"1994-06-30 06:00","1994","06","30","06:00","18.4","","15.2","","82","","30","","19","","12.9","","98.63","","","","","","Cloudy"
"1994-06-30 07:00","1994","06","30","07:00","19.0","","15.4","","80","","31","","24","","12.9","","98.70","","","","","","Mostly Cloudy"
"1994-06-30 08:00","1994","06","30","08:00","18.1","","15.1","","83","","31","","26","","12.9","","98.80","","","","","","Cloudy"
"1994-06-30 09:00","1994","06","30","09:00","19.1","","15.4","","79","","31","","20","","24.1","","98.83","","","","","","Mostly Cloudy"
"1994-06-30 10:00","1994","06","30","10:00","19.4","","15.3","","77","","32","","22","","24.1","","98.90","","","","","","Mostly Cloudy"
"1994-06-30 11:00","1994","06","30","11:00","20.1","","15.6","","75","","33","","17","","24.1","","98.93","","","","","","Mostly Cloudy"
"1994-06-30 12:00","1994","06","30","12:00","21.2","","16.0","","72","","33","","17","","24.1","","99.00","","26","","","","Mostly Cloudy"
"1994-06-30 13:00","1994","06","30","13:00","22.5","","15.5","","65","","35","","11","","24.1","","99.06","","27","","","","Mostly Cloudy"
"1994-06-30 14:00","1994","06","30","14:00","23.4","","15.7","","62","","30","","6","","24.1","","99.06","","28","","","","Mostly Cloudy"
"1994-06-30 15:00","1994","06","30","15:00","24.4","","15.9","","59","","","","0","","24.1","","99.06","","29","","","","Mostly Cloudy"
"1994-06-30 16:00","1994","06","30","16:00","24.8","","14.9","","54","","32","","6","","19.3","","99.10","","29","","","","Mostly Cloudy"
"1994-06-30 17:00","1994","06","30","17:00","24.2","","16.3","","61","","12","","4","","16.1","","99.06","","29","","","","Mainly Clear"
"1994-06-30 18:00","1994","06","30","18:00","23.2","","16.7","","67","","16","","6","","19.3","","99.13","","28","","","","Mainly Clear"
"1994-06-30 19:00","1994","06","30","19:00","22.9","","17.5","","72","","","","0","","12.9","","99.13","","29","","","","Mostly Cloudy"
"1994-06-30 20:00","1994","06","30","20:00","21.1","","17.6","","80","","17","","4","","12.9","","99.13","","27","","","","Mainly Clear"
"1994-06-30 21:00","1994","06","30","21:00","19.6","","17.0","","85","","","","0","","16.1","","99.16","","","","","","Clear"
"1994-06-30 22:00","1994","06","30","22:00","19.5","","16.4","","82","","","","0","","24.1","","99.23","","","","","","Clear"
"1994-06-30 23:00","1994","06","30","23:00","18.4","","16.4","","88","","22","","4","","19.3","","99.23","","","","","","Clear"
