"Station Name","WINDSOR A"
"Province","ONTARIO"
"Latitude","42.28"
"Longitude","-82.96"
"Elevation","189.60"
"Climate Identifier","6139525"
"WMO Identifier","71538"
"TC Identifier","YQG"
"All times are specified in Local Standard Time (LST). Add 1 hour to adjust for Daylight Saving Time where and when it is observed."

"Legend"
"E","Estimated"
"M","Missing"
"NA","Not Available"

"Date/Time","Year","Month","Day","Time","Temp (°C)","Temp Flag","Dew Point Temp (°C)","Dew Point Temp Flag","Rel Hum (%)","Rel Hum Flag","Wind Dir (10s deg)","Wind Dir Flag","Wind Spd (km/h)","Wind Spd Flag","Visibility (km)","Visibility Flag","Stn Press (kPa)","Stn Press Flag","Hmdx","Hmdx Flag","Wind Chill","Wind Chill Flag","Weather"
"1994-07-01 00:00","1994","07","01","00:00","18.4","","16.2","","87","","22","","6","","19.3","","99.23","","","","","","Clear"
"1994-07-01 01:00","1994","07","01","01:00","18.3","","16.7","","90","","22","","6","","16.1","","99.23","","","","","","Clear"
"1994-07-01 02:00","1994","07","01","02:00","18.1","","16.5","","90","","24","","6","","12.9","","99.23","","","","","","Clear"
"1994-07-01 03:00","1994","07","01","03:00","18.5","","16.5","","88","","24","","7","","11.3","","99.26","","","","","","Clear"
"1994-07-01 04:00","1994","07","01","04:00","17.8","","16.5","","92","","22","","6","","8.0","","99.23","","","","","","Fog"
"1994-07-01 05:00","1994","07","01","05:00","17.5","","16.6","","94","","23","","6","","4.8","","99.23","","","","","","Fog"
"1994-07-01 06:00","1994","07","01","06:00","18.1","","17.1","","94","","22","","4","","4.8","","99.26","","","","","","Fog"
"1994-07-01 07:00","1994","07","01","07:00","19.5","","17.6","","89","","23","","4","","4.8","","99.23","","","","","","Fog"
"1994-07-01 08:00","1994","07","01","08:00","21.6","","18.9","","85","","23","","7","","8.0","","99.26","","28","","","","Haze"
"1994-07-01 09:00","1994","07","01","09:00","23.5","","17.7","","70","","24","","17","","11.3","","99.23","","29","","","","Clear"
"1994-07-01 10:00","1994","07","01","10:00","25.1","","18.3","","66","","24","","17","","14.5","","99.16","","31","","","","Clear"
"1994-07-01 11:00","1994","07","01","11:00","25.8","","18.2","","63","","22","","20","","14.5","","99.16","","32","","","","Clear"
"1994-07-01 12:00","1994","07","01","12:00","26.6","","18.4","","61","","20","","24","","14.5","","99.06","","33","","","","Mainly Clear"
"1994-07-01 13:00","1994","07","01","13:00","27.4","","18.5","","58","","21","","24","","16.1","","99.03","","34","","","","Mostly Cloudy"
"1994-07-01 14:00","1994","07","01","14:00","28.0","","18.1","","55","","21","","28","","16.1","","98.96","","34","","","","Mostly Cloudy"
"1994-07-01 15:00","1994","07","01","15:00","28.4","","17.3","","51","","21","","37","","19.3","","98.93","","34","","","","Mostly Cloudy"
"1994-07-01 16:00","1994","07","01","16:00","28.1","","17.7","","53","","21","","30","","16.1","","98.90","","34","","","","Mostly Cloudy"
"1994-07-01 17:00","1994","07","01","17:00","28.3","","17.8","","53","","22","","26","","19.3","","98.90","","34","","","","Mostly Cloudy"
"1994-07-01 18:00","1994","07","01","18:00","27.0","","18.3","","59","","21","","15","","19.3","","98.90","","33","","","","Mostly Cloudy"
"1994-07-01 19:00","1994","07","01","19:00","26.6","","18.4","","61","","22","","15","","19.3","","98.90","","33","","","","Mostly Cloudy"
"1994-07-01 20:00","1994","07","01","20:00","25.9","","17.7","","61","","22","","13","","19.3","","98.86","","32","","","","Mostly Cloudy"
"1994-07-01 21:00","1994","07","01","21:00","24.7","","17.7","","65","","21","","9","","12.9","","98.86","","30","","","","Mostly Cloudy"
"1994-07-01 22:00","1994","07","01","22:00","23.3","","17.9","","72","","21","","9","","12.9","","98.90","","29","","","","Mainly Clear"
"1994-07-01 23:00","1994","07","01","23:00","22.3","","18.4","","79","","20","","9","","12.9","","98.83","","29","","","","Mainly Clear"
"1994-07-02 00:00","1994","07","02","00:00","21.9","","18.3","","80","","20","","11","","9.7","","98.90","","28","","","","Haze"
"1994-07-02 01:00","1994","07","02","01:00","22.6","","18.6","","78","","21","","13","","8.0","","98.83","","29","","","","Haze"
"1994-07-02 02:00","1994","07","02","02:00","22.2","","18.8","","81","","21","","9","","9.7","","98.83","","29","","","","Haze"
"1994-07-02 03:00","1994","07","02","03:00","21.3","","18.6","","85","","22","","9","","9.7","","98.83","","28","","","","Haze"
"1994-07-02 04:00","1994","07","02","04:00","20.7","","18.3","","86","","22","","6","","9.7","","98.83","","27","","","","Haze"
"1994-07-02 05:00","1994","07","02","05:00","20.8","","18.0","","84","","23","","4","","6.4","","98.93","","27","","","","Haze"
"1994-07-02 06:00","1994","07","02","06:00","20.7","","17.8","","83","","24","","7","","4.8","","99.03","","27","","","","Haze"
"1994-07-02 07:00","1994","07","02","07:00","21.8","","18.3","","81","","","","0","","4.8","","99.06","","28","","","","Haze"
"1994-07-02 08:00","1994","07","02","08:00","19.3","","15.5","","79","","6","","17","","14.5","","99.13","","","","","","Cloudy"
"1994-07-02 09:00","1994","07","02","09:00","19.1","","14.4","","74","","5","","22","","16.1","","99.20","","","","","","Cloudy"
"1994-07-02 10:00","1994","07","02","10:00","19.8","","14.6","","72","","4","","15","","19.3","","99.26","","","","","","Cloudy"
"1994-07-02 11:00","1994","07","02","11:00","20.0","","14.7","","72","","2","","13","","24.1","","99.33","","","","","","Cloudy"
"1994-07-02 12:00","1994","07","02","12:00","20.6","","14.9","","70","","6","","13","","24.1","","99.33","","25","","","","Cloudy"
"1994-07-02 13:00","1994","07","02","13:00","20.9","","13.5","","63","","6","","20","","24.1","","99.33","","","","","","Cloudy"
"1994-07-02 14:00","1994","07","02","14:00","21.2","","14.1","","64","","5","","19","","24.1","","99.33","","25","","","","Mostly Cloudy"
"1994-07-02 15:00","1994","07","02","15:00","20.5","","13.9","","66","","5","","17","","24.1","","99.43","","","","","","Cloudy"
"1994-07-02 16:00","1994","07","02","16:00","19.5","","14.1","","71","","7","","19","","24.1","","99.46","","","","","","Cloudy"
"1994-07-02 17:00","1994","07","02","17:00","18.5","","14.0","","75","","5","","19","","24.1","","99.50","","","","","","Cloudy"
"1994-07-02 18:00","1994","07","02","18:00","17.8","","13.6","","76","","6","","17","","24.1","","99.53","","","","","","Cloudy"
"1994-07-02 19:00","1994","07","02","19:00","16.9","","13.3","","79","","6","","19","","24.1","","99.53","","","","","","Cloudy"
"1994-07-02 20:00","1994","07","02","20:00","16.2","","13.1","","82","","6","","15","","24.1","","99.56","","","","","","Mostly Cloudy"
"1994-07-02 21:00","1994","07","02","21:00","15.8","","12.7","","82","","4","","15","","24.1","","99.66","","","","","","Mostly Cloudy"
"1994-07-02 22:00","1994","07","02","22:00","15.4","","12.5","","83","","4","","15","","24.1","","99.70","","","","","","Mainly Clear"
"1994-07-02 23:00","1994","07","02","23:00","15.3","","12.3","","82","","4","","13","","24.1","","99.73","","","","","","Mainly Clear"
"1994-07-03 00:00","1994","07","03","00:00","14.4","","12.0","","85","","3","","7","","25.0","","99.80","","","","","","Mainly Clear"
"1994-07-03 01:00","1994","07","03","01:00","14.3","","12.0","","86","","2","","6","","25.0","","99.76","","","","","","Mainly Clear"
"1994-07-03 02:00","1994","07","03","02:00","14.2","","11.9","","86","","1","","11","","25.0","","99.73","","","","","","Mostly Cloudy"
"1994-07-03 03:00","1994","07","03","03:00","13.7","","11.9","","89","","1","","6","","25.0","","99.76","","","","","","Mainly Clear"
"1994-07-03 04:00","1994","07","03","04:00","13.5","","12.1","","91","","1","","6","","25.0","","99.76","","","","","","Mainly Clear"
"1994-07-03 05:00","1994","07","03","05:00","13.6","","12.3","","92","","1","","6","","25.0","","99.80","","","","","","Mainly Clear"
"1994-07-03 06:00","1994","07","03","06:00","15.2","","13.6","","90","","5","","13","","25.0","","99.83","","","","","","Mostly Cloudy"
"1994-07-03 07:00","1994","07","03","07:00","16.1","","14.1","","88","","5","","13","","25.0","","99.83","","","","","","Mostly Cloudy"
"1994-07-03 08:00","1994","07","03","08:00","17.6","","14.8","","84","","6","","17","","25.0","","99.86","","","","","","Mainly Clear"
"1994-07-03 09:00","1994","07","03","09:00","18.9","","15.4","","80","","7","","9","","25.0","","99.96","","","","","","Mainly Clear"
"1994-07-03 10:00","1994","07","03","10:00","20.2","","15.7","","75","","10","","7","","25.0","","99.96","","25","","","","Mainly Clear"
"1994-07-03 11:00","1994","07","03","11:00","21.1","","15.7","","71","","12","","9","","25.0","","99.96","","26","","","","Mainly Clear"
"1994-07-03 12:00","1994","07","03","12:00","22.2","","15.8","","67","","12","","7","","25.0","","99.96","","27","","","","Mostly Cloudy"
"1994-07-03 13:00","1994","07","03","13:00","22.0","","16.8","","72","","5","","11","","25.0","","99.96","","27","","","","Mainly Clear"
"1994-07-03 14:00","1994","07","03","14:00","22.8","","16.7","","68","","8","","9","","25.0","","99.93","","28","","","","Mainly Clear"
"1994-07-03 15:00","1994","07","03","15:00","23.5","","16.8","","66","","6","","9","","25.0","","99.86","","29","","","","Mainly Clear"
"1994-07-03 16:00","1994","07","03","16:00","23.3","","16.3","","65","","6","","15","","25.0","","99.80","","28","","","","Mainly Clear"
"1994-07-03 17:00","1994","07","03","17:00","23.9","","16.0","","61","","7","","19","","24.1","","99.73","","29","","","","Mainly Clear"
"1994-07-03 18:00","1994","07","03","18:00","23.3","","16.1","","64","","11","","11","","24.1","","99.70","","28","","","","Clear"
"1994-07-03 19:00","1994","07","03","19:00","24.9","","19.1","","70","","13","","13","","9.7","","99.43","","32","","","","Haze"
"1994-07-03 20:00","1994","07","03","20:00","20.1","","14.3","","69","","12","","9","","24.1","","99.76","","","","","","Clear"
"1994-07-03 21:00","1994","07","03","21:00","18.9","","13.9","","73","","11","","7","","24.1","","99.80","","","","","","Clear"
"1994-07-03 22:00","1994","07","03","22:00","18.3","","14.5","","78","","","","0","","24.1","","99.86","","","","","","Clear"
"1994-07-03 23:00","1994","07","03","23:00","17.0","","14.5","","85","","9","","6","","24.1","","99.83","","","","","","Clear"
"1994-07-04 00:00","1994","07","04","00:00","16.9","","14.9","","88","","7","","2","","24.1","","99.86","","","","","","Clear"
"1994-07-04 01:00","1994","07","04","01:00","16.2","","14.5","","90","","6","","6","","24.1","","99.83","","","","","","Clear"
"1994-07-04 02:00","1994","07","04","02:00","16.1","","14.7","","91","","7","","6","","24.1","","99.76","","","","","","Mainly Clear"
"1994-07-04 03:00","1994","07","04","03:00","16.8","","15.2","","90","","7","","4","","24.1","","99.76","","","","","","Mainly Clear"
"1994-07-04 04:00","1994","07","04","04:00","16.2","","14.6","","90","","6","","7","","19.3","","99.76","","","","","","Mainly Clear"
"1994-07-04 05:00","1994","07","04","05:00","16.0","","14.2","","89","","6","","4","","24.1","","99.80","","","","","","Mainly Clear"
"1994-07-04 06:00","1994","07","04","06:00","16.7","","14.5","","87","","","","0","","24.1","","99.86","","","","","","Mainly Clear"
"1994-07-04 07:00","1994","07","04","07:00","18.6","","16.4","","87","","12","","7","","24.1","","99.90","","","","","","Mainly Clear"
"1994-07-04 08:00","1994","07","04","08:00","21.1","","17.9","","82","","15","","7","","24.1","","99.86","","27","","","","Mainly Clear"
"1994-07-04 09:00","1994","07","04","09:00","23.6","","19.3","","77","","15","","7","","16.1","","99.83","","31","","","","Mainly Clear"
"1994-07-04 10:00","1994","07","04","10:00","24.9","","19.6","","72","","13","","11","","11.3","","99.76","","32","","","","Mainly Clear"
"1994-07-04 11:00","1994","07","04","11:00","25.5","","19.6","","70","","17","","15","","9.7","","99.73","","33","","","","Haze"
"1994-07-04 12:00","1994","07","04","12:00","26.2","","19.6","","67","","16","","13","","9.7","","99.80","","33","","","","Haze"
"1994-07-04 13:00","1994","07","04","13:00","26.9","","19.4","","64","","14","","9","","8.0","","99.70","","34","","","","Haze"
"1994-07-04 14:00","1994","07","04","14:00","27.4","","19.4","","62","","16","","15","","9.7","","99.63","","34","","","","Haze"
"1994-07-04 15:00","1994","07","04","15:00","28.0","","19.7","","61","","17","","15","","9.7","","99.56","","35","","","","Haze"
"1994-07-04 16:00","1994","07","04","16:00","28.4","","20.9","","64","","18","","17","","9.7","","99.53","","37","","","","Haze"
"1994-07-04 17:00","1994","07","04","17:00","27.9","","20.7","","65","","15","","17","","9.7","","99.46","","36","","","","Haze"
"1994-07-04 18:00","1994","07","04","18:00","26.7","","20.3","","68","","13","","19","","9.7","","99.43","","35","","","","Haze"
"1994-07-04 19:00","1994","07","04","19:00","24.9","","19.1","","70","","13","","13","","9.7","","99.43","","32","","","","Haze"
"1994-07-04 20:00","1994","07","04","20:00","23.2","","19.2","","78","","13","","19","","8.0","","99.43","","30","","","","Haze"
"1994-07-04 21:00","1994","07","04","21:00","22.3","","19.2","","83","","13","","11","","8.0","","99.43","","29","","","","Haze"
"1994-07-04 22:00","1994","07","04","22:00","22.7","","19.3","","81","","14","","15","","8.0","","99.40","","30","","","","Haze"
"1994-07-04 23:00","1994","07","04","23:00","22.9","","20.2","","85","","16","","11","","8.0","","99.36","","31","","","","Haze"
"1994-07-05 00:00","1994","07","05","00:00","24.5","","21.0","","81","","19","","11","","8.0","","99.33","","33","","","","Haze"
"1994-07-05 01:00","1994","07","05","01:00","25.2","","21.0","","78","","20","","19","","8.0","","99.33","","34","","","","Haze"
"1994-07-05 02:00","1994","07","05","02:00","24.9","","21.0","","79","","21","","9","","8.0","","99.33","","33","","","","Haze"
"1994-07-05 03:00","1994","07","05","03:00","24.5","","20.9","","80","","22","","11","","8.0","","99.33","","33","","","","Haze"
"1994-07-05 04:00","1994","07","05","04:00","24.8","","21.6","","82","","26","","11","","8.0","","99.40","","34","","","","Thunderstorms,Rain Showers,Haze"
"1994-07-05 05:00","1994","07","05","05:00","23.9","","20.3","","80","","24","","9","","8.0","","99.33","","32","","","","Haze"
"1994-07-05 06:00","1994","07","05","06:00","23.4","","19.4","","78","","31","","6","","9.7","","99.36","","30","","","","Haze"
"1994-07-05 07:00","1994","07","05","07:00","23.2","","19.9","","82","","31","","26","","8.0","","99.50","","31","","","","Thunderstorms,Rain Showers,Haze"
"1994-07-05 08:00","1994","07","05","08:00","22.0","","20.9","","93","","29","","15","","3.2","","99.53","","30","","","","Thunderstorms,Heavy Rain Showers,Fog"
"1994-07-05 09:00","1994","07","05","09:00","21.9","","21.0","","95","","","","0","","9.7","","99.50","","30","","","","Rain Showers,Fog"
"1994-07-05 10:00","1994","07","05","10:00","22.1","","20.9","","93","","22","","9","","9.7","","99.50","","30","","","","Fog"
"1994-07-05 11:00","1994","07","05","11:00","23.0","","21.2","","90","","21","","9","","11.3","","99.53","","32","","","","Rain Showers"
"1994-07-05 12:00","1994","07","05","12:00","24.4","","21.5","","84","","23","","9","","12.9","","99.53","","33","","","","Mostly Cloudy"
"1994-07-05 13:00","1994","07","05","13:00","26.5","","21.4","","74","","23","","9","","16.1","","99.46","","35","","","","Mostly Cloudy"
"1994-07-05 14:00","1994","07","05","14:00","27.3","","21.6","","71","","23","","4","","19.3","","99.36","","36","","","","Mostly Cloudy"
"1994-07-05 15:00","1994","07","05","15:00","28.1","","22.1","","70","","23","","11","","19.3","","99.36","","38","","","","Mostly Cloudy"
"1994-07-05 16:00","1994","07","05","16:00","29.2","","21.8","","64","","23","","11","","19.3","","99.33","","38","","","","Mostly Cloudy"
"1994-07-05 17:00","1994","07","05","17:00","30.1","","22.2","","63","","23","","11","","19.3","","99.30","","40","","","","Mostly Cloudy"
"1994-07-05 18:00","1994","07","05","18:00","29.3","","23.0","","69","","18","","6","","19.3","","99.26","","40","","","","Mostly Cloudy"
"1994-07-05 19:00","1994","07","05","19:00","28.3","","23.5","","75","","18","","7","","19.3","","99.23","","39","","","","Mostly Cloudy"
"1994-07-05 20:00","1994","07","05","20:00","26.9","","23.5","","82","","18","","7","","11.3","","99.23","","38","","","","Mostly Cloudy"
"1994-07-05 21:00","1994","07","05","21:00","25.4","","22.8","","86","","18","","4","","11.3","","99.26","","35","","","","Mostly Cloudy"
"1994-07-05 22:00","1994","07","05","22:00","25.1","","22.3","","84","","18","","6","","11.3","","99.36","","35","","","","Mostly Cloudy"
"1994-07-05 23:00","1994","07","05","23:00","24.5","","22.4","","88","","23","","11","","9.7","","99.33","","34","","","","Haze"
"1994-07-06 00:00","1994","07","06","00:00","25.0","","22.7","","87","","23","","7","","9.7","","99.30","","35","","","","Haze"
"1994-07-06 01:00","1994","07","06","01:00","24.6","","22.5","","88","","23","","9","","8.0","","99.26","","34","","","","Haze"
"1994-07-06 02:00","1994","07","06","02:00","24.4","","21.9","","86","","27","","11","","8.0","","99.30","","34","","","","Haze"
"1994-07-06 03:00","1994","07","06","03:00","24.4","","21.1","","82","","27","","9","","8.0","","99.26","","33","","","","Haze"
"1994-07-06 04:00","1994","07","06","04:00","23.5","","21.1","","86","","27","","11","","8.0","","99.23","","32","","","","Haze"
"1994-07-06 05:00","1994","07","06","05:00","23.2","","20.8","","86","","23","","6","E","8.0","","99.26","","31","","","","Haze"
"1994-07-06 06:00","1994","07","06","06:00","23.4","","20.8","","85","","23","","15","","8.0","","99.30","","32","","","","Haze"
"1994-07-06 07:00","1994","07","06","07:00","24.2","","21.3","","84","","27","","7","","8.0","","99.33","","33","","","","Haze"
"1994-07-06 08:00","1994","07","06","08:00","25.4","","21.7","","80","","27","","7","","8.0","","99.33","","34","","","","Haze"
"1994-07-06 09:00","1994","07","06","09:00","26.6","","22.0","","76","","23","","9","","12.9","","99.36","","36","","","","Mainly Clear"
"1994-07-06 10:00","1994","07","06","10:00","28.8","","22.0","","67","","23","","7","","16.1","","99.36","","38","","","","Mainly Clear"
"1994-07-06 11:00","1994","07","06","11:00","30.0","","22.9","","66","","23","","6","","19.3","","99.33","","40","","","","Mainly Clear"
"1994-07-06 12:00","1994","07","06","12:00","31.2","","23.9","","65","","23","","9","","11.3","","99.33","","42","","","","Mostly Cloudy"
"1994-07-06 13:00","1994","07","06","13:00","31.2","","24.2","","66","","23","","6","","11.3","","99.26","","43","","","","Mostly Cloudy"
"1994-07-06 14:00","1994","07","06","14:00","31.7","","24.3","","65","","23","","6","","12.9","","99.20","","43","","","","Mostly Cloudy"
"1994-07-06 15:00","1994","07","06","15:00","32.3","","22.5","","56","","23","","11","","11.3","","99.16","","42","","","","Mainly Clear"
"1994-07-06 16:00","1994","07","06","16:00","31.4","","23.5","","63","","18","","7","","11.3","","99.13","","42","","","","Thunderstorms"
"1994-07-06 17:00","1994","07","06","17:00","28.1","","21.7","","68","","","","0","","11.3","","99.13","","37","","","","Thunderstorms"
"1994-07-06 18:00","1994","07","06","18:00","25.3","","22.2","","83","","27","","9","","11.3","","99.06","","35","","","","Thunderstorms,Rain Showers"
"1994-07-06 19:00","1994","07","06","19:00","26.8","","20.8","","70","","23","","11","E","16.1","","99.03","","35","","","","Mostly Cloudy"
"1994-07-06 20:00","1994","07","06","20:00","24.9","","20.3","","76","","27","","6","","16.1","","99.03","","33","","","","Mostly Cloudy"
"1994-07-06 21:00","1994","07","06","21:00","24.0","","21.2","","84","","18","","9","","16.1","","99.13","","33","","","","Mostly Cloudy"
"1994-07-06 22:00","1994","07","06","22:00","25.0","","21.4","","80","","23","","9","","16.1","","99.26","","34","","","","Mostly Cloudy"
"1994-07-06 23:00","1994","07","06","23:00","22.4","","19.3","","83","","27","","28","","12.9","","99.30","","29","","","","Cloudy"
"1994-07-07 00:00","1994","07","07","00:00","22.0","","19.5","","86","","32","","11","","16.1","","99.20","","29","","","","Mostly Cloudy"
"1994-07-07 01:00","1994","07","07","01:00","21.3","","19.5","","89","","9","","6","","19.3","","99.20","","28","","","","Mostly Cloudy"
"1994-07-07 02:00","1994","07","07","02:00","21.0","","19.9","","93","","9","","7","","11.3","","99.20","","28","","","","Mostly Cloudy"
"1994-07-07 03:00","1994","07","07","03:00","21.3","","19.8","","91","","9","","7","","11.3","","99.16","","29","","","","Mostly Cloudy"
"1994-07-07 04:00","1994","07","07","04:00","21.0","","19.8","","93","","9","","6","","9.7","","99.13","","28","","","","Fog"
"1994-07-07 05:00","1994","07","07","05:00","21.2","","19.9","","92","","","","0","","9.7","","99.20","","29","","","","Fog"
"1994-07-07 06:00","1994","07","07","06:00","21.3","","19.9","","92","","23","","4","","9.7","","99.20","","29","","","","Fog"
"1994-07-07 07:00","1994","07","07","07:00","22.0","","20.6","","92","","18","","6","","4.8","","99.23","","30","","","","Fog"
"1994-07-07 08:00","1994","07","07","08:00","22.7","","21.3","","92","","23","","11","","4.8","","99.30","","31","","","","Haze"
"1994-07-07 09:00","1994","07","07","09:00","24.3","","21.9","","86","","23","","7","","9.7","","99.36","","34","","","","Haze"
"1994-07-07 10:00","1994","07","07","10:00","26.1","","21.7","","77","","23","","7","","9.7","","99.26","","35","","","","Haze"
"1994-07-07 11:00","1994","07","07","11:00","28.4","","20.5","","62","","27","","13","","12.9","","99.23","","36","","","","Mostly Cloudy"
"1994-07-07 12:00","1994","07","07","12:00","29.9","","20.6","","57","","32","","7","","12.9","","99.23","","38","","","","Mainly Clear"
"1994-07-07 13:00","1994","07","07","13:00","30.2","","21.3","","59","","18","","9","","16.1","","99.16","","39","","","","Mainly Clear"
"1994-07-07 14:00","1994","07","07","14:00","30.6","","20.6","","55","","26","","9","","12.9","","99.16","","39","","","","Mainly Clear"
"1994-07-07 15:00","1994","07","07","15:00","31.0","","21.6","","57","","20","","9","","11.3","","99.13","","40","","","","Mostly Cloudy"
"1994-07-07 16:00","1994","07","07","16:00","30.9","","21.9","","59","","20","","7","","11.3","","99.10","","40","","","","Mostly Cloudy"
"1994-07-07 17:00","1994","07","07","17:00","30.3","","22.2","","62","","21","","11","","8.0","","99.06","","40","","","","Haze"
"1994-07-07 18:00","1994","07","07","18:00","29.2","","22.3","","66","","24","","9","","12.9","","99.10","","39","","","","Mostly Cloudy"
"1994-07-07 19:00","1994","07","07","19:00","27.7","","20.8","","66","","15","","19","","12.9","","99.10","","36","","","","Mainly Clear"
"1994-07-07 20:00","1994","07","07","20:00","24.7","","21.0","","80","","16","","13","","12.9","","99.23","","33","","","","Mainly Clear"
"1994-07-07 21:00","1994","07","07","21:00","24.1","","21.3","","84","","10","","6","","12.9","","99.23","","33","","","","Mainly Clear"
"1994-07-07 22:00","1994","07","07","22:00","23.8","","21.5","","87","","","","0","","12.9","","99.26","","33","","","","Mainly Clear"
"1994-07-07 23:00","1994","07","07","23:00","23.6","","21.8","","90","","","","0","","8.0","","99.26","","33","","","","Haze"
"1994-07-08 00:00","1994","07","08","00:00","24.2","","22.6","","91","","18","","9","","6.4","","99.30","","34","","","","Fog"
"1994-07-08 01:00","1994","07","08","01:00","24.3","","20.6","","80","","21","","19","","12.9","","99.30","","32","","","","Mostly Cloudy"
"1994-07-08 02:00","1994","07","08","02:00","23.2","","21.1","","88","","20","","9","","16.1","","99.20","","32","","","","Mostly Cloudy"
"1994-07-08 03:00","1994","07","08","03:00","22.7","","21.0","","90","","21","","11","","16.1","","99.16","","31","","","","Mostly Cloudy"
"1994-07-08 04:00","1994","07","08","04:00","22.7","","20.9","","90","","20","","9","","12.9","","99.13","","31","","","","Mostly Cloudy"
"1994-07-08 05:00","1994","07","08","05:00","22.3","","20.9","","92","","19","","7","","9.7","","99.16","","31","","","","Haze"
"1994-07-08 06:00","1994","07","08","06:00","23.3","","21.7","","91","","17","","7","","8.0","","99.20","","32","","","","Haze"
"1994-07-08 07:00","1994","07","08","07:00","24.1","","21.9","","88","","19","","19","","8.0","","99.23","","33","","","","Haze"
"1994-07-08 08:00","1994","07","08","08:00","24.7","","21.4","","82","","18","","17","","9.7","","99.20","","33","","","","Haze"
"1994-07-08 09:00","1994","07","08","09:00","25.5","","21.3","","78","","19","","15","","24.1","","99.20","","34","","","","Mostly Cloudy"
"1994-07-08 10:00","1994","07","08","10:00","26.4","","21.1","","73","","19","","24","","24.1","","99.23","","35","","","","Mostly Cloudy"
"1994-07-08 11:00","1994","07","08","11:00","26.8","","21.4","","72","","21","","28","","12.9","","99.16","","36","","","","Mostly Cloudy"
"1994-07-08 12:00","1994","07","08","12:00","27.6","","22.1","","72","","21","","28","","12.9","","99.16","","37","","","","Mostly Cloudy"
"1994-07-08 13:00","1994","07","08","13:00","27.8","","22.5","","73","","21","","22","","11.3","","99.10","","38","","","","Mostly Cloudy"
"1994-07-08 14:00","1994","07","08","14:00","28.2","","22.5","","71","","20","","15","","12.9","","99.10","","38","","","","Mostly Cloudy"
"1994-07-08 15:00","1994","07","08","15:00","28.8","","21.9","","66","","21","","22","","14.5","","99.03","","38","","","","Mostly Cloudy"
"1994-07-08 16:00","1994","07","08","16:00","29.0","","21.8","","65","","21","","28","","16.1","","98.93","","38","","","","Mainly Clear"
"1994-07-08 17:00","1994","07","08","17:00","29.2","","21.7","","64","","22","","28","","14.5","","98.90","","38","","","","Mainly Clear"
"1994-07-08 18:00","1994","07","08","18:00","28.5","","22.0","","68","","22","","20","","16.1","","98.90","","38","","","","Mainly Clear"
"1994-07-08 19:00","1994","07","08","19:00","27.9","","22.1","","71","","23","","26","","12.9","","98.90","","37","","","","Mostly Cloudy"
"1994-07-08 20:00","1994","07","08","20:00","26.4","","22.3","","78","","21","","13","","11.3","","98.96","","36","","","","Mostly Cloudy"
"1994-07-08 21:00","1994","07","08","21:00","22.6","","20.6","","88","","24","","13","","16.1","","99.00","","31","","","","Rain Showers"
"1994-07-08 22:00","1994","07","08","22:00","22.4","","20.7","","90","","23","","13","","16.1","","99.03","","31","","","","Mostly Cloudy"
"1994-07-08 23:00","1994","07","08","23:00","22.9","","21.4","","91","","22","","13","","16.1","","99.00","","32","","","","Mainly Clear"
"1994-07-09 00:00","1994","07","09","00:00","23.3","","21.8","","91","","23","","17","","12.9","","99.03","","32","","","","Mostly Cloudy"
"1994-07-09 01:00","1994","07","09","01:00","22.9","","21.3","","91","","24","","15","","16.1","","99.03","","32","","","","Mainly Clear"
"1994-07-09 02:00","1994","07","09","02:00","22.7","","21.0","","90","","26","","17","","16.1","","99.06","","31","","","","Mostly Cloudy"
"1994-07-09 03:00","1994","07","09","03:00","22.3","","20.8","","91","","25","","17","","12.9","","99.06","","31","","","","Mostly Cloudy"
"1994-07-09 04:00","1994","07","09","04:00","21.9","","20.2","","90","","27","","17","","16.1","","99.10","","30","","","","Mostly Cloudy"
"1994-07-09 05:00","1994","07","09","05:00","20.6","","17.8","","84","","28","","15","","16.1","","99.16","","26","","","","Mostly Cloudy"
"1994-07-09 06:00","1994","07","09","06:00","19.3","","14.8","","75","","27","","22","","16.1","","99.20","","","","","","Mostly Cloudy"
"1994-07-09 07:00","1994","07","09","07:00","19.6","","14.6","","73","","27","","22","","19.3","","99.23","","","","","","Mainly Clear"
"1994-07-09 08:00","1994","07","09","08:00","20.1","","14.7","","71","","24","","22","","19.3","","99.26","","","","","","Mainly Clear"
"1994-07-09 09:00","1994","07","09","09:00","21.5","","15.1","","67","","24","","32","","25.0","","99.26","","26","","","","Mainly Clear"
"1994-07-09 10:00","1994","07","09","10:00","22.6","","15.6","","65","","23","","30","","25.0","","99.23","","27","","","","Mainly Clear"
"1994-07-09 11:00","1994","07","09","11:00","23.9","","15.6","","60","","24","","28","","25.0","","99.23","","28","","","","Mostly Cloudy"
"1994-07-09 12:00","1994","07","09","12:00","24.5","","15.6","","58","","26","","26","","25.0","","99.23","","29","","","","Mostly Cloudy"
"1994-07-09 13:00","1994","07","09","13:00","24.5","","15.8","","58","","26","","26","","25.0","","99.20","","29","","","","Mostly Cloudy"
"1994-07-09 14:00","1994","07","09","14:00","24.5","","16.2","","60","","25","","20","","24.1","","99.20","","29","","","","Cloudy"
"1994-07-09 15:00","1994","07","09","15:00","25.0","","16.2","","58","","26","","20","","24.1","","99.16","","30","","","","Mostly Cloudy"
"1994-07-09 16:00","1994","07","09","16:00","24.5","","15.9","","59","","28","","26","","24.1","","99.16","","29","","","","Cloudy"
"1994-07-09 17:00","1994","07","09","17:00","24.6","","16.1","","59","","27","","22","","24.1","","99.20","","29","","","","Mostly Cloudy"
"1994-07-09 18:00","1994","07","09","18:00","23.4","","16.6","","66","","28","","17","","24.1","","99.23","","28","","","","Cloudy"
"1994-07-09 19:00","1994","07","09","19:00","22.3","","16.7","","71","","28","","17","","24.1","","99.26","","27","","","","Rain Showers"
"1994-07-09 20:00","1994","07","09","20:00","22.4","","16.6","","70","","27","","19","","24.1","","99.26","","27","","","","Mostly Cloudy"
"1994-07-09 21:00","1994","07","09","21:00","22.0","","16.6","","71","","27","","17","","24.1","","99.26","","27","","","","Mostly Cloudy"
"1994-07-09 22:00","1994","07","09","22:00","21.8","","16.9","","74","","27","","13","","24.1","","99.33","","27","","","","Mostly Cloudy"
"1994-07-09 23:00","1994","07","09","23:00","21.5","","16.7","","74","","26","","17","","24.1","","99.30","","27","","","","Mostly Cloudy"
"1994-07-10 00:00","1994","07","10","00:00","20.7","","16.7","","78","","27","","17","","24.1","","99.30","","26","","","","Mainly Clear"
"1994-07-10 01:00","1994","07","10","01:00","20.6","","16.6","","78","","28","","20","","24.1","","99.33","","26","","","","Mainly Clear"
"1994-07-10 02:00","1994","07","10","02:00","20.0","","16.3","","79","","30","","22","","24.1","","99.33","","25","","","","Mainly Clear"
"1994-07-10 03:00","1994","07","10","03:00","19.5","","16.2","","81","","30","","17","","24.1","","99.36","","","","","","Mostly Cloudy"
"1994-07-10 04:00","1994","07","10","04:00","19.0","","16.4","","85","","30","","15","","24.1","","99.40","","","","","","Mostly Cloudy"
"1994-07-10 05:00","1994","07","10","05:00","15.8","","12.5","","81","","33","","15","","24.1","","99.53","","","","","","Mainly Clear"
"1994-07-10 06:00","1994","07","10","06:00","15.3","","11.1","","76","","34","","19","","25.0","","99.63","","","","","","Mostly Cloudy"
"1994-07-10 07:00","1994","07","10","07:00","15.0","","10.4","","74","","35","","20","","25.0","","99.66","","","","","","Mostly Cloudy"
"1994-07-10 08:00","1994","07","10","08:00","15.0","","10.4","","74","","35","","19","","25.0","","99.73","","","","","","Mostly Cloudy"
"1994-07-10 09:00","1994","07","10","09:00","15.2","","10.5","","73","","35","","22","","25.0","","99.80","","","","","","Cloudy"
"1994-07-10 10:00","1994","07","10","10:00","16.4","","11.4","","72","","2","","19","","25.0","","99.83","","","","","","Cloudy"
"1994-07-10 11:00","1994","07","10","11:00","17.3","","12.0","","71","","36","","19","","25.0","","99.90","","","","","","Mostly Cloudy"
"1994-07-10 12:00","1994","07","10","12:00","18.4","","12.1","","67","","3","","11","","25.0","","99.93","","","","","","Mostly Cloudy"
"1994-07-10 13:00","1994","07","10","13:00","18.9","","11.8","","63","","34","","11","","25.0","","99.93","","","","","","Mostly Cloudy"
"1994-07-10 14:00","1994","07","10","14:00","20.9","","12.0","","57","","","","0","","25.0","","99.93","","","","","","Mostly Cloudy"
"1994-07-10 15:00","1994","07","10","15:00","20.7","","12.2","","58","","7","","7","","25.0","","99.90","","","","","","Mainly Clear"
"1994-07-10 16:00","1994","07","10","16:00","21.2","","12.5","","58","","8","","4","","25.0","","99.90","","","","","","Mainly Clear"
"1994-07-10 17:00","1994","07","10","17:00","21.5","","12.6","","57","","","","0","","25.0","","99.86","","","","","","Mainly Clear"
"1994-07-10 18:00","1994","07","10","18:00","21.7","","12.8","","57","","9","","6","","25.0","","99.83","","","","","","Mainly Clear"
"1994-07-10 19:00","1994","07","10","19:00","20.7","","12.9","","61","","10","","7","","25.0","","99.86","","","","","","Mainly Clear"
"1994-07-10 20:00","1994","07","10","20:00","19.1","","13.4","","70","","14","","4","","25.0","","99.83","","","","","","Mainly Clear"
"1994-07-10 21:00","1994","07","10","21:00","18.2","","13.6","","75","","12","","6","","25.0","","99.90","","","","","","Mainly Clear"
"1994-07-10 22:00","1994","07","10","22:00","15.7","","12.8","","83","","17","","4","","25.0","","99.93","","","","","","Mainly Clear"
"1994-07-10 23:00","1994","07","10","23:00","14.6","","10.9","","78","","18","","6","","24.1","","99.93","","","","","","Clear"
"1994-07-11 00:00","1994","07","11","00:00","14.3","","9.8","","74","","","","0","","24.1","","99.93","","","","","","Clear"
"1994-07-11 01:00","1994","07","11","01:00","15.0","","8.6","","66","","16","","4","","24.1","","99.90","","","","","","Clear"
"1994-07-11 02:00","1994","07","11","02:00","13.8","","8.6","","71","","","","0","","24.1","","99.86","","","","","","Clear"
"1994-07-11 03:00","1994","07","11","03:00","13.2","","8.3","","72","","","","0","","24.1","","99.90","","","","","","Clear"
"1994-07-11 04:00","1994","07","11","04:00","13.1","","8.4","","73","","","","0","","24.1","","99.90","","","","","","Clear"
"1994-07-11 05:00","1994","07","11","05:00","12.6","","8.4","","76","","","","0","","24.1","","99.90","","","","","","Clear"
"1994-07-11 06:00","1994","07","11","06:00","14.4","","9.5","","72","","","","0","","24.1","","99.96","","","","","","Mainly Clear"
"1994-07-11 07:00","1994","07","11","07:00","17.0","","12.6","","75","","","","0","","24.1","","100.03","","","","","","Mainly Clear"
"1994-07-11 08:00","1994","07","11","08:00","19.3","","13.8","","70","","","","0","","24.1","","99.99","","","","","","Clear"
"1994-07-11 09:00","1994","07","11","09:00","20.6","","14.1","","66","","26","","6","","24.1","","99.99","","","","","","Mainly Clear"
"1994-07-11 10:00","1994","07","11","10:00","21.5","","12.9","","58","","","","0","","24.1","","99.96","","","","","","Mainly Clear"
"1994-07-11 11:00","1994","07","11","11:00","21.7","","13.1","","58","","25","","9","","24.1","","99.93","","25","","","","Mainly Clear"
"1994-07-11 12:00","1994","07","11","12:00","22.9","","13.8","","56","","23","","9","","24.1","","99.83","","26","","","","Mainly Clear"
"1994-07-11 13:00","1994","07","11","13:00","23.2","","13.7","","55","","23","","20","","24.1","","99.80","","26","","","","Mainly Clear"
"1994-07-11 14:00","1994","07","11","14:00","23.5","","13.3","","53","","23","","19","","24.1","","99.76","","26","","","","Mainly Clear"
"1994-07-11 15:00","1994","07","11","15:00","23.6","","13.7","","54","","23","","15","","24.1","","99.70","","27","","","","Mainly Clear"
"1994-07-11 16:00","1994","07","11","16:00","23.5","","13.9","","55","","23","","11","","24.1","","99.63","","27","","","","Mainly Clear"
"1994-07-11 17:00","1994","07","11","17:00","23.6","","13.7","","54","","23","","11","","24.1","","99.63","","27","","","","Mainly Clear"
"1994-07-11 18:00","1994","07","11","18:00","23.2","","14.0","","56","","22","","13","","24.1","","99.56","","27","","","","Clear"
"1994-07-11 19:00","1994","07","11","19:00","22.7","","13.7","","57","","22","","11","","24.1","","99.53","","26","","","","Clear"
"1994-07-11 20:00","1994","07","11","20:00","21.3","","13.7","","62","","22","","11","","24.1","","99.50","","","","","","Clear"
"1994-07-11 21:00","1994","07","11","21:00","19.6","","14.4","","72","","21","","7","","24.1","","99.53","","","","","","Mainly Clear"
"1994-07-11 22:00","1994","07","11","22:00","19.4","","14.9","","75","","23","","7","","24.1","","99.56","","","","","","Mainly Clear"
"1994-07-11 23:00","1994","07","11","23:00","20.6","","16.4","","77","","21","","11","","24.1","","99.46","","25","","","","Mostly Cloudy"
"1994-07-12 00:00","1994","07","12","00:00","20.7","","16.2","","75","","25","","7","","24.1","","99.43","","25","","","","Mostly Cloudy"
"1994-07-12 01:00","1994","07","12","01:00","19.7","","15.6","","77","","22","","6","","24.1","","99.33","","","","","","Mainly Clear"
"1994-07-12 02:00","1994","07","12","02:00","20.2","","16.1","","77","","24","","9","","24.1","","99.33","","25","","","","Mostly Cloudy"
"1994-07-12 03:00","1994","07","12","03:00","20.6","","13.9","","65","","24","","11","","19.3","","99.30","","","","","","Mainly Clear"
"1994-07-12 04:00","1994","07","12","04:00","19.6","","14.1","","71","","25","","11","","19.3","","99.33","","","","","","Mainly Clear"
"1994-07-12 05:00","1994","07","12","05:00","19.6","","14.6","","73","","25","","11","","19.3","","99.36","","","","","","Mostly Cloudy"
"1994-07-12 06:00","1994","07","12","06:00","20.1","","14.7","","71","","25","","11","","19.3","","99.33","","","","","","Mostly Cloudy"
"1994-07-12 07:00","1994","07","12","07:00","21.1","","15.2","","69","","25","","19","","19.3","","99.30","","25","","","","Mostly Cloudy"
"1994-07-12 08:00","1994","07","12","08:00","22.8","","16.1","","66","","25","","19","","24.1","","99.30","","27","","","","Mainly Clear"
"1994-07-12 09:00","1994","07","12","09:00","23.5","","16.7","","66","","26","","20","","24.1","","99.30","","29","","","","Mainly Clear"
"1994-07-12 10:00","1994","07","12","10:00","26.0","","18.5","","63","","26","","17","","24.1","","99.33","","32","","","","Mostly Cloudy"
"1994-07-12 11:00","1994","07","12","11:00","26.6","","18.9","","63","","27","","17","","19.3","","99.33","","33","","","","Mostly Cloudy"
"1994-07-12 12:00","1994","07","12","12:00","28.0","","19.9","","61","","28","","17","","19.3","","99.26","","35","","","","Mainly Clear"
"1994-07-12 13:00","1994","07","12","13:00","29.5","","20.5","","58","","25","","20","","19.3","","99.23","","37","","","","Mainly Clear"
"1994-07-12 14:00","1994","07","12","14:00","30.8","","20.6","","55","","23","","19","","19.3","","99.20","","39","","","","Mainly Clear"
"1994-07-12 15:00","1994","07","12","15:00","31.3","","20.2","","52","","25","","20","","19.3","","99.16","","39","","","","Mainly Clear"
"1994-07-12 16:00","1994","07","12","16:00","31.3","","19.7","","50","","23","","19","","19.3","","99.13","","39","","","","Mainly Clear"
"1994-07-12 17:00","1994","07","12","17:00","31.4","","19.8","","50","","26","","22","","19.3","","99.13","","39","","","","Mainly Clear"
"1994-07-12 18:00","1994","07","12","18:00","30.5","","19.5","","52","","26","","19","","19.3","","99.13","","38","","","","Mainly Clear"
"1994-07-12 19:00","1994","07","12","19:00","29.7","","19.6","","55","","27","","11","","16.1","","99.13","","37","","","","Mainly Clear"
"1994-07-12 20:00","1994","07","12","20:00","28.4","","19.6","","59","","26","","11","","16.1","","99.16","","36","","","","Mostly Cloudy"
"1994-07-12 21:00","1994","07","12","21:00","27.0","","20.5","","68","","26","","7","","16.1","","99.23","","35","","","","Thunderstorms"
"1994-07-12 22:00","1994","07","12","22:00","26.6","","19.1","","63","","31","","7","","24.1","","99.26","","33","","","","Mostly Cloudy"
"1994-07-12 23:00","1994","07","12","23:00","26.1","","20.4","","71","","29","","7","","19.3","","99.33","","34","","","","Thunderstorms"
"1994-07-13 00:00","1994","07","13","00:00","24.0","","21.0","","83","","28","","11","","12.9","","99.33","","32","","","","Mostly Cloudy"
"1994-07-13 01:00","1994","07","13","01:00","23.3","","20.8","","86","","30","","6","","9.7","","99.33","","32","","","","Haze"
"1994-07-13 02:00","1994","07","13","02:00","24.1","","20.6","","81","","33","","9","","9.7","","99.33","","32","","","","Haze"
"1994-07-13 03:00","1994","07","13","03:00","23.6","","20.2","","81","","30","","4","","9.7","","99.36","","31","","","","Haze"
"1994-07-13 04:00","1994","07","13","04:00","22.4","","19.6","","84","","36","","4","","9.7","","99.36","","30","","","","Haze"
"1994-07-13 05:00","1994","07","13","05:00","18.6","","15.9","","84","","8","","15","","12.9","","99.46","","","","","","Mostly Cloudy"
"1994-07-13 06:00","1994","07","13","06:00","18.8","","15.9","","83","","7","","15","","12.9","","99.50","","","","","","Mostly Cloudy"
"1994-07-13 07:00","1994","07","13","07:00","18.7","","14.8","","78","","7","","15","","24.1","","99.53","","","","","","Mostly Cloudy"
"1994-07-13 08:00","1994","07","13","08:00","20.2","","14.7","","71","","5","","17","","24.1","","99.60","","","","","","Mainly Clear"
"1994-07-13 09:00","1994","07","13","09:00","20.7","","14.5","","68","","6","","13","","25.0","","99.63","","","","","","Mainly Clear"
"1994-07-13 10:00","1994","07","13","10:00","22.1","","14.2","","61","","7","","9","","25.0","","99.63","","26","","","","Mainly Clear"
"1994-07-13 11:00","1994","07","13","11:00","22.8","","14.6","","60","","8","","11","","25.0","","99.66","","27","","","","Mainly Clear"
"1994-07-13 12:00","1994","07","13","12:00","23.7","","15.8","","61","","9","","9","","25.0","","99.66","","28","","","","Mainly Clear"
"1994-07-13 13:00","1994","07","13","13:00","23.9","","16.0","","61","","9","","9","","25.0","","99.63","","29","","","","Mainly Clear"
"1994-07-13 14:00","1994","07","13","14:00","24.9","","16.6","","60","","9","","9","","25.0","","99.56","","30","","","","Mainly Clear"
"1994-07-13 15:00","1994","07","13","15:00","25.5","","16.8","","59","","8","","13","","24.1","","99.53","","31","","","","Mainly Clear"
"1994-07-13 16:00","1994","07","13","16:00","25.4","","16.3","","57","","8","","13","","19.3","","99.46","","30","","","","Mainly Clear"
"1994-07-13 17:00","1994","07","13","17:00","24.2","","17.7","","67","","8","","20","","19.3","","99.46","","30","","","","Mostly Cloudy"
"1994-07-13 18:00","1994","07","13","18:00","22.6","","17.2","","72","","8","","17","","19.3","","99.46","","28","","","","Mostly Cloudy"
"1994-07-13 19:00","1994","07","13","19:00","20.2","","16.2","","78","","7","","22","","19.3","","99.53","","25","","","","Mainly Clear"
"1994-07-13 20:00","1994","07","13","20:00","18.3","","14.7","","80","","5","","26","","24.1","","99.56","","","","","","Mainly Clear"
"1994-07-13 21:00","1994","07","13","21:00","17.7","","14.4","","81","","6","","15","","24.1","","99.63","","","","","","Mainly Clear"
"1994-07-13 22:00","1994","07","13","22:00","17.3","","13.2","","77","","7","","13","","24.1","","99.63","","","","","","Mainly Clear"
"1994-07-13 23:00","1994","07","13","23:00","16.9","","13.1","","78","","7","","13","","24.1","","99.56","","","","","","Clear"
"1994-07-14 00:00","1994","07","14","00:00","16.9","","13.2","","79","","7","","9","","24.1","","99.63","","","","","","Mainly Clear"
"1994-07-14 01:00","1994","07","14","01:00","16.6","","14.4","","87","","7","","9","","24.1","","99.56","","","","","","Cloudy"
"1994-07-14 02:00","1994","07","14","02:00","16.6","","14.7","","89","","5","","13","","19.3","","99.46","","","","","","Mostly Cloudy"
"1994-07-14 03:00","1994","07","14","03:00","16.6","","15.0","","90","","7","","13","","19.3","","99.43","","","","","","Mostly Cloudy"
"1994-07-14 04:00","1994","07","14","04:00","16.4","","14.5","","89","","4","","11","","24.1","","99.46","","","","","","Cloudy"
"1994-07-14 05:00","1994","07","14","05:00","17.2","","15.4","","89","","7","","7","","24.1","","99.43","","","","","","Cloudy"
"1994-07-14 06:00","1994","07","14","06:00","17.7","","15.9","","89","","6","","9","","24.1","","99.40","","","","","","Cloudy"
"1994-07-14 07:00","1994","07","14","07:00","18.6","","16.6","","88","","5","","13","","24.1","","99.43","","","","","","Cloudy"
"1994-07-14 08:00","1994","07","14","08:00","20.4","","18.1","","87","","8","","13","","24.1","","99.43","","26","","","","Cloudy"
"1994-07-14 09:00","1994","07","14","09:00","20.6","","18.1","","86","","8","","13","","24.1","","99.43","","27","","","","Cloudy"
"1994-07-14 10:00","1994","07","14","10:00","21.0","","18.4","","85","","9","","9","","19.3","","99.43","","27","","","","Cloudy"
"1994-07-14 11:00","1994","07","14","11:00","21.7","","20.0","","90","","13","","13","","12.9","","99.40","","29","","","","Rain Showers"
"1994-07-14 12:00","1994","07","14","12:00","22.5","","19.9","","85","","14","","17","","9.7","","99.40","","30","","","","Haze"
"1994-07-14 13:00","1994","07","14","13:00","23.1","","20.2","","84","","15","","11","","9.7","","99.36","","31","","","","Haze"
"1994-07-14 14:00","1994","07","14","14:00","23.9","","20.1","","79","","12","","11","","11.3","","99.36","","32","","","","Cloudy"
"1994-07-14 15:00","1994","07","14","15:00","24.7","","20.0","","75","","14","","11","","11.3","","99.33","","32","","","","Cloudy"
"1994-07-14 16:00","1994","07","14","16:00","24.7","","19.1","","71","","13","","11","","11.3","","99.33","","32","","","","Cloudy"
"1994-07-14 17:00","1994","07","14","17:00","25.0","","20.0","","74","","13","","15","","11.3","","99.30","","33","","","","Mostly Cloudy"
"1994-07-14 18:00","1994","07","14","18:00","23.7","","19.6","","78","","14","","13","","9.7","","99.26","","31","","","","Haze"
"1994-07-14 19:00","1994","07","14","19:00","22.4","","19.1","","82","","13","","11","","9.7","","99.30","","29","","","","Haze"
"1994-07-14 20:00","1994","07","14","20:00","21.5","","18.8","","85","","14","","6","","9.7","","99.33","","28","","","","Haze"
"1994-07-14 21:00","1994","07","14","21:00","20.4","","18.0","","86","","13","","6","","9.7","","99.30","","26","","","","Haze"
"1994-07-14 22:00","1994","07","14","22:00","19.6","","17.7","","89","","9","","6","","9.7","","99.30","","","","","","Haze"
"1994-07-14 23:00","1994","07","14","23:00","18.9","","17.7","","93","","11","","6","","9.7","","99.30","","","","","","Haze"
"1994-07-15 00:00","1994","07","15","00:00","18.9","","17.6","","92","","9","","2","","8.0","","99.26","","","","","","Haze"
"1994-07-15 01:00","1994","07","15","01:00","19.0","","18.0","","94","","","","0","","6.4","","99.23","","","","","","Fog"
"1994-07-15 02:00","1994","07","15","02:00","19.0","","18.4","","96","","19","","4","","4.8","","99.13","","","","","","Fog"
"1994-07-15 03:00","1994","07","15","03:00","20.0","","19.3","","96","","22","","2","","3.2","","99.13","","27","","","","Fog"
"1994-07-15 04:00","1994","07","15","04:00","20.3","","19.5","","95","","28","","4","","3.2","","99.13","","27","","","","Fog"
"1994-07-15 05:00","1994","07","15","05:00","20.7","","19.9","","95","","28","","13","","3.2","","99.16","","28","","","","Fog"
"1994-07-15 06:00","1994","07","15","06:00","20.9","","20.0","","95","","29","","7","","2.0","","99.20","","28","","","","Fog"
"1994-07-15 07:00","1994","07","15","07:00","22.2","","20.2","","88","","29","","9","","4.0","","99.23","","30","","","","Fog"
"1994-07-15 08:00","1994","07","15","08:00","23.3","","19.2","","78","","31","","24","","6.4","","99.26","","30","","","","Haze"
"1994-07-15 09:00","1994","07","15","09:00","23.9","","18.3","","71","","31","","15","","9.7","","99.26","","30","","","","Haze"
"1994-07-15 10:00","1994","07","15","10:00","24.3","","18.5","","70","","29","","15","","9.7","","99.30","","31","","","","Haze"
"1994-07-15 11:00","1994","07","15","11:00","24.5","","18.0","","67","","29","","15","","11.3","","99.33","","31","","","","Mostly Cloudy"
"1994-07-15 12:00","1994","07","15","12:00","24.6","","17.7","","65","","28","","17","","12.9","","99.36","","30","","","","Mostly Cloudy"
"1994-07-15 13:00","1994","07","15","13:00","24.8","","17.9","","66","","30","","11","","12.9","","99.36","","31","","","","Mostly Cloudy"
"1994-07-15 14:00","1994","07","15","14:00","25.2","","17.6","","63","","31","","17","","16.1","","99.40","","31","","","","Mostly Cloudy"
"1994-07-15 15:00","1994","07","15","15:00","23.8","","17.2","","67","","32","","15","","16.1","","99.43","","29","","","","Mostly Cloudy"
"1994-07-15 16:00","1994","07","15","16:00","22.9","","16.0","","65","","34","","19","","16.1","","99.43","","28","","","","Mostly Cloudy"
"1994-07-15 17:00","1994","07","15","17:00","23.0","","16.5","","67","","32","","19","","16.1","","99.43","","28","","","","Mostly Cloudy"
"1994-07-15 18:00","1994","07","15","18:00","22.9","","16.8","","69","","30","","15","","16.1","","99.43","","28","","","","Mostly Cloudy"
"1994-07-15 19:00","1994","07","15","19:00","22.1","","16.4","","70","","31","","15","","19.3","","99.50","","27","","","","Mostly Cloudy"
"1994-07-15 20:00","1994","07","15","20:00","21.9","","16.7","","72","","34","","9","","19.3","","99.53","","27","","","","Mostly Cloudy"
"1994-07-15 21:00","1994","07","15","21:00","21.5","","17.2","","77","","33","","4","","19.3","","99.63","","27","","","","Mostly Cloudy"
"1994-07-15 22:00","1994","07","15","22:00","21.5","","17.2","","77","","33","","4","","19.3","","99.63","","27","","","","Mostly Cloudy"
"1994-07-15 23:00","1994","07","15","23:00","21.0","","16.8","","77","","32","","7","","19.3","","99.70","","26","","","","Mostly Cloudy"
"1994-07-16 00:00","1994","07","16","00:00","20.6","","16.9","","79","","33","","2","","19.3","","99.73","","26","","","","Mostly Cloudy"
"1994-07-16 01:00","1994","07","16","01:00","19.7","","16.9","","84","","32","","6","","19.3","","99.73","","","","","","Mainly Clear"
"1994-07-16 02:00","1994","07","16","02:00","18.8","","16.5","","86","","31","","6","","12.9","","99.73","","","","","","Mainly Clear"
"1994-07-16 03:00","1994","07","16","03:00","18.3","","16.2","","88","","32","","7","","11.3","","99.73","","","","","","Clear"
"1994-07-16 04:00","1994","07","16","04:00","17.6","","15.9","","90","","30","","6","","11.3","","99.73","","","","","","Clear"
"1994-07-16 05:00","1994","07","16","05:00","17.1","","15.7","","91","","29","","2","","11.3","","99.76","","","","","","Mainly Clear"
"1994-07-16 06:00","1994","07","16","06:00","17.3","","15.8","","91","","","","0","","11.3","","99.80","","","","","","Mostly Cloudy"
"1994-07-16 07:00","1994","07","16","07:00","18.2","","16.3","","89","","","","0","","12.9","","99.80","","","","","","Mainly Clear"
"1994-07-16 08:00","1994","07","16","08:00","20.7","","16.6","","77","","","","0","","19.3","","99.90","","26","","","","Mainly Clear"
"1994-07-16 09:00","1994","07","16","09:00","21.6","","17.1","","76","","9","","6","","19.3","","99.90","","27","","","","Mainly Clear"
"1994-07-16 10:00","1994","07","16","10:00","23.5","","16.6","","65","","","","0","","24.1","","99.90","","29","","","","Mainly Clear"
"1994-07-16 11:00","1994","07","16","11:00","23.7","","15.3","","59","","","","0","","24.1","","99.90","","28","","","","Mainly Clear"
"1994-07-16 12:00","1994","07","16","12:00","25.2","","15.3","","54","","12","","4","","24.1","","99.90","","29","","","","Mainly Clear"
"1994-07-16 13:00","1994","07","16","13:00","25.5","","16.1","","56","","8","","7","","24.1","","99.83","","30","","","","Mainly Clear"
"1994-07-16 14:00","1994","07","16","14:00","26.1","","15.9","","53","","17","","7","","24.1","","99.80","","31","","","","Mainly Clear"
"1994-07-16 15:00","1994","07","16","15:00","26.5","","15.0","","49","","11","","11","","24.1","","99.76","","30","","","","Mostly Cloudy"
"1994-07-16 16:00","1994","07","16","16:00","26.5","","14.9","","49","","11","","9","","24.1","","99.73","","30","","","","Mostly Cloudy"
"1994-07-16 17:00","1994","07","16","17:00","25.0","","16.7","","60","","17","","11","","24.1","","99.73","","30","","","","Mostly Cloudy"
"1994-07-16 18:00","1994","07","16","18:00","23.9","","16.5","","63","","18","","13","","24.1","","99.73","","29","","","","Mostly Cloudy"
"1994-07-16 19:00","1994","07","16","19:00","23.5","","16.7","","66","","16","","7","","24.1","","99.73","","29","","","","Mostly Cloudy"
"1994-07-16 20:00","1994","07","16","20:00","21.9","","17.0","","74","","17","","7","","24.1","","99.73","","27","","","","Mostly Cloudy"
"1994-07-16 21:00","1994","07","16","21:00","20.9","","16.6","","76","","17","","7","","24.1","","99.73","","26","","","","Mostly Cloudy"
"1994-07-16 22:00","1994","07","16","22:00","19.8","","16.2","","80","","17","","7","","24.1","","99.73","","","","","","Mostly Cloudy"
"1994-07-16 23:00","1994","07","16","23:00","19.2","","15.9","","81","","18","","6","","24.1","","99.80","","","","","","Mostly Cloudy"
"1994-07-17 00:00","1994","07","17","00:00","18.0","","15.6","","86","","","","0","","16.1","","99.76","","","","","","Mostly Cloudy"
"1994-07-17 01:00","1994","07","17","01:00","17.9","","15.6","","86","","","","0","","24.1","","99.80","","","","","","Mainly Clear"
"1994-07-17 02:00","1994","07","17","02:00","17.6","","15.6","","88","","","","0","","24.1","","99.73","","","","","","Mainly Clear"
"1994-07-17 03:00","1994","07","17","03:00","17.3","","15.1","","87","","","","0","","24.1","","99.73","","","","","","Mainly Clear"
"1994-07-17 04:00","1994","07","17","04:00","16.2","","14.6","","90","","","","0","","24.1","","99.73","","","","","","Mostly Cloudy"
"1994-07-17 05:00","1994","07","17","05:00","16.7","","15.7","","94","","","","0","","19.3","","99.73","","","","","","Mostly Cloudy"
"1994-07-17 06:00","1994","07","17","06:00","17.3","","15.2","","87","","","","0","","19.3","","99.73","","","","","","Mainly Clear"
"1994-07-17 07:00","1994","07","17","07:00","18.6","","16.4","","87","","12","","4","","19.3","","99.70","","","","","","Mainly Clear"
"1994-07-17 08:00","1994","07","17","08:00","22.1","","18.3","","79","","12","","4","","19.3","","99.70","","28","","","","Mostly Cloudy"
"1994-07-17 09:00","1994","07","17","09:00","23.0","","18.5","","76","","15","","6","","24.1","","99.73","","29","","","","Mostly Cloudy"
"1994-07-17 10:00","1994","07","17","10:00","24.0","","18.2","","70","","19","","9","","24.1","","99.73","","30","","","","Mostly Cloudy"
"1994-07-17 11:00","1994","07","17","11:00","24.5","","17.7","","66","","19","","13","","22.5","","99.66","","30","","","","Mostly Cloudy"
"1994-07-17 12:00","1994","07","17","12:00","25.2","","15.9","","56","","20","","6","","20.9","","99.63","","30","","","","Mostly Cloudy"
"1994-07-17 13:00","1994","07","17","13:00","25.8","","17.7","","61","","18","","11","","19.3","","99.60","","32","","","","Mostly Cloudy"
"1994-07-17 14:00","1994","07","17","14:00","25.8","","17.6","","61","","15","","13","","19.3","","99.53","","32","","","","Mostly Cloudy"
"1994-07-17 15:00","1994","07","17","15:00","24.4","","17.2","","64","","20","","6","","19.3","","99.53","","30","","","","Cloudy"
"1994-07-17 16:00","1994","07","17","16:00","24.8","","17.4","","63","","20","","4","","19.3","","99.46","","30","","","","Mostly Cloudy"
"1994-07-17 17:00","1994","07","17","17:00","24.6","","17.5","","65","","","","0","","19.3","","99.43","","30","","","","Mostly Cloudy"
"1994-07-17 18:00","1994","07","17","18:00","24.8","","16.9","","61","","","","0","","19.3","","99.40","","30","","","","Mostly Cloudy"
"1994-07-17 19:00","1994","07","17","19:00","23.8","","17.5","","68","","13","","6","","19.3","","99.36","","29","","","","Mostly Cloudy"
"1994-07-17 20:00","1994","07","17","20:00","22.6","","17.6","","73","","15","","6","","19.3","","99.33","","28","","","","Mostly Cloudy"
"1994-07-17 21:00","1994","07","17","21:00","21.7","","18.0","","79","","17","","4","","19.3","","99.36","","28","","","","Cloudy"
"1994-07-17 22:00","1994","07","17","22:00","21.5","","18.2","","81","","12","","6","","19.3","","99.33","","28","","","","Mostly Cloudy"
"1994-07-17 23:00","1994","07","17","23:00","20.8","","18.8","","88","","26","","9","","12.9","","99.36","","27","","","","Heavy Rain Showers"
"1994-07-18 00:00","1994","07","18","00:00","19.7","","17.2","","85","","8","","9","","19.3","","99.33","","","","","","Cloudy"
"1994-07-18 01:00","1994","07","18","01:00","19.4","","17.3","","88","","9","","6","","19.3","","99.30","","","","","","Cloudy"
"1994-07-18 02:00","1994","07","18","02:00","19.6","","17.7","","89","","","","0","","16.1","","99.30","","","","","","Cloudy"
"1994-07-18 03:00","1994","07","18","03:00","19.8","","18.2","","90","","34","","4","","12.9","","99.26","","","","","","Cloudy"
"1994-07-18 04:00","1994","07","18","04:00","19.4","","18.0","","92","","34","","4","","11.3","","99.30","","","","","","Cloudy"
"1994-07-18 05:00","1994","07","18","05:00","19.6","","18.1","","91","","31","","4","","6.4","","99.33","","","","","","Fog"
"1994-07-18 06:00","1994","07","18","06:00","20.7","","18.0","","85","","32","","9","","8.0","","99.36","","27","","","","Fog"
"1994-07-18 07:00","1994","07","18","07:00","21.0","","17.8","","82","","33","","7","","11.3","","99.40","","27","","","","Mainly Clear"
"1994-07-18 08:00","1994","07","18","08:00","23.0","","17.9","","73","","32","","4","","16.1","","99.43","","29","","","","Clear"
"1994-07-18 09:00","1994","07","18","09:00","24.0","","17.9","","69","","31","","7","","16.1","","99.43","","30","","","","Clear"
"1994-07-18 10:00","1994","07","18","10:00","25.3","","18.1","","64","","29","","7","","14.5","","99.43","","31","","","","Mainly Clear"
"1994-07-18 11:00","1994","07","18","11:00","25.8","","17.7","","61","","28","","13","","14.5","","99.40","","32","","","","Mostly Cloudy"
"1994-07-18 12:00","1994","07","18","12:00","27.4","","16.9","","53","","28","","15","","16.1","","99.33","","33","","","","Mainly Clear"
"1994-07-18 13:00","1994","07","18","13:00","28.6","","16.1","","47","","26","","11","","19.3","","99.30","","33","","","","Mainly Clear"
"1994-07-18 14:00","1994","07","18","14:00","28.7","","15.6","","45","","26","","13","","24.1","","99.26","","33","","","","Mainly Clear"
"1994-07-18 15:00","1994","07","18","15:00","28.5","","14.3","","42","","29","","13","","24.1","","99.26","","32","","","","Mainly Clear"
"1994-07-18 16:00","1994","07","18","16:00","28.7","","14.0","","41","","30","","9","","24.1","","99.26","","32","","","","Mainly Clear"
"1994-07-18 17:00","1994","07","18","17:00","28.0","","14.1","","43","","29","","15","","25.0","","99.26","","31","","","","Mainly Clear"
"1994-07-18 18:00","1994","07","18","18:00","28.1","","14.2","","43","","31","","15","","25.0","","99.23","","32","","","","Mainly Clear"
"1994-07-18 19:00","1994","07","18","19:00","27.6","","14.3","","44","","30","","11","","25.0","","99.26","","31","","","","Mainly Clear"
"1994-07-18 20:00","1994","07","18","20:00","25.5","","14.2","","50","","28","","7","","25.0","","99.26","","29","","","","Mainly Clear"
"1994-07-18 21:00","1994","07","18","21:00","24.5","","14.1","","52","","30","","4","","19.3","","99.30","","28","","","","Mostly Cloudy"
"1994-07-18 22:00","1994","07","18","22:00","23.4","","14.6","","58","","29","","4","","19.3","","99.33","","27","","","","Mostly Cloudy"
"1994-07-18 23:00","1994","07","18","23:00","22.6","","14.5","","60","","29","","4","","19.3","","99.40","","26","","","","Mostly Cloudy"
"1994-07-19 00:00","1994","07","19","00:00","20.4","","15.0","","71","","26","","4","","19.3","","99.43","","","","","","Mostly Cloudy"
"1994-07-19 01:00","1994","07","19","01:00","18.8","","15.3","","80","","24","","6","","19.3","","99.40","","","","","","Mostly Cloudy"
"1994-07-19 02:00","1994","07","19","02:00","18.0","","15.2","","84","","23","","4","","19.3","","99.40","","","","","","Mostly Cloudy"
"1994-07-19 03:00","1994","07","19","03:00","17.6","","14.9","","84","","25","","4","","24.1","","99.40","","","","","","Mainly Clear"
"1994-07-19 04:00","1994","07","19","04:00","17.9","","15.2","","84","","","","0","","24.1","","99.40","","","","","","Clear"
"1994-07-19 05:00","1994","07","19","05:00","16.6","","14.9","","90","","","","0","","16.1","","99.43","","","","","","Mainly Clear"
"1994-07-19 06:00","1994","07","19","06:00","17.7","","15.4","","86","","","","0","","16.1","","99.46","","","","","","Mainly Clear"
"1994-07-19 07:00","1994","07","19","07:00","20.1","","16.9","","82","","","","0","","16.1","","99.53","","25","","","","Mainly Clear"
"1994-07-19 08:00","1994","07","19","08:00","22.5","","17.5","","73","","21","","9","","16.1","","99.53","","28","","","","Mainly Clear"
"1994-07-19 09:00","1994","07","19","09:00","25.5","","17.2","","60","","24","","9","","16.1","","99.53","","31","","","","Mainly Clear"
"1994-07-19 10:00","1994","07","19","10:00","26.9","","17.2","","55","","23","","11","","19.3","","99.53","","32","","","","Mainly Clear"
"1994-07-19 11:00","1994","07","19","11:00","27.6","","17.1","","53","","23","","11","","19.3","","99.53","","33","","","","Mainly Clear"
"1994-07-19 12:00","1994","07","19","12:00","28.1","","16.3","","49","","23","","17","","16.1","","99.53","","33","","","","Mainly Clear"
"1994-07-19 13:00","1994","07","19","13:00","27.9","","16.2","","49","","23","","19","","16.1","","99.50","","33","","","","Mostly Cloudy"
"1994-07-19 14:00","1994","07","19","14:00","28.7","","16.4","","47","","23","","15","","16.1","","99.50","","34","","","","Mostly Cloudy"
"1994-07-19 15:00","1994","07","19","15:00","29.0","","16.4","","47","","23","","19","","16.1","","99.43","","34","","","","Mostly Cloudy"
"1994-07-19 16:00","1994","07","19","16:00","28.8","","16.3","","47","","20","","15","","16.1","","99.43","","34","","","","Mostly Cloudy"
"1994-07-19 17:00","1994","07","19","17:00","28.2","","16.0","","48","","21","","15","","19.3","","99.40","","33","","","","Mainly Clear"
"1994-07-19 18:00","1994","07","19","18:00","27.4","","16.3","","51","","20","","6","","19.3","","99.40","","32","","","","Mostly Cloudy"
"1994-07-19 19:00","1994","07","19","19:00","26.6","","17.8","","59","","16","","7","","16.1","","99.43","","32","","","","Mostly Cloudy"
"1994-07-19 20:00","1994","07","19","20:00","24.5","","18.4","","69","","16","","6","","16.1","","99.43","","31","","","","Mostly Cloudy"
"1994-07-19 21:00","1994","07","19","21:00","22.9","","18.2","","75","","16","","7","","16.1","","99.46","","29","","","","Mostly Cloudy"
"1994-07-19 22:00","1994","07","19","22:00","22.2","","18.7","","81","","17","","11","","16.1","","99.50","","29","","","","Mainly Clear"
"1994-07-19 23:00","1994","07","19","23:00","22.6","","19.4","","82","","17","","11","","16.1","","99.43","","30","","","","Mostly Cloudy"
"1994-07-20 00:00","1994","07","20","00:00","22.9","","19.8","","83","","17","","11","","16.1","","99.33","","30","","","","Mostly Cloudy"
"1994-07-20 01:00","1994","07","20","01:00","22.9","","19.5","","81","","19","","7","","19.3","","99.33","","30","","","","Mostly Cloudy"
"1994-07-20 02:00","1994","07","20","02:00","23.4","","19.0","","76","","24","","6","","19.3","","99.43","","30","","","","Mostly Cloudy"
"1994-07-20 03:00","1994","07","20","03:00","24.0","","19.8","","77","","22","","9","","12.9","","99.40","","31","","","","Cloudy"
"1994-07-20 04:00","1994","07","20","04:00","23.9","","19.8","","78","","23","","9","","11.3","","99.33","","31","","","","Cloudy"
"1994-07-20 05:00","1994","07","20","05:00","23.3","","20.3","","83","","22","","7","","8.0","","99.36","","31","","","","Haze"
"1994-07-20 06:00","1994","07","20","06:00","23.8","","20.5","","82","","23","","9","","8.0","","99.36","","32","","","","Haze"
"1994-07-20 07:00","1994","07","20","07:00","24.2","","20.8","","81","","22","","13","","8.0","","99.40","","32","","","","Haze"
"1994-07-20 08:00","1994","07","20","08:00","25.7","","21.4","","77","","23","","15","","8.0","","99.43","","34","","","","Haze"
"1994-07-20 09:00","1994","07","20","09:00","23.4","","19.7","","80","","32","","19","","8.0","","99.60","","31","","","","Rain Showers,Haze"
"1994-07-20 10:00","1994","07","20","10:00","23.5","","20.8","","85","","20","","7","","12.9","","99.53","","32","","","","Rain Showers"
"1994-07-20 11:00","1994","07","20","11:00","23.8","","21.6","","88","","19","","15","","12.9","","99.43","","33","","","","Cloudy"
"1994-07-20 12:00","1994","07","20","12:00","26.9","","22.1","","75","","21","","17","","12.9","","99.46","","36","","","","Mostly Cloudy"
"1994-07-20 13:00","1994","07","20","13:00","27.8","","22.1","","71","","23","","19","","9.7","","99.46","","37","","","","Haze"
"1994-07-20 14:00","1994","07","20","14:00","29.4","","23.0","","69","","23","","20","","8.0","","99.43","","40","","","","Haze"
"1994-07-20 15:00","1994","07","20","15:00","30.3","","23.3","","66","","23","","19","","8.0","","99.40","","41","","","","Haze"
"1994-07-20 16:00","1994","07","20","16:00","31.1","","23.2","","63","","23","","20","","8.0","","99.33","","42","","","","Haze"
"1994-07-20 17:00","1994","07","20","17:00","31.1","","22.4","","60","","20","","19","","9.7","","99.26","","41","","","","Haze"
"1994-07-20 18:00","1994","07","20","18:00","30.4","","21.7","","60","","22","","9","","9.7","","99.23","","39","","","","Haze"
"1994-07-20 19:00","1994","07","20","19:00","29.9","","21.0","","59","","20","","11","","9.7","","99.16","","38","","","","Haze"
"1994-07-20 20:00","1994","07","20","20:00","28.8","","21.0","","63","","21","","17","","8.0","","99.23","","37","","","","Haze"
"1994-07-20 21:00","1994","07","20","21:00","28.4","","21.6","","67","","24","","15","","8.0","","99.33","","37","","","","Haze"
"1994-07-20 22:00","1994","07","20","22:00","25.4","","18.9","","67","","34","","26","","8.0","","99.43","","32","","","","Haze"
"1994-07-20 23:00","1994","07","20","23:00","24.3","","19.1","","73","","","","0","","19.3","","99.43","","31","","","","Cloudy"
"1994-07-21 00:00","1994","07","21","00:00","23.4","","19.3","","78","","","","0","","19.3","","99.36","","30","","","","Mostly Cloudy"
"1994-07-21 01:00","1994","07","21","01:00","21.5","","19.2","","87","","18","","6","","19.3","","99.33","","28","","","","Cloudy"
"1994-07-21 02:00","1994","07","21","02:00","21.5","","19.2","","87","","","","0","","16.1","","99.26","","28","","","","Cloudy"
"1994-07-21 03:00","1994","07","21","03:00","21.6","","19.3","","87","","15","","4","","16.1","","99.26","","29","","","","Cloudy"
"1994-07-21 04:00","1994","07","21","04:00","22.6","","19.4","","82","","26","","11","","9.7","","99.36","","30","","","","Thunderstorms,Heavy Rain Showers"
"1994-07-21 05:00","1994","07","21","05:00","21.3","","20.2","","93","","","","0","","8.0","","99.23","","29","","","","Fog"
"1994-07-21 06:00","1994","07","21","06:00","21.1","","20.3","","95","","","","0","","8.0","","99.20","","29","","","","Fog"
"1994-07-21 07:00","1994","07","21","07:00","22.2","","21.1","","93","","","","0","","8.0","","99.20","","31","","","","Fog"
"1994-07-21 08:00","1994","07","21","08:00","22.8","","21.0","","90","","18","","7","","6.4","","99.16","","31","","","","Fog"
"1994-07-21 09:00","1994","07","21","09:00","23.9","","20.9","","83","","18","","7","","9.7","","99.06","","32","","","","Haze"
"1994-07-21 10:00","1994","07","21","10:00","25.2","","21.4","","79","","24","","19","","9.7","","99.10","","34","","","","Haze"
"1994-07-21 11:00","1994","07","21","11:00","24.9","","21.0","","79","","24","","15","","9.7","","99.13","","33","","","","Haze"
"1994-07-21 12:00","1994","07","21","12:00","25.1","","21.2","","79","","24","","15","","8.0","","99.10","","34","","","","Haze"
"1994-07-21 13:00","1994","07","21","13:00","25.4","","21.7","","80","","24","","15","","8.0","","99.06","","34","","","","Haze"
"1994-07-21 14:00","1994","07","21","14:00","26.1","","21.5","","76","","26","","9","","8.0","","98.93","","35","","","","Haze"
"1994-07-21 15:00","1994","07","21","15:00","26.9","","21.0","","70","","26","","15","","8.0","","98.83","","35","","","","Haze"
"1994-07-21 16:00","1994","07","21","16:00","27.3","","19.8","","64","","26","","13","","11.3","","98.80","","35","","","","Mostly Cloudy"
"1994-07-21 17:00","1994","07","21","17:00","27.4","","20.5","","66","","28","","13","","11.3","","98.80","","35","","","","Mostly Cloudy"
"1994-07-21 18:00","1994","07","21","18:00","26.4","","20.6","","70","","25","","7","","11.3","","98.76","","34","","","","Cloudy"
"1994-07-21 19:00","1994","07","21","19:00","26.1","","21.3","","75","","24","","7","","11.3","","98.70","","35","","","","Mostly Cloudy"
"1994-07-21 20:00","1994","07","21","20:00","25.3","","21.3","","79","","23","","6","","11.3","","98.73","","34","","","","Cloudy"
"1994-07-21 21:00","1994","07","21","21:00","23.7","","21.3","","86","","23","","6","","8.0","","98.70","","32","","","","Haze"
"1994-07-21 22:00","1994","07","21","22:00","23.5","","21.4","","88","","23","","7","","8.0","","98.70","","32","","","","Haze"
"1994-07-21 23:00","1994","07","21","23:00","23.5","","22.1","","92","","22","","6","","8.0","","98.70","","33","","","","Fog"
"1994-07-22 00:00","1994","07","22","00:00","23.7","","21.6","","88","","25","","11","","9.7","","98.66","","33","","","","Haze"
"1994-07-22 01:00","1994","07","22","01:00","22.1","","20.9","","93","","26","","30","","4.0","","98.70","","30","","","","Thunderstorms,Moderate Rain Showers,Fog"
"1994-07-22 02:00","1994","07","22","02:00","21.7","","20.6","","93","","26","","13","","11.3","","98.60","","30","","","","Rain Showers"
"1994-07-22 03:00","1994","07","22","03:00","21.1","","20.1","","94","","24","","13","","9.7","","98.57","","29","","","","Fog"
"1994-07-22 04:00","1994","07","22","04:00","21.4","","20.4","","94","","26","","13","","8.0","","98.60","","29","","","","Fog"
"1994-07-22 05:00","1994","07","22","05:00","21.3","","20.2","","93","","25","","11","","6.4","","98.50","","29","","","","Fog"
"1994-07-22 06:00","1994","07","22","06:00","21.4","","20.1","","92","","25","","13","","6.4","","98.63","","29","","","","Fog"
"1994-07-22 07:00","1994","07","22","07:00","21.7","","20.5","","93","","26","","13","","8.0","","98.70","","30","","","","Fog"
"1994-07-22 08:00","1994","07","22","08:00","21.9","","20.0","","89","","27","","13","","8.0","","98.70","","29","","","","Fog"
"1994-07-22 09:00","1994","07","22","09:00","22.9","","19.8","","83","","24","","13","","9.7","","98.73","","30","","","","Haze"
"1994-07-22 10:00","1994","07","22","10:00","23.6","","19.6","","78","","23","","19","","9.7","","98.73","","31","","","","Haze"
"1994-07-22 11:00","1994","07","22","11:00","24.1","","20.0","","78","","25","","17","","11.3","","98.66","","32","","","","Mostly Cloudy"
"1994-07-22 12:00","1994","07","22","12:00","24.3","","20.0","","77","","24","","19","","11.3","","98.66","","32","","","","Mostly Cloudy"
"1994-07-22 13:00","1994","07","22","13:00","24.9","","19.9","","74","","23","","19","","11.3","","98.60","","32","","","","Cloudy"
"1994-07-22 14:00","1994","07","22","14:00","24.3","","19.9","","76","","23","","22","","9.7","","98.57","","32","","","","Rain Showers,Haze"
"1994-07-22 15:00","1994","07","22","15:00","19.7","","17.9","","89","","20","","17","","12.9","","98.53","","","","","","Thunderstorms,Rain Showers"
"1994-07-22 16:00","1994","07","22","16:00","22.2","","19.0","","82","","23","","15","","16.1","","98.50","","29","","","","Mostly Cloudy"
"1994-07-22 17:00","1994","07","22","17:00","22.9","","19.2","","80","","27","","11","","16.1","","98.57","","30","","","","Thunderstorms"
"1994-07-22 18:00","1994","07","22","18:00","21.6","","19.4","","87","","21","","15","","12.9","","98.50","","29","","","","Rain Showers"
"1994-07-22 19:00","1994","07","22","19:00","22.1","","19.6","","86","","32","","7","","19.3","","98.57","","29","","","","Rain Showers"
"1994-07-22 20:00","1994","07","22","20:00","20.8","","19.6","","93","","21","","6","","12.9","","98.57","","28","","","","Mostly Cloudy"
"1994-07-22 21:00","1994","07","22","21:00","20.4","","19.3","","93","","22","","7","","9.7","","98.63","","27","","","","Fog"
"1994-07-22 22:00","1994","07","22","22:00","20.1","","19.3","","95","","25","","6","","9.7","","98.66","","27","","","","Fog"
"1994-07-22 23:00","1994","07","22","23:00","20.5","","18.6","","89","","30","","7","","16.1","","98.70","","27","","","","Clear"
"1994-07-23 00:00","1994","07","23","00:00","19.9","","17.6","","87","","29","","6","","19.3","","98.76","","","","","","Clear"
"1994-07-23 01:00","1994","07","23","01:00","18.7","","17.4","","92","","25","","4","","24.1","","98.76","","","","","","Clear"
"1994-07-23 02:00","1994","07","23","02:00","18.7","","17.2","","91","","27","","7","","19.3","","98.73","","","","","","Clear"
"1994-07-23 03:00","1994","07","23","03:00","18.6","","17.1","","91","","28","","7","","16.1","","98.73","","","","","","Clear"
"1994-07-23 04:00","1994","07","23","04:00","18.8","","16.9","","89","","28","","7","","16.1","","98.73","","","","","","Clear"
"1994-07-23 05:00","1994","07","23","05:00","18.6","","16.9","","90","","29","","7","","12.9","","98.80","","","","","","Clear"
"1994-07-23 06:00","1994","07","23","06:00","18.5","","17.0","","91","","29","","6","","12.9","","98.86","","","","","","Clear"
"1994-07-23 07:00","1994","07","23","07:00","19.9","","17.6","","87","","29","","7","","12.9","","98.93","","","","","","Clear"
"1994-07-23 08:00","1994","07","23","08:00","21.5","","18.0","","80","","33","","9","","16.1","","98.96","","28","","","","Clear"
"1994-07-23 09:00","1994","07","23","09:00","22.9","","18.2","","75","","31","","9","","16.1","","99.00","","29","","","","Mainly Clear"
"1994-07-23 10:00","1994","07","23","10:00","24.3","","18.3","","69","","32","","11","","16.1","","99.03","","31","","","","Mainly Clear"
"1994-07-23 11:00","1994","07","23","11:00","25.4","","17.6","","62","","31","","11","","19.3","","99.03","","31","","","","Mostly Cloudy"
"1994-07-23 12:00","1994","07","23","12:00","26.3","","17.4","","58","","26","","15","","19.3","","99.00","","32","","","","Mainly Clear"
"1994-07-23 13:00","1994","07","23","13:00","27.0","","17.2","","55","","27","","15","","24.1","","98.96","","32","","","","Mainly Clear"
"1994-07-23 14:00","1994","07","23","14:00","27.9","","16.7","","51","","27","","15","","24.1","","98.93","","33","","","","Mainly Clear"
"1994-07-23 15:00","1994","07","23","15:00","28.2","","17.7","","53","","29","","9","","24.1","","98.90","","34","","","","Mainly Clear"
"1994-07-23 16:00","1994","07","23","16:00","27.9","","17.8","","54","","25","","17","","24.1","","98.86","","34","","","","Mainly Clear"
"1994-07-23 17:00","1994","07","23","17:00","28.7","","17.4","","50","","28","","13","","24.1","","98.83","","34","","","","Mainly Clear"
"1994-07-23 18:00","1994","07","23","18:00","27.7","","17.0","","52","","29","","11","","24.1","","98.83","","33","","","","Mostly Cloudy"
"1994-07-23 19:00","1994","07","23","19:00","27.5","","17.0","","53","","29","","11","","24.1","","98.86","","33","","","","Mostly Cloudy"
"1994-07-23 20:00","1994","07","23","20:00","26.0","","17.1","","58","","29","","6","","24.1","","98.90","","31","","","","Mainly Clear"
"1994-07-23 21:00","1994","07","23","21:00","25.0","","17.1","","62","","29","","6","","24.1","","98.93","","30","","","","Mainly Clear"
"1994-07-23 22:00","1994","07","23","22:00","24.0","","16.1","","61","","29","","6","","24.1","","98.96","","29","","","","Mainly Clear"
"1994-07-23 23:00","1994","07","23","23:00","21.7","","17.1","","75","","","","0","","24.1","","99.03","","27","","","","Clear"
"1994-07-24 00:00","1994","07","24","00:00","21.5","","17.0","","76","","28","","4","","24.1","","99.03","","27","","","","Clear"
"1994-07-24 01:00","1994","07","24","01:00","20.6","","17.1","","80","","26","","6","","24.1","","99.00","","26","","","","Clear"
"1994-07-24 02:00","1994","07","24","02:00","19.5","","17.3","","87","","24","","9","","19.3","","98.90","","","","","","Mainly Clear"
"1994-07-24 03:00","1994","07","24","03:00","19.7","","17.1","","85","","25","","9","","19.3","","98.90","","","","","","Mainly Clear"
"1994-07-24 04:00","1994","07","24","04:00","20.0","","17.9","","88","","26","","9","","16.1","","98.90","","26","","","","Mostly Cloudy"
"1994-07-24 05:00","1994","07","24","05:00","20.7","","17.9","","84","","26","","13","","16.1","","98.86","","27","","","","Mainly Clear"
"1994-07-24 06:00","1994","07","24","06:00","21.6","","18.0","","80","","29","","19","","16.1","","98.90","","28","","","","Mainly Clear"
"1994-07-24 07:00","1994","07","24","07:00","22.2","","17.9","","77","","29","","17","","16.1","","98.93","","28","","","","Clear"
"1994-07-24 08:00","1994","07","24","08:00","23.0","","17.8","","73","","30","","19","","19.3","","98.93","","29","","","","Mainly Clear"
"1994-07-24 09:00","1994","07","24","09:00","24.2","","18.0","","68","","30","","15","","19.3","","98.93","","30","","","","Mainly Clear"
"1994-07-24 10:00","1994","07","24","10:00","25.1","","17.4","","62","","30","","13","","24.1","","98.96","","31","","","","Clear"
"1994-07-24 11:00","1994","07","24","11:00","26.3","","17.1","","57","","27","","15","","24.1","","99.00","","32","","","","Clear"
"1994-07-24 12:00","1994","07","24","12:00","26.7","","16.8","","55","","27","","15","","24.1","","98.96","","32","","","","Mainly Clear"
"1994-07-24 13:00","1994","07","24","13:00","27.8","","16.1","","49","","27","","13","","24.1","","98.96","","32","","","","Mostly Cloudy"
"1994-07-24 14:00","1994","07","24","14:00","27.6","","15.4","","47","","32","","19","","24.1","","98.86","","32","","","","Mostly Cloudy"
"1994-07-24 15:00","1994","07","24","15:00","28.6","","14.0","","41","","27","","9","","24.1","","98.86","","32","","","","Mostly Cloudy"
"1994-07-24 16:00","1994","07","24","16:00","28.0","","14.5","","44","","32","","9","","24.1","","98.90","","32","","","","Mostly Cloudy"
"1994-07-24 17:00","1994","07","24","17:00","27.9","","14.4","","44","","27","","9","","24.1","","98.93","","32","","","","Mainly Clear"
"1994-07-24 18:00","1994","07","24","18:00","27.6","","13.9","","43","","32","","9","","24.1","","98.93","","31","","","","Mostly Cloudy"
"1994-07-24 19:00","1994","07","24","19:00","26.7","","14.1","","46","","27","","4","","24.1","","98.86","","30","","","","Mostly Cloudy"
"1994-07-24 20:00","1994","07","24","20:00","25.1","","14.5","","52","","27","","4","","24.1","","98.90","","29","","","","Mostly Cloudy"
"1994-07-24 21:00","1994","07","24","21:00","24.2","","14.2","","54","","32","","4","","24.1","","98.90","","28","","","","Mostly Cloudy"
"1994-07-24 22:00","1994","07","24","22:00","21.3","","15.2","","68","","","","0","","24.1","","98.90","","25","","","","Mostly Cloudy"
"1994-07-24 23:00","1994","07","24","23:00","22.1","","14.9","","64","","","","0","","24.1","","98.93","","26","","","","Mainly Clear"
"1994-07-25 00:00","1994","07","25","00:00","22.0","","14.4","","62","","","","0","","24.1","","98.96","","26","","","","Mainly Clear"
"1994-07-25 01:00","1994","07","25","01:00","21.1","","13.6","","62","","24","","7","","24.1","","98.93","","","","","","Mainly Clear"
"1994-07-25 02:00","1994","07","25","02:00","20.2","","14.3","","69","","24","","4","","24.1","","98.90","","","","","","Clear"
"1994-07-25 03:00","1994","07","25","03:00","19.0","","14.7","","76","","","","0","","24.1","","98.90","","","","","","Clear"
"1994-07-25 04:00","1994","07","25","04:00","18.0","","14.2","","78","","27","","6","","24.1","","98.86","","","","","","Mainly Clear"
"1994-07-25 05:00","1994","07","25","05:00","18.0","","14.1","","78","","23","","4","","24.1","","98.86","","","","","","Clear"
"1994-07-25 06:00","1994","07","25","06:00","18.2","","14.0","","76","","23","","6","","24.1","","98.86","","","","","","Clear"
"1994-07-25 07:00","1994","07","25","07:00","18.7","","15.4","","81","","23","","6","","24.1","","98.90","","","","","","Clear"
"1994-07-25 08:00","1994","07","25","08:00","21.3","","15.2","","68","","23","","7","","24.1","","98.90","","25","","","","Mainly Clear"
"1994-07-25 09:00","1994","07","25","09:00","22.6","","15.1","","63","","23","","7","","19.3","","98.93","","27","","","","Mainly Clear"
"1994-07-25 10:00","1994","07","25","10:00","24.6","","14.7","","54","","27","","11","","19.3","","98.90","","28","","","","Mainly Clear"
"1994-07-25 11:00","1994","07","25","11:00","25.6","","15.7","","54","","27","","13","","24.1","","98.83","","30","","","","Mainly Clear"
"1994-07-25 12:00","1994","07","25","12:00","26.6","","16.0","","52","","27","","19","","24.1","","98.76","","31","","","","Mainly Clear"
"1994-07-25 13:00","1994","07","25","13:00","27.1","","16.4","","52","","27","","17","","19.3","","98.70","","32","","","","Mainly Clear"
"1994-07-25 14:00","1994","07","25","14:00","26.1","","16.2","","54","","23","","17","E","19.3","","98.60","","31","","","","Mostly Cloudy"
"1994-07-25 15:00","1994","07","25","15:00","24.7","","17.6","","65","","23","","9","E","19.3","","98.53","","30","","","","Thunderstorms"
"1994-07-25 16:00","1994","07","25","16:00","25.8","","17.8","","61","","18","","4","E","19.3","","98.47","","32","","","","Mostly Cloudy"
"1994-07-25 17:00","1994","07","25","17:00","24.8","","17.2","","63","","","","0","","16.1","","98.50","","30","","","","Thunderstorms"
"1994-07-25 18:00","1994","07","25","18:00","21.9","","13.5","","59","","32","","19","E","24.1","","98.53","","25","","","","Mostly Cloudy"
"1994-07-25 19:00","1994","07","25","19:00","21.6","","15.1","","67","","32","","7","","24.1","","98.50","","26","","","","Mostly Cloudy"
"1994-07-25 20:00","1994","07","25","20:00","20.1","","15.1","","73","","27","","7","","24.1","","98.50","","","","","","Mainly Clear"
"1994-07-25 21:00","1994","07","25","21:00","18.9","","15.4","","80","","27","","6","","24.1","","98.57","","","","","","Mainly Clear"
"1994-07-25 22:00","1994","07","25","22:00","19.1","","16.0","","82","","36","","7","E","24.1","","98.57","","","","","","Rain Showers"
"1994-07-25 23:00","1994","07","25","23:00","18.8","","16.8","","88","","27","","6","","24.1","","98.53","","","","","","Mainly Clear"
"1994-07-26 00:00","1994","07","26","00:00","19.0","","16.3","","84","","32","","7","","24.1","","98.57","","","","","","Mainly Clear"
"1994-07-26 01:00","1994","07","26","01:00","18.4","","16.0","","86","","27","","7","","24.1","","98.60","","","","","","Mainly Clear"
"1994-07-26 02:00","1994","07","26","02:00","17.7","","14.5","","82","","32","","6","","24.1","","98.60","","","","","","Mainly Clear"
"1994-07-26 03:00","1994","07","26","03:00","17.0","","13.7","","81","","27","","7","","24.1","","98.57","","","","","","Mainly Clear"
"1994-07-26 04:00","1994","07","26","04:00","16.1","","13.3","","83","","32","","7","","19.3","","98.53","","","","","","Mainly Clear"
"1994-07-26 05:00","1994","07","26","05:00","16.3","","12.6","","79","","32","","9","","24.1","","98.57","","","","","","Mostly Cloudy"
"1994-07-26 06:00","1994","07","26","06:00","16.0","","12.9","","82","","23","","6","","24.1","","98.60","","","","","","Mainly Clear"
"1994-07-26 07:00","1994","07","26","07:00","16.7","","13.5","","81","","23","","6","","24.1","","98.63","","","","","","Mainly Clear"
"1994-07-26 08:00","1994","07","26","08:00","18.8","","13.2","","70","","32","","11","","24.1","","98.70","","","","","","Mainly Clear"
"1994-07-26 09:00","1994","07","26","09:00","20.5","","12.3","","59","","32","","13","","24.1","","98.70","","","","","","Clear"
"1994-07-26 10:00","1994","07","26","10:00","21.3","","11.9","","55","","32","","11","","24.1","","98.73","","","","","","Clear"
"1994-07-26 11:00","1994","07","26","11:00","22.4","","11.3","","49","","32","","13","","24.1","","98.76","","","","","","Mainly Clear"
"1994-07-26 12:00","1994","07","26","12:00","22.8","","11.6","","49","","32","","15","","24.1","","98.76","","25","","","","Mainly Clear"
"1994-07-26 13:00","1994","07","26","13:00","24.1","","12.0","","47","","27","","13","","24.1","","98.76","","26","","","","Mainly Clear"
"1994-07-26 14:00","1994","07","26","14:00","23.2","","12.1","","50","","32","","11","","24.1","","98.73","","26","","","","Mostly Cloudy"
"1994-07-26 15:00","1994","07","26","15:00","23.9","","10.8","","44","","32","","15","","24.1","","98.70","","26","","","","Mostly Cloudy"
"1994-07-26 16:00","1994","07","26","16:00","24.6","","11.2","","43","","32","","9","","24.1","","98.70","","26","","","","Mainly Clear"
"1994-07-26 17:00","1994","07","26","17:00","23.8","","11.8","","47","","27","","15","","24.1","","98.66","","26","","","","Mainly Clear"
"1994-07-26 18:00","1994","07","26","18:00","24.2","","11.2","","44","","32","","15","","24.1","","98.66","","26","","","","Mainly Clear"
"1994-07-26 19:00","1994","07","26","19:00","23.3","","10.2","","43","","36","","9","","24.1","","98.70","","25","","","","Mainly Clear"
"1994-07-26 20:00","1994","07","26","20:00","22.0","","11.9","","53","","","","0","","24.1","","98.73","","","","","","Mainly Clear"
"1994-07-26 21:00","1994","07","26","21:00","20.7","","11.0","","54","","36","","4","","24.1","","98.76","","","","","","Mainly Clear"
"1994-07-26 22:00","1994","07","26","22:00","20.4","","11.9","","58","","","","0","","24.1","","98.80","","","","","","Mainly Clear"
"1994-07-26 23:00","1994","07","26","23:00","19.3","","10.9","","58","","36","","6","","24.1","","98.83","","","","","","Clear"
"1994-07-27 00:00","1994","07","27","00:00","18.8","","11.0","","60","","36","","4","","24.1","","98.86","","","","","","Mainly Clear"
"1994-07-27 01:00","1994","07","27","01:00","18.3","","11.4","","64","","36","","4","","24.1","","98.83","","","","","","Mainly Clear"
"1994-07-27 02:00","1994","07","27","02:00","17.6","","12.0","","70","","36","","4","","24.1","","98.83","","","","","","Mainly Clear"
"1994-07-27 03:00","1994","07","27","03:00","16.6","","12.0","","74","","36","","2","","24.1","","98.83","","","","","","Mainly Clear"
"1994-07-27 04:00","1994","07","27","04:00","16.9","","12.5","","75","","","","0","","24.1","","98.83","","","","","","Mostly Cloudy"
"1994-07-27 05:00","1994","07","27","05:00","16.6","","12.6","","77","","","","0","","24.1","","98.83","","","","","","Mostly Cloudy"
"1994-07-27 06:00","1994","07","27","06:00","17.1","","13.0","","77","","","","0","","24.1","","98.80","","","","","","Mostly Cloudy"
"1994-07-27 07:00","1994","07","27","07:00","17.8","","13.4","","75","","","","0","","24.1","","98.86","","","","","","Mostly Cloudy"
"1994-07-27 08:00","1994","07","27","08:00","18.8","","14.0","","74","","4","","6","","24.1","","98.86","","","","","","Mostly Cloudy"
"1994-07-27 09:00","1994","07","27","09:00","19.3","","13.6","","70","","32","","6","","24.1","","98.90","","","","","","Mostly Cloudy"
"1994-07-27 10:00","1994","07","27","10:00","19.9","","13.6","","67","","23","","4","","24.1","","98.93","","","","","","Mostly Cloudy"
"1994-07-27 11:00","1994","07","27","11:00","20.4","","12.9","","62","","32","","6","","24.1","","98.90","","","","","","Cloudy"
"1994-07-27 12:00","1994","07","27","12:00","21.1","","13.3","","61","","36","","4","","24.1","","98.93","","","","","","Cloudy"
"1994-07-27 13:00","1994","07","27","13:00","21.1","","12.5","","58","","36","","6","","24.1","","98.90","","","","","","Cloudy"
"1994-07-27 14:00","1994","07","27","14:00","21.2","","12.9","","59","","36","","4","","24.1","","98.86","","","","","","Cloudy"
"1994-07-27 15:00","1994","07","27","15:00","21.3","","13.7","","62","","5","","4","","24.1","","98.83","","","","","","Mostly Cloudy"
"1994-07-27 16:00","1994","07","27","16:00","21.8","","13.8","","60","","5","","4","","19.3","","98.86","","25","","","","Mostly Cloudy"
"1994-07-27 17:00","1994","07","27","17:00","22.1","","13.4","","58","","5","","6","","19.3","","98.80","","25","","","","Mostly Cloudy"
"1994-07-27 18:00","1994","07","27","18:00","21.7","","13.2","","58","","5","","6","","19.3","","98.80","","25","","","","Mostly Cloudy"
"1994-07-27 19:00","1994","07","27","19:00","20.4","","14.6","","69","","5","","6","","19.3","","98.80","","","","","","Mostly Cloudy"
"1994-07-27 20:00","1994","07","27","20:00","18.6","","14.2","","76","","5","","13","","19.3","","98.83","","","","","","Mainly Clear"
"1994-07-27 21:00","1994","07","27","21:00","17.6","","15.6","","88","","5","","13","","19.3","","98.90","","","","","","Mainly Clear"
"1994-07-27 22:00","1994","07","27","22:00","17.8","","15.9","","89","","36","","9","E","19.3","","98.93","","","","","","Mainly Clear"
"1994-07-27 23:00","1994","07","27","23:00","17.4","","15.4","","88","","5","","6","","19.3","","98.90","","","","","","Clear"
"1994-07-28 00:00","1994","07","28","00:00","17.4","","15.7","","90","","5","","7","","19.3","","98.90","","","","","","Mainly Clear"
"1994-07-28 01:00","1994","07","28","01:00","16.8","","15.3","","91","","36","","6","","19.3","","98.86","","","","","","Mainly Clear"
"1994-07-28 02:00","1994","07","28","02:00","16.5","","14.8","","90","","5","","7","","19.3","","98.86","","","","","","Mainly Clear"
"1994-07-28 03:00","1994","07","28","03:00","16.3","","14.4","","89","","36","","2","","19.3","","98.86","","","","","","Mostly Cloudy"
"1994-07-28 04:00","1994","07","28","04:00","16.3","","14.5","","89","","36","","6","","19.3","","98.90","","","","","","Cloudy"
"1994-07-28 05:00","1994","07","28","05:00","16.0","","14.6","","91","","36","","4","","24.1","","98.90","","","","","","Mostly Cloudy"
"1994-07-28 06:00","1994","07","28","06:00","16.6","","15.1","","91","","32","","7","","24.1","","98.96","","","","","","Mostly Cloudy"
"1994-07-28 07:00","1994","07","28","07:00","17.7","","15.7","","88","","36","","6","","24.1","","99.00","","","","","","Mostly Cloudy"
"1994-07-28 08:00","1994","07","28","08:00","18.7","","16.1","","85","","36","","7","","24.1","","99.06","","","","","","Mostly Cloudy"
"1994-07-28 09:00","1994","07","28","09:00","20.2","","16.4","","79","","9","","9","","24.1","","99.10","","25","","","","Mostly Cloudy"
"1994-07-28 10:00","1994","07","28","10:00","21.3","","16.7","","75","","9","","9","","24.1","","99.13","","26","","","","Mostly Cloudy"
"1994-07-28 11:00","1994","07","28","11:00","22.5","","16.5","","69","","9","","7","","24.1","","99.16","","27","","","","Mainly Clear"
"1994-07-28 12:00","1994","07","28","12:00","23.5","","16.2","","64","","5","","9","","24.1","","99.13","","28","","","","Mainly Clear"
"1994-07-28 13:00","1994","07","28","13:00","23.2","","15.4","","62","","9","","9","E","24.1","","99.13","","27","","","","Mainly Clear"
"1994-07-28 14:00","1994","07","28","14:00","23.2","","14.9","","60","","9","","7","","24.1","","99.13","","27","","","","Mostly Cloudy"
"1994-07-28 15:00","1994","07","28","15:00","23.5","","14.6","","57","","9","","9","","24.1","","99.13","","27","","","","Mainly Clear"
"1994-07-28 16:00","1994","07","28","16:00","23.8","","15.6","","60","","9","","9","","24.1","","99.13","","28","","","","Mostly Cloudy"
"1994-07-28 17:00","1994","07","28","17:00","23.6","","14.9","","58","","9","","9","","24.1","","99.16","","28","","","","Thunderstorms"
"1994-07-28 18:00","1994","07","28","18:00","21.6","","15.8","","70","","36","","9","E","24.1","","99.23","","26","","","","Mostly Cloudy"
"1994-07-28 19:00","1994","07","28","19:00","20.6","","17.5","","82","","5","","7","","24.1","","99.23","","26","","","","Mostly Cloudy"
"1994-07-28 20:00","1994","07","28","20:00","19.6","","16.9","","84","","5","","4","","24.1","","99.26","","","","","","Clear"
"1994-07-28 21:00","1994","07","28","21:00","18.4","","16.2","","87","","14","","6","","24.1","","99.33","","","","","","Clear"
"1994-07-28 22:00","1994","07","28","22:00","18.7","","15.8","","83","","","","0","","24.1","","99.36","","","","","","Clear"
"1994-07-28 23:00","1994","07","28","23:00","17.6","","15.6","","88","","","","0","","16.1","","99.36","","","","","","Mainly Clear"
"1994-07-29 00:00","1994","07","29","00:00","17.2","","15.2","","88","","","","0","","16.1","","99.43","","","","","","Mainly Clear"
"1994-07-29 01:00","1994","07","29","01:00","16.4","","15.0","","91","","","","0","","16.1","","99.40","","","","","","Mainly Clear"
"1994-07-29 02:00","1994","07","29","02:00","15.7","","14.7","","94","","","","0","","12.9","","99.43","","","","","","Clear"
"1994-07-29 03:00","1994","07","29","03:00","16.0","","14.5","","91","","","","0","","12.9","","99.43","","","","","","Mainly Clear"
"1994-07-29 04:00","1994","07","29","04:00","15.7","","14.2","","91","","","","0","","12.9","","99.43","","","","","","Mainly Clear"
"1994-07-29 05:00","1994","07","29","05:00","15.7","","14.0","","90","","","","0","","16.1","","99.50","","","","","","Mainly Clear"
"1994-07-29 06:00","1994","07","29","06:00","16.6","","14.8","","89","","","","0","","16.1","","99.56","","","","","","Clear"
"1994-07-29 07:00","1994","07","29","07:00","18.3","","15.7","","85","","","","0","","19.3","","99.63","","","","","","Mainly Clear"
"1994-07-29 08:00","1994","07","29","08:00","20.3","","17.1","","82","","","","0","","19.3","","99.66","","26","","","","Mainly Clear"
"1994-07-29 09:00","1994","07","29","09:00","22.9","","14.9","","61","","","","0","","19.3","","99.70","","27","","","","Mainly Clear"
"1994-07-29 10:00","1994","07","29","10:00","24.6","","15.0","","55","","18","","6","","24.1","","99.73","","29","","","","Mainly Clear"
"1994-07-29 11:00","1994","07","29","11:00","24.6","","15.0","","55","","18","","6","","24.1","","99.73","","29","","","","Mainly Clear"
"1994-07-29 12:00","1994","07","29","12:00","24.8","","15.1","","55","","9","","4","","24.1","","99.66","","29","","","","Mainly Clear"
"1994-07-29 13:00","1994","07","29","13:00","25.3","","15.6","","55","","9","","9","","24.1","","99.60","","30","","","","Mainly Clear"
"1994-07-29 14:00","1994","07","29","14:00","25.7","","15.6","","54","","5","","15","","24.1","","99.60","","30","","","","Mainly Clear"
"1994-07-29 15:00","1994","07","29","15:00","25.7","","15.0","","52","","5","","13","E","24.1","","99.53","","30","","","","Mainly Clear"
"1994-07-29 16:00","1994","07","29","16:00","25.6","","13.1","","46","","5","","9","E","24.1","","99.53","","28","","","","Mostly Cloudy"
"1994-07-29 17:00","1994","07","29","17:00","23.6","","16.5","","64","","27","","6","","24.1","","99.53","","29","","","","Mostly Cloudy"
"1994-07-29 18:00","1994","07","29","18:00","24.0","","16.7","","64","","27","","4","","24.1","","99.50","","29","","","","Mainly Clear"
"1994-07-29 19:00","1994","07","29","19:00","23.2","","16.2","","65","","18","","4","","24.1","","99.53","","28","","","","Mainly Clear"
"1994-07-29 20:00","1994","07","29","20:00","21.5","","15.4","","68","","18","","6","","24.1","","99.53","","26","","","","Mainly Clear"
"1994-07-29 21:00","1994","07","29","21:00","20.5","","14.8","","70","","","","0","","24.1","","99.63","","","","","","Mostly Cloudy"
"1994-07-29 22:00","1994","07","29","22:00","20.4","","14.9","","71","","","","0","","24.1","","99.60","","","","","","Mostly Cloudy"
"1994-07-29 23:00","1994","07","29","23:00","20.7","","14.8","","69","","","","0","","24.1","","99.56","","25","","","","Cloudy"
"1994-07-30 00:00","1994","07","30","00:00","20.4","","14.6","","69","","36","","4","","19.3","","99.53","","","","","","Cloudy"
"1994-07-30 01:00","1994","07","30","01:00","20.4","","14.7","","70","","32","","4","","19.3","","99.53","","","","","","Cloudy"
"1994-07-30 02:00","1994","07","30","02:00","19.8","","15.0","","74","","","","0","","19.3","","99.53","","","","","","Cloudy"
"1994-07-30 03:00","1994","07","30","03:00","18.2","","15.0","","82","","","","0","","16.1","","99.53","","","","","","Cloudy"
"1994-07-30 04:00","1994","07","30","04:00","18.7","","15.6","","82","","","","0","","19.3","","99.56","","","","","","Thunderstorms"
"1994-07-30 05:00","1994","07","30","05:00","17.7","","15.6","","88","","","","0","","19.3","","99.60","","","","","","Mainly Clear"
"1994-07-30 06:00","1994","07","30","06:00","17.4","","15.3","","87","","","","0","","16.1","","99.63","","","","","","Mainly Clear"
"1994-07-30 07:00","1994","07","30","07:00","19.8","","16.1","","79","","","","0","","16.1","","99.66","","","","","","Mostly Cloudy"
"1994-07-30 08:00","1994","07","30","08:00","21.7","","16.4","","72","","","","0","","16.1","","99.66","","27","","","","Mainly Clear"
"1994-07-30 09:00","1994","07","30","09:00","23.4","","16.1","","64","","","","0","","24.1","","99.70","","28","","","","Mainly Clear"
"1994-07-30 10:00","1994","07","30","10:00","24.1","","15.6","","59","","27","","9","","24.1","","99.73","","28","","","","Mainly Clear"
"1994-07-30 11:00","1994","07","30","11:00","25.2","","16.1","","57","","27","","9","","24.1","","99.76","","30","","","","Mostly Cloudy"
"1994-07-30 12:00","1994","07","30","12:00","25.6","","16.1","","56","","27","","9","","24.1","","99.73","","30","","","","Mostly Cloudy"
"1994-07-30 13:00","1994","07","30","13:00","26.8","","15.8","","51","","27","","11","","24.1","","99.73","","31","","","","Mostly Cloudy"
"1994-07-30 14:00","1994","07","30","14:00","26.6","","16.6","","54","","18","","11","","16.1","","99.70","","32","","","","Mainly Clear"
"1994-07-30 15:00","1994","07","30","15:00","25.6","","16.0","","55","","18","","9","","16.1","","99.73","","30","","","","Mostly Cloudy"
"1994-07-30 16:00","1994","07","30","16:00","25.6","","16.6","","58","","18","","11","","16.1","","99.66","","31","","","","Mostly Cloudy"
"1994-07-30 17:00","1994","07","30","17:00","25.8","","17.4","","60","","18","","9","","14.5","","99.66","","31","","","","Mainly Clear"
"1994-07-30 18:00","1994","07","30","18:00","25.2","","16.7","","59","","18","","7","","12.9","","99.63","","30","","","","Mainly Clear"
"1994-07-30 19:00","1994","07","30","19:00","24.6","","16.5","","61","","18","","7","","14.5","","99.66","","30","","","","Mostly Cloudy"
"1994-07-30 20:00","1994","07","30","20:00","23.1","","17.2","","69","","18","","6","","12.9","","99.70","","29","","","","Mostly Cloudy"
"1994-07-30 21:00","1994","07","30","21:00","22.6","","17.4","","72","","18","","4","","12.9","","99.73","","28","","","","Mainly Clear"
"1994-07-30 22:00","1994","07","30","22:00","21.1","","17.5","","80","","","","0","","14.5","","99.73","","27","","","","Mainly Clear"
"1994-07-30 23:00","1994","07","30","23:00","20.7","","17.3","","81","","18","","4","","12.9","","99.73","","26","","","","Mainly Clear"
"1994-07-31 00:00","1994","07","31","00:00","20.2","","17.7","","86","","23","","4","","12.9","","99.80","","26","","","","Clear"
"1994-07-31 01:00","1994","07","31","01:00","19.6","","17.4","","87","","23","","2","","11.3","","99.80","","","","","","Clear"
"1994-07-31 02:00","1994","07","31","02:00","19.0","","17.2","","89","","","","0","","11.3","","99.80","","","","","","Clear"
"1994-07-31 03:00","1994","07","31","03:00","17.8","","16.9","","94","","","","0","","8.0","","99.80","","","","","","Fog"
"1994-07-31 04:00","1994","07","31","04:00","16.9","","16.4","","97","","","","0","","8.0","","99.80","","","","","","Fog"
"1994-07-31 05:00","1994","07","31","05:00","17.4","","16.8","","96","","","","0","","4.8","","99.83","","","","","","Fog"
"1994-07-31 06:00","1994","07","31","06:00","17.5","","16.8","","96","","","","0","","3.2","","99.86","","","","","","Fog"
"1994-07-31 07:00","1994","07","31","07:00","19.2","","17.5","","90","","","","0","","6.4","","99.90","","","","","","Fog"
"1994-07-31 08:00","1994","07","31","08:00","21.2","","18.0","","82","","27","","6","","6.4","","99.93","","27","","","","Haze"
"1994-07-31 09:00","1994","07","31","09:00","23.0","","18.3","","75","","25","","9","","8.0","","99.93","","29","","","","Haze"
"1994-07-31 10:00","1994","07","31","10:00","24.9","","19.3","","71","","25","","9","","9.7","","99.90","","32","","","","Haze"
"1994-07-31 11:00","1994","07","31","11:00","25.7","","18.6","","65","","25","","11","E","12.9","","99.86","","32","","","","Mainly Clear"
"1994-07-31 12:00","1994","07","31","12:00","26.5","","17.2","","57","","25","","11","","12.9","","99.83","","32","","","","Mainly Clear"
"1994-07-31 13:00","1994","07","31","13:00","26.9","","18.4","","60","","23","","11","","16.1","","99.83","","33","","","","Mainly Clear"
"1994-07-31 14:00","1994","07","31","14:00","27.0","","15.8","","50","","23","","15","","16.1","","99.76","","31","","","","Mainly Clear"
"1994-07-31 15:00","1994","07","31","15:00","27.3","","16.1","","50","","18","","13","","14.5","","99.73","","32","","","","Mainly Clear"
"1994-07-31 16:00","1994","07","31","16:00","27.3","","16.3","","51","","18","","13","","14.5","","99.70","","32","","","","Clear"
"1994-07-31 17:00","1994","07","31","17:00","26.9","","16.1","","52","","18","","15","","14.5","","99.66","","32","","","","Mainly Clear"
"1994-07-31 18:00","1994","07","31","18:00","26.5","","16.2","","53","","18","","13","","14.5","","99.63","","31","","","","Clear"
"1994-07-31 19:00","1994","07","31","19:00"
"1994-07-31 20:00","1994","07","31","20:00"
"1994-07-31 21:00","1994","07","31","21:00"
"1994-07-31 22:00","1994","07","31","22:00"
"1994-07-31 23:00","1994","07","31","23:00"
