"Station Name","WINDSOR A"
"Province","ONTARIO"
"Latitude","42.28"
"Longitude","-82.96"
"Elevation","189.60"
"Climate Identifier","6139525"
"WMO Identifier","71538"
"TC Identifier","YQG"
"All times are specified in Local Standard Time (LST). Add 1 hour to adjust for Daylight Saving Time where and when it is observed."

"Legend"
"E","Estimated"
"M","Missing"
"NA","Not Available"

"Date/Time","Year","Month","Day","Time","Temp (°C)","Temp Flag","Dew Point Temp (°C)","Dew Point Temp Flag","Rel Hum (%)","Rel Hum Flag","Wind Dir (10s deg)","Wind Dir Flag","Wind Spd (km/h)","Wind Spd Flag","Visibility (km)","Visibility Flag","Stn Press (kPa)","Stn Press Flag","Hmdx","Hmdx Flag","Wind Chill","Wind Chill Flag","Weather"
"2002-12-01 00:00","2002","12","01","00:00","-5.0","","-11.1","","62","","29","","20","","24.1","","98.92","","","","-12","","Mainly Clear"
"2002-12-01 01:00","2002","12","01","01:00","-5.6","","-12.7","","57","","31","","30","","24.1","","99.00","","","","-14","","Mainly Clear"
"2002-12-01 02:00","2002","12","01","02:00","-6.3","","-13.2","","58","","30","","26","","24.1","","99.04","","","","-14","","Clear"
"2002-12-01 03:00","2002","12","01","03:00","-6.5","","-13.6","","57","","30","","26","","24.1","","99.12","","","","-14","","Clear"
"2002-12-01 04:00","2002","12","01","04:00","-6.9","","-12.5","","64","","31","","24","","24.1","","99.15","","","","-15","","Clear"
"2002-12-01 05:00","2002","12","01","05:00","-7.2","","-11.9","","69","","29","","20","","24.1","","99.19","","","","-14","","Clear"
"2002-12-01 06:00","2002","12","01","06:00","-7.0","","-12.0","","67","","28","","22","","24.1","","99.27","","","","-14","","Clear"
"2002-12-01 07:00","2002","12","01","07:00","-7.2","","-12.1","","68","","29","","19","","24.1","","99.32","","","","-14","","Mainly Clear"
"2002-12-01 08:00","2002","12","01","08:00","-7.1","","-12.0","","68","","25","","13","","24.1","","99.36","","","","-13","","Mostly Cloudy"
"2002-12-01 09:00","2002","12","01","09:00","-6.3","","-12.0","","64","","26","","22","","24.1","","99.35","","","","-14","","Mostly Cloudy"
"2002-12-01 10:00","2002","12","01","10:00","-4.7","","-10.6","","63","","26","","26","","24.1","","99.32","","","","-12","","Mostly Cloudy"
"2002-12-01 11:00","2002","12","01","11:00","-3.9","","-10.5","","60","","24","","33","","24.1","","99.26","","","","-12","","Mostly Cloudy"
"2002-12-01 12:00","2002","12","01","12:00","-3.2","","-10.7","","56","","24","","28","","24.1","","99.14","","","","-10","","Mostly Cloudy"
"2002-12-01 13:00","2002","12","01","13:00","-3.6","","-12.3","","51","","24","","35","","24.1","","99.05","","","","-12","","Mostly Cloudy"
"2002-12-01 14:00","2002","12","01","14:00","-3.5","","-15.4","","39","","25","","32","","24.1","","98.98","","","","-11","","Cloudy"
"2002-12-01 15:00","2002","12","01","15:00","-3.7","","-16.0","","38","","24","","33","","24.1","","98.88","","","","-12","","Cloudy"
"2002-12-01 16:00","2002","12","01","16:00","-4.1","","-16.3","","38","","24","","35","","24.1","","98.80","","","","-12","","Cloudy"
"2002-12-01 17:00","2002","12","01","17:00","-3.6","","-15.1","","40","","23","","30","","24.1","","98.70","","","","-11","","Cloudy"
"2002-12-01 18:00","2002","12","01","18:00","-3.2","","-13.6","","44","","24","","28","","24.1","","98.66","","","","-10","","Cloudy"
"2002-12-01 19:00","2002","12","01","19:00","-2.8","","-12.5","","47","","23","","24","","24.1","","98.65","","","","-9","","Cloudy"
"2002-12-01 20:00","2002","12","01","20:00","-1.9","","-12.5","","44","","24","","28","","24.1","","98.67","","","","-9","","Cloudy"
"2002-12-01 21:00","2002","12","01","21:00","-1.6","","-11.7","","46","","25","","33","","24.1","","98.65","","","","-9","","Cloudy"
"2002-12-01 22:00","2002","12","01","22:00","-1.3","","-11.3","","46","","24","","26","","24.1","","98.61","","","","-8","","Cloudy"
"2002-12-01 23:00","2002","12","01","23:00","-0.9","","-10.8","","47","","25","","26","","24.1","","98.59","","","","-7","","Cloudy"
"2002-12-02 00:00","2002","12","02","00:00","-0.7","","-11.0","","46","","25","","26","","24.1","","98.58","","","","-7","","Cloudy"
"2002-12-02 01:00","2002","12","02","01:00","-0.7","","-10.9","","46","","25","","26","","24.1","","98.57","","","","-7","","Cloudy"
"2002-12-02 02:00","2002","12","02","02:00","-0.8","","-10.7","","47","","24","","26","","24.1","","98.59","","","","-7","","Cloudy"
"2002-12-02 03:00","2002","12","02","03:00","-0.7","","-10.5","","47","","25","","20","","24.1","","98.62","","","","-6","","Cloudy"
"2002-12-02 04:00","2002","12","02","04:00","-0.7","","-10.2","","49","","25","","17","","24.1","","98.65","","","","-6","","Cloudy"
"2002-12-02 05:00","2002","12","02","05:00","-0.8","","-10.1","","49","","25","","13","","24.1","","98.63","","","","-5","","Cloudy"
"2002-12-02 06:00","2002","12","02","06:00","-1.0","","-9.2","","54","","26","","13","","19.3","","98.70","","","","-5","","Snow Showers"
"2002-12-02 07:00","2002","12","02","07:00","-2.6","","-5.8","","79","","27","","4","","2.4","","98.76","","","","-4","","Snow Showers"
"2002-12-02 08:00","2002","12","02","08:00","-3.0","","-4.7","","88","","5","","6","","2.0","","98.82","","","","-5","","Snow"
"2002-12-02 09:00","2002","12","02","09:00","-2.9","","-4.3","","90","","6","","4","","2.0","","98.87","","","","-4","","Snow"
"2002-12-02 10:00","2002","12","02","10:00","-3.4","","-4.8","","90","","1","","17","","1.2","","98.88","","","","-9","","Snow"
"2002-12-02 11:00","2002","12","02","11:00","-4.2","","-6.1","","87","","2","","17","","1.2","","98.95","","","","-10","","Snow"
"2002-12-02 12:00","2002","12","02","12:00","-4.2","","-6.3","","85","","2","","15","","1.6","","98.93","","","","-10","","Snow"
"2002-12-02 13:00","2002","12","02","13:00","-3.9","","-6.2","","84","","1","","20","","1.6","","98.92","","","","-10","","Snow"
"2002-12-02 14:00","2002","12","02","14:00","-3.9","","-6.2","","84","","2","","22","","1.6","","98.97","","","","-10","","Snow"
"2002-12-02 15:00","2002","12","02","15:00","-4.7","","-6.9","","85","","4","","26","","1.2","","99.07","","","","-12","","Snow"
"2002-12-02 16:00","2002","12","02","16:00","-5.6","","-8.0","","83","","5","","26","","1.2","","99.23","","","","-13","","Snow,Blowing Snow"
"2002-12-02 17:00","2002","12","02","17:00","-6.2","","-9.0","","81","","5","","32","","2.4","","99.43","","","","-15","","Snow"
"2002-12-02 18:00","2002","12","02","18:00","-6.4","","-11.0","","70","","5","","26","","24.1","","99.57","","","","-14","","Snow"
"2002-12-02 19:00","2002","12","02","19:00","-6.6","","-9.6","","79","","4","","26","","2.4","","99.73","","","","-15","","Snow"
"2002-12-02 20:00","2002","12","02","20:00","-7.0","","-10.0","","79","","2","","32","","6.4","","99.87","","","","-16","","Snow"
"2002-12-02 21:00","2002","12","02","21:00","-7.9","","-13.5","","64","","1","","20","","16.1","","99.96","","","","-15","","Snow"
"2002-12-02 22:00","2002","12","02","22:00","-8.8","","-13.7","","68","","36","","15","","19.3","","100.10","","","","-15","","Snow Showers"
"2002-12-02 23:00","2002","12","02","23:00","-9.9","","-14.4","","70","","36","","13","","24.1","","100.18","","","","-16","","Mainly Clear"
"2002-12-03 00:00","2002","12","03","00:00","-10.6","","-14.5","","73","","1","","11","","24.1","","100.30","","","","-16","","Mainly Clear"
"2002-12-03 01:00","2002","12","03","01:00","-10.3","","-14.6","","71","","34","","13","","24.1","","100.39","","","","-17","","Mostly Cloudy"
"2002-12-03 02:00","2002","12","03","02:00","-10.6","","-15.5","","67","","34","","9","","24.1","","100.44","","","","-16","","Mainly Clear"
"2002-12-03 03:00","2002","12","03","03:00","-12.0","","-15.9","","73","","1","","7","","24.1","","100.52","","","","-16","","Mainly Clear"
"2002-12-03 04:00","2002","12","03","04:00","-13.1","","-16.3","","77","","36","","9","","24.1","","100.60","","","","-19","","Mainly Clear"
"2002-12-03 05:00","2002","12","03","05:00","-12.5","","-15.8","","76","","36","","9","","24.1","","100.66","","","","-18","","Mainly Clear"
"2002-12-03 06:00","2002","12","03","06:00","-13.4","","-15.5","","84","","35","","7","","25.0","","100.75","","","","-18","","Mainly Clear"
"2002-12-03 07:00","2002","12","03","07:00","-12.0","","-14.8","","80","","36","","15","","25.0","","100.84","","","","-19","","Mainly Clear"
"2002-12-03 08:00","2002","12","03","08:00","-12.0","","-14.6","","81","","36","","13","","24.1","","100.94","","","","-19","","Mainly Clear"
"2002-12-03 09:00","2002","12","03","09:00","-11.1","","-14.0","","79","","35","","7","","24.1","","101.07","","","","-15","","Mainly Clear"
"2002-12-03 10:00","2002","12","03","10:00","-10.1","","-13.6","","76","","33","","6","","24.1","","101.14","","","","-14","","Clear"
"2002-12-03 11:00","2002","12","03","11:00","-8.8","","-13.6","","68","","33","","6","","24.1","","101.20","","","","-12","","Clear"
"2002-12-03 12:00","2002","12","03","12:00","-7.3","","-13.1","","63","","29","","7","","24.1","","101.16","","","","-11","","Clear"
"2002-12-03 13:00","2002","12","03","13:00","-6.2","","-13.2","","58","","26","","13","","24.1","","101.15","","","","-12","","Clear"
"2002-12-03 14:00","2002","12","03","14:00","-5.4","","-14.4","","49","","31","","6","","24.1","","101.09","","","","-8","","Clear"
"2002-12-03 15:00","2002","12","03","15:00","-5.2","","-16.0","","42","","28","","11","","24.1","","101.11","","","","-10","","Clear"
"2002-12-03 16:00","2002","12","03","16:00","-5.1","","-17.3","","38","","26","","9","","25.0","","101.14","","","","-9","","Clear"
"2002-12-03 17:00","2002","12","03","17:00","-6.4","","-14.7","","52","","35","","6","","25.0","","101.12","","","","-9","","Clear"
"2002-12-03 18:00","2002","12","03","18:00","-8.1","","-13.8","","63","","29","","7","","25.0","","101.18","","","","-12","","Clear"
"2002-12-03 19:00","2002","12","03","19:00","-8.1","","-13.6","","65","","36","","6","","25.0","","101.16","","","","-11","","Clear"
"2002-12-03 20:00","2002","12","03","20:00","-9.8","","-13.8","","73","","2","","4","","25.0","","101.20","","","","-12","","Clear"
"2002-12-03 21:00","2002","12","03","21:00","-11.5","","-14.3","","80","","33","","6","","25.0","","101.23","","","","-15","","Clear"
"2002-12-03 22:00","2002","12","03","22:00","-11.7","","-13.9","","84","","27","","4","","25.0","","101.23","","","","-14","","Clear"
"2002-12-03 23:00","2002","12","03","23:00","-12.3","","-14.4","","84","","25","","7","","25.0","","101.24","","","","-17","","Clear"
"2002-12-04 00:00","2002","12","04","00:00","-11.7","","-14.4","","80","","25","","7","","25.0","","101.23","","","","-16","","Clear"
"2002-12-04 01:00","2002","12","04","01:00","-11.4","","-13.9","","82","","25","","9","","25.0","","101.23","","","","-17","","Clear"
"2002-12-04 02:00","2002","12","04","02:00","-12.0","","-14.7","","80","","27","","7","","25.0","","101.21","","","","-16","","Clear"
"2002-12-04 03:00","2002","12","04","03:00","-12.7","","-15.0","","83","","27","","7","","25.0","","101.17","","","","-17","","Clear"
"2002-12-04 04:00","2002","12","04","04:00","-13.7","","-15.5","","86","","26","","7","","25.0","","101.14","","","","-18","","Clear"
"2002-12-04 05:00","2002","12","04","05:00","-14.0","","-15.9","","85","","27","","9","","25.0","","101.09","","","","-20","","Clear"
"2002-12-04 06:00","2002","12","04","06:00","-13.3","","-15.6","","83","","26","","7","","25.0","","101.08","","","","-18","","Clear"
"2002-12-04 07:00","2002","12","04","07:00","-12.9","","-15.1","","84","","26","","7","","24.1","","101.09","","","","-17","","Mainly Clear"
"2002-12-04 08:00","2002","12","04","08:00","-13.7","","-15.8","","84","","24","","4","","24.1","","101.11","","","","-16","","Mostly Cloudy"
"2002-12-04 09:00","2002","12","04","09:00","-10.2","","-13.6","","76","","26","","4","","19.3","","101.09","","","","-13","","Mainly Clear"
"2002-12-04 10:00","2002","12","04","10:00","-7.6","","-12.1","","70","","25","","6","","16.1","","101.05","","","","-11","","Mainly Clear"
"2002-12-04 11:00","2002","12","04","11:00","-5.6","","-11.8","","62","","23","","4","","24.1","","101.10","","","","-7","","Mostly Cloudy"
"2002-12-04 12:00","2002","12","04","12:00","-4.8","","-11.2","","61","","25","","6","","19.3","","101.02","","","","-8","","Mostly Cloudy"
"2002-12-04 13:00","2002","12","04","13:00","-4.9","","-11.7","","59","","21","","13","","24.1","","100.92","","","","-10","","Mostly Cloudy"
"2002-12-04 14:00","2002","12","04","14:00","-4.2","","-10.8","","60","","22","","15","","24.1","","100.89","","","","-10","","Mostly Cloudy"
"2002-12-04 15:00","2002","12","04","15:00","-4.9","","-11.1","","62","","21","","11","","24.1","","100.79","","","","-9","","Mostly Cloudy"
"2002-12-04 16:00","2002","12","04","16:00","-5.0","","-11.2","","62","","20","","11","","24.1","","100.78","","","","-10","","Mostly Cloudy"
"2002-12-04 17:00","2002","12","04","17:00","-5.9","","-11.0","","67","","21","","7","","24.1","","100.75","","","","-9","","Mostly Cloudy"
"2002-12-04 18:00","2002","12","04","18:00","-6.6","","-11.4","","69","","22","","9","","24.1","","100.68","","","","-11","","Mostly Cloudy"
"2002-12-04 19:00","2002","12","04","19:00","-6.1","","-11.1","","68","","25","","7","","24.1","","100.63","","","","-9","","Mostly Cloudy"
"2002-12-04 20:00","2002","12","04","20:00","-6.7","","-11.2","","70","","27","","4","","24.1","","100.59","","","","-9","","Mostly Cloudy"
"2002-12-04 21:00","2002","12","04","21:00","-8.8","","-11.7","","79","","20","","6","","24.1","","100.56","","","","-12","","Mostly Cloudy"
"2002-12-04 22:00","2002","12","04","22:00","-7.7","","-10.9","","78","","27","","4","","24.1","","100.52","","","","-10","","Mostly Cloudy"
"2002-12-04 23:00","2002","12","04","23:00","-8.0","","-10.8","","80","","18","","6","","24.1","","100.43","","","","-11","","Cloudy"
"2002-12-05 00:00","2002","12","05","00:00","-7.0","","-10.4","","77","","","","0","","24.1","","100.35","","","","","","Cloudy"
"2002-12-05 01:00","2002","12","05","01:00","-6.1","","-10.1","","73","","36","","4","","24.1","","100.27","","","","-8","","Cloudy"
"2002-12-05 02:00","2002","12","05","02:00","-5.8","","-10.2","","71","","1","","6","","24.1","","100.22","","","","-9","","Cloudy"
"2002-12-05 03:00","2002","12","05","03:00","-5.3","","-9.6","","72","","36","","11","","24.1","","100.19","","","","-10","","Cloudy"
"2002-12-05 04:00","2002","12","05","04:00","-5.2","","-10.0","","69","","1","","9","","24.1","","100.18","","","","-9","","Cloudy"
"2002-12-05 05:00","2002","12","05","05:00","-5.2","","-10.0","","69","","2","","11","","24.1","","99.94","","","","-10","","Cloudy"
"2002-12-05 06:00","2002","12","05","06:00","-5.4","","-10.2","","69","","1","","13","","24.1","","99.91","","","","-11","","Cloudy"
"2002-12-05 07:00","2002","12","05","07:00","-5.4","","-10.1","","69","","1","","15","","24.1","","99.90","","","","-11","","Cloudy"
"2002-12-05 08:00","2002","12","05","08:00","-5.4","","-9.7","","72","","1","","11","","24.1","","99.90","","","","-10","","Mostly Cloudy"
"2002-12-05 09:00","2002","12","05","09:00","-5.1","","-9.6","","71","","36","","11","","24.1","","99.90","","","","-10","","Mostly Cloudy"
"2002-12-05 10:00","2002","12","05","10:00","-4.6","","-9.7","","67","","36","","15","","24.1","","99.91","","","","-10","","Mostly Cloudy"
"2002-12-05 11:00","2002","12","05","11:00","-4.5","","-9.9","","66","","36","","13","","24.1","","99.90","","","","-10","","Mostly Cloudy"
"2002-12-05 12:00","2002","12","05","12:00","-4.2","","-9.9","","64","","35","","6","","24.1","","99.80","","","","-7","","Mainly Clear"
"2002-12-05 13:00","2002","12","05","13:00","-3.2","","-10.6","","57","","35","","15","","25.0","","99.70","","","","-8","","Mainly Clear"
"2002-12-05 14:00","2002","12","05","14:00","-2.5","","-10.5","","54","","35","","11","","25.0","","99.64","","","","-7","","Mainly Clear"
"2002-12-05 15:00","2002","12","05","15:00","-2.1","","-10.8","","51","","34","","11","","25.0","","99.60","","","","-6","","Mainly Clear"
"2002-12-05 16:00","2002","12","05","16:00","-2.3","","-10.4","","54","","31","","17","","24.1","","99.58","","","","-8","","Clear"
"2002-12-05 17:00","2002","12","05","17:00","-3.6","","-10.9","","57","","31","","7","","24.1","","99.59","","","","-7","","Mainly Clear"
"2002-12-05 18:00","2002","12","05","18:00","-4.5","","-11.4","","59","","28","","9","","24.1","","99.62","","","","-8","","Mostly Cloudy"
"2002-12-05 19:00","2002","12","05","19:00","-4.4","","-10.3","","63","","29","","11","","24.1","","99.64","","","","-9","","Mostly Cloudy"
"2002-12-05 20:00","2002","12","05","20:00","-3.4","","-9.4","","63","","29","","24","","24.1","","99.65","","","","-10","","Mostly Cloudy"
"2002-12-05 21:00","2002","12","05","21:00","-3.7","","-9.3","","65","","22","","11","","24.1","","99.65","","","","-8","","Cloudy"
"2002-12-05 22:00","2002","12","05","22:00","-3.7","","-8.9","","67","","24","","13","","24.1","","99.64","","","","-9","","Cloudy"
"2002-12-05 23:00","2002","12","05","23:00","-3.3","","-8.4","","68","","27","","15","","24.1","","99.66","","","","-8","","Snow"
"2002-12-06 00:00","2002","12","06","00:00","-3.3","","-7.9","","70","","27","","19","","24.1","","99.66","","","","-9","","Snow"
"2002-12-06 01:00","2002","12","06","01:00","-3.4","","-8.1","","70","","28","","24","","24.1","","99.65","","","","-10","","Snow"
"2002-12-06 02:00","2002","12","06","02:00","-3.4","","-8.2","","69","","26","","15","","24.1","","99.65","","","","-9","","Snow"
"2002-12-06 03:00","2002","12","06","03:00","-3.6","","-8.1","","71","","25","","15","","24.1","","99.68","","","","-9","","Snow"
"2002-12-06 04:00","2002","12","06","04:00","-3.7","","-8.0","","72","","25","","13","","24.1","","99.70","","","","-9","","Snow"
"2002-12-06 05:00","2002","12","06","05:00","-3.9","","-8.0","","73","","25","","19","","24.1","","99.71","","","","-10","","Snow"
"2002-12-06 06:00","2002","12","06","06:00","-4.6","","-8.2","","76","","24","","20","","19.3","","99.75","","","","-11","","Snow"
"2002-12-06 07:00","2002","12","06","07:00","-4.8","","-8.5","","75","","25","","20","","19.3","","99.82","","","","-11","","Snow"
"2002-12-06 08:00","2002","12","06","08:00","-5.1","","-8.6","","76","","25","","19","","19.3","","99.85","","","","-12","","Snow Showers"
"2002-12-06 09:00","2002","12","06","09:00","-5.2","","-9.0","","75","","26","","17","","17.7","","99.90","","","","-11","","Snow Showers"
"2002-12-06 10:00","2002","12","06","10:00","-4.7","","-9.4","","70","","25","","22","","19.3","","99.95","","","","-12","","Snow Showers"
"2002-12-06 11:00","2002","12","06","11:00","-4.9","","-9.7","","69","","24","","26","","19.3","","99.98","","","","-12","","Snow Showers"
"2002-12-06 12:00","2002","12","06","12:00","-4.4","","-10.2","","64","","24","","26","","16.1","","99.90","","","","-12","","Mainly Clear"
"2002-12-06 13:00","2002","12","06","13:00","-4.1","","-10.2","","62","","24","","30","","16.1","","99.83","","","","-12","","Mainly Clear"
"2002-12-06 14:00","2002","12","06","14:00","-4.3","","-10.2","","63","","25","","26","","19.3","","99.84","","","","-12","","Mainly Clear"
"2002-12-06 15:00","2002","12","06","15:00","-4.3","","-10.0","","64","","25","","32","","24.1","","99.79","","","","-12","","Mainly Clear"
"2002-12-06 16:00","2002","12","06","16:00","-5.0","","-11.3","","61","","24","","24","","24.1","","99.81","","","","-12","","Mainly Clear"
"2002-12-06 17:00","2002","12","06","17:00","-5.7","","-11.5","","64","","23","","24","","24.1","","99.86","","","","-13","","Mainly Clear"
"2002-12-06 18:00","2002","12","06","18:00","-6.3","","-11.4","","67","","22","","19","","24.1","","99.80","","","","-13","","Clear"
"2002-12-06 19:00","2002","12","06","19:00","-6.7","","-11.2","","70","","23","","15","","24.1","","99.74","","","","-13","","Clear"
"2002-12-06 20:00","2002","12","06","20:00","-6.1","","-10.4","","72","","22","","13","","24.1","","99.67","","","","-11","","Clear"
"2002-12-06 21:00","2002","12","06","21:00","-4.3","","-9.0","","70","","21","","26","","24.1","","99.56","","","","-12","","Clear"
"2002-12-06 22:00","2002","12","06","22:00","-4.5","","-8.8","","72","","22","","30","","24.1","","99.53","","","","-12","","Clear"
"2002-12-06 23:00","2002","12","06","23:00","-4.1","","-8.8","","70","","23","","33","","16.1","","99.46","","","","-12","","Mainly Clear"
"2002-12-07 00:00","2002","12","07","00:00","-4.2","","-9.9","","64","","23","","43","","24.1","","99.40","","","","-13","","Mainly Clear"
"2002-12-07 01:00","2002","12","07","01:00","-4.7","","-9.2","","71","","24","","30","","19.3","","99.44","","","","-13","","Clear"
"2002-12-07 02:00","2002","12","07","02:00","-5.2","","-9.3","","73","","22","","28","","19.3","","99.35","","","","-13","","Mainly Clear"
"2002-12-07 03:00","2002","12","07","03:00","-4.7","","-8.7","","74","","22","","35","","19.3","","99.32","","","","-13","","Mainly Clear"
"2002-12-07 04:00","2002","12","07","04:00","-3.9","","-7.9","","74","","22","","41","","19.3","","99.19","","","","-13","","Mainly Clear"
"2002-12-07 05:00","2002","12","07","05:00","-4.2","","-8.0","","75","","23","","32","","19.3","","99.24","","","","-12","","Mainly Clear"
"2002-12-07 06:00","2002","12","07","06:00","-4.6","","-8.1","","76","","23","","30","","19.3","","99.24","","","","-12","","Mostly Cloudy"
"2002-12-07 07:00","2002","12","07","07:00","-4.2","","-7.7","","77","","22","","32","","19.3","","99.21","","","","-12","","Mainly Clear"
"2002-12-07 08:00","2002","12","07","08:00","-4.1","","-7.4","","78","","22","","24","","9.7","","99.29","","","","-11","","Haze"
"2002-12-07 09:00","2002","12","07","09:00","-3.3","","-7.1","","75","","24","","28","","11.3","","99.30","","","","-11","","Mainly Clear"
"2002-12-07 10:00","2002","12","07","10:00","-2.6","","-6.6","","74","","25","","28","","11.3","","99.28","","","","-10","","Mostly Cloudy"
"2002-12-07 11:00","2002","12","07","11:00","-1.7","","-5.8","","74","","26","","24","","11.3","","99.34","","","","-8","","Mostly Cloudy"
"2002-12-07 12:00","2002","12","07","12:00","-0.8","","-5.2","","72","","26","","26","","9.7","","99.30","","","","-7","","Haze"
"2002-12-07 13:00","2002","12","07","13:00","-0.2","","-4.6","","72","","27","","26","","9.7","","99.25","","","","-6","","Haze"
"2002-12-07 14:00","2002","12","07","14:00","0.1","","-4.1","","73","","24","","22","","9.7","","99.22","","","","","","Haze"
"2002-12-07 15:00","2002","12","07","15:00","0.5","","-3.7","","73","","23","","20","","9.7","","99.22","","","","","","Haze"
"2002-12-07 16:00","2002","12","07","16:00","1.1","","-3.3","","72","","24","","24","","16.1","","99.26","","","","","","Mainly Clear"
"2002-12-07 17:00","2002","12","07","17:00","0.4","","-3.4","","76","","23","","20","","12.9","","99.26","","","","","","Clear"
"2002-12-07 18:00","2002","12","07","18:00","0.5","","-3.1","","77","","23","","20","","12.9","","99.31","","","","","","Clear"
"2002-12-07 19:00","2002","12","07","19:00","-0.4","","-2.7","","84","","22","","19","","12.9","","99.35","","","","-6","","Clear"
"2002-12-07 20:00","2002","12","07","20:00","-0.1","","-2.2","","86","","23","","20","","9.7","","99.38","","","","-5","","Haze"
"2002-12-07 21:00","2002","12","07","21:00","-0.4","","-2.6","","85","","23","","19","","9.7","","99.39","","","","-6","","Haze"
"2002-12-07 22:00","2002","12","07","22:00","-1.4","","-3.3","","87","","23","","17","","9.7","","99.37","","","","-7","","Fog"
"2002-12-07 23:00","2002","12","07","23:00","-1.3","","-3.2","","87","","24","","13","","9.7","","99.42","","","","-6","","Fog"
"2002-12-08 00:00","2002","12","08","00:00","-2.1","","-3.8","","88","","23","","15","","9.7","","99.42","","","","-7","","Fog"
"2002-12-08 01:00","2002","12","08","01:00","-1.7","","-3.6","","87","","24","","20","","9.7","","99.43","","","","-7","","Fog"
"2002-12-08 02:00","2002","12","08","02:00","-1.8","","-3.6","","87","","24","","17","","9.7","","99.43","","","","-7","","Fog"
"2002-12-08 03:00","2002","12","08","03:00","-2.2","","-3.9","","88","","23","","13","","9.7","","99.47","","","","-7","","Fog"
"2002-12-08 04:00","2002","12","08","04:00","-2.4","","-4.0","","89","","25","","15","","9.7","","99.50","","","","-7","","Fog"
"2002-12-08 05:00","2002","12","08","05:00","-3.0","","-4.4","","90","","26","","13","","9.7","","99.56","","","","-8","","Fog"
"2002-12-08 06:00","2002","12","08","06:00","-2.6","","-4.2","","89","","25","","13","","9.7","","99.65","","","","-7","","Fog"
"2002-12-08 07:00","2002","12","08","07:00","-3.2","","-4.7","","89","","27","","11","","9.7","","99.73","","","","-7","","Fog"
"2002-12-08 08:00","2002","12","08","08:00","-4.6","","-5.8","","91","","23","","13","","4.8","","99.83","","","","-10","","Fog"
"2002-12-08 09:00","2002","12","08","09:00","-3.4","","-4.8","","90","","27","","13","","6.4","","99.94","","","","-8","","Fog"
"2002-12-08 10:00","2002","12","08","10:00","-0.9","","-7.0","","63","","30","","30","","24.1","","100.05","","","","-8","","Mainly Clear"
"2002-12-08 11:00","2002","12","08","11:00","-1.4","","-10.1","","52","","32","","24","","25.0","","100.16","","","","-8","","Mainly Clear"
"2002-12-08 12:00","2002","12","08","12:00","-1.5","","-10.9","","49","","33","","32","","25.0","","100.23","","","","-9","","Mostly Cloudy"
"2002-12-08 13:00","2002","12","08","13:00","-1.6","","-11.1","","48","","32","","28","","25.0","","100.29","","","","-8","","Mainly Clear"
"2002-12-08 14:00","2002","12","08","14:00","-1.6","","-10.7","","50","","31","","20","","25.0","","100.41","","","","-7","","Mostly Cloudy"
"2002-12-08 15:00","2002","12","08","15:00","-1.9","","-12.2","","45","","32","","22","","25.0","","100.51","","","","-8","","Mostly Cloudy"
"2002-12-08 16:00","2002","12","08","16:00","-3.0","","-13.7","","43","","35","","19","","25.0","","100.65","","","","-9","","Mostly Cloudy"
"2002-12-08 17:00","2002","12","08","17:00","-3.9","","-13.5","","47","","35","","22","","24.1","","100.79","","","","-10","","Mainly Clear"
"2002-12-08 18:00","2002","12","08","18:00","-4.5","","-14.5","","46","","34","","13","","25.0","","100.89","","","","-10","","Mainly Clear"
"2002-12-08 19:00","2002","12","08","19:00","-5.3","","-13.7","","52","","36","","13","","25.0","","101.00","","","","-10","","Mainly Clear"
"2002-12-08 20:00","2002","12","08","20:00","-6.0","","-14.2","","52","","1","","7","","25.0","","101.09","","","","-9","","Mainly Clear"
"2002-12-08 21:00","2002","12","08","21:00","-6.8","","-13.6","","58","","36","","11","","25.0","","101.13","","","","-12","","Mainly Clear"
"2002-12-08 22:00","2002","12","08","22:00","-8.1","","-13.6","","65","","3","","7","","25.0","","101.15","","","","-12","","Mainly Clear"
"2002-12-08 23:00","2002","12","08","23:00","-8.2","","-13.8","","64","","36","","9","","25.0","","101.17","","","","-13","","Mainly Clear"
"2002-12-09 00:00","2002","12","09","00:00","-8.4","","-13.6","","66","","36","","7","","24.1","","101.15","","","","-12","","Clear"
"2002-12-09 01:00","2002","12","09","01:00","-8.7","","-13.3","","69","","35","","6","","24.1","","101.16","","","","-12","","Clear"
"2002-12-09 02:00","2002","12","09","02:00","-9.1","","-14.5","","65","","36","","4","","24.1","","101.13","","","","-11","","Clear"
"2002-12-09 03:00","2002","12","09","03:00","-12.4","","-14.9","","82","","18","","7","","24.1","","101.17","","","","-17","","Clear"
"2002-12-09 04:00","2002","12","09","04:00","-11.9","","-14.3","","82","","24","","4","","24.1","","101.14","","","","-14","","Clear"
"2002-12-09 05:00","2002","12","09","05:00","-11.9","","-14.5","","81","","","","0","","24.1","","101.09","","","","","","Clear"
"2002-12-09 06:00","2002","12","09","06:00","-12.4","","-14.5","","84","","","","0","","24.1","","101.06","","","","","","Clear"
"2002-12-09 07:00","2002","12","09","07:00","-12.7","","-15.0","","83","","","","0","","24.1","","101.07","","","","","","Clear"
"2002-12-09 08:00","2002","12","09","08:00","-12.6","","-14.8","","84","","","","0","","25.0","","101.07","","","","","","Mainly Clear"
"2002-12-09 09:00","2002","12","09","09:00","-9.2","","-12.7","","76","","18","","4","","25.0","","101.10","","","","-11","","Mainly Clear"
"2002-12-09 10:00","2002","12","09","10:00","-6.6","","-12.0","","65","","22","","9","","25.0","","101.05","","","","-11","","Mainly Clear"
"2002-12-09 11:00","2002","12","09","11:00","-4.4","","-9.7","","66","","23","","17","","25.0","","101.02","","","","-10","","Mainly Clear"
"2002-12-09 12:00","2002","12","09","12:00","-3.7","","-9.4","","65","","24","","22","","25.0","","100.90","","","","-10","","Mainly Clear"
"2002-12-09 13:00","2002","12","09","13:00","-2.9","","-9.9","","58","","25","","26","","25.0","","100.82","","","","-10","","Mostly Cloudy"
"2002-12-09 14:00","2002","12","09","14:00","-3.0","","-10.4","","57","","25","","26","","25.0","","100.71","","","","-10","","Mostly Cloudy"
"2002-12-09 15:00","2002","12","09","15:00","-3.1","","-10.4","","57","","22","","22","","25.0","","100.51","","","","-9","","Mainly Clear"
"2002-12-09 16:00","2002","12","09","16:00","-3.5","","-10.3","","59","","23","","20","","25.0","","100.44","","","","-10","","Mainly Clear"
"2002-12-09 17:00","2002","12","09","17:00","-4.0","","-10.5","","61","","23","","17","","25.0","","100.44","","","","-10","","Mostly Cloudy"
"2002-12-09 18:00","2002","12","09","18:00","-5.4","","-10.6","","67","","24","","13","","25.0","","100.41","","","","-11","","Mostly Cloudy"
"2002-12-09 19:00","2002","12","09","19:00","-6.4","","-10.6","","72","","22","","7","","24.1","","100.40","","","","-10","","Mostly Cloudy"
"2002-12-09 20:00","2002","12","09","20:00","-6.4","","-10.3","","74","","23","","13","","24.1","","100.35","","","","-12","","Mostly Cloudy"
"2002-12-09 21:00","2002","12","09","21:00","-6.1","","-9.4","","77","","25","","9","","24.1","","100.33","","","","-10","","Mostly Cloudy"
"2002-12-09 22:00","2002","12","09","22:00","-6.4","","-9.0","","82","","22","","15","","24.1","","100.27","","","","-12","","Mostly Cloudy"
"2002-12-09 23:00","2002","12","09","23:00","-5.8","","-8.7","","80","","22","","13","","24.1","","100.21","","","","-11","","Mostly Cloudy"
"2002-12-10 00:00","2002","12","10","00:00","-5.4","","-8.2","","81","","22","","13","","24.1","","100.17","","","","-11","","Cloudy"
"2002-12-10 01:00","2002","12","10","01:00","-3.6","","-9.0","","66","","23","","17","","24.1","","100.09","","","","-9","","Cloudy"
"2002-12-10 02:00","2002","12","10","02:00","-3.6","","-9.6","","63","","25","","17","","24.1","","100.09","","","","-9","","Mostly Cloudy"
"2002-12-10 03:00","2002","12","10","03:00","-4.8","","-10.1","","66","","24","","13","","19.3","","100.13","","","","-10","","Mainly Clear"
"2002-12-10 04:00","2002","12","10","04:00","-5.4","","-10.4","","68","","23","","17","","19.3","","100.13","","","","-11","","Mainly Clear"
"2002-12-10 05:00","2002","12","10","05:00","-5.5","","-10.5","","68","","24","","13","","19.3","","100.09","","","","-11","","Clear"
"2002-12-10 06:00","2002","12","10","06:00","-5.5","","-10.5","","68","","24","","17","","19.3","","100.08","","","","-12","","Clear"
"2002-12-10 07:00","2002","12","10","07:00","-5.7","","-10.5","","69","","25","","15","","19.3","","100.07","","","","-11","","Mainly Clear"
"2002-12-10 08:00","2002","12","10","08:00","-6.2","","-10.7","","70","","24","","11","","16.1","","100.08","","","","-11","","Mainly Clear"
"2002-12-10 09:00","2002","12","10","09:00","-5.6","","-10.3","","69","","21","","13","","16.1","","100.12","","","","-11","","Mainly Clear"
"2002-12-10 10:00","2002","12","10","10:00","-3.7","","-9.1","","66","","22","","15","","19.3","","100.09","","","","-9","","Mainly Clear"
"2002-12-10 11:00","2002","12","10","11:00","-2.1","","-9.2","","58","","21","","15","","19.3","","100.09","","","","-7","","Mainly Clear"
"2002-12-10 12:00","2002","12","10","12:00","-0.3","","-8.5","","54","","22","","17","","19.3","","100.00","","","","-5","","Mainly Clear"
"2002-12-10 13:00","2002","12","10","13:00","0.4","","-7.1","","57","","21","","17","","19.3","","99.91","","","","","","Mainly Clear"
"2002-12-10 14:00","2002","12","10","14:00","1.0","","-5.4","","62","","21","","15","","19.3","","99.87","","","","","","Mainly Clear"
"2002-12-10 15:00","2002","12","10","15:00","1.5","","-5.1","","61","","21","","17","","19.3","","99.85","","","","","","Mainly Clear"
"2002-12-10 16:00","2002","12","10","16:00","0.8","","-5.1","","65","","22","","15","","24.1","","99.82","","","","","","Mostly Cloudy"
"2002-12-10 17:00","2002","12","10","17:00","-0.1","","-5.3","","68","","21","","11","","24.1","","99.83","","","","-4","","Mostly Cloudy"
"2002-12-10 18:00","2002","12","10","18:00","-1.2","","-5.5","","73","","22","","11","","24.1","","99.84","","","","-5","","Mainly Clear"
"2002-12-10 19:00","2002","12","10","19:00","-1.6","","-5.5","","75","","24","","9","","24.1","","99.80","","","","-5","","Mostly Cloudy"
"2002-12-10 20:00","2002","12","10","20:00","-2.1","","-5.1","","80","","24","","7","","24.1","","99.79","","","","-5","","Mainly Clear"
"2002-12-10 21:00","2002","12","10","21:00","-2.7","","-5.6","","80","","22","","7","","24.1","","99.76","","","","-6","","Mostly Cloudy"
"2002-12-10 22:00","2002","12","10","22:00","-3.1","","-5.6","","83","","20","","9","","24.1","","99.75","","","","-7","","Cloudy"
"2002-12-10 23:00","2002","12","10","23:00","-3.7","","-5.8","","85","","22","","4","","24.1","","99.71","","","","-5","","Mostly Cloudy"
"2002-12-11 00:00","2002","12","11","00:00","-3.2","","-5.8","","82","","","","0","","19.3","","99.70","","","","","","Mostly Cloudy"
"2002-12-11 01:00","2002","12","11","01:00","-3.5","","-5.8","","84","","21","","7","","19.3","","99.69","","","","-6","","Mostly Cloudy"
"2002-12-11 02:00","2002","12","11","02:00","-4.1","","-6.1","","86","","","","0","","19.3","","99.68","","","","","","Mostly Cloudy"
"2002-12-11 03:00","2002","12","11","03:00","-4.7","","-6.4","","88","","","","0","","16.1","","99.66","","","","","","Mainly Clear"
"2002-12-11 04:00","2002","12","11","04:00","-4.0","","-5.5","","89","","35","","4","","16.1","","99.63","","","","-6","","Mainly Clear"
"2002-12-11 05:00","2002","12","11","05:00","-5.3","","-7.1","","87","","11","","4","","12.9","","99.55","","","","-7","","Mainly Clear"
"2002-12-11 06:00","2002","12","11","06:00","-6.1","","-7.1","","93","","16","","4","","12.9","","99.55","","","","-8","","Mostly Cloudy"
"2002-12-11 07:00","2002","12","11","07:00","-5.8","","-7.0","","91","","","","0","","11.3","","99.57","","","","","","Cloudy"
"2002-12-11 08:00","2002","12","11","08:00","-4.2","","-5.4","","91","","13","","6","","9.7","","99.58","","","","-7","","Fog"
"2002-12-11 09:00","2002","12","11","09:00","-3.8","","-5.2","","90","","2","","6","","9.7","","99.57","","","","-6","","Fog"
"2002-12-11 10:00","2002","12","11","10:00","-1.5","","-3.6","","86","","3","","4","","9.7","","99.55","","","","-3","","Haze"
"2002-12-11 11:00","2002","12","11","11:00","0.1","","-5.0","","69","","4","","11","","9.7","","99.50","","","","","","Haze"
"2002-12-11 12:00","2002","12","11","12:00","0.8","","-5.6","","62","","4","","11","","9.7","","99.41","","","","","","Haze"
"2002-12-11 13:00","2002","12","11","13:00","0.9","","-5.5","","62","","8","","6","","9.7","","99.36","","","","","","Haze"
"2002-12-11 14:00","2002","12","11","14:00","1.0","","-4.9","","65","","1","","4","","11.3","","99.34","","","","","","Cloudy"
"2002-12-11 15:00","2002","12","11","15:00","1.9","","-5.1","","60","","","","0","","11.3","","99.40","","","","","","Cloudy"
"2002-12-11 16:00","2002","12","11","16:00","1.9","","-5.9","","56","","","","0","","12.9","","99.46","","","","","","Mostly Cloudy"
"2002-12-11 17:00","2002","12","11","17:00","1.5","","-5.5","","60","","14","","6","","12.9","","99.49","","","","","","Mostly Cloudy"
"2002-12-11 18:00","2002","12","11","18:00","0.9","","-4.8","","66","","","","0","","24.1","","99.51","","","","","","Mostly Cloudy"
"2002-12-11 19:00","2002","12","11","19:00","1.2","","-4.9","","64","","","","0","","19.3","","99.55","","","","","","Mostly Cloudy"
"2002-12-11 20:00","2002","12","11","20:00","-0.1","","-4.6","","72","","","","0","","24.1","","99.57","","","","","","Mostly Cloudy"
"2002-12-11 21:00","2002","12","11","21:00","0.6","","-3.5","","74","","","","0","","24.1","","99.56","","","","","","Cloudy"
"2002-12-11 22:00","2002","12","11","22:00","1.1","","-3.3","","72","","25","","6","","16.1","","99.54","","","","","","Cloudy"
"2002-12-11 23:00","2002","12","11","23:00","0.8","","-3.1","","75","","17","","6","","12.9","","99.53","","","","","","Mostly Cloudy"
"2002-12-12 00:00","2002","12","12","00:00","1.1","","-3.6","","71","","26","","7","","11.3","","99.57","","","","","","Mostly Cloudy"
"2002-12-12 01:00","2002","12","12","01:00","1.1","","-3.4","","72","","25","","9","","11.3","","99.58","","","","","","Cloudy"
"2002-12-12 02:00","2002","12","12","02:00","1.1","","-3.4","","72","","24","","7","","11.3","","99.60","","","","","","Cloudy"
"2002-12-12 03:00","2002","12","12","03:00","0.9","","-3.4","","73","","23","","9","","11.3","","99.65","","","","","","Mostly Cloudy"
"2002-12-12 04:00","2002","12","12","04:00","-0.3","","-4.0","","76","","24","","13","","11.3","","99.67","","","","-4","","Mostly Cloudy"
"2002-12-12 05:00","2002","12","12","05:00","-1.4","","-8.3","","59","","21","","7","","11.3","","99.68","","","","-4","","Mainly Clear"
"2002-12-12 06:00","2002","12","12","06:00","-1.7","","-6.9","","68","","25","","9","","11.3","","99.72","","","","-5","","Mainly Clear"
"2002-12-12 07:00","2002","12","12","07:00","-2.3","","-4.7","","84","","24","","11","","11.3","","99.78","","","","-6","","Mainly Clear"
"2002-12-12 08:00","2002","12","12","08:00","-1.9","","-4.4","","83","","24","","7","","9.7","","99.86","","","","-5","","Haze"
"2002-12-12 09:00","2002","12","12","09:00","-1.7","","-4.1","","84","","23","","13","","9.7","","99.94","","","","-6","","Haze"
"2002-12-12 10:00","2002","12","12","10:00","-0.3","","-4.3","","74","","24","","9","","9.7","","99.96","","","","-3","","Haze"
"2002-12-12 11:00","2002","12","12","11:00","1.2","","-4.0","","68","","23","","13","","11.3","","99.97","","","","","","Mainly Clear"
"2002-12-12 12:00","2002","12","12","12:00","2.6","","-3.1","","66","","21","","11","","11.3","","99.93","","","","","","Mainly Clear"
"2002-12-12 13:00","2002","12","12","13:00","3.7","","-4.3","","56","","22","","15","","11.3","","99.89","","","","","","Mainly Clear"
"2002-12-12 14:00","2002","12","12","14:00","4.0","","-1.4","","68","","21","","19","","11.3","","99.84","","","","","","Mainly Clear"
"2002-12-12 15:00","2002","12","12","15:00","3.6","","-1.1","","71","","21","","20","","11.3","","99.83","","","","","","Mainly Clear"
"2002-12-12 16:00","2002","12","12","16:00","2.3","","-0.9","","79","","21","","17","","12.9","","99.86","","","","","","Mainly Clear"
"2002-12-12 17:00","2002","12","12","17:00","0.7","","-1.7","","84","","21","","19","","8.0","","99.85","","","","","","Haze"
"2002-12-12 18:00","2002","12","12","18:00","-0.3","","-1.8","","90","","22","","22","","6.4","","99.95","","","","-6","","Fog"
"2002-12-12 19:00","2002","12","12","19:00","0.1","","-1.2","","91","","23","","22","","4.8","","100.00","","","","","","Fog"
"2002-12-12 20:00","2002","12","12","20:00","0.5","","-0.8","","91","","25","","15","","4.8","","100.02","","","","","","Fog"
"2002-12-12 21:00","2002","12","12","21:00","0.7","","-1.0","","88","","26","","4","","8.0","","99.90","","","","","","Fog"
"2002-12-12 22:00","2002","12","12","22:00","0.5","","-1.0","","90","","18","","7","","6.4","","99.86","","","","","","Fog"
"2002-12-12 23:00","2002","12","12","23:00","0.4","","-0.8","","92","","20","","11","","4.8","","99.88","","","","","","Fog"
"2002-12-13 00:00","2002","12","13","00:00","0.8","","-0.8","","89","","21","","11","","8.0","","99.90","","","","","","Fog"
"2002-12-13 01:00","2002","12","13","01:00","1.1","","-1.1","","85","","21","","11","","11.3","","99.86","","","","","","Cloudy"
"2002-12-13 02:00","2002","12","13","02:00","1.1","","-1.2","","85","","22","","6","","12.9","","99.79","","","","","","Cloudy"
"2002-12-13 03:00","2002","12","13","03:00","1.0","","-1.1","","86","","20","","6","","11.3","","99.74","","","","","","Cloudy"
"2002-12-13 04:00","2002","12","13","04:00","0.8","","-0.9","","88","","19","","9","","11.3","","99.72","","","","","","Cloudy"
"2002-12-13 05:00","2002","12","13","05:00","0.8","","-0.9","","88","","20","","4","","9.7","","99.67","","","","","","Fog"
"2002-12-13 06:00","2002","12","13","06:00","0.4","","-0.8","","92","","14","","4","","8.0","","99.62","","","","","","Fog"
"2002-12-13 07:00","2002","12","13","07:00","0.3","","-0.7","","93","","15","","6","","8.0","","99.59","","","","","","Fog"
"2002-12-13 08:00","2002","12","13","08:00","0.4","","-0.6","","93","","15","","7","","2.0","","99.60","","","","","","Fog"
"2002-12-13 09:00","2002","12","13","09:00","0.6","","-0.3","","94","","11","","4","","2.0","","99.50","","","","","","Fog"
"2002-12-13 10:00","2002","12","13","10:00","0.8","","-0.2","","93","","9","","4","","1.6","","99.38","","","","","","Fog"
"2002-12-13 11:00","2002","12","13","11:00","1.3","","0.0","","91","","2","","6","","4.0","","99.31","","","","","","Fog"
"2002-12-13 12:00","2002","12","13","12:00","1.6","","-0.1","","88","","3","","9","","6.4","","99.11","","","","","","Fog"
"2002-12-13 13:00","2002","12","13","13:00","1.6","","-0.5","","86","","5","","17","","8.0","","98.98","","","","","","Haze"
"2002-12-13 14:00","2002","12","13","14:00","1.4","","0.0","","90","","4","","15","","6.4","","98.91","","","","","","Haze"
"2002-12-13 15:00","2002","12","13","15:00","1.5","","-0.1","","89","","4","","19","","8.0","","98.84","","","","","","Fog"
"2002-12-13 16:00","2002","12","13","16:00","1.3","","-0.3","","89","","5","","20","","4.8","","98.79","","","","","","Fog"
"2002-12-13 17:00","2002","12","13","17:00","1.3","","-0.1","","90","","5","","20","","4.8","","98.69","","","","","","Fog"
"2002-12-13 18:00","2002","12","13","18:00","1.3","","-0.2","","90","","5","","22","","4.8","","98.63","","","","","","Fog"
"2002-12-13 19:00","2002","12","13","19:00","1.1","","-0.2","","91","","3","","19","","4.8","","98.62","","","","","","Rain,Snow"
"2002-12-13 20:00","2002","12","13","20:00","0.5","","-0.3","","94","","4","","19","","3.2","","98.59","","","","","","Snow"
"2002-12-13 21:00","2002","12","13","21:00","0.6","","-0.3","","94","","4","","20","","3.2","","98.48","","","","","","Snow"
"2002-12-13 22:00","2002","12","13","22:00","0.6","","-0.3","","94","","3","","22","","2.4","","98.37","","","","","","Snow"
"2002-12-13 23:00","2002","12","13","23:00","0.6","","-0.2","","94","","2","","19","","2.4","","98.31","","","","","","Snow"
"2002-12-14 00:00","2002","12","14","00:00","0.4","","-0.2","","96","","1","","19","","3.2","","98.27","","","","","","Snow"
"2002-12-14 01:00","2002","12","14","01:00","0.9","","0.6","","98","","1","","19","","4.8","","98.21","","","","","","Snow"
"2002-12-14 02:00","2002","12","14","02:00","1.2","","1.2","","100","","36","","22","","4.8","","98.18","","","","","","Snow"
"2002-12-14 03:00","2002","12","14","03:00","1.5","","1.5","","100","","36","","20","","6.4","","98.19","","","","","","Fog"
"2002-12-14 04:00","2002","12","14","04:00","1.9","","1.9","","100","","36","","24","","8.0","","98.19","","","","","","Snow"
"2002-12-14 05:00","2002","12","14","05:00","2.4","","2.4","","100","","36","","28","","19.3","","98.22","","","","","","Cloudy"
"2002-12-14 06:00","2002","12","14","06:00","3.0","","2.5","","97","","36","","28","","24.1","","98.27","","","","","","Cloudy"
"2002-12-14 07:00","2002","12","14","07:00","2.6","","0.6","","87","","35","","24","","24.1","","98.34","","","","","","Cloudy"
"2002-12-14 08:00","2002","12","14","08:00","2.7","","0.6","","86","","36","","26","","11.3","","98.42","","","","","","Cloudy"
"2002-12-14 09:00","2002","12","14","09:00","3.0","","1.9","","92","","34","","28","","9.7","","98.49","","","","","","Fog"
"2002-12-14 10:00","2002","12","14","10:00","3.1","","2.1","","93","","34","","24","","9.7","","98.59","","","","","","Fog"
"2002-12-14 11:00","2002","12","14","11:00","3.1","","1.9","","92","","34","","24","","9.7","","98.71","","","","","","Fog"
"2002-12-14 12:00","2002","12","14","12:00","3.1","","2.4","","95","","34","","26","","9.7","","98.71","","","","","","Fog"
"2002-12-14 13:00","2002","12","14","13:00","3.0","","2.3","","95","","34","","24","","9.7","","98.71","","","","","","Fog"
"2002-12-14 14:00","2002","12","14","14:00","3.3","","3.0","","98","","32","","19","","12.9","","98.74","","","","","","Cloudy"
"2002-12-14 15:00","2002","12","14","15:00","3.2","","3.2","","100","","33","","19","","12.9","","98.79","","","","","","Cloudy"
"2002-12-14 16:00","2002","12","14","16:00","2.7","","2.4","","98","","30","","19","","19.3","","98.83","","","","","","Cloudy"
"2002-12-14 17:00","2002","12","14","17:00","2.2","","1.3","","94","","30","","24","","19.3","","98.89","","","","","","Cloudy"
"2002-12-14 18:00","2002","12","14","18:00","1.5","","1.0","","96","","29","","19","","19.3","","98.91","","","","","","Cloudy"
"2002-12-14 19:00","2002","12","14","19:00","1.7","","1.7","","100","","29","","13","","19.3","","98.92","","","","","","Mostly Cloudy"
"2002-12-14 20:00","2002","12","14","20:00","1.8","","1.8","","100","","25","","9","","19.3","","98.97","","","","","","Mostly Cloudy"
"2002-12-14 21:00","2002","12","14","21:00","1.0","","1.0","","100","","23","","13","","19.3","","98.92","","","","","","Mostly Cloudy"
"2002-12-14 22:00","2002","12","14","22:00","1.1","","-1.2","","85","","23","","15","","19.3","","98.88","","","","","","Mostly Cloudy"
"2002-12-14 23:00","2002","12","14","23:00","0.4","","-1.7","","86","","23","","11","","16.1","","98.86","","","","","","Clear"
"2002-12-15 00:00","2002","12","15","00:00","0.0","","-2.0","","86","","23","","13","","16.1","","98.82","","","","-4","","Mainly Clear"
"2002-12-15 01:00","2002","12","15","01:00","0.6","","-1.9","","83","","23","","22","","11.3","","98.69","","","","","","Mostly Cloudy"
"2002-12-15 02:00","2002","12","15","02:00","0.6","","-2.8","","78","","25","","19","","11.3","","98.68","","","","","","Mostly Cloudy"
"2002-12-15 03:00","2002","12","15","03:00","0.1","","-3.1","","79","","24","","20","","11.3","","98.67","","","","","","Mainly Clear"
"2002-12-15 04:00","2002","12","15","04:00","-0.4","","-3.3","","81","","23","","22","","8.0","","98.62","","","","-6","","Haze"
"2002-12-15 05:00","2002","12","15","05:00","-0.7","","-3.4","","82","","23","","13","","8.0","","98.60","","","","-5","","Haze"
"2002-12-15 06:00","2002","12","15","06:00","-0.6","","-3.4","","81","","23","","19","","8.0","","98.56","","","","-6","","Haze"
"2002-12-15 07:00","2002","12","15","07:00","-0.5","","-3.3","","81","","24","","20","","8.0","","98.53","","","","-6","","Haze"
"2002-12-15 08:00","2002","12","15","08:00","-0.4","","-3.2","","81","","25","","15","","6.4","","98.55","","","","-5","","Haze"
"2002-12-15 09:00","2002","12","15","09:00","-0.2","","-2.6","","84","","22","","13","","6.4","","98.51","","","","-4","","Haze"
"2002-12-15 10:00","2002","12","15","10:00","0.4","","-2.3","","82","","23","","19","","8.0","","98.52","","","","","","Haze"
"2002-12-15 11:00","2002","12","15","11:00","1.9","","-1.8","","76","","24","","24","","8.0","","98.49","","","","","","Haze"
"2002-12-15 12:00","2002","12","15","12:00","2.7","","-1.7","","73","","27","","19","","9.7","","98.41","","","","","","Haze"
"2002-12-15 13:00","2002","12","15","13:00","4.2","","-1.5","","66","","27","","17","","9.7","","98.32","","","","","","Haze"
"2002-12-15 14:00","2002","12","15","14:00","4.9","","-0.8","","67","","27","","20","","11.3","","98.28","","","","","","Mainly Clear"
"2002-12-15 15:00","2002","12","15","15:00","5.5","","-0.7","","64","","29","","26","","11.3","","98.25","","","","","","Mainly Clear"
"2002-12-15 16:00","2002","12","15","16:00","4.9","","-0.2","","70","","31","","15","","9.7","","98.34","","","","","","Haze"
"2002-12-15 17:00","2002","12","15","17:00","4.8","","-0.4","","69","","31","","26","","9.7","","98.38","","","","","","Haze"
"2002-12-15 18:00","2002","12","15","18:00","4.2","","-0.4","","72","","31","","24","","12.9","","98.43","","","","","","Cloudy"
"2002-12-15 19:00","2002","12","15","19:00","4.0","","-0.4","","73","","32","","17","","11.3","","98.48","","","","","","Cloudy"
"2002-12-15 20:00","2002","12","15","20:00","3.0","","0.6","","84","","32","","20","","8.0","","98.55","","","","","","Rain"
"2002-12-15 21:00","2002","12","15","21:00","2.8","","0.4","","84","","32","","22","","6.4","","98.57","","","","","","Rain,Fog"
"2002-12-15 22:00","2002","12","15","22:00","2.2","","-0.7","","81","","35","","17","","16.1","","98.60","","","","","","Rain"
"2002-12-15 23:00","2002","12","15","23:00","1.3","","-1.5","","82","","36","","24","","6.4","","98.68","","","","","","Snow"
"2002-12-16 00:00","2002","12","16","00:00","-0.1","","-3.1","","80","","35","","32","","12.9","","98.78","","","","-7","","Snow"
"2002-12-16 01:00","2002","12","16","01:00","-1.3","","-5.6","","73","","35","","26","","24.1","","98.87","","","","-8","","Snow"
"2002-12-16 02:00","2002","12","16","02:00","-1.8","","-6.9","","68","","36","","26","","24.1","","98.99","","","","-8","","Snow"
"2002-12-16 03:00","2002","12","16","03:00","-3.5","","-8.1","","70","","35","","24","","24.1","","99.16","","","","-10","","Mainly Clear"
"2002-12-16 04:00","2002","12","16","04:00","-4.3","","-8.7","","71","","34","","20","","24.1","","99.23","","","","-11","","Mainly Clear"
"2002-12-16 05:00","2002","12","16","05:00","-5.0","","-9.3","","72","","34","","28","","24.1","","99.33","","","","-13","","Mainly Clear"
"2002-12-16 06:00","2002","12","16","06:00","-5.1","","-9.0","","74","","34","","17","","24.1","","99.40","","","","-11","","Mainly Clear"
"2002-12-16 07:00","2002","12","16","07:00","-5.4","","-9.1","","75","","35","","22","","24.1","","99.47","","","","-12","","Mainly Clear"
"2002-12-16 08:00","2002","12","16","08:00","-5.6","","-8.9","","78","","35","","24","","24.1","","99.53","","","","-13","","Mainly Clear"
"2002-12-16 09:00","2002","12","16","09:00","-5.2","","-9.1","","74","","36","","22","","24.1","","99.63","","","","-12","","Clear"
"2002-12-16 10:00","2002","12","16","10:00","-4.2","","-8.9","","70","","36","","28","","25.0","","99.73","","","","-12","","Clear"
"2002-12-16 11:00","2002","12","16","11:00","-3.2","","-8.8","","65","","36","","24","","25.0","","99.80","","","","-10","","Mainly Clear"
"2002-12-16 12:00","2002","12","16","12:00","-2.5","","-8.8","","62","","1","","17","","25.0","","99.83","","","","-8","","Mainly Clear"
"2002-12-16 13:00","2002","12","16","13:00","-1.4","","-8.2","","60","","4","","15","","25.0","","99.80","","","","-6","","Mainly Clear"
"2002-12-16 14:00","2002","12","16","14:00","-1.4","","-8.0","","61","","4","","19","","25.0","","99.80","","","","-7","","Mainly Clear"
"2002-12-16 15:00","2002","12","16","15:00","-1.4","","-7.4","","64","","5","","19","","25.0","","99.83","","","","-7","","Mainly Clear"
"2002-12-16 16:00","2002","12","16","16:00","-1.9","","-7.5","","65","","4","","22","","25.0","","99.91","","","","-8","","Mostly Cloudy"
"2002-12-16 17:00","2002","12","16","17:00","-3.1","","-7.9","","69","","4","","19","","25.0","","99.94","","","","-9","","Mostly Cloudy"
"2002-12-16 18:00","2002","12","16","18:00","-2.7","","-7.9","","67","","3","","15","","25.0","","99.99","","","","-8","","Mostly Cloudy"
"2002-12-16 19:00","2002","12","16","19:00","-3.1","","-7.8","","70","","3","","19","","25.0","","100.01","","","","-9","","Mostly Cloudy"
"2002-12-16 20:00","2002","12","16","20:00","-2.9","","-6.9","","74","","4","","15","","25.0","","100.01","","","","-8","","Mostly Cloudy"
"2002-12-16 21:00","2002","12","16","21:00","-2.4","","-6.5","","73","","2","","13","","25.0","","100.09","","","","-7","","Cloudy"
"2002-12-16 22:00","2002","12","16","22:00","-2.3","","-5.8","","77","","3","","15","","25.0","","100.07","","","","-7","","Cloudy"
"2002-12-16 23:00","2002","12","16","23:00","-2.2","","-5.4","","79","","5","","15","","25.0","","100.11","","","","-7","","Cloudy"
"2002-12-17 00:00","2002","12","17","00:00","-3.1","","-5.8","","82","","9","","20","","24.1","","100.11","","","","-9","","Cloudy"
"2002-12-17 01:00","2002","12","17","01:00","-4.0","","-6.6","","82","","8","","20","","24.1","","100.16","","","","-10","","Cloudy"
"2002-12-17 02:00","2002","12","17","02:00","-5.4","","-8.2","","81","","8","","24","","24.1","","100.13","","","","-13","","Mostly Cloudy"
"2002-12-17 03:00","2002","12","17","03:00","-6.0","","-8.8","","81","","8","","15","","24.1","","100.19","","","","-12","","Mainly Clear"
"2002-12-17 04:00","2002","12","17","04:00","-5.9","","-8.1","","84","","","","0","","24.1","","100.20","","","","","","Mostly Cloudy"
"2002-12-17 05:00","2002","12","17","05:00","-5.2","","-7.2","","86","","8","","11","","16.1","","100.20","","","","-10","","Cloudy"
"2002-12-17 06:00","2002","12","17","06:00","-4.7","","-6.7","","86","","4","","13","","16.1","","100.31","","","","-10","","Cloudy"
"2002-12-17 07:00","2002","12","17","07:00","-4.7","","-6.7","","86","","5","","15","","16.1","","100.31","","","","-10","","Snow"
"2002-12-17 08:00","2002","12","17","08:00","-4.5","","-6.4","","87","","6","","15","","11.3","","100.30","","","","-10","","Snow"
"2002-12-17 09:00","2002","12","17","09:00","-3.2","","-5.2","","86","","8","","15","","11.3","","100.30","","","","-8","","Cloudy"
"2002-12-17 10:00","2002","12","17","10:00","-2.4","","-5.1","","82","","9","","15","","12.9","","100.32","","","","-7","","Cloudy"
"2002-12-17 11:00","2002","12","17","11:00","-1.9","","-4.1","","85","","9","","19","","9.7","","100.25","","","","-7","","Snow"
"2002-12-17 12:00","2002","12","17","12:00","-1.3","","-5.0","","76","","10","","26","","16.1","","100.20","","","","-8","","Cloudy"
"2002-12-17 13:00","2002","12","17","13:00","0.1","","-4.6","","71","","9","","24","","24.1","","100.11","","","","","","Mostly Cloudy"
"2002-12-17 14:00","2002","12","17","14:00","0.6","","-4.8","","67","","11","","26","","25.0","","100.06","","","","","","Mostly Cloudy"
"2002-12-17 15:00","2002","12","17","15:00","0.4","","-5.0","","67","","10","","22","","25.0","","100.08","","","","","","Mostly Cloudy"
"2002-12-17 16:00","2002","12","17","16:00","-0.3","","-4.3","","74","","10","","33","","25.0","","100.07","","","","-7","","Mostly Cloudy"
"2002-12-17 17:00","2002","12","17","17:00","-0.9","","-3.8","","81","","10","","32","","24.1","","100.07","","","","-8","","Mostly Cloudy"
"2002-12-17 18:00","2002","12","17","18:00","-1.4","","-3.9","","83","","9","","24","","24.1","","100.08","","","","-8","","Mostly Cloudy"
"2002-12-17 19:00","2002","12","17","19:00","-1.4","","-3.7","","84","","10","","26","","24.1","","100.08","","","","-8","","Cloudy"
"2002-12-17 20:00","2002","12","17","20:00","-1.0","","-3.5","","83","","9","","26","","24.1","","100.04","","","","-7","","Mostly Cloudy"
"2002-12-17 21:00","2002","12","17","21:00","-0.6","","-3.0","","84","","9","","22","","25.0","","100.02","","","","-6","","Mostly Cloudy"
"2002-12-17 22:00","2002","12","17","22:00","0.2","","-2.7","","81","","9","","19","","25.0","","100.02","","","","","","Cloudy"
"2002-12-17 23:00","2002","12","17","23:00","1.1","","-2.8","","75","","11","","22","","25.0","","99.98","","","","","","Cloudy"
"2002-12-18 00:00","2002","12","18","00:00","1.2","","-2.7","","75","","11","","20","","24.1","","99.94","","","","","","Rain"
"2002-12-18 01:00","2002","12","18","01:00","1.4","","-3.3","","71","","11","","20","","24.1","","99.87","","","","","","Snow"
"2002-12-18 02:00","2002","12","18","02:00","1.5","","-4.0","","67","","12","","17","","24.1","","99.86","","","","","","Snow"
"2002-12-18 03:00","2002","12","18","03:00","1.3","","-4.0","","68","","11","","24","","24.1","","99.81","","","","","","Snow"
"2002-12-18 04:00","2002","12","18","04:00","0.6","","-2.1","","82","","12","","15","","9.7","","99.77","","","","","","Snow"
"2002-12-18 05:00","2002","12","18","05:00","0.3","","-0.9","","92","","11","","15","","4.0","","99.75","","","","","","Rain,Fog"
"2002-12-18 06:00","2002","12","18","06:00","0.6","","-0.9","","90","","12","","11","","12.9","","99.75","","","","","","Rain"
"2002-12-18 07:00","2002","12","18","07:00","0.9","","-0.6","","90","","12","","17","","12.9","","99.73","","","","","","Rain"
"2002-12-18 08:00","2002","12","18","08:00","1.5","","0.3","","92","","14","","17","","6.4","","99.71","","","","","","Rain,Fog"
"2002-12-18 09:00","2002","12","18","09:00","2.2","","1.2","","93","","14","","15","","6.4","","99.73","","","","","","Fog"
"2002-12-18 10:00","2002","12","18","10:00","2.9","","1.6","","91","","13","","20","","6.4","","99.68","","","","","","Rain Showers,Fog"
"2002-12-18 11:00","2002","12","18","11:00","3.6","","2.0","","89","","14","","22","","8.0","","99.68","","","","","","Rain Showers,Fog"
"2002-12-18 12:00","2002","12","18","12:00","4.7","","2.6","","86","","15","","20","","12.9","","99.56","","","","","","Mostly Cloudy"
"2002-12-18 13:00","2002","12","18","13:00","5.7","","1.6","","75","","15","","20","","16.1","","99.43","","","","","","Mostly Cloudy"
"2002-12-18 14:00","2002","12","18","14:00","6.6","","2.8","","77","","16","","30","","16.1","","99.32","","","","","","Mostly Cloudy"
"2002-12-18 15:00","2002","12","18","15:00","6.9","","2.7","","75","","16","","30","","19.3","","99.23","","","","","","Mostly Cloudy"
"2002-12-18 16:00","2002","12","18","16:00","7.3","","2.5","","72","","16","","24","","24.1","","99.22","","","","","","Mostly Cloudy"
"2002-12-18 17:00","2002","12","18","17:00","6.1","","1.9","","74","","16","","22","","19.3","","99.24","","","","","","Cloudy"
"2002-12-18 18:00","2002","12","18","18:00","6.3","","1.8","","73","","16","","22","","19.3","","99.21","","","","","","Cloudy"
"2002-12-18 19:00","2002","12","18","19:00","6.6","","1.7","","71","","17","","20","","24.1","","99.14","","","","","","Cloudy"
"2002-12-18 20:00","2002","12","18","20:00","7.0","","1.3","","67","","16","","19","","25.0","","99.12","","","","","","Cloudy"
"2002-12-18 21:00","2002","12","18","21:00","6.7","","1.1","","67","","17","","19","","24.1","","99.11","","","","","","Mostly Cloudy"
"2002-12-18 22:00","2002","12","18","22:00","7.0","","0.9","","65","","17","","15","","24.1","","99.02","","","","","","Cloudy"
"2002-12-18 23:00","2002","12","18","23:00","7.3","","0.8","","63","","19","","11","","24.1","","99.00","","","","","","Rain Showers"
"2002-12-19 00:00","2002","12","19","00:00","5.8","","2.3","","78","","18","","19","","12.9","","98.96","","","","","","Moderate Rain Showers"
"2002-12-19 01:00","2002","12","19","01:00","6.0","","3.3","","83","","19","","33","","8.0","","98.89","","","","","","Rain Showers,Fog"
"2002-12-19 02:00","2002","12","19","02:00","6.3","","3.5","","82","","19","","32","","6.4","","98.83","","","","","","Moderate Rain Showers,Fog"
"2002-12-19 03:00","2002","12","19","03:00","6.7","","4.0","","83","","20","","32","","6.4","","98.81","","","","","","Rain,Fog"
"2002-12-19 04:00","2002","12","19","04:00","6.7","","3.8","","82","","19","","28","","4.8","","98.72","","","","","","Rain,Fog"
"2002-12-19 05:00","2002","12","19","05:00","6.9","","4.0","","82","","20","","35","","11.3","","98.71","","","","","","Rain"
"2002-12-19 06:00","2002","12","19","06:00","6.2","","3.5","","83","","19","","20","","12.9","","98.64","","","","","","Cloudy"
"2002-12-19 07:00","2002","12","19","07:00","7.3","","4.2","","81","","21","","26","","12.9","","98.64","","","","","","Cloudy"
"2002-12-19 08:00","2002","12","19","08:00","7.4","","4.3","","81","","21","","22","","9.7","","98.62","","","","","","Haze"
"2002-12-19 09:00","2002","12","19","09:00","7.8","","5.4","","85","","21","","28","","9.7","","98.70","","","","","","Haze"
"2002-12-19 10:00","2002","12","19","10:00","8.1","","5.7","","85","","21","","19","","12.9","","98.66","","","","","","Cloudy"
"2002-12-19 11:00","2002","12","19","11:00","8.5","","6.0","","84","","20","","20","","11.3","","98.51","","","","","","Cloudy"
"2002-12-19 12:00","2002","12","19","12:00","8.8","","6.5","","85","","22","","30","","16.1","","98.57","","","","","","Cloudy"
"2002-12-19 13:00","2002","12","19","13:00","9.5","","7.1","","85","","22","","20","","16.1","","98.42","","","","","","Cloudy"
"2002-12-19 14:00","2002","12","19","14:00","9.5","","7.2","","86","","21","","22","","12.9","","98.30","","","","","","Cloudy"
"2002-12-19 15:00","2002","12","19","15:00","9.5","","7.4","","87","","21","","22","","12.9","","98.22","","","","","","Rain Showers"
"2002-12-19 16:00","2002","12","19","16:00","9.0","","7.7","","92","","19","","17","","8.0","","98.17","","","","","","Rain,Fog"
"2002-12-19 17:00","2002","12","19","17:00","8.8","","7.8","","93","","17","","13","","3.2","","98.05","","","","","","Rain,Fog"
"2002-12-19 18:00","2002","12","19","18:00","8.7","","7.8","","94","","17","","24","","4.8","","97.94","","","","","","Rain,Fog"
"2002-12-19 19:00","2002","12","19","19:00","8.4","","7.5","","94","","18","","20","","6.4","","97.88","","","","","","Rain,Fog"
"2002-12-19 20:00","2002","12","19","20:00","8.2","","7.3","","94","","21","","11","","6.4","","97.76","","","","","","Rain,Fog"
"2002-12-19 21:00","2002","12","19","21:00","8.1","","7.3","","95","","16","","15","","6.4","","97.59","","","","","","Rain,Fog"
"2002-12-19 22:00","2002","12","19","22:00","7.9","","7.1","","95","","17","","15","","4.8","","97.45","","","","","","Rain,Fog"
"2002-12-19 23:00","2002","12","19","23:00","7.6","","6.9","","95","","17","","11","","2.4","","97.29","","","","","","Rain,Fog"
"2002-12-20 00:00","2002","12","20","00:00","7.6","","6.9","","95","","21","","11","","2.8","","97.16","","","","","","Rain,Fog"
"2002-12-20 01:00","2002","12","20","01:00","6.0","","4.7","","91","","30","","26","","4.0","","97.13","","","","","","Rain,Fog"
"2002-12-20 02:00","2002","12","20","02:00","4.0","","-1.7","","66","","29","","35","","12.9","","97.23","","","","","","Rain"
"2002-12-20 03:00","2002","12","20","03:00","2.8","","-0.6","","78","","27","","33","","11.3","","97.38","","","","","","Rain,Snow"
"2002-12-20 04:00","2002","12","20","04:00","2.0","","-0.9","","81","","27","","26","","12.9","","97.39","","","","","","Snow"
"2002-12-20 05:00","2002","12","20","05:00","1.8","","-1.1","","81","","24","","20","","8.0","","97.40","","","","","","Haze"
"2002-12-20 06:00","2002","12","20","06:00","2.3","","-0.9","","79","","24","","24","","9.7","","97.41","","","","","","Haze"
"2002-12-20 07:00","2002","12","20","07:00","2.6","","-1.6","","74","","25","","35","","11.3","","97.47","","","","","","Snow"
"2002-12-20 08:00","2002","12","20","08:00","2.4","","-3.1","","67","","25","","30","","19.3","","97.51","","","","","","Mostly Cloudy"
"2002-12-20 09:00","2002","12","20","09:00","2.2","","-3.8","","64","","25","","26","","24.1","","97.61","","","","","","Mostly Cloudy"
"2002-12-20 10:00","2002","12","20","10:00","2.0","","-3.6","","66","","24","","33","","24.1","","97.65","","","","","","Mostly Cloudy"
"2002-12-20 11:00","2002","12","20","11:00","2.0","","-2.8","","70","","24","","30","","19.3","","97.67","","","","","","Cloudy"
"2002-12-20 12:00","2002","12","20","12:00","2.0","","-2.1","","74","","23","","20","","19.3","","97.59","","","","","","Snow Showers"
"2002-12-20 13:00","2002","12","20","13:00","1.9","","-4.7","","62","","25","","37","","24.1","","97.56","","","","","","Snow Showers"
"2002-12-20 14:00","2002","12","20","14:00","1.6","","-3.8","","67","","25","","30","","24.1","","97.58","","","","","","Snow Showers"
"2002-12-20 15:00","2002","12","20","15:00","1.8","","-4.1","","65","","25","","30","","24.1","","97.62","","","","","","Snow Showers"
"2002-12-20 16:00","2002","12","20","16:00","1.8","","-3.5","","68","","23","","39","","24.1","","97.65","","","","","","Cloudy"
"2002-12-20 17:00","2002","12","20","17:00","1.6","","-3.5","","69","","24","","30","","19.3","","97.65","","","","","","Snow Showers"
"2002-12-20 18:00","2002","12","20","18:00","1.6","","-4.2","","65","","24","","30","","24.1","","97.67","","","","","","Snow Showers"
"2002-12-20 19:00","2002","12","20","19:00","1.3","","-3.6","","70","","23","","35","","19.3","","97.71","","","","","","Snow Showers"
"2002-12-20 20:00","2002","12","20","20:00","1.3","","-3.4","","71","","24","","30","","16.1","","97.70","","","","","","Snow Showers"
"2002-12-20 21:00","2002","12","20","21:00","0.7","","-3.2","","75","","24","","26","","24.1","","97.71","","","","","","Snow Showers"
"2002-12-20 22:00","2002","12","20","22:00","0.3","","-4.1","","72","","25","","26","","19.3","","97.70","","","","","","Snow Showers"
"2002-12-20 23:00","2002","12","20","23:00","0.2","","-4.4","","71","","25","","22","","19.3","","97.69","","","","","","Snow Showers"
"2002-12-21 00:00","2002","12","21","00:00","0.3","","-4.8","","69","","25","","26","","19.3","","97.68","","","","","","Snow Showers"
"2002-12-21 01:00","2002","12","21","01:00","0.1","","-4.4","","72","","25","","37","","24.1","","97.67","","","","","","Snow Showers"
"2002-12-21 02:00","2002","12","21","02:00","0.3","","-4.5","","70","","25","","28","","24.1","","97.68","","","","","","Snow"
"2002-12-21 03:00","2002","12","21","03:00","0.1","","-3.9","","74","","24","","32","","24.1","","97.66","","","","","","Snow"
"2002-12-21 04:00","2002","12","21","04:00","-0.1","","-3.7","","77","","24","","30","","24.1","","97.74","","","","-7","","Snow"
"2002-12-21 05:00","2002","12","21","05:00","-1.1","","-3.5","","84","","24","","35","","11.3","","97.72","","","","-8","","Snow"
"2002-12-21 06:00","2002","12","21","06:00","-1.1","","-5.8","","70","","26","","41","","24.1","","97.81","","","","-9","","Snow"
"2002-12-21 07:00","2002","12","21","07:00","-0.8","","-6.1","","67","","26","","28","","25.0","","97.92","","","","-7","","Mostly Cloudy"
"2002-12-21 08:00","2002","12","21","08:00","-0.8","","-5.5","","70","","25","","32","","24.1","","97.97","","","","-8","","Snow Showers"
"2002-12-21 09:00","2002","12","21","09:00","-0.8","","-4.9","","74","","25","","32","","12.9","","98.04","","","","-8","","Snow Showers"
"2002-12-21 10:00","2002","12","21","10:00","-0.5","","-4.1","","77","","25","","32","","11.3","","98.12","","","","-7","","Snow Showers"
"2002-12-21 11:00","2002","12","21","11:00","0.5","","-5.7","","63","","25","","32","","24.1","","98.20","","","","","","Snow Showers"
"2002-12-21 12:00","2002","12","21","12:00","0.4","","-4.6","","69","","25","","30","","24.1","","98.21","","","","","","Snow Showers"
"2002-12-21 13:00","2002","12","21","13:00","0.7","","-4.9","","66","","25","","35","","24.1","","98.22","","","","","","Snow Showers"
"2002-12-21 14:00","2002","12","21","14:00","0.9","","-4.6","","67","","26","","32","","24.1","","98.23","","","","","","Cloudy"
"2002-12-21 15:00","2002","12","21","15:00","1.3","","-5.7","","60","","26","","35","","24.1","","98.27","","","","","","Cloudy"
"2002-12-21 16:00","2002","12","21","16:00","1.2","","-5.7","","60","","27","","33","","24.1","","98.37","","","","","","Cloudy"
"2002-12-21 17:00","2002","12","21","17:00","0.9","","-5.1","","64","","25","","28","","24.1","","98.42","","","","","","Cloudy"
"2002-12-21 18:00","2002","12","21","18:00","0.8","","-5.1","","65","","25","","28","","24.1","","98.45","","","","","","Cloudy"
"2002-12-21 19:00","2002","12","21","19:00","0.8","","-5.3","","64","","25","","33","","24.1","","98.44","","","","","","Cloudy"
"2002-12-21 20:00","2002","12","21","20:00","0.7","","-4.8","","67","","24","","28","","24.1","","98.47","","","","","","Cloudy"
"2002-12-21 21:00","2002","12","21","21:00","0.5","","-4.9","","67","","24","","30","","25.0","","98.43","","","","","","Mostly Cloudy"
"2002-12-21 22:00","2002","12","21","22:00","0.7","","-5.0","","66","","26","","28","","25.0","","98.46","","","","","","Mostly Cloudy"
"2002-12-21 23:00","2002","12","21","23:00","0.1","","-4.5","","71","","27","","26","","25.0","","98.44","","","","","","Mainly Clear"
"2002-12-22 00:00","2002","12","22","00:00","-0.7","","-4.1","","78","","23","","19","","19.3","","98.40","","","","-6","","Cloudy"
"2002-12-22 01:00","2002","12","22","01:00","-1.0","","-4.1","","79","","24","","17","","19.3","","98.34","","","","-6","","Cloudy"
"2002-12-22 02:00","2002","12","22","02:00","-1.1","","-3.9","","81","","23","","13","","24.1","","98.26","","","","-5","","Cloudy"
"2002-12-22 03:00","2002","12","22","03:00","-0.7","","-3.6","","81","","22","","17","","24.1","","98.21","","","","-6","","Cloudy"
"2002-12-22 04:00","2002","12","22","04:00","-0.6","","-3.4","","81","","23","","15","","24.1","","98.13","","","","-5","","Cloudy"
"2002-12-22 05:00","2002","12","22","05:00","-0.8","","-3.4","","83","","25","","13","","24.1","","98.11","","","","-5","","Mainly Clear"
"2002-12-22 06:00","2002","12","22","06:00","-1.0","","-3.8","","81","","27","","11","","24.1","","98.09","","","","-5","","Mainly Clear"
"2002-12-22 07:00","2002","12","22","07:00","-1.2","","-3.9","","82","","26","","11","","24.1","","98.11","","","","-5","","Mainly Clear"
"2002-12-22 08:00","2002","12","22","08:00","-1.4","","-3.8","","84","","26","","13","","12.9","","98.13","","","","-6","","Mainly Clear"
"2002-12-22 09:00","2002","12","22","09:00","-1.0","","-3.8","","81","","25","","17","","11.3","","98.13","","","","-6","","Mainly Clear"
"2002-12-22 10:00","2002","12","22","10:00","-0.2","","-3.6","","78","","26","","26","","12.9","","98.21","","","","-6","","Mostly Cloudy"
"2002-12-22 11:00","2002","12","22","11:00","0.4","","-4.3","","71","","27","","33","","24.1","","98.25","","","","","","Mostly Cloudy"
"2002-12-22 12:00","2002","12","22","12:00","0.9","","-4.5","","67","","28","","35","","24.1","","98.29","","","","","","Mostly Cloudy"
"2002-12-22 13:00","2002","12","22","13:00","1.1","","-4.6","","66","","28","","30","","24.1","","98.27","","","","","","Mostly Cloudy"
"2002-12-22 14:00","2002","12","22","14:00","0.8","","-4.9","","66","","28","","33","","24.1","","98.34","","","","","","Mostly Cloudy"
"2002-12-22 15:00","2002","12","22","15:00","0.6","","-5.1","","66","","28","","41","","24.1","","98.46","","","","","","Cloudy"
"2002-12-22 16:00","2002","12","22","16:00","0.1","","-5.5","","66","","27","","28","","24.1","","98.58","","","","","","Cloudy"
"2002-12-22 17:00","2002","12","22","17:00","-0.1","","-6.0","","64","","27","","41","","24.1","","98.68","","","","-8","","Cloudy"
"2002-12-22 18:00","2002","12","22","18:00","-0.3","","-6.2","","64","","27","","37","","24.1","","98.77","","","","-8","","Snow Showers"
"2002-12-22 19:00","2002","12","22","19:00","-0.3","","-5.9","","66","","26","","32","","24.1","","98.85","","","","-7","","Snow Showers"
"2002-12-22 20:00","2002","12","22","20:00","-0.3","","-6.2","","64","","27","","35","","24.1","","98.90","","","","-7","","Snow Showers"
"2002-12-22 21:00","2002","12","22","21:00","-0.3","","-6.6","","62","","26","","30","","19.3","","98.93","","","","-7","","Snow"
"2002-12-22 22:00","2002","12","22","22:00","-0.3","","-6.4","","63","","26","","33","","19.3","","98.95","","","","-7","","Snow"
"2002-12-22 23:00","2002","12","22","23:00","-0.4","","-6.5","","63","","28","","32","","24.1","","98.97","","","","-7","","Snow"
"2002-12-23 00:00","2002","12","23","00:00","-0.5","","-6.4","","64","","25","","32","","24.1","","98.95","","","","-7","","Snow"
"2002-12-23 01:00","2002","12","23","01:00","-0.8","","-6.2","","67","","25","","28","","24.1","","98.94","","","","-7","","Snow"
"2002-12-23 02:00","2002","12","23","02:00","-0.7","","-6.5","","65","","26","","28","","24.1","","98.95","","","","-7","","Snow"
"2002-12-23 03:00","2002","12","23","03:00","-0.6","","-6.6","","64","","25","","24","","24.1","","98.96","","","","-7","","Snow"
"2002-12-23 04:00","2002","12","23","04:00","-1.1","","-6.7","","66","","24","","26","","24.1","","98.96","","","","-7","","Cloudy"
"2002-12-23 05:00","2002","12","23","05:00","-1.0","","-6.9","","64","","26","","26","","24.1","","99.00","","","","-7","","Cloudy"
"2002-12-23 06:00","2002","12","23","06:00","-1.0","","-6.5","","66","","25","","26","","24.1","","98.95","","","","-7","","Cloudy"
"2002-12-23 07:00","2002","12","23","07:00","-1.1","","-6.4","","67","","25","","28","","24.1","","99.00","","","","-8","","Cloudy"
"2002-12-23 08:00","2002","12","23","08:00","-1.0","","-6.3","","67","","25","","32","","19.3","","99.03","","","","-8","","Cloudy"
"2002-12-23 09:00","2002","12","23","09:00","-0.8","","-6.1","","67","","25","","28","","24.1","","99.08","","","","-7","","Cloudy"
"2002-12-23 10:00","2002","12","23","10:00","-0.9","","-6.0","","68","","26","","26","","24.1","","99.10","","","","-7","","Cloudy"
"2002-12-23 11:00","2002","12","23","11:00","-0.7","","-5.9","","68","","26","","32","","24.1","","99.10","","","","-8","","Cloudy"
"2002-12-23 12:00","2002","12","23","12:00","-0.4","","-5.7","","67","","26","","26","","24.1","","99.02","","","","-7","","Cloudy"
"2002-12-23 13:00","2002","12","23","13:00","-0.8","","-5.7","","69","","25","","28","","24.1","","98.95","","","","-7","","Cloudy"
"2002-12-23 14:00","2002","12","23","14:00","-0.9","","-5.8","","69","","25","","35","","24.1","","98.97","","","","-8","","Cloudy"
"2002-12-23 15:00","2002","12","23","15:00","-0.6","","-6.0","","67","","25","","33","","24.1","","99.01","","","","-8","","Snow Showers"
"2002-12-23 16:00","2002","12","23","16:00","-0.2","","-6.3","","63","","28","","35","","24.1","","99.07","","","","-7","","Mostly Cloudy"
"2002-12-23 17:00","2002","12","23","17:00","-0.5","","-9.9","","49","","28","","35","","24.1","","99.19","","","","-8","","Mainly Clear"
"2002-12-23 18:00","2002","12","23","18:00","-1.0","","-10.1","","50","","28","","26","","24.1","","99.24","","","","-7","","Mainly Clear"
"2002-12-23 19:00","2002","12","23","19:00","-1.0","","-10.6","","48","","28","","30","","24.1","","99.39","","","","-8","","Mostly Cloudy"
"2002-12-23 20:00","2002","12","23","20:00","-1.1","","-10.2","","50","","28","","28","","24.1","","99.41","","","","-8","","Mostly Cloudy"
"2002-12-23 21:00","2002","12","23","21:00","-1.2","","-9.9","","52","","28","","19","","24.1","","99.46","","","","-7","","Mostly Cloudy"
"2002-12-23 22:00","2002","12","23","22:00","-1.3","","-9.8","","52","","29","","20","","24.1","","99.55","","","","-7","","Cloudy"
"2002-12-23 23:00","2002","12","23","23:00","-1.5","","-9.7","","54","","29","","19","","24.1","","99.58","","","","-7","","Mostly Cloudy"
"2002-12-24 00:00","2002","12","24","00:00","-1.6","","-9.3","","56","","31","","13","","24.1","","99.59","","","","-6","","Cloudy"
"2002-12-24 01:00","2002","12","24","01:00","-2.1","","-8.5","","62","","1","","13","","24.1","","99.65","","","","-7","","Cloudy"
"2002-12-24 02:00","2002","12","24","02:00","-2.5","","-8.5","","63","","2","","9","","24.1","","99.65","","","","-6","","Mostly Cloudy"
"2002-12-24 03:00","2002","12","24","03:00","-2.7","","-8.8","","63","","2","","9","","24.1","","99.68","","","","-6","","Cloudy"
"2002-12-24 04:00","2002","12","24","04:00","-2.9","","-9.2","","62","","2","","7","","24.1","","99.63","","","","-6","","Cloudy"
"2002-12-24 05:00","2002","12","24","05:00","-3.0","","-9.0","","63","","4","","13","","24.1","","99.57","","","","-8","","Cloudy"
"2002-12-24 06:00","2002","12","24","06:00","-3.5","","-9.7","","62","","4","","15","","24.1","","99.55","","","","-9","","Cloudy"
"2002-12-24 07:00","2002","12","24","07:00","-3.6","","-9.3","","65","","5","","6","","24.1","","99.60","","","","-6","","Mostly Cloudy"
"2002-12-24 08:00","2002","12","24","08:00","-4.0","","-8.7","","70","","5","","7","","24.1","","99.61","","","","-7","","Cloudy"
"2002-12-24 09:00","2002","12","24","09:00","-3.4","","-8.8","","66","","8","","9","","25.0","","99.59","","","","-7","","Mostly Cloudy"
"2002-12-24 10:00","2002","12","24","10:00","-2.6","","-9.3","","60","","12","","15","","25.0","","99.51","","","","-8","","Mostly Cloudy"
"2002-12-24 11:00","2002","12","24","11:00","-2.1","","-9.3","","58","","10","","9","","24.1","","99.54","","","","-6","","Mainly Clear"
"2002-12-24 12:00","2002","12","24","12:00","-2.4","","-9.8","","57","","10","","9","","25.0","","99.38","","","","-6","","Mostly Cloudy"
"2002-12-24 13:00","2002","12","24","13:00","-2.1","","-8.9","","60","","8","","9","","25.0","","99.19","","","","-6","","Mostly Cloudy"
"2002-12-24 14:00","2002","12","24","14:00","-2.2","","-8.6","","61","","7","","13","","25.0","","99.08","","","","-7","","Mostly Cloudy"
"2002-12-24 15:00","2002","12","24","15:00","-1.8","","-7.8","","64","","5","","11","","25.0","","98.99","","","","-6","","Mostly Cloudy"
"2002-12-24 16:00","2002","12","24","16:00","-1.8","","-7.6","","65","","4","","15","","24.1","","98.93","","","","-7","","Mostly Cloudy"
"2002-12-24 17:00","2002","12","24","17:00","-1.8","","-7.4","","66","","4","","11","","24.1","","98.90","","","","-6","","Cloudy"
"2002-12-24 18:00","2002","12","24","18:00","-1.4","","-6.9","","66","","8","","20","","24.1","","98.85","","","","-7","","Cloudy"
"2002-12-24 19:00","2002","12","24","19:00","-1.3","","-6.5","","68","","8","","26","","24.1","","98.73","","","","-8","","Mostly Cloudy"
"2002-12-24 20:00","2002","12","24","20:00","-1.1","","-6.7","","66","","7","","28","","24.1","","98.61","","","","-8","","Cloudy"
"2002-12-24 21:00","2002","12","24","21:00","-1.3","","-6.3","","69","","6","","33","","24.1","","98.46","","","","-8","","Cloudy"
"2002-12-24 22:00","2002","12","24","22:00","-1.3","","-6.5","","68","","7","","30","","24.1","","98.49","","","","-8","","Cloudy"
"2002-12-24 23:00","2002","12","24","23:00","-1.5","","-5.8","","72","","5","","33","","4.8","","98.35","","","","-9","","Snow"
"2002-12-25 00:00","2002","12","25","00:00","-2.6","","-4.3","","88","","5","","33","","3.2","","98.16","","","","-10","","Snow"
"2002-12-25 01:00","2002","12","25","01:00","-2.3","","-4.2","","87","","5","","30","","4.8","","97.98","","","","-9","","Snow"
"2002-12-25 02:00","2002","12","25","02:00","-1.9","","-4.8","","81","","5","","32","","6.4","","97.89","","","","-9","","Snow"
"2002-12-25 03:00","2002","12","25","03:00","-2.6","","-3.8","","91","","5","","30","","0.4","","97.92","","","","-10","","Heavy Snow"
"2002-12-25 04:00","2002","12","25","04:00","-2.5","","-3.7","","91","","4","","33","","3.2","","97.71","","","","-10","","Snow"
"2002-12-25 05:00","2002","12","25","05:00","-2.5","","-4.1","","89","","5","","39","","4.0","","97.70","","","","-11","","Snow"
"2002-12-25 06:00","2002","12","25","06:00","-2.0","","-3.9","","87","","3","","33","","9.7","","97.72","","","","-9","","Snow"
"2002-12-25 07:00","2002","12","25","07:00","-1.4","","-3.8","","84","","3","","24","","19.3","","97.79","","","","-8","","Snow"
"2002-12-25 08:00","2002","12","25","08:00","-1.1","","-3.1","","86","","2","","28","","3.2","","97.80","","","","-8","","Snow"
"2002-12-25 09:00","2002","12","25","09:00","-1.4","","-2.8","","90","","1","","26","","2.4","","97.91","","","","-8","","Snow"
"2002-12-25 10:00","2002","12","25","10:00","-1.5","","-2.8","","91","","36","","26","","1.6","","97.98","","","","-8","","Snow"
"2002-12-25 11:00","2002","12","25","11:00","-1.1","","-3.4","","84","","36","","28","","9.7","","98.01","","","","-8","","Snow"
"2002-12-25 12:00","2002","12","25","12:00","-0.7","","-3.2","","83","","36","","22","","16.1","","98.03","","","","-6","","Snow"
"2002-12-25 13:00","2002","12","25","13:00","-0.8","","-3.0","","85","","35","","30","","2.4","","98.11","","","","-8","","Snow"
"2002-12-25 14:00","2002","12","25","14:00","-0.9","","-2.5","","89","","35","","17","","2.0","","98.22","","","","-6","","Snow"
"2002-12-25 15:00","2002","12","25","15:00","-0.7","","-2.7","","86","","33","","28","","2.4","","98.37","","","","-7","","Snow"
"2002-12-25 16:00","2002","12","25","16:00","-0.5","","-3.6","","80","","35","","24","","24.1","","98.55","","","","-6","","Snow"
"2002-12-25 17:00","2002","12","25","17:00","-0.1","","-4.7","","71","","34","","26","","24.1","","98.73","","","","-6","","Cloudy"
"2002-12-25 18:00","2002","12","25","18:00","-0.3","","-5.4","","68","","33","","24","","25.0","","98.84","","","","-6","","Cloudy"
"2002-12-25 19:00","2002","12","25","19:00","-0.6","","-5.5","","69","","34","","26","","25.0","","98.93","","","","-7","","Cloudy"
"2002-12-25 20:00","2002","12","25","20:00","-0.7","","-5.6","","69","","32","","30","","25.0","","99.01","","","","-7","","Cloudy"
"2002-12-25 21:00","2002","12","25","21:00","-0.7","","-5.3","","71","","32","","19","","25.0","","99.10","","","","-6","","Cloudy"
"2002-12-25 22:00","2002","12","25","22:00","-0.5","","-5.0","","72","","32","","17","","25.0","","99.18","","","","-5","","Cloudy"
"2002-12-25 23:00","2002","12","25","23:00","-0.4","","-5.1","","71","","32","","19","","25.0","","99.22","","","","-6","","Cloudy"
"2002-12-26 00:00","2002","12","26","00:00","-0.3","","-4.8","","72","","31","","19","","24.1","","99.33","","","","-5","","Cloudy"
"2002-12-26 01:00","2002","12","26","01:00","-0.4","","-5.4","","69","","32","","22","","24.1","","99.37","","","","-6","","Cloudy"
"2002-12-26 02:00","2002","12","26","02:00","-0.6","","-5.2","","71","","31","","22","","24.1","","99.46","","","","-6","","Cloudy"
"2002-12-26 03:00","2002","12","26","03:00","-1.0","","-6.2","","68","","31","","24","","24.1","","99.60","","","","-7","","Cloudy"
"2002-12-26 04:00","2002","12","26","04:00","-1.0","","-5.8","","70","","30","","15","","24.1","","99.66","","","","-6","","Cloudy"
"2002-12-26 05:00","2002","12","26","05:00","-1.0","","-5.4","","72","","28","","15","","24.1","","99.67","","","","-6","","Cloudy"
"2002-12-26 06:00","2002","12","26","06:00","-1.0","","-6.2","","68","","29","","22","","24.1","","99.73","","","","-7","","Cloudy"
"2002-12-26 07:00","2002","12","26","07:00","-1.1","","-6.5","","67","","29","","19","","24.1","","99.82","","","","-6","","Snow Showers"
"2002-12-26 08:00","2002","12","26","08:00","-1.4","","-6.2","","70","","29","","17","","12.9","","99.92","","","","-7","","Cloudy"
"2002-12-26 09:00","2002","12","26","09:00","-1.4","","-5.8","","72","","29","","22","","17.7","","99.99","","","","-7","","Cloudy"
"2002-12-26 10:00","2002","12","26","10:00","-1.0","","-5.4","","72","","29","","20","","19.3","","100.06","","","","-7","","Cloudy"
"2002-12-26 11:00","2002","12","26","11:00","-0.8","","-5.4","","71","","27","","22","","19.3","","100.05","","","","-7","","Mostly Cloudy"
"2002-12-26 12:00","2002","12","26","12:00","-0.3","","-5.0","","71","","26","","30","","19.3","","99.99","","","","-7","","Mostly Cloudy"
"2002-12-26 13:00","2002","12","26","13:00","-1.1","","-4.6","","77","","26","","19","","16.1","","99.97","","","","-6","","Mostly Cloudy"
"2002-12-26 14:00","2002","12","26","14:00","-0.3","","-5.0","","71","","26","","32","","16.1","","100.00","","","","-7","","Mostly Cloudy"
"2002-12-26 15:00","2002","12","26","15:00","-0.8","","-5.9","","68","","26","","26","","16.1","","100.02","","","","-7","","Mostly Cloudy"
"2002-12-26 16:00","2002","12","26","16:00","-1.2","","-6.4","","68","","25","","22","","16.1","","100.07","","","","-7","","Mainly Clear"
"2002-12-26 17:00","2002","12","26","17:00","-2.6","","-6.5","","75","","24","","20","","16.1","","100.14","","","","-9","","Mainly Clear"
"2002-12-26 18:00","2002","12","26","18:00","-3.5","","-7.6","","73","","23","","19","","19.3","","100.21","","","","-9","","Clear"
"2002-12-26 19:00","2002","12","26","19:00","-4.5","","-9.3","","69","","24","","22","","19.3","","100.23","","","","-11","","Clear"
"2002-12-26 20:00","2002","12","26","20:00","-5.3","","-9.4","","73","","24","","19","","16.1","","100.29","","","","-12","","Mainly Clear"
"2002-12-26 21:00","2002","12","26","21:00","-5.8","","-11.9","","62","","24","","19","","16.1","","100.32","","","","-12","","Clear"
"2002-12-26 22:00","2002","12","26","22:00","-6.3","","-9.6","","77","","24","","20","","12.9","","100.33","","","","-13","","Clear"
"2002-12-26 23:00","2002","12","26","23:00","-6.8","","-9.3","","82","","25","","20","","11.3","","100.33","","","","-14","","Mostly Cloudy"
"2002-12-27 00:00","2002","12","27","00:00","-6.7","","-9.0","","84","","26","","17","","8.0","","100.29","","","","-13","","Fog"
"2002-12-27 01:00","2002","12","27","01:00","-6.8","","-9.1","","84","","25","","17","","8.0","","100.29","","","","-13","","Fog"
"2002-12-27 02:00","2002","12","27","02:00","-6.5","","-9.1","","82","","25","","20","","8.0","","100.31","","","","-13","","Fog"
"2002-12-27 03:00","2002","12","27","03:00","-6.5","","-9.1","","82","","27","","17","","8.0","","100.34","","","","-13","","Fog"
"2002-12-27 04:00","2002","12","27","04:00","-6.3","","-8.8","","82","","27","","15","","6.4","","100.35","","","","-12","","Snow"
"2002-12-27 05:00","2002","12","27","05:00","-6.5","","-8.9","","83","","22","","15","","6.4","","100.31","","","","-12","","Snow"
"2002-12-27 06:00","2002","12","27","06:00","-6.5","","-8.7","","84","","23","","19","","6.4","","100.32","","","","-13","","Snow"
"2002-12-27 07:00","2002","12","27","07:00","-6.8","","-9.0","","84","","23","","19","","6.4","","100.32","","","","-14","","Snow"
"2002-12-27 08:00","2002","12","27","08:00","-7.1","","-9.1","","86","","22","","22","","4.8","","100.32","","","","-15","","Snow"
"2002-12-27 09:00","2002","12","27","09:00","-7.0","","-9.1","","85","","22","","19","","4.8","","100.34","","","","-14","","Snow"
"2002-12-27 10:00","2002","12","27","10:00","-7.0","","-9.3","","84","","22","","22","","4.8","","100.37","","","","-14","","Snow"
"2002-12-27 11:00","2002","12","27","11:00","-6.8","","-9.1","","84","","23","","15","","4.8","","100.29","","","","-13","","Snow"
"2002-12-27 12:00","2002","12","27","12:00","-6.6","","-9.5","","80","","25","","19","","8.0","","100.19","","","","-13","","Snow"
"2002-12-27 13:00","2002","12","27","13:00","-6.0","","-9.3","","77","","23","","17","","9.7","","100.08","","","","-12","","Snow"
"2002-12-27 14:00","2002","12","27","14:00","-5.6","","-8.9","","78","","22","","19","","11.3","","100.02","","","","-12","","Cloudy"
"2002-12-27 15:00","2002","12","27","15:00","-3.9","","-9.3","","66","","23","","19","","12.9","","99.97","","","","-10","","Cloudy"
"2002-12-27 16:00","2002","12","27","16:00","-4.1","","-8.8","","70","","22","","19","","11.3","","99.97","","","","-10","","Mostly Cloudy"
"2002-12-27 17:00","2002","12","27","17:00","-4.5","","-8.6","","73","","23","","13","","11.3","","99.92","","","","-10","","Mostly Cloudy"
"2002-12-27 18:00","2002","12","27","18:00","-4.7","","-8.8","","73","","24","","15","","16.1","","99.90","","","","-10","","Mostly Cloudy"
"2002-12-27 19:00","2002","12","27","19:00","-5.1","","-8.9","","75","","24","","20","","11.3","","99.88","","","","-12","","Mostly Cloudy"
"2002-12-27 20:00","2002","12","27","20:00","-5.8","","-9.1","","77","","24","","19","","9.7","","99.86","","","","-12","","Haze"
"2002-12-27 21:00","2002","12","27","21:00","-6.1","","-9.8","","75","","24","","15","","9.7","","99.80","","","","-12","","Haze"
"2002-12-27 22:00","2002","12","27","22:00","-6.2","","-10.0","","74","","24","","15","","9.7","","99.78","","","","-12","","Haze"
"2002-12-27 23:00","2002","12","27","23:00","-5.6","","-9.9","","72","","25","","19","","9.7","","99.71","","","","-12","","Haze"
"2002-12-28 00:00","2002","12","28","00:00","-5.5","","-9.7","","72","","24","","19","","9.7","","99.66","","","","-12","","Haze"
"2002-12-28 01:00","2002","12","28","01:00","-5.3","","-9.3","","73","","24","","17","","9.7","","99.59","","","","-11","","Haze"
"2002-12-28 02:00","2002","12","28","02:00","-5.4","","-9.3","","74","","24","","24","","8.0","","99.55","","","","-13","","Haze"
"2002-12-28 03:00","2002","12","28","03:00","-5.0","","-8.9","","74","","23","","20","","8.0","","99.56","","","","-12","","Haze"
"2002-12-28 04:00","2002","12","28","04:00","-4.2","","-8.1","","74","","23","","20","","8.0","","99.51","","","","-11","","Haze"
"2002-12-28 05:00","2002","12","28","05:00","-3.6","","-7.5","","74","","23","","22","","8.0","","99.43","","","","-10","","Haze"
"2002-12-28 06:00","2002","12","28","06:00","-2.8","","-6.3","","77","","24","","24","","8.0","","99.38","","","","-9","","Haze"
"2002-12-28 07:00","2002","12","28","07:00","-2.6","","-4.6","","86","","25","","20","","6.4","","99.40","","","","-9","","Fog"
"2002-12-28 08:00","2002","12","28","08:00","-2.4","","-3.8","","90","","25","","19","","1.2","","99.38","","","","-8","","Fog"
"2002-12-28 09:00","2002","12","28","09:00","-1.9","","-2.9","","93","","24","","20","","1.2","","99.36","","","","-8","","Fog"
"2002-12-28 10:00","2002","12","28","10:00","-1.1","","-3.2","","86","","24","","26","","2.4","","99.30","","","","-7","","Fog"
"2002-12-28 11:00","2002","12","28","11:00","-0.5","","-3.4","","81","","23","","26","","4.8","","99.18","","","","-7","","Haze"
"2002-12-28 12:00","2002","12","28","12:00","0.1","","-3.7","","76","","25","","24","","6.4","","99.12","","","","","","Haze"
"2002-12-28 13:00","2002","12","28","13:00","0.4","","-3.2","","77","","25","","30","","6.4","","99.06","","","","","","Haze"
"2002-12-28 14:00","2002","12","28","14:00","0.2","","-2.6","","81","","25","","19","","1.2","","99.03","","","","","","Snow"
"2002-12-28 15:00","2002","12","28","15:00","0.0","","-2.7","","82","","24","","17","","1.0","","98.98","","","","-5","","Snow"
"2002-12-28 16:00","2002","12","28","16:00","-0.2","","-2.6","","84","","23","","13","","1.0","","98.96","","","","-4","","Snow"
"2002-12-28 17:00","2002","12","28","17:00","-0.1","","-2.6","","83","","23","","17","","1.2","","99.00","","","","-5","","Snow"
"2002-12-28 18:00","2002","12","28","18:00","-0.3","","-2.7","","84","","22","","15","","4.0","","99.02","","","","-5","","Snow"
"2002-12-28 19:00","2002","12","28","19:00","-0.1","","-1.8","","88","","23","","11","","8.0","","99.06","","","","-4","","Snow"
"2002-12-28 20:00","2002","12","28","20:00","0.0","","-1.9","","87","","24","","11","","8.0","","99.08","","","","-4","","Snow,Fog"
"2002-12-28 21:00","2002","12","28","21:00","0.0","","-2.5","","83","","26","","9","","8.0","","99.11","","","","-3","","Snow,Haze"
"2002-12-28 22:00","2002","12","28","22:00","0.2","","-3.1","","78","","25","","13","","8.0","","99.16","","","","","","Haze"
"2002-12-28 23:00","2002","12","28","23:00","0.2","","-2.2","","84","","25","","20","","9.7","","99.13","","","","","","Haze"
"2002-12-29 00:00","2002","12","29","00:00","0.4","","-2.3","","82","","31","","11","","8.0","","99.21","","","","","","Haze"
"2002-12-29 01:00","2002","12","29","01:00","0.7","","-3.3","","75","","33","","20","","8.0","","99.26","","","","","","Haze"
"2002-12-29 02:00","2002","12","29","02:00","0.8","","-3.2","","75","","31","","9","","8.0","","99.33","","","","","","Haze"
"2002-12-29 03:00","2002","12","29","03:00","0.0","","-3.3","","78","","27","","4","","8.0","","99.42","","","","-1","","Haze"
"2002-12-29 04:00","2002","12","29","04:00","0.1","","-3.3","","78","","27","","7","","8.0","","99.48","","","","","","Haze"
"2002-12-29 05:00","2002","12","29","05:00","-0.5","","-3.7","","79","","25","","6","","6.4","","99.51","","","","-3","","Haze"
"2002-12-29 06:00","2002","12","29","06:00","-0.6","","-3.6","","80","","26","","6","","8.0","","99.58","","","","-3","","Haze"
"2002-12-29 07:00","2002","12","29","07:00","-0.6","","-3.7","","80","","24","","9","","8.0","","99.69","","","","-4","","Haze"
"2002-12-29 08:00","2002","12","29","08:00","-0.5","","-3.6","","80","","27","","6","","6.4","","99.72","","","","-3","","Haze"
"2002-12-29 09:00","2002","12","29","09:00","-0.1","","-3.4","","78","","","","0","","9.7","","99.81","","","","","","Haze"
"2002-12-29 10:00","2002","12","29","10:00","0.6","","-3.5","","74","","23","","4","","9.7","","99.91","","","","","","Haze"
"2002-12-29 11:00","2002","12","29","11:00","0.4","","-3.6","","74","","23","","9","","8.0","","99.94","","","","","","Haze"
"2002-12-29 12:00","2002","12","29","12:00","0.7","","-2.7","","78","","21","","11","","8.0","","99.89","","","","","","Haze"
"2002-12-29 13:00","2002","12","29","13:00","0.9","","-3.0","","75","","21","","7","","8.0","","99.85","","","","","","Haze"
"2002-12-29 14:00","2002","12","29","14:00","0.6","","-3.4","","75","","19","","7","","8.0","","99.80","","","","","","Haze"
"2002-12-29 15:00","2002","12","29","15:00","0.7","","-3.5","","73","","18","","7","","8.0","","99.86","","","","","","Haze"
"2002-12-29 16:00","2002","12","29","16:00","0.2","","-3.2","","78","","18","","7","","4.8","","99.89","","","","","","Haze"
"2002-12-29 17:00","2002","12","29","17:00","-0.3","","-3.4","","80","","14","","9","","3.2","","99.86","","","","-3","","Haze"
"2002-12-29 18:00","2002","12","29","18:00","-0.6","","-3.4","","81","","14","","7","","4.0","","99.84","","","","-3","","Haze"
"2002-12-29 19:00","2002","12","29","19:00","-1.4","","-3.1","","88","","14","","7","","4.0","","99.87","","","","-4","","Fog"
"2002-12-29 20:00","2002","12","29","20:00","-1.9","","-3.2","","91","","12","","11","","3.2","","99.83","","","","-6","","Fog"
"2002-12-29 21:00","2002","12","29","21:00","-2.3","","-3.4","","92","","11","","11","","3.2","","99.82","","","","-6","","Fog"
"2002-12-29 22:00","2002","12","29","22:00","-2.8","","-3.6","","94","","9","","6","","0.2","","99.82","","","","-5","","Freezing Fog"
"2002-12-29 23:00","2002","12","29","23:00","-4.1","","-4.6","","96","","9","","13","","0.0","","99.75","","","","-9","","Freezing Fog"
"2002-12-30 00:00","2002","12","30","00:00","-2.7","","-6.1","","77","","11","","6","","3.2","","99.71","","","","-5","","Fog"
"2002-12-30 01:00","2002","12","30","01:00","-2.1","","-5.3","","79","","12","","15","","6.4","","99.60","","","","-7","","Haze"
"2002-12-30 02:00","2002","12","30","02:00","-1.4","","-4.6","","79","","12","","15","","6.4","","99.53","","","","-6","","Haze"
"2002-12-30 03:00","2002","12","30","03:00","-0.2","","-2.2","","86","","14","","20","","8.0","","99.47","","","","-5","","Haze"
"2002-12-30 04:00","2002","12","30","04:00","-0.1","","-2.3","","85","","14","","20","","9.7","","99.38","","","","-5","","Haze"
"2002-12-30 05:00","2002","12","30","05:00","0.1","","-2.9","","80","","14","","19","","11.3","","99.27","","","","","","Mostly Cloudy"
"2002-12-30 06:00","2002","12","30","06:00","0.3","","-2.6","","81","","14","","19","","12.9","","99.17","","","","","","Cloudy"
"2002-12-30 07:00","2002","12","30","07:00","1.5","","-3.3","","70","","16","","11","","12.9","","99.14","","","","","","Rain"
"2002-12-30 08:00","2002","12","30","08:00","1.3","","-0.7","","87","","16","","15","","3.2","","99.06","","","","","","Fog"
"2002-12-30 09:00","2002","12","30","09:00","1.8","","0.1","","88","","16","","19","","2.4","","98.99","","","","","","Drizzle,Fog"
"2002-12-30 10:00","2002","12","30","10:00","2.6","","0.3","","85","","16","","15","","3.2","","98.98","","","","","","Haze"
"2002-12-30 11:00","2002","12","30","11:00","2.6","","0.3","","85","","17","","13","","1.6","","98.93","","","","","","Drizzle,Fog"
"2002-12-30 12:00","2002","12","30","12:00","3.1","","1.1","","87","","19","","17","","1.6","","98.76","","","","","","Drizzle,Fog"
"2002-12-30 13:00","2002","12","30","13:00","3.7","","0.5","","80","","20","","20","","2.4","","98.66","","","","","","Haze"
"2002-12-30 14:00","2002","12","30","14:00","3.7","","1.0","","82","","21","","15","","1.0","","98.61","","","","","","Drizzle,Fog"
"2002-12-30 15:00","2002","12","30","15:00","3.9","","1.2","","83","","20","","19","","0.6","","98.58","","","","","","Drizzle,Fog"
"2002-12-30 16:00","2002","12","30","16:00","4.2","","2.3","","87","","20","","17","","0.6","","98.56","","","","","","Drizzle,Fog"
"2002-12-30 17:00","2002","12","30","17:00","4.5","","3.3","","92","","21","","22","","0.4","","98.59","","","","","","Fog"
"2002-12-30 18:00","2002","12","30","18:00","5.0","","3.1","","87","","21","","20","","0.4","","98.59","","","","","","Fog"
"2002-12-30 19:00","2002","12","30","19:00","5.0","","3.0","","87","","21","","22","","0.6","","98.59","","","","","","Fog"
"2002-12-30 20:00","2002","12","30","20:00","6.1","","5.2","","94","","21","","30","","2.8","","98.58","","","","","","Fog"
"2002-12-30 21:00","2002","12","30","21:00","6.6","","5.1","","90","","22","","28","","2.8","","98.59","","","","","","Fog"
"2002-12-30 22:00","2002","12","30","22:00","7.5","","3.8","","77","","22","","28","","4.0","","98.54","","","","","","Haze"
"2002-12-30 23:00","2002","12","30","23:00","8.3","","4.3","","76","","22","","30","","4.8","","98.56","","","","","","Haze"
"2002-12-31 00:00","2002","12","31","00:00","8.7","","4.7","","76","","22","","28","","4.8","","98.54","","","","","","Haze"
"2002-12-31 01:00","2002","12","31","01:00","9.0","","4.4","","73","","22","","26","","6.4","","98.56","","","","","","Haze"
"2002-12-31 02:00","2002","12","31","02:00","9.8","","6.2","","78","","21","","20","","8.0","","98.57","","","","","","Haze"
"2002-12-31 03:00","2002","12","31","03:00","10.2","","6.9","","80","","23","","17","","9.7","","98.65","","","","","","Haze"
"2002-12-31 04:00","2002","12","31","04:00","11.1","","7.6","","79","","27","","26","","9.7","","98.66","","","","","","Haze"
"2002-12-31 05:00","2002","12","31","05:00","9.1","","5.7","","79","","27","","19","","9.7","","98.71","","","","","","Haze"
"2002-12-31 06:00","2002","12","31","06:00","8.3","","3.9","","74","","27","","22","","9.7","","98.73","","","","","","Haze"
"2002-12-31 07:00","2002","12","31","07:00","6.9","","1.7","","69","","29","","20","","9.7","","98.84","","","","","","Haze"
"2002-12-31 08:00","2002","12","31","08:00","5.2","","-0.5","","67","","30","","28","","9.7","","98.93","","","","","","Haze"
"2002-12-31 09:00","2002","12","31","09:00","4.1","","-1.1","","69","","29","","17","","9.7","","99.01","","","","","","Haze"
"2002-12-31 10:00","2002","12","31","10:00","4.1","","-1.0","","69","","28","","15","","8.0","","99.07","","","","","","Haze"
"2002-12-31 11:00","2002","12","31","11:00","3.9","","-0.8","","71","","27","","15","","8.0","","99.06","","","","","","Rain,Haze"
"2002-12-31 12:00","2002","12","31","12:00","3.3","","-0.8","","74","","25","","15","","8.0","","98.98","","","","","","Rain,Haze"
"2002-12-31 13:00","2002","12","31","13:00","3.3","","-1.3","","72","","25","","15","","8.0","","98.94","","","","","","Haze"
"2002-12-31 14:00","2002","12","31","14:00","3.5","","-1.4","","70","","26","","17","","9.7","","98.94","","","","","","Haze"
"2002-12-31 15:00","2002","12","31","15:00","3.7","","-2.3","","65","","26","","17","","12.9","","98.99","","","","","","Mostly Cloudy"
"2002-12-31 16:00","2002","12","31","16:00","3.6","","-3.0","","62","","26","","15","","24.1","","99.11","","","","","","Mostly Cloudy"
"2002-12-31 17:00","2002","12","31","17:00","2.3","","-4.2","","62","","26","","9","","24.1","","99.16","","","","","","Mostly Cloudy"
"2002-12-31 18:00","2002","12","31","18:00","1.2","","-4.8","","64","","27","","7","","24.1","","99.19","","","","","","Mostly Cloudy"
"2002-12-31 19:00","2002","12","31","19:00","0.6","","-4.8","","67","","27","","7","","24.1","","99.32","","","","","","Mostly Cloudy"
"2002-12-31 20:00","2002","12","31","20:00","0.5","","-5.1","","66","","30","","11","","24.1","","99.40","","","","","","Mostly Cloudy"
"2002-12-31 21:00","2002","12","31","21:00","0.3","","-5.4","","66","","33","","6","","24.1","","99.37","","","","","","Mostly Cloudy"
"2002-12-31 22:00","2002","12","31","22:00","0.4","","-5.9","","63","","35","","7","","24.1","","99.36","","","","","","Mostly Cloudy"
"2002-12-31 23:00","2002","12","31","23:00","0.1","","-5.9","","64","","35","","7","","24.1","","99.43","","","","","","Mostly Cloudy"
