"Station Name","WINDSOR A"
"Province","ONTARIO"
"Latitude","42.28"
"Longitude","-82.96"
"Elevation","189.60"
"Climate Identifier","6139525"
"WMO Identifier","71538"
"TC Identifier","YQG"
"All times are specified in Local Standard Time (LST). Add 1 hour to adjust for Daylight Saving Time where and when it is observed."

"Legend"
"E","Estimated"
"M","Missing"
"NA","Not Available"

"Date/Time","Year","Month","Day","Time","Temp (°C)","Temp Flag","Dew Point Temp (°C)","Dew Point Temp Flag","Rel Hum (%)","Rel Hum Flag","Wind Dir (10s deg)","Wind Dir Flag","Wind Spd (km/h)","Wind Spd Flag","Visibility (km)","Visibility Flag","Stn Press (kPa)","Stn Press Flag","Hmdx","Hmdx Flag","Wind Chill","Wind Chill Flag","Weather"
"2008-03-01 00:00","2008","03","01","00:00","-0.8","","-1.6","","94","","29","","22","","0.4","","99.03","","","","-7","","Heavy Snow Showers"
"2008-03-01 01:00","2008","03","01","01:00","-0.9","","-2.4","","90","","27","","20","","11.3","","99.01","","","","-6","","Snow Showers"
"2008-03-01 02:00","2008","03","01","02:00","-0.6","","-2.7","","86","","27","","26","","8.0","","99.03","","","","-7","","Snow Showers"
"2008-03-01 03:00","2008","03","01","03:00","-0.7","","-3.5","","81","","29","","28","","16.1","","99.08","","","","-7","","Snow Showers"
"2008-03-01 04:00","2008","03","01","04:00","-1.9","","-5.1","","79","","28","","22","","24.1","","99.13","","","","-8","","Mainly Clear"
"2008-03-01 05:00","2008","03","01","05:00","-2.1","","-5.7","","76","","29","","20","","24.1","","99.25","","","","-8","","Mainly Clear"
"2008-03-01 06:00","2008","03","01","06:00","-2.7","","-5.8","","79","","28","","17","","24.1","","99.35","","","","-8","","Mainly Clear"
"2008-03-01 07:00","2008","03","01","07:00","-3.0","","-6.0","","80","","30","","20","","24.1","","99.45","","","","-9","","Mainly Clear"
"2008-03-01 08:00","2008","03","01","08:00","-3.6","","-9.7","","63","","29","","19","","24.1","","99.62","","","","-10","","Clear"
"2008-03-01 09:00","2008","03","01","09:00","-3.5","","-9.9","","61","","29","","22","","24.1","","99.69","","","","-10","","Mainly Clear"
"2008-03-01 10:00","2008","03","01","10:00","-2.9","","-9.8","","59","","30","","19","","24.1","","99.75","","","","-9","","Mainly Clear"
"2008-03-01 11:00","2008","03","01","11:00","-2.0","","-8.9","","59","","28","","24","","24.1","","99.80","","","","-8","","Mainly Clear"
"2008-03-01 12:00","2008","03","01","12:00","-1.3","","-8.6","","58","","30","","28","","24.1","","99.87","","","","-8","","Mainly Clear"
"2008-03-01 13:00","2008","03","01","13:00","-0.5","","-8.6","","54","","27","","28","","24.1","","99.86","","","","-7","","Mainly Clear"
"2008-03-01 14:00","2008","03","01","14:00","0.3","","-9.0","","50","","29","","22","","24.1","","99.84","","","","","","Mainly Clear"
"2008-03-01 15:00","2008","03","01","15:00","0.9","","-8.3","","50","","28","","24","","24.1","","99.84","","","","","","Mainly Clear"
"2008-03-01 16:00","2008","03","01","16:00","0.9","","-8.9","","48","","29","","20","","24.1","","99.89","","","","","","Mainly Clear"
"2008-03-01 17:00","2008","03","01","17:00","0.9","","-8.9","","48","","29","","15","","24.1","","99.93","","","","","","Mainly Clear"
"2008-03-01 18:00","2008","03","01","18:00","0.3","","-9.3","","48","","30","","9","","24.1","","99.99","","","","","","Clear"
"2008-03-01 19:00","2008","03","01","19:00","-0.8","","-9.2","","53","","32","","6","","24.1","","100.06","","","","-3","","Clear"
"2008-03-01 20:00","2008","03","01","20:00","-3.6","","-9.3","","65","","13","","13","","24.1","","100.08","","","","-8","","Clear"
"2008-03-01 21:00","2008","03","01","21:00","-5.3","","-9.5","","72","","14","","7","","24.1","","100.10","","","","-9","","Mainly Clear"
"2008-03-01 22:00","2008","03","01","22:00","-6.4","","-9.6","","78","","17","","7","","24.1","","100.16","","","","-10","","Mainly Clear"
"2008-03-01 23:00","2008","03","01","23:00","-7.9","","-11.2","","77","","16","","4","","24.1","","100.20","","","","-10","","Mainly Clear"
"2008-03-02 00:00","2008","03","02","00:00","-7.5","","-10.6","","78","","10","","6","","24.1","","100.18","","","","-11","","Mainly Clear"
"2008-03-02 01:00","2008","03","02","01:00","-5.4","","-9.0","","76","","13","","7","","24.1","","100.17","","","","-9","","Mostly Cloudy"
"2008-03-02 02:00","2008","03","02","02:00","-4.7","","-8.8","","73","","10","","7","","24.1","","100.16","","","","-8","","Cloudy"
"2008-03-02 03:00","2008","03","02","03:00","-4.3","","-8.5","","72","","10","","7","","24.1","","100.14","","","","-7","","Cloudy"
"2008-03-02 04:00","2008","03","02","04:00","-3.3","","-7.6","","72","","12","","7","","24.1","","100.11","","","","-6","","Cloudy"
"2008-03-02 05:00","2008","03","02","05:00","-2.6","","-6.5","","75","","12","","9","","24.1","","100.10","","","","-6","","Cloudy"
"2008-03-02 06:00","2008","03","02","06:00","-2.4","","-5.9","","77","","14","","9","","24.1","","100.11","","","","-6","","Cloudy"
"2008-03-02 07:00","2008","03","02","07:00","-2.3","","-5.2","","80","","12","","13","","16.1","","100.07","","","","-7","","Cloudy"
"2008-03-02 08:00","2008","03","02","08:00","-1.5","","-5.2","","76","","14","","15","","24.1","","100.07","","","","-6","","Cloudy"
"2008-03-02 09:00","2008","03","02","09:00","-1.2","","-5.8","","71","","15","","22","","24.1","","100.08","","","","-7","","Cloudy"
"2008-03-02 10:00","2008","03","02","10:00","-0.7","","-6.1","","67","","15","","22","","24.1","","100.05","","","","-6","","Mostly Cloudy"
"2008-03-02 11:00","2008","03","02","11:00","-0.5","","-5.8","","67","","14","","28","","24.1","","99.99","","","","-7","","Mostly Cloudy"
"2008-03-02 12:00","2008","03","02","12:00","0.3","","-5.1","","67","","14","","28","","24.1","","99.91","","","","","","Mostly Cloudy"
"2008-03-02 13:00","2008","03","02","13:00","1.0","","-5.1","","64","","14","","26","","24.1","","99.75","","","","","","Mostly Cloudy"
"2008-03-02 14:00","2008","03","02","14:00","2.6","","-3.7","","63","","12","","22","","24.1","","99.65","","","","","","Mostly Cloudy"
"2008-03-02 15:00","2008","03","02","15:00","2.4","","-4.3","","61","","12","","17","","24.1","","99.54","","","","","","Mostly Cloudy"
"2008-03-02 16:00","2008","03","02","16:00","2.3","","-3.8","","64","","11","","17","","19.3","","99.48","","","","","","Cloudy"
"2008-03-02 17:00","2008","03","02","17:00","2.0","","-3.3","","68","","11","","19","","19.3","","99.39","","","","","","Cloudy"
"2008-03-02 18:00","2008","03","02","18:00","1.6","","-2.7","","73","","11","","17","","24.1","","99.36","","","","","","Cloudy"
"2008-03-02 19:00","2008","03","02","19:00","1.8","","-2.3","","74","","11","","17","","24.1","","99.32","","","","","","Cloudy"
"2008-03-02 20:00","2008","03","02","20:00","2.2","","-1.8","","75","","13","","15","","24.1","","99.22","","","","","","Cloudy"
"2008-03-02 21:00","2008","03","02","21:00","3.0","","-1.4","","73","","12","","7","","24.1","","99.22","","","","","","Cloudy"
"2008-03-02 22:00","2008","03","02","22:00","3.6","","-1.4","","70","","16","","19","","24.1","","99.10","","","","","","Mainly Clear"
"2008-03-02 23:00","2008","03","02","23:00","3.8","","-0.8","","72","","17","","15","","24.1","","99.00","","","","","","Mainly Clear"
"2008-03-03 00:00","2008","03","03","00:00","5.1","","0.6","","73","","19","","22","","24.1","","98.95","","","","","","Mainly Clear"
"2008-03-03 01:00","2008","03","03","01:00","5.8","","2.1","","77","","20","","22","","24.1","","98.90","","","","","","Mainly Clear"
"2008-03-03 02:00","2008","03","03","02:00","6.1","","2.4","","77","","20","","22","","24.1","","98.84","","","","","","Mainly Clear"
"2008-03-03 03:00","2008","03","03","03:00","5.8","","2.5","","79","","20","","22","","24.1","","98.77","","","","","","Mostly Cloudy"
"2008-03-03 04:00","2008","03","03","04:00","5.8","","2.7","","80","","20","","17","","24.1","","98.69","","","","","","Rain Showers"
"2008-03-03 05:00","2008","03","03","05:00","7.4","","3.5","","76","","20","","24","","24.1","","98.63","","","","","","Cloudy"
"2008-03-03 06:00","2008","03","03","06:00","7.2","","3.4","","77","","20","","28","","24.1","","98.62","","","","","","Cloudy"
"2008-03-03 07:00","2008","03","03","07:00","6.9","","3.4","","78","","20","","24","","19.3","","98.64","","","","","","Mostly Cloudy"
"2008-03-03 08:00","2008","03","03","08:00","7.4","","3.6","","77","","20","","26","","19.3","","98.58","","","","","","Mainly Clear"
"2008-03-03 09:00","2008","03","03","09:00","8.4","","3.6","","72","","20","","28","","19.3","","98.59","","","","","","Mostly Cloudy"
"2008-03-03 10:00","2008","03","03","10:00","9.1","","3.5","","68","","21","","30","","24.1","","98.61","","","","","","Cloudy"
"2008-03-03 11:00","2008","03","03","11:00","9.3","","3.6","","68","","20","","30","","19.3","","98.54","","","","","","Cloudy"
"2008-03-03 12:00","2008","03","03","12:00","10.4","","4.1","","65","","20","","32","","24.1","","98.47","","","","","","Mostly Cloudy"
"2008-03-03 13:00","2008","03","03","13:00","12.9","","5.7","","62","","20","","33","","24.1","","98.37","","","","","","Cloudy"
"2008-03-03 14:00","2008","03","03","14:00","11.6","","5.2","","65","","21","","30","","24.1","","98.28","","","","","","Rain Showers"
"2008-03-03 15:00","2008","03","03","15:00","13.7","","7.1","","64","","24","","37","","24.1","","98.34","","","","","","Rain Showers"
"2008-03-03 16:00","2008","03","03","16:00","10.4","","9.3","","93","","24","","35","","4.0","","98.41","","","","","","Rain Showers"
"2008-03-03 17:00","2008","03","03","17:00","8.2","","7.1","","93","","29","","35","","6.4","","98.50","","","","","","Rain,Fog"
"2008-03-03 18:00","2008","03","03","18:00","5.8","","4.6","","92","","29","","20","","6.4","","98.64","","","","","","Rain,Fog"
"2008-03-03 19:00","2008","03","03","19:00","4.1","","2.7","","91","","33","","17","","9.7","","98.71","","","","","","Rain,Fog"
"2008-03-03 20:00","2008","03","03","20:00","2.7","","1.2","","90","","32","","22","","11.3","","98.79","","","","","","Rain"
"2008-03-03 21:00","2008","03","03","21:00","1.3","","-0.2","","90","","33","","20","","8.0","","98.97","","","","","","Rain,Ice Pellets,Fog"
"2008-03-03 22:00","2008","03","03","22:00","0.5","","-0.2","","95","","34","","11","","3.2","","99.01","","","","","","Snow"
"2008-03-03 23:00","2008","03","03","23:00","0.6","","0.0","","96","","31","","4","","11.3","","99.03","","","","","","Snow"
"2008-03-04 00:00","2008","03","04","00:00","1.1","","0.0","","92","","32","","9","","19.3","","99.11","","","","","","Snow"
"2008-03-04 01:00","2008","03","04","01:00","0.8","","-0.9","","88","","35","","13","","9.7","","99.21","","","","","","Snow,Fog"
"2008-03-04 02:00","2008","03","04","02:00","0.1","","-1.6","","88","","36","","20","","11.3","","99.29","","","","","","Cloudy"
"2008-03-04 03:00","2008","03","04","03:00","-0.3","","-3.2","","81","","1","","17","","16.1","","99.28","","","","-5","","Cloudy"
"2008-03-04 04:00","2008","03","04","04:00","-0.8","","-5.0","","73","","3","","20","","24.1","","99.33","","","","-6","","Cloudy"
"2008-03-04 05:00","2008","03","04","05:00","-1.5","","-5.9","","72","","4","","26","","24.1","","99.35","","","","-8","","Cloudy"
"2008-03-04 06:00","2008","03","04","06:00","-1.9","","-6.4","","71","","3","","26","","24.1","","99.42","","","","-8","","Cloudy"
"2008-03-04 07:00","2008","03","04","07:00","-2.4","","-7.1","","70","","4","","26","","24.1","","99.46","","","","-9","","Cloudy"
"2008-03-04 08:00","2008","03","04","08:00","-2.6","","-6.4","","75","","4","","33","","24.1","","99.46","","","","-10","","Mostly Cloudy"
"2008-03-04 09:00","2008","03","04","09:00","-3.0","","-6.5","","77","","5","","30","","24.1","","99.46","","","","-10","","Mostly Cloudy"
"2008-03-04 10:00","2008","03","04","10:00","-2.9","","-6.8","","74","","4","","30","","24.1","","99.46","","","","-10","","Mostly Cloudy"
"2008-03-04 11:00","2008","03","04","11:00","-2.4","","-6.5","","73","","4","","30","","24.1","","99.39","","","","-10","","Mostly Cloudy"
"2008-03-04 12:00","2008","03","04","12:00","-2.0","","-5.7","","76","","4","","32","","24.1","","99.37","","","","-9","","Cloudy"
"2008-03-04 13:00","2008","03","04","13:00","-1.6","","-5.7","","74","","5","","39","","24.1","","99.17","","","","-9","","Cloudy"
"2008-03-04 14:00","2008","03","04","14:00","-2.1","","-6.0","","75","","4","","35","","24.1","","99.08","","","","-10","","Cloudy"
"2008-03-04 15:00","2008","03","04","15:00","-2.2","","-6.6","","72","","4","","32","","24.1","","98.93","","","","-10","","Cloudy"
"2008-03-04 16:00","2008","03","04","16:00","-2.3","","-6.4","","73","","4","","28","","24.1","","98.89","","","","-9","","Cloudy"
"2008-03-04 17:00","2008","03","04","17:00","-2.6","","-6.7","","73","","4","","33","","16.1","","98.73","","","","-10","","Snow"
"2008-03-04 18:00","2008","03","04","18:00","-3.0","","-6.5","","77","","4","","37","","3.2","","98.61","","","","-11","","Snow"
"2008-03-04 19:00","2008","03","04","19:00","-3.3","","-5.9","","82","","3","","33","","4.0","","98.55","","","","-11","","Snow,Ice Pellets"
"2008-03-04 20:00","2008","03","04","20:00","-3.3","","-5.0","","88","","3","","35","","1.2","","98.46","","","","-11","","Snow"
"2008-03-04 21:00","2008","03","04","21:00","-3.6","","-4.7","","92","","2","","33","","0.8","","98.42","","","","-12","","Moderate Snow"
"2008-03-04 22:00","2008","03","04","22:00","-4.1","","-5.3","","91","","2","","30","","0.6","","98.31","","","","-12","","Moderate Snow,Blowing Snow"
"2008-03-04 23:00","2008","03","04","23:00","-4.3","","-5.7","","90","","3","","46","","1.0","","98.11","","","","-14","","Snow,Blowing Snow"
"2008-03-05 00:00","2008","03","05","00:00","-4.3","","-5.8","","89","","2","","32","","1.6","","98.10","","","","-12","","Snow,Ice Pellets,Blowing Snow"
"2008-03-05 01:00","2008","03","05","01:00","-4.4","","-5.8","","90","","34","","32","","1.2","","98.14","","","","-12","","Snow,Blowing Snow"
"2008-03-05 02:00","2008","03","05","02:00","-4.2","","-5.7","","89","","34","","24","","1.2","","98.12","","","","-11","","Snow"
"2008-03-05 03:00","2008","03","05","03:00","-3.9","","-5.2","","91","","34","","26","","0.4","","98.13","","","","-11","","Heavy Snow"
"2008-03-05 04:00","2008","03","05","04:00","-3.6","","-4.9","","91","","34","","24","","1.2","","98.19","","","","-10","","Snow"
"2008-03-05 05:00","2008","03","05","05:00","-3.5","","-4.8","","91","","35","","20","","2.0","","98.23","","","","-10","","Snow"
"2008-03-05 06:00","2008","03","05","06:00","-3.3","","-4.9","","89","","33","","26","","4.0","","98.31","","","","-10","","Snow"
"2008-03-05 07:00","2008","03","05","07:00","-2.9","","-6.0","","79","","32","","28","","12.9","","98.47","","","","-10","","Snow"
"2008-03-05 08:00","2008","03","05","08:00","-2.7","","-6.6","","74","","32","","19","","24.1","","98.59","","","","-8","","Mostly Cloudy"
"2008-03-05 09:00","2008","03","05","09:00","-2.6","","-6.6","","74","","32","","15","","24.1","","98.69","","","","-8","","Mainly Clear"
"2008-03-05 10:00","2008","03","05","10:00","-2.1","","-6.3","","73","","29","","17","","24.1","","98.86","","","","-7","","Mostly Cloudy"
"2008-03-05 11:00","2008","03","05","11:00","-1.2","","-6.3","","68","","27","","17","","24.1","","98.91","","","","-6","","Clear"
"2008-03-05 12:00","2008","03","05","12:00","-0.2","","-6.8","","61","","28","","20","","24.1","","99.00","","","","-5","","Clear"
"2008-03-05 13:00","2008","03","05","13:00","0.9","","-7.2","","55","","26","","17","","24.1","","98.96","","","","","","Clear"
"2008-03-05 14:00","2008","03","05","14:00","2.0","","-7.9","","48","","26","","15","","24.1","","98.96","","","","","","Clear"
"2008-03-05 15:00","2008","03","05","15:00","1.2","","-6.1","","58","","21","","7","","24.1","","98.98","","","","","","Mainly Clear"
"2008-03-05 16:00","2008","03","05","16:00","0.5","","-5.9","","62","","21","","26","","24.1","","99.00","","","","","","Mainly Clear"
"2008-03-05 17:00","2008","03","05","17:00","0.0","","-6.6","","61","","22","","24","","24.1","","99.13","","","","-6","","Mostly Cloudy"
"2008-03-05 18:00","2008","03","05","18:00","-0.7","","-6.9","","63","","23","","28","","24.1","","99.21","","","","-7","","Cloudy"
"2008-03-05 19:00","2008","03","05","19:00","-1.0","","-7.2","","63","","23","","19","","24.1","","99.27","","","","-6","","Cloudy"
"2008-03-05 20:00","2008","03","05","20:00","-1.6","","-7.2","","66","","22","","17","","24.1","","99.30","","","","-7","","Cloudy"
"2008-03-05 21:00","2008","03","05","21:00","-1.8","","-7.2","","67","","23","","24","","24.1","","99.36","","","","-8","","Mostly Cloudy"
"2008-03-05 22:00","2008","03","05","22:00","-1.9","","-5.4","","77","","21","","15","","24.1","","99.37","","","","-7","","Cloudy"
"2008-03-05 23:00","2008","03","05","23:00","-1.5","","-6.5","","69","","22","","19","","24.1","","99.39","","","","-7","","Cloudy"
"2008-03-06 00:00","2008","03","06","00:00","-1.5","","-6.1","","71","","21","","20","","24.1","","99.38","","","","-7","","Cloudy"
"2008-03-06 01:00","2008","03","06","01:00","-1.3","","-5.2","","75","","23","","15","","24.1","","99.42","","","","-6","","Cloudy"
"2008-03-06 02:00","2008","03","06","02:00","-1.4","","-4.8","","78","","22","","19","","24.1","","99.43","","","","-7","","Snow Showers"
"2008-03-06 03:00","2008","03","06","03:00","-1.4","","-4.5","","79","","21","","9","","24.1","","99.37","","","","-5","","Cloudy"
"2008-03-06 04:00","2008","03","06","04:00","-1.8","","-3.6","","87","","21","","19","","24.1","","99.36","","","","-7","","Cloudy"
"2008-03-06 05:00","2008","03","06","05:00","-2.5","","-4.6","","85","","21","","15","","24.1","","99.39","","","","-7","","Mostly Cloudy"
"2008-03-06 06:00","2008","03","06","06:00","-2.6","","-4.6","","86","","20","","15","","12.9","","99.40","","","","-8","","Mostly Cloudy"
"2008-03-06 07:00","2008","03","06","07:00","-2.2","","-4.2","","86","","20","","13","","4.0","","99.42","","","","-7","","Fog"
"2008-03-06 08:00","2008","03","06","08:00","-1.4","","-3.5","","86","","22","","13","","8.0","","99.45","","","","-6","","Haze"
"2008-03-06 09:00","2008","03","06","09:00","-0.5","","-3.4","","81","","22","","19","","8.0","","99.51","","","","-6","","Haze"
"2008-03-06 10:00","2008","03","06","10:00","0.6","","-2.8","","78","","22","","17","","8.0","","99.55","","","","","","Snow Showers,Haze"
"2008-03-06 11:00","2008","03","06","11:00","1.4","","-2.5","","75","","22","","20","","8.0","","99.60","","","","","","Snow Showers,Haze"
"2008-03-06 12:00","2008","03","06","12:00","1.6","","-1.8","","78","","22","","15","","8.0","","99.66","","","","","","Snow Showers,Haze"
"2008-03-06 13:00","2008","03","06","13:00","2.0","","-1.9","","75","","25","","17","","9.7","","99.66","","","","","","Haze"
"2008-03-06 14:00","2008","03","06","14:00","2.6","","-2.7","","68","","23","","17","","11.3","","99.64","","","","","","Cloudy"
"2008-03-06 15:00","2008","03","06","15:00","2.7","","-1.9","","72","","22","","15","","12.9","","99.68","","","","","","Mostly Cloudy"
"2008-03-06 16:00","2008","03","06","16:00","3.0","","-2.4","","68","","22","","19","","19.3","","99.71","","","","","","Mostly Cloudy"
"2008-03-06 17:00","2008","03","06","17:00","3.6","","-5.1","","53","","26","","17","","24.1","","99.71","","","","","","Mostly Cloudy"
"2008-03-06 18:00","2008","03","06","18:00","2.7","","-5.9","","53","","26","","15","","24.1","","99.74","","","","","","Mostly Cloudy"
"2008-03-06 19:00","2008","03","06","19:00","1.8","","-5.5","","58","","24","","11","","19.3","","99.79","","","","","","Mostly Cloudy"
"2008-03-06 20:00","2008","03","06","20:00","0.9","","-5.1","","64","","22","","7","","19.3","","99.86","","","","","","Cloudy"
"2008-03-06 21:00","2008","03","06","21:00","0.2","","-5.2","","67","","26","","7","","19.3","","99.88","","","","","","Cloudy"
"2008-03-06 22:00","2008","03","06","22:00","-1.0","","-5.8","","70","","28","","9","","19.3","","99.92","","","","-4","","Mostly Cloudy"
"2008-03-06 23:00","2008","03","06","23:00","-1.3","","-6.7","","67","","29","","7","","24.1","","99.98","","","","-4","","Mostly Cloudy"
"2008-03-07 00:00","2008","03","07","00:00","-1.4","","-6.8","","67","","33","","11","","24.1","","100.01","","","","-5","","Mostly Cloudy"
"2008-03-07 01:00","2008","03","07","01:00","-0.9","","-8.6","","56","","32","","13","","24.1","","100.07","","","","-5","","Cloudy"
"2008-03-07 02:00","2008","03","07","02:00","-1.9","","-9.0","","58","","34","","17","","24.1","","100.07","","","","-7","","Cloudy"
"2008-03-07 03:00","2008","03","07","03:00","-2.8","","-10.4","","56","","34","","13","","24.1","","100.03","","","","-7","","Cloudy"
"2008-03-07 04:00","2008","03","07","04:00","-3.1","","-11.5","","52","","36","","11","","24.1","","100.06","","","","-7","","Cloudy"
"2008-03-07 05:00","2008","03","07","05:00","-3.7","","-11.7","","54","","36","","26","","24.1","","100.05","","","","-11","","Cloudy"
"2008-03-07 06:00","2008","03","07","06:00","-4.0","","-12.0","","54","","1","","20","","24.1","","100.10","","","","-10","","Cloudy"
"2008-03-07 07:00","2008","03","07","07:00","-4.4","","-12.3","","54","","1","","17","","19.3","","100.13","","","","-10","","Cloudy"
"2008-03-07 08:00","2008","03","07","08:00","-4.7","","-13.3","","51","","36","","15","","24.1","","100.19","","","","-10","","Cloudy"
"2008-03-07 09:00","2008","03","07","09:00","-4.3","","-13.5","","49","","3","","15","","24.1","","100.25","","","","-10","","Cloudy"
"2008-03-07 10:00","2008","03","07","10:00","-4.2","","-14.0","","46","","2","","28","","24.1","","100.06","","","","-12","","Cloudy"
"2008-03-07 11:00","2008","03","07","11:00","-3.6","","-13.8","","45","","4","","19","","24.1","","100.13","","","","-10","","Cloudy"
"2008-03-07 12:00","2008","03","07","12:00","-3.5","","-12.9","","48","","3","","19","","24.1","","100.10","","","","-9","","Cloudy"
"2008-03-07 13:00","2008","03","07","13:00","-3.2","","-13.5","","45","","2","","22","","24.1","","99.93","","","","-10","","Cloudy"
"2008-03-07 14:00","2008","03","07","14:00","-2.9","","-12.2","","49","","4","","22","","24.1","","99.84","","","","-9","","Cloudy"
"2008-03-07 15:00","2008","03","07","15:00","-2.6","","-11.8","","49","","4","","24","","24.1","","99.74","","","","-9","","Cloudy"
"2008-03-07 16:00","2008","03","07","16:00","-3.0","","-10.8","","55","","3","","22","","24.1","","99.73","","","","-9","","Cloudy"
"2008-03-07 17:00","2008","03","07","17:00","-3.2","","-11.1","","54","","3","","22","","24.1","","99.70","","","","-10","","Cloudy"
"2008-03-07 18:00","2008","03","07","18:00","-3.3","","-10.0","","60","","36","","24","","24.1","","99.60","","","","-10","","Cloudy"
"2008-03-07 19:00","2008","03","07","19:00","-3.6","","-8.0","","71","","1","","28","","8.0","","99.52","","","","-11","","Snow Showers"
"2008-03-07 20:00","2008","03","07","20:00","-4.3","","-6.8","","83","","1","","24","","2.0","","99.46","","","","-11","","Snow"
"2008-03-07 21:00","2008","03","07","21:00","-5.1","","-7.1","","86","","2","","28","","0.8","","99.46","","","","-13","","Moderate Snow"
"2008-03-07 22:00","2008","03","07","22:00","-5.2","","-7.8","","82","","1","","24","","3.2","","99.49","","","","-12","","Snow"
"2008-03-07 23:00","2008","03","07","23:00","-5.4","","-8.6","","78","","36","","30","","4.8","","99.41","","","","-14","","Snow"
"2008-03-08 00:00","2008","03","08","00:00","-6.1","","-8.7","","82","","1","","30","","6.4","","99.35","","","","-14","","Snow"
"2008-03-08 01:00","2008","03","08","01:00","-6.2","","-9.0","","81","","36","","22","","4.8","","99.32","","","","-13","","Snow"
"2008-03-08 02:00","2008","03","08","02:00","-6.5","","-9.0","","82","","1","","26","","2.4","","99.23","","","","-14","","Snow"
"2008-03-08 03:00","2008","03","08","03:00","-6.4","","-9.2","","80","","2","","26","","3.2","","99.03","","","","-14","","Snow"
"2008-03-08 04:00","2008","03","08","04:00","-6.3","","-8.9","","82","","2","","20","","4.8","","98.94","","","","-13","","Snow"
"2008-03-08 05:00","2008","03","08","05:00","-6.0","","-8.6","","82","","2","","24","","6.4","","98.91","","","","-13","","Snow"
"2008-03-08 06:00","2008","03","08","06:00","-5.7","","-8.9","","78","","3","","44","","4.0","","98.80","","","","-15","","Snow,Blowing Snow"
"2008-03-08 07:00","2008","03","08","07:00","-5.6","","-9.6","","73","","2","","41","","6.4","","98.73","","","","-15","","Snow,Blowing Snow"
"2008-03-08 08:00","2008","03","08","08:00","-5.6","","-10.2","","70","","3","","35","","3.2","","98.79","","","","-14","","Snow"
"2008-03-08 09:00","2008","03","08","09:00","-5.8","","-7.7","","86","","3","","30","","1.2","","98.65","","","","-14","","Snow"
"2008-03-08 10:00","2008","03","08","10:00","-5.4","","-8.0","","82","","36","","28","","2.0","","98.54","","","","-13","","Snow"
"2008-03-08 11:00","2008","03","08","11:00","-5.6","","-7.8","","84","","1","","37","","1.0","","98.49","","","","-15","","Snow"
"2008-03-08 12:00","2008","03","08","12:00","-5.3","","-7.4","","85","","36","","33","","1.2","","98.40","","","","-14","","Snow"
"2008-03-08 13:00","2008","03","08","13:00","-5.3","","-7.3","","86","","36","","28","","1.0","","98.30","","","","-13","","Snow"
"2008-03-08 14:00","2008","03","08","14:00","-5.5","","-7.3","","87","","35","","28","","1.0","","98.30","","","","-13","","Snow"
"2008-03-08 15:00","2008","03","08","15:00","-5.7","","-8.2","","82","","34","","32","","1.2","","98.38","","","","-14","","Snow"
"2008-03-08 16:00","2008","03","08","16:00","-5.9","","-9.0","","79","","34","","33","","1.6","","98.48","","","","-15","","Snow"
"2008-03-08 17:00","2008","03","08","17:00","-5.6","","-9.0","","77","","34","","20","","1.6","","98.59","","","","-12","","Snow"
"2008-03-08 18:00","2008","03","08","18:00","-5.9","","-8.5","","82","","32","","24","","0.8","","98.77","","","","-13","","Moderate Snow"
"2008-03-08 19:00","2008","03","08","19:00","-5.5","","-11.9","","61","","32","","33","","16.1","","98.92","","","","-14","","Snow"
"2008-03-08 20:00","2008","03","08","20:00","-6.1","","-13.2","","57","","32","","15","","24.1","","99.01","","","","-12","","Cloudy"
"2008-03-08 21:00","2008","03","08","21:00","-7.4","","-13.0","","64","","29","","9","","24.1","","99.13","","","","-12","","Cloudy"
"2008-03-08 22:00","2008","03","08","22:00","-8.6","","-13.0","","70","","26","","9","","24.1","","99.23","","","","-13","","Clear"
"2008-03-08 23:00","2008","03","08","23:00","-8.1","","-14.1","","62","","27","","13","","24.1","","99.32","","","","-14","","Clear"
"2008-03-09 00:00","2008","03","09","00:00","-8.2","","-14.7","","59","","25","","13","","24.1","","99.40","","","","-14","","Clear"
"2008-03-09 01:00","2008","03","09","01:00","-7.9","","-14.1","","61","","27","","17","","24.1","","99.51","","","","-15","","Clear"
"2008-03-09 02:00","2008","03","09","02:00","-8.1","","-13.5","","65","","28","","17","","24.1","","99.62","","","","-15","","Clear"
"2008-03-09 03:00","2008","03","09","03:00","-8.4","","-14.1","","63","","28","","17","","24.1","","99.66","","","","-15","","Clear"
"2008-03-09 04:00","2008","03","09","04:00","-9.3","","-13.8","","70","","28","","17","","24.1","","99.72","","","","-16","","Clear"
"2008-03-09 05:00","2008","03","09","05:00","-9.5","","-13.9","","70","","28","","17","","24.1","","99.82","","","","-17","","Mainly Clear"
"2008-03-09 06:00","2008","03","09","06:00","-9.6","","-15.4","","63","","27","","19","","24.1","","99.93","","","","-17","","Mainly Clear"
"2008-03-09 07:00","2008","03","09","07:00","-9.4","","-14.5","","66","","25","","17","","24.1","","100.07","","","","-16","","Mostly Cloudy"
"2008-03-09 08:00","2008","03","09","08:00","-9.3","","-14.4","","66","","25","","15","","24.1","","100.13","","","","-16","","Mostly Cloudy"
"2008-03-09 09:00","2008","03","09","09:00","-7.7","","-13.9","","61","","24","","15","","24.1","","100.23","","","","-14","","Mainly Clear"
"2008-03-09 10:00","2008","03","09","10:00","-5.5","","-12.3","","59","","25","","19","","24.1","","100.27","","","","-12","","Mainly Clear"
"2008-03-09 11:00","2008","03","09","11:00","-4.3","","-11.4","","58","","24","","19","","24.1","","100.28","","","","-10","","Mostly Cloudy"
"2008-03-09 12:00","2008","03","09","12:00","-3.3","","-9.4","","63","","23","","22","","24.1","","100.30","","","","-10","","Mostly Cloudy"
"2008-03-09 13:00","2008","03","09","13:00","-2.5","","-9.2","","60","","25","","19","","24.1","","100.28","","","","-8","","Mostly Cloudy"
"2008-03-09 14:00","2008","03","09","14:00","-2.0","","-10.1","","54","","27","","22","","24.1","","100.28","","","","-8","","Mostly Cloudy"
"2008-03-09 15:00","2008","03","09","15:00","-1.3","","-9.4","","54","","25","","17","","24.1","","100.29","","","","-6","","Mostly Cloudy"
"2008-03-09 16:00","2008","03","09","16:00","-0.7","","-9.4","","52","","23","","20","","24.1","","100.30","","","","-6","","Mainly Clear"
"2008-03-09 17:00","2008","03","09","17:00","-1.4","","-9.8","","53","","21","","19","","24.1","","100.28","","","","-7","","Mostly Cloudy"
"2008-03-09 18:00","2008","03","09","18:00","-1.6","","-8.9","","57","","20","","17","","24.1","","100.34","","","","-7","","Mostly Cloudy"
"2008-03-09 19:00","2008","03","09","19:00","-2.1","","-8.0","","64","","20","","15","","24.1","","100.38","","","","-7","","Mostly Cloudy"
"2008-03-09 20:00","2008","03","09","20:00","-2.4","","-8.3","","64","","20","","17","","24.1","","100.41","","","","-8","","Mostly Cloudy"
"2008-03-09 21:00","2008","03","09","21:00","-2.6","","-8.3","","65","","22","","15","","24.1","","100.46","","","","-8","","Mostly Cloudy"
"2008-03-09 22:00","2008","03","09","22:00","-1.9","","-7.9","","63","","22","","11","","24.1","","100.48","","","","-6","","Snow Showers"
"2008-03-09 23:00","2008","03","09","23:00","-1.9","","-7.4","","66","","21","","7","","16.1","","100.47","","","","-5","","Snow Showers"
"2008-03-10 00:00","2008","03","10","00:00","-2.1","","-6.8","","70","","","","0","","16.1","","100.46","","","","","","Snow Showers"
"2008-03-10 01:00","2008","03","10","01:00","-2.5","","-6.5","","74","","","","0","","24.1","","100.45","","","","","","Cloudy"
"2008-03-10 02:00","2008","03","10","02:00","-3.8","","-6.9","","79","","18","","4","","24.1","","100.48","","","","-5","","Mainly Clear"
"2008-03-10 03:00","2008","03","10","03:00","-6.6","","-8.5","","86","","13","","6","","24.1","","100.42","","","","-10","","Mainly Clear"
"2008-03-10 04:00","2008","03","10","04:00","-6.6","","-8.4","","87","","","","0","","19.3","","100.42","","","","","","Mostly Cloudy"
"2008-03-10 05:00","2008","03","10","05:00","-6.8","","-8.1","","90","","9","","4","","19.3","","100.43","","","","-9","","Mainly Clear"
"2008-03-10 06:00","2008","03","10","06:00","-7.8","","-9.2","","90","","19","","4","","19.3","","100.45","","","","-10","","Clear"
"2008-03-10 07:00","2008","03","10","07:00","-7.8","","-9.3","","89","","1","","4","","1.6","","100.49","","","","-10","","Fog"
"2008-03-10 08:00","2008","03","10","08:00","-7.4","","-8.8","","90","","14","","4","","0.4","","100.52","","","","-9","","Freezing Fog"
"2008-03-10 09:00","2008","03","10","09:00","-6.1","","-6.9","","94","","","","0","","0.4","","100.51","","","","","","Freezing Fog"
"2008-03-10 10:00","2008","03","10","10:00","-3.9","","-5.0","","92","","12","","6","","2.0","","100.54","","","","-7","","Fog"
"2008-03-10 11:00","2008","03","10","11:00","-2.6","","-4.4","","87","","7","","6","","6.4","","100.49","","","","-5","","Fog"
"2008-03-10 12:00","2008","03","10","12:00","0.3","","-4.2","","72","","15","","4","","11.3","","100.48","","","","","","Mostly Cloudy"
"2008-03-10 13:00","2008","03","10","13:00","0.5","","-4.0","","72","","10","","6","","12.9","","100.41","","","","","","Mostly Cloudy"
"2008-03-10 14:00","2008","03","10","14:00","0.7","","-4.6","","68","","12","","6","","8.0","","100.33","","","","","","Snow Showers"
"2008-03-10 15:00","2008","03","10","15:00","0.6","","-4.4","","69","","12","","6","","16.1","","100.26","","","","","","Cloudy"
"2008-03-10 16:00","2008","03","10","16:00","0.7","","-3.2","","75","","11","","6","","16.1","","100.25","","","","","","Mostly Cloudy"
"2008-03-10 17:00","2008","03","10","17:00","0.3","","-3.3","","77","","9","","7","","11.3","","100.26","","","","","","Mostly Cloudy"
"2008-03-10 18:00","2008","03","10","18:00","-0.4","","-3.5","","80","","14","","7","","11.3","","100.25","","","","-3","","Mostly Cloudy"
"2008-03-10 19:00","2008","03","10","19:00","-0.8","","-3.4","","83","","18","","6","","12.9","","100.25","","","","-3","","Mostly Cloudy"
"2008-03-10 20:00","2008","03","10","20:00","-1.1","","-3.6","","83","","14","","6","","11.3","","100.26","","","","-3","","Mostly Cloudy"
"2008-03-10 21:00","2008","03","10","21:00","-1.5","","-3.0","","89","","18","","4","","8.0","","100.28","","","","-3","","Fog"
"2008-03-10 22:00","2008","03","10","22:00","-1.9","","-3.0","","92","","22","","7","","4.0","","100.24","","","","-5","","Fog"
"2008-03-10 23:00","2008","03","10","23:00","-3.5","","-4.2","","95","","19","","4","","0.2","","100.20","","","","-5","","Freezing Fog"
"2008-03-11 00:00","2008","03","11","00:00","-5.9","","-6.7","","94","","16","","4","","0.0","","100.18","","","","-8","","Freezing Fog"
"2008-03-11 01:00","2008","03","11","01:00","-6.1","","-6.8","","95","","","","0","","0.0","","100.18","","","","","","Freezing Fog"
"2008-03-11 02:00","2008","03","11","02:00","-6.7","","-7.7","","93","","21","","4","","0.2","","100.16","","","","-9","","Freezing Fog"
"2008-03-11 03:00","2008","03","11","03:00","-6.1","","-7.3","","91","","","","0","","9.7","","100.09","","","","","","Fog"
"2008-03-11 04:00","2008","03","11","04:00","-5.9","","-6.9","","93","","26","","9","","24.1","","100.04","","","","-10","","Clear"
"2008-03-11 05:00","2008","03","11","05:00","-6.1","","-7.4","","90","","27","","9","","19.3","","100.01","","","","-10","","Clear"
"2008-03-11 06:00","2008","03","11","06:00","-6.7","","-8.5","","87","","29","","4","","17.7","","99.95","","","","-9","","Clear"
"2008-03-11 07:00","2008","03","11","07:00","-6.4","","-8.4","","86","","22","","7","","12.9","","99.90","","","","-10","","Clear"
"2008-03-11 08:00","2008","03","11","08:00","-5.4","","-7.9","","83","","21","","11","","16.1","","99.82","","","","-10","","Clear"
"2008-03-11 09:00","2008","03","11","09:00","-3.6","","-6.9","","78","","22","","19","","19.3","","99.78","","","","-10","","Mainly Clear"
"2008-03-11 10:00","2008","03","11","10:00","-1.2","","-5.7","","71","","22","","19","","19.3","","99.74","","","","-7","","Mainly Clear"
"2008-03-11 11:00","2008","03","11","11:00","0.0","","-5.8","","65","","21","","26","","19.3","","99.66","","","","-6","","Mainly Clear"
"2008-03-11 12:00","2008","03","11","12:00","0.8","","-5.7","","62","","23","","35","","19.3","","99.52","","","","","","Mainly Clear"
"2008-03-11 13:00","2008","03","11","13:00","1.8","","-5.4","","59","","22","","37","","19.3","","99.38","","","","","","Mainly Clear"
"2008-03-11 14:00","2008","03","11","14:00","1.6","","-5.6","","59","","22","","35","","24.1","","99.23","","","","","","Mostly Cloudy"
"2008-03-11 15:00","2008","03","11","15:00","2.0","","-5.0","","60","","23","","32","","24.1","","99.08","","","","","","Mostly Cloudy"
"2008-03-11 16:00","2008","03","11","16:00","2.1","","-4.8","","60","","23","","35","","24.1","","98.95","","","","","","Mostly Cloudy"
"2008-03-11 17:00","2008","03","11","17:00","1.4","","-3.1","","72","","20","","32","","11.3","","98.79","","","","","","Mostly Cloudy"
"2008-03-11 18:00","2008","03","11","18:00","0.5","","-3.4","","75","","20","","35","","9.7","","98.63","","","","","","Haze"
"2008-03-11 19:00","2008","03","11","19:00","0.7","","-3.3","","75","","22","","30","","9.7","","98.65","","","","","","Haze"
"2008-03-11 20:00","2008","03","11","20:00","1.1","","-3.3","","72","","23","","32","","11.3","","98.62","","","","","","Cloudy"
"2008-03-11 21:00","2008","03","11","21:00","1.1","","-2.8","","75","","23","","22","","11.3","","98.60","","","","","","Cloudy"
"2008-03-11 22:00","2008","03","11","22:00","0.2","","-1.2","","90","","22","","19","","4.8","","98.51","","","","","","Snow Showers"
"2008-03-11 23:00","2008","03","11","23:00","1.2","","-1.5","","82","","25","","17","","9.7","","98.47","","","","","","Haze"
"2008-03-12 00:00","2008","03","12","00:00","1.7","","-1.8","","78","","25","","20","","11.3","","98.49","","","","","","Mostly Cloudy"
"2008-03-12 01:00","2008","03","12","01:00","1.3","","-2.1","","78","","27","","17","","11.3","","98.50","","","","","","Clear"
"2008-03-12 02:00","2008","03","12","02:00","1.7","","-2.3","","75","","28","","15","","9.7","","98.55","","","","","","Haze"
"2008-03-12 03:00","2008","03","12","03:00","0.9","","-2.6","","77","","29","","11","","9.7","","98.57","","","","","","Haze"
"2008-03-12 04:00","2008","03","12","04:00","1.4","","-2.7","","74","","33","","20","","9.7","","98.61","","","","","","Haze"
"2008-03-12 05:00","2008","03","12","05:00","1.2","","-3.3","","72","","33","","11","","12.9","","98.68","","","","","","Mostly Cloudy"
"2008-03-12 06:00","2008","03","12","06:00","1.4","","-3.6","","69","","33","","15","","16.1","","98.76","","","","","","Mostly Cloudy"
"2008-03-12 07:00","2008","03","12","07:00","0.5","","-4.0","","72","","33","","13","","12.9","","98.87","","","","","","Mainly Clear"
"2008-03-12 08:00","2008","03","12","08:00","1.1","","-4.5","","66","","33","","9","","17.7","","98.99","","","","","","Mostly Cloudy"
"2008-03-12 09:00","2008","03","12","09:00","1.6","","-5.5","","59","","1","","19","","20.9","","99.09","","","","","","Mostly Cloudy"
"2008-03-12 10:00","2008","03","12","10:00","2.0","","-5.5","","58","","36","","13","","22.5","","99.16","","","","","","Cloudy"
"2008-03-12 11:00","2008","03","12","11:00","2.1","","-4.9","","60","","2","","15","","24.1","","99.22","","","","","","Mostly Cloudy"
"2008-03-12 12:00","2008","03","12","12:00","2.7","","-5.2","","56","","","","0","","24.1","","99.26","","","","","","Mostly Cloudy"
"2008-03-12 13:00","2008","03","12","13:00","2.8","","-4.4","","59","","10","","9","","19.3","","99.29","","","","","","Mostly Cloudy"
"2008-03-12 14:00","2008","03","12","14:00","3.1","","-4.4","","58","","14","","9","","19.3","","99.26","","","","","","Mostly Cloudy"
"2008-03-12 15:00","2008","03","12","15:00","2.7","","-4.5","","59","","11","","11","","24.1","","99.27","","","","","","Mostly Cloudy"
"2008-03-12 16:00","2008","03","12","16:00","1.7","","-2.6","","73","","8","","19","","24.1","","99.25","","","","","","Mostly Cloudy"
"2008-03-12 17:00","2008","03","12","17:00","0.9","","-3.5","","72","","9","","19","","24.1","","99.29","","","","","","Cloudy"
"2008-03-12 18:00","2008","03","12","18:00","-0.1","","-4.0","","75","","10","","13","","24.1","","99.30","","","","-4","","Cloudy"
"2008-03-12 19:00","2008","03","12","19:00","-0.8","","-4.2","","78","","10","","19","","24.1","","99.28","","","","-6","","Cloudy"
"2008-03-12 20:00","2008","03","12","20:00","-1.3","","-4.6","","78","","9","","13","","24.1","","99.31","","","","-6","","Mostly Cloudy"
"2008-03-12 21:00","2008","03","12","21:00","-1.9","","-4.8","","81","","9","","15","","24.1","","99.27","","","","-7","","Mostly Cloudy"
"2008-03-12 22:00","2008","03","12","22:00","-2.0","","-5.4","","78","","10","","11","","24.1","","99.25","","","","-6","","Mostly Cloudy"
"2008-03-12 23:00","2008","03","12","23:00","-2.3","","-5.7","","77","","9","","9","","24.1","","99.23","","","","-6","","Mostly Cloudy"
"2008-03-13 00:00","2008","03","13","00:00","-2.6","","-5.7","","79","","9","","11","","24.1","","99.13","","","","-7","","Mostly Cloudy"
"2008-03-13 01:00","2008","03","13","01:00","-3.1","","-5.4","","84","","10","","15","","24.1","","99.00","","","","-8","","Mainly Clear"
"2008-03-13 02:00","2008","03","13","02:00","-2.9","","-4.9","","86","","11","","15","","24.1","","98.89","","","","-8","","Mainly Clear"
"2008-03-13 03:00","2008","03","13","03:00","-2.2","","-4.6","","84","","10","","17","","24.1","","98.77","","","","-8","","Mostly Cloudy"
"2008-03-13 04:00","2008","03","13","04:00","-1.6","","-4.3","","82","","11","","13","","24.1","","98.58","","","","-6","","Freezing Rain"
"2008-03-13 05:00","2008","03","13","05:00","-1.2","","-4.5","","78","","12","","28","","24.1","","98.43","","","","-8","","Mostly Cloudy"
"2008-03-13 06:00","2008","03","13","06:00","-0.9","","-4.4","","77","","13","","24","","24.1","","98.28","","","","-7","","Mostly Cloudy"
"2008-03-13 07:00","2008","03","13","07:00","-0.8","","-3.4","","83","","15","","11","","19.3","","98.22","","","","-5","","Mostly Cloudy"
"2008-03-13 08:00","2008","03","13","08:00","0.1","","-3.6","","76","","15","","24","","19.3","","98.06","","","","","","Mostly Cloudy"
"2008-03-13 09:00","2008","03","13","09:00","1.7","","-2.7","","73","","22","","11","","24.1","","98.08","","","","","","Mostly Cloudy"
"2008-03-13 10:00","2008","03","13","10:00","2.7","","-2.1","","71","","23","","20","","9.7","","98.07","","","","","","Haze"
"2008-03-13 11:00","2008","03","13","11:00","3.8","","-0.5","","73","","26","","24","","8.0","","98.13","","","","","","Haze"
"2008-03-13 12:00","2008","03","13","12:00","5.1","","0.4","","72","","25","","28","","9.7","","98.15","","","","","","Haze"
"2008-03-13 13:00","2008","03","13","13:00","7.5","","1.1","","64","","25","","30","","9.7","","98.19","","","","","","Haze"
"2008-03-13 14:00","2008","03","13","14:00","8.4","","1.1","","60","","26","","30","","11.3","","98.22","","","","","","Mostly Cloudy"
"2008-03-13 15:00","2008","03","13","15:00","8.4","","2.2","","65","","22","","24","","12.9","","98.27","","","","","","Mostly Cloudy"
"2008-03-13 16:00","2008","03","13","16:00","9.5","","2.9","","63","","23","","22","","16.1","","98.32","","","","","","Mostly Cloudy"
"2008-03-13 17:00","2008","03","13","17:00","10.4","","0.5","","50","","25","","28","","19.3","","98.41","","","","","","Mostly Cloudy"
"2008-03-13 18:00","2008","03","13","18:00","9.7","","-0.1","","50","","25","","20","","19.3","","98.50","","","","","","Mainly Clear"
"2008-03-13 19:00","2008","03","13","19:00","8.4","","-0.8","","52","","24","","15","","19.3","","98.58","","","","","","Mainly Clear"
"2008-03-13 20:00","2008","03","13","20:00","6.2","","-0.8","","61","","20","","9","","24.1","","98.62","","","","","","Mainly Clear"
"2008-03-13 21:00","2008","03","13","21:00","5.0","","-0.2","","69","","20","","13","","24.1","","98.64","","","","","","Mostly Cloudy"
"2008-03-13 22:00","2008","03","13","22:00","4.7","","1.7","","81","","21","","13","","24.1","","98.66","","","","","","Cloudy"
"2008-03-13 23:00","2008","03","13","23:00","3.9","","1.6","","85","","19","","13","","19.3","","98.58","","","","","","Cloudy"
"2008-03-14 00:00","2008","03","14","00:00","4.4","","1.9","","84","","20","","15","","16.1","","98.56","","","","","","Cloudy"
"2008-03-14 01:00","2008","03","14","01:00","4.3","","1.5","","82","","20","","11","","14.5","","98.51","","","","","","Cloudy"
"2008-03-14 02:00","2008","03","14","02:00","4.4","","1.2","","80","","20","","17","","16.1","","98.47","","","","","","Cloudy"
"2008-03-14 03:00","2008","03","14","03:00","4.5","","0.8","","77","","20","","17","","19.3","","98.45","","","","","","Mostly Cloudy"
"2008-03-14 04:00","2008","03","14","04:00","5.5","","2.0","","78","","22","","20","","14.5","","98.43","","","","","","Rain Showers"
"2008-03-14 05:00","2008","03","14","05:00","4.8","","1.5","","79","","20","","19","","19.3","","98.40","","","","","","Cloudy"
"2008-03-14 06:00","2008","03","14","06:00","4.2","","1.7","","84","","21","","19","","24.1","","98.41","","","","","","Mostly Cloudy"
"2008-03-14 07:00","2008","03","14","07:00","3.8","","1.8","","87","","21","","19","","19.3","","98.44","","","","","","Mostly Cloudy"
"2008-03-14 08:00","2008","03","14","08:00","4.1","","2.5","","89","","22","","13","","16.1","","98.45","","","","","","Mostly Cloudy"
"2008-03-14 09:00","2008","03","14","09:00","5.3","","3.2","","86","","23","","13","","24.1","","98.44","","","","","","Mostly Cloudy"
"2008-03-14 10:00","2008","03","14","10:00","6.9","","3.9","","81","","21","","13","","24.1","","98.44","","","","","","Mostly Cloudy"
"2008-03-14 11:00","2008","03","14","11:00","7.7","","4.2","","78","","20","","13","","24.1","","98.38","","","","","","Mostly Cloudy"
"2008-03-14 12:00","2008","03","14","12:00","8.9","","4.3","","73","","21","","17","","24.1","","98.32","","","","","","Mostly Cloudy"
"2008-03-14 13:00","2008","03","14","13:00","10.0","","5.1","","72","","19","","15","","24.1","","98.23","","","","","","Mostly Cloudy"
"2008-03-14 14:00","2008","03","14","14:00","9.9","","5.1","","72","","18","","13","","24.1","","98.12","","","","","","Cloudy"
"2008-03-14 15:00","2008","03","14","15:00","9.5","","5.0","","73","","18","","13","","19.3","","98.06","","","","","","Cloudy"
"2008-03-14 16:00","2008","03","14","16:00","8.3","","4.8","","79","","18","","19","","19.3","","98.09","","","","","","Cloudy"
"2008-03-14 17:00","2008","03","14","17:00","7.6","","4.6","","81","","19","","20","","16.1","","98.12","","","","","","Mostly Cloudy"
"2008-03-14 18:00","2008","03","14","18:00","6.2","","3.9","","85","","20","","20","","12.9","","98.16","","","","","","Mostly Cloudy"
"2008-03-14 19:00","2008","03","14","19:00","4.8","","3.3","","90","","20","","20","","9.7","","98.20","","","","","","Haze"
"2008-03-14 20:00","2008","03","14","20:00","3.7","","2.6","","93","","21","","7","","8.0","","98.23","","","","","","Fog"
"2008-03-14 21:00","2008","03","14","21:00","3.3","","2.6","","95","","22","","11","","0.4","","98.27","","","","","","Fog"
"2008-03-14 22:00","2008","03","14","22:00","2.4","","2.1","","98","","23","","9","","0.0","","98.33","","","","","","Fog"
"2008-03-14 23:00","2008","03","14","23:00","1.7","","1.3","","97","","26","","6","","0.0","","98.37","","","","","","Fog"
"2008-03-15 00:00","2008","03","15","00:00","1.1","","0.8","","98","","30","","9","","12.9","","98.41","","","","","","Clear"
"2008-03-15 01:00","2008","03","15","01:00","3.7","","0.8","","81","","33","","11","","24.1","","98.44","","","","","","Clear"
"2008-03-15 02:00","2008","03","15","02:00","2.9","","-1.5","","73","","33","","11","","24.1","","98.47","","","","","","Clear"
"2008-03-15 03:00","2008","03","15","03:00","3.0","","-2.2","","69","","32","","7","","24.1","","98.50","","","","","","Clear"
"2008-03-15 04:00","2008","03","15","04:00","2.2","","-2.7","","70","","33","","7","","24.1","","98.51","","","","","","Clear"
"2008-03-15 05:00","2008","03","15","05:00","0.1","","-3.0","","80","","32","","7","","24.1","","98.57","","","","","","Clear"
"2008-03-15 06:00","2008","03","15","06:00","-0.9","","-3.0","","86","","","","0","","24.1","","98.59","","","","","","Clear"
"2008-03-15 07:00","2008","03","15","07:00","-0.8","","-3.1","","84","","34","","4","","24.1","","98.64","","","","-2","","Mainly Clear"
"2008-03-15 08:00","2008","03","15","08:00","1.6","","-1.7","","79","","26","","6","","24.1","","98.77","","","","","","Mainly Clear"
"2008-03-15 09:00","2008","03","15","09:00","3.7","","-1.5","","69","","9","","4","","24.1","","98.77","","","","","","Mostly Cloudy"
"2008-03-15 10:00","2008","03","15","10:00","4.1","","-2.3","","63","","10","","4","","24.1","","98.83","","","","","","Cloudy"
"2008-03-15 11:00","2008","03","15","11:00","4.7","","-1.4","","65","","6","","13","","24.1","","98.85","","","","","","Cloudy"
"2008-03-15 12:00","2008","03","15","12:00","4.5","","-1.4","","65","","8","","13","","24.1","","98.83","","","","","","Cloudy"
"2008-03-15 13:00","2008","03","15","13:00","4.9","","-1.4","","64","","9","","13","","24.1","","98.77","","","","","","Cloudy"
"2008-03-15 14:00","2008","03","15","14:00","4.9","","-1.1","","65","","8","","17","","24.1","","98.70","","","","","","Cloudy"
"2008-03-15 15:00","2008","03","15","15:00","4.4","","-0.7","","69","","10","","15","","24.1","","98.78","","","","","","Cloudy"
"2008-03-15 16:00","2008","03","15","16:00","3.6","","-0.4","","75","","7","","26","","24.1","","98.80","","","","","","Cloudy"
"2008-03-15 17:00","2008","03","15","17:00","2.5","","-1.1","","77","","5","","20","","24.1","","98.87","","","","","","Cloudy"
"2008-03-15 18:00","2008","03","15","18:00","1.8","","-1.4","","79","","4","","15","","24.1","","98.96","","","","","","Cloudy"
"2008-03-15 19:00","2008","03","15","19:00","1.2","","-2.4","","77","","4","","15","","24.1","","99.02","","","","","","Cloudy"
"2008-03-15 20:00","2008","03","15","20:00","0.9","","-3.1","","75","","4","","15","","24.1","","99.08","","","","","","Cloudy"
"2008-03-15 21:00","2008","03","15","21:00","0.3","","-3.0","","78","","3","","22","","24.1","","99.17","","","","","","Cloudy"
"2008-03-15 22:00","2008","03","15","22:00","0.2","","-3.6","","76","","4","","17","","24.1","","99.24","","","","","","Cloudy"
"2008-03-15 23:00","2008","03","15","23:00","-0.3","","-3.8","","77","","3","","15","","24.1","","99.29","","","","-5","","Mostly Cloudy"
"2008-03-16 00:00","2008","03","16","00:00","-0.8","","-4.6","","75","","36","","9","","24.1","","99.37","","","","-4","","Mostly Cloudy"
"2008-03-16 01:00","2008","03","16","01:00","-1.0","","-4.8","","75","","34","","7","","24.1","","99.42","","","","-4","","Mostly Cloudy"
"2008-03-16 02:00","2008","03","16","02:00","-0.9","","-4.8","","75","","34","","9","","24.1","","99.48","","","","-4","","Mostly Cloudy"
"2008-03-16 03:00","2008","03","16","03:00","-0.9","","-4.9","","74","","34","","9","","24.1","","99.56","","","","-4","","Mostly Cloudy"
"2008-03-16 04:00","2008","03","16","04:00","-0.4","","-5.9","","66","","34","","11","","24.1","","99.62","","","","-4","","Mostly Cloudy"
"2008-03-16 05:00","2008","03","16","05:00","-0.5","","-6.8","","62","","33","","15","","24.1","","99.71","","","","-5","","Mainly Clear"
"2008-03-16 06:00","2008","03","16","06:00","-0.5","","-6.6","","63","","34","","17","","24.1","","99.78","","","","-5","","Mostly Cloudy"
"2008-03-16 07:00","2008","03","16","07:00","-0.7","","-6.7","","64","","35","","7","","24.1","","99.90","","","","-3","","Mostly Cloudy"
"2008-03-16 08:00","2008","03","16","08:00","-0.1","","-6.7","","61","","35","","13","","24.1","","100.02","","","","-4","","Mostly Cloudy"
"2008-03-16 09:00","2008","03","16","09:00","0.3","","-6.6","","60","","36","","19","","24.1","","100.11","","","","","","Mostly Cloudy"
"2008-03-16 10:00","2008","03","16","10:00","1.1","","-6.5","","57","","1","","15","","24.1","","100.24","","","","","","Mostly Cloudy"
"2008-03-16 11:00","2008","03","16","11:00","2.0","","-6.2","","55","","33","","11","","24.1","","100.33","","","","","","Mostly Cloudy"
"2008-03-16 12:00","2008","03","16","12:00","2.4","","-6.8","","51","","3","","9","","24.1","","100.42","","","","","","Mostly Cloudy"
"2008-03-16 13:00","2008","03","16","13:00","2.0","","-4.2","","63","","7","","13","","24.1","","100.48","","","","","","Mostly Cloudy"
"2008-03-16 14:00","2008","03","16","14:00","1.6","","-3.7","","68","","6","","15","","24.1","","100.50","","","","","","Mostly Cloudy"
"2008-03-16 15:00","2008","03","16","15:00","1.7","","-4.0","","66","","5","","9","","24.1","","100.57","","","","","","Mostly Cloudy"
"2008-03-16 16:00","2008","03","16","16:00","1.5","","-2.8","","73","","5","","19","","24.1","","100.66","","","","","","Mostly Cloudy"
"2008-03-16 17:00","2008","03","16","17:00","0.7","","-2.3","","80","","4","","28","","24.1","","100.72","","","","","","Mostly Cloudy"
"2008-03-16 18:00","2008","03","16","18:00","0.0","","-3.8","","76","","6","","15","","24.1","","100.81","","","","-4","","Mostly Cloudy"
"2008-03-16 19:00","2008","03","16","19:00","-0.9","","-4.4","","77","","6","","13","","24.1","","100.88","","","","-5","","Mainly Clear"
"2008-03-16 20:00","2008","03","16","20:00","-1.5","","-4.7","","79","","7","","11","","24.1","","100.96","","","","-5","","Clear"
"2008-03-16 21:00","2008","03","16","21:00","-2.1","","-5.2","","79","","6","","15","","24.1","","101.10","","","","-7","","Clear"
"2008-03-16 22:00","2008","03","16","22:00","-3.0","","-5.8","","81","","6","","7","","24.1","","101.17","","","","-6","","Clear"
"2008-03-16 23:00","2008","03","16","23:00","-3.5","","-6.0","","83","","6","","7","","24.1","","101.19","","","","-6","","Clear"
"2008-03-17 00:00","2008","03","17","00:00","-3.9","","-6.4","","83","","5","","11","","24.1","","101.17","","","","-8","","Clear"
"2008-03-17 01:00","2008","03","17","01:00","-3.6","","-6.5","","80","","6","","13","","24.1","","101.20","","","","-8","","Clear"
"2008-03-17 02:00","2008","03","17","02:00","-3.6","","-6.8","","78","","6","","13","","24.1","","101.24","","","","-8","","Clear"
"2008-03-17 03:00","2008","03","17","03:00","-3.8","","-7.4","","76","","6","","15","","24.1","","101.26","","","","-9","","Clear"
"2008-03-17 04:00","2008","03","17","04:00","-3.8","","-8.0","","73","","6","","11","","24.1","","101.28","","","","-8","","Mainly Clear"
"2008-03-17 05:00","2008","03","17","05:00","-4.1","","-8.5","","71","","9","","11","","24.1","","101.31","","","","-9","","Mainly Clear"
"2008-03-17 06:00","2008","03","17","06:00","-4.7","","-8.2","","76","","10","","7","","24.1","","101.34","","","","-8","","Mainly Clear"
"2008-03-17 07:00","2008","03","17","07:00","-4.4","","-8.2","","75","","9","","9","","24.1","","101.34","","","","-8","","Mostly Cloudy"
"2008-03-17 08:00","2008","03","17","08:00","-3.4","","-7.3","","74","","9","","9","","24.1","","101.38","","","","-7","","Mostly Cloudy"
"2008-03-17 09:00","2008","03","17","09:00","-2.2","","-6.1","","75","","10","","17","","24.1","","101.34","","","","-8","","Mostly Cloudy"
"2008-03-17 10:00","2008","03","17","10:00","-1.0","","-6.2","","68","","13","","19","","24.1","","101.31","","","","-6","","Mostly Cloudy"
"2008-03-17 11:00","2008","03","17","11:00","-0.6","","-6.8","","63","","14","","20","","24.1","","101.32","","","","-6","","Mostly Cloudy"
"2008-03-17 12:00","2008","03","17","12:00","-0.1","","-6.1","","64","","14","","17","","24.1","","101.18","","","","-5","","Cloudy"
"2008-03-17 13:00","2008","03","17","13:00","0.0","","-6.4","","62","","13","","17","","24.1","","101.16","","","","-5","","Cloudy"
"2008-03-17 14:00","2008","03","17","14:00","-0.1","","-6.2","","63","","9","","20","","24.1","","100.98","","","","-5","","Cloudy"
"2008-03-17 15:00","2008","03","17","15:00","-0.1","","-6.6","","62","","9","","22","","24.1","","100.87","","","","-6","","Cloudy"
"2008-03-17 16:00","2008","03","17","16:00","0.1","","-6.4","","62","","9","","20","","24.1","","100.87","","","","","","Cloudy"
"2008-03-17 17:00","2008","03","17","17:00","0.1","","-6.5","","61","","10","","15","","22.5","","100.74","","","","","","Cloudy"
"2008-03-17 18:00","2008","03","17","18:00","-0.3","","-6.1","","65","","11","","15","","24.1","","100.74","","","","-5","","Cloudy"
"2008-03-17 19:00","2008","03","17","19:00","-0.7","","-5.2","","72","","9","","11","","24.1","","100.63","","","","-4","","Cloudy"
"2008-03-17 20:00","2008","03","17","20:00","-0.7","","-4.1","","78","","11","","20","","24.1","","100.52","","","","-6","","Cloudy"
"2008-03-17 21:00","2008","03","17","21:00","-0.3","","-3.4","","80","","11","","17","","24.1","","100.45","","","","-5","","Cloudy"
"2008-03-17 22:00","2008","03","17","22:00","0.1","","-3.6","","76","","11","","19","","24.1","","100.35","","","","","","Cloudy"
"2008-03-17 23:00","2008","03","17","23:00","-0.1","","-3.0","","81","","10","","9","","6.4","","100.34","","","","-3","","Snow"
"2008-03-18 00:00","2008","03","18","00:00","0.0","","-2.1","","86","","9","","19","","14.5","","100.15","","","","-5","","Rain"
"2008-03-18 01:00","2008","03","18","01:00","0.3","","-1.3","","89","","10","","15","","24.1","","99.95","","","","","","Cloudy"
"2008-03-18 02:00","2008","03","18","02:00","0.8","","-0.8","","89","","8","","9","","24.1","","99.94","","","","","","Cloudy"
"2008-03-18 03:00","2008","03","18","03:00","1.1","","-0.4","","90","","9","","11","","24.1","","99.87","","","","","","Cloudy"
"2008-03-18 04:00","2008","03","18","04:00","2.2","","0.3","","87","","9","","17","","24.1","","99.69","","","","","","Rain"
"2008-03-18 05:00","2008","03","18","05:00","2.5","","0.4","","86","","10","","13","","24.1","","99.65","","","","","","Rain"
"2008-03-18 06:00","2008","03","18","06:00","2.8","","0.4","","84","","18","","9","","16.1","","99.56","","","","","","Rain"
"2008-03-18 07:00","2008","03","18","07:00","3.3","","0.2","","80","","14","","13","","12.9","","99.46","","","","","","Rain"
"2008-03-18 08:00","2008","03","18","08:00","2.8","","0.8","","87","","14","","20","","8.0","","99.38","","","","","","Rain,Fog"
"2008-03-18 09:00","2008","03","18","09:00","2.6","","1.6","","93","","15","","17","","2.4","","99.32","","","","","","Rain,Fog"
"2008-03-18 10:00","2008","03","18","10:00","3.1","","2.3","","94","","16","","22","","1.6","","99.15","","","","","","Rain,Fog"
"2008-03-18 11:00","2008","03","18","11:00","3.6","","2.5","","93","","16","","30","","3.6","","99.09","","","","","","Rain,Fog"
"2008-03-18 12:00","2008","03","18","12:00","3.7","","2.7","","93","","16","","19","","2.8","","98.97","","","","","","Drizzle,Fog"
"2008-03-18 13:00","2008","03","18","13:00","4.6","","4.0","","96","","17","","19","","1.6","","98.85","","","","","","Drizzle,Fog"
"2008-03-18 14:00","2008","03","18","14:00","5.7","","5.2","","97","","17","","7","","2.0","","98.80","","","","","","Drizzle,Fog"
"2008-03-18 15:00","2008","03","18","15:00","5.5","","5.2","","98","","15","","9","","1.2","","98.67","","","","","","Rain,Fog"
"2008-03-18 16:00","2008","03","18","16:00","5.7","","5.4","","98","","18","","13","","1.2","","98.66","","","","","","Rain,Fog"
"2008-03-18 17:00","2008","03","18","17:00","5.5","","5.2","","98","","14","","7","","1.0","","98.67","","","","","","Rain,Fog"
"2008-03-18 18:00","2008","03","18","18:00","5.1","","4.9","","99","","17","","13","","1.0","","98.59","","","","","","Rain,Fog"
"2008-03-18 19:00","2008","03","18","19:00","6.0","","5.7","","98","","18","","13","","0.4","","98.56","","","","","","Fog"
"2008-03-18 20:00","2008","03","18","20:00","6.3","","6.2","","99","","18","","11","","0.2","","98.57","","","","","","Fog"
"2008-03-18 21:00","2008","03","18","21:00","8.0","","7.8","","99","","20","","11","","0.2","","98.51","","","","","","Fog"
"2008-03-18 22:00","2008","03","18","22:00","8.4","","8.4","","100","","20","","9","","0.2","","98.47","","","","","","Rain,Fog"
"2008-03-18 23:00","2008","03","18","23:00","8.3","","8.3","","100","","20","","13","","0.2","","98.42","","","","","","Rain,Fog"
"2008-03-19 00:00","2008","03","19","00:00","7.9","","7.8","","99","","22","","13","","2.0","","98.37","","","","","","Rain,Fog"
"2008-03-19 01:00","2008","03","19","01:00","7.8","","7.7","","99","","31","","7","","1.6","","98.34","","","","","","Rain,Fog"
"2008-03-19 02:00","2008","03","19","02:00","7.4","","7.1","","98","","34","","15","","4.8","","98.28","","","","","","Rain,Fog"
"2008-03-19 03:00","2008","03","19","03:00","6.2","","5.7","","97","","1","","20","","4.8","","98.21","","","","","","Rain,Fog"
"2008-03-19 04:00","2008","03","19","04:00","4.5","","4.1","","97","","5","","11","","4.0","","98.18","","","","","","Moderate Rain,Fog"
"2008-03-19 05:00","2008","03","19","05:00","3.8","","2.8","","93","","1","","22","","4.8","","98.21","","","","","","Rain,Fog"
"2008-03-19 06:00","2008","03","19","06:00","3.4","","2.1","","91","","36","","20","","8.0","","98.29","","","","","","Rain,Fog"
"2008-03-19 07:00","2008","03","19","07:00","3.2","","1.8","","91","","36","","22","","8.0","","98.37","","","","","","Rain,Fog"
"2008-03-19 08:00","2008","03","19","08:00","3.0","","1.6","","90","","36","","20","","9.7","","98.37","","","","","","Rain,Fog"
"2008-03-19 09:00","2008","03","19","09:00","3.0","","1.4","","89","","36","","20","","9.7","","98.36","","","","","","Rain,Fog"
"2008-03-19 10:00","2008","03","19","10:00","2.8","","1.6","","92","","36","","20","","9.7","","98.41","","","","","","Rain,Fog"
"2008-03-19 11:00","2008","03","19","11:00","2.8","","1.2","","89","","36","","22","","11.3","","98.39","","","","","","Cloudy"
"2008-03-19 12:00","2008","03","19","12:00","3.2","","0.7","","84","","36","","24","","12.9","","98.41","","","","","","Cloudy"
"2008-03-19 13:00","2008","03","19","13:00","3.9","","1.2","","83","","36","","19","","24.1","","98.40","","","","","","Cloudy"
"2008-03-19 14:00","2008","03","19","14:00","3.7","","0.1","","77","","1","","24","","24.1","","98.24","","","","","","Cloudy"
"2008-03-19 15:00","2008","03","19","15:00","3.6","","0.0","","77","","36","","28","","24.1","","98.19","","","","","","Cloudy"
"2008-03-19 16:00","2008","03","19","16:00","3.5","","-0.7","","74","","36","","19","","24.1","","98.20","","","","","","Cloudy"
"2008-03-19 17:00","2008","03","19","17:00","3.9","","-1.3","","69","","36","","20","","24.1","","98.29","","","","","","Mostly Cloudy"
"2008-03-19 18:00","2008","03","19","18:00","4.0","","-1.3","","68","","35","","15","","24.1","","98.32","","","","","","Mostly Cloudy"
"2008-03-19 19:00","2008","03","19","19:00","3.9","","-1.1","","70","","34","","17","","24.1","","98.40","","","","","","Mostly Cloudy"
"2008-03-19 20:00","2008","03","19","20:00","4.1","","-1.1","","69","","33","","15","","24.1","","98.49","","","","","","Mostly Cloudy"
"2008-03-19 21:00","2008","03","19","21:00","4.2","","-1.4","","67","","32","","13","","24.1","","98.55","","","","","","Cloudy"
"2008-03-19 22:00","2008","03","19","22:00","3.8","","-2.1","","65","","33","","19","","24.1","","98.62","","","","","","Mostly Cloudy"
"2008-03-19 23:00","2008","03","19","23:00","3.0","","-3.4","","63","","32","","19","","24.1","","98.71","","","","","","Mainly Clear"
"2008-03-20 00:00","2008","03","20","00:00","2.6","","-4.9","","58","","32","","19","","24.1","","98.81","","","","","","Mainly Clear"
"2008-03-20 01:00","2008","03","20","01:00","1.5","","-4.6","","64","","31","","15","","24.1","","98.90","","","","","","Clear"
"2008-03-20 02:00","2008","03","20","02:00","0.8","","-4.7","","67","","29","","11","","24.1","","98.97","","","","","","Clear"
"2008-03-20 03:00","2008","03","20","03:00","0.2","","-4.4","","71","","28","","13","","24.1","","99.02","","","","","","Clear"
"2008-03-20 04:00","2008","03","20","04:00","-0.2","","-4.4","","73","","29","","9","","24.1","","99.07","","","","-3","","Clear"
"2008-03-20 05:00","2008","03","20","05:00","-0.6","","-4.8","","73","","28","","15","","24.1","","99.14","","","","-5","","Clear"
"2008-03-20 06:00","2008","03","20","06:00","-0.8","","-6.1","","67","","31","","20","","24.1","","99.19","","","","-6","","Clear"
"2008-03-20 07:00","2008","03","20","07:00","-1.0","","-7.8","","60","","31","","22","","24.1","","99.32","","","","-7","","Clear"
"2008-03-20 08:00","2008","03","20","08:00","-0.5","","-7.2","","60","","30","","19","","24.1","","99.42","","","","-6","","Clear"
"2008-03-20 09:00","2008","03","20","09:00","0.3","","-7.1","","58","","31","","26","","24.1","","99.46","","","","","","Mostly Cloudy"
"2008-03-20 10:00","2008","03","20","10:00","1.0","","-7.5","","53","","32","","28","","24.1","","99.51","","","","","","Mostly Cloudy"
"2008-03-20 11:00","2008","03","20","11:00","2.3","","-7.4","","49","","33","","24","","24.1","","99.57","","","","","","Mostly Cloudy"
"2008-03-20 12:00","2008","03","20","12:00","3.2","","-6.4","","49","","32","","30","","24.1","","99.65","","","","","","Mostly Cloudy"
"2008-03-20 13:00","2008","03","20","13:00","4.0","","-5.6","","50","","31","","26","","24.1","","99.68","","","","","","Mainly Clear"
"2008-03-20 14:00","2008","03","20","14:00","4.7","","-6.0","","46","","31","","26","","24.1","","99.70","","","","","","Mainly Clear"
"2008-03-20 15:00","2008","03","20","15:00","5.8","","-5.6","","44","","31","","32","","24.1","","99.73","","","","","","Mainly Clear"
"2008-03-20 16:00","2008","03","20","16:00","5.9","","-5.7","","43","","31","","22","","24.1","","99.76","","","","","","Mainly Clear"
"2008-03-20 17:00","2008","03","20","17:00","6.0","","-6.5","","40","","31","","26","","24.1","","99.79","","","","","","Mainly Clear"
"2008-03-20 18:00","2008","03","20","18:00","5.8","","-6.8","","40","","32","","22","","24.1","","99.84","","","","","","Mainly Clear"
"2008-03-20 19:00","2008","03","20","19:00","4.8","","-7.4","","41","","31","","20","","24.1","","99.92","","","","","","Clear"
"2008-03-20 20:00","2008","03","20","20:00","3.6","","-6.4","","48","","33","","19","","24.1","","100.00","","","","","","Clear"
"2008-03-20 21:00","2008","03","20","21:00","3.1","","-6.6","","49","","32","","19","","24.1","","100.08","","","","","","Clear"
"2008-03-20 22:00","2008","03","20","22:00","2.0","","-6.8","","52","","34","","19","","24.1","","100.12","","","","","","Clear"
"2008-03-20 23:00","2008","03","20","23:00","0.6","","-6.8","","58","","34","","17","","24.1","","100.19","","","","","","Clear"
"2008-03-21 00:00","2008","03","21","00:00","-0.3","","-7.1","","60","","34","","26","","24.1","","100.26","","","","-6","","Mostly Cloudy"
"2008-03-21 01:00","2008","03","21","01:00","-1.2","","-7.5","","62","","34","","26","","24.1","","100.32","","","","-8","","Mainly Clear"
"2008-03-21 02:00","2008","03","21","02:00","-1.9","","-7.3","","67","","35","","9","","24.1","","100.39","","","","-5","","Mainly Clear"
"2008-03-21 03:00","2008","03","21","03:00","-2.4","","-7.4","","68","","35","","9","","24.1","","100.42","","","","-6","","Mainly Clear"
"2008-03-21 04:00","2008","03","21","04:00","-2.8","","-7.6","","69","","36","","9","","24.1","","100.46","","","","-6","","Mainly Clear"
"2008-03-21 05:00","2008","03","21","05:00","-3.3","","-7.4","","73","","1","","7","","24.1","","100.45","","","","-6","","Mostly Cloudy"
"2008-03-21 06:00","2008","03","21","06:00","-3.5","","-7.4","","74","","2","","7","","24.1","","100.43","","","","-6","","Mostly Cloudy"
"2008-03-21 07:00","2008","03","21","07:00","-4.0","","-7.4","","77","","2","","13","","24.1","","100.43","","","","-9","","Mainly Clear"
"2008-03-21 08:00","2008","03","21","08:00","-3.2","","-6.8","","76","","2","","11","","24.1","","100.47","","","","-7","","Cloudy"
"2008-03-21 09:00","2008","03","21","09:00","-2.5","","-6.4","","75","","7","","15","","24.1","","100.44","","","","-7","","Mostly Cloudy"
"2008-03-21 10:00","2008","03","21","10:00","-2.2","","-6.6","","72","","9","","11","","24.1","","100.45","","","","-6","","Cloudy"
"2008-03-21 11:00","2008","03","21","11:00","-1.6","","-5.9","","72","","11","","9","","24.1","","100.42","","","","-5","","Cloudy"
"2008-03-21 12:00","2008","03","21","12:00","-1.0","","-5.5","","71","","8","","9","","24.1","","100.34","","","","-4","","Cloudy"
"2008-03-21 13:00","2008","03","21","13:00","-1.0","","-5.4","","72","","10","","11","","24.1","","100.24","","","","-5","","Cloudy"
"2008-03-21 14:00","2008","03","21","14:00","-0.8","","-5.8","","69","","7","","11","","24.1","","100.14","","","","-5","","Cloudy"
"2008-03-21 15:00","2008","03","21","15:00","-0.8","","-5.3","","72","","9","","17","","24.1","","99.99","","","","-6","","Cloudy"
"2008-03-21 16:00","2008","03","21","16:00","-1.5","","-4.0","","83","","9","","19","","1.0","","99.87","","","","-7","","Snow"
"2008-03-21 17:00","2008","03","21","17:00","-2.3","","-3.5","","91","","9","","19","","1.0","","99.78","","","","-8","","Snow"
"2008-03-21 18:00","2008","03","21","18:00","-2.5","","-3.6","","92","","9","","13","","1.0","","99.82","","","","-7","","Snow"
"2008-03-21 19:00","2008","03","21","19:00","-2.7","","-3.8","","92","","8","","19","","0.6","","99.82","","","","-8","","Moderate Snow"
"2008-03-21 20:00","2008","03","21","20:00","-2.4","","-3.5","","92","","6","","20","","1.2","","99.78","","","","-8","","Snow"
"2008-03-21 21:00","2008","03","21","21:00","-2.2","","-3.3","","92","","8","","19","","2.0","","99.74","","","","-8","","Snow"
"2008-03-21 22:00","2008","03","21","22:00","-2.4","","-3.5","","92","","8","","20","","2.0","","99.67","","","","-8","","Snow"
"2008-03-21 23:00","2008","03","21","23:00","-2.8","","-3.9","","92","","4","","26","","2.0","","99.64","","","","-10","","Snow"
"2008-03-22 00:00","2008","03","22","00:00","-2.9","","-4.1","","91","","4","","32","","1.2","","99.53","","","","-10","","Snow"
"2008-03-22 01:00","2008","03","22","01:00","-2.8","","-4.2","","90","","4","","33","","2.0","","99.50","","","","-10","","Snow"
"2008-03-22 02:00","2008","03","22","02:00","-2.7","","-4.6","","87","","5","","28","","3.2","","99.44","","","","-10","","Snow"
"2008-03-22 03:00","2008","03","22","03:00","-2.5","","-6.7","","73","","4","","28","","24.1","","99.44","","","","-10","","Snow"
"2008-03-22 04:00","2008","03","22","04:00","-2.8","","-8.0","","67","","4","","30","","24.1","","99.43","","","","-10","","Cloudy"
"2008-03-22 05:00","2008","03","22","05:00","-3.0","","-10.2","","58","","5","","28","","24.1","","99.45","","","","-10","","Cloudy"
"2008-03-22 06:00","2008","03","22","06:00","-3.5","","-10.5","","58","","4","","26","","24.1","","99.52","","","","-11","","Mostly Cloudy"
"2008-03-22 07:00","2008","03","22","07:00","-3.6","","-11.3","","55","","4","","26","","24.1","","99.63","","","","-11","","Mostly Cloudy"
"2008-03-22 08:00","2008","03","22","08:00","-3.5","","-9.8","","62","","4","","28","","24.1","","99.68","","","","-11","","Cloudy"
"2008-03-22 09:00","2008","03","22","09:00","-2.9","","-9.7","","59","","4","","26","","24.1","","99.74","","","","-10","","Mostly Cloudy"
"2008-03-22 10:00","2008","03","22","10:00","-2.2","","-10.2","","54","","4","","24","","24.1","","99.80","","","","-9","","Mostly Cloudy"
"2008-03-22 11:00","2008","03","22","11:00","-0.7","","-10.0","","49","","4","","26","","24.1","","99.86","","","","-7","","Mostly Cloudy"
"2008-03-22 12:00","2008","03","22","12:00","0.0","","-9.5","","49","","4","","24","","24.1","","99.90","","","","-6","","Mostly Cloudy"
"2008-03-22 13:00","2008","03","22","13:00","0.3","","-10.2","","45","","4","","20","","24.1","","99.91","","","","","","Mainly Clear"
"2008-03-22 14:00","2008","03","22","14:00","1.4","","-10.6","","40","","5","","20","","24.1","","99.90","","","","","","Mainly Clear"
"2008-03-22 15:00","2008","03","22","15:00","1.5","","-8.5","","47","","5","","19","","24.1","","99.91","","","","","","Mostly Cloudy"
"2008-03-22 16:00","2008","03","22","16:00","1.1","","-9.0","","47","","6","","19","","24.1","","99.93","","","","","","Mostly Cloudy"
"2008-03-22 17:00","2008","03","22","17:00","1.1","","-7.4","","53","","6","","15","","24.1","","99.96","","","","","","Mostly Cloudy"
"2008-03-22 18:00","2008","03","22","18:00","0.1","","-8.3","","53","","8","","13","","24.1","","100.00","","","","","","Mostly Cloudy"
"2008-03-22 19:00","2008","03","22","19:00","-1.5","","-8.5","","59","","15","","6","","24.1","","100.04","","","","-4","","Cloudy"
"2008-03-22 20:00","2008","03","22","20:00","-1.5","","-9.0","","57","","20","","4","","24.1","","100.09","","","","-3","","Mostly Cloudy"
"2008-03-22 21:00","2008","03","22","21:00","-1.7","","-8.2","","61","","23","","11","","24.1","","100.15","","","","-6","","Cloudy"
"2008-03-22 22:00","2008","03","22","22:00","-2.2","","-9.0","","60","","23","","11","","24.1","","100.15","","","","-6","","Mostly Cloudy"
"2008-03-22 23:00","2008","03","22","23:00","-2.5","","-7.9","","66","","25","","7","","24.1","","100.16","","","","-5","","Mostly Cloudy"
"2008-03-23 00:00","2008","03","23","00:00","-2.4","","-7.4","","68","","26","","7","","24.1","","100.15","","","","-5","","Mostly Cloudy"
"2008-03-23 01:00","2008","03","23","01:00","-3.4","","-7.8","","72","","","","0","","24.1","","100.14","","","","","","Mainly Clear"
"2008-03-23 02:00","2008","03","23","02:00","-6.1","","-8.6","","82","","10","","4","","24.1","","100.14","","","","-8","","Mostly Cloudy"
"2008-03-23 03:00","2008","03","23","03:00","-6.6","","-9.2","","82","","16","","7","","24.1","","100.09","","","","-10","","Mostly Cloudy"
"2008-03-23 04:00","2008","03","23","04:00","-6.9","","-9.1","","84","","18","","4","","24.1","","100.06","","","","-9","","Mainly Clear"
"2008-03-23 05:00","2008","03","23","05:00","-7.0","","-9.0","","86","","13","","4","","24.1","","100.06","","","","-9","","Mostly Cloudy"
"2008-03-23 06:00","2008","03","23","06:00","-7.6","","-9.4","","87","","18","","4","","24.1","","100.06","","","","-10","","Mostly Cloudy"
"2008-03-23 07:00","2008","03","23","07:00","-6.9","","-9.0","","85","","","","0","","24.1","","100.10","","","","","","Cloudy"
"2008-03-23 08:00","2008","03","23","08:00","-4.5","","-7.1","","82","","","","0","","24.1","","100.12","","","","","","Cloudy"
"2008-03-23 09:00","2008","03","23","09:00","-1.4","","-5.7","","72","","14","","4","","24.1","","100.15","","","","-3","","Cloudy"
"2008-03-23 10:00","2008","03","23","10:00","-0.1","","-4.9","","70","","8","","4","","24.1","","100.20","","","","-1","","Cloudy"
"2008-03-23 11:00","2008","03","23","11:00","1.0","","-4.4","","67","","13","","9","","24.1","","100.22","","","","","","Cloudy"
"2008-03-23 12:00","2008","03","23","12:00","2.0","","-6.1","","55","","17","","11","","24.1","","100.19","","","","","","Cloudy"
"2008-03-23 13:00","2008","03","23","13:00","2.0","","-7.6","","49","","19","","15","","24.1","","100.16","","","","","","Cloudy"
"2008-03-23 14:00","2008","03","23","14:00","2.3","","-6.7","","51","","19","","15","","24.1","","100.08","","","","","","Cloudy"
"2008-03-23 15:00","2008","03","23","15:00","2.7","","-6.3","","51","","19","","15","","24.1","","100.05","","","","","","Cloudy"
"2008-03-23 16:00","2008","03","23","16:00","3.0","","-6.8","","48","","19","","19","","24.1","","100.02","","","","","","Cloudy"
"2008-03-23 17:00","2008","03","23","17:00","3.0","","-6.9","","48","","19","","17","","24.1","","99.99","","","","","","Mostly Cloudy"
"2008-03-23 18:00","2008","03","23","18:00","2.2","","-6.7","","52","","19","","19","","24.1","","100.00","","","","","","Mostly Cloudy"
"2008-03-23 19:00","2008","03","23","19:00","1.5","","-6.0","","57","","20","","17","","24.1","","100.01","","","","","","Cloudy"
"2008-03-23 20:00","2008","03","23","20:00","0.6","","-4.9","","67","","19","","13","","24.1","","100.02","","","","","","Mostly Cloudy"
"2008-03-23 21:00","2008","03","23","21:00","0.0","","-4.3","","73","","21","","7","","24.1","","100.05","","","","-2","","Mainly Clear"
"2008-03-23 22:00","2008","03","23","22:00","-0.8","","-4.3","","77","","17","","4","","24.1","","100.05","","","","-2","","Mainly Clear"
"2008-03-23 23:00","2008","03","23","23:00","-1.6","","-4.4","","81","","22","","4","","24.1","","100.05","","","","-3","","Mainly Clear"
"2008-03-24 00:00","2008","03","24","00:00","-1.4","","-4.4","","80","","33","","7","","24.1","","100.06","","","","-4","","Mainly Clear"
"2008-03-24 01:00","2008","03","24","01:00","-0.4","","-4.2","","75","","34","","11","","24.1","","100.09","","","","-4","","Mainly Clear"
"2008-03-24 02:00","2008","03","24","02:00","-1.2","","-4.1","","81","","36","","9","","24.1","","100.13","","","","-4","","Mainly Clear"
"2008-03-24 03:00","2008","03","24","03:00","-1.0","","-4.4","","78","","1","","17","","24.1","","100.16","","","","-6","","Mainly Clear"
"2008-03-24 04:00","2008","03","24","04:00","-1.9","","-4.8","","81","","3","","17","","24.1","","100.20","","","","-7","","Mostly Cloudy"
"2008-03-24 05:00","2008","03","24","05:00","-2.8","","-6.1","","78","","35","","17","","24.1","","100.25","","","","-8","","Mostly Cloudy"
"2008-03-24 06:00","2008","03","24","06:00","-3.2","","-6.3","","79","","1","","9","","24.1","","100.33","","","","-7","","Mostly Cloudy"
"2008-03-24 07:00","2008","03","24","07:00","-3.2","","-8.3","","68","","1","","17","","24.1","","100.39","","","","-9","","Mostly Cloudy"
"2008-03-24 08:00","2008","03","24","08:00","-2.9","","-8.5","","65","","2","","9","","24.1","","100.45","","","","-6","","Mostly Cloudy"
"2008-03-24 09:00","2008","03","24","09:00","-3.0","","-8.7","","65","","36","","9","","24.1","","100.53","","","","-7","","Mostly Cloudy"
"2008-03-24 10:00","2008","03","24","10:00","-2.6","","-8.5","","64","","6","","9","","24.1","","100.59","","","","-6","","Mainly Clear"
"2008-03-24 11:00","2008","03","24","11:00","-2.2","","-10.1","","55","","10","","11","","24.1","","100.61","","","","-6","","Mainly Clear"
"2008-03-24 12:00","2008","03","24","12:00","-1.5","","-9.2","","56","","9","","11","","24.1","","100.58","","","","-5","","Clear"
"2008-03-24 13:00","2008","03","24","13:00","-0.9","","-8.3","","57","","15","","9","","24.1","","100.58","","","","-4","","Clear"
"2008-03-24 14:00","2008","03","24","14:00","-0.1","","-8.0","","55","","15","","11","","24.1","","100.51","","","","-4","","Clear"
"2008-03-24 15:00","2008","03","24","15:00","0.9","","-6.6","","57","","16","","13","","24.1","","100.46","","","","","","Mainly Clear"
"2008-03-24 16:00","2008","03","24","16:00","0.3","","-6.3","","61","","19","","19","","24.1","","100.42","","","","","","Mainly Clear"
"2008-03-24 17:00","2008","03","24","17:00","0.3","","-7.1","","58","","18","","19","","24.1","","100.41","","","","","","Clear"
"2008-03-24 18:00","2008","03","24","18:00","-0.4","","-6.5","","63","","19","","19","","24.1","","100.40","","","","-6","","Clear"
"2008-03-24 19:00","2008","03","24","19:00","-1.5","","-5.9","","72","","19","","17","","24.1","","100.38","","","","-7","","Clear"
"2008-03-24 20:00","2008","03","24","20:00","-2.1","","-5.8","","76","","18","","13","","24.1","","100.32","","","","-7","","Clear"
"2008-03-24 21:00","2008","03","24","21:00","-2.2","","-5.4","","79","","18","","13","","24.1","","100.32","","","","-7","","Clear"
"2008-03-24 22:00","2008","03","24","22:00","-2.9","","-5.5","","82","","18","","11","","24.1","","100.28","","","","-7","","Clear"
"2008-03-24 23:00","2008","03","24","23:00","-2.6","","-4.9","","84","","18","","13","","24.1","","100.24","","","","-7","","Clear"
"2008-03-25 00:00","2008","03","25","00:00","-2.2","","-4.5","","84","","17","","11","","24.1","","100.17","","","","-6","","Clear"
"2008-03-25 01:00","2008","03","25","01:00","-2.1","","-4.3","","85","","18","","11","","24.1","","100.14","","","","-6","","Clear"
"2008-03-25 02:00","2008","03","25","02:00","-1.7","","-4.0","","84","","18","","17","","24.1","","100.06","","","","-7","","Clear"
"2008-03-25 03:00","2008","03","25","03:00","-1.5","","-4.0","","83","","19","","15","","24.1","","100.01","","","","-6","","Mainly Clear"
"2008-03-25 04:00","2008","03","25","04:00","-1.1","","-3.7","","82","","19","","19","","24.1","","99.89","","","","-6","","Mainly Clear"
"2008-03-25 05:00","2008","03","25","05:00","0.2","","-3.8","","74","","19","","26","","24.1","","99.81","","","","","","Mostly Cloudy"
"2008-03-25 06:00","2008","03","25","06:00","0.5","","-4.1","","71","","19","","28","","24.1","","99.71","","","","","","Cloudy"
"2008-03-25 07:00","2008","03","25","07:00","0.8","","-4.1","","70","","20","","24","","19.3","","99.67","","","","","","Mostly Cloudy"
"2008-03-25 08:00","2008","03","25","08:00","0.9","","-3.8","","71","","19","","35","","19.3","","99.47","","","","","","Mostly Cloudy"
"2008-03-25 09:00","2008","03","25","09:00","1.4","","-3.7","","69","","18","","39","","16.1","","99.27","","","","","","Mostly Cloudy"
"2008-03-25 10:00","2008","03","25","10:00","3.0","","-4.1","","60","","20","","54","","19.3","","99.08","","","","","","Mostly Cloudy"
"2008-03-25 11:00","2008","03","25","11:00","3.6","","-3.3","","61","","21","","44","","19.3","","98.98","","","","","","Mostly Cloudy"
"2008-03-25 12:00","2008","03","25","12:00","3.4","","-2.2","","67","","21","","52","","6.4","","98.86","","","","","","Snow"
"2008-03-25 13:00","2008","03","25","13:00","4.4","","-2.4","","61","","21","","48","","16.1","","98.75","","","","","","Snow"
"2008-03-25 14:00","2008","03","25","14:00","5.7","","-1.8","","58","","21","","37","","24.1","","98.60","","","","","","Cloudy"
"2008-03-25 15:00","2008","03","25","15:00","5.6","","-1.0","","62","","22","","44","","19.3","","98.61","","","","","","Rain Showers"
"2008-03-25 16:00","2008","03","25","16:00","5.8","","0.9","","71","","23","","48","","12.9","","98.61","","","","","","Rain Showers"
"2008-03-25 17:00","2008","03","25","17:00","6.9","","1.2","","67","","23","","39","","24.1","","98.58","","","","","","Cloudy"
"2008-03-25 18:00","2008","03","25","18:00","7.2","","0.3","","61","","23","","30","","24.1","","98.59","","","","","","Mostly Cloudy"
"2008-03-25 19:00","2008","03","25","19:00","7.2","","0.2","","61","","22","","26","","24.1","","98.62","","","","","","Rain Showers"
"2008-03-25 20:00","2008","03","25","20:00","6.9","","0.9","","66","","23","","20","","24.1","","98.69","","","","","","Rain Showers"
"2008-03-25 21:00","2008","03","25","21:00","6.7","","1.9","","71","","23","","26","","24.1","","98.72","","","","","","Mainly Clear"
"2008-03-25 22:00","2008","03","25","22:00","6.3","","2.3","","76","","25","","20","","24.1","","98.80","","","","","","Clear"
"2008-03-25 23:00","2008","03","25","23:00","5.8","","1.6","","74","","25","","19","","24.1","","98.86","","","","","","Clear"
"2008-03-26 00:00","2008","03","26","00:00","5.1","","0.6","","73","","26","","19","","24.1","","98.97","","","","","","Clear"
"2008-03-26 01:00","2008","03","26","01:00","4.9","","-1.0","","66","","27","","19","","24.1","","99.06","","","","","","Clear"
"2008-03-26 02:00","2008","03","26","02:00","4.1","","-1.2","","68","","27","","13","","24.1","","99.17","","","","","","Mainly Clear"
"2008-03-26 03:00","2008","03","26","03:00","3.9","","-0.9","","71","","29","","13","","24.1","","99.22","","","","","","Mostly Cloudy"
"2008-03-26 04:00","2008","03","26","04:00","3.9","","-0.6","","72","","29","","11","","24.1","","99.30","","","","","","Mostly Cloudy"
"2008-03-26 05:00","2008","03","26","05:00","2.6","","-0.9","","78","","26","","9","","24.1","","99.35","","","","","","Mostly Cloudy"
"2008-03-26 06:00","2008","03","26","06:00","3.0","","-2.7","","66","","32","","9","","24.1","","99.45","","","","","","Mainly Clear"
"2008-03-26 07:00","2008","03","26","07:00","1.6","","-3.8","","67","","35","","13","","24.1","","99.59","","","","","","Mainly Clear"
"2008-03-26 08:00","2008","03","26","08:00","2.5","","-4.1","","62","","36","","9","","24.1","","99.66","","","","","","Mostly Cloudy"
"2008-03-26 09:00","2008","03","26","09:00","3.2","","-4.0","","59","","31","","4","","24.1","","99.69","","","","","","Mainly Clear"
"2008-03-26 10:00","2008","03","26","10:00","4.1","","-2.8","","61","","28","","15","","24.1","","99.73","","","","","","Mainly Clear"
"2008-03-26 11:00","2008","03","26","11:00","5.4","","-2.5","","57","","25","","9","","24.1","","99.73","","","","","","Mostly Cloudy"
"2008-03-26 12:00","2008","03","26","12:00","5.7","","-3.2","","53","","27","","20","","24.1","","99.70","","","","","","Mostly Cloudy"
"2008-03-26 13:00","2008","03","26","13:00","6.6","","-2.8","","51","","25","","22","","24.1","","99.68","","","","","","Mostly Cloudy"
"2008-03-26 14:00","2008","03","26","14:00","7.7","","-2.1","","50","","27","","15","","24.1","","99.63","","","","","","Mostly Cloudy"
"2008-03-26 15:00","2008","03","26","15:00","7.8","","-2.4","","48","","23","","26","","24.1","","99.54","","","","","","Mostly Cloudy"
"2008-03-26 16:00","2008","03","26","16:00","8.9","","-2.2","","46","","22","","20","","24.1","","99.48","","","","","","Mostly Cloudy"
"2008-03-26 17:00","2008","03","26","17:00","9.0","","-1.9","","46","","26","","26","","24.1","","99.48","","","","","","Mostly Cloudy"
"2008-03-26 18:00","2008","03","26","18:00","8.7","","-4.6","","39","","26","","26","","24.1","","99.49","","","","","","Mainly Clear"
"2008-03-26 19:00","2008","03","26","19:00","7.7","","-5.1","","40","","26","","22","","24.1","","99.51","","","","","","Mainly Clear"
"2008-03-26 20:00","2008","03","26","20:00","6.3","","-4.6","","46","","25","","13","","24.1","","99.53","","","","","","Mainly Clear"
"2008-03-26 21:00","2008","03","26","21:00","4.9","","-3.9","","53","","23","","11","","24.1","","99.57","","","","","","Mostly Cloudy"
"2008-03-26 22:00","2008","03","26","22:00","4.7","","-3.6","","55","","25","","11","","24.1","","99.57","","","","","","Mostly Cloudy"
"2008-03-26 23:00","2008","03","26","23:00","4.8","","-4.6","","51","","27","","15","","24.1","","99.57","","","","","","Mainly Clear"
"2008-03-27 00:00","2008","03","27","00:00","3.8","","-5.0","","53","","28","","7","","24.1","","99.53","","","","","","Clear"
"2008-03-27 01:00","2008","03","27","01:00","2.1","","-5.3","","58","","27","","6","","24.1","","99.46","","","","","","Mainly Clear"
"2008-03-27 02:00","2008","03","27","02:00","0.4","","-3.9","","73","","15","","7","","24.1","","99.39","","","","","","Cloudy"
"2008-03-27 03:00","2008","03","27","03:00","0.6","","-3.5","","74","","19","","4","","24.1","","99.35","","","","","","Cloudy"
"2008-03-27 04:00","2008","03","27","04:00","1.9","","-3.6","","67","","16","","4","","24.1","","99.36","","","","","","Cloudy"
"2008-03-27 05:00","2008","03","27","05:00","3.2","","-4.2","","58","","22","","11","","24.1","","99.43","","","","","","Cloudy"
"2008-03-27 06:00","2008","03","27","06:00","4.7","","-2.6","","59","","30","","11","","19.3","","99.56","","","","","","Rain Showers"
"2008-03-27 07:00","2008","03","27","07:00","3.9","","-1.3","","69","","19","","6","","16.1","","99.40","","","","","","Cloudy"
"2008-03-27 08:00","2008","03","27","08:00","4.4","","0.3","","75","","27","","7","","19.3","","99.44","","","","","","Mostly Cloudy"
"2008-03-27 09:00","2008","03","27","09:00","4.5","","1.0","","78","","23","","7","","19.3","","99.42","","","","","","Cloudy"
"2008-03-27 10:00","2008","03","27","10:00","5.3","","1.0","","74","","1","","6","","12.9","","99.38","","","","","","Rain Showers"
"2008-03-27 11:00","2008","03","27","11:00","5.6","","0.9","","72","","4","","9","","12.9","","99.38","","","","","","Rain Showers"
"2008-03-27 12:00","2008","03","27","12:00","3.2","","0.7","","84","","4","","22","","11.3","","99.38","","","","","","Rain"
"2008-03-27 13:00","2008","03","27","13:00","2.3","","0.7","","89","","7","","17","","6.4","","99.20","","","","","","Rain,Fog"
"2008-03-27 14:00","2008","03","27","14:00","2.3","","1.0","","91","","4","","17","","3.2","","99.17","","","","","","Snow,Fog"
"2008-03-27 15:00","2008","03","27","15:00","1.0","","0.2","","94","","4","","11","","2.4","","99.22","","","","","","Snow,Fog"
"2008-03-27 16:00","2008","03","27","16:00","0.9","","0.1","","94","","4","","17","","2.8","","99.13","","","","","","Snow"
"2008-03-27 17:00","2008","03","27","17:00","0.6","","-0.2","","94","","4","","22","","2.8","","99.13","","","","","","Snow"
"2008-03-27 18:00","2008","03","27","18:00","0.3","","-0.5","","94","","4","","20","","2.8","","99.07","","","","","","Snow"
"2008-03-27 19:00","2008","03","27","19:00","-0.1","","-0.9","","94","","4","","24","","2.8","","99.07","","","","-6","","Snow"
"2008-03-27 20:00","2008","03","27","20:00","-0.8","","-1.7","","94","","2","","28","","2.4","","99.15","","","","-7","","Snow"
"2008-03-27 21:00","2008","03","27","21:00","-1.0","","-1.9","","94","","3","","33","","3.2","","99.07","","","","-8","","Snow"
"2008-03-27 22:00","2008","03","27","22:00","-1.3","","-2.2","","94","","2","","33","","6.4","","99.10","","","","-8","","Snow"
"2008-03-27 23:00","2008","03","27","23:00","-1.8","","-2.7","","94","","3","","28","","1.0","","99.05","","","","-9","","Snow"
"2008-03-28 00:00","2008","03","28","00:00","-2.2","","-3.1","","94","","2","","24","","1.0","","99.07","","","","-9","","Snow"
"2008-03-28 01:00","2008","03","28","01:00","-2.4","","-3.3","","94","","1","","28","","4.0","","99.03","","","","-9","","Snow"
"2008-03-28 02:00","2008","03","28","02:00","-2.2","","-3.7","","89","","2","","26","","24.1","","98.98","","","","-9","","Cloudy"
"2008-03-28 03:00","2008","03","28","03:00","-1.9","","-4.1","","85","","36","","22","","24.1","","99.03","","","","-8","","Cloudy"
"2008-03-28 04:00","2008","03","28","04:00","-1.7","","-4.5","","81","","36","","24","","24.1","","99.14","","","","-8","","Cloudy"
"2008-03-28 05:00","2008","03","28","05:00","-1.5","","-4.2","","82","","36","","19","","24.1","","99.17","","","","-7","","Snow Showers"
"2008-03-28 06:00","2008","03","28","06:00","-1.2","","-4.0","","81","","36","","19","","24.1","","99.31","","","","-7","","Snow Showers"
"2008-03-28 07:00","2008","03","28","07:00","-1.0","","-4.1","","79","","35","","20","","24.1","","99.44","","","","-7","","Cloudy"
"2008-03-28 08:00","2008","03","28","08:00","-1.0","","-4.2","","79","","36","","19","","24.1","","99.50","","","","-6","","Cloudy"
"2008-03-28 09:00","2008","03","28","09:00","-0.4","","-4.7","","73","","35","","19","","24.1","","99.54","","","","-6","","Mostly Cloudy"
"2008-03-28 10:00","2008","03","28","10:00","0.6","","-5.1","","66","","36","","15","","24.1","","99.66","","","","","","Mainly Clear"
"2008-03-28 11:00","2008","03","28","11:00","1.3","","-5.6","","60","","35","","20","","24.1","","99.73","","","","","","Mainly Clear"
"2008-03-28 12:00","2008","03","28","12:00","2.1","","-5.4","","58","","33","","13","","24.1","","99.79","","","","","","Mostly Cloudy"
"2008-03-28 13:00","2008","03","28","13:00","2.5","","-6.3","","52","","35","","13","","24.1","","99.86","","","","","","Mostly Cloudy"
"2008-03-28 14:00","2008","03","28","14:00","2.8","","-6.2","","52","","33","","17","","24.1","","99.87","","","","","","Mostly Cloudy"
"2008-03-28 15:00","2008","03","28","15:00","3.1","","-7.0","","47","","35","","13","","24.1","","99.88","","","","","","Mostly Cloudy"
"2008-03-28 16:00","2008","03","28","16:00","3.3","","-6.3","","49","","36","","19","","24.1","","99.93","","","","","","Mostly Cloudy"
"2008-03-28 17:00","2008","03","28","17:00","3.4","","-7.9","","43","","34","","19","","24.1","","100.01","","","","","","Mostly Cloudy"
"2008-03-28 18:00","2008","03","28","18:00","1.3","","-3.2","","72","","6","","26","","24.1","","100.14","","","","","","Mostly Cloudy"
"2008-03-28 19:00","2008","03","28","19:00","0.3","","-3.7","","74","","4","","17","","24.1","","100.22","","","","","","Mostly Cloudy"
"2008-03-28 20:00","2008","03","28","20:00","-0.3","","-4.8","","72","","7","","11","","24.1","","100.30","","","","-4","","Clear"
"2008-03-28 21:00","2008","03","28","21:00","-0.8","","-5.4","","71","","10","","9","","24.1","","100.39","","","","-4","","Clear"
"2008-03-28 22:00","2008","03","28","22:00","-1.5","","-5.8","","72","","13","","4","","24.1","","100.47","","","","-3","","Clear"
"2008-03-28 23:00","2008","03","28","23:00","-2.2","","-5.2","","80","","18","","4","","24.1","","100.53","","","","-4","","Clear"
"2008-03-29 00:00","2008","03","29","00:00","-2.7","","-5.9","","79","","","","0","","24.1","","100.56","","","","","","Clear"
"2008-03-29 01:00","2008","03","29","01:00","-2.6","","-5.7","","79","","","","0","","24.1","","100.62","","","","","","Clear"
"2008-03-29 02:00","2008","03","29","02:00","-3.1","","-5.1","","86","","6","","7","","24.1","","100.67","","","","-6","","Clear"
"2008-03-29 03:00","2008","03","29","03:00","-3.3","","-5.9","","82","","7","","4","","24.1","","100.69","","","","-5","","Clear"
"2008-03-29 04:00","2008","03","29","04:00","-3.1","","-5.9","","81","","9","","4","","24.1","","100.72","","","","-5","","Clear"
"2008-03-29 05:00","2008","03","29","05:00","-4.3","","-6.0","","88","","9","","4","","24.1","","100.80","","","","-6","","Clear"
"2008-03-29 06:00","2008","03","29","06:00","-4.6","","-6.3","","88","","13","","4","","24.1","","100.85","","","","-6","","Clear"
"2008-03-29 07:00","2008","03","29","07:00","-3.6","","-5.8","","85","","8","","4","","24.1","","100.95","","","","-5","","Mainly Clear"
"2008-03-29 08:00","2008","03","29","08:00","-0.7","","-7.6","","60","","10","","4","","24.1","","100.97","","","","-2","","Mainly Clear"
"2008-03-29 09:00","2008","03","29","09:00","0.4","","-7.9","","54","","9","","9","","24.1","","101.05","","","","","","Mainly Clear"
"2008-03-29 10:00","2008","03","29","10:00","0.9","","-6.9","","56","","12","","11","","24.1","","101.09","","","","","","Mostly Cloudy"
"2008-03-29 11:00","2008","03","29","11:00","1.5","","-6.5","","55","","9","","11","","24.1","","101.10","","","","","","Mostly Cloudy"
"2008-03-29 12:00","2008","03","29","12:00","2.0","","-5.3","","58","","9","","9","","24.1","","101.07","","","","","","Mostly Cloudy"
"2008-03-29 13:00","2008","03","29","13:00","1.9","","-4.7","","62","","7","","7","","24.1","","101.06","","","","","","Mostly Cloudy"
"2008-03-29 14:00","2008","03","29","14:00","2.1","","-6.1","","55","","10","","11","","24.1","","101.02","","","","","","Mainly Clear"
"2008-03-29 15:00","2008","03","29","15:00","2.6","","-7.4","","48","","8","","9","","24.1","","100.94","","","","","","Mostly Cloudy"
"2008-03-29 16:00","2008","03","29","16:00","3.3","","-7.6","","45","","9","","15","","24.1","","100.94","","","","","","Mostly Cloudy"
"2008-03-29 17:00","2008","03","29","17:00","3.5","","-4.9","","54","","8","","22","","24.1","","100.93","","","","","","Mostly Cloudy"
"2008-03-29 18:00","2008","03","29","18:00","3.1","","-3.4","","62","","11","","20","","24.1","","100.91","","","","","","Mostly Cloudy"
"2008-03-29 19:00","2008","03","29","19:00","1.3","","-4.2","","67","","11","","17","","24.1","","100.92","","","","","","Mostly Cloudy"
"2008-03-29 20:00","2008","03","29","20:00","0.3","","-5.3","","66","","10","","15","","24.1","","100.92","","","","","","Mainly Clear"
"2008-03-29 21:00","2008","03","29","21:00","-0.3","","-4.9","","71","","10","","17","","24.1","","100.94","","","","-5","","Clear"
"2008-03-29 22:00","2008","03","29","22:00","-0.5","","-4.6","","74","","10","","20","","24.1","","100.93","","","","-6","","Mostly Cloudy"
"2008-03-29 23:00","2008","03","29","23:00","-0.6","","-4.3","","76","","9","","19","","24.1","","100.91","","","","-6","","Mostly Cloudy"
"2008-03-30 00:00","2008","03","30","00:00","-0.6","","-4.6","","74","","9","","20","","24.1","","100.83","","","","-6","","Mostly Cloudy"
"2008-03-30 01:00","2008","03","30","01:00","-0.5","","-5.3","","70","","9","","22","","24.1","","100.79","","","","-6","","Mainly Clear"
"2008-03-30 02:00","2008","03","30","02:00","-0.3","","-4.7","","72","","9","","20","","24.1","","100.78","","","","-6","","Mostly Cloudy"
"2008-03-30 03:00","2008","03","30","03:00","-0.3","","-4.5","","73","","9","","20","","24.1","","100.75","","","","-6","","Cloudy"
"2008-03-30 04:00","2008","03","30","04:00","-0.1","","-4.3","","73","","8","","22","","24.1","","100.67","","","","-6","","Mostly Cloudy"
"2008-03-30 05:00","2008","03","30","05:00","-0.1","","-4.0","","75","","9","","22","","24.1","","100.66","","","","-6","","Mostly Cloudy"
"2008-03-30 06:00","2008","03","30","06:00","0.1","","-4.1","","73","","8","","24","","24.1","","100.67","","","","","","Mostly Cloudy"
"2008-03-30 07:00","2008","03","30","07:00","0.7","","-5.0","","66","","9","","22","","24.1","","100.63","","","","","","Mostly Cloudy"
"2008-03-30 08:00","2008","03","30","08:00","1.4","","-5.4","","61","","10","","26","","24.1","","100.62","","","","","","Cloudy"
"2008-03-30 09:00","2008","03","30","09:00","2.2","","-5.3","","58","","11","","20","","24.1","","100.58","","","","","","Mostly Cloudy"
"2008-03-30 10:00","2008","03","30","10:00","2.8","","-4.9","","57","","11","","22","","24.1","","100.56","","","","","","Mostly Cloudy"
"2008-03-30 11:00","2008","03","30","11:00","3.6","","-4.4","","56","","11","","22","","24.1","","100.54","","","","","","Mostly Cloudy"
"2008-03-30 12:00","2008","03","30","12:00","4.2","","-4.0","","55","","11","","22","","24.1","","100.46","","","","","","Cloudy"
"2008-03-30 13:00","2008","03","30","13:00","4.7","","-3.6","","55","","12","","26","","24.1","","100.39","","","","","","Cloudy"
"2008-03-30 14:00","2008","03","30","14:00","5.2","","-3.0","","55","","11","","20","","24.1","","100.31","","","","","","Cloudy"
"2008-03-30 15:00","2008","03","30","15:00","4.8","","-2.4","","60","","10","","19","","24.1","","100.26","","","","","","Cloudy"
"2008-03-30 16:00","2008","03","30","16:00","4.3","","-0.9","","69","","11","","17","","24.1","","100.23","","","","","","Rain Showers"
"2008-03-30 17:00","2008","03","30","17:00","3.8","","0.2","","77","","11","","22","","24.1","","100.13","","","","","","Cloudy"
"2008-03-30 18:00","2008","03","30","18:00","3.8","","0.3","","78","","11","","15","","24.1","","100.08","","","","","","Cloudy"
"2008-03-30 19:00","2008","03","30","19:00","3.8","","0.5","","79","","13","","9","","24.1","","100.07","","","","","","Cloudy"
"2008-03-30 20:00","2008","03","30","20:00","4.0","","0.9","","80","","10","","7","","24.1","","100.07","","","","","","Rain Showers"
"2008-03-30 21:00","2008","03","30","21:00","4.0","","2.4","","89","","14","","7","","19.3","","100.05","","","","","","Rain Showers"
"2008-03-30 22:00","2008","03","30","22:00","6.7","","5.6","","93","","17","","15","","8.0","","99.98","","","","","","Rain Showers,Fog"
"2008-03-30 23:00","2008","03","30","23:00","6.5","","5.8","","95","","18","","17","","6.4","","99.93","","","","","","Rain Showers,Fog"
"2008-03-31 00:00","2008","03","31","00:00","6.4","","5.8","","96","","18","","19","","4.8","","99.89","","","","","","Rain Showers,Fog"
"2008-03-31 01:00","2008","03","31","01:00","6.5","","6.0","","97","","19","","20","","2.4","","99.87","","","","","","Rain Showers,Fog"
"2008-03-31 02:00","2008","03","31","02:00","6.6","","6.1","","97","","20","","19","","4.0","","99.82","","","","","","Rain,Fog"
"2008-03-31 03:00","2008","03","31","03:00","6.6","","6.1","","97","","20","","20","","4.8","","99.75","","","","","","Drizzle,Fog"
"2008-03-31 04:00","2008","03","31","04:00","6.9","","6.3","","96","","20","","17","","4.8","","99.71","","","","","","Fog"
"2008-03-31 05:00","2008","03","31","05:00","7.0","","6.4","","96","","19","","15","","4.8","","99.68","","","","","","Fog"
"2008-03-31 06:00","2008","03","31","06:00","7.2","","6.5","","95","","19","","17","","3.6","","99.68","","","","","","Rain,Fog"
"2008-03-31 07:00","2008","03","31","07:00","7.4","","6.7","","95","","19","","19","","2.8","","99.65","","","","","","Fog"
"2008-03-31 08:00","2008","03","31","08:00","7.7","","7.0","","95","","19","","26","","4.0","","99.59","","","","","","Fog"
"2008-03-31 09:00","2008","03","31","09:00","8.5","","7.5","","93","","19","","24","","6.4","","99.57","","","","","","Fog"
"2008-03-31 10:00","2008","03","31","10:00","8.8","","7.5","","92","","20","","22","","8.0","","99.54","","","","","","Fog"
"2008-03-31 11:00","2008","03","31","11:00","9.7","","7.9","","89","","20","","24","","9.7","","99.50","","","","","","Fog"
"2008-03-31 12:00","2008","03","31","12:00","10.8","","8.8","","87","","21","","26","","9.7","","99.45","","","","","","Fog"
"2008-03-31 13:00","2008","03","31","13:00","12.1","","9.6","","85","","20","","32","","9.7","","99.35","","","","","","Haze"
"2008-03-31 14:00","2008","03","31","14:00","13.8","","10.6","","81","","19","","33","","11.3","","99.20","","","","","","Cloudy"
"2008-03-31 15:00","2008","03","31","15:00","14.8","","11.5","","81","","20","","32","","12.9","","99.09","","","","","","Cloudy"
"2008-03-31 16:00","2008","03","31","16:00","14.6","","11.7","","83","","19","","24","","12.9","","98.98","","","","","","Cloudy"
"2008-03-31 17:00","2008","03","31","17:00","14.2","","11.7","","85","","18","","28","","12.9","","98.85","","","","","","Cloudy"
"2008-03-31 18:00","2008","03","31","18:00","13.7","","11.5","","87","","18","","24","","12.9","","98.82","","","","","","Cloudy"
"2008-03-31 19:00","2008","03","31","19:00","13.4","","11.4","","88","","20","","19","","12.9","","98.82","","","","","","Cloudy"
"2008-03-31 20:00","2008","03","31","20:00","12.2","","11.3","","94","","19","","24","","4.8","","98.77","","","","","","Rain Showers,Fog"
"2008-03-31 21:00","2008","03","31","21:00","12.8","","12.0","","95","","20","","26","","4.8","","98.64","","","","","","Rain Showers,Fog"
"2008-03-31 22:00","2008","03","31","22:00","12.8","","11.9","","94","","19","","28","","6.4","","98.53","","","","","","Rain Showers,Fog"
"2008-03-31 23:00","2008","03","31","23:00","13.1","","11.9","","92","","19","","32","","8.0","","98.35","","","","","","Rain Showers,Fog"
