"Station Name","WINDSOR A"
"Province","ONTARIO"
"Latitude","42.28"
"Longitude","-82.96"
"Elevation","189.60"
"Climate Identifier","6139525"
"WMO Identifier","71538"
"TC Identifier","YQG"
"All times are specified in Local Standard Time (LST). Add 1 hour to adjust for Daylight Saving Time where and when it is observed."

"Legend"
"E","Estimated"
"M","Missing"
"NA","Not Available"

"Date/Time","Year","Month","Day","Time","Temp (°C)","Temp Flag","Dew Point Temp (°C)","Dew Point Temp Flag","Rel Hum (%)","Rel Hum Flag","Wind Dir (10s deg)","Wind Dir Flag","Wind Spd (km/h)","Wind Spd Flag","Visibility (km)","Visibility Flag","Stn Press (kPa)","Stn Press Flag","Hmdx","Hmdx Flag","Wind Chill","Wind Chill Flag","Weather"
"1999-01-01 00:00","1999","01","01","00:00","-8.8","","-12.2","","76","","29","","11","","12.9","","99.63","","","","-14","","Snow"
"1999-01-01 01:00","1999","01","01","01:00","-8.8","","-11.5","","81","","28","","11","","8.0","","99.63","","","","-14","","Snow"
"1999-01-01 02:00","1999","01","01","02:00","-9.4","","-11.3","","86","","25","","22","","4.8","","99.70","","","","-17","","Snow"
"1999-01-01 03:00","1999","01","01","03:00","-9.6","","-11.6","","85","","25","","20","","6.4","","99.76","","","","-17","","Snow"
"1999-01-01 04:00","1999","01","01","04:00","-9.5","","-11.8","","83","","31","","30","","4.0","","99.90","","","","-19","","Snow"
"1999-01-01 05:00","1999","01","01","05:00","-10.4","","-16.7","","60","","31","","24","","24.1","","100.03","","","","-19","","Snow Showers"
"1999-01-01 06:00","1999","01","01","06:00","-11.4","","-17.8","","59","","31","","22","","25.0","","100.19","","","","-20","","Mainly Clear"
"1999-01-01 07:00","1999","01","01","07:00","-11.8","","-16.9","","66","","31","","24","","25.0","","100.33","","","","-21","","Mainly Clear"
"1999-01-01 08:00","1999","01","01","08:00","-12.1","","-16.7","","69","","32","","24","","24.1","","100.43","","","","-21","","Mostly Cloudy"
"1999-01-01 09:00","1999","01","01","09:00","-11.9","","-16.6","","68","","32","","32","","24.1","","100.56","","","","-22","","Mainly Clear"
"1999-01-01 10:00","1999","01","01","10:00","-11.7","","-16.8","","66","","34","","26","","24.1","","100.66","","","","-21","","Mainly Clear"
"1999-01-01 11:00","1999","01","01","11:00","-11.2","","-17.2","","61","","34","","24","","24.1","","100.83","","","","-20","","Mostly Cloudy"
"1999-01-01 12:00","1999","01","01","12:00","-11.1","","-16.8","","63","","36","","15","","24.1","","100.89","","","","-18","","Mostly Cloudy"
"1999-01-01 13:00","1999","01","01","13:00","-10.5","","-17.1","","58","","33","","19","","24.1","","100.86","","","","-18","","Cloudy"
"1999-01-01 14:00","1999","01","01","14:00","-10.3","","-17.6","","55","","31","","17","","24.1","","100.86","","","","-18","","Cloudy"
"1999-01-01 15:00","1999","01","01","15:00","-10.2","","-19.8","","45","","1","","13","","24.1","","100.89","","","","-16","","Mostly Cloudy"
"1999-01-01 16:00","1999","01","01","16:00","-10.5","","-22.9","","35","","1","","13","","25.0","","100.96","","","","-17","","Mainly Clear"
"1999-01-01 17:00","1999","01","01","17:00","-11.4","","-22.6","","39","","4","","4","","25.0","","101.03","","","","-14","","Mostly Cloudy"
"1999-01-01 18:00","1999","01","01","18:00","-13.1","","-22.6","","45","","5","","17","","25.0","","101.03","","","","-21","","Mainly Clear"
"1999-01-01 19:00","1999","01","01","19:00","-12.4","","-22.4","","43","","4","","7","","25.0","","101.06","","","","-17","","Mainly Clear"
"1999-01-01 20:00","1999","01","01","20:00","-12.4","","-22.3","","43","","2","","13","","25.0","","101.09","","","","-19","","Mainly Clear"
"1999-01-01 21:00","1999","01","01","21:00","-11.9","","-21.1","","46","","3","","11","","25.0","","101.16","","","","-18","","Mostly Cloudy"
"1999-01-01 22:00","1999","01","01","22:00","-11.6","","-18.1","","59","","9","","9","","24.1","","101.09","","","","-17","","Cloudy"
"1999-01-01 23:00","1999","01","01","23:00","-11.1","","-17.4","","60","","7","","28","","24.1","","101.03","","","","-21","","Cloudy"
"1999-01-02 00:00","1999","01","02","00:00","-11.1","","-16.5","","64","","8","","22","","24.1","","101.06","","","","-20","","Cloudy"
"1999-01-02 01:00","1999","01","02","01:00","-10.8","","-15.2","","70","","7","","26","","24.1","","100.99","","","","-20","","Cloudy"
"1999-01-02 02:00","1999","01","02","02:00","-9.5","","-15.2","","63","","8","","30","","24.1","","100.93","","","","-19","","Cloudy"
"1999-01-02 03:00","1999","01","02","03:00","-9.0","","-12.4","","76","","8","","35","","25.0","","100.83","","","","-19","","Cloudy"
"1999-01-02 04:00","1999","01","02","04:00","-8.4","","-12.5","","72","","8","","37","","25.0","","100.76","","","","-18","","Cloudy"
"1999-01-02 05:00","1999","01","02","05:00","-8.2","","-12.2","","73","","8","","32","","25.0","","100.73","","","","-17","","Cloudy"
"1999-01-02 06:00","1999","01","02","06:00","-8.0","","-11.6","","75","","8","","32","","25.0","","100.66","","","","-17","","Cloudy"
"1999-01-02 07:00","1999","01","02","07:00","-7.9","","-11.1","","78","","8","","37","","8.0","","100.63","","","","-18","","Snow"
"1999-01-02 08:00","1999","01","02","08:00","-7.9","","-10.0","","85","","9","","35","","3.2","","100.63","","","","-17","","Snow"
"1999-01-02 09:00","1999","01","02","09:00","-7.9","","-9.5","","88","","8","","41","","1.6","","100.59","","","","-18","","Snow"
"1999-01-02 10:00","1999","01","02","10:00","-7.7","","-9.0","","90","","8","","46","","1.0","","100.43","","","","-18","","Snow"
"1999-01-02 11:00","1999","01","02","11:00","-6.9","","-8.4","","89","","8","","44","","1.2","","100.26","","","","-17","","Snow"
"1999-01-02 12:00","1999","01","02","12:00","-7.0","","-9.5","","82","","10","","65","","0.8","","99.96","","","","-19","","Snow,Blowing Snow"
"1999-01-02 13:00","1999","01","02","13:00","-7.6","","-9.6","","86","","10","","65","","1.2","","99.63","","","","-20","","Snow,Blowing Snow"
"1999-01-02 14:00","1999","01","02","14:00","-7.7","","-9.0","","90","","9","","56","","0.6","","99.43","","","","-19","","Moderate Snow"
"1999-01-02 15:00","1999","01","02","15:00","-6.1","","-7.3","","91","","9","","61","","0.4","","99.16","","","","-17","","Moderate Snow"
"1999-01-02 16:00","1999","01","02","16:00","-5.9","","-7.0","","92","","8","","67","","0.4","","99.03","","","","-17","","Moderate Snow"
"1999-01-02 17:00","1999","01","02","17:00","-5.5","","-6.5","","93","","7","","59","","0.2","","98.90","","","","-16","","Heavy Snow"
"1999-01-02 18:00","1999","01","02","18:00","-5.0","","-6.0","","93","","8","","59","","0.2","","98.73","","","","-16","","Heavy Snow"
"1999-01-02 19:00","1999","01","02","19:00","-4.3","","-5.2","","93","","8","","48","","0.4","","98.57","","","","-14","","Moderate Snow"
"1999-01-02 20:00","1999","01","02","20:00","-3.2","","-3.9","","95","","10","","37","","0.4","","98.37","","","","-11","","Moderate Snow"
"1999-01-02 21:00","1999","01","02","21:00","-2.9","","-3.6","","95","","10","","30","","0.6","","98.20","","","","-10","","Moderate Snow"
"1999-01-02 22:00","1999","01","02","22:00","-2.5","","-3.3","","94","","11","","37","","0.6","","98.03","","","","-10","","Moderate Snow"
"1999-01-02 23:00","1999","01","02","23:00","-1.9","","-2.6","","95","","11","","35","","1.6","","97.87","","","","-9","","Snow"
"1999-01-03 00:00","1999","01","03","00:00","-0.3","","-1.1","","94","","12","","26","","6.4","","97.80","","","","-6","","Freezing Rain,Snow"
"1999-01-03 01:00","1999","01","03","01:00","0.6","","0.0","","96","","14","","33","","2.4","","97.63","","","","","","Snow"
"1999-01-03 02:00","1999","01","03","02:00","1.1","","0.4","","95","","15","","28","","6.4","","97.53","","","","","","Rain,Snow"
"1999-01-03 03:00","1999","01","03","03:00","1.9","","1.4","","96","","18","","32","","8.0","","97.50","","","","","","Rain,Snow"
"1999-01-03 04:00","1999","01","03","04:00","0.1","","-1.4","","90","","22","","41","","16.1","","97.50","","","","","","Rain"
"1999-01-03 05:00","1999","01","03","05:00","-3.0","","-5.0","","86","","24","","52","","16.1","","97.60","","","","-12","","Cloudy"
"1999-01-03 06:00","1999","01","03","06:00","-5.2","","-8.1","","80","","24","","46","","19.3","","97.73","","","","-15","","Cloudy"
"1999-01-03 07:00","1999","01","03","07:00","-5.8","","-9.8","","73","","23","","56","","19.3","","97.83","","","","-17","","Snow"
"1999-01-03 08:00","1999","01","03","08:00","-6.1","","-10.5","","71","","22","","52","","16.1","","97.87","","","","-17","","Snow"
"1999-01-03 09:00","1999","01","03","09:00","-6.3","","-10.7","","71","","23","","50","","19.3","","97.90","","","","-17","","Cloudy"
"1999-01-03 10:00","1999","01","03","10:00","-6.2","","-9.9","","75","","23","","48","","8.0","","97.97","","","","-16","","Snow"
"1999-01-03 11:00","1999","01","03","11:00","-6.1","","-9.9","","74","","23","","52","","19.3","","98.03","","","","-17","","Mostly Cloudy"
"1999-01-03 12:00","1999","01","03","12:00","-6.1","","-9.6","","76","","23","","61","","19.3","","98.07","","","","-17","","Cloudy"
"1999-01-03 13:00","1999","01","03","13:00","-7.8","","-11.9","","72","","23","","54","","19.3","","98.13","","","","-19","","Cloudy"
"1999-01-03 14:00","1999","01","03","14:00","-8.2","","-12.5","","71","","23","","54","","20.9","","98.17","","","","-20","","Cloudy"
"1999-01-03 15:00","1999","01","03","15:00","-8.4","","-13.1","","69","","23","","59","","20.9","","98.23","","","","-20","","Mostly Cloudy"
"1999-01-03 16:00","1999","01","03","16:00","-8.6","","-13.7","","67","","23","","59","","19.3","","98.33","","","","-21","","Mainly Clear"
"1999-01-03 17:00","1999","01","03","17:00","-9.1","","-13.7","","69","","23","","54","","19.3","","98.40","","","","-21","","Mainly Clear"
"1999-01-03 18:00","1999","01","03","18:00","-9.7","","-13.8","","72","","23","","46","","24.1","","98.50","","","","-21","","Mainly Clear"
"1999-01-03 19:00","1999","01","03","19:00","-9.9","","-14.4","","70","","23","","44","","24.1","","98.53","","","","-21","","Mainly Clear"
"1999-01-03 20:00","1999","01","03","20:00","-10.5","","-14.7","","71","","24","","46","","24.1","","98.57","","","","-22","","Mainly Clear"
"1999-01-03 21:00","1999","01","03","21:00","-11.0","","-15.0","","72","","23","","44","","25.0","","98.60","","","","-23","","Mainly Clear"
"1999-01-03 22:00","1999","01","03","22:00","-10.9","","-15.1","","71","","24","","46","","25.0","","98.63","","","","-23","","Mainly Clear"
"1999-01-03 23:00","1999","01","03","23:00","-11.2","","-15.1","","73","","24","","43","","25.0","","98.70","","","","-23","","Mostly Cloudy"
"1999-01-04 00:00","1999","01","04","00:00","-11.7","","-15.4","","74","","24","","46","","25.0","","98.73","","","","-24","","Mainly Clear"
"1999-01-04 01:00","1999","01","04","01:00","-12.6","","-16.1","","75","","24","","43","","24.1","","98.80","","","","-25","","Mostly Cloudy"
"1999-01-04 02:00","1999","01","04","02:00","-13.2","","-16.5","","76","","24","","43","","24.1","","98.83","","","","-25","","Mainly Clear"
"1999-01-04 03:00","1999","01","04","03:00","-13.7","","-17.0","","76","","24","","44","","24.1","","98.93","","","","-26","","Mainly Clear"
"1999-01-04 04:00","1999","01","04","04:00","-14.0","","-17.3","","76","","24","","41","","24.1","","99.03","","","","-26","","Mostly Cloudy"
"1999-01-04 05:00","1999","01","04","05:00","-14.3","","-17.6","","76","","24","","39","","19.3","","99.06","","","","-26","","Snow Showers"
"1999-01-04 06:00","1999","01","04","06:00","-14.8","","-18.0","","77","","25","","33","","24.1","","99.20","","","","-26","","Mostly Cloudy"
"1999-01-04 07:00","1999","01","04","07:00","-15.3","","-18.3","","78","","24","","30","","19.3","","99.30","","","","-26","","Snow Showers"
"1999-01-04 08:00","1999","01","04","08:00","-15.8","","-18.6","","79","","24","","32","","16.1","","99.40","","","","-27","","Snow Showers"
"1999-01-04 09:00","1999","01","04","09:00","-15.9","","-18.7","","79","","25","","43","","24.1","","99.46","","","","-29","","Mainly Clear"
"1999-01-04 10:00","1999","01","04","10:00","-15.2","","-18.3","","77","","24","","33","","24.1","","99.56","","","","-27","","Mostly Cloudy"
"1999-01-04 11:00","1999","01","04","11:00","-14.2","","-17.6","","75","","25","","37","","24.1","","99.63","","","","-26","","Mostly Cloudy"
"1999-01-04 12:00","1999","01","04","12:00","-13.7","","-17.1","","75","","23","","33","","24.1","","99.63","","","","-25","","Mostly Cloudy"
"1999-01-04 13:00","1999","01","04","13:00","-13.4","","-17.0","","74","","23","","35","","24.1","","99.63","","","","-25","","Mainly Clear"
"1999-01-04 14:00","1999","01","04","14:00","-13.2","","-17.4","","71","","24","","33","","24.1","","99.66","","","","-24","","Mostly Cloudy"
"1999-01-04 15:00","1999","01","04","15:00","-13.4","","-18.6","","65","","24","","37","","24.1","","99.73","","","","-25","","Mostly Cloudy"
"1999-01-04 16:00","1999","01","04","16:00","-13.4","","-18.6","","65","","24","","24","","24.1","","99.83","","","","-23","","Mostly Cloudy"
"1999-01-04 17:00","1999","01","04","17:00","-13.4","","-18.2","","67","","23","","26","","24.1","","99.90","","","","-23","","Mostly Cloudy"
"1999-01-04 18:00","1999","01","04","18:00","-13.7","","-18.2","","69","","24","","26","","24.1","","99.93","","","","-24","","Mostly Cloudy"
"1999-01-04 19:00","1999","01","04","19:00","-14.1","","-18.0","","72","","24","","26","","19.3","","99.96","","","","-24","","Snow Showers"
"1999-01-04 20:00","1999","01","04","20:00","-14.5","","-18.5","","72","","24","","26","","8.0","","99.99","","","","-25","","Snow"
"1999-01-04 21:00","1999","01","04","21:00","-15.1","","-19.2","","71","","24","","30","","24.1","","100.03","","","","-26","","Snow"
"1999-01-04 22:00","1999","01","04","22:00","-15.8","","-19.9","","71","","24","","28","","8.0","","100.06","","","","-27","","Snow"
"1999-01-04 23:00","1999","01","04","23:00","-16.1","","-20.1","","71","","24","","24","","8.0","","100.09","","","","-26","","Snow"
"1999-01-05 00:00","1999","01","05","00:00","-16.7","","-20.8","","70","","25","","26","","9.7","","100.13","","","","-28","","Snow"
"1999-01-05 01:00","1999","01","05","01:00","-17.3","","-21.7","","69","","25","","19","","11.3","","100.13","","","","-27","","Snow"
"1999-01-05 02:00","1999","01","05","02:00","-18.2","","-22.6","","68","","24","","24","","24.1","","100.16","","","","-29","","Clear"
"1999-01-05 03:00","1999","01","05","03:00","-18.7","","-23.2","","68","","25","","24","","24.1","","100.26","","","","-30","","Clear"
"1999-01-05 04:00","1999","01","05","04:00","-19.2","","-23.7","","68","","24","","22","","24.1","","100.29","","","","-30","","Mostly Cloudy"
"1999-01-05 05:00","1999","01","05","05:00","-18.8","","-23.3","","68","","24","","30","","11.3","","100.26","","","","-31","","Snow Showers"
"1999-01-05 06:00","1999","01","05","06:00","-19.4","","-23.6","","69","","24","","22","","16.1","","100.33","","","","-30","","Snow Showers"
"1999-01-05 07:00","1999","01","05","07:00","-20.4","","-24.6","","69","","24","","20","","24.1","","100.33","","","","-31","","Mainly Clear"
"1999-01-05 08:00","1999","01","05","08:00","-21.0","","-25.1","","70","","24","","22","","19.3","","100.36","","","","-32","","Mainly Clear"
"1999-01-05 09:00","1999","01","05","09:00","-21.3","","-25.4","","69","","24","","28","","16.1","","100.39","","","","-34","","Mainly Clear"
"1999-01-05 10:00","1999","01","05","10:00","-20.7","","-25.2","","67","","24","","28","","16.1","","100.46","","","","-33","","Mainly Clear"
"1999-01-05 11:00","1999","01","05","11:00","-19.9","","-24.6","","66","","24","","24","","16.1","","100.53","","","","-31","","Mostly Cloudy"
"1999-01-05 12:00","1999","01","05","12:00","-18.8","","-24.0","","64","","24","","22","","19.3","","100.46","","","","-29","","Mainly Clear"
"1999-01-05 13:00","1999","01","05","13:00","-17.9","","-23.8","","60","","23","","32","","24.1","","100.36","","","","-30","","Mainly Clear"
"1999-01-05 14:00","1999","01","05","14:00","-17.3","","-23.7","","57","","23","","30","","24.1","","100.29","","","","-29","","Clear"
"1999-01-05 15:00","1999","01","05","15:00","-16.9","","-23.4","","57","","23","","26","","24.1","","100.26","","","","-28","","Clear"
"1999-01-05 16:00","1999","01","05","16:00","-16.8","","-23.4","","57","","22","","30","","24.1","","100.26","","","","-28","","Mainly Clear"
"1999-01-05 17:00","1999","01","05","17:00","-17.1","","-23.6","","57","","22","","26","","24.1","","100.26","","","","-28","","Mostly Cloudy"
"1999-01-05 18:00","1999","01","05","18:00","-17.9","","-23.6","","61","","23","","19","","24.1","","100.23","","","","-28","","Mostly Cloudy"
"1999-01-05 19:00","1999","01","05","19:00","-18.4","","-23.7","","63","","23","","15","","24.1","","100.23","","","","-27","","Mostly Cloudy"
"1999-01-05 20:00","1999","01","05","20:00","-16.9","","-21.9","","65","","21","","13","","24.1","","100.13","","","","-25","","Mostly Cloudy"
"1999-01-05 21:00","1999","01","05","21:00","-15.7","","-20.9","","64","","21","","19","","24.1","","100.06","","","","-25","","Cloudy"
"1999-01-05 22:00","1999","01","05","22:00","-14.5","","-19.9","","63","","21","","22","","24.1","","99.93","","","","-24","","Cloudy"
"1999-01-05 23:00","1999","01","05","23:00","-13.4","","-18.5","","65","","20","","22","","24.1","","99.86","","","","-23","","Cloudy"
"1999-01-06 00:00","1999","01","06","00:00","-12.7","","-17.6","","67","","20","","24","","24.1","","99.76","","","","-22","","Mostly Cloudy"
"1999-01-06 01:00","1999","01","06","01:00","-11.7","","-16.2","","69","","20","","28","","24.1","","99.63","","","","-21","","Cloudy"
"1999-01-06 02:00","1999","01","06","02:00","-10.8","","-19.7","","48","","21","","32","","4.0","","99.53","","","","-21","","Snow Showers"
"1999-01-06 03:00","1999","01","06","03:00","-10.3","","-11.9","","88","","21","","28","","2.4","","99.40","","","","-20","","Snow"
"1999-01-06 04:00","1999","01","06","04:00","-9.9","","-11.6","","87","","21","","24","","6.4","","99.26","","","","-18","","Snow"
"1999-01-06 05:00","1999","01","06","05:00","-9.1","","-10.8","","87","","21","","32","","3.2","","99.13","","","","-19","","Snow"
"1999-01-06 06:00","1999","01","06","06:00","-8.4","","-10.2","","87","","21","","28","","4.8","","99.06","","","","-17","","Snow"
"1999-01-06 07:00","1999","01","06","07:00","-7.9","","-9.5","","88","","21","","32","","1.6","","99.03","","","","-17","","Snow"
"1999-01-06 08:00","1999","01","06","08:00","-7.4","","-9.0","","88","","21","","30","","2.4","","98.96","","","","-16","","Snow"
"1999-01-06 09:00","1999","01","06","09:00","-7.0","","-8.5","","89","","22","","28","","3.2","","98.90","","","","-15","","Snow"
"1999-01-06 10:00","1999","01","06","10:00","-5.8","","-7.2","","90","","22","","33","","1.6","","98.86","","","","-14","","Snow"
"1999-01-06 11:00","1999","01","06","11:00","-5.2","","-6.5","","91","","22","","37","","2.4","","98.83","","","","-14","","Snow"
"1999-01-06 12:00","1999","01","06","12:00","-4.2","","-6.1","","87","","22","","32","","4.8","","98.70","","","","-12","","Snow"
"1999-01-06 13:00","1999","01","06","13:00","-3.2","","-5.8","","82","","22","","37","","4.0","","98.66","","","","-11","","Snow"
"1999-01-06 14:00","1999","01","06","14:00","-3.0","","-5.0","","86","","22","","37","","1.2","","98.60","","","","-11","","Snow"
"1999-01-06 15:00","1999","01","06","15:00","-3.2","","-4.6","","90","","22","","37","","1.6","","98.63","","","","-11","","Snow"
"1999-01-06 16:00","1999","01","06","16:00","-3.5","","-5.8","","84","","24","","41","","3.6","","98.80","","","","-12","","Snow"
"1999-01-06 17:00","1999","01","06","17:00","-4.8","","-9.5","","70","","28","","28","","19.3","","98.80","","","","-12","","Snow"
"1999-01-06 18:00","1999","01","06","18:00","-6.2","","-11.4","","67","","29","","41","","24.1","","98.96","","","","-16","","Mainly Clear"
"1999-01-06 19:00","1999","01","06","19:00","-7.1","","-11.7","","70","","29","","32","","16.1","","99.10","","","","-16","","Snow Showers"
"1999-01-06 20:00","1999","01","06","20:00","-8.5","","-13.9","","65","","29","","30","","24.1","","99.26","","","","-18","","Mostly Cloudy"
"1999-01-06 21:00","1999","01","06","21:00","-9.1","","-13.9","","68","","29","","28","","24.1","","99.36","","","","-18","","Mainly Clear"
"1999-01-06 22:00","1999","01","06","22:00","-9.8","","-13.6","","74","","29","","19","","24.1","","99.46","","","","-17","","Clear"
"1999-01-06 23:00","1999","01","06","23:00","-10.3","","-13.9","","75","","29","","22","","24.1","","99.60","","","","-19","","Clear"
"1999-01-07 00:00","1999","01","07","00:00","-10.6","","-14.7","","72","","29","","22","","24.1","","99.70","","","","-19","","Clear"
"1999-01-07 01:00","1999","01","07","01:00","-10.8","","-15.4","","69","","29","","22","","24.1","","99.80","","","","-19","","Clear"
"1999-01-07 02:00","1999","01","07","02:00","-11.3","","-16.0","","68","","27","","20","","24.1","","99.83","","","","-20","","Clear"
"1999-01-07 03:00","1999","01","07","03:00","-11.2","","-15.9","","68","","27","","26","","24.1","","99.96","","","","-20","","Clear"
"1999-01-07 04:00","1999","01","07","04:00","-11.5","","-15.9","","70","","29","","17","","24.1","","100.03","","","","-19","","Mostly Cloudy"
"1999-01-07 05:00","1999","01","07","05:00","-12.2","","-18.0","","62","","27","","11","","24.1","","100.09","","","","-18","","Mostly Cloudy"
"1999-01-07 06:00","1999","01","07","06:00","-12.3","","-19.6","","54","","28","","17","","24.1","","100.13","","","","-20","","Mainly Clear"
"1999-01-07 07:00","1999","01","07","07:00","-13.4","","-19.1","","62","","25","","6","","24.1","","100.23","","","","-17","","Mainly Clear"
"1999-01-07 08:00","1999","01","07","08:00","-13.5","","-16.8","","76","","23","","7","","19.3","","100.29","","","","-18","","Mostly Cloudy"
"1999-01-07 09:00","1999","01","07","09:00","-12.6","","-14.5","","86","","24","","9","","12.9","","100.36","","","","-18","","Snow Showers"
"1999-01-07 10:00","1999","01","07","10:00","-10.5","","-15.1","","69","","26","","19","","24.1","","100.43","","","","-18","","Snow Showers"
"1999-01-07 11:00","1999","01","07","11:00","-10.1","","-14.7","","69","","27","","20","","24.1","","100.53","","","","-18","","Mostly Cloudy"
"1999-01-07 12:00","1999","01","07","12:00","-9.2","","-15.4","","61","","26","","30","","24.1","","100.53","","","","-18","","Mainly Clear"
"1999-01-07 13:00","1999","01","07","13:00","-8.7","","-15.5","","58","","28","","24","","24.1","","100.46","","","","-17","","Mainly Clear"
"1999-01-07 14:00","1999","01","07","14:00","-8.3","","-15.4","","57","","26","","20","","24.1","","100.43","","","","-16","","Mainly Clear"
"1999-01-07 15:00","1999","01","07","15:00","-9.4","","-14.5","","66","","22","","24","","24.1","","100.39","","","","-18","","Mainly Clear"
"1999-01-07 16:00","1999","01","07","16:00","-9.8","","-14.7","","67","","22","","20","","24.1","","100.46","","","","-18","","Mainly Clear"
"1999-01-07 17:00","1999","01","07","17:00","-10.8","","-15.4","","69","","22","","19","","24.1","","100.49","","","","-19","","Mostly Cloudy"
"1999-01-07 18:00","1999","01","07","18:00","-12.6","","-16.2","","74","","22","","15","","24.1","","100.56","","","","-20","","Mostly Cloudy"
"1999-01-07 19:00","1999","01","07","19:00","-12.3","","-15.8","","75","","23","","19","","24.1","","100.59","","","","-21","","Mostly Cloudy"
"1999-01-07 20:00","1999","01","07","20:00","-12.5","","-15.6","","78","","23","","15","","24.1","","100.63","","","","-20","","Mostly Cloudy"
"1999-01-07 21:00","1999","01","07","21:00","-12.4","","-15.6","","77","","24","","13","","24.1","","100.59","","","","-19","","Mostly Cloudy"
"1999-01-07 22:00","1999","01","07","22:00","-13.0","","-16.1","","78","","23","","11","","24.1","","100.56","","","","-19","","Mostly Cloudy"
"1999-01-07 23:00","1999","01","07","23:00","-13.3","","-16.5","","77","","26","","11","","24.1","","100.53","","","","-20","","Mostly Cloudy"
"1999-01-08 00:00","1999","01","08","00:00","-13.7","","-16.8","","77","","25","","6","","24.1","","100.49","","","","-18","","Mostly Cloudy"
"1999-01-08 01:00","1999","01","08","01:00","-15.1","","-18.1","","78","","","","0","","24.1","","100.46","","","","","","Mostly Cloudy"
"1999-01-08 02:00","1999","01","08","02:00","-14.5","","-17.8","","76","","19","","4","","16.1","","100.43","","","","-17","","Mostly Cloudy"
"1999-01-08 03:00","1999","01","08","03:00","-14.0","","-17.2","","77","","16","","9","","19.3","","100.46","","","","-20","","Mostly Cloudy"
"1999-01-08 04:00","1999","01","08","04:00","-13.4","","-16.6","","77","","","","0","","24.1","","100.36","","","","","","Mostly Cloudy"
"1999-01-08 05:00","1999","01","08","05:00","-13.4","","-16.5","","77","","8","","2","","24.1","","100.23","","","","-15","","Mostly Cloudy"
"1999-01-08 06:00","1999","01","08","06:00","-13.1","","-16.1","","78","","5","","4","","24.1","","100.16","","","","-16","","Cloudy"
"1999-01-08 07:00","1999","01","08","07:00","-11.4","","-14.0","","81","","5","","9","","24.1","","100.09","","","","-17","","Cloudy"
"1999-01-08 08:00","1999","01","08","08:00","-10.4","","-13.0","","81","","7","","15","","16.1","","100.09","","","","-17","","Mostly Cloudy"
"1999-01-08 09:00","1999","01","08","09:00","-10.2","","-12.7","","82","","8","","19","","16.1","","100.03","","","","-18","","Cloudy"
"1999-01-08 10:00","1999","01","08","10:00","-9.7","","-12.3","","81","","6","","13","","4.8","","99.96","","","","-16","","Snow"
"1999-01-08 11:00","1999","01","08","11:00","-9.3","","-10.7","","90","","5","","17","","2.4","","99.93","","","","-16","","Snow"
"1999-01-08 12:00","1999","01","08","12:00","-9.3","","-10.7","","90","","5","","19","","2.4","","99.70","","","","-17","","Snow"
"1999-01-08 13:00","1999","01","08","13:00","-8.7","","-10.3","","88","","5","","19","","6.4","","99.50","","","","-16","","Snow"
"1999-01-08 14:00","1999","01","08","14:00","-8.3","","-9.6","","90","","5","","15","","3.2","","99.33","","","","-15","","Snow"
"1999-01-08 15:00","1999","01","08","15:00","-8.1","","-9.6","","89","","4","","11","","0.8","","99.33","","","","-13","","Moderate Snow"
"1999-01-08 16:00","1999","01","08","16:00","-7.9","","-9.4","","89","","5","","15","","2.0","","99.20","","","","-14","","Snow"
"1999-01-08 17:00","1999","01","08","17:00","-7.9","","-9.4","","89","","5","","19","","2.4","","99.13","","","","-15","","Snow"
"1999-01-08 18:00","1999","01","08","18:00","-7.6","","-9.2","","88","","4","","19","","3.2","","99.10","","","","-15","","Snow"
"1999-01-08 19:00","1999","01","08","19:00","-7.5","","-9.1","","88","","3","","15","","4.8","","99.10","","","","-14","","Snow"
"1999-01-08 20:00","1999","01","08","20:00","-7.6","","-9.2","","88","","3","","20","","3.2","","99.06","","","","-15","","Snow"
"1999-01-08 21:00","1999","01","08","21:00","-7.6","","-9.2","","88","","2","","20","","3.6","","98.96","","","","-15","","Snow"
"1999-01-08 22:00","1999","01","08","22:00","-7.6","","-9.4","","87","","1","","24","","3.2","","98.93","","","","-16","","Snow"
"1999-01-08 23:00","1999","01","08","23:00","-7.9","","-10.0","","85","","35","","22","","4.0","","98.96","","","","-16","","Snow"
"1999-01-09 00:00","1999","01","09","00:00","-8.2","","-10.1","","86","","34","","24","","3.2","","98.93","","","","-16","","Snow"
"1999-01-09 01:00","1999","01","09","01:00","-8.1","","-10.2","","85","","34","","28","","3.6","","98.90","","","","-17","","Snow"
"1999-01-09 02:00","1999","01","09","02:00","-8.0","","-10.2","","84","","34","","20","","3.6","","98.90","","","","-15","","Snow"
"1999-01-09 03:00","1999","01","09","03:00","-7.9","","-10.0","","85","","33","","32","","3.2","","98.93","","","","-17","","Snow"
"1999-01-09 04:00","1999","01","09","04:00","-7.9","","-10.3","","83","","34","","32","","4.8","","98.93","","","","-17","","Snow"
"1999-01-09 05:00","1999","01","09","05:00","-8.1","","-11.1","","79","","33","","30","","19.3","","98.93","","","","-17","","Cloudy"
"1999-01-09 06:00","1999","01","09","06:00","-8.6","","-11.8","","78","","32","","30","","24.1","","99.00","","","","-18","","Cloudy"
"1999-01-09 07:00","1999","01","09","07:00","-9.2","","-11.8","","81","","32","","20","","24.1","","99.06","","","","-17","","Cloudy"
"1999-01-09 08:00","1999","01","09","08:00","-9.5","","-12.0","","82","","30","","20","","19.3","","99.16","","","","-17","","Cloudy"
"1999-01-09 09:00","1999","01","09","09:00","-9.0","","-11.9","","79","","31","","19","","19.3","","99.20","","","","-16","","Cloudy"
"1999-01-09 10:00","1999","01","09","10:00","-9.1","","-11.9","","80","","29","","24","","19.3","","99.33","","","","-17","","Cloudy"
"1999-01-09 11:00","1999","01","09","11:00","-8.5","","-12.2","","75","","29","","26","","24.1","","99.46","","","","-17","","Cloudy"
"1999-01-09 12:00","1999","01","09","12:00","-7.6","","-11.8","","72","","30","","26","","24.1","","99.43","","","","-16","","Mostly Cloudy"
"1999-01-09 13:00","1999","01","09","13:00","-6.8","","-11.8","","68","","31","","22","","24.1","","99.40","","","","-14","","Mainly Clear"
"1999-01-09 14:00","1999","01","09","14:00","-6.3","","-12.0","","64","","28","","19","","24.1","","99.40","","","","-13","","Mainly Clear"
"1999-01-09 15:00","1999","01","09","15:00","-6.5","","-13.0","","60","","28","","24","","24.1","","99.46","","","","-14","","Mainly Clear"
"1999-01-09 16:00","1999","01","09","16:00","-6.5","","-12.6","","62","","30","","22","","24.1","","99.53","","","","-14","","Mostly Cloudy"
"1999-01-09 17:00","1999","01","09","17:00","-6.8","","-12.6","","63","","28","","17","","24.1","","99.60","","","","-13","","Mostly Cloudy"
"1999-01-09 18:00","1999","01","09","18:00","-7.8","","-14.9","","57","","29","","22","","24.1","","99.70","","","","-15","","Mainly Clear"
"1999-01-09 19:00","1999","01","09","19:00","-8.5","","-15.6","","56","","28","","20","","25.0","","99.76","","","","-16","","Clear"
"1999-01-09 20:00","1999","01","09","20:00","-9.4","","-15.5","","61","","28","","13","","25.0","","99.80","","","","-15","","Clear"
"1999-01-09 21:00","1999","01","09","21:00","-9.9","","-15.6","","63","","29","","20","","25.0","","99.83","","","","-18","","Clear"
"1999-01-09 22:00","1999","01","09","22:00","-11.3","","-15.6","","70","","29","","11","","25.0","","99.83","","","","-17","","Mainly Clear"
"1999-01-09 23:00","1999","01","09","23:00","-11.9","","-15.3","","76","","27","","13","","25.0","","99.83","","","","-19","","Mainly Clear"
"1999-01-10 00:00","1999","01","10","00:00","-13.7","","-16.4","","80","","21","","11","","25.0","","99.80","","","","-20","","Mainly Clear"
"1999-01-10 01:00","1999","01","10","01:00","-14.1","","-16.3","","83","","23","","11","","25.0","","99.76","","","","-21","","Clear"
"1999-01-10 02:00","1999","01","10","02:00","-14.0","","-15.9","","85","","25","","13","","25.0","","99.63","","","","-21","","Clear"
"1999-01-10 03:00","1999","01","10","03:00","-15.6","","-17.8","","83","","24","","13","","25.0","","99.73","","","","-23","","Clear"
"1999-01-10 04:00","1999","01","10","04:00","-16.8","","-20.6","","72","","21","","11","","25.0","","99.70","","","","-24","","Clear"
"1999-01-10 05:00","1999","01","10","05:00","-17.3","","-20.8","","74","","22","","15","","25.0","","99.63","","","","-26","","Mostly Cloudy"
"1999-01-10 06:00","1999","01","10","06:00","-16.5","","-20.7","","70","","22","","13","","25.0","","99.60","","","","-24","","Mainly Clear"
"1999-01-10 07:00","1999","01","10","07:00","-18.0","","-21.7","","73","","20","","24","","25.0","","99.53","","","","-29","","Mostly Cloudy"
"1999-01-10 08:00","1999","01","10","08:00","-17.7","","-21.5","","72","","21","","22","","24.1","","99.53","","","","-28","","Mostly Cloudy"
"1999-01-10 09:00","1999","01","10","09:00","-17.0","","-21.3","","69","","20","","28","","24.1","","99.46","","","","-28","","Cloudy"
"1999-01-10 10:00","1999","01","10","10:00","-16.3","","-20.2","","72","","20","","30","","3.2","","99.36","","","","-28","","Snow Showers"
"1999-01-10 11:00","1999","01","10","11:00","-15.2","","-18.8","","74","","21","","33","","3.2","","99.30","","","","-27","","Snow Showers,Blowing Snow"
"1999-01-10 12:00","1999","01","10","12:00","-13.7","","-17.4","","74","","22","","32","","3.2","","99.16","","","","-25","","Snow Showers,Blowing Snow"
"1999-01-10 13:00","1999","01","10","13:00","-13.0","","-17.0","","72","","23","","37","","4.0","","99.06","","","","-24","","Snow Showers,Blowing Snow"
"1999-01-10 14:00","1999","01","10","14:00","-11.9","","-15.8","","73","","23","","44","","9.7","","98.96","","","","-24","","Snow Showers,Blowing Snow"
"1999-01-10 15:00","1999","01","10","15:00","-11.1","","-15.1","","72","","24","","39","","12.9","","98.86","","","","-22","","Cloudy"
"1999-01-10 16:00","1999","01","10","16:00","-10.5","","-14.2","","74","","24","","26","","11.3","","98.96","","","","-20","","Mostly Cloudy"
"1999-01-10 17:00","1999","01","10","17:00","-10.2","","-12.7","","82","","23","","26","","4.0","","99.03","","","","-19","","Snow"
"1999-01-10 18:00","1999","01","10","18:00","-10.1","","-12.0","","86","","24","","24","","2.4","","99.10","","","","-19","","Snow"
"1999-01-10 19:00","1999","01","10","19:00","-9.7","","-12.6","","79","","29","","11","","9.7","","99.16","","","","-15","","Snow"
"1999-01-10 20:00","1999","01","10","20:00","-10.2","","-14.9","","68","","28","","24","","16.1","","99.23","","","","-19","","Snow"
"1999-01-10 21:00","1999","01","10","21:00","-10.7","","-14.0","","77","","30","","24","","8.0","","99.30","","","","-19","","Snow"
"1999-01-10 22:00","1999","01","10","22:00","-11.8","","-16.0","","71","","30","","20","","19.3","","99.33","","","","-20","","Snow"
"1999-01-10 23:00","1999","01","10","23:00","-12.7","","-16.1","","76","","29","","15","","24.1","","99.40","","","","-20","","Snow"
"1999-01-11 00:00","1999","01","11","00:00","-12.6","","-16.0","","76","","29","","20","","24.1","","99.46","","","","-21","","Snow"
"1999-01-11 01:00","1999","01","11","01:00","-13.7","","-20.5","","56","","28","","19","","24.1","","99.53","","","","-22","","Snow"
"1999-01-11 02:00","1999","01","11","02:00","-14.1","","-21.0","","56","","29","","19","","24.1","","99.60","","","","-23","","Snow"
"1999-01-11 03:00","1999","01","11","03:00","-15.1","","-20.8","","62","","27","","20","","24.1","","99.70","","","","-24","","Mainly Clear"
"1999-01-11 04:00","1999","01","11","04:00","-15.9","","-21.5","","62","","26","","19","","24.1","","99.73","","","","-25","","Clear"
"1999-01-11 05:00","1999","01","11","05:00","-16.5","","-21.3","","66","","25","","13","","24.1","","99.76","","","","-24","","Clear"
"1999-01-11 06:00","1999","01","11","06:00","-17.5","","-21.4","","72","","24","","15","","24.1","","99.83","","","","-26","","Clear"
"1999-01-11 07:00","1999","01","11","07:00","-17.3","","-20.7","","75","","24","","15","","24.1","","99.90","","","","-26","","Mainly Clear"
"1999-01-11 08:00","1999","01","11","08:00","-17.0","","-20.3","","75","","22","","9","","16.1","","99.93","","","","-23","","Mostly Cloudy"
"1999-01-11 09:00","1999","01","11","09:00","-16.6","","-20.1","","74","","22","","17","","12.9","","99.96","","","","-25","","Cloudy"
"1999-01-11 10:00","1999","01","11","10:00","-15.6","","-19.7","","71","","23","","19","","19.3","","99.93","","","","-25","","Cloudy"
"1999-01-11 11:00","1999","01","11","11:00","-15.8","","-20.0","","70","","31","","20","","8.0","","99.90","","","","-25","","Snow Showers"
"1999-01-11 12:00","1999","01","11","12:00","-15.1","","-18.8","","73","","22","","24","","8.0","","99.83","","","","-25","","Snow Showers"
"1999-01-11 13:00","1999","01","11","13:00","-14.7","","-18.1","","75","","21","","24","","1.6","","99.70","","","","-25","","Snow"
"1999-01-11 14:00","1999","01","11","14:00","-14.5","","-17.8","","76","","21","","19","","1.6","","99.53","","","","-23","","Snow"
"1999-01-11 15:00","1999","01","11","15:00","-14.3","","-17.7","","75","","21","","22","","1.6","","99.43","","","","-24","","Snow"
"1999-01-11 16:00","1999","01","11","16:00","-14.4","","-17.7","","76","","21","","22","","1.2","","99.26","","","","-24","","Snow"
"1999-01-11 17:00","1999","01","11","17:00","-14.2","","-17.0","","79","","18","","19","","1.0","","99.03","","","","-23","","Snow"
"1999-01-11 18:00","1999","01","11","18:00","-13.6","","-15.9","","83","","16","","7","","0.8","","98.90","","","","-18","","Moderate Snow"
"1999-01-11 19:00","1999","01","11","19:00","-12.5","","-14.4","","86","","15","","6","","1.0","","98.76","","","","-16","","Snow"
"1999-01-11 20:00","1999","01","11","20:00","-11.9","","-13.7","","86","","9","","6","","1.6","","98.60","","","","-16","","Snow"
"1999-01-11 21:00","1999","01","11","21:00","-9.1","","-10.4","","90","","17","","7","","4.0","","98.47","","","","-13","","Snow"
"1999-01-11 22:00","1999","01","11","22:00","-8.3","","-9.6","","90","","18","","7","","8.0","","98.33","","","","-12","","Snow"
"1999-01-11 23:00","1999","01","11","23:00","-7.3","","-8.7","","90","","22","","15","","12.9","","98.27","","","","-13","","Snow"
"1999-01-12 00:00","1999","01","12","00:00","-7.3","","-8.7","","90","","22","","11","","8.0","","98.23","","","","-12","","Snow"
"1999-01-12 01:00","1999","01","12","01:00","-7.1","","-8.4","","90","","25","","9","","11.3","","98.23","","","","-11","","Snow"
"1999-01-12 02:00","1999","01","12","02:00","-6.5","","-8.1","","88","","29","","13","","8.0","","98.30","","","","-12","","Snow"
"1999-01-12 03:00","1999","01","12","03:00","-7.4","","-9.3","","86","","30","","15","","12.9","","98.47","","","","-14","","Snow"
"1999-01-12 04:00","1999","01","12","04:00","-7.4","","-9.5","","85","","28","","15","","12.9","","98.50","","","","-14","","Snow"
"1999-01-12 05:00","1999","01","12","05:00","-7.2","","-9.2","","86","","28","","11","","8.0","","98.60","","","","-12","","Snow"
"1999-01-12 06:00","1999","01","12","06:00","-6.9","","-8.7","","87","","28","","7","","4.8","","98.73","","","","-10","","Snow"
"1999-01-12 07:00","1999","01","12","07:00","-6.9","","-7.9","","93","","29","","13","","2.4","","98.90","","","","-12","","Snow,Fog"
"1999-01-12 08:00","1999","01","12","08:00","-7.2","","-8.1","","93","","36","","11","","3.2","","98.96","","","","-12","","Snow Showers,Fog"
"1999-01-12 09:00","1999","01","12","09:00","-7.3","","-8.3","","93","","1","","4","","2.4","","99.06","","","","-9","","Snow Showers,Fog"
"1999-01-12 10:00","1999","01","12","10:00","-7.4","","-8.6","","91","","4","","2","","2.0","","99.13","","","","-8","","Snow,Fog"
"1999-01-12 11:00","1999","01","12","11:00","-7.3","","-8.8","","89","","13","","2","","1.0","","99.20","","","","-8","","Snow"
"1999-01-12 12:00","1999","01","12","12:00","-6.7","","-8.2","","89","","2","","6","","3.2","","99.16","","","","-10","","Snow"
"1999-01-12 13:00","1999","01","12","13:00","-8.1","","-9.5","","90","","7","","11","","1.2","","99.13","","","","-13","","Snow"
"1999-01-12 14:00","1999","01","12","14:00","-8.5","","-10.0","","89","","7","","13","","1.2","","99.13","","","","-14","","Snow"
"1999-01-12 15:00","1999","01","12","15:00","-8.7","","-10.2","","89","","7","","15","","2.0","","99.16","","","","-15","","Snow"
"1999-01-12 16:00","1999","01","12","16:00","-9.1","","-10.8","","87","","4","","17","","12.9","","99.20","","","","-16","","Snow"
"1999-01-12 17:00","1999","01","12","17:00","-9.0","","-10.8","","87","","3","","9","","16.1","","99.30","","","","-14","","Snow"
"1999-01-12 18:00","1999","01","12","18:00","-8.8","","-10.5","","87","","5","","15","","11.3","","99.30","","","","-15","","Snow"
"1999-01-12 19:00","1999","01","12","19:00","-8.9","","-10.7","","87","","4","","11","","12.9","","99.30","","","","-14","","Snow"
"1999-01-12 20:00","1999","01","12","20:00","-8.7","","-10.3","","88","","3","","17","","8.0","","99.30","","","","-16","","Snow"
"1999-01-12 21:00","1999","01","12","21:00","-8.3","","-10.0","","88","","2","","17","","3.2","","99.33","","","","-15","","Snow Showers"
"1999-01-12 22:00","1999","01","12","22:00","-8.0","","-9.4","","90","","2","","17","","2.4","","99.36","","","","-15","","Snow Showers"
"1999-01-12 23:00","1999","01","12","23:00","-7.7","","-9.3","","88","","1","","19","","1.6","","99.36","","","","-15","","Snow Showers"
"1999-01-13 00:00","1999","01","13","00:00","-7.6","","-9.1","","89","","2","","20","","2.0","","99.33","","","","-15","","Snow"
"1999-01-13 01:00","1999","01","13","01:00","-6.8","","-8.2","","90","","3","","17","","1.6","","99.33","","","","-13","","Snow,Ice Pellets"
"1999-01-13 02:00","1999","01","13","02:00","-6.3","","-7.9","","88","","3","","19","","2.0","","99.40","","","","-13","","Snow"
"1999-01-13 03:00","1999","01","13","03:00","-6.8","","-8.2","","90","","4","","24","","1.6","","99.50","","","","-14","","Snow"
"1999-01-13 04:00","1999","01","13","04:00","-7.5","","-8.8","","90","","4","","28","","1.6","","99.60","","","","-16","","Snow"
"1999-01-13 05:00","1999","01","13","05:00","-7.8","","-9.2","","90","","4","","30","","1.6","","99.60","","","","-17","","Snow"
"1999-01-13 06:00","1999","01","13","06:00","-8.2","","-9.6","","90","","4","","35","","3.2","","99.80","","","","-18","","Snow"
"1999-01-13 07:00","1999","01","13","07:00","-8.5","","-10.1","","88","","5","","33","","6.4","","99.90","","","","-18","","Snow"
"1999-01-13 08:00","1999","01","13","08:00","-9.2","","-11.2","","85","","7","","37","","11.3","","99.99","","","","-19","","Snow"
"1999-01-13 09:00","1999","01","13","09:00","-9.3","","-11.5","","84","","6","","28","","16.1","","100.16","","","","-18","","Snow"
"1999-01-13 10:00","1999","01","13","10:00","-9.0","","-11.3","","83","","7","","33","","19.3","","100.26","","","","-19","","Snow"
"1999-01-13 11:00","1999","01","13","11:00","-9.7","","-12.9","","77","","5","","33","","24.1","","100.39","","","","-20","","Mostly Cloudy"
"1999-01-13 12:00","1999","01","13","12:00","-10.8","","-14.1","","77","","4","","44","","24.1","","100.46","","","","-22","","Mostly Cloudy"
"1999-01-13 13:00","1999","01","13","13:00","-11.1","","-14.9","","73","","5","","35","","24.1","","100.39","","","","-22","","Mostly Cloudy"
"1999-01-13 14:00","1999","01","13","14:00","-11.9","","-15.5","","75","","5","","46","","24.1","","100.43","","","","-24","","Mostly Cloudy"
"1999-01-13 15:00","1999","01","13","15:00","-12.7","","-16.6","","73","","6","","37","","24.1","","100.49","","","","-24","","Mostly Cloudy"
"1999-01-13 16:00","1999","01","13","16:00","-13.4","","-21.9","","49","","5","","32","","24.1","","100.59","","","","-24","","Mainly Clear"
"1999-01-13 17:00","1999","01","13","17:00","-13.9","","-20.6","","57","","4","","33","","24.1","","100.69","","","","-25","","Mostly Cloudy"
"1999-01-13 18:00","1999","01","13","18:00","-15.1","","-22.1","","55","","5","","41","","24.1","","100.79","","","","-28","","Mostly Cloudy"
"1999-01-13 19:00","1999","01","13","19:00","-16.2","","-23.5","","53","","4","","33","","19.3","","100.83","","","","-28","","Mostly Cloudy"
"1999-01-13 20:00","1999","01","13","20:00","-16.7","","-24.0","","53","","5","","30","","19.3","","100.86","","","","-28","","Mostly Cloudy"
"1999-01-13 21:00","1999","01","13","21:00","-17.4","","-24.9","","52","","4","","33","","19.3","","100.83","","","","-30","","Mostly Cloudy"
"1999-01-13 22:00","1999","01","13","22:00","-17.8","","-24.3","","57","","5","","43","","19.3","","100.83","","","","-32","","Mostly Cloudy"
"1999-01-13 23:00","1999","01","13","23:00","-18.2","","-24.2","","59","","5","","41","","19.3","","100.83","","","","-32","","Mostly Cloudy"
"1999-01-14 00:00","1999","01","14","00:00","-17.9","","-23.6","","61","","5","","44","","19.3","","100.76","","","","-32","","Mostly Cloudy"
"1999-01-14 01:00","1999","01","14","01:00","-18.0","","-23.3","","63","","4","","41","","16.1","","100.73","","","","-32","","Cloudy"
"1999-01-14 02:00","1999","01","14","02:00","-18.5","","-23.7","","64","","4","","37","","16.1","","100.66","","","","-32","","Cloudy"
"1999-01-14 03:00","1999","01","14","03:00","-18.8","","-23.7","","65","","4","","37","","16.1","","100.59","","","","-32","","Cloudy"
"1999-01-14 04:00","1999","01","14","04:00","-18.6","","-23.2","","67","","4","","37","","16.1","","100.53","","","","-32","","Cloudy"
"1999-01-14 05:00","1999","01","14","05:00","-18.2","","-22.8","","67","","4","","33","","16.1","","100.46","","","","-31","","Snow"
"1999-01-14 06:00","1999","01","14","06:00","-17.8","","-22.1","","69","","4","","32","","16.1","","100.43","","","","-30","","Snow"
"1999-01-14 07:00","1999","01","14","07:00","-17.3","","-21.3","","71","","3","","35","","9.7","","100.43","","","","-30","","Snow"
"1999-01-14 08:00","1999","01","14","08:00","-16.6","","-20.7","","71","","3","","30","","9.7","","100.36","","","","-28","","Snow"
"1999-01-14 09:00","1999","01","14","09:00","-15.9","","-19.9","","71","","3","","26","","12.9","","100.36","","","","-27","","Snow"
"1999-01-14 10:00","1999","01","14","10:00","-15.5","","-19.6","","71","","3","","26","","9.7","","100.26","","","","-26","","Snow"
"1999-01-14 11:00","1999","01","14","11:00","-14.9","","-18.7","","73","","3","","19","","16.1","","100.23","","","","-24","","Snow"
"1999-01-14 12:00","1999","01","14","12:00","-14.1","","-17.7","","74","","2","","32","","16.1","","100.13","","","","-25","","Snow"
"1999-01-14 13:00","1999","01","14","13:00","-13.0","","-16.6","","74","","2","","22","","2.0","","100.03","","","","-22","","Snow"
"1999-01-14 14:00","1999","01","14","14:00","-12.4","","-16.0","","74","","2","","26","","4.8","","99.93","","","","-22","","Snow"
"1999-01-14 15:00","1999","01","14","15:00","-12.1","","-15.8","","74","","2","","20","","12.9","","99.86","","","","-21","","Snow"
"1999-01-14 16:00","1999","01","14","16:00","-12.0","","-15.5","","75","","1","","26","","1.6","","99.86","","","","-22","","Snow"
"1999-01-14 17:00","1999","01","14","17:00","-11.9","","-15.3","","76","","2","","19","","2.4","","99.83","","","","-20","","Snow"
"1999-01-14 18:00","1999","01","14","18:00","-11.9","","-15.2","","76","","1","","24","","9.7","","99.80","","","","-21","","Snow"
"1999-01-14 19:00","1999","01","14","19:00","-11.7","","-15.1","","76","","36","","19","","9.7","","99.83","","","","-20","","Snow"
"1999-01-14 20:00","1999","01","14","20:00","-11.5","","-14.7","","77","","2","","15","","16.1","","99.66","","","","-19","","Snow"
"1999-01-14 21:00","1999","01","14","21:00","-11.3","","-14.6","","77","","2","","4","","12.9","","99.70","","","","-14","","Snow Showers"
"1999-01-14 22:00","1999","01","14","22:00","-11.2","","-14.3","","78","","35","","15","","12.9","","99.66","","","","-18","","Snow Showers"
"1999-01-14 23:00","1999","01","14","23:00","-10.8","","-14.0","","77","","34","","13","","12.9","","99.56","","","","-17","","Snow Showers"
"1999-01-15 00:00","1999","01","15","00:00","-10.9","","-13.1","","84","","32","","11","","3.2","","99.60","","","","-17","","Snow Showers"
"1999-01-15 01:00","1999","01","15","01:00","-11.2","","-13.2","","85","","29","","15","","3.2","","99.53","","","","-18","","Snow Showers"
"1999-01-15 02:00","1999","01","15","02:00","-11.1","","-13.9","","80","","29","","17","","12.9","","99.53","","","","-19","","Snow Showers"
"1999-01-15 03:00","1999","01","15","03:00","-11.1","","-14.4","","77","","29","","17","","16.1","","99.50","","","","-19","","Snow Showers"
"1999-01-15 04:00","1999","01","15","04:00","-11.5","","-14.9","","76","","30","","15","","16.1","","99.50","","","","-19","","Snow Showers"
"1999-01-15 05:00","1999","01","15","05:00","-11.9","","-14.8","","79","","28","","15","","19.3","","99.50","","","","-19","","Snow Showers"
"1999-01-15 06:00","1999","01","15","06:00","-12.0","","-15.2","","77","","29","","17","","19.3","","99.46","","","","-20","","Cloudy"
"1999-01-15 07:00","1999","01","15","07:00","-12.4","","-15.6","","77","","25","","17","","19.3","","99.50","","","","-20","","Cloudy"
"1999-01-15 08:00","1999","01","15","08:00","-13.4","","-16.0","","81","","27","","11","","19.3","","99.53","","","","-20","","Mostly Cloudy"
"1999-01-15 09:00","1999","01","15","09:00","-12.9","","-15.6","","80","","28","","13","","24.1","","99.46","","","","-20","","Mostly Cloudy"
"1999-01-15 10:00","1999","01","15","10:00","-12.6","","-15.6","","78","","26","","17","","24.1","","99.50","","","","-20","","Cloudy"
"1999-01-15 11:00","1999","01","15","11:00","-12.0","","-15.4","","76","","26","","19","","24.1","","99.50","","","","-20","","Cloudy"
"1999-01-15 12:00","1999","01","15","12:00","-11.6","","-15.1","","75","","24","","19","","24.1","","99.43","","","","-20","","Cloudy"
"1999-01-15 13:00","1999","01","15","13:00","-10.7","","-14.6","","73","","25","","22","","24.1","","99.40","","","","-19","","Mostly Cloudy"
"1999-01-15 14:00","1999","01","15","14:00","-9.6","","-13.6","","73","","24","","22","","24.1","","99.33","","","","-18","","Mainly Clear"
"1999-01-15 15:00","1999","01","15","15:00","-8.8","","-13.2","","70","","22","","19","","24.1","","99.26","","","","-16","","Mainly Clear"
"1999-01-15 16:00","1999","01","15","16:00","-8.4","","-12.4","","73","","22","","17","","24.1","","99.26","","","","-15","","Mainly Clear"
"1999-01-15 17:00","1999","01","15","17:00","-9.6","","-13.1","","76","","22","","17","","24.1","","99.26","","","","-17","","Clear"
"1999-01-15 18:00","1999","01","15","18:00","-10.8","","-13.4","","81","","21","","19","","24.1","","99.23","","","","-19","","Clear"
"1999-01-15 19:00","1999","01","15","19:00","-9.5","","-11.8","","83","","21","","17","","16.1","","99.20","","","","-17","","Snow Showers"
"1999-01-15 20:00","1999","01","15","20:00","-8.3","","-10.4","","85","","20","","20","","16.1","","99.20","","","","-16","","Snow Showers"
"1999-01-15 21:00","1999","01","15","21:00","-8.0","","-10.1","","85","","21","","13","","12.9","","99.10","","","","-14","","Snow Showers"
"1999-01-15 22:00","1999","01","15","22:00","-7.8","","-9.9","","85","","21","","19","","12.9","","99.03","","","","-15","","Snow Showers"
"1999-01-15 23:00","1999","01","15","23:00","-7.9","","-9.9","","86","","22","","20","","9.7","","98.96","","","","-15","","Snow Showers,Fog"
"1999-01-16 00:00","1999","01","16","00:00","-7.2","","-9.0","","87","","20","","20","","12.9","","98.86","","","","-14","","Cloudy"
"1999-01-16 01:00","1999","01","16","01:00","-6.6","","-8.4","","87","","22","","22","","12.9","","98.86","","","","-14","","Cloudy"
"1999-01-16 02:00","1999","01","16","02:00","-5.7","","-7.3","","88","","21","","17","","16.1","","98.76","","","","-12","","Cloudy"
"1999-01-16 03:00","1999","01","16","03:00","-5.2","","-6.8","","88","","21","","17","","16.1","","98.73","","","","-11","","Cloudy"
"1999-01-16 04:00","1999","01","16","04:00","-4.0","","-5.7","","88","","20","","22","","16.1","","98.57","","","","-11","","Cloudy"
"1999-01-16 05:00","1999","01","16","05:00","-3.4","","-5.2","","87","","20","","26","","16.1","","98.43","","","","-10","","Cloudy"
"1999-01-16 06:00","1999","01","16","06:00","-2.6","","-4.6","","86","","20","","28","","16.1","","98.37","","","","-10","","Cloudy"
"1999-01-16 07:00","1999","01","16","07:00","-1.7","","-3.9","","85","","21","","33","","16.1","","98.30","","","","-9","","Cloudy"
"1999-01-16 08:00","1999","01","16","08:00","-0.9","","-3.2","","84","","22","","35","","9.7","","98.27","","","","-8","","Haze"
"1999-01-16 09:00","1999","01","16","09:00","-0.1","","-2.8","","82","","23","","28","","12.9","","98.27","","","","-6","","Cloudy"
"1999-01-16 10:00","1999","01","16","10:00","0.6","","-2.4","","80","","24","","32","","16.1","","98.30","","","","","","Mostly Cloudy"
"1999-01-16 11:00","1999","01","16","11:00","1.3","","-2.0","","79","","24","","35","","19.3","","98.30","","","","","","Mostly Cloudy"
"1999-01-16 12:00","1999","01","16","12:00","2.3","","-1.4","","77","","25","","41","","19.3","","98.33","","","","","","Cloudy"
"1999-01-16 13:00","1999","01","16","13:00","2.3","","-1.2","","78","","24","","32","","19.3","","98.33","","","","","","Cloudy"
"1999-01-16 14:00","1999","01","16","14:00","2.8","","-0.9","","77","","24","","28","","19.3","","98.37","","","","","","Cloudy"
"1999-01-16 15:00","1999","01","16","15:00","3.5","","-0.4","","76","","25","","24","","19.3","","98.40","","","","","","Mainly Clear"
"1999-01-16 16:00","1999","01","16","16:00","3.7","","-0.3","","75","","24","","26","","19.3","","98.53","","","","","","Mainly Clear"
"1999-01-16 17:00","1999","01","16","17:00","3.4","","-0.3","","77","","23","","28","","19.3","","98.63","","","","","","Mainly Clear"
"1999-01-16 18:00","1999","01","16","18:00","2.6","","-0.7","","79","","24","","24","","19.3","","98.80","","","","","","Mainly Clear"
"1999-01-16 19:00","1999","01","16","19:00","2.1","","-0.8","","81","","24","","30","","19.3","","98.90","","","","","","Mainly Clear"
"1999-01-16 20:00","1999","01","16","20:00","1.6","","-1.3","","81","","23","","24","","24.1","","99.03","","","","","","Clear"
"1999-01-16 21:00","1999","01","16","21:00","1.3","","-1.4","","82","","24","","24","","24.1","","99.16","","","","","","Clear"
"1999-01-16 22:00","1999","01","16","22:00","0.8","","-1.8","","83","","23","","24","","24.1","","99.23","","","","","","Clear"
"1999-01-16 23:00","1999","01","16","23:00","0.1","","-2.2","","84","","23","","24","","24.1","","99.33","","","","","","Clear"
"1999-01-17 00:00","1999","01","17","00:00","-0.5","","-2.7","","85","","23","","20","","24.1","","99.36","","","","-6","","Clear"
"1999-01-17 01:00","1999","01","17","01:00","-0.8","","-3.3","","83","","23","","20","","24.1","","99.43","","","","-6","","Clear"
"1999-01-17 02:00","1999","01","17","02:00","-2.2","","-4.4","","85","","24","","15","","24.1","","99.50","","","","-7","","Clear"
"1999-01-17 03:00","1999","01","17","03:00","-3.5","","-5.2","","88","","23","","15","","24.1","","99.53","","","","-9","","Clear"
"1999-01-17 04:00","1999","01","17","04:00","-5.4","","-6.9","","89","","21","","15","","24.1","","99.56","","","","-11","","Clear"
"1999-01-17 05:00","1999","01","17","05:00","-7.4","","-8.6","","91","","22","","15","","0.2","","99.63","","","","-14","","Fog"
"1999-01-17 06:00","1999","01","17","06:00","-8.4","","-9.9","","89","","21","","7","","0.2","","99.66","","","","-12","","Fog"
"1999-01-17 07:00","1999","01","17","07:00","-9.0","","-10.5","","89","","20","","9","","0.2","","99.73","","","","-14","","Fog"
"1999-01-17 08:00","1999","01","17","08:00","-8.0","","-9.2","","91","","17","","4","","0.0","","99.73","","","","-10","","Fog"
"1999-01-17 09:00","1999","01","17","09:00","-8.3","","-9.6","","90","","11","","4","","0.2","","99.70","","","","-10","","Fog"
"1999-01-17 10:00","1999","01","17","10:00","-6.8","","-7.9","","92","","9","","4","","0.6","","99.70","","","","-9","","Fog"
"1999-01-17 11:00","1999","01","17","11:00","-3.2","","-4.0","","94","","19","","11","","0.6","","99.76","","","","-7","","Fog"
"1999-01-17 12:00","1999","01","17","12:00","-1.5","","-2.1","","96","","15","","6","","0.2","","99.63","","","","-4","","Fog"
"1999-01-17 13:00","1999","01","17","13:00","0.8","","0.7","","99","","12","","13","","4.8","","99.43","","","","","","Fog"
"1999-01-17 14:00","1999","01","17","14:00","2.6","","-0.2","","82","","13","","15","","16.1","","99.33","","","","","","Mostly Cloudy"
"1999-01-17 15:00","1999","01","17","15:00","2.8","","-2.0","","71","","12","","17","","19.3","","99.20","","","","","","Mostly Cloudy"
"1999-01-17 16:00","1999","01","17","16:00","3.0","","-1.7","","71","","10","","19","","19.3","","99.03","","","","","","Cloudy"
"1999-01-17 17:00","1999","01","17","17:00","2.5","","-1.5","","75","","15","","15","","19.3","","98.96","","","","","","Cloudy"
"1999-01-17 18:00","1999","01","17","18:00","3.0","","-0.9","","76","","10","","17","","16.1","","98.80","","","","","","Cloudy"
"1999-01-17 19:00","1999","01","17","19:00","3.8","","-0.2","","75","","12","","20","","16.1","","98.66","","","","","","Rain Showers"
"1999-01-17 20:00","1999","01","17","20:00","3.3","","0.8","","84","","14","","24","","6.4","","98.60","","","","","","Rain Showers,Fog"
"1999-01-17 21:00","1999","01","17","21:00","3.7","","2.1","","89","","14","","22","","8.0","","98.47","","","","","","Rain Showers,Fog"
"1999-01-17 22:00","1999","01","17","22:00","3.0","","1.8","","92","","17","","19","","8.0","","98.33","","","","","","Rain Showers,Fog"
"1999-01-17 23:00","1999","01","17","23:00","3.1","","2.2","","94","","16","","19","","8.0","","98.20","","","","","","Rain Showers,Fog"
"1999-01-18 00:00","1999","01","18","00:00","3.6","","2.8","","94","","16","","15","","19.3","","98.03","","","","","","Cloudy"
"1999-01-18 01:00","1999","01","18","01:00","4.3","","3.2","","93","","16","","19","","24.1","","97.87","","","","","","Cloudy"
"1999-01-18 02:00","1999","01","18","02:00","3.8","","3.2","","96","","16","","24","","24.1","","97.67","","","","","","Cloudy"
"1999-01-18 03:00","1999","01","18","03:00","5.4","","5.1","","98","","17","","32","","24.1","","97.57","","","","","","Thunderstorms,Rain Showers"
"1999-01-18 04:00","1999","01","18","04:00","5.6","","5.3","","98","","18","","41","","24.1","","97.53","","","","","","Rain Showers"
"1999-01-18 05:00","1999","01","18","05:00","4.6","","3.9","","95","","23","","28","","24.1","","97.50","","","","","","Rain Showers"
"1999-01-18 06:00","1999","01","18","06:00","4.8","","2.8","","87","","23","","37","","24.1","","97.67","","","","","","Mostly Cloudy"
"1999-01-18 07:00","1999","01","18","07:00","3.0","","1.6","","90","","23","","46","","19.3","","97.83","","","","","","Cloudy"
"1999-01-18 08:00","1999","01","18","08:00","2.5","","0.1","","84","","24","","37","","19.3","","97.87","","","","","","Cloudy"
"1999-01-18 09:00","1999","01","18","09:00","2.3","","-0.9","","79","","24","","39","","16.1","","97.93","","","","","","Cloudy"
"1999-01-18 10:00","1999","01","18","10:00","2.1","","-1.5","","77","","23","","37","","16.1","","97.97","","","","","","Cloudy"
"1999-01-18 11:00","1999","01","18","11:00","2.3","","-1.0","","79","","24","","33","","16.1","","97.97","","","","","","Mostly Cloudy"
"1999-01-18 12:00","1999","01","18","12:00","2.5","","-1.4","","75","","24","","32","","24.1","","97.97","","","","","","Cloudy"
"1999-01-18 13:00","1999","01","18","13:00","2.6","","-2.3","","70","","24","","30","","24.1","","97.93","","","","","","Cloudy"
"1999-01-18 14:00","1999","01","18","14:00","2.6","","-2.0","","72","","22","","32","","24.1","","97.90","","","","","","Mostly Cloudy"
"1999-01-18 15:00","1999","01","18","15:00","2.8","","-2.7","","67","","23","","43","","24.1","","97.87","","","","","","Mostly Cloudy"
"1999-01-18 16:00","1999","01","18","16:00","2.0","","-2.1","","74","","24","","41","","9.7","","97.90","","","","","","Snow Showers"
"1999-01-18 17:00","1999","01","18","17:00","1.3","","-1.4","","82","","23","","37","","9.7","","97.87","","","","","","Snow Showers"
"1999-01-18 18:00","1999","01","18","18:00","1.2","","-2.5","","76","","24","","37","","24.1","","97.90","","","","","","Snow Showers"
"1999-01-18 19:00","1999","01","18","19:00","0.6","","-2.7","","79","","25","","52","","12.9","","97.97","","","","","","Snow Showers"
"1999-01-18 20:00","1999","01","18","20:00","0.1","","-1.9","","86","","23","","44","","4.8","","98.03","","","","","","Snow Showers"
"1999-01-18 21:00","1999","01","18","21:00","0.3","","-2.2","","83","","24","","44","","12.9","","98.07","","","","","","Snow Showers"
"1999-01-18 22:00","1999","01","18","22:00","0.2","","-2.1","","84","","24","","43","","24.1","","98.10","","","","","","Snow Showers"
"1999-01-18 23:00","1999","01","18","23:00","-0.1","","-2.3","","85","","24","","50","","12.9","","98.17","","","","-8","","Snow Showers"
"1999-01-19 00:00","1999","01","19","00:00","-0.4","","-2.8","","84","","25","","44","","16.1","","98.27","","","","-8","","Snow Showers"
"1999-01-19 01:00","1999","01","19","01:00","-1.0","","-2.9","","87","","25","","46","","12.9","","98.33","","","","-9","","Snow Showers"
"1999-01-19 02:00","1999","01","19","02:00","-1.0","","-3.5","","83","","25","","30","","16.1","","98.43","","","","-8","","Snow Showers"
"1999-01-19 03:00","1999","01","19","03:00","-1.0","","-4.3","","78","","26","","37","","19.3","","98.53","","","","-8","","Snow Showers"
"1999-01-19 04:00","1999","01","19","04:00","-1.2","","-4.3","","79","","25","","37","","16.1","","98.57","","","","-9","","Snow"
"1999-01-19 05:00","1999","01","19","05:00","-1.4","","-4.8","","78","","25","","44","","19.3","","98.60","","","","-10","","Snow"
"1999-01-19 06:00","1999","01","19","06:00","-2.0","","-5.3","","78","","25","","39","","24.1","","98.73","","","","-10","","Snow"
"1999-01-19 07:00","1999","01","19","07:00","-2.1","","-5.5","","77","","25","","30","","24.1","","98.86","","","","-9","","Snow"
"1999-01-19 08:00","1999","01","19","08:00","-2.6","","-5.6","","80","","25","","28","","16.1","","98.96","","","","-10","","Snow"
"1999-01-19 09:00","1999","01","19","09:00","-3.0","","-6.0","","80","","25","","30","","16.1","","99.10","","","","-10","","Cloudy"
"1999-01-19 10:00","1999","01","19","10:00","-2.8","","-5.6","","81","","25","","28","","16.1","","99.20","","","","-10","","Cloudy"
"1999-01-19 11:00","1999","01","19","11:00","-2.3","","-5.5","","79","","24","","28","","16.1","","99.26","","","","-9","","Cloudy"
"1999-01-19 12:00","1999","01","19","12:00","-1.1","","-4.8","","76","","25","","26","","19.3","","99.23","","","","-7","","Mostly Cloudy"
"1999-01-19 13:00","1999","01","19","13:00","-0.7","","-5.0","","73","","25","","32","","19.3","","99.26","","","","-8","","Mostly Cloudy"
"1999-01-19 14:00","1999","01","19","14:00","-0.1","","-4.7","","71","","26","","26","","22.5","","99.26","","","","-6","","Mostly Cloudy"
"1999-01-19 15:00","1999","01","19","15:00","-0.1","","-4.4","","73","","26","","26","","19.3","","99.26","","","","-6","","Cloudy"
"1999-01-19 16:00","1999","01","19","16:00","-1.0","","-5.5","","71","","24","","24","","24.1","","99.33","","","","-7","","Mostly Cloudy"
"1999-01-19 17:00","1999","01","19","17:00","-1.1","","-6.0","","69","","24","","24","","24.1","","99.30","","","","-7","","Mostly Cloudy"
"1999-01-19 18:00","1999","01","19","18:00","-1.4","","-6.9","","66","","23","","20","","24.1","","99.36","","","","-7","","Mostly Cloudy"
"1999-01-19 19:00","1999","01","19","19:00","-2.3","","-7.7","","66","","24","","11","","24.1","","99.40","","","","-6","","Mainly Clear"
"1999-01-19 20:00","1999","01","19","20:00","-3.1","","-8.2","","68","","23","","15","","24.1","","99.43","","","","-8","","Clear"
"1999-01-19 21:00","1999","01","19","21:00","-3.3","","-7.2","","74","","23","","15","","24.1","","99.46","","","","-8","","Clear"
"1999-01-19 22:00","1999","01","19","22:00","-3.5","","-5.9","","83","","24","","11","","24.1","","99.46","","","","-8","","Mainly Clear"
"1999-01-19 23:00","1999","01","19","23:00","-3.0","","-4.1","","92","","25","","17","","24.1","","99.50","","","","-9","","Mainly Clear"
"1999-01-20 00:00","1999","01","20","00:00","-4.0","","-4.7","","95","","24","","13","","9.7","","99.50","","","","-9","","Fog"
"1999-01-20 01:00","1999","01","20","01:00","-5.0","","-5.3","","98","","24","","9","","9.7","","99.46","","","","-9","","Fog"
"1999-01-20 02:00","1999","01","20","02:00","-5.0","","-5.4","","97","","26","","9","","8.0","","99.46","","","","-9","","Fog"
"1999-01-20 03:00","1999","01","20","03:00","-6.5","","-7.2","","95","","29","","6","","4.8","","99.50","","","","-9","","Fog"
"1999-01-20 04:00","1999","01","20","04:00","-6.9","","-7.4","","96","","27","","6","","8.0","","99.50","","","","-10","","Fog"
"1999-01-20 05:00","1999","01","20","05:00","-7.9","","-8.6","","95","","23","","6","","1.0","","99.46","","","","-11","","Fog"
"1999-01-20 06:00","1999","01","20","06:00","-8.6","","-9.0","","97","","22","","4","","1.6","","99.50","","","","-11","","Fog"
"1999-01-20 07:00","1999","01","20","07:00","-8.0","","-8.9","","93","","","","0","","8.0","","99.50","","","","","","Fog"
"1999-01-20 08:00","1999","01","20","08:00","-10.1","","-10.7","","95","","21","","6","","0.8","","99.60","","","","-14","","Fog"
"1999-01-20 09:00","1999","01","20","09:00","-10.1","","-10.8","","95","","21","","6","","0.8","","99.63","","","","-14","","Fog"
"1999-01-20 10:00","1999","01","20","10:00","-6.7","","-6.9","","98","","","","0","","3.2","","99.66","","","","","","Fog"
"1999-01-20 11:00","1999","01","20","11:00","-4.2","","-4.8","","96","","","","0","","4.8","","99.66","","","","","","Fog"
"1999-01-20 12:00","1999","01","20","12:00","-3.2","","-3.7","","96","","","","0","","8.0","","99.60","","","","","","Fog"
"1999-01-20 13:00","1999","01","20","13:00","-1.4","","-4.2","","81","","","","0","","16.1","","99.56","","","","","","Mostly Cloudy"
"1999-01-20 14:00","1999","01","20","14:00","-0.3","","-3.5","","79","","16","","9","","19.3","","99.46","","","","-3","","Mostly Cloudy"
"1999-01-20 15:00","1999","01","20","15:00","0.8","","-3.3","","74","","18","","9","","19.3","","99.43","","","","","","Mostly Cloudy"
"1999-01-20 16:00","1999","01","20","16:00","1.7","","-2.7","","73","","16","","4","","24.1","","99.43","","","","","","Mostly Cloudy"
"1999-01-20 17:00","1999","01","20","17:00","1.2","","-2.5","","76","","","","0","","24.1","","99.40","","","","","","Mostly Cloudy"
"1999-01-20 18:00","1999","01","20","18:00","-1.4","","-3.0","","89","","18","","4","","24.1","","99.40","","","","-3","","Mostly Cloudy"
"1999-01-20 19:00","1999","01","20","19:00","-1.7","","-2.9","","91","","21","","6","","19.3","","99.40","","","","-4","","Mostly Cloudy"
"1999-01-20 20:00","1999","01","20","20:00","-2.4","","-3.2","","94","","","","0","","19.3","","99.40","","","","","","Mostly Cloudy"
"1999-01-20 21:00","1999","01","20","21:00","-3.4","","-3.9","","96","","","","0","","12.9","","99.36","","","","","","Mostly Cloudy"
"1999-01-20 22:00","1999","01","20","22:00","-4.2","","-4.5","","98","","19","","7","","9.7","","99.33","","","","-7","","Fog"
"1999-01-20 23:00","1999","01","20","23:00","-4.1","","-4.6","","96","","","","0","","1.2","","99.30","","","","","","Fog"
"1999-01-21 00:00","1999","01","21","00:00","-4.5","","-4.8","","98","","6","","6","","8.0","","99.30","","","","-7","","Fog"
"1999-01-21 01:00","1999","01","21","01:00","-4.1","","-4.3","","99","","4","","7","","8.0","","99.23","","","","-7","","Fog"
"1999-01-21 02:00","1999","01","21","02:00","-3.6","","-3.8","","99","","5","","9","","8.0","","99.23","","","","-7","","Fog"
"1999-01-21 03:00","1999","01","21","03:00","-3.0","","-3.4","","97","","6","","11","","9.7","","99.26","","","","-7","","Fog"
"1999-01-21 04:00","1999","01","21","04:00","-2.3","","-2.7","","97","","4","","15","","8.0","","99.26","","","","-7","","Fog"
"1999-01-21 05:00","1999","01","21","05:00","-2.9","","-3.3","","97","","6","","13","","6.4","","99.26","","","","-8","","Fog"
"1999-01-21 06:00","1999","01","21","06:00","-3.4","","-3.8","","97","","4","","11","","6.4","","99.20","","","","-8","","Fog"
"1999-01-21 07:00","1999","01","21","07:00","-2.7","","-3.2","","96","","6","","7","","8.0","","99.23","","","","-6","","Fog"
"1999-01-21 08:00","1999","01","21","08:00","-2.4","","-2.6","","99","","6","","13","","2.0","","99.16","","","","-7","","Fog"
"1999-01-21 09:00","1999","01","21","09:00","-1.4","","-1.8","","97","","4","","7","","2.4","","99.23","","","","-4","","Fog"
"1999-01-21 10:00","1999","01","21","10:00","-0.7","","-1.2","","96","","6","","7","","4.8","","99.26","","","","-3","","Fog"
"1999-01-21 11:00","1999","01","21","11:00","0.0","","-1.0","","93","","6","","13","","4.8","","99.30","","","","-4","","Fog"
"1999-01-21 12:00","1999","01","21","12:00","0.7","","-0.5","","92","","7","","17","","4.8","","99.33","","","","","","Fog"
"1999-01-21 13:00","1999","01","21","13:00","1.2","","-0.3","","90","","4","","6","","4.0","","99.23","","","","","","Fog"
"1999-01-21 14:00","1999","01","21","14:00","2.1","","0.3","","88","","5","","15","","8.0","","99.13","","","","","","Fog"
"1999-01-21 15:00","1999","01","21","15:00","2.3","","0.4","","87","","5","","20","","11.3","","99.20","","","","","","Mainly Clear"
"1999-01-21 16:00","1999","01","21","16:00","2.4","","0.4","","87","","5","","19","","11.3","","99.23","","","","","","Mostly Cloudy"
"1999-01-21 17:00","1999","01","21","17:00","1.9","","0.3","","89","","7","","17","","9.7","","99.33","","","","","","Fog"
"1999-01-21 18:00","1999","01","21","18:00","1.3","","0.1","","92","","4","","19","","9.7","","99.36","","","","","","Fog"
"1999-01-21 19:00","1999","01","21","19:00","1.0","","-0.2","","92","","6","","19","","12.9","","99.43","","","","","","Mostly Cloudy"
"1999-01-21 20:00","1999","01","21","20:00","0.1","","-0.9","","93","","5","","19","","8.0","","99.43","","","","","","Fog"
"1999-01-21 21:00","1999","01","21","21:00","-0.9","","-1.5","","96","","5","","17","","6.4","","99.43","","","","-6","","Fog"
"1999-01-21 22:00","1999","01","21","22:00","-0.1","","-0.8","","95","","6","","20","","6.4","","99.40","","","","-5","","Fog"
"1999-01-21 23:00","1999","01","21","23:00","0.8","","-0.3","","92","","8","","26","","12.9","","99.33","","","","","","Cloudy"
"1999-01-22 00:00","1999","01","22","00:00","1.4","","-0.1","","90","","1","","37","","16.1","","99.26","","","","","","Cloudy"
"1999-01-22 01:00","1999","01","22","01:00","1.4","","-0.1","","90","","9","","32","","16.1","","99.30","","","","","","Cloudy"
"1999-01-22 02:00","1999","01","22","02:00","1.3","","0.3","","93","","8","","35","","16.1","","99.30","","","","","","Rain Showers"
"1999-01-22 03:00","1999","01","22","03:00","0.9","","0.3","","96","","8","","43","","8.0","","99.20","","","","","","Moderate Rain Showers,Fog"
"1999-01-22 04:00","1999","01","22","04:00","0.8","","0.5","","98","","7","","30","","6.4","","99.23","","","","","","Moderate Rain,Fog"
"1999-01-22 05:00","1999","01","22","05:00","0.6","","0.6","","100","","8","","39","","8.0","","99.00","","","","","","Moderate Rain,Fog"
"1999-01-22 06:00","1999","01","22","06:00","1.0","","1.0","","100","","8","","37","","8.0","","98.93","","","","","","Rain,Fog"
"1999-01-22 07:00","1999","01","22","07:00","1.5","","1.5","","100","","9","","32","","6.4","","99.03","","","","","","Thunderstorms,Moderate Rain Showers,Fog"
"1999-01-22 08:00","1999","01","22","08:00","1.4","","1.3","","99","","9","","44","","4.8","","98.86","","","","","","Rain Showers,Fog"
"1999-01-22 09:00","1999","01","22","09:00","2.0","","1.9","","99","","10","","37","","4.8","","98.73","","","","","","Fog"
"1999-01-22 10:00","1999","01","22","10:00","1.9","","1.9","","100","","12","","4","","4.0","","98.70","","","","","","Rain Showers,Fog"
"1999-01-22 11:00","1999","01","22","11:00","3.3","","3.1","","99","","13","","19","","6.4","","98.66","","","","","","Fog"
"1999-01-22 12:00","1999","01","22","12:00","4.8","","4.3","","97","","15","","17","","9.7","","98.66","","","","","","Fog"
"1999-01-22 13:00","1999","01","22","13:00","5.7","","4.6","","93","","16","","9","","12.9","","98.63","","","","","","Mostly Cloudy"
"1999-01-22 14:00","1999","01","22","14:00","4.5","","3.7","","95","","14","","9","","16.1","","98.70","","","","","","Cloudy"
"1999-01-22 15:00","1999","01","22","15:00","4.1","","3.4","","95","","13","","7","","16.1","","98.73","","","","","","Mostly Cloudy"
"1999-01-22 16:00","1999","01","22","16:00","4.4","","3.6","","95","","9","","4","","12.9","","98.76","","","","","","Cloudy"
"1999-01-22 17:00","1999","01","22","17:00","4.1","","3.4","","95","","11","","6","","9.7","","98.83","","","","","","Rain Showers"
"1999-01-22 18:00","1999","01","22","18:00","3.9","","3.4","","97","","11","","6","","9.7","","98.90","","","","","","Rain Showers"
"1999-01-22 19:00","1999","01","22","19:00","4.4","","4.4","","100","","11","","7","","6.4","","98.90","","","","","","Rain Showers"
"1999-01-22 20:00","1999","01","22","20:00","4.4","","4.4","","100","","11","","15","","8.0","","98.83","","","","","","Rain Showers"
"1999-01-22 21:00","1999","01","22","21:00","4.0","","4.0","","100","","8","","15","","8.0","","98.80","","","","","","Rain Showers,Fog"
"1999-01-22 22:00","1999","01","22","22:00","2.9","","2.9","","100","","6","","7","","8.0","","98.76","","","","","","Rain Showers,Fog"
"1999-01-22 23:00","1999","01","22","23:00","4.2","","4.0","","99","","12","","7","","12.9","","98.83","","","","","","Rain Showers"
"1999-01-23 00:00","1999","01","23","00:00","3.8","","3.5","","98","","10","","9","","12.9","","98.73","","","","","","Rain Showers"
"1999-01-23 01:00","1999","01","23","01:00","4.1","","3.8","","98","","13","","11","","16.1","","98.66","","","","","","Rain Showers"
"1999-01-23 02:00","1999","01","23","02:00","4.3","","3.9","","97","","14","","11","","19.3","","98.60","","","","","","Cloudy"
"1999-01-23 03:00","1999","01","23","03:00","7.2","","6.1","","93","","16","","17","","19.3","","98.60","","","","","","Cloudy"
"1999-01-23 04:00","1999","01","23","04:00","6.9","","6.6","","98","","17","","17","","11.3","","98.57","","","","","","Rain"
"1999-01-23 05:00","1999","01","23","05:00","6.3","","6.3","","100","","17","","17","","9.7","","98.50","","","","","","Rain,Fog"
"1999-01-23 06:00","1999","01","23","06:00","7.9","","7.9","","100","","16","","30","","0.2","","98.47","","","","","","Rain,Fog"
"1999-01-23 07:00","1999","01","23","07:00","6.9","","6.9","","100","","15","","24","","0.2","","98.40","","","","","","Rain,Fog"
"1999-01-23 08:00","1999","01","23","08:00","5.9","","5.9","","100","","16","","20","","0.2","","98.40","","","","","","Rain,Fog"
"1999-01-23 09:00","1999","01","23","09:00","7.5","","7.5","","100","","18","","32","","1.2","","98.20","","","","","","Rain,Fog"
"1999-01-23 10:00","1999","01","23","10:00","7.7","","7.7","","100","","15","","22","","4.0","","98.23","","","","","","Fog"
"1999-01-23 11:00","1999","01","23","11:00","7.2","","7.1","","99","","15","","17","","9.7","","98.23","","","","","","Fog"
"1999-01-23 12:00","1999","01","23","12:00","8.0","","7.4","","96","","17","","13","","19.3","","98.20","","","","","","Cloudy"
"1999-01-23 13:00","1999","01","23","13:00","10.2","","8.1","","87","","19","","19","","19.3","","98.10","","","","","","Cloudy"
"1999-01-23 14:00","1999","01","23","14:00","11.2","","8.8","","85","","19","","22","","19.3","","98.03","","","","","","Cloudy"
"1999-01-23 15:00","1999","01","23","15:00","10.7","","8.9","","89","","19","","24","","19.3","","98.03","","","","","","Cloudy"
"1999-01-23 16:00","1999","01","23","16:00","11.8","","9.4","","85","","19","","32","","19.3","","97.97","","","","","","Cloudy"
"1999-01-23 17:00","1999","01","23","17:00","11.5","","9.3","","86","","19","","32","","24.1","","97.97","","","","","","Cloudy"
"1999-01-23 18:00","1999","01","23","18:00","10.6","","9.0","","90","","22","","32","","24.1","","98.00","","","","","","Rain Showers"
"1999-01-23 19:00","1999","01","23","19:00","9.8","","8.1","","89","","21","","26","","24.1","","98.03","","","","","","Mostly Cloudy"
"1999-01-23 20:00","1999","01","23","20:00","8.5","","6.2","","85","","23","","28","","24.1","","98.13","","","","","","Mostly Cloudy"
"1999-01-23 21:00","1999","01","23","21:00","6.4","","3.7","","83","","25","","46","","24.1","","98.30","","","","","","Mainly Clear"
"1999-01-23 22:00","1999","01","23","22:00","4.8","","1.9","","81","","25","","48","","24.1","","98.37","","","","","","Mostly Cloudy"
"1999-01-23 23:00","1999","01","23","23:00","3.8","","0.5","","79","","25","","43","","24.1","","98.40","","","","","","Mostly Cloudy"
"1999-01-24 00:00","1999","01","24","00:00","3.1","","-0.2","","79","","25","","39","","24.1","","98.47","","","","","","Cloudy"
"1999-01-24 01:00","1999","01","24","01:00","2.6","","-0.5","","80","","25","","35","","24.1","","98.50","","","","","","Cloudy"
"1999-01-24 02:00","1999","01","24","02:00","2.2","","-0.6","","82","","25","","33","","24.1","","98.57","","","","","","Cloudy"
"1999-01-24 03:00","1999","01","24","03:00","2.0","","-0.6","","83","","25","","32","","24.1","","98.66","","","","","","Cloudy"
"1999-01-24 04:00","1999","01","24","04:00","1.9","","-0.8","","82","","25","","30","","24.1","","98.73","","","","","","Cloudy"
"1999-01-24 05:00","1999","01","24","05:00","1.8","","-1.0","","82","","26","","30","","24.1","","98.86","","","","","","Cloudy"
"1999-01-24 06:00","1999","01","24","06:00","1.8","","-1.2","","80","","26","","26","","24.1","","98.96","","","","","","Cloudy"
"1999-01-24 07:00","1999","01","24","07:00","1.7","","-1.2","","81","","25","","32","","24.1","","99.03","","","","","","Rain Showers"
"1999-01-24 08:00","1999","01","24","08:00","1.6","","-1.4","","80","","25","","32","","24.1","","99.13","","","","","","Cloudy"
"1999-01-24 09:00","1999","01","24","09:00","1.9","","-1.8","","76","","26","","28","","24.1","","99.23","","","","","","Cloudy"
"1999-01-24 10:00","1999","01","24","10:00","0.9","","-4.1","","69","","31","","30","","24.1","","99.40","","","","","","Cloudy"
"1999-01-24 11:00","1999","01","24","11:00","1.2","","-3.6","","70","","28","","30","","24.1","","99.40","","","","","","Cloudy"
"1999-01-24 12:00","1999","01","24","12:00","1.8","","-3.2","","69","","28","","32","","24.1","","99.46","","","","","","Cloudy"
"1999-01-24 13:00","1999","01","24","13:00","1.9","","-2.9","","70","","28","","24","","24.1","","99.43","","","","","","Cloudy"
"1999-01-24 14:00","1999","01","24","14:00","2.0","","-2.9","","70","","28","","22","","24.1","","99.46","","","","","","Cloudy"
"1999-01-24 15:00","1999","01","24","15:00","2.4","","-3.0","","67","","30","","24","","24.1","","99.53","","","","","","Mostly Cloudy"
"1999-01-24 16:00","1999","01","24","16:00","2.5","","-3.3","","66","","28","","28","","24.1","","99.56","","","","","","Mostly Cloudy"
"1999-01-24 17:00","1999","01","24","17:00","2.4","","-3.6","","65","","29","","19","","24.1","","99.63","","","","","","Mostly Cloudy"
"1999-01-24 18:00","1999","01","24","18:00","2.0","","-3.5","","67","","28","","22","","24.1","","99.70","","","","","","Mostly Cloudy"
"1999-01-24 19:00","1999","01","24","19:00","1.3","","-3.3","","71","","26","","9","","24.1","","99.73","","","","","","Mostly Cloudy"
"1999-01-24 20:00","1999","01","24","20:00","1.5","","-2.7","","74","","25","","13","","24.1","","99.80","","","","","","Mostly Cloudy"
"1999-01-24 21:00","1999","01","24","21:00","1.5","","-2.6","","74","","24","","13","","24.1","","99.80","","","","","","Cloudy"
"1999-01-24 22:00","1999","01","24","22:00","1.6","","-2.5","","74","","28","","13","","24.1","","99.80","","","","","","Cloudy"
"1999-01-24 23:00","1999","01","24","23:00","0.5","","-1.0","","90","","27","","15","","19.3","","99.83","","","","","","Snow Showers"
"1999-01-25 00:00","1999","01","25","00:00","0.0","","-0.3","","98","","23","","7","","2.0","","99.83","","","","-2","","Snow"
"1999-01-25 01:00","1999","01","25","01:00","0.0","","-0.2","","99","","24","","6","","1.6","","99.80","","","","-2","","Snow"
"1999-01-25 02:00","1999","01","25","02:00","-0.1","","-0.1","","100","","23","","4","","0.8","","99.76","","","","-1","","Moderate Snow"
"1999-01-25 03:00","1999","01","25","03:00","0.0","","-0.1","","99","","26","","2","","1.0","","99.73","","","","-1","","Snow"
"1999-01-25 04:00","1999","01","25","04:00","-0.2","","-0.2","","100","","","","0","","1.2","","99.63","","","","","","Snow"
"1999-01-25 05:00","1999","01","25","05:00","-0.2","","-0.2","","100","","19","","4","","2.0","","99.60","","","","-1","","Snow"
"1999-01-25 06:00","1999","01","25","06:00","-0.3","","-0.3","","100","","20","","9","","1.6","","99.56","","","","-3","","Snow"
"1999-01-25 07:00","1999","01","25","07:00","-0.2","","-0.2","","100","","24","","7","","2.0","","99.60","","","","-3","","Snow"
"1999-01-25 08:00","1999","01","25","08:00","-0.1","","-0.2","","99","","26","","6","","2.4","","99.63","","","","-2","","Snow"
"1999-01-25 09:00","1999","01","25","09:00","0.1","","0.0","","99","","27","","4","","2.4","","99.73","","","","","","Snow,Fog"
"1999-01-25 10:00","1999","01","25","10:00","0.5","","0.2","","98","","28","","7","","3.2","","99.83","","","","","","Snow,Fog"
"1999-01-25 11:00","1999","01","25","11:00","1.1","","0.1","","93","","31","","13","","4.0","","99.93","","","","","","Snow,Fog"
"1999-01-25 12:00","1999","01","25","12:00","1.6","","-0.2","","88","","30","","20","","8.0","","99.96","","","","","","Snow,Fog"
"1999-01-25 13:00","1999","01","25","13:00","2.1","","-0.3","","84","","29","","19","","11.3","","99.99","","","","","","Cloudy"
"1999-01-25 14:00","1999","01","25","14:00","2.2","","-0.7","","81","","29","","15","","9.7","","100.06","","","","","","Haze"
"1999-01-25 15:00","1999","01","25","15:00","1.8","","0.0","","88","","29","","11","","9.7","","100.13","","","","","","Snow,Fog"
"1999-01-25 16:00","1999","01","25","16:00","1.9","","-1.1","","80","","30","","22","","16.1","","100.29","","","","","","Snow"
"1999-01-25 17:00","1999","01","25","17:00","1.1","","-1.3","","84","","28","","20","","12.9","","100.36","","","","","","Cloudy"
"1999-01-25 18:00","1999","01","25","18:00","0.3","","-3.2","","77","","28","","22","","16.1","","100.46","","","","","","Cloudy"
"1999-01-25 19:00","1999","01","25","19:00","-0.3","","-4.2","","75","","28","","19","","24.1","","100.53","","","","-5","","Cloudy"
"1999-01-25 20:00","1999","01","25","20:00","-0.5","","-4.5","","74","","27","","17","","24.1","","100.63","","","","-5","","Cloudy"
"1999-01-25 21:00","1999","01","25","21:00","-0.5","","-4.2","","76","","26","","13","","24.1","","100.63","","","","-5","","Mostly Cloudy"
"1999-01-25 22:00","1999","01","25","22:00","-0.4","","-4.7","","73","","27","","13","","24.1","","100.69","","","","-5","","Cloudy"
"1999-01-25 23:00","1999","01","25","23:00","-0.4","","-4.4","","74","","25","","11","","24.1","","100.69","","","","-4","","Snow"
"1999-01-26 00:00","1999","01","26","00:00","-0.5","","-4.2","","76","","25","","13","","24.1","","100.73","","","","-5","","Cloudy"
"1999-01-26 01:00","1999","01","26","01:00","-0.8","","-4.1","","78","","26","","19","","24.1","","100.69","","","","-6","","Cloudy"
"1999-01-26 02:00","1999","01","26","02:00","-1.4","","-5.2","","75","","26","","19","","24.1","","100.73","","","","-7","","Cloudy"
"1999-01-26 03:00","1999","01","26","03:00","-1.6","","-5.3","","76","","25","","13","","24.1","","100.73","","","","-6","","Cloudy"
"1999-01-26 04:00","1999","01","26","04:00","-1.9","","-5.3","","78","","25","","19","","24.1","","100.66","","","","-7","","Cloudy"
"1999-01-26 05:00","1999","01","26","05:00","-2.1","","-5.4","","78","","26","","20","","24.1","","100.63","","","","-8","","Cloudy"
"1999-01-26 06:00","1999","01","26","06:00","-2.5","","-5.8","","78","","26","","19","","24.1","","100.66","","","","-8","","Cloudy"
"1999-01-26 07:00","1999","01","26","07:00","-2.4","","-5.9","","77","","26","","19","","24.1","","100.66","","","","-8","","Mostly Cloudy"
"1999-01-26 08:00","1999","01","26","08:00","-2.1","","-5.4","","78","","25","","13","","12.9","","100.69","","","","-7","","Cloudy"
"1999-01-26 09:00","1999","01","26","09:00","-1.6","","-4.9","","78","","24","","11","","12.9","","100.73","","","","-5","","Cloudy"
"1999-01-26 10:00","1999","01","26","10:00","-1.2","","-5.6","","72","","27","","9","","17.7","","100.73","","","","-4","","Mostly Cloudy"
"1999-01-26 11:00","1999","01","26","11:00","-0.8","","-5.3","","72","","26","","15","","19.3","","100.73","","","","-5","","Mostly Cloudy"
"1999-01-26 12:00","1999","01","26","12:00","-0.3","","-4.8","","72","","23","","15","","19.3","","100.66","","","","-5","","Mostly Cloudy"
"1999-01-26 13:00","1999","01","26","13:00","0.1","","-5.0","","69","","23","","15","","24.1","","100.59","","","","","","Mostly Cloudy"
"1999-01-26 14:00","1999","01","26","14:00","0.2","","-4.5","","71","","23","","19","","24.1","","100.49","","","","","","Mostly Cloudy"
"1999-01-26 15:00","1999","01","26","15:00","0.3","","-4.2","","72","","24","","19","","19.3","","100.46","","","","","","Mostly Cloudy"
"1999-01-26 16:00","1999","01","26","16:00","0.4","","-4.4","","70","","24","","20","","19.3","","100.49","","","","","","Cloudy"
"1999-01-26 17:00","1999","01","26","17:00","0.4","","-4.5","","70","","24","","17","","19.3","","100.46","","","","","","Mostly Cloudy"
"1999-01-26 18:00","1999","01","26","18:00","-0.8","","-4.5","","76","","21","","6","","19.3","","100.39","","","","-3","","Mostly Cloudy"
"1999-01-26 19:00","1999","01","26","19:00","-1.5","","-4.3","","81","","19","","6","","19.3","","100.43","","","","-4","","Mostly Cloudy"
"1999-01-26 20:00","1999","01","26","20:00","-2.2","","-3.8","","89","","15","","7","","19.3","","100.36","","","","-5","","Mostly Cloudy"
"1999-01-26 21:00","1999","01","26","21:00","-2.9","","-4.2","","91","","13","","11","","16.1","","100.23","","","","-7","","Mostly Cloudy"
"1999-01-26 22:00","1999","01","26","22:00","-3.1","","-4.4","","91","","15","","9","","16.1","","100.19","","","","-7","","Mainly Clear"
"1999-01-26 23:00","1999","01","26","23:00","-3.3","","-4.5","","91","","16","","9","","16.1","","100.13","","","","-7","","Mostly Cloudy"
"1999-01-27 00:00","1999","01","27","00:00","-3.2","","-4.0","","94","","14","","11","","12.9","","100.06","","","","-7","","Mainly Clear"
"1999-01-27 01:00","1999","01","27","01:00","-2.5","","-3.0","","96","","12","","9","","11.3","","99.99","","","","-6","","Mostly Cloudy"
"1999-01-27 02:00","1999","01","27","02:00","-2.5","","-3.0","","96","","13","","11","","11.3","","99.86","","","","-7","","Mainly Clear"
"1999-01-27 03:00","1999","01","27","03:00","-3.2","","-4.1","","93","","9","","7","","19.3","","99.83","","","","-6","","Mostly Cloudy"
"1999-01-27 04:00","1999","01","27","04:00","-0.7","","-2.0","","91","","15","","15","","19.3","","99.70","","","","-5","","Mostly Cloudy"
"1999-01-27 05:00","1999","01","27","05:00","-0.2","","-2.1","","87","","12","","17","","19.3","","99.43","","","","-5","","Mainly Clear"
"1999-01-27 06:00","1999","01","27","06:00","0.8","","-1.7","","83","","14","","17","","24.1","","99.30","","","","","","Mostly Cloudy"
"1999-01-27 07:00","1999","01","27","07:00","1.1","","-1.6","","82","","14","","6","","24.1","","99.26","","","","","","Mostly Cloudy"
"1999-01-27 08:00","1999","01","27","08:00","1.5","","-1.5","","80","","15","","11","","12.9","","99.10","","","","","","Mostly Cloudy"
"1999-01-27 09:00","1999","01","27","09:00","2.8","","-0.8","","77","","16","","11","","17.7","","99.03","","","","","","Cloudy"
"1999-01-27 10:00","1999","01","27","10:00","3.3","","-0.4","","77","","16","","19","","19.3","","98.90","","","","","","Cloudy"
"1999-01-27 11:00","1999","01","27","11:00","3.4","","0.4","","81","","20","","11","","19.3","","98.80","","","","","","Mostly Cloudy"
"1999-01-27 12:00","1999","01","27","12:00","5.5","","2.2","","79","","22","","20","","9.7","","98.73","","","","","","Haze"
"1999-01-27 13:00","1999","01","27","13:00","7.5","","4.0","","78","","23","","17","","9.7","","98.63","","","","","","Haze"
"1999-01-27 14:00","1999","01","27","14:00","9.5","","5.0","","73","","25","","17","","9.7","","98.60","","","","","","Haze"
"1999-01-27 15:00","1999","01","27","15:00","10.0","","6.1","","77","","23","","19","","11.3","","98.57","","","","","","Mostly Cloudy"
"1999-01-27 16:00","1999","01","27","16:00","10.6","","6.9","","78","","22","","11","","12.9","","98.60","","","","","","Mostly Cloudy"
"1999-01-27 17:00","1999","01","27","17:00","9.8","","7.0","","83","","21","","15","","12.9","","98.57","","","","","","Mostly Cloudy"
"1999-01-27 18:00","1999","01","27","18:00","9.2","","7.1","","87","","21","","19","","12.9","","98.60","","","","","","Mostly Cloudy"
"1999-01-27 19:00","1999","01","27","19:00","9.9","","6.9","","82","","24","","19","","16.1","","98.66","","","","","","Mostly Cloudy"
"1999-01-27 20:00","1999","01","27","20:00","9.8","","6.0","","77","","25","","24","","16.1","","98.70","","","","","","Mostly Cloudy"
"1999-01-27 21:00","1999","01","27","21:00","7.9","","2.0","","66","","28","","30","","19.3","","98.80","","","","","","Mostly Cloudy"
"1999-01-27 22:00","1999","01","27","22:00","6.0","","1.7","","74","","26","","26","","16.1","","98.90","","","","","","Mostly Cloudy"
"1999-01-27 23:00","1999","01","27","23:00","5.6","","1.7","","76","","28","","37","","16.1","","98.96","","","","","","Cloudy"
"1999-01-28 00:00","1999","01","28","00:00","4.7","","1.3","","79","","28","","24","","24.1","","99.03","","","","","","Cloudy"
"1999-01-28 01:00","1999","01","28","01:00","4.3","","1.2","","80","","24","","20","","24.1","","99.03","","","","","","Cloudy"
"1999-01-28 02:00","1999","01","28","02:00","3.8","","1.2","","83","","25","","22","","16.1","","99.06","","","","","","Mostly Cloudy"
"1999-01-28 03:00","1999","01","28","03:00","3.6","","1.3","","85","","26","","22","","16.1","","99.16","","","","","","Cloudy"
"1999-01-28 04:00","1999","01","28","04:00","3.2","","1.2","","87","","26","","20","","12.9","","99.20","","","","","","Cloudy"
"1999-01-28 05:00","1999","01","28","05:00","3.0","","1.2","","88","","25","","17","","11.3","","99.20","","","","","","Cloudy"
"1999-01-28 06:00","1999","01","28","06:00","2.9","","1.2","","89","","25","","15","","11.3","","99.20","","","","","","Cloudy"
"1999-01-28 07:00","1999","01","28","07:00","2.8","","1.1","","89","","24","","19","","9.7","","99.26","","","","","","Fog"
"1999-01-28 08:00","1999","01","28","08:00","2.7","","1.0","","89","","26","","17","","4.8","","99.30","","","","","","Fog"
"1999-01-28 09:00","1999","01","28","09:00","2.9","","0.9","","87","","26","","19","","4.8","","99.33","","","","","","Fog"
"1999-01-28 10:00","1999","01","28","10:00","3.3","","0.6","","82","","26","","30","","8.0","","99.36","","","","","","Haze"
"1999-01-28 11:00","1999","01","28","11:00","3.7","","-1.1","","71","","26","","32","","19.3","","99.43","","","","","","Cloudy"
"1999-01-28 12:00","1999","01","28","12:00","3.0","","-0.7","","77","","24","","20","","11.3","","99.40","","","","","","Cloudy"
"1999-01-28 13:00","1999","01","28","13:00","2.6","","1.0","","89","","26","","19","","8.0","","99.43","","","","","","Drizzle,Fog"
"1999-01-28 14:00","1999","01","28","14:00","2.4","","1.2","","92","","30","","11","","8.0","","99.40","","","","","","Rain,Fog"
"1999-01-28 15:00","1999","01","28","15:00","2.4","","0.6","","88","","30","","22","","8.0","","99.46","","","","","","Rain,Fog"
"1999-01-28 16:00","1999","01","28","16:00","2.4","","0.2","","85","","29","","24","","9.7","","99.53","","","","","","Rain,Fog"
"1999-01-28 17:00","1999","01","28","17:00","1.9","","0.6","","91","","28","","11","","9.7","","99.63","","","","","","Rain,Fog"
"1999-01-28 18:00","1999","01","28","18:00","2.1","","-0.1","","85","","30","","20","","12.9","","99.70","","","","","","Rain"
"1999-01-28 19:00","1999","01","28","19:00","2.2","","-0.5","","82","","30","","19","","12.9","","99.80","","","","","","Cloudy"
"1999-01-28 20:00","1999","01","28","20:00","1.8","","-1.7","","78","","29","","24","","19.3","","99.93","","","","","","Mostly Cloudy"
"1999-01-28 21:00","1999","01","28","21:00","1.6","","-3.0","","71","","30","","24","","24.1","","100.03","","","","","","Snow"
"1999-01-28 22:00","1999","01","28","22:00","1.4","","-3.0","","72","","31","","19","","24.1","","100.09","","","","","","Snow"
"1999-01-28 23:00","1999","01","28","23:00","0.7","","-3.9","","71","","35","","28","","24.1","","100.16","","","","","","Snow"
"1999-01-29 00:00","1999","01","29","00:00","0.2","","-5.1","","67","","36","","20","","24.1","","100.23","","","","","","Mostly Cloudy"
"1999-01-29 01:00","1999","01","29","01:00","-1.5","","-6.4","","69","","35","","19","","24.1","","100.29","","","","-7","","Mainly Clear"
"1999-01-29 02:00","1999","01","29","02:00","-2.5","","-6.1","","76","","35","","17","","24.1","","100.36","","","","-8","","Mainly Clear"
"1999-01-29 03:00","1999","01","29","03:00","-1.6","","-6.0","","72","","30","","13","","24.1","","100.49","","","","-6","","Mostly Cloudy"
"1999-01-29 04:00","1999","01","29","04:00","-1.2","","-6.1","","69","","35","","26","","24.1","","100.53","","","","-8","","Mostly Cloudy"
"1999-01-29 05:00","1999","01","29","05:00","-1.4","","-6.2","","70","","35","","20","","24.1","","100.53","","","","-7","","Mostly Cloudy"
"1999-01-29 06:00","1999","01","29","06:00","-1.7","","-6.5","","70","","33","","13","","24.1","","100.63","","","","-6","","Mostly Cloudy"
"1999-01-29 07:00","1999","01","29","07:00","-1.8","","-6.4","","71","","33","","15","","24.1","","100.73","","","","-7","","Cloudy"
"1999-01-29 08:00","1999","01","29","08:00","-1.8","","-6.4","","71","","34","","9","","19.3","","100.79","","","","-5","","Cloudy"
"1999-01-29 09:00","1999","01","29","09:00","-1.7","","-6.2","","71","","27","","9","","19.3","","100.83","","","","-5","","Cloudy"
"1999-01-29 10:00","1999","01","29","10:00","-1.8","","-6.7","","69","","22","","11","","19.3","","100.76","","","","-6","","Cloudy"
"1999-01-29 11:00","1999","01","29","11:00","-1.1","","-6.0","","69","","26","","11","","19.3","","100.89","","","","-5","","Cloudy"
"1999-01-29 12:00","1999","01","29","12:00","-0.8","","-5.4","","71","","27","","7","","19.3","","100.86","","","","-3","","Cloudy"
"1999-01-29 13:00","1999","01","29","13:00","0.1","","-5.3","","67","","24","","13","","19.3","","100.79","","","","","","Mostly Cloudy"
"1999-01-29 14:00","1999","01","29","14:00","0.7","","-4.7","","67","","23","","20","","24.1","","100.76","","","","","","Mostly Cloudy"
"1999-01-29 15:00","1999","01","29","15:00","1.0","","-4.5","","67","","24","","20","","24.1","","100.66","","","","","","Mainly Clear"
"1999-01-29 16:00","1999","01","29","16:00","1.5","","-4.5","","64","","22","","17","","24.1","","100.69","","","","","","Mainly Clear"
"1999-01-29 17:00","1999","01","29","17:00","0.0","","-3.6","","77","","20","","24","","24.1","","100.66","","","","-6","","Mainly Clear"
"1999-01-29 18:00","1999","01","29","18:00","-1.0","","-3.4","","84","","21","","20","","24.1","","100.69","","","","-7","","Mostly Cloudy"
"1999-01-29 19:00","1999","01","29","19:00","-1.4","","-3.2","","88","","22","","11","","24.1","","100.73","","","","-5","","Mostly Cloudy"
"1999-01-29 20:00","1999","01","29","20:00","-1.5","","-3.4","","87","","23","","11","","24.1","","100.79","","","","-5","","Mostly Cloudy"
"1999-01-29 21:00","1999","01","29","21:00","-0.9","","-3.8","","81","","24","","17","","24.1","","100.76","","","","-6","","Mostly Cloudy"
"1999-01-29 22:00","1999","01","29","22:00","-0.5","","-3.8","","78","","25","","15","","24.1","","100.76","","","","-5","","Mostly Cloudy"
"1999-01-29 23:00","1999","01","29","23:00","-0.8","","-3.9","","79","","26","","13","","24.1","","100.79","","","","-5","","Mostly Cloudy"
"1999-01-30 00:00","1999","01","30","00:00","-1.4","","-4.2","","81","","26","","13","","24.1","","100.83","","","","-6","","Mostly Cloudy"
"1999-01-30 01:00","1999","01","30","01:00","-0.9","","-4.2","","78","","27","","17","","24.1","","100.83","","","","-6","","Clear"
"1999-01-30 02:00","1999","01","30","02:00","-1.1","","-4.1","","80","","31","","15","","24.1","","100.83","","","","-6","","Clear"
"1999-01-30 03:00","1999","01","30","03:00","-1.7","","-4.1","","84","","29","","9","","24.1","","100.93","","","","-5","","Clear"
"1999-01-30 04:00","1999","01","30","04:00","-2.7","","-4.6","","87","","28","","7","","24.1","","100.93","","","","-6","","Clear"
"1999-01-30 05:00","1999","01","30","05:00","-3.7","","-4.9","","91","","24","","4","","24.1","","100.96","","","","-5","","Clear"
"1999-01-30 06:00","1999","01","30","06:00","-3.9","","-5.0","","92","","30","","6","","24.1","","101.09","","","","-7","","Clear"
"1999-01-30 07:00","1999","01","30","07:00","-3.6","","-4.6","","93","","33","","7","","9.7","","101.13","","","","-7","","Fog"
"1999-01-30 08:00","1999","01","30","08:00","-3.5","","-4.6","","92","","33","","13","","12.9","","101.19","","","","-8","","Clear"
"1999-01-30 09:00","1999","01","30","09:00","-1.6","","-3.0","","90","","34","","11","","16.1","","101.29","","","","-5","","Clear"
"1999-01-30 10:00","1999","01","30","10:00","0.0","","-2.7","","82","","36","","13","","19.3","","101.36","","","","-4","","Clear"
"1999-01-30 11:00","1999","01","30","11:00","1.5","","-2.8","","73","","36","","9","","24.1","","101.39","","","","","","Clear"
"1999-01-30 12:00","1999","01","30","12:00","2.3","","-2.9","","68","","5","","19","","24.1","","101.39","","","","","","Clear"
"1999-01-30 13:00","1999","01","30","13:00","2.1","","-2.5","","72","","6","","19","","24.1","","101.36","","","","","","Clear"
"1999-01-30 14:00","1999","01","30","14:00","3.1","","-2.6","","66","","5","","26","","24.1","","101.36","","","","","","Clear"
"1999-01-30 15:00","1999","01","30","15:00","2.8","","-3.4","","64","","5","","33","","24.1","","101.36","","","","","","Clear"
"1999-01-30 16:00","1999","01","30","16:00","2.4","","-3.8","","64","","5","","32","","24.1","","101.36","","","","","","Clear"
"1999-01-30 17:00","1999","01","30","17:00","1.8","","-3.5","","68","","4","","22","","24.1","","101.42","","","","","","Mainly Clear"
"1999-01-30 18:00","1999","01","30","18:00","0.5","","-2.9","","78","","5","","20","","24.1","","101.42","","","","","","Mainly Clear"
"1999-01-30 19:00","1999","01","30","19:00","0.7","","-2.4","","80","","5","","28","","24.1","","101.46","","","","","","Mostly Cloudy"
"1999-01-30 20:00","1999","01","30","20:00","0.4","","-2.4","","81","","7","","28","","24.1","","101.46","","","","","","Mostly Cloudy"
"1999-01-30 21:00","1999","01","30","21:00","-0.5","","-2.2","","88","","9","","26","","19.3","","101.46","","","","-7","","Mainly Clear"
"1999-01-30 22:00","1999","01","30","22:00","-0.1","","-2.7","","83","","8","","28","","24.1","","101.46","","","","-6","","Cloudy"
"1999-01-30 23:00","1999","01","30","23:00","-1.5","","-4.7","","79","","8","","22","","24.1","","101.46","","","","-7","","Mainly Clear"
"1999-01-31 00:00","1999","01","31","00:00","-1.8","","-4.8","","80","","9","","20","","24.1","","101.49","","","","-8","","Mainly Clear"
"1999-01-31 01:00","1999","01","31","01:00","-2.4","","-5.2","","81","","10","","13","","24.1","","101.52","","","","-7","","Clear"
"1999-01-31 02:00","1999","01","31","02:00","-2.3","","-4.7","","84","","7","","30","","24.1","","101.52","","","","-9","","Mostly Cloudy"
"1999-01-31 03:00","1999","01","31","03:00","-2.1","","-5.0","","80","","10","","30","","24.1","","101.56","","","","-9","","Mainly Clear"
"1999-01-31 04:00","1999","01","31","04:00","-2.9","","-5.1","","85","","8","","20","","24.1","","101.56","","","","-9","","Mainly Clear"
"1999-01-31 05:00","1999","01","31","05:00","-3.4","","-5.4","","86","","7","","24","","24.1","","101.52","","","","-10","","Mainly Clear"
"1999-01-31 06:00","1999","01","31","06:00","-3.9","","-5.5","","89","","8","","24","","24.1","","101.52","","","","-11","","Mainly Clear"
"1999-01-31 07:00","1999","01","31","07:00","-4.2","","-5.5","","91","","7","","30","","24.1","","101.49","","","","-12","","Mainly Clear"
"1999-01-31 08:00","1999","01","31","08:00","-4.3","","-5.7","","90","","7","","32","","24.1","","101.46","","","","-12","","Mainly Clear"
"1999-01-31 09:00","1999","01","31","09:00","-3.7","","-6.0","","84","","7","","30","","24.1","","101.46","","","","-11","","Mostly Cloudy"
"1999-01-31 10:00","1999","01","31","10:00","-2.1","","-5.9","","75","","8","","37","","24.1","","101.46","","","","-10","","Mostly Cloudy"
"1999-01-31 11:00","1999","01","31","11:00","-0.8","","-7.2","","62","","9","","41","","24.1","","101.46","","","","-9","","Mostly Cloudy"
"1999-01-31 12:00","1999","01","31","12:00","-0.4","","-6.8","","62","","9","","41","","24.1","","101.46","","","","-8","","Mostly Cloudy"
"1999-01-31 13:00","1999","01","31","13:00","0.4","","-6.8","","58","","9","","26","","24.1","","101.36","","","","","","Mostly Cloudy"
"1999-01-31 14:00","1999","01","31","14:00","0.8","","-7.1","","55","","9","","37","","24.1","","101.16","","","","","","Mostly Cloudy"
"1999-01-31 15:00","1999","01","31","15:00","0.9","","-7.7","","53","","9","","33","","24.1","","101.09","","","","","","Mostly Cloudy"
"1999-01-31 16:00","1999","01","31","16:00","1.3","","-7.3","","53","","9","","33","","24.1","","101.03","","","","","","Mostly Cloudy"
"1999-01-31 17:00","1999","01","31","17:00","0.1","","-6.6","","61","","9","","33","","24.1","","101.03","","","","","","Mostly Cloudy"
"1999-01-31 18:00","1999","01","31","18:00","-1.0","","-6.3","","67","","8","","24","","24.1","","100.99","","","","-7","","Mostly Cloudy"
"1999-01-31 19:00","1999","01","31","19:00","-2.3","","-5.7","","77","","8","","19","","25.0","","100.99","","","","-8","","Mostly Cloudy"
"1999-01-31 20:00","1999","01","31","20:00","-2.5","","-5.8","","78","","9","","17","","25.0","","100.93","","","","-8","","Mostly Cloudy"
"1999-01-31 21:00","1999","01","31","21:00","-3.3","","-5.5","","85","","8","","15","","25.0","","100.86","","","","-8","","Mostly Cloudy"
"1999-01-31 22:00","1999","01","31","22:00","-2.9","","-5.1","","85","","7","","15","","25.0","","100.83","","","","-8","","Mostly Cloudy"
"1999-01-31 23:00","1999","01","31","23:00","-2.5","","-4.6","","85","","8","","15","","25.0","","100.76","","","","-7","","Mostly Cloudy"
