"Station Name","WINDSOR A"
"Province","ONTARIO"
"Latitude","42.28"
"Longitude","-82.96"
"Elevation","189.60"
"Climate Identifier","6139525"
"WMO Identifier","71538"
"TC Identifier","YQG"
"All times are specified in Local Standard Time (LST). Add 1 hour to adjust for Daylight Saving Time where and when it is observed."

"Legend"
"E","Estimated"
"M","Missing"
"NA","Not Available"

"Date/Time","Year","Month","Day","Time","Temp (°C)","Temp Flag","Dew Point Temp (°C)","Dew Point Temp Flag","Rel Hum (%)","Rel Hum Flag","Wind Dir (10s deg)","Wind Dir Flag","Wind Spd (km/h)","Wind Spd Flag","Visibility (km)","Visibility Flag","Stn Press (kPa)","Stn Press Flag","Hmdx","Hmdx Flag","Wind Chill","Wind Chill Flag","Weather"
"2013-07-01 00:00","2013","07","01","00:00","17.6","","11.0","","65","","1","","15","","24.1","","99.16","","","","","","Mostly Cloudy"
"2013-07-01 01:00","2013","07","01","01:00","17.2","","11.5","","69","","1","","11","","24.1","","99.15","","","","","","Mostly Cloudy"
"2013-07-01 02:00","2013","07","01","02:00","17.9","","13.1","","73","","2","","13","","24.1","","99.14","","","","","","Mostly Cloudy"
"2013-07-01 03:00","2013","07","01","03:00","18.3","","14.7","","80","","3","","20","","24.1","","99.11","","","","","","Cloudy"
"2013-07-01 04:00","2013","07","01","04:00","17.4","","13.5","","78","","2","","15","","24.1","","99.15","","","","","","Mostly Cloudy"
"2013-07-01 05:00","2013","07","01","05:00","17.2","","12.9","","76","","36","","13","","24.1","","99.21","","","","","","Mostly Cloudy"
"2013-07-01 06:00","2013","07","01","06:00","17.2","","13.0","","76","","1","","11","","24.1","","99.22","","","","","","Cloudy"
"2013-07-01 07:00","2013","07","01","07:00","18.5","","13.4","","72","","4","","22","","24.1","","99.25","","","","","","Cloudy"
"2013-07-01 08:00","2013","07","01","08:00","18.8","","13.7","","72","","4","","20","","24.1","","99.26","","","","","","Cloudy"
"2013-07-01 09:00","2013","07","01","09:00","19.5","","14.3","","72","","4","","24","","12.9","","99.29","","","","","","Rain Showers"
"2013-07-01 10:00","2013","07","01","10:00","19.7","","14.3","","71","","3","","26","","16.1","","99.29","","","","","","Cloudy"
"2013-07-01 11:00","2013","07","01","11:00","19.5","","14.3","","72","","4","","30","","16.1","","99.31","","","","","","Cloudy"
"2013-07-01 12:00","2013","07","01","12:00","20.0","","14.7","","72","","3","","24","","11.3","","99.37","","","","","","Rain"
"2013-07-01 13:00","2013","07","01","13:00","18.8","","13.6","","72","","1","","20","","11.3","","99.46","","","","","","Rain"
"2013-07-01 14:00","2013","07","01","14:00","17.8","","14.1","","79","","3","","19","","9.7","","99.45","","","","","","Rain,Haze"
"2013-07-01 15:00","2013","07","01","15:00","17.2","","14.4","","84","","36","","11","","8.0","","99.44","","","","","","Rain,Haze"
"2013-07-01 16:00","2013","07","01","16:00","16.8","","15.0","","89","","34","","4","","6.4","","99.44","","","","","","Thunderstorms,Moderate Rain Showers,Fog"
"2013-07-01 17:00","2013","07","01","17:00","17.0","","14.8","","87","","1","","13","","8.0","","99.47","","","","","","Moderate Rain,Fog"
"2013-07-01 18:00","2013","07","01","18:00","16.7","","15.0","","90","","1","","19","","3.2","","99.47","","","","","","Heavy Rain,Fog"
"2013-07-01 19:00","2013","07","01","19:00","17.1","","15.2","","89","","1","","15","","11.3","","99.48","","","","","","Rain"
"2013-07-01 20:00","2013","07","01","20:00","17.4","","14.8","","85","","1","","17","","11.3","","99.47","","","","","","Rain Showers"
"2013-07-01 21:00","2013","07","01","21:00","17.6","","14.6","","83","","1","","15","","11.3","","99.50","","","","","","Rain Showers"
"2013-07-01 22:00","2013","07","01","22:00","17.5","","14.4","","82","","1","","17","","19.3","","99.49","","","","","","Rain Showers"
"2013-07-01 23:00","2013","07","01","23:00","18.0","","14.6","","81","","3","","22","","24.1","","99.44","","","","","","Rain Showers"
"2013-07-02 00:00","2013","07","02","00:00","18.0","","14.6","","81","","5","","22","","24.1","","99.41","","","","","","Rain Showers"
"2013-07-02 01:00","2013","07","02","01:00","18.5","","14.5","","78","","7","","15","","24.1","","99.49","","","","","","Rain Showers"
"2013-07-02 02:00","2013","07","02","02:00","18.2","","14.0","","76","","7","","15","","24.1","","99.42","","","","","","Rain Showers"
"2013-07-02 03:00","2013","07","02","03:00","17.9","","14.0","","78","","6","","17","","24.1","","99.40","","","","","","Mostly Cloudy"
"2013-07-02 04:00","2013","07","02","04:00","17.6","","14.4","","82","","7","","9","","19.3","","99.43","","","","","","Cloudy"
"2013-07-02 05:00","2013","07","02","05:00","17.5","","14.1","","80","","6","","20","","19.3","","99.43","","","","","","Cloudy"
"2013-07-02 06:00","2013","07","02","06:00","17.5","","14.1","","80","","6","","19","","19.3","","99.49","","","","","","Cloudy"
"2013-07-02 07:00","2013","07","02","07:00","17.4","","13.9","","80","","6","","17","","24.1","","99.51","","","","","","Cloudy"
"2013-07-02 08:00","2013","07","02","08:00","17.5","","13.9","","79","","5","","19","","19.3","","99.54","","","","","","Cloudy"
"2013-07-02 09:00","2013","07","02","09:00","17.5","","14.2","","81","","6","","19","","19.3","","99.55","","","","","","Cloudy"
"2013-07-02 10:00","2013","07","02","10:00","18.2","","14.6","","80","","5","","15","","19.3","","99.57","","","","","","Cloudy"
"2013-07-02 11:00","2013","07","02","11:00","18.6","","14.9","","79","","7","","13","","16.1","","99.61","","","","","","Cloudy"
"2013-07-02 12:00","2013","07","02","12:00","19.5","","15.3","","77","","7","","13","","19.3","","99.58","","","","","","Mostly Cloudy"
"2013-07-02 13:00","2013","07","02","13:00","20.4","","15.7","","74","","8","","11","","24.1","","99.57","","25","","","","Mostly Cloudy"
"2013-07-02 14:00","2013","07","02","14:00","21.2","","16.0","","72","","11","","11","","16.1","","99.54","","26","","","","Mostly Cloudy"
"2013-07-02 15:00","2013","07","02","15:00","20.9","","15.9","","73","","10","","9","","24.1","","99.53","","25","","","","Cloudy"
"2013-07-02 16:00","2013","07","02","16:00","21.3","","16.1","","72","","6","","11","","24.1","","99.51","","26","","","","Mostly Cloudy"
"2013-07-02 17:00","2013","07","02","17:00","21.6","","16.0","","70","","5","","11","","24.1","","99.51","","26","","","","Mostly Cloudy"
"2013-07-02 18:00","2013","07","02","18:00","21.5","","16.4","","73","","6","","19","","24.1","","99.51","","26","","","","Mostly Cloudy"
"2013-07-02 19:00","2013","07","02","19:00","20.5","","16.3","","77","","5","","17","","19.3","","99.52","","25","","","","Mostly Cloudy"
"2013-07-02 20:00","2013","07","02","20:00","20.2","","16.7","","80","","5","","19","","24.1","","99.53","","25","","","","Mostly Cloudy"
"2013-07-02 21:00","2013","07","02","21:00","19.4","","16.3","","82","","4","","15","","24.1","","99.53","","","","","","Mainly Clear"
"2013-07-02 22:00","2013","07","02","22:00","19.0","","15.7","","81","","5","","11","","24.1","","99.58","","","","","","Mostly Cloudy"
"2013-07-02 23:00","2013","07","02","23:00","19.3","","16.0","","81","","3","","13","","19.3","","99.61","","","","","","Cloudy"
"2013-07-03 00:00","2013","07","03","00:00","18.9","","16.6","","87","","8","","11","","19.3","","99.61","","","","","","Cloudy"
"2013-07-03 01:00","2013","07","03","01:00","18.7","","16.6","","88","","5","","7","","16.1","","99.59","","","","","","Cloudy"
"2013-07-03 02:00","2013","07","03","02:00","18.2","","16.5","","90","","2","","7","","16.1","","99.51","","","","","","Mostly Cloudy"
"2013-07-03 03:00","2013","07","03","03:00","17.9","","16.4","","91","","7","","7","","12.9","","99.52","","","","","","Mainly Clear"
"2013-07-03 04:00","2013","07","03","04:00","17.4","","16.3","","93","","2","","6","","11.3","","99.51","","","","","","Mainly Clear"
"2013-07-03 05:00","2013","07","03","05:00","17.8","","16.8","","94","","7","","7","","6.4","","99.56","","","","","","Fog"
"2013-07-03 06:00","2013","07","03","06:00","19.1","","17.8","","92","","8","","6","","4.8","","99.61","","","","","","Fog"
"2013-07-03 07:00","2013","07","03","07:00","20.6","","18.4","","87","","10","","9","","6.4","","99.65","","27","","","","Haze"
"2013-07-03 08:00","2013","07","03","08:00","21.1","","18.8","","87","","13","","6","","8.0","","99.68","","28","","","","Haze"
"2013-07-03 09:00","2013","07","03","09:00","22.6","","19.9","","85","","16","","6","","9.7","","99.71","","30","","","","Haze"
"2013-07-03 10:00","2013","07","03","10:00","23.9","","20.6","","82","","15","","7","","9.7","","99.71","","32","","","","Haze"
"2013-07-03 11:00","2013","07","03","11:00","26.1","","21.8","","77","","17","","13","","12.9","","99.70","","35","","","","Mostly Cloudy"
"2013-07-03 12:00","2013","07","03","12:00","27.2","","19.7","","64","","21","","15","","24.1","","99.69","","35","","","","Mainly Clear"
"2013-07-03 13:00","2013","07","03","13:00","26.7","","18.6","","61","","19","","20","","24.1","","99.67","","33","","","","Mainly Clear"
"2013-07-03 14:00","2013","07","03","14:00","27.2","","18.0","","57","","20","","22","","24.1","","99.63","","33","","","","Mostly Cloudy"
"2013-07-03 15:00","2013","07","03","15:00","27.2","","17.6","","56","","21","","17","","24.1","","99.62","","33","","","","Mostly Cloudy"
"2013-07-03 16:00","2013","07","03","16:00","26.9","","18.7","","61","","19","","19","","24.1","","99.60","","33","","","","Cloudy"
"2013-07-03 17:00","2013","07","03","17:00","27.1","","18.6","","60","","20","","13","","24.1","","99.58","","34","","","","Cloudy"
"2013-07-03 18:00","2013","07","03","18:00","26.9","","18.5","","60","","20","","13","","19.3","","99.61","","33","","","","Cloudy"
"2013-07-03 19:00","2013","07","03","19:00","25.8","","19.5","","68","","15","","7","","19.3","","99.59","","33","","","","Cloudy"
"2013-07-03 20:00","2013","07","03","20:00","24.0","","20.5","","81","","16","","9","","19.3","","99.59","","32","","","","Cloudy"
"2013-07-03 21:00","2013","07","03","21:00","23.0","","19.9","","83","","16","","9","","19.3","","99.65","","30","","","","Cloudy"
"2013-07-03 22:00","2013","07","03","22:00","22.7","","20.1","","85","","15","","9","","19.3","","99.66","","30","","","","Cloudy"
"2013-07-03 23:00","2013","07","03","23:00","22.8","","20.3","","86","","15","","9","","19.3","","99.66","","31","","","","Mostly Cloudy"
"2013-07-04 00:00","2013","07","04","00:00","22.7","","20.3","","86","","16","","13","","19.3","","99.66","","31","","","","Mostly Cloudy"
"2013-07-04 01:00","2013","07","04","01:00","22.3","","20.6","","90","","17","","7","","24.1","","99.66","","30","","","","Cloudy"
"2013-07-04 02:00","2013","07","04","02:00","22.5","","20.8","","90","","18","","11","","19.3","","99.66","","31","","","","Rain Showers"
"2013-07-04 03:00","2013","07","04","03:00","21.6","","20.2","","92","","19","","15","","12.9","","99.67","","29","","","","Rain Showers"
"2013-07-04 04:00","2013","07","04","04:00","21.0","","19.7","","92","","18","","17","","16.1","","99.70","","28","","","","Cloudy"
"2013-07-04 05:00","2013","07","04","05:00","20.8","","19.6","","93","","19","","11","","9.7","","99.71","","28","","","","Fog"
"2013-07-04 06:00","2013","07","04","06:00","20.8","","19.7","","93","","20","","11","","9.7","","99.74","","28","","","","Fog"
"2013-07-04 07:00","2013","07","04","07:00","21.9","","20.4","","91","","20","","15","","9.7","","99.79","","30","","","","Fog"
"2013-07-04 08:00","2013","07","04","08:00","22.7","","20.2","","86","","19","","19","","11.3","","99.79","","30","","","","Mostly Cloudy"
"2013-07-04 09:00","2013","07","04","09:00","23.3","","20.2","","83","","23","","17","","16.1","","99.83","","31","","","","Cloudy"
"2013-07-04 10:00","2013","07","04","10:00","24.7","","20.5","","77","","22","","11","","16.1","","99.79","","33","","","","Mostly Cloudy"
"2013-07-04 11:00","2013","07","04","11:00","24.9","","19.7","","73","","20","","11","","19.3","","99.81","","32","","","","Mostly Cloudy"
"2013-07-04 12:00","2013","07","04","12:00","25.7","","19.1","","67","","21","","17","","19.3","","99.79","","33","","","","Mostly Cloudy"
"2013-07-04 13:00","2013","07","04","13:00","26.0","","19.2","","66","","23","","13","","19.3","","99.77","","33","","","","Mostly Cloudy"
"2013-07-04 14:00","2013","07","04","14:00","26.8","","18.7","","61","","19","","9","","19.3","","99.74","","33","","","","Mostly Cloudy"
"2013-07-04 15:00","2013","07","04","15:00","26.8","","19.2","","63","","23","","13","","16.1","","99.70","","34","","","","Mostly Cloudy"
"2013-07-04 16:00","2013","07","04","16:00","26.0","","19.2","","66","","18","","13","","16.1","","99.68","","33","","","","Mostly Cloudy"
"2013-07-04 17:00","2013","07","04","17:00","27.4","","19.5","","62","","20","","15","","12.9","","99.69","","35","","","","Cloudy"
"2013-07-04 18:00","2013","07","04","18:00","23.9","","19.8","","78","","22","","15","","12.9","","99.65","","31","","","","Cloudy"
"2013-07-04 19:00","2013","07","04","19:00","23.3","","19.6","","80","","22","","13","","16.1","","99.67","","31","","","","Cloudy"
"2013-07-04 20:00","2013","07","04","20:00","22.9","","19.8","","83","","20","","13","","16.1","","99.68","","30","","","","Cloudy"
"2013-07-04 21:00","2013","07","04","21:00","22.5","","20.1","","86","","9","","11","","16.1","","99.70","","30","","","","Cloudy"
"2013-07-04 22:00","2013","07","04","22:00","22.5","","20.4","","88","","24","","4","","16.1","","99.71","","30","","","","Mostly Cloudy"
"2013-07-04 23:00","2013","07","04","23:00","22.1","","20.3","","90","","19","","9","","16.1","","99.72","","30","","","","Mostly Cloudy"
"2013-07-05 00:00","2013","07","05","00:00","22.3","","20.2","","88","","20","","13","","19.3","","99.74","","30","","","","Mostly Cloudy"
"2013-07-05 01:00","2013","07","05","01:00","21.8","","20.3","","91","","18","","9","","19.3","","99.68","","30","","","","Mostly Cloudy"
"2013-07-05 02:00","2013","07","05","02:00","22.0","","20.3","","90","","20","","7","","19.3","","99.67","","30","","","","Mostly Cloudy"
"2013-07-05 03:00","2013","07","05","03:00","21.5","","20.7","","95","","17","","4","","9.7","","99.64","","30","","","","Rain Showers,Fog"
"2013-07-05 04:00","2013","07","05","04:00","21.2","","20.6","","96","","","","0","","8.0","","99.60","","29","","","","Rain Showers,Fog"
"2013-07-05 05:00","2013","07","05","05:00","20.5","","19.6","","95","","16","","6","","8.0","","99.62","","28","","","","Rain Showers,Fog"
"2013-07-05 06:00","2013","07","05","06:00","20.5","","19.6","","95","","15","","7","","4.0","","99.65","","28","","","","Rain Showers,Fog"
"2013-07-05 07:00","2013","07","05","07:00","20.2","","19.6","","96","","12","","6","","6.4","","99.67","","27","","","","Rain,Fog"
"2013-07-05 08:00","2013","07","05","08:00","20.4","","19.6","","95","","8","","4","","6.4","","99.68","","28","","","","Rain,Fog"
"2013-07-05 09:00","2013","07","05","09:00","21.5","","19.9","","91","","3","","4","","9.7","","99.71","","29","","","","Rain Showers,Fog"
"2013-07-05 10:00","2013","07","05","10:00","22.2","","20.3","","89","","24","","6","","11.3","","99.75","","30","","","","Cloudy"
"2013-07-05 11:00","2013","07","05","11:00","23.4","","20.5","","84","","28","","6","","12.9","","99.77","","31","","","","Cloudy"
"2013-07-05 12:00","2013","07","05","12:00","24.7","","19.9","","75","","","","0","","12.9","","99.76","","32","","","","Mostly Cloudy"
"2013-07-05 13:00","2013","07","05","13:00","24.7","","20.0","","75","","23","","4","","12.9","","99.73","","32","","","","Mostly Cloudy"
"2013-07-05 14:00","2013","07","05","14:00","26.0","","19.2","","66","","20","","4","","16.1","","99.70","","33","","","","Mostly Cloudy"
"2013-07-05 15:00","2013","07","05","15:00","26.6","","19.0","","63","","17","","7","","16.1","","99.67","","33","","","","Mainly Clear"
"2013-07-05 16:00","2013","07","05","16:00","27.2","","19.7","","64","","17","","13","","16.1","","99.61","","35","","","","Mainly Clear"
"2013-07-05 17:00","2013","07","05","17:00","26.5","","19.6","","66","","19","","17","","16.1","","99.61","","34","","","","Mostly Cloudy"
"2013-07-05 18:00","2013","07","05","18:00","25.3","","18.9","","68","","17","","15","","12.9","","99.59","","32","","","","Cloudy"
"2013-07-05 19:00","2013","07","05","19:00","24.7","","18.5","","68","","17","","15","","16.1","","99.61","","31","","","","Cloudy"
"2013-07-05 20:00","2013","07","05","20:00","23.1","","19.6","","81","","18","","7","","16.1","","99.63","","30","","","","Mostly Cloudy"
"2013-07-05 21:00","2013","07","05","21:00","22.2","","19.5","","85","","18","","6","","16.1","","99.68","","29","","","","Mostly Cloudy"
"2013-07-05 22:00","2013","07","05","22:00","21.9","","19.7","","87","","18","","6","","19.3","","99.70","","29","","","","Mostly Cloudy"
"2013-07-05 23:00","2013","07","05","23:00","21.6","","20.1","","91","","18","","7","","19.3","","99.73","","29","","","","Mostly Cloudy"
"2013-07-06 00:00","2013","07","06","00:00","21.6","","20.4","","93","","17","","7","","19.3","","99.71","","30","","","","Cloudy"
"2013-07-06 01:00","2013","07","06","01:00","21.5","","20.3","","93","","19","","7","","19.3","","99.70","","29","","","","Cloudy"
"2013-07-06 02:00","2013","07","06","02:00","21.9","","20.5","","92","","19","","7","","19.3","","99.70","","30","","","","Cloudy"
"2013-07-06 03:00","2013","07","06","03:00","22.0","","20.5","","91","","21","","7","","19.3","","99.70","","30","","","","Cloudy"
"2013-07-06 04:00","2013","07","06","04:00","22.0","","20.3","","90","","20","","6","","19.3","","99.70","","30","","","","Cloudy"
"2013-07-06 05:00","2013","07","06","05:00","21.7","","19.9","","90","","24","","6","","9.7","","99.72","","29","","","","Fog"
"2013-07-06 06:00","2013","07","06","06:00","21.8","","19.9","","89","","24","","6","","9.7","","99.75","","29","","","","Fog"
"2013-07-06 07:00","2013","07","06","07:00","22.7","","20.3","","86","","21","","4","","11.3","","99.77","","31","","","","Mostly Cloudy"
"2013-07-06 08:00","2013","07","06","08:00","23.8","","20.5","","82","","22","","6","","9.7","","99.78","","32","","","","Haze"
"2013-07-06 09:00","2013","07","06","09:00","24.5","","20.7","","79","","21","","7","","12.9","","99.76","","33","","","","Mostly Cloudy"
"2013-07-06 10:00","2013","07","06","10:00","25.1","","20.8","","77","","19","","7","","12.9","","99.74","","33","","","","Mostly Cloudy"
"2013-07-06 11:00","2013","07","06","11:00","26.1","","21.6","","76","","19","","7","","16.1","","99.74","","35","","","","Mostly Cloudy"
"2013-07-06 12:00","2013","07","06","12:00","26.3","","20.7","","71","","17","","13","","19.3","","99.71","","34","","","","Mostly Cloudy"
"2013-07-06 13:00","2013","07","06","13:00","26.5","","20.8","","71","","20","","13","","19.3","","99.65","","35","","","","Mostly Cloudy"
"2013-07-06 14:00","2013","07","06","14:00","26.6","","20.8","","71","","16","","13","","19.3","","99.57","","35","","","","Mostly Cloudy"
"2013-07-06 15:00","2013","07","06","15:00","27.4","","21.5","","70","","15","","22","","19.3","","99.54","","36","","","","Mostly Cloudy"
"2013-07-06 16:00","2013","07","06","16:00","24.9","","21.2","","80","","18","","11","","19.3","","99.52","","33","","","","Cloudy"
"2013-07-06 17:00","2013","07","06","17:00","23.8","","19.5","","77","","16","","4","","19.3","","99.47","","31","","","","Cloudy"
"2013-07-06 18:00","2013","07","06","18:00","23.1","","20.9","","87","","28","","6","","9.7","","99.42","","31","","","","Rain Showers,Fog"
"2013-07-06 19:00","2013","07","06","19:00","22.4","","20.9","","91","","36","","4","","9.7","","99.39","","31","","","","Rain Showers,Fog"
"2013-07-06 20:00","2013","07","06","20:00","21.6","","20.6","","94","","24","","7","","6.4","","99.42","","30","","","","Rain Showers,Fog"
"2013-07-06 21:00","2013","07","06","21:00","21.6","","20.8","","95","","","","0","","8.0","","99.42","","30","","","","Fog"
"2013-07-06 22:00","2013","07","06","22:00","21.8","","20.9","","95","","","","0","","8.0","","99.46","","30","","","","Fog"
"2013-07-06 23:00","2013","07","06","23:00","22.1","","20.9","","93","","24","","4","","11.3","","99.49","","30","","","","Cloudy"
"2013-07-07 00:00","2013","07","07","00:00","21.8","","20.9","","95","","24","","6","","11.3","","99.48","","30","","","","Mostly Cloudy"
"2013-07-07 01:00","2013","07","07","01:00","21.7","","20.9","","95","","24","","7","","9.7","","99.44","","30","","","","Fog"
"2013-07-07 02:00","2013","07","07","02:00","21.7","","20.6","","93","","25","","9","","9.7","","99.40","","30","","","","Fog"
"2013-07-07 03:00","2013","07","07","03:00","21.7","","20.7","","94","","25","","9","","9.7","","99.39","","30","","","","Fog"
"2013-07-07 04:00","2013","07","07","04:00","21.8","","20.8","","94","","23","","9","","9.7","","99.36","","30","","","","Fog"
"2013-07-07 05:00","2013","07","07","05:00","21.7","","20.3","","92","","24","","15","","12.9","","99.38","","30","","","","Cloudy"
"2013-07-07 06:00","2013","07","07","06:00","21.6","","19.9","","90","","24","","11","","16.1","","99.43","","29","","","","Mostly Cloudy"
"2013-07-07 07:00","2013","07","07","07:00","22.0","","20.5","","91","","23","","15","","16.1","","99.46","","30","","","","Mostly Cloudy"
"2013-07-07 08:00","2013","07","07","08:00","22.5","","20.2","","87","","25","","19","","16.1","","99.48","","30","","","","Mostly Cloudy"
"2013-07-07 09:00","2013","07","07","09:00","23.5","","20.5","","83","","25","","17","","16.1","","99.47","","31","","","","Mostly Cloudy"
"2013-07-07 10:00","2013","07","07","10:00","23.4","","20.3","","83","","23","","15","","16.1","","99.46","","31","","","","Mostly Cloudy"
"2013-07-07 11:00","2013","07","07","11:00","23.5","","20.0","","81","","22","","19","","12.9","","99.46","","31","","","","Rain Showers"
"2013-07-07 12:00","2013","07","07","12:00","23.9","","19.9","","78","","25","","19","","11.3","","99.47","","31","","","","Rain Showers"
"2013-07-07 13:00","2013","07","07","13:00","24.8","","20.4","","77","","24","","15","","12.9","","99.43","","33","","","","Mostly Cloudy"
"2013-07-07 14:00","2013","07","07","14:00","24.5","","20.5","","78","","32","","6","","16.1","","99.39","","32","","","","Cloudy"
"2013-07-07 15:00","2013","07","07","15:00","25.3","","20.1","","73","","29","","4","","19.3","","99.35","","33","","","","Mostly Cloudy"
"2013-07-07 16:00","2013","07","07","16:00","26.0","","19.8","","69","","23","","11","","24.1","","99.28","","33","","","","Mostly Cloudy"
"2013-07-07 17:00","2013","07","07","17:00","26.8","","19.4","","64","","23","","9","","24.1","","99.24","","34","","","","Mostly Cloudy"
"2013-07-07 18:00","2013","07","07","18:00","26.4","","19.2","","65","","27","","20","","24.1","","99.25","","33","","","","Mainly Clear"
"2013-07-07 19:00","2013","07","07","19:00","26.1","","19.2","","66","","26","","13","","24.1","","99.27","","33","","","","Mostly Cloudy"
"2013-07-07 20:00","2013","07","07","20:00","25.2","","19.1","","69","","24","","11","","24.1","","99.34","","32","","","","Mostly Cloudy"
"2013-07-07 21:00","2013","07","07","21:00","24.3","","19.4","","74","","24","","19","","24.1","","99.40","","31","","","","Mostly Cloudy"
"2013-07-07 22:00","2013","07","07","22:00","23.7","","19.4","","77","","25","","15","","24.1","","99.41","","31","","","","Mostly Cloudy"
"2013-07-07 23:00","2013","07","07","23:00","22.8","","19.2","","80","","25","","11","","24.1","","99.46","","30","","","","Cloudy"
"2013-07-08 00:00","2013","07","08","00:00","22.2","","18.7","","81","","23","","9","","24.1","","99.50","","29","","","","Cloudy"
"2013-07-08 01:00","2013","07","08","01:00","21.2","","19.1","","88","","18","","11","","24.1","","99.49","","28","","","","Thunderstorms"
"2013-07-08 02:00","2013","07","08","02:00","21.2","","18.5","","85","","22","","13","","24.1","","99.46","","28","","","","Mostly Cloudy"
"2013-07-08 03:00","2013","07","08","03:00","21.5","","18.6","","84","","26","","13","","24.1","","99.43","","28","","","","Mostly Cloudy"
"2013-07-08 04:00","2013","07","08","04:00","21.8","","18.5","","82","","24","","13","","24.1","","99.45","","28","","","","Rain Showers"
"2013-07-08 05:00","2013","07","08","05:00","21.6","","18.9","","85","","22","","6","","24.1","","99.46","","28","","","","Mostly Cloudy"
"2013-07-08 06:00","2013","07","08","06:00","21.7","","19.4","","87","","22","","9","","19.3","","99.45","","29","","","","Mainly Clear"
"2013-07-08 07:00","2013","07","08","07:00","22.5","","19.6","","84","","23","","15","","11.3","","99.51","","30","","","","Mostly Cloudy"
"2013-07-08 08:00","2013","07","08","08:00","23.8","","20.1","","80","","20","","13","","14.5","","99.47","","31","","","","Mainly Clear"
"2013-07-08 09:00","2013","07","08","09:00","24.0","","20.0","","78","","22","","11","","12.9","","99.50","","32","","","","Mostly Cloudy"
"2013-07-08 10:00","2013","07","08","10:00","25.0","","21.1","","79","","22","","17","","12.9","","99.51","","34","","","","Mostly Cloudy"
"2013-07-08 11:00","2013","07","08","11:00","26.2","","21.7","","76","","22","","20","","12.9","","99.49","","35","","","","Mostly Cloudy"
"2013-07-08 12:00","2013","07","08","12:00","27.1","","21.8","","73","","19","","20","","14.5","","99.48","","36","","","","Cloudy"
"2013-07-08 13:00","2013","07","08","13:00","27.6","","21.8","","71","","19","","22","","12.9","","99.38","","37","","","","Cloudy"
"2013-07-08 14:00","2013","07","08","14:00","25.8","","22.7","","83","","23","","28","","3.2","","99.38","","36","","","","Thunderstorms,Heavy Rain Showers"
"2013-07-08 15:00","2013","07","08","15:00","23.3","","21.4","","89","","20","","9","","16.1","","99.37","","32","","","","Cloudy"
"2013-07-08 16:00","2013","07","08","16:00","21.8","","20.4","","92","","31","","7","","4.8","","99.47","","30","","","","Thunderstorms,Heavy Rain Showers,Fog"
"2013-07-08 17:00","2013","07","08","17:00","21.3","","20.7","","96","","","","0","","9.7","","99.42","","29","","","","Rain Showers,Fog"
"2013-07-08 18:00","2013","07","08","18:00","21.2","","20.6","","96","","15","","15","","11.3","","99.40","","29","","","","Rain Showers"
"2013-07-08 19:00","2013","07","08","19:00","21.6","","20.8","","95","","17","","7","","16.1","","99.35","","30","","","","Cloudy"
"2013-07-08 20:00","2013","07","08","20:00","21.4","","20.6","","95","","18","","11","","9.7","","99.38","","29","","","","Fog"
"2013-07-08 21:00","2013","07","08","21:00","21.7","","20.9","","95","","18","","11","","12.9","","99.38","","30","","","","Cloudy"
"2013-07-08 22:00","2013","07","08","22:00","21.7","","20.9","","95","","20","","17","","16.1","","99.37","","30","","","","Mainly Clear"
"2013-07-08 23:00","2013","07","08","23:00","22.0","","21.2","","95","","18","","13","","19.3","","99.37","","31","","","","Mostly Cloudy"
"2013-07-09 00:00","2013","07","09","00:00","22.1","","21.2","","95","","19","","13","","12.9","","99.33","","31","","","","Cloudy"
"2013-07-09 01:00","2013","07","09","01:00","22.4","","21.6","","95","","20","","13","","11.3","","99.29","","31","","","","Mostly Cloudy"
"2013-07-09 02:00","2013","07","09","02:00","22.1","","21.4","","96","","20","","9","","8.0","","99.27","","31","","","","Fog"
"2013-07-09 03:00","2013","07","09","03:00","22.0","","21.3","","96","","21","","7","","8.0","","99.27","","31","","","","Fog"
"2013-07-09 04:00","2013","07","09","04:00","22.1","","21.6","","97","","23","","4","","6.4","","99.26","","31","","","","Fog"
"2013-07-09 05:00","2013","07","09","05:00","22.3","","21.7","","96","","24","","6","","4.8","","99.26","","31","","","","Fog"
"2013-07-09 06:00","2013","07","09","06:00","22.5","","21.9","","96","","26","","6","","4.0","","99.28","","32","","","","Fog"
"2013-07-09 07:00","2013","07","09","07:00","22.8","","21.8","","94","","29","","7","","4.8","","99.29","","32","","","","Fog"
"2013-07-09 08:00","2013","07","09","08:00","23.0","","21.8","","93","","26","","6","","6.4","","99.31","","32","","","","Fog"
"2013-07-09 09:00","2013","07","09","09:00","24.0","","22.0","","89","","29","","6","","6.4","","99.31","","33","","","","Fog"
"2013-07-09 10:00","2013","07","09","10:00","24.9","","22.4","","86","","23","","6","","6.4","","99.30","","35","","","","Haze"
"2013-07-09 11:00","2013","07","09","11:00","26.1","","22.3","","80","","26","","13","","8.0","","99.28","","36","","","","Haze"
"2013-07-09 12:00","2013","07","09","12:00","27.4","","22.3","","74","","26","","13","","9.7","","99.27","","37","","","","Haze"
"2013-07-09 13:00","2013","07","09","13:00","29.0","","22.1","","66","","24","","17","","12.9","","99.21","","38","","","","Mostly Cloudy"
"2013-07-09 14:00","2013","07","09","14:00","29.6","","22.5","","66","","22","","22","","19.3","","99.17","","39","","","","Mostly Cloudy"
"2013-07-09 15:00","2013","07","09","15:00","29.3","","24.0","","73","","20","","15","","24.1","","99.10","","41","","","","Mostly Cloudy"
"2013-07-09 16:00","2013","07","09","16:00","30.4","","22.7","","64","","25","","11","","24.1","","99.05","","40","","","","Mostly Cloudy"
"2013-07-09 17:00","2013","07","09","17:00","29.7","","23.8","","71","","21","","19","","19.3","","99.03","","41","","","","Mostly Cloudy"
"2013-07-09 18:00","2013","07","09","18:00","25.4","","19.9","","72","","29","","17","","19.3","","99.00","","33","","","","Mostly Cloudy"
"2013-07-09 19:00","2013","07","09","19:00","24.9","","20.8","","78","","26","","11","","19.3","","99.01","","33","","","","Rain Showers"
"2013-07-09 20:00","2013","07","09","20:00","24.0","","21.9","","88","","24","","9","","16.1","","99.02","","33","","","","Mostly Cloudy"
"2013-07-09 21:00","2013","07","09","21:00","23.6","","22.0","","91","","22","","11","","24.1","","99.07","","33","","","","Cloudy"
"2013-07-09 22:00","2013","07","09","22:00","23.5","","21.7","","90","","21","","19","","24.1","","99.07","","33","","","","Cloudy"
"2013-07-09 23:00","2013","07","09","23:00","23.3","","21.9","","92","","20","","13","","19.3","","99.00","","33","","","","Rain Showers"
"2013-07-10 00:00","2013","07","10","00:00","21.4","","20.6","","95","","24","","15","","2.0","","98.97","","29","","","","Thunderstorms,Heavy Rain Showers,Fog"
"2013-07-10 01:00","2013","07","10","01:00","22.4","","21.1","","92","","20","","13","","24.1","","98.86","","31","","","","Cloudy"
"2013-07-10 02:00","2013","07","10","02:00","23.2","","21.7","","91","","20","","15","","19.3","","98.88","","32","","","","Cloudy"
"2013-07-10 03:00","2013","07","10","03:00","23.3","","22.1","","93","","21","","11","","19.3","","98.83","","33","","","","Mostly Cloudy"
"2013-07-10 04:00","2013","07","10","04:00","23.2","","22.2","","94","","23","","15","","12.9","","98.77","","33","","","","Mainly Clear"
"2013-07-10 05:00","2013","07","10","05:00","23.3","","22.3","","94","","23","","11","","8.0","","98.78","","33","","","","Fog"
"2013-07-10 06:00","2013","07","10","06:00","23.6","","22.5","","94","","24","","9","","8.0","","98.82","","33","","","","Fog"
"2013-07-10 07:00","2013","07","10","07:00","24.9","","23.4","","91","","25","","15","","8.0","","98.80","","36","","","","Fog"
"2013-07-10 08:00","2013","07","10","08:00","26.4","","23.8","","86","","25","","15","","9.7","","98.80","","37","","","","Haze"
"2013-07-10 09:00","2013","07","10","09:00","27.4","","23.1","","77","","26","","17","","11.3","","98.82","","38","","","","Mostly Cloudy"
"2013-07-10 10:00","2013","07","10","10:00","28.4","","23.2","","73","","26","","13","","11.3","","98.79","","39","","","","Mostly Cloudy"
"2013-07-10 11:00","2013","07","10","11:00","29.0","","23.8","","74","","23","","15","","12.9","","98.72","","40","","","","Mainly Clear"
"2013-07-10 12:00","2013","07","10","12:00","29.8","","24.9","","75","","19","","22","","11.3","","98.66","","42","","","","Mainly Clear"
"2013-07-10 13:00","2013","07","10","13:00","28.5","","24.1","","77","","21","","20","","12.9","","98.60","","40","","","","Thunderstorms"
"2013-07-10 14:00","2013","07","10","14:00","27.0","","21.1","","70","","25","","26","","12.9","","98.62","","36","","","","Mostly Cloudy"
"2013-07-10 15:00","2013","07","10","15:00","25.4","","16.7","","59","","28","","28","","19.3","","98.60","","30","","","","Mostly Cloudy"
"2013-07-10 16:00","2013","07","10","16:00","25.1","","19.0","","69","","25","","24","","19.3","","98.61","","32","","","","Mostly Cloudy"
"2013-07-10 17:00","2013","07","10","17:00","25.9","","20.9","","74","","25","","19","","19.3","","98.60","","34","","","","Mostly Cloudy"
"2013-07-10 18:00","2013","07","10","18:00","27.2","","21.9","","73","","27","","15","","19.3","","98.66","","36","","","","Mostly Cloudy"
"2013-07-10 19:00","2013","07","10","19:00","27.2","","19.0","","61","","35","","19","","19.3","","98.76","","34","","","","Mostly Cloudy"
"2013-07-10 20:00","2013","07","10","20:00","24.4","","17.6","","66","","5","","20","","19.3","","98.94","","30","","","","Mostly Cloudy"
"2013-07-10 21:00","2013","07","10","21:00","23.4","","14.7","","58","","3","","17","","24.1","","99.02","","27","","","","Mostly Cloudy"
"2013-07-10 22:00","2013","07","10","22:00","22.9","","14.2","","58","","1","","13","","24.1","","99.11","","26","","","","Mostly Cloudy"
"2013-07-10 23:00","2013","07","10","23:00","21.1","","17.7","","81","","7","","9","","24.1","","99.16","","27","","","","Mostly Cloudy"
"2013-07-11 00:00","2013","07","11","00:00","20.1","","17.1","","83","","5","","4","","24.1","","99.19","","25","","","","Mainly Clear"
"2013-07-11 01:00","2013","07","11","01:00","19.8","","16.6","","82","","35","","9","","24.1","","99.19","","","","","","Mainly Clear"
"2013-07-11 02:00","2013","07","11","02:00","19.1","","14.1","","73","","34","","6","","24.1","","99.21","","","","","","Mainly Clear"
"2013-07-11 03:00","2013","07","11","03:00","18.9","","13.7","","72","","35","","7","","24.1","","99.27","","","","","","Mostly Cloudy"
"2013-07-11 04:00","2013","07","11","04:00","18.3","","13.5","","74","","35","","7","","24.1","","99.29","","","","","","Mainly Clear"
"2013-07-11 05:00","2013","07","11","05:00","18.1","","13.6","","75","","33","","4","","24.1","","99.36","","","","","","Mostly Cloudy"
"2013-07-11 06:00","2013","07","11","06:00","18.3","","12.9","","71","","36","","13","","24.1","","99.43","","","","","","Mostly Cloudy"
"2013-07-11 07:00","2013","07","11","07:00","19.1","","12.3","","65","","35","","7","","24.1","","99.47","","","","","","Mainly Clear"
"2013-07-11 08:00","2013","07","11","08:00","20.2","","12.3","","60","","36","","15","","24.1","","99.50","","","","","","Clear"
"2013-07-11 09:00","2013","07","11","09:00","21.3","","12.3","","56","","36","","11","","24.1","","99.52","","","","","","Clear"
"2013-07-11 10:00","2013","07","11","10:00","21.7","","12.0","","54","","36","","20","","24.1","","99.51","","","","","","Mainly Clear"
"2013-07-11 11:00","2013","07","11","11:00","22.9","","12.5","","52","","36","","17","","24.1","","99.52","","25","","","","Mostly Cloudy"
"2013-07-11 12:00","2013","07","11","12:00","23.0","","13.5","","55","","5","","17","","24.1","","99.52","","26","","","","Mostly Cloudy"
"2013-07-11 13:00","2013","07","11","13:00","23.5","","13.3","","53","","3","","13","","24.1","","99.50","","26","","","","Mostly Cloudy"
"2013-07-11 14:00","2013","07","11","14:00","23.7","","13.4","","52","","4","","7","","24.1","","99.48","","27","","","","Mainly Clear"
"2013-07-11 15:00","2013","07","11","15:00","24.9","","13.6","","49","","3","","7","","24.1","","99.48","","28","","","","Mainly Clear"
"2013-07-11 16:00","2013","07","11","16:00","24.5","","13.2","","49","","6","","17","","24.1","","99.46","","27","","","","Mainly Clear"
"2013-07-11 17:00","2013","07","11","17:00","23.7","","14.8","","57","","6","","22","","24.1","","99.46","","28","","","","Mainly Clear"
"2013-07-11 18:00","2013","07","11","18:00","22.9","","15.2","","62","","5","","26","","24.1","","99.49","","27","","","","Mainly Clear"
"2013-07-11 19:00","2013","07","11","19:00","21.6","","14.0","","62","","6","","20","","24.1","","99.50","","25","","","","Mainly Clear"
"2013-07-11 20:00","2013","07","11","20:00","20.3","","14.4","","69","","6","","15","","24.1","","99.50","","","","","","Mainly Clear"
"2013-07-11 21:00","2013","07","11","21:00","19.1","","14.3","","74","","5","","15","","24.1","","99.53","","","","","","Mainly Clear"
"2013-07-11 22:00","2013","07","11","22:00","18.4","","14.4","","78","","5","","15","","24.1","","99.58","","","","","","Clear"
"2013-07-11 23:00","2013","07","11","23:00","17.6","","14.3","","81","","5","","13","","24.1","","99.60","","","","","","Clear"
"2013-07-12 00:00","2013","07","12","00:00","17.0","","13.9","","82","","1","","7","","24.1","","99.62","","","","","","Mainly Clear"
"2013-07-12 01:00","2013","07","12","01:00","16.0","","13.0","","82","","36","","9","","24.1","","99.62","","","","","","Clear"
"2013-07-12 02:00","2013","07","12","02:00","15.6","","13.0","","85","","35","","9","","24.1","","99.63","","","","","","Clear"
"2013-07-12 03:00","2013","07","12","03:00","15.2","","12.8","","86","","34","","9","","24.1","","99.61","","","","","","Clear"
"2013-07-12 04:00","2013","07","12","04:00","14.7","","12.8","","88","","34","","7","","19.3","","99.66","","","","","","Clear"
"2013-07-12 05:00","2013","07","12","05:00","14.9","","13.1","","89","","35","","11","","19.3","","99.74","","","","","","Clear"
"2013-07-12 06:00","2013","07","12","06:00","15.6","","13.6","","88","","36","","11","","24.1","","99.79","","","","","","Clear"
"2013-07-12 07:00","2013","07","12","07:00","17.5","","14.4","","82","","2","","13","","24.1","","99.83","","","","","","Clear"
"2013-07-12 08:00","2013","07","12","08:00","19.0","","15.3","","79","","2","","13","","24.1","","99.85","","","","","","Mainly Clear"
"2013-07-12 09:00","2013","07","12","09:00","20.5","","16.3","","77","","4","","17","","24.1","","99.87","","25","","","","Clear"
"2013-07-12 10:00","2013","07","12","10:00","21.8","","16.6","","72","","7","","9","","24.1","","99.89","","27","","","","Mainly Clear"
"2013-07-12 11:00","2013","07","12","11:00","22.8","","17.0","","70","","5","","11","","24.1","","99.85","","28","","","","Mainly Clear"
"2013-07-12 12:00","2013","07","12","12:00","23.6","","16.5","","64","","4","","13","","24.1","","99.83","","29","","","","Mainly Clear"
"2013-07-12 13:00","2013","07","12","13:00","25.1","","15.3","","55","","6","","13","","24.1","","99.78","","29","","","","Mainly Clear"
"2013-07-12 14:00","2013","07","12","14:00","25.1","","15.0","","53","","6","","13","","24.1","","99.79","","29","","","","Mainly Clear"
"2013-07-12 15:00","2013","07","12","15:00","25.7","","15.0","","52","","5","","13","","24.1","","99.75","","30","","","","Mainly Clear"
"2013-07-12 16:00","2013","07","12","16:00","25.8","","15.6","","53","","4","","19","","24.1","","99.75","","30","","","","Mainly Clear"
"2013-07-12 17:00","2013","07","12","17:00","26.1","","15.9","","53","","5","","11","","24.1","","99.73","","31","","","","Mainly Clear"
"2013-07-12 18:00","2013","07","12","18:00","26.1","","16.2","","54","","5","","13","","24.1","","99.74","","31","","","","Mainly Clear"
"2013-07-12 19:00","2013","07","12","19:00","25.0","","16.0","","57","","7","","19","","24.1","","99.75","","30","","","","Mainly Clear"
"2013-07-12 20:00","2013","07","12","20:00","23.5","","17.1","","67","","9","","11","","24.1","","99.78","","29","","","","Mainly Clear"
"2013-07-12 21:00","2013","07","12","21:00","21.9","","17.2","","75","","8","","13","","24.1","","99.81","","27","","","","Clear"
"2013-07-12 22:00","2013","07","12","22:00","21.6","","16.9","","75","","8","","13","","24.1","","99.84","","27","","","","Clear"
"2013-07-12 23:00","2013","07","12","23:00","20.5","","17.0","","80","","6","","9","","24.1","","99.86","","26","","","","Mainly Clear"
"2013-07-13 00:00","2013","07","13","00:00","19.6","","16.9","","84","","5","","9","","24.1","","99.84","","","","","","Mainly Clear"
"2013-07-13 01:00","2013","07","13","01:00","19.4","","16.8","","85","","4","","9","","24.1","","99.84","","","","","","Mainly Clear"
"2013-07-13 02:00","2013","07","13","02:00","19.0","","15.8","","82","","6","","7","","24.1","","99.84","","","","","","Clear"
"2013-07-13 03:00","2013","07","13","03:00","19.3","","16.6","","84","","6","","9","","24.1","","99.86","","","","","","Clear"
"2013-07-13 04:00","2013","07","13","04:00","19.0","","17.0","","88","","7","","9","","24.1","","99.89","","","","","","Clear"
"2013-07-13 05:00","2013","07","13","05:00","18.9","","17.4","","91","","8","","11","","19.3","","99.91","","","","","","Mainly Clear"
"2013-07-13 06:00","2013","07","13","06:00","19.2","","17.9","","92","","4","","9","","24.1","","99.97","","","","","","Clear"
"2013-07-13 07:00","2013","07","13","07:00","21.6","","19.1","","86","","7","","15","","24.1","","99.98","","28","","","","Mainly Clear"
"2013-07-13 08:00","2013","07","13","08:00","22.4","","17.9","","76","","8","","15","","24.1","","100.02","","28","","","","Mainly Clear"
"2013-07-13 09:00","2013","07","13","09:00","23.4","","16.1","","64","","10","","13","","24.1","","100.03","","28","","","","Mainly Clear"
"2013-07-13 10:00","2013","07","13","10:00","24.4","","16.3","","61","","7","","11","","24.1","","100.02","","29","","","","Mainly Clear"
"2013-07-13 11:00","2013","07","13","11:00","25.0","","17.8","","64","","3","","11","","24.1","","100.03","","31","","","","Mainly Clear"
"2013-07-13 12:00","2013","07","13","12:00","24.8","","18.4","","68","","5","","15","","24.1","","100.04","","31","","","","Mainly Clear"
"2013-07-13 13:00","2013","07","13","13:00","25.8","","18.6","","64","","5","","15","","24.1","","100.04","","32","","","","Mostly Cloudy"
"2013-07-13 14:00","2013","07","13","14:00","26.3","","18.8","","63","","6","","11","","24.1","","100.03","","33","","","","Mostly Cloudy"
"2013-07-13 15:00","2013","07","13","15:00","26.6","","18.6","","62","","7","","15","","24.1","","99.99","","33","","","","Mainly Clear"
"2013-07-13 16:00","2013","07","13","16:00","26.7","","18.9","","62","","6","","13","","24.1","","99.96","","33","","","","Mainly Clear"
"2013-07-13 17:00","2013","07","13","17:00","26.7","","19.2","","63","","7","","13","","24.1","","99.97","","34","","","","Mainly Clear"
"2013-07-13 18:00","2013","07","13","18:00","26.7","","19.3","","64","","7","","13","","24.1","","99.95","","34","","","","Mainly Clear"
"2013-07-13 19:00","2013","07","13","19:00","26.1","","19.3","","66","","7","","15","","24.1","","99.97","","33","","","","Mainly Clear"
"2013-07-13 20:00","2013","07","13","20:00","23.8","","18.7","","73","","13","","9","","24.1","","99.99","","30","","","","Mainly Clear"
"2013-07-13 21:00","2013","07","13","21:00","22.5","","17.9","","75","","8","","4","","24.1","","100.05","","28","","","","Mainly Clear"
"2013-07-13 22:00","2013","07","13","22:00","22.1","","17.4","","75","","9","","6","","24.1","","100.10","","28","","","","Clear"
"2013-07-13 23:00","2013","07","13","23:00","21.5","","17.4","","77","","","","0","","24.1","","100.11","","27","","","","Clear"
"2013-07-14 00:00","2013","07","14","00:00","21.2","","17.4","","79","","9","","6","","24.1","","100.11","","27","","","","Clear"
"2013-07-14 01:00","2013","07","14","01:00","20.3","","17.3","","83","","5","","7","","24.1","","100.10","","26","","","","Clear"
"2013-07-14 02:00","2013","07","14","02:00","21.2","","18.1","","82","","7","","4","","24.1","","100.09","","27","","","","Clear"
"2013-07-14 03:00","2013","07","14","03:00","21.1","","18.6","","86","","13","","6","","24.1","","100.08","","28","","","","Clear"
"2013-07-14 04:00","2013","07","14","04:00","20.5","","18.7","","89","","7","","4","","19.3","","100.11","","27","","","","Clear"
"2013-07-14 05:00","2013","07","14","05:00","20.0","","18.4","","91","","4","","7","","16.1","","100.18","","26","","","","Mainly Clear"
"2013-07-14 06:00","2013","07","14","06:00","21.6","","19.6","","88","","6","","4","","19.3","","100.20","","29","","","","Clear"
"2013-07-14 07:00","2013","07","14","07:00","23.6","","21.1","","86","","7","","9","","24.1","","100.22","","32","","","","Mainly Clear"
"2013-07-14 08:00","2013","07","14","08:00","25.2","","21.1","","78","","7","","9","","24.1","","100.24","","34","","","","Clear"
"2013-07-14 09:00","2013","07","14","09:00","26.5","","20.7","","71","","9","","7","","24.1","","100.22","","35","","","","Clear"
"2013-07-14 10:00","2013","07","14","10:00","27.9","","21.4","","68","","7","","7","","24.1","","100.21","","37","","","","Mainly Clear"
"2013-07-14 11:00","2013","07","14","11:00","28.2","","21.9","","69","","6","","11","","24.1","","100.23","","37","","","","Mostly Cloudy"
"2013-07-14 12:00","2013","07","14","12:00","28.8","","21.4","","64","","4","","6","","24.1","","100.22","","38","","","","Mainly Clear"
"2013-07-14 13:00","2013","07","14","13:00","29.1","","21.9","","65","","4","","17","","24.1","","100.21","","38","","","","Mainly Clear"
"2013-07-14 14:00","2013","07","14","14:00","30.2","","22.3","","63","","5","","13","","24.1","","100.19","","40","","","","Mainly Clear"
"2013-07-14 15:00","2013","07","14","15:00","30.4","","22.3","","62","","6","","17","","24.1","","100.16","","40","","","","Mainly Clear"
"2013-07-14 16:00","2013","07","14","16:00","30.3","","22.3","","62","","5","","13","","24.1","","100.14","","40","","","","Mostly Cloudy"
"2013-07-14 17:00","2013","07","14","17:00","30.3","","21.4","","59","","6","","11","","24.1","","100.14","","39","","","","Mostly Cloudy"
"2013-07-14 18:00","2013","07","14","18:00","29.6","","21.5","","62","","13","","13","","24.1","","100.13","","38","","","","Mostly Cloudy"
"2013-07-14 19:00","2013","07","14","19:00","28.9","","21.2","","63","","13","","9","","24.1","","100.12","","37","","","","Mainly Clear"
"2013-07-14 20:00","2013","07","14","20:00","27.1","","21.2","","70","","12","","9","","24.1","","100.15","","36","","","","Mainly Clear"
"2013-07-14 21:00","2013","07","14","21:00","25.0","","20.3","","75","","13","","7","","24.1","","100.21","","33","","","","Mainly Clear"
"2013-07-14 22:00","2013","07","14","22:00","24.0","","20.6","","81","","13","","6","","24.1","","100.23","","32","","","","Clear"
"2013-07-14 23:00","2013","07","14","23:00","23.4","","20.6","","84","","","","0","","24.1","","100.25","","31","","","","Clear"
"2013-07-15 00:00","2013","07","15","00:00","23.3","","20.8","","86","","4","","4","","24.1","","100.25","","32","","","","Clear"
"2013-07-15 01:00","2013","07","15","01:00","23.4","","20.8","","85","","6","","4","","24.1","","100.23","","32","","","","Clear"
"2013-07-15 02:00","2013","07","15","02:00","23.1","","20.9","","87","","","","0","","24.1","","100.20","","31","","","","Clear"
"2013-07-15 03:00","2013","07","15","03:00","23.7","","20.8","","84","","36","","4","","24.1","","100.22","","32","","","","Clear"
"2013-07-15 04:00","2013","07","15","04:00","23.2","","21.2","","89","","5","","6","","19.3","","100.24","","32","","","","Mostly Cloudy"
"2013-07-15 05:00","2013","07","15","05:00","24.0","","22.0","","89","","8","","4","","19.3","","100.28","","33","","","","Mostly Cloudy"
"2013-07-15 06:00","2013","07","15","06:00","24.0","","22.3","","90","","8","","6","","19.3","","100.33","","34","","","","Mostly Cloudy"
"2013-07-15 07:00","2013","07","15","07:00","24.6","","22.4","","88","","8","","6","","24.1","","100.36","","34","","","","Mostly Cloudy"
"2013-07-15 08:00","2013","07","15","08:00","25.3","","22.6","","85","","9","","6","","24.1","","100.38","","35","","","","Mostly Cloudy"
"2013-07-15 09:00","2013","07","15","09:00","25.9","","22.6","","82","","12","","6","","24.1","","100.38","","36","","","","Mostly Cloudy"
"2013-07-15 10:00","2013","07","15","10:00","28.1","","23.5","","76","","","","0","","24.1","","100.38","","39","","","","Mostly Cloudy"
"2013-07-15 11:00","2013","07","15","11:00","30.2","","25.0","","74","","2","","4","","24.1","","100.37","","43","","","","Mainly Clear"
"2013-07-15 12:00","2013","07","15","12:00","29.6","","23.4","","69","","7","","13","","24.1","","100.34","","40","","","","Mostly Cloudy"
"2013-07-15 13:00","2013","07","15","13:00","30.6","","22.9","","64","","10","","7","","24.1","","100.29","","41","","","","Mainly Clear"
"2013-07-15 14:00","2013","07","15","14:00","31.3","","24.6","","68","","17","","9","","24.1","","100.26","","43","","","","Mostly Cloudy"
"2013-07-15 15:00","2013","07","15","15:00","31.9","","24.2","","64","","14","","9","","24.1","","100.20","","43","","","","Mostly Cloudy"
"2013-07-15 16:00","2013","07","15","16:00","30.6","","25.0","","72","","4","","17","","24.1","","100.18","","43","","","","Mostly Cloudy"
"2013-07-15 17:00","2013","07","15","17:00","30.4","","21.8","","60","","17","","9","","24.1","","100.16","","40","","","","Mostly Cloudy"
"2013-07-15 18:00","2013","07","15","18:00","29.7","","22.2","","64","","13","","7","","24.1","","100.17","","39","","","","Mostly Cloudy"
"2013-07-15 19:00","2013","07","15","19:00","28.5","","24.0","","77","","36","","13","","24.1","","100.23","","40","","","","Mostly Cloudy"
"2013-07-15 20:00","2013","07","15","20:00","27.2","","23.4","","80","","36","","7","","24.1","","100.21","","38","","","","Rain Showers"
"2013-07-15 21:00","2013","07","15","21:00","26.0","","24.3","","90","","33","","7","","11.3","","100.26","","38","","","","Rain Showers"
"2013-07-15 22:00","2013","07","15","22:00","23.7","","22.9","","95","","12","","15","","4.0","","100.37","","34","","","","Thunderstorms,Moderate Rain Showers,Fog"
"2013-07-15 23:00","2013","07","15","23:00","24.1","","23.2","","95","","19","","9","","8.0","","100.33","","35","","","","Thunderstorms,Rain Showers,Fog"
"2013-07-16 00:00","2013","07","16","00:00","24.4","","23.0","","92","","21","","13","","12.9","","100.24","","35","","","","Rain Showers"
"2013-07-16 01:00","2013","07","16","01:00","24.3","","23.2","","94","","","","0","","12.9","","100.21","","35","","","","Cloudy"
"2013-07-16 02:00","2013","07","16","02:00","24.9","","23.6","","93","","35","","6","","19.3","","100.26","","36","","","","Cloudy"
"2013-07-16 03:00","2013","07","16","03:00","24.8","","23.5","","92","","","","0","","19.3","","100.26","","36","","","","Cloudy"
"2013-07-16 04:00","2013","07","16","04:00","24.7","","23.6","","94","","","","0","","19.3","","100.27","","36","","","","Cloudy"
"2013-07-16 05:00","2013","07","16","05:00","24.7","","23.4","","92","","","","0","","12.9","","100.30","","35","","","","Mostly Cloudy"
"2013-07-16 06:00","2013","07","16","06:00","24.9","","23.6","","93","","","","0","","9.7","","100.35","","36","","","","Fog"
"2013-07-16 07:00","2013","07","16","07:00","25.7","","24.1","","91","","11","","4","","9.7","","100.38","","37","","","","Fog"
"2013-07-16 08:00","2013","07","16","08:00","27.0","","24.3","","85","","","","0","","9.7","","100.41","","39","","","","Haze"
"2013-07-16 09:00","2013","07","16","09:00","28.2","","25.0","","83","","21","","4","","11.3","","100.42","","41","","","","Mostly Cloudy"
"2013-07-16 10:00","2013","07","16","10:00","29.6","","24.2","","73","","34","","9","","16.1","","100.39","","41","","","","Mostly Cloudy"
"2013-07-16 11:00","2013","07","16","11:00","29.8","","23.8","","70","","32","","7","","16.1","","100.36","","41","","","","Thunderstorms"
"2013-07-16 12:00","2013","07","16","12:00","30.1","","23.0","","66","","25","","6","","19.3","","100.33","","40","","","","Mostly Cloudy"
"2013-07-16 13:00","2013","07","16","13:00","28.8","","24.5","","78","","18","","17","","19.3","","100.32","","41","","","","Mostly Cloudy"
"2013-07-16 14:00","2013","07","16","14:00","28.3","","23.2","","74","","27","","26","","24.1","","100.35","","39","","","","Thunderstorms"
"2013-07-16 15:00","2013","07","16","15:00","27.3","","23.5","","80","","24","","6","","24.1","","100.29","","38","","","","Mostly Cloudy"
"2013-07-16 16:00","2013","07","16","16:00","28.1","","24.5","","81","","23","","11","","24.1","","100.23","","40","","","","Mostly Cloudy"
"2013-07-16 17:00","2013","07","16","17:00","28.2","","24.5","","80","","23","","9","","24.1","","100.20","","40","","","","Mostly Cloudy"
"2013-07-16 18:00","2013","07","16","18:00","29.1","","24.6","","77","","23","","9","","24.1","","100.19","","41","","","","Mostly Cloudy"
"2013-07-16 19:00","2013","07","16","19:00","28.9","","24.7","","78","","22","","9","","24.1","","100.18","","41","","","","Mostly Cloudy"
"2013-07-16 20:00","2013","07","16","20:00","28.3","","24.8","","81","","22","","6","","24.1","","100.20","","40","","","","Mostly Cloudy"
"2013-07-16 21:00","2013","07","16","21:00","27.5","","24.4","","83","","","","0","","24.1","","100.20","","39","","","","Mostly Cloudy"
"2013-07-16 22:00","2013","07","16","22:00","26.9","","24.2","","85","","22","","6","","24.1","","100.21","","38","","","","Mainly Clear"
"2013-07-16 23:00","2013","07","16","23:00","26.6","","24.3","","87","","22","","9","","24.1","","100.19","","38","","","","Mainly Clear"
"2013-07-17 00:00","2013","07","17","00:00","26.1","","24.2","","89","","20","","6","","24.1","","100.21","","38","","","","Clear"
"2013-07-17 01:00","2013","07","17","01:00","25.8","","23.8","","89","","25","","4","","24.1","","100.22","","37","","","","Clear"
"2013-07-17 02:00","2013","07","17","02:00","26.0","","23.2","","85","","26","","11","","24.1","","100.22","","36","","","","Clear"
"2013-07-17 03:00","2013","07","17","03:00","25.5","","22.6","","84","","27","","9","","19.3","","100.20","","35","","","","Clear"
"2013-07-17 04:00","2013","07","17","04:00","25.2","","22.3","","84","","25","","7","","19.3","","100.22","","35","","","","Mainly Clear"
"2013-07-17 05:00","2013","07","17","05:00","24.8","","21.9","","84","","28","","6","","12.9","","100.25","","34","","","","Mostly Cloudy"
"2013-07-17 06:00","2013","07","17","06:00","24.9","","22.3","","86","","25","","4","","12.9","","100.30","","35","","","","Mainly Clear"
"2013-07-17 07:00","2013","07","17","07:00","26.5","","22.7","","80","","25","","7","","12.9","","100.31","","36","","","","Mainly Clear"
"2013-07-17 08:00","2013","07","17","08:00","28.1","","22.9","","73","","29","","13","","12.9","","100.31","","38","","","","Mainly Clear"
"2013-07-17 09:00","2013","07","17","09:00","29.6","","23.7","","71","","29","","11","","24.1","","100.27","","41","","","","Clear"
"2013-07-17 10:00","2013","07","17","10:00","30.9","","24.3","","68","","29","","11","","24.1","","100.24","","42","","","","Clear"
"2013-07-17 11:00","2013","07","17","11:00","31.8","","23.2","","60","","31","","7","","24.1","","100.21","","42","","","","Mostly Cloudy"
"2013-07-17 12:00","2013","07","17","12:00","30.4","","21.6","","59","","23","","9","","24.1","","100.18","","39","","","","Rain Showers"
"2013-07-17 13:00","2013","07","17","13:00","31.7","","24.5","","66","","18","","11","","24.1","","100.13","","44","","","","Mostly Cloudy"
"2013-07-17 14:00","2013","07","17","14:00","31.2","","25.5","","72","","17","","13","","24.1","","100.07","","44","","","","Mostly Cloudy"
"2013-07-17 15:00","2013","07","17","15:00","32.5","","24.8","","64","","20","","20","","24.1","","99.99","","45","","","","Mainly Clear"
"2013-07-17 16:00","2013","07","17","16:00","33.0","","24.6","","61","","22","","15","","24.1","","99.91","","45","","","","Mainly Clear"
"2013-07-17 17:00","2013","07","17","17:00","32.0","","25.0","","67","","22","","13","","24.1","","99.88","","44","","","","Mostly Cloudy"
"2013-07-17 18:00","2013","07","17","18:00","32.8","","23.5","","58","","30","","19","","24.1","","99.86","","44","","","","Mainly Clear"
"2013-07-17 19:00","2013","07","17","19:00","32.4","","23.5","","60","","27","","13","","24.1","","99.86","","43","","","","Mainly Clear"
"2013-07-17 20:00","2013","07","17","20:00","30.9","","22.4","","61","","29","","9","","24.1","","99.89","","41","","","","Mainly Clear"
"2013-07-17 21:00","2013","07","17","21:00","29.8","","22.6","","65","","28","","13","","24.1","","99.90","","40","","","","Mainly Clear"
"2013-07-17 22:00","2013","07","17","22:00","29.2","","23.1","","70","","28","","7","","24.1","","99.88","","40","","","","Clear"
"2013-07-17 23:00","2013","07","17","23:00","27.6","","23.1","","77","","22","","11","","24.1","","99.90","","38","","","","Clear"
"2013-07-18 00:00","2013","07","18","00:00","27.3","","23.4","","79","","25","","7","","24.1","","99.88","","38","","","","Clear"
"2013-07-18 01:00","2013","07","18","01:00","26.7","","23.4","","82","","25","","6","","24.1","","99.85","","37","","","","Clear"
"2013-07-18 02:00","2013","07","18","02:00","26.4","","23.2","","83","","27","","11","","24.1","","99.83","","37","","","","Clear"
"2013-07-18 03:00","2013","07","18","03:00","26.1","","22.7","","82","","27","","9","","24.1","","99.83","","36","","","","Clear"
"2013-07-18 04:00","2013","07","18","04:00","25.6","","22.4","","83","","26","","9","","24.1","","99.82","","35","","","","Clear"
"2013-07-18 05:00","2013","07","18","05:00","24.8","","22.1","","85","","24","","6","","16.1","","99.81","","34","","","","Clear"
"2013-07-18 06:00","2013","07","18","06:00","24.7","","22.4","","87","","22","","7","","16.1","","99.84","","34","","","","Mainly Clear"
"2013-07-18 07:00","2013","07","18","07:00","26.0","","22.6","","82","","23","","9","","19.3","","99.83","","36","","","","Mainly Clear"
"2013-07-18 08:00","2013","07","18","08:00","27.7","","23.3","","77","","24","","6","","19.3","","99.83","","38","","","","Mainly Clear"
"2013-07-18 09:00","2013","07","18","09:00","29.3","","23.4","","71","","25","","6","","24.1","","99.78","","40","","","","Mainly Clear"
"2013-07-18 10:00","2013","07","18","10:00","30.6","","23.6","","66","","22","","7","","24.1","","99.77","","41","","","","Clear"
"2013-07-18 11:00","2013","07","18","11:00","32.0","","23.7","","62","","23","","13","","24.1","","99.75","","43","","","","Mainly Clear"
"2013-07-18 12:00","2013","07","18","12:00","32.1","","24.5","","64","","20","","11","","24.1","","99.69","","44","","","","Mostly Cloudy"
"2013-07-18 13:00","2013","07","18","13:00","23.8","","21.2","","85","","16","","13","","16.1","","99.67","","32","","","","Thunderstorms,Rain Showers"
"2013-07-18 14:00","2013","07","18","14:00","26.4","","23.8","","86","","20","","13","","24.1","","99.62","","37","","","","Mostly Cloudy"
"2013-07-18 15:00","2013","07","18","15:00","30.4","","24.2","","70","","20","","17","","19.3","","99.53","","42","","","","Mostly Cloudy"
"2013-07-18 16:00","2013","07","18","16:00","31.7","","24.8","","67","","20","","20","","16.1","","99.43","","44","","","","Mostly Cloudy"
"2013-07-18 17:00","2013","07","18","17:00","30.0","","24.0","","70","","19","","13","","16.1","","99.33","","41","","","","Thunderstorms"
"2013-07-18 18:00","2013","07","18","18:00","25.9","","22.6","","82","","20","","11","","19.3","","99.35","","36","","","","Rain Showers"
"2013-07-18 19:00","2013","07","18","19:00","28.8","","22.6","","69","","22","","11","","16.1","","99.31","","39","","","","Mostly Cloudy"
"2013-07-18 20:00","2013","07","18","20:00","28.1","","23.5","","76","","20","","11","","19.3","","99.26","","39","","","","Mostly Cloudy"
"2013-07-18 21:00","2013","07","18","21:00","27.5","","23.6","","79","","20","","11","","24.1","","99.28","","38","","","","Mainly Clear"
"2013-07-18 22:00","2013","07","18","22:00","27.2","","23.8","","82","","21","","11","","24.1","","99.29","","38","","","","Clear"
"2013-07-18 23:00","2013","07","18","23:00","26.8","","23.7","","83","","20","","11","","24.1","","99.27","","38","","","","Clear"
"2013-07-19 00:00","2013","07","19","00:00","26.9","","23.3","","81","","23","","11","","24.1","","99.26","","37","","","","Clear"
"2013-07-19 01:00","2013","07","19","01:00","26.6","","23.1","","81","","23","","13","","24.1","","99.20","","37","","","","Clear"
"2013-07-19 02:00","2013","07","19","02:00","26.6","","22.7","","79","","24","","13","","24.1","","99.15","","37","","","","Clear"
"2013-07-19 03:00","2013","07","19","03:00","25.9","","22.5","","82","","23","","15","","19.3","","99.09","","36","","","","Clear"
"2013-07-19 04:00","2013","07","19","04:00","25.4","","22.4","","83","","23","","11","","19.3","","99.05","","35","","","","Clear"
"2013-07-19 05:00","2013","07","19","05:00","25.3","","22.2","","83","","23","","15","","9.7","","99.05","","35","","","","Haze"
"2013-07-19 06:00","2013","07","19","06:00","25.5","","22.6","","84","","23","","17","","16.1","","99.06","","35","","","","Clear"
"2013-07-19 07:00","2013","07","19","07:00","26.5","","22.8","","80","","23","","15","","16.1","","99.06","","37","","","","Clear"
"2013-07-19 08:00","2013","07","19","08:00","28.0","","23.2","","75","","25","","24","","24.1","","99.07","","38","","","","Clear"
"2013-07-19 09:00","2013","07","19","09:00","29.3","","23.2","","70","","23","","26","","24.1","","99.05","","40","","","","Clear"
"2013-07-19 10:00","2013","07","19","10:00","30.1","","23.5","","68","","25","","22","","24.1","","99.01","","41","","","","Clear"
"2013-07-19 11:00","2013","07","19","11:00","31.2","","23.8","","65","","23","","30","","24.1","","98.96","","42","","","","Mainly Clear"
"2013-07-19 12:00","2013","07","19","12:00","32.4","","23.9","","61","","24","","26","","24.1","","98.88","","44","","","","Mostly Cloudy"
"2013-07-19 13:00","2013","07","19","13:00","33.1","","22.8","","55","","24","","33","","24.1","","98.79","","43","","","","Mostly Cloudy"
"2013-07-19 14:00","2013","07","19","14:00","33.5","","22.4","","52","","25","","32","","24.1","","98.67","","43","","","","Mostly Cloudy"
"2013-07-19 15:00","2013","07","19","15:00","33.7","","21.7","","50","","24","","35","","24.1","","98.59","","43","","","","Mainly Clear"
"2013-07-19 16:00","2013","07","19","16:00","33.6","","22.4","","52","","24","","26","","19.3","","98.56","","43","","","","Mainly Clear"
"2013-07-19 17:00","2013","07","19","17:00","33.3","","22.1","","52","","24","","28","","19.3","","98.53","","43","","","","Mainly Clear"
"2013-07-19 18:00","2013","07","19","18:00","33.0","","21.9","","52","","24","","26","","19.3","","98.51","","42","","","","Mainly Clear"
"2013-07-19 19:00","2013","07","19","19:00","30.5","","22.3","","62","","27","","9","","16.1","","98.54","","40","","","","Rain Showers"
"2013-07-19 20:00","2013","07","19","20:00","27.5","","22.2","","73","","21","","37","","4.8","","98.50","","37","","","","Thunderstorms,Moderate Rain Showers"
"2013-07-19 21:00","2013","07","19","21:00","23.6","","21.5","","88","","21","","17","","19.3","","98.51","","32","","","","Thunderstorms,Rain Showers"
"2013-07-19 22:00","2013","07","19","22:00","23.4","","21.5","","89","","20","","6","","24.1","","98.51","","32","","","","Cloudy"
"2013-07-19 23:00","2013","07","19","23:00","24.3","","21.4","","84","","20","","13","","24.1","","98.50","","33","","","","Mostly Cloudy"
"2013-07-20 00:00","2013","07","20","00:00","26.5","","23.3","","83","","28","","43","","19.3","","98.61","","37","","","","Thunderstorms,Rain Showers"
"2013-07-20 01:00","2013","07","20","01:00","22.4","","20.6","","90","","28","","17","","12.9","","98.56","","30","","","","Thunderstorms,Moderate Rain Showers"
"2013-07-20 02:00","2013","07","20","02:00","21.7","","20.3","","92","","27","","11","","11.3","","98.53","","30","","","","Thunderstorms,Rain Showers"
"2013-07-20 03:00","2013","07","20","03:00","21.7","","20.4","","92","","25","","4","","16.1","","98.53","","30","","","","Thunderstorms,Rain Showers"
"2013-07-20 04:00","2013","07","20","04:00","21.6","","20.6","","94","","20","","9","","16.1","","98.54","","30","","","","Thunderstorms"
"2013-07-20 05:00","2013","07","20","05:00","21.9","","20.8","","93","","26","","4","","19.3","","98.57","","30","","","","Cloudy"
"2013-07-20 06:00","2013","07","20","06:00","22.3","","21.3","","94","","25","","4","","16.1","","98.70","","31","","","","Cloudy"
"2013-07-20 07:00","2013","07","20","07:00","22.6","","21.3","","92","","2","","6","","24.1","","98.76","","31","","","","Cloudy"
"2013-07-20 08:00","2013","07","20","08:00","22.8","","20.3","","86","","3","","7","","24.1","","98.81","","31","","","","Cloudy"
"2013-07-20 09:00","2013","07","20","09:00","23.0","","19.3","","80","","","","0","","24.1","","98.85","","30","","","","Mostly Cloudy"
"2013-07-20 10:00","2013","07","20","10:00","25.0","","20.3","","75","","","","0","","24.1","","98.83","","33","","","","Mainly Clear"
"2013-07-20 11:00","2013","07","20","11:00","26.0","","19.3","","67","","32","","7","","24.1","","98.83","","33","","","","Mostly Cloudy"
"2013-07-20 12:00","2013","07","20","12:00","27.5","","19.2","","61","","19","","4","","24.1","","98.82","","34","","","","Mostly Cloudy"
"2013-07-20 13:00","2013","07","20","13:00","28.9","","18.3","","53","","30","","13","","24.1","","98.83","","35","","","","Mostly Cloudy"
"2013-07-20 14:00","2013","07","20","14:00","29.5","","17.3","","48","","35","","9","","24.1","","98.80","","35","","","","Mostly Cloudy"
"2013-07-20 15:00","2013","07","20","15:00","28.4","","17.8","","53","","9","","15","","24.1","","98.77","","34","","","","Mostly Cloudy"
"2013-07-20 16:00","2013","07","20","16:00","27.8","","17.9","","55","","10","","11","","24.1","","98.81","","34","","","","Mostly Cloudy"
"2013-07-20 17:00","2013","07","20","17:00","28.1","","18.9","","57","","10","","11","","24.1","","98.83","","35","","","","Mostly Cloudy"
"2013-07-20 18:00","2013","07","20","18:00","26.8","","18.6","","61","","9","","7","","24.1","","98.82","","33","","","","Mostly Cloudy"
"2013-07-20 19:00","2013","07","20","19:00","26.6","","19.5","","65","","14","","4","","24.1","","98.87","","34","","","","Mostly Cloudy"
"2013-07-20 20:00","2013","07","20","20:00","24.9","","18.5","","68","","5","","13","","19.3","","98.97","","31","","","","Rain Showers"
"2013-07-20 21:00","2013","07","20","21:00","21.2","","19.4","","89","","16","","7","","24.1","","99.04","","28","","","","Mostly Cloudy"
"2013-07-20 22:00","2013","07","20","22:00","21.2","","18.4","","84","","","","0","","24.1","","99.09","","28","","","","Mostly Cloudy"
"2013-07-20 23:00","2013","07","20","23:00","21.6","","18.9","","85","","5","","9","","24.1","","99.12","","28","","","","Mainly Clear"
"2013-07-21 00:00","2013","07","21","00:00","21.3","","18.5","","84","","5","","15","","24.1","","99.13","","28","","","","Mainly Clear"
"2013-07-21 01:00","2013","07","21","01:00","20.4","","16.8","","80","","4","","13","","24.1","","99.17","","26","","","","Mainly Clear"
"2013-07-21 02:00","2013","07","21","02:00","20.3","","16.3","","78","","5","","17","","24.1","","99.15","","25","","","","Mostly Cloudy"
"2013-07-21 03:00","2013","07","21","03:00","20.0","","14.8","","72","","5","","15","","24.1","","99.16","","","","","","Mostly Cloudy"
"2013-07-21 04:00","2013","07","21","04:00","19.6","","14.1","","71","","5","","13","","24.1","","99.18","","","","","","Mostly Cloudy"
"2013-07-21 05:00","2013","07","21","05:00","18.9","","14.6","","76","","4","","13","","24.1","","99.23","","","","","","Mostly Cloudy"
"2013-07-21 06:00","2013","07","21","06:00","18.5","","14.5","","78","","2","","7","","24.1","","99.26","","","","","","Mostly Cloudy"
"2013-07-21 07:00","2013","07","21","07:00","19.1","","14.2","","73","","36","","6","","24.1","","99.35","","","","","","Mostly Cloudy"
"2013-07-21 08:00","2013","07","21","08:00","21.0","","15.2","","69","","6","","13","","24.1","","99.34","","25","","","","Mainly Clear"
"2013-07-21 09:00","2013","07","21","09:00","22.2","","15.0","","64","","6","","15","","24.1","","99.35","","26","","","","Mainly Clear"
"2013-07-21 10:00","2013","07","21","10:00","22.6","","15.0","","62","","5","","11","","24.1","","99.39","","27","","","","Mostly Cloudy"
"2013-07-21 11:00","2013","07","21","11:00","23.0","","16.4","","66","","5","","9","","24.1","","99.41","","28","","","","Mostly Cloudy"
"2013-07-21 12:00","2013","07","21","12:00","24.3","","17.5","","66","","3","","6","","24.1","","99.37","","30","","","","Mostly Cloudy"
"2013-07-21 13:00","2013","07","21","13:00","25.0","","17.9","","65","","4","","9","","24.1","","99.34","","31","","","","Mostly Cloudy"
"2013-07-21 14:00","2013","07","21","14:00","25.5","","17.6","","62","","11","","9","","24.1","","99.31","","31","","","","Mostly Cloudy"
"2013-07-21 15:00","2013","07","21","15:00","26.1","","17.2","","58","","6","","11","","24.1","","99.28","","32","","","","Mostly Cloudy"
"2013-07-21 16:00","2013","07","21","16:00","25.8","","17.0","","58","","8","","7","","24.1","","99.23","","31","","","","Mostly Cloudy"
"2013-07-21 17:00","2013","07","21","17:00","25.5","","16.8","","59","","9","","13","","24.1","","99.17","","31","","","","Mostly Cloudy"
"2013-07-21 18:00","2013","07","21","18:00","25.4","","17.0","","60","","7","","11","","24.1","","99.16","","31","","","","Mainly Clear"
"2013-07-21 19:00","2013","07","21","19:00","24.8","","16.7","","61","","9","","9","","24.1","","99.16","","30","","","","Mainly Clear"
"2013-07-21 20:00","2013","07","21","20:00","23.7","","16.5","","64","","9","","6","","24.1","","99.19","","29","","","","Mostly Cloudy"
"2013-07-21 21:00","2013","07","21","21:00","22.9","","17.2","","70","","9","","4","","24.1","","99.22","","28","","","","Mainly Clear"
"2013-07-21 22:00","2013","07","21","22:00","21.4","","18.0","","81","","14","","6","","24.1","","99.24","","27","","","","Mainly Clear"
"2013-07-21 23:00","2013","07","21","23:00","21.2","","18.0","","82","","13","","6","","24.1","","99.25","","27","","","","Mostly Cloudy"
"2013-07-22 00:00","2013","07","22","00:00","21.0","","18.1","","84","","9","","6","","24.1","","99.23","","27","","","","Mostly Cloudy"
"2013-07-22 01:00","2013","07","22","01:00","20.6","","18.3","","87","","7","","6","","24.1","","99.21","","27","","","","Mostly Cloudy"
"2013-07-22 02:00","2013","07","22","02:00","20.8","","17.5","","81","","9","","9","","24.1","","99.15","","26","","","","Cloudy"
"2013-07-22 03:00","2013","07","22","03:00","20.6","","17.5","","82","","8","","6","","24.1","","99.11","","26","","","","Cloudy"
"2013-07-22 04:00","2013","07","22","04:00","20.4","","17.6","","84","","9","","7","","24.1","","99.04","","26","","","","Mostly Cloudy"
"2013-07-22 05:00","2013","07","22","05:00","20.4","","17.7","","84","","","","0","","24.1","","99.08","","26","","","","Mostly Cloudy"
"2013-07-22 06:00","2013","07","22","06:00","20.4","","17.7","","84","","9","","4","","24.1","","99.07","","26","","","","Mostly Cloudy"
"2013-07-22 07:00","2013","07","22","07:00","20.5","","18.5","","88","","9","","6","","24.1","","99.06","","27","","","","Rain Showers"
"2013-07-22 08:00","2013","07","22","08:00","21.6","","19.5","","88","","13","","4","","24.1","","99.04","","29","","","","Mostly Cloudy"
"2013-07-22 09:00","2013","07","22","09:00","22.9","","20.3","","85","","12","","15","","24.1","","98.98","","31","","","","Cloudy"
"2013-07-22 10:00","2013","07","22","10:00","23.3","","20.7","","85","","13","","13","","24.1","","98.99","","31","","","","Rain Showers"
"2013-07-22 11:00","2013","07","22","11:00","23.7","","20.9","","84","","14","","11","","24.1","","98.99","","32","","","","Rain Showers"
"2013-07-22 12:00","2013","07","22","12:00","23.8","","20.4","","81","","16","","9","","24.1","","98.98","","32","","","","Rain Showers"
"2013-07-22 13:00","2013","07","22","13:00","23.1","","19.5","","80","","16","","4","","24.1","","98.96","","30","","","","Rain Showers"
"2013-07-22 14:00","2013","07","22","14:00","24.0","","19.6","","76","","11","","9","","24.1","","98.88","","31","","","","Rain Showers"
"2013-07-22 15:00","2013","07","22","15:00","24.7","","17.0","","62","","17","","7","","24.1","","98.82","","30","","","","Mostly Cloudy"
"2013-07-22 16:00","2013","07","22","16:00","25.4","","19.0","","68","","","","0","","24.1","","98.77","","32","","","","Mostly Cloudy"
"2013-07-22 17:00","2013","07","22","17:00","26.0","","17.3","","59","","9","","6","","24.1","","98.71","","31","","","","Mostly Cloudy"
"2013-07-22 18:00","2013","07","22","18:00","26.0","","17.8","","61","","10","","9","","24.1","","98.65","","32","","","","Mainly Clear"
"2013-07-22 19:00","2013","07","22","19:00","24.9","","19.7","","73","","9","","6","","24.1","","98.64","","32","","","","Mainly Clear"
"2013-07-22 20:00","2013","07","22","20:00","23.3","","19.4","","79","","14","","7","","16.1","","98.62","","30","","","","Mainly Clear"
"2013-07-22 21:00","2013","07","22","21:00","21.6","","19.5","","88","","9","","7","","16.1","","98.68","","29","","","","Clear"
"2013-07-22 22:00","2013","07","22","22:00","21.2","","18.9","","87","","16","","6","","19.3","","98.68","","28","","","","Clear"
"2013-07-22 23:00","2013","07","22","23:00","20.5","","18.6","","89","","","","0","","19.3","","98.67","","27","","","","Clear"
"2013-07-23 00:00","2013","07","23","00:00","20.7","","18.5","","87","","22","","6","","19.3","","98.67","","27","","","","Clear"
"2013-07-23 01:00","2013","07","23","01:00","20.6","","18.8","","89","","","","0","","19.3","","98.64","","27","","","","Mainly Clear"
"2013-07-23 02:00","2013","07","23","02:00","20.5","","19.2","","92","","25","","6","","16.1","","98.59","","27","","","","Mainly Clear"
"2013-07-23 03:00","2013","07","23","03:00","20.0","","19.0","","94","","20","","9","","12.9","","98.47","","27","","","","Mainly Clear"
"2013-07-23 04:00","2013","07","23","04:00","20.0","","19.0","","94","","23","","7","","11.3","","98.46","","27","","","","Mainly Clear"
"2013-07-23 05:00","2013","07","23","05:00","20.5","","19.0","","91","","21","","6","","8.0","","98.47","","27","","","","Fog"
"2013-07-23 06:00","2013","07","23","06:00","20.8","","19.1","","90","","21","","7","","11.3","","98.45","","28","","","","Mostly Cloudy"
"2013-07-23 07:00","2013","07","23","07:00","22.3","","18.9","","81","","22","","13","","16.1","","98.43","","29","","","","Mainly Clear"
"2013-07-23 08:00","2013","07","23","08:00","22.9","","19.0","","79","","26","","19","","16.1","","98.50","","30","","","","Thunderstorms,Rain Showers"
"2013-07-23 09:00","2013","07","23","09:00","20.0","","18.1","","89","","13","","15","","16.1","","98.40","","26","","","","Thunderstorms,Rain Showers"
"2013-07-23 10:00","2013","07","23","10:00","20.9","","18.2","","85","","21","","11","","24.1","","98.40","","27","","","","Mostly Cloudy"
"2013-07-23 11:00","2013","07","23","11:00","22.7","","20.5","","87","","22","","17","","24.1","","98.42","","31","","","","Mostly Cloudy"
"2013-07-23 12:00","2013","07","23","12:00","25.5","","21.2","","77","","22","","20","","24.1","","98.37","","34","","","","Mainly Clear"
"2013-07-23 13:00","2013","07","23","13:00","27.0","","21.0","","70","","25","","17","","24.1","","98.32","","35","","","","Mostly Cloudy"
"2013-07-23 14:00","2013","07","23","14:00","28.2","","21.3","","66","","24","","6","","24.1","","98.31","","37","","","","Mostly Cloudy"
"2013-07-23 15:00","2013","07","23","15:00","19.9","","17.5","","86","","27","","17","","4.8","","98.36","","","","","","Thunderstorms,Rain Showers"
"2013-07-23 16:00","2013","07","23","16:00","24.4","","19.7","","75","","34","","9","","24.1","","98.37","","32","","","","Mostly Cloudy"
"2013-07-23 17:00","2013","07","23","17:00","25.4","","19.2","","69","","35","","24","","24.1","","98.35","","32","","","","Mostly Cloudy"
"2013-07-23 18:00","2013","07","23","18:00","25.2","","17.2","","61","","35","","19","","24.1","","98.39","","31","","","","Mostly Cloudy"
"2013-07-23 19:00","2013","07","23","19:00","23.6","","15.9","","62","","36","","20","","24.1","","98.46","","28","","","","Mainly Clear"
"2013-07-23 20:00","2013","07","23","20:00","21.8","","14.5","","63","","1","","11","","24.1","","98.46","","25","","","","Mainly Clear"
"2013-07-23 21:00","2013","07","23","21:00","19.2","","13.0","","67","","36","","20","","24.1","","98.71","","","","","","Mainly Clear"
"2013-07-23 22:00","2013","07","23","22:00","17.7","","11.9","","69","","35","","22","","24.1","","98.82","","","","","","Clear"
"2013-07-23 23:00","2013","07","23","23:00","17.0","","11.3","","69","","35","","20","","24.1","","98.94","","","","","","Mostly Cloudy"
"2013-07-24 00:00","2013","07","24","00:00","16.8","","10.2","","65","","36","","17","","24.1","","99.00","","","","","","Mostly Cloudy"
"2013-07-24 01:00","2013","07","24","01:00","16.2","","9.9","","66","","34","","19","","24.1","","99.00","","","","","","Mostly Cloudy"
"2013-07-24 02:00","2013","07","24","02:00","15.5","","10.1","","70","","35","","19","","24.1","","99.00","","","","","","Mainly Clear"
"2013-07-24 03:00","2013","07","24","03:00","15.8","","9.7","","67","","36","","19","","24.1","","99.02","","","","","","Mainly Clear"
"2013-07-24 04:00","2013","07","24","04:00","14.6","","8.7","","68","","36","","17","","24.1","","99.05","","","","","","Mainly Clear"
"2013-07-24 05:00","2013","07","24","05:00","14.0","","8.6","","70","","36","","13","","24.1","","99.10","","","","","","Mainly Clear"
"2013-07-24 06:00","2013","07","24","06:00","14.1","","9.2","","72","","35","","13","","24.1","","99.18","","","","","","Mainly Clear"
"2013-07-24 07:00","2013","07","24","07:00","14.4","","8.8","","69","","35","","20","","24.1","","99.24","","","","","","Mainly Clear"
"2013-07-24 08:00","2013","07","24","08:00","15.7","","8.5","","62","","36","","22","","24.1","","99.32","","","","","","Mainly Clear"
"2013-07-24 09:00","2013","07","24","09:00","16.6","","8.8","","60","","36","","20","","24.1","","99.34","","","","","","Mainly Clear"
"2013-07-24 10:00","2013","07","24","10:00","17.5","","9.4","","59","","2","","20","","24.1","","99.39","","","","","","Mainly Clear"
"2013-07-24 11:00","2013","07","24","11:00","18.2","","10.4","","60","","4","","24","","24.1","","99.41","","","","","","Mainly Clear"
"2013-07-24 12:00","2013","07","24","12:00","19.1","","10.9","","59","","4","","26","","24.1","","99.44","","","","","","Mainly Clear"
"2013-07-24 13:00","2013","07","24","13:00","19.3","","11.0","","59","","4","","24","","24.1","","99.44","","","","","","Mainly Clear"
"2013-07-24 14:00","2013","07","24","14:00","20.1","","11.5","","58","","5","","22","","24.1","","99.44","","","","","","Mainly Clear"
"2013-07-24 15:00","2013","07","24","15:00","20.6","","11.6","","56","","4","","19","","24.1","","99.42","","","","","","Mainly Clear"
"2013-07-24 16:00","2013","07","24","16:00","20.9","","11.7","","56","","5","","24","","24.1","","99.40","","","","","","Mainly Clear"
"2013-07-24 17:00","2013","07","24","17:00","20.2","","11.4","","57","","5","","17","","24.1","","99.40","","","","","","Mainly Clear"
"2013-07-24 18:00","2013","07","24","18:00","20.1","","11.1","","56","","6","","22","","24.1","","99.40","","","","","","Mainly Clear"
"2013-07-24 19:00","2013","07","24","19:00","19.1","","9.9","","55","","5","","19","","24.1","","99.45","","","","","","Mainly Clear"
"2013-07-24 20:00","2013","07","24","20:00","17.6","","10.1","","61","","6","","15","","24.1","","99.48","","","","","","Mainly Clear"
"2013-07-24 21:00","2013","07","24","21:00","16.6","","9.1","","61","","6","","13","","24.1","","99.51","","","","","","Mainly Clear"
"2013-07-24 22:00","2013","07","24","22:00","15.7","","10.0","","69","","5","","13","","24.1","","99.51","","","","","","Mainly Clear"
"2013-07-24 23:00","2013","07","24","23:00","15.8","","9.5","","66","","4","","11","","24.1","","99.52","","","","","","Mainly Clear"
"2013-07-25 00:00","2013","07","25","00:00","15.4","","10.1","","71","","6","","6","","24.1","","99.53","","","","","","Mainly Clear"
"2013-07-25 01:00","2013","07","25","01:00","14.1","","10.3","","78","","","","0","","24.1","","99.53","","","","","","Mainly Clear"
"2013-07-25 02:00","2013","07","25","02:00","13.4","","10.5","","83","","20","","4","","24.1","","99.54","","","","","","Mainly Clear"
"2013-07-25 03:00","2013","07","25","03:00","14.1","","10.6","","79","","32","","7","","24.1","","99.55","","","","","","Clear"
"2013-07-25 04:00","2013","07","25","04:00","14.1","","10.5","","79","","33","","4","","24.1","","99.56","","","","","","Clear"
"2013-07-25 05:00","2013","07","25","05:00","13.4","","10.5","","83","","32","","4","","24.1","","99.61","","","","","","Clear"
"2013-07-25 06:00","2013","07","25","06:00","13.6","","10.6","","82","","35","","6","","24.1","","99.62","","","","","","Clear"
"2013-07-25 07:00","2013","07","25","07:00","15.2","","11.7","","80","","35","","6","","24.1","","99.67","","","","","","Clear"
"2013-07-25 08:00","2013","07","25","08:00","17.1","","12.4","","74","","2","","11","","24.1","","99.70","","","","","","Clear"
"2013-07-25 09:00","2013","07","25","09:00","18.8","","13.1","","69","","3","","13","","24.1","","99.70","","","","","","Mainly Clear"
"2013-07-25 10:00","2013","07","25","10:00","20.0","","13.2","","65","","5","","9","","24.1","","99.72","","","","","","Mainly Clear"
"2013-07-25 11:00","2013","07","25","11:00","20.5","","12.9","","62","","4","","7","","24.1","","99.73","","","","","","Mostly Cloudy"
"2013-07-25 12:00","2013","07","25","12:00","21.6","","14.1","","62","","7","","7","","24.1","","99.72","","25","","","","Mostly Cloudy"
"2013-07-25 13:00","2013","07","25","13:00","21.2","","13.5","","61","","13","","6","","24.1","","99.71","","","","","","Mostly Cloudy"
"2013-07-25 14:00","2013","07","25","14:00","22.3","","13.3","","57","","19","","4","","24.1","","99.70","","25","","","","Mostly Cloudy"
"2013-07-25 15:00","2013","07","25","15:00","22.8","","13.8","","57","","19","","6","","24.1","","99.69","","26","","","","Mainly Clear"
"2013-07-25 16:00","2013","07","25","16:00","23.8","","14.8","","57","","14","","11","","24.1","","99.64","","28","","","","Mainly Clear"
"2013-07-25 17:00","2013","07","25","17:00","23.5","","13.8","","54","","20","","11","","24.1","","99.63","","27","","","","Mainly Clear"
"2013-07-25 18:00","2013","07","25","18:00","22.3","","13.2","","56","","21","","17","","24.1","","99.65","","25","","","","Mainly Clear"
"2013-07-25 19:00","2013","07","25","19:00","21.2","","13.3","","61","","17","","11","","24.1","","99.65","","","","","","Mainly Clear"
"2013-07-25 20:00","2013","07","25","20:00","19.0","","13.6","","71","","18","","7","","24.1","","99.68","","","","","","Mainly Clear"
"2013-07-25 21:00","2013","07","25","21:00","18.3","","13.5","","74","","17","","9","","24.1","","99.69","","","","","","Mainly Clear"
"2013-07-25 22:00","2013","07","25","22:00","17.4","","13.5","","78","","16","","4","","24.1","","99.69","","","","","","Mainly Clear"
"2013-07-25 23:00","2013","07","25","23:00","16.4","","13.5","","83","","17","","4","","24.1","","99.70","","","","","","Mainly Clear"
"2013-07-26 00:00","2013","07","26","00:00","16.4","","13.6","","84","","","","0","","24.1","","99.72","","","","","","Mainly Clear"
"2013-07-26 01:00","2013","07","26","01:00","15.1","","13.4","","90","","16","","6","","24.1","","99.67","","","","","","Mainly Clear"
"2013-07-26 02:00","2013","07","26","02:00","15.5","","13.5","","88","","","","0","","24.1","","99.64","","","","","","Mostly Cloudy"
"2013-07-26 03:00","2013","07","26","03:00","15.3","","13.5","","89","","","","0","","24.1","","99.60","","","","","","Mainly Clear"
"2013-07-26 04:00","2013","07","26","04:00","15.0","","13.0","","88","","","","0","","24.1","","99.61","","","","","","Mainly Clear"
"2013-07-26 05:00","2013","07","26","05:00","15.1","","13.0","","87","","27","","4","","24.1","","99.62","","","","","","Mainly Clear"
"2013-07-26 06:00","2013","07","26","06:00","15.4","","13.2","","87","","","","0","","24.1","","99.63","","","","","","Mainly Clear"
"2013-07-26 07:00","2013","07","26","07:00","18.0","","14.2","","78","","","","0","","24.1","","99.64","","","","","","Mainly Clear"
"2013-07-26 08:00","2013","07","26","08:00","20.5","","14.7","","69","","","","0","","24.1","","99.66","","","","","","Mostly Cloudy"
"2013-07-26 09:00","2013","07","26","09:00","21.6","","15.3","","67","","13","","6","","24.1","","99.64","","26","","","","Mostly Cloudy"
"2013-07-26 10:00","2013","07","26","10:00","22.5","","15.7","","65","","15","","4","","24.1","","99.63","","27","","","","Mostly Cloudy"
"2013-07-26 11:00","2013","07","26","11:00","23.1","","14.6","","59","","16","","11","","24.1","","99.61","","27","","","","Mostly Cloudy"
"2013-07-26 12:00","2013","07","26","12:00","23.8","","14.6","","56","","18","","13","","24.1","","99.55","","28","","","","Mostly Cloudy"
"2013-07-26 13:00","2013","07","26","13:00","24.4","","14.8","","55","","19","","11","","24.1","","99.50","","28","","","","Mostly Cloudy"
"2013-07-26 14:00","2013","07","26","14:00","23.6","","14.4","","56","","18","","19","","24.1","","99.42","","27","","","","Mostly Cloudy"
"2013-07-26 15:00","2013","07","26","15:00","24.4","","13.9","","52","","22","","11","","24.1","","99.34","","28","","","","Mostly Cloudy"
"2013-07-26 16:00","2013","07","26","16:00","24.5","","12.6","","47","","20","","17","","24.1","","99.31","","27","","","","Mostly Cloudy"
"2013-07-26 17:00","2013","07","26","17:00","24.4","","13.5","","51","","21","","15","","24.1","","99.27","","27","","","","Mostly Cloudy"
"2013-07-26 18:00","2013","07","26","18:00","23.7","","14.1","","55","","20","","17","","24.1","","99.24","","27","","","","Mostly Cloudy"
"2013-07-26 19:00","2013","07","26","19:00","22.8","","14.6","","60","","18","","7","","24.1","","99.24","","27","","","","Mostly Cloudy"
"2013-07-26 20:00","2013","07","26","20:00","21.6","","15.2","","67","","16","","6","","24.1","","99.22","","26","","","","Cloudy"
"2013-07-26 21:00","2013","07","26","21:00","20.8","","15.8","","73","","14","","7","","24.1","","99.20","","25","","","","Mostly Cloudy"
"2013-07-26 22:00","2013","07","26","22:00","19.9","","16.2","","79","","13","","6","","24.1","","99.15","","","","","","Mostly Cloudy"
"2013-07-26 23:00","2013","07","26","23:00","19.8","","16.0","","79","","13","","9","","24.1","","99.10","","","","","","Cloudy"
"2013-07-27 00:00","2013","07","27","00:00","20.3","","17.0","","81","","14","","11","","24.1","","99.04","","26","","","","Cloudy"
"2013-07-27 01:00","2013","07","27","01:00","21.2","","17.1","","77","","17","","7","","24.1","","98.97","","27","","","","Cloudy"
"2013-07-27 02:00","2013","07","27","02:00","20.5","","16.6","","78","","28","","19","","24.1","","98.97","","26","","","","Cloudy"
"2013-07-27 03:00","2013","07","27","03:00","19.1","","16.7","","86","","26","","13","","24.1","","98.97","","","","","","Rain Showers"
"2013-07-27 04:00","2013","07","27","04:00","19.1","","16.8","","87","","23","","7","","24.1","","98.95","","","","","","Cloudy"
"2013-07-27 05:00","2013","07","27","05:00","19.1","","17.2","","89","","18","","6","","24.1","","98.94","","","","","","Cloudy"
"2013-07-27 06:00","2013","07","27","06:00","18.7","","17.3","","92","","19","","9","","16.1","","98.95","","","","","","Cloudy"
"2013-07-27 07:00","2013","07","27","07:00","18.4","","12.1","","67","","18","","15","","4.8","","98.96","","","","","","Drizzle"
"2013-07-27 08:00","2013","07","27","08:00","17.5","","16.6","","94","","17","","20","","6.4","","98.93","","","","","","Rain,Fog"
"2013-07-27 09:00","2013","07","27","09:00","18.1","","17.2","","94","","16","","11","","9.7","","98.86","","","","","","Fog"
"2013-07-27 10:00","2013","07","27","10:00","19.4","","18.2","","93","","17","","9","","8.0","","98.85","","","","","","Fog"
"2013-07-27 11:00","2013","07","27","11:00","20.3","","18.3","","88","","19","","13","","9.7","","98.80","","27","","","","Fog"
"2013-07-27 12:00","2013","07","27","12:00","20.0","","18.5","","91","","18","","26","","9.7","","98.73","","26","","","","Fog"
"2013-07-27 13:00","2013","07","27","13:00","19.7","","17.7","","88","","20","","26","","9.7","","98.73","","","","","","Fog"
"2013-07-27 14:00","2013","07","27","14:00","19.9","","18.0","","89","","18","","20","","9.7","","98.62","","","","","","Fog"
"2013-07-27 15:00","2013","07","27","15:00","20.9","","18.2","","85","","21","","24","","19.3","","98.59","","27","","","","Cloudy"
"2013-07-27 16:00","2013","07","27","16:00","21.9","","18.7","","82","","20","","11","","19.3","","98.55","","28","","","","Cloudy"
"2013-07-27 17:00","2013","07","27","17:00","22.7","","18.2","","76","","21","","22","","24.1","","98.51","","29","","","","Mostly Cloudy"
"2013-07-27 18:00","2013","07","27","18:00","20.5","","15.3","","72","","30","","28","","24.1","","98.55","","25","","","","Mostly Cloudy"
"2013-07-27 19:00","2013","07","27","19:00","18.3","","15.6","","84","","28","","9","","24.1","","98.64","","","","","","Mostly Cloudy"
"2013-07-27 20:00","2013","07","27","20:00","18.4","","15.6","","84","","31","","24","","24.1","","98.71","","","","","","Mostly Cloudy"
"2013-07-27 21:00","2013","07","27","21:00","17.2","","13.1","","77","","30","","19","","24.1","","98.79","","","","","","Mostly Cloudy"
"2013-07-27 22:00","2013","07","27","22:00","16.7","","11.9","","73","","28","","17","","24.1","","98.83","","","","","","Mainly Clear"
"2013-07-27 23:00","2013","07","27","23:00","15.6","","11.7","","78","","28","","15","","24.1","","98.82","","","","","","Mainly Clear"
"2013-07-28 00:00","2013","07","28","00:00","14.9","","10.5","","75","","27","","15","","24.1","","98.86","","","","","","Clear"
"2013-07-28 01:00","2013","07","28","01:00","14.0","","9.6","","75","","27","","15","","24.1","","98.87","","","","","","Mainly Clear"
"2013-07-28 02:00","2013","07","28","02:00","13.3","","10.0","","80","","24","","7","","24.1","","98.84","","","","","","Mainly Clear"
"2013-07-28 03:00","2013","07","28","03:00","12.4","","10.4","","88","","19","","7","","24.1","","98.87","","","","","","Clear"
"2013-07-28 04:00","2013","07","28","04:00","12.1","","10.5","","90","","23","","7","","24.1","","98.90","","","","","","Clear"
"2013-07-28 05:00","2013","07","28","05:00","12.1","","10.5","","90","","23","","9","","24.1","","98.92","","","","","","Mainly Clear"
"2013-07-28 06:00","2013","07","28","06:00","12.2","","10.4","","89","","20","","7","","24.1","","98.98","","","","","","Mainly Clear"
"2013-07-28 07:00","2013","07","28","07:00","14.4","","10.8","","79","","22","","15","","24.1","","98.99","","","","","","Mainly Clear"
"2013-07-28 08:00","2013","07","28","08:00","14.4","","10.5","","77","","23","","19","","24.1","","99.02","","","","","","Mostly Cloudy"
"2013-07-28 09:00","2013","07","28","09:00","17.2","","10.6","","65","","23","","20","","24.1","","98.99","","","","","","Mostly Cloudy"
"2013-07-28 10:00","2013","07","28","10:00","17.6","","10.1","","61","","22","","26","","24.1","","98.98","","","","","","Mostly Cloudy"
"2013-07-28 11:00","2013","07","28","11:00","17.6","","10.0","","61","","25","","24","","24.1","","98.97","","","","","","Mostly Cloudy"
"2013-07-28 12:00","2013","07","28","12:00","18.4","","10.2","","59","","23","","26","","24.1","","98.98","","","","","","Mostly Cloudy"
"2013-07-28 13:00","2013","07","28","13:00","18.3","","9.8","","58","","23","","26","","24.1","","98.98","","","","","","Mostly Cloudy"
"2013-07-28 14:00","2013","07","28","14:00","18.8","","10.5","","59","","25","","20","","24.1","","99.01","","","","","","Mostly Cloudy"
"2013-07-28 15:00","2013","07","28","15:00","19.7","","10.9","","57","","23","","26","","24.1","","98.99","","","","","","Mostly Cloudy"
"2013-07-28 16:00","2013","07","28","16:00","16.0","","12.5","","80","","23","","28","","16.1","","99.07","","","","","","Rain Showers"
"2013-07-28 17:00","2013","07","28","17:00","18.1","","11.9","","67","","25","","24","","24.1","","99.08","","","","","","Mostly Cloudy"
"2013-07-28 18:00","2013","07","28","18:00","18.4","","11.2","","63","","25","","22","","24.1","","99.11","","","","","","Mostly Cloudy"
"2013-07-28 19:00","2013","07","28","19:00","17.6","","10.8","","64","","25","","24","","24.1","","99.16","","","","","","Mostly Cloudy"
"2013-07-28 20:00","2013","07","28","20:00","17.2","","11.3","","68","","26","","17","","24.1","","99.21","","","","","","Mostly Cloudy"
"2013-07-28 21:00","2013","07","28","21:00","16.6","","11.4","","71","","26","","13","","24.1","","99.27","","","","","","Mostly Cloudy"
"2013-07-28 22:00","2013","07","28","22:00","16.3","","11.3","","72","","25","","9","","24.1","","99.30","","","","","","Mostly Cloudy"
"2013-07-28 23:00","2013","07","28","23:00","15.6","","11.5","","77","","23","","11","","24.1","","99.31","","","","","","Mostly Cloudy"
"2013-07-29 00:00","2013","07","29","00:00","15.3","","10.9","","75","","26","","13","","24.1","","99.34","","","","","","Mostly Cloudy"
"2013-07-29 01:00","2013","07","29","01:00","15.0","","10.8","","76","","25","","11","","24.1","","99.34","","","","","","Mostly Cloudy"
"2013-07-29 02:00","2013","07","29","02:00","14.4","","11.0","","80","","23","","9","","24.1","","99.34","","","","","","Mostly Cloudy"
"2013-07-29 03:00","2013","07","29","03:00","14.5","","11.0","","79","","22","","11","","24.1","","99.34","","","","","","Cloudy"
"2013-07-29 04:00","2013","07","29","04:00","14.9","","11.1","","78","","23","","11","","24.1","","99.34","","","","","","Mostly Cloudy"
"2013-07-29 05:00","2013","07","29","05:00","15.5","","10.8","","74","","23","","19","","24.1","","99.36","","","","","","Mostly Cloudy"
"2013-07-29 06:00","2013","07","29","06:00","15.6","","10.8","","73","","26","","15","","24.1","","99.39","","","","","","Mostly Cloudy"
"2013-07-29 07:00","2013","07","29","07:00","15.5","","11.0","","75","","25","","13","","24.1","","99.43","","","","","","Cloudy"
"2013-07-29 08:00","2013","07","29","08:00","16.2","","11.7","","75","","26","","15","","24.1","","99.49","","","","","","Cloudy"
"2013-07-29 09:00","2013","07","29","09:00","16.8","","12.1","","74","","27","","17","","24.1","","99.53","","","","","","Cloudy"
"2013-07-29 10:00","2013","07","29","10:00","18.2","","12.3","","68","","27","","20","","24.1","","99.56","","","","","","Mostly Cloudy"
"2013-07-29 11:00","2013","07","29","11:00","18.9","","12.6","","67","","29","","20","","24.1","","99.59","","","","","","Cloudy"
"2013-07-29 12:00","2013","07","29","12:00","18.2","","12.5","","69","","27","","22","","24.1","","99.66","","","","","","Cloudy"
"2013-07-29 13:00","2013","07","29","13:00","18.4","","12.8","","70","","29","","17","","24.1","","99.68","","","","","","Cloudy"
"2013-07-29 14:00","2013","07","29","14:00","19.5","","12.7","","65","","28","","17","","24.1","","99.69","","","","","","Mostly Cloudy"
"2013-07-29 15:00","2013","07","29","15:00","20.2","","12.5","","61","","29","","20","","24.1","","99.72","","","","","","Mostly Cloudy"
"2013-07-29 16:00","2013","07","29","16:00","21.5","","11.9","","54","","27","","22","","24.1","","99.74","","","","","","Mostly Cloudy"
"2013-07-29 17:00","2013","07","29","17:00","20.8","","11.4","","55","","28","","11","","24.1","","99.84","","","","","","Mostly Cloudy"
"2013-07-29 18:00","2013","07","29","18:00","20.6","","11.6","","56","","33","","15","","24.1","","99.81","","","","","","Mainly Clear"
"2013-07-29 19:00","2013","07","29","19:00","20.8","","11.7","","56","","29","","11","","24.1","","99.83","","","","","","Mostly Cloudy"
"2013-07-29 20:00","2013","07","29","20:00","19.1","","11.7","","62","","30","","11","","24.1","","99.87","","","","","","Mostly Cloudy"
"2013-07-29 21:00","2013","07","29","21:00","18.3","","11.9","","66","","26","","7","","24.1","","99.92","","","","","","Mainly Clear"
"2013-07-29 22:00","2013","07","29","22:00","17.7","","12.1","","70","","24","","9","","24.1","","99.95","","","","","","Mainly Clear"
"2013-07-29 23:00","2013","07","29","23:00","16.9","","12.1","","73","","27","","7","","24.1","","99.97","","","","","","Clear"
"2013-07-30 00:00","2013","07","30","00:00","16.4","","12.1","","76","","27","","4","","24.1","","99.98","","","","","","Clear"
"2013-07-30 01:00","2013","07","30","01:00","15.6","","12.0","","79","","32","","7","","24.1","","99.99","","","","","","Mainly Clear"
"2013-07-30 02:00","2013","07","30","02:00","15.2","","11.9","","81","","31","","4","","24.1","","99.97","","","","","","Mainly Clear"
"2013-07-30 03:00","2013","07","30","03:00","14.8","","12.0","","83","","22","","7","","24.1","","100.00","","","","","","Mainly Clear"
"2013-07-30 04:00","2013","07","30","04:00","14.2","","12.1","","87","","","","0","","24.1","","100.00","","","","","","Mainly Clear"
"2013-07-30 05:00","2013","07","30","05:00","13.6","","11.9","","89","","25","","6","","24.1","","100.03","","","","","","Mainly Clear"
"2013-07-30 06:00","2013","07","30","06:00","13.9","","12.3","","90","","26","","4","","24.1","","100.08","","","","","","Mainly Clear"
"2013-07-30 07:00","2013","07","30","07:00","16.2","","13.5","","84","","","","0","","24.1","","100.10","","","","","","Mainly Clear"
"2013-07-30 08:00","2013","07","30","08:00","18.8","","14.8","","78","","9","","4","","24.1","","100.14","","","","","","Mainly Clear"
"2013-07-30 09:00","2013","07","30","09:00","20.4","","13.8","","66","","","","0","","24.1","","100.13","","","","","","Mainly Clear"
"2013-07-30 10:00","2013","07","30","10:00","21.1","","13.1","","60","","27","","6","","24.1","","100.11","","","","","","Mainly Clear"
"2013-07-30 11:00","2013","07","30","11:00","21.8","","13.7","","60","","18","","11","","24.1","","100.09","","25","","","","Mainly Clear"
"2013-07-30 12:00","2013","07","30","12:00","23.0","","13.9","","57","","9","","4","","24.1","","100.04","","26","","","","Mainly Clear"
"2013-07-30 13:00","2013","07","30","13:00","22.9","","13.8","","56","","9","","4","","24.1","","100.01","","26","","","","Mostly Cloudy"
"2013-07-30 14:00","2013","07","30","14:00","23.4","","14.5","","57","","15","","13","","24.1","","99.96","","27","","","","Mostly Cloudy"
"2013-07-30 15:00","2013","07","30","15:00","24.0","","14.8","","56","","14","","6","","24.1","","99.89","","28","","","","Mostly Cloudy"
"2013-07-30 16:00","2013","07","30","16:00","23.5","","15.3","","60","","12","","7","","24.1","","99.87","","28","","","","Mostly Cloudy"
"2013-07-30 17:00","2013","07","30","17:00","22.8","","16.6","","68","","15","","11","","24.1","","99.87","","28","","","","Mostly Cloudy"
"2013-07-30 18:00","2013","07","30","18:00","22.3","","14.8","","63","","14","","13","","24.1","","99.85","","26","","","","Mostly Cloudy"
"2013-07-30 19:00","2013","07","30","19:00","21.4","","14.5","","65","","17","","11","","24.1","","99.85","","25","","","","Mostly Cloudy"
"2013-07-30 20:00","2013","07","30","20:00","19.8","","14.9","","73","","18","","7","","19.3","","99.82","","","","","","Cloudy"
"2013-07-30 21:00","2013","07","30","21:00","18.8","","14.9","","78","","14","","4","","24.1","","99.85","","","","","","Cloudy"
"2013-07-30 22:00","2013","07","30","22:00","18.4","","14.8","","80","","14","","4","","24.1","","99.84","","","","","","Cloudy"
"2013-07-30 23:00","2013","07","30","23:00","17.8","","14.5","","81","","","","0","","24.1","","99.82","","","","","","Cloudy"
"2013-07-31 00:00","2013","07","31","00:00","17.1","","14.4","","84","","18","","4","","24.1","","99.79","","","","","","Mostly Cloudy"
"2013-07-31 01:00","2013","07","31","01:00","17.0","","14.4","","85","","","","0","","19.3","","99.78","","","","","","Mostly Cloudy"
"2013-07-31 02:00","2013","07","31","02:00","16.9","","14.7","","87","","17","","4","","16.1","","99.75","","","","","","Mostly Cloudy"
"2013-07-31 03:00","2013","07","31","03:00","17.4","","15.1","","86","","","","0","","16.1","","99.73","","","","","","Mostly Cloudy"
"2013-07-31 04:00","2013","07","31","04:00","17.5","","15.3","","87","","17","","4","","16.1","","99.69","","","","","","Mostly Cloudy"
"2013-07-31 05:00","2013","07","31","05:00","17.4","","15.6","","89","","12","","4","","12.9","","99.67","","","","","","Mostly Cloudy"
"2013-07-31 06:00","2013","07","31","06:00","17.8","","16.0","","89","","12","","4","","16.1","","99.67","","","","","","Mostly Cloudy"
"2013-07-31 07:00","2013","07","31","07:00","19.9","","17.6","","87","","14","","7","","16.1","","99.67","","","","","","Mostly Cloudy"
"2013-07-31 08:00","2013","07","31","08:00","22.0","","18.3","","80","","17","","7","","24.1","","99.64","","28","","","","Mostly Cloudy"
"2013-07-31 09:00","2013","07","31","09:00","22.8","","16.8","","69","","19","","13","","24.1","","99.61","","28","","","","Mostly Cloudy"
"2013-07-31 10:00","2013","07","31","10:00","22.5","","17.2","","72","","19","","15","","24.1","","99.60","","28","","","","Mostly Cloudy"
"2013-07-31 11:00","2013","07","31","11:00","23.5","","18.0","","71","","21","","13","","24.1","","99.55","","30","","","","Mostly Cloudy"
"2013-07-31 12:00","2013","07","31","12:00","23.8","","16.7","","64","","18","","6","","24.1","","99.50","","29","","","","Mostly Cloudy"
"2013-07-31 13:00","2013","07","31","13:00","24.1","","16.7","","63","","18","","11","","24.1","","99.43","","29","","","","Rain Showers"
"2013-07-31 14:00","2013","07","31","14:00","24.8","","17.0","","62","","16","","9","","24.1","","99.37","","30","","","","Mostly Cloudy"
"2013-07-31 15:00","2013","07","31","15:00","24.4","","16.2","","60","","17","","15","","24.1","","99.30","","29","","","","Cloudy"
"2013-07-31 16:00","2013","07","31","16:00","23.4","","16.8","","66","","15","","13","","12.9","","99.23","","29","","","","Cloudy"
"2013-07-31 17:00","2013","07","31","17:00","22.5","","18.3","","77","","14","","9","","12.9","","99.20","","29","","","","Rain Showers"
"2013-07-31 18:00","2013","07","31","18:00","22.9","","18.9","","78","","16","","11","","9.7","","99.10","","30","","","","Haze"
"2013-07-31 19:00","2013","07","31","19:00","22.3","","19.3","","83","","19","","9","","8.0","","99.07","","29","","","","Haze"
"2013-07-31 20:00","2013","07","31","20:00","20.9","","19.6","","92","","21","","7","","4.0","","99.05","","28","","","","Rain Showers,Fog"
"2013-07-31 21:00","2013","07","31","21:00","20.5","","19.4","","93","","24","","15","","4.8","","99.05","","28","","","","Rain Showers,Fog"
"2013-07-31 22:00","2013","07","31","22:00","20.3","","19.4","","95","","23","","17","","6.4","","99.00","","27","","","","Drizzle,Fog"
"2013-07-31 23:00","2013","07","31","23:00","20.4","","19.5","","95","","25","","11","","9.7","","98.93","","28","","","","Fog"
