"Station Name","WINDSOR A"
"Province","ONTARIO"
"Latitude","42.28"
"Longitude","-82.96"
"Elevation","189.60"
"Climate Identifier","6139527"
"WMO Identifier",""
"TC Identifier","YQG"
"All times are specified in Local Standard Time (LST). Add 1 hour to adjust for Daylight Saving Time where and when it is observed."

"Legend"
"E","Estimated"
"M","Missing"
"NA","Not Available"

"Date/Time","Year","Month","Day","Time","Temp (°C)","Temp Flag","Dew Point Temp (°C)","Dew Point Temp Flag","Rel Hum (%)","Rel Hum Flag","Wind Dir (10s deg)","Wind Dir Flag","Wind Spd (km/h)","Wind Spd Flag","Visibility (km)","Visibility Flag","Stn Press (kPa)","Stn Press Flag","Hmdx","Hmdx Flag","Wind Chill","Wind Chill Flag","Weather"
"2015-06-01 00:00","2015","06","01","00:00","9.3","","4.9","","74","","4","","31","","24.1","","100.00","","","","","","NA"
"2015-06-01 01:00","2015","06","01","01:00","8.5","","5.1","","79","","4","","20","","24.1","","99.99","","","","","","Mostly Cloudy"
"2015-06-01 02:00","2015","06","01","02:00","8.3","","5.6","","83","","36","","12","","24.1","","99.96","","","","","","NA"
"2015-06-01 03:00","2015","06","01","03:00","8.7","","6.0","","83","","2","","7","","24.1","","99.96","","","","","","NA"
"2015-06-01 04:00","2015","06","01","04:00","9.0","","5.6","","79","","4","","18","","24.1","","99.95","","","","","","Mostly Cloudy"
"2015-06-01 05:00","2015","06","01","05:00","8.7","","5.3","","79","","4","","18","","24.1","","99.97","","","","","","NA"
"2015-06-01 06:00","2015","06","01","06:00","9.1","","5.9","","80","","2","","16","","24.1","","100.02","","","","","","NA"
"2015-06-01 07:00","2015","06","01","07:00","9.7","","6.1","","78","","3","","23","","24.1","","100.05","","","","","","Cloudy"
"2015-06-01 08:00","2015","06","01","08:00","10.7","","5.7","","71","","4","","25","","24.1","","100.09","","","","","","NA"
"2015-06-01 09:00","2015","06","01","09:00","12.1","","6.4","","68","","3","","21","","24.1","","100.09","","","","","","NA"
"2015-06-01 10:00","2015","06","01","10:00","12.3","","6.6","","68","","4","","22","","24.1","","100.09","","","","","","Cloudy"
"2015-06-01 11:00","2015","06","01","11:00","13.2","","6.1","","62","","4","","22","","24.1","","100.08","","","","","","NA"
"2015-06-01 12:00","2015","06","01","12:00","14.4","","6.8","","60","","3","","20","","24.1","","100.06","","","","","","NA"
"2015-06-01 13:00","2015","06","01","13:00","14.7","","7.1","","60","","5","","17","","24.1","","100.04","","","","","","Cloudy"
"2015-06-01 14:00","2015","06","01","14:00","15.0","","6.1","","55","","4","","25","","24.1","","100.03","","","","","","NA"
"2015-06-01 15:00","2015","06","01","15:00","14.5","","5.9","","56","","4","","25","","24.1","","100.05","","","","","","NA"
"2015-06-01 16:00","2015","06","01","16:00","14.3","","6.5","","59","","4","","28","","24.1","","100.00","","","","","","Mostly Cloudy"
"2015-06-01 17:00","2015","06","01","17:00","14.3","","6.0","","57","","3","","30","","24.1","","99.97","","","","","","NA"
"2015-06-01 18:00","2015","06","01","18:00","14.0","","6.4","","60","","5","","22","","24.1","","99.96","","","","","","NA"
"2015-06-01 19:00","2015","06","01","19:00","12.9","","5.6","","61","","4","","21","","24.1","","99.99","","","","","","Mostly Cloudy"
"2015-06-01 20:00","2015","06","01","20:00","12.1","","5.3","","63","","3","","18","","24.1","","100.01","","","","","","NA"
"2015-06-01 21:00","2015","06","01","21:00","12.0","","4.8","","61","","4","","13","","24.1","","100.01","","","","","","NA"
"2015-06-01 22:00","2015","06","01","22:00","11.5","","5.4","","66","","6","","10","","24.1","","100.04","","","","","","Mostly Cloudy"
"2015-06-01 23:00","2015","06","01","23:00","11.7","","6.2","","69","","1","","7","","24.1","","100.02","","","","","","NA"
"2015-06-02 00:00","2015","06","02","00:00","10.4","","4.6","","67","","1","","9","","24.1","","100.01","","","","","","NA"
"2015-06-02 01:00","2015","06","02","01:00","9.5","","4.1","","69","","36","","7","","24.1","","100.00","","","","","","Mostly Cloudy"
"2015-06-02 02:00","2015","06","02","02:00","9.2","","4.2","","71","","36","","6","","24.1","","99.97","","","","","","NA"
"2015-06-02 03:00","2015","06","02","03:00","7.6","","4.4","","80","","36","","8","","24.1","","99.93","","","","","","NA"
"2015-06-02 04:00","2015","06","02","04:00","7.8","","4.4","","79","","35","","5","","24.1","","99.92","","","","","","Mostly Cloudy"
"2015-06-02 05:00","2015","06","02","05:00","7.1","","4.4","","83","","35","","11","","24.1","","99.94","","","","","","NA"
"2015-06-02 06:00","2015","06","02","06:00","8.4","","5.0","","79","","36","","8","","24.1","","99.99","","","","","","NA"
"2015-06-02 07:00","2015","06","02","07:00","10.7","","7.1","","78","","3","","12","","24.1","","100.04","","","","","","Mainly Clear"
"2015-06-02 08:00","2015","06","02","08:00","12.8","","8.7","","76","","1","","10","","24.1","","100.07","","","","","","NA"
"2015-06-02 09:00","2015","06","02","09:00","15.1","","9.5","","69","","5","","5","","24.1","","100.05","","","","","","NA"
"2015-06-02 10:00","2015","06","02","10:00","16.6","","10.7","","68","","6","","12","","24.1","","100.04","","","","","","Mainly Clear"
"2015-06-02 11:00","2015","06","02","11:00","17.4","","11.5","","68","","5","","10","","24.1","","100.04","","","","","","NA"
"2015-06-02 12:00","2015","06","02","12:00","18.4","","10.6","","60","","5","","13","","24.1","","100.04","","","","","","NA"
"2015-06-02 13:00","2015","06","02","13:00","19.0","","11.9","","63","","5","","15","","24.1","","99.97","","","","","","Mainly Clear"
"2015-06-02 14:00","2015","06","02","14:00","19.7","","11.6","","59","","8","","14","","24.1","","99.90","","","","","","NA"
"2015-06-02 15:00","2015","06","02","15:00","19.2","","11.6","","61","","11","","8","","24.1","","99.84","","","","","","NA"
"2015-06-02 16:00","2015","06","02","16:00","19.8","","11.9","","60","","12","","10","","24.1","","99.78","","","","","","Mostly Cloudy"
"2015-06-02 17:00","2015","06","02","17:00","19.1","","12.0","","63","","13","","17","","24.1","","99.79","","","","","","NA"
"2015-06-02 18:00","2015","06","02","18:00","18.3","","11.2","","63","","12","","14","","24.1","","99.79","","","","","","NA"
"2015-06-02 19:00","2015","06","02","19:00","17.6","","11.0","","65","","13","","12","","24.1","","99.82","","","","","","Mostly Cloudy"
"2015-06-02 20:00","2015","06","02","20:00","15.3","","10.3","","72","","12","","9","","24.1","","99.83","","","","","","NA"
"2015-06-02 21:00","2015","06","02","21:00","13.9","","9.2","","73","","8","","7","","24.1","","99.87","","","","","","NA"
"2015-06-02 22:00","2015","06","02","22:00","12.6","","9.5","","81","","6","","9","","24.1","","99.87","","","","","","Mainly Clear"
"2015-06-02 23:00","2015","06","02","23:00","12.2","","8.3","","77","","8","","8","","24.1","","99.86","","","","","","NA"
"2015-06-03 00:00","2015","06","03","00:00","11.6","","7.9","","78","","5","","8","","24.1","","99.85","","","","","","NA"
"2015-06-03 01:00","2015","06","03","01:00","11.6","","8.7","","82","","7","","10","","24.1","","99.81","","","","","","Clear"
"2015-06-03 02:00","2015","06","03","02:00","10.8","","7.9","","82","","8","","12","","24.1","","99.74","","","","","","NA"
"2015-06-03 03:00","2015","06","03","03:00","10.3","","7.4","","82","","36","","2","","24.1","","99.75","","","","","","NA"
"2015-06-03 04:00","2015","06","03","04:00","9.9","","7.0","","82","","2","","7","","24.1","","99.75","","","","","","Clear"
"2015-06-03 05:00","2015","06","03","05:00","9.2","","7.2","","87","","6","","13","","24.1","","99.76","","","","","","NA"
"2015-06-03 06:00","2015","06","03","06:00","11.4","","9.2","","86","","7","","12","","24.1","","99.80","","","","","","NA"
"2015-06-03 07:00","2015","06","03","07:00","13.4","","10.8","","84","","9","","11","","24.1","","99.82","","","","","","Mainly Clear"
"2015-06-03 08:00","2015","06","03","08:00","15.6","","11.8","","78","","12","","7","","24.1","","99.85","","","","","","NA"
"2015-06-03 09:00","2015","06","03","09:00","17.6","","13.0","","74","","15","","14","","24.1","","99.85","","","","","","NA"
"2015-06-03 10:00","2015","06","03","10:00","19.2","","13.9","","71","","12","","13","","24.1","","99.83","","","","","","Mainly Clear"
"2015-06-03 11:00","2015","06","03","11:00","20.2","","12.3","","60","","13","","12","","24.1","","99.77","","","","","","NA"
"2015-06-03 12:00","2015","06","03","12:00","20.9","","11.4","","54","","10","","20","","24.1","","99.74","","","","","","NA"
"2015-06-03 13:00","2015","06","03","13:00","21.1","","11.8","","55","","9","","21","","24.1","","99.70","","","","","","Mainly Clear"
"2015-06-03 14:00","2015","06","03","14:00","21.8","","10.5","","48","","12","","20","","24.1","","99.64","","","","","","NA"
"2015-06-03 15:00","2015","06","03","15:00","21.5","","11.7","","53","","8","","19","","24.1","","99.58","","","","","","NA"
"2015-06-03 16:00","2015","06","03","16:00","21.8","","7.8","","40","","12","","15","","24.1","","99.56","","","","","","Mainly Clear"
"2015-06-03 17:00","2015","06","03","17:00","21.5","","9.2","","45","","13","","10","","24.1","","99.55","","","","","","NA"
"2015-06-03 18:00","2015","06","03","18:00","20.4","","10.1","","51","","13","","14","","24.1","","99.55","","","","","","NA"
"2015-06-03 19:00","2015","06","03","19:00","18.7","","11.6","","63","","13","","20","","24.1","","99.55","","","","","","Mostly Cloudy"
"2015-06-03 20:00","2015","06","03","20:00","16.3","","11.7","","74","","14","","13","","24.1","","99.58","","","","","","NA"
"2015-06-03 21:00","2015","06","03","21:00","15.2","","11.0","","76","","12","","10","","24.1","","99.59","","","","","","NA"
"2015-06-03 22:00","2015","06","03","22:00","15.5","","10.9","","74","","10","","9","","24.1","","99.58","","","","","","Mostly Cloudy"
"2015-06-03 23:00","2015","06","03","23:00","14.6","","10.3","","75","","7","","9","","24.1","","99.56","","","","","","NA"
"2015-06-04 00:00","2015","06","04","00:00","13.4","","10.2","","81","","6","","7","","24.1","","99.55","","","","","","NA"
"2015-06-04 01:00","2015","06","04","01:00","14.4","","11.9","","85","","11","","10","","24.1","","99.53","","","","","","Mostly Cloudy"
"2015-06-04 02:00","2015","06","04","02:00","14.5","","12.9","","90","","11","","8","","24.1","","99.53","","","","","","NA"
"2015-06-04 03:00","2015","06","04","03:00","14.7","","12.9","","89","","36","","1","","16.1","","99.51","","","","","","NA"
"2015-06-04 04:00","2015","06","04","04:00","14.7","","13.4","","92","","36","","2","","16.1","","99.52","","","","","","Cloudy"
"2015-06-04 05:00","2015","06","04","05:00","15.0","","13.7","","92","","32","","4","","11.3","","99.55","","","","","","NA"
"2015-06-04 06:00","2015","06","04","06:00","15.8","","14.4","","91","","1","","4","","11.3","","99.61","","","","","","NA"
"2015-06-04 07:00","2015","06","04","07:00","17.1","","15.0","","87","","6","","6","","16.1","","99.61","","","","","","Cloudy"
"2015-06-04 08:00","2015","06","04","08:00","18.3","","16.3","","88","","11","","4","","19.3","","99.63","","","","","","NA"
"2015-06-04 09:00","2015","06","04","09:00","20.1","","17.0","","82","","36","","3","","24.1","","99.61","","25","","","","NA"
"2015-06-04 10:00","2015","06","04","10:00","22.2","","17.4","","74","","11","","10","","24.1","","99.59","","28","","","","Mainly Clear"
"2015-06-04 11:00","2015","06","04","11:00","23.7","","18.2","","71","","13","","16","","24.1","","99.53","","30","","","","NA"
"2015-06-04 12:00","2015","06","04","12:00","24.8","","17.4","","63","","13","","17","","24.1","","99.51","","30","","","","NA"
"2015-06-04 13:00","2015","06","04","13:00","25.1","","17.7","","63","","15","","17","","24.1","","99.49","","31","","","","Mostly Cloudy"
"2015-06-04 14:00","2015","06","04","14:00","25.2","","16.8","","59","","16","","14","","24.1","","99.48","","30","","","","NA"
"2015-06-04 15:00","2015","06","04","15:00","25.6","","17.1","","59","","17","","20","","24.1","","99.44","","31","","","","NA"
"2015-06-04 16:00","2015","06","04","16:00","25.7","","16.4","","56","","16","","18","","24.1","","99.41","","31","","","","Mainly Clear"
"2015-06-04 17:00","2015","06","04","17:00","25.5","","17.3","","60","","16","","22","","24.1","","99.35","","31","","","","NA"
"2015-06-04 18:00","2015","06","04","18:00","25.0","","17.1","","61","","17","","17","","24.1","","99.36","","30","","","","NA"
"2015-06-04 19:00","2015","06","04","19:00","23.6","","17.0","","66","","17","","20","","24.1","","99.36","","29","","","","Mainly Clear"
"2015-06-04 20:00","2015","06","04","20:00","20.7","","16.2","","75","","14","","16","","24.1","","99.37","","25","","","","NA"
"2015-06-04 21:00","2015","06","04","21:00","19.0","","16.1","","83","","15","","6","","24.1","","99.39","","","","","","NA"
"2015-06-04 22:00","2015","06","04","22:00","18.0","","15.7","","86","","15","","3","","24.1","","99.38","","","","","","Clear"
"2015-06-04 23:00","2015","06","04","23:00","17.2","","15.4","","89","","18","","5","","24.1","","99.36","","","","","","NA"
"2015-06-05 00:00","2015","06","05","00:00","17.8","","15.1","","84","","20","","5","","24.1","","99.37","","","","","","NA"
"2015-06-05 01:00","2015","06","05","01:00","16.8","","14.8","","88","","27","","5","","24.1","","99.38","","","","","","Clear"
"2015-06-05 02:00","2015","06","05","02:00","16.8","","14.8","","88","","29","","4","","24.1","","99.36","","","","","","NA"
"2015-06-05 03:00","2015","06","05","03:00","15.6","","14.8","","95","","17","","4","","24.1","","99.31","","","","","","NA"
"2015-06-05 04:00","2015","06","05","04:00","15.1","","14.2","","94","","22","","5","","19.3","","99.31","","","","","","Mainly Clear"
"2015-06-05 05:00","2015","06","05","05:00","14.8","","14.2","","96","","22","","5","","11.3","","99.31","","","","","","NA"
"2015-06-05 06:00","2015","06","05","06:00","16.0","","15.4","","96","","36","","2","","9.7","","99.33","","","","","","Fog"
"2015-06-05 07:00","2015","06","05","07:00","18.9","","17.1","","89","","25","","8","","11.3","","99.36","","","","","","Mainly Clear"
"2015-06-05 08:00","2015","06","05","08:00","22.5","","17.7","","74","","26","","10","","12.9","","99.37","","28","","","","NA"
"2015-06-05 09:00","2015","06","05","09:00","24.4","","17.5","","65","","29","","5","","16.1","","99.30","","30","","","","NA"
"2015-06-05 10:00","2015","06","05","10:00","25.5","","18.1","","63","","36","","2","","19.3","","99.28","","32","","","","Cloudy"
"2015-06-05 11:00","2015","06","05","11:00","26.0","","17.5","","59","","24","","10","","24.1","","99.30","","32","","","","NA"
"2015-06-05 12:00","2015","06","05","12:00","26.3","","16.1","","53","","23","","10","","24.1","","99.26","","31","","","","NA"
"2015-06-05 13:00","2015","06","05","13:00","25.9","","17.2","","58","","22","","16","","19.3","","99.21","","31","","","","Cloudy"
"2015-06-05 14:00","2015","06","05","14:00","21.0","","19.3","","90","","3","","9","","19.3","","99.30","","28","","","","NA"
"2015-06-05 15:00","2015","06","05","15:00","22.2","","19.6","","85","","4","","23","","16.1","","99.28","","29","","","","NA"
"2015-06-05 16:00","2015","06","05","16:00","19.1","","17.1","","88","","3","","23","","11.3","","99.29","","","","","","Mostly Cloudy"
"2015-06-05 17:00","2015","06","05","17:00","19.3","","17.3","","88","","4","","20","","11.3","","99.31","","","","","","NA"
"2015-06-05 18:00","2015","06","05","18:00","18.9","","17.4","","91","","2","","16","","12.9","","99.34","","","","","","NA"
"2015-06-05 19:00","2015","06","05","19:00","18.5","","15.2","","81","","1","","27","","12.9","","99.44","","","","","","Cloudy"
"2015-06-05 20:00","2015","06","05","20:00","17.7","","14.4","","81","","1","","21","","12.9","","99.48","","","","","","NA"
"2015-06-05 21:00","2015","06","05","21:00","17.7","","13.9","","78","","1","","24","","16.1","","99.52","","","","","","NA"
"2015-06-05 22:00","2015","06","05","22:00","17.3","","13.7","","79","","2","","23","","16.1","","99.55","","","","","","Cloudy"
"2015-06-05 23:00","2015","06","05","23:00","16.1","","12.5","","79","","3","","27","","24.1","","99.59","","","","","","NA"
"2015-06-06 00:00","2015","06","06","00:00","15.5","","11.9","","79","","2","","20","","24.1","","99.57","","","","","","NA"
"2015-06-06 01:00","2015","06","06","01:00","14.9","","11.3","","79","","1","","17","","24.1","","99.60","","","","","","Clear"
"2015-06-06 02:00","2015","06","06","02:00","14.2","","10.7","","79","","1","","16","","24.1","","99.62","","","","","","NA"
"2015-06-06 03:00","2015","06","06","03:00","13.4","","10.2","","81","","1","","16","","24.1","","99.64","","","","","","NA"
"2015-06-06 04:00","2015","06","06","04:00","13.3","","9.6","","78","","36","","21","","24.1","","99.72","","","","","","Mostly Cloudy"
"2015-06-06 05:00","2015","06","06","05:00","12.3","","8.4","","77","","1","","19","","24.1","","99.80","","","","","","NA"
"2015-06-06 06:00","2015","06","06","06:00","11.9","","8.4","","79","","1","","14","","24.1","","99.85","","","","","","NA"
"2015-06-06 07:00","2015","06","06","07:00","13.0","","8.5","","74","","1","","18","","24.1","","99.90","","","","","","Mainly Clear"
"2015-06-06 08:00","2015","06","06","08:00","14.7","","9.8","","72","","2","","23","","24.1","","99.95","","","","","","NA"
"2015-06-06 09:00","2015","06","06","09:00","15.8","","10.4","","70","","4","","23","","24.1","","99.93","","","","","","NA"
"2015-06-06 10:00","2015","06","06","10:00","16.7","","11.1","","69","","4","","21","","24.1","","99.96","","","","","","Mainly Clear"
"2015-06-06 11:00","2015","06","06","11:00","17.1","","12.3","","73","","4","","20","","24.1","","99.92","","","","","","NA"
"2015-06-06 12:00","2015","06","06","12:00","18.2","","13.4","","73","","4","","17","","24.1","","99.90","","","","","","NA"
"2015-06-06 13:00","2015","06","06","13:00","19.3","","12.2","","63","","1","","17","","24.1","","99.88","","","","","","Mostly Cloudy"
"2015-06-06 14:00","2015","06","06","14:00","19.6","","13.2","","66","","4","","16","","24.1","","99.84","","","","","","NA"
"2015-06-06 15:00","2015","06","06","15:00","20.3","","12.6","","61","","6","","13","","24.1","","99.80","","","","","","NA"
"2015-06-06 16:00","2015","06","06","16:00","20.3","","12.4","","60","","7","","17","","24.1","","99.74","","","","","","Mostly Cloudy"
"2015-06-06 17:00","2015","06","06","17:00","19.9","","10.7","","55","","5","","10","","24.1","","99.74","","","","","","NA"
"2015-06-06 18:00","2015","06","06","18:00","19.9","","11.0","","56","","8","","12","","24.1","","99.71","","","","","","NA"
"2015-06-06 19:00","2015","06","06","19:00","19.0","","12.4","","65","","11","","12","","24.1","","99.71","","","","","","Mainly Clear"
"2015-06-06 20:00","2015","06","06","20:00","16.1","","11.3","","73","","12","","16","","24.1","","99.68","","","","","","NA"
"2015-06-06 21:00","2015","06","06","21:00","14.4","","8.0","","65","","11","","18","","24.1","","99.64","","","","","","NA"
"2015-06-06 22:00","2015","06","06","22:00","13.1","","7.4","","68","","11","","10","","24.1","","99.62","","","","","","Clear"
"2015-06-06 23:00","2015","06","06","23:00","11.6","","6.8","","72","","10","","8","","24.1","","99.61","","","","","","NA"
"2015-06-07 00:00","2015","06","07","00:00","10.6","","5.8","","72","","9","","7","","24.1","","99.55","","","","","","NA"
"2015-06-07 01:00","2015","06","07","01:00","11.2","","5.3","","67","","2","","3","","24.1","","99.52","","","","","","Mainly Clear"
"2015-06-07 02:00","2015","06","07","02:00","10.5","","5.9","","73","","35","","4","","24.1","","99.46","","","","","","NA"
"2015-06-07 03:00","2015","06","07","03:00","9.8","","6.5","","80","","6","","4","","24.1","","99.42","","","","","","NA"
"2015-06-07 04:00","2015","06","07","04:00","9.3","","7.9","","91","","9","","6","","24.1","","99.36","","","","","","Mainly Clear"
"2015-06-07 05:00","2015","06","07","05:00","9.6","","6.7","","82","","36","","2","","24.1","","99.35","","","","","","NA"
"2015-06-07 06:00","2015","06","07","06:00","11.5","","9.6","","88","","14","","5","","24.1","","99.30","","","","","","NA"
"2015-06-07 07:00","2015","06","07","07:00","15.9","","13.1","","83","","17","","12","","24.1","","99.26","","","","","","Mostly Cloudy"
"2015-06-07 08:00","2015","06","07","08:00","19.5","","14.8","","74","","19","","18","","24.1","","99.21","","","","","","NA"
"2015-06-07 09:00","2015","06","07","09:00","21.6","","15.1","","66","","20","","23","","24.1","","99.10","","26","","","","NA"
"2015-06-07 10:00","2015","06","07","10:00","22.3","","15.5","","65","","20","","29","","24.1","","99.02","","27","","","","Cloudy"
"2015-06-07 11:00","2015","06","07","11:00","22.9","","16.1","","65","","20","","30","","16.1","","98.96","","28","","","","NA"
"2015-06-07 12:00","2015","06","07","12:00","24.3","","16.9","","63","","20","","32","","12.9","","98.92","","30","","","","NA"
"2015-06-07 13:00","2015","06","07","13:00","26.0","","18.0","","61","","21","","30","","11.3","","98.85","","32","","","","Cloudy"
"2015-06-07 14:00","2015","06","07","14:00","25.3","","17.4","","61","","20","","31","","11.3","","98.71","","31","","","","NA"
"2015-06-07 15:00","2015","06","07","15:00","26.7","","18.7","","61","","19","","33","","19.3","","98.63","","33","","","","NA"
"2015-06-07 16:00","2015","06","07","16:00","27.0","","18.7","","60","","21","","36","","19.3","","98.55","","34","","","","Cloudy"
"2015-06-07 17:00","2015","06","07","17:00","26.2","","19.2","","65","","22","","31","","19.3","","98.52","","33","","","","NA"
"2015-06-07 18:00","2015","06","07","18:00","21.3","","18.9","","86","","23","","36","","8.1","","98.54","","28","","","","Rain Showers,Fog"
"2015-06-07 19:00","2015","06","07","19:00","21.0","","19.3","","90","","21","","10","","19.3","","98.45","","28","","","","Rain"
"2015-06-07 20:00","2015","06","07","20:00","20.8","","19.7","","93","","19","","11","","24.1","","98.44","","28","","","","NA"
"2015-06-07 21:00","2015","06","07","21:00","20.5","","19.7","","95","","14","","9","","24.1","","98.31","","28","","","","NA"
"2015-06-07 22:00","2015","06","07","22:00","21.3","","20.0","","92","","18","","10","","19.3","","98.24","","29","","","","Cloudy"
"2015-06-07 23:00","2015","06","07","23:00","22.6","","20.0","","85","","22","","18","","19.3","","98.32","","30","","","","NA"
"2015-06-08 00:00","2015","06","08","00:00","22.6","","19.6","","83","","24","","22","","19.3","","98.39","","30","","","","NA"
"2015-06-08 01:00","2015","06","08","01:00","22.0","","17.2","","74","","24","","40","","19.3","","98.32","","27","","","","Cloudy"
"2015-06-08 02:00","2015","06","08","02:00","20.6","","17.5","","82","","24","","21","","19.3","","98.27","","26","","","","NA"
"2015-06-08 03:00","2015","06","08","03:00","20.5","","17.6","","83","","24","","24","","19.3","","98.22","","26","","","","NA"
"2015-06-08 04:00","2015","06","08","04:00","20.1","","17.4","","84","","25","","13","","19.3","","98.23","","26","","","","Cloudy"
"2015-06-08 05:00","2015","06","08","05:00","19.4","","17.6","","89","","25","","9","","19.3","","98.27","","","","","","Rain"
"2015-06-08 06:00","2015","06","08","06:00","19.7","","17.5","","87","","22","","15","","19.3","","98.32","","","","","","NA"
"2015-06-08 07:00","2015","06","08","07:00","20.2","","17.3","","83","","23","","22","","19.3","","98.35","","26","","","","Cloudy"
"2015-06-08 08:00","2015","06","08","08:00","20.8","","17.3","","80","","25","","21","","19.3","","98.37","","26","","","","NA"
"2015-06-08 09:00","2015","06","08","09:00","20.4","","17.7","","84","","25","","24","","19.3","","98.35","","26","","","","Rain"
"2015-06-08 10:00","2015","06","08","10:00","20.7","","18.3","","86","","27","","22","","19.3","","98.33","","27","","","","Cloudy"
"2015-06-08 11:00","2015","06","08","11:00","20.8","","18.2","","85","","24","","19","","19.3","","98.38","","27","","","","NA"
"2015-06-08 12:00","2015","06","08","12:00","20.3","","18.6","","90","","21","","20","","19.3","","98.39","","27","","","","NA"
"2015-06-08 13:00","2015","06","08","13:00","22.2","","19.6","","85","","23","","22","","16.1","","98.34","","29","","","","Cloudy"
"2015-06-08 14:00","2015","06","08","14:00","23.8","","20.2","","80","","22","","25","","19.3","","98.24","","32","","","","NA"
"2015-06-08 15:00","2015","06","08","15:00","25.2","","19.7","","71","","23","","22","","24.1","","98.21","","33","","","","NA"
"2015-06-08 16:00","2015","06","08","16:00","25.2","","19.0","","68","","23","","28","","24.1","","98.14","","32","","","","Mostly Cloudy"
"2015-06-08 17:00","2015","06","08","17:00","25.1","","19.6","","71","","21","","21","","24.1","","98.07","","32","","","","NA"
"2015-06-08 18:00","2015","06","08","18:00","24.4","","19.6","","74","","20","","20","","24.1","","98.06","","32","","","","NA"
"2015-06-08 19:00","2015","06","08","19:00","23.5","","18.7","","74","","21","","17","","24.1","","98.05","","30","","","","Mostly Cloudy"
"2015-06-08 20:00","2015","06","08","20:00","22.5","","18.7","","79","","21","","21","","19.3","","98.08","","29","","","","NA"
"2015-06-08 21:00","2015","06","08","21:00","19.5","","15.6","","78","","24","","26","","16.1","","98.18","","","","","","Rain Showers"
"2015-06-08 22:00","2015","06","08","22:00","17.9","","16.4","","91","","22","","16","","19.3","","98.22","","","","","","Rain Showers"
"2015-06-08 23:00","2015","06","08","23:00","17.4","","16.1","","92","","20","","11","","19.3","","98.19","","","","","","Rain Showers"
"2015-06-09 00:00","2015","06","09","00:00","17.0","","15.7","","92","","27","","14","","24.1","","98.29","","","","","","NA"
"2015-06-09 01:00","2015","06","09","01:00","16.6","","15.1","","91","","26","","15","","24.1","","98.22","","","","","","Cloudy"
"2015-06-09 02:00","2015","06","09","02:00","16.6","","15.0","","90","","26","","17","","24.1","","98.23","","","","","","NA"
"2015-06-09 03:00","2015","06","09","03:00","16.5","","14.9","","90","","27","","18","","24.1","","98.22","","","","","","NA"
"2015-06-09 04:00","2015","06","09","04:00","16.5","","14.9","","90","","28","","13","","24.1","","98.23","","","","","","Cloudy"
"2015-06-09 05:00","2015","06","09","05:00","15.9","","14.8","","93","","28","","13","","19.3","","98.29","","","","","","NA"
"2015-06-09 06:00","2015","06","09","06:00","16.4","","15.3","","93","","29","","11","","19.3","","98.41","","","","","","NA"
"2015-06-09 07:00","2015","06","09","07:00","17.3","","15.7","","90","","29","","11","","16.1","","98.49","","","","","","Mostly Cloudy"
"2015-06-09 08:00","2015","06","09","08:00","18.7","","15.4","","81","","28","","16","","19.3","","98.54","","","","","","NA"
"2015-06-09 09:00","2015","06","09","09:00","19.6","","14.7","","73","","31","","16","","19.3","","98.59","","","","","","NA"
"2015-06-09 10:00","2015","06","09","10:00","20.5","","14.7","","69","","34","","18","","24.1","","98.61","","","","","","Mostly Cloudy"
"2015-06-09 11:00","2015","06","09","11:00","21.7","","14.2","","62","","30","","21","","24.1","","98.61","","25","","","","NA"
"2015-06-09 12:00","2015","06","09","12:00","22.2","","14.2","","60","","28","","18","","24.1","","98.61","","26","","","","NA"
"2015-06-09 13:00","2015","06","09","13:00","23.3","","14.4","","57","","27","","20","","24.1","","98.61","","27","","","","Mostly Cloudy"
"2015-06-09 14:00","2015","06","09","14:00","25.1","","14.4","","51","","27","","22","","24.1","","98.60","","29","","","","NA"
"2015-06-09 15:00","2015","06","09","15:00","24.6","","14.0","","51","","30","","14","","24.1","","98.59","","28","","","","NA"
"2015-06-09 16:00","2015","06","09","16:00","25.1","","15.0","","53","","27","","13","","24.1","","98.58","","29","","","","Mostly Cloudy"
"2015-06-09 17:00","2015","06","09","17:00","25.3","","13.4","","47","","29","","21","","24.1","","98.57","","28","","","","NA"
"2015-06-09 18:00","2015","06","09","18:00","24.2","","13.9","","52","","28","","16","","24.1","","98.55","","28","","","","NA"
"2015-06-09 19:00","2015","06","09","19:00","23.5","","13.5","","53","","28","","21","","16.1","","98.58","","27","","","","Cloudy"
"2015-06-09 20:00","2015","06","09","20:00","21.4","","13.4","","60","","26","","13","","12.9","","98.59","","","","","","NA"
"2015-06-09 21:00","2015","06","09","21:00","20.0","","14.2","","69","","24","","8","","12.9","","98.64","","","","","","NA"
"2015-06-09 22:00","2015","06","09","22:00","18.3","","15.4","","83","","19","","9","","12.9","","98.67","","","","","","Cloudy"
"2015-06-09 23:00","2015","06","09","23:00","17.5","","14.3","","81","","21","","7","","16.1","","98.66","","","","","","NA"
"2015-06-10 00:00","2015","06","10","00:00","17.5","","14.6","","83","","19","","10","","16.1","","98.68","","","","","","NA"
"2015-06-10 01:00","2015","06","10","01:00","17.4","","15.1","","86","","20","","10","","11.3","","98.67","","","","","","Cloudy"
"2015-06-10 02:00","2015","06","10","02:00","17.5","","15.2","","86","","20","","11","","12.9","","98.61","","","","","","NA"
"2015-06-10 03:00","2015","06","10","03:00","18.3","","16.5","","89","","20","","13","","9.7","","98.60","","","","","","Rain Showers,Fog"
"2015-06-10 04:00","2015","06","10","04:00","18.7","","16.9","","89","","19","","17","","11.3","","98.59","","","","","","Rain Showers"
"2015-06-10 05:00","2015","06","10","05:00","16.9","","15.8","","93","","22","","50","","3.2","","98.61","","","","","","Thunderstorms,Moderate Rain Showers"
"2015-06-10 06:00","2015","06","10","06:00","18.8","","14.5","","76","","17","","26","","12.9","","98.49","","","","","","NA"
"2015-06-10 07:00","2015","06","10","07:00","20.4","","15.9","","75","","18","","31","","9.7","","98.46","","25","","","","Haze"
"2015-06-10 08:00","2015","06","10","08:00","21.2","","16.3","","73","","19","","31","","9.7","","98.45","","26","","","","Haze"
"2015-06-10 09:00","2015","06","10","09:00","22.8","","17.8","","73","","20","","30","","9.7","","98.38","","29","","","","Haze"
"2015-06-10 10:00","2015","06","10","10:00","21.8","","18.3","","80","","20","","22","","11.3","","98.38","","28","","","","Rain Showers"
"2015-06-10 11:00","2015","06","10","11:00","25.0","","18.6","","67","","23","","41","","16.1","","98.30","","31","","","","NA"
"2015-06-10 12:00","2015","06","10","12:00","28.0","","19.1","","58","","23","","44","","24.1","","98.27","","35","","","","NA"
"2015-06-10 13:00","2015","06","10","13:00","29.5","","19.1","","53","","26","","38","","24.1","","98.23","","36","","","","Mainly Clear"
"2015-06-10 14:00","2015","06","10","14:00","30.3","","19.9","","53","","26","","35","","24.1","","98.23","","38","","","","NA"
"2015-06-10 15:00","2015","06","10","15:00","31.2","","18.8","","47","","25","","35","","24.1","","98.21","","38","","","","NA"
"2015-06-10 16:00","2015","06","10","16:00","30.8","","19.7","","51","","24","","28","","24.1","","98.22","","38","","","","Mostly Cloudy"
"2015-06-10 17:00","2015","06","10","17:00","31.2","","19.5","","49","","26","","28","","24.1","","98.26","","38","","","","NA"
"2015-06-10 18:00","2015","06","10","18:00","30.4","","19.4","","51","","26","","21","","24.1","","98.30","","37","","","","NA"
"2015-06-10 19:00","2015","06","10","19:00","29.2","","19.1","","54","","30","","24","","24.1","","98.37","","36","","","","Mostly Cloudy"
"2015-06-10 20:00","2015","06","10","20:00","27.1","","15.0","","47","","33","","14","","24.1","","98.45","","31","","","","NA"
"2015-06-10 21:00","2015","06","10","21:00","21.2","","14.5","","65","","5","","19","","24.1","","98.54","","25","","","","NA"
"2015-06-10 22:00","2015","06","10","22:00","19.3","","15.0","","76","","5","","20","","19.3","","98.68","","","","","","Mostly Cloudy"
"2015-06-10 23:00","2015","06","10","23:00","17.4","","14.3","","82","","6","","13","","24.1","","98.75","","","","","","NA"
"2015-06-11 00:00","2015","06","11","00:00","17.6","","14.2","","80","","17","","6","","24.1","","98.92","","","","","","NA"
"2015-06-11 01:00","2015","06","11","01:00","16.8","","14.1","","84","","3","","13","","24.1","","98.80","","","","","","Clear"
"2015-06-11 02:00","2015","06","11","02:00","15.9","","13.8","","87","","8","","7","","24.1","","98.91","","","","","","NA"
"2015-06-11 03:00","2015","06","11","03:00","16.2","","13.7","","85","","5","","5","","24.1","","98.94","","","","","","NA"
"2015-06-11 04:00","2015","06","11","04:00","16.0","","13.5","","85","","5","","12","","24.1","","98.96","","","","","","Mostly Cloudy"
"2015-06-11 05:00","2015","06","11","05:00","15.9","","13.6","","86","","6","","8","","24.1","","99.06","","","","","","NA"
"2015-06-11 06:00","2015","06","11","06:00","17.3","","14.6","","84","","10","","7","","24.1","","99.11","","","","","","NA"
"2015-06-11 07:00","2015","06","11","07:00","17.9","","12.6","","71","","6","","17","","24.1","","99.14","","","","","","Mostly Cloudy"
"2015-06-11 08:00","2015","06","11","08:00","19.7","","11.8","","60","","5","","19","","24.1","","99.20","","","","","","NA"
"2015-06-11 09:00","2015","06","11","09:00","19.9","","13.2","","65","","9","","16","","24.1","","99.26","","","","","","NA"
"2015-06-11 10:00","2015","06","11","10:00","20.8","","12.9","","60","","6","","14","","24.1","","99.26","","","","","","Mostly Cloudy"
"2015-06-11 11:00","2015","06","11","11:00","19.6","","12.9","","65","","6","","13","","24.1","","99.26","","","","","","NA"
"2015-06-11 12:00","2015","06","11","12:00","19.6","","13.6","","68","","6","","12","","24.1","","99.25","","","","","","Rain Showers"
"2015-06-11 13:00","2015","06","11","13:00","19.5","","14.0","","70","","5","","8","","24.1","","99.23","","","","","","Rain"
"2015-06-11 14:00","2015","06","11","14:00","21.1","","14.4","","65","","5","","15","","24.1","","99.22","","25","","","","NA"
"2015-06-11 15:00","2015","06","11","15:00","21.3","","12.8","","58","","5","","12","","24.1","","99.20","","","","","","NA"
"2015-06-11 16:00","2015","06","11","16:00","21.6","","13.6","","60","","6","","13","","24.1","","99.17","","25","","","","Mostly Cloudy"
"2015-06-11 17:00","2015","06","11","17:00","20.7","","14.5","","67","","5","","17","","24.1","","99.14","","","","","","NA"
"2015-06-11 18:00","2015","06","11","18:00","20.1","","14.5","","70","","4","","21","","24.1","","99.15","","","","","","NA"
"2015-06-11 19:00","2015","06","11","19:00","19.4","","13.0","","66","","6","","18","","24.1","","99.12","","","","","","Cloudy"
"2015-06-11 20:00","2015","06","11","20:00","19.0","","13.5","","70","","6","","16","","24.1","","99.12","","","","","","NA"
"2015-06-11 21:00","2015","06","11","21:00","18.5","","14.3","","76","","3","","13","","24.1","","99.18","","","","","","NA"
"2015-06-11 22:00","2015","06","11","22:00","17.5","","13.7","","78","","5","","19","","24.1","","99.15","","","","","","Cloudy"
"2015-06-11 23:00","2015","06","11","23:00","16.8","","13.6","","81","","6","","12","","24.1","","99.07","","","","","","NA"
"2015-06-12 00:00","2015","06","12","00:00","17.4","","14.5","","83","","9","","10","","24.1","","98.96","","","","","","NA"
"2015-06-12 01:00","2015","06","12","01:00","16.8","","12.4","","75","","6","","10","","24.1","","98.93","","","","","","Cloudy"
"2015-06-12 02:00","2015","06","12","02:00","16.9","","13.1","","78","","8","","12","","24.1","","98.91","","","","","","NA"
"2015-06-12 03:00","2015","06","12","03:00","16.3","","13.4","","83","","6","","9","","24.1","","98.86","","","","","","NA"
"2015-06-12 04:00","2015","06","12","04:00","16.6","","14.3","","86","","4","","9","","24.1","","98.82","","","","","","Cloudy"
"2015-06-12 05:00","2015","06","12","05:00","16.7","","14.6","","87","","4","","16","","19.3","","98.84","","","","","","NA"
"2015-06-12 06:00","2015","06","12","06:00","16.6","","14.3","","86","","4","","17","","24.1","","98.85","","","","","","NA"
"2015-06-12 07:00","2015","06","12","07:00","17.5","","14.6","","83","","4","","16","","24.1","","98.84","","","","","","Mostly Cloudy"
"2015-06-12 08:00","2015","06","12","08:00","17.5","","14.3","","81","","6","","17","","24.1","","98.80","","","","","","NA"
"2015-06-12 09:00","2015","06","12","09:00","17.9","","14.3","","79","","5","","12","","24.1","","98.78","","","","","","NA"
"2015-06-12 10:00","2015","06","12","10:00","19.9","","15.8","","77","","7","","4","","24.1","","98.72","","","","","","Mostly Cloudy"
"2015-06-12 11:00","2015","06","12","11:00","20.8","","16.5","","76","","36","","1","","19.3","","98.73","","26","","","","NA"
"2015-06-12 12:00","2015","06","12","12:00","25.1","","19.4","","70","","22","","17","","16.1","","98.72","","32","","","","NA"
"2015-06-12 13:00","2015","06","12","13:00","26.4","","21.1","","72","","25","","26","","14.5","","98.68","","35","","","","Rain Showers"
"2015-06-12 14:00","2015","06","12","14:00","25.5","","20.2","","72","","27","","26","","24.1","","98.72","","33","","","","NA"
"2015-06-12 15:00","2015","06","12","15:00","26.4","","20.4","","69","","30","","20","","19.3","","98.74","","34","","","","NA"
"2015-06-12 16:00","2015","06","12","16:00","25.7","","19.9","","70","","31","","21","","24.1","","98.78","","33","","","","Cloudy"
"2015-06-12 17:00","2015","06","12","17:00","23.8","","19.0","","74","","33","","21","","24.1","","98.82","","31","","","","NA"
"2015-06-12 18:00","2015","06","12","18:00","22.1","","17.5","","75","","33","","18","","24.1","","98.93","","28","","","","NA"
"2015-06-12 19:00","2015","06","12","19:00","19.7","","16.2","","80","","5","","26","","24.1","","99.04","","","","","","Mostly Cloudy"
"2015-06-12 20:00","2015","06","12","20:00","17.6","","14.7","","83","","4","","25","","24.1","","99.12","","","","","","NA"
"2015-06-12 21:00","2015","06","12","21:00","16.4","","14.3","","87","","4","","18","","24.1","","99.16","","","","","","NA"
"2015-06-12 22:00","2015","06","12","22:00","16.1","","13.6","","85","","4","","21","","24.1","","99.22","","","","","","Cloudy"
"2015-06-12 23:00","2015","06","12","23:00","14.7","","13.4","","92","","4","","17","","24.1","","99.28","","","","","","NA"
"2015-06-13 00:00","2015","06","13","00:00","14.2","","13.1","","93","","6","","18","","24.1","","99.32","","","","","","Rain"
"2015-06-13 01:00","2015","06","13","01:00","13.8","","13.2","","96","","4","","7","","24.1","","99.36","","","","","","Cloudy"
"2015-06-13 02:00","2015","06","13","02:00","14.1","","13.6","","97","","3","","11","","8.1","","99.30","","","","","","Rain,Fog"
"2015-06-13 03:00","2015","06","13","03:00","14.6","","14.1","","97","","4","","10","","8.1","","99.29","","","","","","Fog"
"2015-06-13 04:00","2015","06","13","04:00","14.7","","14.1","","96","","6","","10","","8.1","","99.34","","","","","","Fog"
"2015-06-13 05:00","2015","06","13","05:00","14.7","","14.1","","96","","4","","10","","6.4","","99.40","","","","","","Fog"
"2015-06-13 06:00","2015","06","13","06:00","15.0","","14.4","","96","","6","","11","","4.8","","99.41","","","","","","Fog"
"2015-06-13 07:00","2015","06","13","07:00","15.0","","14.4","","96","","5","","13","","3.2","","99.46","","","","","","Fog"
"2015-06-13 08:00","2015","06","13","08:00","15.4","","14.8","","96","","3","","8","","4.8","","99.51","","","","","","Fog"
"2015-06-13 09:00","2015","06","13","09:00","16.7","","15.6","","93","","8","","12","","6.4","","99.54","","","","","","Fog"
"2015-06-13 10:00","2015","06","13","10:00","17.5","","16.2","","92","","11","","13","","6.4","","99.55","","","","","","Fog"
"2015-06-13 11:00","2015","06","13","11:00","17.6","","16.3","","92","","10","","14","","8.1","","99.56","","","","","","Fog"
"2015-06-13 12:00","2015","06","13","12:00","17.8","","16.7","","93","","12","","16","","6.4","","99.56","","","","","","Fog"
"2015-06-13 13:00","2015","06","13","13:00","18.7","","16.5","","87","","11","","15","","9.7","","99.52","","","","","","Fog"
"2015-06-13 14:00","2015","06","13","14:00","19.1","","16.7","","86","","11","","12","","9.7","","99.51","","","","","","Haze"
"2015-06-13 15:00","2015","06","13","15:00","20.0","","17.4","","85","","10","","13","","16.1","","99.44","","26","","","","NA"
"2015-06-13 16:00","2015","06","13","16:00","20.8","","17.5","","81","","10","","17","","19.3","","99.41","","26","","","","Mostly Cloudy"
"2015-06-13 17:00","2015","06","13","17:00","20.7","","17.4","","81","","11","","15","","24.1","","99.42","","26","","","","NA"
"2015-06-13 18:00","2015","06","13","18:00","20.7","","17.2","","80","","10","","18","","19.3","","99.37","","26","","","","NA"
"2015-06-13 19:00","2015","06","13","19:00","19.6","","16.7","","83","","12","","15","","19.3","","99.40","","","","","","Mostly Cloudy"
"2015-06-13 20:00","2015","06","13","20:00","18.5","","16.3","","87","","11","","11","","24.1","","99.42","","","","","","NA"
"2015-06-13 21:00","2015","06","13","21:00","17.4","","15.9","","91","","7","","4","","24.1","","99.46","","","","","","NA"
"2015-06-13 22:00","2015","06","13","22:00","17.2","","15.6","","90","","10","","6","","24.1","","99.42","","","","","","Mostly Cloudy"
"2015-06-13 23:00","2015","06","13","23:00","17.5","","15.3","","87","","16","","10","","24.1","","99.42","","","","","","NA"
"2015-06-14 00:00","2015","06","14","00:00","16.3","","15.0","","92","","7","","4","","24.1","","99.35","","","","","","NA"
"2015-06-14 01:00","2015","06","14","01:00","16.8","","15.2","","90","","4","","3","","24.1","","99.38","","","","","","Cloudy"
"2015-06-14 02:00","2015","06","14","02:00","16.5","","15.7","","95","","11","","4","","19.3","","99.36","","","","","","NA"
"2015-06-14 03:00","2015","06","14","03:00","16.4","","15.6","","95","","36","","1","","19.3","","99.31","","","","","","NA"
"2015-06-14 04:00","2015","06","14","04:00","16.6","","16.0","","96","","15","","4","","19.3","","99.27","","","","","","Mostly Cloudy"
"2015-06-14 05:00","2015","06","14","05:00","17.4","","16.8","","96","","30","","5","","9.7","","99.26","","","","","","Rain Showers,Fog"
"2015-06-14 06:00","2015","06","14","06:00","17.7","","17.4","","98","","0","","1","","9.7","","99.26","","","","","","Rain Showers,Fog"
"2015-06-14 07:00","2015","06","14","07:00","18.2","","17.9","","98","","14","","7","","9.7","","99.26","","","","","","Fog"
"2015-06-14 08:00","2015","06","14","08:00","21.4","","20.4","","94","","20","","19","","9.7","","99.27","","29","","","","Rain Showers,Fog"
"2015-06-14 09:00","2015","06","14","09:00","22.5","","21.3","","93","","22","","19","","9.7","","99.25","","31","","","","Rain Showers,Fog"
"2015-06-14 10:00","2015","06","14","10:00","22.7","","21.5","","93","","24","","19","","9.7","","99.28","","32","","","","Rain Showers,Fog"
"2015-06-14 11:00","2015","06","14","11:00","24.8","","22.9","","89","","22","","21","","12.9","","99.23","","35","","","","NA"
"2015-06-14 12:00","2015","06","14","12:00","26.0","","22.6","","81","","23","","27","","16.1","","99.21","","36","","","","NA"
"2015-06-14 13:00","2015","06","14","13:00","27.3","","22.8","","76","","20","","21","","16.1","","99.10","","37","","","","Cloudy"
"2015-06-14 14:00","2015","06","14","14:00","22.8","","21.8","","94","","22","","22","","1.2","","99.10","","32","","","","Thunderstorms,Heavy Rain Showers,Fog"
"2015-06-14 15:00","2015","06","14","15:00","22.0","","21.0","","94","","13","","4","","3.6","","99.11","","30","","","","Thunderstorms,Moderate Rain Showers,Fog"
"2015-06-14 16:00","2015","06","14","16:00","23.4","","22.1","","92","","24","","9","","19.3","","99.06","","33","","","","Mostly Cloudy"
"2015-06-14 17:00","2015","06","14","17:00","24.2","","22.3","","89","","21","","6","","19.3","","99.03","","34","","","","NA"
"2015-06-14 18:00","2015","06","14","18:00","24.2","","22.5","","90","","18","","8","","24.1","","99.03","","34","","","","NA"
"2015-06-14 19:00","2015","06","14","19:00","23.9","","22.6","","92","","19","","8","","24.1","","99.05","","34","","","","Mostly Cloudy"
"2015-06-14 20:00","2015","06","14","20:00","23.5","","22.8","","96","","21","","6","","24.1","","99.01","","34","","","","NA"
"2015-06-14 21:00","2015","06","14","21:00","22.7","","22.4","","98","","36","","3","","24.1","","99.03","","32","","","","NA"
"2015-06-14 22:00","2015","06","14","22:00","22.2","","21.9","","98","","20","","9","","24.1","","99.09","","31","","","","Clear"
"2015-06-14 23:00","2015","06","14","23:00","21.8","","21.5","","98","","21","","11","","11.3","","99.16","","31","","","","NA"
"2015-06-15 00:00","2015","06","15","00:00","21.6","","21.3","","98","","23","","13","","12.9","","99.14","","30","","","","NA"
"2015-06-15 01:00","2015","06","15","01:00","21.4","","20.9","","97","","26","","13","","11.3","","99.13","","30","","","","Mainly Clear"
"2015-06-15 02:00","2015","06","15","02:00","21.7","","21.2","","97","","23","","10","","11.3","","99.14","","30","","","","NA"
"2015-06-15 03:00","2015","06","15","03:00","21.4","","20.9","","97","","24","","10","","11.3","","99.15","","30","","","","NA"
"2015-06-15 04:00","2015","06","15","04:00","21.4","","21.1","","98","","23","","8","","11.3","","99.14","","30","","","","Mostly Cloudy"
"2015-06-15 05:00","2015","06","15","05:00","20.9","","20.7","","99","","23","","7","","9.7","","99.17","","29","","","","Fog"
"2015-06-15 06:00","2015","06","15","06:00","21.4","","21.2","","99","","24","","7","","8.1","","99.20","","30","","","","Fog"
"2015-06-15 07:00","2015","06","15","07:00","23.0","","22.0","","94","","27","","10","","9.7","","99.21","","32","","","","Fog"
"2015-06-15 08:00","2015","06","15","08:00","23.4","","21.7","","90","","23","","15","","11.3","","99.23","","32","","","","NA"
"2015-06-15 09:00","2015","06","15","09:00","25.0","","21.6","","81","","24","","12","","12.9","","99.22","","34","","","","NA"
"2015-06-15 10:00","2015","06","15","10:00","26.1","","20.8","","72","","26","","13","","16.1","","99.25","","34","","","","Mostly Cloudy"
"2015-06-15 11:00","2015","06","15","11:00","25.8","","20.9","","74","","24","","14","","16.1","","99.24","","34","","","","NA"
"2015-06-15 12:00","2015","06","15","12:00","26.0","","21.1","","74","","23","","12","","16.1","","99.22","","35","","","","Rain Showers"
"2015-06-15 13:00","2015","06","15","13:00","26.6","","21.5","","73","","30","","7","","19.3","","99.16","","35","","","","Cloudy"
"2015-06-15 14:00","2015","06","15","14:00","26.6","","21.9","","75","","24","","4","","19.3","","99.11","","36","","","","NA"
"2015-06-15 15:00","2015","06","15","15:00","24.1","","23.1","","94","","26","","16","","9.7","","99.14","","34","","","","Rain Showers,Fog"
"2015-06-15 16:00","2015","06","15","16:00","23.0","","22.0","","94","","24","","8","","12.9","","99.07","","32","","","","Rain Showers"
"2015-06-15 17:00","2015","06","15","17:00","23.0","","21.7","","92","","23","","10","","19.3","","99.02","","32","","","","Rain Showers"
"2015-06-15 18:00","2015","06","15","18:00","23.0","","22.0","","94","","21","","10","","24.1","","99.03","","32","","","","Rain Showers"
"2015-06-15 19:00","2015","06","15","19:00","22.7","","21.4","","92","","19","","14","","24.1","","98.99","","31","","","","Mostly Cloudy"
"2015-06-15 20:00","2015","06","15","20:00","22.0","","21.0","","94","","20","","13","","24.1","","98.98","","30","","","","NA"
"2015-06-15 21:00","2015","06","15","21:00","21.8","","21.2","","96","","21","","19","","11.3","","99.00","","30","","","","NA"
"2015-06-15 22:00","2015","06","15","22:00","21.9","","21.4","","97","","21","","19","","9.7","","99.01","","31","","","","Fog"
"2015-06-15 23:00","2015","06","15","23:00","22.2","","21.4","","95","","22","","18","","12.9","","99.03","","31","","","","Rain"
"2015-06-16 00:00","2015","06","16","00:00","22.1","","21.4","","96","","23","","13","","11.3","","98.99","","31","","","","Rain"
"2015-06-16 01:00","2015","06","16","01:00","22.2","","21.5","","96","","23","","14","","11.3","","98.93","","31","","","","Rain"
"2015-06-16 02:00","2015","06","16","02:00","22.1","","21.6","","97","","23","","15","","9.7","","98.93","","31","","","","Rain,Fog"
"2015-06-16 03:00","2015","06","16","03:00","21.9","","21.4","","97","","25","","14","","9.7","","98.93","","31","","","","Fog"
"2015-06-16 04:00","2015","06","16","04:00","22.0","","21.3","","96","","30","","9","","8.1","","98.92","","31","","","","Rain,Fog"
"2015-06-16 05:00","2015","06","16","05:00","20.6","","18.9","","90","","32","","15","","19.3","","99.06","","27","","","","NA"
"2015-06-16 06:00","2015","06","16","06:00","20.5","","19.0","","91","","34","","13","","16.1","","99.16","","27","","","","NA"
"2015-06-16 07:00","2015","06","16","07:00","21.6","","19.4","","87","","34","","13","","19.3","","99.26","","29","","","","Mostly Cloudy"
"2015-06-16 08:00","2015","06","16","08:00","22.6","","18.2","","76","","35","","19","","24.1","","99.32","","29","","","","NA"
"2015-06-16 09:00","2015","06","16","09:00","23.3","","18.1","","72","","36","","18","","24.1","","99.40","","29","","","","NA"
"2015-06-16 10:00","2015","06","16","10:00","24.1","","18.4","","70","","35","","17","","24.1","","99.49","","30","","","","Mostly Cloudy"
"2015-06-16 11:00","2015","06","16","11:00","24.4","","15.5","","57","","34","","19","","24.1","","99.52","","29","","","","NA"
"2015-06-16 12:00","2015","06","16","12:00","25.2","","13.6","","48","","36","","13","","24.1","","99.53","","28","","","","NA"
"2015-06-16 13:00","2015","06","16","13:00","25.0","","14.9","","53","","7","","15","","24.1","","99.54","","29","","","","Mostly Cloudy"
"2015-06-16 14:00","2015","06","16","14:00","26.0","","15.0","","50","","9","","11","","24.1","","99.52","","30","","","","NA"
"2015-06-16 15:00","2015","06","16","15:00","26.3","","16.1","","53","","8","","10","","24.1","","99.51","","31","","","","NA"
"2015-06-16 16:00","2015","06","16","16:00","26.2","","15.2","","50","","10","","13","","24.1","","99.52","","30","","","","Mostly Cloudy"
"2015-06-16 17:00","2015","06","16","17:00","24.7","","14.6","","53","","6","","17","","24.1","","99.53","","28","","","","NA"
"2015-06-16 18:00","2015","06","16","18:00","22.3","","14.5","","61","","5","","27","","24.1","","99.60","","26","","","","NA"
"2015-06-16 19:00","2015","06","16","19:00","20.4","","12.7","","61","","5","","19","","24.1","","99.66","","","","","","Mostly Cloudy"
"2015-06-16 20:00","2015","06","16","20:00","18.9","","11.3","","61","","4","","20","","24.1","","99.71","","","","","","NA"
"2015-06-16 21:00","2015","06","16","21:00","17.4","","11.9","","70","","5","","15","","24.1","","99.79","","","","","","NA"
"2015-06-16 22:00","2015","06","16","22:00","17.1","","12.1","","72","","4","","13","","24.1","","99.82","","","","","","Mostly Cloudy"
"2015-06-16 23:00","2015","06","16","23:00","16.4","","13.2","","81","","4","","13","","24.1","","99.83","","","","","","NA"
"2015-06-17 00:00","2015","06","17","00:00","16.0","","13.7","","86","","3","","14","","24.1","","99.82","","","","","","NA"
"2015-06-17 01:00","2015","06","17","01:00","15.1","","13.2","","88","","4","","12","","24.1","","99.80","","","","","","Mainly Clear"
"2015-06-17 02:00","2015","06","17","02:00","15.0","","13.2","","89","","4","","10","","24.1","","99.77","","","","","","NA"
"2015-06-17 03:00","2015","06","17","03:00","15.3","","13.4","","88","","4","","13","","24.1","","99.75","","","","","","NA"
"2015-06-17 04:00","2015","06","17","04:00","15.4","","13.6","","89","","3","","13","","24.1","","99.76","","","","","","Mostly Cloudy"
"2015-06-17 05:00","2015","06","17","05:00","14.9","","13.5","","91","","4","","11","","24.1","","99.76","","","","","","NA"
"2015-06-17 06:00","2015","06","17","06:00","16.0","","14.7","","92","","5","","9","","24.1","","99.73","","","","","","NA"
"2015-06-17 07:00","2015","06","17","07:00","17.5","","14.6","","83","","8","","16","","24.1","","99.74","","","","","","Mostly Cloudy"
"2015-06-17 08:00","2015","06","17","08:00","18.4","","13.8","","74","","13","","13","","24.1","","99.74","","","","","","NA"
"2015-06-17 09:00","2015","06","17","09:00","19.6","","14.7","","73","","12","","13","","24.1","","99.72","","","","","","NA"
"2015-06-17 10:00","2015","06","17","10:00","20.5","","14.7","","69","","12","","11","","24.1","","99.70","","","","","","Cloudy"
"2015-06-17 11:00","2015","06","17","11:00","21.2","","14.0","","63","","11","","8","","24.1","","99.70","","25","","","","NA"
"2015-06-17 12:00","2015","06","17","12:00","22.2","","15.2","","64","","16","","16","","24.1","","99.66","","26","","","","NA"
"2015-06-17 13:00","2015","06","17","13:00","21.6","","14.4","","63","","17","","17","","24.1","","99.62","","25","","","","Cloudy"
"2015-06-17 14:00","2015","06","17","14:00","22.2","","16.8","","71","","17","","13","","24.1","","99.55","","27","","","","NA"
"2015-06-17 15:00","2015","06","17","15:00","22.5","","16.2","","67","","11","","8","","24.1","","99.49","","27","","","","NA"
"2015-06-17 16:00","2015","06","17","16:00","22.5","","16.4","","68","","13","","11","","24.1","","99.42","","27","","","","Mostly Cloudy"
"2015-06-17 17:00","2015","06","17","17:00","22.0","","16.4","","70","","15","","10","","24.1","","99.42","","27","","","","NA"
"2015-06-17 18:00","2015","06","17","18:00","20.9","","17.4","","80","","17","","16","","24.1","","99.32","","26","","","","Rain Showers"
"2015-06-17 19:00","2015","06","17","19:00","20.1","","16.6","","80","","14","","7","","24.1","","99.31","","25","","","","Mostly Cloudy"
"2015-06-17 20:00","2015","06","17","20:00","19.4","","17.6","","89","","11","","4","","24.1","","99.32","","","","","","Rain Showers"
"2015-06-17 21:00","2015","06","17","21:00","18.9","","17.1","","89","","10","","10","","24.1","","99.33","","","","","","NA"
"2015-06-17 22:00","2015","06","17","22:00","18.5","","16.2","","86","","11","","9","","19.3","","99.34","","","","","","Rain Showers"
"2015-06-17 23:00","2015","06","17","23:00","18.1","","16.1","","88","","11","","4","","16.1","","99.32","","","","","","NA"
"2015-06-18 00:00","2015","06","18","00:00","18.0","","15.7","","86","","11","","10","","19.3","","99.28","","","","","","NA"
"2015-06-18 01:00","2015","06","18","01:00","17.9","","16.3","","90","","15","","8","","19.3","","99.23","","","","","","Cloudy"
"2015-06-18 02:00","2015","06","18","02:00","18.1","","16.6","","91","","16","","8","","19.3","","99.16","","","","","","NA"
"2015-06-18 03:00","2015","06","18","03:00","18.1","","17.0","","93","","18","","4","","16.1","","99.12","","","","","","NA"
"2015-06-18 04:00","2015","06","18","04:00","18.6","","17.5","","93","","36","","1","","9.7","","99.13","","","","","","Fog"
"2015-06-18 05:00","2015","06","18","05:00","19.3","","18.5","","95","","20","","7","","8.1","","99.14","","","","","","Fog"
"2015-06-18 06:00","2015","06","18","06:00","20.0","","19.4","","96","","22","","5","","8.1","","99.13","","27","","","","Fog"
"2015-06-18 07:00","2015","06","18","07:00","21.0","","19.8","","93","","25","","11","","8.1","","99.14","","28","","","","Fog"
"2015-06-18 08:00","2015","06","18","08:00","21.8","","19.8","","88","","27","","13","","9.7","","99.15","","29","","","","Fog"
"2015-06-18 09:00","2015","06","18","09:00","22.5","","20.1","","86","","26","","13","","11.3","","99.15","","30","","","","NA"
"2015-06-18 10:00","2015","06","18","10:00","22.9","","19.7","","82","","24","","19","","12.9","","99.17","","30","","","","Cloudy"
"2015-06-18 11:00","2015","06","18","11:00","24.5","","20.3","","77","","24","","23","","16.1","","99.15","","32","","","","NA"
"2015-06-18 12:00","2015","06","18","12:00","25.1","","20.0","","73","","24","","19","","16.1","","99.15","","33","","","","NA"
"2015-06-18 13:00","2015","06","18","13:00","26.1","","20.1","","69","","24","","26","","16.1","","99.13","","34","","","","Cloudy"
"2015-06-18 14:00","2015","06","18","14:00","25.9","","20.1","","70","","24","","26","","19.3","","99.09","","34","","","","NA"
"2015-06-18 15:00","2015","06","18","15:00","26.6","","19.4","","64","","25","","23","","24.1","","99.03","","34","","","","NA"
"2015-06-18 16:00","2015","06","18","16:00","26.8","","20.1","","66","","28","","24","","24.1","","98.96","","34","","","","Mostly Cloudy"
"2015-06-18 17:00","2015","06","18","17:00","26.4","","20.4","","69","","28","","10","","24.1","","98.93","","34","","","","NA"
"2015-06-18 18:00","2015","06","18","18:00","26.0","","20.9","","73","","24","","11","","24.1","","98.92","","34","","","","NA"
"2015-06-18 19:00","2015","06","18","19:00","24.6","","21.2","","81","","22","","16","","24.1","","98.95","","33","","","","Cloudy"
"2015-06-18 20:00","2015","06","18","20:00","23.1","","20.7","","86","","23","","13","","19.3","","98.97","","31","","","","NA"
"2015-06-18 21:00","2015","06","18","21:00","22.0","","20.3","","90","","23","","13","","24.1","","99.02","","30","","","","NA"
"2015-06-18 22:00","2015","06","18","22:00","21.1","","19.9","","93","","24","","14","","24.1","","99.08","","29","","","","Mostly Cloudy"
"2015-06-18 23:00","2015","06","18","23:00","21.2","","19.9","","92","","31","","12","","24.1","","99.13","","29","","","","NA"
"2015-06-19 00:00","2015","06","19","00:00","20.0","","17.6","","86","","36","","23","","24.1","","99.24","","26","","","","NA"
"2015-06-19 01:00","2015","06","19","01:00","19.0","","15.7","","81","","1","","26","","24.1","","99.33","","","","","","Cloudy"
"2015-06-19 02:00","2015","06","19","02:00","17.5","","14.4","","82","","4","","21","","24.1","","99.36","","","","","","NA"
"2015-06-19 03:00","2015","06","19","03:00","16.2","","14.2","","88","","3","","7","","24.1","","99.36","","","","","","NA"
"2015-06-19 04:00","2015","06","19","04:00","16.3","","14.0","","86","","36","","10","","24.1","","99.37","","","","","","Mostly Cloudy"
"2015-06-19 05:00","2015","06","19","05:00","16.4","","13.4","","82","","36","","19","","24.1","","99.47","","","","","","NA"
"2015-06-19 06:00","2015","06","19","06:00","16.1","","13.3","","83","","36","","15","","24.1","","99.55","","","","","","NA"
"2015-06-19 07:00","2015","06","19","07:00","16.1","","12.9","","81","","36","","15","","24.1","","99.64","","","","","","Mostly Cloudy"
"2015-06-19 08:00","2015","06","19","08:00","17.1","","13.7","","80","","3","","14","","24.1","","99.66","","","","","","NA"
"2015-06-19 09:00","2015","06","19","09:00","17.3","","13.9","","80","","4","","19","","24.1","","99.70","","","","","","NA"
"2015-06-19 10:00","2015","06","19","10:00","18.2","","14.2","","77","","3","","18","","24.1","","99.72","","","","","","Mostly Cloudy"
"2015-06-19 11:00","2015","06","19","11:00","19.4","","13.9","","70","","3","","22","","24.1","","99.71","","","","","","NA"
"2015-06-19 12:00","2015","06","19","12:00","20.7","","13.5","","63","","4","","19","","24.1","","99.66","","","","","","NA"
"2015-06-19 13:00","2015","06","19","13:00","21.3","","14.6","","65","","4","","15","","24.1","","99.64","","25","","","","NA"
"2015-06-19 14:00","2015","06","19","14:00","21.2","","13.2","","60","","5","","18","","24.1","","99.62","","","","","","NA"
"2015-06-19 15:00","2015","06","19","15:00","21.1","","13.2","","60","","8","","19","","24.1","","99.57","","","","","","NA"
"2015-06-19 16:00","2015","06","19","16:00","21.1","","13.2","","60","","6","","15","","24.1","","99.57","","","","","","Mostly Cloudy"
"2015-06-19 17:00","2015","06","19","17:00","19.6","","11.0","","57","","6","","18","","24.1","","99.50","","","","","","NA"
"2015-06-19 18:00","2015","06","19","18:00","18.8","","10.2","","57","","7","","17","","24.1","","99.45","","","","","","NA"
"2015-06-19 19:00","2015","06","19","19:00","17.7","","9.2","","57","","7","","14","","24.1","","99.47","","","","","","Mostly Cloudy"
"2015-06-19 20:00","2015","06","19","20:00","16.1","","10.9","","71","","6","","12","","24.1","","99.47","","","","","","NA"
"2015-06-19 21:00","2015","06","19","21:00","15.2","","11.0","","76","","4","","12","","24.1","","99.50","","","","","","NA"
"2015-06-19 22:00","2015","06","19","22:00","14.7","","10.2","","74","","4","","18","","24.1","","99.51","","","","","","Mostly Cloudy"
"2015-06-19 23:00","2015","06","19","23:00","13.7","","10.0","","78","","4","","12","","24.1","","99.50","","","","","","NA"
"2015-06-20 00:00","2015","06","20","00:00","13.1","","10.1","","82","","4","","10","","24.1","","99.43","","","","","","NA"
"2015-06-20 01:00","2015","06","20","01:00","13.0","","10.4","","84","","4","","12","","24.1","","99.37","","","","","","Mostly Cloudy"
"2015-06-20 02:00","2015","06","20","02:00","13.1","","11.8","","92","","5","","7","","24.1","","99.34","","","","","","NA"
"2015-06-20 03:00","2015","06","20","03:00","12.9","","12.0","","94","","3","","7","","24.1","","99.30","","","","","","NA"
"2015-06-20 04:00","2015","06","20","04:00","14.4","","13.6","","95","","5","","11","","24.1","","99.27","","","","","","Cloudy"
"2015-06-20 05:00","2015","06","20","05:00","14.8","","13.9","","94","","6","","12","","19.3","","99.25","","","","","","NA"
"2015-06-20 06:00","2015","06","20","06:00","16.5","","15.2","","92","","7","","10","","19.3","","99.24","","","","","","NA"
"2015-06-20 07:00","2015","06","20","07:00","16.6","","14.8","","89","","7","","14","","24.1","","99.18","","","","","","Cloudy"
"2015-06-20 08:00","2015","06","20","08:00","17.6","","15.3","","86","","10","","14","","24.1","","99.12","","","","","","NA"
"2015-06-20 09:00","2015","06","20","09:00","18.2","","16.0","","87","","6","","14","","16.1","","99.12","","","","","","NA"
"2015-06-20 10:00","2015","06","20","10:00","18.9","","16.5","","86","","5","","10","","12.9","","99.12","","","","","","Cloudy"
"2015-06-20 11:00","2015","06","20","11:00","19.6","","17.1","","85","","9","","14","","12.9","","99.09","","","","","","NA"
"2015-06-20 12:00","2015","06","20","12:00","19.8","","17.6","","87","","10","","12","","8.1","","99.03","","","","","","Fog"
"2015-06-20 13:00","2015","06","20","13:00","20.9","","18.7","","87","","8","","10","","6.4","","98.91","","27","","","","Fog"
"2015-06-20 14:00","2015","06","20","14:00","21.9","","19.1","","84","","13","","10","","8.1","","98.81","","29","","","","Fog"
"2015-06-20 15:00","2015","06","20","15:00","22.6","","20.0","","85","","7","","11","","9.7","","98.76","","30","","","","Fog"
"2015-06-20 16:00","2015","06","20","16:00","24.1","","20.1","","78","","14","","14","","11.3","","98.67","","32","","","","Cloudy"
"2015-06-20 17:00","2015","06","20","17:00","24.0","","20.0","","78","","15","","12","","11.3","","98.69","","32","","","","NA"
"2015-06-20 18:00","2015","06","20","18:00","23.8","","19.8","","78","","15","","9","","11.3","","98.67","","31","","","","NA"
"2015-06-20 19:00","2015","06","20","19:00","22.8","","20.2","","85","","16","","10","","11.3","","98.77","","31","","","","Cloudy"
"2015-06-20 20:00","2015","06","20","20:00","22.2","","19.6","","85","","21","","17","","9.7","","98.73","","29","","","","Fog"
"2015-06-20 21:00","2015","06","20","21:00","21.0","","19.5","","91","","21","","10","","9.7","","98.68","","28","","","","Fog"
"2015-06-20 22:00","2015","06","20","22:00","20.2","","19.2","","94","","19","","7","","12.9","","98.73","","27","","","","Mostly Cloudy"
"2015-06-20 23:00","2015","06","20","23:00","19.5","","19.0","","97","","20","","9","","9.7","","98.66","","","","","","Fog"
"2015-06-21 00:00","2015","06","21","00:00","19.3","","18.8","","97","","20","","11","","8.1","","98.65","","","","","","Fog"
"2015-06-21 01:00","2015","06","21","01:00","19.5","","19.0","","97","","21","","13","","8.1","","98.60","","","","","","Fog"
"2015-06-21 02:00","2015","06","21","02:00","20.4","","19.9","","97","","24","","12","","8.1","","98.64","","28","","","","Fog"
"2015-06-21 03:00","2015","06","21","03:00","20.8","","20.0","","95","","25","","14","","9.7","","98.62","","28","","","","Fog"
"2015-06-21 04:00","2015","06","21","04:00","22.1","","20.2","","89","","27","","21","","12.9","","98.61","","30","","","","Cloudy"
"2015-06-21 05:00","2015","06","21","05:00","21.9","","20.4","","91","","28","","13","","11.3","","98.66","","30","","","","NA"
"2015-06-21 06:00","2015","06","21","06:00","21.9","","19.9","","88","","28","","12","","11.3","","98.70","","29","","","","NA"
"2015-06-21 07:00","2015","06","21","07:00","21.5","","18.9","","85","","28","","10","","19.3","","98.73","","28","","","","Mostly Cloudy"
"2015-06-21 08:00","2015","06","21","08:00","23.2","","18.6","","75","","27","","10","","24.1","","98.76","","30","","","","NA"
"2015-06-21 09:00","2015","06","21","09:00","23.9","","18.9","","73","","28","","5","","24.1","","98.73","","31","","","","NA"
"2015-06-21 10:00","2015","06","21","10:00","24.4","","17.5","","65","","27","","17","","24.1","","98.83","","30","","","","Mostly Cloudy"
"2015-06-21 11:00","2015","06","21","11:00","24.5","","18.6","","69","","25","","12","","24.1","","98.90","","31","","","","NA"
"2015-06-21 12:00","2015","06","21","12:00","25.4","","18.7","","66","","29","","16","","24.1","","98.89","","32","","","","NA"
"2015-06-21 13:00","2015","06","21","13:00","26.8","","19.3","","63","","27","","25","","24.1","","98.91","","34","","","","Mostly Cloudy"
"2015-06-21 14:00","2015","06","21","14:00","26.6","","18.9","","62","","28","","19","","24.1","","98.90","","33","","","","NA"
"2015-06-21 15:00","2015","06","21","15:00","26.9","","18.1","","58","","32","","21","","24.1","","98.90","","33","","","","NA"
"2015-06-21 16:00","2015","06","21","16:00","28.5","","18.5","","54","","30","","11","","24.1","","98.88","","35","","","","Mostly Cloudy"
"2015-06-21 17:00","2015","06","21","17:00","28.1","","17.2","","51","","28","","21","","24.1","","98.89","","34","","","","NA"
"2015-06-21 18:00","2015","06","21","18:00","28.4","","18.1","","53","","28","","19","","24.1","","98.91","","34","","","","NA"
"2015-06-21 19:00","2015","06","21","19:00","27.2","","16.4","","51","","28","","20","","24.1","","98.94","","32","","","","Mostly Cloudy"
"2015-06-21 20:00","2015","06","21","20:00","25.7","","16.7","","57","","27","","19","","19.3","","99.00","","31","","","","NA"
"2015-06-21 21:00","2015","06","21","21:00","25.2","","15.4","","54","","29","","18","","19.3","","99.08","","29","","","","NA"
"2015-06-21 22:00","2015","06","21","22:00","24.3","","16.4","","61","","29","","18","","19.3","","99.14","","29","","","","Mostly Cloudy"
"2015-06-21 23:00","2015","06","21","23:00","23.0","","16.2","","65","","29","","16","","24.1","","99.15","","28","","","","NA"
"2015-06-22 00:00","2015","06","22","00:00","21.5","","16.1","","71","","28","","10","","24.1","","99.19","","26","","","","NA"
"2015-06-22 01:00","2015","06","22","01:00","21.0","","16.3","","74","","29","","12","","24.1","","99.28","","26","","","","Mainly Clear"
"2015-06-22 02:00","2015","06","22","02:00","19.4","","15.7","","79","","27","","9","","24.1","","99.29","","","","","","NA"
"2015-06-22 03:00","2015","06","22","03:00","19.8","","16.1","","79","","29","","6","","24.1","","99.30","","","","","","NA"
"2015-06-22 04:00","2015","06","22","04:00","16.7","","15.2","","91","","0","","1","","24.1","","99.31","","","","","","Mainly Clear"
"2015-06-22 05:00","2015","06","22","05:00","16.2","","15.3","","94","","23","","9","","24.1","","99.33","","","","","","NA"
"2015-06-22 06:00","2015","06","22","06:00","18.6","","17.3","","92","","36","","2","","19.3","","99.38","","","","","","NA"
"2015-06-22 07:00","2015","06","22","07:00","20.2","","17.6","","85","","20","","9","","24.1","","99.41","","26","","","","Mainly Clear"
"2015-06-22 08:00","2015","06","22","08:00","23.0","","18.0","","73","","16","","11","","24.1","","99.33","","29","","","","NA"
"2015-06-22 09:00","2015","06","22","09:00","24.8","","18.6","","68","","15","","18","","24.1","","99.22","","31","","","","NA"
"2015-06-22 10:00","2015","06","22","10:00","26.3","","17.5","","58","","17","","22","","24.1","","99.31","","32","","","","Mostly Cloudy"
"2015-06-22 11:00","2015","06","22","11:00","27.1","","17.5","","55","","19","","20","","24.1","","99.31","","33","","","","NA"
"2015-06-22 12:00","2015","06","22","12:00","27.6","","19.6","","61","","18","","25","","24.1","","99.32","","35","","","","NA"
"2015-06-22 13:00","2015","06","22","13:00","28.0","","21.2","","66","","19","","22","","24.1","","99.19","","37","","","","Cloudy"
"2015-06-22 14:00","2015","06","22","14:00","28.5","","20.9","","63","","19","","29","","24.1","","99.07","","37","","","","NA"
"2015-06-22 15:00","2015","06","22","15:00","27.4","","20.1","","64","","20","","25","","24.1","","99.01","","35","","","","Rain Showers"
"2015-06-22 16:00","2015","06","22","16:00","24.0","","21.9","","88","","16","","25","","16.1","","98.69","","33","","","","Thunderstorms,Rain Showers"
"2015-06-22 17:00","2015","06","22","17:00","27.0","","22.7","","77","","19","","23","","19.3","","98.76","","37","","","","NA"
"2015-06-22 18:00","2015","06","22","18:00","27.3","","22.4","","74","","19","","30","","19.3","","98.63","","37","","","","NA"
"2015-06-22 19:00","2015","06","22","19:00","26.7","","22.4","","77","","20","","26","","19.3","","98.63","","36","","","","Mostly Cloudy"
"2015-06-22 20:00","2015","06","22","20:00","26.5","","22.8","","80","","20","","25","","19.3","","98.57","","37","","","","NA"
"2015-06-22 21:00","2015","06","22","21:00","26.2","","22.4","","79","","24","","21","","24.1","","98.63","","36","","","","NA"
"2015-06-22 22:00","2015","06","22","22:00","26.9","","22.0","","74","","21","","28","","19.3","","98.49","","36","","","","Mostly Cloudy"
"2015-06-22 23:00","2015","06","22","23:00","26.1","","22.3","","79","","20","","32","","19.3","","98.40","","36","","","","NA"
"2015-06-23 00:00","2015","06","23","00:00","25.1","","22.6","","86","","22","","19","","16.1","","98.49","","35","","","","Thunderstorms,Rain Showers"
"2015-06-23 01:00","2015","06","23","01:00","25.6","","22.8","","84","","21","","18","","16.1","","98.43","","36","","","","Thunderstorms,Rain Showers"
"2015-06-23 02:00","2015","06","23","02:00","20.0","","19.4","","96","","23","","21","","16.1","","98.43","","27","","","","Thunderstorms,Rain Showers"
"2015-06-23 03:00","2015","06","23","03:00","20.8","","20.0","","95","","24","","16","","24.1","","98.46","","28","","","","NA"
"2015-06-23 04:00","2015","06","23","04:00","21.2","","20.6","","96","","25","","19","","24.1","","98.50","","29","","","","Cloudy"
"2015-06-23 05:00","2015","06","23","05:00","22.4","","21.2","","93","","25","","15","","19.3","","98.50","","31","","","","NA"
"2015-06-23 06:00","2015","06","23","06:00","22.6","","21.4","","93","","25","","18","","24.1","","98.61","","31","","","","NA"
"2015-06-23 07:00","2015","06","23","07:00","23.2","","19.6","","80","","29","","23","","24.1","","98.73","","30","","","","Mostly Cloudy"
"2015-06-23 08:00","2015","06","23","08:00","23.3","","16.9","","67","","28","","28","","24.1","","98.83","","29","","","","NA"
"2015-06-23 09:00","2015","06","23","09:00","23.2","","15.9","","63","","32","","26","","24.1","","98.89","","28","","","","NA"
"2015-06-23 10:00","2015","06","23","10:00","23.1","","14.5","","58","","31","","21","","24.1","","98.98","","27","","","","Mainly Clear"
"2015-06-23 11:00","2015","06","23","11:00","23.3","","15.7","","62","","31","","19","","24.1","","99.07","","28","","","","NA"
"2015-06-23 12:00","2015","06","23","12:00","23.9","","14.5","","55","","30","","24","","24.1","","99.13","","28","","","","NA"
"2015-06-23 13:00","2015","06","23","13:00","24.8","","14.7","","53","","29","","23","","24.1","","99.19","","29","","","","Mainly Clear"
"2015-06-23 14:00","2015","06","23","14:00","24.9","","14.2","","51","","31","","20","","24.1","","99.21","","28","","","","NA"
"2015-06-23 15:00","2015","06","23","15:00","25.2","","15.4","","54","","33","","21","","24.1","","99.25","","29","","","","NA"
"2015-06-23 16:00","2015","06","23","16:00","24.6","","14.6","","53","","33","","22","","24.1","","99.28","","28","","","","Mainly Clear"
"2015-06-23 17:00","2015","06","23","17:00","24.5","","13.3","","49","","32","","23","","24.1","","99.31","","27","","","","NA"
"2015-06-23 18:00","2015","06","23","18:00","24.8","","13.9","","50","","34","","22","","24.1","","99.31","","28","","","","NA"
"2015-06-23 19:00","2015","06","23","19:00","24.1","","13.2","","50","","31","","18","","24.1","","99.37","","27","","","","Mainly Clear"
"2015-06-23 20:00","2015","06","23","20:00","23.1","","12.9","","52","","30","","20","","24.1","","99.46","","26","","","","NA"
"2015-06-23 21:00","2015","06","23","21:00","21.9","","12.9","","56","","32","","9","","24.1","","99.51","","25","","","","NA"
"2015-06-23 22:00","2015","06","23","22:00","21.1","","12.6","","58","","35","","4","","24.1","","99.54","","","","","","Clear"
"2015-06-23 23:00","2015","06","23","23:00","19.5","","13.3","","67","","35","","8","","24.1","","99.56","","","","","","NA"
"2015-06-24 00:00","2015","06","24","00:00","19.0","","13.5","","70","","34","","9","","24.1","","99.56","","","","","","NA"
"2015-06-24 01:00","2015","06","24","01:00","18.5","","13.2","","71","","36","","13","","24.1","","99.55","","","","","","Clear"
"2015-06-24 02:00","2015","06","24","02:00","17.5","","12.0","","70","","34","","5","","24.1","","99.61","","","","","","NA"
"2015-06-24 03:00","2015","06","24","03:00","16.7","","11.9","","73","","36","","5","","24.1","","99.66","","","","","","NA"
"2015-06-24 04:00","2015","06","24","04:00","16.3","","11.7","","74","","35","","5","","24.1","","99.69","","","","","","Clear"
"2015-06-24 05:00","2015","06","24","05:00","14.9","","11.1","","78","","30","","4","","24.1","","99.75","","","","","","NA"
"2015-06-24 06:00","2015","06","24","06:00","15.1","","12.8","","86","","25","","7","","24.1","","99.81","","","","","","NA"
"2015-06-24 07:00","2015","06","24","07:00","18.0","","12.9","","72","","27","","3","","24.1","","99.83","","","","","","Clear"
"2015-06-24 08:00","2015","06","24","08:00","19.5","","12.6","","64","","19","","4","","24.1","","99.87","","","","","","NA"
"2015-06-24 09:00","2015","06","24","09:00","20.8","","12.1","","57","","25","","8","","24.1","","99.88","","","","","","NA"
"2015-06-24 10:00","2015","06","24","10:00","22.3","","11.5","","50","","30","","8","","24.1","","99.85","","","","","","Mostly Cloudy"
"2015-06-24 11:00","2015","06","24","11:00","22.7","","8.2","","39","","28","","7","","24.1","","99.83","","","","","","NA"
"2015-06-24 12:00","2015","06","24","12:00","23.9","","8.5","","37","","30","","11","","24.1","","99.83","","25","","","","NA"
"2015-06-24 13:00","2015","06","24","13:00","24.6","","7.0","","32","","12","","4","","24.1","","99.78","","25","","","","Mostly Cloudy"
"2015-06-24 14:00","2015","06","24","14:00","25.0","","7.8","","33","","23","","7","","24.1","","99.82","","25","","","","NA"
"2015-06-24 15:00","2015","06","24","15:00","25.1","","10.0","","38","","14","","9","","24.1","","99.79","","26","","","","NA"
"2015-06-24 16:00","2015","06","24","16:00","25.6","","7.9","","32","","15","","15","","24.1","","99.75","","26","","","","Mostly Cloudy"
"2015-06-24 17:00","2015","06","24","17:00","24.7","","7.6","","33","","19","","18","","24.1","","99.70","","25","","","","NA"
"2015-06-24 18:00","2015","06","24","18:00","23.8","","7.6","","35","","19","","18","","24.1","","99.65","","","","","","NA"
"2015-06-24 19:00","2015","06","24","19:00","22.6","","8.9","","41","","18","","11","","24.1","","99.65","","","","","","Mostly Cloudy"
"2015-06-24 20:00","2015","06","24","20:00","20.2","","11.0","","55","","17","","10","","24.1","","99.65","","","","","","NA"
"2015-06-24 21:00","2015","06","24","21:00","18.6","","12.7","","68","","16","","11","","24.1","","99.64","","","","","","NA"
"2015-06-24 22:00","2015","06","24","22:00","17.8","","11.9","","68","","2","","13","","24.1","","99.68","","","","","","Mostly Cloudy"
"2015-06-24 23:00","2015","06","24","23:00","18.4","","12.0","","66","","16","","5","","24.1","","99.65","","","","","","NA"
"2015-06-25 00:00","2015","06","25","00:00","17.7","","11.6","","67","","20","","4","","24.1","","99.66","","","","","","NA"
"2015-06-25 01:00","2015","06","25","01:00","17.2","","10.6","","65","","24","","7","","24.1","","99.60","","","","","","Mostly Cloudy"
"2015-06-25 02:00","2015","06","25","02:00","17.6","","12.1","","70","","25","","4","","24.1","","99.56","","","","","","NA"
"2015-06-25 03:00","2015","06","25","03:00","16.7","","12.5","","76","","36","","2","","24.1","","99.47","","","","","","NA"
"2015-06-25 04:00","2015","06","25","04:00","15.6","","14.2","","91","","15","","5","","24.1","","99.47","","","","","","Mostly Cloudy"
"2015-06-25 05:00","2015","06","25","05:00","15.7","","14.3","","91","","16","","5","","24.1","","99.47","","","","","","NA"
"2015-06-25 06:00","2015","06","25","06:00","16.7","","14.9","","89","","17","","5","","24.1","","99.49","","","","","","NA"
"2015-06-25 07:00","2015","06","25","07:00","17.6","","15.8","","89","","11","","3","","16.1","","99.51","","","","","","Cloudy"
"2015-06-25 08:00","2015","06","25","08:00","18.8","","16.1","","84","","36","","2","","16.1","","99.52","","","","","","NA"
"2015-06-25 09:00","2015","06","25","09:00","19.4","","16.9","","85","","17","","5","","16.1","","99.53","","","","","","NA"
"2015-06-25 10:00","2015","06","25","10:00","20.8","","18.2","","85","","17","","8","","16.1","","99.46","","27","","","","Cloudy"
"2015-06-25 11:00","2015","06","25","11:00","21.5","","17.2","","76","","17","","10","","19.3","","99.42","","27","","","","NA"
"2015-06-25 12:00","2015","06","25","12:00","22.9","","15.1","","61","","15","","16","","24.1","","99.34","","27","","","","NA"
"2015-06-25 13:00","2015","06","25","13:00","22.3","","16.4","","69","","19","","14","","19.3","","99.30","","27","","","","Cloudy"
"2015-06-25 14:00","2015","06","25","14:00","21.3","","16.6","","74","","21","","16","","17.7","","99.30","","26","","","","NA"
"2015-06-25 15:00","2015","06","25","15:00","20.8","","15.9","","73","","20","","15","","16.1","","99.30","","25","","","","Rain Showers"
"2015-06-25 16:00","2015","06","25","16:00","21.6","","16.4","","72","","20","","14","","19.3","","99.28","","26","","","","Mostly Cloudy"
"2015-06-25 17:00","2015","06","25","17:00","21.2","","15.4","","69","","18","","4","","19.3","","99.29","","25","","","","NA"
"2015-06-25 18:00","2015","06","25","18:00","21.1","","16.4","","74","","12","","4","","24.1","","99.27","","26","","","","NA"
"2015-06-25 19:00","2015","06","25","19:00","20.9","","17.0","","78","","11","","7","","24.1","","99.24","","26","","","","Mostly Cloudy"
"2015-06-25 20:00","2015","06","25","20:00","20.2","","17.1","","82","","36","","3","","24.1","","99.26","","26","","","","NA"
"2015-06-25 21:00","2015","06","25","21:00","19.8","","17.1","","84","","18","","4","","24.1","","99.28","","","","","","NA"
"2015-06-25 22:00","2015","06","25","22:00","18.3","","16.8","","91","","36","","1","","24.1","","99.31","","","","","","Mainly Clear"
"2015-06-25 23:00","2015","06","25","23:00","17.5","","16.4","","93","","36","","2","","24.1","","99.29","","","","","","NA"
"2015-06-26 00:00","2015","06","26","00:00","16.6","","16.0","","96","","36","","1","","24.1","","99.34","","","","","","NA"
"2015-06-26 01:00","2015","06","26","01:00","16.0","","15.1","","94","","5","","5","","24.1","","99.30","","","","","","Mostly Cloudy"
"2015-06-26 02:00","2015","06","26","02:00","15.5","","14.9","","96","","1","","3","","24.1","","99.29","","","","","","NA"
"2015-06-26 03:00","2015","06","26","03:00","16.2","","15.6","","96","","1","","3","","12.9","","99.28","","","","","","NA"
"2015-06-26 04:00","2015","06","26","04:00","15.5","","14.9","","96","","1","","10","","11.3","","99.29","","","","","","Mostly Cloudy"
"2015-06-26 05:00","2015","06","26","05:00","16.0","","15.1","","94","","4","","14","","9.7","","99.32","","","","","","Fog"
"2015-06-26 06:00","2015","06","26","06:00","16.5","","15.4","","93","","3","","13","","9.7","","99.41","","","","","","Fog"
"2015-06-26 07:00","2015","06","26","07:00","18.2","","16.4","","89","","4","","19","","9.7","","99.49","","","","","","Fog"
"2015-06-26 08:00","2015","06","26","08:00","18.7","","15.6","","82","","5","","17","","12.9","","99.55","","","","","","NA"
"2015-06-26 09:00","2015","06","26","09:00","20.1","","16.0","","77","","6","","21","","16.1","","99.54","","25","","","","NA"
"2015-06-26 10:00","2015","06","26","10:00","21.0","","16.5","","75","","5","","21","","16.1","","99.54","","26","","","","Cloudy"
"2015-06-26 11:00","2015","06","26","11:00","21.6","","16.4","","72","","6","","19","","12.9","","99.54","","26","","","","NA"
"2015-06-26 12:00","2015","06","26","12:00","22.4","","15.4","","64","","7","","18","","16.1","","99.54","","27","","","","NA"
"2015-06-26 13:00","2015","06","26","13:00","23.1","","14.8","","59","","7","","24","","16.1","","99.49","","27","","","","Cloudy"
"2015-06-26 14:00","2015","06","26","14:00","23.0","","14.7","","59","","7","","18","","19.3","","99.48","","27","","","","NA"
"2015-06-26 15:00","2015","06","26","15:00","23.7","","15.6","","60","","11","","13","","24.1","","99.46","","28","","","","NA"
"2015-06-26 16:00","2015","06","26","16:00","23.2","","15.6","","62","","12","","13","","24.1","","99.44","","28","","","","Cloudy"
"2015-06-26 17:00","2015","06","26","17:00","22.4","","15.8","","66","","10","","14","","19.3","","99.40","","27","","","","NA"
"2015-06-26 18:00","2015","06","26","18:00","21.5","","15.2","","67","","11","","17","","24.1","","99.38","","26","","","","NA"
"2015-06-26 19:00","2015","06","26","19:00","20.5","","14.9","","70","","8","","17","","24.1","","99.38","","","","","","Cloudy"
"2015-06-26 20:00","2015","06","26","20:00","20.2","","15.1","","72","","7","","20","","24.1","","99.34","","","","","","NA"
"2015-06-26 21:00","2015","06","26","21:00","20.0","","14.7","","71","","8","","17","","24.1","","99.33","","","","","","NA"
"2015-06-26 22:00","2015","06","26","22:00","19.6","","13.6","","68","","7","","17","","24.1","","99.36","","","","","","Cloudy"
"2015-06-26 23:00","2015","06","26","23:00","18.9","","15.4","","80","","4","","15","","24.1","","99.33","","","","","","NA"
"2015-06-27 00:00","2015","06","27","00:00","18.7","","14.4","","76","","4","","15","","24.1","","99.26","","","","","","NA"
"2015-06-27 01:00","2015","06","27","01:00","17.6","","12.8","","73","","5","","25","","16.1","","99.18","","","","","","Rain"
"2015-06-27 02:00","2015","06","27","02:00","16.1","","12.9","","81","","3","","23","","24.1","","99.07","","","","","","Rain"
"2015-06-27 03:00","2015","06","27","03:00","15.3","","13.0","","86","","3","","25","","19.3","","99.01","","","","","","Moderate Rain"
"2015-06-27 04:00","2015","06","27","04:00","14.4","","12.6","","89","","4","","29","","11.3","","98.93","","","","","","Moderate Rain"
"2015-06-27 05:00","2015","06","27","05:00","14.6","","13.8","","95","","4","","25","","8.1","","98.89","","","","","","Moderate Rain,Fog"
"2015-06-27 06:00","2015","06","27","06:00","14.9","","14.1","","95","","4","","27","","6.4","","98.88","","","","","","Moderate Rain,Fog"
"2015-06-27 07:00","2015","06","27","07:00","15.2","","14.3","","94","","4","","31","","9.7","","98.80","","","","","","Rain,Fog"
"2015-06-27 08:00","2015","06","27","08:00","15.0","","13.7","","92","","6","","37","","9.7","","98.71","","","","","","Rain,Fog"
"2015-06-27 09:00","2015","06","27","09:00","15.8","","15.0","","95","","5","","43","","9.7","","98.60","","","","","","Rain,Fog"
"2015-06-27 10:00","2015","06","27","10:00","15.7","","15.1","","96","","4","","35","","9.7","","98.56","","","","","","Rain,Fog"
"2015-06-27 11:00","2015","06","27","11:00","16.2","","15.6","","96","","5","","42","","8.1","","98.54","","","","","","Rain,Fog"
"2015-06-27 12:00","2015","06","27","12:00","16.5","","15.9","","96","","3","","43","","8.1","","98.52","","","","","","Rain,Fog"
"2015-06-27 13:00","2015","06","27","13:00","17.0","","15.9","","93","","3","","48","","4.8","","98.43","","","","","","Rain,Fog"
"2015-06-27 14:00","2015","06","27","14:00","16.4","","15.8","","96","","3","","43","","3.2","","98.37","","","","","","Rain,Fog"
"2015-06-27 15:00","2015","06","27","15:00","16.6","","16.0","","96","","4","","37","","2.4","","98.34","","","","","","Rain,Fog"
"2015-06-27 16:00","2015","06","27","16:00","16.4","","15.3","","93","","2","","46","","2.4","","98.28","","","","","","Rain,Fog"
"2015-06-27 17:00","2015","06","27","17:00","15.9","","15.1","","95","","1","","40","","2.4","","98.29","","","","","","Rain,Fog"
"2015-06-27 18:00","2015","06","27","18:00","15.7","","14.6","","93","","1","","41","","6.4","","98.27","","","","","","Rain,Fog"
"2015-06-27 19:00","2015","06","27","19:00","15.3","","14.4","","94","","1","","43","","4.8","","98.31","","","","","","Rain,Fog"
"2015-06-27 20:00","2015","06","27","20:00","14.8","","14.0","","95","","1","","42","","2.4","","98.33","","","","","","Moderate Rain,Fog"
"2015-06-27 21:00","2015","06","27","21:00","15.0","","14.4","","96","","36","","28","","6.4","","98.36","","","","","","Moderate Rain,Fog"
"2015-06-27 22:00","2015","06","27","22:00","15.1","","14.5","","96","","1","","31","","4.0","","98.38","","","","","","Moderate Rain,Fog"
"2015-06-27 23:00","2015","06","27","23:00","15.1","","14.3","","95","","1","","31","","4.8","","98.38","","","","","","Rain,Fog"
"2015-06-28 00:00","2015","06","28","00:00","14.8","","14.2","","96","","1","","31","","6.4","","98.39","","","","","","Rain,Fog"
"2015-06-28 01:00","2015","06","28","01:00","14.7","","14.1","","96","","36","","31","","6.4","","98.38","","","","","","Rain,Fog"
"2015-06-28 02:00","2015","06","28","02:00","14.7","","13.9","","95","","36","","22","","9.7","","98.39","","","","","","Rain,Fog"
"2015-06-28 03:00","2015","06","28","03:00","14.7","","13.4","","92","","1","","30","","24.1","","98.39","","","","","","Rain"
"2015-06-28 04:00","2015","06","28","04:00","14.8","","13.4","","91","","35","","21","","24.1","","98.45","","","","","","Cloudy"
"2015-06-28 05:00","2015","06","28","05:00","14.5","","13.4","","93","","35","","21","","24.1","","98.51","","","","","","NA"
"2015-06-28 06:00","2015","06","28","06:00","14.9","","13.0","","88","","34","","20","","24.1","","98.59","","","","","","NA"
"2015-06-28 07:00","2015","06","28","07:00","14.9","","13.1","","89","","35","","19","","19.3","","98.67","","","","","","Rain Showers"
"2015-06-28 08:00","2015","06","28","08:00","15.8","","12.8","","82","","36","","19","","24.1","","98.71","","","","","","NA"
"2015-06-28 09:00","2015","06","28","09:00","17.1","","12.7","","75","","35","","24","","24.1","","98.79","","","","","","NA"
"2015-06-28 10:00","2015","06","28","10:00","19.3","","13.1","","67","","35","","18","","24.1","","98.81","","","","","","Mainly Clear"
"2015-06-28 11:00","2015","06","28","11:00","19.9","","12.3","","61","","35","","31","","24.1","","98.84","","","","","","NA"
"2015-06-28 12:00","2015","06","28","12:00","21.6","","11.8","","53","","35","","31","","24.1","","98.86","","","","","","NA"
"2015-06-28 13:00","2015","06","28","13:00","22.1","","11.6","","51","","34","","29","","24.1","","98.86","","","","","","Mainly Clear"
"2015-06-28 14:00","2015","06","28","14:00","22.7","","12.2","","51","","35","","26","","24.1","","98.87","","25","","","","NA"
"2015-06-28 15:00","2015","06","28","15:00","23.3","","12.5","","50","","33","","21","","24.1","","98.89","","26","","","","NA"
"2015-06-28 16:00","2015","06","28","16:00","23.1","","11.7","","48","","33","","14","","24.1","","98.86","","25","","","","Mostly Cloudy"
"2015-06-28 17:00","2015","06","28","17:00","22.7","","10.7","","46","","35","","16","","24.1","","98.88","","","","","","NA"
"2015-06-28 18:00","2015","06","28","18:00","22.6","","11.5","","49","","35","","9","","24.1","","98.89","","25","","","","NA"
"2015-06-28 19:00","2015","06","28","19:00","21.6","","10.9","","50","","34","","8","","24.1","","98.92","","","","","","Mostly Cloudy"
"2015-06-28 20:00","2015","06","28","20:00","18.8","","15.1","","79","","12","","13","","24.1","","98.93","","","","","","NA"
"2015-06-28 21:00","2015","06","28","21:00","17.4","","15.2","","87","","5","","6","","24.1","","98.95","","","","","","NA"
"2015-06-28 22:00","2015","06","28","22:00","17.0","","15.4","","90","","15","","6","","24.1","","98.96","","","","","","Mainly Clear"
"2015-06-28 23:00","2015","06","28","23:00","16.5","","15.1","","91","","17","","7","","24.1","","98.96","","","","","","NA"
"2015-06-29 00:00","2015","06","29","00:00","16.3","","15.2","","93","","19","","3","","24.1","","98.96","","","","","","NA"
"2015-06-29 01:00","2015","06","29","01:00","15.1","","14.5","","96","","36","","3","","24.1","","98.96","","","","","","Mostly Cloudy"
"2015-06-29 02:00","2015","06","29","02:00","15.2","","13.6","","90","","25","","8","","24.1","","98.91","","","","","","NA"
"2015-06-29 03:00","2015","06","29","03:00","15.8","","13.3","","85","","28","","5","","24.1","","98.90","","","","","","NA"
"2015-06-29 04:00","2015","06","29","04:00","14.6","","13.7","","94","","36","","2","","24.1","","98.88","","","","","","Mostly Cloudy"
"2015-06-29 05:00","2015","06","29","05:00","15.0","","14.1","","94","","36","","2","","24.1","","98.89","","","","","","NA"
"2015-06-29 06:00","2015","06","29","06:00","14.9","","14.1","","95","","16","","4","","24.1","","98.92","","","","","","NA"
"2015-06-29 07:00","2015","06","29","07:00","16.9","","15.3","","90","","18","","4","","24.1","","98.95","","","","","","Mostly Cloudy"
"2015-06-29 08:00","2015","06","29","08:00","20.3","","17.0","","81","","15","","7","","24.1","","98.97","","26","","","","NA"
"2015-06-29 09:00","2015","06","29","09:00","22.3","","16.2","","68","","16","","13","","24.1","","98.97","","27","","","","NA"
"2015-06-29 10:00","2015","06","29","10:00","24.1","","16.0","","60","","18","","22","","24.1","","98.95","","29","","","","Mostly Cloudy"
"2015-06-29 11:00","2015","06","29","11:00","22.6","","15.8","","65","","19","","21","","24.1","","98.95","","27","","","","NA"
"2015-06-29 12:00","2015","06","29","12:00","22.3","","16.9","","71","","19","","23","","24.1","","98.97","","28","","","","NA"
"2015-06-29 13:00","2015","06","29","13:00","22.2","","14.2","","60","","21","","28","","24.1","","98.97","","26","","","","Mostly Cloudy"
"2015-06-29 14:00","2015","06","29","14:00","21.7","","13.7","","60","","19","","28","","24.1","","98.97","","25","","","","NA"
"2015-06-29 15:00","2015","06","29","15:00","21.7","","13.5","","59","","18","","21","","24.1","","98.92","","25","","","","NA"
"2015-06-29 16:00","2015","06","29","16:00","22.1","","13.3","","57","","18","","27","","24.1","","98.89","","25","","","","Mostly Cloudy"
"2015-06-29 17:00","2015","06","29","17:00","22.0","","13.0","","56","","17","","18","","24.1","","98.85","","25","","","","NA"
"2015-06-29 18:00","2015","06","29","18:00","21.2","","14.5","","65","","17","","21","","24.1","","98.80","","25","","","","NA"
"2015-06-29 19:00","2015","06","29","19:00","20.3","","14.5","","69","","19","","21","","24.1","","98.82","","","","","","Mostly Cloudy"
"2015-06-29 20:00","2015","06","29","20:00","18.8","","15.1","","79","","15","","11","","24.1","","98.82","","","","","","NA"
"2015-06-29 21:00","2015","06","29","21:00","17.9","","15.6","","86","","14","","7","","24.1","","98.82","","","","","","NA"
"2015-06-29 22:00","2015","06","29","22:00","17.5","","15.5","","88","","8","","5","","24.1","","98.84","","","","","","NA"
"2015-06-29 23:00","2015","06","29","23:00","17.6","","16.0","","90","","8","","9","","24.1","","98.81","","","","","","NA"
"2015-06-30 00:00","2015","06","30","00:00","18.0","","15.7","","86","","8","","9","","24.1","","98.76","","","","","","NA"
"2015-06-30 01:00","2015","06","30","01:00","18.0","","15.1","","83","","9","","10","","24.1","","98.71","","","","","","Cloudy"
"2015-06-30 02:00","2015","06","30","02:00","17.5","","15.3","","87","","8","","12","","24.1","","98.70","","","","","","NA"
"2015-06-30 03:00","2015","06","30","03:00","17.4","","15.4","","88","","9","","9","","24.1","","98.67","","","","","","NA"
"2015-06-30 04:00","2015","06","30","04:00","17.0","","15.7","","92","","9","","8","","24.1","","98.63","","","","","","Rain Showers"
"2015-06-30 05:00","2015","06","30","05:00","16.9","","15.8","","93","","11","","6","","19.3","","98.63","","","","","","NA"
"2015-06-30 06:00","2015","06","30","06:00","16.9","","15.9","","94","","11","","8","","16.1","","98.67","","","","","","NA"
"2015-06-30 07:00","2015","06","30","07:00","17.1","","15.8","","92","","13","","5","","12.9","","98.70","","","","","","Cloudy"
"2015-06-30 08:00","2015","06","30","08:00","17.7","","16.1","","90","","10","","3","","12.9","","98.72","","","","","","NA"
"2015-06-30 09:00","2015","06","30","09:00","19.0","","16.1","","83","","29","","4","","16.1","","98.70","","","","","","NA"
"2015-06-30 10:00","2015","06","30","10:00","19.8","","15.9","","78","","23","","6","","16.1","","98.68","","","","","","Cloudy"
"2015-06-30 11:00","2015","06","30","11:00","19.9","","16.6","","81","","25","","11","","16.1","","98.66","","","","","","NA"
"2015-06-30 12:00","2015","06","30","12:00","21.7","","16.5","","72","","21","","9","","19.3","","98.63","","27","","","","NA"
"2015-06-30 13:00","2015","06","30","13:00","22.7","","16.1","","66","","21","","12","","24.1","","98.57","","27","","","","Mostly Cloudy"
"2015-06-30 14:00","2015","06","30","14:00","22.9","","16.8","","68","","22","","16","","24.1","","98.54","","28","","","","NA"
"2015-06-30 15:00","2015","06","30","15:00","22.9","","16.3","","66","","23","","14","","24.1","","98.49","","28","","","","NA"
"2015-06-30 16:00","2015","06","30","16:00","23.5","","16.7","","65","","23","","14","","24.1","","98.47","","29","","","","Mostly Cloudy"
"2015-06-30 17:00","2015","06","30","17:00","24.0","","15.9","","60","","25","","12","","24.1","","98.45","","29","","","","NA"
"2015-06-30 18:00","2015","06","30","18:00","23.3","","16.0","","63","","23","","13","","19.3","","98.43","","28","","","","NA"
"2015-06-30 19:00","2015","06","30","19:00","20.0","","16.9","","82","","3","","12","","19.3","","98.49","","25","","","","Rain Showers"
"2015-06-30 20:00","2015","06","30","20:00","19.4","","17.7","","90","","36","","1","","16.1","","98.52","","","","","","Thunderstorms"
"2015-06-30 21:00","2015","06","30","21:00","19.2","","17.9","","92","","29","","5","","19.3","","98.55","","","","","","NA"
"2015-06-30 22:00","2015","06","30","22:00","18.5","","17.4","","93","","2","","6","","12.9","","98.62","","","","","","Cloudy"
"2015-06-30 23:00","2015","06","30","23:00","18.5","","17.7","","95","","4","","4","","9.7","","98.61","","","","","","Fog"
