"Station Name","WINDSOR A"
"Province","ONTARIO"
"Latitude","42.28"
"Longitude","-82.96"
"Elevation","189.60"
"Climate Identifier","6139525"
"WMO Identifier","71538"
"TC Identifier","YQG"
"All times are specified in Local Standard Time (LST). Add 1 hour to adjust for Daylight Saving Time where and when it is observed."

"Legend"
"E","Estimated"
"M","Missing"
"NA","Not Available"

"Date/Time","Year","Month","Day","Time","Temp (°C)","Temp Flag","Dew Point Temp (°C)","Dew Point Temp Flag","Rel Hum (%)","Rel Hum Flag","Wind Dir (10s deg)","Wind Dir Flag","Wind Spd (km/h)","Wind Spd Flag","Visibility (km)","Visibility Flag","Stn Press (kPa)","Stn Press Flag","Hmdx","Hmdx Flag","Wind Chill","Wind Chill Flag","Weather"
"1998-09-01 00:00","1998","09","01","00:00","16.0","","13.0","","82","","11","","2","","24.1","","99.43","","","","","","Clear"
"1998-09-01 01:00","1998","09","01","01:00","15.4","","12.4","","82","","15","","9","","24.1","","99.36","","","","","","Mainly Clear"
"1998-09-01 02:00","1998","09","01","02:00","14.9","","11.9","","82","","","","0","","24.1","","99.33","","","","","","Mainly Clear"
"1998-09-01 03:00","1998","09","01","03:00","15.0","","11.9","","82","","","","0","","24.1","","99.30","","","","","","Mainly Clear"
"1998-09-01 04:00","1998","09","01","04:00","15.7","","12.4","","81","","5","","6","","24.1","","99.26","","","","","","Mostly Cloudy"
"1998-09-01 05:00","1998","09","01","05:00","15.8","","12.7","","82","","8","","4","","24.1","","99.23","","","","","","Mostly Cloudy"
"1998-09-01 06:00","1998","09","01","06:00","15.1","","12.8","","86","","","","0","","24.1","","99.23","","","","","","Mostly Cloudy"
"1998-09-01 07:00","1998","09","01","07:00","16.8","","14.0","","84","","","","0","","24.1","","99.26","","","","","","Mostly Cloudy"
"1998-09-01 08:00","1998","09","01","08:00","18.9","","15.6","","81","","","","0","","24.1","","99.23","","","","","","Mainly Clear"
"1998-09-01 09:00","1998","09","01","09:00","21.5","","15.9","","70","","20","","13","","24.1","","99.23","","26","","","","Mostly Cloudy"
"1998-09-01 10:00","1998","09","01","10:00","22.6","","14.2","","59","","22","","13","","24.1","","99.23","","26","","","","Mostly Cloudy"
"1998-09-01 11:00","1998","09","01","11:00","23.7","","13.9","","54","","22","","19","","24.1","","99.13","","27","","","","Mostly Cloudy"
"1998-09-01 12:00","1998","09","01","12:00","24.6","","13.2","","49","","25","","19","","24.1","","99.10","","28","","","","Mostly Cloudy"
"1998-09-01 13:00","1998","09","01","13:00","25.4","","11.0","","40","","24","","24","","24.1","","99.00","","27","","","","Mostly Cloudy"
"1998-09-01 14:00","1998","09","01","14:00","25.4","","12.0","","43","","23","","15","","24.1","","98.96","","28","","","","Mostly Cloudy"
"1998-09-01 15:00","1998","09","01","15:00","24.5","","13.7","","51","","20","","22","","24.1","","98.90","","28","","","","Mostly Cloudy"
"1998-09-01 16:00","1998","09","01","16:00","24.2","","12.2","","47","","24","","22","","24.1","","98.86","","27","","","","Mostly Cloudy"
"1998-09-01 17:00","1998","09","01","17:00","24.4","","11.9","","46","","24","","24","","24.1","","98.80","","27","","","","Mostly Cloudy"
"1998-09-01 18:00","1998","09","01","18:00","23.3","","13.0","","52","","23","","19","","24.1","","98.76","","26","","","","Mainly Clear"
"1998-09-01 19:00","1998","09","01","19:00","21.5","","13.4","","60","","22","","9","","24.1","","98.70","","25","","","","Mainly Clear"
"1998-09-01 20:00","1998","09","01","20:00","19.8","","13.8","","68","","22","","9","","24.1","","98.66","","","","","","Mainly Clear"
"1998-09-01 21:00","1998","09","01","21:00","19.4","","13.7","","70","","24","","15","","24.1","","98.63","","","","","","Clear"
"1998-09-01 22:00","1998","09","01","22:00","19.4","","13.7","","70","","26","","19","","24.1","","98.63","","","","","","Mainly Clear"
"1998-09-01 23:00","1998","09","01","23:00","18.9","","13.6","","71","","26","","17","","24.1","","98.60","","","","","","Mainly Clear"
"1998-09-02 00:00","1998","09","02","00:00","18.2","","13.9","","76","","25","","15","","24.1","","98.57","","","","","","Mainly Clear"
"1998-09-02 01:00","1998","09","02","01:00","18.1","","13.4","","74","","27","","15","","24.1","","98.50","","","","","","Mostly Cloudy"
"1998-09-02 02:00","1998","09","02","02:00","18.2","","14.1","","77","","28","","15","","24.1","","98.47","","","","","","Rain Showers"
"1998-09-02 03:00","1998","09","02","03:00","14.7","","14.1","","96","","33","","22","","8.0","","98.53","","","","","","Rain Showers,Fog"
"1998-09-02 04:00","1998","09","02","04:00","14.2","","13.8","","97","","14","","11","","24.1","","98.30","","","","","","Mostly Cloudy"
"1998-09-02 05:00","1998","09","02","05:00","14.2","","13.9","","98","","25","","6","","24.1","","98.37","","","","","","Mainly Clear"
"1998-09-02 06:00","1998","09","02","06:00","14.0","","13.9","","99","","28","","11","","9.7","","98.40","","","","","","Fog"
"1998-09-02 07:00","1998","09","02","07:00","14.4","","14.2","","99","","26","","19","","8.0","","98.47","","","","","","Fog"
"1998-09-02 08:00","1998","09","02","08:00","15.0","","14.0","","94","","29","","22","","12.9","","98.50","","","","","","Mainly Clear"
"1998-09-02 09:00","1998","09","02","09:00","16.6","","13.1","","80","","31","","22","","16.1","","98.50","","","","","","Mainly Clear"
"1998-09-02 10:00","1998","09","02","10:00","17.9","","12.4","","70","","30","","19","","16.1","","98.57","","","","","","Clear"
"1998-09-02 11:00","1998","09","02","11:00","20.1","","11.5","","58","","31","","24","","12.9","","98.57","","","","","","Clear"
"1998-09-02 12:00","1998","09","02","12:00","21.6","","10.0","","48","","29","","19","","12.9","","98.53","","","","","","Mainly Clear"
"1998-09-02 13:00","1998","09","02","13:00","22.9","","9.7","","43","","29","","24","","16.1","","98.53","","","","","","Mainly Clear"
"1998-09-02 14:00","1998","09","02","14:00","23.6","","9.1","","40","","28","","28","","19.3","","98.50","","","","","","Mainly Clear"
"1998-09-02 15:00","1998","09","02","15:00","23.5","","9.2","","40","","29","","11","","19.3","","98.47","","","","","","Mainly Clear"
"1998-09-02 16:00","1998","09","02","16:00","23.7","","9.3","","40","","25","","20","","19.3","","98.43","","25","","","","Mainly Clear"
"1998-09-02 17:00","1998","09","02","17:00","23.5","","10.6","","44","","25","","24","","19.3","","98.43","","25","","","","Mostly Cloudy"
"1998-09-02 18:00","1998","09","02","18:00","21.9","","12.0","","53","","23","","19","","19.3","","98.43","","","","","","Mostly Cloudy"
"1998-09-02 19:00","1998","09","02","19:00","21.0","","12.9","","60","","23","","9","","19.3","","98.47","","","","","","Mostly Cloudy"
"1998-09-02 20:00","1998","09","02","20:00","20.8","","12.9","","61","","25","","13","","19.3","","98.53","","","","","","Mainly Clear"
"1998-09-02 21:00","1998","09","02","21:00","20.1","","10.9","","55","","30","","19","","19.3","","98.57","","","","","","Clear"
"1998-09-02 22:00","1998","09","02","22:00","19.1","","10.0","","56","","29","","20","","24.1","","98.60","","","","","","Mainly Clear"
"1998-09-02 23:00","1998","09","02","23:00","17.6","","10.2","","62","","28","","13","","24.1","","98.60","","","","","","Mostly Cloudy"
"1998-09-03 00:00","1998","09","03","00:00","16.7","","10.1","","65","","28","","15","","24.1","","98.63","","","","","","Mostly Cloudy"
"1998-09-03 01:00","1998","09","03","01:00","15.4","","10.4","","72","","27","","7","","24.1","","98.60","","","","","","Mainly Clear"
"1998-09-03 02:00","1998","09","03","02:00","15.2","","10.3","","73","","29","","15","","24.1","","98.60","","","","","","Mainly Clear"
"1998-09-03 03:00","1998","09","03","03:00","14.9","","10.1","","73","","29","","11","","24.1","","98.60","","","","","","Mainly Clear"
"1998-09-03 04:00","1998","09","03","04:00","14.5","","10.1","","75","","28","","6","","24.1","","98.66","","","","","","Mainly Clear"
"1998-09-03 05:00","1998","09","03","05:00","14.9","","10.4","","74","","27","","7","","24.1","","98.70","","","","","","Mostly Cloudy"
"1998-09-03 06:00","1998","09","03","06:00","14.8","","11.0","","78","","25","","4","","19.3","","98.76","","","","","","Mostly Cloudy"
"1998-09-03 07:00","1998","09","03","07:00","14.6","","11.7","","83","","24","","7","","11.3","","98.80","","","","","","Mostly Cloudy"
"1998-09-03 08:00","1998","09","03","08:00","16.3","","12.1","","76","","26","","2","","11.3","","98.83","","","","","","Mostly Cloudy"
"1998-09-03 09:00","1998","09","03","09:00","18.1","","11.8","","67","","23","","9","","16.1","","98.83","","","","","","Mostly Cloudy"
"1998-09-03 10:00","1998","09","03","10:00","20.2","","11.6","","58","","24","","17","","19.3","","98.83","","","","","","Mainly Clear"
"1998-09-03 11:00","1998","09","03","11:00","21.6","","9.7","","47","","24","","20","","24.1","","98.80","","","","","","Clear"
"1998-09-03 12:00","1998","09","03","12:00","22.5","","10.7","","47","","23","","24","","24.1","","98.80","","","","","","Mainly Clear"
"1998-09-03 13:00","1998","09","03","13:00","23.1","","10.7","","46","","23","","24","","16.1","","98.73","","25","","","","Mainly Clear"
"1998-09-03 14:00","1998","09","03","14:00","23.7","","11.5","","46","","24","","19","","12.9","","98.70","","26","","","","Mainly Clear"
"1998-09-03 15:00","1998","09","03","15:00","24.3","","11.1","","43","","23","","24","","16.1","","98.63","","26","","","","Mainly Clear"
"1998-09-03 16:00","1998","09","03","16:00","22.9","","12.4","","52","","22","","20","","19.3","","98.63","","25","","","","Mainly Clear"
"1998-09-03 17:00","1998","09","03","17:00","22.6","","12.2","","52","","21","","20","","19.3","","98.63","","25","","","","Mainly Clear"
"1998-09-03 18:00","1998","09","03","18:00","22.2","","12.9","","56","","19","","17","","17.7","","98.66","","25","","","","Mainly Clear"
"1998-09-03 19:00","1998","09","03","19:00","20.4","","13.2","","63","","19","","13","","16.1","","98.66","","","","","","Clear"
"1998-09-03 20:00","1998","09","03","20:00","19.3","","13.2","","68","","20","","13","","19.3","","98.73","","","","","","Clear"
"1998-09-03 21:00","1998","09","03","21:00","18.6","","13.3","","71","","20","","11","","19.3","","98.76","","","","","","Clear"
"1998-09-03 22:00","1998","09","03","22:00","17.9","","13.4","","75","","21","","11","","19.3","","98.80","","","","","","Clear"
"1998-09-03 23:00","1998","09","03","23:00","17.8","","13.4","","75","","21","","9","","19.3","","98.80","","","","","","Clear"
"1998-09-04 00:00","1998","09","04","00:00","17.3","","13.6","","79","","21","","9","","19.3","","98.80","","","","","","Clear"
"1998-09-04 01:00","1998","09","04","01:00","16.9","","13.8","","82","","21","","4","","19.3","","98.80","","","","","","Clear"
"1998-09-04 02:00","1998","09","04","02:00","16.3","","13.4","","83","","","","0","","19.3","","98.80","","","","","","Mainly Clear"
"1998-09-04 03:00","1998","09","04","03:00","16.9","","14.2","","84","","","","0","","16.1","","98.80","","","","","","Mostly Cloudy"
"1998-09-04 04:00","1998","09","04","04:00","16.6","","13.9","","84","","3","","6","","12.9","","98.86","","","","","","Mostly Cloudy"
"1998-09-04 05:00","1998","09","04","05:00","16.4","","13.1","","81","","5","","4","","12.9","","98.90","","","","","","Mainly Clear"
"1998-09-04 06:00","1998","09","04","06:00","15.5","","13.6","","88","","36","","9","","9.7","","98.96","","","","","","Fog"
"1998-09-04 07:00","1998","09","04","07:00","16.5","","14.3","","87","","5","","17","","19.3","","99.06","","","","","","Mainly Clear"
"1998-09-04 08:00","1998","09","04","08:00","18.5","","11.9","","65","","6","","19","","24.1","","99.13","","","","","","Clear"
"1998-09-04 09:00","1998","09","04","09:00","19.4","","12.4","","64","","6","","28","","24.1","","99.16","","","","","","Clear"
"1998-09-04 10:00","1998","09","04","10:00","20.2","","13.7","","66","","6","","19","","24.1","","99.23","","","","","","Mainly Clear"
"1998-09-04 11:00","1998","09","04","11:00","20.7","","13.4","","63","","7","","17","","24.1","","99.30","","","","","","Mainly Clear"
"1998-09-04 12:00","1998","09","04","12:00","21.8","","13.8","","60","","2","","17","","24.1","","99.23","","25","","","","Mainly Clear"
"1998-09-04 13:00","1998","09","04","13:00","22.6","","12.6","","53","","25","","15","","24.1","","99.23","","25","","","","Mainly Clear"
"1998-09-04 14:00","1998","09","04","14:00","22.9","","11.8","","50","","10","","7","","24.1","","99.23","","25","","","","Mainly Clear"
"1998-09-04 15:00","1998","09","04","15:00","24.0","","10.9","","44","","5","","9","","24.1","","99.16","","26","","","","Mainly Clear"
"1998-09-04 16:00","1998","09","04","16:00","25.5","","10.7","","39","","28","","7","","24.1","","99.20","","27","","","","Clear"
"1998-09-04 17:00","1998","09","04","17:00","24.3","","12.2","","47","","9","","6","","24.1","","99.23","","27","","","","Clear"
"1998-09-04 18:00","1998","09","04","18:00","24.7","","10.0","","39","","3","","11","","24.1","","99.30","","26","","","","Clear"
"1998-09-04 19:00","1998","09","04","19:00","21.9","","13.0","","57","","12","","7","","24.1","","99.33","","25","","","","Clear"
"1998-09-04 20:00","1998","09","04","20:00","20.6","","14.2","","67","","7","","17","","24.1","","99.43","","","","","","Clear"
"1998-09-04 21:00","1998","09","04","21:00","18.8","","14.3","","75","","9","","7","","24.1","","99.50","","","","","","Clear"
"1998-09-04 22:00","1998","09","04","22:00","18.0","","14.2","","78","","11","","6","","24.1","","99.53","","","","","","Clear"
"1998-09-04 23:00","1998","09","04","23:00","16.9","","13.4","","80","","12","","9","","24.1","","99.53","","","","","","Clear"
"1998-09-05 00:00","1998","09","05","00:00","16.1","","12.6","","80","","12","","6","","24.1","","99.56","","","","","","Clear"
"1998-09-05 01:00","1998","09","05","01:00","15.1","","12.5","","84","","","","0","","24.1","","99.63","","","","","","Clear"
"1998-09-05 02:00","1998","09","05","02:00","14.9","","12.3","","84","","","","0","","24.1","","99.63","","","","","","Clear"
"1998-09-05 03:00","1998","09","05","03:00","14.3","","12.2","","87","","","","0","","24.1","","99.63","","","","","","Clear"
"1998-09-05 04:00","1998","09","05","04:00","14.4","","12.1","","86","","","","0","","24.1","","99.66","","","","","","Clear"
"1998-09-05 05:00","1998","09","05","05:00","14.3","","12.3","","88","","","","0","","24.1","","99.70","","","","","","Clear"
"1998-09-05 06:00","1998","09","05","06:00","14.2","","12.3","","88","","","","0","","12.9","","99.70","","","","","","Clear"
"1998-09-05 07:00","1998","09","05","07:00","15.3","","13.6","","90","","23","","6","","12.9","","99.80","","","","","","Mainly Clear"
"1998-09-05 08:00","1998","09","05","08:00","18.6","","14.0","","75","","26","","11","","24.1","","99.83","","","","","","Clear"
"1998-09-05 09:00","1998","09","05","09:00","21.5","","14.7","","65","","24","","13","","24.1","","99.83","","25","","","","Clear"
"1998-09-05 10:00","1998","09","05","10:00","23.6","","14.4","","56","","24","","13","","24.1","","99.86","","27","","","","Clear"
"1998-09-05 11:00","1998","09","05","11:00","25.0","","13.4","","49","","23","","26","","24.1","","99.83","","28","","","","Clear"
"1998-09-05 12:00","1998","09","05","12:00","26.3","","14.4","","48","","25","","22","","24.1","","99.80","","30","","","","Mainly Clear"
"1998-09-05 13:00","1998","09","05","13:00","26.6","","15.0","","49","","23","","24","","24.1","","99.73","","31","","","","Mainly Clear"
"1998-09-05 14:00","1998","09","05","14:00","26.8","","15.6","","50","","23","","22","","24.1","","99.66","","31","","","","Mainly Clear"
"1998-09-05 15:00","1998","09","05","15:00","27.4","","15.6","","49","","19","","30","","24.1","","99.60","","32","","","","Mainly Clear"
"1998-09-05 16:00","1998","09","05","16:00","27.3","","15.3","","48","","21","","26","","24.1","","99.53","","31","","","","Mainly Clear"
"1998-09-05 17:00","1998","09","05","17:00","27.4","","15.6","","49","","22","","26","","24.1","","99.53","","32","","","","Mainly Clear"
"1998-09-05 18:00","1998","09","05","18:00","26.5","","16.1","","53","","20","","17","","24.1","","99.50","","31","","","","Mainly Clear"
"1998-09-05 19:00","1998","09","05","19:00","24.2","","16.3","","61","","21","","9","","19.3","","99.46","","29","","","","Mainly Clear"
"1998-09-05 20:00","1998","09","05","20:00","22.3","","17.0","","72","","21","","11","","24.1","","99.46","","28","","","","Clear"
"1998-09-05 21:00","1998","09","05","21:00","21.5","","17.0","","76","","21","","9","","24.1","","99.46","","27","","","","Mainly Clear"
"1998-09-05 22:00","1998","09","05","22:00","20.5","","17.5","","83","","21","","7","","24.1","","99.43","","26","","","","Clear"
"1998-09-05 23:00","1998","09","05","23:00","20.0","","17.0","","83","","22","","13","","24.1","","99.40","","25","","","","Clear"
"1998-09-06 00:00","1998","09","06","00:00","20.2","","17.4","","84","","21","","15","","24.1","","99.33","","26","","","","Clear"
"1998-09-06 01:00","1998","09","06","01:00","20.5","","17.1","","81","","21","","15","","24.1","","99.30","","26","","","","Clear"
"1998-09-06 02:00","1998","09","06","02:00","20.3","","17.1","","82","","21","","9","","24.1","","99.26","","26","","","","Clear"
"1998-09-06 03:00","1998","09","06","03:00","21.3","","16.7","","75","","22","","13","","24.1","","99.23","","26","","","","Clear"
"1998-09-06 04:00","1998","09","06","04:00","21.8","","17.5","","77","","24","","15","","19.3","","99.20","","27","","","","Mainly Clear"
"1998-09-06 05:00","1998","09","06","05:00","21.6","","17.7","","78","","24","","22","","16.1","","99.16","","27","","","","Mostly Cloudy"
"1998-09-06 06:00","1998","09","06","06:00","21.1","","17.9","","82","","24","","13","","8.0","","99.16","","27","","","","Haze"
"1998-09-06 07:00","1998","09","06","07:00","21.8","","18.1","","80","","26","","11","","9.7","","99.20","","28","","","","Haze"
"1998-09-06 08:00","1998","09","06","08:00","23.7","","18.2","","71","","26","","15","","12.9","","99.16","","30","","","","Mostly Cloudy"
"1998-09-06 09:00","1998","09","06","09:00","25.6","","19.1","","67","","28","","11","","12.9","","99.16","","32","","","","Mostly Cloudy"
"1998-09-06 10:00","1998","09","06","10:00","27.4","","19.8","","63","","26","","15","","12.9","","99.16","","35","","","","Mostly Cloudy"
"1998-09-06 11:00","1998","09","06","11:00","28.7","","20.8","","62","","26","","17","","12.9","","99.10","","37","","","","Mostly Cloudy"
"1998-09-06 12:00","1998","09","06","12:00","29.9","","21.3","","60","","26","","19","","12.9","","99.00","","39","","","","Mainly Clear"
"1998-09-06 13:00","1998","09","06","13:00","30.4","","21.2","","58","","24","","24","","12.9","","98.93","","39","","","","Mainly Clear"
"1998-09-06 14:00","1998","09","06","14:00","31.0","","21.4","","57","","26","","24","","12.9","","98.90","","40","","","","Mainly Clear"
"1998-09-06 15:00","1998","09","06","15:00","31.5","","21.6","","56","","21","","33","","12.9","","98.80","","40","","","","Mainly Clear"
"1998-09-06 16:00","1998","09","06","16:00","31.8","","21.7","","55","","24","","30","","12.9","","98.76","","41","","","","Mainly Clear"
"1998-09-06 17:00","1998","09","06","17:00","31.9","","20.6","","51","","27","","33","","16.1","","98.73","","40","","","","Mostly Cloudy"
"1998-09-06 18:00","1998","09","06","18:00","30.7","","21.0","","56","","26","","22","","16.1","","98.70","","39","","","","Cloudy"
"1998-09-06 19:00","1998","09","06","19:00","29.6","","21.3","","61","","26","","15","","12.9","","98.70","","38","","","","Cloudy"
"1998-09-06 20:00","1998","09","06","20:00","29.4","","19.1","","54","","25","","24","","16.1","","98.73","","36","","","","Cloudy"
"1998-09-06 21:00","1998","09","06","21:00","28.1","","19.2","","58","","27","","13","","16.1","","98.70","","35","","","","Mostly Cloudy"
"1998-09-06 22:00","1998","09","06","22:00","27.0","","19.7","","64","","28","","13","","12.9","","98.70","","34","","","","Mostly Cloudy"
"1998-09-06 23:00","1998","09","06","23:00","27.0","","20.3","","67","","31","","19","","12.9","","98.76","","35","","","","Cloudy"
"1998-09-07 00:00","1998","09","07","00:00","26.3","","20.8","","72","","36","","24","","16.1","","98.70","","35","","","","Mainly Clear"
"1998-09-07 01:00","1998","09","07","01:00","22.8","","17.1","","70","","3","","32","","16.1","","98.76","","28","","","","Cloudy"
"1998-09-07 02:00","1998","09","07","02:00","21.5","","15.0","","66","","4","","28","","24.1","","98.73","","25","","","","Mainly Clear"
"1998-09-07 03:00","1998","09","07","03:00","20.4","","14.6","","69","","5","","15","","24.1","","98.63","","","","","","Cloudy"
"1998-09-07 04:00","1998","09","07","04:00","20.1","","14.6","","71","","4","","20","","16.1","","98.66","","","","","","Thunderstorms"
"1998-09-07 05:00","1998","09","07","05:00","17.4","","16.1","","92","","11","","6","","16.1","","98.70","","","","","","Thunderstorms"
"1998-09-07 06:00","1998","09","07","06:00","17.0","","16.3","","96","","5","","13","","9.7","","98.63","","","","","","Fog"
"1998-09-07 07:00","1998","09","07","07:00","16.1","","15.6","","97","","2","","30","","4.8","","98.76","","","","","","Thunderstorms,Rain Showers,Fog"
"1998-09-07 08:00","1998","09","07","08:00","13.5","","11.9","","90","","1","","19","","16.1","","98.83","","","","","","Rain Showers"
"1998-09-07 09:00","1998","09","07","09:00","14.6","","13.1","","91","","","","0","","16.1","","98.73","","","","","","Rain Showers"
"1998-09-07 10:00","1998","09","07","10:00","15.6","","11.9","","79","","3","","9","","16.1","","98.73","","","","","","Cloudy"
"1998-09-07 11:00","1998","09","07","11:00","16.0","","11.4","","74","","35","","13","","19.3","","98.73","","","","","","Mostly Cloudy"
"1998-09-07 12:00","1998","09","07","12:00","17.8","","11.3","","66","","35","","15","","24.1","","98.66","","","","","","Mostly Cloudy"
"1998-09-07 13:00","1998","09","07","13:00","19.0","","12.3","","65","","35","","15","","24.1","","98.60","","","","","","Mostly Cloudy"
"1998-09-07 14:00","1998","09","07","14:00","20.6","","12.4","","59","","32","","13","","24.1","","98.57","","","","","","Mostly Cloudy"
"1998-09-07 15:00","1998","09","07","15:00","21.7","","10.5","","49","","32","","19","","24.1","","98.50","","","","","","Mainly Clear"
"1998-09-07 16:00","1998","09","07","16:00","22.8","","6.7","","35","","34","","22","","24.1","","98.50","","","","","","Mainly Clear"
"1998-09-07 17:00","1998","09","07","17:00","22.7","","5.3","","32","","35","","22","","24.1","","98.47","","","","","","Mainly Clear"
"1998-09-07 18:00","1998","09","07","18:00","20.1","","12.6","","62","","5","","30","","24.1","","98.50","","","","","","Mainly Clear"
"1998-09-07 19:00","1998","09","07","19:00","19.1","","9.5","","54","","2","","20","","24.1","","98.57","","","","","","Mainly Clear"
"1998-09-07 20:00","1998","09","07","20:00","19.1","","7.6","","47","","1","","26","","24.1","","98.63","","","","","","Mostly Cloudy"
"1998-09-07 21:00","1998","09","07","21:00","17.9","","7.9","","52","","1","","17","","24.1","","98.66","","","","","","Mostly Cloudy"
"1998-09-07 22:00","1998","09","07","22:00","15.7","","8.7","","63","","1","","15","","24.1","","98.70","","","","","","Mainly Clear"
"1998-09-07 23:00","1998","09","07","23:00","15.1","","9.0","","67","","1","","11","","24.1","","98.70","","","","","","Mainly Clear"
"1998-09-08 00:00","1998","09","08","00:00","14.9","","9.3","","69","","36","","11","","24.1","","98.70","","","","","","Clear"
"1998-09-08 01:00","1998","09","08","01:00","14.7","","8.8","","68","","34","","19","","24.1","","98.70","","","","","","Clear"
"1998-09-08 02:00","1998","09","08","02:00","14.2","","8.4","","68","","34","","20","","24.1","","98.70","","","","","","Clear"
"1998-09-08 03:00","1998","09","08","03:00","13.9","","8.4","","69","","34","","26","","24.1","","98.70","","","","","","Clear"
"1998-09-08 04:00","1998","09","08","04:00","13.5","","8.4","","71","","33","","20","","24.1","","98.70","","","","","","Clear"
"1998-09-08 05:00","1998","09","08","05:00","12.8","","8.6","","76","","33","","26","","24.1","","98.73","","","","","","Mainly Clear"
"1998-09-08 06:00","1998","09","08","06:00","12.5","","8.6","","77","","33","","28","","24.1","","98.80","","","","","","Mainly Clear"
"1998-09-08 07:00","1998","09","08","07:00","12.7","","9.1","","79","","33","","30","","24.1","","98.83","","","","","","Mainly Clear"
"1998-09-08 08:00","1998","09","08","08:00","13.8","","9.3","","74","","35","","28","","24.1","","98.86","","","","","","Mainly Clear"
"1998-09-08 09:00","1998","09","08","09:00","14.4","","8.4","","67","","34","","33","","24.1","","98.90","","","","","","Mainly Clear"
"1998-09-08 10:00","1998","09","08","10:00","16.0","","8.4","","61","","35","","37","","24.1","","98.93","","","","","","Mainly Clear"
"1998-09-08 11:00","1998","09","08","11:00","16.7","","7.5","","55","","33","","33","","24.1","","99.00","","","","","","Mostly Cloudy"
"1998-09-08 12:00","1998","09","08","12:00","17.4","","7.2","","51","","36","","26","","24.1","","98.96","","","","","","Mostly Cloudy"
"1998-09-08 13:00","1998","09","08","13:00","12.8","","10.1","","84","","1","","24","","12.9","","99.13","","","","","","Rain Showers"
"1998-09-08 14:00","1998","09","08","14:00","14.4","","11.1","","81","","36","","11","","24.1","","99.10","","","","","","Mostly Cloudy"
"1998-09-08 15:00","1998","09","08","15:00","13.0","","9.8","","81","","35","","24","","19.3","","99.06","","","","","","Rain Showers"
"1998-09-08 16:00","1998","09","08","16:00","15.7","","10.0","","69","","34","","35","","24.1","","99.10","","","","","","Mainly Clear"
"1998-09-08 17:00","1998","09","08","17:00","16.6","","7.8","","56","","34","","39","","24.1","","99.13","","","","","","Mainly Clear"
"1998-09-08 18:00","1998","09","08","18:00","15.2","","9.1","","67","","36","","26","","24.1","","99.16","","","","","","Rain Showers"
"1998-09-08 19:00","1998","09","08","19:00","14.8","","8.8","","67","","35","","17","","24.1","","99.20","","","","","","Mainly Clear"
"1998-09-08 20:00","1998","09","08","20:00","14.4","","7.3","","62","","36","","15","","25.0","","99.26","","","","","","Clear"
"1998-09-08 21:00","1998","09","08","21:00","13.8","","6.8","","63","","35","","17","","25.0","","99.26","","","","","","Mainly Clear"
"1998-09-08 22:00","1998","09","08","22:00","13.3","","7.2","","67","","34","","17","","25.0","","99.33","","","","","","Mainly Clear"
"1998-09-08 23:00","1998","09","08","23:00","13.5","","7.3","","66","","34","","17","","24.1","","99.33","","","","","","Mainly Clear"
"1998-09-09 00:00","1998","09","09","00:00","13.1","","7.7","","70","","33","","17","","24.1","","99.36","","","","","","Mostly Cloudy"
"1998-09-09 01:00","1998","09","09","01:00","13.9","","7.9","","67","","33","","24","","24.1","","99.33","","","","","","Mostly Cloudy"
"1998-09-09 02:00","1998","09","09","02:00","12.8","","7.9","","72","","30","","15","","24.1","","99.33","","","","","","Mainly Clear"
"1998-09-09 03:00","1998","09","09","03:00","12.8","","8.4","","75","","33","","17","","24.1","","99.36","","","","","","Mainly Clear"
"1998-09-09 04:00","1998","09","09","04:00","13.2","","9.2","","77","","33","","24","","24.1","","99.40","","","","","","Mostly Cloudy"
"1998-09-09 05:00","1998","09","09","05:00","13.1","","9.5","","79","","33","","22","","24.1","","99.43","","","","","","Mostly Cloudy"
"1998-09-09 06:00","1998","09","09","06:00","12.5","","9.5","","82","","33","","20","","24.1","","99.50","","","","","","Mainly Clear"
"1998-09-09 07:00","1998","09","09","07:00","12.6","","9.9","","84","","33","","22","","24.1","","99.56","","","","","","Mainly Clear"
"1998-09-09 08:00","1998","09","09","08:00","13.6","","9.7","","77","","34","","30","","24.1","","99.60","","","","","","Mainly Clear"
"1998-09-09 09:00","1998","09","09","09:00","14.9","","9.2","","69","","34","","26","","24.1","","99.60","","","","","","Mainly Clear"
"1998-09-09 10:00","1998","09","09","10:00","15.8","","9.1","","64","","34","","26","","24.1","","99.66","","","","","","Mostly Cloudy"
"1998-09-09 11:00","1998","09","09","11:00","17.0","","9.3","","60","","36","","30","","24.1","","99.66","","","","","","Mostly Cloudy"
"1998-09-09 12:00","1998","09","09","12:00","16.7","","8.8","","60","","33","","26","","24.1","","99.66","","","","","","Mostly Cloudy"
"1998-09-09 13:00","1998","09","09","13:00","18.2","","9.0","","55","","35","","26","","24.1","","99.66","","","","","","Mostly Cloudy"
"1998-09-09 14:00","1998","09","09","14:00","19.3","","8.0","","48","","1","","28","","24.1","","99.63","","","","","","Mostly Cloudy"
"1998-09-09 15:00","1998","09","09","15:00","19.7","","7.8","","46","","34","","19","","25.0","","99.60","","","","","","Mainly Clear"
"1998-09-09 16:00","1998","09","09","16:00","20.2","","7.6","","44","","32","","20","","25.0","","99.56","","","","","","Mainly Clear"
"1998-09-09 17:00","1998","09","09","17:00","20.2","","7.1","","43","","34","","26","","25.0","","99.60","","","","","","Mainly Clear"
"1998-09-09 18:00","1998","09","09","18:00","19.5","","5.9","","41","","35","","24","","25.0","","99.60","","","","","","Mainly Clear"
"1998-09-09 19:00","1998","09","09","19:00","17.8","","4.9","","43","","36","","13","","25.0","","99.63","","","","","","Mainly Clear"
"1998-09-09 20:00","1998","09","09","20:00","15.8","","6.3","","53","","","","0","","25.0","","99.63","","","","","","Mainly Clear"
"1998-09-09 21:00","1998","09","09","21:00","14.6","","7.6","","63","","","","0","","25.0","","99.63","","","","","","Mainly Clear"
"1998-09-09 22:00","1998","09","09","22:00","13.8","","7.9","","68","","18","","4","","25.0","","99.70","","","","","","Clear"
"1998-09-09 23:00","1998","09","09","23:00","13.5","","8.1","","70","","17","","9","","24.1","","99.70","","","","","","Clear"
"1998-09-10 00:00","1998","09","10","00:00","12.7","","9.7","","82","","18","","6","","24.1","","99.76","","","","","","Clear"
"1998-09-10 01:00","1998","09","10","01:00","11.1","","9.0","","87","","17","","4","","24.1","","99.83","","","","","","Clear"
"1998-09-10 02:00","1998","09","10","02:00","11.2","","9.1","","87","","19","","4","","24.1","","99.83","","","","","","Clear"
"1998-09-10 03:00","1998","09","10","03:00","11.5","","9.2","","86","","23","","4","","24.1","","99.83","","","","","","Clear"
"1998-09-10 04:00","1998","09","10","04:00","10.9","","9.0","","88","","","","0","","24.1","","99.86","","","","","","Clear"
"1998-09-10 05:00","1998","09","10","05:00","10.4","","8.8","","90","","","","0","","24.1","","99.86","","","","","","Clear"
"1998-09-10 06:00","1998","09","10","06:00","10.8","","9.1","","89","","26","","4","","24.1","","99.90","","","","","","Mainly Clear"
"1998-09-10 07:00","1998","09","10","07:00","12.4","","10.4","","88","","29","","6","","12.9","","99.96","","","","","","Mainly Clear"
"1998-09-10 08:00","1998","09","10","08:00","15.5","","11.0","","75","","29","","4","","11.3","","99.99","","","","","","Mainly Clear"
"1998-09-10 09:00","1998","09","10","09:00","17.8","","10.0","","60","","27","","6","","16.1","","99.99","","","","","","Mostly Cloudy"
"1998-09-10 10:00","1998","09","10","10:00","19.6","","8.5","","49","","29","","7","","19.3","","99.99","","","","","","Mainly Clear"
"1998-09-10 11:00","1998","09","10","11:00","21.1","","6.1","","38","","32","","13","","24.1","","99.99","","","","","","Mainly Clear"
"1998-09-10 12:00","1998","09","10","12:00","22.1","","6.3","","36","","31","","7","","24.1","","99.93","","","","","","Mainly Clear"
"1998-09-10 13:00","1998","09","10","13:00","22.1","","5.9","","35","","34","","6","","24.1","","99.90","","","","","","Mainly Clear"
"1998-09-10 14:00","1998","09","10","14:00","23.2","","5.3","","31","","30","","11","","24.1","","99.83","","","","","","Mainly Clear"
"1998-09-10 15:00","1998","09","10","15:00","24.1","","5.4","","30","","29","","13","","24.1","","99.76","","","","","","Mainly Clear"
"1998-09-10 16:00","1998","09","10","16:00","24.2","","5.0","","29","","23","","11","","24.1","","99.70","","","","","","Mainly Clear"
"1998-09-10 17:00","1998","09","10","17:00","23.9","","7.3","","34","","24","","17","","24.1","","99.66","","","","","","Mainly Clear"
"1998-09-10 18:00","1998","09","10","18:00","21.8","","10.5","","49","","22","","17","","24.1","","99.66","","","","","","Mainly Clear"
"1998-09-10 19:00","1998","09","10","19:00","19.6","","11.5","","59","","22","","15","","24.1","","99.60","","","","","","Mainly Clear"
"1998-09-10 20:00","1998","09","10","20:00","18.2","","11.9","","67","","21","","9","","24.1","","99.63","","","","","","Clear"
"1998-09-10 21:00","1998","09","10","21:00","17.5","","11.8","","69","","24","","9","","24.1","","99.63","","","","","","Clear"
"1998-09-10 22:00","1998","09","10","22:00","17.5","","10.7","","64","","24","","11","","24.1","","99.63","","","","","","Clear"
"1998-09-10 23:00","1998","09","10","23:00","16.6","","10.4","","67","","22","","11","","24.1","","99.63","","","","","","Clear"
"1998-09-11 00:00","1998","09","11","00:00","16.2","","10.0","","67","","22","","11","","24.1","","99.60","","","","","","Clear"
"1998-09-11 01:00","1998","09","11","01:00","16.3","","9.6","","64","","25","","7","","24.1","","99.60","","","","","","Mainly Clear"
"1998-09-11 02:00","1998","09","11","02:00","16.2","","9.7","","65","","24","","13","","24.1","","99.56","","","","","","Mainly Clear"
"1998-09-11 03:00","1998","09","11","03:00","16.5","","10.2","","66","","24","","15","","24.1","","99.56","","","","","","Rain Showers"
"1998-09-11 04:00","1998","09","11","04:00","15.7","","10.6","","72","","23","","11","","24.1","","99.56","","","","","","Mostly Cloudy"
"1998-09-11 05:00","1998","09","11","05:00","15.6","","10.9","","74","","24","","11","","24.1","","99.56","","","","","","Mainly Clear"
"1998-09-11 06:00","1998","09","11","06:00","16.0","","10.5","","70","","24","","17","","24.1","","99.56","","","","","","Mainly Clear"
"1998-09-11 07:00","1998","09","11","07:00","15.9","","10.8","","72","","24","","19","","19.3","","99.60","","","","","","Clear"
"1998-09-11 08:00","1998","09","11","08:00","18.3","","11.3","","64","","26","","17","","19.3","","99.56","","","","","","Clear"
"1998-09-11 09:00","1998","09","11","09:00","20.5","","11.6","","57","","26","","20","","24.1","","99.53","","","","","","Clear"
"1998-09-11 10:00","1998","09","11","10:00","22.6","","11.9","","51","","27","","30","","24.1","","99.50","","25","","","","Mainly Clear"
"1998-09-11 11:00","1998","09","11","11:00","23.9","","12.5","","49","","27","","26","","24.1","","99.46","","26","","","","Mainly Clear"
"1998-09-11 12:00","1998","09","11","12:00","26.6","","12.5","","42","","28","","24","","24.1","","99.40","","29","","","","Mainly Clear"
"1998-09-11 13:00","1998","09","11","13:00","27.8","","11.8","","37","","26","","33","","24.1","","99.30","","30","","","","Mainly Clear"
"1998-09-11 14:00","1998","09","11","14:00","28.6","","11.6","","35","","26","","32","","24.1","","99.23","","31","","","","Mainly Clear"
"1998-09-11 15:00","1998","09","11","15:00","29.0","","11.9","","35","","24","","24","","24.1","","99.13","","31","","","","Mainly Clear"
"1998-09-11 16:00","1998","09","11","16:00","29.1","","11.4","","33","","26","","26","","24.1","","99.13","","31","","","","Mainly Clear"
"1998-09-11 17:00","1998","09","11","17:00","28.4","","12.3","","37","","25","","28","","24.1","","99.13","","31","","","","Mainly Clear"
"1998-09-11 18:00","1998","09","11","18:00","26.9","","13.0","","42","","24","","24","","24.1","","99.13","","30","","","","Mainly Clear"
"1998-09-11 19:00","1998","09","11","19:00","25.2","","12.9","","46","","24","","22","","20.9","","99.16","","28","","","","Mainly Clear"
"1998-09-11 20:00","1998","09","11","20:00","24.0","","12.6","","49","","24","","17","","24.1","","99.16","","27","","","","Mainly Clear"
"1998-09-11 21:00","1998","09","11","21:00","23.1","","12.5","","51","","25","","20","","24.1","","99.16","","26","","","","Mainly Clear"
"1998-09-11 22:00","1998","09","11","22:00","22.2","","12.5","","54","","25","","15","","24.1","","99.16","","25","","","","Mainly Clear"
"1998-09-11 23:00","1998","09","11","23:00","21.3","","12.6","","58","","25","","13","","24.1","","99.20","","","","","","Clear"
"1998-09-12 00:00","1998","09","12","00:00","19.4","","12.8","","66","","24","","15","","24.1","","99.16","","","","","","Mainly Clear"
"1998-09-12 01:00","1998","09","12","01:00","18.0","","12.7","","71","","24","","11","","24.1","","99.13","","","","","","Clear"
"1998-09-12 02:00","1998","09","12","02:00","17.3","","12.5","","73","","23","","13","","24.1","","99.13","","","","","","Clear"
"1998-09-12 03:00","1998","09","12","03:00","17.2","","12.3","","73","","24","","13","","24.1","","99.13","","","","","","Clear"
"1998-09-12 04:00","1998","09","12","04:00","16.5","","12.4","","77","","24","","15","","24.1","","99.10","","","","","","Clear"
"1998-09-12 05:00","1998","09","12","05:00","16.0","","12.3","","79","","23","","15","","24.1","","99.13","","","","","","Clear"
"1998-09-12 06:00","1998","09","12","06:00","16.1","","12.2","","78","","25","","19","","12.9","","99.13","","","","","","Mainly Clear"
"1998-09-12 07:00","1998","09","12","07:00","16.6","","12.1","","75","","26","","15","","12.9","","99.16","","","","","","Mainly Clear"
"1998-09-12 08:00","1998","09","12","08:00","18.9","","12.9","","68","","29","","17","","16.1","","99.23","","","","","","Mainly Clear"
"1998-09-12 09:00","1998","09","12","09:00","22.1","","13.5","","58","","30","","20","","16.1","","99.20","","25","","","","Mainly Clear"
"1998-09-12 10:00","1998","09","12","10:00","24.1","","14.5","","55","","28","","19","","16.1","","99.16","","28","","","","Mainly Clear"
"1998-09-12 11:00","1998","09","12","11:00","25.8","","15.2","","52","","27","","17","","12.9","","99.10","","30","","","","Mainly Clear"
"1998-09-12 12:00","1998","09","12","12:00","27.5","","16.1","","50","","27","","17","","16.1","","99.13","","32","","","","Mainly Clear"
"1998-09-12 13:00","1998","09","12","13:00","28.7","","16.2","","47","","26","","19","","16.1","","99.06","","33","","","","Mostly Cloudy"
"1998-09-12 14:00","1998","09","12","14:00","29.7","","16.9","","46","","26","","17","","16.1","","99.03","","35","","","","Mostly Cloudy"
"1998-09-12 15:00","1998","09","12","15:00","30.7","","16.8","","43","","28","","9","","16.1","","99.00","","36","","","","Mostly Cloudy"
"1998-09-12 16:00","1998","09","12","16:00","29.9","","16.4","","44","","32","","20","","16.1","","99.00","","35","","","","Mostly Cloudy"
"1998-09-12 17:00","1998","09","12","17:00","29.1","","17.3","","49","","36","","15","","16.1","","99.00","","35","","","","Mostly Cloudy"
"1998-09-12 18:00","1998","09","12","18:00","25.8","","17.4","","60","","8","","9","","12.9","","99.03","","31","","","","Mostly Cloudy"
"1998-09-12 19:00","1998","09","12","19:00","23.1","","18.1","","73","","7","","11","","11.3","","99.10","","29","","","","Mostly Cloudy"
"1998-09-12 20:00","1998","09","12","20:00","21.2","","18.4","","84","","6","","17","","8.0","","99.16","","28","","","","Haze"
"1998-09-12 21:00","1998","09","12","21:00","20.0","","17.7","","87","","6","","7","","16.1","","99.16","","26","","","","Mainly Clear"
"1998-09-12 22:00","1998","09","12","22:00","19.5","","17.7","","89","","6","","7","","16.1","","99.16","","","","","","Mainly Clear"
"1998-09-12 23:00","1998","09","12","23:00","19.8","","17.9","","89","","4","","13","","16.1","","99.20","","","","","","Mainly Clear"
"1998-09-13 00:00","1998","09","13","00:00","19.3","","17.7","","90","","4","","9","","16.1","","99.20","","","","","","Mainly Clear"
"1998-09-13 01:00","1998","09","13","01:00","19.1","","17.5","","90","","8","","7","","12.9","","99.20","","","","","","Mainly Clear"
"1998-09-13 02:00","1998","09","13","02:00","18.0","","17.0","","94","","5","","7","","12.9","","99.16","","","","","","Clear"
"1998-09-13 03:00","1998","09","13","03:00","17.9","","16.9","","94","","5","","7","","12.9","","99.16","","","","","","Mainly Clear"
"1998-09-13 04:00","1998","09","13","04:00","18.1","","17.2","","94","","9","","4","","8.0","","99.13","","","","","","Fog"
"1998-09-13 05:00","1998","09","13","05:00","17.3","","16.7","","96","","","","0","","6.4","","99.13","","","","","","Fog"
"1998-09-13 06:00","1998","09","13","06:00","17.0","","16.6","","97","","","","0","","6.4","","99.16","","","","","","Fog"
"1998-09-13 07:00","1998","09","13","07:00","16.7","","16.3","","97","","","","0","","2.4","","99.23","","","","","","Fog"
"1998-09-13 08:00","1998","09","13","08:00","19.5","","18.0","","91","","","","0","","11.3","","99.26","","","","","","Mainly Clear"
"1998-09-13 09:00","1998","09","13","09:00","22.6","","19.1","","81","","","","0","","16.1","","99.30","","29","","","","Mostly Cloudy"
"1998-09-13 10:00","1998","09","13","10:00","24.0","","18.3","","70","","2","","2","","16.1","","99.30","","30","","","","Mainly Clear"
"1998-09-13 11:00","1998","09","13","11:00","27.8","","17.0","","52","","2","","4","","16.1","","99.26","","33","","","","Mostly Cloudy"
"1998-09-13 12:00","1998","09","13","12:00","26.8","","19.2","","63","","5","","11","","16.1","","99.23","","34","","","","Mostly Cloudy"
"1998-09-13 13:00","1998","09","13","13:00","29.1","","18.1","","52","","12","","9","","19.3","","99.20","","35","","","","Mainly Clear"
"1998-09-13 14:00","1998","09","13","14:00","30.7","","14.7","","38","","21","","13","","19.3","","99.13","","34","","","","Mostly Cloudy"
"1998-09-13 15:00","1998","09","13","15:00","30.4","","15.2","","40","","20","","6","","19.3","","99.10","","34","","","","Clear"
"1998-09-13 16:00","1998","09","13","16:00","30.1","","15.3","","41","","17","","17","","16.1","","99.06","","34","","","","Clear"
"1998-09-13 17:00","1998","09","13","17:00","29.6","","16.2","","44","","21","","22","","14.5","","99.06","","34","","","","Clear"
"1998-09-13 18:00","1998","09","13","18:00","28.4","","16.5","","48","","21","","13","","12.9","","99.10","","33","","","","Clear"
"1998-09-13 19:00","1998","09","13","19:00","24.5","","16.5","","61","","18","","6","","11.3","","99.10","","29","","","","Mainly Clear"
"1998-09-13 20:00","1998","09","13","20:00","23.1","","15.3","","61","","19","","15","","16.1","","99.16","","27","","","","Mainly Clear"
"1998-09-13 21:00","1998","09","13","21:00","22.0","","15.6","","67","","19","","7","","19.3","","99.20","","26","","","","Clear"
"1998-09-13 22:00","1998","09","13","22:00","21.4","","16.7","","75","","19","","9","","19.3","","99.20","","26","","","","Mainly Clear"
"1998-09-13 23:00","1998","09","13","23:00","20.4","","17.7","","84","","16","","6","","16.1","","99.23","","26","","","","Mainly Clear"
"1998-09-14 00:00","1998","09","14","00:00","20.5","","17.5","","83","","20","","9","","16.1","","99.20","","26","","","","Mainly Clear"
"1998-09-14 01:00","1998","09","14","01:00","20.4","","17.1","","81","","16","","4","","16.1","","99.20","","26","","","","Mostly Cloudy"
"1998-09-14 02:00","1998","09","14","02:00","19.8","","17.4","","86","","23","","6","","12.9","","99.16","","","","","","Mostly Cloudy"
"1998-09-14 03:00","1998","09","14","03:00","19.0","","17.1","","89","","","","0","","16.1","","99.16","","","","","","Mainly Clear"
"1998-09-14 04:00","1998","09","14","04:00","17.1","","15.9","","93","","7","","4","","8.0","","99.16","","","","","","Fog"
"1998-09-14 05:00","1998","09","14","05:00","17.9","","16.6","","92","","","","0","","9.7","","99.20","","","","","","Fog"
"1998-09-14 06:00","1998","09","14","06:00","17.9","","16.6","","92","","14","","4","","4.8","","99.20","","","","","","Fog"
"1998-09-14 07:00","1998","09","14","07:00","18.5","","16.9","","90","","","","0","","3.6","","99.26","","","","","","Fog"
"1998-09-14 08:00","1998","09","14","08:00","21.8","","19.2","","85","","","","0","","3.2","","99.26","","29","","","","Haze"
"1998-09-14 09:00","1998","09","14","09:00","24.6","","18.9","","71","","","","0","","4.0","","99.30","","31","","","","Haze"
"1998-09-14 10:00","1998","09","14","10:00","25.6","","19.1","","67","","19","","9","","9.7","","99.30","","32","","","","Haze"
"1998-09-14 11:00","1998","09","14","11:00","26.2","","18.9","","64","","20","","19","","9.7","","99.33","","33","","","","Haze"
"1998-09-14 12:00","1998","09","14","12:00","27.4","","17.0","","53","","22","","13","","12.9","","99.26","","33","","","","Cloudy"
"1998-09-14 13:00","1998","09","14","13:00","28.6","","16.0","","46","","22","","13","","11.3","","99.20","","33","","","","Cloudy"
"1998-09-14 14:00","1998","09","14","14:00","28.0","","16.7","","50","","19","","9","","11.3","","99.16","","33","","","","Cloudy"
"1998-09-14 15:00","1998","09","14","15:00","27.7","","16.2","","50","","17","","15","","11.3","","99.10","","32","","","","Cloudy"
"1998-09-14 16:00","1998","09","14","16:00","27.8","","17.3","","53","","16","","17","","11.3","","99.06","","33","","","","Mostly Cloudy"
"1998-09-14 17:00","1998","09","14","17:00","27.6","","17.0","","52","","17","","11","","9.7","","99.03","","33","","","","Haze"
"1998-09-14 18:00","1998","09","14","18:00","26.7","","17.6","","57","","17","","11","","9.7","","99.06","","32","","","","Haze"
"1998-09-14 19:00","1998","09","14","19:00","25.4","","18.4","","65","","16","","11","","9.7","","99.03","","32","","","","Haze"
"1998-09-14 20:00","1998","09","14","20:00","24.5","","19.0","","71","","18","","11","","11.3","","99.06","","31","","","","Cloudy"
"1998-09-14 21:00","1998","09","14","21:00","24.8","","19.5","","72","","19","","7","","11.3","","99.06","","32","","","","Cloudy"
"1998-09-14 22:00","1998","09","14","22:00","24.3","","19.3","","74","","20","","7","","11.3","","99.03","","31","","","","Cloudy"
"1998-09-14 23:00","1998","09","14","23:00","24.5","","19.5","","74","","22","","15","","9.7","","99.03","","32","","","","Haze"
"1998-09-15 00:00","1998","09","15","00:00","24.0","","19.5","","76","","22","","13","","9.7","","99.00","","31","","","","Haze"
"1998-09-15 01:00","1998","09","15","01:00","23.7","","19.0","","75","","22","","11","","9.7","","99.00","","30","","","","Haze"
"1998-09-15 02:00","1998","09","15","02:00","23.3","","18.7","","75","","21","","9","","9.7","","98.96","","30","","","","Haze"
"1998-09-15 03:00","1998","09","15","03:00","23.3","","18.2","","73","","21","","11","","11.3","","98.93","","29","","","","Cloudy"
"1998-09-15 04:00","1998","09","15","04:00","22.9","","18.1","","74","","22","","11","","11.3","","98.93","","29","","","","Cloudy"
"1998-09-15 05:00","1998","09","15","05:00","22.9","","17.7","","73","","23","","13","","11.3","","98.96","","29","","","","Cloudy"
"1998-09-15 06:00","1998","09","15","06:00","22.9","","17.9","","73","","22","","15","","11.3","","99.00","","29","","","","Mostly Cloudy"
"1998-09-15 07:00","1998","09","15","07:00","23.0","","18.2","","74","","21","","17","","12.9","","99.06","","29","","","","Rain Showers"
"1998-09-15 08:00","1998","09","15","08:00","24.2","","17.9","","68","","24","","19","","12.9","","99.06","","30","","","","Mostly Cloudy"
"1998-09-15 09:00","1998","09","15","09:00","25.6","","17.5","","61","","24","","33","","16.1","","99.10","","31","","","","Mostly Cloudy"
"1998-09-15 10:00","1998","09","15","10:00","25.2","","17.6","","63","","23","","28","","24.1","","99.13","","31","","","","Cloudy"
"1998-09-15 11:00","1998","09","15","11:00","24.7","","18.1","","67","","23","","30","","24.1","","99.13","","31","","","","Mostly Cloudy"
"1998-09-15 12:00","1998","09","15","12:00","25.7","","18.7","","65","","22","","33","","24.1","","99.13","","32","","","","Mostly Cloudy"
"1998-09-15 13:00","1998","09","15","13:00","26.5","","18.4","","61","","24","","33","","24.1","","99.13","","33","","","","Mostly Cloudy"
"1998-09-15 14:00","1998","09","15","14:00","27.1","","18.7","","60","","26","","30","","24.1","","99.13","","34","","","","Mostly Cloudy"
"1998-09-15 15:00","1998","09","15","15:00","26.6","","18.9","","63","","26","","22","","24.1","","99.13","","33","","","","Mostly Cloudy"
"1998-09-15 16:00","1998","09","15","16:00","23.5","","20.9","","85","","27","","11","","19.3","","99.20","","32","","","","Rain Showers"
"1998-09-15 17:00","1998","09","15","17:00","24.1","","20.0","","78","","25","","19","","19.3","","99.23","","32","","","","Mostly Cloudy"
"1998-09-15 18:00","1998","09","15","18:00","24.6","","19.8","","75","","27","","11","","16.1","","99.26","","32","","","","Cloudy"
"1998-09-15 19:00","1998","09","15","19:00","22.3","","20.7","","91","","29","","17","","9.7","","99.36","","30","","","","Rain Showers"
"1998-09-15 20:00","1998","09","15","20:00","21.7","","20.8","","95","","28","","15","","9.7","","99.40","","30","","","","Rain Showers"
"1998-09-15 21:00","1998","09","15","21:00","19.5","","18.6","","95","","3","","19","","4.8","","99.50","","","","","","Moderate Rain Showers"
"1998-09-15 22:00","1998","09","15","22:00","19.8","","19.0","","95","","5","","7","","4.8","","99.53","","","","","","Rain Showers"
"1998-09-15 23:00","1998","09","15","23:00","19.6","","19.0","","96","","4","","9","","3.2","","99.53","","","","","","Rain,Fog"
"1998-09-16 00:00","1998","09","16","00:00","19.7","","19.1","","96","","2","","15","","3.2","","99.53","","","","","","Rain,Fog"
"1998-09-16 01:00","1998","09","16","01:00","19.5","","18.7","","95","","1","","13","","6.4","","99.60","","","","","","Rain,Fog"
"1998-09-16 02:00","1998","09","16","02:00","19.4","","18.6","","95","","2","","13","","6.4","","99.60","","","","","","Rain,Fog"
"1998-09-16 03:00","1998","09","16","03:00","19.4","","18.6","","95","","2","","19","","8.0","","99.63","","","","","","Fog"
"1998-09-16 04:00","1998","09","16","04:00","19.7","","18.2","","91","","1","","22","","9.7","","99.66","","","","","","Fog"
"1998-09-16 05:00","1998","09","16","05:00","19.5","","18.0","","91","","2","","19","","11.3","","99.70","","","","","","Cloudy"
"1998-09-16 06:00","1998","09","16","06:00","19.4","","17.8","","90","","2","","17","","12.9","","99.70","","","","","","Cloudy"
"1998-09-16 07:00","1998","09","16","07:00","19.6","","17.6","","88","","2","","19","","24.1","","99.73","","","","","","Mostly Cloudy"
"1998-09-16 08:00","1998","09","16","08:00","19.8","","17.5","","87","","5","","19","","24.1","","99.80","","","","","","Cloudy"
"1998-09-16 09:00","1998","09","16","09:00","20.0","","17.3","","84","","6","","19","","24.1","","99.83","","25","","","","Cloudy"
"1998-09-16 10:00","1998","09","16","10:00","20.1","","17.4","","84","","6","","17","","24.1","","99.86","","26","","","","Cloudy"
"1998-09-16 11:00","1998","09","16","11:00","20.4","","17.2","","82","","5","","20","","24.1","","99.83","","26","","","","Mostly Cloudy"
"1998-09-16 12:00","1998","09","16","12:00","20.7","","17.1","","80","","5","","19","","24.1","","99.83","","26","","","","Mostly Cloudy"
"1998-09-16 13:00","1998","09","16","13:00","21.4","","17.1","","76","","6","","15","","24.1","","99.83","","27","","","","Mostly Cloudy"
"1998-09-16 14:00","1998","09","16","14:00","21.7","","17.0","","75","","7","","17","","24.1","","99.76","","27","","","","Mostly Cloudy"
"1998-09-16 15:00","1998","09","16","15:00","22.4","","17.5","","74","","11","","11","","19.3","","99.73","","28","","","","Mostly Cloudy"
"1998-09-16 16:00","1998","09","16","16:00","22.5","","17.9","","75","","12","","11","","19.3","","99.66","","28","","","","Mostly Cloudy"
"1998-09-16 17:00","1998","09","16","17:00","21.8","","17.8","","78","","8","","9","","19.3","","99.66","","28","","","","Mostly Cloudy"
"1998-09-16 18:00","1998","09","16","18:00","21.1","","17.7","","81","","13","","7","","19.3","","99.66","","27","","","","Mostly Cloudy"
"1998-09-16 19:00","1998","09","16","19:00","19.5","","17.6","","89","","16","","4","","11.3","","99.63","","","","","","Mainly Clear"
"1998-09-16 20:00","1998","09","16","20:00","19.0","","17.5","","91","","21","","4","","11.3","","99.70","","","","","","Mostly Cloudy"
"1998-09-16 21:00","1998","09","16","21:00","18.5","","17.4","","93","","","","0","","11.3","","99.73","","","","","","Mainly Clear"
"1998-09-16 22:00","1998","09","16","22:00","17.4","","16.7","","96","","7","","2","","6.4","","99.76","","","","","","Fog"
"1998-09-16 23:00","1998","09","16","23:00","17.3","","16.8","","97","","","","0","","9.7","","99.73","","","","","","Fog"
"1998-09-17 00:00","1998","09","17","00:00","16.6","","16.3","","98","","","","0","","2.4","","99.70","","","","","","Fog"
"1998-09-17 01:00","1998","09","17","01:00","15.8","","15.6","","99","","","","0","","3.2","","99.70","","","","","","Fog"
"1998-09-17 02:00","1998","09","17","02:00","15.3","","15.2","","99","","21","","4","","3.6","","99.70","","","","","","Fog"
"1998-09-17 03:00","1998","09","17","03:00","15.7","","15.6","","99","","","","0","","2.4","","99.63","","","","","","Fog"
"1998-09-17 04:00","1998","09","17","04:00","15.9","","15.6","","98","","","","0","","3.2","","99.63","","","","","","Fog"
"1998-09-17 05:00","1998","09","17","05:00","15.1","","14.7","","97","","","","0","","1.2","","99.70","","","","","","Fog"
"1998-09-17 06:00","1998","09","17","06:00","14.9","","14.5","","97","","","","0","","1.2","","99.70","","","","","","Fog"
"1998-09-17 07:00","1998","09","17","07:00","16.7","","16.0","","96","","","","0","","4.8","","99.73","","","","","","Fog"
"1998-09-17 08:00","1998","09","17","08:00","18.4","","17.1","","92","","36","","7","","4.8","","99.73","","","","","","Fog"
"1998-09-17 09:00","1998","09","17","09:00","19.6","","16.6","","83","","34","","4","","8.0","","99.76","","","","","","Haze"
"1998-09-17 10:00","1998","09","17","10:00","20.9","","16.5","","76","","2","","6","","11.3","","99.76","","26","","","","Mainly Clear"
"1998-09-17 11:00","1998","09","17","11:00","22.1","","16.0","","68","","5","","7","","11.3","","99.76","","27","","","","Mainly Clear"
"1998-09-17 12:00","1998","09","17","12:00","22.2","","16.3","","69","","5","","7","","12.9","","99.73","","27","","","","Mainly Clear"
"1998-09-17 13:00","1998","09","17","13:00","22.9","","15.8","","64","","5","","4","","19.3","","99.70","","27","","","","Mainly Clear"
"1998-09-17 14:00","1998","09","17","14:00","23.3","","14.3","","57","","5","","13","","24.1","","99.63","","27","","","","Mainly Clear"
"1998-09-17 15:00","1998","09","17","15:00","23.7","","13.3","","52","","7","","9","","24.1","","99.56","","27","","","","Mainly Clear"
"1998-09-17 16:00","1998","09","17","16:00","23.7","","13.3","","52","","3","","7","","24.1","","99.53","","27","","","","Mainly Clear"
"1998-09-17 17:00","1998","09","17","17:00","23.9","","13.1","","51","","6","","7","","24.1","","99.56","","27","","","","Mainly Clear"
"1998-09-17 18:00","1998","09","17","18:00","22.9","","12.5","","52","","9","","6","","24.1","","99.56","","25","","","","Mainly Clear"
"1998-09-17 19:00","1998","09","17","19:00","20.0","","13.7","","67","","19","","6","","24.1","","99.56","","","","","","Mainly Clear"
"1998-09-17 20:00","1998","09","17","20:00","19.3","","15.2","","77","","","","0","","24.1","","99.60","","","","","","Clear"
"1998-09-17 21:00","1998","09","17","21:00","17.7","","15.0","","84","","11","","2","","16.1","","99.63","","","","","","Clear"
"1998-09-17 22:00","1998","09","17","22:00","17.3","","15.7","","90","","6","","2","","19.3","","99.63","","","","","","Clear"
"1998-09-17 23:00","1998","09","17","23:00","16.6","","15.4","","93","","","","0","","24.1","","99.63","","","","","","Clear"
"1998-09-18 00:00","1998","09","18","00:00","16.4","","15.0","","91","","","","0","","24.1","","99.60","","","","","","Clear"
"1998-09-18 01:00","1998","09","18","01:00","15.3","","14.6","","96","","","","0","","24.1","","99.60","","","","","","Clear"
"1998-09-18 02:00","1998","09","18","02:00","15.0","","14.5","","97","","","","0","","16.1","","99.56","","","","","","Clear"
"1998-09-18 03:00","1998","09","18","03:00","14.2","","13.6","","96","","","","0","","0.4","","99.56","","","","","","Fog"
"1998-09-18 04:00","1998","09","18","04:00","14.1","","13.7","","97","","","","0","","12.9","","99.53","","","","","","Clear"
"1998-09-18 05:00","1998","09","18","05:00","14.3","","13.5","","95","","","","0","","11.3","","99.53","","","","","","Clear"
"1998-09-18 06:00","1998","09","18","06:00","14.3","","14.0","","98","","","","0","","8.0","","99.53","","","","","","Fog"
"1998-09-18 07:00","1998","09","18","07:00","14.9","","14.2","","96","","","","0","","8.0","","99.56","","","","","","Fog"
"1998-09-18 08:00","1998","09","18","08:00","17.2","","15.8","","91","","","","0","","4.8","","99.60","","","","","","Fog"
"1998-09-18 09:00","1998","09","18","09:00","19.7","","17.3","","86","","10","","6","","9.7","","99.60","","","","","","Haze"
"1998-09-18 10:00","1998","09","18","10:00","21.8","","15.3","","67","","","","0","","19.3","","99.56","","26","","","","Clear"
"1998-09-18 11:00","1998","09","18","11:00","24.1","","14.2","","54","","17","","9","","19.3","","99.53","","28","","","","Clear"
"1998-09-18 12:00","1998","09","18","12:00","23.8","","15.5","","60","","2","","9","","19.3","","99.46","","28","","","","Clear"
"1998-09-18 13:00","1998","09","18","13:00","25.2","","15.0","","53","","2","","15","","19.3","","99.40","","29","","","","Clear"
"1998-09-18 14:00","1998","09","18","14:00","25.5","","13.5","","47","","5","","17","","19.3","","99.33","","29","","","","Clear"
"1998-09-18 15:00","1998","09","18","15:00","26.0","","12.6","","43","","4","","11","","24.1","","99.23","","29","","","","Clear"
"1998-09-18 16:00","1998","09","18","16:00","25.7","","12.2","","43","","2","","7","","24.1","","99.16","","28","","","","Clear"
"1998-09-18 17:00","1998","09","18","17:00","25.6","","14.8","","51","","21","","6","","24.1","","99.16","","29","","","","Mainly Clear"
"1998-09-18 18:00","1998","09","18","18:00","24.1","","13.9","","53","","15","","11","","24.1","","99.13","","27","","","","Mainly Clear"
"1998-09-18 19:00","1998","09","18","19:00","21.8","","15.3","","67","","24","","7","","16.1","","99.13","","26","","","","Clear"
"1998-09-18 20:00","1998","09","18","20:00","20.0","","15.8","","77","","15","","4","","16.1","","99.13","","","","","","Clear"
"1998-09-18 21:00","1998","09","18","21:00","19.0","","15.5","","80","","17","","6","","24.1","","99.16","","","","","","Clear"
"1998-09-18 22:00","1998","09","18","22:00","17.8","","15.4","","86","","","","0","","24.1","","99.13","","","","","","Clear"
"1998-09-18 23:00","1998","09","18","23:00","17.7","","15.0","","84","","","","0","","24.1","","99.13","","","","","","Clear"
"1998-09-19 00:00","1998","09","19","00:00","17.5","","15.1","","86","","","","0","","24.1","","99.13","","","","","","Clear"
"1998-09-19 01:00","1998","09","19","01:00","16.6","","15.3","","92","","23","","2","","24.1","","99.06","","","","","","Clear"
"1998-09-19 02:00","1998","09","19","02:00","17.1","","15.3","","89","","","","0","","24.1","","99.03","","","","","","Clear"
"1998-09-19 03:00","1998","09","19","03:00","17.0","","15.6","","91","","","","0","","24.1","","99.03","","","","","","Mostly Cloudy"
"1998-09-19 04:00","1998","09","19","04:00","17.1","","15.5","","90","","","","0","","24.1","","99.00","","","","","","Mainly Clear"
"1998-09-19 05:00","1998","09","19","05:00","17.3","","15.5","","89","","","","0","","24.1","","99.00","","","","","","Clear"
"1998-09-19 06:00","1998","09","19","06:00","17.0","","15.5","","91","","5","","6","","24.1","","99.00","","","","","","Mainly Clear"
"1998-09-19 07:00","1998","09","19","07:00","17.7","","16.1","","90","","3","","4","","16.1","","99.00","","","","","","Mainly Clear"
"1998-09-19 08:00","1998","09","19","08:00","19.6","","17.2","","86","","","","0","","19.3","","99.03","","","","","","Mainly Clear"
"1998-09-19 09:00","1998","09","19","09:00","22.6","","18.4","","77","","","","0","","19.3","","99.03","","29","","","","Mainly Clear"
"1998-09-19 10:00","1998","09","19","10:00","23.9","","18.0","","70","","","","0","","16.1","","99.03","","30","","","","Clear"
"1998-09-19 11:00","1998","09","19","11:00","25.7","","16.5","","57","","","","0","","16.1","","99.03","","31","","","","Clear"
"1998-09-19 12:00","1998","09","19","12:00","27.0","","14.5","","46","","27","","11","","12.9","","99.00","","31","","","","Clear"
"1998-09-19 13:00","1998","09","19","13:00","27.6","","15.1","","46","","26","","15","","14.5","","98.93","","32","","","","Clear"
"1998-09-19 14:00","1998","09","19","14:00","28.8","","14.9","","43","","29","","22","","16.1","","98.90","","33","","","","Clear"
"1998-09-19 15:00","1998","09","19","15:00","28.7","","14.4","","42","","27","","13","","16.1","","98.83","","32","","","","Clear"
"1998-09-19 16:00","1998","09","19","16:00","28.5","","14.7","","43","","26","","13","","16.1","","98.80","","32","","","","Clear"
"1998-09-19 17:00","1998","09","19","17:00","28.5","","14.4","","42","","28","","15","","19.3","","98.80","","32","","","","Clear"
"1998-09-19 18:00","1998","09","19","18:00","27.2","","15.4","","48","","24","","15","","19.3","","98.83","","31","","","","Clear"
"1998-09-19 19:00","1998","09","19","19:00","24.6","","15.7","","58","","21","","11","","19.3","","98.83","","29","","","","Clear"
"1998-09-19 20:00","1998","09","19","20:00","22.8","","15.7","","64","","21","","6","","24.1","","98.86","","27","","","","Clear"
"1998-09-19 21:00","1998","09","19","21:00","21.6","","15.3","","67","","20","","4","","24.1","","98.90","","26","","","","Clear"
"1998-09-19 22:00","1998","09","19","22:00","21.1","","15.3","","69","","20","","6","","24.1","","98.90","","25","","","","Clear"
"1998-09-19 23:00","1998","09","19","23:00","20.7","","16.8","","78","","18","","11","","24.1","","98.90","","26","","","","Clear"
"1998-09-20 00:00","1998","09","20","00:00","21.0","","17.6","","81","","19","","9","","16.1","","98.90","","27","","","","Mainly Clear"
"1998-09-20 01:00","1998","09","20","01:00","21.5","","17.9","","80","","19","","9","","16.1","","98.90","","27","","","","Mainly Clear"
"1998-09-20 02:00","1998","09","20","02:00","20.7","","18.0","","85","","14","","4","","16.1","","98.86","","27","","","","Mainly Clear"
"1998-09-20 03:00","1998","09","20","03:00","20.0","","18.0","","88","","17","","4","","12.9","","98.83","","26","","","","Clear"
"1998-09-20 04:00","1998","09","20","04:00","20.1","","18.0","","88","","","","0","","12.9","","98.83","","26","","","","Mainly Clear"
"1998-09-20 05:00","1998","09","20","05:00","20.3","","18.7","","91","","18","","6","","11.3","","98.83","","27","","","","Mostly Cloudy"
"1998-09-20 06:00","1998","09","20","06:00","20.2","","18.7","","91","","19","","7","","11.3","","98.86","","27","","","","Mainly Clear"
"1998-09-20 07:00","1998","09","20","07:00","20.6","","19.0","","91","","22","","11","","4.8","","98.90","","27","","","","Fog"
"1998-09-20 08:00","1998","09","20","08:00","21.6","","18.9","","85","","22","","15","","4.8","","98.90","","28","","","","Haze"
"1998-09-20 09:00","1998","09","20","09:00","23.3","","18.7","","75","","21","","20","","8.0","","98.86","","30","","","","Haze"
"1998-09-20 10:00","1998","09","20","10:00","25.9","","19.6","","68","","23","","20","","6.4","","98.83","","33","","","","Haze"
"1998-09-20 11:00","1998","09","20","11:00","27.1","","19.1","","62","","22","","19","","9.7","","98.80","","34","","","","Haze"
"1998-09-20 12:00","1998","09","20","12:00","29.0","","18.5","","53","","23","","28","","9.7","","98.76","","35","","","","Haze"
"1998-09-20 13:00","1998","09","20","13:00","29.3","","18.4","","52","","23","","24","","9.7","","98.66","","36","","","","Haze"
"1998-09-20 14:00","1998","09","20","14:00","29.7","","18.0","","49","","24","","26","","12.9","","98.63","","36","","","","Mainly Clear"
"1998-09-20 15:00","1998","09","20","15:00","29.9","","18.1","","49","","23","","32","","12.9","","98.57","","36","","","","Mainly Clear"
"1998-09-20 16:00","1998","09","20","16:00","30.3","","17.0","","45","","23","","30","","16.1","","98.53","","36","","","","Mainly Clear"
"1998-09-20 17:00","1998","09","20","17:00","29.7","","16.0","","44","","24","","19","","16.1","","98.50","","34","","","","Mainly Clear"
"1998-09-20 18:00","1998","09","20","18:00","28.0","","17.3","","52","","21","","9","","19.3","","98.50","","33","","","","Mainly Clear"
"1998-09-20 19:00","1998","09","20","19:00","26.1","","17.0","","57","","21","","7","","16.1","","98.53","","31","","","","Mainly Clear"
"1998-09-20 20:00","1998","09","20","20:00","24.9","","17.7","","64","","21","","19","","12.9","","98.60","","31","","","","Mainly Clear"
"1998-09-20 21:00","1998","09","20","21:00","23.6","","17.0","","67","","30","","37","","12.9","","98.76","","29","","","","Mostly Cloudy"
"1998-09-20 22:00","1998","09","20","22:00","21.1","","17.9","","82","","25","","19","","19.3","","98.73","","27","","","","Rain Showers"
"1998-09-20 23:00","1998","09","20","23:00","20.6","","18.3","","87","","27","","13","","12.9","","98.70","","27","","","","Rain"
"1998-09-21 00:00","1998","09","21","00:00","20.7","","18.3","","86","","24","","13","","16.1","","98.63","","27","","","","Mostly Cloudy"
"1998-09-21 01:00","1998","09","21","01:00","21.1","","18.4","","85","","25","","17","","19.3","","98.70","","27","","","","Cloudy"
"1998-09-21 02:00","1998","09","21","02:00","21.3","","18.4","","84","","25","","20","","19.3","","98.73","","28","","","","Mostly Cloudy"
"1998-09-21 03:00","1998","09","21","03:00","21.0","","18.4","","85","","25","","20","","19.3","","98.70","","27","","","","Mainly Clear"
"1998-09-21 04:00","1998","09","21","04:00","20.9","","18.6","","87","","27","","17","","19.3","","98.70","","27","","","","Mostly Cloudy"
"1998-09-21 05:00","1998","09","21","05:00","20.6","","18.5","","88","","26","","11","","16.1","","98.70","","27","","","","Mainly Clear"
"1998-09-21 06:00","1998","09","21","06:00","20.5","","18.5","","88","","30","","11","","16.1","","98.76","","27","","","","Cloudy"
"1998-09-21 07:00","1998","09","21","07:00","20.4","","18.2","","87","","28","","7","","4.8","","98.80","","27","","","","Haze"
"1998-09-21 08:00","1998","09","21","08:00","21.1","","18.4","","85","","29","","9","","4.8","","98.83","","27","","","","Haze"
"1998-09-21 09:00","1998","09","21","09:00","22.6","","17.2","","72","","29","","11","","12.9","","98.90","","28","","","","Mostly Cloudy"
"1998-09-21 10:00","1998","09","21","10:00","23.1","","16.5","","66","","29","","6","","19.3","","98.93","","28","","","","Mostly Cloudy"
"1998-09-21 11:00","1998","09","21","11:00","24.6","","14.7","","54","","29","","20","","19.3","","98.93","","28","","","","Mostly Cloudy"
"1998-09-21 12:00","1998","09","21","12:00","25.5","","12.4","","44","","29","","22","","24.1","","98.93","","28","","","","Mostly Cloudy"
"1998-09-21 13:00","1998","09","21","13:00","25.5","","12.6","","45","","31","","26","","24.1","","98.90","","28","","","","Mostly Cloudy"
"1998-09-21 14:00","1998","09","21","14:00","26.4","","10.8","","38","","28","","24","","24.1","","98.86","","28","","","","Mostly Cloudy"
"1998-09-21 15:00","1998","09","21","15:00","26.5","","10.9","","38","","33","","13","","24.1","","98.86","","28","","","","Mainly Clear"
"1998-09-21 16:00","1998","09","21","16:00","26.6","","11.4","","39","","34","","15","","24.1","","98.86","","29","","","","Mostly Cloudy"
"1998-09-21 17:00","1998","09","21","17:00","26.0","","10.8","","39","","31","","13","","24.1","","98.86","","28","","","","Mostly Cloudy"
"1998-09-21 18:00","1998","09","21","18:00","24.5","","10.6","","42","","36","","22","","24.1","","98.90","","26","","","","Mostly Cloudy"
"1998-09-21 19:00","1998","09","21","19:00","20.6","","15.3","","72","","2","","19","","24.1","","98.93","","25","","","","Mainly Clear"
"1998-09-21 20:00","1998","09","21","20:00","19.2","","14.1","","72","","5","","19","","24.1","","99.03","","","","","","Mainly Clear"
"1998-09-21 21:00","1998","09","21","21:00","18.5","","13.3","","72","","6","","19","","24.1","","99.10","","","","","","Mostly Cloudy"
"1998-09-21 22:00","1998","09","21","22:00","18.0","","12.9","","72","","6","","17","","24.1","","99.13","","","","","","Mostly Cloudy"
"1998-09-21 23:00","1998","09","21","23:00","18.1","","12.7","","71","","3","","19","","24.1","","99.16","","","","","","Mostly Cloudy"
"1998-09-22 00:00","1998","09","22","00:00","18.0","","12.6","","71","","2","","19","","24.1","","99.13","","","","","","Mostly Cloudy"
"1998-09-22 01:00","1998","09","22","01:00","17.1","","12.5","","74","","2","","22","","24.1","","99.16","","","","","","Mostly Cloudy"
"1998-09-22 02:00","1998","09","22","02:00","16.8","","12.8","","77","","1","","22","","24.1","","99.16","","","","","","Mostly Cloudy"
"1998-09-22 03:00","1998","09","22","03:00","15.3","","10.1","","71","","1","","37","","24.1","","99.20","","","","","","Mostly Cloudy"
"1998-09-22 04:00","1998","09","22","04:00","14.7","","9.8","","72","","2","","19","","24.1","","99.20","","","","","","Mostly Cloudy"
"1998-09-22 05:00","1998","09","22","05:00","14.4","","9.6","","73","","1","","17","","24.1","","99.20","","","","","","Mostly Cloudy"
"1998-09-22 06:00","1998","09","22","06:00","13.8","","9.2","","74","","1","","22","","24.1","","99.23","","","","","","Cloudy"
"1998-09-22 07:00","1998","09","22","07:00","14.1","","8.9","","71","","2","","13","","24.1","","99.26","","","","","","Mostly Cloudy"
"1998-09-22 08:00","1998","09","22","08:00","14.4","","8.6","","68","","35","","20","","24.1","","99.33","","","","","","Mostly Cloudy"
"1998-09-22 09:00","1998","09","22","09:00","14.2","","7.8","","65","","34","","17","","24.1","","99.36","","","","","","Mostly Cloudy"
"1998-09-22 10:00","1998","09","22","10:00","15.1","","7.5","","60","","34","","19","","24.1","","99.43","","","","","","Mostly Cloudy"
"1998-09-22 11:00","1998","09","22","11:00","16.6","","7.2","","54","","30","","20","","24.1","","99.43","","","","","","Mainly Clear"
"1998-09-22 12:00","1998","09","22","12:00","18.2","","6.1","","45","","31","","30","","24.1","","99.36","","","","","","Mainly Clear"
"1998-09-22 13:00","1998","09","22","13:00","18.9","","4.8","","39","","34","","26","","24.1","","99.36","","","","","","Mainly Clear"
"1998-09-22 14:00","1998","09","22","14:00","19.3","","4.7","","38","","30","","22","","24.1","","99.33","","","","","","Mainly Clear"
"1998-09-22 15:00","1998","09","22","15:00","18.9","","4.7","","39","","32","","26","","25.0","","99.30","","","","","","Mainly Clear"
"1998-09-22 16:00","1998","09","22","16:00","18.5","","3.8","","38","","34","","28","","25.0","","99.33","","","","","","Mainly Clear"
"1998-09-22 17:00","1998","09","22","17:00","18.7","","3.4","","36","","34","","28","","25.0","","99.36","","","","","","Mainly Clear"
"1998-09-22 18:00","1998","09","22","18:00","16.5","","8.8","","60","","4","","20","","25.0","","99.43","","","","","","Mainly Clear"
"1998-09-22 19:00","1998","09","22","19:00","15.1","","9.0","","67","","5","","24","","25.0","","99.53","","","","","","Mainly Clear"
"1998-09-22 20:00","1998","09","22","20:00","13.8","","7.1","","64","","2","","20","","25.0","","99.60","","","","","","Mainly Clear"
"1998-09-22 21:00","1998","09","22","21:00","13.5","","6.1","","61","","1","","22","","25.0","","99.70","","","","","","Mainly Clear"
"1998-09-22 22:00","1998","09","22","22:00","12.7","","3.5","","53","","2","","22","","25.0","","99.73","","","","","","Mainly Clear"
"1998-09-22 23:00","1998","09","22","23:00","11.9","","3.3","","56","","1","","20","","24.1","","99.76","","","","","","Clear"
"1998-09-23 00:00","1998","09","23","00:00","11.0","","3.5","","60","","36","","15","","24.1","","99.76","","","","","","Clear"
"1998-09-23 01:00","1998","09","23","01:00","10.7","","3.6","","61","","34","","13","","24.1","","99.83","","","","","","Clear"
"1998-09-23 02:00","1998","09","23","02:00","10.5","","3.6","","62","","35","","11","","24.1","","99.86","","","","","","Clear"
"1998-09-23 03:00","1998","09","23","03:00","9.9","","4.1","","67","","34","","17","","24.1","","99.90","","","","","","Clear"
"1998-09-23 04:00","1998","09","23","04:00","9.5","","5.2","","75","","34","","7","","24.1","","99.93","","","","","","Clear"
"1998-09-23 05:00","1998","09","23","05:00","9.0","","5.5","","79","","1","","13","","24.1","","99.96","","","","","","Clear"
"1998-09-23 06:00","1998","09","23","06:00","8.8","","5.4","","79","","36","","13","","24.1","","100.03","","","","","","Mainly Clear"
"1998-09-23 07:00","1998","09","23","07:00","9.0","","5.7","","80","","34","","13","","24.1","","100.03","","","","","","Clear"
"1998-09-23 08:00","1998","09","23","08:00","11.1","","5.8","","70","","1","","15","","24.1","","100.09","","","","","","Mainly Clear"
"1998-09-23 09:00","1998","09","23","09:00","12.5","","5.0","","60","","2","","17","","24.1","","100.13","","","","","","Mainly Clear"
"1998-09-23 10:00","1998","09","23","10:00","14.0","","4.0","","51","","30","","4","","24.1","","100.16","","","","","","Mainly Clear"
"1998-09-23 11:00","1998","09","23","11:00","14.8","","2.0","","42","","29","","2","","24.1","","100.13","","","","","","Mainly Clear"
"1998-09-23 12:00","1998","09","23","12:00","15.7","","1.5","","38","","18","","6","","24.1","","100.09","","","","","","Mainly Clear"
"1998-09-23 13:00","1998","09","23","13:00","16.5","","1.7","","37","","24","","2","","24.1","","100.03","","","","","","Mainly Clear"
"1998-09-23 14:00","1998","09","23","14:00","17.8","","3.2","","38","","34","","4","","24.1","","99.93","","","","","","Mainly Clear"
"1998-09-23 15:00","1998","09","23","15:00","18.1","","2.4","","35","","11","","13","","24.1","","99.86","","","","","","Mainly Clear"
"1998-09-23 16:00","1998","09","23","16:00","17.9","","3.5","","38","","24","","15","","24.1","","99.83","","","","","","Mainly Clear"
"1998-09-23 17:00","1998","09","23","17:00","17.4","","3.7","","40","","25","","15","","24.1","","99.83","","","","","","Mainly Clear"
"1998-09-23 18:00","1998","09","23","18:00","16.6","","3.9","","43","","24","","15","","25.0","","99.80","","","","","","Clear"
"1998-09-23 19:00","1998","09","23","19:00","14.7","","4.4","","50","","22","","9","","25.0","","99.76","","","","","","Clear"
"1998-09-23 20:00","1998","09","23","20:00","13.8","","5.0","","55","","22","","7","","25.0","","99.80","","","","","","Clear"
"1998-09-23 21:00","1998","09","23","21:00","12.9","","4.8","","58","","22","","7","","25.0","","99.76","","","","","","Clear"
"1998-09-23 22:00","1998","09","23","22:00","11.9","","4.8","","62","","21","","9","","25.0","","99.76","","","","","","Mainly Clear"
"1998-09-23 23:00","1998","09","23","23:00","10.6","","5.1","","69","","23","","4","","24.1","","99.76","","","","","","Clear"
"1998-09-24 00:00","1998","09","24","00:00","9.5","","5.2","","75","","21","","4","","24.1","","99.73","","","","","","Clear"
"1998-09-24 01:00","1998","09","24","01:00","8.8","","5.1","","78","","18","","6","","24.1","","99.70","","","","","","Mainly Clear"
"1998-09-24 02:00","1998","09","24","02:00","10.0","","5.2","","72","","19","","9","","24.1","","99.66","","","","","","Mainly Clear"
"1998-09-24 03:00","1998","09","24","03:00","9.3","","4.9","","74","","23","","6","","24.1","","99.66","","","","","","Mainly Clear"
"1998-09-24 04:00","1998","09","24","04:00","8.9","","4.9","","76","","","","0","","24.1","","99.63","","","","","","Mainly Clear"
"1998-09-24 05:00","1998","09","24","05:00","10.0","","5.0","","71","","21","","7","","24.1","","99.66","","","","","","Mostly Cloudy"
"1998-09-24 06:00","1998","09","24","06:00","10.9","","6.3","","73","","21","","7","","24.1","","99.63","","","","","","Mostly Cloudy"
"1998-09-24 07:00","1998","09","24","07:00","12.7","","6.5","","66","","25","","11","","24.1","","99.63","","","","","","Mostly Cloudy"
"1998-09-24 08:00","1998","09","24","08:00","13.9","","8.6","","70","","25","","9","","24.1","","99.60","","","","","","Mostly Cloudy"
"1998-09-24 09:00","1998","09","24","09:00","16.4","","9.0","","62","","23","","19","","24.1","","99.56","","","","","","Mostly Cloudy"
"1998-09-24 10:00","1998","09","24","10:00","17.1","","6.8","","51","","24","","26","","24.1","","99.60","","","","","","Mostly Cloudy"
"1998-09-24 11:00","1998","09","24","11:00","17.6","","5.9","","46","","25","","15","","24.1","","99.56","","","","","","Cloudy"
"1998-09-24 12:00","1998","09","24","12:00","18.7","","6.0","","43","","25","","22","","24.1","","99.50","","","","","","Mostly Cloudy"
"1998-09-24 13:00","1998","09","24","13:00","19.1","","6.4","","43","","25","","22","","24.1","","99.46","","","","","","Cloudy"
"1998-09-24 14:00","1998","09","24","14:00","18.8","","5.7","","42","","24","","24","","24.1","","99.43","","","","","","Cloudy"
"1998-09-24 15:00","1998","09","24","15:00","18.8","","6.0","","43","","22","","28","","25.0","","99.40","","","","","","Cloudy"
"1998-09-24 16:00","1998","09","24","16:00","18.7","","6.6","","45","","24","","22","","25.0","","99.40","","","","","","Cloudy"
"1998-09-24 17:00","1998","09","24","17:00","18.6","","7.5","","48","","24","","17","","25.0","","99.36","","","","","","Cloudy"
"1998-09-24 18:00","1998","09","24","18:00","18.3","","8.1","","51","","24","","6","","25.0","","99.36","","","","","","Cloudy"
"1998-09-24 19:00","1998","09","24","19:00","18.1","","9.0","","55","","23","","7","","25.0","","99.36","","","","","","Cloudy"
"1998-09-24 20:00","1998","09","24","20:00","18.0","","9.5","","58","","23","","7","","25.0","","99.36","","","","","","Cloudy"
"1998-09-24 21:00","1998","09","24","21:00","17.9","","9.3","","57","","24","","6","","25.0","","99.36","","","","","","Cloudy"
"1998-09-24 22:00","1998","09","24","22:00","17.5","","9.9","","61","","","","0","","25.0","","99.36","","","","","","Cloudy"
"1998-09-24 23:00","1998","09","24","23:00","17.2","","10.5","","65","","","","0","","24.1","","99.33","","","","","","Cloudy"
"1998-09-25 00:00","1998","09","25","00:00","17.2","","10.3","","64","","","","0","","24.1","","99.26","","","","","","Cloudy"
"1998-09-25 01:00","1998","09","25","01:00","16.9","","11.0","","68","","","","0","","24.1","","99.26","","","","","","Cloudy"
"1998-09-25 02:00","1998","09","25","02:00","17.5","","11.5","","68","","21","","11","","24.1","","99.23","","","","","","Cloudy"
"1998-09-25 03:00","1998","09","25","03:00","17.6","","12.6","","72","","24","","7","","17.7","","99.20","","","","","","Cloudy"
"1998-09-25 04:00","1998","09","25","04:00","17.6","","12.5","","72","","24","","9","","16.1","","99.16","","","","","","Cloudy"
"1998-09-25 05:00","1998","09","25","05:00","17.1","","12.1","","72","","24","","13","","24.1","","99.13","","","","","","Cloudy"
"1998-09-25 06:00","1998","09","25","06:00","16.3","","12.3","","77","","26","","13","","16.1","","99.20","","","","","","Mostly Cloudy"
"1998-09-25 07:00","1998","09","25","07:00","15.9","","12.3","","79","","26","","7","","12.9","","99.26","","","","","","Mainly Clear"
"1998-09-25 08:00","1998","09","25","08:00","16.7","","12.6","","77","","27","","4","","24.1","","99.26","","","","","","Clear"
"1998-09-25 09:00","1998","09","25","09:00","18.2","","13.0","","72","","31","","13","","24.1","","99.30","","","","","","Mainly Clear"
"1998-09-25 10:00","1998","09","25","10:00","19.4","","13.5","","69","","25","","4","","16.1","","99.30","","","","","","Mostly Cloudy"
"1998-09-25 11:00","1998","09","25","11:00","20.8","","13.9","","65","","28","","11","","16.1","","99.26","","","","","","Mainly Clear"
"1998-09-25 12:00","1998","09","25","12:00","22.2","","14.2","","60","","27","","19","","16.1","","99.26","","26","","","","Mainly Clear"
"1998-09-25 13:00","1998","09","25","13:00","23.5","","14.6","","57","","27","","22","","16.1","","99.23","","27","","","","Mainly Clear"
"1998-09-25 14:00","1998","09","25","14:00","24.7","","14.6","","53","","24","","22","","16.1","","99.20","","28","","","","Mainly Clear"
"1998-09-25 15:00","1998","09","25","15:00","24.7","","15.3","","56","","24","","22","","19.3","","99.13","","29","","","","Mainly Clear"
"1998-09-25 16:00","1998","09","25","16:00","24.6","","15.9","","58","","22","","15","","19.3","","99.13","","29","","","","Mainly Clear"
"1998-09-25 17:00","1998","09","25","17:00","26.0","","14.8","","50","","24","","17","","19.3","","99.13","","30","","","","Mostly Cloudy"
"1998-09-25 18:00","1998","09","25","18:00","24.5","","15.3","","57","","23","","9","","19.3","","99.13","","29","","","","Mostly Cloudy"
"1998-09-25 19:00","1998","09","25","19:00","22.6","","15.9","","66","","22","","7","","19.3","","99.20","","27","","","","Mainly Clear"
"1998-09-25 20:00","1998","09","25","20:00","20.1","","16.8","","81","","19","","7","","16.1","","99.23","","25","","","","Clear"
"1998-09-25 21:00","1998","09","25","21:00","19.1","","17.0","","88","","15","","7","","9.7","","99.26","","","","","","Haze"
"1998-09-25 22:00","1998","09","25","22:00","19.0","","17.5","","91","","18","","11","","8.0","","99.26","","","","","","Fog"
"1998-09-25 23:00","1998","09","25","23:00","18.9","","17.5","","92","","19","","9","","4.8","","99.23","","","","","","Fog"
"1998-09-26 00:00","1998","09","26","00:00","18.7","","17.3","","92","","17","","9","","4.8","","99.23","","","","","","Fog"
"1998-09-26 01:00","1998","09","26","01:00","18.6","","17.6","","94","","19","","9","","4.8","","99.23","","","","","","Fog"
"1998-09-26 02:00","1998","09","26","02:00","19.3","","17.9","","92","","","","0","","4.8","","99.23","","","","","","Fog"
"1998-09-26 03:00","1998","09","26","03:00","20.9","","18.7","","87","","24","","19","","4.8","","99.30","","27","","","","Haze"
"1998-09-26 04:00","1998","09","26","04:00","21.6","","19.0","","85","","18","","19","","8.0","","99.03","","28","","","","Haze"
"1998-09-26 05:00","1998","09","26","05:00","21.6","","19.1","","86","","24","","11","","6.4","","99.23","","28","","","","Haze"
"1998-09-26 06:00","1998","09","26","06:00","20.7","","19.0","","90","","20","","13","","4.8","","99.23","","27","","","","Fog"
"1998-09-26 07:00","1998","09","26","07:00","20.7","","19.0","","90","","22","","13","","4.0","","99.26","","27","","","","Fog"
"1998-09-26 08:00","1998","09","26","08:00","21.7","","19.3","","86","","22","","13","","6.4","","99.26","","29","","","","Haze"
"1998-09-26 09:00","1998","09","26","09:00","24.5","","19.5","","74","","23","","28","","8.0","","99.23","","32","","","","Haze"
"1998-09-26 10:00","1998","09","26","10:00","26.2","","19.6","","67","","23","","30","","9.7","","99.23","","33","","","","Haze"
"1998-09-26 11:00","1998","09","26","11:00","28.3","","20.2","","62","","24","","20","","9.7","","99.16","","36","","","","Haze"
"1998-09-26 12:00","1998","09","26","12:00","28.4","","20.4","","62","","21","","24","","9.7","","99.16","","36","","","","Rain Showers,Haze"
"1998-09-26 13:00","1998","09","26","13:00","29.9","","20.5","","57","","23","","30","","9.7","","99.06","","38","","","","Haze"
"1998-09-26 14:00","1998","09","26","14:00","30.0","","19.2","","52","","25","","33","","12.9","","99.00","","37","","","","Mostly Cloudy"
"1998-09-26 15:00","1998","09","26","15:00","31.3","","19.1","","48","","22","","35","","16.1","","98.90","","38","","","","Mainly Clear"
"1998-09-26 16:00","1998","09","26","16:00","32.2","","18.2","","43","","23","","35","","16.1","","98.83","","38","","","","Mainly Clear"
"1998-09-26 17:00","1998","09","26","17:00","31.7","","17.9","","44","","23","","35","","16.1","","98.80","","38","","","","Mainly Clear"
"1998-09-26 18:00","1998","09","26","18:00","30.4","","17.9","","47","","23","","24","","16.1","","98.76","","36","","","","Mainly Clear"
"1998-09-26 19:00","1998","09","26","19:00","28.3","","17.7","","53","","23","","13","","16.1","","98.80","","34","","","","Mainly Clear"
"1998-09-26 20:00","1998","09","26","20:00","28.1","","17.3","","52","","23","","20","","19.3","","98.80","","34","","","","Mainly Clear"
"1998-09-26 21:00","1998","09","26","21:00","26.1","","17.8","","60","","22","","20","","19.3","","98.80","","32","","","","Mainly Clear"
"1998-09-26 22:00","1998","09","26","22:00","25.9","","17.6","","60","","23","","22","","19.3","","98.80","","32","","","","Mainly Clear"
"1998-09-26 23:00","1998","09","26","23:00","26.1","","16.2","","54","","24","","26","","19.3","","98.76","","31","","","","Mainly Clear"
"1998-09-27 00:00","1998","09","27","00:00","26.0","","15.7","","53","","24","","26","","19.3","","98.80","","30","","","","Mainly Clear"
"1998-09-27 01:00","1998","09","27","01:00","26.0","","15.7","","53","","24","","26","","19.3","","98.80","","30","","","","Mainly Clear"
"1998-09-27 02:00","1998","09","27","02:00","24.4","","15.6","","58","","24","","28","","19.3","","98.76","","29","","","","Mainly Clear"
"1998-09-27 03:00","1998","09","27","03:00","24.0","","15.3","","58","","24","","32","","19.3","","98.70","","28","","","","Mainly Clear"
"1998-09-27 04:00","1998","09","27","04:00","23.7","","15.1","","59","","24","","33","","19.3","","98.70","","28","","","","Mainly Clear"
"1998-09-27 05:00","1998","09","27","05:00","23.4","","14.9","","59","","24","","32","","24.1","","98.63","","27","","","","Mostly Cloudy"
"1998-09-27 06:00","1998","09","27","06:00","23.2","","15.1","","60","","24","","32","","24.1","","98.60","","27","","","","Mostly Cloudy"
"1998-09-27 07:00","1998","09","27","07:00","22.9","","15.6","","63","","25","","26","","12.9","","98.63","","27","","","","Cloudy"
"1998-09-27 08:00","1998","09","27","08:00","21.6","","16.7","","74","","24","","20","","12.9","","98.66","","27","","","","Cloudy"
"1998-09-27 09:00","1998","09","27","09:00","22.9","","17.5","","72","","24","","26","","16.1","","98.66","","29","","","","Mainly Clear"
"1998-09-27 10:00","1998","09","27","10:00","24.5","","18.2","","68","","25","","26","","20.9","","98.63","","31","","","","Mostly Cloudy"
"1998-09-27 11:00","1998","09","27","11:00","25.3","","18.7","","67","","26","","30","","16.1","","98.63","","32","","","","Cloudy"
"1998-09-27 12:00","1998","09","27","12:00","26.3","","19.4","","66","","25","","28","","20.9","","98.60","","33","","","","Mainly Clear"
"1998-09-27 13:00","1998","09","27","13:00","27.9","","19.8","","61","","25","","30","","16.1","","98.57","","35","","","","Mostly Cloudy"
"1998-09-27 14:00","1998","09","27","14:00","28.5","","18.5","","55","","27","","30","","19.3","","98.53","","35","","","","Mostly Cloudy"
"1998-09-27 15:00","1998","09","27","15:00","29.5","","17.4","","48","","26","","37","","19.3","","98.50","","35","","","","Mostly Cloudy"
"1998-09-27 16:00","1998","09","27","16:00","29.9","","15.5","","42","","27","","35","","19.3","","98.50","","34","","","","Mainly Clear"
"1998-09-27 17:00","1998","09","27","17:00","29.1","","14.6","","41","","28","","37","","19.3","","98.50","","33","","","","Mainly Clear"
"1998-09-27 18:00","1998","09","27","18:00","27.4","","14.2","","44","","28","","35","","19.3","","98.60","","31","","","","Mainly Clear"
"1998-09-27 19:00","1998","09","27","19:00","25.6","","13.7","","48","","30","","32","","24.1","","98.70","","29","","","","Mainly Clear"
"1998-09-27 20:00","1998","09","27","20:00","21.6","","17.3","","77","","10","","9","","24.1","","98.80","","27","","","","Mainly Clear"
"1998-09-27 21:00","1998","09","27","21:00","20.5","","16.1","","76","","1","","19","","24.1","","98.90","","25","","","","Mainly Clear"
"1998-09-27 22:00","1998","09","27","22:00","20.8","","12.9","","61","","34","","26","","24.1","","98.93","","","","","","Clear"
"1998-09-27 23:00","1998","09","27","23:00","19.6","","11.9","","61","","35","","32","","24.1","","99.03","","","","","","Clear"
"1998-09-28 00:00","1998","09","28","00:00","18.4","","12.1","","67","","35","","20","","24.1","","99.06","","","","","","Clear"
"1998-09-28 01:00","1998","09","28","01:00","17.3","","11.9","","71","","34","","15","","24.1","","99.10","","","","","","Clear"
"1998-09-28 02:00","1998","09","28","02:00","16.5","","12.0","","75","","32","","7","","24.1","","99.16","","","","","","Clear"
"1998-09-28 03:00","1998","09","28","03:00","16.3","","12.1","","76","","29","","9","","24.1","","99.20","","","","","","Mainly Clear"
"1998-09-28 04:00","1998","09","28","04:00","16.3","","12.2","","77","","36","","22","","24.1","","99.23","","","","","","Mainly Clear"
"1998-09-28 05:00","1998","09","28","05:00","14.8","","12.1","","84","","33","","13","","24.1","","99.30","","","","","","Clear"
"1998-09-28 06:00","1998","09","28","06:00","14.7","","12.0","","84","","35","","9","","24.1","","99.33","","","","","","Mainly Clear"
"1998-09-28 07:00","1998","09","28","07:00","14.3","","11.1","","81","","35","","11","","24.1","","99.43","","","","","","Mainly Clear"
"1998-09-28 08:00","1998","09","28","08:00","16.1","","11.3","","73","","34","","9","","24.1","","99.46","","","","","","Mainly Clear"
"1998-09-28 09:00","1998","09","28","09:00","16.9","","8.4","","57","","34","","20","","24.1","","99.50","","","","","","Mainly Clear"
"1998-09-28 10:00","1998","09","28","10:00","18.3","","7.7","","50","","32","","19","","24.1","","99.53","","","","","","Mainly Clear"
"1998-09-28 11:00","1998","09","28","11:00","19.3","","6.7","","44","","32","","22","","24.1","","99.53","","","","","","Mainly Clear"
"1998-09-28 12:00","1998","09","28","12:00","20.1","","5.1","","37","","32","","19","","24.1","","99.46","","","","","","Mainly Clear"
"1998-09-28 13:00","1998","09","28","13:00","20.4","","5.4","","37","","33","","24","","24.1","","99.46","","","","","","Mainly Clear"
"1998-09-28 14:00","1998","09","28","14:00","21.8","","5.5","","35","","35","","24","","24.1","","99.40","","","","","","Mainly Clear"
"1998-09-28 15:00","1998","09","28","15:00","21.9","","5.0","","33","","31","","22","","24.1","","99.36","","","","","","Mainly Clear"
"1998-09-28 16:00","1998","09","28","16:00","21.6","","4.9","","34","","34","","11","","24.1","","99.36","","","","","","Mainly Clear"
"1998-09-28 17:00","1998","09","28","17:00","21.5","","4.5","","33","","30","","11","","24.1","","99.33","","","","","","Mainly Clear"
"1998-09-28 18:00","1998","09","28","18:00","20.4","","5.9","","39","","2","","7","","24.1","","99.33","","","","","","Clear"
"1998-09-28 19:00","1998","09","28","19:00","18.0","","6.8","","48","","14","","6","","24.1","","99.36","","","","","","Clear"
"1998-09-28 20:00","1998","09","28","20:00","16.4","","6.5","","52","","19","","4","","24.1","","99.40","","","","","","Clear"
"1998-09-28 21:00","1998","09","28","21:00","15.7","","6.2","","53","","14","","6","","25.0","","99.40","","","","","","Clear"
"1998-09-28 22:00","1998","09","28","22:00","13.3","","6.6","","64","","7","","15","","25.0","","99.36","","","","","","Clear"
"1998-09-28 23:00","1998","09","28","23:00","13.8","","7.1","","64","","20","","7","","24.1","","99.36","","","","","","Clear"
"1998-09-29 00:00","1998","09","29","00:00","12.9","","7.2","","68","","21","","7","","24.1","","99.40","","","","","","Clear"
"1998-09-29 01:00","1998","09","29","01:00","13.3","","7.6","","68","","23","","6","","24.1","","99.36","","","","","","Clear"
"1998-09-29 02:00","1998","09","29","02:00","11.7","","7.5","","75","","22","","6","","24.1","","99.36","","","","","","Clear"
"1998-09-29 03:00","1998","09","29","03:00","11.2","","7.6","","78","","22","","7","","24.1","","99.33","","","","","","Clear"
"1998-09-29 04:00","1998","09","29","04:00","11.0","","7.7","","80","","20","","7","","24.1","","99.30","","","","","","Clear"
"1998-09-29 05:00","1998","09","29","05:00","11.6","","7.9","","78","","24","","7","","24.1","","99.33","","","","","","Mainly Clear"
"1998-09-29 06:00","1998","09","29","06:00","11.2","","8.6","","84","","23","","9","","24.1","","99.33","","","","","","Mainly Clear"
"1998-09-29 07:00","1998","09","29","07:00","11.9","","8.3","","79","","21","","7","","16.1","","99.33","","","","","","Clear"
"1998-09-29 08:00","1998","09","29","08:00","14.9","","8.7","","66","","23","","7","","19.3","","99.33","","","","","","Clear"
"1998-09-29 09:00","1998","09","29","09:00","17.5","","10.2","","62","","22","","17","","24.1","","99.30","","","","","","Clear"
"1998-09-29 10:00","1998","09","29","10:00","20.1","","9.3","","50","","21","","24","","24.1","","99.23","","","","","","Mainly Clear"
"1998-09-29 11:00","1998","09","29","11:00","21.6","","7.6","","40","","20","","28","","24.1","","99.23","","","","","","Mainly Clear"
"1998-09-29 12:00","1998","09","29","12:00","22.7","","7.4","","37","","21","","22","","24.1","","99.16","","","","","","Mainly Clear"
"1998-09-29 13:00","1998","09","29","13:00","23.7","","8.3","","37","","21","","22","","24.1","","99.06","","","","","","Mostly Cloudy"
"1998-09-29 14:00","1998","09","29","14:00","24.3","","9.7","","40","","23","","15","","24.1","","98.96","","25","","","","Mostly Cloudy"
"1998-09-29 15:00","1998","09","29","15:00","24.2","","9.8","","40","","20","","17","","24.1","","98.93","","25","","","","Mostly Cloudy"
"1998-09-29 16:00","1998","09","29","16:00","24.1","","10.4","","42","","22","","15","","24.1","","98.90","","26","","","","Mostly Cloudy"
"1998-09-29 17:00","1998","09","29","17:00","23.8","","10.3","","42","","20","","11","","24.1","","98.86","","25","","","","Cloudy"
"1998-09-29 18:00","1998","09","29","18:00","22.3","","10.3","","47","","16","","9","","24.1","","98.80","","","","","","Cloudy"
"1998-09-29 19:00","1998","09","29","19:00","20.8","","11.0","","53","","18","","13","","24.1","","98.83","","","","","","Cloudy"
"1998-09-29 20:00","1998","09","29","20:00","20.3","","12.6","","61","","20","","6","","16.1","","98.86","","","","","","Rain Showers"
"1998-09-29 21:00","1998","09","29","21:00","19.4","","12.8","","66","","","","0","","24.1","","98.83","","","","","","Mostly Cloudy"
"1998-09-29 22:00","1998","09","29","22:00","18.7","","13.0","","69","","19","","7","","24.1","","98.83","","","","","","Mostly Cloudy"
"1998-09-29 23:00","1998","09","29","23:00","18.9","","13.7","","72","","29","","6","","24.1","","98.83","","","","","","Mostly Cloudy"
"1998-09-30 00:00","1998","09","30","00:00","19.5","","14.0","","71","","32","","9","","24.1","","98.70","","","","","","Mostly Cloudy"
"1998-09-30 01:00","1998","09","30","01:00","19.8","","13.9","","69","","35","","15","","24.1","","98.80","","","","","","Mostly Cloudy"
"1998-09-30 02:00","1998","09","30","02:00","18.7","","14.2","","75","","1","","15","","24.1","","98.80","","","","","","Mainly Clear"
"1998-09-30 03:00","1998","09","30","03:00","17.6","","14.1","","80","","1","","19","","24.1","","98.83","","","","","","Mainly Clear"
"1998-09-30 04:00","1998","09","30","04:00","17.3","","14.5","","84","","1","","20","","16.1","","98.86","","","","","","Mostly Cloudy"
"1998-09-30 05:00","1998","09","30","05:00","16.5","","14.1","","86","","1","","17","","16.1","","98.90","","","","","","Mainly Clear"
"1998-09-30 06:00","1998","09","30","06:00","16.1","","13.9","","87","","1","","15","","12.9","","98.96","","","","","","Mostly Cloudy"
"1998-09-30 07:00","1998","09","30","07:00","15.1","","12.8","","86","","1","","19","","12.9","","99.03","","","","","","Mainly Clear"
"1998-09-30 08:00","1998","09","30","08:00","15.5","","12.2","","81","","1","","13","","16.1","","99.03","","","","","","Mainly Clear"
"1998-09-30 09:00","1998","09","30","09:00","16.2","","11.8","","75","","1","","7","","24.1","","99.10","","","","","","Mostly Cloudy"
"1998-09-30 10:00","1998","09","30","10:00","17.7","","12.3","","71","","","","0","","24.1","","99.10","","","","","","Mainly Clear"
"1998-09-30 11:00","1998","09","30","11:00","20.2","","12.3","","60","","4","","4","","24.1","","99.00","","","","","","Mainly Clear"
"1998-09-30 12:00","1998","09","30","12:00","21.2","","10.9","","52","","6","","15","","24.1","","98.93","","","","","","Mainly Clear"
"1998-09-30 13:00","1998","09","30","13:00","22.1","","10.8","","49","","7","","15","","24.1","","98.83","","","","","","Mainly Clear"
"1998-09-30 14:00","1998","09","30","14:00","22.9","","12.3","","51","","24","","22","","24.1","","98.76","","25","","","","Mainly Clear"
"1998-09-30 15:00","1998","09","30","15:00","22.2","","13.3","","57","","21","","19","","24.1","","98.70","","25","","","","Mostly Cloudy"
"1998-09-30 16:00","1998","09","30","16:00","23.3","","12.3","","50","","22","","20","","24.1","","98.60","","26","","","","Mostly Cloudy"
"1998-09-30 17:00","1998","09","30","17:00","22.9","","12.9","","53","","22","","22","","24.1","","98.63","","26","","","","Mostly Cloudy"
"1998-09-30 18:00","1998","09","30","18:00","21.8","","14.2","","62","","24","","9","","24.1","","98.63","","25","","","","Mostly Cloudy"
"1998-09-30 19:00","1998","09","30","19:00","18.2","","14.3","","78","","30","","41","","24.1","","98.70","","","","","","Rain Showers"
"1998-09-30 20:00","1998","09","30","20:00","16.8","","14.3","","85","","21","","9","","24.1","","98.50","","","","","","Mostly Cloudy"
"1998-09-30 21:00","1998","09","30","21:00","17.3","","14.3","","83","","24","","13","","19.3","","98.53","","","","","","Rain Showers"
"1998-09-30 22:00","1998","09","30","22:00","19.2","","13.4","","69","","26","","22","","24.1","","98.40","","","","","","Rain Showers"
"1998-09-30 23:00","1998","09","30","23:00","18.1","","14.4","","79","","27","","26","","24.1","","98.47","","","","","","Mostly Cloudy"
