"Station Name","WINDSOR A"
"Province","ONTARIO"
"Latitude","42.28"
"Longitude","-82.96"
"Elevation","189.60"
"Climate Identifier","6139525"
"WMO Identifier","71538"
"TC Identifier","YQG"
"All times are specified in Local Standard Time (LST). Add 1 hour to adjust for Daylight Saving Time where and when it is observed."

"Legend"
"E","Estimated"
"M","Missing"
"NA","Not Available"

"Date/Time","Year","Month","Day","Time","Temp (°C)","Temp Flag","Dew Point Temp (°C)","Dew Point Temp Flag","Rel Hum (%)","Rel Hum Flag","Wind Dir (10s deg)","Wind Dir Flag","Wind Spd (km/h)","Wind Spd Flag","Visibility (km)","Visibility Flag","Stn Press (kPa)","Stn Press Flag","Hmdx","Hmdx Flag","Wind Chill","Wind Chill Flag","Weather"
"2003-09-01 00:00","2003","09","01","00:00","15.6","","13.0","","85","","6","","4","","16.1","","100.10","","","","","","Rain"
"2003-09-01 01:00","2003","09","01","01:00","14.8","","12.8","","88","","9","","4","","19.3","","100.06","","","","","","Rain"
"2003-09-01 02:00","2003","09","01","02:00","14.0","","13.2","","95","","7","","7","","16.1","","99.97","","","","","","Rain"
"2003-09-01 03:00","2003","09","01","03:00","14.3","","13.9","","97","","9","","4","","9.7","","99.98","","","","","","Rain,Fog"
"2003-09-01 04:00","2003","09","01","04:00","14.9","","14.8","","99","","10","","7","","8.0","","99.93","","","","","","Rain,Fog"
"2003-09-01 05:00","2003","09","01","05:00","15.2","","15.2","","100","","8","","7","","8.0","","99.90","","","","","","Rain,Fog"
"2003-09-01 06:00","2003","09","01","06:00","15.3","","15.2","","99","","9","","11","","8.0","","99.87","","","","","","Rain,Fog"
"2003-09-01 07:00","2003","09","01","07:00","14.8","","14.6","","99","","9","","9","","4.8","","99.88","","","","","","Moderate Rain,Fog"
"2003-09-01 08:00","2003","09","01","08:00","15.2","","15.0","","99","","10","","13","","6.4","","99.90","","","","","","Rain,Fog"
"2003-09-01 09:00","2003","09","01","09:00","15.7","","15.7","","100","","7","","17","","4.8","","99.89","","","","","","Rain,Fog"
"2003-09-01 10:00","2003","09","01","10:00","16.0","","15.9","","99","","5","","17","","4.8","","99.90","","","","","","Moderate Rain,Fog"
"2003-09-01 11:00","2003","09","01","11:00","16.4","","16.0","","97","","7","","20","","11.3","","99.83","","","","","","Rain"
"2003-09-01 12:00","2003","09","01","12:00","16.9","","16.3","","96","","7","","22","","19.3","","99.76","","","","","","Rain"
"2003-09-01 13:00","2003","09","01","13:00","17.5","","16.8","","96","","6","","22","","19.3","","99.71","","","","","","Rain"
"2003-09-01 14:00","2003","09","01","14:00","17.3","","16.5","","95","","6","","15","","16.1","","99.70","","","","","","Rain"
"2003-09-01 15:00","2003","09","01","15:00","17.2","","16.4","","95","","6","","19","","24.1","","99.65","","","","","","Rain"
"2003-09-01 16:00","2003","09","01","16:00","17.5","","16.7","","95","","7","","20","","24.1","","99.57","","","","","","Rain"
"2003-09-01 17:00","2003","09","01","17:00","17.2","","16.3","","94","","6","","24","","24.1","","99.58","","","","","","Rain"
"2003-09-01 18:00","2003","09","01","18:00","17.2","","16.1","","93","","7","","22","","24.1","","99.56","","","","","","Rain"
"2003-09-01 19:00","2003","09","01","19:00","17.3","","15.5","","89","","5","","15","","24.1","","99.65","","","","","","Rain"
"2003-09-01 20:00","2003","09","01","20:00","17.1","","14.8","","86","","4","","19","","19.3","","99.73","","","","","","Cloudy"
"2003-09-01 21:00","2003","09","01","21:00","16.3","","15.2","","93","","6","","19","","12.9","","99.71","","","","","","Rain"
"2003-09-01 22:00","2003","09","01","22:00","16.3","","15.3","","94","","6","","15","","16.1","","99.74","","","","","","Rain"
"2003-09-01 23:00","2003","09","01","23:00","16.3","","14.4","","89","","7","","19","","24.1","","99.69","","","","","","Rain"
"2003-09-02 00:00","2003","09","02","00:00","16.1","","14.1","","88","","5","","19","","24.1","","99.69","","","","","","Mostly Cloudy"
"2003-09-02 01:00","2003","09","02","01:00","16.5","","14.2","","86","","5","","13","","24.1","","99.76","","","","","","Cloudy"
"2003-09-02 02:00","2003","09","02","02:00","16.7","","14.2","","85","","6","","13","","24.1","","99.73","","","","","","Cloudy"
"2003-09-02 03:00","2003","09","02","03:00","16.9","","14.1","","84","","8","","9","","24.1","","99.69","","","","","","Cloudy"
"2003-09-02 04:00","2003","09","02","04:00","16.8","","14.3","","85","","6","","11","","24.1","","99.69","","","","","","Cloudy"
"2003-09-02 05:00","2003","09","02","05:00","17.4","","13.7","","79","","5","","15","","24.1","","99.73","","","","","","Mostly Cloudy"
"2003-09-02 06:00","2003","09","02","06:00","17.0","","13.1","","78","","6","","13","","24.1","","99.77","","","","","","Mostly Cloudy"
"2003-09-02 07:00","2003","09","02","07:00","17.5","","13.1","","75","","7","","19","","24.1","","99.79","","","","","","Mostly Cloudy"
"2003-09-02 08:00","2003","09","02","08:00","18.2","","13.9","","76","","8","","22","","24.1","","99.81","","","","","","Mostly Cloudy"
"2003-09-02 09:00","2003","09","02","09:00","19.0","","14.6","","76","","7","","20","","24.1","","99.83","","","","","","Mostly Cloudy"
"2003-09-02 10:00","2003","09","02","10:00","19.5","","14.2","","71","","8","","19","","24.1","","99.83","","","","","","Mostly Cloudy"
"2003-09-02 11:00","2003","09","02","11:00","20.2","","14.9","","72","","8","","17","","24.1","","99.81","","","","","","Mostly Cloudy"
"2003-09-02 12:00","2003","09","02","12:00","21.4","","13.9","","62","","7","","19","","24.1","","99.81","","25","","","","Mostly Cloudy"
"2003-09-02 13:00","2003","09","02","13:00","22.2","","14.5","","62","","9","","22","","24.1","","99.77","","26","","","","Mostly Cloudy"
"2003-09-02 14:00","2003","09","02","14:00","23.0","","15.1","","61","","9","","15","","24.1","","99.74","","27","","","","Mostly Cloudy"
"2003-09-02 15:00","2003","09","02","15:00","23.3","","14.7","","58","","11","","17","","24.1","","99.68","","27","","","","Mainly Clear"
"2003-09-02 16:00","2003","09","02","16:00","23.0","","15.4","","62","","12","","17","","24.1","","99.62","","27","","","","Mainly Clear"
"2003-09-02 17:00","2003","09","02","17:00","22.5","","16.0","","67","","14","","9","","24.1","","99.63","","27","","","","Mostly Cloudy"
"2003-09-02 18:00","2003","09","02","18:00","21.3","","16.1","","72","","14","","11","","24.1","","99.63","","26","","","","Mostly Cloudy"
"2003-09-02 19:00","2003","09","02","19:00","20.1","","16.3","","79","","14","","7","","24.1","","99.62","","25","","","","Mostly Cloudy"
"2003-09-02 20:00","2003","09","02","20:00","19.1","","16.3","","84","","14","","7","","24.1","","99.64","","","","","","Mostly Cloudy"
"2003-09-02 21:00","2003","09","02","21:00","18.3","","16.0","","86","","5","","4","","24.1","","99.65","","","","","","Mostly Cloudy"
"2003-09-02 22:00","2003","09","02","22:00","18.0","","16.0","","88","","9","","6","","24.1","","99.64","","","","","","Mostly Cloudy"
"2003-09-02 23:00","2003","09","02","23:00","17.1","","15.8","","92","","6","","4","","24.1","","99.62","","","","","","Clear"
"2003-09-03 00:00","2003","09","03","00:00","16.8","","15.8","","94","","6","","6","","24.1","","99.59","","","","","","Clear"
"2003-09-03 01:00","2003","09","03","01:00","16.9","","15.8","","93","","9","","6","","24.1","","99.54","","","","","","Clear"
"2003-09-03 02:00","2003","09","03","02:00","16.2","","15.3","","94","","","","0","","24.1","","99.50","","","","","","Clear"
"2003-09-03 03:00","2003","09","03","03:00","16.3","","15.5","","95","","7","","6","","24.1","","99.44","","","","","","Clear"
"2003-09-03 04:00","2003","09","03","04:00","16.4","","15.7","","96","","36","","6","","24.1","","99.41","","","","","","Clear"
"2003-09-03 05:00","2003","09","03","05:00","15.6","","15.4","","99","","36","","7","","12.9","","99.40","","","","","","Clear"
"2003-09-03 06:00","2003","09","03","06:00","16.1","","15.8","","98","","36","","6","","9.7","","99.46","","","","","","Fog"
"2003-09-03 07:00","2003","09","03","07:00","16.8","","16.5","","98","","4","","7","","6.4","","99.45","","","","","","Fog"
"2003-09-03 08:00","2003","09","03","08:00","19.2","","17.9","","92","","7","","7","","8.0","","99.43","","","","","","Fog"
"2003-09-03 09:00","2003","09","03","09:00","19.8","","17.6","","87","","7","","11","","12.9","","99.38","","","","","","Mostly Cloudy"
"2003-09-03 10:00","2003","09","03","10:00","20.9","","17.8","","82","","9","","7","","19.3","","99.36","","27","","","","Mostly Cloudy"
"2003-09-03 11:00","2003","09","03","11:00","23.0","","18.2","","74","","","","0","","24.1","","99.30","","29","","","","Mostly Cloudy"
"2003-09-03 12:00","2003","09","03","12:00","23.3","","17.3","","69","","22","","11","","24.1","","99.19","","29","","","","Mostly Cloudy"
"2003-09-03 13:00","2003","09","03","13:00","24.0","","17.8","","68","","22","","11","","24.1","","99.13","","30","","","","Mainly Clear"
"2003-09-03 14:00","2003","09","03","14:00","24.9","","17.2","","62","","23","","15","","24.1","","99.07","","30","","","","Mainly Clear"
"2003-09-03 15:00","2003","09","03","15:00","24.5","","18.1","","68","","22","","17","","19.3","","98.97","","31","","","","Mainly Clear"
"2003-09-03 16:00","2003","09","03","16:00","25.2","","18.0","","64","","25","","22","","19.3","","98.91","","31","","","","Mostly Cloudy"
"2003-09-03 17:00","2003","09","03","17:00","25.2","","17.3","","62","","25","","24","","19.3","","98.92","","31","","","","Mainly Clear"
"2003-09-03 18:00","2003","09","03","18:00","24.2","","17.2","","65","","26","","19","","24.1","","98.92","","30","","","","Mainly Clear"
"2003-09-03 19:00","2003","09","03","19:00","22.9","","17.4","","71","","24","","15","","24.1","","98.91","","28","","","","Mainly Clear"
"2003-09-03 20:00","2003","09","03","20:00","21.7","","17.6","","78","","22","","11","","24.1","","98.93","","27","","","","Clear"
"2003-09-03 21:00","2003","09","03","21:00","20.9","","17.7","","82","","23","","11","","24.1","","98.96","","27","","","","Mainly Clear"
"2003-09-03 22:00","2003","09","03","22:00","20.3","","17.9","","86","","24","","9","","24.1","","98.96","","26","","","","Mainly Clear"
"2003-09-03 23:00","2003","09","03","23:00","19.9","","17.9","","88","","24","","9","","24.1","","98.93","","","","","","Clear"
"2003-09-04 00:00","2003","09","04","00:00","19.5","","17.8","","90","","28","","6","","24.1","","98.92","","","","","","Mainly Clear"
"2003-09-04 01:00","2003","09","04","01:00","19.1","","17.8","","92","","28","","7","","24.1","","98.93","","","","","","Mostly Cloudy"
"2003-09-04 02:00","2003","09","04","02:00","19.8","","17.3","","86","","33","","9","","16.1","","98.93","","","","","","Cloudy"
"2003-09-04 03:00","2003","09","04","03:00","19.3","","15.2","","77","","1","","11","","24.1","","98.93","","","","","","Mostly Cloudy"
"2003-09-04 04:00","2003","09","04","04:00","18.7","","14.5","","77","","35","","9","","24.1","","98.94","","","","","","Mainly Clear"
"2003-09-04 05:00","2003","09","04","05:00","17.4","","13.3","","77","","35","","11","","24.1","","98.94","","","","","","Mainly Clear"
"2003-09-04 06:00","2003","09","04","06:00","16.9","","12.8","","77","","35","","9","","24.1","","99.03","","","","","","Mainly Clear"
"2003-09-04 07:00","2003","09","04","07:00","16.9","","12.8","","77","","34","","9","","24.1","","99.10","","","","","","Mainly Clear"
"2003-09-04 08:00","2003","09","04","08:00","18.2","","12.8","","71","","31","","11","","24.1","","99.13","","","","","","Mainly Clear"
"2003-09-04 09:00","2003","09","04","09:00","19.5","","13.0","","66","","32","","13","","24.1","","99.16","","","","","","Mainly Clear"
"2003-09-04 10:00","2003","09","04","10:00","20.4","","12.3","","60","","33","","17","","24.1","","99.18","","","","","","Mainly Clear"
"2003-09-04 11:00","2003","09","04","11:00","20.1","","11.8","","59","","34","","15","","24.1","","99.19","","","","","","Mostly Cloudy"
"2003-09-04 12:00","2003","09","04","12:00","21.0","","11.5","","55","","34","","19","","24.1","","99.20","","","","","","Mostly Cloudy"
"2003-09-04 13:00","2003","09","04","13:00","20.2","","11.4","","57","","34","","19","","24.1","","99.21","","","","","","Mostly Cloudy"
"2003-09-04 14:00","2003","09","04","14:00","19.9","","11.4","","58","","32","","20","","24.1","","99.24","","","","","","Mostly Cloudy"
"2003-09-04 15:00","2003","09","04","15:00","20.1","","11.1","","56","","32","","22","","24.1","","99.22","","","","","","Mostly Cloudy"
"2003-09-04 16:00","2003","09","04","16:00","20.2","","10.8","","55","","33","","28","","24.1","","99.25","","","","","","Mostly Cloudy"
"2003-09-04 17:00","2003","09","04","17:00","19.2","","11.0","","59","","34","","22","","24.1","","99.30","","","","","","Mostly Cloudy"
"2003-09-04 18:00","2003","09","04","18:00","18.8","","10.9","","60","","33","","19","","24.1","","99.36","","","","","","Mostly Cloudy"
"2003-09-04 19:00","2003","09","04","19:00","18.3","","11.4","","64","","34","","13","","24.1","","99.40","","","","","","Mostly Cloudy"
"2003-09-04 20:00","2003","09","04","20:00","17.7","","10.1","","61","","34","","20","","24.1","","99.48","","","","","","Cloudy"
"2003-09-04 21:00","2003","09","04","21:00","17.1","","10.5","","65","","36","","22","","24.1","","99.55","","","","","","Cloudy"
"2003-09-04 22:00","2003","09","04","22:00","16.9","","10.6","","66","","35","","15","","24.1","","99.59","","","","","","Cloudy"
"2003-09-04 23:00","2003","09","04","23:00","16.8","","10.5","","66","","35","","19","","24.1","","99.60","","","","","","Cloudy"
"2003-09-05 00:00","2003","09","05","00:00","16.3","","10.8","","70","","36","","15","","24.1","","99.60","","","","","","Mostly Cloudy"
"2003-09-05 01:00","2003","09","05","01:00","16.5","","10.4","","67","","35","","11","","24.1","","99.61","","","","","","Mostly Cloudy"
"2003-09-05 02:00","2003","09","05","02:00","16.4","","10.2","","67","","33","","11","","24.1","","99.64","","","","","","Mostly Cloudy"
"2003-09-05 03:00","2003","09","05","03:00","16.3","","10.4","","68","","34","","9","","24.1","","99.69","","","","","","Mostly Cloudy"
"2003-09-05 04:00","2003","09","05","04:00","15.7","","10.5","","71","","35","","11","","24.1","","99.72","","","","","","Mostly Cloudy"
"2003-09-05 05:00","2003","09","05","05:00","15.8","","11.2","","74","","35","","11","","24.1","","99.74","","","","","","Mostly Cloudy"
"2003-09-05 06:00","2003","09","05","06:00","14.5","","11.1","","80","","35","","13","","24.1","","99.78","","","","","","Mainly Clear"
"2003-09-05 07:00","2003","09","05","07:00","14.9","","10.9","","77","","34","","11","","24.1","","99.85","","","","","","Mainly Clear"
"2003-09-05 08:00","2003","09","05","08:00","16.1","","10.7","","70","","35","","11","","24.1","","99.88","","","","","","Clear"
"2003-09-05 09:00","2003","09","05","09:00","17.4","","10.7","","65","","3","","11","","24.1","","99.92","","","","","","Clear"
"2003-09-05 10:00","2003","09","05","10:00","18.3","","9.9","","58","","35","","9","","24.1","","99.92","","","","","","Mainly Clear"
"2003-09-05 11:00","2003","09","05","11:00","19.8","","10.2","","54","","1","","7","","24.1","","99.92","","","","","","Mainly Clear"
"2003-09-05 12:00","2003","09","05","12:00","19.8","","9.4","","51","","6","","6","","24.1","","99.88","","","","","","Mainly Clear"
"2003-09-05 13:00","2003","09","05","13:00","20.6","","10.4","","52","","35","","7","","24.1","","99.84","","","","","","Mainly Clear"
"2003-09-05 14:00","2003","09","05","14:00","21.0","","11.3","","54","","9","","9","","24.1","","99.82","","","","","","Mostly Cloudy"
"2003-09-05 15:00","2003","09","05","15:00","20.6","","10.2","","51","","10","","6","","24.1","","99.79","","","","","","Mostly Cloudy"
"2003-09-05 16:00","2003","09","05","16:00","21.2","","11.4","","54","","15","","9","","24.1","","99.77","","","","","","Mostly Cloudy"
"2003-09-05 17:00","2003","09","05","17:00","19.7","","12.3","","62","","18","","15","","24.1","","99.77","","","","","","Mainly Clear"
"2003-09-05 18:00","2003","09","05","18:00","19.8","","12.0","","61","","19","","17","","24.1","","99.76","","","","","","Mainly Clear"
"2003-09-05 19:00","2003","09","05","19:00","18.1","","12.1","","68","","18","","11","","24.1","","99.75","","","","","","Clear"
"2003-09-05 20:00","2003","09","05","20:00","16.4","","12.0","","75","","18","","11","","24.1","","99.78","","","","","","Clear"
"2003-09-05 21:00","2003","09","05","21:00","15.9","","12.2","","79","","20","","4","","24.1","","99.80","","","","","","Clear"
"2003-09-05 22:00","2003","09","05","22:00","15.6","","12.2","","80","","23","","6","","24.1","","99.80","","","","","","Clear"
"2003-09-05 23:00","2003","09","05","23:00","14.7","","12.3","","86","","","","0","","24.1","","99.84","","","","","","Clear"
"2003-09-06 00:00","2003","09","06","00:00","14.6","","12.4","","87","","26","","6","","24.1","","99.84","","","","","","Clear"
"2003-09-06 01:00","2003","09","06","01:00","14.7","","12.3","","86","","26","","9","","24.1","","99.84","","","","","","Clear"
"2003-09-06 02:00","2003","09","06","02:00","14.6","","11.8","","83","","29","","9","","24.1","","99.81","","","","","","Clear"
"2003-09-06 03:00","2003","09","06","03:00","14.1","","11.2","","83","","27","","7","","24.1","","99.84","","","","","","Clear"
"2003-09-06 04:00","2003","09","06","04:00","14.0","","11.1","","83","","28","","9","","24.1","","99.87","","","","","","Clear"
"2003-09-06 05:00","2003","09","06","05:00","13.4","","11.1","","86","","26","","7","","24.1","","99.88","","","","","","Clear"
"2003-09-06 06:00","2003","09","06","06:00","13.4","","11.2","","87","","26","","11","","16.1","","99.91","","","","","","Clear"
"2003-09-06 07:00","2003","09","06","07:00","14.1","","11.5","","84","","25","","6","","19.3","","99.92","","","","","","Clear"
"2003-09-06 08:00","2003","09","06","08:00","16.5","","11.6","","73","","27","","9","","24.1","","99.92","","","","","","Clear"
"2003-09-06 09:00","2003","09","06","09:00","18.4","","12.1","","67","","25","","11","","24.1","","99.93","","","","","","Clear"
"2003-09-06 10:00","2003","09","06","10:00","19.8","","12.4","","62","","26","","9","","24.1","","99.94","","","","","","Clear"
"2003-09-06 11:00","2003","09","06","11:00","21.6","","11.9","","54","","28","","15","","24.1","","99.92","","","","","","Clear"
"2003-09-06 12:00","2003","09","06","12:00","22.5","","12.8","","54","","22","","20","","24.1","","99.86","","25","","","","Clear"
"2003-09-06 13:00","2003","09","06","13:00","22.6","","11.9","","51","","21","","13","","24.1","","99.82","","25","","","","Clear"
"2003-09-06 14:00","2003","09","06","14:00","22.7","","12.6","","53","","22","","9","","24.1","","99.75","","25","","","","Clear"
"2003-09-06 15:00","2003","09","06","15:00","23.1","","13.2","","54","","23","","11","","24.1","","99.69","","26","","","","Clear"
"2003-09-06 16:00","2003","09","06","16:00","23.0","","13.0","","53","","22","","15","","24.1","","99.67","","26","","","","Clear"
"2003-09-06 17:00","2003","09","06","17:00","22.6","","13.6","","57","","22","","17","","24.1","","99.65","","26","","","","Clear"
"2003-09-06 18:00","2003","09","06","18:00","22.0","","13.5","","59","","21","","11","","24.1","","99.63","","25","","","","Mainly Clear"
"2003-09-06 19:00","2003","09","06","19:00","20.2","","14.1","","68","","20","","13","","24.1","","99.63","","","","","","Mainly Clear"
"2003-09-06 20:00","2003","09","06","20:00","18.8","","14.5","","76","","21","","9","","24.1","","99.66","","","","","","Clear"
"2003-09-06 21:00","2003","09","06","21:00","17.8","","14.4","","80","","20","","9","","24.1","","99.66","","","","","","Clear"
"2003-09-06 22:00","2003","09","06","22:00","17.5","","14.6","","83","","21","","9","","24.1","","99.66","","","","","","Clear"
"2003-09-06 23:00","2003","09","06","23:00","17.0","","14.7","","86","","22","","9","","24.1","","99.67","","","","","","Clear"
"2003-09-07 00:00","2003","09","07","00:00","16.9","","15.1","","89","","23","","7","","24.1","","99.67","","","","","","Clear"
"2003-09-07 01:00","2003","09","07","01:00","16.7","","15.3","","91","","24","","7","","24.1","","99.65","","","","","","Clear"
"2003-09-07 02:00","2003","09","07","02:00","17.0","","14.5","","85","","25","","7","","24.1","","99.62","","","","","","Clear"
"2003-09-07 03:00","2003","09","07","03:00","16.6","","13.9","","84","","25","","6","","24.1","","99.59","","","","","","Clear"
"2003-09-07 04:00","2003","09","07","04:00","15.6","","13.7","","88","","23","","9","","24.1","","99.60","","","","","","Clear"
"2003-09-07 05:00","2003","09","07","05:00","15.2","","13.2","","88","","23","","7","","24.1","","99.62","","","","","","Clear"
"2003-09-07 06:00","2003","09","07","06:00","14.9","","13.1","","89","","26","","7","","12.9","","99.62","","","","","","Mainly Clear"
"2003-09-07 07:00","2003","09","07","07:00","15.7","","13.4","","86","","23","","9","","24.1","","99.66","","","","","","Clear"
"2003-09-07 08:00","2003","09","07","08:00","18.4","","13.6","","74","","25","","7","","24.1","","99.67","","","","","","Clear"
"2003-09-07 09:00","2003","09","07","09:00","20.5","","14.0","","66","","27","","15","","24.1","","99.68","","","","","","Clear"
"2003-09-07 10:00","2003","09","07","10:00","22.7","","13.7","","57","","27","","13","","24.1","","99.67","","26","","","","Clear"
"2003-09-07 11:00","2003","09","07","11:00","24.4","","14.5","","54","","23","","17","","24.1","","99.63","","28","","","","Clear"
"2003-09-07 12:00","2003","09","07","12:00","25.3","","15.2","","54","","21","","15","","24.1","","99.60","","29","","","","Mainly Clear"
"2003-09-07 13:00","2003","09","07","13:00","26.1","","15.5","","52","","24","","17","","24.1","","99.57","","30","","","","Mainly Clear"
"2003-09-07 14:00","2003","09","07","14:00","26.3","","16.0","","53","","22","","15","","24.1","","99.52","","31","","","","Mainly Clear"
"2003-09-07 15:00","2003","09","07","15:00","27.3","","17.2","","54","","26","","17","","24.1","","99.48","","33","","","","Mainly Clear"
"2003-09-07 16:00","2003","09","07","16:00","26.6","","16.9","","55","","23","","19","","24.1","","99.47","","32","","","","Mainly Clear"
"2003-09-07 17:00","2003","09","07","17:00","25.7","","16.8","","58","","21","","20","","24.1","","99.47","","31","","","","Mainly Clear"
"2003-09-07 18:00","2003","09","07","18:00","24.8","","17.0","","62","","22","","15","","24.1","","99.47","","30","","","","Mainly Clear"
"2003-09-07 19:00","2003","09","07","19:00","22.9","","17.3","","71","","21","","11","","24.1","","99.49","","28","","","","Mainly Clear"
"2003-09-07 20:00","2003","09","07","20:00","21.4","","17.3","","77","","20","","9","","24.1","","99.55","","27","","","","Mostly Cloudy"
"2003-09-07 21:00","2003","09","07","21:00","20.9","","17.9","","83","","3","","19","","19.3","","99.61","","27","","","","Mostly Cloudy"
"2003-09-07 22:00","2003","09","07","22:00","19.6","","18.7","","95","","5","","13","","6.4","","99.64","","","","","","Fog"
"2003-09-07 23:00","2003","09","07","23:00","19.1","","18.2","","95","","5","","15","","6.4","","99.67","","","","","","Fog"
"2003-09-08 00:00","2003","09","08","00:00","18.5","","17.8","","96","","9","","6","","6.4","","99.68","","","","","","Fog"
"2003-09-08 01:00","2003","09","08","01:00","17.9","","17.4","","97","","6","","7","","4.8","","99.66","","","","","","Fog"
"2003-09-08 02:00","2003","09","08","02:00","16.8","","16.6","","99","","5","","11","","4.8","","99.66","","","","","","Fog"
"2003-09-08 03:00","2003","09","08","03:00","16.8","","16.6","","99","","35","","7","","4.8","","99.66","","","","","","Fog"
"2003-09-08 04:00","2003","09","08","04:00","16.8","","16.5","","98","","36","","7","","4.8","","99.66","","","","","","Fog"
"2003-09-08 05:00","2003","09","08","05:00","16.8","","16.3","","97","","35","","7","","4.8","","99.70","","","","","","Fog"
"2003-09-08 06:00","2003","09","08","06:00","16.5","","16.3","","99","","36","","9","","3.2","","99.71","","","","","","Fog"
"2003-09-08 07:00","2003","09","08","07:00","17.5","","17.2","","98","","3","","13","","4.0","","99.77","","","","","","Fog"
"2003-09-08 08:00","2003","09","08","08:00","18.1","","17.5","","96","","5","","15","","4.8","","99.80","","","","","","Fog"
"2003-09-08 09:00","2003","09","08","09:00","18.1","","17.2","","94","","5","","13","","4.8","","99.84","","","","","","Fog"
"2003-09-08 10:00","2003","09","08","10:00","18.3","","17.5","","95","","6","","13","","4.8","","99.86","","","","","","Fog"
"2003-09-08 11:00","2003","09","08","11:00","18.5","","17.7","","95","","5","","13","","4.8","","99.88","","","","","","Fog"
"2003-09-08 12:00","2003","09","08","12:00","19.6","","17.7","","89","","7","","13","","8.0","","99.88","","","","","","Fog"
"2003-09-08 13:00","2003","09","08","13:00","21.4","","17.9","","80","","4","","15","","9.7","","99.84","","27","","","","Haze"
"2003-09-08 14:00","2003","09","08","14:00","22.9","","18.1","","74","","4","","15","","12.9","","99.79","","29","","","","Mostly Cloudy"
"2003-09-08 15:00","2003","09","08","15:00","24.2","","16.8","","63","","7","","15","","19.3","","99.77","","29","","","","Mainly Clear"
"2003-09-08 16:00","2003","09","08","16:00","23.8","","17.1","","66","","9","","13","","19.3","","99.78","","29","","","","Mainly Clear"
"2003-09-08 17:00","2003","09","08","17:00","23.4","","18.3","","73","","12","","11","","24.1","","99.79","","30","","","","Mainly Clear"
"2003-09-08 18:00","2003","09","08","18:00","22.3","","17.2","","73","","14","","13","","19.3","","99.79","","28","","","","Mostly Cloudy"
"2003-09-08 19:00","2003","09","08","19:00","20.9","","16.8","","77","","14","","6","","16.1","","99.81","","26","","","","Mostly Cloudy"
"2003-09-08 20:00","2003","09","08","20:00","19.2","","16.8","","86","","12","","6","","12.9","","99.85","","","","","","Mostly Cloudy"
"2003-09-08 21:00","2003","09","08","21:00","19.1","","17.0","","88","","10","","9","","11.3","","99.87","","","","","","Mainly Clear"
"2003-09-08 22:00","2003","09","08","22:00","18.9","","16.8","","88","","8","","7","","12.9","","99.90","","","","","","Mostly Cloudy"
"2003-09-08 23:00","2003","09","08","23:00","19.0","","16.2","","84","","9","","9","","16.1","","99.96","","","","","","Mostly Cloudy"
"2003-09-09 00:00","2003","09","09","00:00","17.8","","14.3","","80","","9","","9","","24.1","","99.97","","","","","","Mostly Cloudy"
"2003-09-09 01:00","2003","09","09","01:00","17.3","","13.0","","76","","9","","9","","24.1","","99.96","","","","","","Mainly Clear"
"2003-09-09 02:00","2003","09","09","02:00","15.6","","12.8","","83","","6","","6","","24.1","","99.98","","","","","","Mainly Clear"
"2003-09-09 03:00","2003","09","09","03:00","15.9","","13.1","","83","","4","","9","","24.1","","99.97","","","","","","Clear"
"2003-09-09 04:00","2003","09","09","04:00","15.2","","13.6","","90","","4","","9","","24.1","","99.99","","","","","","Clear"
"2003-09-09 05:00","2003","09","09","05:00","15.2","","13.9","","92","","5","","13","","24.1","","100.01","","","","","","Clear"
"2003-09-09 06:00","2003","09","09","06:00","14.6","","13.6","","94","","5","","11","","19.3","","100.07","","","","","","Clear"
"2003-09-09 07:00","2003","09","09","07:00","16.6","","14.9","","90","","5","","13","","24.1","","100.10","","","","","","Mainly Clear"
"2003-09-09 08:00","2003","09","09","08:00","18.2","","15.7","","85","","4","","19","","24.1","","100.13","","","","","","Mainly Clear"
"2003-09-09 09:00","2003","09","09","09:00","19.1","","15.9","","82","","5","","17","","24.1","","100.14","","","","","","Mainly Clear"
"2003-09-09 10:00","2003","09","09","10:00","20.2","","16.4","","79","","5","","15","","24.1","","100.15","","25","","","","Mainly Clear"
"2003-09-09 11:00","2003","09","09","11:00","21.5","","16.8","","75","","4","","17","","24.1","","100.16","","27","","","","Mainly Clear"
"2003-09-09 12:00","2003","09","09","12:00","22.5","","16.8","","70","","3","","20","","24.1","","100.14","","28","","","","Mainly Clear"
"2003-09-09 13:00","2003","09","09","13:00","23.0","","16.5","","67","","3","","22","","24.1","","100.10","","28","","","","Mainly Clear"
"2003-09-09 14:00","2003","09","09","14:00","24.0","","15.3","","58","","5","","24","","24.1","","100.04","","28","","","","Mainly Clear"
"2003-09-09 15:00","2003","09","09","15:00","24.2","","14.1","","53","","9","","19","","24.1","","100.01","","28","","","","Mainly Clear"
"2003-09-09 16:00","2003","09","09","16:00","24.2","","14.5","","55","","6","","17","","24.1","","100.02","","28","","","","Mainly Clear"
"2003-09-09 17:00","2003","09","09","17:00","24.4","","13.6","","51","","9","","11","","24.1","","99.99","","28","","","","Clear"
"2003-09-09 18:00","2003","09","09","18:00","23.3","","13.9","","56","","13","","13","","24.1","","100.01","","27","","","","Mainly Clear"
"2003-09-09 19:00","2003","09","09","19:00","20.9","","13.9","","64","","11","","9","","24.1","","100.03","","","","","","Mainly Clear"
"2003-09-09 20:00","2003","09","09","20:00","19.0","","13.2","","69","","8","","7","","24.1","","100.06","","","","","","Clear"
"2003-09-09 21:00","2003","09","09","21:00","18.9","","12.9","","68","","9","","7","","24.1","","100.09","","","","","","Clear"
"2003-09-09 22:00","2003","09","09","22:00","18.5","","12.8","","69","","7","","7","","24.1","","100.09","","","","","","Mostly Cloudy"
"2003-09-09 23:00","2003","09","09","23:00","17.7","","14.6","","82","","9","","9","","24.1","","100.09","","","","","","Mostly Cloudy"
"2003-09-10 00:00","2003","09","10","00:00","16.5","","15.2","","92","","8","","9","","24.1","","100.07","","","","","","Mostly Cloudy"
"2003-09-10 01:00","2003","09","10","01:00","16.4","","15.3","","93","","8","","9","","24.1","","100.07","","","","","","Mainly Clear"
"2003-09-10 02:00","2003","09","10","02:00","16.1","","15.3","","95","","4","","11","","19.3","","100.06","","","","","","Mostly Cloudy"
"2003-09-10 03:00","2003","09","10","03:00","16.1","","15.5","","96","","7","","9","","19.3","","100.06","","","","","","Mostly Cloudy"
"2003-09-10 04:00","2003","09","10","04:00","16.3","","15.6","","96","","6","","9","","19.3","","100.07","","","","","","Mostly Cloudy"
"2003-09-10 05:00","2003","09","10","05:00","16.4","","16.0","","97","","3","","9","","12.9","","100.10","","","","","","Mostly Cloudy"
"2003-09-10 06:00","2003","09","10","06:00","16.2","","16.1","","99","","4","","7","","6.4","","100.12","","","","","","Fog"
"2003-09-10 07:00","2003","09","10","07:00","17.8","","17.6","","99","","8","","15","","4.8","","100.13","","","","","","Fog"
"2003-09-10 08:00","2003","09","10","08:00","18.4","","18.3","","99","","7","","9","","3.2","","100.15","","","","","","Fog"
"2003-09-10 09:00","2003","09","10","09:00","19.3","","18.6","","96","","5","","11","","4.8","","100.22","","","","","","Fog"
"2003-09-10 10:00","2003","09","10","10:00","19.8","","18.7","","93","","4","","9","","4.8","","100.25","","","","","","Fog"
"2003-09-10 11:00","2003","09","10","11:00","20.9","","19.3","","91","","4","","13","","6.4","","100.23","","28","","","","Fog"
"2003-09-10 12:00","2003","09","10","12:00","21.8","","19.3","","86","","6","","11","","8.0","","100.18","","29","","","","Haze"
"2003-09-10 13:00","2003","09","10","13:00","23.7","","19.6","","78","","5","","13","","9.7","","100.16","","31","","","","Haze"
"2003-09-10 14:00","2003","09","10","14:00","24.3","","19.5","","75","","4","","13","","9.7","","100.13","","31","","","","Haze"
"2003-09-10 15:00","2003","09","10","15:00","24.9","","19.1","","70","","5","","11","","9.7","","100.14","","32","","","","Haze"
"2003-09-10 16:00","2003","09","10","16:00","24.8","","18.6","","68","","7","","11","","9.7","","100.11","","31","","","","Haze"
"2003-09-10 17:00","2003","09","10","17:00","24.2","","17.0","","64","","13","","13","","9.7","","100.11","","29","","","","Haze"
"2003-09-10 18:00","2003","09","10","18:00","23.4","","15.9","","63","","13","","11","","12.9","","100.11","","28","","","","Clear"
"2003-09-10 19:00","2003","09","10","19:00","20.9","","16.1","","74","","13","","6","","12.9","","100.12","","26","","","","Clear"
"2003-09-10 20:00","2003","09","10","20:00","19.5","","16.6","","83","","12","","7","","19.3","","100.14","","","","","","Clear"
"2003-09-10 21:00","2003","09","10","21:00","17.9","","16.0","","89","","9","","6","","19.3","","100.16","","","","","","Clear"
"2003-09-10 22:00","2003","09","10","22:00","17.1","","15.6","","91","","9","","9","","19.3","","100.18","","","","","","Clear"
"2003-09-10 23:00","2003","09","10","23:00","17.4","","16.4","","94","","9","","7","","16.1","","100.18","","","","","","Clear"
"2003-09-11 00:00","2003","09","11","00:00","17.1","","16.5","","96","","13","","7","","12.9","","100.17","","","","","","Clear"
"2003-09-11 01:00","2003","09","11","01:00","16.8","","16.5","","98","","","","0","","6.4","","100.18","","","","","","Fog"
"2003-09-11 02:00","2003","09","11","02:00","16.1","","15.9","","99","","","","0","","1.6","","100.17","","","","","","Fog"
"2003-09-11 03:00","2003","09","11","03:00","14.8","","14.8","","100","","","","0","","0.6","","100.17","","","","","","Fog"
"2003-09-11 04:00","2003","09","11","04:00","15.2","","15.2","","100","","","","0","","1.6","","100.19","","","","","","Fog"
"2003-09-11 05:00","2003","09","11","05:00","14.4","","14.4","","100","","4","","4","","0.4","","100.27","","","","","","Fog"
"2003-09-11 06:00","2003","09","11","06:00","14.9","","14.9","","100","","6","","4","","0.4","","100.29","","","","","","Fog"
"2003-09-11 07:00","2003","09","11","07:00","15.6","","15.6","","100","","8","","6","","0.4","","100.30","","","","","","Fog"
"2003-09-11 08:00","2003","09","11","08:00","18.4","","18.2","","99","","9","","6","","6.4","","100.31","","","","","","Fog"
"2003-09-11 09:00","2003","09","11","09:00","21.3","","18.6","","85","","10","","7","","9.7","","100.31","","28","","","","Haze"
"2003-09-11 10:00","2003","09","11","10:00","23.5","","18.6","","74","","7","","7","","9.7","","100.31","","30","","","","Haze"
"2003-09-11 11:00","2003","09","11","11:00","25.4","","15.2","","53","","7","","11","","12.9","","100.26","","29","","","","Mainly Clear"
"2003-09-11 12:00","2003","09","11","12:00","26.5","","15.3","","50","","3","","15","","16.1","","100.24","","31","","","","Mainly Clear"
"2003-09-11 13:00","2003","09","11","13:00","26.1","","16.9","","57","","7","","20","","19.3","","100.16","","31","","","","Mainly Clear"
"2003-09-11 14:00","2003","09","11","14:00","27.2","","13.8","","44","","15","","13","","19.3","","100.10","","30","","","","Clear"
"2003-09-11 15:00","2003","09","11","15:00","27.0","","11.7","","39","","12","","15","","19.3","","100.03","","29","","","","Clear"
"2003-09-11 16:00","2003","09","11","16:00","26.8","","12.1","","40","","12","","9","","19.3","","99.99","","29","","","","Clear"
"2003-09-11 17:00","2003","09","11","17:00","26.4","","12.5","","42","","12","","13","","19.3","","99.95","","29","","","","Clear"
"2003-09-11 18:00","2003","09","11","18:00","24.9","","13.3","","48","","13","","9","","16.1","","99.93","","28","","","","Clear"
"2003-09-11 19:00","2003","09","11","19:00","22.3","","14.4","","61","","12","","9","","12.9","","99.94","","26","","","","Clear"
"2003-09-11 20:00","2003","09","11","20:00","20.2","","14.9","","72","","12","","7","","19.3","","99.96","","","","","","Clear"
"2003-09-11 21:00","2003","09","11","21:00","18.1","","15.1","","83","","15","","7","","24.1","","99.94","","","","","","Clear"
"2003-09-11 22:00","2003","09","11","22:00","18.1","","14.9","","82","","10","","4","","24.1","","99.92","","","","","","Clear"
"2003-09-11 23:00","2003","09","11","23:00","18.1","","15.3","","84","","12","","9","","24.1","","99.92","","","","","","Clear"
"2003-09-12 00:00","2003","09","12","00:00","18.1","","15.8","","86","","11","","4","","24.1","","99.88","","","","","","Clear"
"2003-09-12 01:00","2003","09","12","01:00","16.7","","15.2","","91","","9","","6","","24.1","","99.85","","","","","","Clear"
"2003-09-12 02:00","2003","09","12","02:00","16.8","","15.8","","94","","10","","7","","24.1","","99.82","","","","","","Clear"
"2003-09-12 03:00","2003","09","12","03:00","17.0","","16.6","","97","","12","","11","","19.3","","99.79","","","","","","Clear"
"2003-09-12 04:00","2003","09","12","04:00","16.6","","16.1","","97","","14","","4","","19.3","","99.76","","","","","","Clear"
"2003-09-12 05:00","2003","09","12","05:00","16.3","","15.7","","96","","17","","4","","19.3","","99.84","","","","","","Clear"
"2003-09-12 06:00","2003","09","12","06:00","17.0","","15.8","","93","","15","","11","","19.3","","99.76","","","","","","Clear"
"2003-09-12 07:00","2003","09","12","07:00","17.9","","15.8","","88","","13","","9","","16.1","","99.78","","","","","","Clear"
"2003-09-12 08:00","2003","09","12","08:00","20.1","","17.0","","82","","15","","11","","19.3","","99.80","","25","","","","Clear"
"2003-09-12 09:00","2003","09","12","09:00","22.0","","15.7","","67","","16","","22","","24.1","","99.83","","26","","","","Mainly Clear"
"2003-09-12 10:00","2003","09","12","10:00","22.9","","15.3","","62","","16","","28","","24.1","","99.82","","27","","","","Mainly Clear"
"2003-09-12 11:00","2003","09","12","11:00","23.6","","15.2","","59","","16","","30","","24.1","","99.81","","28","","","","Mainly Clear"
"2003-09-12 12:00","2003","09","12","12:00","24.0","","14.7","","56","","18","","20","","24.1","","99.74","","28","","","","Mainly Clear"
"2003-09-12 13:00","2003","09","12","13:00","24.6","","15.1","","55","","18","","19","","24.1","","99.69","","29","","","","Mainly Clear"
"2003-09-12 14:00","2003","09","12","14:00","25.3","","15.2","","54","","17","","17","","19.3","","99.62","","29","","","","Mainly Clear"
"2003-09-12 15:00","2003","09","12","15:00","24.9","","14.2","","51","","16","","24","","19.3","","99.56","","28","","","","Mainly Clear"
"2003-09-12 16:00","2003","09","12","16:00","24.7","","12.5","","47","","16","","19","","19.3","","99.55","","27","","","","Clear"
"2003-09-12 17:00","2003","09","12","17:00","24.4","","12.5","","47","","15","","20","","19.3","","99.53","","27","","","","Mainly Clear"
"2003-09-12 18:00","2003","09","12","18:00","23.3","","12.9","","52","","15","","15","","16.1","","99.51","","26","","","","Mainly Clear"
"2003-09-12 19:00","2003","09","12","19:00","20.9","","14.4","","66","","13","","11","","16.1","","99.54","","25","","","","Clear"
"2003-09-12 20:00","2003","09","12","20:00","19.6","","15.1","","75","","11","","11","","24.1","","99.60","","","","","","Clear"
"2003-09-12 21:00","2003","09","12","21:00","18.2","","15.3","","83","","13","","7","","24.1","","99.62","","","","","","Clear"
"2003-09-12 22:00","2003","09","12","22:00","17.8","","15.1","","84","","16","","7","","24.1","","99.63","","","","","","Clear"
"2003-09-12 23:00","2003","09","12","23:00","17.9","","14.7","","82","","17","","13","","24.1","","99.63","","","","","","Clear"
"2003-09-13 00:00","2003","09","13","00:00","17.6","","15.3","","86","","16","","13","","24.1","","99.67","","","","","","Clear"
"2003-09-13 01:00","2003","09","13","01:00","17.1","","15.5","","90","","16","","11","","19.3","","99.69","","","","","","Clear"
"2003-09-13 02:00","2003","09","13","02:00","16.7","","15.7","","94","","16","","11","","19.3","","99.67","","","","","","Clear"
"2003-09-13 03:00","2003","09","13","03:00","16.0","","15.5","","97","","18","","7","","19.3","","99.66","","","","","","Clear"
"2003-09-13 04:00","2003","09","13","04:00","16.0","","15.8","","99","","16","","9","","19.3","","99.67","","","","","","Clear"
"2003-09-13 05:00","2003","09","13","05:00","15.4","","15.3","","99","","17","","6","","16.1","","99.70","","","","","","Clear"
"2003-09-13 06:00","2003","09","13","06:00","15.1","","15.0","","99","","15","","4","","1.2","","99.74","","","","","","Fog"
"2003-09-13 07:00","2003","09","13","07:00","16.1","","16.1","","100","","17","","7","","6.4","","99.77","","","","","","Fog"
"2003-09-13 08:00","2003","09","13","08:00","19.1","","18.2","","95","","17","","9","","9.7","","99.77","","","","","","Fog"
"2003-09-13 09:00","2003","09","13","09:00","21.2","","17.3","","78","","15","","15","","16.1","","99.79","","27","","","","Mainly Clear"
"2003-09-13 10:00","2003","09","13","10:00","22.9","","17.1","","70","","18","","11","","24.1","","99.78","","28","","","","Clear"
"2003-09-13 11:00","2003","09","13","11:00","24.7","","14.5","","53","","18","","11","","24.1","","99.77","","28","","","","Clear"
"2003-09-13 12:00","2003","09","13","12:00","25.3","","14.7","","52","","19","","15","","24.1","","99.74","","29","","","","Mainly Clear"
"2003-09-13 13:00","2003","09","13","13:00","25.7","","14.4","","50","","16","","9","","24.1","","99.68","","29","","","","Mainly Clear"
"2003-09-13 14:00","2003","09","13","14:00","26.0","","14.9","","50","","15","","15","","24.1","","99.62","","30","","","","Mainly Clear"
"2003-09-13 15:00","2003","09","13","15:00","26.2","","15.7","","52","","14","","13","","24.1","","99.56","","31","","","","Mostly Cloudy"
"2003-09-13 16:00","2003","09","13","16:00","25.7","","15.4","","53","","16","","13","","24.1","","99.55","","30","","","","Mostly Cloudy"
"2003-09-13 17:00","2003","09","13","17:00","24.8","","16.1","","58","","13","","15","","24.1","","99.53","","29","","","","Mostly Cloudy"
"2003-09-13 18:00","2003","09","13","18:00","23.8","","16.5","","64","","15","","11","","24.1","","99.55","","29","","","","Mostly Cloudy"
"2003-09-13 19:00","2003","09","13","19:00","21.3","","17.0","","76","","14","","13","","24.1","","99.56","","27","","","","Mostly Cloudy"
"2003-09-13 20:00","2003","09","13","20:00","20.1","","18.2","","89","","14","","11","","24.1","","99.59","","26","","","","Mostly Cloudy"
"2003-09-13 21:00","2003","09","13","21:00","20.0","","18.8","","93","","14","","9","","24.1","","99.61","","27","","","","Mostly Cloudy"
"2003-09-13 22:00","2003","09","13","22:00","20.9","","19.5","","92","","13","","9","","24.1","","99.58","","28","","","","Mostly Cloudy"
"2003-09-13 23:00","2003","09","13","23:00","20.9","","19.9","","94","","12","","7","","24.1","","99.54","","28","","","","Mostly Cloudy"
"2003-09-14 00:00","2003","09","14","00:00","20.4","","19.8","","96","","15","","6","","24.1","","99.50","","28","","","","Mainly Clear"
"2003-09-14 01:00","2003","09","14","01:00","21.1","","20.3","","95","","16","","7","","24.1","","99.49","","29","","","","Mostly Cloudy"
"2003-09-14 02:00","2003","09","14","02:00","21.4","","20.6","","95","","18","","7","","19.3","","99.46","","29","","","","Mostly Cloudy"
"2003-09-14 03:00","2003","09","14","03:00","20.5","","20.3","","99","","17","","9","","12.9","","99.44","","28","","","","Mainly Clear"
"2003-09-14 04:00","2003","09","14","04:00","20.1","","19.4","","96","","20","","9","","11.3","","99.44","","27","","","","Mainly Clear"
"2003-09-14 05:00","2003","09","14","05:00","19.8","","18.7","","93","","20","","9","","12.9","","99.45","","","","","","Mainly Clear"
"2003-09-14 06:00","2003","09","14","06:00","19.0","","18.1","","95","","","","0","","9.7","","99.44","","","","","","Fog"
"2003-09-14 07:00","2003","09","14","07:00","19.3","","18.1","","93","","19","","7","","8.0","","99.47","","","","","","Fog"
"2003-09-14 08:00","2003","09","14","08:00","20.9","","18.7","","87","","18","","7","","9.7","","99.46","","27","","","","Haze"
"2003-09-14 09:00","2003","09","14","09:00","22.5","","18.9","","80","","20","","15","","9.7","","99.47","","29","","","","Haze"
"2003-09-14 10:00","2003","09","14","10:00","24.3","","18.1","","68","","20","","17","","11.3","","99.44","","30","","","","Mainly Clear"
"2003-09-14 11:00","2003","09","14","11:00","26.1","","18.4","","63","","19","","17","","12.9","","99.40","","32","","","","Mainly Clear"
"2003-09-14 12:00","2003","09","14","12:00","27.4","","17.8","","56","","21","","22","","16.1","","99.36","","33","","","","Mainly Clear"
"2003-09-14 13:00","2003","09","14","13:00","28.5","","17.3","","51","","20","","26","","19.3","","99.31","","34","","","","Mainly Clear"
"2003-09-14 14:00","2003","09","14","14:00","28.1","","17.2","","52","","17","","22","","19.3","","99.24","","34","","","","Mainly Clear"
"2003-09-14 15:00","2003","09","14","15:00","27.4","","17.1","","53","","17","","24","","16.1","","99.17","","33","","","","Mostly Cloudy"
"2003-09-14 16:00","2003","09","14","16:00","22.3","","21.2","","93","","20","","9","","8.0","","99.23","","31","","","","Fog"
"2003-09-14 17:00","2003","09","14","17:00","22.6","","21.3","","92","","18","","7","","9.7","","99.23","","31","","","","Fog"
"2003-09-14 18:00","2003","09","14","18:00","22.3","","21.3","","94","","16","","4","","6.4","","99.21","","31","","","","Fog"
"2003-09-14 19:00","2003","09","14","19:00","21.6","","20.9","","96","","16","","15","","4.0","","99.23","","30","","","","Rain Showers,Fog"
"2003-09-14 20:00","2003","09","14","20:00","21.4","","20.3","","93","","19","","17","","8.0","","99.27","","29","","","","Rain Showers,Fog"
"2003-09-14 21:00","2003","09","14","21:00","21.5","","20.5","","94","","20","","15","","8.0","","99.27","","29","","","","Fog"
"2003-09-14 22:00","2003","09","14","22:00","21.4","","20.4","","94","","20","","13","","12.9","","99.25","","29","","","","Mostly Cloudy"
"2003-09-14 23:00","2003","09","14","23:00","21.5","","20.7","","95","","20","","9","","8.0","","99.19","","30","","","","Fog"
"2003-09-15 00:00","2003","09","15","00:00","21.4","","20.3","","93","","20","","11","","9.7","","99.16","","29","","","","Fog"
"2003-09-15 01:00","2003","09","15","01:00","20.5","","18.0","","86","","31","","4","","24.1","","99.14","","27","","","","Mostly Cloudy"
"2003-09-15 02:00","2003","09","15","02:00","20.0","","17.9","","88","","27","","7","","19.3","","99.13","","26","","","","Cloudy"
"2003-09-15 03:00","2003","09","15","03:00","19.1","","18.6","","97","","28","","17","","8.0","","99.10","","","","","","Rain Showers,Fog"
"2003-09-15 04:00","2003","09","15","04:00","17.4","","17.0","","97","","30","","11","","9.7","","99.10","","","","","","Rain Showers,Fog"
"2003-09-15 05:00","2003","09","15","05:00","17.3","","17.0","","98","","28","","13","","9.7","","99.11","","","","","","Rain Showers,Fog"
"2003-09-15 06:00","2003","09","15","06:00","16.6","","15.6","","94","","30","","17","","24.1","","99.19","","","","","","Cloudy"
"2003-09-15 07:00","2003","09","15","07:00","16.4","","15.1","","92","","29","","15","","19.3","","99.29","","","","","","Rain Showers"
"2003-09-15 08:00","2003","09","15","08:00","16.4","","14.5","","89","","30","","13","","19.3","","99.33","","","","","","Cloudy"
"2003-09-15 09:00","2003","09","15","09:00","17.4","","15.1","","86","","28","","20","","24.1","","99.36","","","","","","Mostly Cloudy"
"2003-09-15 10:00","2003","09","15","10:00","18.8","","13.8","","73","","27","","19","","24.1","","99.43","","","","","","Mostly Cloudy"
"2003-09-15 11:00","2003","09","15","11:00","19.9","","12.7","","63","","29","","19","","24.1","","99.43","","","","","","Mostly Cloudy"
"2003-09-15 12:00","2003","09","15","12:00","21.0","","11.4","","54","","26","","19","","24.1","","99.40","","","","","","Mostly Cloudy"
"2003-09-15 13:00","2003","09","15","13:00","21.9","","10.6","","49","","27","","15","","24.1","","99.40","","","","","","Mostly Cloudy"
"2003-09-15 14:00","2003","09","15","14:00","22.6","","10.3","","46","","28","","26","","24.1","","99.37","","","","","","Mostly Cloudy"
"2003-09-15 15:00","2003","09","15","15:00","22.3","","10.0","","46","","28","","26","","24.1","","99.36","","","","","","Mostly Cloudy"
"2003-09-15 16:00","2003","09","15","16:00","21.4","","8.2","","43","","28","","28","","24.1","","99.38","","","","","","Mostly Cloudy"
"2003-09-15 17:00","2003","09","15","17:00","21.6","","6.2","","37","","26","","24","","24.1","","99.38","","","","","","Mainly Clear"
"2003-09-15 18:00","2003","09","15","18:00","20.4","","9.2","","49","","28","","13","","24.1","","99.43","","","","","","Mainly Clear"
"2003-09-15 19:00","2003","09","15","19:00","19.1","","9.6","","54","","26","","13","","24.1","","99.46","","","","","","Mainly Clear"
"2003-09-15 20:00","2003","09","15","20:00","17.3","","10.6","","65","","23","","11","","24.1","","99.50","","","","","","Clear"
"2003-09-15 21:00","2003","09","15","21:00","16.4","","11.1","","71","","24","","9","","24.1","","99.54","","","","","","Clear"
"2003-09-15 22:00","2003","09","15","22:00","16.0","","10.8","","71","","25","","9","","24.1","","99.56","","","","","","Mainly Clear"
"2003-09-15 23:00","2003","09","15","23:00","15.0","","10.8","","76","","22","","6","","24.1","","99.56","","","","","","Clear"
"2003-09-16 00:00","2003","09","16","00:00","14.5","","10.6","","77","","23","","7","","24.1","","99.56","","","","","","Mostly Cloudy"
"2003-09-16 01:00","2003","09","16","01:00","14.7","","11.0","","78","","23","","7","","24.1","","99.58","","","","","","Mostly Cloudy"
"2003-09-16 02:00","2003","09","16","02:00","14.7","","10.9","","78","","26","","11","","24.1","","99.57","","","","","","Mainly Clear"
"2003-09-16 03:00","2003","09","16","03:00","14.3","","10.9","","80","","27","","9","","24.1","","99.59","","","","","","Mainly Clear"
"2003-09-16 04:00","2003","09","16","04:00","14.7","","10.6","","76","","25","","11","","24.1","","99.61","","","","","","Mainly Clear"
"2003-09-16 05:00","2003","09","16","05:00","13.9","","10.8","","82","","25","","9","","24.1","","99.61","","","","","","Mainly Clear"
"2003-09-16 06:00","2003","09","16","06:00","13.5","","10.4","","82","","25","","7","","24.1","","99.66","","","","","","Mainly Clear"
"2003-09-16 07:00","2003","09","16","07:00","13.2","","10.6","","84","","27","","9","","24.1","","99.71","","","","","","Mainly Clear"
"2003-09-16 08:00","2003","09","16","08:00","16.0","","11.4","","74","","29","","9","","24.1","","99.73","","","","","","Clear"
"2003-09-16 09:00","2003","09","16","09:00","19.0","","11.7","","63","","27","","15","","24.1","","99.79","","","","","","Clear"
"2003-09-16 10:00","2003","09","16","10:00","21.0","","9.7","","48","","31","","13","","24.1","","99.80","","","","","","Clear"
"2003-09-16 11:00","2003","09","16","11:00","21.9","","9.1","","44","","25","","19","","24.1","","99.81","","","","","","Clear"
"2003-09-16 12:00","2003","09","16","12:00","23.2","","9.6","","42","","27","","7","","24.1","","99.80","","","","","","Clear"
"2003-09-16 13:00","2003","09","16","13:00","23.9","","9.5","","40","","26","","7","","24.1","","99.77","","25","","","","Clear"
"2003-09-16 14:00","2003","09","16","14:00","24.4","","9.8","","40","","26","","15","","24.1","","99.74","","26","","","","Clear"
"2003-09-16 15:00","2003","09","16","15:00","24.6","","11.5","","44","","23","","13","","24.1","","99.71","","27","","","","Mainly Clear"
"2003-09-16 16:00","2003","09","16","16:00","23.8","","11.1","","45","","21","","24","","24.1","","99.70","","26","","","","Mainly Clear"
"2003-09-16 17:00","2003","09","16","17:00","24.1","","10.9","","43","","22","","17","","24.1","","99.69","","26","","","","Mainly Clear"
"2003-09-16 18:00","2003","09","16","18:00","23.3","","11.7","","48","","20","","13","","24.1","","99.71","","25","","","","Clear"
"2003-09-16 19:00","2003","09","16","19:00","20.4","","12.6","","61","","18","","11","","24.1","","99.72","","","","","","Mainly Clear"
"2003-09-16 20:00","2003","09","16","20:00","19.5","","13.7","","69","","17","","13","","24.1","","99.77","","","","","","Clear"
"2003-09-16 21:00","2003","09","16","21:00","18.9","","14.1","","74","","19","","9","","24.1","","99.82","","","","","","Clear"
"2003-09-16 22:00","2003","09","16","22:00","18.1","","14.1","","77","","18","","7","","24.1","","99.85","","","","","","Clear"
"2003-09-16 23:00","2003","09","16","23:00","17.7","","14.5","","82","","17","","4","","24.1","","99.88","","","","","","Clear"
"2003-09-17 00:00","2003","09","17","00:00","17.4","","15.3","","87","","18","","6","","24.1","","99.90","","","","","","Clear"
"2003-09-17 01:00","2003","09","17","01:00","17.3","","15.6","","90","","19","","4","","24.1","","99.93","","","","","","Clear"
"2003-09-17 02:00","2003","09","17","02:00","17.2","","15.6","","90","","22","","4","","24.1","","99.94","","","","","","Clear"
"2003-09-17 03:00","2003","09","17","03:00","16.0","","14.7","","92","","26","","4","","24.1","","99.98","","","","","","Clear"
"2003-09-17 04:00","2003","09","17","04:00","15.5","","14.9","","96","","22","","4","","24.1","","100.01","","","","","","Clear"
"2003-09-17 05:00","2003","09","17","05:00","14.6","","14.2","","97","","19","","7","","24.1","","100.07","","","","","","Clear"
"2003-09-17 06:00","2003","09","17","06:00","15.6","","14.1","","91","","23","","6","","24.1","","100.11","","","","","","Clear"
"2003-09-17 07:00","2003","09","17","07:00","16.5","","14.1","","86","","","","0","","24.1","","100.18","","","","","","Clear"
"2003-09-17 08:00","2003","09","17","08:00","18.9","","14.9","","78","","22","","6","","24.1","","100.19","","","","","","Clear"
"2003-09-17 09:00","2003","09","17","09:00","21.7","","15.0","","66","","19","","6","","24.1","","100.23","","26","","","","Clear"
"2003-09-17 10:00","2003","09","17","10:00","24.4","","14.0","","52","","17","","4","","24.1","","100.24","","28","","","","Clear"
"2003-09-17 11:00","2003","09","17","11:00","26.4","","11.4","","39","","3","","6","","24.1","","100.24","","28","","","","Clear"
"2003-09-17 12:00","2003","09","17","12:00","27.7","","12.0","","38","","21","","4","","24.1","","100.18","","30","","","","Mainly Clear"
"2003-09-17 13:00","2003","09","17","13:00","28.1","","12.0","","37","","","","0","","24.1","","100.15","","30","","","","Mainly Clear"
"2003-09-17 14:00","2003","09","17","14:00","28.1","","14.0","","42","","4","","6","","24.1","","100.14","","31","","","","Mainly Clear"
"2003-09-17 15:00","2003","09","17","15:00","27.9","","12.5","","39","","21","","15","","24.1","","100.11","","30","","","","Mainly Clear"
"2003-09-17 16:00","2003","09","17","16:00","26.9","","11.9","","39","","18","","17","","24.1","","100.09","","29","","","","Mainly Clear"
"2003-09-17 17:00","2003","09","17","17:00","26.4","","11.7","","40","","17","","13","","25.0","","100.10","","29","","","","Clear"
"2003-09-17 18:00","2003","09","17","18:00","24.9","","12.7","","47","","17","","11","","25.0","","100.10","","28","","","","Clear"
"2003-09-17 19:00","2003","09","17","19:00","22.5","","12.8","","54","","15","","6","","25.0","","100.11","","25","","","","Clear"
"2003-09-17 20:00","2003","09","17","20:00","20.9","","13.5","","63","","12","","13","","25.0","","100.16","","","","","","Clear"
"2003-09-17 21:00","2003","09","17","21:00","18.6","","15.1","","80","","12","","9","","24.1","","100.18","","","","","","Clear"
"2003-09-17 22:00","2003","09","17","22:00","18.2","","15.4","","84","","11","","9","","24.1","","100.19","","","","","","Clear"
"2003-09-17 23:00","2003","09","17","23:00","17.5","","15.2","","86","","12","","11","","24.1","","100.18","","","","","","Clear"
"2003-09-18 00:00","2003","09","18","00:00","17.2","","15.1","","87","","12","","11","","24.1","","100.12","","","","","","Clear"
"2003-09-18 01:00","2003","09","18","01:00","16.9","","14.9","","88","","10","","7","","24.1","","100.10","","","","","","Clear"
"2003-09-18 02:00","2003","09","18","02:00","15.7","","14.6","","93","","9","","9","","24.1","","100.08","","","","","","Clear"
"2003-09-18 03:00","2003","09","18","03:00","16.1","","15.0","","93","","9","","11","","24.1","","100.07","","","","","","Clear"
"2003-09-18 04:00","2003","09","18","04:00","16.5","","15.7","","95","","9","","7","","24.1","","100.08","","","","","","Clear"
"2003-09-18 05:00","2003","09","18","05:00","15.3","","14.9","","97","","","","0","","24.1","","100.10","","","","","","Clear"
"2003-09-18 06:00","2003","09","18","06:00","14.9","","14.6","","98","","","","0","","12.9","","100.12","","","","","","Clear"
"2003-09-18 07:00","2003","09","18","07:00","13.9","","13.3","","96","","9","","7","","16.1","","100.16","","","","","","Mainly Clear"
"2003-09-18 08:00","2003","09","18","08:00","18.4","","15.5","","83","","12","","7","","24.1","","100.17","","","","","","Mainly Clear"
"2003-09-18 09:00","2003","09","18","09:00","21.3","","15.3","","69","","13","","13","","24.1","","100.16","","25","","","","Mainly Clear"
"2003-09-18 10:00","2003","09","18","10:00","22.2","","13.8","","59","","13","","19","","24.1","","100.11","","25","","","","Mostly Cloudy"
"2003-09-18 11:00","2003","09","18","11:00","23.2","","13.2","","53","","14","","11","","24.1","","100.07","","26","","","","Mostly Cloudy"
"2003-09-18 12:00","2003","09","18","12:00","24.0","","11.6","","46","","9","","17","","24.1","","100.01","","26","","","","Mostly Cloudy"
"2003-09-18 13:00","2003","09","18","13:00","23.7","","11.1","","45","","8","","19","","24.1","","99.93","","26","","","","Mostly Cloudy"
"2003-09-18 14:00","2003","09","18","14:00","23.3","","12.6","","51","","8","","22","","24.1","","99.90","","26","","","","Mostly Cloudy"
"2003-09-18 15:00","2003","09","18","15:00","23.7","","9.8","","41","","10","","26","","24.1","","99.84","","25","","","","Mostly Cloudy"
"2003-09-18 16:00","2003","09","18","16:00","22.7","","10.4","","46","","9","","20","","24.1","","99.77","","","","","","Mostly Cloudy"
"2003-09-18 17:00","2003","09","18","17:00","21.8","","11.5","","52","","9","","20","","24.1","","99.74","","","","","","Mostly Cloudy"
"2003-09-18 18:00","2003","09","18","18:00","20.9","","12.7","","59","","10","","19","","24.1","","99.71","","","","","","Mostly Cloudy"
"2003-09-18 19:00","2003","09","18","19:00","20.2","","13.4","","65","","10","","20","","24.1","","99.66","","","","","","Mostly Cloudy"
"2003-09-18 20:00","2003","09","18","20:00","19.6","","15.0","","75","","9","","15","","24.1","","99.59","","","","","","Cloudy"
"2003-09-18 21:00","2003","09","18","21:00","19.5","","16.0","","80","","9","","17","","24.1","","99.48","","","","","","Mostly Cloudy"
"2003-09-18 22:00","2003","09","18","22:00","19.6","","16.8","","84","","9","","17","","24.1","","99.35","","","","","","Cloudy"
"2003-09-18 23:00","2003","09","18","23:00","19.7","","17.5","","87","","8","","15","","24.1","","99.26","","","","","","Cloudy"
"2003-09-19 00:00","2003","09","19","00:00","19.5","","17.4","","88","","8","","15","","24.1","","99.16","","","","","","Cloudy"
"2003-09-19 01:00","2003","09","19","01:00","18.8","","17.5","","92","","8","","15","","19.3","","99.09","","","","","","Rain"
"2003-09-19 02:00","2003","09","19","02:00","18.4","","17.7","","96","","6","","17","","19.3","","98.93","","","","","","Rain"
"2003-09-19 03:00","2003","09","19","03:00","17.5","","17.3","","99","","5","","20","","16.1","","98.80","","","","","","Moderate Rain"
"2003-09-19 04:00","2003","09","19","04:00","17.4","","17.2","","99","","3","","20","","11.3","","98.63","","","","","","Heavy Rain"
"2003-09-19 05:00","2003","09","19","05:00","17.2","","17.2","","100","","36","","19","","4.8","","98.53","","","","","","Heavy Rain,Fog"
"2003-09-19 06:00","2003","09","19","06:00","17.0","","17.0","","100","","1","","17","","6.4","","98.46","","","","","","Moderate Rain,Fog"
"2003-09-19 07:00","2003","09","19","07:00","17.0","","17.0","","100","","1","","20","","6.4","","98.36","","","","","","Rain,Fog"
"2003-09-19 08:00","2003","09","19","08:00","17.4","","16.9","","97","","1","","19","","8.0","","98.26","","","","","","Rain,Fog"
"2003-09-19 09:00","2003","09","19","09:00","17.7","","16.9","","95","","32","","19","","19.3","","98.28","","","","","","Rain"
"2003-09-19 10:00","2003","09","19","10:00","17.2","","17.0","","99","","32","","20","","3.6","","98.29","","","","","","Rain,Fog"
"2003-09-19 11:00","2003","09","19","11:00","18.4","","17.6","","95","","29","","15","","19.3","","98.34","","","","","","Cloudy"
"2003-09-19 12:00","2003","09","19","12:00","20.0","","17.5","","86","","31","","30","","24.1","","98.38","","26","","","","Mostly Cloudy"
"2003-09-19 13:00","2003","09","19","13:00","22.0","","16.8","","72","","28","","19","","24.1","","98.41","","27","","","","Mostly Cloudy"
"2003-09-19 14:00","2003","09","19","14:00","23.8","","15.6","","60","","28","","32","","19.3","","98.46","","28","","","","Cloudy"
"2003-09-19 15:00","2003","09","19","15:00","23.6","","15.3","","60","","27","","33","","16.1","","98.54","","28","","","","Mostly Cloudy"
"2003-09-19 16:00","2003","09","19","16:00","19.1","","15.2","","78","","29","","35","","16.1","","98.75","","","","","","Cloudy"
"2003-09-19 17:00","2003","09","19","17:00","18.4","","13.4","","73","","30","","30","","24.1","","98.89","","","","","","Mostly Cloudy"
"2003-09-19 18:00","2003","09","19","18:00","17.7","","10.2","","61","","28","","28","","24.1","","99.02","","","","","","Mainly Clear"
"2003-09-19 19:00","2003","09","19","19:00","16.4","","9.0","","62","","29","","24","","24.1","","99.16","","","","","","Mainly Clear"
"2003-09-19 20:00","2003","09","19","20:00","16.1","","8.6","","61","","28","","20","","24.1","","99.31","","","","","","Mostly Cloudy"
"2003-09-19 21:00","2003","09","19","21:00","15.6","","8.0","","61","","28","","19","","24.1","","99.42","","","","","","Mainly Clear"
"2003-09-19 22:00","2003","09","19","22:00","15.0","","8.1","","63","","28","","17","","24.1","","99.49","","","","","","Clear"
"2003-09-19 23:00","2003","09","19","23:00","14.7","","7.4","","62","","27","","13","","24.1","","99.56","","","","","","Clear"
"2003-09-20 00:00","2003","09","20","00:00","13.9","","8.7","","71","","27","","11","","24.1","","99.61","","","","","","Mainly Clear"
"2003-09-20 01:00","2003","09","20","01:00","13.1","","8.9","","76","","25","","11","","24.1","","99.65","","","","","","Mainly Clear"
"2003-09-20 02:00","2003","09","20","02:00","12.0","","9.5","","85","","25","","11","","24.1","","99.69","","","","","","Mainly Clear"
"2003-09-20 03:00","2003","09","20","03:00","12.0","","9.9","","87","","25","","11","","24.1","","99.72","","","","","","Mainly Clear"
"2003-09-20 04:00","2003","09","20","04:00","11.1","","9.7","","91","","24","","9","","24.1","","99.77","","","","","","Clear"
"2003-09-20 05:00","2003","09","20","05:00","10.7","","9.4","","92","","25","","7","","24.1","","99.84","","","","","","Clear"
"2003-09-20 06:00","2003","09","20","06:00","10.4","","9.4","","94","","23","","9","","24.1","","99.90","","","","","","Clear"
"2003-09-20 07:00","2003","09","20","07:00","11.1","","9.9","","92","","25","","9","","19.3","","99.99","","","","","","Mainly Clear"
"2003-09-20 08:00","2003","09","20","08:00","12.8","","10.2","","84","","27","","7","","19.3","","100.06","","","","","","Mainly Clear"
"2003-09-20 09:00","2003","09","20","09:00","15.1","","9.5","","69","","29","","13","","24.1","","100.13","","","","","","Clear"
"2003-09-20 10:00","2003","09","20","10:00","16.7","","9.0","","60","","28","","13","","24.1","","100.14","","","","","","Clear"
"2003-09-20 11:00","2003","09","20","11:00","17.5","","7.8","","53","","29","","11","","24.1","","100.15","","","","","","Clear"
"2003-09-20 12:00","2003","09","20","12:00","18.1","","7.9","","51","","31","","7","","24.1","","100.13","","","","","","Clear"
"2003-09-20 13:00","2003","09","20","13:00","19.1","","8.2","","49","","24","","15","","24.1","","100.12","","","","","","Clear"
"2003-09-20 14:00","2003","09","20","14:00","19.9","","9.3","","50","","25","","13","","24.1","","100.07","","","","","","Clear"
"2003-09-20 15:00","2003","09","20","15:00","19.9","","8.7","","48","","25","","7","","24.1","","100.05","","","","","","Clear"
"2003-09-20 16:00","2003","09","20","16:00","20.4","","9.9","","51","","26","","9","","24.1","","100.03","","","","","","Clear"
"2003-09-20 17:00","2003","09","20","17:00","20.1","","9.7","","51","","22","","9","","24.1","","100.04","","","","","","Clear"
"2003-09-20 18:00","2003","09","20","18:00","19.0","","10.1","","56","","22","","9","","24.1","","100.07","","","","","","Clear"
"2003-09-20 19:00","2003","09","20","19:00","16.7","","10.0","","65","","19","","9","","24.1","","100.09","","","","","","Clear"
"2003-09-20 20:00","2003","09","20","20:00","15.2","","10.2","","72","","18","","9","","24.1","","100.15","","","","","","Clear"
"2003-09-20 21:00","2003","09","20","21:00","13.9","","10.2","","78","","18","","6","","24.1","","100.18","","","","","","Clear"
"2003-09-20 22:00","2003","09","20","22:00","12.6","","9.9","","84","","10","","4","","24.1","","100.20","","","","","","Clear"
"2003-09-20 23:00","2003","09","20","23:00","12.1","","9.9","","86","","","","0","","24.1","","100.22","","","","","","Clear"
"2003-09-21 00:00","2003","09","21","00:00","11.7","","9.9","","89","","16","","4","","24.1","","100.25","","","","","","Clear"
"2003-09-21 01:00","2003","09","21","01:00","11.8","","9.1","","84","","14","","4","","24.1","","100.27","","","","","","Clear"
"2003-09-21 02:00","2003","09","21","02:00","12.1","","9.1","","82","","9","","4","","24.1","","100.24","","","","","","Clear"
"2003-09-21 03:00","2003","09","21","03:00","10.7","","8.8","","88","","13","","4","","24.1","","100.25","","","","","","Clear"
"2003-09-21 04:00","2003","09","21","04:00","10.8","","9.1","","89","","","","0","","24.1","","100.25","","","","","","Clear"
"2003-09-21 05:00","2003","09","21","05:00","10.9","","9.6","","92","","12","","6","","24.1","","100.26","","","","","","Clear"
"2003-09-21 06:00","2003","09","21","06:00","10.3","","9.1","","92","","10","","6","","12.9","","100.29","","","","","","Clear"
"2003-09-21 07:00","2003","09","21","07:00","11.1","","10.1","","94","","11","","6","","19.3","","100.31","","","","","","Mainly Clear"
"2003-09-21 08:00","2003","09","21","08:00","15.8","","11.3","","75","","12","","7","","24.1","","100.32","","","","","","Mainly Clear"
"2003-09-21 09:00","2003","09","21","09:00","18.7","","12.5","","67","","12","","13","","24.1","","100.31","","","","","","Mainly Clear"
"2003-09-21 10:00","2003","09","21","10:00","19.4","","11.8","","61","","14","","17","","24.1","","100.28","","","","","","Mainly Clear"
"2003-09-21 11:00","2003","09","21","11:00","20.4","","12.3","","60","","17","","19","","24.1","","100.26","","","","","","Mostly Cloudy"
"2003-09-21 12:00","2003","09","21","12:00","20.1","","11.7","","58","","16","","11","","24.1","","100.19","","","","","","Mostly Cloudy"
"2003-09-21 13:00","2003","09","21","13:00","21.2","","11.4","","54","","14","","13","","24.1","","100.10","","","","","","Mainly Clear"
"2003-09-21 14:00","2003","09","21","14:00","21.0","","8.4","","44","","10","","15","","24.1","","100.02","","","","","","Mainly Clear"
"2003-09-21 15:00","2003","09","21","15:00","21.1","","10.0","","49","","12","","17","","25.0","","99.96","","","","","","Mainly Clear"
"2003-09-21 16:00","2003","09","21","16:00","21.0","","9.6","","48","","14","","17","","25.0","","99.89","","","","","","Mainly Clear"
"2003-09-21 17:00","2003","09","21","17:00","20.2","","9.1","","49","","12","","20","","25.0","","99.85","","","","","","Mainly Clear"
"2003-09-21 18:00","2003","09","21","18:00","18.6","","9.7","","56","","12","","13","","25.0","","99.86","","","","","","Mainly Clear"
"2003-09-21 19:00","2003","09","21","19:00","16.8","","10.6","","67","","11","","11","","24.1","","99.84","","","","","","Mostly Cloudy"
"2003-09-21 20:00","2003","09","21","20:00","15.8","","11.0","","73","","10","","9","","25.0","","99.84","","","","","","Mainly Clear"
"2003-09-21 21:00","2003","09","21","21:00","15.1","","11.4","","79","","10","","11","","24.1","","99.81","","","","","","Mainly Clear"
"2003-09-21 22:00","2003","09","21","22:00","14.9","","12.3","","84","","11","","7","","24.1","","99.73","","","","","","Cloudy"
"2003-09-21 23:00","2003","09","21","23:00","15.7","","13.9","","89","","12","","9","","24.1","","99.65","","","","","","Cloudy"
"2003-09-22 00:00","2003","09","22","00:00","15.5","","14.3","","93","","11","","7","","24.1","","99.58","","","","","","Cloudy"
"2003-09-22 01:00","2003","09","22","01:00","14.9","","14.2","","96","","9","","6","","24.1","","99.48","","","","","","Cloudy"
"2003-09-22 02:00","2003","09","22","02:00","15.6","","15.2","","97","","9","","4","","16.1","","99.40","","","","","","Cloudy"
"2003-09-22 03:00","2003","09","22","03:00","17.0","","16.5","","97","","9","","7","","19.3","","99.31","","","","","","Cloudy"
"2003-09-22 04:00","2003","09","22","04:00","17.8","","16.7","","93","","12","","9","","19.3","","99.16","","","","","","Cloudy"
"2003-09-22 05:00","2003","09","22","05:00","17.6","","16.8","","95","","8","","4","","19.3","","99.11","","","","","","Cloudy"
"2003-09-22 06:00","2003","09","22","06:00","17.6","","17.1","","97","","","","0","","11.3","","99.01","","","","","","Rain"
"2003-09-22 07:00","2003","09","22","07:00","18.1","","18.0","","99","","1","","6","","2.4","","98.88","","","","","","Rain,Fog"
"2003-09-22 08:00","2003","09","22","08:00","18.9","","18.8","","99","","12","","6","","4.0","","98.75","","","","","","Rain,Fog"
"2003-09-22 09:00","2003","09","22","09:00","19.4","","18.9","","97","","20","","6","","4.0","","98.67","","","","","","Rain,Fog"
"2003-09-22 10:00","2003","09","22","10:00","19.3","","19.0","","98","","17","","19","","4.0","","98.61","","","","","","Rain,Fog"
"2003-09-22 11:00","2003","09","22","11:00","18.0","","16.9","","93","","16","","28","","4.8","","98.44","","","","","","Rain,Fog"
"2003-09-22 12:00","2003","09","22","12:00","17.4","","16.8","","96","","16","","20","","4.8","","98.20","","","","","","Rain,Fog"
"2003-09-22 13:00","2003","09","22","13:00","18.7","","18.1","","96","","17","","32","","6.4","","98.03","","","","","","Rain,Fog"
"2003-09-22 14:00","2003","09","22","14:00","18.8","","18.5","","98","","19","","33","","6.4","","97.92","","","","","","Rain,Fog"
"2003-09-22 15:00","2003","09","22","15:00","19.0","","18.7","","98","","19","","30","","4.0","","97.86","","","","","","Moderate Rain,Fog"
"2003-09-22 16:00","2003","09","22","16:00","18.8","","17.0","","89","","26","","30","","24.1","","98.04","","","","","","Mostly Cloudy"
"2003-09-22 17:00","2003","09","22","17:00","19.1","","16.4","","84","","26","","22","","24.1","","98.18","","","","","","Mostly Cloudy"
"2003-09-22 18:00","2003","09","22","18:00","18.9","","15.3","","80","","27","","19","","24.1","","98.27","","","","","","Mostly Cloudy"
"2003-09-22 19:00","2003","09","22","19:00","18.3","","15.2","","82","","26","","17","","24.1","","98.34","","","","","","Mainly Clear"
"2003-09-22 20:00","2003","09","22","20:00","17.5","","13.5","","77","","27","","20","","24.1","","98.44","","","","","","Mainly Clear"
"2003-09-22 21:00","2003","09","22","21:00","16.6","","13.2","","80","","28","","22","","24.1","","98.51","","","","","","Mainly Clear"
"2003-09-22 22:00","2003","09","22","22:00","15.6","","13.3","","86","","25","","13","","19.3","","98.55","","","","","","Mainly Clear"
"2003-09-22 23:00","2003","09","22","23:00","14.8","","13.2","","90","","25","","13","","19.3","","98.59","","","","","","Clear"
"2003-09-23 00:00","2003","09","23","00:00","14.4","","13.0","","91","","25","","13","","19.3","","98.59","","","","","","Clear"
"2003-09-23 01:00","2003","09","23","01:00","14.3","","12.3","","88","","24","","15","","19.3","","98.59","","","","","","Mostly Cloudy"
"2003-09-23 02:00","2003","09","23","02:00","13.4","","12.1","","92","","24","","13","","19.3","","98.60","","","","","","Mainly Clear"
"2003-09-23 03:00","2003","09","23","03:00","13.1","","11.0","","87","","26","","13","","24.1","","98.60","","","","","","Mainly Clear"
"2003-09-23 04:00","2003","09","23","04:00","12.8","","11.0","","89","","27","","15","","24.1","","98.63","","","","","","Mostly Cloudy"
"2003-09-23 05:00","2003","09","23","05:00","12.6","","10.7","","88","","27","","17","","24.1","","98.68","","","","","","Mostly Cloudy"
"2003-09-23 06:00","2003","09","23","06:00","12.5","","10.5","","88","","26","","13","","24.1","","98.76","","","","","","Mostly Cloudy"
"2003-09-23 07:00","2003","09","23","07:00","12.5","","10.5","","88","","26","","13","","24.1","","98.81","","","","","","Mainly Clear"
"2003-09-23 08:00","2003","09","23","08:00","13.5","","10.7","","83","","27","","22","","24.1","","98.83","","","","","","Mostly Cloudy"
"2003-09-23 09:00","2003","09","23","09:00","14.6","","9.7","","72","","28","","15","","24.1","","98.85","","","","","","Mostly Cloudy"
"2003-09-23 10:00","2003","09","23","10:00","16.1","","10.7","","70","","28","","24","","24.1","","98.89","","","","","","Mainly Clear"
"2003-09-23 11:00","2003","09","23","11:00","17.1","","10.2","","64","","27","","24","","24.1","","98.90","","","","","","Mostly Cloudy"
"2003-09-23 12:00","2003","09","23","12:00","17.4","","9.7","","61","","29","","15","","24.1","","98.90","","","","","","Mainly Clear"
"2003-09-23 13:00","2003","09","23","13:00","18.1","","9.1","","56","","26","","32","","24.1","","98.94","","","","","","Mostly Cloudy"
"2003-09-23 14:00","2003","09","23","14:00","18.2","","8.5","","53","","27","","22","","24.1","","98.92","","","","","","Mostly Cloudy"
"2003-09-23 15:00","2003","09","23","15:00","18.8","","8.1","","50","","27","","22","","24.1","","98.92","","","","","","Mostly Cloudy"
"2003-09-23 16:00","2003","09","23","16:00","19.1","","7.4","","47","","28","","26","","24.1","","98.95","","","","","","Mostly Cloudy"
"2003-09-23 17:00","2003","09","23","17:00","18.2","","7.3","","49","","26","","24","","24.1","","98.99","","","","","","Mostly Cloudy"
"2003-09-23 18:00","2003","09","23","18:00","17.8","","6.8","","48","","26","","22","","24.1","","99.03","","","","","","Mostly Cloudy"
"2003-09-23 19:00","2003","09","23","19:00","16.3","","7.0","","54","","26","","13","","24.1","","99.11","","","","","","Mainly Clear"
"2003-09-23 20:00","2003","09","23","20:00","15.1","","7.5","","60","","26","","13","","24.1","","99.20","","","","","","Clear"
"2003-09-23 21:00","2003","09","23","21:00","14.0","","7.7","","66","","26","","9","","24.1","","99.28","","","","","","Clear"
"2003-09-23 22:00","2003","09","23","22:00","12.0","","7.8","","75","","22","","7","","24.1","","99.29","","","","","","Clear"
"2003-09-23 23:00","2003","09","23","23:00","11.1","","8.1","","82","","19","","7","","24.1","","99.31","","","","","","Clear"
"2003-09-24 00:00","2003","09","24","00:00","10.3","","8.0","","86","","18","","6","","24.1","","99.30","","","","","","Clear"
"2003-09-24 01:00","2003","09","24","01:00","10.0","","7.8","","86","","19","","6","","24.1","","99.32","","","","","","Clear"
"2003-09-24 02:00","2003","09","24","02:00","9.2","","8.0","","92","","","","0","","24.1","","99.31","","","","","","Clear"
"2003-09-24 03:00","2003","09","24","03:00","10.6","","8.6","","87","","19","","6","","24.1","","99.33","","","","","","Clear"
"2003-09-24 04:00","2003","09","24","04:00","10.5","","9.0","","90","","19","","6","","24.1","","99.33","","","","","","Clear"
"2003-09-24 05:00","2003","09","24","05:00","10.5","","9.2","","92","","18","","6","","24.1","","99.30","","","","","","Clear"
"2003-09-24 06:00","2003","09","24","06:00","10.7","","9.4","","92","","19","","11","","24.1","","99.27","","","","","","Mostly Cloudy"
"2003-09-24 07:00","2003","09","24","07:00","12.2","","10.4","","89","","21","","11","","24.1","","99.29","","","","","","Mostly Cloudy"
"2003-09-24 08:00","2003","09","24","08:00","14.8","","11.4","","80","","20","","15","","24.1","","99.25","","","","","","Mostly Cloudy"
"2003-09-24 09:00","2003","09","24","09:00","16.3","","11.1","","71","","21","","20","","24.1","","99.25","","","","","","Mostly Cloudy"
"2003-09-24 10:00","2003","09","24","10:00","17.1","","10.3","","64","","21","","30","","24.1","","99.21","","","","","","Mostly Cloudy"
"2003-09-24 11:00","2003","09","24","11:00","16.9","","10.9","","68","","20","","33","","24.1","","99.14","","","","","","Mostly Cloudy"
"2003-09-24 12:00","2003","09","24","12:00","16.9","","11.6","","71","","21","","32","","24.1","","99.04","","","","","","Mostly Cloudy"
"2003-09-24 13:00","2003","09","24","13:00","17.4","","12.2","","72","","21","","28","","24.1","","98.89","","","","","","Cloudy"
"2003-09-24 14:00","2003","09","24","14:00","19.5","","10.8","","57","","21","","37","","24.1","","98.76","","","","","","Mostly Cloudy"
"2003-09-24 15:00","2003","09","24","15:00","19.8","","10.7","","56","","21","","35","","24.1","","98.64","","","","","","Mostly Cloudy"
"2003-09-24 16:00","2003","09","24","16:00","20.5","","11.7","","57","","22","","22","","24.1","","98.64","","","","","","Mostly Cloudy"
"2003-09-24 17:00","2003","09","24","17:00","18.4","","14.4","","78","","22","","26","","12.9","","98.69","","","","","","Rain Showers"
"2003-09-24 18:00","2003","09","24","18:00","17.8","","15.0","","84","","23","","11","","9.7","","98.57","","","","","","Rain Showers,Fog"
"2003-09-24 19:00","2003","09","24","19:00","16.3","","15.7","","96","","1","","11","","24.1","","98.54","","","","","","Mostly Cloudy"
"2003-09-24 20:00","2003","09","24","20:00","16.8","","15.4","","91","","15","","11","","24.1","","98.43","","","","","","Rain Showers"
"2003-09-24 21:00","2003","09","24","21:00","16.5","","16.2","","98","","19","","4","","12.9","","98.55","","","","","","Thunderstorms,Rain Showers"
"2003-09-24 22:00","2003","09","24","22:00","16.8","","15.7","","93","","19","","22","","24.1","","98.40","","","","","","Rain Showers"
"2003-09-24 23:00","2003","09","24","23:00","17.7","","16.3","","92","","24","","26","","24.1","","98.50","","","","","","Cloudy"
"2003-09-25 00:00","2003","09","25","00:00","16.0","","12.4","","79","","33","","19","","24.1","","98.58","","","","","","Cloudy"
"2003-09-25 01:00","2003","09","25","01:00","15.3","","10.0","","71","","31","","22","","24.1","","98.70","","","","","","Mostly Cloudy"
"2003-09-25 02:00","2003","09","25","02:00","13.6","","7.2","","65","","30","","20","","24.1","","98.79","","","","","","Mostly Cloudy"
"2003-09-25 03:00","2003","09","25","03:00","13.0","","7.2","","68","","29","","11","","24.1","","98.81","","","","","","Mostly Cloudy"
"2003-09-25 04:00","2003","09","25","04:00","12.1","","7.0","","71","","26","","9","","24.1","","98.86","","","","","","Mainly Clear"
"2003-09-25 05:00","2003","09","25","05:00","10.9","","7.3","","78","","24","","11","","24.1","","98.94","","","","","","Clear"
"2003-09-25 06:00","2003","09","25","06:00","10.7","","6.9","","77","","26","","11","","24.1","","99.02","","","","","","Mainly Clear"
"2003-09-25 07:00","2003","09","25","07:00","10.7","","6.8","","77","","25","","11","","24.1","","99.10","","","","","","Clear"
"2003-09-25 08:00","2003","09","25","08:00","12.1","","6.2","","67","","27","","15","","24.1","","99.20","","","","","","Mainly Clear"
"2003-09-25 09:00","2003","09","25","09:00","13.5","","5.8","","60","","29","","19","","24.1","","99.26","","","","","","Mainly Clear"
"2003-09-25 10:00","2003","09","25","10:00","14.2","","5.1","","54","","29","","24","","24.1","","99.32","","","","","","Mostly Cloudy"
"2003-09-25 11:00","2003","09","25","11:00","14.8","","4.7","","51","","29","","20","","24.1","","99.36","","","","","","Mostly Cloudy"
"2003-09-25 12:00","2003","09","25","12:00","15.5","","5.0","","50","","31","","22","","24.1","","99.38","","","","","","Mostly Cloudy"
"2003-09-25 13:00","2003","09","25","13:00","15.3","","5.1","","51","","29","","20","","24.1","","99.41","","","","","","Mostly Cloudy"
"2003-09-25 14:00","2003","09","25","14:00","15.9","","5.3","","49","","28","","9","","24.1","","99.38","","","","","","Mostly Cloudy"
"2003-09-25 15:00","2003","09","25","15:00","16.0","","5.4","","49","","31","","13","","24.1","","99.39","","","","","","Mostly Cloudy"
"2003-09-25 16:00","2003","09","25","16:00","15.8","","5.6","","51","","30","","11","","24.1","","99.39","","","","","","Mostly Cloudy"
"2003-09-25 17:00","2003","09","25","17:00","15.0","","5.1","","52","","28","","13","","24.1","","99.44","","","","","","Mostly Cloudy"
"2003-09-25 18:00","2003","09","25","18:00","14.4","","4.7","","52","","33","","11","","24.1","","99.45","","","","","","Mostly Cloudy"
"2003-09-25 19:00","2003","09","25","19:00","13.2","","5.0","","57","","34","","7","","24.1","","99.46","","","","","","Mostly Cloudy"
"2003-09-25 20:00","2003","09","25","20:00","12.8","","4.7","","58","","36","","6","","24.1","","99.46","","","","","","Mainly Clear"
"2003-09-25 21:00","2003","09","25","21:00","11.6","","5.2","","65","","3","","4","","24.1","","99.44","","","","","","Clear"
"2003-09-25 22:00","2003","09","25","22:00","9.3","","6.0","","80","","","","0","","24.1","","99.48","","","","","","Mainly Clear"
"2003-09-25 23:00","2003","09","25","23:00","9.3","","6.8","","84","","25","","6","","24.1","","99.47","","","","","","Mainly Clear"
"2003-09-26 00:00","2003","09","26","00:00","8.6","","6.8","","88","","","","0","","24.1","","99.38","","","","","","Clear"
"2003-09-26 01:00","2003","09","26","01:00","8.0","","6.7","","91","","26","","4","","24.1","","99.39","","","","","","Clear"
"2003-09-26 02:00","2003","09","26","02:00","7.8","","6.7","","93","","","","0","","24.1","","99.38","","","","","","Mainly Clear"
"2003-09-26 03:00","2003","09","26","03:00","8.1","","6.8","","91","","","","0","","24.1","","99.39","","","","","","Mostly Cloudy"
"2003-09-26 04:00","2003","09","26","04:00","7.1","","6.4","","95","","14","","6","","24.1","","99.37","","","","","","Mostly Cloudy"
"2003-09-26 05:00","2003","09","26","05:00","7.2","","6.1","","93","","","","0","","24.1","","99.32","","","","","","Mostly Cloudy"
"2003-09-26 06:00","2003","09","26","06:00","7.9","","6.3","","90","","","","0","","24.1","","99.25","","","","","","Mostly Cloudy"
"2003-09-26 07:00","2003","09","26","07:00","8.3","","6.0","","85","","19","","6","","24.1","","99.29","","","","","","Mostly Cloudy"
"2003-09-26 08:00","2003","09","26","08:00","12.3","","8.7","","79","","","","0","","24.1","","99.20","","","","","","Mainly Clear"
"2003-09-26 09:00","2003","09","26","09:00","14.9","","10.6","","75","","17","","11","","24.1","","99.21","","","","","","Mostly Cloudy"
"2003-09-26 10:00","2003","09","26","10:00","16.7","","9.7","","63","","18","","17","","24.1","","99.15","","","","","","Mostly Cloudy"
"2003-09-26 11:00","2003","09","26","11:00","16.7","","7.7","","55","","22","","19","","24.1","","99.10","","","","","","Mostly Cloudy"
"2003-09-26 12:00","2003","09","26","12:00","17.9","","7.8","","52","","20","","15","","24.1","","99.04","","","","","","Mostly Cloudy"
"2003-09-26 13:00","2003","09","26","13:00","18.1","","6.7","","47","","21","","15","","24.1","","98.97","","","","","","Mostly Cloudy"
"2003-09-26 14:00","2003","09","26","14:00","18.0","","6.4","","47","","20","","20","","25.0","","98.82","","","","","","Mostly Cloudy"
"2003-09-26 15:00","2003","09","26","15:00","18.3","","7.9","","51","","18","","13","","24.1","","98.69","","","","","","Cloudy"
"2003-09-26 16:00","2003","09","26","16:00","17.7","","9.1","","57","","16","","19","","24.1","","98.62","","","","","","Cloudy"
"2003-09-26 17:00","2003","09","26","17:00","17.7","","10.3","","62","","15","","19","","24.1","","98.55","","","","","","Cloudy"
"2003-09-26 18:00","2003","09","26","18:00","17.8","","11.6","","67","","16","","13","","24.1","","98.47","","","","","","Mostly Cloudy"
"2003-09-26 19:00","2003","09","26","19:00","17.5","","11.1","","66","","16","","15","","24.1","","98.32","","","","","","Cloudy"
"2003-09-26 20:00","2003","09","26","20:00","18.0","","12.6","","71","","19","","22","","24.1","","98.31","","","","","","Cloudy"
"2003-09-26 21:00","2003","09","26","21:00","17.6","","13.7","","78","","19","","22","","16.1","","98.22","","","","","","Rain"
"2003-09-26 22:00","2003","09","26","22:00","16.5","","15.1","","91","","19","","13","","12.9","","98.10","","","","","","Rain"
"2003-09-26 23:00","2003","09","26","23:00","16.6","","15.9","","96","","21","","26","","6.4","","98.05","","","","","","Moderate Rain Showers,Fog"
"2003-09-27 00:00","2003","09","27","00:00","16.0","","15.5","","97","","21","","20","","8.0","","97.93","","","","","","Rain Showers,Fog"
"2003-09-27 01:00","2003","09","27","01:00","15.8","","15.6","","99","","19","","22","","9.7","","97.83","","","","","","Rain Showers,Fog"
"2003-09-27 02:00","2003","09","27","02:00","15.8","","15.2","","96","","20","","17","","24.1","","97.75","","","","","","Mainly Clear"
"2003-09-27 03:00","2003","09","27","03:00","16.2","","15.3","","94","","22","","26","","19.3","","97.82","","","","","","Drizzle"
"2003-09-27 04:00","2003","09","27","04:00","16.1","","15.3","","95","","23","","19","","24.1","","97.87","","","","","","Cloudy"
"2003-09-27 05:00","2003","09","27","05:00","15.6","","13.5","","87","","26","","26","","24.1","","97.93","","","","","","Cloudy"
"2003-09-27 06:00","2003","09","27","06:00","14.2","","12.0","","87","","26","","20","","24.1","","98.06","","","","","","Cloudy"
"2003-09-27 07:00","2003","09","27","07:00","13.7","","11.1","","84","","26","","22","","24.1","","98.13","","","","","","Mostly Cloudy"
"2003-09-27 08:00","2003","09","27","08:00","13.4","","11.3","","87","","24","","20","","24.1","","98.22","","","","","","Mostly Cloudy"
"2003-09-27 09:00","2003","09","27","09:00","13.5","","10.7","","83","","23","","24","","24.1","","98.31","","","","","","Mostly Cloudy"
"2003-09-27 10:00","2003","09","27","10:00","14.6","","10.4","","76","","26","","24","","24.1","","98.36","","","","","","Mostly Cloudy"
"2003-09-27 11:00","2003","09","27","11:00","15.6","","8.6","","63","","25","","26","","25.0","","98.40","","","","","","Mostly Cloudy"
"2003-09-27 12:00","2003","09","27","12:00","16.3","","7.5","","56","","24","","30","","25.0","","98.45","","","","","","Mainly Clear"
"2003-09-27 13:00","2003","09","27","13:00","17.3","","8.1","","55","","26","","32","","25.0","","98.41","","","","","","Mainly Clear"
"2003-09-27 14:00","2003","09","27","14:00","18.3","","6.4","","46","","27","","26","","25.0","","98.37","","","","","","Mainly Clear"
"2003-09-27 15:00","2003","09","27","15:00","18.1","","5.4","","43","","27","","28","","25.0","","98.40","","","","","","Mainly Clear"
"2003-09-27 16:00","2003","09","27","16:00","18.4","","5.1","","42","","23","","26","","24.1","","98.42","","","","","","Mostly Cloudy"
"2003-09-27 17:00","2003","09","27","17:00","18.2","","5.2","","42","","25","","20","","24.1","","98.45","","","","","","Mainly Clear"
"2003-09-27 18:00","2003","09","27","18:00","17.0","","6.3","","49","","23","","9","","24.1","","98.47","","","","","","Mostly Cloudy"
"2003-09-27 19:00","2003","09","27","19:00","13.8","","9.7","","76","","24","","9","","24.1","","98.50","","","","","","Mostly Cloudy"
"2003-09-27 20:00","2003","09","27","20:00","13.5","","9.2","","75","","26","","17","","24.1","","98.55","","","","","","Rain Showers"
"2003-09-27 21:00","2003","09","27","21:00","12.6","","9.3","","80","","26","","11","","24.1","","98.64","","","","","","Mainly Clear"
"2003-09-27 22:00","2003","09","27","22:00","11.6","","9.6","","88","","24","","7","","24.1","","98.67","","","","","","Mainly Clear"
"2003-09-27 23:00","2003","09","27","23:00","12.1","","8.8","","80","","26","","9","","24.1","","98.68","","","","","","Mostly Cloudy"
"2003-09-28 00:00","2003","09","28","00:00","11.7","","8.4","","80","","25","","9","","24.1","","98.67","","","","","","Mostly Cloudy"
"2003-09-28 01:00","2003","09","28","01:00","11.3","","8.5","","83","","25","","9","","24.1","","98.64","","","","","","Mainly Clear"
"2003-09-28 02:00","2003","09","28","02:00","10.3","","8.7","","90","","23","","9","","24.1","","98.65","","","","","","Mainly Clear"
"2003-09-28 03:00","2003","09","28","03:00","9.6","","8.5","","93","","26","","6","","24.1","","98.60","","","","","","Mostly Cloudy"
"2003-09-28 04:00","2003","09","28","04:00","9.6","","8.3","","92","","24","","7","","24.1","","98.62","","","","","","Mainly Clear"
"2003-09-28 05:00","2003","09","28","05:00","9.7","","7.8","","88","","24","","9","","24.1","","98.63","","","","","","Mainly Clear"
"2003-09-28 06:00","2003","09","28","06:00","9.0","","7.8","","92","","26","","11","","24.1","","98.61","","","","","","Mainly Clear"
"2003-09-28 07:00","2003","09","28","07:00","8.5","","7.6","","94","","23","","7","","24.1","","98.61","","","","","","Mainly Clear"
"2003-09-28 08:00","2003","09","28","08:00","10.1","","7.9","","86","","26","","11","","24.1","","98.62","","","","","","Mostly Cloudy"
"2003-09-28 09:00","2003","09","28","09:00","12.2","","7.9","","75","","27","","13","","24.1","","98.63","","","","","","Mainly Clear"
"2003-09-28 10:00","2003","09","28","10:00","13.2","","8.1","","71","","27","","9","","24.1","","98.63","","","","","","Mostly Cloudy"
"2003-09-28 11:00","2003","09","28","11:00","14.2","","7.8","","65","","24","","13","","24.1","","98.63","","","","","","Mostly Cloudy"
"2003-09-28 12:00","2003","09","28","12:00","13.8","","7.2","","64","","26","","19","","24.1","","98.63","","","","","","Mostly Cloudy"
"2003-09-28 13:00","2003","09","28","13:00","14.0","","7.9","","67","","29","","9","","19.3","","98.61","","","","","","Mostly Cloudy"
"2003-09-28 14:00","2003","09","28","14:00","12.5","","9.4","","81","","24","","11","","24.1","","98.62","","","","","","Mostly Cloudy"
"2003-09-28 15:00","2003","09","28","15:00","15.3","","9.4","","68","","29","","13","","24.1","","98.61","","","","","","Mostly Cloudy"
"2003-09-28 16:00","2003","09","28","16:00","14.6","","7.8","","64","","29","","15","","24.1","","98.64","","","","","","Mostly Cloudy"
"2003-09-28 17:00","2003","09","28","17:00","13.8","","6.3","","61","","30","","20","","24.1","","98.70","","","","","","Mostly Cloudy"
"2003-09-28 18:00","2003","09","28","18:00","13.2","","7.5","","68","","28","","11","","25.0","","98.76","","","","","","Mostly Cloudy"
"2003-09-28 19:00","2003","09","28","19:00","11.6","","7.9","","78","","27","","19","","24.1","","98.83","","","","","","Mostly Cloudy"
"2003-09-28 20:00","2003","09","28","20:00","11.5","","8.0","","79","","28","","20","","24.1","","98.88","","","","","","Mostly Cloudy"
"2003-09-28 21:00","2003","09","28","21:00","11.1","","6.8","","75","","30","","17","","25.0","","98.93","","","","","","Mainly Clear"
"2003-09-28 22:00","2003","09","28","22:00","10.0","","6.8","","80","","31","","11","","25.0","","98.95","","","","","","Mainly Clear"
"2003-09-28 23:00","2003","09","28","23:00","9.5","","7.4","","87","","31","","13","","24.1","","99.01","","","","","","Mainly Clear"
"2003-09-29 00:00","2003","09","29","00:00","9.5","","7.6","","88","","30","","17","","24.1","","99.02","","","","","","Mainly Clear"
"2003-09-29 01:00","2003","09","29","01:00","9.5","","7.8","","89","","29","","11","","24.1","","99.06","","","","","","Mostly Cloudy"
"2003-09-29 02:00","2003","09","29","02:00","9.9","","6.6","","80","","32","","19","","24.1","","99.09","","","","","","Mostly Cloudy"
"2003-09-29 03:00","2003","09","29","03:00","8.4","","5.2","","80","","31","","19","","24.1","","99.12","","","","","","Mainly Clear"
"2003-09-29 04:00","2003","09","29","04:00","8.5","","4.5","","76","","32","","13","","24.1","","99.14","","","","","","Mostly Cloudy"
"2003-09-29 05:00","2003","09","29","05:00","7.9","","4.3","","78","","32","","13","","24.1","","99.23","","","","","","Mostly Cloudy"
"2003-09-29 06:00","2003","09","29","06:00","7.0","","4.6","","85","","30","","13","","24.1","","99.30","","","","","","Mainly Clear"
"2003-09-29 07:00","2003","09","29","07:00","7.3","","4.9","","85","","29","","17","","24.1","","99.38","","","","","","Mostly Cloudy"
"2003-09-29 08:00","2003","09","29","08:00","8.1","","5.5","","84","","31","","15","","24.1","","99.42","","","","","","Mostly Cloudy"
"2003-09-29 09:00","2003","09","29","09:00","9.0","","5.0","","76","","29","","17","","24.1","","99.50","","","","","","Mostly Cloudy"
"2003-09-29 10:00","2003","09","29","10:00","10.0","","3.9","","66","","30","","19","","24.1","","99.54","","","","","","Mostly Cloudy"
"2003-09-29 11:00","2003","09","29","11:00","11.2","","4.4","","63","","29","","20","","24.1","","99.56","","","","","","Mainly Clear"
"2003-09-29 12:00","2003","09","29","12:00","12.5","","2.7","","51","","29","","19","","24.1","","99.60","","","","","","Mostly Cloudy"
"2003-09-29 13:00","2003","09","29","13:00","13.4","","2.3","","47","","32","","19","","24.1","","99.59","","","","","","Mostly Cloudy"
"2003-09-29 14:00","2003","09","29","14:00","12.5","","1.7","","48","","28","","20","","24.1","","99.60","","","","","","Mostly Cloudy"
"2003-09-29 15:00","2003","09","29","15:00","12.6","","2.7","","51","","27","","15","","24.1","","99.61","","","","","","Mostly Cloudy"
"2003-09-29 16:00","2003","09","29","16:00","12.7","","2.2","","49","","26","","19","","24.1","","99.61","","","","","","Mostly Cloudy"
"2003-09-29 17:00","2003","09","29","17:00","12.0","","3.7","","57","","27","","15","","24.1","","99.66","","","","","","Mostly Cloudy"
"2003-09-29 18:00","2003","09","29","18:00","11.2","","3.7","","60","","26","","13","","25.0","","99.70","","","","","","Mostly Cloudy"
"2003-09-29 19:00","2003","09","29","19:00","10.1","","3.9","","65","","25","","11","","25.0","","99.73","","","","","","Mainly Clear"
"2003-09-29 20:00","2003","09","29","20:00","9.0","","5.3","","78","","26","","11","","25.0","","99.79","","","","","","Clear"
"2003-09-29 21:00","2003","09","29","21:00","8.4","","5.4","","81","","25","","11","","25.0","","99.84","","","","","","Clear"
"2003-09-29 22:00","2003","09","29","22:00","8.1","","4.9","","80","","25","","9","","24.1","","99.86","","","","","","Clear"
"2003-09-29 23:00","2003","09","29","23:00","7.5","","4.2","","80","","25","","11","","24.1","","99.86","","","","","","Clear"
"2003-09-30 00:00","2003","09","30","00:00","6.6","","4.0","","83","","24","","13","","24.1","","99.85","","","","","","Clear"
"2003-09-30 01:00","2003","09","30","01:00","6.3","","4.4","","88","","23","","11","","24.1","","99.86","","","","","","Clear"
"2003-09-30 02:00","2003","09","30","02:00","5.8","","4.2","","89","","23","","9","","24.1","","99.83","","","","","","Clear"
"2003-09-30 03:00","2003","09","30","03:00","6.1","","3.9","","86","","22","","11","","24.1","","99.80","","","","","","Clear"
"2003-09-30 04:00","2003","09","30","04:00","6.2","","4.0","","86","","23","","13","","24.1","","99.80","","","","","","Clear"
"2003-09-30 05:00","2003","09","30","05:00","7.2","","4.1","","81","","22","","13","","24.1","","99.79","","","","","","Mainly Clear"
"2003-09-30 06:00","2003","09","30","06:00","8.1","","3.7","","74","","23","","15","","24.1","","99.77","","","","","","Mostly Cloudy"
"2003-09-30 07:00","2003","09","30","07:00","8.3","","3.4","","71","","22","","19","","24.1","","99.75","","","","","","Mostly Cloudy"
"2003-09-30 08:00","2003","09","30","08:00","8.9","","3.2","","67","","25","","28","","24.1","","99.79","","","","","","Mostly Cloudy"
"2003-09-30 09:00","2003","09","30","09:00","9.6","","3.7","","67","","26","","30","","24.1","","99.81","","","","","","Mostly Cloudy"
"2003-09-30 10:00","2003","09","30","10:00","10.7","","4.4","","65","","27","","20","","24.1","","99.83","","","","","","Mainly Clear"
"2003-09-30 11:00","2003","09","30","11:00","12.0","","3.6","","56","","27","","30","","24.1","","99.85","","","","","","Mostly Cloudy"
"2003-09-30 12:00","2003","09","30","12:00","10.2","","2.7","","60","","30","","26","","24.1","","99.92","","","","","","Mostly Cloudy"
"2003-09-30 13:00","2003","09","30","13:00","12.8","","2.8","","51","","29","","26","","24.1","","99.87","","","","","","Mostly Cloudy"
"2003-09-30 14:00","2003","09","30","14:00","11.7","","2.2","","52","","32","","22","","24.1","","99.88","","","","","","Mostly Cloudy"
"2003-09-30 15:00","2003","09","30","15:00","12.0","","1.1","","47","","29","","24","","24.1","","99.88","","","","","","Mostly Cloudy"
"2003-09-30 16:00","2003","09","30","16:00","11.4","","0.4","","47","","29","","22","","24.1","","99.89","","","","","","Cloudy"
"2003-09-30 17:00","2003","09","30","17:00","11.3","","-1.2","","42","","29","","20","","24.1","","99.91","","","","","","Mostly Cloudy"
"2003-09-30 18:00","2003","09","30","18:00","10.4","","-2.0","","42","","29","","20","","24.1","","99.95","","","","","","Mostly Cloudy"
"2003-09-30 19:00","2003","09","30","19:00","9.2","","-1.7","","46","","27","","9","","24.1","","100.01","","","","","","Mostly Cloudy"
"2003-09-30 20:00","2003","09","30","20:00","9.0","","-1.4","","48","","27","","9","","24.1","","100.05","","","","","","Mostly Cloudy"
"2003-09-30 21:00","2003","09","30","21:00","9.1","","-0.4","","51","","29","","11","","24.1","","100.07","","","","","","Mostly Cloudy"
"2003-09-30 22:00","2003","09","30","22:00","8.8","","0.8","","57","","24","","7","","24.1","","100.07","","","","","","Cloudy"
"2003-09-30 23:00","2003","09","30","23:00","8.5","","1.6","","62","","24","","7","","24.1","","100.06","","","","","","Cloudy"
