"Station Name","WINDSOR A"
"Province","ONTARIO"
"Latitude","42.28"
"Longitude","-82.96"
"Elevation","189.60"
"Climate Identifier","6139525"
"WMO Identifier","71538"
"TC Identifier","YQG"
"All times are specified in Local Standard Time (LST). Add 1 hour to adjust for Daylight Saving Time where and when it is observed."

"Legend"
"E","Estimated"
"M","Missing"
"NA","Not Available"

"Date/Time","Year","Month","Day","Time","Temp (°C)","Temp Flag","Dew Point Temp (°C)","Dew Point Temp Flag","Rel Hum (%)","Rel Hum Flag","Wind Dir (10s deg)","Wind Dir Flag","Wind Spd (km/h)","Wind Spd Flag","Visibility (km)","Visibility Flag","Stn Press (kPa)","Stn Press Flag","Hmdx","Hmdx Flag","Wind Chill","Wind Chill Flag","Weather"
"2003-01-01 00:00","2003","01","01","00:00","-0.7","","-5.8","","68","","1","","11","","24.1","","99.41","","","","-4","","Mostly Cloudy"
"2003-01-01 01:00","2003","01","01","01:00","-0.9","","-6.8","","64","","1","","15","","24.1","","99.37","","","","-6","","Mostly Cloudy"
"2003-01-01 02:00","2003","01","01","02:00","-1.5","","-7.3","","65","","3","","15","","24.1","","99.43","","","","-6","","Mostly Cloudy"
"2003-01-01 03:00","2003","01","01","03:00","-1.8","","-7.0","","68","","4","","17","","24.1","","99.50","","","","-7","","Mostly Cloudy"
"2003-01-01 04:00","2003","01","01","04:00","-2.0","","-7.0","","69","","2","","26","","24.1","","99.40","","","","-9","","Cloudy"
"2003-01-01 05:00","2003","01","01","05:00","-2.0","","-6.5","","71","","3","","24","","24.1","","99.35","","","","-8","","Cloudy"
"2003-01-01 06:00","2003","01","01","06:00","-1.9","","-6.6","","70","","3","","22","","24.1","","99.36","","","","-8","","Mostly Cloudy"
"2003-01-01 07:00","2003","01","01","07:00","-1.2","","-6.1","","69","","6","","28","","25.0","","99.37","","","","-8","","Mostly Cloudy"
"2003-01-01 08:00","2003","01","01","08:00","-1.4","","-6.9","","66","","5","","35","","24.1","","99.33","","","","-9","","Cloudy"
"2003-01-01 09:00","2003","01","01","09:00","-1.2","","-6.7","","66","","7","","32","","25.0","","99.44","","","","-8","","Cloudy"
"2003-01-01 10:00","2003","01","01","10:00","-1.3","","-7.0","","65","","8","","33","","25.0","","99.48","","","","-8","","Cloudy"
"2003-01-01 11:00","2003","01","01","11:00","-0.7","","-6.9","","63","","6","","26","","25.0","","99.43","","","","-7","","Cloudy"
"2003-01-01 12:00","2003","01","01","12:00","-0.5","","-6.5","","64","","4","","28","","25.0","","99.23","","","","-7","","Cloudy"
"2003-01-01 13:00","2003","01","01","13:00","-0.2","","-6.1","","64","","4","","39","","24.1","","99.11","","","","-8","","Cloudy"
"2003-01-01 14:00","2003","01","01","14:00","-0.3","","-6.4","","63","","4","","28","","24.1","","99.11","","","","-7","","Cloudy"
"2003-01-01 15:00","2003","01","01","15:00","0.1","","-6.2","","63","","4","","37","","24.1","","99.10","","","","","","Cloudy"
"2003-01-01 16:00","2003","01","01","16:00","-0.3","","-6.4","","63","","4","","33","","24.1","","99.08","","","","-7","","Mostly Cloudy"
"2003-01-01 17:00","2003","01","01","17:00","-0.7","","-6.9","","63","","2","","32","","24.1","","99.14","","","","-8","","Mostly Cloudy"
"2003-01-01 18:00","2003","01","01","18:00","-0.7","","-6.6","","64","","3","","32","","24.1","","99.16","","","","-8","","Cloudy"
"2003-01-01 19:00","2003","01","01","19:00","-0.8","","-6.7","","64","","3","","24","","24.1","","99.28","","","","-7","","Cloudy"
"2003-01-01 20:00","2003","01","01","20:00","-1.0","","-7.4","","62","","5","","24","","24.1","","99.34","","","","-7","","Mostly Cloudy"
"2003-01-01 21:00","2003","01","01","21:00","-1.7","","-7.7","","64","","6","","26","","25.0","","99.31","","","","-8","","Mainly Clear"
"2003-01-01 22:00","2003","01","01","22:00","-1.9","","-7.9","","63","","5","","26","","25.0","","99.39","","","","-8","","Mostly Cloudy"
"2003-01-01 23:00","2003","01","01","23:00","-2.3","","-7.9","","65","","5","","22","","25.0","","99.46","","","","-8","","Mostly Cloudy"
"2003-01-02 00:00","2003","01","02","00:00","-2.6","","-8.0","","66","","6","","20","","24.1","","99.41","","","","-9","","Mostly Cloudy"
"2003-01-02 01:00","2003","01","02","01:00","-2.5","","-8.5","","63","","5","","30","","24.1","","99.44","","","","-10","","Mostly Cloudy"
"2003-01-02 02:00","2003","01","02","02:00","-3.4","","-9.9","","61","","6","","24","","24.1","","99.43","","","","-10","","Mostly Cloudy"
"2003-01-02 03:00","2003","01","02","03:00","-4.6","","-11.2","","60","","5","","26","","24.1","","99.46","","","","-12","","Mainly Clear"
"2003-01-02 04:00","2003","01","02","04:00","-5.0","","-11.3","","61","","6","","26","","24.1","","99.45","","","","-12","","Mostly Cloudy"
"2003-01-02 05:00","2003","01","02","05:00","-5.7","","-12.2","","60","","5","","22","","24.1","","99.50","","","","-13","","Mainly Clear"
"2003-01-02 06:00","2003","01","02","06:00","-5.9","","-11.3","","66","","7","","24","","24.1","","99.49","","","","-13","","Mainly Clear"
"2003-01-02 07:00","2003","01","02","07:00","-6.2","","-12.1","","63","","8","","24","","24.1","","99.55","","","","-14","","Mostly Cloudy"
"2003-01-02 08:00","2003","01","02","08:00","-5.9","","-11.6","","64","","6","","24","","24.1","","99.59","","","","-13","","Cloudy"
"2003-01-02 09:00","2003","01","02","09:00","-5.9","","-10.7","","69","","6","","28","","24.1","","99.53","","","","-14","","Cloudy"
"2003-01-02 10:00","2003","01","02","10:00","-5.8","","-10.2","","71","","5","","24","","12.9","","99.58","","","","-13","","Cloudy"
"2003-01-02 11:00","2003","01","02","11:00","-5.9","","-10.4","","70","","5","","26","","12.9","","99.62","","","","-14","","Snow"
"2003-01-02 12:00","2003","01","02","12:00","-5.7","","-10.4","","69","","5","","30","","19.3","","99.45","","","","-14","","Snow"
"2003-01-02 13:00","2003","01","02","13:00","-5.8","","-10.6","","69","","6","","28","","16.1","","99.28","","","","-14","","Snow"
"2003-01-02 14:00","2003","01","02","14:00","-5.5","","-10.0","","71","","6","","33","","12.9","","99.25","","","","-14","","Snow"
"2003-01-02 15:00","2003","01","02","15:00","-5.6","","-9.3","","75","","5","","26","","1.2","","99.31","","","","-13","","Snow"
"2003-01-02 16:00","2003","01","02","16:00","-6.0","","-8.7","","81","","5","","22","","0.6","","99.30","","","","-13","","Moderate Snow"
"2003-01-02 17:00","2003","01","02","17:00","-6.0","","-8.8","","81","","5","","22","","0.4","","99.27","","","","-13","","Heavy Snow"
"2003-01-02 18:00","2003","01","02","18:00","-5.7","","-8.4","","81","","4","","22","","0.8","","99.26","","","","-13","","Moderate Snow"
"2003-01-02 19:00","2003","01","02","19:00","-5.9","","-8.7","","81","","4","","26","","1.0","","99.22","","","","-14","","Snow"
"2003-01-02 20:00","2003","01","02","20:00","-5.8","","-8.6","","81","","4","","24","","8.0","","99.21","","","","-13","","Snow"
"2003-01-02 21:00","2003","01","02","21:00","-5.7","","-8.6","","80","","5","","24","","3.6","","99.19","","","","-13","","Snow"
"2003-01-02 22:00","2003","01","02","22:00","-6.2","","-8.9","","81","","1","","17","","4.0","","99.16","","","","-12","","Snow"
"2003-01-02 23:00","2003","01","02","23:00","-6.0","","-8.6","","82","","1","","15","","4.8","","99.09","","","","-12","","Snow"
"2003-01-03 00:00","2003","01","03","00:00","-5.4","","-8.0","","82","","4","","20","","6.4","","99.06","","","","-12","","Freezing Drizzle,Snow"
"2003-01-03 01:00","2003","01","03","01:00","-4.6","","-7.7","","79","","4","","20","","6.4","","99.02","","","","-11","","Snow"
"2003-01-03 02:00","2003","01","03","02:00","-4.8","","-7.5","","81","","1","","13","","8.0","","99.01","","","","-10","","Snow"
"2003-01-03 03:00","2003","01","03","03:00","-4.5","","-7.4","","80","","36","","15","","11.3","","99.01","","","","-10","","Snow"
"2003-01-03 04:00","2003","01","03","04:00","-4.3","","-7.1","","81","","36","","15","","6.4","","99.02","","","","-10","","Freezing Drizzle,Snow"
"2003-01-03 05:00","2003","01","03","05:00","-4.3","","-7.0","","81","","1","","17","","4.8","","98.99","","","","-10","","Freezing Drizzle,Snow"
"2003-01-03 06:00","2003","01","03","06:00","-4.2","","-7.3","","79","","36","","15","","11.3","","99.03","","","","-10","","Snow"
"2003-01-03 07:00","2003","01","03","07:00","-4.2","","-7.4","","78","","36","","11","","11.3","","99.04","","","","-9","","Snow"
"2003-01-03 08:00","2003","01","03","08:00","-4.2","","-7.4","","78","","35","","11","","4.8","","99.08","","","","-9","","Snow"
"2003-01-03 09:00","2003","01","03","09:00","-4.0","","-7.7","","75","","35","","11","","8.0","","99.14","","","","-8","","Snow"
"2003-01-03 10:00","2003","01","03","10:00","-3.7","","-7.6","","74","","34","","13","","9.7","","99.15","","","","-9","","Snow"
"2003-01-03 11:00","2003","01","03","11:00","-3.3","","-7.3","","74","","34","","15","","9.7","","99.10","","","","-8","","Haze"
"2003-01-03 12:00","2003","01","03","12:00","-3.0","","-9.3","","62","","33","","15","","12.9","","99.06","","","","-8","","Cloudy"
"2003-01-03 13:00","2003","01","03","13:00","-2.5","","-8.1","","65","","32","","15","","19.3","","99.01","","","","-7","","Cloudy"
"2003-01-03 14:00","2003","01","03","14:00","-2.4","","-8.5","","63","","31","","17","","16.1","","99.00","","","","-8","","Cloudy"
"2003-01-03 15:00","2003","01","03","15:00","-2.3","","-8.7","","61","","33","","9","","19.3","","99.03","","","","-6","","Cloudy"
"2003-01-03 16:00","2003","01","03","16:00","-2.1","","-8.2","","63","","32","","17","","24.1","","99.08","","","","-7","","Cloudy"
"2003-01-03 17:00","2003","01","03","17:00","-2.5","","-7.7","","67","","33","","15","","19.3","","99.11","","","","-7","","Snow"
"2003-01-03 18:00","2003","01","03","18:00","-2.7","","-7.4","","70","","32","","15","","19.3","","99.18","","","","-8","","Snow"
"2003-01-03 19:00","2003","01","03","19:00","-2.5","","-7.0","","71","","29","","15","","19.3","","99.22","","","","-7","","Snow"
"2003-01-03 20:00","2003","01","03","20:00","-2.6","","-6.5","","75","","30","","15","","12.9","","99.23","","","","-8","","Snow"
"2003-01-03 21:00","2003","01","03","21:00","-2.2","","-6.6","","72","","32","","15","","16.1","","99.21","","","","-7","","Snow"
"2003-01-03 22:00","2003","01","03","22:00","-2.0","","-6.3","","72","","32","","15","","16.1","","99.23","","","","-7","","Snow"
"2003-01-03 23:00","2003","01","03","23:00","-2.0","","-6.1","","73","","32","","20","","19.3","","99.22","","","","-8","","Snow"
"2003-01-04 00:00","2003","01","04","00:00","-2.0","","-6.2","","73","","33","","17","","24.1","","99.20","","","","-7","","Snow"
"2003-01-04 01:00","2003","01","04","01:00","-2.1","","-6.3","","73","","32","","20","","24.1","","99.19","","","","-8","","Snow"
"2003-01-04 02:00","2003","01","04","02:00","-2.4","","-6.8","","72","","33","","17","","24.1","","99.21","","","","-8","","Snow"
"2003-01-04 03:00","2003","01","04","03:00","-2.5","","-7.0","","71","","32","","13","","24.1","","99.29","","","","-7","","Snow"
"2003-01-04 04:00","2003","01","04","04:00","-2.7","","-7.9","","67","","32","","15","","24.1","","99.32","","","","-8","","Snow"
"2003-01-04 05:00","2003","01","04","05:00","-2.8","","-7.6","","69","","32","","15","","24.1","","99.36","","","","-8","","Snow"
"2003-01-04 06:00","2003","01","04","06:00","-2.9","","-7.8","","69","","33","","7","","24.1","","99.39","","","","-6","","Snow"
"2003-01-04 07:00","2003","01","04","07:00","-2.8","","-7.7","","69","","32","","9","","24.1","","99.44","","","","-6","","Snow"
"2003-01-04 08:00","2003","01","04","08:00","-2.8","","-6.9","","73","","32","","9","","24.1","","99.43","","","","-6","","Snow"
"2003-01-04 09:00","2003","01","04","09:00","-2.8","","-7.0","","73","","32","","15","","24.1","","99.50","","","","-8","","Cloudy"
"2003-01-04 10:00","2003","01","04","10:00","-2.7","","-7.3","","71","","29","","19","","24.1","","99.56","","","","-8","","Cloudy"
"2003-01-04 11:00","2003","01","04","11:00","-2.6","","-7.0","","72","","32","","11","","24.1","","99.53","","","","-7","","Snow Showers"
"2003-01-04 12:00","2003","01","04","12:00","-2.3","","-7.3","","69","","30","","11","","24.1","","99.47","","","","-6","","Cloudy"
"2003-01-04 13:00","2003","01","04","13:00","-2.4","","-7.4","","68","","26","","19","","24.1","","99.44","","","","-8","","Cloudy"
"2003-01-04 14:00","2003","01","04","14:00","-2.5","","-7.3","","70","","24","","13","","24.1","","99.38","","","","-7","","Cloudy"
"2003-01-04 15:00","2003","01","04","15:00","-2.4","","-7.5","","68","","27","","15","","24.1","","99.41","","","","-7","","Cloudy"
"2003-01-04 16:00","2003","01","04","16:00","-2.3","","-7.4","","68","","28","","9","","24.1","","99.43","","","","-6","","Mostly Cloudy"
"2003-01-04 17:00","2003","01","04","17:00","-2.4","","-6.9","","71","","28","","7","","24.1","","99.45","","","","-5","","Cloudy"
"2003-01-04 18:00","2003","01","04","18:00","-2.5","","-7.0","","71","","19","","7","","24.1","","99.46","","","","-5","","Cloudy"
"2003-01-04 19:00","2003","01","04","19:00","-2.6","","-7.0","","72","","19","","7","","24.1","","99.48","","","","-5","","Cloudy"
"2003-01-04 20:00","2003","01","04","20:00","-2.9","","-6.9","","74","","15","","7","","24.1","","99.49","","","","-6","","Cloudy"
"2003-01-04 21:00","2003","01","04","21:00","-3.1","","-6.8","","76","","15","","11","","24.1","","99.47","","","","-7","","Cloudy"
"2003-01-04 22:00","2003","01","04","22:00","-3.5","","-6.7","","78","","15","","7","","24.1","","99.43","","","","-6","","Cloudy"
"2003-01-04 23:00","2003","01","04","23:00","-3.5","","-6.3","","81","","14","","7","","19.3","","99.38","","","","-6","","Cloudy"
"2003-01-05 00:00","2003","01","05","00:00","-3.5","","-6.1","","82","","15","","4","","12.9","","99.37","","","","-5","","Mostly Cloudy"
"2003-01-05 01:00","2003","01","05","01:00","-3.6","","-5.9","","84","","16","","6","","12.9","","99.31","","","","-6","","Cloudy"
"2003-01-05 02:00","2003","01","05","02:00","-3.6","","-5.9","","84","","15","","7","","16.1","","99.27","","","","-7","","Mostly Cloudy"
"2003-01-05 03:00","2003","01","05","03:00","-4.3","","-6.5","","85","","12","","9","","16.1","","99.25","","","","-8","","Mostly Cloudy"
"2003-01-05 04:00","2003","01","05","04:00","-4.5","","-6.6","","85","","13","","9","","16.1","","99.23","","","","-8","","Cloudy"
"2003-01-05 05:00","2003","01","05","05:00","-3.9","","-5.8","","87","","14","","11","","12.9","","99.19","","","","-8","","Cloudy"
"2003-01-05 06:00","2003","01","05","06:00","-3.5","","-5.7","","85","","11","","7","","12.9","","99.18","","","","-6","","Mostly Cloudy"
"2003-01-05 07:00","2003","01","05","07:00","-3.3","","-5.4","","85","","13","","11","","12.9","","99.20","","","","-8","","Cloudy"
"2003-01-05 08:00","2003","01","05","08:00","-2.8","","-5.1","","84","","13","","9","","9.7","","99.21","","","","-6","","Haze"
"2003-01-05 09:00","2003","01","05","09:00","-2.4","","-4.7","","84","","12","","7","","8.0","","99.24","","","","-5","","Haze"
"2003-01-05 10:00","2003","01","05","10:00","-1.6","","-4.3","","82","","12","","6","","8.0","","99.28","","","","-4","","Haze"
"2003-01-05 11:00","2003","01","05","11:00","-0.7","","-4.1","","78","","","","0","","9.7","","99.27","","","","","","Haze"
"2003-01-05 12:00","2003","01","05","12:00","-0.4","","-3.8","","78","","15","","9","","11.3","","99.20","","","","-4","","Mostly Cloudy"
"2003-01-05 13:00","2003","01","05","13:00","-0.3","","-4.5","","73","","15","","6","","16.1","","99.13","","","","-2","","Snow Showers"
"2003-01-05 14:00","2003","01","05","14:00","0.0","","-4.5","","72","","14","","6","","16.1","","99.13","","","","-2","","Mostly Cloudy"
"2003-01-05 15:00","2003","01","05","15:00","0.0","","-4.5","","72","","9","","6","","16.1","","99.18","","","","-2","","Mostly Cloudy"
"2003-01-05 16:00","2003","01","05","16:00","-0.2","","-4.6","","72","","13","","7","","16.1","","99.22","","","","-3","","Cloudy"
"2003-01-05 17:00","2003","01","05","17:00","-0.6","","-5.0","","72","","17","","6","","12.9","","99.26","","","","-3","","Snow"
"2003-01-05 18:00","2003","01","05","18:00","-0.8","","-5.0","","73","","","","0","","24.1","","99.29","","","","","","Snow"
"2003-01-05 19:00","2003","01","05","19:00","-1.0","","-4.5","","77","","11","","4","","24.1","","99.33","","","","-2","","Snow"
"2003-01-05 20:00","2003","01","05","20:00","-1.3","","-3.8","","83","","9","","4","","19.3","","99.36","","","","-3","","Snow"
"2003-01-05 21:00","2003","01","05","21:00","-1.5","","-3.8","","84","","7","","4","","8.0","","99.39","","","","-3","","Snow,Haze"
"2003-01-05 22:00","2003","01","05","22:00","-1.9","","-4.1","","85","","17","","4","","4.8","","99.38","","","","-3","","Snow,Haze"
"2003-01-05 23:00","2003","01","05","23:00","-2.0","","-3.3","","91","","18","","4","","3.2","","99.35","","","","-3","","Snow"
"2003-01-06 00:00","2003","01","06","00:00","-1.9","","-3.0","","92","","","","0","","1.6","","99.36","","","","","","Snow"
"2003-01-06 01:00","2003","01","06","01:00","-1.8","","-2.8","","93","","24","","6","","3.2","","99.34","","","","-4","","Snow"
"2003-01-06 02:00","2003","01","06","02:00","-1.8","","-2.9","","92","","26","","6","","2.4","","99.37","","","","-4","","Snow"
"2003-01-06 03:00","2003","01","06","03:00","-1.8","","-2.9","","92","","26","","6","","2.4","","99.38","","","","-4","","Snow"
"2003-01-06 04:00","2003","01","06","04:00","-1.6","","-2.8","","92","","33","","11","","1.2","","99.38","","","","-5","","Snow"
"2003-01-06 05:00","2003","01","06","05:00","-1.8","","-3.1","","91","","32","","9","","1.2","","99.37","","","","-5","","Snow"
"2003-01-06 06:00","2003","01","06","06:00","-1.8","","-3.0","","91","","32","","11","","1.6","","99.39","","","","-6","","Snow"
"2003-01-06 07:00","2003","01","06","07:00","-1.7","","-3.1","","90","","32","","15","","1.6","","99.40","","","","-7","","Snow"
"2003-01-06 08:00","2003","01","06","08:00","-1.9","","-5.3","","78","","35","","26","","16.1","","99.45","","","","-8","","Snow"
"2003-01-06 09:00","2003","01","06","09:00","-2.1","","-4.5","","84","","35","","26","","2.0","","99.55","","","","-9","","Snow"
"2003-01-06 10:00","2003","01","06","10:00","-2.3","","-6.5","","73","","34","","28","","19.3","","99.63","","","","-9","","Mostly Cloudy"
"2003-01-06 11:00","2003","01","06","11:00","-3.4","","-8.4","","68","","35","","32","","24.1","","99.72","","","","-11","","Mostly Cloudy"
"2003-01-06 12:00","2003","01","06","12:00","-3.9","","-9.4","","66","","34","","37","","24.1","","99.74","","","","-12","","Snow Showers"
"2003-01-06 13:00","2003","01","06","13:00","-3.6","","-9.8","","62","","33","","26","","24.1","","99.74","","","","-11","","Mostly Cloudy"
"2003-01-06 14:00","2003","01","06","14:00","-3.6","","-10.7","","58","","34","","33","","24.1","","99.75","","","","-12","","Mostly Cloudy"
"2003-01-06 15:00","2003","01","06","15:00","-3.8","","-11.7","","54","","34","","24","","24.1","","99.84","","","","-11","","Mainly Clear"
"2003-01-06 16:00","2003","01","06","16:00","-3.8","","-12.2","","52","","34","","24","","24.1","","99.93","","","","-11","","Mainly Clear"
"2003-01-06 17:00","2003","01","06","17:00","-4.7","","-13.1","","52","","35","","22","","24.1","","100.03","","","","-12","","Mainly Clear"
"2003-01-06 18:00","2003","01","06","18:00","-5.5","","-13.9","","52","","35","","15","","25.0","","100.16","","","","-11","","Mainly Clear"
"2003-01-06 19:00","2003","01","06","19:00","-5.9","","-13.6","","54","","34","","20","","25.0","","100.25","","","","-13","","Clear"
"2003-01-06 20:00","2003","01","06","20:00","-6.8","","-14.2","","56","","35","","17","","25.0","","100.29","","","","-13","","Clear"
"2003-01-06 21:00","2003","01","06","21:00","-7.1","","-14.6","","55","","34","","11","","25.0","","100.31","","","","-12","","Clear"
"2003-01-06 22:00","2003","01","06","22:00","-8.0","","-14.5","","59","","32","","13","","25.0","","100.26","","","","-14","","Mainly Clear"
"2003-01-06 23:00","2003","01","06","23:00","-8.3","","-15.5","","56","","31","","7","","25.0","","100.27","","","","-12","","Mainly Clear"
"2003-01-07 00:00","2003","01","07","00:00","-9.0","","-14.0","","67","","27","","9","","24.1","","100.20","","","","-14","","Mainly Clear"
"2003-01-07 01:00","2003","01","07","01:00","-10.1","","-13.5","","76","","25","","9","","24.1","","100.14","","","","-15","","Mainly Clear"
"2003-01-07 02:00","2003","01","07","02:00","-11.2","","-13.9","","80","","25","","9","","24.1","","100.05","","","","-16","","Mainly Clear"
"2003-01-07 03:00","2003","01","07","03:00","-10.0","","-12.9","","79","","23","","13","","24.1","","100.01","","","","-16","","Mostly Cloudy"
"2003-01-07 04:00","2003","01","07","04:00","-9.6","","-12.4","","80","","22","","11","","24.1","","99.94","","","","-15","","Mostly Cloudy"
"2003-01-07 05:00","2003","01","07","05:00","-8.3","","-11.2","","80","","24","","15","","24.1","","99.81","","","","-15","","Mostly Cloudy"
"2003-01-07 06:00","2003","01","07","06:00","-7.3","","-10.5","","78","","23","","20","","24.1","","99.73","","","","-14","","Mostly Cloudy"
"2003-01-07 07:00","2003","01","07","07:00","-5.7","","-9.1","","77","","23","","24","","24.1","","99.54","","","","-13","","Mostly Cloudy"
"2003-01-07 08:00","2003","01","07","08:00","-4.8","","-8.7","","74","","23","","28","","24.1","","99.42","","","","-12","","Mostly Cloudy"
"2003-01-07 09:00","2003","01","07","09:00","-4.2","","-8.5","","72","","23","","32","","19.3","","99.26","","","","-12","","Cloudy"
"2003-01-07 10:00","2003","01","07","10:00","-3.1","","-7.7","","70","","23","","33","","16.1","","99.11","","","","-11","","Mostly Cloudy"
"2003-01-07 11:00","2003","01","07","11:00","-2.4","","-7.4","","68","","24","","37","","12.9","","98.93","","","","-10","","Cloudy"
"2003-01-07 12:00","2003","01","07","12:00","-1.4","","-8.0","","61","","24","","32","","12.9","","98.71","","","","-9","","Cloudy"
"2003-01-07 13:00","2003","01","07","13:00","-1.0","","-6.4","","67","","25","","37","","11.3","","98.54","","","","-8","","Cloudy"
"2003-01-07 14:00","2003","01","07","14:00","-0.3","","-7.2","","60","","25","","28","","11.3","","98.33","","","","-7","","Cloudy"
"2003-01-07 15:00","2003","01","07","15:00","0.3","","-6.8","","59","","26","","33","","11.3","","98.22","","","","","","Cloudy"
"2003-01-07 16:00","2003","01","07","16:00","0.6","","-4.5","","69","","26","","28","","11.3","","98.09","","","","","","Cloudy"
"2003-01-07 17:00","2003","01","07","17:00","0.7","","-3.4","","74","","26","","33","","11.3","","98.04","","","","","","Cloudy"
"2003-01-07 18:00","2003","01","07","18:00","0.4","","-3.3","","76","","25","","30","","11.3","","97.99","","","","","","Cloudy"
"2003-01-07 19:00","2003","01","07","19:00","0.4","","-3.1","","77","","26","","26","","9.7","","97.94","","","","","","Haze"
"2003-01-07 20:00","2003","01","07","20:00","0.7","","-2.7","","78","","27","","26","","9.7","","97.95","","","","","","Haze"
"2003-01-07 21:00","2003","01","07","21:00","1.1","","-2.7","","76","","27","","26","","9.7","","97.83","","","","","","Haze"
"2003-01-07 22:00","2003","01","07","22:00","1.1","","-2.2","","79","","26","","20","","11.3","","97.78","","","","","","Mostly Cloudy"
"2003-01-07 23:00","2003","01","07","23:00","0.2","","-2.5","","82","","25","","17","","11.3","","97.66","","","","","","Mainly Clear"
"2003-01-08 00:00","2003","01","08","00:00","0.1","","-2.6","","82","","26","","20","","11.3","","97.56","","","","","","Mainly Clear"
"2003-01-08 01:00","2003","01","08","01:00","0.8","","-2.2","","80","","26","","22","","16.1","","97.51","","","","","","Mainly Clear"
"2003-01-08 02:00","2003","01","08","02:00","1.3","","-1.8","","80","","27","","22","","19.3","","97.53","","","","","","Mainly Clear"
"2003-01-08 03:00","2003","01","08","03:00","1.1","","-1.8","","81","","26","","20","","24.1","","97.53","","","","","","Clear"
"2003-01-08 04:00","2003","01","08","04:00","1.3","","-1.8","","80","","29","","15","","24.1","","97.62","","","","","","Clear"
"2003-01-08 05:00","2003","01","08","05:00","1.8","","-2.7","","72","","27","","19","","24.1","","97.60","","","","","","Clear"
"2003-01-08 06:00","2003","01","08","06:00","1.8","","-2.5","","73","","28","","15","","24.1","","97.69","","","","","","Mainly Clear"
"2003-01-08 07:00","2003","01","08","07:00","1.5","","-2.4","","75","","28","","15","","24.1","","97.75","","","","","","Mostly Cloudy"
"2003-01-08 08:00","2003","01","08","08:00","0.9","","-2.5","","78","","26","","15","","19.3","","97.78","","","","","","Mostly Cloudy"
"2003-01-08 09:00","2003","01","08","09:00","1.4","","-2.1","","77","","26","","19","","24.1","","97.81","","","","","","Mostly Cloudy"
"2003-01-08 10:00","2003","01","08","10:00","3.5","","-1.4","","70","","27","","20","","19.3","","97.83","","","","","","Mostly Cloudy"
"2003-01-08 11:00","2003","01","08","11:00","4.7","","-1.4","","65","","26","","22","","24.1","","97.80","","","","","","Mostly Cloudy"
"2003-01-08 12:00","2003","01","08","12:00","5.6","","-0.5","","65","","27","","19","","24.1","","97.68","","","","","","Mostly Cloudy"
"2003-01-08 13:00","2003","01","08","13:00","5.6","","-0.3","","66","","23","","17","","24.1","","97.55","","","","","","Mostly Cloudy"
"2003-01-08 14:00","2003","01","08","14:00","5.9","","-0.5","","63","","22","","17","","24.1","","97.40","","","","","","Mainly Clear"
"2003-01-08 15:00","2003","01","08","15:00","5.1","","-0.9","","65","","21","","20","","24.1","","97.21","","","","","","Mostly Cloudy"
"2003-01-08 16:00","2003","01","08","16:00","3.1","","-1.6","","71","","21","","24","","24.1","","97.04","","","","","","Mostly Cloudy"
"2003-01-08 17:00","2003","01","08","17:00","2.5","","-1.9","","73","","22","","28","","24.1","","96.84","","","","","","Mostly Cloudy"
"2003-01-08 18:00","2003","01","08","18:00","2.4","","-2.0","","73","","22","","35","","24.1","","96.68","","","","","","Mostly Cloudy"
"2003-01-08 19:00","2003","01","08","19:00","3.6","","-1.9","","67","","24","","43","","24.1","","96.54","","","","","","Mainly Clear"
"2003-01-08 20:00","2003","01","08","20:00","3.4","","-1.8","","69","","25","","37","","24.1","","96.49","","","","","","Mainly Clear"
"2003-01-08 21:00","2003","01","08","21:00","4.2","","-1.6","","66","","27","","37","","24.1","","96.44","","","","","","Clear"
"2003-01-08 22:00","2003","01","08","22:00","6.4","","-1.9","","55","","28","","32","","24.1","","96.48","","","","","","Clear"
"2003-01-08 23:00","2003","01","08","23:00","6.8","","-2.4","","52","","28","","30","","24.1","","96.55","","","","","","Clear"
"2003-01-09 00:00","2003","01","09","00:00","7.2","","-3.5","","46","","29","","33","","24.1","","96.61","","","","","","Clear"
"2003-01-09 01:00","2003","01","09","01:00","7.3","","-3.9","","45","","30","","30","","24.1","","96.68","","","","","","Clear"
"2003-01-09 02:00","2003","01","09","02:00","6.7","","-3.9","","47","","29","","32","","24.1","","96.78","","","","","","Clear"
"2003-01-09 03:00","2003","01","09","03:00","6.2","","-3.9","","48","","29","","24","","24.1","","96.90","","","","","","Clear"
"2003-01-09 04:00","2003","01","09","04:00","5.7","","-4.0","","50","","29","","22","","24.1","","96.96","","","","","","Clear"
"2003-01-09 05:00","2003","01","09","05:00","5.5","","-4.2","","50","","29","","24","","24.1","","97.01","","","","","","Clear"
"2003-01-09 06:00","2003","01","09","06:00","4.8","","-4.2","","52","","29","","19","","24.1","","97.12","","","","","","Clear"
"2003-01-09 07:00","2003","01","09","07:00","4.0","","-4.1","","55","","28","","17","","24.1","","97.23","","","","","","Clear"
"2003-01-09 08:00","2003","01","09","08:00","3.2","","-3.7","","61","","26","","17","","24.1","","97.29","","","","","","Clear"
"2003-01-09 09:00","2003","01","09","09:00","3.2","","-3.5","","61","","26","","17","","25.0","","97.38","","","","","","Clear"
"2003-01-09 10:00","2003","01","09","10:00","4.3","","-3.0","","59","","26","","24","","25.0","","97.42","","","","","","Clear"
"2003-01-09 11:00","2003","01","09","11:00","5.3","","-2.6","","57","","27","","28","","25.0","","97.38","","","","","","Mostly Cloudy"
"2003-01-09 12:00","2003","01","09","12:00","6.1","","-2.4","","54","","27","","20","","25.0","","97.29","","","","","","Mainly Clear"
"2003-01-09 13:00","2003","01","09","13:00","6.3","","-2.4","","54","","26","","26","","24.1","","97.25","","","","","","Mostly Cloudy"
"2003-01-09 14:00","2003","01","09","14:00","5.8","","-2.5","","55","","26","","26","","24.1","","97.23","","","","","","Mostly Cloudy"
"2003-01-09 15:00","2003","01","09","15:00","6.2","","-2.4","","54","","27","","35","","24.1","","97.22","","","","","","Mostly Cloudy"
"2003-01-09 16:00","2003","01","09","16:00","5.2","","-2.7","","57","","27","","37","","24.1","","97.26","","","","","","Mostly Cloudy"
"2003-01-09 17:00","2003","01","09","17:00","4.0","","-2.8","","61","","27","","26","","24.1","","97.33","","","","","","Mostly Cloudy"
"2003-01-09 18:00","2003","01","09","18:00","3.6","","-3.1","","62","","28","","35","","24.1","","97.44","","","","","","Cloudy"
"2003-01-09 19:00","2003","01","09","19:00","3.3","","-2.8","","64","","29","","28","","24.1","","97.52","","","","","","Cloudy"
"2003-01-09 20:00","2003","01","09","20:00","2.8","","-2.2","","70","","29","","32","","19.3","","97.60","","","","","","Snow Showers"
"2003-01-09 21:00","2003","01","09","21:00","1.7","","-4.8","","62","","35","","22","","19.3","","97.74","","","","","","Rain,Snow"
"2003-01-09 22:00","2003","01","09","22:00","0.6","","-6.8","","58","","34","","30","","24.1","","97.88","","","","","","Snow"
"2003-01-09 23:00","2003","01","09","23:00","0.1","","-5.8","","64","","33","","19","","24.1","","97.98","","","","","","Snow"
"2003-01-10 00:00","2003","01","10","00:00","-1.5","","-9.4","","55","","32","","32","","24.1","","98.09","","","","-9","","Mostly Cloudy"
"2003-01-10 01:00","2003","01","10","01:00","-3.0","","-12.0","","50","","36","","30","","24.1","","98.17","","","","-10","","Snow Showers"
"2003-01-10 02:00","2003","01","10","02:00","-3.8","","-10.6","","59","","35","","20","","24.1","","98.26","","","","-10","","Mostly Cloudy"
"2003-01-10 03:00","2003","01","10","03:00","-4.8","","-13.3","","51","","32","","17","","24.1","","98.35","","","","-11","","Clear"
"2003-01-10 04:00","2003","01","10","04:00","-4.9","","-13.3","","52","","32","","11","","24.1","","98.38","","","","-9","","Mainly Clear"
"2003-01-10 05:00","2003","01","10","05:00","-4.7","","-12.5","","54","","29","","11","","24.1","","98.38","","","","-9","","Mostly Cloudy"
"2003-01-10 06:00","2003","01","10","06:00","-4.2","","-12.1","","54","","30","","19","","24.1","","98.37","","","","-10","","Mostly Cloudy"
"2003-01-10 07:00","2003","01","10","07:00","-4.2","","-13.0","","50","","28","","15","","24.1","","98.40","","","","-10","","Mostly Cloudy"
"2003-01-10 08:00","2003","01","10","08:00","-4.1","","-11.9","","55","","25","","15","","24.1","","98.42","","","","-9","","Mostly Cloudy"
"2003-01-10 09:00","2003","01","10","09:00","-4.2","","-10.5","","61","","26","","20","","24.1","","98.42","","","","-11","","Snow Showers"
"2003-01-10 10:00","2003","01","10","10:00","-4.2","","-8.1","","74","","25","","19","","8.0","","98.42","","","","-10","","Snow Showers"
"2003-01-10 11:00","2003","01","10","11:00","-3.0","","-9.5","","61","","27","","30","","19.3","","98.41","","","","-10","","Mostly Cloudy"
"2003-01-10 12:00","2003","01","10","12:00","-3.9","","-8.0","","73","","30","","33","","2.4","","98.37","","","","-12","","Snow Showers"
"2003-01-10 13:00","2003","01","10","13:00","-5.0","","-7.3","","84","","28","","28","","9.7","","98.31","","","","-13","","Snow Showers"
"2003-01-10 14:00","2003","01","10","14:00","-4.5","","-9.5","","68","","30","","30","","24.1","","98.32","","","","-12","","Mostly Cloudy"
"2003-01-10 15:00","2003","01","10","15:00","-6.0","","-9.0","","79","","29","","39","","2.4","","98.40","","","","-15","","Snow Showers"
"2003-01-10 16:00","2003","01","10","16:00","-4.5","","-11.2","","59","","30","","24","","19.3","","98.48","","","","-12","","Snow Showers"
"2003-01-10 17:00","2003","01","10","17:00","-5.3","","-12.8","","56","","30","","39","","24.1","","98.60","","","","-14","","Snow Showers"
"2003-01-10 18:00","2003","01","10","18:00","-6.1","","-12.7","","60","","31","","33","","24.1","","98.74","","","","-15","","Snow Showers"
"2003-01-10 19:00","2003","01","10","19:00","-6.9","","-12.8","","63","","30","","24","","24.1","","98.87","","","","-15","","Snow Showers"
"2003-01-10 20:00","2003","01","10","20:00","-7.2","","-14.8","","55","","30","","32","","25.0","","98.96","","","","-16","","Clear"
"2003-01-10 21:00","2003","01","10","21:00","-7.6","","-13.9","","61","","29","","26","","25.0","","99.04","","","","-16","","Clear"
"2003-01-10 22:00","2003","01","10","22:00","-7.6","","-13.7","","62","","27","","28","","25.0","","99.08","","","","-16","","Clear"
"2003-01-10 23:00","2003","01","10","23:00","-7.6","","-12.1","","70","","27","","22","","24.1","","99.14","","","","-15","","Snow Showers"
"2003-01-11 00:00","2003","01","11","00:00","-7.5","","-11.4","","74","","26","","19","","24.1","","99.12","","","","-15","","Snow Showers"
"2003-01-11 01:00","2003","01","11","01:00","-6.9","","-11.4","","70","","26","","32","","24.1","","99.09","","","","-16","","Snow Showers"
"2003-01-11 02:00","2003","01","11","02:00","-7.2","","-11.1","","74","","26","","22","","24.1","","99.12","","","","-15","","Snow Showers"
"2003-01-11 03:00","2003","01","11","03:00","-6.7","","-11.1","","71","","27","","24","","24.1","","99.21","","","","-14","","Snow Showers"
"2003-01-11 04:00","2003","01","11","04:00","-6.7","","-11.1","","71","","27","","20","","24.1","","99.22","","","","-14","","Snow Showers"
"2003-01-11 05:00","2003","01","11","05:00","-6.9","","-11.1","","72","","27","","26","","24.1","","99.22","","","","-15","","Snow Showers"
"2003-01-11 06:00","2003","01","11","06:00","-6.8","","-11.2","","71","","27","","26","","16.1","","99.25","","","","-15","","Snow Showers"
"2003-01-11 07:00","2003","01","11","07:00","-7.9","","-11.1","","78","","25","","20","","24.1","","99.31","","","","-15","","Snow Showers"
"2003-01-11 08:00","2003","01","11","08:00","-8.2","","-11.3","","78","","25","","20","","9.7","","99.35","","","","-16","","Snow Showers"
"2003-01-11 09:00","2003","01","11","09:00","-8.3","","-11.5","","78","","24","","20","","6.4","","99.39","","","","-16","","Snow Showers"
"2003-01-11 10:00","2003","01","11","10:00","-8.2","","-11.3","","78","","26","","30","","8.0","","99.42","","","","-17","","Snow Showers"
"2003-01-11 11:00","2003","01","11","11:00","-6.7","","-11.3","","70","","28","","28","","11.3","","99.42","","","","-15","","Snow Showers"
"2003-01-11 12:00","2003","01","11","12:00","-6.7","","-10.6","","74","","25","","24","","8.0","","99.40","","","","-14","","Snow Showers"
"2003-01-11 13:00","2003","01","11","13:00","-6.5","","-11.5","","68","","26","","30","","6.4","","99.38","","","","-15","","Snow Showers"
"2003-01-11 14:00","2003","01","11","14:00","-6.2","","-11.4","","67","","28","","32","","11.3","","99.42","","","","-15","","Snow Showers"
"2003-01-11 15:00","2003","01","11","15:00","-5.8","","-12.4","","60","","27","","24","","16.1","","99.45","","","","-13","","Snow Showers"
"2003-01-11 16:00","2003","01","11","16:00","-5.5","","-11.1","","65","","27","","26","","19.3","","99.51","","","","-13","","Snow Showers"
"2003-01-11 17:00","2003","01","11","17:00","-5.6","","-11.3","","64","","27","","20","","19.3","","99.58","","","","-12","","Snow Showers"
"2003-01-11 18:00","2003","01","11","18:00","-5.7","","-11.7","","63","","27","","28","","24.1","","99.68","","","","-14","","Snow Showers"
"2003-01-11 19:00","2003","01","11","19:00","-6.2","","-10.9","","69","","27","","26","","8.0","","99.76","","","","-14","","Snow Showers"
"2003-01-11 20:00","2003","01","11","20:00","-6.4","","-10.3","","74","","30","","30","","24.1","","99.85","","","","-15","","Snow Showers"
"2003-01-11 21:00","2003","01","11","21:00","-6.5","","-12.5","","62","","29","","26","","24.1","","99.92","","","","-14","","Snow Showers"
"2003-01-11 22:00","2003","01","11","22:00","-7.1","","-13.5","","60","","30","","26","","25.0","","99.97","","","","-15","","Snow Showers"
"2003-01-11 23:00","2003","01","11","23:00","-7.3","","-13.0","","64","","28","","20","","25.0","","100.03","","","","-14","","Clear"
"2003-01-12 00:00","2003","01","12","00:00","-7.7","","-12.7","","67","","28","","30","","24.1","","100.07","","","","-17","","Mainly Clear"
"2003-01-12 01:00","2003","01","12","01:00","-7.7","","-12.3","","70","","27","","22","","24.1","","100.07","","","","-15","","Clear"
"2003-01-12 02:00","2003","01","12","02:00","-7.9","","-12.0","","72","","27","","19","","24.1","","100.13","","","","-15","","Mainly Clear"
"2003-01-12 03:00","2003","01","12","03:00","-7.6","","-11.4","","74","","27","","22","","24.1","","100.25","","","","-15","","Mostly Cloudy"
"2003-01-12 04:00","2003","01","12","04:00","-7.2","","-10.9","","75","","27","","15","","24.1","","100.28","","","","-13","","Snow Showers"
"2003-01-12 05:00","2003","01","12","05:00","-6.3","","-10.2","","74","","28","","22","","24.1","","100.28","","","","-14","","Snow Showers"
"2003-01-12 06:00","2003","01","12","06:00","-5.8","","-10.0","","72","","29","","26","","24.1","","100.31","","","","-14","","Mostly Cloudy"
"2003-01-12 07:00","2003","01","12","07:00","-6.5","","-10.3","","74","","28","","19","","24.1","","100.39","","","","-13","","Mainly Clear"
"2003-01-12 08:00","2003","01","12","08:00","-7.3","","-10.2","","80","","26","","15","","24.1","","100.41","","","","-13","","Mainly Clear"
"2003-01-12 09:00","2003","01","12","09:00","-7.1","","-10.0","","80","","26","","19","","24.1","","100.45","","","","-14","","Clear"
"2003-01-12 10:00","2003","01","12","10:00","-6.2","","-9.8","","76","","26","","20","","24.1","","100.51","","","","-13","","Mainly Clear"
"2003-01-12 11:00","2003","01","12","11:00","-5.3","","-9.2","","74","","25","","20","","16.1","","100.52","","","","-12","","Mostly Cloudy"
"2003-01-12 12:00","2003","01","12","12:00","-4.5","","-9.4","","69","","25","","28","","19.3","","100.43","","","","-12","","Cloudy"
"2003-01-12 13:00","2003","01","12","13:00","-4.2","","-9.3","","68","","25","","24","","19.3","","100.29","","","","-11","","Cloudy"
"2003-01-12 14:00","2003","01","12","14:00","-3.8","","-9.8","","63","","26","","20","","19.3","","100.22","","","","-10","","Mostly Cloudy"
"2003-01-12 15:00","2003","01","12","15:00","-3.8","","-9.4","","65","","26","","22","","19.3","","100.17","","","","-10","","Cloudy"
"2003-01-12 16:00","2003","01","12","16:00","-4.3","","-9.7","","66","","25","","33","","19.3","","100.14","","","","-12","","Mostly Cloudy"
"2003-01-12 17:00","2003","01","12","17:00","-4.5","","-9.9","","66","","23","","22","","24.1","","100.07","","","","-11","","Mainly Clear"
"2003-01-12 18:00","2003","01","12","18:00","-5.3","","-10.1","","69","","22","","22","","24.1","","99.93","","","","-12","","Clear"
"2003-01-12 19:00","2003","01","12","19:00","-4.6","","-10.3","","64","","23","","28","","24.1","","99.88","","","","-12","","Clear"
"2003-01-12 20:00","2003","01","12","20:00","-4.9","","-10.6","","64","","23","","32","","24.1","","99.79","","","","-13","","Clear"
"2003-01-12 21:00","2003","01","12","21:00","-5.3","","-11.1","","64","","23","","32","","24.1","","99.71","","","","-14","","Clear"
"2003-01-12 22:00","2003","01","12","22:00","-5.3","","-11.3","","63","","22","","30","","24.1","","99.56","","","","-13","","Clear"
"2003-01-12 23:00","2003","01","12","23:00","-5.0","","-11.4","","61","","23","","33","","24.1","","99.57","","","","-13","","Clear"
"2003-01-13 00:00","2003","01","13","00:00","-5.0","","-11.8","","59","","23","","30","","24.1","","99.42","","","","-13","","Clear"
"2003-01-13 01:00","2003","01","13","01:00","-4.6","","-12.0","","56","","24","","33","","24.1","","99.20","","","","-13","","Clear"
"2003-01-13 02:00","2003","01","13","02:00","-4.6","","-11.8","","57","","24","","37","","24.1","","99.06","","","","-13","","Mainly Clear"
"2003-01-13 03:00","2003","01","13","03:00","-4.4","","-11.7","","57","","24","","41","","24.1","","98.99","","","","-13","","Mainly Clear"
"2003-01-13 04:00","2003","01","13","04:00","-4.6","","-11.5","","58","","24","","32","","24.1","","98.93","","","","-13","","Clear"
"2003-01-13 05:00","2003","01","13","05:00","-4.2","","-10.8","","60","","24","","33","","24.1","","98.87","","","","-12","","Mostly Cloudy"
"2003-01-13 06:00","2003","01","13","06:00","-3.6","","-11.1","","56","","24","","28","","24.1","","98.91","","","","-11","","Snow Showers"
"2003-01-13 07:00","2003","01","13","07:00","-2.9","","-9.0","","63","","28","","19","","24.1","","99.06","","","","-9","","Snow Showers"
"2003-01-13 08:00","2003","01","13","08:00","-4.0","","-12.5","","52","","31","","24","","24.1","","99.22","","","","-11","","Mostly Cloudy"
"2003-01-13 09:00","2003","01","13","09:00","-5.3","","-13.9","","51","","32","","28","","25.0","","99.40","","","","-13","","Mostly Cloudy"
"2003-01-13 10:00","2003","01","13","10:00","-5.8","","-13.9","","53","","33","","30","","25.0","","99.53","","","","-14","","Mostly Cloudy"
"2003-01-13 11:00","2003","01","13","11:00","-6.0","","-16.0","","45","","30","","35","","25.0","","99.63","","","","-15","","Mostly Cloudy"
"2003-01-13 12:00","2003","01","13","12:00","-5.6","","-16.1","","43","","32","","22","","25.0","","99.62","","","","-13","","Mostly Cloudy"
"2003-01-13 13:00","2003","01","13","13:00","-5.1","","-14.7","","47","","30","","30","","25.0","","99.59","","","","-13","","Mostly Cloudy"
"2003-01-13 14:00","2003","01","13","14:00","-4.8","","-15.7","","42","","29","","28","","25.0","","99.60","","","","-12","","Mostly Cloudy"
"2003-01-13 15:00","2003","01","13","15:00","-3.8","","-15.2","","41","","29","","30","","25.0","","99.63","","","","-11","","Mostly Cloudy"
"2003-01-13 16:00","2003","01","13","16:00","-4.8","","-14.9","","45","","29","","26","","25.0","","99.67","","","","-12","","Mostly Cloudy"
"2003-01-13 17:00","2003","01","13","17:00","-5.5","","-14.7","","48","","31","","22","","25.0","","99.71","","","","-13","","Mostly Cloudy"
"2003-01-13 18:00","2003","01","13","18:00","-6.0","","-14.5","","51","","31","","20","","25.0","","99.79","","","","-13","","Mostly Cloudy"
"2003-01-13 19:00","2003","01","13","19:00","-6.1","","-13.9","","54","","30","","20","","25.0","","99.83","","","","-13","","Mostly Cloudy"
"2003-01-13 20:00","2003","01","13","20:00","-6.0","","-14.0","","53","","30","","19","","25.0","","99.87","","","","-13","","Mostly Cloudy"
"2003-01-13 21:00","2003","01","13","21:00","-6.0","","-13.4","","56","","32","","17","","25.0","","99.85","","","","-12","","Snow Showers"
"2003-01-13 22:00","2003","01","13","22:00","-6.3","","-13.0","","59","","31","","19","","25.0","","99.88","","","","-13","","Snow Showers"
"2003-01-13 23:00","2003","01","13","23:00","-6.9","","-14.4","","55","","31","","19","","25.0","","99.90","","","","-14","","Snow Showers"
"2003-01-14 00:00","2003","01","14","00:00","-7.4","","-14.0","","59","","31","","19","","24.1","","99.91","","","","-14","","Mostly Cloudy"
"2003-01-14 01:00","2003","01","14","01:00","-7.4","","-14.0","","59","","32","","19","","25.0","","99.87","","","","-14","","Cloudy"
"2003-01-14 02:00","2003","01","14","02:00","-7.8","","-14.4","","59","","33","","19","","24.1","","99.90","","","","-15","","Snow Showers"
"2003-01-14 03:00","2003","01","14","03:00","-8.7","","-15.8","","56","","33","","19","","25.0","","99.92","","","","-16","","Mainly Clear"
"2003-01-14 04:00","2003","01","14","04:00","-8.6","","-15.4","","58","","33","","17","","25.0","","99.91","","","","-15","","Mostly Cloudy"
"2003-01-14 05:00","2003","01","14","05:00","-8.4","","-14.9","","59","","32","","11","","25.0","","99.91","","","","-14","","Cloudy"
"2003-01-14 06:00","2003","01","14","06:00","-8.3","","-15.0","","58","","31","","9","","25.0","","99.90","","","","-13","","Cloudy"
"2003-01-14 07:00","2003","01","14","07:00","-8.2","","-14.7","","59","","32","","9","","25.0","","99.90","","","","-13","","Mostly Cloudy"
"2003-01-14 08:00","2003","01","14","08:00","-8.2","","-14.5","","60","","29","","13","","19.3","","99.93","","","","-14","","Cloudy"
"2003-01-14 09:00","2003","01","14","09:00","-7.8","","-14.2","","60","","28","","19","","19.3","","99.96","","","","-15","","Mostly Cloudy"
"2003-01-14 10:00","2003","01","14","10:00","-7.1","","-13.9","","58","","30","","13","","25.0","","99.94","","","","-13","","Mostly Cloudy"
"2003-01-14 11:00","2003","01","14","11:00","-6.5","","-14.1","","55","","33","","15","","25.0","","99.91","","","","-12","","Mostly Cloudy"
"2003-01-14 12:00","2003","01","14","12:00","-5.8","","-14.4","","51","","27","","11","","25.0","","99.84","","","","-11","","Mostly Cloudy"
"2003-01-14 13:00","2003","01","14","13:00","-5.4","","-14.8","","48","","27","","6","","25.0","","99.73","","","","-8","","Mostly Cloudy"
"2003-01-14 14:00","2003","01","14","14:00","-4.9","","-14.9","","45","","29","","9","","25.0","","99.67","","","","-9","","Mostly Cloudy"
"2003-01-14 15:00","2003","01","14","15:00","-4.7","","-14.5","","46","","29","","15","","25.0","","99.67","","","","-10","","Mostly Cloudy"
"2003-01-14 16:00","2003","01","14","16:00","-4.8","","-14.1","","48","","29","","13","","25.0","","99.68","","","","-10","","Mostly Cloudy"
"2003-01-14 17:00","2003","01","14","17:00","-5.0","","-13.8","","50","","24","","6","","24.1","","99.66","","","","-8","","Mostly Cloudy"
"2003-01-14 18:00","2003","01","14","18:00","-4.6","","-14.3","","47","","28","","11","","24.1","","99.71","","","","-9","","Mostly Cloudy"
"2003-01-14 19:00","2003","01","14","19:00","-4.8","","-14.0","","49","","27","","13","","24.1","","99.72","","","","-10","","Mostly Cloudy"
"2003-01-14 20:00","2003","01","14","20:00","-4.9","","-13.8","","50","","26","","15","","24.1","","99.69","","","","-10","","Mostly Cloudy"
"2003-01-14 21:00","2003","01","14","21:00","-5.2","","-12.9","","55","","25","","17","","24.1","","99.67","","","","-11","","Mostly Cloudy"
"2003-01-14 22:00","2003","01","14","22:00","-7.2","","-9.6","","83","","30","","26","","16.1","","99.71","","","","-15","","Snow Showers"
"2003-01-14 23:00","2003","01","14","23:00","-7.5","","-14.3","","58","","29","","24","","24.1","","99.74","","","","-15","","Snow Showers"
"2003-01-15 00:00","2003","01","15","00:00","-8.0","","-12.9","","68","","31","","24","","24.1","","99.74","","","","-16","","Snow Showers"
"2003-01-15 01:00","2003","01","15","01:00","-8.7","","-15.2","","59","","30","","15","","25.0","","99.74","","","","-15","","Mainly Clear"
"2003-01-15 02:00","2003","01","15","02:00","-9.0","","-14.7","","63","","29","","17","","25.0","","99.75","","","","-16","","Mostly Cloudy"
"2003-01-15 03:00","2003","01","15","03:00","-8.9","","-14.1","","66","","30","","17","","25.0","","99.81","","","","-16","","Mostly Cloudy"
"2003-01-15 04:00","2003","01","15","04:00","-8.8","","-14.2","","65","","29","","17","","25.0","","99.81","","","","-16","","Mostly Cloudy"
"2003-01-15 05:00","2003","01","15","05:00","-9.1","","-14.3","","66","","29","","20","","25.0","","99.82","","","","-17","","Mostly Cloudy"
"2003-01-15 06:00","2003","01","15","06:00","-9.1","","-14.3","","66","","29","","20","","25.0","","99.85","","","","-17","","Mostly Cloudy"
"2003-01-15 07:00","2003","01","15","07:00","-8.9","","-14.3","","65","","29","","20","","24.1","","99.88","","","","-16","","Mostly Cloudy"
"2003-01-15 08:00","2003","01","15","08:00","-9.0","","-14.2","","66","","29","","19","","24.1","","99.93","","","","-16","","Mostly Cloudy"
"2003-01-15 09:00","2003","01","15","09:00","-9.4","","-12.9","","76","","25","","15","","24.1","","99.98","","","","-16","","Mostly Cloudy"
"2003-01-15 10:00","2003","01","15","10:00","-8.6","","-15.3","","58","","28","","30","","24.1","","100.04","","","","-18","","Mostly Cloudy"
"2003-01-15 11:00","2003","01","15","11:00","-8.0","","-15.8","","53","","30","","28","","24.1","","100.08","","","","-17","","Mostly Cloudy"
"2003-01-15 12:00","2003","01","15","12:00","-7.6","","-15.8","","52","","28","","22","","24.1","","100.03","","","","-15","","Snow Showers"
"2003-01-15 13:00","2003","01","15","13:00","-6.9","","-15.5","","50","","30","","20","","24.1","","100.00","","","","-14","","Mostly Cloudy"
"2003-01-15 14:00","2003","01","15","14:00","-6.4","","-15.1","","50","","28","","32","","24.1","","100.02","","","","-15","","Mostly Cloudy"
"2003-01-15 15:00","2003","01","15","15:00","-6.2","","-14.5","","52","","29","","22","","24.1","","100.02","","","","-13","","Mostly Cloudy"
"2003-01-15 16:00","2003","01","15","16:00","-6.7","","-14.3","","55","","27","","26","","19.3","","100.07","","","","-15","","Mostly Cloudy"
"2003-01-15 17:00","2003","01","15","17:00","-6.8","","-14.1","","56","","29","","28","","17.7","","100.10","","","","-15","","Snow Showers"
"2003-01-15 18:00","2003","01","15","18:00","-6.8","","-13.9","","57","","29","","20","","25.0","","100.19","","","","-14","","Snow Showers"
"2003-01-15 19:00","2003","01","15","19:00","-6.7","","-14.2","","55","","30","","20","","25.0","","100.26","","","","-14","","Snow Showers"
"2003-01-15 20:00","2003","01","15","20:00","-6.8","","-13.5","","59","","30","","19","","25.0","","100.32","","","","-14","","Snow Showers"
"2003-01-15 21:00","2003","01","15","21:00","-7.4","","-14.5","","57","","32","","19","","25.0","","100.34","","","","-14","","Snow Showers"
"2003-01-15 22:00","2003","01","15","22:00","-7.9","","-14.8","","58","","29","","20","","25.0","","100.35","","","","-15","","Snow Showers"
"2003-01-15 23:00","2003","01","15","23:00","-8.7","","-14.6","","62","","29","","20","","25.0","","100.35","","","","-16","","Mainly Clear"
"2003-01-16 00:00","2003","01","16","00:00","-9.0","","-14.3","","65","","29","","19","","25.0","","100.38","","","","-16","","Clear"
"2003-01-16 01:00","2003","01","16","01:00","-9.4","","-14.2","","68","","29","","13","","25.0","","100.36","","","","-15","","Clear"
"2003-01-16 02:00","2003","01","16","02:00","-10.0","","-16.1","","61","","27","","9","","25.0","","100.34","","","","-15","","Mainly Clear"
"2003-01-16 03:00","2003","01","16","03:00","-10.4","","-16.1","","63","","24","","6","","25.0","","100.29","","","","-14","","Mainly Clear"
"2003-01-16 04:00","2003","01","16","04:00","-10.3","","-13.8","","75","","25","","9","","25.0","","100.31","","","","-15","","Mainly Clear"
"2003-01-16 05:00","2003","01","16","05:00","-10.3","","-13.4","","78","","25","","13","","25.0","","100.24","","","","-17","","Mainly Clear"
"2003-01-16 06:00","2003","01","16","06:00","-11.1","","-13.5","","82","","24","","7","","24.1","","100.19","","","","-15","","Mainly Clear"
"2003-01-16 07:00","2003","01","16","07:00","-10.9","","-13.4","","82","","25","","9","","19.3","","100.14","","","","-16","","Mainly Clear"
"2003-01-16 08:00","2003","01","16","08:00","-10.8","","-13.7","","79","","24","","9","","12.9","","100.13","","","","-16","","Cloudy"
"2003-01-16 09:00","2003","01","16","09:00","-10.5","","-13.2","","81","","22","","13","","16.1","","100.11","","","","-17","","Cloudy"
"2003-01-16 10:00","2003","01","16","10:00","-9.4","","-13.1","","74","","22","","15","","24.1","","100.06","","","","-16","","Cloudy"
"2003-01-16 11:00","2003","01","16","11:00","-7.9","","-13.4","","65","","23","","17","","24.1","","99.99","","","","-15","","Cloudy"
"2003-01-16 12:00","2003","01","16","12:00","-6.8","","-11.2","","71","","22","","20","","24.1","","99.85","","","","-14","","Cloudy"
"2003-01-16 13:00","2003","01","16","13:00","-6.1","","-12.1","","62","","22","","20","","24.1","","99.66","","","","-13","","Cloudy"
"2003-01-16 14:00","2003","01","16","14:00","-5.2","","-12.2","","58","","23","","19","","24.1","","99.52","","","","-12","","Cloudy"
"2003-01-16 15:00","2003","01","16","15:00","-5.1","","-12.8","","55","","24","","17","","24.1","","99.42","","","","-11","","Cloudy"
"2003-01-16 16:00","2003","01","16","16:00","-5.4","","-11.5","","62","","23","","19","","24.1","","99.35","","","","-12","","Cloudy"
"2003-01-16 17:00","2003","01","16","17:00","-5.4","","-11.1","","64","","24","","15","","24.1","","99.26","","","","-11","","Mostly Cloudy"
"2003-01-16 18:00","2003","01","16","18:00","-5.5","","-11.0","","65","","23","","13","","24.1","","99.21","","","","-11","","Mostly Cloudy"
"2003-01-16 19:00","2003","01","16","19:00","-5.5","","-11.1","","65","","24","","15","","24.1","","99.23","","","","-11","","Mostly Cloudy"
"2003-01-16 20:00","2003","01","16","20:00","-5.5","","-11.0","","65","","25","","13","","24.1","","99.23","","","","-11","","Cloudy"
"2003-01-16 21:00","2003","01","16","21:00","-5.8","","-11.1","","66","","25","","13","","24.1","","99.23","","","","-11","","Mostly Cloudy"
"2003-01-16 22:00","2003","01","16","22:00","-5.9","","-11.1","","67","","25","","15","","24.1","","99.21","","","","-12","","Cloudy"
"2003-01-16 23:00","2003","01","16","23:00","-6.4","","-11.3","","68","","27","","11","","24.1","","99.20","","","","-11","","Mostly Cloudy"
"2003-01-17 00:00","2003","01","17","00:00","-6.4","","-11.3","","68","","33","","15","","24.1","","99.24","","","","-12","","Mainly Clear"
"2003-01-17 01:00","2003","01","17","01:00","-6.4","","-12.3","","63","","34","","15","","24.1","","99.22","","","","-12","","Mainly Clear"
"2003-01-17 02:00","2003","01","17","02:00","-7.3","","-12.3","","67","","35","","19","","24.1","","99.23","","","","-14","","Clear"
"2003-01-17 03:00","2003","01","17","03:00","-7.9","","-14.5","","59","","35","","28","","24.1","","99.32","","","","-17","","Mainly Clear"
"2003-01-17 04:00","2003","01","17","04:00","-8.5","","-15.7","","56","","35","","17","","25.0","","99.36","","","","-15","","Clear"
"2003-01-17 05:00","2003","01","17","05:00","-9.5","","-15.9","","60","","34","","26","","25.0","","99.41","","","","-18","","Clear"
"2003-01-17 06:00","2003","01","17","06:00","-10.1","","-15.5","","65","","34","","20","","25.0","","99.48","","","","-18","","Mainly Clear"
"2003-01-17 07:00","2003","01","17","07:00","-10.6","","-15.1","","69","","35","","22","","25.0","","99.57","","","","-19","","Mainly Clear"
"2003-01-17 08:00","2003","01","17","08:00","-10.9","","-15.4","","69","","36","","22","","24.1","","99.66","","","","-19","","Mostly Cloudy"
"2003-01-17 09:00","2003","01","17","09:00","-11.2","","-16.9","","63","","35","","28","","24.1","","99.78","","","","-21","","Mostly Cloudy"
"2003-01-17 10:00","2003","01","17","10:00","-11.4","","-17.4","","61","","34","","28","","24.1","","99.87","","","","-21","","Mostly Cloudy"
"2003-01-17 11:00","2003","01","17","11:00","-10.1","","-17.1","","57","","34","","33","","24.1","","99.94","","","","-20","","Mainly Clear"
"2003-01-17 12:00","2003","01","17","12:00","-9.6","","-17.1","","54","","34","","24","","24.1","","99.93","","","","-18","","Mainly Clear"
"2003-01-17 13:00","2003","01","17","13:00","-9.2","","-17.3","","52","","35","","15","","24.1","","99.90","","","","-16","","Mainly Clear"
"2003-01-17 14:00","2003","01","17","14:00","-8.9","","-17.6","","49","","34","","15","","24.1","","99.90","","","","-15","","Mainly Clear"
"2003-01-17 15:00","2003","01","17","15:00","-8.6","","-18.0","","47","","34","","13","","24.1","","99.93","","","","-15","","Mainly Clear"
"2003-01-17 16:00","2003","01","17","16:00","-9.1","","-18.3","","47","","35","","20","","24.1","","99.96","","","","-17","","Mainly Clear"
"2003-01-17 17:00","2003","01","17","17:00","-9.7","","-18.6","","48","","33","","17","","24.1","","100.00","","","","-17","","Clear"
"2003-01-17 18:00","2003","01","17","18:00","-10.1","","-18.6","","50","","29","","13","","24.1","","100.04","","","","-16","","Clear"
"2003-01-17 19:00","2003","01","17","19:00","-10.5","","-19.0","","50","","30","","11","","24.1","","100.03","","","","-16","","Clear"
"2003-01-17 20:00","2003","01","17","20:00","-11.2","","-19.4","","51","","28","","9","","24.1","","100.02","","","","-16","","Clear"
"2003-01-17 21:00","2003","01","17","21:00","-11.8","","-19.1","","55","","23","","7","","24.1","","99.97","","","","-16","","Clear"
"2003-01-17 22:00","2003","01","17","22:00","-12.0","","-18.8","","57","","25","","13","","24.1","","99.89","","","","-19","","Clear"
"2003-01-17 23:00","2003","01","17","23:00","-13.0","","-18.5","","63","","22","","11","","24.1","","99.85","","","","-19","","Clear"
"2003-01-18 00:00","2003","01","18","00:00","-13.4","","-19.1","","62","","22","","11","","24.1","","99.79","","","","-20","","Clear"
"2003-01-18 01:00","2003","01","18","01:00","-13.0","","-17.9","","67","","23","","15","","25.0","","99.73","","","","-20","","Mainly Clear"
"2003-01-18 02:00","2003","01","18","02:00","-13.0","","-17.5","","69","","22","","13","","25.0","","99.67","","","","-20","","Mainly Clear"
"2003-01-18 03:00","2003","01","18","03:00","-11.8","","-16.5","","68","","22","","13","","25.0","","99.62","","","","-18","","Mainly Clear"
"2003-01-18 04:00","2003","01","18","04:00","-10.8","","-14.4","","75","","22","","15","","25.0","","99.53","","","","-18","","Snow Showers"
"2003-01-18 05:00","2003","01","18","05:00","-10.6","","-15.4","","68","","23","","19","","25.0","","99.46","","","","-18","","Snow Showers"
"2003-01-18 06:00","2003","01","18","06:00","-11.2","","-15.9","","68","","23","","22","","25.0","","99.43","","","","-20","","Clear"
"2003-01-18 07:00","2003","01","18","07:00","-11.6","","-16.1","","69","","22","","26","","25.0","","99.36","","","","-21","","Clear"
"2003-01-18 08:00","2003","01","18","08:00","-11.6","","-16.2","","69","","22","","32","","25.0","","99.30","","","","-22","","Mainly Clear"
"2003-01-18 09:00","2003","01","18","09:00","-10.6","","-15.6","","67","","23","","37","","25.0","","99.25","","","","-21","","Mainly Clear"
"2003-01-18 10:00","2003","01","18","10:00","-10.2","","-17.1","","57","","23","","41","","25.0","","99.16","","","","-21","","Mostly Cloudy"
"2003-01-18 11:00","2003","01","18","11:00","-9.3","","-16.7","","55","","24","","37","","25.0","","99.12","","","","-19","","Mostly Cloudy"
"2003-01-18 12:00","2003","01","18","12:00","-8.3","","-16.2","","53","","22","","35","","24.1","","98.97","","","","-18","","Mostly Cloudy"
"2003-01-18 13:00","2003","01","18","13:00","-7.3","","-16.4","","48","","22","","43","","24.1","","98.79","","","","-17","","Cloudy"
"2003-01-18 14:00","2003","01","18","14:00","-7.1","","-16.1","","49","","24","","33","","24.1","","98.69","","","","-16","","Cloudy"
"2003-01-18 15:00","2003","01","18","15:00","-7.4","","-16.1","","50","","24","","33","","24.1","","98.68","","","","-17","","Cloudy"
"2003-01-18 16:00","2003","01","18","16:00","-7.8","","-14.0","","61","","24","","35","","9.7","","98.71","","","","-17","","Snow Showers"
"2003-01-18 17:00","2003","01","18","17:00","-8.3","","-12.0","","75","","24","","32","","4.0","","98.75","","","","-18","","Snow"
"2003-01-18 18:00","2003","01","18","18:00","-8.7","","-11.5","","80","","24","","28","","11.3","","98.80","","","","-18","","Snow"
"2003-01-18 19:00","2003","01","18","19:00","-8.4","","-11.7","","77","","24","","20","","19.3","","98.84","","","","-16","","Snow"
"2003-01-18 20:00","2003","01","18","20:00","-8.4","","-11.9","","76","","25","","22","","24.1","","98.84","","","","-16","","Snow"
"2003-01-18 21:00","2003","01","18","21:00","-8.3","","-12.6","","71","","25","","22","","24.1","","98.84","","","","-16","","Snow"
"2003-01-18 22:00","2003","01","18","22:00","-9.1","","-13.2","","72","","25","","19","","24.1","","98.83","","","","-17","","Mainly Clear"
"2003-01-18 23:00","2003","01","18","23:00","-9.8","","-14.4","","69","","27","","24","","25.0","","98.85","","","","-18","","Mostly Cloudy"
"2003-01-19 00:00","2003","01","19","00:00","-10.3","","-14.3","","72","","26","","19","","25.0","","98.85","","","","-18","","Snow Showers"
"2003-01-19 01:00","2003","01","19","01:00","-10.2","","-14.0","","74","","26","","24","","25.0","","98.84","","","","-19","","Snow Showers"
"2003-01-19 02:00","2003","01","19","02:00","-10.5","","-13.9","","76","","27","","22","","25.0","","98.86","","","","-19","","Mainly Clear"
"2003-01-19 03:00","2003","01","19","03:00","-10.6","","-13.8","","77","","26","","17","","25.0","","98.89","","","","-18","","Mostly Cloudy"
"2003-01-19 04:00","2003","01","19","04:00","-10.4","","-13.4","","79","","27","","17","","11.3","","98.88","","","","-18","","Snow Showers"
"2003-01-19 05:00","2003","01","19","05:00","-10.1","","-12.9","","80","","26","","11","","16.1","","98.92","","","","-16","","Snow Showers"
"2003-01-19 06:00","2003","01","19","06:00","-9.7","","-12.6","","79","","25","","13","","16.1","","98.94","","","","-16","","Snow Showers"
"2003-01-19 07:00","2003","01","19","07:00","-10.2","","-12.8","","81","","25","","15","","11.3","","98.97","","","","-17","","Snow Showers"
"2003-01-19 08:00","2003","01","19","08:00","-10.5","","-12.6","","85","","24","","13","","9.7","","98.96","","","","-17","","Haze"
"2003-01-19 09:00","2003","01","19","09:00","-9.3","","-12.1","","80","","26","","19","","12.9","","98.98","","","","-17","","Mostly Cloudy"
"2003-01-19 10:00","2003","01","19","10:00","-7.9","","-12.9","","67","","26","","32","","16.1","","98.97","","","","-17","","Mostly Cloudy"
"2003-01-19 11:00","2003","01","19","11:00","-7.4","","-12.4","","67","","23","","28","","16.1","","98.92","","","","-16","","Cloudy"
"2003-01-19 12:00","2003","01","19","12:00","-7.9","","-14.1","","61","","24","","37","","19.3","","98.79","","","","-18","","Mostly Cloudy"
"2003-01-19 13:00","2003","01","19","13:00","-8.3","","-14.9","","59","","23","","43","","19.3","","98.73","","","","-19","","Cloudy"
"2003-01-19 14:00","2003","01","19","14:00","-8.7","","-16.4","","54","","24","","39","","12.9","","98.61","","","","-19","","Cloudy"
"2003-01-19 15:00","2003","01","19","15:00","-8.7","","-16.7","","52","","23","","41","","16.1","","98.51","","","","-19","","Cloudy"
"2003-01-19 16:00","2003","01","19","16:00","-8.4","","-17.7","","47","","23","","35","","16.1","","98.43","","","","-18","","Cloudy"
"2003-01-19 17:00","2003","01","19","17:00","-8.4","","-16.7","","51","","23","","37","","16.1","","98.31","","","","-18","","Cloudy"
"2003-01-19 18:00","2003","01","19","18:00","-8.1","","-15.3","","56","","23","","37","","9.7","","98.22","","","","-18","","Snow Showers"
"2003-01-19 19:00","2003","01","19","19:00","-7.9","","-12.6","","69","","25","","39","","8.0","","98.21","","","","-18","","Snow Showers"
"2003-01-19 20:00","2003","01","19","20:00","-7.0","","-11.7","","69","","25","","37","","11.3","","98.13","","","","-16","","Snow"
"2003-01-19 21:00","2003","01","19","21:00","-6.9","","-11.2","","71","","25","","26","","24.1","","98.05","","","","-15","","Snow"
"2003-01-19 22:00","2003","01","19","22:00","-6.4","","-10.3","","74","","26","","33","","8.0","","98.01","","","","-15","","Snow"
"2003-01-19 23:00","2003","01","19","23:00","-6.3","","-8.7","","83","","27","","24","","3.6","","98.10","","","","-14","","Snow"
"2003-01-20 00:00","2003","01","20","00:00","-5.8","","-10.1","","72","","29","","26","","3.2","","98.15","","","","-14","","Snow"
"2003-01-20 01:00","2003","01","20","01:00","-6.7","","-13.9","","57","","32","","37","","24.1","","98.26","","","","-16","","Snow"
"2003-01-20 02:00","2003","01","20","02:00","-8.3","","-15.9","","54","","31","","19","","24.1","","98.35","","","","-16","","Clear"
"2003-01-20 03:00","2003","01","20","03:00","-9.0","","-16.7","","54","","30","","22","","24.1","","98.45","","","","-17","","Clear"
"2003-01-20 04:00","2003","01","20","04:00","-9.6","","-16.7","","56","","30","","17","","24.1","","98.55","","","","-17","","Clear"
"2003-01-20 05:00","2003","01","20","05:00","-9.8","","-15.8","","62","","32","","22","","24.1","","98.64","","","","-18","","Mainly Clear"
"2003-01-20 06:00","2003","01","20","06:00","-10.4","","-16.0","","63","","33","","11","","24.1","","98.73","","","","-16","","Clear"
"2003-01-20 07:00","2003","01","20","07:00","-11.1","","-15.9","","68","","26","","15","","24.1","","98.91","","","","-18","","Mainly Clear"
"2003-01-20 08:00","2003","01","20","08:00","-11.1","","-16.2","","66","","29","","13","","24.1","","98.98","","","","-18","","Mostly Cloudy"
"2003-01-20 09:00","2003","01","20","09:00","-10.7","","-16.0","","65","","28","","20","","24.1","","99.09","","","","-19","","Mostly Cloudy"
"2003-01-20 10:00","2003","01","20","10:00","-10.1","","-15.3","","66","","29","","22","","24.1","","99.18","","","","-18","","Mostly Cloudy"
"2003-01-20 11:00","2003","01","20","11:00","-9.1","","-16.0","","57","","31","","24","","24.1","","99.28","","","","-17","","Mostly Cloudy"
"2003-01-20 12:00","2003","01","20","12:00","-8.5","","-16.8","","51","","30","","26","","24.1","","99.28","","","","-17","","Mostly Cloudy"
"2003-01-20 13:00","2003","01","20","13:00","-8.1","","-16.6","","50","","31","","20","","24.1","","99.26","","","","-15","","Mostly Cloudy"
"2003-01-20 14:00","2003","01","20","14:00","-7.5","","-16.4","","49","","30","","24","","24.1","","99.26","","","","-15","","Mostly Cloudy"
"2003-01-20 15:00","2003","01","20","15:00","-7.5","","-16.6","","48","","29","","22","","24.1","","99.27","","","","-15","","Mostly Cloudy"
"2003-01-20 16:00","2003","01","20","16:00","-7.3","","-17.1","","45","","29","","26","","24.1","","99.29","","","","-15","","Mostly Cloudy"
"2003-01-20 17:00","2003","01","20","17:00","-7.7","","-16.5","","49","","27","","17","","24.1","","99.31","","","","-14","","Mostly Cloudy"
"2003-01-20 18:00","2003","01","20","18:00","-8.3","","-16.3","","52","","29","","9","","24.1","","99.32","","","","-13","","Cloudy"
"2003-01-20 19:00","2003","01","20","19:00","-7.9","","-15.6","","54","","26","","7","","25.0","","99.39","","","","-12","","Cloudy"
"2003-01-20 20:00","2003","01","20","20:00","-7.9","","-15.1","","56","","25","","9","","25.0","","99.43","","","","-12","","Mostly Cloudy"
"2003-01-20 21:00","2003","01","20","21:00","-7.8","","-14.6","","58","","30","","19","","25.0","","99.43","","","","-15","","Cloudy"
"2003-01-20 22:00","2003","01","20","22:00","-8.7","","-15.4","","58","","31","","19","","25.0","","99.45","","","","-16","","Mostly Cloudy"
"2003-01-20 23:00","2003","01","20","23:00","-9.4","","-15.4","","62","","30","","20","","25.0","","99.48","","","","-17","","Mainly Clear"
"2003-01-21 00:00","2003","01","21","00:00","-10.0","","-15.7","","63","","30","","19","","24.1","","99.53","","","","-18","","Mostly Cloudy"
"2003-01-21 01:00","2003","01","21","01:00","-10.5","","-15.9","","64","","27","","11","","24.1","","99.52","","","","-16","","Mainly Clear"
"2003-01-21 02:00","2003","01","21","02:00","-11.3","","-16.5","","65","","28","","11","","24.1","","99.54","","","","-17","","Mainly Clear"
"2003-01-21 03:00","2003","01","21","03:00","-11.6","","-15.9","","70","","28","","11","","24.1","","99.57","","","","-18","","Mostly Cloudy"
"2003-01-21 04:00","2003","01","21","04:00","-11.3","","-15.4","","72","","29","","17","","24.1","","99.57","","","","-19","","Mostly Cloudy"
"2003-01-21 05:00","2003","01","21","05:00","-11.0","","-16.0","","67","","32","","17","","24.1","","99.58","","","","-18","","Mostly Cloudy"
"2003-01-21 06:00","2003","01","21","06:00","-11.6","","-16.6","","66","","32","","22","","24.1","","99.61","","","","-20","","Clear"
"2003-01-21 07:00","2003","01","21","07:00","-11.9","","-17.1","","65","","32","","15","","24.1","","99.67","","","","-19","","Mainly Clear"
"2003-01-21 08:00","2003","01","21","08:00","-12.4","","-17.2","","67","","32","","17","","24.1","","99.76","","","","-20","","Mainly Clear"
"2003-01-21 09:00","2003","01","21","09:00","-11.6","","-17.4","","62","","32","","20","","24.1","","99.82","","","","-20","","Clear"
"2003-01-21 10:00","2003","01","21","10:00","-11.2","","-17.8","","58","","34","","20","","25.0","","99.88","","","","-19","","Clear"
"2003-01-21 11:00","2003","01","21","11:00","-10.2","","-18.6","","50","","34","","19","","25.0","","99.92","","","","-18","","Mainly Clear"
"2003-01-21 12:00","2003","01","21","12:00","-8.7","","-18.5","","45","","33","","17","","25.0","","99.91","","","","-16","","Mainly Clear"
"2003-01-21 13:00","2003","01","21","13:00","-9.0","","-19.9","","41","","31","","20","","25.0","","99.86","","","","-17","","Mainly Clear"
"2003-01-21 14:00","2003","01","21","14:00","-7.8","","-20.9","","34","","30","","17","","25.0","","99.82","","","","-14","","Mainly Clear"
"2003-01-21 15:00","2003","01","21","15:00","-7.7","","-20.2","","36","","30","","19","","25.0","","99.78","","","","-15","","Mainly Clear"
"2003-01-21 16:00","2003","01","21","16:00","-7.5","","-19.9","","36","","28","","17","","25.0","","99.81","","","","-14","","Clear"
"2003-01-21 17:00","2003","01","21","17:00","-8.2","","-19.9","","38","","29","","13","","25.0","","99.85","","","","-14","","Clear"
"2003-01-21 18:00","2003","01","21","18:00","-9.0","","-19.7","","42","","30","","17","","25.0","","99.86","","","","-16","","Clear"
"2003-01-21 19:00","2003","01","21","19:00","-9.6","","-19.2","","45","","30","","13","","25.0","","99.88","","","","-16","","Clear"
"2003-01-21 20:00","2003","01","21","20:00","-10.2","","-18.9","","49","","31","","15","","25.0","","99.90","","","","-17","","Clear"
"2003-01-21 21:00","2003","01","21","21:00","-10.6","","-18.9","","50","","31","","15","","25.0","","99.91","","","","-17","","Clear"
"2003-01-21 22:00","2003","01","21","22:00","-11.1","","-19.1","","52","","29","","11","","25.0","","99.92","","","","-17","","Mainly Clear"
"2003-01-21 23:00","2003","01","21","23:00","-10.8","","-18.4","","54","","31","","19","","25.0","","99.91","","","","-19","","Mostly Cloudy"
"2003-01-22 00:00","2003","01","22","00:00","-10.9","","-18.1","","55","","32","","19","","24.1","","99.91","","","","-19","","Mostly Cloudy"
"2003-01-22 01:00","2003","01","22","01:00","-11.5","","-17.8","","60","","32","","20","","24.1","","99.88","","","","-20","","Mostly Cloudy"
"2003-01-22 02:00","2003","01","22","02:00","-11.9","","-18.5","","58","","33","","19","","24.1","","99.90","","","","-20","","Clear"
"2003-01-22 03:00","2003","01","22","03:00","-12.2","","-18.6","","59","","29","","11","","24.1","","99.89","","","","-18","","Mainly Clear"
"2003-01-22 04:00","2003","01","22","04:00","-12.1","","-19.1","","56","","32","","20","","24.1","","99.89","","","","-21","","Clear"
"2003-01-22 05:00","2003","01","22","05:00","-12.8","","-18.8","","61","","29","","17","","24.1","","99.93","","","","-21","","Clear"
"2003-01-22 06:00","2003","01","22","06:00","-12.8","","-18.2","","64","","30","","15","","24.1","","99.95","","","","-20","","Clear"
"2003-01-22 07:00","2003","01","22","07:00","-13.2","","-17.9","","68","","28","","13","","24.1","","100.01","","","","-20","","Mainly Clear"
"2003-01-22 08:00","2003","01","22","08:00","-13.4","","-17.6","","71","","28","","7","","24.1","","100.03","","","","-18","","Mostly Cloudy"
"2003-01-22 09:00","2003","01","22","09:00","-12.1","","-17.6","","64","","33","","9","","24.1","","100.05","","","","-17","","Mostly Cloudy"
"2003-01-22 10:00","2003","01","22","10:00","-11.3","","-18.3","","56","","33","","19","","24.1","","100.07","","","","-19","","Mostly Cloudy"
"2003-01-22 11:00","2003","01","22","11:00","-10.6","","-19.7","","47","","34","","17","","24.1","","100.13","","","","-18","","Mostly Cloudy"
"2003-01-22 12:00","2003","01","22","12:00","-10.2","","-19.7","","46","","1","","15","","24.1","","100.10","","","","-17","","Mostly Cloudy"
"2003-01-22 13:00","2003","01","22","13:00","-9.9","","-18.8","","48","","32","","19","","19.3","","100.08","","","","-18","","Snow Showers"
"2003-01-22 14:00","2003","01","22","14:00","-10.3","","-18.6","","51","","33","","17","","24.1","","100.05","","","","-18","","Snow Showers"
"2003-01-22 15:00","2003","01","22","15:00","-8.3","","-19.6","","40","","36","","24","","24.1","","100.02","","","","-16","","Mostly Cloudy"
"2003-01-22 16:00","2003","01","22","16:00","-9.4","","-20.1","","41","","36","","20","","24.1","","100.05","","","","-17","","Mostly Cloudy"
"2003-01-22 17:00","2003","01","22","17:00","-10.0","","-20.1","","43","","31","","19","","24.1","","100.08","","","","-18","","Mostly Cloudy"
"2003-01-22 18:00","2003","01","22","18:00","-10.5","","-19.1","","49","","32","","15","","24.1","","100.10","","","","-17","","Mostly Cloudy"
"2003-01-22 19:00","2003","01","22","19:00","-10.7","","-19.6","","48","","34","","13","","24.1","","100.12","","","","-17","","Mostly Cloudy"
"2003-01-22 20:00","2003","01","22","20:00","-11.3","","-18.5","","55","","33","","19","","25.0","","100.13","","","","-19","","Mainly Clear"
"2003-01-22 21:00","2003","01","22","21:00","-11.6","","-18.3","","58","","32","","13","","25.0","","100.10","","","","-18","","Mainly Clear"
"2003-01-22 22:00","2003","01","22","22:00","-12.1","","-18.1","","61","","34","","19","","25.0","","100.09","","","","-20","","Mainly Clear"
"2003-01-22 23:00","2003","01","22","23:00","-12.3","","-17.0","","68","","36","","13","","6.4","","100.10","","","","-19","","Snow Showers"
"2003-01-23 00:00","2003","01","23","00:00","-12.6","","-17.8","","65","","36","","17","","11.3","","100.11","","","","-20","","Snow Showers"
"2003-01-23 01:00","2003","01","23","01:00","-14.1","","-20.6","","58","","35","","19","","24.1","","100.08","","","","-23","","Clear"
"2003-01-23 02:00","2003","01","23","02:00","-14.6","","-21.3","","57","","33","","17","","24.1","","100.04","","","","-23","","Clear"
"2003-01-23 03:00","2003","01","23","03:00","-15.3","","-21.1","","61","","28","","15","","24.1","","100.02","","","","-23","","Clear"
"2003-01-23 04:00","2003","01","23","04:00","-15.8","","-21.0","","64","","29","","19","","24.1","","99.97","","","","-25","","Clear"
"2003-01-23 05:00","2003","01","23","05:00","-15.7","","-21.5","","61","","31","","20","","24.1","","99.97","","","","-25","","Clear"
"2003-01-23 06:00","2003","01","23","06:00","-15.8","","-22.5","","56","","29","","20","","24.1","","99.94","","","","-25","","Mainly Clear"
"2003-01-23 07:00","2003","01","23","07:00","-15.7","","-22.4","","56","","30","","24","","24.1","","99.95","","","","-26","","Mainly Clear"
"2003-01-23 08:00","2003","01","23","08:00","-15.2","","-21.1","","61","","29","","26","","9.7","","99.93","","","","-26","","Snow Showers"
"2003-01-23 09:00","2003","01","23","09:00","-14.5","","-20.2","","62","","30","","22","","24.1","","99.90","","","","-24","","Snow Showers"
"2003-01-23 10:00","2003","01","23","10:00","-13.1","","-18.7","","63","","30","","24","","16.1","","99.89","","","","-23","","Mostly Cloudy"
"2003-01-23 11:00","2003","01","23","11:00","-11.9","","-12.2","","98","","32","","30","","4.0","","99.94","","","","-22","","Snow Showers,Fog"
"2003-01-23 12:00","2003","01","23","12:00","-11.3","","-16.7","","64","","32","","30","","8.0","","99.91","","","","-21","","Snow Showers"
"2003-01-23 13:00","2003","01","23","13:00","-11.0","","-15.2","","71","","33","","22","","2.4","","99.92","","","","-20","","Snow"
"2003-01-23 14:00","2003","01","23","14:00","-9.6","","-15.8","","61","","32","","30","","9.7","","99.89","","","","-19","","Snow"
"2003-01-23 15:00","2003","01","23","15:00","-8.9","","-14.9","","62","","33","","28","","11.3","","99.94","","","","-18","","Snow"
"2003-01-23 16:00","2003","01","23","16:00","-8.1","","-13.7","","64","","34","","24","","16.1","","100.00","","","","-16","","Snow"
"2003-01-23 17:00","2003","01","23","17:00","-7.9","","-14.0","","62","","34","","24","","24.1","","100.07","","","","-16","","Snow Showers"
"2003-01-23 18:00","2003","01","23","18:00","-7.7","","-15.0","","56","","34","","26","","24.1","","100.15","","","","-16","","Cloudy"
"2003-01-23 19:00","2003","01","23","19:00","-7.7","","-13.7","","62","","32","","26","","24.1","","100.21","","","","-16","","Cloudy"
"2003-01-23 20:00","2003","01","23","20:00","-7.7","","-14.3","","59","","34","","20","","25.0","","100.27","","","","-15","","Mostly Cloudy"
"2003-01-23 21:00","2003","01","23","21:00","-7.8","","-14.9","","57","","32","","24","","24.1","","100.31","","","","-16","","Snow Showers"
"2003-01-23 22:00","2003","01","23","22:00","-8.3","","-14.5","","61","","34","","32","","19.3","","100.36","","","","-18","","Snow Showers"
"2003-01-23 23:00","2003","01","23","23:00","-8.1","","-14.0","","62","","36","","24","","24.1","","100.41","","","","-16","","Snow Showers"
"2003-01-24 00:00","2003","01","24","00:00","-8.0","","-13.7","","64","","35","","15","","24.1","","100.46","","","","-14","","Snow Showers"
"2003-01-24 01:00","2003","01","24","01:00","-8.3","","-13.5","","66","","34","","28","","24.1","","100.51","","","","-17","","Snow Showers"
"2003-01-24 02:00","2003","01","24","02:00","-8.3","","-13.4","","67","","35","","17","","24.1","","100.57","","","","-15","","Snow"
"2003-01-24 03:00","2003","01","24","03:00","-8.7","","-12.7","","73","","32","","28","","12.9","","100.63","","","","-18","","Snow"
"2003-01-24 04:00","2003","01","24","04:00","-8.9","","-14.5","","64","","33","","20","","25.0","","100.61","","","","-16","","Snow"
"2003-01-24 05:00","2003","01","24","05:00","-9.2","","-14.4","","66","","33","","22","","25.0","","100.62","","","","-17","","Snow"
"2003-01-24 06:00","2003","01","24","06:00","-10.1","","-14.6","","70","","32","","17","","25.0","","100.68","","","","-17","","Clear"
"2003-01-24 07:00","2003","01","24","07:00","-10.1","","-14.1","","72","","29","","13","","25.0","","100.73","","","","-16","","Mainly Clear"
"2003-01-24 08:00","2003","01","24","08:00","-9.9","","-13.7","","74","","26","","9","","24.1","","100.73","","","","-15","","Mostly Cloudy"
"2003-01-24 09:00","2003","01","24","09:00","-8.9","","-12.5","","75","","26","","11","","24.1","","100.78","","","","-14","","Mostly Cloudy"
"2003-01-24 10:00","2003","01","24","10:00","-7.1","","-11.6","","70","","30","","24","","19.3","","100.79","","","","-15","","Snow Showers"
"2003-01-24 11:00","2003","01","24","11:00","-6.8","","-13.1","","61","","28","","22","","24.1","","100.83","","","","-14","","Snow Showers"
"2003-01-24 12:00","2003","01","24","12:00","-6.5","","-13.4","","58","","27","","20","","24.1","","100.74","","","","-13","","Snow Showers"
"2003-01-24 13:00","2003","01","24","13:00","-6.4","","-14.0","","55","","25","","24","","24.1","","100.65","","","","-14","","Snow Showers"
"2003-01-24 14:00","2003","01","24","14:00","-5.8","","-14.3","","51","","26","","20","","24.1","","100.61","","","","-13","","Snow Showers"
"2003-01-24 15:00","2003","01","24","15:00","-5.8","","-13.2","","56","","25","","22","","16.1","","100.53","","","","-13","","Snow Showers"
"2003-01-24 16:00","2003","01","24","16:00","-5.9","","-13.5","","55","","25","","24","","16.1","","100.50","","","","-13","","Snow Showers"
"2003-01-24 17:00","2003","01","24","17:00","-6.5","","-13.9","","56","","26","","28","","19.3","","100.48","","","","-15","","Snow Showers"
"2003-01-24 18:00","2003","01","24","18:00","-6.9","","-14.5","","55","","25","","22","","24.1","","100.46","","","","-14","","Cloudy"
"2003-01-24 19:00","2003","01","24","19:00","-7.6","","-15.3","","54","","24","","22","","25.0","","100.44","","","","-15","","Cloudy"
"2003-01-24 20:00","2003","01","24","20:00","-8.3","","-16.2","","53","","25","","26","","25.0","","100.45","","","","-17","","Mostly Cloudy"
"2003-01-24 21:00","2003","01","24","21:00","-9.3","","-16.5","","56","","24","","22","","25.0","","100.41","","","","-17","","Cloudy"
"2003-01-24 22:00","2003","01","24","22:00","-9.5","","-17.4","","53","","25","","26","","25.0","","100.39","","","","-18","","Cloudy"
"2003-01-24 23:00","2003","01","24","23:00","-9.6","","-17.1","","54","","25","","26","","25.0","","100.34","","","","-18","","Cloudy"
"2003-01-25 00:00","2003","01","25","00:00","-9.6","","-17.8","","51","","26","","22","","25.0","","100.32","","","","-18","","Cloudy"
"2003-01-25 01:00","2003","01","25","01:00","-9.7","","-17.1","","55","","25","","20","","25.0","","100.27","","","","-17","","Cloudy"
"2003-01-25 02:00","2003","01","25","02:00","-9.4","","-17.4","","52","","25","","17","","25.0","","100.19","","","","-16","","Cloudy"
"2003-01-25 03:00","2003","01","25","03:00","-9.4","","-17.0","","54","","23","","20","","24.1","","100.13","","","","-17","","Snow"
"2003-01-25 04:00","2003","01","25","04:00","-9.5","","-16.6","","56","","24","","26","","24.1","","100.10","","","","-18","","Snow"
"2003-01-25 05:00","2003","01","25","05:00","-9.7","","-16.6","","57","","24","","28","","24.1","","100.09","","","","-19","","Snow"
"2003-01-25 06:00","2003","01","25","06:00","-9.7","","-15.8","","61","","25","","24","","24.1","","100.07","","","","-18","","Snow"
"2003-01-25 07:00","2003","01","25","07:00","-9.6","","-15.3","","63","","24","","26","","24.1","","100.05","","","","-18","","Snow"
"2003-01-25 08:00","2003","01","25","08:00","-9.4","","-15.4","","62","","24","","24","","8.0","","100.08","","","","-18","","Snow"
"2003-01-25 09:00","2003","01","25","09:00","-9.2","","-14.2","","67","","25","","20","","9.7","","100.05","","","","-17","","Snow"
"2003-01-25 10:00","2003","01","25","10:00","-8.9","","-13.9","","67","","23","","30","","9.7","","100.01","","","","-18","","Snow"
"2003-01-25 11:00","2003","01","25","11:00","-8.1","","-13.5","","65","","23","","32","","11.3","","100.01","","","","-17","","Snow"
"2003-01-25 12:00","2003","01","25","12:00","-7.1","","-13.6","","60","","24","","33","","24.1","","99.95","","","","-16","","Cloudy"
"2003-01-25 13:00","2003","01","25","13:00","-6.7","","-13.0","","61","","24","","33","","24.1","","99.85","","","","-16","","Mostly Cloudy"
"2003-01-25 14:00","2003","01","25","14:00","-6.1","","-12.4","","61","","24","","30","","24.1","","99.74","","","","-14","","Cloudy"
"2003-01-25 15:00","2003","01","25","15:00","-6.2","","-12.3","","62","","25","","33","","24.1","","99.68","","","","-15","","Snow Showers"
"2003-01-25 16:00","2003","01","25","16:00","-5.8","","-11.8","","63","","23","","24","","19.3","","99.62","","","","-13","","Snow Showers"
"2003-01-25 17:00","2003","01","25","17:00","-5.3","","-11.1","","64","","23","","28","","19.3","","99.57","","","","-13","","Cloudy"
"2003-01-25 18:00","2003","01","25","18:00","-5.1","","-10.9","","64","","23","","20","","24.1","","99.53","","","","-12","","Cloudy"
"2003-01-25 19:00","2003","01","25","19:00","-4.3","","-11.0","","60","","23","","22","","24.1","","99.51","","","","-11","","Cloudy"
"2003-01-25 20:00","2003","01","25","20:00","-3.7","","-10.6","","59","","23","","28","","24.1","","99.52","","","","-11","","Cloudy"
"2003-01-25 21:00","2003","01","25","21:00","-3.5","","-9.8","","62","","24","","22","","8.0","","99.50","","","","-10","","Snow Showers"
"2003-01-25 22:00","2003","01","25","22:00","-3.9","","-8.4","","71","","24","","22","","16.1","","99.46","","","","-10","","Snow Showers"
"2003-01-25 23:00","2003","01","25","23:00","-4.1","","-8.2","","73","","23","","22","","8.0","","99.42","","","","-11","","Snow Showers"
"2003-01-26 00:00","2003","01","26","00:00","-4.5","","-7.6","","79","","24","","24","","8.0","","99.38","","","","-12","","Snow Showers"
"2003-01-26 01:00","2003","01","26","01:00","-4.6","","-6.9","","84","","25","","17","","4.8","","99.34","","","","-10","","Snow"
"2003-01-26 02:00","2003","01","26","02:00","-4.4","","-6.4","","86","","26","","15","","4.0","","99.36","","","","-10","","Snow"
"2003-01-26 03:00","2003","01","26","03:00","-4.2","","-6.3","","85","","28","","9","","16.1","","99.40","","","","-8","","Snow"
"2003-01-26 04:00","2003","01","26","04:00","-6.0","","-10.9","","68","","35","","28","","6.4","","99.43","","","","-14","","Snow"
"2003-01-26 05:00","2003","01","26","05:00","-7.1","","-10.1","","79","","34","","17","","8.0","","99.50","","","","-14","","Snow"
"2003-01-26 06:00","2003","01","26","06:00","-7.0","","-11.4","","71","","34","","19","","4.8","","99.55","","","","-14","","Snow"
"2003-01-26 07:00","2003","01","26","07:00","-7.6","","-10.3","","81","","1","","20","","2.4","","99.62","","","","-15","","Snow"
"2003-01-26 08:00","2003","01","26","08:00","-9.3","","-12.2","","79","","36","","19","","2.4","","99.74","","","","-17","","Snow"
"2003-01-26 09:00","2003","01","26","09:00","-9.4","","-13.8","","70","","36","","22","","9.7","","99.82","","","","-17","","Snow"
"2003-01-26 10:00","2003","01","26","10:00","-9.5","","-13.1","","75","","33","","20","","4.0","","99.88","","","","-17","","Snow"
"2003-01-26 11:00","2003","01","26","11:00","-9.1","","-16.4","","55","","32","","26","","24.1","","99.94","","","","-18","","Mostly Cloudy"
"2003-01-26 12:00","2003","01","26","12:00","-9.2","","-16.6","","55","","34","","24","","24.1","","99.95","","","","-18","","Mostly Cloudy"
"2003-01-26 13:00","2003","01","26","13:00","-9.4","","-16.8","","55","","34","","22","","24.1","","99.96","","","","-17","","Mostly Cloudy"
"2003-01-26 14:00","2003","01","26","14:00","-9.7","","-19.2","","46","","31","","20","","25.0","","99.97","","","","-17","","Mostly Cloudy"
"2003-01-26 15:00","2003","01","26","15:00","-9.4","","-18.2","","49","","34","","26","","25.0","","100.02","","","","-18","","Mostly Cloudy"
"2003-01-26 16:00","2003","01","26","16:00","-10.3","","-18.8","","50","","32","","24","","24.1","","100.12","","","","-19","","Mostly Cloudy"
"2003-01-26 17:00","2003","01","26","17:00","-10.6","","-18.2","","54","","1","","19","","24.1","","100.20","","","","-18","","Mostly Cloudy"
"2003-01-26 18:00","2003","01","26","18:00","-11.6","","-16.2","","69","","35","","15","","24.1","","100.33","","","","-19","","Snow Showers"
"2003-01-26 19:00","2003","01","26","19:00","-11.7","","-18.4","","58","","33","","24","","24.1","","100.46","","","","-21","","Snow Showers"
"2003-01-26 20:00","2003","01","26","20:00","-12.2","","-21.2","","47","","33","","22","","24.1","","100.53","","","","-21","","Mainly Clear"
"2003-01-26 21:00","2003","01","26","21:00","-12.9","","-21.3","","49","","32","","19","","24.1","","100.59","","","","-21","","Mainly Clear"
"2003-01-26 22:00","2003","01","26","22:00","-13.3","","-22.4","","46","","33","","13","","24.1","","100.66","","","","-20","","Clear"
"2003-01-26 23:00","2003","01","26","23:00","-14.1","","-22.3","","50","","32","","15","","24.1","","100.71","","","","-22","","Clear"
"2003-01-27 00:00","2003","01","27","00:00","-14.0","","-22.6","","48","","34","","15","","25.0","","100.73","","","","-22","","Clear"
"2003-01-27 01:00","2003","01","27","01:00","-14.7","","-22.3","","52","","32","","13","","25.0","","100.74","","","","-22","","Clear"
"2003-01-27 02:00","2003","01","27","02:00","-15.9","","-22.6","","56","","32","","15","","25.0","","100.77","","","","-24","","Clear"
"2003-01-27 03:00","2003","01","27","03:00","-16.4","","-22.7","","58","","33","","13","","25.0","","100.78","","","","-24","","Clear"
"2003-01-27 04:00","2003","01","27","04:00","-16.7","","-22.7","","60","","28","","11","","25.0","","100.79","","","","-24","","Clear"
"2003-01-27 05:00","2003","01","27","05:00","-16.9","","-22.2","","63","","28","","13","","25.0","","100.88","","","","-25","","Clear"
"2003-01-27 06:00","2003","01","27","06:00","-16.8","","-22.2","","63","","27","","13","","25.0","","100.92","","","","-25","","Clear"
"2003-01-27 07:00","2003","01","27","07:00","-17.7","","-22.2","","68","","28","","13","","25.0","","100.98","","","","-26","","Clear"
"2003-01-27 08:00","2003","01","27","08:00","-17.5","","-21.9","","68","","26","","9","","24.1","","101.02","","","","-24","","Clear"
"2003-01-27 09:00","2003","01","27","09:00","-15.9","","-20.8","","66","","26","","9","","24.1","","101.03","","","","-22","","Clear"
"2003-01-27 10:00","2003","01","27","10:00","-14.5","","-20.3","","61","","26","","7","","24.1","","101.07","","","","-19","","Clear"
"2003-01-27 11:00","2003","01","27","11:00","-12.6","","-19.7","","55","","19","","13","","24.1","","101.00","","","","-19","","Clear"
"2003-01-27 12:00","2003","01","27","12:00","-11.9","","-19.4","","54","","23","","19","","25.0","","101.00","","","","-20","","Clear"
"2003-01-27 13:00","2003","01","27","13:00","-11.2","","-21.8","","41","","22","","20","","25.0","","100.86","","","","-19","","Mainly Clear"
"2003-01-27 14:00","2003","01","27","14:00","-10.8","","-20.1","","46","","20","","22","","25.0","","100.76","","","","-19","","Mainly Clear"
"2003-01-27 15:00","2003","01","27","15:00","-11.3","","-19.6","","50","","20","","22","","25.0","","100.72","","","","-20","","Mostly Cloudy"
"2003-01-27 16:00","2003","01","27","16:00","-11.7","","-19.5","","52","","20","","22","","24.1","","100.68","","","","-20","","Mostly Cloudy"
"2003-01-27 17:00","2003","01","27","17:00","-11.8","","-19.5","","53","","20","","22","","24.1","","100.63","","","","-21","","Cloudy"
"2003-01-27 18:00","2003","01","27","18:00","-11.9","","-19.5","","53","","20","","22","","24.1","","100.57","","","","-21","","Cloudy"
"2003-01-27 19:00","2003","01","27","19:00","-11.8","","-19.3","","54","","20","","22","","24.1","","100.51","","","","-21","","Cloudy"
"2003-01-27 20:00","2003","01","27","20:00","-11.8","","-19.5","","53","","20","","24","","24.1","","100.40","","","","-21","","Cloudy"
"2003-01-27 21:00","2003","01","27","21:00","-11.8","","-19.2","","54","","19","","19","","24.1","","100.34","","","","-20","","Snow Showers"
"2003-01-27 22:00","2003","01","27","22:00","-11.8","","-18.8","","56","","19","","26","","3.2","","100.19","","","","-21","","Snow"
"2003-01-27 23:00","2003","01","27","23:00","-11.6","","-15.7","","72","","20","","17","","24.1","","100.14","","","","-19","","Snow"
"2003-01-28 00:00","2003","01","28","00:00","-10.9","","-15.7","","68","","19","","20","","24.1","","100.00","","","","-19","","Cloudy"
"2003-01-28 01:00","2003","01","28","01:00","-10.4","","-15.7","","65","","20","","15","","24.1","","99.94","","","","-17","","Cloudy"
"2003-01-28 02:00","2003","01","28","02:00","-9.7","","-14.9","","66","","20","","15","","24.1","","99.88","","","","-16","","Snow Showers"
"2003-01-28 03:00","2003","01","28","03:00","-9.2","","-14.8","","64","","20","","17","","24.1","","99.85","","","","-16","","Snow Showers"
"2003-01-28 04:00","2003","01","28","04:00","-8.8","","-14.3","","64","","21","","11","","24.1","","99.80","","","","-14","","Snow Showers"
"2003-01-28 05:00","2003","01","28","05:00","-8.4","","-13.5","","67","","21","","15","","24.1","","99.79","","","","-15","","Cloudy"
"2003-01-28 06:00","2003","01","28","06:00","-8.0","","-13.1","","67","","20","","15","","24.1","","99.73","","","","-14","","Cloudy"
"2003-01-28 07:00","2003","01","28","07:00","-7.5","","-12.5","","67","","22","","13","","24.1","","99.78","","","","-13","","Cloudy"
"2003-01-28 08:00","2003","01","28","08:00","-7.0","","-11.6","","70","","21","","13","","24.1","","99.73","","","","-13","","Cloudy"
"2003-01-28 09:00","2003","01","28","09:00","-6.2","","-11.7","","65","","23","","15","","24.1","","99.68","","","","-12","","Cloudy"
"2003-01-28 10:00","2003","01","28","10:00","-5.5","","-12.3","","59","","22","","15","","24.1","","99.66","","","","-11","","Cloudy"
"2003-01-28 11:00","2003","01","28","11:00","-4.5","","-11.9","","56","","20","","17","","24.1","","99.67","","","","-10","","Cloudy"
"2003-01-28 12:00","2003","01","28","12:00","-3.9","","-10.9","","58","","19","","17","","24.1","","99.61","","","","-10","","Cloudy"
"2003-01-28 13:00","2003","01","28","13:00","-3.2","","-10.6","","57","","22","","15","","19.3","","99.50","","","","-8","","Cloudy"
"2003-01-28 14:00","2003","01","28","14:00","-2.9","","-10.0","","58","","22","","20","","24.1","","99.46","","","","-9","","Cloudy"
"2003-01-28 15:00","2003","01","28","15:00","-2.4","","-11.7","","49","","22","","22","","24.1","","99.46","","","","-9","","Cloudy"
"2003-01-28 16:00","2003","01","28","16:00","-2.2","","-8.8","","61","","21","","19","","24.1","","99.41","","","","-8","","Cloudy"
"2003-01-28 17:00","2003","01","28","17:00","-2.7","","-7.9","","67","","22","","19","","2.4","","99.44","","","","-8","","Snow"
"2003-01-28 18:00","2003","01","28","18:00","-3.6","","-6.7","","79","","22","","9","","1.6","","99.45","","","","-7","","Snow"
"2003-01-28 19:00","2003","01","28","19:00","-3.6","","-6.3","","82","","21","","11","","1.6","","99.46","","","","-8","","Snow"
"2003-01-28 20:00","2003","01","28","20:00","-3.4","","-6.1","","82","","22","","9","","1.6","","99.43","","","","-7","","Snow"
"2003-01-28 21:00","2003","01","28","21:00","-3.5","","-6.1","","82","","24","","11","","1.2","","99.45","","","","-8","","Snow"
"2003-01-28 22:00","2003","01","28","22:00","-3.3","","-5.9","","82","","25","","6","","1.6","","99.43","","","","-6","","Snow"
"2003-01-28 23:00","2003","01","28","23:00","-3.3","","-5.9","","82","","26","","7","","4.0","","99.42","","","","-6","","Snow"
"2003-01-29 00:00","2003","01","29","00:00","-3.0","","-5.8","","81","","30","","9","","4.0","","99.43","","","","-7","","Snow"
"2003-01-29 01:00","2003","01","29","01:00","-2.9","","-5.9","","80","","31","","9","","4.0","","99.44","","","","-6","","Snow"
"2003-01-29 02:00","2003","01","29","02:00","-2.7","","-6.0","","78","","34","","9","","8.0","","99.45","","","","-6","","Snow"
"2003-01-29 03:00","2003","01","29","03:00","-2.6","","-6.2","","76","","35","","9","","8.0","","99.45","","","","-6","","Snow"
"2003-01-29 04:00","2003","01","29","04:00","-2.5","","-6.6","","73","","36","","17","","9.7","","99.49","","","","-8","","Snow"
"2003-01-29 05:00","2003","01","29","05:00","-2.8","","-7.2","","72","","1","","17","","11.3","","99.57","","","","-8","","Cloudy"
"2003-01-29 06:00","2003","01","29","06:00","-3.1","","-7.3","","73","","2","","20","","9.7","","99.65","","","","-9","","Haze"
"2003-01-29 07:00","2003","01","29","07:00","-3.6","","-8.2","","70","","36","","17","","16.1","","99.71","","","","-9","","Cloudy"
"2003-01-29 08:00","2003","01","29","08:00","-4.2","","-9.6","","66","","36","","24","","19.3","","99.82","","","","-11","","Cloudy"
"2003-01-29 09:00","2003","01","29","09:00","-5.5","","-11.0","","65","","34","","28","","24.1","","99.98","","","","-13","","Snow Showers"
"2003-01-29 10:00","2003","01","29","10:00","-5.8","","-11.8","","63","","34","","19","","24.1","","100.11","","","","-12","","Snow Showers"
"2003-01-29 11:00","2003","01","29","11:00","-5.9","","-12.5","","60","","36","","15","","25.0","","100.19","","","","-12","","Mainly Clear"
"2003-01-29 12:00","2003","01","29","12:00","-5.1","","-12.4","","57","","36","","17","","25.0","","100.23","","","","-11","","Mainly Clear"
"2003-01-29 13:00","2003","01","29","13:00","-5.0","","-12.8","","54","","1","","22","","25.0","","100.22","","","","-12","","Mainly Clear"
"2003-01-29 14:00","2003","01","29","14:00","-4.3","","-12.1","","54","","36","","20","","25.0","","100.22","","","","-11","","Clear"
"2003-01-29 15:00","2003","01","29","15:00","-4.4","","-13.2","","50","","35","","20","","25.0","","100.27","","","","-11","","Clear"
"2003-01-29 16:00","2003","01","29","16:00","-4.0","","-12.4","","52","","3","","15","","24.1","","100.32","","","","-9","","Mainly Clear"
"2003-01-29 17:00","2003","01","29","17:00","-5.6","","-11.7","","62","","5","","13","","24.1","","100.39","","","","-11","","Mainly Clear"
"2003-01-29 18:00","2003","01","29","18:00","-8.4","","-13.4","","67","","6","","13","","24.1","","100.47","","","","-14","","Mainly Clear"
"2003-01-29 19:00","2003","01","29","19:00","-9.0","","-14.7","","63","","5","","9","","24.1","","100.53","","","","-14","","Clear"
"2003-01-29 20:00","2003","01","29","20:00","-9.9","","-14.2","","71","","4","","11","","24.1","","100.55","","","","-15","","Clear"
"2003-01-29 21:00","2003","01","29","21:00","-9.5","","-14.7","","66","","5","","9","","24.1","","100.57","","","","-14","","Clear"
"2003-01-29 22:00","2003","01","29","22:00","-10.1","","-14.8","","68","","9","","6","","24.1","","100.60","","","","-14","","Mainly Clear"
"2003-01-29 23:00","2003","01","29","23:00","-10.4","","-14.4","","72","","9","","6","","24.1","","100.58","","","","-14","","Mainly Clear"
"2003-01-30 00:00","2003","01","30","00:00","-11.6","","-14.6","","78","","6","","4","","24.1","","100.60","","","","-14","","Clear"
"2003-01-30 01:00","2003","01","30","01:00","-13.3","","-15.8","","81","","","","0","","24.1","","100.55","","","","","","Clear"
"2003-01-30 02:00","2003","01","30","02:00","-12.8","","-15.1","","83","","16","","6","","24.1","","100.57","","","","-17","","Mainly Clear"
"2003-01-30 03:00","2003","01","30","03:00","-12.2","","-14.5","","83","","17","","9","","24.1","","100.58","","","","-17","","Snow Showers"
"2003-01-30 04:00","2003","01","30","04:00","-10.0","","-12.7","","81","","16","","15","","24.1","","100.53","","","","-17","","Snow Showers"
"2003-01-30 05:00","2003","01","30","05:00","-11.3","","-14.0","","80","","18","","9","","24.1","","100.53","","","","-16","","Mostly Cloudy"
"2003-01-30 06:00","2003","01","30","06:00","-10.8","","-13.5","","80","","17","","6","","24.1","","100.52","","","","-14","","Mostly Cloudy"
"2003-01-30 07:00","2003","01","30","07:00","-10.1","","-12.9","","80","","20","","6","","24.1","","100.50","","","","-14","","Snow Showers"
"2003-01-30 08:00","2003","01","30","08:00","-10.1","","-12.6","","82","","20","","7","","19.3","","100.53","","","","-14","","Mostly Cloudy"
"2003-01-30 09:00","2003","01","30","09:00","-9.5","","-11.8","","83","","22","","11","","19.3","","100.53","","","","-15","","Mainly Clear"
"2003-01-30 10:00","2003","01","30","10:00","-8.3","","-11.6","","77","","21","","15","","24.1","","100.51","","","","-15","","Mainly Clear"
"2003-01-30 11:00","2003","01","30","11:00","-6.5","","-10.9","","71","","22","","20","","24.1","","100.53","","","","-13","","Mainly Clear"
"2003-01-30 12:00","2003","01","30","12:00","-6.0","","-11.3","","66","","22","","20","","24.1","","100.51","","","","-13","","Mainly Clear"
"2003-01-30 13:00","2003","01","30","13:00","-5.4","","-10.6","","67","","21","","19","","24.1","","100.41","","","","-12","","Mainly Clear"
"2003-01-30 14:00","2003","01","30","14:00","-4.4","","-10.4","","63","","19","","11","","24.1","","100.29","","","","-9","","Mainly Clear"
"2003-01-30 15:00","2003","01","30","15:00","-5.0","","-10.3","","66","","18","","20","","24.1","","100.27","","","","-12","","Mainly Clear"
"2003-01-30 16:00","2003","01","30","16:00","-5.6","","-10.8","","67","","19","","15","","19.3","","100.23","","","","-11","","Mainly Clear"
"2003-01-30 17:00","2003","01","30","17:00","-6.5","","-11.3","","69","","18","","15","","19.3","","100.21","","","","-12","","Mostly Cloudy"
"2003-01-30 18:00","2003","01","30","18:00","-7.7","","-11.6","","74","","19","","13","","19.3","","100.21","","","","-13","","Mostly Cloudy"
"2003-01-30 19:00","2003","01","30","19:00","-8.3","","-11.8","","76","","19","","9","","16.1","","100.22","","","","-13","","Mostly Cloudy"
"2003-01-30 20:00","2003","01","30","20:00","-9.8","","-12.7","","79","","19","","9","","16.1","","100.18","","","","-15","","Mostly Cloudy"
"2003-01-30 21:00","2003","01","30","21:00","-10.4","","-14.7","","71","","18","","7","","19.3","","100.13","","","","-14","","Mainly Clear"
"2003-01-30 22:00","2003","01","30","22:00","-10.5","","-14.3","","74","","18","","7","","16.1","","100.11","","","","-15","","Mainly Clear"
"2003-01-30 23:00","2003","01","30","23:00","-10.6","","-13.6","","79","","","","0","","16.1","","100.10","","","","","","Mainly Clear"
"2003-01-31 00:00","2003","01","31","00:00","-10.8","","-13.9","","78","","18","","7","","16.1","","100.07","","","","-15","","Mainly Clear"
"2003-01-31 01:00","2003","01","31","01:00","-9.1","","-12.4","","77","","18","","7","","16.1","","99.98","","","","-13","","Mainly Clear"
"2003-01-31 02:00","2003","01","31","02:00","-9.6","","-11.8","","84","","18","","6","","16.1","","99.96","","","","-13","","Mainly Clear"
"2003-01-31 03:00","2003","01","31","03:00","-9.9","","-11.9","","85","","18","","7","","16.1","","99.93","","","","-14","","Mainly Clear"
"2003-01-31 04:00","2003","01","31","04:00","-9.0","","-10.9","","86","","20","","9","","11.3","","99.91","","","","-14","","Mostly Cloudy"
"2003-01-31 05:00","2003","01","31","05:00","-8.3","","-10.3","","85","","18","","9","","9.7","","99.86","","","","-13","","Snow Showers"
"2003-01-31 06:00","2003","01","31","06:00","-7.6","","-9.4","","87","","22","","13","","6.4","","99.90","","","","-13","","Snow Showers"
"2003-01-31 07:00","2003","01","31","07:00","-6.8","","-8.6","","87","","19","","13","","4.0","","99.84","","","","-12","","Snow Showers,Fog"
"2003-01-31 08:00","2003","01","31","08:00","-5.5","","-7.2","","88","","18","","17","","2.4","","99.71","","","","-12","","Fog"
"2003-01-31 09:00","2003","01","31","09:00","-4.2","","-6.0","","87","","18","","15","","4.0","","99.66","","","","-10","","Fog"
"2003-01-31 10:00","2003","01","31","10:00","-3.1","","-5.9","","81","","19","","15","","4.8","","99.74","","","","-8","","Fog"
"2003-01-31 11:00","2003","01","31","11:00","-2.3","","-4.6","","84","","19","","19","","4.8","","99.67","","","","-8","","Haze"
"2003-01-31 12:00","2003","01","31","12:00","-1.1","","-4.2","","79","","18","","19","","8.0","","99.57","","","","-6","","Haze"
"2003-01-31 13:00","2003","01","31","13:00","-0.5","","-4.7","","73","","18","","11","","8.0","","99.46","","","","-4","","Haze"
"2003-01-31 14:00","2003","01","31","14:00","-0.3","","-5.6","","67","","17","","15","","11.3","","99.37","","","","-5","","Cloudy"
"2003-01-31 15:00","2003","01","31","15:00","0.6","","-4.0","","71","","18","","13","","11.3","","99.32","","","","","","Cloudy"
"2003-01-31 16:00","2003","01","31","16:00","1.1","","-3.8","","70","","17","","9","","11.3","","99.29","","","","","","Cloudy"
"2003-01-31 17:00","2003","01","31","17:00","0.6","","-3.7","","73","","13","","11","","9.7","","99.22","","","","","","Haze"
"2003-01-31 18:00","2003","01","31","18:00","0.3","","-4.0","","73","","19","","6","","8.0","","99.23","","","","","","Haze"
"2003-01-31 19:00","2003","01","31","19:00","0.1","","-3.9","","74","","14","","7","","16.1","","99.22","","","","","","Cloudy"
"2003-01-31 20:00","2003","01","31","20:00","-0.1","","-3.9","","76","","14","","11","","19.3","","99.16","","","","-4","","Cloudy"
"2003-01-31 21:00","2003","01","31","21:00","-0.4","","-4.1","","76","","11","","7","","9.7","","99.10","","","","-3","","Haze"
"2003-01-31 22:00","2003","01","31","22:00","-0.5","","-4.0","","77","","13","","4","","8.0","","99.08","","","","-2","","Haze"
"2003-01-31 23:00","2003","01","31","23:00","-0.4","","-3.8","","78","","12","","7","","6.4","","99.03","","","","-3","","Snow Showers,Haze"
