"Station Name","WINDSOR A"
"Province","ONTARIO"
"Latitude","42.28"
"Longitude","-82.96"
"Elevation","189.60"
"Climate Identifier","6139527"
"WMO Identifier",""
"TC Identifier","YQG"
"All times are specified in Local Standard Time (LST). Add 1 hour to adjust for Daylight Saving Time where and when it is observed."

"Legend"
"E","Estimated"
"M","Missing"
"NA","Not Available"

"Date/Time","Year","Month","Day","Time","Temp (°C)","Temp Flag","Dew Point Temp (°C)","Dew Point Temp Flag","Rel Hum (%)","Rel Hum Flag","Wind Dir (10s deg)","Wind Dir Flag","Wind Spd (km/h)","Wind Spd Flag","Visibility (km)","Visibility Flag","Stn Press (kPa)","Stn Press Flag","Hmdx","Hmdx Flag","Wind Chill","Wind Chill Flag","Weather"
"2016-02-01 00:00","2016","02","01","00:00","8.0","","4.8","","80","","28","","32","","24.1","","98.09","","","","","","NA"
"2016-02-01 01:00","2016","02","01","01:00","6.7","","3.7","","81","","29","","35","","24.1","","98.25","","","","","","Cloudy"
"2016-02-01 02:00","2016","02","01","02:00","5.3","","3.2","","86","","28","","30","","24.1","","98.39","","","","","","NA"
"2016-02-01 03:00","2016","02","01","03:00","4.8","","2.2","","83","","30","","28","","24.1","","98.58","","","","","","NA"
"2016-02-01 04:00","2016","02","01","04:00","4.0","","1.2","","82","","31","","23","","24.1","","98.70","","","","","","Cloudy"
"2016-02-01 05:00","2016","02","01","05:00","3.3","","0.4","","81","","31","","12","","24.1","","98.83","","","","","","NA"
"2016-02-01 06:00","2016","02","01","06:00","2.6","","-0.7","","79","","32","","20","","24.1","","98.94","","","","","","NA"
"2016-02-01 07:00","2016","02","01","07:00","1.1","","-1.0","","86","","33","","9","","24.1","","99.03","","","","","","Mainly Clear"
"2016-02-01 08:00","2016","02","01","08:00","0.5","","-1.4","","87","","29","","7","","24.1","","99.12","","","","","","NA"
"2016-02-01 09:00","2016","02","01","09:00","1.3","","-0.2","","90","","24","","9","","24.1","","99.21","","","","","","NA"
"2016-02-01 10:00","2016","02","01","10:00","3.4","","0.5","","81","","24","","9","","24.1","","99.27","","","","","","Mostly Cloudy"
"2016-02-01 11:00","2016","02","01","11:00","4.3","","0.8","","78","","24","","14","","24.1","","99.32","","","","","","NA"
"2016-02-01 12:00","2016","02","01","12:00","5.3","","0.7","","72","","23","","14","","24.1","","99.35","","","","","","NA"
"2016-02-01 13:00","2016","02","01","13:00","5.4","","0.4","","70","","22","","17","","24.1","","99.33","","","","","","Mostly Cloudy"
"2016-02-01 14:00","2016","02","01","14:00","5.7","","0.3","","68","","22","","15","","24.1","","99.33","","","","","","NA"
"2016-02-01 15:00","2016","02","01","15:00","6.6","","-1.1","","58","","24","","14","","24.1","","99.35","","","","","","NA"
"2016-02-01 16:00","2016","02","01","16:00","7.2","","-1.7","","53","","26","","16","","24.1","","99.40","","","","","","Mainly Clear"
"2016-02-01 17:00","2016","02","01","17:00","6.4","","-1.5","","57","","27","","14","","24.1","","99.43","","","","","","NA"
"2016-02-01 18:00","2016","02","01","18:00","3.8","","-2.2","","65","","24","","9","","24.1","","99.49","","","","","","NA"
"2016-02-01 19:00","2016","02","01","19:00","2.8","","-1.8","","72","","20","","7","","24.1","","99.55","","","","","","Clear"
"2016-02-01 20:00","2016","02","01","20:00","0.9","","-1.5","","84","","21","","4","","24.1","","99.60","","","","","","NA"
"2016-02-01 21:00","2016","02","01","21:00","1.3","","-1.3","","83","","23","","5","","24.1","","99.68","","","","","","NA"
"2016-02-01 22:00","2016","02","01","22:00","-0.8","","-1.8","","93","","19","","3","","24.1","","99.73","","","","-2","","Clear"
"2016-02-01 23:00","2016","02","01","23:00","-1.1","","-2.1","","93","","6","","4","","24.1","","99.80","","","","-2","","NA"
"2016-02-02 00:00","2016","02","02","00:00","-1.3","","-1.6","","98","","36","","3","","24.1","","99.83","","","","-2","","NA"
"2016-02-02 01:00","2016","02","02","01:00","-2.2","","-2.5","","98","","5","","3","","24.1","","99.84","","","","-3","","Clear"
"2016-02-02 02:00","2016","02","02","02:00","-2.2","","-2.5","","98","","5","","6","","19.3","","99.80","","","","-5","","NA"
"2016-02-02 03:00","2016","02","02","03:00","-1.8","","-2.2","","97","","1","","3","","16.1","","99.88","","","","-3","","NA"
"2016-02-02 04:00","2016","02","02","04:00","-2.3","","-2.7","","97","","1","","3","","16.1","","99.94","","","","-3","","Clear"
"2016-02-02 05:00","2016","02","02","05:00","-2.6","","-2.7","","99","","3","","6","","16.1","","100.03","","","","-5","","NA"
"2016-02-02 06:00","2016","02","02","06:00","-2.0","","-2.1","","99","","4","","11","","16.1","","100.03","","","","-6","","NA"
"2016-02-02 07:00","2016","02","02","07:00","-2.2","","-2.5","","98","","5","","13","","16.1","","100.09","","","","-7","","Mainly Clear"
"2016-02-02 08:00","2016","02","02","08:00","-2.1","","-2.4","","98","","5","","13","","11.3","","100.12","","","","-7","","NA"
"2016-02-02 09:00","2016","02","02","09:00","0.0","","-0.6","","96","","6","","15","","16.1","","100.11","","","","-4","","NA"
"2016-02-02 10:00","2016","02","02","10:00","0.6","","-0.7","","91","","8","","14","","16.1","","100.11","","","","","","Mostly Cloudy"
"2016-02-02 11:00","2016","02","02","11:00","2.1","","0.2","","87","","9","","21","","19.3","","100.01","","","","","","NA"
"2016-02-02 12:00","2016","02","02","12:00","2.8","","-0.3","","80","","10","","22","","24.1","","99.95","","","","","","NA"
"2016-02-02 13:00","2016","02","02","13:00","3.2","","-0.8","","75","","11","","21","","24.1","","99.77","","","","","","Cloudy"
"2016-02-02 14:00","2016","02","02","14:00","3.5","","-1.1","","72","","9","","22","","24.1","","99.59","","","","","","NA"
"2016-02-02 15:00","2016","02","02","15:00","3.2","","-0.3","","78","","7","","22","","24.1","","99.28","","","","","","NA"
"2016-02-02 16:00","2016","02","02","16:00","3.2","","-1.2","","73","","9","","36","","24.1","","99.16","","","","","","Cloudy"
"2016-02-02 17:00","2016","02","02","17:00","3.0","","-0.6","","77","","8","","30","","24.1","","98.96","","","","","","NA"
"2016-02-02 18:00","2016","02","02","18:00","2.6","","-0.3","","81","","9","","27","","8.1","","98.98","","","","","","Moderate Rain,Fog"
"2016-02-02 19:00","2016","02","02","19:00","1.9","","0.6","","91","","10","","35","","11.3","","98.84","","","","","","Rain Showers"
"2016-02-02 20:00","2016","02","02","20:00","2.5","","1.0","","90","","10","","34","","12.9","","98.57","","","","","","Rain Showers"
"2016-02-02 21:00","2016","02","02","21:00","2.8","","0.9","","87","","10","","23","","24.1","","98.44","","","","","","Rain Showers"
"2016-02-02 22:00","2016","02","02","22:00","3.2","","0.8","","84","","10","","21","","24.1","","98.28","","","","","","Mostly Cloudy"
"2016-02-02 23:00","2016","02","02","23:00","3.9","","1.3","","83","","11","","26","","24.1","","98.15","","","","","","Rain Showers"
"2016-02-03 00:00","2016","02","03","00:00","5.3","","3.8","","90","","13","","24","","24.1","","97.93","","","","","","NA"
"2016-02-03 01:00","2016","02","03","01:00","9.9","","9.0","","94","","18","","34","","24.1","","97.87","","","","","","Cloudy"
"2016-02-03 02:00","2016","02","03","02:00","10.8","","9.2","","90","","17","","34","","24.1","","97.73","","","","","","Rain Showers"
"2016-02-03 03:00","2016","02","03","03:00","10.7","","9.3","","91","","18","","32","","24.1","","97.72","","","","","","NA"
"2016-02-03 04:00","2016","02","03","04:00","10.0","","8.8","","92","","18","","23","","24.1","","97.61","","","","","","Mainly Clear"
"2016-02-03 05:00","2016","02","03","05:00","10.8","","8.7","","87","","19","","26","","24.1","","97.55","","","","","","NA"
"2016-02-03 06:00","2016","02","03","06:00","10.8","","8.9","","88","","19","","27","","24.1","","97.52","","","","","","NA"
"2016-02-03 07:00","2016","02","03","07:00","10.6","","9.2","","91","","21","","27","","24.1","","97.60","","","","","","Mostly Cloudy"
"2016-02-03 08:00","2016","02","03","08:00","10.0","","8.9","","93","","20","","23","","24.1","","97.67","","","","","","NA"
"2016-02-03 09:00","2016","02","03","09:00","10.1","","9.3","","95","","21","","24","","24.1","","97.73","","","","","","NA"
"2016-02-03 10:00","2016","02","03","10:00","12.0","","10.4","","90","","21","","25","","24.1","","97.75","","","","","","Mainly Clear"
"2016-02-03 11:00","2016","02","03","11:00","13.0","","6.6","","65","","23","","43","","24.1","","97.78","","","","","","NA"
"2016-02-03 12:00","2016","02","03","12:00","12.5","","7.2","","70","","23","","39","","24.1","","97.84","","","","","","NA"
"2016-02-03 13:00","2016","02","03","13:00","11.5","","3.8","","59","","23","","52","","24.1","","97.88","","","","","","Mainly Clear"
"2016-02-03 14:00","2016","02","03","14:00","9.5","","1.9","","59","","24","","49","","24.1","","97.98","","","","","","NA"
"2016-02-03 15:00","2016","02","03","15:00","8.0","","0.7","","60","","25","","41","","24.1","","98.10","","","","","","NA"
"2016-02-03 16:00","2016","02","03","16:00","6.1","","-0.6","","62","","24","","46","","24.1","","98.24","","","","","","Mostly Cloudy"
"2016-02-03 17:00","2016","02","03","17:00","5.4","","0.0","","68","","24","","32","","24.1","","98.39","","","","","","NA"
"2016-02-03 18:00","2016","02","03","18:00","4.2","","-0.4","","72","","24","","38","","24.1","","98.52","","","","","","NA"
"2016-02-03 19:00","2016","02","03","19:00","4.1","","-0.1","","74","","23","","31","","24.1","","98.60","","","","","","Cloudy"
"2016-02-03 20:00","2016","02","03","20:00","3.7","","0.8","","81","","23","","34","","19.3","","98.67","","","","","","Rain Showers"
"2016-02-03 21:00","2016","02","03","21:00","3.3","","0.9","","84","","24","","36","","24.1","","98.72","","","","","","NA"
"2016-02-03 22:00","2016","02","03","22:00","2.8","","0.5","","85","","25","","32","","16.1","","98.80","","","","","","Snow Showers"
"2016-02-03 23:00","2016","02","03","23:00","2.5","","-0.4","","81","","25","","30","","24.1","","98.92","","","","","","NA"
"2016-02-04 00:00","2016","02","04","00:00","2.2","","-1.2","","78","","27","","26","","24.1","","99.02","","","","","","Snow Showers"
"2016-02-04 01:00","2016","02","04","01:00","2.1","","-1.3","","78","","26","","25","","24.1","","99.07","","","","","","Cloudy"
"2016-02-04 02:00","2016","02","04","02:00","1.9","","-1.4","","79","","27","","22","","24.1","","99.14","","","","","","Snow Showers"
"2016-02-04 03:00","2016","02","04","03:00","1.6","","-1.0","","83","","24","","23","","24.1","","99.27","","","","","","NA"
"2016-02-04 04:00","2016","02","04","04:00","1.2","","-0.9","","86","","26","","18","","24.1","","99.35","","","","","","Mostly Cloudy"
"2016-02-04 05:00","2016","02","04","05:00","1.0","","-1.1","","86","","25","","15","","24.1","","99.44","","","","","","Snow Showers"
"2016-02-04 06:00","2016","02","04","06:00","0.6","","-2.1","","82","","26","","14","","24.1","","99.50","","","","","","NA"
"2016-02-04 07:00","2016","02","04","07:00","0.3","","-2.3","","83","","32","","21","","24.1","","99.59","","","","","","Snow Showers"
"2016-02-04 08:00","2016","02","04","08:00","0.1","","-2.9","","80","","34","","6","","24.1","","99.66","","","","","","NA"
"2016-02-04 09:00","2016","02","04","09:00","0.4","","-3.2","","77","","28","","11","","24.1","","99.76","","","","","","Snow Showers"
"2016-02-04 10:00","2016","02","04","10:00","0.7","","-3.6","","73","","27","","9","","24.1","","99.81","","","","","","Snow Showers"
"2016-02-04 11:00","2016","02","04","11:00","1.3","","-2.8","","74","","26","","12","","24.1","","99.83","","","","","","Snow Showers"
"2016-02-04 12:00","2016","02","04","12:00","1.1","","-1.8","","81","","25","","14","","19.3","","99.82","","","","","","Snow Showers"
"2016-02-04 13:00","2016","02","04","13:00","1.0","","-2.6","","77","","25","","17","","24.1","","99.78","","","","","","Snow Showers"
"2016-02-04 14:00","2016","02","04","14:00","-0.6","","-1.7","","92","","25","","14","","9.7","","99.78","","","","-5","","Snow"
"2016-02-04 15:00","2016","02","04","15:00","-0.3","","-2.2","","87","","24","","22","","8.1","","99.79","","","","-6","","Snow"
"2016-02-04 16:00","2016","02","04","16:00","-0.2","","-2.9","","82","","26","","20","","8.1","","99.81","","","","-5","","Snow"
"2016-02-04 17:00","2016","02","04","17:00","-0.2","","-3.2","","80","","25","","20","","11.3","","99.87","","","","-5","","Snow Showers"
"2016-02-04 18:00","2016","02","04","18:00","-0.6","","-3.3","","82","","25","","18","","12.9","","99.94","","","","-6","","NA"
"2016-02-04 19:00","2016","02","04","19:00","-1.0","","-3.4","","84","","28","","21","","6.4","","100.01","","","","-7","","Snow Showers"
"2016-02-04 20:00","2016","02","04","20:00","-1.2","","-3.9","","82","","29","","21","","12.9","","100.07","","","","-7","","Snow Showers"
"2016-02-04 21:00","2016","02","04","21:00","-2.0","","-5.9","","75","","29","","22","","19.3","","100.08","","","","-8","","Snow Showers"
"2016-02-04 22:00","2016","02","04","22:00","-2.5","","-7.2","","70","","29","","24","","24.1","","100.11","","","","-9","","Mainly Clear"
"2016-02-04 23:00","2016","02","04","23:00","-3.7","","-7.0","","78","","25","","9","","24.1","","100.16","","","","-7","","NA"
"2016-02-05 00:00","2016","02","05","00:00","-3.6","","-6.9","","78","","28","","13","","24.1","","100.21","","","","-8","","NA"
"2016-02-05 01:00","2016","02","05","01:00","-3.3","","-8.8","","66","","29","","25","","24.1","","100.24","","","","-10","","Mainly Clear"
"2016-02-05 02:00","2016","02","05","02:00","-4.3","","-8.8","","71","","29","","17","","24.1","","100.30","","","","-10","","NA"
"2016-02-05 03:00","2016","02","05","03:00","-4.8","","-8.8","","74","","29","","16","","24.1","","100.35","","","","-11","","NA"
"2016-02-05 04:00","2016","02","05","04:00","-5.3","","-9.1","","75","","28","","12","","24.1","","100.37","","","","-10","","Clear"
"2016-02-05 05:00","2016","02","05","05:00","-6.2","","-9.4","","78","","28","","8","","24.1","","100.37","","","","-10","","NA"
"2016-02-05 06:00","2016","02","05","06:00","-5.4","","-8.3","","80","","22","","8","","24.1","","100.42","","","","-9","","NA"
"2016-02-05 07:00","2016","02","05","07:00","-5.1","","-8.0","","80","","22","","10","","24.1","","100.46","","","","-9","","Mostly Cloudy"
"2016-02-05 08:00","2016","02","05","08:00","-4.5","","-7.3","","81","","21","","9","","24.1","","100.51","","","","-8","","NA"
"2016-02-05 09:00","2016","02","05","09:00","-3.8","","-6.8","","80","","22","","12","","24.1","","100.53","","","","-8","","NA"
"2016-02-05 10:00","2016","02","05","10:00","-2.2","","-6.8","","71","","20","","16","","24.1","","100.51","","","","-7","","Mainly Clear"
"2016-02-05 11:00","2016","02","05","11:00","-0.8","","-5.2","","72","","20","","15","","24.1","","100.54","","","","-5","","NA"
"2016-02-05 12:00","2016","02","05","12:00","0.3","","-3.3","","77","","21","","18","","24.1","","100.49","","","","","","NA"
"2016-02-05 13:00","2016","02","05","13:00","1.0","","-3.9","","70","","21","","18","","24.1","","100.42","","","","","","Mainly Clear"
"2016-02-05 14:00","2016","02","05","14:00","1.8","","-3.9","","66","","20","","24","","24.1","","100.35","","","","","","NA"
"2016-02-05 15:00","2016","02","05","15:00","2.1","","-4.2","","63","","22","","25","","24.1","","100.32","","","","","","NA"
"2016-02-05 16:00","2016","02","05","16:00","2.4","","-3.9","","63","","20","","18","","24.1","","100.30","","","","","","Mainly Clear"
"2016-02-05 17:00","2016","02","05","17:00","1.4","","-4.3","","66","","19","","17","","24.1","","100.31","","","","","","NA"
"2016-02-05 18:00","2016","02","05","18:00","0.9","","-3.6","","72","","18","","12","","19.3","","100.35","","","","","","NA"
"2016-02-05 19:00","2016","02","05","19:00","1.0","","-3.3","","73","","19","","14","","24.1","","100.35","","","","","","Cloudy"
"2016-02-05 20:00","2016","02","05","20:00","1.4","","-2.7","","74","","21","","16","","24.1","","100.30","","","","","","NA"
"2016-02-05 21:00","2016","02","05","21:00","1.4","","-3.3","","71","","23","","14","","24.1","","100.27","","","","","","NA"
"2016-02-05 22:00","2016","02","05","22:00","1.1","","-3.0","","74","","24","","13","","19.3","","100.22","","","","","","Snow Showers"
"2016-02-05 23:00","2016","02","05","23:00","0.5","","-2.6","","80","","24","","10","","24.1","","100.18","","","","","","NA"
"2016-02-06 00:00","2016","02","06","00:00","-0.1","","-3.1","","80","","26","","14","","24.1","","100.16","","","","-4","","NA"
"2016-02-06 01:00","2016","02","06","01:00","0.0","","-3.0","","80","","26","","17","","24.1","","100.16","","","","-5","","Cloudy"
"2016-02-06 02:00","2016","02","06","02:00","-0.1","","-3.3","","79","","28","","14","","24.1","","100.13","","","","-4","","NA"
"2016-02-06 03:00","2016","02","06","03:00","-1.8","","-5.8","","74","","29","","20","","24.1","","100.18","","","","-8","","NA"
"2016-02-06 04:00","2016","02","06","04:00","-2.6","","-7.3","","70","","28","","21","","24.1","","100.19","","","","-9","","Mostly Cloudy"
"2016-02-06 05:00","2016","02","06","05:00","-3.4","","-7.4","","74","","27","","15","","24.1","","100.22","","","","-9","","NA"
"2016-02-06 06:00","2016","02","06","06:00","-3.6","","-6.6","","80","","26","","15","","24.1","","100.24","","","","-9","","NA"
"2016-02-06 07:00","2016","02","06","07:00","-4.1","","-6.4","","84","","24","","10","","24.1","","100.25","","","","-8","","Mainly Clear"
"2016-02-06 08:00","2016","02","06","08:00","-3.0","","-5.7","","82","","24","","14","","24.1","","100.28","","","","-8","","NA"
"2016-02-06 09:00","2016","02","06","09:00","-2.2","","-5.0","","81","","24","","15","","19.3","","100.28","","","","-7","","NA"
"2016-02-06 10:00","2016","02","06","10:00","-0.6","","-4.7","","74","","25","","21","","24.1","","100.27","","","","-6","","Mainly Clear"
"2016-02-06 11:00","2016","02","06","11:00","0.9","","-4.4","","68","","25","","19","","24.1","","100.22","","","","","","NA"
"2016-02-06 12:00","2016","02","06","12:00","1.5","","-5.2","","61","","22","","22","","24.1","","100.15","","","","","","NA"
"2016-02-06 13:00","2016","02","06","13:00","1.9","","-3.0","","70","","20","","19","","24.1","","100.05","","","","","","Mainly Clear"
"2016-02-06 14:00","2016","02","06","14:00","2.4","","-3.7","","64","","20","","22","","24.1","","99.97","","","","","","NA"
"2016-02-06 15:00","2016","02","06","15:00","2.4","","-3.5","","65","","22","","26","","24.1","","99.91","","","","","","NA"
"2016-02-06 16:00","2016","02","06","16:00","1.8","","-2.0","","76","","20","","30","","12.9","","99.92","","","","","","Mainly Clear"
"2016-02-06 17:00","2016","02","06","17:00","1.1","","-2.8","","75","","20","","27","","12.9","","99.89","","","","","","NA"
"2016-02-06 18:00","2016","02","06","18:00","0.5","","-2.7","","79","","21","","19","","12.9","","99.91","","","","","","NA"
"2016-02-06 19:00","2016","02","06","19:00","0.3","","-2.4","","82","","21","","13","","11.3","","99.92","","","","","","Mostly Cloudy"
"2016-02-06 20:00","2016","02","06","20:00","0.8","","-3.7","","72","","23","","18","","24.1","","99.94","","","","","","NA"
"2016-02-06 21:00","2016","02","06","21:00","0.7","","-3.8","","72","","22","","15","","24.1","","99.91","","","","","","NA"
"2016-02-06 22:00","2016","02","06","22:00","0.5","","-3.8","","73","","23","","12","","24.1","","99.86","","","","","","Cloudy"
"2016-02-06 23:00","2016","02","06","23:00","0.1","","-3.5","","77","","22","","13","","24.1","","99.81","","","","","","NA"
"2016-02-07 00:00","2016","02","07","00:00","0.1","","-3.5","","77","","21","","16","","24.1","","99.75","","","","","","NA"
"2016-02-07 01:00","2016","02","07","01:00","0.2","","-3.0","","79","","21","","16","","24.1","","99.70","","","","","","Cloudy"
"2016-02-07 02:00","2016","02","07","02:00","0.1","","-2.3","","84","","20","","13","","24.1","","99.66","","","","","","NA"
"2016-02-07 03:00","2016","02","07","03:00","-0.3","","-2.1","","88","","19","","11","","24.1","","99.62","","","","-4","","NA"
"2016-02-07 04:00","2016","02","07","04:00","-0.1","","-2.0","","87","","19","","13","","24.1","","99.56","","","","-4","","Mostly Cloudy"
"2016-02-07 05:00","2016","02","07","05:00","-0.3","","-2.2","","87","","19","","15","","24.1","","99.50","","","","-5","","NA"
"2016-02-07 06:00","2016","02","07","06:00","-0.6","","-2.3","","88","","20","","11","","24.1","","99.42","","","","-4","","NA"
"2016-02-07 07:00","2016","02","07","07:00","-0.6","","-2.3","","88","","19","","10","","24.1","","99.33","","","","-4","","Mostly Cloudy"
"2016-02-07 08:00","2016","02","07","08:00","-0.2","","-2.3","","86","","19","","9","","19.3","","99.24","","","","-3","","NA"
"2016-02-07 09:00","2016","02","07","09:00","1.3","","-1.4","","82","","20","","14","","24.1","","99.18","","","","","","NA"
"2016-02-07 10:00","2016","02","07","10:00","2.0","","-1.4","","78","","21","","23","","24.1","","99.17","","","","","","Cloudy"
"2016-02-07 11:00","2016","02","07","11:00","3.2","","-1.4","","72","","22","","27","","24.1","","99.14","","","","","","NA"
"2016-02-07 12:00","2016","02","07","12:00","4.4","","-0.8","","69","","20","","32","","24.1","","99.04","","","","","","NA"
"2016-02-07 13:00","2016","02","07","13:00","5.2","","-0.4","","67","","20","","30","","24.1","","98.90","","","","","","Mostly Cloudy"
"2016-02-07 14:00","2016","02","07","14:00","6.9","","0.8","","65","","20","","33","","24.1","","98.76","","","","","","NA"
"2016-02-07 15:00","2016","02","07","15:00","7.8","","1.2","","63","","20","","26","","24.1","","98.66","","","","","","NA"
"2016-02-07 16:00","2016","02","07","16:00","8.1","","1.3","","62","","20","","27","","24.1","","98.60","","","","","","Mostly Cloudy"
"2016-02-07 17:00","2016","02","07","17:00","7.5","","0.5","","61","","20","","29","","24.1","","98.58","","","","","","NA"
"2016-02-07 18:00","2016","02","07","18:00","7.0","","0.2","","62","","20","","25","","24.1","","98.56","","","","","","NA"
"2016-02-07 19:00","2016","02","07","19:00","6.1","","0.2","","66","","20","","18","","24.1","","98.58","","","","","","Cloudy"
"2016-02-07 20:00","2016","02","07","20:00","6.3","","-0.4","","62","","21","","25","","24.1","","98.54","","","","","","NA"
"2016-02-07 21:00","2016","02","07","21:00","5.6","","-0.2","","66","","20","","17","","24.1","","98.49","","","","","","NA"
"2016-02-07 22:00","2016","02","07","22:00","4.8","","0.0","","71","","19","","17","","24.1","","98.45","","","","","","Cloudy"
"2016-02-07 23:00","2016","02","07","23:00","4.4","","0.2","","74","","20","","14","","24.1","","98.39","","","","","","NA"
"2016-02-08 00:00","2016","02","08","00:00","3.9","","0.2","","77","","19","","14","","24.1","","98.31","","","","","","NA"
"2016-02-08 01:00","2016","02","08","01:00","3.4","","0.5","","81","","19","","11","","22.5","","98.27","","","","","","Cloudy"
"2016-02-08 02:00","2016","02","08","02:00","2.9","","0.6","","85","","20","","11","","24.1","","98.21","","","","","","NA"
"2016-02-08 03:00","2016","02","08","03:00","2.1","","0.5","","89","","20","","10","","24.1","","98.18","","","","","","NA"
"2016-02-08 04:00","2016","02","08","04:00","2.4","","0.9","","90","","20","","9","","19.3","","98.11","","","","","","Cloudy"
"2016-02-08 05:00","2016","02","08","05:00","2.5","","1.3","","92","","20","","9","","16.1","","98.09","","","","","","Snow Showers"
"2016-02-08 06:00","2016","02","08","06:00","2.2","","1.3","","94","","19","","9","","16.1","","98.07","","","","","","Snow Showers"
"2016-02-08 07:00","2016","02","08","07:00","1.9","","1.3","","96","","21","","7","","19.3","","98.04","","","","","","Cloudy"
"2016-02-08 08:00","2016","02","08","08:00","1.9","","1.3","","96","","21","","8","","19.3","","98.04","","","","","","NA"
"2016-02-08 09:00","2016","02","08","09:00","2.6","","1.4","","92","","23","","8","","19.3","","98.05","","","","","","NA"
"2016-02-08 10:00","2016","02","08","10:00","3.8","","1.0","","82","","28","","12","","24.1","","98.00","","","","","","Cloudy"
"2016-02-08 11:00","2016","02","08","11:00","4.0","","0.3","","77","","30","","14","","24.1","","97.99","","","","","","NA"
"2016-02-08 12:00","2016","02","08","12:00","4.2","","-0.2","","73","","29","","5","","24.1","","97.96","","","","","","NA"
"2016-02-08 13:00","2016","02","08","13:00","4.3","","-0.5","","71","","26","","11","","24.1","","97.90","","","","","","Cloudy"
"2016-02-08 14:00","2016","02","08","14:00","4.6","","-1.2","","66","","28","","8","","24.1","","97.85","","","","","","NA"
"2016-02-08 15:00","2016","02","08","15:00","4.7","","-2.2","","61","","34","","8","","24.1","","97.84","","","","","","NA"
"2016-02-08 16:00","2016","02","08","16:00","4.8","","-2.5","","59","","29","","7","","24.1","","97.86","","","","","","Cloudy"
"2016-02-08 17:00","2016","02","08","17:00","4.3","","-2.3","","62","","28","","20","","24.1","","97.89","","","","","","NA"
"2016-02-08 18:00","2016","02","08","18:00","3.9","","-1.9","","66","","32","","9","","19.3","","97.92","","","","","","Rain"
"2016-02-08 19:00","2016","02","08","19:00","3.3","","-1.8","","69","","34","","11","","24.1","","97.95","","","","","","Cloudy"
"2016-02-08 20:00","2016","02","08","20:00","2.6","","-0.3","","81","","25","","22","","24.1","","97.95","","","","","","Rain"
"2016-02-08 21:00","2016","02","08","21:00","1.6","","-1.0","","83","","26","","11","","24.1","","97.93","","","","","","NA"
"2016-02-08 22:00","2016","02","08","22:00","1.9","","-0.9","","82","","25","","13","","24.1","","97.92","","","","","","Cloudy"
"2016-02-08 23:00","2016","02","08","23:00","1.8","","-2.0","","76","","28","","22","","24.1","","97.87","","","","","","NA"
"2016-02-09 00:00","2016","02","09","00:00","1.3","","-1.8","","80","","26","","17","","24.1","","97.83","","","","","","NA"
"2016-02-09 01:00","2016","02","09","01:00","1.1","","-1.5","","83","","26","","19","","24.1","","97.83","","","","","","Cloudy"
"2016-02-09 02:00","2016","02","09","02:00","0.3","","-1.3","","89","","24","","16","","24.1","","97.77","","","","","","NA"
"2016-02-09 03:00","2016","02","09","03:00","0.1","","-1.4","","90","","25","","18","","24.1","","97.76","","","","","","NA"
"2016-02-09 04:00","2016","02","09","04:00","0.0","","-1.3","","91","","25","","16","","24.1","","97.71","","","","-5","","Mostly Cloudy"
"2016-02-09 05:00","2016","02","09","05:00","0.1","","-1.4","","90","","25","","22","","24.1","","97.71","","","","","","NA"
"2016-02-09 06:00","2016","02","09","06:00","0.1","","-1.5","","89","","24","","20","","8.1","","97.73","","","","","","Snow Showers"
"2016-02-09 07:00","2016","02","09","07:00","-0.3","","-1.3","","93","","25","","21","","8.1","","97.77","","","","-6","","Snow Showers"
"2016-02-09 08:00","2016","02","09","08:00","-0.4","","-1.0","","96","","26","","18","","1.6","","97.81","","","","-5","","Snow"
"2016-02-09 09:00","2016","02","09","09:00","-0.8","","-2.1","","91","","30","","30","","1.6","","97.87","","","","-8","","Snow"
"2016-02-09 10:00","2016","02","09","10:00","-0.9","","-2.0","","92","","30","","16","","3.2","","97.89","","","","-6","","Snow"
"2016-02-09 11:00","2016","02","09","11:00","-0.9","","-3.1","","85","","30","","25","","4.8","","97.90","","","","-7","","Snow"
"2016-02-09 12:00","2016","02","09","12:00","-0.9","","-3.1","","85","","31","","26","","4.8","","97.93","","","","-7","","Snow"
"2016-02-09 13:00","2016","02","09","13:00","-0.9","","-2.6","","88","","28","","23","","4.8","","97.89","","","","-7","","Snow"
"2016-02-09 14:00","2016","02","09","14:00","-1.0","","-3.2","","85","","29","","29","","6.4","","97.89","","","","-8","","Snow"
"2016-02-09 15:00","2016","02","09","15:00","-1.7","","-3.1","","90","","28","","26","","1.6","","97.92","","","","-8","","Snow"
"2016-02-09 16:00","2016","02","09","16:00","-2.0","","-3.3","","91","","28","","24","","3.2","","97.99","","","","-8","","Snow"
"2016-02-09 17:00","2016","02","09","17:00","-2.2","","-3.5","","91","","28","","22","","3.2","","98.08","","","","-8","","Snow"
"2016-02-09 18:00","2016","02","09","18:00","-2.5","","-3.9","","90","","28","","25","","2.8","","98.15","","","","-9","","Snow"
"2016-02-09 19:00","2016","02","09","19:00","-2.8","","-4.2","","90","","28","","22","","3.2","","98.23","","","","-9","","Snow"
"2016-02-09 20:00","2016","02","09","20:00","-3.0","","-4.4","","90","","28","","24","","2.4","","98.27","","","","-10","","Snow"
"2016-02-09 21:00","2016","02","09","21:00","-3.4","","-4.7","","91","","28","","23","","2.4","","98.31","","","","-10","","Snow"
"2016-02-09 22:00","2016","02","09","22:00","-3.6","","-5.8","","85","","28","","26","","6.4","","98.32","","","","-11","","Snow"
"2016-02-09 23:00","2016","02","09","23:00","-3.7","","-6.7","","80","","29","","24","","12.9","","98.33","","","","-11","","Snow"
"2016-02-10 00:00","2016","02","10","00:00","-3.9","","-6.1","","85","","28","","22","","8.1","","98.34","","","","-10","","Snow"
"2016-02-10 01:00","2016","02","10","01:00","-4.1","","-6.4","","84","","28","","21","","9.7","","98.34","","","","-11","","Snow"
"2016-02-10 02:00","2016","02","10","02:00","-4.5","","-7.3","","81","","28","","26","","12.9","","98.33","","","","-12","","Snow"
"2016-02-10 03:00","2016","02","10","03:00","-4.7","","-6.7","","86","","28","","16","","8.1","","98.35","","","","-10","","Snow"
"2016-02-10 04:00","2016","02","10","04:00","-4.8","","-8.8","","74","","28","","31","","19.3","","98.36","","","","-13","","Snow"
"2016-02-10 05:00","2016","02","10","05:00","-4.9","","-9.6","","70","","30","","19","","19.3","","98.40","","","","-11","","Snow"
"2016-02-10 06:00","2016","02","10","06:00","-5.3","","-9.1","","75","","28","","25","","9.7","","98.46","","","","-13","","Snow"
"2016-02-10 07:00","2016","02","10","07:00","-5.7","","-9.3","","76","","28","","25","","9.7","","98.51","","","","-13","","Snow"
"2016-02-10 08:00","2016","02","10","08:00","-6.5","","-9.6","","79","","28","","26","","8.1","","98.57","","","","-14","","Snow"
"2016-02-10 09:00","2016","02","10","09:00","-6.7","","-9.3","","82","","28","","23","","8.1","","98.61","","","","-14","","Snow"
"2016-02-10 10:00","2016","02","10","10:00","-7.0","","-9.3","","84","","33","","16","","11.3","","98.66","","","","-13","","Snow"
"2016-02-10 11:00","2016","02","10","11:00","-6.9","","-10.5","","76","","33","","22","","16.1","","98.73","","","","-14","","Snow"
"2016-02-10 12:00","2016","02","10","12:00","-6.9","","-10.0","","79","","31","","23","","4.8","","98.76","","","","-14","","Snow"
"2016-02-10 13:00","2016","02","10","13:00","-6.4","","-13.6","","57","","31","","33","","19.3","","98.74","","","","-15","","Snow"
"2016-02-10 14:00","2016","02","10","14:00","-6.9","","-12.0","","67","","30","","27","","11.3","","98.76","","","","-15","","Snow"
"2016-02-10 15:00","2016","02","10","15:00","-6.3","","-13.9","","55","","29","","22","","24.1","","98.77","","","","-14","","Snow"
"2016-02-10 16:00","2016","02","10","16:00","-6.4","","-14.3","","54","","31","","26","","24.1","","98.81","","","","-14","","Snow"
"2016-02-10 17:00","2016","02","10","17:00","-7.2","","-11.3","","73","","31","","24","","19.3","","98.91","","","","-15","","NA"
"2016-02-10 18:00","2016","02","10","18:00","-6.9","","-15.4","","51","","29","","24","","24.1","","98.98","","","","-15","","Snow Showers"
"2016-02-10 19:00","2016","02","10","19:00","-7.4","","-15.0","","55","","31","","18","","24.1","","99.03","","","","-14","","Mostly Cloudy"
"2016-02-10 20:00","2016","02","10","20:00","-8.5","","-11.4","","80","","31","","28","","8.1","","99.13","","","","-17","","Snow Showers"
"2016-02-10 21:00","2016","02","10","21:00","-8.7","","-14.2","","65","","31","","26","","24.1","","99.20","","","","-17","","NA"
"2016-02-10 22:00","2016","02","10","22:00","-9.4","","-16.4","","57","","33","","22","","24.1","","99.28","","","","-17","","Mainly Clear"
"2016-02-10 23:00","2016","02","10","23:00","-10.0","","-16.2","","61","","31","","21","","24.1","","99.33","","","","-18","","NA"
"2016-02-11 00:00","2016","02","11","00:00","-10.5","","-15.9","","65","","31","","23","","24.1","","99.38","","","","-19","","NA"
"2016-02-11 01:00","2016","02","11","01:00","-10.3","","-17.1","","58","","30","","30","","24.1","","99.42","","","","-20","","Mainly Clear"
"2016-02-11 02:00","2016","02","11","02:00","-10.9","","-17.2","","60","","32","","25","","24.1","","99.46","","","","-20","","NA"
"2016-02-11 03:00","2016","02","11","03:00","-11.4","","-17.7","","60","","32","","14","","24.1","","99.52","","","","-18","","NA"
"2016-02-11 04:00","2016","02","11","04:00","-11.3","","-17.4","","61","","31","","17","","24.1","","99.54","","","","-19","","Mainly Clear"
"2016-02-11 05:00","2016","02","11","05:00","-11.5","","-15.3","","74","","28","","14","","24.1","","99.56","","","","-18","","NA"
"2016-02-11 06:00","2016","02","11","06:00","-11.4","","-15.0","","75","","29","","19","","24.1","","99.65","","","","-19","","NA"
"2016-02-11 07:00","2016","02","11","07:00","-11.9","","-15.2","","77","","28","","17","","24.1","","99.71","","","","-20","","Mainly Clear"
"2016-02-11 08:00","2016","02","11","08:00","-11.5","","-14.9","","76","","29","","25","","24.1","","99.80","","","","-21","","NA"
"2016-02-11 09:00","2016","02","11","09:00","-10.4","","-15.1","","69","","31","","23","","24.1","","99.86","","","","-19","","NA"
"2016-02-11 10:00","2016","02","11","10:00","-9.2","","-14.6","","65","","29","","20","","24.1","","99.90","","","","-17","","Mostly Cloudy"
"2016-02-11 11:00","2016","02","11","11:00","-9.1","","-15.1","","62","","31","","24","","24.1","","99.98","","","","-17","","Snow Showers"
"2016-02-11 12:00","2016","02","11","12:00","-8.5","","-15.8","","56","","32","","25","","24.1","","100.04","","","","-17","","NA"
"2016-02-11 13:00","2016","02","11","13:00","-8.3","","-16.5","","52","","33","","22","","24.1","","100.02","","","","-16","","Mostly Cloudy"
"2016-02-11 14:00","2016","02","11","14:00","-7.5","","-16.2","","50","","31","","22","","24.1","","100.02","","","","-15","","NA"
"2016-02-11 15:00","2016","02","11","15:00","-7.3","","-16.3","","49","","29","","20","","24.1","","100.03","","","","-14","","NA"
"2016-02-11 16:00","2016","02","11","16:00","-6.5","","-15.6","","49","","27","","18","","24.1","","100.06","","","","-13","","Mainly Clear"
"2016-02-11 17:00","2016","02","11","17:00","-7.4","","-16.4","","49","","29","","18","","24.1","","100.11","","","","-14","","NA"
"2016-02-11 18:00","2016","02","11","18:00","-7.3","","-16.8","","47","","31","","14","","24.1","","100.11","","","","-13","","NA"
"2016-02-11 19:00","2016","02","11","19:00","-9.4","","-17.1","","54","","27","","8","","24.1","","100.14","","","","-14","","Clear"
"2016-02-11 20:00","2016","02","11","20:00","-8.9","","-15.1","","61","","20","","4","","24.1","","100.15","","","","-11","","NA"
"2016-02-11 21:00","2016","02","11","21:00","-9.8","","-14.5","","69","","20","","13","","24.1","","100.14","","","","-16","","NA"
"2016-02-11 22:00","2016","02","11","22:00","-10.0","","-14.3","","71","","22","","12","","24.1","","100.11","","","","-16","","Clear"
"2016-02-11 23:00","2016","02","11","23:00","-10.0","","-13.8","","74","","23","","13","","24.1","","100.09","","","","-16","","NA"
"2016-02-12 00:00","2016","02","12","00:00","-10.0","","-14.0","","73","","25","","15","","24.1","","100.08","","","","-17","","NA"
"2016-02-12 01:00","2016","02","12","01:00","-10.0","","-13.3","","77","","25","","15","","24.1","","100.04","","","","-17","","Clear"
"2016-02-12 02:00","2016","02","12","02:00","-10.5","","-13.8","","77","","26","","14","","24.1","","99.97","","","","-17","","NA"
"2016-02-12 03:00","2016","02","12","03:00","-10.9","","-13.7","","80","","24","","12","","24.1","","99.92","","","","-17","","NA"
"2016-02-12 04:00","2016","02","12","04:00","-11.2","","-13.8","","81","","23","","10","","19.3","","99.83","","","","-17","","Mainly Clear"
"2016-02-12 05:00","2016","02","12","05:00","-10.7","","-13.8","","78","","23","","12","","24.1","","99.76","","","","-17","","NA"
"2016-02-12 06:00","2016","02","12","06:00","-9.9","","-13.7","","74","","23","","16","","24.1","","99.71","","","","-17","","NA"
"2016-02-12 07:00","2016","02","12","07:00","-8.7","","-12.9","","72","","22","","21","","24.1","","99.67","","","","-16","","Mostly Cloudy"
"2016-02-12 08:00","2016","02","12","08:00","-8.4","","-13.3","","68","","23","","28","","24.1","","99.60","","","","-17","","NA"
"2016-02-12 09:00","2016","02","12","09:00","-7.8","","-12.5","","69","","22","","24","","19.3","","99.53","","","","-16","","NA"
"2016-02-12 10:00","2016","02","12","10:00","-6.9","","-12.4","","65","","22","","28","","19.3","","99.45","","","","-15","","Cloudy"
"2016-02-12 11:00","2016","02","12","11:00","-6.0","","-11.4","","66","","23","","32","","19.3","","99.37","","","","-15","","NA"
"2016-02-12 12:00","2016","02","12","12:00","-5.8","","-10.6","","69","","23","","30","","9.7","","99.31","","","","-14","","Snow"
"2016-02-12 13:00","2016","02","12","13:00","-4.7","","-9.7","","68","","24","","30","","12.9","","99.19","","","","-13","","Snow Showers"
"2016-02-12 14:00","2016","02","12","14:00","-4.7","","-9.4","","70","","26","","28","","9.7","","99.10","","","","-12","","Snow Showers"
"2016-02-12 15:00","2016","02","12","15:00","-4.6","","-8.9","","72","","25","","25","","6.4","","99.02","","","","-12","","Snow Showers"
"2016-02-12 16:00","2016","02","12","16:00","-5.7","","-9.6","","74","","31","","31","","8.1","","99.12","","","","-14","","Snow Showers"
"2016-02-12 17:00","2016","02","12","17:00","-6.5","","-10.8","","72","","30","","27","","12.9","","99.19","","","","-15","","Snow Showers"
"2016-02-12 18:00","2016","02","12","18:00","-7.4","","-12.7","","66","","31","","22","","24.1","","99.30","","","","-15","","NA"
"2016-02-12 19:00","2016","02","12","19:00","-8.1","","-13.4","","66","","30","","26","","24.1","","99.43","","","","-16","","Snow Showers"
"2016-02-12 20:00","2016","02","12","20:00","-8.4","","-15.1","","59","","31","","35","","24.1","","99.52","","","","-18","","NA"
"2016-02-12 21:00","2016","02","12","21:00","-9.5","","-14.6","","67","","34","","34","","24.1","","99.65","","","","-19","","Snow Showers"
"2016-02-12 22:00","2016","02","12","22:00","-11.2","","-18.8","","54","","33","","34","","24.1","","99.82","","","","-22","","Mainly Clear"
"2016-02-12 23:00","2016","02","12","23:00","-12.1","","-20.1","","52","","32","","36","","24.1","","99.95","","","","-23","","NA"
"2016-02-13 00:00","2016","02","13","00:00","-12.9","","-21.8","","48","","34","","33","","24.1","","100.06","","","","-24","","NA"
"2016-02-13 01:00","2016","02","13","01:00","-13.5","","-22.6","","47","","34","","36","","24.1","","100.17","","","","-25","","Mainly Clear"
"2016-02-13 02:00","2016","02","13","02:00","-14.1","","-22.9","","48","","32","","26","","24.1","","100.25","","","","-24","","NA"
"2016-02-13 03:00","2016","02","13","03:00","-14.1","","-20.1","","61","","32","","28","","24.1","","100.33","","","","-25","","NA"
"2016-02-13 04:00","2016","02","13","04:00","-14.6","","-20.6","","61","","31","","22","","24.1","","100.40","","","","-24","","Mainly Clear"
"2016-02-13 05:00","2016","02","13","05:00","-15.0","","-21.0","","61","","31","","23","","24.1","","100.48","","","","-25","","NA"
"2016-02-13 06:00","2016","02","13","06:00","-15.4","","-21.1","","62","","29","","21","","24.1","","100.58","","","","-25","","NA"
"2016-02-13 07:00","2016","02","13","07:00","-15.7","","-20.9","","65","","29","","20","","24.1","","100.63","","","","-25","","Clear"
"2016-02-13 08:00","2016","02","13","08:00","-15.4","","-20.4","","66","","31","","16","","24.1","","100.68","","","","-24","","NA"
"2016-02-13 09:00","2016","02","13","09:00","-14.5","","-19.7","","65","","30","","20","","24.1","","100.72","","","","-24","","NA"
"2016-02-13 10:00","2016","02","13","10:00","-13.3","","-19.1","","62","","29","","18","","24.1","","100.76","","","","-22","","Mainly Clear"
"2016-02-13 11:00","2016","02","13","11:00","-12.4","","-18.7","","60","","31","","22","","24.1","","100.78","","","","-21","","NA"
"2016-02-13 12:00","2016","02","13","12:00","-11.2","","-18.1","","57","","32","","28","","24.1","","100.81","","","","-21","","NA"
"2016-02-13 13:00","2016","02","13","13:00","-11.2","","-18.8","","54","","32","","21","","24.1","","100.77","","","","-20","","Mostly Cloudy"
"2016-02-13 14:00","2016","02","13","14:00","-9.9","","-18.3","","51","","32","","24","","24.1","","100.75","","","","-18","","Snow"
"2016-02-13 15:00","2016","02","13","15:00","-9.5","","-20.5","","41","","31","","22","","24.1","","100.73","","","","-18","","NA"
"2016-02-13 16:00","2016","02","13","16:00","-10.1","","-18.7","","50","","33","","22","","24.1","","100.76","","","","-18","","Mostly Cloudy"
"2016-02-13 17:00","2016","02","13","17:00","-10.3","","-20.4","","44","","33","","20","","24.1","","100.79","","","","-18","","NA"
"2016-02-13 18:00","2016","02","13","18:00","-10.3","","-18.6","","51","","30","","16","","24.1","","100.82","","","","-17","","NA"
"2016-02-13 19:00","2016","02","13","19:00","-10.9","","-18.3","","55","","36","","13","","24.1","","100.84","","","","-17","","Snow Showers"
"2016-02-13 20:00","2016","02","13","20:00","-12.5","","-18.6","","61","","36","","8","","24.1","","100.87","","","","-17","","NA"
"2016-02-13 21:00","2016","02","13","21:00","-12.7","","-18.2","","64","","36","","5","","24.1","","100.87","","","","-16","","NA"
"2016-02-13 22:00","2016","02","13","22:00","-13.2","","-18.3","","66","","2","","5","","24.1","","100.88","","","","-17","","Mainly Clear"
"2016-02-13 23:00","2016","02","13","23:00","-13.2","","-18.1","","67","","35","","3","","24.1","","100.87","","","","-15","","NA"
"2016-02-14 00:00","2016","02","14","00:00","-14.7","","-17.1","","82","","20","","4","","24.1","","100.89","","","","-18","","NA"
"2016-02-14 01:00","2016","02","14","01:00","-14.7","","-18.2","","75","","24","","5","","24.1","","100.88","","","","-18","","Clear"
"2016-02-14 02:00","2016","02","14","02:00","-15.0","","-17.4","","82","","21","","6","","24.1","","100.89","","","","-19","","NA"
"2016-02-14 03:00","2016","02","14","03:00","-15.6","","-17.7","","84","","22","","8","","24.1","","100.91","","","","-21","","NA"
"2016-02-14 04:00","2016","02","14","04:00","-16.0","","-18.4","","82","","24","","9","","24.1","","100.92","","","","-22","","Mainly Clear"
"2016-02-14 05:00","2016","02","14","05:00","-15.8","","-17.6","","86","","24","","4","","24.1","","100.90","","","","-19","","NA"
"2016-02-14 06:00","2016","02","14","06:00","-15.3","","-17.0","","87","","23","","7","","24.1","","100.89","","","","-20","","NA"
"2016-02-14 07:00","2016","02","14","07:00","-15.7","","-17.1","","89","","23","","7","","24.1","","100.88","","","","-21","","Mainly Clear"
"2016-02-14 08:00","2016","02","14","08:00","-15.6","","-17.2","","88","","26","","4","","24.1","","100.87","","","","-19","","NA"
"2016-02-14 09:00","2016","02","14","09:00","-13.3","","-15.3","","85","","15","","4","","24.1","","100.90","","","","-16","","NA"
"2016-02-14 10:00","2016","02","14","10:00","-10.8","","-16.6","","63","","17","","11","","24.1","","100.90","","","","-17","","Mainly Clear"
"2016-02-14 11:00","2016","02","14","11:00","-9.9","","-19.5","","46","","18","","13","","24.1","","100.86","","","","-16","","NA"
"2016-02-14 12:00","2016","02","14","12:00","-9.4","","-16.7","","56","","16","","13","","24.1","","100.77","","","","-15","","NA"
"2016-02-14 13:00","2016","02","14","13:00","-8.7","","-14.3","","64","","17","","20","","24.1","","100.64","","","","-16","","Mostly Cloudy"
"2016-02-14 14:00","2016","02","14","14:00","-7.9","","-15.7","","54","","18","","23","","24.1","","100.62","","","","-16","","NA"
"2016-02-14 15:00","2016","02","14","15:00","-8.7","","-15.4","","59","","14","","23","","24.1","","100.50","","","","-17","","NA"
"2016-02-14 16:00","2016","02","14","16:00","-8.9","","-15.3","","60","","14","","22","","24.1","","100.46","","","","-17","","Cloudy"
"2016-02-14 17:00","2016","02","14","17:00","-9.1","","-15.1","","62","","15","","18","","24.1","","100.44","","","","-16","","NA"
"2016-02-14 18:00","2016","02","14","18:00","-9.4","","-14.8","","65","","12","","15","","24.1","","100.34","","","","-16","","NA"
"2016-02-14 19:00","2016","02","14","19:00","-9.2","","-14.1","","68","","11","","12","","24.1","","100.29","","","","-15","","Cloudy"
"2016-02-14 20:00","2016","02","14","20:00","-8.8","","-13.3","","70","","11","","10","","24.1","","100.18","","","","-14","","NA"
"2016-02-14 21:00","2016","02","14","21:00","-7.8","","-13.1","","66","","14","","15","","24.1","","100.11","","","","-14","","NA"
"2016-02-14 22:00","2016","02","14","22:00","-7.6","","-13.7","","62","","14","","21","","24.1","","100.02","","","","-15","","Cloudy"
"2016-02-14 23:00","2016","02","14","23:00","-7.6","","-13.9","","61","","13","","18","","24.1","","99.97","","","","-14","","NA"
"2016-02-15 00:00","2016","02","15","00:00","-7.6","","-13.1","","65","","13","","14","","24.1","","99.93","","","","-14","","NA"
"2016-02-15 01:00","2016","02","15","01:00","-7.6","","-12.5","","68","","14","","17","","16.1","","99.87","","","","-14","","Snow"
"2016-02-15 02:00","2016","02","15","02:00","-8.0","","-9.9","","86","","13","","16","","4.0","","99.79","","","","-15","","Snow"
"2016-02-15 03:00","2016","02","15","03:00","-8.1","","-9.3","","91","","13","","12","","4.0","","99.73","","","","-14","","Snow"
"2016-02-15 04:00","2016","02","15","04:00","-7.6","","-9.1","","89","","13","","13","","24.1","","99.61","","","","-13","","Snow"
"2016-02-15 05:00","2016","02","15","05:00","-7.4","","-8.9","","89","","12","","16","","24.1","","99.50","","","","-14","","Snow"
"2016-02-15 06:00","2016","02","15","06:00","-7.0","","-8.7","","88","","14","","19","","16.1","","99.45","","","","-14","","Snow"
"2016-02-15 07:00","2016","02","15","07:00","-6.7","","-8.4","","88","","14","","20","","8.1","","99.40","","","","-14","","Snow"
"2016-02-15 08:00","2016","02","15","08:00","-6.3","","-7.8","","89","","15","","15","","11.3","","99.36","","","","-12","","Snow"
"2016-02-15 09:00","2016","02","15","09:00","-6.0","","-7.0","","93","","16","","15","","8.1","","99.31","","","","-12","","Snow"
"2016-02-15 10:00","2016","02","15","10:00","-5.3","","-6.0","","95","","16","","16","","4.0","","99.26","","","","-11","","Snow,Fog"
"2016-02-15 11:00","2016","02","15","11:00","-4.6","","-5.6","","93","","20","","19","","3.2","","99.20","","","","-11","","Snow,Fog"
"2016-02-15 12:00","2016","02","15","12:00","-4.2","","-5.3","","92","","21","","19","","6.4","","99.15","","","","-10","","Freezing Drizzle,Snow,Fog"
"2016-02-15 13:00","2016","02","15","13:00","-3.7","","-5.0","","91","","22","","21","","8.1","","99.06","","","","-10","","Snow,Fog"
"2016-02-15 14:00","2016","02","15","14:00","-3.2","","-4.6","","90","","21","","19","","8.1","","98.99","","","","-9","","Fog"
"2016-02-15 15:00","2016","02","15","15:00","-2.7","","-4.4","","88","","21","","20","","9.7","","98.93","","","","-9","","Fog"
"2016-02-15 16:00","2016","02","15","16:00","-2.4","","-4.1","","88","","20","","16","","9.7","","98.96","","","","-8","","Fog"
"2016-02-15 17:00","2016","02","15","17:00","-2.2","","-3.6","","90","","19","","12","","9.7","","98.96","","","","-6","","Freezing Drizzle,Fog"
"2016-02-15 18:00","2016","02","15","18:00","-2.2","","-3.3","","92","","17","","8","","9.7","","98.95","","","","-5","","Fog"
"2016-02-15 19:00","2016","02","15","19:00","-2.2","","-2.9","","95","","14","","5","","8.1","","98.97","","","","-4","","Fog"
"2016-02-15 20:00","2016","02","15","20:00","-2.2","","-2.9","","95","","14","","7","","6.4","","98.93","","","","-5","","Fog"
"2016-02-15 21:00","2016","02","15","21:00","-2.2","","-2.6","","97","","13","","5","","4.8","","98.87","","","","-4","","NA"
"2016-02-15 22:00","2016","02","15","22:00","-2.1","","-2.5","","97","","13","","5","","4.0","","98.85","","","","-4","","Fog"
"2016-02-15 23:00","2016","02","15","23:00","-2.0","","-2.3","","98","","","","0","","1.6","","98.83","","","","","","Freezing Drizzle,Fog"
"2016-02-16 00:00","2016","02","16","00:00","-1.8","","-1.8","","100","","1","","4","","0.4","","98.73","","","","-3","","Freezing Drizzle,Freezing Fog"
"2016-02-16 01:00","2016","02","16","01:00","-1.6","","-1.6","","100","","36","","6","","0.4","","98.68","","","","-4","","Freezing Fog"
"2016-02-16 02:00","2016","02","16","02:00","-1.5","","-1.5","","100","","2","","7","","0.4","","98.62","","","","-4","","Freezing Fog"
"2016-02-16 03:00","2016","02","16","03:00","-1.5","","-1.5","","100","","2","","13","","0.6","","98.55","","","","-6","","Freezing Fog"
"2016-02-16 04:00","2016","02","16","04:00","-1.6","","-1.7","","99","","1","","9","","4.8","","98.53","","","","-5","","Fog"
"2016-02-16 05:00","2016","02","16","05:00","-1.7","","-2.3","","96","","4","","11","","8.1","","98.47","","","","-6","","Fog"
"2016-02-16 06:00","2016","02","16","06:00","-1.9","","-3.0","","92","","2","","12","","8.1","","98.51","","","","-6","","Fog"
"2016-02-16 07:00","2016","02","16","07:00","-1.9","","-3.3","","90","","36","","16","","8.1","","98.50","","","","-7","","Fog"
"2016-02-16 08:00","2016","02","16","08:00","-2.0","","-3.6","","89","","35","","12","","8.1","","98.48","","","","-6","","Fog"
"2016-02-16 09:00","2016","02","16","09:00","-2.0","","-3.3","","91","","34","","11","","8.1","","98.58","","","","-6","","Fog"
"2016-02-16 10:00","2016","02","16","10:00","-1.8","","-3.2","","90","","33","","16","","6.4","","98.59","","","","-7","","Fog"
"2016-02-16 11:00","2016","02","16","11:00","-1.4","","-2.8","","90","","31","","12","","8.1","","98.60","","","","-5","","Fog"
"2016-02-16 12:00","2016","02","16","12:00","-1.0","","-3.2","","85","","32","","10","","9.7","","98.61","","","","-5","","Fog"
"2016-02-16 13:00","2016","02","16","13:00","-1.1","","-3.2","","86","","30","","11","","8.1","","98.57","","","","-5","","Snow Showers,Fog"
"2016-02-16 14:00","2016","02","16","14:00","-1.3","","-3.3","","86","","33","","14","","9.7","","98.53","","","","-6","","Snow Showers,Fog"
"2016-02-16 15:00","2016","02","16","15:00","-1.0","","-4.4","","78","","32","","16","","11.3","","98.54","","","","-6","","NA"
"2016-02-16 16:00","2016","02","16","16:00","-1.4","","-5.3","","75","","28","","17","","12.9","","98.58","","","","-7","","Cloudy"
"2016-02-16 17:00","2016","02","16","17:00","-1.4","","-5.5","","74","","32","","12","","12.9","","98.62","","","","-5","","NA"
"2016-02-16 18:00","2016","02","16","18:00","-1.6","","-5.6","","74","","29","","14","","11.3","","98.70","","","","-6","","NA"
"2016-02-16 19:00","2016","02","16","19:00","-1.7","","-5.9","","73","","31","","16","","11.3","","98.80","","","","-7","","Cloudy"
"2016-02-16 20:00","2016","02","16","20:00","-1.7","","-5.7","","74","","29","","12","","11.3","","98.88","","","","-6","","NA"
"2016-02-16 21:00","2016","02","16","21:00","-1.8","","-5.8","","74","","30","","12","","11.3","","98.92","","","","-6","","NA"
"2016-02-16 22:00","2016","02","16","22:00","-2.0","","-6.2","","73","","32","","12","","12.9","","98.98","","","","-6","","Cloudy"
"2016-02-16 23:00","2016","02","16","23:00","-2.5","","-5.3","","81","","24","","9","","16.1","","98.98","","","","-6","","NA"
"2016-02-17 00:00","2016","02","17","00:00","-2.3","","-5.1","","81","","23","","8","","19.3","","98.99","","","","-5","","NA"
"2016-02-17 01:00","2016","02","17","01:00","-2.0","","-5.0","","80","","23","","13","","12.9","","99.05","","","","-6","","Snow"
"2016-02-17 02:00","2016","02","17","02:00","-2.5","","-3.6","","92","","25","","11","","1.6","","99.08","","","","-7","","Snow"
"2016-02-17 03:00","2016","02","17","03:00","-2.8","","-3.5","","95","","24","","10","","3.2","","99.10","","","","-7","","Snow"
"2016-02-17 04:00","2016","02","17","04:00","-3.4","","-4.0","","96","","23","","11","","6.4","","99.14","","","","-8","","Snow"
"2016-02-17 05:00","2016","02","17","05:00","-2.8","","-3.5","","95","","25","","9","","6.4","","99.22","","","","-6","","Fog"
"2016-02-17 06:00","2016","02","17","06:00","-2.1","","-3.2","","92","","27","","14","","8.1","","99.28","","","","-7","","Snow,Fog"
"2016-02-17 07:00","2016","02","17","07:00","-2.1","","-3.5","","90","","27","","14","","8.1","","99.34","","","","-7","","Snow,Fog"
"2016-02-17 08:00","2016","02","17","08:00","-1.7","","-3.3","","89","","29","","16","","8.1","","99.47","","","","-7","","Fog"
"2016-02-17 09:00","2016","02","17","09:00","-1.2","","-3.3","","86","","31","","14","","8.1","","99.57","","","","-6","","Snow Showers,Fog"
"2016-02-17 10:00","2016","02","17","10:00","-0.7","","-2.9","","85","","32","","16","","9.7","","99.67","","","","-5","","Snow Showers,Haze"
"2016-02-17 11:00","2016","02","17","11:00","-1.1","","-4.3","","79","","34","","19","","19.3","","99.76","","","","-6","","Snow Showers"
"2016-02-17 12:00","2016","02","17","12:00","-1.4","","-7.2","","65","","33","","21","","24.1","","99.86","","","","-7","","NA"
"2016-02-17 13:00","2016","02","17","13:00","-0.7","","-8.7","","55","","31","","24","","24.1","","99.87","","","","-7","","Mostly Cloudy"
"2016-02-17 14:00","2016","02","17","14:00","-0.8","","-9.7","","51","","33","","23","","24.1","","99.89","","","","-7","","NA"
"2016-02-17 15:00","2016","02","17","15:00","-0.7","","-9.9","","50","","34","","25","","24.1","","99.96","","","","-7","","NA"
"2016-02-17 16:00","2016","02","17","16:00","-1.4","","-10.3","","51","","32","","25","","24.1","","100.06","","","","-8","","Mostly Cloudy"
"2016-02-17 17:00","2016","02","17","17:00","-2.1","","-10.9","","51","","34","","19","","24.1","","100.15","","","","-8","","NA"
"2016-02-17 18:00","2016","02","17","18:00","-2.9","","-11.7","","51","","33","","13","","24.1","","100.26","","","","-8","","NA"
"2016-02-17 19:00","2016","02","17","19:00","-3.9","","-12.1","","53","","35","","9","","24.1","","100.32","","","","-8","","Mainly Clear"
"2016-02-17 20:00","2016","02","17","20:00","-6.7","","-9.8","","79","","8","","8","","24.1","","100.39","","","","-11","","NA"
"2016-02-17 21:00","2016","02","17","21:00","-6.7","","-10.1","","77","","8","","7","","24.1","","100.42","","","","-10","","NA"
"2016-02-17 22:00","2016","02","17","22:00","-7.1","","-9.8","","81","","8","","7","","24.1","","100.53","","","","-11","","Mainly Clear"
"2016-02-17 23:00","2016","02","17","23:00","-8.5","","-10.7","","84","","9","","9","","24.1","","100.54","","","","-13","","NA"
"2016-02-18 00:00","2016","02","18","00:00","-9.0","","-10.8","","87","","15","","7","","24.1","","100.61","","","","-13","","NA"
"2016-02-18 01:00","2016","02","18","01:00","-9.9","","-11.2","","90","","14","","4","","24.1","","100.67","","","","-12","","Clear"
"2016-02-18 02:00","2016","02","18","02:00","-10.0","","-11.8","","87","","36","","3","","24.1","","100.71","","","","-12","","NA"
"2016-02-18 03:00","2016","02","18","03:00","-9.7","","-11.9","","84","","7","","5","","24.1","","100.76","","","","-13","","NA"
"2016-02-18 04:00","2016","02","18","04:00","-10.2","","-12.4","","84","","12","","4","","24.1","","100.77","","","","-13","","Clear"
"2016-02-18 05:00","2016","02","18","05:00","-10.7","","-12.8","","85","","9","","7","","24.1","","100.80","","","","-15","","NA"
"2016-02-18 06:00","2016","02","18","06:00","-10.7","","-12.9","","84","","9","","5","","24.1","","100.89","","","","-14","","NA"
"2016-02-18 07:00","2016","02","18","07:00","-10.6","","-13.1","","82","","9","","5","","24.1","","100.97","","","","-14","","Clear"
"2016-02-18 08:00","2016","02","18","08:00","-11.4","","-13.3","","86","","9","","5","","24.1","","101.05","","","","-15","","NA"
"2016-02-18 09:00","2016","02","18","09:00","-7.7","","-11.1","","77","","12","","7","","24.1","","101.11","","","","-11","","NA"
"2016-02-18 10:00","2016","02","18","10:00","-4.1","","-9.4","","67","","13","","16","","24.1","","101.14","","","","-10","","Clear"
"2016-02-18 11:00","2016","02","18","11:00","-3.0","","-8.3","","67","","14","","17","","24.1","","101.15","","","","-9","","NA"
"2016-02-18 12:00","2016","02","18","12:00","-2.2","","-7.9","","65","","16","","22","","24.1","","101.17","","","","-8","","NA"
"2016-02-18 13:00","2016","02","18","13:00","-2.3","","-7.1","","70","","14","","19","","24.1","","101.07","","","","-8","","Mostly Cloudy"
"2016-02-18 14:00","2016","02","18","14:00","-2.0","","-6.8","","70","","17","","20","","24.1","","101.02","","","","-8","","NA"
"2016-02-18 15:00","2016","02","18","15:00","-1.8","","-7.0","","68","","15","","23","","24.1","","100.93","","","","-8","","NA"
"2016-02-18 16:00","2016","02","18","16:00","-2.0","","-7.7","","65","","14","","22","","24.1","","100.88","","","","-8","","Mostly Cloudy"
"2016-02-18 17:00","2016","02","18","17:00","-2.3","","-6.7","","72","","13","","22","","24.1","","100.80","","","","-8","","NA"
"2016-02-18 18:00","2016","02","18","18:00","-3.4","","-6.9","","77","","12","","23","","24.1","","100.71","","","","-10","","NA"
"2016-02-18 19:00","2016","02","18","19:00","-3.7","","-6.8","","79","","13","","18","","24.1","","100.69","","","","-10","","Mostly Cloudy"
"2016-02-18 20:00","2016","02","18","20:00","-2.9","","-5.7","","81","","14","","20","","24.1","","100.66","","","","-9","","NA"
"2016-02-18 21:00","2016","02","18","21:00","-2.3","","-5.8","","77","","13","","23","","24.1","","100.49","","","","-9","","NA"
"2016-02-18 22:00","2016","02","18","22:00","-1.3","","-6.1","","70","","14","","28","","24.1","","100.44","","","","-8","","Cloudy"
"2016-02-18 23:00","2016","02","18","23:00","-1.0","","-6.2","","68","","15","","28","","24.1","","100.36","","","","-8","","NA"
"2016-02-19 00:00","2016","02","19","00:00","-0.9","","-6.1","","68","","15","","27","","24.1","","100.25","","","","-7","","NA"
"2016-02-19 01:00","2016","02","19","01:00","-0.8","","-5.8","","69","","15","","28","","24.1","","100.14","","","","-7","","Cloudy"
"2016-02-19 02:00","2016","02","19","02:00","-0.6","","-5.2","","71","","15","","24","","24.1","","100.03","","","","-7","","NA"
"2016-02-19 03:00","2016","02","19","03:00","-0.3","","-4.8","","72","","14","","25","","24.1","","99.90","","","","-6","","NA"
"2016-02-19 04:00","2016","02","19","04:00","0.0","","-4.6","","71","","15","","27","","24.1","","99.75","","","","-6","","Cloudy"
"2016-02-19 05:00","2016","02","19","05:00","0.3","","-4.5","","70","","15","","35","","24.1","","99.52","","","","","","NA"
"2016-02-19 06:00","2016","02","19","06:00","0.8","","-4.1","","70","","16","","23","","24.1","","99.47","","","","","","NA"
"2016-02-19 07:00","2016","02","19","07:00","0.6","","-3.3","","75","","16","","16","","24.1","","99.35","","","","","","Cloudy"
"2016-02-19 08:00","2016","02","19","08:00","1.9","","-2.4","","73","","16","","21","","24.1","","99.18","","","","","","NA"
"2016-02-19 09:00","2016","02","19","09:00","3.4","","-1.6","","70","","18","","26","","24.1","","99.04","","","","","","NA"
"2016-02-19 10:00","2016","02","19","10:00","5.4","","-0.6","","65","","18","","30","","24.1","","98.90","","","","","","Mostly Cloudy"
"2016-02-19 11:00","2016","02","19","11:00","6.7","","-0.1","","62","","19","","39","","24.1","","98.71","","","","","","NA"
"2016-02-19 12:00","2016","02","19","12:00","7.1","","0.8","","64","","20","","35","","24.1","","98.49","","","","","","NA"
"2016-02-19 13:00","2016","02","19","13:00","7.8","","1.4","","64","","20","","37","","24.1","","98.24","","","","","","Mostly Cloudy"
"2016-02-19 14:00","2016","02","19","14:00","11.2","","3.3","","58","","20","","37","","24.1","","98.06","","","","","","NA"
"2016-02-19 15:00","2016","02","19","15:00","12.3","","4.1","","57","","20","","35","","24.1","","97.92","","","","","","NA"
"2016-02-19 16:00","2016","02","19","16:00","12.2","","4.7","","60","","21","","31","","24.1","","97.89","","","","","","Mostly Cloudy"
"2016-02-19 17:00","2016","02","19","17:00","14.0","","5.9","","58","","22","","46","","24.1","","97.80","","","","","","NA"
"2016-02-19 18:00","2016","02","19","18:00","12.8","","6.2","","64","","22","","44","","24.1","","97.75","","","","","","NA"
"2016-02-19 19:00","2016","02","19","19:00","13.4","","7.0","","65","","22","","48","","24.1","","97.81","","","","","","Mostly Cloudy"
"2016-02-19 20:00","2016","02","19","20:00","13.2","","6.4","","63","","24","","40","","24.1","","97.84","","","","","","Rain Showers"
"2016-02-19 21:00","2016","02","19","21:00","12.8","","3.5","","53","","24","","54","","24.1","","97.87","","","","","","NA"
"2016-02-19 22:00","2016","02","19","22:00","12.5","","3.5","","54","","25","","45","","24.1","","97.93","","","","","","Cloudy"
"2016-02-19 23:00","2016","02","19","23:00","11.3","","3.6","","59","","26","","53","","24.1","","98.03","","","","","","NA"
"2016-02-20 00:00","2016","02","20","00:00","9.9","","2.5","","60","","27","","66","","24.1","","98.20","","","","","","NA"
"2016-02-20 01:00","2016","02","20","01:00","8.7","","1.4","","60","","26","","37","","24.1","","98.32","","","","","","Clear"
"2016-02-20 02:00","2016","02","20","02:00","8.1","","0.6","","59","","25","","30","","24.1","","98.43","","","","","","NA"
"2016-02-20 03:00","2016","02","20","03:00","6.9","","0.4","","63","","24","","25","","24.1","","98.51","","","","","","NA"
"2016-02-20 04:00","2016","02","20","04:00","6.8","","0.7","","65","","24","","30","","24.1","","98.53","","","","","","Clear"
"2016-02-20 05:00","2016","02","20","05:00","6.7","","0.4","","64","","24","","32","","24.1","","98.57","","","","","","NA"
"2016-02-20 06:00","2016","02","20","06:00","6.8","","0.0","","62","","25","","28","","24.1","","98.65","","","","","","NA"
"2016-02-20 07:00","2016","02","20","07:00","5.2","","-0.2","","68","","23","","29","","24.1","","98.64","","","","","","Clear"
"2016-02-20 08:00","2016","02","20","08:00","5.3","","-0.3","","67","","22","","19","","24.1","","98.61","","","","","","NA"
"2016-02-20 09:00","2016","02","20","09:00","7.3","","0.7","","63","","21","","27","","24.1","","98.55","","","","","","NA"
"2016-02-20 10:00","2016","02","20","10:00","7.9","","1.1","","62","","20","","35","","24.1","","98.43","","","","","","Mainly Clear"
"2016-02-20 11:00","2016","02","20","11:00","11.7","","1.4","","49","","22","","35","","24.1","","98.38","","","","","","NA"
"2016-02-20 12:00","2016","02","20","12:00","15.2","","1.1","","38","","24","","37","","24.1","","98.38","","","","","","NA"
"2016-02-20 13:00","2016","02","20","13:00","16.3","","-0.3","","32","","28","","45","","24.1","","98.37","","","","","","Clear"
"2016-02-20 14:00","2016","02","20","14:00","16.5","","-0.6","","31","","26","","37","","24.1","","98.36","","","","","","NA"
"2016-02-20 15:00","2016","02","20","15:00","16.3","","-1.2","","30","","28","","34","","24.1","","98.43","","","","","","NA"
"2016-02-20 16:00","2016","02","20","16:00","14.9","","-0.7","","34","","28","","39","","24.1","","98.53","","","","","","Mainly Clear"
"2016-02-20 17:00","2016","02","20","17:00","13.7","","-0.7","","37","","30","","30","","24.1","","98.64","","","","","","NA"
"2016-02-20 18:00","2016","02","20","18:00","11.9","","0.4","","45","","30","","29","","24.1","","98.74","","","","","","NA"
"2016-02-20 19:00","2016","02","20","19:00","10.3","","0.6","","51","","30","","19","","24.1","","98.87","","","","","","Mainly Clear"
"2016-02-20 20:00","2016","02","20","20:00","7.8","","0.5","","60","","29","","14","","24.1","","98.97","","","","","","NA"
"2016-02-20 21:00","2016","02","20","21:00","6.0","","-0.1","","65","","28","","10","","24.1","","99.06","","","","","","NA"
"2016-02-20 22:00","2016","02","20","22:00","7.0","","0.7","","64","","32","","9","","24.1","","99.12","","","","","","Mainly Clear"
"2016-02-20 23:00","2016","02","20","23:00","6.4","","0.7","","67","","34","","5","","24.1","","99.11","","","","","","NA"
"2016-02-21 00:00","2016","02","21","00:00","2.8","","-0.3","","80","","30","","5","","24.1","","99.13","","","","","","NA"
"2016-02-21 01:00","2016","02","21","01:00","4.6","","0.4","","74","","33","","9","","24.1","","99.14","","","","","","Mainly Clear"
"2016-02-21 02:00","2016","02","21","02:00","4.4","","0.6","","76","","31","","6","","24.1","","99.19","","","","","","NA"
"2016-02-21 03:00","2016","02","21","03:00","0.1","","-1.7","","88","","27","","10","","24.1","","99.19","","","","","","NA"
"2016-02-21 04:00","2016","02","21","04:00","2.8","","0.2","","83","","30","","7","","24.1","","99.15","","","","","","Mainly Clear"
"2016-02-21 05:00","2016","02","21","05:00","0.8","","-0.8","","89","","28","","10","","24.1","","99.16","","","","","","NA"
"2016-02-21 06:00","2016","02","21","06:00","1.6","","-0.7","","85","","31","","12","","24.1","","99.27","","","","","","NA"
"2016-02-21 07:00","2016","02","21","07:00","1.9","","-0.4","","85","","34","","10","","24.1","","99.30","","","","","","Mainly Clear"
"2016-02-21 08:00","2016","02","21","08:00","2.8","","0.4","","84","","36","","13","","24.1","","99.32","","","","","","NA"
"2016-02-21 09:00","2016","02","21","09:00","4.1","","1.3","","82","","3","","19","","24.1","","99.48","","","","","","NA"
"2016-02-21 10:00","2016","02","21","10:00","3.8","","1.0","","82","","4","","23","","24.1","","99.49","","","","","","Cloudy"
"2016-02-21 11:00","2016","02","21","11:00","4.4","","0.6","","76","","5","","28","","24.1","","99.52","","","","","","NA"
"2016-02-21 12:00","2016","02","21","12:00","4.7","","-0.1","","71","","3","","32","","24.1","","99.55","","","","","","NA"
"2016-02-21 13:00","2016","02","21","13:00","4.0","","-0.4","","73","","4","","19","","24.1","","99.55","","","","","","Cloudy"
"2016-02-21 14:00","2016","02","21","14:00","4.7","","-0.3","","70","","2","","25","","24.1","","99.51","","","","","","NA"
"2016-02-21 15:00","2016","02","21","15:00","4.4","","-1.0","","68","","3","","19","","24.1","","99.54","","","","","","NA"
"2016-02-21 16:00","2016","02","21","16:00","4.5","","-0.9","","68","","6","","17","","24.1","","99.55","","","","","","Cloudy"
"2016-02-21 17:00","2016","02","21","17:00","4.1","","-0.9","","70","","5","","13","","24.1","","99.58","","","","","","NA"
"2016-02-21 18:00","2016","02","21","18:00","2.7","","-0.9","","77","","5","","13","","24.1","","99.61","","","","","","NA"
"2016-02-21 19:00","2016","02","21","19:00","1.5","","-1.2","","82","","3","","10","","24.1","","99.65","","","","","","Mostly Cloudy"
"2016-02-21 20:00","2016","02","21","20:00","0.7","","-1.1","","88","","5","","14","","24.1","","99.71","","","","","","NA"
"2016-02-21 21:00","2016","02","21","21:00","0.3","","-1.6","","87","","5","","16","","24.1","","99.78","","","","","","NA"
"2016-02-21 22:00","2016","02","21","22:00","-0.9","","-2.5","","89","","4","","16","","24.1","","99.80","","","","-6","","Mostly Cloudy"
"2016-02-21 23:00","2016","02","21","23:00","-1.9","","-3.2","","91","","3","","12","","24.1","","99.80","","","","-6","","NA"
"2016-02-22 00:00","2016","02","22","00:00","-2.1","","-3.2","","92","","2","","10","","24.1","","99.78","","","","-6","","NA"
"2016-02-22 01:00","2016","02","22","01:00","-2.6","","-3.9","","91","","2","","10","","24.1","","99.82","","","","-6","","Clear"
"2016-02-22 02:00","2016","02","22","02:00","-2.3","","-3.9","","89","","3","","16","","24.1","","99.82","","","","-7","","NA"
"2016-02-22 03:00","2016","02","22","03:00","-2.4","","-4.4","","86","","3","","14","","24.1","","99.84","","","","-7","","NA"
"2016-02-22 04:00","2016","02","22","04:00","-2.8","","-4.8","","86","","1","","10","","24.1","","99.86","","","","-7","","Mostly Cloudy"
"2016-02-22 05:00","2016","02","22","05:00","-2.1","","-4.3","","85","","2","","10","","24.1","","99.86","","","","-6","","NA"
"2016-02-22 06:00","2016","02","22","06:00","-1.2","","-4.1","","81","","5","","16","","24.1","","99.95","","","","-6","","NA"
"2016-02-22 07:00","2016","02","22","07:00","-1.3","","-4.5","","79","","6","","13","","24.1","","100.00","","","","-6","","Mostly Cloudy"
"2016-02-22 08:00","2016","02","22","08:00","-1.1","","-4.0","","81","","5","","15","","24.1","","100.02","","","","-6","","NA"
"2016-02-22 09:00","2016","02","22","09:00","-0.9","","-4.4","","77","","6","","23","","24.1","","100.07","","","","-7","","NA"
"2016-02-22 10:00","2016","02","22","10:00","-0.7","","-5.0","","73","","7","","19","","24.1","","100.12","","","","-6","","Mostly Cloudy"
"2016-02-22 11:00","2016","02","22","11:00","-0.4","","-5.2","","70","","6","","23","","24.1","","100.13","","","","-6","","NA"
"2016-02-22 12:00","2016","02","22","12:00","-0.1","","-5.1","","69","","5","","21","","24.1","","100.12","","","","-6","","NA"
"2016-02-22 13:00","2016","02","22","13:00","0.1","","-5.7","","65","","7","","20","","24.1","","100.07","","","","","","Cloudy"
"2016-02-22 14:00","2016","02","22","14:00","0.7","","-6.0","","61","","6","","16","","24.1","","100.06","","","","","","NA"
"2016-02-22 15:00","2016","02","22","15:00","1.7","","-5.9","","57","","6","","14","","24.1","","100.04","","","","","","NA"
"2016-02-22 16:00","2016","02","22","16:00","1.5","","-6.4","","56","","7","","18","","24.1","","100.01","","","","","","Mostly Cloudy"
"2016-02-22 17:00","2016","02","22","17:00","0.4","","-6.5","","60","","6","","16","","24.1","","99.98","","","","","","NA"
"2016-02-22 18:00","2016","02","22","18:00","-0.6","","-6.8","","63","","5","","16","","24.1","","99.98","","","","-5","","NA"
"2016-02-22 19:00","2016","02","22","19:00","-2.5","","-6.3","","75","","5","","14","","24.1","","99.96","","","","-7","","Mainly Clear"
"2016-02-22 20:00","2016","02","22","20:00","-2.4","","-5.1","","82","","7","","12","","24.1","","99.99","","","","-7","","NA"
"2016-02-22 21:00","2016","02","22","21:00","-3.5","","-5.5","","86","","4","","13","","24.1","","100.00","","","","-8","","NA"
"2016-02-22 22:00","2016","02","22","22:00","-4.2","","-6.2","","86","","5","","10","","24.1","","100.00","","","","-8","","Clear"
"2016-02-22 23:00","2016","02","22","23:00","-3.5","","-5.2","","88","","6","","11","","24.1","","99.97","","","","-8","","NA"
"2016-02-23 00:00","2016","02","23","00:00","-3.2","","-5.1","","87","","8","","9","","24.1","","99.94","","","","-7","","NA"
"2016-02-23 01:00","2016","02","23","01:00","-4.2","","-5.9","","88","","3","","8","","24.1","","99.92","","","","-8","","Mainly Clear"
"2016-02-23 02:00","2016","02","23","02:00","-3.9","","-5.3","","90","","5","","12","","24.1","","99.93","","","","-9","","NA"
"2016-02-23 03:00","2016","02","23","03:00","-4.3","","-5.9","","89","","5","","11","","24.1","","99.89","","","","-9","","NA"
"2016-02-23 04:00","2016","02","23","04:00","-4.5","","-5.9","","90","","4","","10","","24.1","","99.87","","","","-9","","Clear"
"2016-02-23 05:00","2016","02","23","05:00","-4.7","","-5.8","","92","","5","","11","","24.1","","99.90","","","","-9","","NA"
"2016-02-23 06:00","2016","02","23","06:00","-4.9","","-6.0","","92","","5","","13","","24.1","","99.89","","","","-10","","NA"
"2016-02-23 07:00","2016","02","23","07:00","-4.6","","-6.1","","89","","5","","14","","24.1","","99.88","","","","-10","","Clear"
"2016-02-23 08:00","2016","02","23","08:00","-2.8","","-5.3","","83","","4","","15","","24.1","","99.86","","","","-8","","NA"
"2016-02-23 09:00","2016","02","23","09:00","-0.8","","-4.3","","77","","7","","13","","24.1","","99.88","","","","-5","","NA"
"2016-02-23 10:00","2016","02","23","10:00","0.2","","-4.8","","69","","5","","18","","24.1","","99.97","","","","","","Mostly Cloudy"
"2016-02-23 11:00","2016","02","23","11:00","0.6","","-5.2","","65","","7","","17","","24.1","","99.95","","","","","","NA"
"2016-02-23 12:00","2016","02","23","12:00","1.6","","-4.7","","63","","6","","17","","24.1","","99.91","","","","","","NA"
"2016-02-23 13:00","2016","02","23","13:00","3.0","","-4.7","","57","","5","","18","","24.1","","99.77","","","","","","Cloudy"
"2016-02-23 14:00","2016","02","23","14:00","4.4","","-4.9","","51","","4","","18","","24.1","","99.73","","","","","","NA"
"2016-02-23 15:00","2016","02","23","15:00","4.3","","-5.5","","49","","5","","18","","24.1","","99.71","","","","","","NA"
"2016-02-23 16:00","2016","02","23","16:00","4.9","","-4.9","","49","","4","","17","","24.1","","99.62","","","","","","Mostly Cloudy"
"2016-02-23 17:00","2016","02","23","17:00","4.1","","-4.9","","52","","5","","17","","24.1","","99.55","","","","","","NA"
"2016-02-23 18:00","2016","02","23","18:00","2.2","","-4.3","","62","","5","","17","","24.1","","99.55","","","","","","NA"
"2016-02-23 19:00","2016","02","23","19:00","1.3","","-3.2","","72","","5","","21","","24.1","","99.59","","","","","","Mostly Cloudy"
"2016-02-23 20:00","2016","02","23","20:00","0.3","","-3.1","","78","","4","","18","","24.1","","99.53","","","","","","NA"
"2016-02-23 21:00","2016","02","23","21:00","-0.3","","-2.7","","84","","4","","18","","24.1","","99.49","","","","-5","","NA"
"2016-02-23 22:00","2016","02","23","22:00","-0.6","","-3.0","","84","","4","","18","","24.1","","99.49","","","","-6","","Mainly Clear"
"2016-02-23 23:00","2016","02","23","23:00","-0.2","","-4.3","","74","","5","","24","","24.1","","99.41","","","","-6","","NA"
"2016-02-24 00:00","2016","02","24","00:00","-0.5","","-4.6","","74","","5","","21","","24.1","","99.26","","","","-6","","NA"
"2016-02-24 01:00","2016","02","24","01:00","-0.9","","-4.6","","76","","5","","22","","24.1","","99.15","","","","-7","","Cloudy"
"2016-02-24 02:00","2016","02","24","02:00","-0.7","","-4.2","","77","","4","","23","","24.1","","99.10","","","","-7","","NA"
"2016-02-24 03:00","2016","02","24","03:00","-0.7","","-4.2","","77","","4","","27","","24.1","","98.96","","","","-7","","NA"
"2016-02-24 04:00","2016","02","24","04:00","-0.5","","-3.5","","80","","4","","24","","24.1","","98.86","","","","-6","","Cloudy"
"2016-02-24 05:00","2016","02","24","05:00","-0.4","","-2.9","","83","","4","","30","","24.1","","98.71","","","","-7","","NA"
"2016-02-24 06:00","2016","02","24","06:00","-0.3","","-2.4","","86","","4","","31","","12.9","","98.55","","","","-7","","Snow Showers"
"2016-02-24 07:00","2016","02","24","07:00","-0.2","","-1.1","","94","","5","","33","","8.1","","98.43","","","","-7","","Freezing Rain,Snow,Fog"
"2016-02-24 08:00","2016","02","24","08:00","-0.2","","-0.6","","97","","4","","29","","3.2","","98.27","","","","-7","","Freezing Rain,Ice Pellets,Fog"
"2016-02-24 09:00","2016","02","24","09:00","0.1","","-0.2","","98","","3","","41","","3.2","","98.02","","","","","","Rain,Fog"
"2016-02-24 10:00","2016","02","24","10:00","0.2","","-0.1","","98","","4","","33","","2.0","","97.96","","","","","","Ice Pellets,Fog"
"2016-02-24 11:00","2016","02","24","11:00","0.2","","-0.1","","98","","3","","33","","3.2","","97.75","","","","","","Rain,Snow,Fog"
"2016-02-24 12:00","2016","02","24","12:00","0.3","","0.0","","98","","3","","32","","1.6","","97.56","","","","","","Rain,Fog"
"2016-02-24 13:00","2016","02","24","13:00","0.3","","0.0","","98","","4","","34","","4.8","","97.37","","","","","","Moderate Rain,Fog"
"2016-02-24 14:00","2016","02","24","14:00","0.5","","0.2","","98","","4","","37","","2.4","","97.18","","","","","","Rain,Fog"
"2016-02-24 15:00","2016","02","24","15:00","0.6","","0.3","","98","","3","","33","","4.8","","97.02","","","","","","Moderate Rain,Fog"
"2016-02-24 16:00","2016","02","24","16:00","0.6","","0.3","","98","","3","","33","","4.8","","96.91","","","","","","Rain,Fog"
"2016-02-24 17:00","2016","02","24","17:00","0.8","","0.4","","97","","2","","27","","11.3","","96.86","","","","","","Rain"
"2016-02-24 18:00","2016","02","24","18:00","0.8","","0.2","","96","","1","","28","","4.8","","96.83","","","","","","Rain,Fog"
"2016-02-24 19:00","2016","02","24","19:00","0.8","","0.2","","96","","36","","22","","6.4","","96.85","","","","","","Drizzle,Fog"
"2016-02-24 20:00","2016","02","24","20:00","0.7","","0.1","","96","","36","","27","","8.1","","96.85","","","","","","Drizzle,Fog"
"2016-02-24 21:00","2016","02","24","21:00","0.4","","-0.2","","96","","35","","24","","8.1","","96.84","","","","","","Rain,Drizzle,Fog"
"2016-02-24 22:00","2016","02","24","22:00","0.4","","-0.5","","94","","1","","25","","9.7","","96.82","","","","","","Snow,Fog"
"2016-02-24 23:00","2016","02","24","23:00","0.2","","-1.0","","92","","35","","27","","6.4","","96.86","","","","","","Snow,Fog"
"2016-02-25 00:00","2016","02","25","00:00","-0.3","","-0.9","","96","","35","","23","","4.8","","96.95","","","","-6","","Snow,Fog"
"2016-02-25 01:00","2016","02","25","01:00","-0.5","","-1.1","","96","","34","","24","","3.2","","96.96","","","","-6","","Snow,Fog"
"2016-02-25 02:00","2016","02","25","02:00","-0.5","","-1.1","","96","","32","","23","","4.8","","96.96","","","","-6","","Snow,Fog"
"2016-02-25 03:00","2016","02","25","03:00","-0.4","","-1.3","","94","","31","","21","","6.4","","97.03","","","","-6","","Snow,Fog"
"2016-02-25 04:00","2016","02","25","04:00","-0.2","","-1.3","","92","","31","","24","","6.4","","97.09","","","","-6","","Snow,Fog"
"2016-02-25 05:00","2016","02","25","05:00","-0.2","","-0.9","","95","","31","","28","","2.8","","97.17","","","","-7","","Snow,Fog"
"2016-02-25 06:00","2016","02","25","06:00","-0.2","","-1.2","","93","","31","","25","","3.2","","97.27","","","","-6","","Snow,Fog"
"2016-02-25 07:00","2016","02","25","07:00","-0.2","","-0.9","","95","","31","","26","","2.4","","97.37","","","","-6","","Snow,Fog"
"2016-02-25 08:00","2016","02","25","08:00","-0.4","","-1.1","","95","","33","","27","","1.2","","97.53","","","","-7","","Snow,Fog"
"2016-02-25 09:00","2016","02","25","09:00","-0.4","","-1.4","","93","","32","","27","","1.6","","97.67","","","","-7","","Snow"
"2016-02-25 10:00","2016","02","25","10:00","-0.3","","-3.0","","82","","33","","32","","4.0","","97.79","","","","-7","","Snow"
"2016-02-25 11:00","2016","02","25","11:00","-0.1","","-3.7","","77","","32","","32","","11.3","","97.91","","","","-7","","Snow"
"2016-02-25 12:00","2016","02","25","12:00","-0.2","","-4.1","","75","","32","","27","","16.1","","98.06","","","","-6","","Snow,Blowing Snow"
"2016-02-25 13:00","2016","02","25","13:00","-0.6","","-3.0","","84","","32","","31","","3.2","","98.16","","","","-7","","Snow"
"2016-02-25 14:00","2016","02","25","14:00","-0.4","","-4.7","","73","","32","","36","","16.1","","98.26","","","","-8","","Snow"
"2016-02-25 15:00","2016","02","25","15:00","-0.2","","-5.2","","69","","33","","33","","24.1","","98.37","","","","-7","","NA"
"2016-02-25 16:00","2016","02","25","16:00","0.8","","-8.0","","52","","32","","39","","24.1","","98.50","","","","","","Cloudy"
"2016-02-25 17:00","2016","02","25","17:00","0.5","","-7.3","","56","","32","","32","","24.1","","98.62","","","","","","NA"
"2016-02-25 18:00","2016","02","25","18:00","-0.6","","-6.6","","64","","30","","35","","24.1","","98.78","","","","-8","","NA"
"2016-02-25 19:00","2016","02","25","19:00","-2.1","","-8.0","","64","","30","","34","","24.1","","98.94","","","","-10","","Mostly Cloudy"
"2016-02-25 20:00","2016","02","25","20:00","-3.4","","-8.7","","67","","31","","45","","24.1","","99.04","","","","-12","","NA"
"2016-02-25 21:00","2016","02","25","21:00","-3.2","","-8.3","","68","","32","","33","","24.1","","99.15","","","","-11","","NA"
"2016-02-25 22:00","2016","02","25","22:00","-3.5","","-9.4","","64","","32","","37","","24.1","","99.23","","","","-12","","Snow"
"2016-02-25 23:00","2016","02","25","23:00","-3.9","","-10.8","","59","","33","","36","","24.1","","99.32","","","","-12","","Snow"
"2016-02-26 00:00","2016","02","26","00:00","-3.9","","-10.6","","60","","34","","23","","24.1","","99.37","","","","-11","","Snow"
"2016-02-26 01:00","2016","02","26","01:00","-4.0","","-10.7","","60","","32","","18","","24.1","","99.39","","","","-10","","Snow"
"2016-02-26 02:00","2016","02","26","02:00","-3.8","","-10.5","","60","","32","","18","","24.1","","99.43","","","","-10","","Snow"
"2016-02-26 03:00","2016","02","26","03:00","-3.8","","-9.1","","67","","29","","22","","24.1","","99.47","","","","-10","","Snow"
"2016-02-26 04:00","2016","02","26","04:00","-3.9","","-8.4","","71","","30","","20","","24.1","","99.51","","","","-10","","Snow"
"2016-02-26 05:00","2016","02","26","05:00","-4.1","","-9.0","","69","","33","","19","","24.1","","99.59","","","","-10","","NA"
"2016-02-26 06:00","2016","02","26","06:00","-4.9","","-8.7","","75","","31","","16","","24.1","","99.70","","","","-11","","NA"
"2016-02-26 07:00","2016","02","26","07:00","-4.5","","-9.0","","71","","33","","14","","24.1","","99.78","","","","-10","","Mainly Clear"
"2016-02-26 08:00","2016","02","26","08:00","-4.4","","-9.8","","66","","32","","16","","24.1","","99.86","","","","-10","","NA"
"2016-02-26 09:00","2016","02","26","09:00","-3.6","","-9.9","","62","","34","","12","","24.1","","99.93","","","","-8","","NA"
"2016-02-26 10:00","2016","02","26","10:00","-3.0","","-9.1","","63","","35","","11","","24.1","","99.99","","","","-7","","Mostly Cloudy"
"2016-02-26 11:00","2016","02","26","11:00","-2.9","","-8.4","","66","","29","","11","","24.1","","100.03","","","","-7","","Snow Showers"
"2016-02-26 12:00","2016","02","26","12:00","-2.6","","-8.5","","64","","30","","15","","16.1","","100.04","","","","-8","","Snow Showers"
"2016-02-26 13:00","2016","02","26","13:00","-1.8","","-9.9","","54","","28","","22","","24.1","","100.00","","","","-8","","Mostly Cloudy"
"2016-02-26 14:00","2016","02","26","14:00","-1.3","","-9.7","","53","","28","","21","","24.1","","99.95","","","","-7","","NA"
"2016-02-26 15:00","2016","02","26","15:00","-0.4","","-9.6","","50","","28","","17","","24.1","","99.87","","","","-5","","NA"
"2016-02-26 16:00","2016","02","26","16:00","-0.6","","-10.1","","49","","28","","18","","24.1","","99.85","","","","-6","","Cloudy"
"2016-02-26 17:00","2016","02","26","17:00","-0.7","","-9.6","","51","","29","","16","","24.1","","99.84","","","","-5","","NA"
"2016-02-26 18:00","2016","02","26","18:00","-0.8","","-9.0","","54","","29","","13","","24.1","","99.84","","","","-5","","NA"
"2016-02-26 19:00","2016","02","26","19:00","-1.3","","-7.9","","61","","25","","5","","24.1","","99.84","","","","-3","","Cloudy"
"2016-02-26 20:00","2016","02","26","20:00","-1.4","","-7.0","","66","","21","","12","","24.1","","99.82","","","","-5","","NA"
"2016-02-26 21:00","2016","02","26","21:00","-1.5","","-5.9","","72","","22","","16","","24.1","","99.78","","","","-6","","NA"
"2016-02-26 22:00","2016","02","26","22:00","-1.4","","-5.1","","76","","22","","14","","24.1","","99.74","","","","-6","","Cloudy"
"2016-02-26 23:00","2016","02","26","23:00","-1.5","","-5.9","","72","","24","","17","","24.1","","99.72","","","","-7","","NA"
"2016-02-27 00:00","2016","02","27","00:00","-1.8","","-6.4","","71","","25","","16","","24.1","","99.70","","","","-7","","NA"
"2016-02-27 01:00","2016","02","27","01:00","-1.7","","-6.5","","70","","24","","14","","24.1","","99.66","","","","-6","","Cloudy"
"2016-02-27 02:00","2016","02","27","02:00","-1.6","","-7.2","","66","","24","","18","","24.1","","99.64","","","","-7","","NA"
"2016-02-27 03:00","2016","02","27","03:00","-1.9","","-6.9","","69","","23","","14","","24.1","","99.59","","","","-7","","NA"
"2016-02-27 04:00","2016","02","27","04:00","-1.8","","-6.8","","69","","22","","18","","24.1","","99.49","","","","-7","","Cloudy"
"2016-02-27 05:00","2016","02","27","05:00","-1.7","","-6.3","","71","","22","","21","","24.1","","99.48","","","","-8","","NA"
"2016-02-27 06:00","2016","02","27","06:00","-2.1","","-5.8","","76","","21","","20","","24.1","","99.44","","","","-8","","NA"
"2016-02-27 07:00","2016","02","27","07:00","-2.5","","-5.8","","78","","22","","21","","19.3","","99.40","","","","-9","","Mainly Clear"
"2016-02-27 08:00","2016","02","27","08:00","-1.7","","-5.0","","78","","22","","24","","19.3","","99.35","","","","-8","","NA"
"2016-02-27 09:00","2016","02","27","09:00","-0.5","","-4.6","","74","","23","","34","","24.1","","99.31","","","","-8","","NA"
"2016-02-27 10:00","2016","02","27","10:00","0.4","","-4.1","","72","","23","","40","","24.1","","99.22","","","","","","Mostly Cloudy"
"2016-02-27 11:00","2016","02","27","11:00","1.4","","-3.3","","71","","23","","34","","24.1","","99.19","","","","","","NA"
"2016-02-27 12:00","2016","02","27","12:00","2.3","","-2.8","","69","","23","","39","","24.1","","99.14","","","","","","NA"
"2016-02-27 13:00","2016","02","27","13:00","3.1","","-2.4","","67","","23","","39","","24.1","","99.08","","","","","","Cloudy"
"2016-02-27 14:00","2016","02","27","14:00","3.7","","-1.9","","67","","22","","41","","24.1","","98.92","","","","","","NA"
"2016-02-27 15:00","2016","02","27","15:00","4.6","","-1.0","","67","","23","","35","","24.1","","98.92","","","","","","NA"
"2016-02-27 16:00","2016","02","27","16:00","5.1","","-1.1","","64","","24","","37","","24.1","","98.90","","","","","","Mostly Cloudy"
"2016-02-27 17:00","2016","02","27","17:00","6.1","","-1.5","","58","","24","","49","","24.1","","98.84","","","","","","NA"
"2016-02-27 18:00","2016","02","27","18:00","5.5","","-0.8","","64","","23","","30","","24.1","","98.82","","","","","","NA"
"2016-02-27 19:00","2016","02","27","19:00","4.4","","0.0","","73","","23","","23","","24.1","","98.82","","","","","","Mainly Clear"
"2016-02-27 20:00","2016","02","27","20:00","3.0","","0.4","","83","","22","","16","","24.1","","98.84","","","","","","NA"
"2016-02-27 21:00","2016","02","27","21:00","3.2","","0.8","","84","","21","","22","","24.1","","98.79","","","","","","NA"
"2016-02-27 22:00","2016","02","27","22:00","3.7","","0.9","","82","","22","","23","","24.1","","98.77","","","","","","Mainly Clear"
"2016-02-27 23:00","2016","02","27","23:00","3.8","","0.7","","80","","22","","21","","24.1","","98.73","","","","","","NA"
"2016-02-28 00:00","2016","02","28","00:00","3.6","","0.5","","80","","23","","21","","24.1","","98.70","","","","","","NA"
"2016-02-28 01:00","2016","02","28","01:00","5.1","","0.7","","73","","24","","26","","24.1","","98.73","","","","","","Clear"
"2016-02-28 02:00","2016","02","28","02:00","4.2","","0.5","","77","","23","","22","","24.1","","98.68","","","","","","NA"
"2016-02-28 03:00","2016","02","28","03:00","3.9","","0.6","","79","","22","","22","","24.1","","98.61","","","","","","NA"
"2016-02-28 04:00","2016","02","28","04:00","2.8","","0.4","","84","","21","","20","","24.1","","98.52","","","","","","Clear"
"2016-02-28 05:00","2016","02","28","05:00","3.0","","0.4","","83","","21","","24","","24.1","","98.48","","","","","","NA"
"2016-02-28 06:00","2016","02","28","06:00","2.7","","0.3","","84","","20","","23","","24.1","","98.43","","","","","","NA"
"2016-02-28 07:00","2016","02","28","07:00","2.9","","0.3","","83","","21","","23","","19.3","","98.39","","","","","","Mostly Cloudy"
"2016-02-28 08:00","2016","02","28","08:00","3.6","","0.8","","82","","21","","26","","24.1","","98.35","","","","","","NA"
"2016-02-28 09:00","2016","02","28","09:00","5.8","","1.9","","76","","22","","28","","24.1","","98.34","","","","","","NA"
"2016-02-28 10:00","2016","02","28","10:00","7.3","","3.0","","74","","21","","27","","24.1","","98.24","","","","","","Mostly Cloudy"
"2016-02-28 11:00","2016","02","28","11:00","9.2","","4.2","","71","","21","","27","","24.1","","98.20","","","","","","NA"
"2016-02-28 12:00","2016","02","28","12:00","11.4","","5.1","","65","","22","","37","","24.1","","98.10","","","","","","NA"
"2016-02-28 13:00","2016","02","28","13:00","13.7","","6.8","","63","","21","","34","","24.1","","97.94","","","","","","Mostly Cloudy"
"2016-02-28 14:00","2016","02","28","14:00","14.7","","7.3","","61","","22","","45","","24.1","","97.78","","","","","","NA"
"2016-02-28 15:00","2016","02","28","15:00","15.2","","7.3","","59","","21","","48","","24.1","","97.64","","","","","","NA"
"2016-02-28 16:00","2016","02","28","16:00","15.4","","6.5","","55","","21","","48","","24.1","","97.55","","","","","","Mostly Cloudy"
"2016-02-28 17:00","2016","02","28","17:00","14.9","","6.3","","56","","21","","43","","24.1","","97.52","","","","","","NA"
"2016-02-28 18:00","2016","02","28","18:00","14.1","","5.3","","55","","21","","45","","24.1","","97.55","","","","","","NA"
"2016-02-28 19:00","2016","02","28","19:00","14.3","","5.5","","55","","21","","39","","24.1","","97.53","","","","","","Cloudy"
"2016-02-28 20:00","2016","02","28","20:00","13.6","","4.0","","52","","21","","39","","24.1","","97.48","","","","","","NA"
"2016-02-28 21:00","2016","02","28","21:00","11.9","","4.9","","62","","21","","33","","12.9","","97.46","","","","","","Rain"
"2016-02-28 22:00","2016","02","28","22:00","12.6","","7.1","","69","","23","","40","","19.3","","97.40","","","","","","Rain"
"2016-02-28 23:00","2016","02","28","23:00","10.7","","9.1","","90","","22","","31","","11.3","","97.37","","","","","","Rain"
"2016-02-29 00:00","2016","02","29","00:00","10.9","","9.5","","91","","23","","27","","19.3","","97.35","","","","","","NA"
"2016-02-29 01:00","2016","02","29","01:00","9.1","","7.1","","87","","30","","33","","12.9","","97.49","","","","","","Moderate Rain"
"2016-02-29 02:00","2016","02","29","02:00","6.2","","3.4","","82","","31","","33","","19.3","","97.62","","","","","","NA"
"2016-02-29 03:00","2016","02","29","03:00","3.1","","0.8","","85","","29","","34","","24.1","","97.85","","","","","","NA"
"2016-02-29 04:00","2016","02","29","04:00","1.1","","-2.5","","77","","29","","40","","24.1","","98.10","","","","","","Mostly Cloudy"
"2016-02-29 05:00","2016","02","29","05:00","1.0","","-2.4","","78","","30","","21","","24.1","","98.33","","","","","","NA"
"2016-02-29 06:00","2016","02","29","06:00","0.4","","-3.0","","78","","28","","24","","24.1","","98.49","","","","","","NA"
"2016-02-29 07:00","2016","02","29","07:00","0.2","","-3.7","","75","","28","","22","","24.1","","98.61","","","","","","Cloudy"
"2016-02-29 08:00","2016","02","29","08:00","0.6","","-3.0","","77","","27","","27","","24.1","","98.70","","","","","","NA"
"2016-02-29 09:00","2016","02","29","09:00","0.6","","-3.0","","77","","26","","26","","24.1","","98.74","","","","","","NA"
"2016-02-29 10:00","2016","02","29","10:00","1.9","","-2.3","","74","","26","","32","","24.1","","98.70","","","","","","Mostly Cloudy"
"2016-02-29 11:00","2016","02","29","11:00","3.3","","-1.5","","71","","23","","36","","24.1","","98.70","","","","","","NA"
"2016-02-29 12:00","2016","02","29","12:00","4.6","","-0.8","","68","","24","","40","","24.1","","98.67","","","","","","NA"
"2016-02-29 13:00","2016","02","29","13:00","6.4","","1.1","","69","","24","","45","","24.1","","98.61","","","","","","Mainly Clear"
"2016-02-29 14:00","2016","02","29","14:00","7.6","","1.5","","65","","23","","42","","24.1","","98.62","","","","","","NA"
"2016-02-29 15:00","2016","02","29","15:00","7.9","","0.6","","60","","24","","37","","24.1","","98.61","","","","","","NA"
"2016-02-29 16:00","2016","02","29","16:00","9.0","","-1.1","","49","","26","","39","","24.1","","98.69","","","","","","Mostly Cloudy"
"2016-02-29 17:00","2016","02","29","17:00","8.1","","-1.4","","51","","30","","30","","24.1","","98.83","","","","","","NA"
"2016-02-29 18:00","2016","02","29","18:00","7.0","","-1.2","","56","","29","","24","","19.3","","98.99","","","","","","NA"
"2016-02-29 19:00","2016","02","29","19:00","2.6","","-2.9","","67","","36","","23","","24.1","","99.21","","","","","","Mostly Cloudy"
"2016-02-29 20:00","2016","02","29","20:00","0.3","","-4.9","","68","","1","","20","","24.1","","99.41","","","","","","NA"
"2016-02-29 21:00","2016","02","29","21:00","-0.4","","-5.6","","68","","2","","21","","24.1","","99.50","","","","-6","","NA"
"2016-02-29 22:00","2016","02","29","22:00","-2.0","","-9.4","","57","","2","","22","","24.1","","99.60","","","","-8","","Cloudy"
"2016-02-29 23:00","2016","02","29","23:00","-2.8","","-11.4","","52","","3","","24","","24.1","","99.66","","","","-9","","NA"
