"Station Name","WINDSOR A"
"Province","ONTARIO"
"Latitude","42.28"
"Longitude","-82.96"
"Elevation","189.60"
"Climate Identifier","6139525"
"WMO Identifier","71538"
"TC Identifier","YQG"
"All times are specified in Local Standard Time (LST). Add 1 hour to adjust for Daylight Saving Time where and when it is observed."

"Legend"
"E","Estimated"
"M","Missing"
"NA","Not Available"

"Date/Time","Year","Month","Day","Time","Temp (°C)","Temp Flag","Dew Point Temp (°C)","Dew Point Temp Flag","Rel Hum (%)","Rel Hum Flag","Wind Dir (10s deg)","Wind Dir Flag","Wind Spd (km/h)","Wind Spd Flag","Visibility (km)","Visibility Flag","Stn Press (kPa)","Stn Press Flag","Hmdx","Hmdx Flag","Wind Chill","Wind Chill Flag","Weather"
"2001-03-01 00:00","2001","03","01","00:00","-4.0","","-15.3","","41","","28","","26","","24.1","","99.23","","","","-11","","Clear"
"2001-03-01 01:00","2001","03","01","01:00","-4.9","","-14.8","","46","","28","","15","","24.1","","99.20","","","","-10","","Clear"
"2001-03-01 02:00","2001","03","01","02:00","-5.0","","-14.9","","46","","27","","20","","24.1","","99.16","","","","-12","","Clear"
"2001-03-01 03:00","2001","03","01","03:00","-5.5","","-14.3","","50","","26","","17","","24.1","","99.13","","","","-12","","Clear"
"2001-03-01 04:00","2001","03","01","04:00","-5.7","","-14.2","","51","","26","","13","","24.1","","99.06","","","","-11","","Clear"
"2001-03-01 05:00","2001","03","01","05:00","-5.7","","-13.3","","55","","25","","13","","24.1","","99.06","","","","-11","","Mainly Clear"
"2001-03-01 06:00","2001","03","01","06:00","-5.1","","-12.2","","57","","25","","15","","24.1","","99.03","","","","-11","","Mostly Cloudy"
"2001-03-01 07:00","2001","03","01","07:00","-4.9","","-11.9","","58","","26","","20","","24.1","","99.03","","","","-11","","Cloudy"
"2001-03-01 08:00","2001","03","01","08:00","-4.3","","-9.7","","66","","26","","20","","24.1","","99.03","","","","-11","","Cloudy"
"2001-03-01 09:00","2001","03","01","09:00","-3.7","","-8.8","","68","","28","","13","","24.1","","99.06","","","","-9","","Cloudy"
"2001-03-01 10:00","2001","03","01","10:00","-3.2","","-8.1","","69","","24","","15","","19.3","","99.03","","","","-8","","Mostly Cloudy"
"2001-03-01 11:00","2001","03","01","11:00","-2.6","","-7.8","","67","","26","","13","","19.3","","98.96","","","","-7","","Cloudy"
"2001-03-01 12:00","2001","03","01","12:00","-1.4","","-6.9","","66","","26","","17","","24.1","","98.93","","","","-7","","Cloudy"
"2001-03-01 13:00","2001","03","01","13:00","-0.4","","-7.3","","60","","28","","13","","24.1","","98.83","","","","-5","","Cloudy"
"2001-03-01 14:00","2001","03","01","14:00","0.8","","-6.9","","56","","28","","24","","24.1","","98.80","","","","","","Cloudy"
"2001-03-01 15:00","2001","03","01","15:00","1.1","","-7.0","","55","","25","","15","","24.1","","98.66","","","","","","Mostly Cloudy"
"2001-03-01 16:00","2001","03","01","16:00","1.9","","-6.6","","53","","27","","15","","24.1","","98.66","","","","","","Cloudy"
"2001-03-01 17:00","2001","03","01","17:00","1.5","","-4.4","","65","","16","","9","","24.1","","98.60","","","","","","Mostly Cloudy"
"2001-03-01 18:00","2001","03","01","18:00","1.1","","-4.0","","69","","17","","7","","24.1","","98.60","","","","","","Mostly Cloudy"
"2001-03-01 19:00","2001","03","01","19:00","0.8","","-4.5","","68","","10","","4","","24.1","","98.60","","","","","","Mostly Cloudy"
"2001-03-01 20:00","2001","03","01","20:00","0.1","","-3.3","","78","","15","","6","","24.1","","98.57","","","","","","Mostly Cloudy"
"2001-03-01 21:00","2001","03","01","21:00","2.2","","-5.2","","58","","28","","17","","24.1","","98.50","","","","","","Mainly Clear"
"2001-03-01 22:00","2001","03","01","22:00","1.8","","-5.3","","59","","29","","13","","24.1","","98.47","","","","","","Mainly Clear"
"2001-03-01 23:00","2001","03","01","23:00","0.3","","-5.1","","67","","25","","11","","24.1","","98.43","","","","","","Mainly Clear"
"2001-03-02 00:00","2001","03","02","00:00","-0.2","","-5.0","","70","","25","","13","","24.1","","98.37","","","","-4","","Mostly Cloudy"
"2001-03-02 01:00","2001","03","02","01:00","-0.5","","-4.8","","73","","25","","13","","24.1","","98.33","","","","-5","","Mostly Cloudy"
"2001-03-02 02:00","2001","03","02","02:00","-1.0","","-5.0","","74","","24","","11","","24.1","","98.30","","","","-5","","Mainly Clear"
"2001-03-02 03:00","2001","03","02","03:00","-0.7","","-4.2","","77","","24","","13","","24.1","","98.23","","","","-5","","Mostly Cloudy"
"2001-03-02 04:00","2001","03","02","04:00","0.0","","-4.1","","74","","25","","13","","24.1","","98.20","","","","-4","","Cloudy"
"2001-03-02 05:00","2001","03","02","05:00","0.4","","-3.8","","73","","24","","17","","24.1","","98.17","","","","","","Cloudy"
"2001-03-02 06:00","2001","03","02","06:00","0.8","","-3.4","","73","","25","","19","","24.1","","98.13","","","","","","Cloudy"
"2001-03-02 07:00","2001","03","02","07:00","1.0","","-2.8","","76","","25","","20","","19.3","","98.10","","","","","","Mostly Cloudy"
"2001-03-02 08:00","2001","03","02","08:00","1.1","","-2.4","","77","","26","","17","","19.3","","98.13","","","","","","Cloudy"
"2001-03-02 09:00","2001","03","02","09:00","1.5","","-2.2","","76","","27","","15","","17.7","","98.10","","","","","","Cloudy"
"2001-03-02 10:00","2001","03","02","10:00","1.8","","-1.9","","76","","25","","22","","16.1","","98.07","","","","","","Cloudy"
"2001-03-02 11:00","2001","03","02","11:00","2.7","","-1.0","","77","","26","","20","","16.1","","98.03","","","","","","Cloudy"
"2001-03-02 12:00","2001","03","02","12:00","3.8","","-0.4","","74","","26","","22","","16.1","","97.97","","","","","","Mostly Cloudy"
"2001-03-02 13:00","2001","03","02","13:00","5.5","","0.2","","69","","26","","24","","16.1","","97.93","","","","","","Mostly Cloudy"
"2001-03-02 14:00","2001","03","02","14:00","6.4","","0.5","","66","","26","","26","","16.1","","97.97","","","","","","Mostly Cloudy"
"2001-03-02 15:00","2001","03","02","15:00","6.8","","0.7","","65","","24","","28","","16.1","","97.97","","","","","","Mostly Cloudy"
"2001-03-02 16:00","2001","03","02","16:00","6.6","","-0.6","","60","","27","","32","","16.1","","97.93","","","","","","Mostly Cloudy"
"2001-03-02 17:00","2001","03","02","17:00","4.8","","-0.4","","69","","26","","26","","16.1","","98.03","","","","","","Mostly Cloudy"
"2001-03-02 18:00","2001","03","02","18:00","4.0","","-0.8","","71","","27","","32","","16.1","","98.13","","","","","","Mostly Cloudy"
"2001-03-02 19:00","2001","03","02","19:00","3.7","","-1.8","","67","","28","","28","","16.1","","98.23","","","","","","Mostly Cloudy"
"2001-03-02 20:00","2001","03","02","20:00","3.2","","-2.1","","68","","29","","19","","19.3","","98.30","","","","","","Mostly Cloudy"
"2001-03-02 21:00","2001","03","02","21:00","2.9","","-2.1","","70","","29","","13","","19.3","","98.30","","","","","","Mostly Cloudy"
"2001-03-02 22:00","2001","03","02","22:00","3.0","","-2.4","","68","","30","","19","","16.1","","98.33","","","","","","Cloudy"
"2001-03-02 23:00","2001","03","02","23:00","2.9","","-2.1","","70","","31","","17","","16.1","","98.37","","","","","","Cloudy"
"2001-03-03 00:00","2001","03","03","00:00","2.4","","-2.3","","71","","31","","17","","11.3","","98.43","","","","","","Cloudy"
"2001-03-03 01:00","2001","03","03","01:00","2.0","","-2.9","","70","","33","","19","","11.3","","98.47","","","","","","Mostly Cloudy"
"2001-03-03 02:00","2001","03","03","02:00","1.3","","-3.7","","69","","32","","19","","12.9","","98.57","","","","","","Cloudy"
"2001-03-03 03:00","2001","03","03","03:00","0.8","","-3.8","","71","","33","","13","","12.9","","98.53","","","","","","Cloudy"
"2001-03-03 04:00","2001","03","03","04:00","0.5","","-3.7","","73","","31","","7","","14.5","","98.60","","","","","","Cloudy"
"2001-03-03 05:00","2001","03","03","05:00","-1.1","","-4.2","","79","","34","","13","","12.9","","98.60","","","","-5","","Clear"
"2001-03-03 06:00","2001","03","03","06:00","-1.5","","-4.3","","81","","33","","9","","12.9","","98.66","","","","-5","","Clear"
"2001-03-03 07:00","2001","03","03","07:00","-2.3","","-4.5","","85","","24","","6","","8.0","","98.70","","","","-5","","Haze"
"2001-03-03 08:00","2001","03","03","08:00","-1.3","","-3.5","","85","","26","","4","","8.0","","98.76","","","","-3","","Haze"
"2001-03-03 09:00","2001","03","03","09:00","0.5","","-2.8","","78","","29","","4","","8.0","","98.86","","","","","","Haze"
"2001-03-03 10:00","2001","03","03","10:00","2.6","","-3.5","","64","","6","","7","","9.7","","98.86","","","","","","Haze"
"2001-03-03 11:00","2001","03","03","11:00","3.1","","-4.2","","59","","8","","11","","16.1","","98.90","","","","","","Mainly Clear"
"2001-03-03 12:00","2001","03","03","12:00","3.6","","-4.7","","55","","10","","11","","16.1","","98.93","","","","","","Mainly Clear"
"2001-03-03 13:00","2001","03","03","13:00","4.8","","-4.0","","53","","11","","9","","19.3","","98.93","","","","","","Mainly Clear"
"2001-03-03 14:00","2001","03","03","14:00","4.8","","-3.4","","55","","12","","6","","24.1","","98.90","","","","","","Mainly Clear"
"2001-03-03 15:00","2001","03","03","15:00","5.3","","-3.6","","53","","11","","7","","24.1","","98.86","","","","","","Mainly Clear"
"2001-03-03 16:00","2001","03","03","16:00","5.2","","-3.4","","54","","10","","9","","24.1","","98.86","","","","","","Mainly Clear"
"2001-03-03 17:00","2001","03","03","17:00","3.8","","-1.8","","67","","18","","15","","19.3","","98.90","","","","","","Mainly Clear"
"2001-03-03 18:00","2001","03","03","18:00","2.1","","-2.7","","70","","18","","13","","19.3","","98.96","","","","","","Mostly Cloudy"
"2001-03-03 19:00","2001","03","03","19:00","0.5","","-3.3","","76","","15","","9","","19.3","","98.93","","","","","","Mainly Clear"
"2001-03-03 20:00","2001","03","03","20:00","-0.2","","-3.5","","78","","14","","7","","19.3","","98.96","","","","-3","","Mainly Clear"
"2001-03-03 21:00","2001","03","03","21:00","-0.7","","-3.8","","79","","9","","4","","19.3","","99.00","","","","-2","","Mainly Clear"
"2001-03-03 22:00","2001","03","03","22:00","-1.0","","-3.9","","81","","14","","6","","19.3","","99.03","","","","-3","","Mainly Clear"
"2001-03-03 23:00","2001","03","03","23:00","-1.6","","-4.0","","84","","12","","6","","19.3","","99.00","","","","-4","","Mainly Clear"
"2001-03-04 00:00","2001","03","04","00:00","-1.2","","-4.5","","78","","10","","7","","19.3","","98.96","","","","-4","","Mostly Cloudy"
"2001-03-04 01:00","2001","03","04","01:00","-0.6","","-4.1","","77","","11","","9","","24.1","","98.96","","","","-4","","Mostly Cloudy"
"2001-03-04 02:00","2001","03","04","02:00","-0.9","","-3.4","","83","","12","","9","","24.1","","98.93","","","","-4","","Mostly Cloudy"
"2001-03-04 03:00","2001","03","04","03:00","-1.3","","-3.1","","88","","8","","6","","19.3","","98.90","","","","-4","","Mostly Cloudy"
"2001-03-04 04:00","2001","03","04","04:00","-2.2","","-3.8","","89","","5","","7","","12.9","","98.86","","","","-5","","Mostly Cloudy"
"2001-03-04 05:00","2001","03","04","05:00","-2.2","","-3.7","","89","","6","","7","","12.9","","98.76","","","","-5","","Mostly Cloudy"
"2001-03-04 06:00","2001","03","04","06:00","-2.3","","-3.9","","89","","4","","11","","16.1","","98.76","","","","-6","","Mainly Clear"
"2001-03-04 07:00","2001","03","04","07:00","-2.2","","-3.9","","88","","5","","13","","11.3","","98.76","","","","-7","","Mainly Clear"
"2001-03-04 08:00","2001","03","04","08:00","-1.0","","-2.8","","88","","6","","15","","12.9","","98.76","","","","-6","","Mostly Cloudy"
"2001-03-04 09:00","2001","03","04","09:00","-0.8","","-3.2","","84","","8","","17","","12.9","","98.76","","","","-6","","Mostly Cloudy"
"2001-03-04 10:00","2001","03","04","10:00","-0.4","","-3.2","","81","","7","","17","","16.1","","98.76","","","","-5","","Mostly Cloudy"
"2001-03-04 11:00","2001","03","04","11:00","0.6","","-3.5","","74","","7","","15","","12.9","","98.76","","","","","","Mostly Cloudy"
"2001-03-04 12:00","2001","03","04","12:00","1.0","","-3.8","","70","","5","","20","","16.1","","98.76","","","","","","Mostly Cloudy"
"2001-03-04 13:00","2001","03","04","13:00","2.0","","-3.6","","66","","5","","15","","19.3","","98.70","","","","","","Mostly Cloudy"
"2001-03-04 14:00","2001","03","04","14:00","2.8","","-3.3","","64","","4","","17","","19.3","","98.63","","","","","","Cloudy"
"2001-03-04 15:00","2001","03","04","15:00","3.4","","-2.9","","63","","6","","17","","16.1","","98.60","","","","","","Cloudy"
"2001-03-04 16:00","2001","03","04","16:00","3.8","","-3.0","","61","","8","","17","","12.9","","98.60","","","","","","Cloudy"
"2001-03-04 17:00","2001","03","04","17:00","3.7","","-2.4","","64","","5","","22","","12.9","","98.60","","","","","","Mostly Cloudy"
"2001-03-04 18:00","2001","03","04","18:00","2.7","","-2.9","","67","","4","","22","","12.9","","98.66","","","","","","Mostly Cloudy"
"2001-03-04 19:00","2001","03","04","19:00","1.6","","-3.8","","67","","4","","20","","16.1","","98.76","","","","","","Mostly Cloudy"
"2001-03-04 20:00","2001","03","04","20:00","0.8","","-4.4","","68","","1","","22","","19.3","","98.80","","","","","","Cloudy"
"2001-03-04 21:00","2001","03","04","21:00","-0.1","","-4.7","","71","","1","","20","","16.1","","98.86","","","","-5","","Cloudy"
"2001-03-04 22:00","2001","03","04","22:00","-0.1","","-4.8","","71","","36","","24","","16.1","","98.86","","","","-6","","Cloudy"
"2001-03-04 23:00","2001","03","04","23:00","-0.3","","-5.1","","70","","2","","19","","19.3","","98.86","","","","-5","","Cloudy"
"2001-03-05 00:00","2001","03","05","00:00","-0.8","","-4.4","","77","","36","","19","","19.3","","98.86","","","","-6","","Mostly Cloudy"
"2001-03-05 01:00","2001","03","05","01:00","-1.0","","-4.5","","77","","1","","20","","19.3","","98.83","","","","-7","","Cloudy"
"2001-03-05 02:00","2001","03","05","02:00","-1.5","","-5.3","","75","","36","","17","","19.3","","98.83","","","","-7","","Snow Showers"
"2001-03-05 03:00","2001","03","05","03:00","-2.1","","-5.3","","79","","34","","19","","16.1","","98.80","","","","-8","","Snow"
"2001-03-05 04:00","2001","03","05","04:00","-3.2","","-7.0","","75","","34","","28","","16.1","","98.83","","","","-10","","Snow"
"2001-03-05 05:00","2001","03","05","05:00","-4.7","","-9.2","","71","","34","","20","","19.3","","98.90","","","","-11","","Snow"
"2001-03-05 06:00","2001","03","05","06:00","-5.1","","-11.0","","63","","32","","24","","24.1","","98.90","","","","-12","","Mostly Cloudy"
"2001-03-05 07:00","2001","03","05","07:00","-5.7","","-13.8","","53","","32","","32","","24.1","","98.93","","","","-14","","Mostly Cloudy"
"2001-03-05 08:00","2001","03","05","08:00","-6.1","","-14.9","","50","","32","","28","","24.1","","98.96","","","","-14","","Mainly Clear"
"2001-03-05 09:00","2001","03","05","09:00","-5.4","","-14.9","","47","","31","","26","","24.1","","98.96","","","","-13","","Clear"
"2001-03-05 10:00","2001","03","05","10:00","-4.8","","-15.9","","41","","29","","35","","24.1","","98.90","","","","-13","","Mostly Cloudy"
"2001-03-05 11:00","2001","03","05","11:00","-4.6","","-15.9","","41","","29","","32","","24.1","","98.83","","","","-13","","Mostly Cloudy"
"2001-03-05 12:00","2001","03","05","12:00","-4.2","","-15.2","","42","","28","","28","","24.1","","98.80","","","","-12","","Mostly Cloudy"
"2001-03-05 13:00","2001","03","05","13:00","-3.7","","-15.3","","40","","31","","30","","24.1","","98.73","","","","-11","","Mostly Cloudy"
"2001-03-05 14:00","2001","03","05","14:00","-3.2","","-14.4","","42","","30","","32","","24.1","","98.63","","","","-11","","Mostly Cloudy"
"2001-03-05 15:00","2001","03","05","15:00","-2.0","","-13.1","","42","","29","","33","","24.1","","98.60","","","","-9","","Mostly Cloudy"
"2001-03-05 16:00","2001","03","05","16:00","-2.7","","-11.4","","51","","29","","32","","24.1","","98.57","","","","-10","","Mostly Cloudy"
"2001-03-05 17:00","2001","03","05","17:00","-3.0","","-8.8","","64","","28","","22","","19.3","","98.53","","","","-9","","Snow Showers"
"2001-03-05 18:00","2001","03","05","18:00","-3.5","","-7.4","","74","","29","","22","","19.3","","98.57","","","","-10","","Snow Showers"
"2001-03-05 19:00","2001","03","05","19:00","-4.6","","-7.3","","81","","34","","28","","8.0","","98.60","","","","-12","","Snow"
"2001-03-05 20:00","2001","03","05","20:00","-4.1","","-7.1","","80","","32","","26","","6.4","","98.57","","","","-11","","Snow"
"2001-03-05 21:00","2001","03","05","21:00","-3.9","","-7.9","","74","","33","","32","","19.3","","98.57","","","","-12","","Snow"
"2001-03-05 22:00","2001","03","05","22:00","-4.3","","-7.4","","79","","32","","33","","8.0","","98.47","","","","-12","","Snow"
"2001-03-05 23:00","2001","03","05","23:00","-4.5","","-6.8","","84","","33","","35","","4.8","","98.47","","","","-13","","Snow"
"2001-03-06 00:00","2001","03","06","00:00","-4.3","","-6.0","","88","","34","","30","","4.0","","98.53","","","","-12","","Snow"
"2001-03-06 01:00","2001","03","06","01:00","-4.0","","-5.7","","88","","34","","32","","4.8","","98.60","","","","-12","","Snow"
"2001-03-06 02:00","2001","03","06","02:00","-4.5","","-6.2","","88","","34","","28","","4.8","","98.66","","","","-12","","Snow"
"2001-03-06 03:00","2001","03","06","03:00","-4.3","","-7.9","","76","","34","","33","","19.3","","98.70","","","","-12","","Snow"
"2001-03-06 04:00","2001","03","06","04:00","-4.4","","-8.8","","71","","34","","37","","24.1","","98.76","","","","-13","","Snow"
"2001-03-06 05:00","2001","03","06","05:00","-4.5","","-8.7","","72","","34","","32","","24.1","","98.83","","","","-13","","Snow"
"2001-03-06 06:00","2001","03","06","06:00","-4.7","","-8.6","","74","","33","","28","","19.3","","98.86","","","","-12","","Snow"
"2001-03-06 07:00","2001","03","06","07:00","-4.6","","-8.3","","75","","34","","33","","9.7","","98.96","","","","-13","","Snow"
"2001-03-06 08:00","2001","03","06","08:00","-4.3","","-8.5","","72","","33","","32","","19.3","","99.00","","","","-12","","Snow Showers"
"2001-03-06 09:00","2001","03","06","09:00","-4.0","","-8.5","","71","","34","","30","","16.1","","99.03","","","","-12","","Snow Showers"
"2001-03-06 10:00","2001","03","06","10:00","-4.0","","-8.4","","71","","34","","37","","19.3","","99.06","","","","-12","","Cloudy"
"2001-03-06 11:00","2001","03","06","11:00","-3.9","","-8.3","","71","","35","","33","","19.3","","99.10","","","","-12","","Cloudy"
"2001-03-06 12:00","2001","03","06","12:00","-3.3","","-8.3","","68","","33","","33","","19.3","","99.13","","","","-11","","Cloudy"
"2001-03-06 13:00","2001","03","06","13:00","-2.9","","-8.3","","66","","35","","30","","24.1","","99.13","","","","-10","","Cloudy"
"2001-03-06 14:00","2001","03","06","14:00","-2.4","","-7.8","","66","","33","","32","","24.1","","99.10","","","","-10","","Cloudy"
"2001-03-06 15:00","2001","03","06","15:00","-1.4","","-7.5","","63","","33","","37","","24.1","","99.10","","","","-9","","Cloudy"
"2001-03-06 16:00","2001","03","06","16:00","-1.0","","-7.3","","62","","32","","26","","24.1","","99.13","","","","-7","","Cloudy"
"2001-03-06 17:00","2001","03","06","17:00","-0.8","","-6.9","","63","","32","","28","","24.1","","99.16","","","","-7","","Mostly Cloudy"
"2001-03-06 18:00","2001","03","06","18:00","-0.7","","-6.8","","63","","32","","26","","24.1","","99.20","","","","-7","","Mostly Cloudy"
"2001-03-06 19:00","2001","03","06","19:00","-0.5","","-6.7","","63","","33","","30","","24.1","","99.23","","","","-7","","Mostly Cloudy"
"2001-03-06 20:00","2001","03","06","20:00","-0.3","","-6.5","","63","","34","","24","","24.1","","99.26","","","","-6","","Cloudy"
"2001-03-06 21:00","2001","03","06","21:00","-0.3","","-5.8","","66","","32","","20","","24.1","","99.30","","","","-6","","Cloudy"
"2001-03-06 22:00","2001","03","06","22:00","-0.5","","-6.3","","65","","35","","22","","24.1","","99.33","","","","-6","","Cloudy"
"2001-03-06 23:00","2001","03","06","23:00","-0.7","","-6.3","","66","","34","","15","","24.1","","99.40","","","","-5","","Cloudy"
"2001-03-07 00:00","2001","03","07","00:00","-0.8","","-6.2","","67","","33","","19","","25.0","","99.40","","","","-6","","Cloudy"
"2001-03-07 01:00","2001","03","07","01:00","-1.1","","-6.0","","69","","32","","19","","25.0","","99.36","","","","-6","","Cloudy"
"2001-03-07 02:00","2001","03","07","02:00","-1.0","","-5.9","","69","","32","","15","","25.0","","99.36","","","","-6","","Cloudy"
"2001-03-07 03:00","2001","03","07","03:00","-1.0","","-6.1","","68","","33","","13","","25.0","","99.33","","","","-5","","Cloudy"
"2001-03-07 04:00","2001","03","07","04:00","-0.9","","-6.3","","67","","34","","15","","25.0","","99.36","","","","-6","","Cloudy"
"2001-03-07 05:00","2001","03","07","05:00","-1.1","","-6.3","","68","","35","","11","","25.0","","99.33","","","","-5","","Cloudy"
"2001-03-07 06:00","2001","03","07","06:00","-1.2","","-6.4","","68","","36","","13","","25.0","","99.36","","","","-5","","Cloudy"
"2001-03-07 07:00","2001","03","07","07:00","-1.2","","-6.9","","65","","35","","15","","25.0","","99.36","","","","-6","","Cloudy"
"2001-03-07 08:00","2001","03","07","08:00","-1.3","","-6.3","","69","","36","","11","","24.1","","99.43","","","","-5","","Cloudy"
"2001-03-07 09:00","2001","03","07","09:00","-1.0","","-6.1","","68","","32","","15","","24.1","","99.43","","","","-6","","Cloudy"
"2001-03-07 10:00","2001","03","07","10:00","-0.7","","-6.4","","65","","32","","7","","24.1","","99.46","","","","-3","","Cloudy"
"2001-03-07 11:00","2001","03","07","11:00","-0.5","","-6.0","","66","","28","","13","","24.1","","99.46","","","","-5","","Cloudy"
"2001-03-07 12:00","2001","03","07","12:00","-0.6","","-5.5","","69","","27","","13","","24.1","","99.43","","","","-5","","Cloudy"
"2001-03-07 13:00","2001","03","07","13:00","-0.1","","-4.9","","70","","28","","13","","19.3","","99.36","","","","-4","","Snow Showers"
"2001-03-07 14:00","2001","03","07","14:00","-0.4","","-5.0","","71","","26","","13","","19.3","","99.33","","","","-5","","Snow Showers"
"2001-03-07 15:00","2001","03","07","15:00","-0.3","","-5.0","","71","","25","","15","","24.1","","99.30","","","","-5","","Cloudy"
"2001-03-07 16:00","2001","03","07","16:00","0.1","","-5.0","","69","","26","","15","","19.3","","99.33","","","","","","Cloudy"
"2001-03-07 17:00","2001","03","07","17:00","0.4","","-5.3","","66","","24","","15","","24.1","","99.26","","","","","","Mostly Cloudy"
"2001-03-07 18:00","2001","03","07","18:00","0.5","","-5.7","","63","","26","","11","","24.1","","99.26","","","","","","Mainly Clear"
"2001-03-07 19:00","2001","03","07","19:00","-1.4","","-4.9","","77","","19","","9","","24.1","","99.23","","","","-5","","Clear"
"2001-03-07 20:00","2001","03","07","20:00","-1.6","","-4.5","","81","","17","","11","","24.1","","99.23","","","","-5","","Clear"
"2001-03-07 21:00","2001","03","07","21:00","-2.3","","-4.2","","87","","17","","11","","24.1","","99.20","","","","-6","","Clear"
"2001-03-07 22:00","2001","03","07","22:00","-2.0","","-4.1","","86","","18","","11","","24.1","","99.13","","","","-6","","Clear"
"2001-03-07 23:00","2001","03","07","23:00","-2.5","","-4.1","","89","","18","","9","","24.1","","99.06","","","","-6","","Clear"
"2001-03-08 00:00","2001","03","08","00:00","-1.5","","-3.2","","88","","19","","9","","19.3","","98.96","","","","-5","","Mostly Cloudy"
"2001-03-08 01:00","2001","03","08","01:00","-1.1","","-2.8","","88","","21","","11","","19.3","","98.93","","","","-5","","Mostly Cloudy"
"2001-03-08 02:00","2001","03","08","02:00","-0.8","","-2.7","","87","","21","","11","","19.3","","98.90","","","","-5","","Cloudy"
"2001-03-08 03:00","2001","03","08","03:00","-0.3","","-3.1","","81","","27","","11","","24.1","","98.83","","","","-4","","Cloudy"
"2001-03-08 04:00","2001","03","08","04:00","-0.1","","-4.5","","72","","28","","11","","24.1","","98.80","","","","-4","","Cloudy"
"2001-03-08 05:00","2001","03","08","05:00","0.0","","-4.6","","71","","26","","11","","24.1","","98.80","","","","-4","","Cloudy"
"2001-03-08 06:00","2001","03","08","06:00","-0.1","","-4.5","","72","","30","","20","","19.3","","98.83","","","","-5","","Cloudy"
"2001-03-08 07:00","2001","03","08","07:00","-0.3","","-5.6","","67","","28","","19","","19.3","","98.83","","","","-5","","Cloudy"
"2001-03-08 08:00","2001","03","08","08:00","-0.2","","-6.1","","64","","27","","15","","12.9","","98.86","","","","-5","","Cloudy"
"2001-03-08 09:00","2001","03","08","09:00","-0.2","","-5.0","","70","","26","","19","","11.3","","98.86","","","","-5","","Cloudy"
"2001-03-08 10:00","2001","03","08","10:00","0.5","","-5.0","","67","","26","","22","","19.3","","98.83","","","","","","Snow Showers"
"2001-03-08 11:00","2001","03","08","11:00","0.2","","-4.9","","69","","25","","20","","4.8","","98.80","","","","","","Snow Showers"
"2001-03-08 12:00","2001","03","08","12:00","0.2","","-3.4","","77","","25","","15","","9.7","","98.80","","","","","","Snow Showers"
"2001-03-08 13:00","2001","03","08","13:00","0.9","","-3.7","","71","","26","","20","","9.7","","98.76","","","","","","Snow Showers"
"2001-03-08 14:00","2001","03","08","14:00","1.6","","-4.9","","62","","27","","13","","11.3","","98.66","","","","","","Snow Showers"
"2001-03-08 15:00","2001","03","08","15:00","2.2","","-5.7","","56","","25","","20","","19.3","","98.70","","","","","","Snow Showers"
"2001-03-08 16:00","2001","03","08","16:00","0.7","","-4.5","","68","","28","","13","","9.7","","98.73","","","","","","Snow Showers"
"2001-03-08 17:00","2001","03","08","17:00","1.5","","-5.7","","59","","23","","15","","24.1","","98.73","","","","","","Snow Showers"
"2001-03-08 18:00","2001","03","08","18:00","1.1","","-5.4","","62","","25","","19","","19.3","","98.76","","","","","","Snow Showers"
"2001-03-08 19:00","2001","03","08","19:00","-1.0","","-3.4","","84","","26","","24","","3.2","","98.83","","","","-7","","Snow Showers"
"2001-03-08 20:00","2001","03","08","20:00","-1.2","","-2.9","","88","","25","","11","","8.0","","98.83","","","","-5","","Snow"
"2001-03-08 21:00","2001","03","08","21:00","-1.5","","-2.3","","94","","28","","22","","1.6","","98.86","","","","-7","","Snow"
"2001-03-08 22:00","2001","03","08","22:00","-1.4","","-2.8","","90","","26","","13","","6.4","","98.86","","","","-6","","Snow"
"2001-03-08 23:00","2001","03","08","23:00","-1.5","","-3.7","","85","","29","","15","","8.0","","98.86","","","","-6","","Snow"
"2001-03-09 00:00","2001","03","09","00:00","-1.9","","-3.9","","86","","29","","19","","6.4","","98.86","","","","-7","","Snow"
"2001-03-09 01:00","2001","03","09","01:00","-2.3","","-3.6","","91","","28","","19","","8.0","","98.86","","","","-8","","Snow"
"2001-03-09 02:00","2001","03","09","02:00","-1.9","","-4.0","","86","","29","","13","","8.0","","98.90","","","","-6","","Snow"
"2001-03-09 03:00","2001","03","09","03:00","-2.5","","-4.2","","88","","30","","15","","9.7","","98.90","","","","-7","","Snow"
"2001-03-09 04:00","2001","03","09","04:00","-2.4","","-4.9","","83","","29","","17","","16.1","","98.93","","","","-8","","Snow"
"2001-03-09 05:00","2001","03","09","05:00","-2.9","","-5.4","","83","","30","","17","","16.1","","98.96","","","","-8","","Snow"
"2001-03-09 06:00","2001","03","09","06:00","-3.0","","-5.2","","85","","29","","15","","19.3","","99.03","","","","-8","","Snow"
"2001-03-09 07:00","2001","03","09","07:00","-3.2","","-5.2","","86","","32","","13","","19.3","","99.06","","","","-8","","Snow Showers"
"2001-03-09 08:00","2001","03","09","08:00","-2.6","","-4.9","","84","","32","","24","","19.3","","99.13","","","","-9","","Snow Showers"
"2001-03-09 09:00","2001","03","09","09:00","-1.6","","-4.8","","79","","32","","22","","19.3","","99.20","","","","-8","","Mostly Cloudy"
"2001-03-09 10:00","2001","03","09","10:00","-1.2","","-4.7","","77","","33","","19","","19.3","","99.23","","","","-7","","Snow Showers"
"2001-03-09 11:00","2001","03","09","11:00","-0.1","","-4.6","","72","","32","","17","","24.1","","99.26","","","","-5","","Mostly Cloudy"
"2001-03-09 12:00","2001","03","09","12:00","0.7","","-5.8","","62","","28","","22","","24.1","","99.30","","","","","","Mostly Cloudy"
"2001-03-09 13:00","2001","03","09","13:00","0.3","","-6.8","","59","","32","","19","","24.1","","99.30","","","","","","Mostly Cloudy"
"2001-03-09 14:00","2001","03","09","14:00","0.4","","-7.2","","57","","29","","20","","24.1","","99.30","","","","","","Cloudy"
"2001-03-09 15:00","2001","03","09","15:00","0.3","","-7.0","","58","","29","","17","","24.1","","99.33","","","","","","Snow Showers"
"2001-03-09 16:00","2001","03","09","16:00","0.5","","-6.6","","59","","30","","19","","24.1","","99.36","","","","","","Snow Showers"
"2001-03-09 17:00","2001","03","09","17:00","0.5","","-6.9","","58","","32","","20","","24.1","","99.36","","","","","","Snow Showers"
"2001-03-09 18:00","2001","03","09","18:00","0.6","","-7.5","","55","","31","","19","","24.1","","99.40","","","","","","Mostly Cloudy"
"2001-03-09 19:00","2001","03","09","19:00","-0.2","","-7.7","","57","","32","","13","","24.1","","99.43","","","","-4","","Mostly Cloudy"
"2001-03-09 20:00","2001","03","09","20:00","0.0","","-8.5","","53","","29","","15","","24.1","","99.46","","","","-4","","Mostly Cloudy"
"2001-03-09 21:00","2001","03","09","21:00","-0.3","","-6.5","","63","","32","","17","","24.1","","99.50","","","","-5","","Snow Showers"
"2001-03-09 22:00","2001","03","09","22:00","-0.4","","-7.3","","60","","28","","17","","24.1","","99.50","","","","-5","","Snow Showers"
"2001-03-09 23:00","2001","03","09","23:00","-0.5","","-8.3","","56","","28","","15","","24.1","","99.50","","","","-5","","Snow Showers"
"2001-03-10 00:00","2001","03","10","00:00","-0.7","","-8.9","","54","","32","","13","","24.1","","99.50","","","","-5","","Mostly Cloudy"
"2001-03-10 01:00","2001","03","10","01:00","-0.8","","-9.0","","54","","29","","13","","24.1","","99.50","","","","-5","","Cloudy"
"2001-03-10 02:00","2001","03","10","02:00","-0.9","","-8.5","","56","","30","","9","","24.1","","99.53","","","","-4","","Cloudy"
"2001-03-10 03:00","2001","03","10","03:00","-0.9","","-8.7","","55","","30","","13","","24.1","","99.53","","","","-5","","Cloudy"
"2001-03-10 04:00","2001","03","10","04:00","-1.0","","-8.3","","58","","29","","11","","24.1","","99.50","","","","-5","","Cloudy"
"2001-03-10 05:00","2001","03","10","05:00","-1.9","","-7.0","","68","","27","","9","","24.1","","99.53","","","","-5","","Mainly Clear"
"2001-03-10 06:00","2001","03","10","06:00","-3.0","","-7.2","","73","","27","","9","","24.1","","99.56","","","","-7","","Mainly Clear"
"2001-03-10 07:00","2001","03","10","07:00","-3.8","","-7.3","","77","","26","","9","","16.1","","99.60","","","","-8","","Mainly Clear"
"2001-03-10 08:00","2001","03","10","08:00","-3.0","","-6.8","","75","","26","","9","","24.1","","99.60","","","","-7","","Clear"
"2001-03-10 09:00","2001","03","10","09:00","-1.3","","-6.6","","67","","26","","11","","24.1","","99.60","","","","-5","","Clear"
"2001-03-10 10:00","2001","03","10","10:00","0.1","","-7.0","","59","","26","","19","","24.1","","99.60","","","","","","Mainly Clear"
"2001-03-10 11:00","2001","03","10","11:00","1.5","","-6.3","","56","","24","","19","","24.1","","99.56","","","","","","Clear"
"2001-03-10 12:00","2001","03","10","12:00","3.0","","-6.4","","50","","24","","20","","24.1","","99.50","","","","","","Clear"
"2001-03-10 13:00","2001","03","10","13:00","3.8","","-5.2","","52","","25","","17","","24.1","","99.40","","","","","","Clear"
"2001-03-10 14:00","2001","03","10","14:00","4.0","","-4.7","","53","","22","","24","","24.1","","99.26","","","","","","Clear"
"2001-03-10 15:00","2001","03","10","15:00","4.8","","-4.4","","51","","22","","26","","24.1","","99.16","","","","","","Clear"
"2001-03-10 16:00","2001","03","10","16:00","5.4","","-4.7","","48","","21","","24","","24.1","","99.10","","","","","","Mainly Clear"
"2001-03-10 17:00","2001","03","10","17:00","5.5","","-4.9","","47","","21","","26","","24.1","","99.03","","","","","","Mostly Cloudy"
"2001-03-10 18:00","2001","03","10","18:00","5.0","","-4.2","","51","","21","","22","","24.1","","99.00","","","","","","Mostly Cloudy"
"2001-03-10 19:00","2001","03","10","19:00","3.5","","-3.8","","59","","21","","15","","24.1","","99.00","","","","","","Cloudy"
"2001-03-10 20:00","2001","03","10","20:00","3.8","","-3.2","","60","","22","","17","","24.1","","98.96","","","","","","Cloudy"
"2001-03-10 21:00","2001","03","10","21:00","4.6","","-3.6","","55","","21","","22","","24.1","","98.83","","","","","","Mostly Cloudy"
"2001-03-10 22:00","2001","03","10","22:00","3.6","","-3.8","","58","","21","","22","","24.1","","98.80","","","","","","Mostly Cloudy"
"2001-03-10 23:00","2001","03","10","23:00","3.4","","-3.6","","60","","21","","24","","24.1","","98.70","","","","","","Cloudy"
"2001-03-11 00:00","2001","03","11","00:00","3.5","","-3.4","","61","","22","","28","","24.1","","98.66","","","","","","Cloudy"
"2001-03-11 01:00","2001","03","11","01:00","3.6","","-2.4","","65","","23","","20","","24.1","","98.66","","","","","","Cloudy"
"2001-03-11 02:00","2001","03","11","02:00","4.5","","-3.1","","58","","23","","19","","24.1","","98.63","","","","","","Cloudy"
"2001-03-11 03:00","2001","03","11","03:00","4.2","","-2.2","","63","","24","","20","","24.1","","98.57","","","","","","Rain Showers"
"2001-03-11 04:00","2001","03","11","04:00","3.4","","-1.1","","72","","24","","22","","16.1","","98.53","","","","","","Rain Showers"
"2001-03-11 05:00","2001","03","11","05:00","2.0","","0.1","","87","","25","","22","","9.7","","98.57","","","","","","Rain Showers"
"2001-03-11 06:00","2001","03","11","06:00","1.8","","0.6","","92","","27","","19","","9.7","","98.66","","","","","","Rain Showers,Snow Showers"
"2001-03-11 07:00","2001","03","11","07:00","1.9","","-0.9","","82","","32","","22","","19.3","","98.83","","","","","","Mostly Cloudy"
"2001-03-11 08:00","2001","03","11","08:00","2.0","","-2.2","","74","","32","","26","","19.3","","98.96","","","","","","Cloudy"
"2001-03-11 09:00","2001","03","11","09:00","1.3","","-3.2","","72","","34","","26","","24.1","","99.16","","","","","","Cloudy"
"2001-03-11 10:00","2001","03","11","10:00","1.5","","-5.2","","61","","33","","20","","24.1","","99.30","","","","","","Mostly Cloudy"
"2001-03-11 11:00","2001","03","11","11:00","3.0","","-4.7","","57","","30","","22","","24.1","","99.43","","","","","","Mostly Cloudy"
"2001-03-11 12:00","2001","03","11","12:00","4.4","","-3.9","","55","","27","","13","","24.1","","99.50","","","","","","Mainly Clear"
"2001-03-11 13:00","2001","03","11","13:00","4.4","","-5.0","","50","","32","","17","","24.1","","99.53","","","","","","Mainly Clear"
"2001-03-11 14:00","2001","03","11","14:00","5.1","","-5.8","","45","","34","","17","","24.1","","99.56","","","","","","Mainly Clear"
"2001-03-11 15:00","2001","03","11","15:00","5.5","","-6.2","","43","","30","","11","","24.1","","99.60","","","","","","Mostly Cloudy"
"2001-03-11 16:00","2001","03","11","16:00","5.7","","-6.3","","42","","36","","13","","24.1","","99.70","","","","","","Mostly Cloudy"
"2001-03-11 17:00","2001","03","11","17:00","5.0","","-6.8","","42","","34","","19","","24.1","","99.76","","","","","","Mostly Cloudy"
"2001-03-11 18:00","2001","03","11","18:00","2.6","","-4.7","","59","","7","","20","","24.1","","99.83","","","","","","Mostly Cloudy"
"2001-03-11 19:00","2001","03","11","19:00","0.7","","-5.4","","64","","7","","17","","24.1","","99.93","","","","","","Mainly Clear"
"2001-03-11 20:00","2001","03","11","20:00","-0.8","","-4.9","","74","","9","","22","","24.1","","100.03","","","","-7","","Clear"
"2001-03-11 21:00","2001","03","11","21:00","-1.8","","-5.5","","76","","8","","22","","24.1","","99.99","","","","-8","","Clear"
"2001-03-11 22:00","2001","03","11","22:00","-2.3","","-6.0","","76","","9","","17","","24.1","","100.03","","","","-8","","Clear"
"2001-03-11 23:00","2001","03","11","23:00","-2.9","","-5.9","","80","","8","","17","","24.1","","100.03","","","","-8","","Clear"
"2001-03-12 00:00","2001","03","12","00:00","-3.2","","-6.6","","77","","9","","19","","24.1","","99.96","","","","-9","","Mainly Clear"
"2001-03-12 01:00","2001","03","12","01:00","-3.5","","-6.6","","79","","9","","19","","24.1","","99.93","","","","-9","","Clear"
"2001-03-12 02:00","2001","03","12","02:00","-3.8","","-6.8","","80","","9","","17","","24.1","","99.90","","","","-10","","Clear"
"2001-03-12 03:00","2001","03","12","03:00","-3.8","","-6.9","","79","","9","","20","","24.1","","99.83","","","","-10","","Clear"
"2001-03-12 04:00","2001","03","12","04:00","-3.9","","-6.8","","80","","9","","17","","24.1","","99.83","","","","-10","","Clear"
"2001-03-12 05:00","2001","03","12","05:00","-4.2","","-6.4","","85","","10","","13","","24.1","","99.80","","","","-9","","Clear"
"2001-03-12 06:00","2001","03","12","06:00","-3.6","","-5.9","","84","","9","","15","","24.1","","99.83","","","","-9","","Mainly Clear"
"2001-03-12 07:00","2001","03","12","07:00","-2.1","","-5.2","","79","","11","","22","","24.1","","99.73","","","","-8","","Mostly Cloudy"
"2001-03-12 08:00","2001","03","12","08:00","-1.3","","-4.5","","79","","11","","24","","24.1","","99.60","","","","-7","","Mostly Cloudy"
"2001-03-12 09:00","2001","03","12","09:00","0.2","","-3.9","","74","","11","","24","","24.1","","99.56","","","","","","Cloudy"
"2001-03-12 10:00","2001","03","12","10:00","1.5","","-3.1","","71","","11","","28","","24.1","","99.36","","","","","","Mostly Cloudy"
"2001-03-12 11:00","2001","03","12","11:00","2.7","","-3.6","","63","","11","","32","","24.1","","99.16","","","","","","Cloudy"
"2001-03-12 12:00","2001","03","12","12:00","3.1","","-3.3","","63","","11","","30","","24.1","","98.96","","","","","","Cloudy"
"2001-03-12 13:00","2001","03","12","13:00","3.3","","-2.4","","66","","11","","26","","24.1","","98.86","","","","","","Cloudy"
"2001-03-12 14:00","2001","03","12","14:00","2.0","","-3.2","","68","","12","","24","","24.1","","98.70","","","","","","Cloudy"
"2001-03-12 15:00","2001","03","12","15:00","1.5","","-3.2","","71","","10","","11","","19.3","","98.63","","","","","","Rain Showers"
"2001-03-12 16:00","2001","03","12","16:00","0.7","","-2.1","","81","","10","","26","","19.3","","98.37","","","","","","Rain"
"2001-03-12 17:00","2001","03","12","17:00","0.6","","-1.5","","86","","11","","20","","17.7","","98.37","","","","","","Rain"
"2001-03-12 18:00","2001","03","12","18:00","0.8","","-0.7","","90","","12","","20","","8.0","","98.23","","","","","","Rain,Fog"
"2001-03-12 19:00","2001","03","12","19:00","1.3","","0.3","","93","","13","","19","","8.0","","98.17","","","","","","Rain,Fog"
"2001-03-12 20:00","2001","03","12","20:00","2.2","","1.3","","94","","14","","20","","6.4","","98.07","","","","","","Rain,Fog"
"2001-03-12 21:00","2001","03","12","21:00","3.0","","2.5","","97","","14","","13","","4.8","","97.93","","","","","","Rain,Fog"
"2001-03-12 22:00","2001","03","12","22:00","3.3","","2.9","","97","","16","","9","","3.2","","97.83","","","","","","Drizzle,Fog"
"2001-03-12 23:00","2001","03","12","23:00","4.6","","4.3","","98","","17","","15","","1.6","","97.80","","","","","","Rain,Fog"
"2001-03-13 00:00","2001","03","13","00:00","6.2","","5.9","","98","","18","","15","","2.0","","97.67","","","","","","Rain,Fog"
"2001-03-13 01:00","2001","03","13","01:00","6.2","","6.0","","99","","17","","11","","1.6","","97.57","","","","","","Fog"
"2001-03-13 02:00","2001","03","13","02:00","5.8","","5.8","","100","","17","","11","","0.8","","97.50","","","","","","Fog"
"2001-03-13 03:00","2001","03","13","03:00","6.6","","6.6","","100","","20","","15","","0.4","","97.43","","","","","","Fog"
"2001-03-13 04:00","2001","03","13","04:00","7.0","","7.0","","100","","20","","11","","0.4","","97.24","","","","","","Rain,Fog"
"2001-03-13 05:00","2001","03","13","05:00","7.2","","7.2","","100","","22","","15","","0.4","","97.14","","","","","","Rain,Fog"
"2001-03-13 06:00","2001","03","13","06:00","6.7","","6.6","","99","","27","","13","","4.0","","97.10","","","","","","Rain,Fog"
"2001-03-13 07:00","2001","03","13","07:00","4.3","","3.3","","93","","27","","43","","3.2","","97.24","","","","","","Rain,Fog"
"2001-03-13 08:00","2001","03","13","08:00","3.3","","-0.5","","76","","27","","28","","16.1","","97.27","","","","","","Mostly Cloudy"
"2001-03-13 09:00","2001","03","13","09:00","3.0","","-0.9","","76","","25","","19","","19.3","","97.30","","","","","","Cloudy"
"2001-03-13 10:00","2001","03","13","10:00","2.8","","-1.4","","74","","25","","26","","19.3","","97.33","","","","","","Cloudy"
"2001-03-13 11:00","2001","03","13","11:00","2.5","","-1.2","","77","","26","","33","","16.1","","97.40","","","","","","Cloudy"
"2001-03-13 12:00","2001","03","13","12:00","2.6","","-2.1","","71","","25","","32","","16.1","","97.43","","","","","","Cloudy"
"2001-03-13 13:00","2001","03","13","13:00","3.0","","-2.1","","69","","25","","32","","12.9","","97.43","","","","","","Cloudy"
"2001-03-13 14:00","2001","03","13","14:00","3.7","","-1.5","","69","","25","","24","","12.9","","97.43","","","","","","Cloudy"
"2001-03-13 15:00","2001","03","13","15:00","4.1","","-0.6","","71","","24","","28","","12.9","","97.43","","","","","","Cloudy"
"2001-03-13 16:00","2001","03","13","16:00","4.5","","-0.7","","69","","26","","39","","24.1","","97.43","","","","","","Cloudy"
"2001-03-13 17:00","2001","03","13","17:00","3.9","","-0.4","","73","","26","","30","","19.3","","97.50","","","","","","Rain Showers"
"2001-03-13 18:00","2001","03","13","18:00","3.4","","0.2","","80","","26","","19","","16.1","","97.53","","","","","","Rain Showers"
"2001-03-13 19:00","2001","03","13","19:00","2.6","","1.3","","91","","26","","15","","8.0","","97.63","","","","","","Rain,Fog"
"2001-03-13 20:00","2001","03","13","20:00","3.2","","1.2","","87","","28","","24","","19.3","","97.67","","","","","","Rain"
"2001-03-13 21:00","2001","03","13","21:00","2.7","","-1.5","","74","","29","","35","","24.1","","97.77","","","","","","Rain Showers"
"2001-03-13 22:00","2001","03","13","22:00","2.2","","-3.3","","67","","29","","24","","24.1","","97.83","","","","","","Cloudy"
"2001-03-13 23:00","2001","03","13","23:00","1.5","","-3.5","","69","","30","","39","","24.1","","97.93","","","","","","Snow Showers"
"2001-03-14 00:00","2001","03","14","00:00","1.1","","-5.1","","63","","29","","30","","24.1","","98.03","","","","","","Snow Showers"
"2001-03-14 01:00","2001","03","14","01:00","1.2","","-5.4","","61","","28","","26","","25.0","","98.10","","","","","","Mostly Cloudy"
"2001-03-14 02:00","2001","03","14","02:00","1.7","","-5.2","","60","","27","","20","","25.0","","98.13","","","","","","Cloudy"
"2001-03-14 03:00","2001","03","14","03:00","1.8","","-4.4","","63","","26","","19","","24.1","","98.20","","","","","","Cloudy"
"2001-03-14 04:00","2001","03","14","04:00","1.3","","-3.8","","69","","26","","22","","24.1","","98.23","","","","","","Snow Showers"
"2001-03-14 05:00","2001","03","14","05:00","1.3","","-3.0","","73","","26","","22","","24.1","","98.30","","","","","","Snow Showers"
"2001-03-14 06:00","2001","03","14","06:00","1.5","","-2.6","","74","","27","","19","","24.1","","98.43","","","","","","Snow Showers"
"2001-03-14 07:00","2001","03","14","07:00","1.9","","-3.0","","70","","28","","20","","12.9","","98.53","","","","","","Mostly Cloudy"
"2001-03-14 08:00","2001","03","14","08:00","2.4","","-3.2","","66","","27","","28","","19.3","","98.63","","","","","","Clear"
"2001-03-14 09:00","2001","03","14","09:00","3.1","","-2.6","","66","","27","","32","","24.1","","98.70","","","","","","Mainly Clear"
"2001-03-14 10:00","2001","03","14","10:00","4.4","","-2.6","","60","","27","","26","","24.1","","98.70","","","","","","Mainly Clear"
"2001-03-14 11:00","2001","03","14","11:00","5.1","","-2.8","","57","","26","","26","","24.1","","98.73","","","","","","Mostly Cloudy"
"2001-03-14 12:00","2001","03","14","12:00","6.4","","-2.7","","52","","27","","26","","24.1","","98.76","","","","","","Mainly Clear"
"2001-03-14 13:00","2001","03","14","13:00","7.8","","-2.9","","47","","27","","28","","24.1","","98.76","","","","","","Clear"
"2001-03-14 14:00","2001","03","14","14:00","8.8","","-2.4","","45","","25","","28","","24.1","","98.73","","","","","","Clear"
"2001-03-14 15:00","2001","03","14","15:00","9.8","","-1.9","","44","","27","","33","","24.1","","98.73","","","","","","Clear"
"2001-03-14 16:00","2001","03","14","16:00","10.0","","-3.0","","40","","25","","32","","24.1","","98.76","","","","","","Mainly Clear"
"2001-03-14 17:00","2001","03","14","17:00","10.0","","-3.2","","39","","29","","22","","24.1","","98.80","","","","","","Mostly Cloudy"
"2001-03-14 18:00","2001","03","14","18:00","9.6","","-3.4","","40","","29","","20","","24.1","","98.86","","","","","","Mostly Cloudy"
"2001-03-14 19:00","2001","03","14","19:00","8.6","","-3.0","","44","","27","","9","","19.3","","98.93","","","","","","Mainly Clear"
"2001-03-14 20:00","2001","03","14","20:00","7.4","","-1.6","","53","","25","","4","","24.1","","98.96","","","","","","Mostly Cloudy"
"2001-03-14 21:00","2001","03","14","21:00","6.6","","0.2","","64","","21","","7","","24.1","","98.96","","","","","","Mostly Cloudy"
"2001-03-14 22:00","2001","03","14","22:00","5.6","","0.4","","69","","16","","6","","24.1","","98.90","","","","","","Mostly Cloudy"
"2001-03-14 23:00","2001","03","14","23:00","4.9","","0.9","","75","","","","0","","24.1","","98.86","","","","","","Mostly Cloudy"
"2001-03-15 00:00","2001","03","15","00:00","4.5","","1.2","","79","","18","","7","","24.1","","98.90","","","","","","Mostly Cloudy"
"2001-03-15 01:00","2001","03","15","01:00","4.7","","0.9","","76","","","","0","","24.1","","98.86","","","","","","Cloudy"
"2001-03-15 02:00","2001","03","15","02:00","4.1","","0.8","","79","","","","0","","24.1","","98.96","","","","","","Mostly Cloudy"
"2001-03-15 03:00","2001","03","15","03:00","3.3","","0.7","","83","","","","0","","19.3","","98.90","","","","","","Cloudy"
"2001-03-15 04:00","2001","03","15","04:00","1.6","","0.1","","90","","12","","4","","19.3","","98.86","","","","","","Mostly Cloudy"
"2001-03-15 05:00","2001","03","15","05:00","1.1","","-0.5","","89","","5","","7","","19.3","","98.86","","","","","","Mainly Clear"
"2001-03-15 06:00","2001","03","15","06:00","1.5","","-0.1","","89","","11","","4","","16.1","","98.93","","","","","","Mainly Clear"
"2001-03-15 07:00","2001","03","15","07:00","1.1","","-0.6","","88","","2","","9","","6.4","","98.90","","","","","","Fog"
"2001-03-15 08:00","2001","03","15","08:00","2.5","","1.2","","91","","6","","13","","9.7","","98.90","","","","","","Fog"
"2001-03-15 09:00","2001","03","15","09:00","4.4","","1.7","","83","","9","","19","","9.7","","98.86","","","","","","Haze"
"2001-03-15 10:00","2001","03","15","10:00","4.8","","0.5","","74","","6","","24","","16.1","","98.86","","","","","","Cloudy"
"2001-03-15 11:00","2001","03","15","11:00","5.6","","1.1","","73","","5","","24","","24.1","","98.86","","","","","","Cloudy"
"2001-03-15 12:00","2001","03","15","12:00","5.8","","1.6","","74","","5","","15","","24.1","","98.86","","","","","","Cloudy"
"2001-03-15 13:00","2001","03","15","13:00","6.2","","1.6","","72","","4","","22","","24.1","","98.93","","","","","","Cloudy"
"2001-03-15 14:00","2001","03","15","14:00","6.4","","2.5","","76","","4","","24","","24.1","","98.90","","","","","","Rain Showers"
"2001-03-15 15:00","2001","03","15","15:00","5.7","","1.6","","75","","4","","32","","24.1","","98.86","","","","","","Cloudy"
"2001-03-15 16:00","2001","03","15","16:00","4.6","","1.9","","83","","4","","30","","19.3","","98.86","","","","","","Rain Showers"
"2001-03-15 17:00","2001","03","15","17:00","4.2","","1.6","","83","","4","","28","","24.1","","98.86","","","","","","Rain Showers"
"2001-03-15 18:00","2001","03","15","18:00","2.6","","0.3","","85","","4","","28","","14.5","","98.90","","","","","","Cloudy"
"2001-03-15 19:00","2001","03","15","19:00","2.2","","-0.7","","81","","4","","24","","19.3","","98.93","","","","","","Cloudy"
"2001-03-15 20:00","2001","03","15","20:00","1.6","","-1.0","","83","","5","","32","","24.1","","98.96","","","","","","Mostly Cloudy"
"2001-03-15 21:00","2001","03","15","21:00","1.2","","-2.4","","77","","4","","32","","24.1","","99.00","","","","","","Cloudy"
"2001-03-15 22:00","2001","03","15","22:00","1.0","","-2.3","","79","","4","","35","","24.1","","99.06","","","","","","Cloudy"
"2001-03-15 23:00","2001","03","15","23:00","1.0","","-2.9","","75","","4","","28","","24.1","","99.06","","","","","","Cloudy"
"2001-03-16 00:00","2001","03","16","00:00","0.8","","-2.8","","77","","4","","20","","24.1","","99.03","","","","","","Cloudy"
"2001-03-16 01:00","2001","03","16","01:00","0.7","","-2.3","","80","","4","","26","","24.1","","99.00","","","","","","Cloudy"
"2001-03-16 02:00","2001","03","16","02:00","0.6","","-2.3","","81","","4","","28","","24.1","","98.96","","","","","","Cloudy"
"2001-03-16 03:00","2001","03","16","03:00","0.6","","-2.0","","83","","4","","32","","24.1","","98.96","","","","","","Cloudy"
"2001-03-16 04:00","2001","03","16","04:00","0.7","","-2.1","","81","","4","","26","","24.1","","98.90","","","","","","Cloudy"
"2001-03-16 05:00","2001","03","16","05:00","0.8","","-3.0","","76","","5","","30","","24.1","","98.86","","","","","","Cloudy"
"2001-03-16 06:00","2001","03","16","06:00","0.8","","-3.5","","73","","5","","28","","24.1","","98.93","","","","","","Cloudy"
"2001-03-16 07:00","2001","03","16","07:00","0.8","","-3.9","","71","","5","","33","","16.1","","98.86","","","","","","Cloudy"
"2001-03-16 08:00","2001","03","16","08:00","0.9","","-3.8","","71","","5","","35","","24.1","","98.83","","","","","","Snow"
"2001-03-16 09:00","2001","03","16","09:00","1.1","","-4.0","","69","","6","","37","","24.1","","98.80","","","","","","Snow"
"2001-03-16 10:00","2001","03","16","10:00","1.6","","-4.1","","66","","6","","39","","16.1","","98.76","","","","","","Snow"
"2001-03-16 11:00","2001","03","16","11:00","0.6","","-2.7","","79","","6","","39","","1.2","","98.80","","","","","","Snow"
"2001-03-16 12:00","2001","03","16","12:00","-0.4","","-1.4","","93","","5","","33","","0.8","","98.73","","","","-7","","Moderate Snow"
"2001-03-16 13:00","2001","03","16","13:00","-0.4","","-1.1","","95","","4","","32","","0.8","","98.70","","","","-7","","Moderate Snow"
"2001-03-16 14:00","2001","03","16","14:00","-0.3","","-0.9","","96","","5","","35","","0.8","","98.63","","","","-7","","Moderate Snow"
"2001-03-16 15:00","2001","03","16","15:00","-0.3","","-1.0","","95","","5","","33","","1.0","","98.63","","","","-7","","Snow"
"2001-03-16 16:00","2001","03","16","16:00","-0.3","","-1.0","","95","","5","","32","","3.6","","98.66","","","","-7","","Snow"
"2001-03-16 17:00","2001","03","16","17:00","-0.2","","-1.2","","93","","5","","26","","19.3","","98.73","","","","-6","","Snow"
"2001-03-16 18:00","2001","03","16","18:00","-0.1","","-2.4","","84","","4","","33","","19.3","","98.76","","","","-7","","Cloudy"
"2001-03-16 19:00","2001","03","16","19:00","0.2","","-2.9","","80","","4","","32","","19.3","","98.86","","","","","","Cloudy"
"2001-03-16 20:00","2001","03","16","20:00","0.0","","-3.1","","80","","4","","30","","19.3","","98.93","","","","-6","","Snow Showers"
"2001-03-16 21:00","2001","03","16","21:00","0.1","","-3.9","","74","","4","","28","","19.3","","99.00","","","","","","Snow Showers"
"2001-03-16 22:00","2001","03","16","22:00","-0.3","","-4.1","","75","","4","","26","","19.3","","99.06","","","","-6","","Snow Showers"
"2001-03-16 23:00","2001","03","16","23:00","0.1","","-5.0","","69","","4","","30","","19.3","","99.06","","","","","","Snow Showers"
"2001-03-17 00:00","2001","03","17","00:00"
"2001-03-17 01:00","2001","03","17","01:00","-0.1","","-4.4","","73","","3","","20","","24.1","","99.13","","","","-5","","Snow Showers"
"2001-03-17 02:00","2001","03","17","02:00","-0.1","","-4.8","","71","","3","","20","","24.1","","99.16","","","","-5","","Snow Showers"
"2001-03-17 03:00","2001","03","17","03:00","-0.2","","-4.6","","72","","3","","19","","24.1","","99.16","","","","-5","","Snow Showers"
"2001-03-17 04:00","2001","03","17","04:00","-0.2","","-5.0","","70","","3","","20","","24.1","","99.20","","","","-5","","Snow Showers"
"2001-03-17 05:00","2001","03","17","05:00","-0.3","","-5.1","","70","","3","","20","","24.1","","99.26","","","","-6","","Snow"
"2001-03-17 06:00","2001","03","17","06:00","-1.0","","-4.3","","78","","36","","15","","4.8","","99.33","","","","-6","","Snow"
"2001-03-17 07:00","2001","03","17","07:00","-2.1","","-3.3","","91","","36","","17","","1.0","","99.40","","","","-7","","Snow"
"2001-03-17 08:00","2001","03","17","08:00","-2.4","","-3.4","","93","","36","","20","","1.0","","99.43","","","","-8","","Snow"
"2001-03-17 09:00","2001","03","17","09:00","-2.5","","-3.3","","94","","1","","17","","1.2","","99.50","","","","-8","","Snow"
"2001-03-17 10:00","2001","03","17","10:00","-2.2","","-3.9","","88","","2","","24","","1.6","","99.56","","","","-9","","Snow"
"2001-03-17 11:00","2001","03","17","11:00","-2.0","","-3.7","","88","","3","","20","","2.4","","99.60","","","","-8","","Snow"
"2001-03-17 12:00","2001","03","17","12:00","-1.4","","-3.4","","86","","36","","19","","3.2","","99.63","","","","-7","","Snow"
"2001-03-17 13:00","2001","03","17","13:00","-1.1","","-3.3","","85","","35","","24","","2.4","","99.70","","","","-7","","Snow"
"2001-03-17 14:00","2001","03","17","14:00","-1.1","","-2.8","","88","","34","","24","","1.6","","99.70","","","","-7","","Snow"
"2001-03-17 15:00","2001","03","17","15:00","-0.5","","-2.1","","89","","35","","11","","1.2","","99.73","","","","-4","","Snow"
"2001-03-17 16:00","2001","03","17","16:00","-0.1","","-2.3","","85","","1","","9","","4.0","","99.80","","","","-3","","Snow"
"2001-03-17 17:00","2001","03","17","17:00","0.5","","-1.9","","84","","36","","19","","24.1","","99.83","","","","","","Mostly Cloudy"
"2001-03-17 18:00","2001","03","17","18:00","0.2","","-5.2","","67","","33","","24","","24.1","","99.90","","","","","","Mostly Cloudy"
"2001-03-17 19:00","2001","03","17","19:00","-0.7","","-6.2","","66","","36","","20","","24.1","","99.99","","","","-6","","Mostly Cloudy"
"2001-03-17 20:00","2001","03","17","20:00","-1.1","","-6.2","","68","","35","","13","","25.0","","100.09","","","","-5","","Mainly Clear"
"2001-03-17 21:00","2001","03","17","21:00","-1.8","","-6.3","","71","","1","","9","","25.0","","100.16","","","","-5","","Mainly Clear"
"2001-03-17 22:00","2001","03","17","22:00","-2.5","","-6.5","","74","","36","","11","","25.0","","100.23","","","","-7","","Mostly Cloudy"
"2001-03-17 23:00","2001","03","17","23:00","-3.0","","-6.7","","76","","34","","9","","24.1","","100.26","","","","-7","","Clear"
"2001-03-18 00:00","2001","03","18","00:00","-3.6","","-7.1","","77","","33","","11","","24.1","","100.29","","","","-8","","Clear"
"2001-03-18 01:00","2001","03","18","01:00","-3.2","","-7.7","","71","","33","","11","","24.1","","100.36","","","","-7","","Clear"
"2001-03-18 02:00","2001","03","18","02:00","-4.4","","-7.5","","79","","28","","13","","24.1","","100.39","","","","-9","","Clear"
"2001-03-18 03:00","2001","03","18","03:00","-4.7","","-8.0","","78","","28","","9","","24.1","","100.39","","","","-9","","Clear"
"2001-03-18 04:00","2001","03","18","04:00","-4.9","","-8.3","","77","","32","","11","","24.1","","100.43","","","","-9","","Clear"
"2001-03-18 05:00","2001","03","18","05:00","-4.6","","-8.3","","75","","33","","15","","24.1","","100.49","","","","-10","","Clear"
"2001-03-18 06:00","2001","03","18","06:00","-4.3","","-8.7","","71","","33","","13","","24.1","","100.53","","","","-9","","Clear"
"2001-03-18 07:00","2001","03","18","07:00","-4.3","","-8.9","","70","","34","","13","","24.1","","100.59","","","","-9","","Clear"
"2001-03-18 08:00","2001","03","18","08:00","-2.8","","-8.5","","65","","34","","9","","24.1","","100.66","","","","-6","","Clear"
"2001-03-18 09:00","2001","03","18","09:00","-1.0","","-8.0","","59","","31","","6","","24.1","","100.73","","","","-3","","Clear"
"2001-03-18 10:00","2001","03","18","10:00","0.9","","-7.0","","55","","33","","4","","24.1","","100.76","","","","","","Clear"
"2001-03-18 11:00","2001","03","18","11:00","3.2","","-4.4","","57","","15","","4","","24.1","","100.79","","","","","","Clear"
"2001-03-18 12:00","2001","03","18","12:00","3.0","","-5.6","","53","","18","","7","","24.1","","100.79","","","","","","Clear"
"2001-03-18 13:00","2001","03","18","13:00","3.6","","-5.0","","53","","16","","11","","24.1","","100.79","","","","","","Clear"
"2001-03-18 14:00","2001","03","18","14:00","5.0","","-4.4","","51","","16","","11","","24.1","","100.76","","","","","","Clear"
"2001-03-18 15:00","2001","03","18","15:00","5.2","","-3.6","","53","","17","","11","","24.1","","100.73","","","","","","Clear"
"2001-03-18 16:00","2001","03","18","16:00","5.0","","-3.4","","55","","17","","15","","24.1","","100.73","","","","","","Clear"
"2001-03-18 17:00","2001","03","18","17:00","4.1","","-3.6","","57","","19","","15","","24.1","","100.76","","","","","","Clear"
"2001-03-18 18:00","2001","03","18","18:00","3.1","","-5.5","","53","","19","","13","","24.1","","100.76","","","","","","Clear"
"2001-03-18 19:00","2001","03","18","19:00","1.8","","-5.4","","59","","21","","11","","24.1","","100.76","","","","","","Clear"
"2001-03-18 20:00","2001","03","18","20:00","0.5","","-5.1","","66","","21","","9","","24.1","","100.79","","","","","","Clear"
"2001-03-18 21:00","2001","03","18","21:00","-0.1","","-5.0","","70","","21","","6","","24.1","","100.79","","","","-2","","Clear"
"2001-03-18 22:00","2001","03","18","22:00","0.0","","-5.1","","68","","24","","4","","24.1","","100.79","","","","-1","","Clear"
"2001-03-18 23:00","2001","03","18","23:00","-0.3","","-5.9","","66","","23","","6","","24.1","","100.79","","","","-2","","Clear"
"2001-03-19 00:00","2001","03","19","00:00","-1.2","","-5.5","","73","","21","","6","","24.1","","100.79","","","","-3","","Clear"
"2001-03-19 01:00","2001","03","19","01:00","-1.3","","-5.2","","75","","24","","6","","24.1","","100.79","","","","-4","","Clear"
"2001-03-19 02:00","2001","03","19","02:00","-2.2","","-4.9","","82","","22","","7","","24.1","","100.79","","","","-5","","Clear"
"2001-03-19 03:00","2001","03","19","03:00","-1.7","","-4.5","","81","","24","","9","","24.1","","100.79","","","","-5","","Clear"
"2001-03-19 04:00","2001","03","19","04:00","-2.4","","-5.1","","82","","23","","7","","24.1","","100.76","","","","-5","","Clear"
"2001-03-19 05:00","2001","03","19","05:00","-3.3","","-5.3","","86","","","","0","","24.1","","100.79","","","","","","Clear"
"2001-03-19 06:00","2001","03","19","06:00","-3.6","","-5.5","","87","","","","0","","24.1","","100.83","","","","","","Clear"
"2001-03-19 07:00","2001","03","19","07:00","-3.0","","-5.0","","86","","22","","4","","24.1","","100.89","","","","-5","","Clear"
"2001-03-19 08:00","2001","03","19","08:00","0.1","","-3.8","","75","","23","","4","","24.1","","100.93","","","","","","Clear"
"2001-03-19 09:00","2001","03","19","09:00","3.0","","-3.8","","61","","23","","4","","24.1","","100.93","","","","","","Mainly Clear"
"2001-03-19 10:00","2001","03","19","10:00","5.1","","-7.1","","41","","","","0","","24.1","","100.93","","","","","","Mainly Clear"
"2001-03-19 11:00","2001","03","19","11:00","6.7","","-6.2","","39","","14","","4","","24.1","","100.89","","","","","","Mostly Cloudy"
"2001-03-19 12:00","2001","03","19","12:00","7.2","","-5.2","","41","","17","","7","","24.1","","100.93","","","","","","Mainly Clear"
"2001-03-19 13:00","2001","03","19","13:00","7.7","","-5.2","","40","","14","","11","","24.1","","100.89","","","","","","Mostly Cloudy"
"2001-03-19 14:00","2001","03","19","14:00","8.0","","-5.1","","39","","14","","11","","24.1","","100.79","","","","","","Mostly Cloudy"
"2001-03-19 15:00","2001","03","19","15:00","7.8","","-6.1","","37","","14","","9","","24.1","","100.73","","","","","","Mostly Cloudy"
"2001-03-19 16:00","2001","03","19","16:00","7.8","","-6.1","","37","","10","","15","","24.1","","100.69","","","","","","Mostly Cloudy"
"2001-03-19 17:00","2001","03","19","17:00","6.8","","-6.4","","38","","12","","13","","24.1","","100.66","","","","","","Mostly Cloudy"
"2001-03-19 18:00","2001","03","19","18:00","6.0","","-5.2","","44","","9","","9","","24.1","","100.69","","","","","","Cloudy"
"2001-03-19 19:00","2001","03","19","19:00","4.6","","-4.2","","53","","7","","11","","24.1","","100.66","","","","","","Mostly Cloudy"
"2001-03-19 20:00","2001","03","19","20:00","3.5","","-3.1","","62","","8","","11","","24.1","","100.59","","","","","","Mostly Cloudy"
"2001-03-19 21:00","2001","03","19","21:00","2.5","","-3.4","","65","","7","","15","","24.1","","100.56","","","","","","Mostly Cloudy"
"2001-03-19 22:00","2001","03","19","22:00","2.5","","-3.2","","66","","7","","9","","24.1","","100.59","","","","","","Mostly Cloudy"
"2001-03-19 23:00","2001","03","19","23:00","1.5","","-2.5","","75","","7","","11","","24.1","","100.56","","","","","","Mostly Cloudy"
"2001-03-20 00:00","2001","03","20","00:00","1.9","","-4.7","","62","","10","","13","","24.1","","100.56","","","","","","Mainly Clear"
"2001-03-20 01:00","2001","03","20","01:00","2.0","","-6.3","","54","","9","","15","","24.1","","100.59","","","","","","Mostly Cloudy"
"2001-03-20 02:00","2001","03","20","02:00","1.4","","-5.1","","62","","9","","13","","24.1","","100.59","","","","","","Mostly Cloudy"
"2001-03-20 03:00","2001","03","20","03:00","0.8","","-4.3","","69","","9","","9","","24.1","","100.49","","","","","","Mostly Cloudy"
"2001-03-20 04:00","2001","03","20","04:00","0.1","","-3.9","","74","","9","","11","","24.1","","100.39","","","","","","Mainly Clear"
"2001-03-20 05:00","2001","03","20","05:00","1.0","","-4.0","","69","","9","","17","","24.1","","100.39","","","","","","Mostly Cloudy"
"2001-03-20 06:00","2001","03","20","06:00","0.8","","-4.0","","70","","9","","19","","24.1","","100.43","","","","","","Mostly Cloudy"
"2001-03-20 07:00","2001","03","20","07:00","0.4","","-3.6","","74","","7","","15","","24.1","","100.43","","","","","","Mostly Cloudy"
"2001-03-20 08:00","2001","03","20","08:00","1.8","","-2.2","","75","","7","","15","","24.1","","100.39","","","","","","Mostly Cloudy"
"2001-03-20 09:00","2001","03","20","09:00","3.2","","-3.2","","63","","9","","13","","24.1","","100.43","","","","","","Mostly Cloudy"
"2001-03-20 10:00","2001","03","20","10:00","4.6","","-1.7","","64","","11","","19","","24.1","","100.43","","","","","","Mostly Cloudy"
"2001-03-20 11:00","2001","03","20","11:00","6.6","","-1.7","","55","","12","","15","","24.1","","100.39","","","","","","Mostly Cloudy"
"2001-03-20 12:00","2001","03","20","12:00","7.3","","-1.2","","55","","13","","13","","24.1","","100.33","","","","","","Cloudy"
"2001-03-20 13:00","2001","03","20","13:00","8.4","","-1.2","","51","","12","","11","","24.1","","100.29","","","","","","Cloudy"
"2001-03-20 14:00","2001","03","20","14:00","8.4","","-1.6","","49","","13","","17","","24.1","","100.16","","","","","","Cloudy"
"2001-03-20 15:00","2001","03","20","15:00","9.1","","-0.8","","50","","13","","19","","24.1","","100.09","","","","","","Cloudy"
"2001-03-20 16:00","2001","03","20","16:00","9.0","","-1.0","","49","","11","","13","","24.1","","100.13","","","","","","Cloudy"
"2001-03-20 17:00","2001","03","20","17:00","8.4","","-2.2","","47","","12","","17","","24.1","","100.06","","","","","","Cloudy"
"2001-03-20 18:00","2001","03","20","18:00","7.6","","-1.5","","52","","11","","15","","24.1","","100.06","","","","","","Cloudy"
"2001-03-20 19:00","2001","03","20","19:00","5.8","","0.0","","66","","8","","11","","16.1","","100.06","","","","","","Cloudy"
"2001-03-20 20:00","2001","03","20","20:00","4.9","","-1.2","","65","","9","","9","","16.1","","100.09","","","","","","Cloudy"
"2001-03-20 21:00","2001","03","20","21:00","3.2","","-2.3","","67","","7","","9","","24.1","","100.09","","","","","","Mainly Clear"
"2001-03-20 22:00","2001","03","20","22:00","2.2","","-2.6","","71","","6","","11","","25.0","","100.06","","","","","","Mainly Clear"
"2001-03-20 23:00","2001","03","20","23:00","1.8","","-2.6","","73","","5","","13","","25.0","","99.99","","","","","","Mainly Clear"
"2001-03-21 00:00","2001","03","21","00:00","1.5","","-2.1","","77","","7","","9","","24.1","","99.96","","","","","","Mainly Clear"
"2001-03-21 01:00","2001","03","21","01:00","1.0","","-2.2","","79","","5","","13","","24.1","","99.86","","","","","","Mostly Cloudy"
"2001-03-21 02:00","2001","03","21","02:00","1.1","","-1.7","","82","","7","","11","","24.1","","99.83","","","","","","Mostly Cloudy"
"2001-03-21 03:00","2001","03","21","03:00","0.4","","-1.7","","86","","5","","11","","24.1","","99.76","","","","","","Mostly Cloudy"
"2001-03-21 04:00","2001","03","21","04:00","1.1","","-1.2","","85","","8","","6","","24.1","","99.80","","","","","","Mostly Cloudy"
"2001-03-21 05:00","2001","03","21","05:00","0.6","","-2.0","","83","","9","","7","","24.1","","99.80","","","","","","Mainly Clear"
"2001-03-21 06:00","2001","03","21","06:00","0.4","","-2.2","","83","","1","","9","","24.1","","99.76","","","","","","Mostly Cloudy"
"2001-03-21 07:00","2001","03","21","07:00","0.1","","-1.8","","87","","3","","6","","19.3","","99.76","","","","","","Mostly Cloudy"
"2001-03-21 08:00","2001","03","21","08:00","1.4","","-0.1","","90","","5","","7","","12.9","","99.73","","","","","","Mostly Cloudy"
"2001-03-21 09:00","2001","03","21","09:00","3.3","","0.7","","83","","8","","9","","12.9","","99.70","","","","","","Mostly Cloudy"
"2001-03-21 10:00","2001","03","21","10:00"
"2001-03-21 11:00","2001","03","21","11:00","5.6","","0.0","","67","","3","","9","","19.3","","99.70","","","","","","Mostly Cloudy"
"2001-03-21 12:00","2001","03","21","12:00","5.5","","-0.7","","64","","2","","11","","24.1","","99.63","","","","","","Mostly Cloudy"
"2001-03-21 13:00","2001","03","21","13:00","6.5","","-1.5","","57","","7","","13","","24.1","","99.60","","","","","","Mostly Cloudy"
"2001-03-21 14:00","2001","03","21","14:00","7.4","","-2.1","","51","","6","","11","","24.1","","99.50","","","","","","Mostly Cloudy"
"2001-03-21 15:00","2001","03","21","15:00","8.6","","-1.6","","49","","5","","15","","24.1","","99.46","","","","","","Mostly Cloudy"
"2001-03-21 16:00","2001","03","21","16:00","9.2","","-3.0","","42","","3","","15","","19.3","","99.46","","","","","","Mostly Cloudy"
"2001-03-21 17:00","2001","03","21","17:00","9.8","","-2.7","","41","","5","","17","","16.1","","99.43","","","","","","Mostly Cloudy"
"2001-03-21 18:00","2001","03","21","18:00","8.7","","-0.9","","51","","7","","13","","12.9","","99.43","","","","","","Mainly Clear"
"2001-03-21 19:00","2001","03","21","19:00","5.7","","-0.8","","63","","7","","15","","9.7","","99.46","","","","","","Haze"
"2001-03-21 20:00","2001","03","21","20:00","4.2","","-1.2","","68","","5","","13","","19.3","","99.46","","","","","","Mainly Clear"
"2001-03-21 21:00","2001","03","21","21:00","3.7","","-3.5","","59","","4","","20","","24.1","","99.46","","","","","","Mainly Clear"
"2001-03-21 22:00","2001","03","21","22:00","2.5","","-2.6","","69","","6","","11","","24.1","","99.46","","","","","","Mainly Clear"
"2001-03-21 23:00","2001","03","21","23:00","1.1","","-2.1","","79","","7","","7","","24.1","","99.46","","","","","","Clear"
"2001-03-22 00:00","2001","03","22","00:00","1.9","","-4.2","","64","","36","","7","","24.1","","99.46","","","","","","Clear"
"2001-03-22 01:00","2001","03","22","01:00","1.1","","-3.6","","71","","36","","11","","19.3","","99.43","","","","","","Clear"
"2001-03-22 02:00","2001","03","22","02:00","0.8","","-4.0","","70","","36","","11","","19.3","","99.43","","","","","","Clear"
"2001-03-22 03:00","2001","03","22","03:00","1.4","","-4.2","","66","","1","","15","","19.3","","99.40","","","","","","Clear"
"2001-03-22 04:00","2001","03","22","04:00","1.3","","-4.2","","67","","36","","17","","19.3","","99.40","","","","","","Clear"
"2001-03-22 05:00","2001","03","22","05:00","1.1","","-4.1","","68","","36","","15","","19.3","","99.43","","","","","","Clear"
"2001-03-22 06:00","2001","03","22","06:00","0.8","","-4.2","","69","","36","","13","","19.3","","99.43","","","","","","Clear"
"2001-03-22 07:00","2001","03","22","07:00","0.7","","-3.7","","72","","35","","15","","19.3","","99.46","","","","","","Clear"
"2001-03-22 08:00","2001","03","22","08:00","2.3","","-2.6","","70","","36","","13","","12.9","","99.46","","","","","","Clear"
"2001-03-22 09:00","2001","03","22","09:00","5.0","","-2.1","","60","","34","","11","","16.1","","99.46","","","","","","Clear"
"2001-03-22 10:00","2001","03","22","10:00","7.2","","-2.7","","49","","36","","17","","19.3","","99.50","","","","","","Clear"
"2001-03-22 11:00","2001","03","22","11:00","9.2","","-3.3","","41","","4","","22","","24.1","","99.50","","","","","","Clear"
"2001-03-22 12:00","2001","03","22","12:00","10.0","","-3.3","","39","","5","","17","","24.1","","99.43","","","","","","Clear"
"2001-03-22 13:00","2001","03","22","13:00","10.5","","-2.6","","40","","6","","11","","24.1","","99.40","","","","","","Clear"
"2001-03-22 14:00","2001","03","22","14:00","11.7","","-3.5","","34","","4","","11","","25.0","","99.33","","","","","","Clear"
"2001-03-22 15:00","2001","03","22","15:00","12.3","","-4.4","","31","","4","","11","","25.0","","99.30","","","","","","Clear"
"2001-03-22 16:00","2001","03","22","16:00","12.1","","-3.2","","34","","8","","15","","25.0","","99.23","","","","","","Clear"
"2001-03-22 17:00","2001","03","22","17:00","11.5","","-3.2","","36","","9","","15","","24.1","","99.23","","","","","","Mainly Clear"
"2001-03-22 18:00","2001","03","22","18:00","10.7","","-2.8","","39","","13","","7","","16.1","","99.23","","","","","","Mainly Clear"
"2001-03-22 19:00","2001","03","22","19:00","8.7","","-1.7","","48","","17","","6","","16.1","","99.23","","","","","","Mainly Clear"
"2001-03-22 20:00","2001","03","22","20:00","6.7","","-1.5","","56","","8","","7","","25.0","","99.26","","","","","","Mainly Clear"
"2001-03-22 21:00","2001","03","22","21:00","6.1","","-1.1","","60","","10","","13","","25.0","","99.26","","","","","","Mainly Clear"
"2001-03-22 22:00","2001","03","22","22:00","5.4","","-1.0","","63","","10","","4","","24.1","","99.23","","","","","","Mainly Clear"
"2001-03-22 23:00","2001","03","22","23:00","3.3","","-1.1","","73","","","","0","","24.1","","99.16","","","","","","Mainly Clear"
"2001-03-23 00:00","2001","03","23","00:00","2.7","","-1.4","","74","","21","","4","","25.0","","99.13","","","","","","Mainly Clear"
"2001-03-23 01:00","2001","03","23","01:00","3.4","","-1.8","","69","","26","","11","","25.0","","99.13","","","","","","Mainly Clear"
"2001-03-23 02:00","2001","03","23","02:00","3.5","","-2.2","","66","","28","","11","","25.0","","99.06","","","","","","Mainly Clear"
"2001-03-23 03:00","2001","03","23","03:00","4.1","","-3.5","","58","","29","","11","","25.0","","99.03","","","","","","Mainly Clear"
"2001-03-23 04:00","2001","03","23","04:00","3.6","","-3.9","","58","","28","","15","","25.0","","99.00","","","","","","Mainly Clear"
"2001-03-23 05:00","2001","03","23","05:00","2.6","","-3.9","","62","","28","","17","","25.0","","98.96","","","","","","Clear"
"2001-03-23 06:00","2001","03","23","06:00","2.4","","-3.8","","64","","29","","19","","25.0","","99.00","","","","","","Mainly Clear"
"2001-03-23 07:00","2001","03","23","07:00","2.2","","-4.0","","64","","32","","15","","24.1","","99.06","","","","","","Mainly Clear"
"2001-03-23 08:00","2001","03","23","08:00","3.7","","-3.9","","58","","30","","15","","24.1","","99.10","","","","","","Mainly Clear"
"2001-03-23 09:00","2001","03","23","09:00","5.9","","-3.4","","51","","33","","19","","24.1","","99.13","","","","","","Mostly Cloudy"
"2001-03-23 10:00","2001","03","23","10:00","7.1","","-4.0","","45","","31","","20","","24.1","","99.16","","","","","","Mainly Clear"
"2001-03-23 11:00","2001","03","23","11:00","8.7","","-3.3","","43","","32","","20","","24.1","","99.16","","","","","","Clear"
"2001-03-23 12:00","2001","03","23","12:00","9.0","","-3.2","","42","","30","","28","","24.1","","99.13","","","","","","Mainly Clear"
"2001-03-23 13:00","2001","03","23","13:00","10.1","","-3.4","","38","","31","","22","","24.1","","99.10","","","","","","Mainly Clear"
"2001-03-23 14:00","2001","03","23","14:00","10.7","","-6.1","","30","","33","","13","","24.1","","99.06","","","","","","Mainly Clear"
"2001-03-23 15:00","2001","03","23","15:00","11.8","","-4.8","","31","","31","","17","","24.1","","99.03","","","","","","Mostly Cloudy"
"2001-03-23 16:00","2001","03","23","16:00","12.1","","-3.9","","32","","29","","24","","19.3","","99.03","","","","","","Mostly Cloudy"
"2001-03-23 17:00","2001","03","23","17:00","10.8","","-4.1","","35","","30","","20","","16.1","","99.00","","","","","","Mostly Cloudy"
"2001-03-23 18:00","2001","03","23","18:00","10.1","","-4.4","","36","","30","","19","","14.5","","98.96","","","","","","Mainly Clear"
"2001-03-23 19:00","2001","03","23","19:00","9.2","","-3.6","","40","","26","","19","","12.9","","99.00","","","","","","Mostly Cloudy"
"2001-03-23 20:00","2001","03","23","20:00","8.4","","-3.1","","44","","25","","11","","24.1","","98.96","","","","","","Mainly Clear"
"2001-03-23 21:00","2001","03","23","21:00","6.6","","-2.4","","53","","25","","15","","25.0","","98.93","","","","","","Mainly Clear"
"2001-03-23 22:00","2001","03","23","22:00","7.1","","-3.5","","47","","30","","19","","25.0","","98.90","","","","","","Mostly Cloudy"
"2001-03-23 23:00","2001","03","23","23:00","5.8","","-4.5","","47","","28","","22","","24.1","","98.83","","","","","","Mostly Cloudy"
"2001-03-24 00:00","2001","03","24","00:00","5.4","","-3.6","","52","","28","","19","","25.0","","98.80","","","","","","Mostly Cloudy"
"2001-03-24 01:00","2001","03","24","01:00","4.9","","-3.6","","54","","29","","15","","25.0","","98.73","","","","","","Mostly Cloudy"
"2001-03-24 02:00","2001","03","24","02:00","4.8","","-3.4","","55","","29","","17","","25.0","","98.70","","","","","","Mostly Cloudy"
"2001-03-24 03:00","2001","03","24","03:00","4.0","","-2.6","","62","","33","","15","","24.1","","98.66","","","","","","Cloudy"
"2001-03-24 04:00","2001","03","24","04:00","3.3","","-1.5","","71","","29","","20","","24.1","","98.70","","","","","","Snow Showers"
"2001-03-24 05:00","2001","03","24","05:00","2.7","","-1.7","","73","","30","","24","","24.1","","98.73","","","","","","Snow Showers"
"2001-03-24 06:00","2001","03","24","06:00","0.2","","-4.8","","69","","32","","44","","24.1","","98.86","","","","","","Snow Showers"
"2001-03-24 07:00","2001","03","24","07:00","-1.1","","-7.3","","63","","33","","28","","24.1","","98.96","","","","-8","","Mainly Clear"
"2001-03-24 08:00","2001","03","24","08:00","-1.0","","-8.4","","57","","33","","32","","24.1","","99.10","","","","-8","","Mainly Clear"
"2001-03-24 09:00","2001","03","24","09:00","-0.6","","-8.3","","56","","31","","26","","24.1","","99.13","","","","-7","","Mostly Cloudy"
"2001-03-24 10:00","2001","03","24","10:00","-0.5","","-9.5","","51","","32","","32","","24.1","","99.20","","","","-7","","Mostly Cloudy"
"2001-03-24 11:00","2001","03","24","11:00","-0.5","","-10.3","","47","","33","","26","","24.1","","99.26","","","","-7","","Mostly Cloudy"
"2001-03-24 12:00","2001","03","24","12:00","0.0","","-10.9","","44","","32","","28","","24.1","","99.30","","","","-6","","Mostly Cloudy"
"2001-03-24 13:00","2001","03","24","13:00","0.4","","-10.7","","43","","32","","32","","24.1","","99.36","","","","","","Mostly Cloudy"
"2001-03-24 14:00","2001","03","24","14:00","1.1","","-10.5","","42","","31","","32","","24.1","","99.40","","","","","","Mostly Cloudy"
"2001-03-24 15:00","2001","03","24","15:00","1.0","","-11.2","","40","","29","","35","","24.1","","99.40","","","","","","Mostly Cloudy"
"2001-03-24 16:00","2001","03","24","16:00","0.4","","-10.8","","43","","31","","20","","24.1","","99.40","","","","","","Mostly Cloudy"
"2001-03-24 17:00","2001","03","24","17:00","-0.1","","-11.0","","44","","30","","24","","24.1","","99.46","","","","-6","","Mostly Cloudy"
"2001-03-24 18:00","2001","03","24","18:00","-0.9","","-9.8","","51","","29","","30","","24.1","","99.53","","","","-8","","Mostly Cloudy"
"2001-03-24 19:00","2001","03","24","19:00","-1.6","","-9.8","","54","","30","","26","","24.1","","99.60","","","","-8","","Cloudy"
"2001-03-24 20:00","2001","03","24","20:00","-2.1","","-11.1","","50","","31","","24","","24.1","","99.63","","","","-8","","Mostly Cloudy"
"2001-03-24 21:00","2001","03","24","21:00","-2.9","","-12.9","","46","","32","","26","","25.0","","99.70","","","","-10","","Mostly Cloudy"
"2001-03-24 22:00","2001","03","24","22:00","-3.3","","-13.5","","45","","31","","22","","25.0","","99.73","","","","-10","","Mostly Cloudy"
"2001-03-24 23:00","2001","03","24","23:00","-3.7","","-13.5","","47","","31","","24","","25.0","","99.76","","","","-11","","Cloudy"
"2001-03-25 00:00","2001","03","25","00:00","-3.9","","-13.7","","46","","31","","19","","25.0","","99.73","","","","-10","","Snow Showers"
"2001-03-25 01:00","2001","03","25","01:00","-4.4","","-13.9","","47","","33","","26","","25.0","","99.73","","","","-12","","Snow Showers"
"2001-03-25 02:00","2001","03","25","02:00","-5.2","","-13.8","","51","","29","","19","","25.0","","99.73","","","","-12","","Mainly Clear"
"2001-03-25 03:00","2001","03","25","03:00","-5.7","","-15.4","","46","","31","","13","","25.0","","99.70","","","","-11","","Clear"
"2001-03-25 04:00","2001","03","25","04:00","-6.1","","-14.9","","50","","30","","11","","25.0","","99.70","","","","-11","","Clear"
"2001-03-25 05:00","2001","03","25","05:00","-6.1","","-14.0","","54","","28","","7","","25.0","","99.70","","","","-9","","Mostly Cloudy"
"2001-03-25 06:00","2001","03","25","06:00","-5.9","","-13.4","","55","","23","","7","","25.0","","99.66","","","","-9","","Mostly Cloudy"
"2001-03-25 07:00","2001","03","25","07:00","-5.4","","-12.0","","60","","23","","7","","24.1","","99.66","","","","-9","","Cloudy"
"2001-03-25 08:00","2001","03","25","08:00","-4.6","","-9.4","","69","","26","","13","","24.1","","99.63","","","","-10","","Mostly Cloudy"
"2001-03-25 09:00","2001","03","25","09:00","-3.6","","-9.6","","63","","25","","19","","24.1","","99.56","","","","-10","","Mostly Cloudy"
"2001-03-25 10:00","2001","03","25","10:00","-2.8","","-9.4","","60","","26","","20","","19.3","","99.56","","","","-9","","Mostly Cloudy"
"2001-03-25 11:00","2001","03","25","11:00","-3.1","","-5.5","","83","","25","","9","","6.4","","99.50","","","","-7","","Snow Showers"
"2001-03-25 12:00","2001","03","25","12:00","-4.5","","-6.8","","84","","29","","11","","8.0","","99.50","","","","-9","","Snow Showers"
"2001-03-25 13:00","2001","03","25","13:00","-2.8","","-7.9","","68","","27","","26","","6.4","","99.46","","","","-10","","Snow Showers"
"2001-03-25 14:00","2001","03","25","14:00","-2.3","","-10.5","","53","","29","","15","","24.1","","99.40","","","","-7","","Mostly Cloudy"
"2001-03-25 15:00","2001","03","25","15:00","-2.0","","-11.8","","47","","28","","17","","19.3","","99.36","","","","-7","","Mostly Cloudy"
"2001-03-25 16:00","2001","03","25","16:00","-2.1","","-13.3","","42","","27","","19","","24.1","","99.33","","","","-8","","Mostly Cloudy"
"2001-03-25 17:00","2001","03","25","17:00","-3.4","","-10.7","","57","","30","","28","","24.1","","99.40","","","","-11","","Cloudy"
"2001-03-25 18:00","2001","03","25","18:00","-5.6","","-8.0","","83","","31","","22","","1.6","","99.46","","","","-13","","Snow Showers"
"2001-03-25 19:00","2001","03","25","19:00","-6.1","","-9.4","","77","","31","","24","","16.1","","99.53","","","","-14","","Snow Showers"
"2001-03-25 20:00","2001","03","25","20:00","-6.1","","-11.7","","65","","28","","24","","24.1","","99.56","","","","-14","","Snow Showers"
"2001-03-25 21:00","2001","03","25","21:00","-6.9","","-10.5","","75","","29","","19","","24.1","","99.60","","","","-14","","Snow Showers"
"2001-03-25 22:00","2001","03","25","22:00","-7.0","","-11.7","","69","","33","","26","","24.1","","99.63","","","","-15","","Snow Showers"
"2001-03-25 23:00","2001","03","25","23:00","-7.5","","-11.9","","71","","31","","22","","24.1","","99.63","","","","-15","","Snow Showers"
"2001-03-26 00:00","2001","03","26","00:00","-8.3","","-13.6","","66","","31","","26","","25.0","","99.63","","","","-17","","Mainly Clear"
"2001-03-26 01:00","2001","03","26","01:00","-8.6","","-15.0","","60","","32","","32","","25.0","","99.66","","","","-18","","Snow Showers"
"2001-03-26 02:00","2001","03","26","02:00","-9.2","","-15.6","","60","","33","","19","","25.0","","99.66","","","","-17","","Mainly Clear"
"2001-03-26 03:00","2001","03","26","03:00","-9.9","","-15.8","","62","","31","","15","","25.0","","99.70","","","","-17","","Mainly Clear"
"2001-03-26 04:00","2001","03","26","04:00","-10.3","","-15.7","","65","","30","","13","","25.0","","99.73","","","","-17","","Mainly Clear"
"2001-03-26 05:00","2001","03","26","05:00","-10.5","","-15.8","","65","","30","","13","","25.0","","99.76","","","","-17","","Clear"
"2001-03-26 06:00","2001","03","26","06:00","-10.8","","-15.5","","68","","29","","15","","25.0","","99.83","","","","-18","","Mainly Clear"
"2001-03-26 07:00","2001","03","26","07:00","-10.8","","-15.2","","70","","29","","15","","25.0","","99.86","","","","-18","","Clear"
"2001-03-26 08:00","2001","03","26","08:00","-9.3","","-14.8","","64","","29","","15","","24.1","","99.93","","","","-16","","Clear"
"2001-03-26 09:00","2001","03","26","09:00","-7.6","","-14.8","","56","","29","","11","","24.1","","99.96","","","","-13","","Mainly Clear"
"2001-03-26 10:00","2001","03","26","10:00","-6.2","","-16.7","","43","","25","","11","","24.1","","99.99","","","","-11","","Mainly Clear"
"2001-03-26 11:00","2001","03","26","11:00","-4.9","","-16.8","","39","","23","","13","","24.1","","99.99","","","","-10","","Mainly Clear"
"2001-03-26 12:00","2001","03","26","12:00","-3.8","","-16.0","","38","","26","","19","","24.1","","99.96","","","","-10","","Mostly Cloudy"
"2001-03-26 13:00","2001","03","26","13:00","-3.4","","-15.1","","40","","25","","24","","24.1","","99.93","","","","-10","","Mostly Cloudy"
"2001-03-26 14:00","2001","03","26","14:00","-2.9","","-12.6","","47","","28","","22","","19.3","","99.90","","","","-9","","Cloudy"
"2001-03-26 15:00","2001","03","26","15:00","-2.4","","-12.6","","45","","30","","22","","24.1","","99.86","","","","-9","","Mostly Cloudy"
"2001-03-26 16:00","2001","03","26","16:00","-2.4","","-12.0","","48","","27","","15","","24.1","","99.86","","","","-7","","Mostly Cloudy"
"2001-03-26 17:00","2001","03","26","17:00","-2.1","","-12.4","","45","","29","","17","","24.1","","99.86","","","","-7","","Mostly Cloudy"
"2001-03-26 18:00","2001","03","26","18:00","-2.2","","-11.7","","48","","29","","19","","24.1","","99.90","","","","-8","","Mostly Cloudy"
"2001-03-26 19:00","2001","03","26","19:00","-3.0","","-9.0","","63","","23","","13","","19.3","","99.93","","","","-8","","Cloudy"
"2001-03-26 20:00","2001","03","26","20:00","-2.9","","-8.4","","66","","27","","15","","24.1","","99.96","","","","-8","","Mostly Cloudy"
"2001-03-26 21:00","2001","03","26","21:00","-3.0","","-7.7","","70","","25","","15","","12.9","","99.99","","","","-8","","Snow Showers"
"2001-03-26 22:00","2001","03","26","22:00","-3.7","","-5.9","","85","","25","","11","","6.4","","99.99","","","","-8","","Snow Showers"
"2001-03-26 23:00","2001","03","26","23:00","-3.6","","-5.5","","87","","26","","11","","4.8","","99.99","","","","-8","","Snow Showers"
"2001-03-27 00:00","2001","03","27","00:00","-3.2","","-6.7","","77","","29","","15","","16.1","","99.99","","","","-8","","Snow Showers"
"2001-03-27 01:00","2001","03","27","01:00","-3.6","","-7.6","","74","","30","","15","","24.1","","99.99","","","","-9","","Mostly Cloudy"
"2001-03-27 02:00","2001","03","27","02:00","-4.2","","-8.0","","75","","29","","15","","25.0","","99.99","","","","-10","","Clear"
"2001-03-27 03:00","2001","03","27","03:00","-4.8","","-8.3","","76","","29","","11","","25.0","","99.99","","","","-9","","Clear"
"2001-03-27 04:00","2001","03","27","04:00","-4.7","","-8.5","","75","","31","","13","","25.0","","100.03","","","","-10","","Mostly Cloudy"
"2001-03-27 05:00","2001","03","27","05:00","-5.4","","-8.7","","78","","31","","9","","25.0","","100.09","","","","-9","","Mainly Clear"
"2001-03-27 06:00","2001","03","27","06:00","-5.7","","-8.5","","81","","30","","7","","25.0","","100.13","","","","-9","","Mainly Clear"
"2001-03-27 07:00","2001","03","27","07:00","-5.4","","-7.9","","83","","28","","11","","16.1","","100.19","","","","-10","","Mainly Clear"
"2001-03-27 08:00","2001","03","27","08:00","-4.0","","-7.0","","80","","31","","11","","16.1","","100.26","","","","-8","","Mainly Clear"
"2001-03-27 09:00","2001","03","27","09:00","-2.9","","-7.5","","71","","31","","13","","19.3","","100.29","","","","-8","","Mostly Cloudy"
"2001-03-27 10:00","2001","03","27","10:00","-1.4","","-8.4","","59","","27","","9","","19.3","","100.33","","","","-5","","Mostly Cloudy"
"2001-03-27 11:00","2001","03","27","11:00","-0.4","","-8.7","","53","","29","","17","","19.3","","100.33","","","","-5","","Mostly Cloudy"
"2001-03-27 12:00","2001","03","27","12:00","-0.3","","-8.8","","53","","27","","13","","19.3","","100.29","","","","-4","","Snow Showers"
"2001-03-27 13:00","2001","03","27","13:00","-0.1","","-8.8","","52","","24","","15","","4.8","","100.29","","","","-5","","Snow Showers"
"2001-03-27 14:00","2001","03","27","14:00","0.7","","-8.5","","50","","26","","19","","19.3","","100.26","","","","","","Snow Showers"
"2001-03-27 15:00","2001","03","27","15:00","1.2","","-8.5","","48","","26","","15","","19.3","","100.23","","","","","","Snow Showers"
"2001-03-27 16:00","2001","03","27","16:00","1.5","","-8.1","","49","","27","","22","","19.3","","100.23","","","","","","Mostly Cloudy"
"2001-03-27 17:00","2001","03","27","17:00","1.9","","-7.8","","49","","27","","13","","19.3","","100.26","","","","","","Mostly Cloudy"
"2001-03-27 18:00","2001","03","27","18:00","1.9","","-8.0","","48","","27","","17","","19.3","","100.26","","","","","","Mostly Cloudy"
"2001-03-27 19:00","2001","03","27","19:00","1.5","","-8.2","","48","","25","","13","","19.3","","100.26","","","","","","Mostly Cloudy"
"2001-03-27 20:00","2001","03","27","20:00","1.0","","-7.3","","54","","23","","9","","19.3","","100.29","","","","","","Mostly Cloudy"
"2001-03-27 21:00","2001","03","27","21:00","0.5","","-7.0","","57","","21","","9","","19.3","","100.29","","","","","","Mostly Cloudy"
"2001-03-27 22:00","2001","03","27","22:00","0.4","","-7.2","","57","","23","","7","","19.3","","100.29","","","","","","Mostly Cloudy"
"2001-03-27 23:00","2001","03","27","23:00","0.5","","-7.1","","57","","24","","9","","24.1","","100.29","","","","","","Mostly Cloudy"
"2001-03-28 00:00","2001","03","28","00:00","0.1","","-7.0","","59","","23","","9","","24.1","","100.26","","","","","","Mostly Cloudy"
"2001-03-28 01:00","2001","03","28","01:00","-0.4","","-7.3","","60","","23","","9","","24.1","","100.26","","","","-4","","Mostly Cloudy"
"2001-03-28 02:00","2001","03","28","02:00","-1.4","","-7.2","","65","","25","","7","","24.1","","100.26","","","","-4","","Clear"
"2001-03-28 03:00","2001","03","28","03:00","-2.1","","-7.2","","68","","23","","6","","24.1","","100.23","","","","-4","","Clear"
"2001-03-28 04:00","2001","03","28","04:00","-2.8","","-7.1","","72","","22","","11","","24.1","","100.19","","","","-7","","Clear"
"2001-03-28 05:00","2001","03","28","05:00","-3.5","","-7.5","","74","","23","","9","","24.1","","100.16","","","","-7","","Clear"
"2001-03-28 06:00","2001","03","28","06:00","-3.6","","-7.3","","75","","23","","6","","12.9","","100.19","","","","-6","","Clear"
"2001-03-28 07:00","2001","03","28","07:00","-2.9","","-6.7","","75","","21","","6","","11.3","","100.19","","","","-5","","Clear"
"2001-03-28 08:00","2001","03","28","08:00","-0.8","","-6.3","","66","","22","","7","","11.3","","100.19","","","","-3","","Mainly Clear"
"2001-03-28 09:00","2001","03","28","09:00","1.8","","-6.0","","56","","23","","7","","11.3","","100.13","","","","","","Mainly Clear"
"2001-03-28 10:00","2001","03","28","10:00","3.1","","-7.1","","47","","24","","13","","16.1","","100.13","","","","","","Mostly Cloudy"
"2001-03-28 11:00","2001","03","28","11:00","4.5","","-7.2","","42","","25","","11","","14.5","","100.09","","","","","","Cloudy"
"2001-03-28 12:00","2001","03","28","12:00","4.9","","-7.0","","42","","25","","19","","14.5","","100.03","","","","","","Cloudy"
"2001-03-28 13:00","2001","03","28","13:00","5.9","","-6.2","","41","","22","","13","","14.5","","99.93","","","","","","Cloudy"
"2001-03-28 14:00","2001","03","28","14:00","6.4","","-5.8","","41","","20","","11","","12.9","","99.83","","","","","","Cloudy"
"2001-03-28 15:00","2001","03","28","15:00","6.7","","-5.8","","40","","19","","11","","11.3","","99.76","","","","","","Cloudy"
"2001-03-28 16:00","2001","03","28","16:00","7.1","","-5.8","","39","","22","","17","","12.9","","99.73","","","","","","Cloudy"
"2001-03-28 17:00","2001","03","28","17:00","7.2","","-5.9","","39","","22","","9","","16.1","","99.70","","","","","","Cloudy"
"2001-03-28 18:00","2001","03","28","18:00","5.9","","-5.5","","44","","16","","13","","16.1","","99.70","","","","","","Cloudy"
"2001-03-28 19:00","2001","03","28","19:00","3.9","","-5.1","","52","","14","","15","","12.9","","99.70","","","","","","Cloudy"
"2001-03-28 20:00","2001","03","28","20:00","2.4","","-4.7","","59","","13","","13","","12.9","","99.70","","","","","","Cloudy"
"2001-03-28 21:00","2001","03","28","21:00","2.1","","-5.1","","59","","13","","13","","12.9","","99.70","","","","","","Cloudy"
"2001-03-28 22:00","2001","03","28","22:00","1.9","","-4.3","","63","","14","","15","","12.9","","99.70","","","","","","Cloudy"
"2001-03-28 23:00","2001","03","28","23:00","1.5","","-4.3","","65","","13","","13","","12.9","","99.66","","","","","","Mostly Cloudy"
"2001-03-29 00:00","2001","03","29","00:00","1.6","","-3.6","","68","","12","","7","","24.1","","99.60","","","","","","Cloudy"
"2001-03-29 01:00","2001","03","29","01:00","1.6","","-3.1","","71","","12","","9","","24.1","","99.60","","","","","","Cloudy"
"2001-03-29 02:00","2001","03","29","02:00","1.7","","-2.5","","74","","8","","4","","24.1","","99.60","","","","","","Cloudy"
"2001-03-29 03:00","2001","03","29","03:00","1.0","","-2.2","","79","","4","","7","","19.3","","99.53","","","","","","Cloudy"
"2001-03-29 04:00","2001","03","29","04:00","1.3","","-2.3","","77","","4","","6","","16.1","","99.53","","","","","","Cloudy"
"2001-03-29 05:00","2001","03","29","05:00","1.9","","-1.9","","76","","2","","4","","12.9","","99.56","","","","","","Cloudy"
"2001-03-29 06:00","2001","03","29","06:00","2.2","","-1.5","","76","","36","","4","","12.9","","99.63","","","","","","Rain Showers"
"2001-03-29 07:00","2001","03","29","07:00","1.8","","-0.5","","85","","12","","6","","9.7","","99.66","","","","","","Rain Showers,Haze"
"2001-03-29 08:00","2001","03","29","08:00","2.8","","0.6","","85","","9","","4","","8.0","","99.66","","","","","","Haze"
"2001-03-29 09:00","2001","03","29","09:00","3.7","","1.1","","83","","12","","11","","8.0","","99.66","","","","","","Haze"
"2001-03-29 10:00","2001","03","29","10:00","4.8","","1.1","","77","","11","","11","","9.7","","99.63","","","","","","Haze"
"2001-03-29 11:00","2001","03","29","11:00","5.5","","1.1","","73","","11","","9","","11.3","","99.60","","","","","","Cloudy"
"2001-03-29 12:00","2001","03","29","12:00","6.2","","1.4","","71","","11","","9","","12.9","","99.63","","","","","","Cloudy"
"2001-03-29 13:00","2001","03","29","13:00","7.0","","1.8","","69","","18","","9","","12.9","","99.63","","","","","","Cloudy"
"2001-03-29 14:00","2001","03","29","14:00","6.9","","0.9","","66","","15","","13","","12.9","","99.56","","","","","","Cloudy"
"2001-03-29 15:00","2001","03","29","15:00","7.5","","-0.3","","58","","10","","4","","14.5","","99.50","","","","","","Cloudy"
"2001-03-29 16:00","2001","03","29","16:00","7.8","","0.1","","58","","9","","11","","16.1","","99.46","","","","","","Mostly Cloudy"
"2001-03-29 17:00","2001","03","29","17:00","6.8","","0.2","","63","","13","","19","","16.1","","99.46","","","","","","Cloudy"
"2001-03-29 18:00","2001","03","29","18:00","6.1","","-1.4","","59","","11","","17","","16.1","","99.46","","","","","","Mostly Cloudy"
"2001-03-29 19:00","2001","03","29","19:00","4.8","","-1.9","","62","","11","","11","","19.3","","99.50","","","","","","Cloudy"
"2001-03-29 20:00","2001","03","29","20:00","3.4","","-2.1","","67","","2","","13","","19.3","","99.36","","","","","","Mainly Clear"
"2001-03-29 21:00","2001","03","29","21:00","1.9","","-1.5","","78","","6","","13","","19.3","","99.43","","","","","","Cloudy"
"2001-03-29 22:00","2001","03","29","22:00","2.6","","-1.1","","77","","7","","13","","16.1","","99.43","","","","","","Cloudy"
"2001-03-29 23:00","2001","03","29","23:00","2.0","","-1.1","","80","","5","","13","","16.1","","99.36","","","","","","Cloudy"
"2001-03-30 00:00","2001","03","30","00:00","2.6","","0.0","","83","","4","","17","","12.9","","99.36","","","","","","Cloudy"
"2001-03-30 01:00","2001","03","30","01:00","2.7","","-0.3","","81","","3","","19","","12.9","","99.26","","","","","","Cloudy"
"2001-03-30 02:00","2001","03","30","02:00","2.8","","-0.7","","78","","4","","24","","12.9","","99.20","","","","","","Cloudy"
"2001-03-30 03:00","2001","03","30","03:00","2.1","","-1.0","","80","","4","","19","","11.3","","99.13","","","","","","Cloudy"
"2001-03-30 04:00","2001","03","30","04:00","1.9","","-1.1","","80","","3","","17","","9.7","","99.13","","","","","","Haze"
"2001-03-30 05:00","2001","03","30","05:00","2.0","","-1.5","","78","","3","","17","","11.3","","99.16","","","","","","Cloudy"
"2001-03-30 06:00","2001","03","30","06:00","1.5","","-1.9","","78","","2","","15","","11.3","","99.16","","","","","","Mostly Cloudy"
"2001-03-30 07:00","2001","03","30","07:00","1.1","","-2.1","","79","","3","","17","","8.0","","99.16","","","","","","Haze"
"2001-03-30 08:00","2001","03","30","08:00","2.8","","-1.3","","74","","4","","22","","4.8","","99.16","","","","","","Haze"
"2001-03-30 09:00","2001","03","30","09:00","3.3","","-1.3","","72","","4","","26","","4.8","","99.15","","","","","","Haze"
"2001-03-30 10:00","2001","03","30","10:00","4.0","","-0.7","","71","","3","","22","","8.0","","99.15","","","","","","Haze"
"2001-03-30 11:00","2001","03","30","11:00","5.0","","-0.3","","69","","4","","26","","8.0","","99.10","","","","","","Haze"
"2001-03-30 12:00","2001","03","30","12:00","6.0","","0.2","","66","","4","","22","","8.0","","99.07","","","","","","Haze"
"2001-03-30 13:00","2001","03","30","13:00","6.4","","0.7","","67","","4","","19","","8.0","","99.07","","","","","","Haze"
"2001-03-30 14:00","2001","03","30","14:00","7.2","","1.2","","66","","7","","15","","8.0","","99.00","","","","","","Haze"
"2001-03-30 15:00","2001","03","30","15:00","7.4","","1.5","","66","","4","","19","","8.0","","98.99","","","","","","Haze"
"2001-03-30 16:00","2001","03","30","16:00","7.6","","1.4","","65","","4","","22","","11.3","","98.96","","","","","","Mainly Clear"
"2001-03-30 17:00","2001","03","30","17:00","6.8","","1.1","","67","","4","","22","","11.3","","98.98","","","","","","Mainly Clear"
"2001-03-30 18:00","2001","03","30","18:00","6.4","","1.0","","68","","5","","19","","11.3","","99.03","","","","","","Mostly Cloudy"
"2001-03-30 19:00","2001","03","30","19:00","4.9","","1.1","","76","","6","","20","","8.0","","99.07","","","","","","Haze"
"2001-03-30 20:00","2001","03","30","20:00","4.3","","0.7","","77","","5","","19","","11.3","","99.13","","","","","","Cloudy"
"2001-03-30 21:00","2001","03","30","21:00","3.7","","0.3","","78","","4","","19","","11.3","","99.15","","","","","","Cloudy"
"2001-03-30 22:00","2001","03","30","22:00","3.6","","0.2","","78","","3","","19","","11.3","","99.11","","","","","","Cloudy"
"2001-03-30 23:00","2001","03","30","23:00","3.7","","0.3","","78","","4","","13","","11.3","","99.09","","","","","","Cloudy"
"2001-03-31 00:00","2001","03","31","00:00","3.6","","0.5","","80","","4","","13","","11.3","","99.08","","","","","","Cloudy"
"2001-03-31 01:00","2001","03","31","01:00","3.2","","0.3","","81","","5","","11","","11.3","","99.04","","","","","","Cloudy"
"2001-03-31 02:00","2001","03","31","02:00","2.8","","0.4","","84","","7","","7","","9.7","","99.04","","","","","","Haze"
"2001-03-31 03:00","2001","03","31","03:00","2.6","","0.3","","85","","3","","11","","8.0","","98.97","","","","","","Haze"
"2001-03-31 04:00","2001","03","31","04:00","2.6","","0.5","","86","","6","","6","","6.4","","98.98","","","","","","Haze"
"2001-03-31 05:00","2001","03","31","05:00","2.6","","0.6","","87","","4","","4","","6.4","","98.98","","","","","","Haze"
"2001-03-31 06:00","2001","03","31","06:00","2.6","","0.8","","88","","7","","6","","6.4","","98.98","","","","","","Haze"
"2001-03-31 07:00","2001","03","31","07:00","2.7","","0.9","","88","","5","","6","","3.2","","99.01","","","","","","Haze"
"2001-03-31 08:00","2001","03","31","08:00","2.8","","1.2","","89","","6","","4","","4.0","","99.04","","","","","","Fog"
"2001-03-31 09:00","2001","03","31","09:00","2.7","","1.7","","93","","","","0","","2.0","","99.04","","","","","","Fog"
"2001-03-31 10:00","2001","03","31","10:00","3.0","","1.9","","92","","","","0","","2.4","","99.04","","","","","","Rain Showers,Fog"
"2001-03-31 11:00","2001","03","31","11:00","3.8","","1.9","","87","","","","0","","3.2","","99.02","","","","","","Fog"
"2001-03-31 12:00","2001","03","31","12:00","4.4","","1.5","","81","","","","0","","4.8","","99.00","","","","","","Haze"
"2001-03-31 13:00","2001","03","31","13:00","5.3","","0.8","","73","","7","","4","","8.0","","98.91","","","","","","Haze"
"2001-03-31 14:00","2001","03","31","14:00","5.9","","1.2","","72","","18","","4","","9.7","","98.85","","","","","","Haze"
"2001-03-31 15:00","2001","03","31","15:00","6.2","","1.0","","69","","10","","6","","9.7","","98.78","","","","","","Haze"
"2001-03-31 16:00","2001","03","31","16:00","5.2","","1.6","","78","","16","","15","","9.7","","98.76","","","","","","Rain Showers,Haze"
"2001-03-31 17:00","2001","03","31","17:00","4.8","","1.4","","79","","17","","11","","8.0","","98.77","","","","","","Haze"
"2001-03-31 18:00","2001","03","31","18:00","4.6","","-0.2","","71","","15","","17","","8.0","","98.74","","","","","","Haze"
"2001-03-31 19:00","2001","03","31","19:00","2.9","","-0.5","","78","","15","","9","","8.0","","98.76","","","","","","Haze"
"2001-03-31 20:00","2001","03","31","20:00","1.7","","-0.7","","84","","18","","11","","12.9","","98.76","","","","","","Cloudy"
"2001-03-31 21:00","2001","03","31","21:00","0.8","","-0.8","","89","","16","","7","","24.1","","98.74","","","","","","Mostly Cloudy"
"2001-03-31 22:00","2001","03","31","22:00","0.8","","-0.8","","89","","","","0","","24.1","","98.70","","","","","","Cloudy"
"2001-03-31 23:00","2001","03","31","23:00","0.8","","-1.4","","85","","10","","4","","19.3","","98.62","","","","","","Mostly Cloudy"
