"Station Name","WINDSOR A"
"Province","ONTARIO"
"Latitude","42.28"
"Longitude","-82.96"
"Elevation","189.60"
"Climate Identifier","6139525"
"WMO Identifier","71538"
"TC Identifier","YQG"
"All times are specified in Local Standard Time (LST). Add 1 hour to adjust for Daylight Saving Time where and when it is observed."

"Legend"
"E","Estimated"
"M","Missing"
"NA","Not Available"

"Date/Time","Year","Month","Day","Time","Temp (°C)","Temp Flag","Dew Point Temp (°C)","Dew Point Temp Flag","Rel Hum (%)","Rel Hum Flag","Wind Dir (10s deg)","Wind Dir Flag","Wind Spd (km/h)","Wind Spd Flag","Visibility (km)","Visibility Flag","Stn Press (kPa)","Stn Press Flag","Hmdx","Hmdx Flag","Wind Chill","Wind Chill Flag","Weather"
"2000-05-01 00:00","2000","05","01","00:00","10.2","","0.3","","50","","2","","9","","24.1","","99.43","","","","","","Clear"
"2000-05-01 01:00","2000","05","01","01:00","10.2","","2.6","","59","","19","","15","","24.1","","99.30","","","","","","Clear"
"2000-05-01 02:00","2000","05","01","02:00","10.6","","3.9","","63","","19","","11","","24.1","","99.16","","","","","","Mostly Cloudy"
"2000-05-01 03:00","2000","05","01","03:00","10.9","","4.8","","66","","30","","9","","24.1","","99.16","","","","","","Mostly Cloudy"
"2000-05-01 04:00","2000","05","01","04:00","11.3","","6.2","","71","","25","","6","","24.1","","99.16","","","","","","Cloudy"
"2000-05-01 05:00","2000","05","01","05:00","11.2","","6.5","","73","","24","","7","","24.1","","99.06","","","","","","Mostly Cloudy"
"2000-05-01 06:00","2000","05","01","06:00","11.2","","5.9","","70","","23","","13","","24.1","","99.06","","","","","","Mostly Cloudy"
"2000-05-01 07:00","2000","05","01","07:00","13.0","","6.4","","64","","23","","15","","16.1","","99.00","","","","","","Cloudy"
"2000-05-01 08:00","2000","05","01","08:00","14.8","","6.9","","59","","23","","17","","12.9","","98.96","","","","","","Cloudy"
"2000-05-01 09:00","2000","05","01","09:00","15.6","","7.5","","58","","23","","20","","16.1","","98.86","","","","","","Rain Showers"
"2000-05-01 10:00","2000","05","01","10:00","14.8","","9.1","","69","","25","","15","","9.7","","98.90","","","","","","Rain Showers,Fog"
"2000-05-01 11:00","2000","05","01","11:00","13.9","","10.1","","78","","25","","13","","9.7","","98.83","","","","","","Rain,Fog"
"2000-05-01 12:00","2000","05","01","12:00","13.2","","11.0","","87","","22","","15","","4.8","","98.73","","","","","","Rain,Fog"
"2000-05-01 13:00","2000","05","01","13:00","13.3","","11.6","","89","","24","","24","","6.4","","98.70","","","","","","Moderate Rain,Fog"
"2000-05-01 14:00","2000","05","01","14:00","13.2","","11.0","","87","","25","","22","","6.4","","98.66","","","","","","Rain,Fog"
"2000-05-01 15:00","2000","05","01","15:00","12.9","","11.5","","91","","26","","17","","3.2","","98.66","","","","","","Rain,Fog"
"2000-05-01 16:00","2000","05","01","16:00","13.3","","12.0","","92","","27","","15","","3.6","","98.66","","","","","","Rain,Fog"
"2000-05-01 17:00","2000","05","01","17:00","13.7","","12.3","","91","","30","","11","","4.8","","98.73","","","","","","Rain,Fog"
"2000-05-01 18:00","2000","05","01","18:00","13.7","","10.8","","83","","35","","11","","8.0","","98.76","","","","","","Haze"
"2000-05-01 19:00","2000","05","01","19:00","13.5","","10.2","","80","","1","","11","","8.0","","98.76","","","","","","Haze"
"2000-05-01 20:00","2000","05","01","20:00","11.7","","8.9","","83","","2","","6","","12.9","","98.83","","","","","","Mostly Cloudy"
"2000-05-01 21:00","2000","05","01","21:00","10.9","","7.8","","81","","6","","13","","25.0","","98.93","","","","","","Mainly Clear"
"2000-05-01 22:00","2000","05","01","22:00","9.3","","7.9","","91","","6","","9","","16.1","","98.93","","","","","","Clear"
"2000-05-01 23:00","2000","05","01","23:00","8.3","","6.8","","90","","4","","7","","19.3","","99.10","","","","","","Mainly Clear"
"2000-05-02 00:00","2000","05","02","00:00","8.1","","7.0","","93","","3","","6","","16.1","","99.16","","","","","","Mainly Clear"
"2000-05-02 01:00","2000","05","02","01:00","7.3","","5.8","","90","","3","","7","","24.1","","99.20","","","","","","Mainly Clear"
"2000-05-02 02:00","2000","05","02","02:00","6.8","","5.3","","90","","5","","6","","24.1","","99.23","","","","","","Clear"
"2000-05-02 03:00","2000","05","02","03:00","6.5","","5.0","","90","","3","","7","","24.1","","99.30","","","","","","Clear"
"2000-05-02 04:00","2000","05","02","04:00","5.8","","4.4","","91","","36","","4","","24.1","","99.40","","","","","","Clear"
"2000-05-02 05:00","2000","05","02","05:00","5.7","","4.7","","93","","31","","4","","16.1","","99.46","","","","","","Clear"
"2000-05-02 06:00","2000","05","02","06:00","6.3","","5.0","","91","","36","","4","","12.9","","99.53","","","","","","Clear"
"2000-05-02 07:00","2000","05","02","07:00","8.3","","6.1","","86","","4","","7","","19.3","","99.70","","","","","","Clear"
"2000-05-02 08:00","2000","05","02","08:00","10.2","","7.0","","81","","4","","13","","24.1","","99.80","","","","","","Mainly Clear"
"2000-05-02 09:00","2000","05","02","09:00","10.5","","6.6","","77","","7","","15","","24.1","","99.86","","","","","","Mainly Clear"
"2000-05-02 10:00","2000","05","02","10:00","10.7","","6.5","","75","","6","","15","","24.1","","99.93","","","","","","Mainly Clear"
"2000-05-02 11:00","2000","05","02","11:00","12.2","","7.4","","72","","10","","9","","24.1","","99.96","","","","","","Mainly Clear"
"2000-05-02 12:00","2000","05","02","12:00","13.1","","7.9","","71","","3","","6","","24.1","","99.93","","","","","","Mostly Cloudy"
"2000-05-02 13:00","2000","05","02","13:00","14.4","","8.2","","66","","7","","13","","24.1","","99.93","","","","","","Mainly Clear"
"2000-05-02 14:00","2000","05","02","14:00","14.7","","7.8","","63","","11","","15","","24.1","","99.93","","","","","","Mostly Cloudy"
"2000-05-02 15:00","2000","05","02","15:00","15.4","","8.0","","61","","9","","9","","19.3","","99.90","","","","","","Mostly Cloudy"
"2000-05-02 16:00","2000","05","02","16:00","15.7","","7.4","","58","","7","","7","","19.3","","99.90","","","","","","Cloudy"
"2000-05-02 17:00","2000","05","02","17:00","15.9","","7.4","","57","","14","","13","","19.3","","99.86","","","","","","Mostly Cloudy"
"2000-05-02 18:00","2000","05","02","18:00","14.9","","9.8","","72","","18","","13","","12.9","","99.90","","","","","","Mainly Clear"
"2000-05-02 19:00","2000","05","02","19:00","13.2","","8.6","","74","","17","","13","","9.7","","99.93","","","","","","Haze"
"2000-05-02 20:00","2000","05","02","20:00","11.6","","7.3","","75","","18","","6","","16.1","","99.96","","","","","","Clear"
"2000-05-02 21:00","2000","05","02","21:00","10.4","","7.4","","82","","15","","7","","24.1","","99.99","","","","","","Mainly Clear"
"2000-05-02 22:00","2000","05","02","22:00","9.5","","6.8","","83","","15","","7","","24.1","","99.99","","","","","","Mainly Clear"
"2000-05-02 23:00","2000","05","02","23:00","9.0","","6.1","","82","","16","","4","","24.1","","99.99","","","","","","Clear"
"2000-05-03 00:00","2000","05","03","00:00","9.2","","5.4","","77","","19","","11","","24.1","","99.99","","","","","","Clear"
"2000-05-03 01:00","2000","05","03","01:00","8.7","","5.3","","79","","","","0","","24.1","","99.96","","","","","","Clear"
"2000-05-03 02:00","2000","05","03","02:00","8.6","","5.0","","78","","22","","6","","24.1","","99.96","","","","","","Clear"
"2000-05-03 03:00","2000","05","03","03:00","8.0","","5.0","","81","","","","0","","24.1","","99.96","","","","","","Clear"
"2000-05-03 04:00","2000","05","03","04:00","6.9","","4.6","","85","","","","0","","24.1","","99.99","","","","","","Clear"
"2000-05-03 05:00","2000","05","03","05:00","6.5","","4.2","","85","","7","","7","","24.1","","99.99","","","","","","Mainly Clear"
"2000-05-03 06:00","2000","05","03","06:00","7.4","","4.9","","84","","10","","4","","24.1","","100.03","","","","","","Mainly Clear"
"2000-05-03 07:00","2000","05","03","07:00","9.5","","6.3","","80","","14","","6","","19.3","","100.09","","","","","","Mostly Cloudy"
"2000-05-03 08:00","2000","05","03","08:00","12.7","","8.7","","77","","17","","7","","19.3","","100.09","","","","","","Mostly Cloudy"
"2000-05-03 09:00","2000","05","03","09:00","15.1","","8.7","","66","","18","","9","","24.1","","100.13","","","","","","Mostly Cloudy"
"2000-05-03 10:00","2000","05","03","10:00","17.1","","8.4","","57","","17","","11","","24.1","","100.13","","","","","","Mostly Cloudy"
"2000-05-03 11:00","2000","05","03","11:00","18.2","","8.2","","52","","18","","9","","24.1","","100.09","","","","","","Mainly Clear"
"2000-05-03 12:00","2000","05","03","12:00","18.6","","8.3","","51","","20","","13","","24.1","","100.06","","","","","","Mainly Clear"
"2000-05-03 13:00","2000","05","03","13:00","19.2","","9.2","","52","","20","","9","","24.1","","100.06","","","","","","Mainly Clear"
"2000-05-03 14:00","2000","05","03","14:00","19.5","","8.4","","49","","18","","13","","24.1","","100.03","","","","","","Mainly Clear"
"2000-05-03 15:00","2000","05","03","15:00","19.5","","8.6","","49","","20","","19","","24.1","","99.99","","","","","","Mainly Clear"
"2000-05-03 16:00","2000","05","03","16:00","19.3","","8.0","","48","","17","","17","","24.1","","99.93","","","","","","Mainly Clear"
"2000-05-03 17:00","2000","05","03","17:00","19.6","","7.8","","46","","14","","19","","24.1","","99.86","","","","","","Mostly Cloudy"
"2000-05-03 18:00","2000","05","03","18:00","18.9","","5.9","","43","","14","","15","","24.1","","99.83","","","","","","Mostly Cloudy"
"2000-05-03 19:00","2000","05","03","19:00","17.8","","4.3","","41","","13","","9","","24.1","","99.80","","","","","","Mostly Cloudy"
"2000-05-03 20:00","2000","05","03","20:00","15.7","","3.1","","43","","12","","7","","24.1","","99.80","","","","","","Mainly Clear"
"2000-05-03 21:00","2000","05","03","21:00","13.8","","4.2","","52","","14","","7","","24.1","","99.80","","","","","","Clear"
"2000-05-03 22:00","2000","05","03","22:00","12.0","","3.8","","57","","16","","7","","24.1","","99.80","","","","","","Clear"
"2000-05-03 23:00","2000","05","03","23:00","10.8","","4.5","","65","","17","","7","","25.0","","99.76","","","","","","Clear"
"2000-05-04 00:00","2000","05","04","00:00","10.2","","5.0","","70","","","","0","","25.0","","99.73","","","","","","Clear"
"2000-05-04 01:00","2000","05","04","01:00","10.0","","4.4","","68","","","","0","","25.0","","99.70","","","","","","Clear"
"2000-05-04 02:00","2000","05","04","02:00","9.9","","4.4","","69","","","","0","","24.1","","99.66","","","","","","Mainly Clear"
"2000-05-04 03:00","2000","05","04","03:00","10.3","","4.6","","68","","7","","4","","24.1","","99.63","","","","","","Mostly Cloudy"
"2000-05-04 04:00","2000","05","04","04:00","10.7","","5.6","","71","","10","","4","","24.1","","99.60","","","","","","Mostly Cloudy"
"2000-05-04 05:00","2000","05","04","05:00","11.5","","6.2","","70","","11","","4","","24.1","","99.56","","","","","","Mostly Cloudy"
"2000-05-04 06:00","2000","05","04","06:00","13.1","","8.0","","71","","17","","4","","19.3","","99.60","","","","","","Mostly Cloudy"
"2000-05-04 07:00","2000","05","04","07:00","14.2","","8.7","","69","","20","","11","","16.1","","99.63","","","","","","Cloudy"
"2000-05-04 08:00","2000","05","04","08:00","15.2","","10.4","","73","","22","","15","","11.3","","99.70","","","","","","Cloudy"
"2000-05-04 09:00","2000","05","04","09:00","17.1","","12.6","","75","","23","","15","","9.7","","99.63","","","","","","Haze"
"2000-05-04 10:00","2000","05","04","10:00","18.5","","14.0","","75","","24","","17","","11.3","","99.63","","","","","","Mostly Cloudy"
"2000-05-04 11:00","2000","05","04","11:00","20.1","","15.2","","73","","24","","22","","11.3","","99.63","","","","","","Mostly Cloudy"
"2000-05-04 12:00","2000","05","04","12:00","23.0","","15.8","","64","","24","","20","","16.1","","99.60","","27","","","","Mostly Cloudy"
"2000-05-04 13:00","2000","05","04","13:00","23.5","","16.4","","64","","22","","20","","19.3","","99.60","","28","","","","Mostly Cloudy"
"2000-05-04 14:00","2000","05","04","14:00","24.0","","16.3","","62","","21","","20","","12.9","","99.56","","29","","","","Mostly Cloudy"
"2000-05-04 15:00","2000","05","04","15:00","24.2","","16.1","","61","","21","","24","","24.1","","99.50","","29","","","","Mostly Cloudy"
"2000-05-04 16:00","2000","05","04","16:00","26.8","","13.5","","44","","23","","28","","24.1","","99.43","","30","","","","Mostly Cloudy"
"2000-05-04 17:00","2000","05","04","17:00","26.5","","13.3","","44","","26","","33","","24.1","","99.46","","29","","","","Mostly Cloudy"
"2000-05-04 18:00","2000","05","04","18:00","26.1","","13.3","","45","","26","","22","","24.1","","99.43","","29","","","","Mostly Cloudy"
"2000-05-04 19:00","2000","05","04","19:00","25.2","","13.5","","48","","24","","15","","24.1","","99.46","","28","","","","Mostly Cloudy"
"2000-05-04 20:00","2000","05","04","20:00","22.6","","14.0","","58","","20","","11","","24.1","","99.46","","26","","","","Mostly Cloudy"
"2000-05-04 21:00","2000","05","04","21:00","21.0","","13.7","","63","","21","","17","","24.1","","99.53","","","","","","Mostly Cloudy"
"2000-05-04 22:00","2000","05","04","22:00","18.5","","15.8","","84","","22","","20","","24.1","","99.60","","","","","","Mainly Clear"
"2000-05-04 23:00","2000","05","04","23:00","18.2","","15.5","","84","","22","","20","","16.1","","99.63","","","","","","Mainly Clear"
"2000-05-05 00:00","2000","05","05","00:00","18.1","","15.2","","83","","23","","17","","12.9","","99.66","","","","","","Mainly Clear"
"2000-05-05 01:00","2000","05","05","01:00","17.1","","14.8","","86","","23","","11","","11.3","","99.66","","","","","","Clear"
"2000-05-05 02:00","2000","05","05","02:00","16.2","","14.5","","90","","23","","11","","9.7","","99.63","","","","","","Fog"
"2000-05-05 03:00","2000","05","05","03:00","16.0","","14.2","","89","","23","","7","","8.0","","99.70","","","","","","Fog"
"2000-05-05 04:00","2000","05","05","04:00","15.5","","13.9","","90","","22","","11","","8.0","","99.70","","","","","","Fog"
"2000-05-05 05:00","2000","05","05","05:00","15.6","","13.8","","89","","23","","11","","6.4","","99.73","","","","","","Fog"
"2000-05-05 06:00","2000","05","05","06:00","16.4","","14.0","","86","","25","","9","","8.0","","99.76","","","","","","Haze"
"2000-05-05 07:00","2000","05","05","07:00","17.5","","14.7","","84","","23","","13","","9.7","","99.80","","","","","","Haze"
"2000-05-05 08:00","2000","05","05","08:00","19.7","","15.0","","74","","25","","15","","9.7","","99.80","","","","","","Haze"
"2000-05-05 09:00","2000","05","05","09:00","22.3","","15.3","","65","","26","","20","","12.9","","99.80","","26","","","","Clear"
"2000-05-05 10:00","2000","05","05","10:00","24.4","","15.8","","59","","27","","19","","24.1","","99.76","","29","","","","Mainly Clear"
"2000-05-05 11:00","2000","05","05","11:00","25.8","","15.9","","54","","25","","20","","19.3","","99.76","","30","","","","Mainly Clear"
"2000-05-05 12:00","2000","05","05","12:00"
"2000-05-05 13:00","2000","05","05","13:00","26.1","","15.8","","53","","26","","20","","19.3","","99.66","","31","","","","Mostly Cloudy"
"2000-05-05 14:00","2000","05","05","14:00","25.9","","16.5","","56","","22","","22","","19.3","","99.60","","31","","","","Mostly Cloudy"
"2000-05-05 15:00","2000","05","05","15:00","26.4","","16.5","","55","","22","","22","","16.1","","99.53","","31","","","","Mostly Cloudy"
"2000-05-05 16:00","2000","05","05","16:00","27.0","","16.3","","52","","22","","22","","16.1","","99.46","","32","","","","Mainly Clear"
"2000-05-05 17:00","2000","05","05","17:00","26.7","","16.1","","52","","23","","19","","16.1","","99.43","","31","","","","Mostly Cloudy"
"2000-05-05 18:00","2000","05","05","18:00","27.6","","14.9","","46","","25","","22","","19.3","","99.43","","32","","","","Mainly Clear"
"2000-05-05 19:00","2000","05","05","19:00","26.5","","14.7","","48","","26","","17","","19.3","","99.43","","30","","","","Mainly Clear"
"2000-05-05 20:00","2000","05","05","20:00","25.1","","14.5","","52","","25","","11","","19.3","","99.50","","29","","","","Mainly Clear"
"2000-05-05 21:00","2000","05","05","21:00","22.5","","14.7","","61","","21","","11","","24.1","","99.56","","26","","","","Mainly Clear"
"2000-05-05 22:00","2000","05","05","22:00","21.5","","14.9","","66","","22","","11","","24.1","","99.56","","25","","","","Mainly Clear"
"2000-05-05 23:00","2000","05","05","23:00","20.4","","14.9","","71","","22","","11","","24.1","","99.53","","","","","","Mainly Clear"
"2000-05-06 00:00","2000","05","06","00:00","19.8","","14.9","","73","","23","","9","","19.3","","99.56","","","","","","Mostly Cloudy"
"2000-05-06 01:00","2000","05","06","01:00","19.3","","15.0","","76","","23","","9","","16.1","","99.56","","","","","","Clear"
"2000-05-06 02:00","2000","05","06","02:00","19.5","","14.9","","75","","24","","9","","16.1","","99.56","","","","","","Clear"
"2000-05-06 03:00","2000","05","06","03:00","18.6","","14.8","","79","","23","","9","","12.9","","99.56","","","","","","Clear"
"2000-05-06 04:00","2000","05","06","04:00","18.0","","14.7","","81","","24","","13","","12.9","","99.56","","","","","","Clear"
"2000-05-06 05:00","2000","05","06","05:00","18.0","","14.8","","82","","24","","13","","9.7","","99.63","","","","","","Haze"
"2000-05-06 06:00","2000","05","06","06:00","17.4","","14.8","","85","","23","","11","","8.0","","99.70","","","","","","Haze"
"2000-05-06 07:00","2000","05","06","07:00","19.2","","15.8","","81","","24","","13","","9.7","","99.73","","","","","","Haze"
"2000-05-06 08:00","2000","05","06","08:00","21.6","","16.4","","72","","26","","17","","9.7","","99.70","","26","","","","Haze"
"2000-05-06 09:00","2000","05","06","09:00","24.3","","16.8","","63","","26","","20","","11.3","","99.73","","29","","","","Clear"
"2000-05-06 10:00","2000","05","06","10:00","25.7","","16.9","","58","","26","","20","","16.1","","99.70","","31","","","","Clear"
"2000-05-06 11:00","2000","05","06","11:00","27.0","","16.7","","53","","23","","20","","19.3","","99.63","","32","","","","Mainly Clear"
"2000-05-06 12:00","2000","05","06","12:00","27.6","","16.9","","52","","26","","24","","19.3","","99.60","","33","","","","Mostly Cloudy"
"2000-05-06 13:00","2000","05","06","13:00","27.9","","17.2","","52","","22","","19","","19.3","","99.50","","33","","","","Mainly Clear"
"2000-05-06 14:00","2000","05","06","14:00","28.4","","17.1","","50","","22","","22","","19.3","","99.46","","34","","","","Mainly Clear"
"2000-05-06 15:00","2000","05","06","15:00","28.6","","16.5","","48","","23","","26","","19.3","","99.40","","34","","","","Mainly Clear"
"2000-05-06 16:00","2000","05","06","16:00","28.2","","15.9","","47","","22","","30","","19.3","","99.33","","33","","","","Mainly Clear"
"2000-05-06 17:00","2000","05","06","17:00","28.4","","16.4","","48","","22","","28","","19.3","","99.30","","33","","","","Mainly Clear"
"2000-05-06 18:00","2000","05","06","18:00","27.4","","16.3","","51","","21","","19","","19.3","","99.26","","32","","","","Mainly Clear"
"2000-05-06 19:00","2000","05","06","19:00","26.5","","15.7","","52","","21","","19","","19.3","","99.23","","31","","","","Clear"
"2000-05-06 20:00","2000","05","06","20:00","25.2","","15.2","","54","","21","","19","","19.3","","99.23","","29","","","","Mainly Clear"
"2000-05-06 21:00","2000","05","06","21:00","23.9","","15.1","","58","","21","","17","","24.1","","99.26","","28","","","","Mainly Clear"
"2000-05-06 22:00","2000","05","06","22:00","23.8","","14.7","","57","","22","","20","","24.1","","99.23","","28","","","","Mainly Clear"
"2000-05-06 23:00","2000","05","06","23:00","22.4","","15.0","","63","","23","","17","","24.1","","99.23","","26","","","","Clear"
"2000-05-07 00:00","2000","05","07","00:00","20.7","","15.1","","70","","22","","13","","24.1","","99.26","","25","","","","Clear"
"2000-05-07 01:00","2000","05","07","01:00","21.0","","15.1","","69","","23","","17","","24.1","","99.26","","25","","","","Mainly Clear"
"2000-05-07 02:00","2000","05","07","02:00","21.2","","14.5","","66","","24","","19","","24.1","","99.23","","25","","","","Clear"
"2000-05-07 03:00","2000","05","07","03:00","20.5","","14.4","","68","","23","","17","","24.1","","99.23","","","","","","Clear"
"2000-05-07 04:00","2000","05","07","04:00","20.7","","14.3","","67","","24","","17","","24.1","","99.23","","","","","","Mostly Cloudy"
"2000-05-07 05:00","2000","05","07","05:00","20.7","","14.2","","66","","25","","17","","19.3","","99.23","","","","","","Mostly Cloudy"
"2000-05-07 06:00","2000","05","07","06:00","20.4","","14.2","","68","","24","","19","","24.1","","99.23","","","","","","Mostly Cloudy"
"2000-05-07 07:00","2000","05","07","07:00","20.9","","14.8","","68","","24","","15","","24.1","","99.26","","25","","","","Mainly Clear"
"2000-05-07 08:00","2000","05","07","08:00","22.0","","14.9","","64","","24","","19","","24.1","","99.26","","26","","","","Mostly Cloudy"
"2000-05-07 09:00","2000","05","07","09:00","21.8","","15.2","","66","","23","","17","","24.1","","99.26","","26","","","","Mostly Cloudy"
"2000-05-07 10:00","2000","05","07","10:00","22.8","","15.6","","64","","22","","20","","24.1","","99.23","","27","","","","Mostly Cloudy"
"2000-05-07 11:00","2000","05","07","11:00","24.2","","16.2","","61","","21","","15","","24.1","","99.16","","29","","","","Mostly Cloudy"
"2000-05-07 12:00","2000","05","07","12:00","26.4","","17.1","","57","","23","","20","","24.1","","99.10","","32","","","","Mostly Cloudy"
"2000-05-07 13:00","2000","05","07","13:00","28.1","","17.7","","53","","21","","22","","24.1","","99.00","","34","","","","Mostly Cloudy"
"2000-05-07 14:00","2000","05","07","14:00","28.7","","16.1","","46","","22","","33","","24.1","","98.96","","33","","","","Mostly Cloudy"
"2000-05-07 15:00","2000","05","07","15:00","28.7","","15.8","","46","","22","","33","","19.3","","98.86","","33","","","","Mainly Clear"
"2000-05-07 16:00","2000","05","07","16:00","28.7","","15.7","","45","","22","","26","","19.3","","98.80","","33","","","","Mostly Cloudy"
"2000-05-07 17:00","2000","05","07","17:00","27.2","","14.7","","46","","27","","32","","19.3","","98.83","","31","","","","Mostly Cloudy"
"2000-05-07 18:00","2000","05","07","18:00","25.2","","15.8","","56","","23","","22","","19.3","","98.83","","30","","","","Mostly Cloudy"
"2000-05-07 19:00","2000","05","07","19:00","23.9","","16.7","","64","","23","","19","","19.3","","98.83","","29","","","","Mostly Cloudy"
"2000-05-07 20:00","2000","05","07","20:00","23.3","","16.2","","64","","23","","19","","24.1","","98.83","","28","","","","Mainly Clear"
"2000-05-07 21:00","2000","05","07","21:00","23.8","","16.2","","62","","25","","17","","24.1","","98.86","","29","","","","Mostly Cloudy"
"2000-05-07 22:00","2000","05","07","22:00","23.1","","16.1","","65","","25","","19","","24.1","","98.86","","28","","","","Mostly Cloudy"
"2000-05-07 23:00","2000","05","07","23:00","21.4","","16.1","","72","","20","","11","","24.1","","98.86","","26","","","","Cloudy"
"2000-05-08 00:00","2000","05","08","00:00","21.4","","16.8","","75","","22","","17","","24.1","","98.83","","27","","","","Rain Showers"
"2000-05-08 01:00","2000","05","08","01:00","21.5","","16.7","","74","","22","","19","","24.1","","98.76","","27","","","","Cloudy"
"2000-05-08 02:00","2000","05","08","02:00","20.5","","16.6","","78","","21","","13","","24.1","","98.73","","26","","","","Cloudy"
"2000-05-08 03:00","2000","05","08","03:00","19.7","","16.4","","81","","22","","13","","24.1","","98.76","","","","","","Cloudy"
"2000-05-08 04:00","2000","05","08","04:00","19.6","","16.3","","81","","21","","15","","24.1","","98.76","","","","","","Cloudy"
"2000-05-08 05:00","2000","05","08","05:00","19.6","","16.2","","81","","21","","15","","16.1","","98.73","","","","","","Cloudy"
"2000-05-08 06:00","2000","05","08","06:00","19.8","","16.3","","80","","21","","19","","9.7","","98.73","","","","","","Haze"
"2000-05-08 07:00","2000","05","08","07:00","20.2","","15.9","","76","","21","","20","","9.7","","98.73","","25","","","","Haze"
"2000-05-08 08:00","2000","05","08","08:00","20.6","","16.4","","77","","22","","19","","12.9","","98.73","","25","","","","Mostly Cloudy"
"2000-05-08 09:00","2000","05","08","09:00","21.4","","16.6","","74","","21","","19","","12.9","","98.70","","26","","","","Mostly Cloudy"
"2000-05-08 10:00","2000","05","08","10:00","23.2","","17.3","","69","","20","","22","","12.9","","98.63","","29","","","","Mostly Cloudy"
"2000-05-08 11:00","2000","05","08","11:00","24.5","","18.0","","67","","22","","26","","16.1","","98.60","","31","","","","Cloudy"
"2000-05-08 12:00","2000","05","08","12:00","25.8","","18.5","","64","","22","","24","","12.9","","98.57","","32","","","","Mostly Cloudy"
"2000-05-08 13:00","2000","05","08","13:00","27.2","","19.4","","62","","20","","32","","19.3","","98.43","","34","","","","Cloudy"
"2000-05-08 14:00","2000","05","08","14:00","27.7","","19.3","","60","","21","","33","","24.1","","98.23","","35","","","","Mostly Cloudy"
"2000-05-08 15:00","2000","05","08","15:00","28.2","","18.6","","56","","20","","37","","19.3","","98.10","","35","","","","Mostly Cloudy"
"2000-05-08 16:00","2000","05","08","16:00","29.1","","18.8","","54","","21","","33","","16.1","","98.03","","36","","","","Mainly Clear"
"2000-05-08 17:00","2000","05","08","17:00"
"2000-05-08 18:00","2000","05","08","18:00","28.1","","17.7","","53","","23","","24","","16.1","","98.13","","34","","","","Mostly Cloudy"
"2000-05-08 19:00","2000","05","08","19:00","27.9","","17.4","","53","","23","","26","","12.9","","98.13","","33","","","","Mostly Cloudy"
"2000-05-08 20:00","2000","05","08","20:00","27.1","","17.4","","55","","22","","22","","19.3","","98.13","","33","","","","Mostly Cloudy"
"2000-05-08 21:00","2000","05","08","21:00","25.9","","17.7","","61","","22","","20","","24.1","","98.13","","32","","","","Mostly Cloudy"
"2000-05-08 22:00","2000","05","08","22:00","24.9","","17.7","","64","","22","","22","","19.3","","98.03","","31","","","","Mainly Clear"
"2000-05-08 23:00","2000","05","08","23:00","24.4","","17.6","","66","","23","","19","","19.3","","98.07","","30","","","","Clear"
"2000-05-09 00:00","2000","05","09","00:00","24.5","","17.5","","65","","25","","20","","19.3","","98.07","","30","","","","Cloudy"
"2000-05-09 01:00","2000","05","09","01:00","24.0","","17.4","","67","","25","","24","","19.3","","98.10","","30","","","","Cloudy"
"2000-05-09 02:00","2000","05","09","02:00","23.5","","17.2","","68","","24","","24","","19.3","","98.03","","29","","","","Cloudy"
"2000-05-09 03:00","2000","05","09","03:00","23.4","","17.4","","69","","25","","35","","19.3","","98.17","","29","","","","Cloudy"
"2000-05-09 04:00","2000","05","09","04:00","19.6","","15.5","","77","","32","","20","","19.3","","98.00","","","","","","Cloudy"
"2000-05-09 05:00","2000","05","09","05:00","18.9","","15.5","","81","","16","","11","","24.1","","97.97","","","","","","Cloudy"
"2000-05-09 06:00","2000","05","09","06:00","18.4","","15.1","","81","","23","","24","","24.1","","98.17","","","","","","Cloudy"
"2000-05-09 07:00","2000","05","09","07:00","20.0","","15.6","","76","","23","","19","","24.1","","98.20","","","","","","Mostly Cloudy"
"2000-05-09 08:00","2000","05","09","08:00","21.5","","15.9","","70","","24","","20","","24.1","","98.30","","26","","","","Mostly Cloudy"
"2000-05-09 09:00","2000","05","09","09:00","21.9","","16.3","","71","","23","","17","","24.1","","98.13","","27","","","","Rain Showers"
"2000-05-09 10:00","2000","05","09","10:00","22.8","","17.0","","70","","21","","26","","24.1","","98.10","","28","","","","Mostly Cloudy"
"2000-05-09 11:00","2000","05","09","11:00","24.2","","17.5","","66","","24","","24","","16.1","","98.13","","30","","","","Mostly Cloudy"
"2000-05-09 12:00","2000","05","09","12:00","25.4","","18.1","","64","","26","","24","","19.3","","98.17","","31","","","","Mostly Cloudy"
"2000-05-09 13:00","2000","05","09","13:00","26.5","","18.0","","60","","27","","26","","24.1","","98.13","","33","","","","Cloudy"
"2000-05-09 14:00","2000","05","09","14:00","27.8","","17.9","","55","","26","","30","","24.1","","98.13","","34","","","","Cloudy"
"2000-05-09 15:00","2000","05","09","15:00","28.9","","16.4","","47","","25","","33","","24.1","","98.03","","34","","","","Cloudy"
"2000-05-09 16:00","2000","05","09","16:00","23.2","","16.0","","64","","4","","19","","24.1","","98.07","","28","","","","Cloudy"
"2000-05-09 17:00","2000","05","09","17:00","19.0","","13.6","","71","","5","","30","","24.1","","98.07","","","","","","Cloudy"
"2000-05-09 18:00","2000","05","09","18:00","18.6","","13.9","","74","","8","","15","","24.1","","98.07","","","","","","Cloudy"
"2000-05-09 19:00","2000","05","09","19:00","16.6","","14.2","","86","","9","","22","","8.0","","97.93","","","","","","Thunderstorms,Rain Showers,Fog"
"2000-05-09 20:00","2000","05","09","20:00","15.9","","13.3","","85","","16","","13","","4.8","","98.20","","","","","","Thunderstorms,Heavy Rain Showers,Fog"
"2000-05-09 21:00","2000","05","09","21:00","16.6","","13.4","","81","","34","","26","","8.0","","98.00","","","","","","Thunderstorms,Rain Showers,Fog"
"2000-05-09 22:00","2000","05","09","22:00","16.6","","14.5","","87","","18","","7","","8.0","","98.10","","","","","","Thunderstorms,Moderate Rain Showers,Fog"
"2000-05-09 23:00","2000","05","09","23:00","16.0","","14.4","","90","","14","","11","","24.1","","98.03","","","","","","Cloudy"
"2000-05-10 00:00","2000","05","10","00:00","16.1","","14.5","","90","","17","","19","","8.0","","98.03","","","","","","Rain Showers,Fog"
"2000-05-10 01:00","2000","05","10","01:00","16.0","","14.4","","90","","18","","28","","4.8","","98.03","","","","","","Rain Showers,Fog"
"2000-05-10 02:00","2000","05","10","02:00","16.5","","14.8","","90","","19","","17","","9.7","","97.83","","","","","","Rain Showers,Fog"
"2000-05-10 03:00","2000","05","10","03:00","16.7","","14.8","","89","","17","","15","","16.1","","97.73","","","","","","Rain Showers"
"2000-05-10 04:00","2000","05","10","04:00","16.9","","14.6","","86","","20","","22","","24.1","","97.70","","","","","","Cloudy"
"2000-05-10 05:00","2000","05","10","05:00","16.8","","14.5","","86","","20","","22","","24.1","","97.70","","","","","","Cloudy"
"2000-05-10 06:00","2000","05","10","06:00","16.8","","14.0","","84","","23","","17","","9.7","","97.70","","","","","","Haze"
"2000-05-10 07:00","2000","05","10","07:00","8.8","","5.8","","81","","1","","32","","24.1","","97.93","","","","","","Cloudy"
"2000-05-10 08:00","2000","05","10","08:00","8.6","","5.7","","82","","36","","22","","8.0","","97.97","","","","","","Rain Showers,Fog"
"2000-05-10 09:00","2000","05","10","09:00","9.3","","6.9","","85","","33","","24","","9.7","","98.13","","","","","","Rain Showers,Fog"
"2000-05-10 10:00","2000","05","10","10:00","9.4","","7.2","","86","","32","","28","","9.7","","98.27","","","","","","Rain Showers,Fog"
"2000-05-10 11:00","2000","05","10","11:00","10.0","","7.7","","86","","30","","24","","9.7","","98.40","","","","","","Rain,Fog"
"2000-05-10 12:00","2000","05","10","12:00","11.8","","8.1","","78","","29","","26","","24.1","","98.53","","","","","","Cloudy"
"2000-05-10 13:00","2000","05","10","13:00","14.7","","8.8","","68","","32","","32","","24.1","","98.60","","","","","","Mostly Cloudy"
"2000-05-10 14:00","2000","05","10","14:00","16.0","","7.6","","57","","32","","26","","24.1","","98.63","","","","","","Mainly Clear"
"2000-05-10 15:00","2000","05","10","15:00","17.0","","7.7","","54","","31","","26","","24.1","","98.70","","","","","","Mostly Cloudy"
"2000-05-10 16:00","2000","05","10","16:00","17.8","","7.3","","50","","31","","24","","25.0","","98.73","","","","","","Mainly Clear"
"2000-05-10 17:00","2000","05","10","17:00","18.2","","6.8","","47","","31","","20","","25.0","","98.80","","","","","","Mainly Clear"
"2000-05-10 18:00","2000","05","10","18:00","18.0","","5.7","","44","","30","","20","","25.0","","98.83","","","","","","Mainly Clear"
"2000-05-10 19:00","2000","05","10","19:00","17.0","","6.4","","50","","30","","15","","25.0","","98.86","","","","","","Mostly Cloudy"
"2000-05-10 20:00","2000","05","10","20:00","15.9","","6.1","","52","","28","","9","","25.0","","98.90","","","","","","Mainly Clear"
"2000-05-10 21:00","2000","05","10","21:00","15.1","","7.1","","59","","28","","13","","25.0","","99.00","","","","","","Mostly Cloudy"
"2000-05-10 22:00","2000","05","10","22:00","14.5","","5.7","","55","","29","","15","","25.0","","99.06","","","","","","Mostly Cloudy"
"2000-05-10 23:00","2000","05","10","23:00","13.6","","4.5","","54","","29","","13","","25.0","","99.03","","","","","","Cloudy"
"2000-05-11 00:00","2000","05","11","00:00","13.1","","5.3","","59","","1","","6","","25.0","","98.96","","","","","","Cloudy"
"2000-05-11 01:00","2000","05","11","01:00","12.9","","4.5","","57","","29","","7","","25.0","","99.10","","","","","","Mostly Cloudy"
"2000-05-11 02:00","2000","05","11","02:00","12.2","","4.4","","59","","27","","7","","25.0","","99.13","","","","","","Mostly Cloudy"
"2000-05-11 03:00","2000","05","11","03:00","10.9","","5.0","","67","","24","","4","","25.0","","99.13","","","","","","Mainly Clear"
"2000-05-11 04:00","2000","05","11","04:00","9.3","","5.2","","76","","16","","7","","25.0","","99.06","","","","","","Mainly Clear"
"2000-05-11 05:00","2000","05","11","05:00","9.5","","5.8","","78","","24","","6","","24.1","","99.13","","","","","","Mostly Cloudy"
"2000-05-11 06:00","2000","05","11","06:00","10.4","","6.4","","76","","21","","6","","24.1","","99.13","","","","","","Mostly Cloudy"
"2000-05-11 07:00","2000","05","11","07:00","12.7","","7.2","","69","","17","","6","","24.1","","99.10","","","","","","Mostly Cloudy"
"2000-05-11 08:00","2000","05","11","08:00","14.2","","8.1","","67","","19","","6","","24.1","","99.16","","","","","","Mostly Cloudy"
"2000-05-11 09:00","2000","05","11","09:00","15.2","","8.4","","64","","18","","17","","24.1","","99.10","","","","","","Mostly Cloudy"
"2000-05-11 10:00","2000","05","11","10:00","16.3","","8.6","","60","","18","","13","","24.1","","99.13","","","","","","Mostly Cloudy"
"2000-05-11 11:00","2000","05","11","11:00","17.3","","9.3","","59","","16","","17","","24.1","","99.03","","","","","","Mostly Cloudy"
"2000-05-11 12:00","2000","05","11","12:00","18.7","","8.2","","50","","15","","20","","24.1","","98.93","","","","","","Cloudy"
"2000-05-11 13:00","2000","05","11","13:00","17.8","","8.1","","53","","17","","20","","24.1","","98.93","","","","","","Cloudy"
"2000-05-11 14:00","2000","05","11","14:00","17.1","","9.2","","60","","16","","24","","24.1","","98.76","","","","","","Rain Showers"
"2000-05-11 15:00","2000","05","11","15:00","16.1","","10.9","","71","","14","","19","","24.1","","98.60","","","","","","Rain Showers"
"2000-05-11 16:00","2000","05","11","16:00","17.8","","11.4","","66","","14","","15","","19.3","","98.43","","","","","","Thunderstorms"
"2000-05-11 17:00","2000","05","11","17:00","16.6","","12.3","","76","","12","","17","","24.1","","98.50","","","","","","Rain Showers"
"2000-05-11 18:00","2000","05","11","18:00","15.4","","11.8","","79","","12","","24","","19.3","","98.40","","","","","","Thunderstorms,Rain Showers"
"2000-05-11 19:00","2000","05","11","19:00","14.2","","10.2","","77","","13","","24","","19.3","","98.47","","","","","","Cloudy"
"2000-05-11 20:00","2000","05","11","20:00","14.3","","9.6","","73","","15","","22","","24.1","","98.37","","","","","","Cloudy"
"2000-05-11 21:00","2000","05","11","21:00","15.1","","9.8","","71","","16","","20","","24.1","","98.27","","","","","","Mostly Cloudy"
"2000-05-11 22:00","2000","05","11","22:00","16.4","","10.5","","68","","16","","15","","24.1","","98.17","","","","","","Mostly Cloudy"
"2000-05-11 23:00","2000","05","11","23:00","17.2","","10.2","","63","","18","","15","","24.1","","98.07","","","","","","Mostly Cloudy"
"2000-05-12 00:00","2000","05","12","00:00","17.3","","10.1","","63","","19","","17","","24.1","","97.97","","","","","","Mainly Clear"
"2000-05-12 01:00","2000","05","12","01:00","17.2","","11.0","","67","","21","","26","","24.1","","97.90","","","","","","Mainly Clear"
"2000-05-12 02:00","2000","05","12","02:00","17.8","","12.1","","69","","22","","20","","24.1","","97.87","","","","","","Mainly Clear"
"2000-05-12 03:00","2000","05","12","03:00","17.6","","13.4","","76","","22","","13","","24.1","","97.93","","","","","","Mainly Clear"
"2000-05-12 04:00","2000","05","12","04:00","17.5","","14.3","","81","","23","","11","","24.1","","97.97","","","","","","Mostly Cloudy"
"2000-05-12 05:00","2000","05","12","05:00","17.8","","14.7","","82","","32","","13","","16.1","","98.03","","","","","","Thunderstorms"
"2000-05-12 06:00","2000","05","12","06:00","18.7","","16.6","","88","","23","","7","","8.0","","98.00","","","","","","Haze"
"2000-05-12 07:00","2000","05","12","07:00","19.5","","17.4","","88","","25","","19","","4.8","","98.10","","","","","","Rain Showers,Haze"
"2000-05-12 08:00","2000","05","12","08:00","20.4","","17.9","","86","","24","","17","","6.4","","98.00","","26","","","","Haze"
"2000-05-12 09:00","2000","05","12","09:00","22.1","","19.5","","85","","24","","24","","11.3","","98.00","","29","","","","Mostly Cloudy"
"2000-05-12 10:00","2000","05","12","10:00","22.7","","19.0","","80","","22","","22","","11.3","","97.97","","29","","","","Mostly Cloudy"
"2000-05-12 11:00","2000","05","12","11:00","25.1","","20.4","","75","","25","","24","","9.7","","97.97","","33","","","","Haze"
"2000-05-12 12:00","2000","05","12","12:00","25.9","","20.8","","73","","24","","30","","9.7","","97.97","","34","","","","Haze"
"2000-05-12 13:00","2000","05","12","13:00","26.2","","20.7","","72","","24","","22","","9.7","","97.97","","34","","","","Haze"
"2000-05-12 14:00","2000","05","12","14:00","25.5","","20.8","","75","","22","","17","","8.0","","97.97","","34","","","","Haze"
"2000-05-12 15:00","2000","05","12","15:00","26.3","","21.3","","74","","22","","17","","9.7","","97.93","","35","","","","Haze"
"2000-05-12 16:00","2000","05","12","16:00","27.9","","21.8","","69","","22","","22","","9.7","","97.83","","37","","","","Haze"
"2000-05-12 17:00","2000","05","12","17:00","27.8","","21.6","","69","","22","","17","","9.7","","97.77","","37","","","","Haze"
"2000-05-12 18:00","2000","05","12","18:00","27.8","","21.0","","67","","22","","19","","11.3","","97.77","","36","","","","Mostly Cloudy"
"2000-05-12 19:00","2000","05","12","19:00","27.5","","20.5","","66","","24","","30","","11.3","","97.73","","35","","","","Mostly Cloudy"
"2000-05-12 20:00","2000","05","12","20:00","25.8","","19.7","","69","","22","","28","","11.3","","97.77","","33","","","","Mostly Cloudy"
"2000-05-12 21:00","2000","05","12","21:00","25.1","","19.8","","72","","23","","22","","11.3","","97.83","","33","","","","Cloudy"
"2000-05-12 22:00","2000","05","12","22:00","25.5","","19.3","","69","","27","","28","","12.9","","97.97","","33","","","","Thunderstorms"
"2000-05-12 23:00","2000","05","12","23:00","24.8","","19.4","","72","","23","","35","","12.9","","97.93","","32","","","","Cloudy"
"2000-05-13 00:00","2000","05","13","00:00","24.0","","19.2","","75","","22","","28","","12.9","","97.63","","31","","","","Cloudy"
"2000-05-13 01:00","2000","05","13","01:00","23.7","","18.3","","72","","24","","20","","12.9","","97.70","","30","","","","Cloudy"
"2000-05-13 02:00","2000","05","13","02:00","22.8","","17.0","","70","","27","","24","","16.1","","97.77","","28","","","","Cloudy"
"2000-05-13 03:00","2000","05","13","03:00","22.0","","17.0","","73","","30","","33","","19.3","","97.87","","27","","","","Mostly Cloudy"
"2000-05-13 04:00","2000","05","13","04:00","18.2","","13.9","","76","","31","","22","","24.1","","98.00","","","","","","Cloudy"
"2000-05-13 05:00","2000","05","13","05:00","17.8","","12.8","","73","","30","","17","","24.1","","98.13","","","","","","Cloudy"
"2000-05-13 06:00","2000","05","13","06:00","17.5","","12.3","","72","","29","","19","","24.1","","98.20","","","","","","Cloudy"
"2000-05-13 07:00","2000","05","13","07:00","17.3","","10.4","","64","","29","","15","","24.1","","98.33","","","","","","Cloudy"
"2000-05-13 08:00","2000","05","13","08:00","17.5","","9.0","","57","","29","","15","","24.1","","98.37","","","","","","Mostly Cloudy"
"2000-05-13 09:00","2000","05","13","09:00","17.7","","9.4","","58","","27","","26","","24.1","","98.47","","","","","","Mostly Cloudy"
"2000-05-13 10:00","2000","05","13","10:00","18.8","","8.2","","50","","29","","26","","24.1","","98.47","","","","","","Mostly Cloudy"
"2000-05-13 11:00","2000","05","13","11:00","20.0","","8.5","","47","","26","","24","","24.1","","98.43","","","","","","Mostly Cloudy"
"2000-05-13 12:00","2000","05","13","12:00","20.8","","6.6","","40","","26","","43","","24.1","","98.50","","","","","","Mainly Clear"
"2000-05-13 13:00","2000","05","13","13:00","21.1","","6.6","","39","","27","","44","","24.1","","98.53","","","","","","Mainly Clear"
"2000-05-13 14:00","2000","05","13","14:00","20.9","","6.3","","39","","27","","41","","24.1","","98.53","","","","","","Mainly Clear"
"2000-05-13 15:00","2000","05","13","15:00","20.0","","4.4","","36","","27","","37","","25.0","","98.60","","","","","","Mainly Clear"
"2000-05-13 16:00","2000","05","13","16:00","18.6","","2.5","","34","","27","","44","","25.0","","98.66","","","","","","Mainly Clear"
"2000-05-13 17:00","2000","05","13","17:00","17.6","","4.2","","41","","29","","39","","25.0","","98.76","","","","","","Mainly Clear"
"2000-05-13 18:00","2000","05","13","18:00","16.1","","3.8","","44","","28","","35","","25.0","","98.86","","","","","","Mainly Clear"
"2000-05-13 19:00","2000","05","13","19:00","13.8","","3.4","","49","","30","","28","","25.0","","99.00","","","","","","Mainly Clear"
"2000-05-13 20:00","2000","05","13","20:00","12.4","","2.8","","52","","30","","30","","24.1","","99.10","","","","","","Mostly Cloudy"
"2000-05-13 21:00","2000","05","13","21:00","11.9","","1.7","","50","","30","","26","","25.0","","99.20","","","","","","Mostly Cloudy"
"2000-05-13 22:00","2000","05","13","22:00","11.3","","0.9","","49","","30","","30","","25.0","","99.26","","","","","","Mostly Cloudy"
"2000-05-13 23:00","2000","05","13","23:00","11.1","","0.7","","49","","31","","17","","24.1","","99.30","","","","","","Mostly Cloudy"
"2000-05-14 00:00","2000","05","14","00:00","11.2","","1.4","","51","","27","","13","","24.1","","99.30","","","","","","Cloudy"
"2000-05-14 01:00","2000","05","14","01:00","11.2","","1.7","","52","","29","","19","","24.1","","99.33","","","","","","Cloudy"
"2000-05-14 02:00","2000","05","14","02:00","10.9","","0.3","","48","","28","","24","","24.1","","99.33","","","","","","Cloudy"
"2000-05-14 03:00","2000","05","14","03:00","10.6","","1.1","","52","","29","","30","","24.1","","99.33","","","","","","Mostly Cloudy"
"2000-05-14 04:00","2000","05","14","04:00","10.1","","0.6","","52","","26","","17","","24.1","","99.33","","","","","","Mostly Cloudy"
"2000-05-14 05:00","2000","05","14","05:00","9.5","","2.1","","60","","25","","19","","24.1","","99.33","","","","","","Mainly Clear"
"2000-05-14 06:00","2000","05","14","06:00","8.8","","2.5","","65","","26","","19","","24.1","","99.40","","","","","","Mainly Clear"
"2000-05-14 07:00","2000","05","14","07:00","8.4","","-0.7","","53","","28","","30","","24.1","","99.50","","","","","","Mostly Cloudy"
"2000-05-14 08:00","2000","05","14","08:00","9.0","","-1.4","","48","","28","","26","","24.1","","99.56","","","","","","Mainly Clear"
"2000-05-14 09:00","2000","05","14","09:00","10.5","","-0.7","","46","","29","","30","","24.1","","99.56","","","","","","Mainly Clear"
"2000-05-14 10:00","2000","05","14","10:00","11.5","","-1.1","","42","","28","","35","","24.1","","99.60","","","","","","Mainly Clear"
"2000-05-14 11:00","2000","05","14","11:00","12.5","","-0.7","","40","","28","","32","","24.1","","99.60","","","","","","Mostly Cloudy"
"2000-05-14 12:00","2000","05","14","12:00","12.9","","-1.0","","38","","28","","35","","24.1","","99.60","","","","","","Mostly Cloudy"
"2000-05-14 13:00","2000","05","14","13:00","13.7","","-0.2","","38","","28","","32","","24.1","","99.60","","","","","","Mostly Cloudy"
"2000-05-14 14:00","2000","05","14","14:00","14.1","","-1.1","","35","","31","","35","","24.1","","99.56","","","","","","Mostly Cloudy"
"2000-05-14 15:00","2000","05","14","15:00","14.4","","-1.1","","34","","28","","39","","24.1","","99.56","","","","","","Mostly Cloudy"
"2000-05-14 16:00","2000","05","14","16:00","13.7","","-1.3","","35","","30","","30","","25.0","","99.56","","","","","","Mostly Cloudy"
"2000-05-14 17:00","2000","05","14","17:00","13.4","","-1.6","","35","","30","","32","","25.0","","99.66","","","","","","Mostly Cloudy"
"2000-05-14 18:00","2000","05","14","18:00","12.8","","-1.0","","38","","29","","28","","25.0","","99.70","","","","","","Mostly Cloudy"
"2000-05-14 19:00","2000","05","14","19:00","12.4","","-1.0","","39","","29","","28","","25.0","","99.70","","","","","","Mainly Clear"
"2000-05-14 20:00","2000","05","14","20:00","11.7","","-1.9","","39","","30","","20","","25.0","","99.73","","","","","","Mainly Clear"
"2000-05-14 21:00","2000","05","14","21:00","10.9","","-2.4","","39","","29","","17","","25.0","","99.76","","","","","","Clear"
"2000-05-14 22:00","2000","05","14","22:00","10.3","","-1.9","","42","","25","","9","","25.0","","99.80","","","","","","Mainly Clear"
"2000-05-14 23:00","2000","05","14","23:00","9.4","","-1.0","","48","","25","","11","","25.0","","99.80","","","","","","Clear"
"2000-05-15 00:00","2000","05","15","00:00","8.7","","-0.6","","52","","25","","11","","25.0","","99.80","","","","","","Clear"
"2000-05-15 01:00","2000","05","15","01:00","7.8","","0.0","","58","","25","","9","","25.0","","99.80","","","","","","Clear"
"2000-05-15 02:00","2000","05","15","02:00","7.3","","0.2","","61","","25","","11","","25.0","","99.80","","","","","","Clear"
"2000-05-15 03:00","2000","05","15","03:00","7.2","","0.2","","61","","25","","13","","25.0","","99.80","","","","","","Clear"
"2000-05-15 04:00","2000","05","15","04:00","6.6","","0.3","","64","","25","","13","","25.0","","99.83","","","","","","Clear"
"2000-05-15 05:00","2000","05","15","05:00","6.6","","0.3","","64","","25","","13","","24.1","","99.83","","","","","","Mainly Clear"
"2000-05-15 06:00","2000","05","15","06:00","7.0","","0.6","","64","","26","","11","","24.1","","99.86","","","","","","Clear"
"2000-05-15 07:00","2000","05","15","07:00","8.9","","1.3","","59","","27","","13","","24.1","","99.90","","","","","","Clear"
"2000-05-15 08:00","2000","05","15","08:00","11.7","","1.2","","48","","27","","17","","24.1","","99.93","","","","","","Clear"
"2000-05-15 09:00","2000","05","15","09:00","13.8","","1.2","","42","","27","","17","","24.1","","99.90","","","","","","Clear"
"2000-05-15 10:00","2000","05","15","10:00","14.9","","-0.8","","34","","28","","15","","24.1","","99.90","","","","","","Mainly Clear"
"2000-05-15 11:00","2000","05","15","11:00","15.9","","-0.7","","32","","28","","26","","24.1","","99.86","","","","","","Mostly Cloudy"
"2000-05-15 12:00","2000","05","15","12:00","16.6","","-0.7","","31","","31","","24","","24.1","","99.83","","","","","","Mostly Cloudy"
"2000-05-15 13:00","2000","05","15","13:00","17.0","","-0.3","","31","","31","","20","","24.1","","99.80","","","","","","Mostly Cloudy"
"2000-05-15 14:00","2000","05","15","14:00","16.6","","-1.1","","30","","30","","24","","24.1","","99.73","","","","","","Mostly Cloudy"
"2000-05-15 15:00","2000","05","15","15:00","18.1","","-2.5","","24","","29","","22","","24.1","","99.70","","","","","","Mainly Clear"
"2000-05-15 16:00","2000","05","15","16:00","17.5","","-2.7","","25","","31","","24","","24.1","","99.66","","","","","","Mainly Clear"
"2000-05-15 17:00","2000","05","15","17:00","17.7","","-3.2","","24","","32","","13","","24.1","","99.70","","","","","","Mainly Clear"
"2000-05-15 18:00","2000","05","15","18:00","17.0","","-3.2","","25","","31","","26","","24.1","","99.70","","","","","","Clear"
"2000-05-15 19:00","2000","05","15","19:00","16.2","","-3.3","","26","","31","","11","","24.1","","99.70","","","","","","Clear"
"2000-05-15 20:00","2000","05","15","20:00","15.0","","-3.0","","29","","30","","9","","24.1","","99.73","","","","","","Mainly Clear"
"2000-05-15 21:00","2000","05","15","21:00","13.5","","-1.7","","35","","30","","9","","24.1","","99.80","","","","","","Clear"
"2000-05-15 22:00","2000","05","15","22:00","12.8","","-1.3","","38","","27","","11","","24.1","","99.80","","","","","","Clear"
"2000-05-15 23:00","2000","05","15","23:00","12.3","","-0.8","","40","","28","","11","","24.1","","99.80","","","","","","Clear"
"2000-05-16 00:00","2000","05","16","00:00","10.2","","0.1","","49","","26","","6","","24.1","","99.76","","","","","","Mainly Clear"
"2000-05-16 01:00","2000","05","16","01:00","9.2","","0.7","","55","","19","","4","","24.1","","99.70","","","","","","Mainly Clear"
"2000-05-16 02:00","2000","05","16","02:00","8.1","","1.8","","64","","19","","6","","24.1","","99.66","","","","","","Clear"
"2000-05-16 03:00","2000","05","16","03:00","8.4","","0.9","","59","","23","","7","","24.1","","99.66","","","","","","Mainly Clear"
"2000-05-16 04:00","2000","05","16","04:00","7.7","","1.8","","66","","15","","7","","24.1","","99.63","","","","","","Mainly Clear"
"2000-05-16 05:00","2000","05","16","05:00","7.8","","2.9","","71","","20","","6","","24.1","","99.63","","","","","","Mainly Clear"
"2000-05-16 06:00","2000","05","16","06:00","8.9","","4.7","","75","","18","","6","","24.1","","99.63","","","","","","Mainly Clear"
"2000-05-16 07:00","2000","05","16","07:00","12.3","","6.2","","66","","20","","6","","24.1","","99.63","","","","","","Cloudy"
"2000-05-16 08:00","2000","05","16","08:00","13.2","","7.0","","66","","22","","15","","24.1","","99.63","","","","","","Cloudy"
"2000-05-16 09:00","2000","05","16","09:00","14.8","","5.8","","55","","23","","22","","24.1","","99.66","","","","","","Cloudy"
"2000-05-16 10:00","2000","05","16","10:00","16.0","","3.3","","43","","26","","17","","24.1","","99.66","","","","","","Cloudy"
"2000-05-16 11:00","2000","05","16","11:00","15.0","","4.4","","49","","27","","13","","24.1","","99.70","","","","","","Rain Showers"
"2000-05-16 12:00","2000","05","16","12:00","15.3","","5.0","","50","","29","","19","","24.1","","99.63","","","","","","Rain Showers"
"2000-05-16 13:00","2000","05","16","13:00","12.5","","8.3","","76","","27","","15","","16.1","","99.63","","","","","","Rain Showers"
"2000-05-16 14:00","2000","05","16","14:00","12.5","","8.6","","77","","24","","13","","12.9","","99.63","","","","","","Rain"
"2000-05-16 15:00","2000","05","16","15:00","12.0","","8.3","","78","","24","","9","","11.3","","99.56","","","","","","Rain"
"2000-05-16 16:00","2000","05","16","16:00","11.9","","8.5","","80","","19","","9","","12.9","","99.46","","","","","","Rain"
"2000-05-16 17:00","2000","05","16","17:00","12.1","","8.8","","80","","18","","13","","8.0","","99.46","","","","","","Rain,Haze"
"2000-05-16 18:00","2000","05","16","18:00","12.0","","8.9","","81","","16","","13","","12.9","","99.43","","","","","","Cloudy"
"2000-05-16 19:00","2000","05","16","19:00"
"2000-05-16 20:00","2000","05","16","20:00","11.8","","9.1","","84","","19","","9","","8.0","","99.46","","","","","","Rain,Haze"
"2000-05-16 21:00","2000","05","16","21:00","12.0","","9.0","","82","","17","","13","","16.1","","99.46","","","","","","Cloudy"
"2000-05-16 22:00","2000","05","16","22:00","11.7","","8.8","","82","","14","","11","","19.3","","99.46","","","","","","Cloudy"
"2000-05-16 23:00","2000","05","16","23:00","11.5","","8.5","","82","","10","","9","","16.1","","99.46","","","","","","Cloudy"
"2000-05-17 00:00","2000","05","17","00:00","11.4","","8.5","","82","","12","","7","","16.1","","99.43","","","","","","Cloudy"
"2000-05-17 01:00","2000","05","17","01:00","11.4","","8.6","","83","","12","","7","","16.1","","99.36","","","","","","Cloudy"
"2000-05-17 02:00","2000","05","17","02:00","11.1","","8.2","","82","","11","","7","","24.1","","99.33","","","","","","Mostly Cloudy"
"2000-05-17 03:00","2000","05","17","03:00","10.5","","7.5","","82","","12","","13","","24.1","","99.30","","","","","","Mostly Cloudy"
"2000-05-17 04:00","2000","05","17","04:00","9.8","","7.4","","85","","10","","7","","19.3","","99.30","","","","","","Mainly Clear"
"2000-05-17 05:00","2000","05","17","05:00","9.1","","7.2","","88","","10","","7","","9.7","","99.30","","","","","","Fog"
"2000-05-17 06:00","2000","05","17","06:00","9.5","","7.3","","86","","11","","7","","11.3","","99.30","","","","","","Mainly Clear"
"2000-05-17 07:00","2000","05","17","07:00","11.8","","8.0","","78","","12","","11","","16.1","","99.33","","","","","","Mainly Clear"
"2000-05-17 08:00","2000","05","17","08:00","14.2","","8.9","","70","","14","","13","","19.3","","99.33","","","","","","Mainly Clear"
"2000-05-17 09:00","2000","05","17","09:00","15.7","","9.4","","66","","16","","11","","19.3","","99.26","","","","","","Mainly Clear"
"2000-05-17 10:00","2000","05","17","10:00","17.3","","10.7","","65","","18","","7","","19.3","","99.23","","","","","","Mainly Clear"
"2000-05-17 11:00","2000","05","17","11:00","18.8","","11.3","","62","","16","","11","","19.3","","99.20","","","","","","Mostly Cloudy"
"2000-05-17 12:00","2000","05","17","12:00","19.6","","10.9","","57","","19","","13","","24.1","","99.16","","","","","","Mainly Clear"
"2000-05-17 13:00","2000","05","17","13:00","21.1","","11.4","","54","","18","","13","","24.1","","99.10","","","","","","Mainly Clear"
"2000-05-17 14:00","2000","05","17","14:00","21.9","","12.0","","53","","18","","13","","19.3","","98.96","","","","","","Mostly Cloudy"
"2000-05-17 15:00","2000","05","17","15:00","21.7","","12.3","","55","","21","","17","","9.7","","98.96","","","","","","Haze"
"2000-05-17 16:00","2000","05","17","16:00"
"2000-05-17 17:00","2000","05","17","17:00","20.7","","14.5","","68","","20","","7","","6.4","","98.86","","","","","","Haze"
"2000-05-17 18:00","2000","05","17","18:00","20.7","","13.9","","65","","16","","13","","9.7","","98.86","","","","","","Haze"
"2000-05-17 19:00","2000","05","17","19:00","19.0","","11.8","","63","","13","","17","","11.3","","98.86","","","","","","Cloudy"
"2000-05-17 20:00","2000","05","17","20:00","17.6","","10.2","","62","","12","","6","","12.9","","98.83","","","","","","Cloudy"
"2000-05-17 21:00","2000","05","17","21:00","17.2","","11.7","","70","","15","","6","","16.1","","98.80","","","","","","Cloudy"
"2000-05-17 22:00","2000","05","17","22:00","18.1","","14.1","","77","","22","","13","","12.9","","98.83","","","","","","Cloudy"
"2000-05-17 23:00","2000","05","17","23:00","19.3","","15.1","","77","","22","","20","","12.9","","98.76","","","","","","Rain Showers"
"2000-05-18 00:00","2000","05","18","00:00","18.8","","14.7","","77","","20","","17","","16.1","","98.63","","","","","","Cloudy"
"2000-05-18 01:00","2000","05","18","01:00","18.4","","14.3","","77","","18","","17","","19.3","","98.47","","","","","","Cloudy"
"2000-05-18 02:00","2000","05","18","02:00","18.4","","14.3","","77","","21","","24","","24.1","","98.37","","","","","","Cloudy"
"2000-05-18 03:00","2000","05","18","03:00","18.7","","14.6","","77","","22","","30","","19.3","","98.33","","","","","","Cloudy"
"2000-05-18 04:00","2000","05","18","04:00","19.0","","14.8","","77","","22","","26","","24.1","","98.27","","","","","","Mostly Cloudy"
"2000-05-18 05:00","2000","05","18","05:00","19.9","","14.9","","73","","23","","22","","12.9","","98.30","","","","","","Cloudy"
"2000-05-18 06:00","2000","05","18","06:00","20.9","","15.0","","69","","26","","28","","9.7","","98.40","","25","","","","Haze"
"2000-05-18 07:00","2000","05","18","07:00","20.7","","15.3","","71","","25","","32","","11.3","","98.47","","25","","","","Cloudy"
"2000-05-18 08:00","2000","05","18","08:00","21.2","","15.5","","70","","25","","22","","11.3","","98.50","","25","","","","Cloudy"
"2000-05-18 09:00","2000","05","18","09:00"
"2000-05-18 10:00","2000","05","18","10:00","21.9","","15.8","","68","","30","","20","","19.3","","98.60","","26","","","","Cloudy"
"2000-05-18 11:00","2000","05","18","11:00","15.0","","13.2","","89","","4","","13","","12.9","","98.70","","","","","","Rain Showers"
"2000-05-18 12:00","2000","05","18","12:00","14.0","","12.2","","89","","3","","19","","8.0","","98.80","","","","","","Rain,Fog"
"2000-05-18 13:00","2000","05","18","13:00","13.1","","11.0","","87","","2","","15","","8.0","","98.96","","","","","","Rain,Fog"
"2000-05-18 14:00","2000","05","18","14:00","12.6","","10.6","","88","","4","","24","","3.6","","99.00","","","","","","Rain,Fog"
"2000-05-18 15:00","2000","05","18","15:00","11.8","","9.1","","84","","4","","32","","12.9","","98.90","","","","","","Rain"
"2000-05-18 16:00","2000","05","18","16:00","11.3","","9.1","","86","","5","","19","","2.8","","99.13","","","","","","Thunderstorms,Heavy Rain Showers,Fog"
"2000-05-18 17:00","2000","05","18","17:00","10.8","","8.9","","88","","2","","22","","11.3","","99.30","","","","","","Rain Showers"
"2000-05-18 18:00","2000","05","18","18:00","10.2","","8.4","","89","","7","","26","","4.8","","99.10","","","","","","Thunderstorms,Moderate Rain Showers,Fog"
"2000-05-18 19:00","2000","05","18","19:00","10.1","","8.5","","90","","1","","22","","4.8","","99.36","","","","","","Thunderstorms,Moderate Rain Showers,Fog"
"2000-05-18 20:00","2000","05","18","20:00","9.6","","7.9","","89","","4","","22","","8.0","","99.30","","","","","","Thunderstorms,Rain Showers,Fog"
"2000-05-18 21:00","2000","05","18","21:00","9.8","","8.2","","90","","4","","19","","8.0","","99.30","","","","","","Thunderstorms,Moderate Rain Showers,Fog"
"2000-05-18 22:00","2000","05","18","22:00","9.5","","8.1","","91","","5","","28","","11.3","","99.30","","","","","","Thunderstorms,Moderate Rain Showers"
"2000-05-18 23:00","2000","05","18","23:00","10.4","","8.9","","90","","6","","30","","4.8","","99.23","","","","","","Moderate Rain Showers,Fog"
"2000-05-19 00:00","2000","05","19","00:00","10.6","","9.1","","90","","5","","19","","6.4","","99.33","","","","","","Rain Showers,Fog"
"2000-05-19 01:00","2000","05","19","01:00","10.9","","9.2","","89","","7","","28","","11.3","","99.16","","","","","","Rain"
"2000-05-19 02:00","2000","05","19","02:00","10.9","","9.2","","89","","9","","26","","11.3","","99.16","","","","","","Rain"
"2000-05-19 03:00","2000","05","19","03:00","10.8","","8.5","","86","","8","","32","","16.1","","99.16","","","","","","Cloudy"
"2000-05-19 04:00","2000","05","19","04:00","10.5","","8.1","","85","","7","","28","","16.1","","99.20","","","","","","Cloudy"
"2000-05-19 05:00","2000","05","19","05:00","10.3","","7.4","","82","","8","","32","","19.3","","99.23","","","","","","Cloudy"
"2000-05-19 06:00","2000","05","19","06:00","9.7","","7.9","","89","","4","","30","","12.9","","99.26","","","","","","Rain Showers"
"2000-05-19 07:00","2000","05","19","07:00","8.8","","6.9","","88","","5","","32","","8.0","","99.26","","","","","","Rain,Fog"
"2000-05-19 08:00","2000","05","19","08:00","7.5","","5.7","","88","","6","","37","","6.4","","99.36","","","","","","Rain,Fog"
"2000-05-19 09:00","2000","05","19","09:00","7.0","","4.8","","86","","6","","32","","8.0","","99.46","","","","","","Rain,Fog"
"2000-05-19 10:00","2000","05","19","10:00","7.0","","5.1","","88","","6","","26","","6.4","","99.43","","","","","","Rain,Fog"
"2000-05-19 11:00","2000","05","19","11:00","7.3","","5.6","","89","","6","","26","","6.4","","99.53","","","","","","Rain,Fog"
"2000-05-19 12:00","2000","05","19","12:00","7.7","","5.9","","88","","6","","22","","11.3","","99.53","","","","","","Rain"
"2000-05-19 13:00","2000","05","19","13:00","8.4","","5.9","","84","","7","","26","","24.1","","99.56","","","","","","Cloudy"
"2000-05-19 14:00","2000","05","19","14:00","9.1","","6.2","","82","","7","","26","","24.1","","99.56","","","","","","Cloudy"
"2000-05-19 15:00","2000","05","19","15:00","8.9","","6.3","","84","","4","","24","","12.9","","99.56","","","","","","Cloudy"
"2000-05-19 16:00","2000","05","19","16:00","9.1","","6.0","","81","","4","","20","","12.9","","99.50","","","","","","Cloudy"
"2000-05-19 17:00","2000","05","19","17:00","9.8","","6.1","","78","","4","","24","","16.1","","99.46","","","","","","Cloudy"
"2000-05-19 18:00","2000","05","19","18:00","10.4","","5.8","","73","","4","","24","","19.3","","99.46","","","","","","Cloudy"
"2000-05-19 19:00","2000","05","19","19:00","10.4","","5.4","","71","","4","","24","","19.3","","99.43","","","","","","Cloudy"
"2000-05-19 20:00","2000","05","19","20:00","10.3","","5.6","","73","","4","","19","","24.1","","99.46","","","","","","Cloudy"
"2000-05-19 21:00","2000","05","19","21:00","10.2","","5.3","","72","","4","","19","","24.1","","99.53","","","","","","Cloudy"
"2000-05-19 22:00","2000","05","19","22:00","9.8","","5.4","","74","","3","","15","","24.1","","99.53","","","","","","Cloudy"
"2000-05-19 23:00","2000","05","19","23:00","10.0","","4.9","","71","","5","","17","","24.1","","99.50","","","","","","Cloudy"
"2000-05-20 00:00","2000","05","20","00:00","9.5","","4.4","","70","","5","","15","","24.1","","99.50","","","","","","Mostly Cloudy"
"2000-05-20 01:00","2000","05","20","01:00","9.3","","4.3","","71","","4","","11","","24.1","","99.46","","","","","","Cloudy"
"2000-05-20 02:00","2000","05","20","02:00","9.1","","3.4","","67","","4","","15","","24.1","","99.43","","","","","","Cloudy"
"2000-05-20 03:00","2000","05","20","03:00","8.7","","3.6","","70","","35","","11","","24.1","","99.46","","","","","","Cloudy"
"2000-05-20 04:00","2000","05","20","04:00","8.8","","2.8","","66","","1","","9","","24.1","","99.43","","","","","","Cloudy"
"2000-05-20 05:00","2000","05","20","05:00","8.5","","2.4","","65","","36","","9","","24.1","","99.43","","","","","","Mostly Cloudy"
"2000-05-20 06:00","2000","05","20","06:00","8.6","","2.7","","66","","1","","13","","24.1","","99.46","","","","","","Mostly Cloudy"
"2000-05-20 07:00","2000","05","20","07:00","8.6","","2.2","","64","","1","","9","","24.1","","99.53","","","","","","Mostly Cloudy"
"2000-05-20 08:00","2000","05","20","08:00","9.5","","3.0","","64","","2","","11","","24.1","","99.53","","","","","","Mostly Cloudy"
"2000-05-20 09:00","2000","05","20","09:00","10.7","","3.6","","61","","36","","13","","24.1","","99.56","","","","","","Mostly Cloudy"
"2000-05-20 10:00","2000","05","20","10:00","11.7","","4.0","","59","","4","","7","","24.1","","99.53","","","","","","Mostly Cloudy"
"2000-05-20 11:00","2000","05","20","11:00","12.6","","5.4","","61","","6","","9","","24.1","","99.56","","","","","","Mostly Cloudy"
"2000-05-20 12:00","2000","05","20","12:00","13.4","","6.7","","64","","9","","7","","24.1","","99.60","","","","","","Mostly Cloudy"
"2000-05-20 13:00","2000","05","20","13:00","13.6","","6.7","","63","","5","","9","","24.1","","99.56","","","","","","Mostly Cloudy"
"2000-05-20 14:00","2000","05","20","14:00","14.8","","7.2","","60","","7","","13","","24.1","","99.53","","","","","","Mostly Cloudy"
"2000-05-20 15:00","2000","05","20","15:00","15.2","","7.2","","59","","8","","17","","24.1","","99.50","","","","","","Mostly Cloudy"
"2000-05-20 16:00","2000","05","20","16:00","15.3","","7.2","","58","","10","","13","","24.1","","99.50","","","","","","Mainly Clear"
"2000-05-20 17:00","2000","05","20","17:00","14.9","","7.6","","62","","11","","13","","24.1","","99.46","","","","","","Mainly Clear"
"2000-05-20 18:00","2000","05","20","18:00","14.7","","7.5","","62","","10","","13","","24.1","","99.43","","","","","","Mainly Clear"
"2000-05-20 19:00","2000","05","20","19:00","13.8","","8.7","","71","","14","","13","","24.1","","99.46","","","","","","Mostly Cloudy"
"2000-05-20 20:00","2000","05","20","20:00","12.2","","8.5","","78","","16","","17","","24.1","","99.46","","","","","","Mostly Cloudy"
"2000-05-20 21:00","2000","05","20","21:00","10.9","","8.2","","83","","16","","13","","24.1","","99.53","","","","","","Mostly Cloudy"
"2000-05-20 22:00","2000","05","20","22:00","10.3","","8.1","","86","","16","","6","","24.1","","99.50","","","","","","Clear"
"2000-05-20 23:00","2000","05","20","23:00","10.1","","8.1","","87","","17","","4","","19.3","","99.50","","","","","","Mostly Cloudy"
"2000-05-21 00:00","2000","05","21","00:00","10.3","","8.2","","87","","19","","6","","16.1","","99.50","","","","","","Mostly Cloudy"
"2000-05-21 01:00","2000","05","21","01:00","10.5","","8.1","","85","","","","0","","24.1","","99.46","","","","","","Mostly Cloudy"
"2000-05-21 02:00","2000","05","21","02:00","10.3","","8.1","","86","","","","0","","24.1","","99.40","","","","","","Mostly Cloudy"
"2000-05-21 03:00","2000","05","21","03:00","10.0","","8.1","","88","","20","","4","","19.3","","99.40","","","","","","Mostly Cloudy"
"2000-05-21 04:00","2000","05","21","04:00","10.4","","7.7","","83","","18","","4","","19.3","","99.40","","","","","","Mostly Cloudy"
"2000-05-21 05:00","2000","05","21","05:00","10.3","","7.7","","84","","19","","4","","19.3","","99.40","","","","","","Cloudy"
"2000-05-21 06:00","2000","05","21","06:00","10.2","","8.0","","86","","14","","6","","19.3","","99.43","","","","","","Mostly Cloudy"
"2000-05-21 07:00","2000","05","21","07:00","10.6","","8.6","","87","","10","","7","","11.3","","99.43","","","","","","Mostly Cloudy"
"2000-05-21 08:00","2000","05","21","08:00","12.1","","9.5","","84","","14","","9","","12.9","","99.43","","","","","","Mostly Cloudy"
"2000-05-21 09:00","2000","05","21","09:00","13.4","","9.8","","79","","15","","7","","19.3","","99.46","","","","","","Mostly Cloudy"
"2000-05-21 10:00","2000","05","21","10:00","14.1","","9.7","","75","","14","","11","","24.1","","99.43","","","","","","Mostly Cloudy"
"2000-05-21 11:00","2000","05","21","11:00","14.5","","9.9","","74","","18","","9","","24.1","","99.43","","","","","","Mostly Cloudy"
"2000-05-21 12:00","2000","05","21","12:00","16.3","","9.9","","66","","16","","7","","24.1","","99.36","","","","","","Mainly Clear"
"2000-05-21 13:00","2000","05","21","13:00","16.8","","9.8","","63","","18","","13","","24.1","","99.33","","","","","","Mainly Clear"
"2000-05-21 14:00","2000","05","21","14:00","16.6","","9.7","","64","","18","","15","","24.1","","99.26","","","","","","Mainly Clear"
"2000-05-21 15:00","2000","05","21","15:00","17.7","","10.0","","61","","18","","15","","24.1","","99.23","","","","","","Mostly Cloudy"
"2000-05-21 16:00","2000","05","21","16:00","17.5","","9.5","","59","","18","","11","","24.1","","99.16","","","","","","Mostly Cloudy"
"2000-05-21 17:00","2000","05","21","17:00","17.2","","10.4","","64","","18","","17","","24.1","","99.16","","","","","","Mostly Cloudy"
"2000-05-21 18:00","2000","05","21","18:00","16.5","","9.7","","64","","18","","13","","24.1","","99.13","","","","","","Mostly Cloudy"
"2000-05-21 19:00","2000","05","21","19:00","15.3","","9.3","","67","","17","","11","","24.1","","99.10","","","","","","Mostly Cloudy"
"2000-05-21 20:00","2000","05","21","20:00","13.9","","9.4","","74","","16","","11","","24.1","","99.10","","","","","","Mainly Clear"
"2000-05-21 21:00","2000","05","21","21:00","13.4","","9.0","","75","","15","","6","","24.1","","99.10","","","","","","Mostly Cloudy"
"2000-05-21 22:00","2000","05","21","22:00","13.1","","8.5","","74","","15","","9","","24.1","","99.10","","","","","","Mostly Cloudy"
"2000-05-21 23:00","2000","05","21","23:00","12.6","","9.0","","79","","14","","4","","24.1","","99.06","","","","","","Mostly Cloudy"
"2000-05-22 00:00","2000","05","22","00:00","12.7","","9.9","","83","","17","","9","","24.1","","99.03","","","","","","Mostly Cloudy"
"2000-05-22 01:00","2000","05","22","01:00","13.0","","10.2","","83","","16","","6","","24.1","","98.96","","","","","","Mostly Cloudy"
"2000-05-22 02:00","2000","05","22","02:00","13.0","","10.3","","84","","","","0","","24.1","","98.86","","","","","","Mostly Cloudy"
"2000-05-22 03:00","2000","05","22","03:00","12.8","","10.3","","85","","22","","6","","24.1","","98.86","","","","","","Mostly Cloudy"
"2000-05-22 04:00","2000","05","22","04:00","12.9","","10.4","","85","","20","","6","","24.1","","98.83","","","","","","Mostly Cloudy"
"2000-05-22 05:00","2000","05","22","05:00","12.8","","10.4","","85","","21","","7","","24.1","","98.83","","","","","","Cloudy"
"2000-05-22 06:00","2000","05","22","06:00","12.9","","10.7","","86","","20","","6","","19.3","","98.83","","","","","","Mostly Cloudy"
"2000-05-22 07:00","2000","05","22","07:00","13.7","","10.9","","83","","21","","6","","9.7","","98.83","","","","","","Haze"
"2000-05-22 08:00","2000","05","22","08:00","15.5","","11.0","","75","","20","","9","","9.7","","98.83","","","","","","Haze"
"2000-05-22 09:00","2000","05","22","09:00","17.0","","11.0","","68","","23","","7","","11.3","","98.80","","","","","","Mostly Cloudy"
"2000-05-22 10:00","2000","05","22","10:00","18.1","","10.8","","62","","23","","11","","16.1","","98.76","","","","","","Mostly Cloudy"
"2000-05-22 11:00","2000","05","22","11:00","18.6","","10.6","","60","","23","","13","","19.3","","98.73","","","","","","Mostly Cloudy"
"2000-05-22 12:00","2000","05","22","12:00","19.6","","10.3","","55","","23","","15","","19.3","","98.70","","","","","","Mostly Cloudy"
"2000-05-22 13:00","2000","05","22","13:00","20.3","","11.0","","55","","19","","24","","24.1","","98.63","","","","","","Mostly Cloudy"
"2000-05-22 14:00","2000","05","22","14:00","20.3","","10.7","","54","","19","","20","","24.1","","98.57","","","","","","Mostly Cloudy"
"2000-05-22 15:00","2000","05","22","15:00","20.3","","9.8","","51","","20","","19","","24.1","","98.53","","","","","","Mostly Cloudy"
"2000-05-22 16:00","2000","05","22","16:00","19.4","","10.0","","55","","22","","28","","19.3","","98.47","","","","","","Cloudy"
"2000-05-22 17:00","2000","05","22","17:00","19.0","","10.5","","58","","19","","15","","19.3","","98.43","","","","","","Cloudy"
"2000-05-22 18:00","2000","05","22","18:00","18.3","","10.8","","62","","18","","15","","19.3","","98.40","","","","","","Rain Showers"
"2000-05-22 19:00","2000","05","22","19:00","17.5","","11.3","","67","","18","","13","","19.3","","98.40","","","","","","Mostly Cloudy"
"2000-05-22 20:00","2000","05","22","20:00","16.3","","12.8","","80","","17","","13","","9.7","","98.43","","","","","","Rain Showers,Fog"
"2000-05-22 21:00","2000","05","22","21:00","15.7","","12.9","","83","","17","","11","","19.3","","98.37","","","","","","Cloudy"
"2000-05-22 22:00","2000","05","22","22:00","15.9","","13.3","","85","","18","","15","","11.3","","98.33","","","","","","Rain Showers"
"2000-05-22 23:00","2000","05","22","23:00","15.9","","13.3","","85","","20","","19","","16.1","","98.23","","","","","","Rain Showers"
"2000-05-23 00:00","2000","05","23","00:00","15.5","","13.9","","90","","22","","7","","11.3","","98.23","","","","","","Rain Showers"
"2000-05-23 01:00","2000","05","23","01:00","15.7","","13.8","","88","","18","","15","","11.3","","98.13","","","","","","Rain Showers"
"2000-05-23 02:00","2000","05","23","02:00","15.5","","13.7","","89","","19","","15","","8.0","","98.00","","","","","","Fog"
"2000-05-23 03:00","2000","05","23","03:00","15.6","","13.6","","88","","21","","19","","8.0","","97.93","","","","","","Rain Showers,Fog"
"2000-05-23 04:00","2000","05","23","04:00","15.5","","13.7","","89","","21","","15","","8.0","","97.90","","","","","","Rain Showers,Fog"
"2000-05-23 05:00","2000","05","23","05:00","15.7","","13.9","","89","","20","","20","","8.0","","97.83","","","","","","Rain Showers,Fog"
"2000-05-23 06:00","2000","05","23","06:00","15.7","","13.9","","89","","19","","17","","4.8","","97.83","","","","","","Fog"
"2000-05-23 07:00","2000","05","23","07:00","16.2","","14.3","","89","","20","","17","","4.8","","97.83","","","","","","Fog"
"2000-05-23 08:00","2000","05","23","08:00","17.1","","15.0","","87","","21","","22","","4.8","","97.80","","","","","","Haze"
"2000-05-23 09:00","2000","05","23","09:00","18.0","","15.6","","86","","22","","24","","4.8","","97.73","","","","","","Haze"
"2000-05-23 10:00","2000","05","23","10:00","18.5","","15.8","","84","","23","","22","","4.8","","97.70","","","","","","Haze"
"2000-05-23 11:00","2000","05","23","11:00","19.3","","15.7","","80","","25","","24","","8.0","","97.70","","","","","","Haze"
"2000-05-23 12:00","2000","05","23","12:00","18.6","","15.5","","82","","24","","20","","8.0","","97.67","","","","","","Haze"
"2000-05-23 13:00","2000","05","23","13:00","19.4","","15.9","","80","","24","","19","","11.3","","97.63","","","","","","Cloudy"
"2000-05-23 14:00","2000","05","23","14:00","20.2","","16.0","","77","","23","","22","","16.1","","97.57","","25","","","","Cloudy"
"2000-05-23 15:00","2000","05","23","15:00","21.1","","15.2","","69","","23","","24","","24.1","","97.53","","25","","","","Mostly Cloudy"
"2000-05-23 16:00","2000","05","23","16:00","22.5","","15.9","","66","","25","","19","","24.1","","97.50","","27","","","","Cloudy"
"2000-05-23 17:00","2000","05","23","17:00","21.7","","16.3","","71","","24","","15","","24.1","","97.50","","27","","","","Mostly Cloudy"
"2000-05-23 18:00","2000","05","23","18:00","21.5","","16.0","","71","","25","","13","","19.3","","97.47","","26","","","","Cloudy"
"2000-05-23 19:00","2000","05","23","19:00","21.8","","16.4","","71","","25","","15","","19.3","","97.50","","27","","","","Mostly Cloudy"
"2000-05-23 20:00","2000","05","23","20:00","21.2","","13.2","","60","","28","","17","","24.1","","97.53","","","","","","Mainly Clear"
"2000-05-23 21:00","2000","05","23","21:00","20.0","","12.5","","62","","27","","13","","24.1","","97.60","","","","","","Mainly Clear"
"2000-05-23 22:00","2000","05","23","22:00","19.2","","12.1","","63","","26","","9","","24.1","","97.67","","","","","","Mainly Clear"
"2000-05-23 23:00","2000","05","23","23:00","18.1","","11.6","","66","","26","","9","","24.1","","97.67","","","","","","Clear"
"2000-05-24 00:00","2000","05","24","00:00","16.6","","11.7","","73","","24","","7","","24.1","","97.70","","","","","","Mainly Clear"
"2000-05-24 01:00","2000","05","24","01:00","16.2","","12.0","","76","","23","","9","","24.1","","97.67","","","","","","Mostly Cloudy"
"2000-05-24 02:00","2000","05","24","02:00","15.4","","12.1","","81","","24","","11","","24.1","","97.67","","","","","","Mainly Clear"
"2000-05-24 03:00","2000","05","24","03:00","15.1","","11.9","","81","","24","","9","","24.1","","97.67","","","","","","Mostly Cloudy"
"2000-05-24 04:00","2000","05","24","04:00","14.9","","11.9","","82","","24","","9","","19.3","","97.63","","","","","","Mainly Clear"
"2000-05-24 05:00","2000","05","24","05:00","15.1","","11.7","","80","","26","","11","","19.3","","97.67","","","","","","Mainly Clear"
"2000-05-24 06:00","2000","05","24","06:00","15.3","","11.9","","80","","26","","11","","19.3","","97.73","","","","","","Rain Showers"
"2000-05-24 07:00","2000","05","24","07:00","15.7","","12.4","","81","","26","","15","","11.3","","97.80","","","","","","Rain Showers"
"2000-05-24 08:00","2000","05","24","08:00","17.1","","12.9","","76","","20","","7","","19.3","","97.77","","","","","","Mostly Cloudy"
"2000-05-24 09:00","2000","05","24","09:00","17.8","","12.6","","72","","23","","13","","19.3","","97.77","","","","","","Mostly Cloudy"
"2000-05-24 10:00","2000","05","24","10:00","19.3","","13.3","","68","","24","","15","","12.9","","97.80","","","","","","Mostly Cloudy"
"2000-05-24 11:00","2000","05","24","11:00","20.9","","13.3","","62","","23","","17","","20.9","","97.77","","","","","","Mostly Cloudy"
"2000-05-24 12:00","2000","05","24","12:00","22.7","","11.2","","48","","25","","19","","24.1","","97.77","","25","","","","Mostly Cloudy"
"2000-05-24 13:00","2000","05","24","13:00","24.0","","11.9","","47","","26","","20","","24.1","","97.70","","26","","","","Mostly Cloudy"
"2000-05-24 14:00","2000","05","24","14:00","21.4","","13.7","","61","","20","","11","","20.9","","97.67","","25","","","","Rain Showers"
"2000-05-24 15:00","2000","05","24","15:00","24.7","","11.2","","43","","25","","19","","24.1","","97.57","","27","","","","Mainly Clear"
"2000-05-24 16:00","2000","05","24","16:00","24.8","","9.9","","39","","27","","26","","24.1","","97.57","","26","","","","Mainly Clear"
"2000-05-24 17:00","2000","05","24","17:00","25.5","","9.4","","36","","28","","39","","24.1","","97.57","","27","","","","Mainly Clear"
"2000-05-24 18:00","2000","05","24","18:00","24.8","","7.4","","33","","29","","41","","24.1","","97.60","","25","","","","Mainly Clear"
"2000-05-24 19:00","2000","05","24","19:00","23.7","","6.8","","34","","28","","30","","24.1","","97.60","","","","","","Mainly Clear"
"2000-05-24 20:00","2000","05","24","20:00","22.9","","6.9","","36","","29","","17","","24.1","","97.63","","","","","","Mainly Clear"
"2000-05-24 21:00","2000","05","24","21:00","15.5","","9.9","","69","","7","","19","","24.1","","97.70","","","","","","Mainly Clear"
"2000-05-24 22:00","2000","05","24","22:00","14.6","","9.8","","73","","36","","30","","24.1","","97.80","","","","","","Mainly Clear"
"2000-05-24 23:00","2000","05","24","23:00","14.8","","8.6","","66","","36","","13","","24.1","","97.97","","","","","","Mainly Clear"
"2000-05-25 00:00","2000","05","25","00:00","14.5","","8.7","","68","","25","","6","","24.1","","97.93","","","","","","Mainly Clear"
"2000-05-25 01:00","2000","05","25","01:00","14.6","","5.6","","55","","30","","22","","24.1","","97.90","","","","","","Mainly Clear"
"2000-05-25 02:00","2000","05","25","02:00","14.4","","5.5","","55","","28","","22","","24.1","","98.00","","","","","","Clear"
"2000-05-25 03:00","2000","05","25","03:00","13.5","","5.5","","58","","29","","19","","24.1","","98.10","","","","","","Clear"
"2000-05-25 04:00","2000","05","25","04:00"
"2000-05-25 05:00","2000","05","25","05:00","12.4","","5.3","","62","","29","","15","","24.1","","98.17","","","","","","Mainly Clear"
"2000-05-25 06:00","2000","05","25","06:00","12.6","","5.6","","62","","28","","17","","25.0","","98.27","","","","","","Mainly Clear"
"2000-05-25 07:00","2000","05","25","07:00","13.8","","6.4","","61","","29","","17","","25.0","","98.33","","","","","","Clear"
"2000-05-25 08:00","2000","05","25","08:00","14.8","","6.5","","58","","27","","22","","25.0","","98.33","","","","","","Clear"
"2000-05-25 09:00","2000","05","25","09:00","16.3","","7.1","","54","","28","","24","","25.0","","98.37","","","","","","Mainly Clear"
"2000-05-25 10:00","2000","05","25","10:00","17.8","","6.2","","47","","31","","26","","25.0","","98.37","","","","","","Mainly Clear"
"2000-05-25 11:00","2000","05","25","11:00","18.5","","6.5","","45","","29","","26","","25.0","","98.37","","","","","","Mainly Clear"
"2000-05-25 12:00","2000","05","25","12:00","19.6","","7.3","","45","","27","","28","","25.0","","98.37","","","","","","Mostly Cloudy"
"2000-05-25 13:00","2000","05","25","13:00","20.5","","7.1","","42","","29","","30","","25.0","","98.37","","","","","","Mainly Clear"
"2000-05-25 14:00","2000","05","25","14:00","21.1","","7.2","","41","","27","","33","","25.0","","98.37","","","","","","Mainly Clear"
"2000-05-25 15:00","2000","05","25","15:00","21.5","","6.0","","36","","31","","11","","24.1","","98.40","","","","","","Mainly Clear"
"2000-05-25 16:00","2000","05","25","16:00","21.0","","5.5","","36","","29","","28","","24.1","","98.47","","","","","","Mainly Clear"
"2000-05-25 17:00","2000","05","25","17:00","20.7","","5.8","","38","","29","","28","","24.1","","98.53","","","","","","Mainly Clear"
"2000-05-25 18:00","2000","05","25","18:00","20.4","","6.0","","39","","30","","30","","24.1","","98.60","","","","","","Mainly Clear"
"2000-05-25 19:00","2000","05","25","19:00","19.3","","4.7","","38","","31","","28","","24.1","","98.66","","","","","","Mainly Clear"
"2000-05-25 20:00","2000","05","25","20:00","17.9","","4.9","","42","","30","","22","","24.1","","98.76","","","","","","Mainly Clear"
"2000-05-25 21:00","2000","05","25","21:00","17.4","","4.5","","42","","33","","17","","24.1","","98.83","","","","","","Clear"
"2000-05-25 22:00","2000","05","25","22:00","15.9","","4.9","","48","","31","","9","","24.1","","98.90","","","","","","Clear"
"2000-05-25 23:00","2000","05","25","23:00","14.9","","5.1","","52","","33","","11","","24.1","","98.96","","","","","","Clear"
"2000-05-26 00:00","2000","05","26","00:00","13.8","","5.4","","57","","4","","9","","24.1","","98.96","","","","","","Clear"
"2000-05-26 01:00","2000","05","26","01:00","11.1","","7.7","","80","","7","","6","","24.1","","99.00","","","","","","Clear"
"2000-05-26 02:00","2000","05","26","02:00","10.5","","7.4","","81","","","","0","","24.1","","98.96","","","","","","Clear"
"2000-05-26 03:00","2000","05","26","03:00","9.7","","7.3","","85","","21","","7","","24.1","","99.03","","","","","","Clear"
"2000-05-26 04:00","2000","05","26","04:00","9.0","","6.0","","81","","9","","4","","24.1","","99.00","","","","","","Clear"
"2000-05-26 05:00","2000","05","26","05:00","8.6","","6.1","","84","","","","0","","19.3","","99.20","","","","","","Clear"
"2000-05-26 06:00","2000","05","26","06:00","9.9","","6.5","","79","","8","","6","","19.3","","99.26","","","","","","Clear"
"2000-05-26 07:00","2000","05","26","07:00","12.1","","7.9","","75","","8","","6","","24.1","","99.26","","","","","","Clear"
"2000-05-26 08:00","2000","05","26","08:00","15.0","","9.6","","70","","","","0","","24.1","","99.33","","","","","","Clear"
"2000-05-26 09:00","2000","05","26","09:00","17.0","","11.3","","69","","","","0","","24.1","","99.30","","","","","","Clear"
"2000-05-26 10:00","2000","05","26","10:00","18.5","","9.0","","54","","27","","6","","24.1","","99.26","","","","","","Mostly Cloudy"
"2000-05-26 11:00","2000","05","26","11:00","19.8","","8.7","","49","","28","","4","","24.1","","99.30","","","","","","Mostly Cloudy"
"2000-05-26 12:00","2000","05","26","12:00","20.6","","7.9","","44","","27","","22","","24.1","","99.30","","","","","","Mostly Cloudy"
"2000-05-26 13:00","2000","05","26","13:00","21.8","","8.7","","43","","25","","15","","24.1","","99.33","","","","","","Mostly Cloudy"
"2000-05-26 14:00","2000","05","26","14:00","22.0","","9.1","","44","","22","","13","","24.1","","99.30","","","","","","Mostly Cloudy"
"2000-05-26 15:00","2000","05","26","15:00","22.3","","8.4","","41","","32","","17","","24.1","","99.26","","","","","","Cloudy"
"2000-05-26 16:00","2000","05","26","16:00","22.2","","7.9","","40","","6","","11","","24.1","","99.23","","","","","","Cloudy"
"2000-05-26 17:00","2000","05","26","17:00","20.9","","9.1","","47","","7","","13","","24.1","","99.23","","","","","","Cloudy"
"2000-05-26 18:00","2000","05","26","18:00","20.2","","9.4","","50","","8","","15","","24.1","","99.16","","","","","","Cloudy"
"2000-05-26 19:00","2000","05","26","19:00","19.7","","9.3","","51","","9","","11","","24.1","","99.20","","","","","","Cloudy"
"2000-05-26 20:00","2000","05","26","20:00","18.0","","10.6","","62","","4","","13","","24.1","","99.26","","","","","","Cloudy"
"2000-05-26 21:00","2000","05","26","21:00","17.1","","11.9","","71","","5","","13","","24.1","","99.33","","","","","","Cloudy"
"2000-05-26 22:00","2000","05","26","22:00","16.7","","10.8","","68","","7","","20","","24.1","","99.33","","","","","","Cloudy"
"2000-05-26 23:00","2000","05","26","23:00","16.0","","10.2","","68","","12","","13","","24.1","","99.36","","","","","","Cloudy"
"2000-05-27 00:00","2000","05","27","00:00","15.0","","9.3","","69","","10","","15","","24.1","","99.33","","","","","","Cloudy"
"2000-05-27 01:00","2000","05","27","01:00","15.1","","8.2","","63","","10","","17","","24.1","","99.26","","","","","","Cloudy"
"2000-05-27 02:00","2000","05","27","02:00","14.8","","7.9","","63","","12","","22","","24.1","","99.20","","","","","","Cloudy"
"2000-05-27 03:00","2000","05","27","03:00","14.6","","8.3","","66","","11","","19","","24.1","","99.23","","","","","","Cloudy"
"2000-05-27 04:00","2000","05","27","04:00","14.4","","8.5","","68","","11","","13","","24.1","","99.16","","","","","","Cloudy"
"2000-05-27 05:00","2000","05","27","05:00","14.5","","8.6","","68","","11","","13","","20.9","","99.20","","","","","","Mostly Cloudy"
"2000-05-27 06:00","2000","05","27","06:00","14.5","","9.1","","70","","12","","15","","20.9","","99.23","","","","","","Cloudy"
"2000-05-27 07:00","2000","05","27","07:00","14.7","","9.3","","70","","10","","19","","24.1","","99.16","","","","","","Cloudy"
"2000-05-27 08:00","2000","05","27","08:00","15.1","","8.9","","66","","11","","17","","24.1","","99.20","","","","","","Cloudy"
"2000-05-27 09:00","2000","05","27","09:00","14.6","","10.3","","75","","9","","13","","16.1","","99.33","","","","","","Rain Showers"
"2000-05-27 10:00","2000","05","27","10:00","13.7","","10.2","","79","","10","","17","","24.1","","99.26","","","","","","Rain Showers"
"2000-05-27 11:00","2000","05","27","11:00","14.9","","10.3","","74","","10","","19","","24.1","","99.23","","","","","","Cloudy"
"2000-05-27 12:00","2000","05","27","12:00","15.3","","10.7","","74","","10","","19","","24.1","","99.23","","","","","","Rain Showers"
"2000-05-27 13:00","2000","05","27","13:00","16.4","","10.1","","66","","13","","22","","24.1","","99.20","","","","","","Cloudy"
"2000-05-27 14:00","2000","05","27","14:00","16.8","","9.8","","63","","10","","24","","24.1","","99.13","","","","","","Cloudy"
"2000-05-27 15:00","2000","05","27","15:00","16.1","","9.6","","65","","11","","17","","24.1","","99.13","","","","","","Rain Showers"
"2000-05-27 16:00","2000","05","27","16:00","16.6","","9.2","","62","","11","","20","","24.1","","99.13","","","","","","Mostly Cloudy"
"2000-05-27 17:00","2000","05","27","17:00","16.8","","9.5","","62","","12","","22","","24.1","","99.10","","","","","","Mostly Cloudy"
"2000-05-27 18:00","2000","05","27","18:00","16.4","","9.1","","62","","11","","13","","24.1","","99.03","","","","","","Mostly Cloudy"
"2000-05-27 19:00","2000","05","27","19:00","16.2","","8.6","","61","","11","","11","","24.1","","99.03","","","","","","Mostly Cloudy"
"2000-05-27 20:00","2000","05","27","20:00","15.8","","7.9","","59","","10","","7","","24.1","","99.06","","","","","","Mostly Cloudy"
"2000-05-27 21:00","2000","05","27","21:00","14.6","","9.7","","72","","6","","17","","24.1","","99.06","","","","","","Mostly Cloudy"
"2000-05-27 22:00","2000","05","27","22:00","13.7","","9.4","","75","","6","","17","","24.1","","99.03","","","","","","Mostly Cloudy"
"2000-05-27 23:00","2000","05","27","23:00","13.0","","9.1","","77","","5","","13","","24.1","","98.96","","","","","","Cloudy"
"2000-05-28 00:00","2000","05","28","00:00","12.8","","9.9","","83","","6","","9","","24.1","","98.93","","","","","","Cloudy"
"2000-05-28 01:00","2000","05","28","01:00","12.9","","7.6","","70","","8","","7","","24.1","","98.90","","","","","","Cloudy"
"2000-05-28 02:00","2000","05","28","02:00","13.3","","7.7","","69","","8","","15","","24.1","","98.80","","","","","","Cloudy"
"2000-05-28 03:00","2000","05","28","03:00","13.1","","7.9","","71","","9","","20","","24.1","","98.70","","","","","","Cloudy"
"2000-05-28 04:00","2000","05","28","04:00","13.2","","7.4","","68","","9","","20","","24.1","","98.70","","","","","","Cloudy"
"2000-05-28 05:00","2000","05","28","05:00","12.4","","8.2","","76","","9","","20","","19.3","","98.73","","","","","","Rain Showers"
"2000-05-28 06:00","2000","05","28","06:00","11.6","","9.0","","84","","9","","19","","9.7","","98.76","","","","","","Rain Showers,Fog"
"2000-05-28 07:00","2000","05","28","07:00","11.1","","9.0","","87","","9","","19","","9.7","","98.73","","","","","","Rain,Fog"
"2000-05-28 08:00","2000","05","28","08:00","11.4","","9.4","","87","","7","","11","","11.3","","98.80","","","","","","Rain"
"2000-05-28 09:00","2000","05","28","09:00","11.6","","9.1","","85","","8","","24","","11.3","","98.70","","","","","","Rain"
"2000-05-28 10:00","2000","05","28","10:00","11.5","","9.6","","88","","8","","28","","4.8","","98.66","","","","","","Moderate Rain"
"2000-05-28 11:00","2000","05","28","11:00","11.6","","9.9","","89","","8","","28","","8.0","","98.57","","","","","","Moderate Rain"
"2000-05-28 12:00","2000","05","28","12:00","12.5","","9.9","","84","","9","","22","","11.3","","98.63","","","","","","Rain"
"2000-05-28 13:00","2000","05","28","13:00","12.8","","9.9","","83","","9","","11","","12.9","","98.63","","","","","","Rain"
"2000-05-28 14:00","2000","05","28","14:00","14.9","","9.0","","68","","8","","22","","24.1","","98.60","","","","","","Cloudy"
"2000-05-28 15:00","2000","05","28","15:00","15.8","","8.5","","62","","10","","20","","24.1","","98.66","","","","","","Cloudy"
"2000-05-28 16:00","2000","05","28","16:00","16.1","","8.4","","60","","9","","13","","24.1","","98.66","","","","","","Cloudy"
"2000-05-28 17:00","2000","05","28","17:00","16.9","","8.9","","59","","8","","15","","24.1","","98.73","","","","","","Cloudy"
"2000-05-28 18:00","2000","05","28","18:00","15.9","","10.2","","69","","4","","20","","24.1","","98.76","","","","","","Mostly Cloudy"
"2000-05-28 19:00","2000","05","28","19:00","15.1","","9.4","","69","","4","","22","","24.1","","98.86","","","","","","Mostly Cloudy"
"2000-05-28 20:00","2000","05","28","20:00","14.3","","9.4","","72","","4","","20","","24.1","","98.90","","","","","","Mostly Cloudy"
"2000-05-28 21:00","2000","05","28","21:00","13.1","","9.2","","77","","4","","15","","24.1","","98.96","","","","","","Mostly Cloudy"
"2000-05-28 22:00","2000","05","28","22:00","12.0","","9.1","","82","","5","","13","","24.1","","99.00","","","","","","Mainly Clear"
"2000-05-28 23:00","2000","05","28","23:00","12.4","","8.0","","75","","5","","9","","24.1","","99.03","","","","","","Cloudy"
"2000-05-29 00:00","2000","05","29","00:00","12.0","","7.6","","74","","7","","19","","24.1","","99.10","","","","","","Cloudy"
"2000-05-29 01:00","2000","05","29","01:00","11.3","","7.5","","77","","5","","11","","24.1","","99.13","","","","","","Cloudy"
"2000-05-29 02:00","2000","05","29","02:00","10.6","","7.3","","80","","6","","15","","24.1","","99.10","","","","","","Mostly Cloudy"
"2000-05-29 03:00","2000","05","29","03:00","10.6","","7.0","","78","","6","","17","","24.1","","99.10","","","","","","Mostly Cloudy"
"2000-05-29 04:00","2000","05","29","04:00","9.9","","6.7","","80","","5","","15","","24.1","","99.13","","","","","","Mainly Clear"
"2000-05-29 05:00","2000","05","29","05:00","9.7","","6.5","","80","","5","","15","","24.1","","99.16","","","","","","Mostly Cloudy"
"2000-05-29 06:00","2000","05","29","06:00","10.6","","7.2","","79","","4","","19","","24.1","","99.26","","","","","","Mostly Cloudy"
"2000-05-29 07:00","2000","05","29","07:00","11.4","","7.2","","75","","4","","20","","24.1","","99.36","","","","","","Mostly Cloudy"
"2000-05-29 08:00","2000","05","29","08:00","12.1","","7.6","","74","","4","","19","","24.1","","99.43","","","","","","Mostly Cloudy"
"2000-05-29 09:00","2000","05","29","09:00","12.7","","7.9","","73","","7","","17","","24.1","","99.43","","","","","","Mostly Cloudy"
"2000-05-29 10:00","2000","05","29","10:00","13.7","","8.5","","71","","5","","15","","24.1","","99.43","","","","","","Mainly Clear"
"2000-05-29 11:00","2000","05","29","11:00","14.8","","9.2","","69","","1","","9","","24.1","","99.50","","","","","","Mainly Clear"
"2000-05-29 12:00","2000","05","29","12:00","16.0","","10.2","","68","","7","","9","","24.1","","99.50","","","","","","Mainly Clear"
"2000-05-29 13:00","2000","05","29","13:00","17.3","","11.1","","67","","","","0","","24.1","","99.50","","","","","","Mainly Clear"
"2000-05-29 14:00","2000","05","29","14:00","18.8","","11.2","","61","","6","","4","","24.1","","99.50","","","","","","Mostly Cloudy"
"2000-05-29 15:00","2000","05","29","15:00"
"2000-05-29 16:00","2000","05","29","16:00","20.0","","11.8","","59","","11","","6","","24.1","","99.40","","","","","","Mostly Cloudy"
"2000-05-29 17:00","2000","05","29","17:00","20.0","","11.8","","59","","16","","11","","24.1","","99.43","","","","","","Mostly Cloudy"
"2000-05-29 18:00","2000","05","29","18:00","19.2","","10.3","","56","","14","","17","","24.1","","99.36","","","","","","Mostly Cloudy"
"2000-05-29 19:00","2000","05","29","19:00","17.5","","10.6","","64","","15","","15","","24.1","","99.46","","","","","","Mostly Cloudy"
"2000-05-29 20:00","2000","05","29","20:00","15.7","","10.8","","73","","16","","11","","24.1","","99.46","","","","","","Mainly Clear"
"2000-05-29 21:00","2000","05","29","21:00","14.6","","10.5","","76","","20","","4","","24.1","","99.56","","","","","","Mainly Clear"
"2000-05-29 22:00","2000","05","29","22:00","14.2","","10.5","","78","","18","","4","","24.1","","99.60","","","","","","Mostly Cloudy"
"2000-05-29 23:00","2000","05","29","23:00","14.2","","10.3","","77","","23","","4","","24.1","","99.60","","","","","","Mostly Cloudy"
"2000-05-30 00:00","2000","05","30","00:00","13.8","","10.3","","79","","17","","4","","24.1","","99.60","","","","","","Cloudy"
"2000-05-30 01:00","2000","05","30","01:00","13.1","","10.2","","83","","","","0","","24.1","","99.56","","","","","","Mostly Cloudy"
"2000-05-30 02:00","2000","05","30","02:00","12.9","","10.0","","83","","15","","6","","24.1","","99.56","","","","","","Mostly Cloudy"
"2000-05-30 03:00","2000","05","30","03:00","12.3","","9.8","","85","","14","","4","","24.1","","99.56","","","","","","Mainly Clear"
"2000-05-30 04:00","2000","05","30","04:00","12.4","","10.2","","86","","17","","11","","16.1","","99.53","","","","","","Clear"
"2000-05-30 05:00","2000","05","30","05:00","12.6","","10.4","","86","","13","","7","","12.9","","99.63","","","","","","Mainly Clear"
"2000-05-30 06:00","2000","05","30","06:00","13.5","","11.4","","87","","17","","9","","11.3","","99.70","","","","","","Mostly Cloudy"
"2000-05-30 07:00","2000","05","30","07:00","16.1","","12.9","","81","","17","","17","","19.3","","99.63","","","","","","Mostly Cloudy"
"2000-05-30 08:00","2000","05","30","08:00","17.4","","12.0","","71","","18","","20","","24.1","","99.70","","","","","","Mostly Cloudy"
"2000-05-30 09:00","2000","05","30","09:00","18.4","","10.4","","60","","19","","22","","24.1","","99.80","","","","","","Cloudy"
"2000-05-30 10:00","2000","05","30","10:00","19.1","","10.0","","56","","16","","28","","24.1","","99.76","","","","","","Cloudy"
"2000-05-30 11:00","2000","05","30","11:00","19.3","","8.9","","51","","18","","26","","24.1","","99.70","","","","","","Cloudy"
"2000-05-30 12:00","2000","05","30","12:00","20.2","","9.9","","52","","18","","22","","24.1","","99.70","","","","","","Cloudy"
"2000-05-30 13:00","2000","05","30","13:00","20.7","","9.9","","50","","16","","20","","24.1","","99.60","","","","","","Mostly Cloudy"
"2000-05-30 14:00","2000","05","30","14:00","20.4","","10.1","","52","","17","","22","","24.1","","99.56","","","","","","Mostly Cloudy"
"2000-05-30 15:00","2000","05","30","15:00","21.3","","11.0","","52","","19","","22","","24.1","","99.56","","","","","","Cloudy"
"2000-05-30 16:00","2000","05","30","16:00","21.0","","11.5","","55","","18","","22","","24.1","","99.43","","","","","","Cloudy"
"2000-05-30 17:00","2000","05","30","17:00","20.6","","11.4","","56","","16","","24","","24.1","","99.40","","","","","","Mostly Cloudy"
"2000-05-30 18:00","2000","05","30","18:00","20.7","","11.5","","56","","16","","20","","24.1","","99.33","","","","","","Mainly Clear"
"2000-05-30 19:00","2000","05","30","19:00","20.4","","11.7","","57","","16","","15","","24.1","","99.40","","","","","","Mostly Cloudy"
"2000-05-30 20:00","2000","05","30","20:00","19.4","","11.8","","61","","16","","19","","24.1","","99.36","","","","","","Mostly Cloudy"
"2000-05-30 21:00","2000","05","30","21:00","18.3","","13.3","","73","","16","","20","","24.1","","99.36","","","","","","Mostly Cloudy"
"2000-05-30 22:00","2000","05","30","22:00","18.8","","14.4","","76","","18","","11","","24.1","","99.43","","","","","","Mostly Cloudy"
"2000-05-30 23:00","2000","05","30","23:00","19.4","","14.0","","71","","18","","22","","19.3","","99.30","","","","","","Cloudy"
"2000-05-31 00:00","2000","05","31","00:00","19.2","","14.2","","73","","21","","19","","12.9","","99.36","","","","","","Mostly Cloudy"
"2000-05-31 01:00","2000","05","31","01:00","18.2","","14.5","","79","","21","","15","","9.7","","99.36","","","","","","Haze"
"2000-05-31 02:00","2000","05","31","02:00","17.7","","14.6","","82","","20","","13","","8.0","","99.30","","","","","","Haze"
"2000-05-31 03:00","2000","05","31","03:00","17.5","","14.7","","84","","20","","13","","6.4","","99.36","","","","","","Haze"
"2000-05-31 04:00","2000","05","31","04:00","17.4","","14.8","","85","","21","","17","","6.4","","99.36","","","","","","Haze"
"2000-05-31 05:00","2000","05","31","05:00","17.3","","14.8","","85","","21","","17","","4.8","","99.33","","","","","","Haze"
"2000-05-31 06:00","2000","05","31","06:00","17.8","","15.1","","84","","20","","19","","4.8","","99.36","","","","","","Haze"
"2000-05-31 07:00","2000","05","31","07:00","19.0","","15.5","","80","","22","","17","","9.7","","99.36","","","","","","Haze"
"2000-05-31 08:00","2000","05","31","08:00","20.0","","15.8","","77","","22","","22","","9.7","","99.40","","","","","","Haze"
"2000-05-31 09:00","2000","05","31","09:00","21.6","","16.6","","73","","22","","17","","9.7","","99.33","","27","","","","Haze"
"2000-05-31 10:00","2000","05","31","10:00","22.7","","17.1","","71","","23","","13","","9.7","","99.36","","28","","","","Haze"
"2000-05-31 11:00","2000","05","31","11:00","25.0","","18.3","","66","","23","","19","","9.7","","99.36","","31","","","","Haze"
"2000-05-31 12:00","2000","05","31","12:00","25.6","","18.9","","67","","23","","13","","9.7","","99.26","","32","","","","Haze"
"2000-05-31 13:00","2000","05","31","13:00","26.9","","19.6","","64","","22","","13","","9.7","","99.26","","34","","","","Haze"
"2000-05-31 14:00","2000","05","31","14:00","27.1","","19.6","","64","","23","","13","","8.0","","99.20","","34","","","","Haze"
"2000-05-31 15:00","2000","05","31","15:00","27.9","","19.6","","61","","25","","13","","11.3","","99.23","","35","","","","Cloudy"
"2000-05-31 16:00","2000","05","31","16:00","27.3","","19.7","","63","","22","","11","","11.3","","99.26","","35","","","","Cloudy"
"2000-05-31 17:00","2000","05","31","17:00","23.6","","19.9","","80","","29","","26","","6.4","","99.40","","31","","","","Thunderstorms,Rain Showers,Fog"
"2000-05-31 18:00","2000","05","31","18:00","22.1","","18.5","","80","","29","","22","","12.9","","99.46","","28","","","","Thunderstorms,Rain Showers"
"2000-05-31 19:00","2000","05","31","19:00","21.6","","19.2","","86","","28","","4","","16.1","","99.23","","29","","","","Rain Showers"
"2000-05-31 20:00","2000","05","31","20:00","21.5","","19.5","","88","","31","","4","","11.3","","99.30","","29","","","","Cloudy"
"2000-05-31 21:00","2000","05","31","21:00","21.5","","19.1","","86","","29","","9","","11.3","","99.46","","28","","","","Cloudy"
"2000-05-31 22:00","2000","05","31","22:00","20.7","","18.4","","87","","5","","13","","8.0","","99.50","","27","","","","Haze"
"2000-05-31 23:00","2000","05","31","23:00","17.8","","15.9","","89","","4","","15","","6.4","","99.56","","","","","","Haze"
