"Station Name","WINDSOR A"
"Province","ONTARIO"
"Latitude","42.28"
"Longitude","-82.96"
"Elevation","189.60"
"Climate Identifier","6139525"
"WMO Identifier","71538"
"TC Identifier","YQG"
"All times are specified in Local Standard Time (LST). Add 1 hour to adjust for Daylight Saving Time where and when it is observed."

"Legend"
"E","Estimated"
"M","Missing"
"NA","Not Available"

"Date/Time","Year","Month","Day","Time","Temp (°C)","Temp Flag","Dew Point Temp (°C)","Dew Point Temp Flag","Rel Hum (%)","Rel Hum Flag","Wind Dir (10s deg)","Wind Dir Flag","Wind Spd (km/h)","Wind Spd Flag","Visibility (km)","Visibility Flag","Stn Press (kPa)","Stn Press Flag","Hmdx","Hmdx Flag","Wind Chill","Wind Chill Flag","Weather"
"1998-04-01 00:00","1998","04","01","00:00","16.5","","14.9","","90","","25","","6","","9.7","","97.93","","","","","","Rain Showers,Fog"
"1998-04-01 01:00","1998","04","01","01:00","16.2","","15.4","","95","","26","","20","","6.4","","97.90","","","","","","Rain Showers,Fog"
"1998-04-01 02:00","1998","04","01","02:00","14.2","","12.9","","92","","22","","30","","8.0","","97.93","","","","","","Rain Showers,Fog"
"1998-04-01 03:00","1998","04","01","03:00","13.1","","12.1","","94","","24","","26","","4.0","","97.93","","","","","","Rain,Fog"
"1998-04-01 04:00","1998","04","01","04:00","12.5","","10.2","","86","","24","","30","","24.1","","98.00","","","","","","Cloudy"
"1998-04-01 05:00","1998","04","01","05:00","11.4","","8.7","","83","","24","","26","","24.1","","98.13","","","","","","Mainly Clear"
"1998-04-01 06:00","1998","04","01","06:00","10.6","","8.6","","87","","23","","13","","24.1","","98.17","","","","","","Mainly Clear"
"1998-04-01 07:00","1998","04","01","07:00","10.6","","8.6","","87","","23","","22","","24.1","","98.30","","","","","","Mostly Cloudy"
"1998-04-01 08:00","1998","04","01","08:00","11.4","","9.0","","85","","22","","28","","24.1","","98.27","","","","","","Mainly Clear"
"1998-04-01 09:00","1998","04","01","09:00","12.5","","8.4","","76","","22","","20","","24.1","","98.27","","","","","","Mainly Clear"
"1998-04-01 10:00","1998","04","01","10:00","13.0","","9.3","","78","","22","","30","","20.9","","98.30","","","","","","Mostly Cloudy"
"1998-04-01 11:00","1998","04","01","11:00","13.8","","7.2","","64","","22","","33","","24.1","","98.23","","","","","","Mainly Clear"
"1998-04-01 12:00","1998","04","01","12:00","14.3","","4.8","","53","","22","","28","","24.1","","98.17","","","","","","Mainly Clear"
"1998-04-01 13:00","1998","04","01","13:00","15.9","","7.0","","55","","20","","33","","24.1","","98.07","","","","","","Mainly Clear"
"1998-04-01 14:00","1998","04","01","14:00","15.7","","5.5","","51","","19","","41","","24.1","","97.90","","","","","","Mostly Cloudy"
"1998-04-01 15:00","1998","04","01","15:00","9.2","","7.7","","90","","26","","30","","4.0","","98.10","","","","","","Rain Showers,Fog"
"1998-04-01 16:00","1998","04","01","16:00","9.8","","7.9","","88","","26","","28","","12.9","","98.10","","","","","","Rain Showers"
"1998-04-01 17:00","1998","04","01","17:00","8.5","","4.6","","76","","26","","22","","24.1","","98.17","","","","","","Rain Showers"
"1998-04-01 18:00","1998","04","01","18:00","8.3","","3.0","","69","","24","","22","","24.1","","98.23","","","","","","Rain Showers"
"1998-04-01 19:00","1998","04","01","19:00","8.0","","2.7","","69","","25","","24","","24.1","","98.30","","","","","","Mostly Cloudy"
"1998-04-01 20:00","1998","04","01","20:00","8.1","","3.3","","72","","26","","15","","24.1","","98.37","","","","","","Mostly Cloudy"
"1998-04-01 21:00","1998","04","01","21:00","8.2","","3.2","","71","","25","","13","","24.1","","98.33","","","","","","Cloudy"
"1998-04-01 22:00","1998","04","01","22:00","7.6","","4.4","","80","","21","","26","","19.3","","98.30","","","","","","Rain Showers"
"1998-04-01 23:00","1998","04","01","23:00","7.0","","3.6","","79","","24","","22","","24.1","","98.30","","","","","","Rain"
"1998-04-02 00:00","1998","04","02","00:00","6.3","","3.8","","84","","24","","20","","16.1","","98.27","","","","","","Rain"
"1998-04-02 01:00","1998","04","02","01:00","6.0","","3.9","","86","","24","","28","","12.9","","98.23","","","","","","Rain"
"1998-04-02 02:00","1998","04","02","02:00","5.5","","3.6","","88","","25","","30","","12.9","","98.23","","","","","","Drizzle"
"1998-04-02 03:00","1998","04","02","03:00","5.2","","3.3","","88","","25","","22","","16.1","","98.23","","","","","","Rain Showers"
"1998-04-02 04:00","1998","04","02","04:00","5.2","","3.3","","88","","26","","22","","24.1","","98.27","","","","","","Mostly Cloudy"
"1998-04-02 05:00","1998","04","02","05:00","5.3","","2.3","","81","","26","","22","","24.1","","98.33","","","","","","Cloudy"
"1998-04-02 06:00","1998","04","02","06:00","5.1","","2.8","","85","","24","","22","","24.1","","98.40","","","","","","Mostly Cloudy"
"1998-04-02 07:00","1998","04","02","07:00","5.3","","2.4","","82","","24","","22","","24.1","","98.53","","","","","","Mostly Cloudy"
"1998-04-02 08:00","1998","04","02","08:00","5.5","","2.1","","79","","26","","19","","24.1","","98.57","","","","","","Cloudy"
"1998-04-02 09:00","1998","04","02","09:00","5.9","","2.3","","78","","25","","19","","24.1","","98.60","","","","","","Cloudy"
"1998-04-02 10:00","1998","04","02","10:00","6.9","","2.7","","75","","24","","24","","24.1","","98.66","","","","","","Mostly Cloudy"
"1998-04-02 11:00","1998","04","02","11:00","6.6","","3.9","","83","","25","","39","","24.1","","98.70","","","","","","Rain Showers"
"1998-04-02 12:00","1998","04","02","12:00","7.6","","3.0","","73","","25","","30","","19.3","","98.70","","","","","","Cloudy"
"1998-04-02 13:00","1998","04","02","13:00","7.8","","2.6","","70","","25","","35","","24.1","","98.76","","","","","","Cloudy"
"1998-04-02 14:00","1998","04","02","14:00","9.3","","3.5","","67","","27","","30","","24.1","","98.80","","","","","","Mostly Cloudy"
"1998-04-02 15:00","1998","04","02","15:00","8.9","","3.2","","67","","27","","33","","24.1","","98.86","","","","","","Cloudy"
"1998-04-02 16:00","1998","04","02","16:00","8.9","","3.4","","68","","27","","35","","24.1","","98.96","","","","","","Cloudy"
"1998-04-02 17:00","1998","04","02","17:00","9.4","","3.3","","66","","29","","26","","24.1","","99.03","","","","","","Mostly Cloudy"
"1998-04-02 18:00","1998","04","02","18:00","8.4","","2.8","","68","","29","","33","","24.1","","99.13","","","","","","Mostly Cloudy"
"1998-04-02 19:00","1998","04","02","19:00","7.9","","2.2","","67","","28","","20","","24.1","","99.13","","","","","","Mainly Clear"
"1998-04-02 20:00","1998","04","02","20:00","7.3","","2.4","","71","","27","","19","","24.1","","99.20","","","","","","Mainly Clear"
"1998-04-02 21:00","1998","04","02","21:00","6.6","","2.5","","75","","27","","11","","24.1","","99.26","","","","","","Mainly Clear"
"1998-04-02 22:00","1998","04","02","22:00","7.0","","3.0","","76","","27","","9","","24.1","","99.33","","","","","","Cloudy"
"1998-04-02 23:00","1998","04","02","23:00","7.0","","3.0","","76","","28","","13","","24.1","","99.33","","","","","","Mostly Cloudy"
"1998-04-03 00:00","1998","04","03","00:00","7.1","","3.1","","76","","29","","13","","24.1","","99.36","","","","","","Mostly Cloudy"
"1998-04-03 01:00","1998","04","03","01:00","6.8","","1.9","","71","","32","","22","","24.1","","99.40","","","","","","Mostly Cloudy"
"1998-04-03 02:00","1998","04","03","02:00","6.4","","1.6","","71","","34","","22","","24.1","","99.40","","","","","","Mostly Cloudy"
"1998-04-03 03:00","1998","04","03","03:00","5.6","","0.9","","72","","34","","13","","24.1","","99.33","","","","","","Mostly Cloudy"
"1998-04-03 04:00","1998","04","03","04:00","5.9","","0.5","","68","","35","","13","","24.1","","99.36","","","","","","Mostly Cloudy"
"1998-04-03 05:00","1998","04","03","05:00","6.0","","-0.5","","63","","35","","20","","24.1","","99.36","","","","","","Mostly Cloudy"
"1998-04-03 06:00","1998","04","03","06:00","6.0","","-0.4","","63","","35","","13","","24.1","","99.33","","","","","","Mostly Cloudy"
"1998-04-03 07:00","1998","04","03","07:00","5.2","","0.6","","72","","4","","13","","24.1","","99.30","","","","","","Mostly Cloudy"
"1998-04-03 08:00","1998","04","03","08:00","5.7","","0.0","","67","","36","","22","","24.1","","99.16","","","","","","Mostly Cloudy"
"1998-04-03 09:00","1998","04","03","09:00","5.4","","-1.2","","62","","5","","11","","24.1","","99.33","","","","","","Cloudy"
"1998-04-03 10:00","1998","04","03","10:00","5.7","","-0.6","","64","","2","","15","","24.1","","99.40","","","","","","Cloudy"
"1998-04-03 11:00","1998","04","03","11:00","5.8","","-0.5","","64","","36","","9","","24.1","","99.33","","","","","","Cloudy"
"1998-04-03 12:00","1998","04","03","12:00","5.9","","-0.2","","65","","5","","7","","24.1","","99.26","","","","","","Cloudy"
"1998-04-03 13:00","1998","04","03","13:00","6.1","","0.9","","69","","6","","19","","24.1","","99.20","","","","","","Cloudy"
"1998-04-03 14:00","1998","04","03","14:00","6.0","","1.9","","75","","5","","24","","24.1","","99.13","","","","","","Cloudy"
"1998-04-03 15:00","1998","04","03","15:00","6.1","","2.6","","78","","6","","28","","16.1","","99.06","","","","","","Cloudy"
"1998-04-03 16:00","1998","04","03","16:00","6.1","","2.2","","76","","5","","28","","19.3","","99.06","","","","","","Cloudy"
"1998-04-03 17:00","1998","04","03","17:00","5.4","","2.3","","80","","5","","26","","24.1","","99.10","","","","","","Cloudy"
"1998-04-03 18:00","1998","04","03","18:00","5.5","","1.1","","73","","5","","24","","24.1","","99.10","","","","","","Cloudy"
"1998-04-03 19:00","1998","04","03","19:00","5.0","","0.9","","75","","4","","20","","24.1","","99.06","","","","","","Cloudy"
"1998-04-03 20:00","1998","04","03","20:00","4.6","","1.4","","80","","4","","26","","24.1","","99.03","","","","","","Cloudy"
"1998-04-03 21:00","1998","04","03","21:00","4.5","","1.1","","79","","2","","30","","24.1","","99.00","","","","","","Cloudy"
"1998-04-03 22:00","1998","04","03","22:00","4.8","","2.1","","83","","3","","28","","24.1","","98.90","","","","","","Cloudy"
"1998-04-03 23:00","1998","04","03","23:00","5.1","","2.5","","83","","4","","37","","24.1","","98.80","","","","","","Cloudy"
"1998-04-04 00:00","1998","04","04","00:00","5.0","","2.0","","81","","4","","37","","24.1","","98.83","","","","","","Cloudy"
"1998-04-04 01:00","1998","04","04","01:00","4.9","","1.3","","77","","3","","44","","24.1","","98.80","","","","","","Cloudy"
"1998-04-04 02:00","1998","04","04","02:00","4.7","","1.5","","80","","3","","43","","24.1","","98.80","","","","","","Cloudy"
"1998-04-04 03:00","1998","04","04","03:00","4.5","","1.5","","81","","3","","33","","24.1","","98.76","","","","","","Cloudy"
"1998-04-04 04:00","1998","04","04","04:00","4.1","","1.1","","81","","3","","33","","24.1","","98.76","","","","","","Mostly Cloudy"
"1998-04-04 05:00","1998","04","04","05:00","4.0","","0.8","","80","","2","","30","","24.1","","98.83","","","","","","Mostly Cloudy"
"1998-04-04 06:00","1998","04","04","06:00","3.2","","0.3","","81","","2","","30","","24.1","","98.96","","","","","","Mostly Cloudy"
"1998-04-04 07:00","1998","04","04","07:00","2.8","","-0.1","","81","","2","","30","","24.1","","99.03","","","","","","Mostly Cloudy"
"1998-04-04 08:00","1998","04","04","08:00","3.5","","0.0","","78","","2","","28","","25.0","","99.13","","","","","","Mainly Clear"
"1998-04-04 09:00","1998","04","04","09:00","4.3","","-0.1","","73","","3","","33","","25.0","","99.16","","","","","","Mostly Cloudy"
"1998-04-04 10:00","1998","04","04","10:00","5.1","","-0.9","","65","","3","","33","","25.0","","99.23","","","","","","Mostly Cloudy"
"1998-04-04 11:00","1998","04","04","11:00","5.5","","-1.1","","62","","2","","33","","25.0","","99.30","","","","","","Mostly Cloudy"
"1998-04-04 12:00","1998","04","04","12:00","6.1","","-0.4","","63","","2","","30","","25.0","","99.30","","","","","","Mostly Cloudy"
"1998-04-04 13:00","1998","04","04","13:00","7.8","","-0.6","","55","","2","","30","","25.0","","99.30","","","","","","Mainly Clear"
"1998-04-04 14:00","1998","04","04","14:00","8.7","","-0.8","","51","","5","","28","","25.0","","99.26","","","","","","Mainly Clear"
"1998-04-04 15:00","1998","04","04","15:00","8.6","","0.2","","55","","5","","33","","25.0","","99.26","","","","","","Mainly Clear"
"1998-04-04 16:00","1998","04","04","16:00","8.4","","-1.7","","49","","3","","41","","25.0","","99.30","","","","","","Mainly Clear"
"1998-04-04 17:00","1998","04","04","17:00","7.9","","-2.6","","47","","5","","35","","25.0","","99.33","","","","","","Mainly Clear"
"1998-04-04 18:00","1998","04","04","18:00","7.5","","-2.0","","51","","3","","35","","25.0","","99.40","","","","","","Mainly Clear"
"1998-04-04 19:00","1998","04","04","19:00","6.1","","-2.2","","55","","5","","22","","25.0","","99.43","","","","","","Clear"
"1998-04-04 20:00","1998","04","04","20:00","5.3","","-1.6","","61","","5","","22","","25.0","","99.43","","","","","","Clear"
"1998-04-04 21:00","1998","04","04","21:00","4.0","","-1.9","","65","","3","","19","","25.0","","99.46","","","","","","Clear"
"1998-04-04 22:00","1998","04","04","22:00","4.0","","-4.6","","53","","2","","17","","25.0","","99.46","","","","","","Clear"
"1998-04-04 23:00","1998","04","04","23:00","3.4","","-4.7","","55","","36","","13","","25.0","","99.46","","","","","","Clear"
"1998-04-05 00:00","1998","04","05","00:00","2.9","","-4.1","","60","","36","","9","","25.0","","99.46","","","","","","Clear"
"1998-04-05 01:00","1998","04","05","01:00","1.9","","-3.8","","66","","33","","9","","25.0","","99.46","","","","","","Clear"
"1998-04-05 02:00","1998","04","05","02:00","1.5","","-3.6","","69","","29","","13","","25.0","","99.46","","","","","","Clear"
"1998-04-05 03:00","1998","04","05","03:00","1.3","","-3.1","","72","","29","","13","","25.0","","99.46","","","","","","Clear"
"1998-04-05 04:00","1998","04","05","04:00","1.1","","-3.2","","73","","28","","11","","25.0","","99.46","","","","","","Clear"
"1998-04-05 05:00","1998","04","05","05:00","0.9","","-3.4","","73","","30","","11","","25.0","","99.46","","","","","","Clear"
"1998-04-05 06:00","1998","04","05","06:00","-0.2","","-3.7","","77","","26","","4","","25.0","","99.46","","","","-1","","Clear"
"1998-04-05 07:00","1998","04","05","07:00","1.8","","-3.3","","69","","28","","11","","24.1","","99.50","","","","","","Clear"
"1998-04-05 08:00","1998","04","05","08:00","5.1","","-2.8","","57","","29","","7","","24.1","","99.50","","","","","","Clear"
"1998-04-05 09:00","1998","04","05","09:00","7.1","","-2.8","","49","","30","","15","","24.1","","99.50","","","","","","Clear"
"1998-04-05 10:00","1998","04","05","10:00","8.9","","-3.6","","41","","30","","13","","25.0","","99.50","","","","","","Clear"
"1998-04-05 11:00","1998","04","05","11:00","9.0","","-3.2","","42","","35","","11","","25.0","","99.50","","","","","","Clear"
"1998-04-05 12:00","1998","04","05","12:00","10.0","","-3.2","","39","","","","0","","25.0","","99.40","","","","","","Mainly Clear"
"1998-04-05 13:00","1998","04","05","13:00","11.0","","-3.0","","37","","36","","17","","25.0","","99.33","","","","","","Mainly Clear"
"1998-04-05 14:00","1998","04","05","14:00","11.3","","-3.3","","36","","31","","4","","25.0","","99.26","","","","","","Mainly Clear"
"1998-04-05 15:00","1998","04","05","15:00","12.3","","-2.4","","36","","4","","19","","25.0","","99.20","","","","","","Mainly Clear"
"1998-04-05 16:00","1998","04","05","16:00","11.6","","-1.7","","40","","6","","20","","24.1","","99.13","","","","","","Mainly Clear"
"1998-04-05 17:00","1998","04","05","17:00","9.9","","1.6","","56","","7","","30","","24.1","","99.16","","","","","","Mainly Clear"
"1998-04-05 18:00","1998","04","05","18:00","8.2","","1.3","","62","","6","","28","","24.1","","99.20","","","","","","Mainly Clear"
"1998-04-05 19:00","1998","04","05","19:00","6.7","","0.6","","65","","7","","22","","24.1","","99.20","","","","","","Mainly Clear"
"1998-04-05 20:00","1998","04","05","20:00","5.2","","0.4","","71","","6","","17","","24.1","","99.23","","","","","","Clear"
"1998-04-05 21:00","1998","04","05","21:00","4.0","","-0.9","","70","","6","","17","","24.1","","99.26","","","","","","Clear"
"1998-04-05 22:00","1998","04","05","22:00","2.9","","-1.4","","73","","7","","13","","25.0","","99.26","","","","","","Clear"
"1998-04-05 23:00","1998","04","05","23:00","1.5","","-3.9","","67","","5","","13","","25.0","","99.26","","","","","","Clear"
"1998-04-06 00:00","1998","04","06","00:00","1.2","","-3.9","","69","","1","","9","","25.0","","99.26","","","","","","Clear"
"1998-04-06 01:00","1998","04","06","01:00","1.0","","-5.3","","63","","36","","11","","25.0","","99.30","","","","","","Clear"
"1998-04-06 02:00","1998","04","06","02:00","0.1","","-6.0","","63","","1","","13","","25.0","","99.30","","","","","","Clear"
"1998-04-06 03:00","1998","04","06","03:00","-1.0","","-5.1","","74","","36","","6","","25.0","","99.30","","","","-3","","Clear"
"1998-04-06 04:00","1998","04","06","04:00","-1.0","","-4.6","","77","","36","","6","","25.0","","99.30","","","","-3","","Clear"
"1998-04-06 05:00","1998","04","06","05:00","1.1","","-5.0","","64","","32","","6","","25.0","","99.30","","","","","","Clear"
"1998-04-06 06:00","1998","04","06","06:00","-1.5","","-5.7","","73","","35","","6","","25.0","","99.36","","","","-4","","Clear"
"1998-04-06 07:00","1998","04","06","07:00","0.1","","-5.7","","65","","33","","4","","25.0","","99.40","","","","","","Mainly Clear"
"1998-04-06 08:00","1998","04","06","08:00","2.7","","-5.3","","56","","","","0","","25.0","","99.40","","","","","","Mainly Clear"
"1998-04-06 09:00","1998","04","06","09:00","5.6","","-6.2","","42","","","","0","","25.0","","99.40","","","","","","Mainly Clear"
"1998-04-06 10:00","1998","04","06","10:00","6.5","","-6.3","","39","","8","","4","","25.0","","99.43","","","","","","Mainly Clear"
"1998-04-06 11:00","1998","04","06","11:00"
"1998-04-06 12:00","1998","04","06","12:00"
"1998-04-06 13:00","1998","04","06","13:00","10.2","","-5.2","","33","","","","0","","25.0","","99.33","","","","","","Mainly Clear"
"1998-04-06 14:00","1998","04","06","14:00","11.1","","-6.1","","29","","18","","4","","25.0","","99.30","","","","","","Mainly Clear"
"1998-04-06 15:00","1998","04","06","15:00"
"1998-04-06 16:00","1998","04","06","16:00"
"1998-04-06 17:00","1998","04","06","17:00","10.6","","-1.2","","44","","21","","19","","24.1","","99.23","","","","","","Mostly Cloudy"
"1998-04-06 18:00","1998","04","06","18:00","9.0","","-2.0","","46","","20","","13","","24.1","","99.20","","","","","","Mostly Cloudy"
"1998-04-06 19:00","1998","04","06","19:00","8.5","","-1.6","","49","","20","","13","","24.1","","99.13","","","","","","Mostly Cloudy"
"1998-04-06 20:00","1998","04","06","20:00","7.0","","-0.9","","57","","20","","6","","24.1","","99.20","","","","","","Mainly Clear"
"1998-04-06 21:00","1998","04","06","21:00","6.7","","0.2","","63","","21","","9","","24.1","","99.23","","","","","","Mostly Cloudy"
"1998-04-06 22:00","1998","04","06","22:00","6.6","","0.4","","65","","","","0","","24.1","","99.23","","","","","","Mostly Cloudy"
"1998-04-06 23:00","1998","04","06","23:00","5.1","","0.0","","70","","10","","7","","24.1","","99.26","","","","","","Mainly Clear"
"1998-04-07 00:00","1998","04","07","00:00","5.3","","-0.6","","66","","7","","9","","24.1","","99.20","","","","","","Clear"
"1998-04-07 01:00","1998","04","07","01:00","3.2","","-0.1","","79","","16","","6","","24.1","","99.20","","","","","","Clear"
"1998-04-07 02:00","1998","04","07","02:00","3.1","","-0.8","","76","","16","","4","","24.1","","99.16","","","","","","Clear"
"1998-04-07 03:00","1998","04","07","03:00","2.8","","-1.6","","73","","7","","4","","24.1","","99.13","","","","","","Clear"
"1998-04-07 04:00","1998","04","07","04:00","2.7","","-1.4","","74","","9","","6","","24.1","","99.13","","","","","","Clear"
"1998-04-07 05:00","1998","04","07","05:00","1.9","","-1.8","","76","","12","","6","","24.1","","99.13","","","","","","Clear"
"1998-04-07 06:00","1998","04","07","06:00","1.7","","-2.1","","76","","","","0","","24.1","","99.20","","","","","","Mainly Clear"
"1998-04-07 07:00","1998","04","07","07:00","2.6","","-1.4","","75","","11","","4","","24.1","","99.20","","","","","","Mainly Clear"
"1998-04-07 08:00","1998","04","07","08:00","5.9","","-0.4","","64","","11","","9","","24.1","","99.20","","","","","","Mainly Clear"
"1998-04-07 09:00","1998","04","07","09:00","8.3","","-0.9","","52","","12","","9","","24.1","","99.20","","","","","","Mainly Clear"
"1998-04-07 10:00","1998","04","07","10:00","10.0","","-0.4","","48","","10","","15","","24.1","","99.13","","","","","","Mainly Clear"
"1998-04-07 11:00","1998","04","07","11:00","11.4","","-1.0","","42","","11","","17","","25.0","","99.10","","","","","","Mostly Cloudy"
"1998-04-07 12:00","1998","04","07","12:00","12.2","","-3.4","","33","","11","","15","","25.0","","99.03","","","","","","Mostly Cloudy"
"1998-04-07 13:00","1998","04","07","13:00","12.8","","-3.2","","33","","11","","17","","25.0","","98.93","","","","","","Mostly Cloudy"
"1998-04-07 14:00","1998","04","07","14:00","12.8","","-3.8","","31","","10","","19","","25.0","","98.86","","","","","","Mostly Cloudy"
"1998-04-07 15:00","1998","04","07","15:00","13.5","","-4.1","","29","","8","","30","","24.1","","98.76","","","","","","Mostly Cloudy"
"1998-04-07 16:00","1998","04","07","16:00","12.8","","-7.5","","24","","12","","19","","24.1","","98.70","","","","","","Cloudy"
"1998-04-07 17:00","1998","04","07","17:00","12.3","","-7.9","","24","","7","","26","","24.1","","98.70","","","","","","Cloudy"
"1998-04-07 18:00","1998","04","07","18:00","11.0","","-4.9","","32","","7","","24","","24.1","","98.66","","","","","","Cloudy"
"1998-04-07 19:00","1998","04","07","19:00","10.6","","-6.7","","29","","10","","15","","24.1","","98.66","","","","","","Rain Showers"
"1998-04-07 20:00","1998","04","07","20:00","7.9","","-2.6","","47","","9","","19","","24.1","","98.66","","","","","","Rain Showers"
"1998-04-07 21:00","1998","04","07","21:00","8.0","","-1.3","","52","","9","","17","","24.1","","98.66","","","","","","Cloudy"
"1998-04-07 22:00","1998","04","07","22:00","7.7","","-0.2","","57","","7","","17","","19.3","","98.57","","","","","","Rain Showers"
"1998-04-07 23:00","1998","04","07","23:00","8.3","","-1.8","","49","","9","","17","","24.1","","98.53","","","","","","Mostly Cloudy"
"1998-04-08 00:00","1998","04","08","00:00","7.8","","1.9","","66","","10","","17","","24.1","","98.53","","","","","","Rain Showers"
"1998-04-08 01:00","1998","04","08","01:00","7.6","","2.4","","70","","6","","20","","24.1","","98.50","","","","","","Mostly Cloudy"
"1998-04-08 02:00","1998","04","08","02:00","8.1","","1.0","","61","","6","","24","","24.1","","98.40","","","","","","Cloudy"
"1998-04-08 03:00","1998","04","08","03:00","7.6","","1.3","","64","","8","","26","","24.1","","98.27","","","","","","Cloudy"
"1998-04-08 04:00","1998","04","08","04:00","7.7","","2.0","","67","","15","","6","","24.1","","98.23","","","","","","Cloudy"
"1998-04-08 05:00","1998","04","08","05:00","6.9","","2.2","","72","","11","","15","","24.1","","98.23","","","","","","Cloudy"
"1998-04-08 06:00","1998","04","08","06:00","5.9","","4.7","","92","","10","","19","","4.8","","98.27","","","","","","Rain Showers,Fog"
"1998-04-08 07:00","1998","04","08","07:00","5.7","","4.9","","95","","9","","32","","6.4","","98.13","","","","","","Moderate Rain Showers,Fog"
"1998-04-08 08:00","1998","04","08","08:00","6.3","","5.5","","95","","10","","13","","11.3","","98.20","","","","","","Rain Showers"
"1998-04-08 09:00","1998","04","08","09:00","7.3","","5.9","","91","","9","","19","","19.3","","98.20","","","","","","Cloudy"
"1998-04-08 10:00","1998","04","08","10:00","8.4","","6.8","","90","","8","","17","","19.3","","98.23","","","","","","Cloudy"
"1998-04-08 11:00","1998","04","08","11:00","9.7","","7.7","","87","","7","","19","","19.3","","98.23","","","","","","Cloudy"
"1998-04-08 12:00","1998","04","08","12:00","10.5","","7.6","","82","","7","","22","","19.3","","98.23","","","","","","Cloudy"
"1998-04-08 13:00","1998","04","08","13:00","10.8","","6.7","","76","","5","","24","","19.3","","98.20","","","","","","Mostly Cloudy"
"1998-04-08 14:00","1998","04","08","14:00","10.5","","5.6","","72","","6","","24","","24.1","","98.23","","","","","","Mostly Cloudy"
"1998-04-08 15:00","1998","04","08","15:00","11.3","","6.4","","72","","4","","22","","24.1","","98.20","","","","","","Mostly Cloudy"
"1998-04-08 16:00","1998","04","08","16:00","11.1","","6.2","","72","","4","","19","","24.1","","98.17","","","","","","Mostly Cloudy"
"1998-04-08 17:00","1998","04","08","17:00","11.1","","6.1","","71","","4","","24","","24.1","","98.17","","","","","","Mostly Cloudy"
"1998-04-08 18:00","1998","04","08","18:00","10.7","","6.7","","76","","6","","22","","24.1","","98.17","","","","","","Mostly Cloudy"
"1998-04-08 19:00","1998","04","08","19:00","10.1","","7.4","","83","","6","","13","","24.1","","98.23","","","","","","Mostly Cloudy"
"1998-04-08 20:00","1998","04","08","20:00","9.8","","5.5","","75","","8","","24","","24.1","","98.27","","","","","","Mostly Cloudy"
"1998-04-08 21:00","1998","04","08","21:00","9.5","","5.6","","77","","7","","26","","24.1","","98.30","","","","","","Mostly Cloudy"
"1998-04-08 22:00","1998","04","08","22:00","8.5","","4.0","","73","","7","","32","","24.1","","98.20","","","","","","Mainly Clear"
"1998-04-08 23:00","1998","04","08","23:00","7.9","","4.4","","79","","7","","32","","24.1","","98.20","","","","","","Mostly Cloudy"
"1998-04-09 00:00","1998","04","09","00:00","7.5","","4.7","","82","","6","","30","","24.1","","98.17","","","","","","Cloudy"
"1998-04-09 01:00","1998","04","09","01:00","7.2","","4.8","","85","","6","","33","","24.1","","98.00","","","","","","Cloudy"
"1998-04-09 02:00","1998","04","09","02:00","7.3","","5.0","","85","","6","","33","","16.1","","97.93","","","","","","Cloudy"
"1998-04-09 03:00","1998","04","09","03:00","7.3","","5.5","","88","","6","","33","","12.9","","97.83","","","","","","Cloudy"
"1998-04-09 04:00","1998","04","09","04:00","7.3","","6.0","","91","","7","","37","","4.8","","97.80","","","","","","Fog"
"1998-04-09 05:00","1998","04","09","05:00","7.6","","6.4","","92","","7","","37","","4.8","","97.70","","","","","","Fog"
"1998-04-09 06:00","1998","04","09","06:00","7.6","","6.3","","91","","7","","44","","4.0","","97.67","","","","","","Fog"
"1998-04-09 07:00","1998","04","09","07:00","8.0","","6.3","","89","","6","","37","","6.4","","97.60","","","","","","Rain Showers,Fog"
"1998-04-09 08:00","1998","04","09","08:00","7.7","","6.6","","93","","6","","30","","6.4","","97.53","","","","","","Rain,Fog"
"1998-04-09 09:00","1998","04","09","09:00","7.6","","6.4","","92","","6","","35","","6.4","","97.47","","","","","","Rain,Fog"
"1998-04-09 10:00","1998","04","09","10:00","6.5","","6.0","","97","","5","","44","","4.8","","97.37","","","","","","Moderate Rain,Fog"
"1998-04-09 11:00","1998","04","09","11:00","6.4","","6.0","","97","","5","","39","","3.2","","97.37","","","","","","Moderate Rain,Fog"
"1998-04-09 12:00","1998","04","09","12:00","6.6","","6.2","","97","","5","","39","","4.0","","97.37","","","","","","Rain,Fog"
"1998-04-09 13:00","1998","04","09","13:00","6.9","","6.3","","96","","4","","44","","4.0","","97.37","","","","","","Moderate Rain,Fog"
"1998-04-09 14:00","1998","04","09","14:00","6.7","","6.1","","96","","4","","44","","4.0","","97.37","","","","","","Rain,Fog"
"1998-04-09 15:00","1998","04","09","15:00","6.3","","5.8","","97","","5","","52","","4.8","","97.40","","","","","","Rain,Fog"
"1998-04-09 16:00","1998","04","09","16:00","6.2","","5.5","","95","","5","","56","","4.8","","97.47","","","","","","Rain,Fog"
"1998-04-09 17:00","1998","04","09","17:00","5.5","","4.7","","95","","4","","48","","4.0","","97.60","","","","","","Moderate Rain,Fog"
"1998-04-09 18:00","1998","04","09","18:00","4.9","","3.5","","91","","5","","56","","8.0","","97.70","","","","","","Rain,Fog"
"1998-04-09 19:00","1998","04","09","19:00","4.5","","3.2","","91","","4","","48","","6.4","","97.83","","","","","","Rain,Fog"
"1998-04-09 20:00","1998","04","09","20:00","4.4","","2.4","","87","","5","","52","","4.8","","97.97","","","","","","Rain,Fog"
"1998-04-09 21:00","1998","04","09","21:00","6.1","","2.5","","78","","3","","30","","19.3","","98.10","","","","","","Cloudy"
"1998-04-09 22:00","1998","04","09","22:00","6.3","","3.0","","79","","3","","26","","24.1","","98.17","","","","","","Cloudy"
"1998-04-09 23:00","1998","04","09","23:00","7.0","","0.2","","62","","3","","41","","24.1","","98.27","","","","","","Cloudy"
"1998-04-10 00:00","1998","04","10","00:00","6.7","","-0.5","","60","","3","","35","","24.1","","98.30","","","","","","Cloudy"
"1998-04-10 01:00","1998","04","10","01:00","6.5","","-1.4","","57","","3","","37","","24.1","","98.37","","","","","","Mostly Cloudy"
"1998-04-10 02:00","1998","04","10","02:00","5.8","","-1.7","","59","","3","","33","","25.0","","98.40","","","","","","Mainly Clear"
"1998-04-10 03:00","1998","04","10","03:00","4.9","","-2.3","","60","","3","","33","","25.0","","98.50","","","","","","Mainly Clear"
"1998-04-10 04:00","1998","04","10","04:00","3.5","","-2.7","","64","","1","","24","","25.0","","98.60","","","","","","Mainly Clear"
"1998-04-10 05:00","1998","04","10","05:00","3.1","","-3.7","","61","","36","","22","","25.0","","98.70","","","","","","Mainly Clear"
"1998-04-10 06:00","1998","04","10","06:00","2.7","","-4.0","","61","","1","","20","","25.0","","98.76","","","","","","Mainly Clear"
"1998-04-10 07:00","1998","04","10","07:00","2.5","","-3.5","","65","","1","","19","","25.0","","98.90","","","","","","Mainly Clear"
"1998-04-10 08:00","1998","04","10","08:00","4.4","","-2.8","","59","","2","","20","","25.0","","99.00","","","","","","Mainly Clear"
"1998-04-10 09:00","1998","04","10","09:00","5.4","","-2.4","","57","","4","","17","","25.0","","99.06","","","","","","Mainly Clear"
"1998-04-10 10:00","1998","04","10","10:00","6.3","","-2.1","","55","","4","","20","","25.0","","99.13","","","","","","Mainly Clear"
"1998-04-10 11:00","1998","04","10","11:00","8.0","","-1.2","","52","","5","","17","","25.0","","99.16","","","","","","Mainly Clear"
"1998-04-10 12:00","1998","04","10","12:00","9.0","","-2.4","","45","","4","","17","","25.0","","99.20","","","","","","Mainly Clear"
"1998-04-10 13:00","1998","04","10","13:00","9.6","","-3.0","","41","","5","","20","","25.0","","99.23","","","","","","Mainly Clear"
"1998-04-10 14:00","1998","04","10","14:00","10.2","","-2.8","","40","","5","","19","","25.0","","99.23","","","","","","Mainly Clear"
"1998-04-10 15:00","1998","04","10","15:00","10.6","","-1.3","","43","","5","","22","","24.1","","99.23","","","","","","Mostly Cloudy"
"1998-04-10 16:00","1998","04","10","16:00","11.2","","-3.3","","36","","2","","19","","24.1","","99.23","","","","","","Mostly Cloudy"
"1998-04-10 17:00","1998","04","10","17:00","10.2","","-2.1","","42","","5","","19","","24.1","","99.26","","","","","","Mainly Clear"
"1998-04-10 18:00","1998","04","10","18:00","8.7","","-0.2","","54","","7","","26","","24.1","","99.30","","","","","","Mostly Cloudy"
"1998-04-10 19:00","1998","04","10","19:00","6.7","","-0.1","","62","","6","","17","","24.1","","99.36","","","","","","Mostly Cloudy"
"1998-04-10 20:00","1998","04","10","20:00","5.4","","-0.2","","67","","6","","9","","24.1","","99.43","","","","","","Mostly Cloudy"
"1998-04-10 21:00","1998","04","10","21:00","4.9","","-1.0","","66","","8","","9","","24.1","","99.50","","","","","","Mostly Cloudy"
"1998-04-10 22:00","1998","04","10","22:00","3.7","","-0.1","","76","","","","0","","24.1","","99.53","","","","","","Mostly Cloudy"
"1998-04-10 23:00","1998","04","10","23:00","3.2","","-0.1","","79","","20","","4","","24.1","","99.53","","","","","","Mostly Cloudy"
"1998-04-11 00:00","1998","04","11","00:00","2.6","","-0.7","","79","","15","","4","","24.1","","99.53","","","","","","Mostly Cloudy"
"1998-04-11 01:00","1998","04","11","01:00","2.5","","-1.3","","76","","","","0","","24.1","","99.56","","","","","","Mostly Cloudy"
"1998-04-11 02:00","1998","04","11","02:00","2.3","","-1.0","","79","","24","","6","","24.1","","99.60","","","","","","Mostly Cloudy"
"1998-04-11 03:00","1998","04","11","03:00","2.0","","-1.8","","76","","24","","6","","24.1","","99.60","","","","","","Mainly Clear"
"1998-04-11 04:00","1998","04","11","04:00","1.3","","-1.9","","79","","21","","7","","24.1","","99.60","","","","","","Clear"
"1998-04-11 05:00","1998","04","11","05:00","1.1","","-2.1","","79","","21","","7","","24.1","","99.63","","","","","","Mainly Clear"
"1998-04-11 06:00","1998","04","11","06:00","0.6","","-2.2","","81","","14","","4","","24.1","","99.66","","","","","","Mainly Clear"
"1998-04-11 07:00","1998","04","11","07:00","1.9","","-1.7","","77","","22","","4","","24.1","","99.73","","","","","","Clear"
"1998-04-11 08:00","1998","04","11","08:00","4.8","","0.4","","73","","27","","4","","24.1","","99.76","","","","","","Clear"
"1998-04-11 09:00","1998","04","11","09:00","6.9","","-0.6","","59","","4","","6","","24.1","","99.80","","","","","","Clear"
"1998-04-11 10:00","1998","04","11","10:00","8.7","","-0.8","","51","","21","","4","","24.1","","99.83","","","","","","Clear"
"1998-04-11 11:00","1998","04","11","11:00","10.0","","-0.6","","48","","5","","4","","24.1","","99.86","","","","","","Clear"
"1998-04-11 12:00","1998","04","11","12:00","11.2","","-1.1","","42","","6","","4","","24.1","","99.83","","","","","","Clear"
"1998-04-11 13:00","1998","04","11","13:00","12.6","","-2.2","","36","","32","","7","E","24.1","","99.83","","","","","","Mainly Clear"
"1998-04-11 14:00","1998","04","11","14:00","14.3","","-0.7","","36","","27","","15","E","24.1","","99.80","","","","","","Mainly Clear"
"1998-04-11 15:00","1998","04","11","15:00","15.2","","-2.2","","30","","27","","15","E","24.1","","99.73","","","","","","Mainly Clear"
"1998-04-11 16:00","1998","04","11","16:00","14.8","","1.3","","40","","18","","20","E","24.1","","99.70","","","","","","Mainly Clear"
"1998-04-11 17:00","1998","04","11","17:00","14.1","","1.1","","41","","18","","19","E","24.1","","99.66","","","","","","Mainly Clear"
"1998-04-11 18:00","1998","04","11","18:00","12.9","","0.6","","43","","18","","15","E","24.1","","99.70","","","","","","Mainly Clear"
"1998-04-11 19:00","1998","04","11","19:00","11.8","","2.1","","51","","18","","13","E","24.1","","99.73","","","","","","Mainly Clear"
"1998-04-11 20:00","1998","04","11","20:00","9.5","","3.8","","68","","14","","7","E","24.1","","99.73","","","","","","Mainly Clear"
"1998-04-11 21:00","1998","04","11","21:00","8.4","","3.8","","73","","14","","7","E","24.1","","99.80","","","","","","Clear"
"1998-04-11 22:00","1998","04","11","22:00","11.5","","7.1","","74","","14","","11","E","24.1","","99.80","","","","","","Clear"
"1998-04-11 23:00","1998","04","11","23:00","7.3","","3.9","","79","","18","","7","E","24.1","","99.80","","","","","","Clear"
"1998-04-12 00:00","1998","04","12","00:00","7.4","","3.4","","76","","18","","9","E","24.1","","99.83","","","","","","Clear"
"1998-04-12 01:00","1998","04","12","01:00","6.4","","3.1","","79","","18","","7","E","24.1","","99.83","","","","","","Clear"
"1998-04-12 02:00","1998","04","12","02:00","7.0","","3.0","","76","","23","","11","E","24.1","","99.86","","","","","","Mainly Clear"
"1998-04-12 03:00","1998","04","12","03:00","6.5","","2.6","","76","","23","","11","E","24.1","","99.90","","","","","","Mainly Clear"
"1998-04-12 04:00","1998","04","12","04:00","5.5","","2.1","","79","","23","","6","E","24.1","","99.93","","","","","","Mainly Clear"
"1998-04-12 05:00","1998","04","12","05:00","5.8","","2.2","","78","","23","","4","E","24.1","","99.96","","","","","","Mainly Clear"
"1998-04-12 06:00","1998","04","12","06:00","5.5","","2.4","","80","","23","","11","E","16.1","","100.03","","","","","","Mainly Clear"
"1998-04-12 07:00","1998","04","12","07:00","7.2","","3.0","","75","","23","","9","E","24.1","","100.09","","","","","","Mostly Cloudy"
"1998-04-12 08:00","1998","04","12","08:00","9.6","","5.2","","74","","23","","11","E","24.1","","100.09","","","","","","Mainly Clear"
"1998-04-12 09:00","1998","04","12","09:00","12.8","","5.4","","61","","23","","15","E","24.1","","100.13","","","","","","Mainly Clear"
"1998-04-12 10:00","1998","04","12","10:00","15.0","","5.3","","52","","23","","17","E","24.1","","100.13","","","","","","Mainly Clear"
"1998-04-12 11:00","1998","04","12","11:00","16.6","","6.5","","51","","21","","19","","24.1","","100.09","","","","","","Clear"
"1998-04-12 12:00","1998","04","12","12:00","17.1","","5.9","","48","","24","","22","","24.1","","100.06","","","","","","Mainly Clear"
"1998-04-12 13:00","1998","04","12","13:00","17.6","","5.1","","44","","23","","30","","24.1","","100.03","","","","","","Mainly Clear"
"1998-04-12 14:00","1998","04","12","14:00","17.9","","5.1","","43","","21","","32","","24.1","","99.96","","","","","","Mainly Clear"
"1998-04-12 15:00","1998","04","12","15:00","17.9","","4.0","","40","","19","","26","","24.1","","99.93","","","","","","Mainly Clear"
"1998-04-12 16:00","1998","04","12","16:00","18.3","","4.6","","40","","18","","20","","24.1","","99.90","","","","","","Mainly Clear"
"1998-04-12 17:00","1998","04","12","17:00","18.2","","4.6","","41","","18","","22","","24.1","","99.80","","","","","","Mainly Clear"
"1998-04-12 18:00","1998","04","12","18:00","17.2","","4.6","","43","","16","","20","","24.1","","99.73","","","","","","Mostly Cloudy"
"1998-04-12 19:00","1998","04","12","19:00","15.3","","5.1","","51","","14","","13","","24.1","","99.70","","","","","","Mostly Cloudy"
"1998-04-12 20:00","1998","04","12","20:00","12.9","","4.9","","58","","14","","17","","24.1","","99.70","","","","","","Mostly Cloudy"
"1998-04-12 21:00","1998","04","12","21:00","11.0","","4.0","","62","","14","","15","","24.1","","99.70","","","","","","Mainly Clear"
"1998-04-12 22:00","1998","04","12","22:00","10.5","","3.0","","60","","14","","19","","24.1","","99.70","","","","","","Mostly Cloudy"
"1998-04-12 23:00","1998","04","12","23:00","9.6","","2.7","","62","","14","","15","","24.1","","99.73","","","","","","Mainly Clear"
"1998-04-13 00:00","1998","04","13","00:00","9.2","","2.4","","62","","13","","15","","24.1","","99.73","","","","","","Mainly Clear"
"1998-04-13 01:00","1998","04","13","01:00","8.5","","2.9","","68","","14","","11","","24.1","","99.73","","","","","","Mainly Clear"
"1998-04-13 02:00","1998","04","13","02:00","9.1","","3.3","","67","","15","","17","","24.1","","99.70","","","","","","Cloudy"
"1998-04-13 03:00","1998","04","13","03:00","9.4","","3.2","","65","","15","","15","","24.1","","99.66","","","","","","Mainly Clear"
"1998-04-13 04:00","1998","04","13","04:00","10.4","","1.8","","55","","16","","17","","24.1","","99.63","","","","","","Mostly Cloudy"
"1998-04-13 05:00","1998","04","13","05:00","9.8","","1.6","","57","","15","","17","","24.1","","99.56","","","","","","Mostly Cloudy"
"1998-04-13 06:00","1998","04","13","06:00","9.0","","1.8","","61","","16","","17","","24.1","","99.53","","","","","","Mostly Cloudy"
"1998-04-13 07:00","1998","04","13","07:00","9.3","","2.4","","62","","15","","17","","24.1","","99.50","","","","","","Mostly Cloudy"
"1998-04-13 08:00","1998","04","13","08:00","11.3","","3.0","","57","","16","","19","","24.1","","99.43","","","","","","Mostly Cloudy"
"1998-04-13 09:00","1998","04","13","09:00","13.7","","3.0","","48","","16","","22","","24.1","","99.36","","","","","","Mostly Cloudy"
"1998-04-13 10:00","1998","04","13","10:00","15.3","","3.0","","44","","18","","30","","24.1","","99.30","","","","","","Mostly Cloudy"
"1998-04-13 11:00","1998","04","13","11:00","16.6","","4.4","","44","","19","","33","","24.1","","99.26","","","","","","Mostly Cloudy"
"1998-04-13 12:00","1998","04","13","12:00","18.9","","6.0","","43","","19","","26","","24.1","","99.23","","","","","","Mostly Cloudy"
"1998-04-13 13:00","1998","04","13","13:00","19.7","","5.3","","39","","21","","33","","24.1","","99.13","","","","","","Mostly Cloudy"
"1998-04-13 14:00","1998","04","13","14:00","20.9","","6.4","","39","","19","","32","","24.1","","99.03","","","","","","Mostly Cloudy"
"1998-04-13 15:00","1998","04","13","15:00","21.5","","6.7","","38","","18","","32","","24.1","","98.93","","","","","","Mostly Cloudy"
"1998-04-13 16:00","1998","04","13","16:00","20.8","","6.4","","39","","19","","32","","24.1","","98.80","","","","","","Cloudy"
"1998-04-13 17:00","1998","04","13","17:00","20.0","","5.6","","39","","19","","30","","24.1","","98.80","","","","","","Cloudy"
"1998-04-13 18:00","1998","04","13","18:00","19.0","","5.9","","42","","19","","24","","24.1","","98.76","","","","","","Cloudy"
"1998-04-13 19:00","1998","04","13","19:00","17.8","","5.7","","45","","18","","24","","24.1","","98.73","","","","","","Cloudy"
"1998-04-13 20:00","1998","04","13","20:00","16.9","","5.5","","47","","17","","20","","24.1","","98.73","","","","","","Cloudy"
"1998-04-13 21:00","1998","04","13","21:00","16.8","","5.5","","47","","18","","20","","24.1","","98.73","","","","","","Cloudy"
"1998-04-13 22:00","1998","04","13","22:00","16.0","","6.6","","54","","22","","30","","24.1","","98.80","","","","","","Cloudy"
"1998-04-13 23:00","1998","04","13","23:00","14.5","","8.4","","67","","24","","41","","24.1","","98.73","","","","","","Rain Showers"
"1998-04-14 00:00","1998","04","14","00:00","12.2","","9.7","","85","","20","","22","","24.1","","98.70","","","","","","Rain"
"1998-04-14 01:00","1998","04","14","01:00","12.5","","9.6","","82","","15","","19","","24.1","","98.50","","","","","","Rain"
"1998-04-14 02:00","1998","04","14","02:00","13.5","","8.8","","73","","18","","19","","24.1","","98.40","","","","","","Rain"
"1998-04-14 03:00","1998","04","14","03:00","13.2","","8.7","","74","","19","","26","","24.1","","98.33","","","","","","Rain"
"1998-04-14 04:00","1998","04","14","04:00","12.6","","9.2","","80","","16","","24","","24.1","","98.23","","","","","","Rain"
"1998-04-14 05:00","1998","04","14","05:00","12.2","","9.8","","85","","18","","26","","16.1","","98.13","","","","","","Rain"
"1998-04-14 06:00","1998","04","14","06:00","11.6","","10.2","","91","","15","","15","","4.8","","98.10","","","","","","Rain,Fog"
"1998-04-14 07:00","1998","04","14","07:00","11.9","","10.4","","91","","17","","20","","8.0","","98.03","","","","","","Rain,Fog"
"1998-04-14 08:00","1998","04","14","08:00","11.7","","10.5","","92","","17","","20","","6.4","","98.00","","","","","","Rain,Fog"
"1998-04-14 09:00","1998","04","14","09:00","12.1","","11.1","","94","","17","","19","","6.4","","97.97","","","","","","Rain,Fog"
"1998-04-14 10:00","1998","04","14","10:00","12.3","","11.6","","95","","18","","15","","6.4","","97.93","","","","","","Rain,Fog"
"1998-04-14 11:00","1998","04","14","11:00","12.7","","12.2","","97","","19","","9","","8.0","","97.93","","","","","","Fog"
"1998-04-14 12:00","1998","04","14","12:00","13.4","","12.5","","94","","27","","11","","6.4","","97.93","","","","","","Fog"
"1998-04-14 13:00","1998","04","14","13:00","13.8","","12.9","","94","","27","","9","","4.8","","97.97","","","","","","Rain,Fog"
"1998-04-14 14:00","1998","04","14","14:00","14.2","","13.2","","94","","28","","15","","4.8","","98.00","","","","","","Rain,Fog"
"1998-04-14 15:00","1998","04","14","15:00","14.4","","13.1","","92","","30","","15","","8.0","","98.07","","","","","","Rain,Fog"
"1998-04-14 16:00","1998","04","14","16:00","14.4","","12.9","","91","","29","","22","","11.3","","98.13","","","","","","Rain"
"1998-04-14 17:00","1998","04","14","17:00","15.6","","12.7","","83","","29","","20","","19.3","","98.17","","","","","","Mostly Cloudy"
"1998-04-14 18:00","1998","04","14","18:00","15.8","","12.3","","80","","29","","20","","19.3","","98.23","","","","","","Mostly Cloudy"
"1998-04-14 19:00","1998","04","14","19:00","14.4","","11.2","","81","","28","","28","","11.3","","98.33","","","","","","Mostly Cloudy"
"1998-04-14 20:00","1998","04","14","20:00","14.0","","10.8","","81","","29","","22","","19.3","","98.40","","","","","","Mainly Clear"
"1998-04-14 21:00","1998","04","14","21:00","13.1","","10.5","","84","","28","","22","","16.1","","98.53","","","","","","Mostly Cloudy"
"1998-04-14 22:00","1998","04","14","22:00","12.3","","9.7","","84","","29","","26","","19.3","","98.57","","","","","","Mainly Clear"
"1998-04-14 23:00","1998","04","14","23:00","12.3","","9.4","","82","","29","","20","","24.1","","98.63","","","","","","Mostly Cloudy"
"1998-04-15 00:00","1998","04","15","00:00","12.3","","9.1","","81","","33","","24","","24.1","","98.66","","","","","","Cloudy"
"1998-04-15 01:00","1998","04","15","01:00","11.9","","8.7","","81","","34","","19","","25.0","","98.66","","","","","","Cloudy"
"1998-04-15 02:00","1998","04","15","02:00","11.1","","8.4","","83","","34","","13","","25.0","","98.73","","","","","","Cloudy"
"1998-04-15 03:00","1998","04","15","03:00","10.9","","8.1","","83","","34","","11","","25.0","","98.76","","","","","","Cloudy"
"1998-04-15 04:00","1998","04","15","04:00","10.7","","8.2","","85","","1","","13","","25.0","","98.76","","","","","","Cloudy"
"1998-04-15 05:00","1998","04","15","05:00","9.2","","8.2","","93","","10","","7","","12.9","","98.83","","","","","","Cloudy"
"1998-04-15 06:00","1998","04","15","06:00","8.9","","8.4","","97","","8","","4","","2.4","","98.93","","","","","","Drizzle,Fog"
"1998-04-15 07:00","1998","04","15","07:00","9.1","","8.4","","95","","7","","7","","9.7","","98.96","","","","","","Drizzle,Fog"
"1998-04-15 08:00","1998","04","15","08:00","9.5","","7.4","","87","","6","","15","","19.3","","99.00","","","","","","Cloudy"
"1998-04-15 09:00","1998","04","15","09:00","9.0","","6.1","","82","","5","","17","","24.1","","99.03","","","","","","Mostly Cloudy"
"1998-04-15 10:00","1998","04","15","10:00"
"1998-04-15 11:00","1998","04","15","11:00"
"1998-04-15 12:00","1998","04","15","12:00","11.4","","7.0","","74","","17","","13","","24.1","","99.00","","","","","","Cloudy"
"1998-04-15 13:00","1998","04","15","13:00","11.7","","7.0","","73","","13","","6","","24.1","","98.96","","","","","","Cloudy"
"1998-04-15 14:00","1998","04","15","14:00","12.4","","7.6","","72","","13","","13","","24.1","","98.80","","","","","","Cloudy"
"1998-04-15 15:00","1998","04","15","15:00","11.6","","8.1","","79","","15","","13","","24.1","","98.76","","","","","","Cloudy"
"1998-04-15 16:00","1998","04","15","16:00","11.8","","8.2","","79","","16","","6","","24.1","","98.83","","","","","","Cloudy"
"1998-04-15 17:00","1998","04","15","17:00","12.4","","7.3","","71","","8","","11","","24.1","","98.73","","","","","","Mostly Cloudy"
"1998-04-15 18:00","1998","04","15","18:00","12.0","","7.6","","74","","8","","20","","24.1","","98.70","","","","","","Cloudy"
"1998-04-15 19:00","1998","04","15","19:00","11.5","","7.2","","75","","8","","20","","24.1","","98.70","","","","","","Cloudy"
"1998-04-15 20:00","1998","04","15","20:00","10.1","","6.6","","79","","7","","19","","24.1","","98.70","","","","","","Cloudy"
"1998-04-15 21:00","1998","04","15","21:00","10.0","","6.9","","81","","7","","22","","24.1","","98.66","","","","","","Rain Showers"
"1998-04-15 22:00","1998","04","15","22:00","9.4","","6.5","","82","","5","","33","","24.1","","98.50","","","","","","Cloudy"
"1998-04-15 23:00","1998","04","15","23:00","8.4","","6.0","","85","","6","","30","","24.1","","98.47","","","","","","Mostly Cloudy"
"1998-04-16 00:00","1998","04","16","00:00","8.5","","6.0","","84","","8","","26","","24.1","","98.43","","","","","","Mostly Cloudy"
"1998-04-16 01:00","1998","04","16","01:00","8.9","","6.1","","83","","7","","19","","24.1","","98.43","","","","","","Cloudy"
"1998-04-16 02:00","1998","04","16","02:00","8.8","","6.9","","88","","8","","24","","19.3","","98.30","","","","","","Rain Showers"
"1998-04-16 03:00","1998","04","16","03:00","8.4","","7.2","","92","","10","","20","","24.1","","98.17","","","","","","Rain Showers"
"1998-04-16 04:00","1998","04","16","04:00","9.8","","9.0","","95","","15","","22","","16.1","","98.00","","","","","","Rain Showers"
"1998-04-16 05:00","1998","04","16","05:00","11.9","","11.2","","95","","16","","17","","16.1","","97.90","","","","","","Rain Showers"
"1998-04-16 06:00","1998","04","16","06:00","11.7","","11.2","","97","","13","","26","","4.0","","97.87","","","","","","Rain Showers,Fog"
"1998-04-16 07:00","1998","04","16","07:00","11.9","","11.4","","97","","14","","15","","4.0","","97.80","","","","","","Rain,Fog"
"1998-04-16 08:00","1998","04","16","08:00","12.0","","11.6","","97","","15","","7","","3.2","","97.87","","","","","","Rain,Fog"
"1998-04-16 09:00","1998","04","16","09:00","12.7","","12.3","","97","","23","","11","","4.8","","97.73","","","","","","Fog"
"1998-04-16 10:00","1998","04","16","10:00","13.1","","12.5","","96","","23","","17","","3.2","","97.80","","","","","","Rain,Fog"
"1998-04-16 11:00","1998","04","16","11:00","14.6","","13.9","","96","","19","","19","","4.8","","97.77","","","","","","Fog"
"1998-04-16 12:00","1998","04","16","12:00","14.9","","13.7","","93","","24","","15","","6.4","","97.77","","","","","","Fog"
"1998-04-16 13:00","1998","04","16","13:00","17.5","","14.4","","82","","24","","22","","12.9","","97.70","","","","","","Mostly Cloudy"
"1998-04-16 14:00","1998","04","16","14:00","18.9","","15.3","","80","","20","","26","","24.1","","97.73","","","","","","Mostly Cloudy"
"1998-04-16 15:00","1998","04","16","15:00","20.0","","14.7","","72","","21","","32","","25.0","","97.70","","","","","","Mainly Clear"
"1998-04-16 16:00","1998","04","16","16:00","20.6","","13.9","","65","","21","","35","","25.0","","97.67","","","","","","Mainly Clear"
"1998-04-16 17:00","1998","04","16","17:00","20.3","","13.1","","63","","23","","30","","24.1","","97.70","","","","","","Mostly Cloudy"
"1998-04-16 18:00","1998","04","16","18:00","19.5","","12.6","","64","","25","","24","","19.3","","97.70","","","","","","Mostly Cloudy"
"1998-04-16 19:00","1998","04","16","19:00","18.9","","10.2","","57","","26","","19","","19.3","","97.70","","","","","","Mostly Cloudy"
"1998-04-16 20:00","1998","04","16","20:00","16.2","","12.5","","79","","26","","13","","16.1","","97.80","","","","","","Rain Showers"
"1998-04-16 21:00","1998","04","16","21:00","15.1","","11.8","","81","","28","","19","","19.3","","97.80","","","","","","Rain Showers"
"1998-04-16 22:00","1998","04","16","22:00","13.9","","8.7","","71","","28","","24","","24.1","","97.90","","","","","","Mostly Cloudy"
"1998-04-16 23:00","1998","04","16","23:00","10.0","","6.3","","78","","29","","33","","24.1","","97.97","","","","","","Mainly Clear"
"1998-04-17 00:00","1998","04","17","00:00","8.8","","5.1","","78","","30","","17","","24.1","","98.03","","","","","","Mostly Cloudy"
"1998-04-17 01:00","1998","04","17","01:00","7.4","","4.3","","81","","29","","26","","24.1","","98.17","","","","","","Cloudy"
"1998-04-17 02:00","1998","04","17","02:00","6.2","","2.8","","79","","29","","28","","24.1","","98.27","","","","","","Cloudy"
"1998-04-17 03:00","1998","04","17","03:00","5.3","","1.3","","75","","29","","22","","24.1","","98.37","","","","","","Cloudy"
"1998-04-17 04:00","1998","04","17","04:00","4.8","","0.5","","74","","29","","26","","24.1","","98.40","","","","","","Mostly Cloudy"
"1998-04-17 05:00","1998","04","17","05:00","4.4","","-0.3","","71","","30","","22","","24.1","","98.47","","","","","","Mostly Cloudy"
"1998-04-17 06:00","1998","04","17","06:00","3.8","","-1.1","","70","","30","","22","","24.1","","98.60","","","","","","Mostly Cloudy"
"1998-04-17 07:00","1998","04","17","07:00","3.6","","-1.5","","69","","28","","32","","24.1","","98.73","","","","","","Mostly Cloudy"
"1998-04-17 08:00","1998","04","17","08:00","4.2","","-1.2","","68","","28","","22","","24.1","","98.80","","","","","","Mostly Cloudy"
"1998-04-17 09:00","1998","04","17","09:00","4.9","","-0.9","","66","","27","","28","","24.1","","98.86","","","","","","Mainly Clear"
"1998-04-17 10:00","1998","04","17","10:00","6.9","","-0.3","","60","","27","","24","","24.1","","98.93","","","","","","Mainly Clear"
"1998-04-17 11:00","1998","04","17","11:00","8.4","","-0.5","","53","","28","","28","","24.1","","99.00","","","","","","Mainly Clear"
"1998-04-17 12:00","1998","04","17","12:00","10.1","","-1.3","","45","","30","","32","","24.1","","99.03","","","","","","Mainly Clear"
"1998-04-17 13:00","1998","04","17","13:00","11.3","","-1.6","","41","","31","","28","","24.1","","99.10","","","","","","Mainly Clear"
"1998-04-17 14:00","1998","04","17","14:00","11.6","","-1.4","","40","","30","","32","","25.0","","99.13","","","","","","Mainly Clear"
"1998-04-17 15:00","1998","04","17","15:00","12.0","","-1.9","","38","","28","","32","","25.0","","99.13","","","","","","Mainly Clear"
"1998-04-17 16:00","1998","04","17","16:00","12.2","","-2.3","","36","","26","","30","","25.0","","99.16","","","","","","Mainly Clear"
"1998-04-17 17:00","1998","04","17","17:00","12.4","","-1.9","","37","","29","","24","","25.0","","99.23","","","","","","Mainly Clear"
"1998-04-17 18:00","1998","04","17","18:00","11.9","","-2.3","","37","","29","","32","","25.0","","99.33","","","","","","Mainly Clear"
"1998-04-17 19:00","1998","04","17","19:00","10.5","","-3.3","","38","","30","","39","","25.0","","99.43","","","","","","Clear"
"1998-04-17 20:00","1998","04","17","20:00","9.0","","-4.2","","39","","29","","32","","25.0","","99.56","","","","","","Clear"
"1998-04-17 21:00","1998","04","17","21:00","8.2","","-4.0","","42","","29","","20","","25.0","","99.73","","","","","","Clear"
"1998-04-17 22:00","1998","04","17","22:00","7.6","","-3.8","","44","","27","","15","","25.0","","99.73","","","","","","Clear"
"1998-04-17 23:00","1998","04","17","23:00","6.7","","-3.0","","50","","25","","9","","24.1","","99.76","","","","","","Clear"
"1998-04-18 00:00","1998","04","18","00:00","6.0","","-2.6","","54","","24","","15","","24.1","","99.80","","","","","","Clear"
"1998-04-18 01:00","1998","04","18","01:00","4.8","","-1.7","","63","","23","","13","","24.1","","99.83","","","","","","Clear"
"1998-04-18 02:00","1998","04","18","02:00","4.7","","-1.7","","63","","23","","13","","24.1","","99.83","","","","","","Clear"
"1998-04-18 03:00","1998","04","18","03:00","5.5","","-2.4","","57","","25","","15","","24.1","","99.83","","","","","","Clear"
"1998-04-18 04:00","1998","04","18","04:00","5.1","","-2.4","","58","","25","","15","","24.1","","99.83","","","","","","Clear"
"1998-04-18 05:00","1998","04","18","05:00","5.0","","-2.5","","58","","25","","15","","24.1","","99.86","","","","","","Clear"
"1998-04-18 06:00","1998","04","18","06:00","4.5","","-1.8","","64","","24","","15","","24.1","","99.96","","","","","","Mainly Clear"
"1998-04-18 07:00","1998","04","18","07:00","6.1","","-1.9","","56","","25","","13","","24.1","","99.96","","","","","","Mostly Cloudy"
"1998-04-18 08:00","1998","04","18","08:00","8.6","","-0.1","","54","","24","","15","","24.1","","100.03","","","","","","Mostly Cloudy"
"1998-04-18 09:00","1998","04","18","09:00","10.6","","-0.3","","47","","26","","20","","24.1","","100.06","","","","","","Mostly Cloudy"
"1998-04-18 10:00","1998","04","18","10:00","12.6","","0.6","","44","","25","","17","","24.1","","100.06","","","","","","Mostly Cloudy"
"1998-04-18 11:00","1998","04","18","11:00","13.8","","1.6","","43","","23","","20","","24.1","","100.09","","","","","","Cloudy"
"1998-04-18 12:00","1998","04","18","12:00","14.5","","2.3","","44","","24","","22","","24.1","","100.06","","","","","","Cloudy"
"1998-04-18 13:00","1998","04","18","13:00","15.5","","0.7","","37","","32","","17","","24.1","","99.99","","","","","","Cloudy"
"1998-04-18 14:00","1998","04","18","14:00","16.2","","-0.1","","33","","28","","19","","24.1","","99.96","","","","","","Cloudy"
"1998-04-18 15:00","1998","04","18","15:00","15.1","","2.1","","41","","21","","30","","24.1","","99.96","","","","","","Cloudy"
"1998-04-18 16:00","1998","04","18","16:00","14.6","","1.3","","40","","20","","26","","24.1","","99.90","","","","","","Cloudy"
"1998-04-18 17:00","1998","04","18","17:00","13.8","","0.5","","40","","20","","22","","24.1","","99.86","","","","","","Cloudy"
"1998-04-18 18:00","1998","04","18","18:00","13.0","","2.1","","47","","19","","19","","24.1","","99.90","","","","","","Cloudy"
"1998-04-18 19:00","1998","04","18","19:00","11.7","","2.7","","54","","19","","11","","24.1","","99.83","","","","","","Cloudy"
"1998-04-18 20:00","1998","04","18","20:00","11.3","","2.2","","53","","19","","19","","24.1","","99.86","","","","","","Cloudy"
"1998-04-18 21:00","1998","04","18","21:00","10.5","","2.8","","59","","18","","7","","24.1","","99.86","","","","","","Mostly Cloudy"
"1998-04-18 22:00","1998","04","18","22:00","10.3","","2.3","","58","","18","","7","","24.1","","99.86","","","","","","Mostly Cloudy"
"1998-04-18 23:00","1998","04","18","23:00","10.3","","2.0","","56","","","","0","","24.1","","99.80","","","","","","Cloudy"
"1998-04-19 00:00","1998","04","19","00:00","9.5","","3.6","","67","","","","0","","24.1","","99.73","","","","","","Cloudy"
"1998-04-19 01:00","1998","04","19","01:00","10.3","","2.0","","56","","","","0","","24.1","","99.70","","","","","","Cloudy"
"1998-04-19 02:00","1998","04","19","02:00","8.9","","3.9","","71","","4","","11","","24.1","","99.63","","","","","","Cloudy"
"1998-04-19 03:00","1998","04","19","03:00","9.2","","3.7","","68","","5","","4","","24.1","","99.60","","","","","","Cloudy"
"1998-04-19 04:00","1998","04","19","04:00","9.2","","5.1","","75","","7","","4","","24.1","","99.60","","","","","","Cloudy"
"1998-04-19 05:00","1998","04","19","05:00","9.1","","4.8","","74","","13","","4","","24.1","","99.53","","","","","","Cloudy"
"1998-04-19 06:00","1998","04","19","06:00","9.0","","4.6","","74","","","","0","","16.1","","99.60","","","","","","Cloudy"
"1998-04-19 07:00","1998","04","19","07:00","9.4","","3.1","","65","","10","","9","","24.1","","99.60","","","","","","Cloudy"
"1998-04-19 08:00","1998","04","19","08:00","9.1","","3.5","","68","","11","","15","","24.1","","99.60","","","","","","Cloudy"
"1998-04-19 09:00","1998","04","19","09:00","9.9","","4.3","","68","","12","","15","","24.1","","99.50","","","","","","Cloudy"
"1998-04-19 10:00","1998","04","19","10:00","10.4","","5.5","","72","","10","","19","","24.1","","99.50","","","","","","Cloudy"
"1998-04-19 11:00","1998","04","19","11:00","10.8","","5.7","","71","","9","","26","","24.1","","99.46","","","","","","Cloudy"
"1998-04-19 12:00","1998","04","19","12:00","10.6","","5.2","","69","","8","","33","","24.1","","99.43","","","","","","Cloudy"
"1998-04-19 13:00","1998","04","19","13:00","10.6","","5.2","","69","","6","","30","","24.1","","99.33","","","","","","Rain Showers"
"1998-04-19 14:00","1998","04","19","14:00","9.9","","6.2","","78","","5","","26","","19.3","","99.30","","","","","","Rain Showers"
"1998-04-19 15:00","1998","04","19","15:00","9.5","","6.1","","79","","4","","20","","12.9","","99.30","","","","","","Rain"
"1998-04-19 16:00","1998","04","19","16:00","8.8","","6.9","","88","","5","","22","","11.3","","99.26","","","","","","Rain"
"1998-04-19 17:00","1998","04","19","17:00","8.7","","6.4","","85","","3","","24","","11.3","","99.26","","","","","","Rain"
"1998-04-19 18:00","1998","04","19","18:00","8.4","","7.0","","91","","2","","22","","11.3","","99.30","","","","","","Rain"
"1998-04-19 19:00","1998","04","19","19:00","8.4","","6.1","","85","","2","","22","","11.3","","99.33","","","","","","Rain"
"1998-04-19 20:00","1998","04","19","20:00","8.1","","6.1","","87","","2","","17","","12.9","","99.36","","","","","","Rain"
"1998-04-19 21:00","1998","04","19","21:00","8.0","","5.9","","87","","3","","11","","16.1","","99.40","","","","","","Rain"
"1998-04-19 22:00","1998","04","19","22:00","7.7","","5.8","","88","","35","","11","","19.3","","99.40","","","","","","Rain Showers"
"1998-04-19 23:00","1998","04","19","23:00","7.8","","5.9","","88","","30","","7","","19.3","","99.43","","","","","","Cloudy"
"1998-04-20 00:00","1998","04","20","00:00","7.9","","6.2","","89","","27","","7","","12.9","","99.43","","","","","","Cloudy"
"1998-04-20 01:00","1998","04","20","01:00","8.0","","6.0","","87","","24","","4","","12.9","","99.43","","","","","","Cloudy"
"1998-04-20 02:00","1998","04","20","02:00","7.5","","5.9","","90","","25","","11","","12.9","","99.43","","","","","","Cloudy"
"1998-04-20 03:00","1998","04","20","03:00","7.2","","5.6","","90","","25","","9","","12.9","","99.43","","","","","","Mainly Clear"
"1998-04-20 04:00","1998","04","20","04:00","6.7","","5.4","","91","","24","","7","","12.9","","99.46","","","","","","Mainly Clear"
"1998-04-20 05:00","1998","04","20","05:00","5.1","","4.3","","95","","","","0","","11.3","","99.56","","","","","","Mainly Clear"
"1998-04-20 06:00","1998","04","20","06:00","5.5","","4.7","","95","","24","","7","","8.0","","99.60","","","","","","Fog"
"1998-04-20 07:00","1998","04","20","07:00","6.7","","5.6","","93","","24","","13","","9.7","","99.66","","","","","","Fog"
"1998-04-20 08:00","1998","04","20","08:00","9.1","","6.7","","85","","","","0","","9.7","","99.70","","","","","","Haze"
"1998-04-20 09:00","1998","04","20","09:00","10.9","","6.2","","73","","23","","6","","11.3","","99.70","","","","","","Clear"
"1998-04-20 10:00","1998","04","20","10:00","13.1","","6.9","","66","","31","","4","","14.5","","99.70","","","","","","Clear"
"1998-04-20 11:00","1998","04","20","11:00","14.2","","6.9","","61","","","","0","","14.5","","99.70","","","","","","Clear"
"1998-04-20 12:00","1998","04","20","12:00","15.3","","4.9","","50","","","","0","","16.1","","99.66","","","","","","Clear"
"1998-04-20 13:00","1998","04","20","13:00","16.4","","7.1","","54","","24","","15","","19.3","","99.60","","","","","","Mainly Clear"
"1998-04-20 14:00","1998","04","20","14:00","16.4","","8.8","","61","","22","","24","","14.5","","99.56","","","","","","Mainly Clear"
"1998-04-20 15:00","1998","04","20","15:00","16.1","","7.8","","58","","21","","22","","19.3","","99.53","","","","","","Mainly Clear"
"1998-04-20 16:00","1998","04","20","16:00","17.1","","6.4","","49","","22","","19","","24.1","","99.50","","","","","","Mainly Clear"
"1998-04-20 17:00","1998","04","20","17:00","16.2","","6.1","","51","","19","","22","","24.1","","99.53","","","","","","Mostly Cloudy"
"1998-04-20 18:00","1998","04","20","18:00","15.8","","6.3","","53","","20","","19","","24.1","","99.53","","","","","","Mainly Clear"
"1998-04-20 19:00","1998","04","20","19:00","14.0","","6.9","","62","","19","","15","","24.1","","99.53","","","","","","Mostly Cloudy"
"1998-04-20 20:00","1998","04","20","20:00","13.0","","6.6","","65","","20","","13","","24.1","","99.56","","","","","","Mainly Clear"
"1998-04-20 21:00","1998","04","20","21:00","12.0","","6.8","","70","","20","","15","","24.1","","99.60","","","","","","Mainly Clear"
"1998-04-20 22:00","1998","04","20","22:00","11.3","","6.2","","71","","20","","13","","24.1","","99.60","","","","","","Mainly Clear"
"1998-04-20 23:00","1998","04","20","23:00","10.2","","6.7","","79","","12","","7","","24.1","","99.60","","","","","","Mainly Clear"
"1998-04-21 00:00","1998","04","21","00:00","9.7","","6.3","","79","","11","","4","","24.1","","99.60","","","","","","Cloudy"
"1998-04-21 01:00","1998","04","21","01:00","9.5","","7.0","","84","","","","0","","24.1","","99.63","","","","","","Cloudy"
"1998-04-21 02:00","1998","04","21","02:00","8.8","","6.8","","87","","15","","2","","24.1","","99.60","","","","","","Mainly Clear"
"1998-04-21 03:00","1998","04","21","03:00","8.4","","6.5","","88","","","","0","","24.1","","99.56","","","","","","Mostly Cloudy"
"1998-04-21 04:00","1998","04","21","04:00","7.9","","6.5","","91","","13","","7","","16.1","","99.60","","","","","","Cloudy"
"1998-04-21 05:00","1998","04","21","05:00","8.2","","6.5","","89","","18","","6","","12.9","","99.60","","","","","","Cloudy"
"1998-04-21 06:00","1998","04","21","06:00","8.3","","6.4","","88","","","","0","","12.9","","99.63","","","","","","Cloudy"
"1998-04-21 07:00","1998","04","21","07:00","8.8","","7.2","","90","","","","0","","8.0","","99.66","","","","","","Haze"
"1998-04-21 08:00","1998","04","21","08:00","10.3","","7.6","","83","","","","0","","8.0","","99.73","","","","","","Haze"
"1998-04-21 09:00","1998","04","21","09:00","12.0","","8.3","","78","","18","","4","","9.7","","99.73","","","","","","Haze"
"1998-04-21 10:00","1998","04","21","10:00","14.2","","8.2","","67","","","","0","","11.3","","99.76","","","","","","Cloudy"
"1998-04-21 11:00","1998","04","21","11:00","15.4","","6.9","","57","","","","0","","11.3","","99.76","","","","","","Cloudy"
"1998-04-21 12:00","1998","04","21","12:00","16.3","","7.0","","54","","","","0","","14.5","","99.73","","","","","","Cloudy"
"1998-04-21 13:00","1998","04","21","13:00","16.6","","6.9","","53","","14","","6","","16.1","","99.66","","","","","","Cloudy"
"1998-04-21 14:00","1998","04","21","14:00","16.1","","6.8","","54","","7","","24","","19.3","","99.63","","","","","","Cloudy"
"1998-04-21 15:00","1998","04","21","15:00","16.6","","6.5","","51","","11","","13","","19.3","","99.63","","","","","","Mostly Cloudy"
"1998-04-21 16:00","1998","04","21","16:00","17.2","","5.7","","47","","10","","9","","19.3","","99.56","","","","","","Mostly Cloudy"
"1998-04-21 17:00","1998","04","21","17:00","17.1","","5.1","","45","","5","","15","","24.1","","99.53","","","","","","Mostly Cloudy"
"1998-04-21 18:00","1998","04","21","18:00","15.6","","4.6","","48","","7","","20","","24.1","","99.56","","","","","","Mostly Cloudy"
"1998-04-21 19:00","1998","04","21","19:00","13.7","","5.8","","59","","6","","13","","24.1","","99.56","","","","","","Mostly Cloudy"
"1998-04-21 20:00","1998","04","21","20:00","12.3","","7.8","","74","","6","","15","","24.1","","99.60","","","","","","Mostly Cloudy"
"1998-04-21 21:00","1998","04","21","21:00","10.7","","6.9","","77","","4","","17","","24.1","","99.63","","","","","","Mostly Cloudy"
"1998-04-21 22:00","1998","04","21","22:00","10.5","","2.6","","58","","5","","20","","24.1","","99.60","","","","","","Mostly Cloudy"
"1998-04-21 23:00","1998","04","21","23:00","9.5","","2.2","","60","","4","","17","","24.1","","99.60","","","","","","Cloudy"
"1998-04-22 00:00","1998","04","22","00:00","9.0","","2.9","","66","","4","","17","","24.1","","99.60","","","","","","Cloudy"
"1998-04-22 01:00","1998","04","22","01:00","9.4","","3.4","","66","","4","","13","","24.1","","99.60","","","","","","Cloudy"
"1998-04-22 02:00","1998","04","22","02:00","9.2","","4.0","","70","","4","","13","","24.1","","99.56","","","","","","Cloudy"
"1998-04-22 03:00","1998","04","22","03:00","9.2","","4.1","","70","","4","","17","","24.1","","99.56","","","","","","Cloudy"
"1998-04-22 04:00","1998","04","22","04:00","8.9","","4.1","","72","","3","","11","","24.1","","99.56","","","","","","Cloudy"
"1998-04-22 05:00","1998","04","22","05:00","8.3","","3.8","","73","","3","","15","","24.1","","99.56","","","","","","Mostly Cloudy"
"1998-04-22 06:00","1998","04","22","06:00","8.2","","4.2","","76","","4","","15","","24.1","","99.60","","","","","","Mostly Cloudy"
"1998-04-22 07:00","1998","04","22","07:00","9.9","","4.8","","71","","4","","13","","24.1","","99.60","","","","","","Mostly Cloudy"
"1998-04-22 08:00","1998","04","22","08:00","11.2","","4.4","","63","","5","","19","","24.1","","99.60","","","","","","Mostly Cloudy"
"1998-04-22 09:00","1998","04","22","09:00","12.4","","4.2","","57","","6","","28","","24.1","","99.56","","","","","","Mostly Cloudy"
"1998-04-22 10:00","1998","04","22","10:00","14.0","","3.9","","51","","6","","28","","24.1","","99.60","","","","","","Mostly Cloudy"
"1998-04-22 11:00","1998","04","22","11:00","15.5","","2.3","","41","","5","","35","","24.1","","99.56","","","","","","Mostly Cloudy"
"1998-04-22 12:00","1998","04","22","12:00","17.0","","2.7","","38","","6","","30","","24.1","","99.53","","","","","","Mostly Cloudy"
"1998-04-22 13:00","1998","04","22","13:00","17.4","","1.8","","35","","7","","30","","24.1","","99.50","","","","","","Mostly Cloudy"
"1998-04-22 14:00","1998","04","22","14:00","18.0","","1.8","","34","","6","","24","","24.1","","99.46","","","","","","Mostly Cloudy"
"1998-04-22 15:00","1998","04","22","15:00","18.6","","2.2","","33","","4","","19","","24.1","","99.40","","","","","","Mostly Cloudy"
"1998-04-22 16:00","1998","04","22","16:00","18.2","","1.6","","33","","4","","22","","24.1","","99.36","","","","","","Mostly Cloudy"
"1998-04-22 17:00","1998","04","22","17:00","17.8","","1.2","","33","","4","","20","","24.1","","99.33","","","","","","Mostly Cloudy"
"1998-04-22 18:00","1998","04","22","18:00","16.4","","2.0","","38","","4","","22","","24.1","","99.36","","","","","","Mostly Cloudy"
"1998-04-22 19:00","1998","04","22","19:00","14.6","","2.3","","43","","4","","20","","24.1","","99.36","","","","","","Mostly Cloudy"
"1998-04-22 20:00","1998","04","22","20:00","12.7","","3.0","","52","","5","","15","","24.1","","99.40","","","","","","Mostly Cloudy"
"1998-04-22 21:00","1998","04","22","21:00","12.0","","2.8","","53","","6","","11","","24.1","","99.40","","","","","","Mainly Clear"
"1998-04-22 22:00","1998","04","22","22:00","10.8","","2.7","","57","","10","","6","","24.1","","99.36","","","","","","Mainly Clear"
"1998-04-22 23:00","1998","04","22","23:00","9.7","","3.7","","66","","","","0","","24.1","","99.30","","","","","","Clear"
"1998-04-23 00:00","1998","04","23","00:00","9.4","","3.1","","65","","35","","7","","24.1","","99.30","","","","","","Clear"
"1998-04-23 01:00","1998","04","23","01:00","9.3","","3.7","","68","","36","","9","","19.3","","99.26","","","","","","Clear"
"1998-04-23 02:00","1998","04","23","02:00","8.9","","3.2","","67","","35","","7","","24.1","","99.23","","","","","","Clear"
"1998-04-23 03:00","1998","04","23","03:00","8.5","","2.7","","67","","33","","11","","24.1","","99.23","","","","","","Clear"
"1998-04-23 04:00","1998","04","23","04:00","8.0","","2.0","","66","","34","","9","","24.1","","99.23","","","","","","Clear"
"1998-04-23 05:00","1998","04","23","05:00","7.8","","2.3","","68","","36","","7","","24.1","","99.23","","","","","","Mainly Clear"
"1998-04-23 06:00","1998","04","23","06:00","7.7","","1.9","","67","","36","","9","","19.3","","99.26","","","","","","Clear"
"1998-04-23 07:00","1998","04","23","07:00","9.1","","3.1","","66","","6","","6","","19.3","","99.26","","","","","","Clear"
"1998-04-23 08:00","1998","04","23","08:00","11.5","","4.2","","61","","3","","11","","19.3","","99.26","","","","","","Clear"
"1998-04-23 09:00","1998","04","23","09:00","14.0","","1.3","","42","","","","0","","19.3","","99.23","","","","","","Clear"
"1998-04-23 10:00","1998","04","23","10:00","15.0","","0.7","","38","","","","0","","19.3","","99.23","","","","","","Mainly Clear"
"1998-04-23 11:00","1998","04","23","11:00","15.7","","2.3","","40","","6","","6","","24.1","","99.20","","","","","","Mainly Clear"
"1998-04-23 12:00","1998","04","23","12:00","16.7","","2.3","","38","","4","","6","","24.1","","99.13","","","","","","Mainly Clear"
"1998-04-23 13:00","1998","04","23","13:00","16.7","","1.3","","35","","8","","6","","24.1","","99.06","","","","","","Mainly Clear"
"1998-04-23 14:00","1998","04","23","14:00","18.2","","2.7","","35","","7","","4","","24.1","","99.00","","","","","","Mainly Clear"
"1998-04-23 15:00","1998","04","23","15:00","18.0","","2.0","","34","","8","","4","","24.1","","98.93","","","","","","Mainly Clear"
"1998-04-23 16:00","1998","04","23","16:00","18.3","","2.9","","36","","19","","11","","24.1","","98.83","","","","","","Mainly Clear"
"1998-04-23 17:00","1998","04","23","17:00","18.2","","2.7","","35","","13","","7","","24.1","","98.80","","","","","","Mainly Clear"
"1998-04-23 18:00","1998","04","23","18:00","18.2","","4.1","","39","","22","","11","","24.1","","98.80","","","","","","Mainly Clear"
"1998-04-23 19:00","1998","04","23","19:00","16.5","","4.8","","46","","22","","11","","19.3","","98.80","","","","","","Mainly Clear"
"1998-04-23 20:00","1998","04","23","20:00","15.1","","4.7","","50","","24","","9","","24.1","","98.83","","","","","","Mainly Clear"
"1998-04-23 21:00","1998","04","23","21:00","13.1","","5.2","","59","","22","","9","","19.3","","98.83","","","","","","Mainly Clear"
"1998-04-23 22:00","1998","04","23","22:00","11.7","","5.3","","65","","22","","13","","19.3","","98.80","","","","","","Mainly Clear"
"1998-04-23 23:00","1998","04","23","23:00","10.7","","5.0","","68","","22","","15","","17.7","","98.76","","","","","","Mainly Clear"
"1998-04-24 00:00","1998","04","24","00:00","11.4","","4.8","","64","","25","","13","","19.3","","98.76","","","","","","Mainly Clear"
"1998-04-24 01:00","1998","04","24","01:00","10.2","","5.1","","71","","24","","11","","19.3","","98.73","","","","","","Mainly Clear"
"1998-04-24 02:00","1998","04","24","02:00","10.8","","3.4","","60","","26","","15","","19.3","","98.70","","","","","","Mainly Clear"
"1998-04-24 03:00","1998","04","24","03:00","11.1","","1.9","","53","","26","","15","","19.3","","98.70","","","","","","Mainly Clear"
"1998-04-24 04:00","1998","04","24","04:00","10.3","","1.7","","55","","26","","13","","24.1","","98.66","","","","","","Mainly Clear"
"1998-04-24 05:00","1998","04","24","05:00","9.6","","1.2","","56","","28","","17","","24.1","","98.66","","","","","","Mainly Clear"
"1998-04-24 06:00","1998","04","24","06:00","9.3","","1.2","","57","","25","","15","","24.1","","98.66","","","","","","Mainly Clear"
"1998-04-24 07:00","1998","04","24","07:00","10.6","","0.8","","51","","26","","13","","19.3","","98.66","","","","","","Mainly Clear"
"1998-04-24 08:00","1998","04","24","08:00","13.1","","1.9","","46","","24","","17","","19.3","","98.60","","","","","","Mainly Clear"
"1998-04-24 09:00","1998","04","24","09:00","16.4","","2.4","","39","","29","","26","","19.3","","98.60","","","","","","Mostly Cloudy"
"1998-04-24 10:00","1998","04","24","10:00","17.7","","3.2","","38","","29","","20","","19.3","","98.53","","","","","","Mostly Cloudy"
"1998-04-24 11:00","1998","04","24","11:00","18.9","","3.1","","35","","31","","22","","24.1","","98.60","","","","","","Mostly Cloudy"
"1998-04-24 12:00","1998","04","24","12:00","20.5","","2.9","","31","","32","","24","","24.1","","98.60","","","","","","Mainly Clear"
"1998-04-24 13:00","1998","04","24","13:00","21.4","","1.8","","27","","29","","33","","24.1","","98.57","","","","","","Mainly Clear"
"1998-04-24 14:00","1998","04","24","14:00","21.6","","2.8","","29","","31","","37","","24.1","","98.57","","","","","","Mainly Clear"
"1998-04-24 15:00","1998","04","24","15:00","21.9","","2.4","","28","","34","","41","","24.1","","98.57","","","","","","Mostly Cloudy"
"1998-04-24 16:00","1998","04","24","16:00","20.5","","1.6","","28","","34","","35","","24.1","","98.60","","","","","","Mostly Cloudy"
"1998-04-24 17:00","1998","04","24","17:00","14.9","","4.4","","49","","6","","37","","24.1","","98.70","","","","","","Mostly Cloudy"
"1998-04-24 18:00","1998","04","24","18:00","13.5","","3.9","","52","","5","","28","","24.1","","98.76","","","","","","Mostly Cloudy"
"1998-04-24 19:00","1998","04","24","19:00","12.7","","2.7","","51","","6","","30","","24.1","","98.80","","","","","","Mainly Clear"
"1998-04-24 20:00","1998","04","24","20:00","11.3","","0.9","","49","","5","","22","","24.1","","98.90","","","","","","Mainly Clear"
"1998-04-24 21:00","1998","04","24","21:00","10.6","","1.3","","53","","4","","19","","24.1","","99.03","","","","","","Mainly Clear"
"1998-04-24 22:00","1998","04","24","22:00","9.8","","0.5","","52","","4","","19","","24.1","","99.13","","","","","","Clear"
"1998-04-24 23:00","1998","04","24","23:00","8.1","","2.2","","66","","6","","13","","24.1","","99.16","","","","","","Clear"
"1998-04-25 00:00","1998","04","25","00:00","7.6","","1.7","","66","","7","","11","","24.1","","99.23","","","","","","Clear"
"1998-04-25 01:00","1998","04","25","01:00","6.9","","1.5","","68","","5","","7","","24.1","","99.23","","","","","","Clear"
"1998-04-25 02:00","1998","04","25","02:00","6.7","","1.5","","69","","4","","7","","24.1","","99.23","","","","","","Clear"
"1998-04-25 03:00","1998","04","25","03:00","5.9","","1.3","","72","","2","","6","","24.1","","99.26","","","","","","Mainly Clear"
"1998-04-25 04:00","1998","04","25","04:00","5.5","","0.1","","68","","34","","6","","24.1","","99.30","","","","","","Mainly Clear"
"1998-04-25 05:00","1998","04","25","05:00","5.6","","0.3","","69","","33","","6","","24.1","","99.33","","","","","","Mainly Clear"
"1998-04-25 06:00","1998","04","25","06:00","6.0","","0.2","","66","","36","","7","","24.1","","99.40","","","","","","Mostly Cloudy"
"1998-04-25 07:00","1998","04","25","07:00","6.8","","2.2","","72","","5","","9","","24.1","","99.43","","","","","","Mostly Cloudy"
"1998-04-25 08:00","1998","04","25","08:00","8.4","","3.8","","73","","7","","15","","24.1","","99.43","","","","","","Mostly Cloudy"
"1998-04-25 09:00","1998","04","25","09:00","9.5","","4.2","","69","","8","","17","","24.1","","99.46","","","","","","Mostly Cloudy"
"1998-04-25 10:00","1998","04","25","10:00","10.9","","3.7","","61","","8","","15","","24.1","","99.53","","","","","","Cloudy"
"1998-04-25 11:00","1998","04","25","11:00","11.7","","4.1","","60","","8","","9","","24.1","","99.53","","","","","","Cloudy"
"1998-04-25 12:00","1998","04","25","12:00","12.8","","4.5","","57","","7","","17","","24.1","","99.46","","","","","","Cloudy"
"1998-04-25 13:00","1998","04","25","13:00","13.8","","3.5","","50","","6","","13","","24.1","","99.43","","","","","","Cloudy"
"1998-04-25 14:00","1998","04","25","14:00","14.0","","2.4","","45","","8","","22","","24.1","","99.36","","","","","","Cloudy"
"1998-04-25 15:00","1998","04","25","15:00","14.9","","4.0","","48","","6","","17","","24.1","","99.30","","","","","","Cloudy"
"1998-04-25 16:00","1998","04","25","16:00","14.6","","3.5","","47","","11","","17","","24.1","","99.26","","","","","","Cloudy"
"1998-04-25 17:00","1998","04","25","17:00","14.2","","3.3","","48","","14","","17","","24.1","","99.26","","","","","","Cloudy"
"1998-04-25 18:00","1998","04","25","18:00","12.9","","2.5","","49","","11","","15","","24.1","","99.20","","","","","","Cloudy"
"1998-04-25 19:00","1998","04","25","19:00","12.0","","2.4","","52","","9","","22","","24.1","","99.13","","","","","","Cloudy"
"1998-04-25 20:00","1998","04","25","20:00","11.3","","1.8","","52","","10","","13","","24.1","","99.16","","","","","","Cloudy"
"1998-04-25 21:00","1998","04","25","21:00","11.1","","2.4","","55","","24","","11","","24.1","","99.33","","","","","","Cloudy"
"1998-04-25 22:00","1998","04","25","22:00","10.5","","3.4","","61","","16","","6","","24.1","","99.30","","","","","","Cloudy"
"1998-04-25 23:00","1998","04","25","23:00","9.3","","5.4","","77","","7","","9","","19.3","","99.23","","","","","","Rain"
"1998-04-26 00:00","1998","04","26","00:00","9.0","","6.1","","82","","4","","9","","16.1","","99.23","","","","","","Rain"
"1998-04-26 01:00","1998","04","26","01:00","8.2","","6.8","","91","","5","","13","","12.9","","99.13","","","","","","Rain"
"1998-04-26 02:00","1998","04","26","02:00","7.7","","5.4","","85","","9","","17","","12.9","","99.00","","","","","","Rain"
"1998-04-26 03:00","1998","04","26","03:00","6.9","","5.2","","89","","9","","26","","16.1","","98.93","","","","","","Rain"
"1998-04-26 04:00","1998","04","26","04:00","6.5","","5.2","","91","","9","","30","","12.9","","98.90","","","","","","Rain"
"1998-04-26 05:00","1998","04","26","05:00","6.4","","5.4","","93","","8","","28","","8.0","","98.90","","","","","","Rain"
"1998-04-26 06:00","1998","04","26","06:00","6.9","","6.2","","95","","7","","24","","6.4","","98.93","","","","","","Rain,Haze"
"1998-04-26 07:00","1998","04","26","07:00","6.8","","5.7","","93","","8","","44","","9.7","","98.93","","","","","","Moderate Rain,Fog"
"1998-04-26 08:00","1998","04","26","08:00","6.5","","5.5","","93","","8","","39","","8.0","","98.93","","","","","","Rain,Fog"
"1998-04-26 09:00","1998","04","26","09:00","5.9","","4.6","","91","","8","","41","","12.9","","99.03","","","","","","Rain"
"1998-04-26 10:00","1998","04","26","10:00","6.2","","4.6","","89","","6","","37","","8.0","","99.06","","","","","","Rain,Fog"
"1998-04-26 11:00","1998","04","26","11:00","5.8","","3.9","","88","","6","","35","","6.4","","99.23","","","","","","Moderate Rain,Fog"
"1998-04-26 12:00","1998","04","26","12:00","5.6","","3.8","","88","","6","","35","","8.0","","99.23","","","","","","Rain,Fog"
"1998-04-26 13:00","1998","04","26","13:00","5.6","","3.3","","85","","4","","28","","16.1","","99.30","","","","","","Rain"
"1998-04-26 14:00","1998","04","26","14:00","5.1","","3.6","","90","","11","","30","","16.1","","99.33","","","","","","Rain"
"1998-04-26 15:00","1998","04","26","15:00","6.7","","4.2","","84","","5","","30","","24.1","","99.30","","","","","","Mostly Cloudy"
"1998-04-26 16:00","1998","04","26","16:00","8.5","","2.8","","67","","5","","33","","24.1","","99.33","","","","","","Mostly Cloudy"
"1998-04-26 17:00","1998","04","26","17:00","8.8","","0.3","","55","","5","","30","","24.1","","99.40","","","","","","Mostly Cloudy"
"1998-04-26 18:00","1998","04","26","18:00","9.0","","-0.7","","51","","4","","30","","24.1","","99.46","","","","","","Mostly Cloudy"
"1998-04-26 19:00","1998","04","26","19:00","8.1","","-0.6","","54","","4","","26","","24.1","","99.53","","","","","","Mostly Cloudy"
"1998-04-26 20:00","1998","04","26","20:00","7.1","","-8.0","","33","","2","","32","","24.1","","99.66","","","","","","Mostly Cloudy"
"1998-04-26 21:00","1998","04","26","21:00","5.5","","-7.3","","39","","1","","37","","24.1","","99.73","","","","","","Mostly Cloudy"
"1998-04-26 22:00","1998","04","26","22:00","4.4","","-7.0","","43","","3","","32","","24.1","","99.76","","","","","","Mainly Clear"
"1998-04-26 23:00","1998","04","26","23:00","3.9","","-6.4","","47","","1","","30","","24.1","","99.83","","","","","","Clear"
"1998-04-27 00:00","1998","04","27","00:00","3.5","","-5.5","","52","","1","","24","","24.1","","99.93","","","","","","Clear"
"1998-04-27 01:00","1998","04","27","01:00","3.9","","-4.0","","56","","2","","26","","24.1","","99.99","","","","","","Clear"
"1998-04-27 02:00","1998","04","27","02:00","2.8","","-3.9","","61","","1","","20","","24.1","","100.03","","","","","","Clear"
"1998-04-27 03:00","1998","04","27","03:00","2.2","","-4.0","","64","","36","","20","","24.1","","100.06","","","","","","Clear"
"1998-04-27 04:00","1998","04","27","04:00","1.7","","-3.0","","71","","36","","20","","24.1","","100.13","","","","","","Mainly Clear"
"1998-04-27 05:00","1998","04","27","05:00","1.8","","-2.7","","72","","36","","24","","24.1","","100.13","","","","","","Mainly Clear"
"1998-04-27 06:00","1998","04","27","06:00","2.3","","-2.6","","70","","4","","28","","24.1","","100.23","","","","","","Clear"
"1998-04-27 07:00","1998","04","27","07:00","2.6","","-3.6","","64","","5","","28","","24.1","","100.36","","","","","","Clear"
"1998-04-27 08:00","1998","04","27","08:00","3.4","","-3.9","","59","","5","","24","","24.1","","100.43","","","","","","Clear"
"1998-04-27 09:00","1998","04","27","09:00","4.2","","-3.5","","57","","5","","26","","24.1","","100.46","","","","","","Clear"
"1998-04-27 10:00","1998","04","27","10:00","4.5","","-4.3","","53","","4","","22","","24.1","","100.46","","","","","","Clear"
"1998-04-27 11:00","1998","04","27","11:00","5.5","","-3.8","","51","","5","","19","","24.1","","100.53","","","","","","Clear"
"1998-04-27 12:00","1998","04","27","12:00","7.0","","-2.1","","52","","3","","19","","24.1","","100.53","","","","","","Mainly Clear"
"1998-04-27 13:00","1998","04","27","13:00","8.2","","-2.5","","47","","4","","26","","24.1","","100.46","","","","","","Mainly Clear"
"1998-04-27 14:00","1998","04","27","14:00","9.2","","-1.3","","48","","6","","20","","24.1","","100.46","","","","","","Clear"
"1998-04-27 15:00","1998","04","27","15:00","9.8","","-1.4","","46","","4","","13","","25.0","","100.43","","","","","","Clear"
"1998-04-27 16:00","1998","04","27","16:00","10.5","","-0.9","","45","","5","","11","","25.0","","100.39","","","","","","Clear"
"1998-04-27 17:00","1998","04","27","17:00","10.7","","0.4","","49","","6","","17","","25.0","","100.36","","","","","","Clear"
"1998-04-27 18:00","1998","04","27","18:00","9.8","","1.3","","55","","7","","24","","25.0","","100.39","","","","","","Clear"
"1998-04-27 19:00","1998","04","27","19:00","8.0","","1.0","","61","","5","","22","","25.0","","100.43","","","","","","Clear"
"1998-04-27 20:00","1998","04","27","20:00","6.6","","0.6","","65","","5","","22","","25.0","","100.46","","","","","","Mainly Clear"
"1998-04-27 21:00","1998","04","27","21:00","5.8","","-1.7","","59","","5","","26","","25.0","","100.49","","","","","","Clear"
"1998-04-27 22:00","1998","04","27","22:00","5.6","","-2.8","","55","","4","","22","","25.0","","100.53","","","","","","Clear"
"1998-04-27 23:00","1998","04","27","23:00","4.7","","-1.5","","64","","4","","22","","24.1","","100.56","","","","","","Clear"
"1998-04-28 00:00","1998","04","28","00:00","4.4","","-0.9","","68","","5","","19","","24.1","","100.59","","","","","","Clear"
"1998-04-28 01:00","1998","04","28","01:00","4.2","","-0.4","","72","","1","","15","","24.1","","100.63","","","","","","Clear"
"1998-04-28 02:00","1998","04","28","02:00","3.6","","0.1","","78","","7","","17","","24.1","","100.56","","","","","","Clear"
"1998-04-28 03:00","1998","04","28","03:00","3.9","","-0.2","","75","","6","","20","","24.1","","100.53","","","","","","Clear"
"1998-04-28 04:00","1998","04","28","04:00","3.4","","0.0","","78","","19","","4","","24.1","","100.69","","","","","","Clear"
"1998-04-28 05:00","1998","04","28","05:00","2.2","","-0.7","","81","","5","","11","","24.1","","100.63","","","","","","Mainly Clear"
"1998-04-28 06:00","1998","04","28","06:00","2.4","","-0.6","","81","","16","","4","","24.1","","100.66","","","","","","Mainly Clear"
"1998-04-28 07:00","1998","04","28","07:00","4.4","","-0.8","","69","","11","","4","","24.1","","100.73","","","","","","Mostly Cloudy"
"1998-04-28 08:00","1998","04","28","08:00","6.4","","1.0","","68","","7","","6","","24.1","","100.79","","","","","","Mostly Cloudy"
"1998-04-28 09:00","1998","04","28","09:00","7.6","","2.5","","70","","7","","9","","24.1","","100.79","","","","","","Mostly Cloudy"
"1998-04-28 10:00","1998","04","28","10:00","8.9","","2.5","","64","","10","","13","","24.1","","100.79","","","","","","Mostly Cloudy"
"1998-04-28 11:00","1998","04","28","11:00","9.2","","2.7","","64","","3","","11","","24.1","","100.79","","","","","","Mostly Cloudy"
"1998-04-28 12:00","1998","04","28","12:00","10.4","","2.7","","59","","6","","11","","24.1","","100.73","","","","","","Mostly Cloudy"
"1998-04-28 13:00","1998","04","28","13:00","11.2","","2.5","","55","","5","","9","","24.1","","100.69","","","","","","Mostly Cloudy"
"1998-04-28 14:00","1998","04","28","14:00","12.2","","2.2","","50","","7","","4","","24.1","","100.66","","","","","","Mostly Cloudy"
"1998-04-28 15:00","1998","04","28","15:00","13.6","","2.4","","47","","11","","9","","25.0","","100.56","","","","","","Mainly Clear"
"1998-04-28 16:00","1998","04","28","16:00","14.1","","2.8","","46","","21","","6","","25.0","","100.49","","","","","","Mainly Clear"
"1998-04-28 17:00","1998","04","28","17:00","13.9","","3.3","","49","","11","","6","","25.0","","100.49","","","","","","Mainly Clear"
"1998-04-28 18:00","1998","04","28","18:00","12.8","","1.6","","46","","17","","15","","25.0","","100.46","","","","","","Mostly Cloudy"
"1998-04-28 19:00","1998","04","28","19:00","11.5","","1.0","","48","","16","","13","","25.0","","100.36","","","","","","Mostly Cloudy"
"1998-04-28 20:00","1998","04","28","20:00","10.0","","-0.3","","49","","18","","9","","25.0","","100.36","","","","","","Mostly Cloudy"
"1998-04-28 21:00","1998","04","28","21:00","9.1","","-0.1","","52","","13","","6","","25.0","","100.33","","","","","","Mostly Cloudy"
"1998-04-28 22:00","1998","04","28","22:00","8.0","","0.7","","60","","12","","7","","25.0","","100.29","","","","","","Mostly Cloudy"
"1998-04-28 23:00","1998","04","28","23:00","7.3","","1.0","","64","","15","","4","","24.1","","100.26","","","","","","Mainly Clear"
"1998-04-29 00:00","1998","04","29","00:00","6.5","","0.0","","63","","","","0","","24.1","","100.26","","","","","","Mainly Clear"
"1998-04-29 01:00","1998","04","29","01:00","6.0","","-0.2","","64","","5","","7","","24.1","","100.19","","","","","","Clear"
"1998-04-29 02:00","1998","04","29","02:00","5.5","","-0.5","","65","","7","","11","","24.1","","100.13","","","","","","Clear"
"1998-04-29 03:00","1998","04","29","03:00","5.5","","0.2","","69","","8","","11","","24.1","","100.09","","","","","","Clear"
"1998-04-29 04:00","1998","04","29","04:00","5.1","","0.8","","74","","10","","7","","24.1","","100.09","","","","","","Clear"
"1998-04-29 05:00","1998","04","29","05:00","4.7","","0.8","","76","","10","","4","","24.1","","100.13","","","","","","Clear"
"1998-04-29 06:00","1998","04","29","06:00","4.9","","0.7","","74","","5","","13","","24.1","","100.13","","","","","","Mostly Cloudy"
"1998-04-29 07:00","1998","04","29","07:00","7.0","","2.6","","74","","9","","4","","24.1","","100.13","","","","","","Cloudy"
"1998-04-29 08:00","1998","04","29","08:00","8.9","","4.0","","71","","15","","4","","24.1","","100.13","","","","","","Mostly Cloudy"
"1998-04-29 09:00","1998","04","29","09:00","9.0","","5.6","","79","","21","","7","","19.3","","100.16","","","","","","Rain Showers"
"1998-04-29 10:00","1998","04","29","10:00","9.8","","7.5","","86","","16","","7","","24.1","","100.06","","","","","","Mostly Cloudy"
"1998-04-29 11:00","1998","04","29","11:00","12.3","","8.9","","80","","20","","6","","24.1","","99.99","","","","","","Mostly Cloudy"
"1998-04-29 12:00","1998","04","29","12:00","12.9","","7.9","","72","","17","","4","","24.1","","99.99","","","","","","Cloudy"
"1998-04-29 13:00","1998","04","29","13:00","13.7","","6.1","","60","","19","","13","","24.1","","99.93","","","","","","Cloudy"
"1998-04-29 14:00","1998","04","29","14:00","13.5","","5.8","","60","","16","","15","","24.1","","99.86","","","","","","Mostly Cloudy"
"1998-04-29 15:00","1998","04","29","15:00","14.6","","5.0","","52","","13","","13","","24.1","","99.80","","","","","","Mostly Cloudy"
"1998-04-29 16:00","1998","04","29","16:00","15.7","","6.3","","54","","12","","11","","24.1","","99.70","","","","","","Mainly Clear"
"1998-04-29 17:00","1998","04","29","17:00","15.3","","5.5","","52","","13","","13","","24.1","","99.66","","","","","","Mainly Clear"
"1998-04-29 18:00","1998","04","29","18:00","15.0","","6.7","","58","","18","","15","","24.1","","99.66","","","","","","Mainly Clear"
"1998-04-29 19:00","1998","04","29","19:00","14.2","","6.7","","61","","17","","7","","24.1","","99.63","","","","","","Mostly Cloudy"
"1998-04-29 20:00","1998","04","29","20:00","12.7","","6.3","","65","","18","","6","","19.3","","99.60","","","","","","Mostly Cloudy"
"1998-04-29 21:00","1998","04","29","21:00","11.4","","5.6","","67","","14","","7","","24.1","","99.63","","","","","","Cloudy"
"1998-04-29 22:00","1998","04","29","22:00","11.3","","5.2","","66","","9","","4","","24.1","","99.63","","","","","","Cloudy"
"1998-04-29 23:00","1998","04","29","23:00","11.2","","4.7","","64","","8","","4","","24.1","","99.60","","","","","","Cloudy"
"1998-04-30 00:00","1998","04","30","00:00","10.7","","6.0","","73","","","","0","","19.3","","99.56","","","","","","Cloudy"
"1998-04-30 01:00","1998","04","30","01:00","10.6","","6.5","","76","","16","","9","","16.1","","99.53","","","","","","Cloudy"
"1998-04-30 02:00","1998","04","30","02:00","11.1","","6.7","","74","","19","","9","","19.3","","99.43","","","","","","Cloudy"
"1998-04-30 03:00","1998","04","30","03:00","11.1","","7.1","","76","","2","","7","","19.3","","99.43","","","","","","Cloudy"
"1998-04-30 04:00","1998","04","30","04:00","10.5","","8.3","","86","","8","","6","","16.1","","99.43","","","","","","Cloudy"
"1998-04-30 05:00","1998","04","30","05:00","10.8","","8.2","","84","","17","","4","","12.9","","99.43","","","","","","Cloudy"
"1998-04-30 06:00","1998","04","30","06:00","11.0","","8.2","","83","","14","","4","","8.0","","99.40","","","","","","Haze"
"1998-04-30 07:00","1998","04","30","07:00","11.6","","8.6","","82","","8","","7","","8.0","","99.43","","","","","","Haze"
"1998-04-30 08:00","1998","04","30","08:00","12.3","","10.1","","86","","15","","2","","6.4","","99.43","","","","","","Haze"
"1998-04-30 09:00","1998","04","30","09:00","13.2","","11.0","","87","","9","","6","","3.2","","99.36","","","","","","Haze"
"1998-04-30 10:00","1998","04","30","10:00","14.2","","12.3","","88","","10","","7","","4.0","","99.33","","","","","","Haze"
"1998-04-30 11:00","1998","04","30","11:00","14.9","","13.5","","91","","13","","6","","2.4","","99.30","","","","","","Fog,Haze"
"1998-04-30 12:00","1998","04","30","12:00","15.4","","13.5","","88","","14","","9","","3.2","","99.23","","","","","","Haze"
"1998-04-30 13:00","1998","04","30","13:00","17.1","","14.5","","85","","13","","15","","4.8","","99.13","","","","","","Haze"
"1998-04-30 14:00","1998","04","30","14:00","17.8","","14.5","","81","","17","","13","","8.0","","99.06","","","","","","Haze"
"1998-04-30 15:00","1998","04","30","15:00","17.9","","14.2","","79","","15","","9","","11.3","","99.00","","","","","","Cloudy"
"1998-04-30 16:00","1998","04","30","16:00","18.0","","14.1","","78","","16","","15","","11.3","","98.90","","","","","","Mostly Cloudy"
"1998-04-30 17:00","1998","04","30","17:00","17.4","","13.7","","79","","12","","15","","16.1","","98.90","","","","","","Cloudy"
"1998-04-30 18:00","1998","04","30","18:00","16.6","","14.0","","85","","12","","13","","11.3","","98.86","","","","","","Rain Showers"
"1998-04-30 19:00","1998","04","30","19:00","15.5","","13.3","","87","","12","","11","","9.7","","98.80","","","","","","Haze"
"1998-04-30 20:00","1998","04","30","20:00","14.9","","13.4","","91","","12","","15","","6.4","","98.76","","","","","","Rain Showers,Fog"
"1998-04-30 21:00","1998","04","30","21:00","14.5","","13.2","","92","","11","","13","","6.4","","98.76","","","","","","Rain Showers,Fog"
"1998-04-30 22:00","1998","04","30","22:00","14.4","","12.9","","91","","11","","11","","6.4","","98.70","","","","","","Rain Showers,Fog"
"1998-04-30 23:00","1998","04","30","23:00","14.0","","12.6","","91","","10","","13","","8.0","","98.63","","","","","","Rain Showers,Fog"
