"Station Name","WINDSOR A"
"Province","ONTARIO"
"Latitude","42.28"
"Longitude","-82.96"
"Elevation","189.60"
"Climate Identifier","6139527"
"WMO Identifier",""
"TC Identifier","YQG"
"All times are specified in Local Standard Time (LST). Add 1 hour to adjust for Daylight Saving Time where and when it is observed."

"Legend"
"E","Estimated"
"M","Missing"
"NA","Not Available"

"Date/Time","Year","Month","Day","Time","Temp (°C)","Temp Flag","Dew Point Temp (°C)","Dew Point Temp Flag","Rel Hum (%)","Rel Hum Flag","Wind Dir (10s deg)","Wind Dir Flag","Wind Spd (km/h)","Wind Spd Flag","Visibility (km)","Visibility Flag","Stn Press (kPa)","Stn Press Flag","Hmdx","Hmdx Flag","Wind Chill","Wind Chill Flag","Weather"
"2015-01-01 00:00","2015","01","01","00:00","-7.6","","-14.5","","58","","24","","26","","24.1","","99.61","","","","-16","","NA"
"2015-01-01 01:00","2015","01","01","01:00","-8.2","","-14.3","","62","","23","","32","","24.1","","99.52","","","","-17","","Mainly Clear"
"2015-01-01 02:00","2015","01","01","02:00","-7.8","","-13.9","","62","","22","","32","","24.1","","99.48","","","","-17","","NA"
"2015-01-01 03:00","2015","01","01","03:00","-7.6","","-14.1","","60","","23","","35","","24.1","","99.48","","","","-17","","NA"
"2015-01-01 04:00","2015","01","01","04:00","-7.8","","-14.3","","60","","23","","30","","24.1","","99.44","","","","-17","","Mainly Clear"
"2015-01-01 05:00","2015","01","01","05:00","-7.8","","-14.3","","60","","23","","30","","24.1","","99.39","","","","-17","","NA"
"2015-01-01 06:00","2015","01","01","06:00","-7.7","","-14.0","","61","","23","","32","","24.1","","99.35","","","","-17","","NA"
"2015-01-01 07:00","2015","01","01","07:00","-7.8","","-13.9","","62","","23","","35","","24.1","","99.29","","","","-17","","Mostly Cloudy"
"2015-01-01 08:00","2015","01","01","08:00","-7.9","","-13.6","","64","","22","","37","","24.1","","99.24","","","","-18","","NA"
"2015-01-01 09:00","2015","01","01","09:00","-7.6","","-13.5","","63","","23","","34","","24.1","","99.28","","","","-17","","NA"
"2015-01-01 10:00","2015","01","01","10:00","-6.6","","-13.4","","59","","24","","36","","24.1","","99.26","","","","-16","","Mainly Clear"
"2015-01-01 11:00","2015","01","01","11:00","-5.4","","-13.3","","54","","24","","36","","24.1","","99.20","","","","-14","","NA"
"2015-01-01 12:00","2015","01","01","12:00","-4.2","","-13.2","","50","","24","","37","","24.1","","99.05","","","","-13","","NA"
"2015-01-01 13:00","2015","01","01","13:00","-3.1","","-12.9","","47","","24","","37","","24.1","","99.03","","","","-11","","Mostly Cloudy"
"2015-01-01 14:00","2015","01","01","14:00","-1.8","","-11.4","","48","","23","","32","","24.1","","98.94","","","","-9","","NA"
"2015-01-01 15:00","2015","01","01","15:00","-1.2","","-12.0","","44","","24","","42","","24.1","","98.97","","","","-9","","NA"
"2015-01-01 16:00","2015","01","01","16:00","-1.4","","-11.6","","46","","24","","30","","24.1","","98.99","","","","-8","","Mostly Cloudy"
"2015-01-01 17:00","2015","01","01","17:00","-1.4","","-11.3","","47","","25","","24","","24.1","","99.06","","","","-8","","NA"
"2015-01-01 18:00","2015","01","01","18:00","-1.6","","-11.3","","48","","24","","29","","24.1","","99.14","","","","-8","","NA"
"2015-01-01 19:00","2015","01","01","19:00","-1.7","","-10.8","","50","","24","","24","","24.1","","99.21","","","","-8","","Mostly Cloudy"
"2015-01-01 20:00","2015","01","01","20:00","-2.2","","-10.1","","55","","24","","27","","24.1","","99.33","","","","-9","","NA"
"2015-01-01 21:00","2015","01","01","21:00","-2.1","","-9.8","","56","","24","","25","","24.1","","99.41","","","","-9","","NA"
"2015-01-01 22:00","2015","01","01","22:00","-2.3","","-9.7","","57","","24","","25","","24.1","","99.49","","","","-9","","Mostly Cloudy"
"2015-01-01 23:00","2015","01","01","23:00","-2.3","","-9.7","","57","","25","","25","","24.1","","99.48","","","","-9","","NA"
"2015-01-02 00:00","2015","01","02","00:00","-2.1","","-9.5","","57","","25","","22","","24.1","","99.53","","","","-8","","NA"
"2015-01-02 01:00","2015","01","02","01:00","-1.9","","-8.9","","59","","24","","18","","24.1","","99.57","","","","-7","","Mostly Cloudy"
"2015-01-02 02:00","2015","01","02","02:00","-1.7","","-8.5","","60","","24","","19","","24.1","","99.60","","","","-7","","NA"
"2015-01-02 03:00","2015","01","02","03:00","-1.8","","-8.4","","61","","24","","16","","24.1","","99.67","","","","-7","","NA"
"2015-01-02 04:00","2015","01","02","04:00","-1.7","","-7.6","","64","","23","","17","","24.1","","99.71","","","","-7","","Cloudy"
"2015-01-02 05:00","2015","01","02","05:00","-1.9","","-7.4","","66","","23","","14","","24.1","","99.76","","","","-7","","NA"
"2015-01-02 06:00","2015","01","02","06:00","-2.1","","-7.4","","67","","24","","20","","24.1","","99.85","","","","-8","","NA"
"2015-01-02 07:00","2015","01","02","07:00","-2.2","","-7.1","","69","","23","","11","","24.1","","99.96","","","","-6","","Mostly Cloudy"
"2015-01-02 08:00","2015","01","02","08:00","-2.7","","-7.3","","71","","23","","12","","24.1","","100.06","","","","-7","","NA"
"2015-01-02 09:00","2015","01","02","09:00","-2.5","","-7.1","","71","","22","","14","","24.1","","100.17","","","","-7","","NA"
"2015-01-02 10:00","2015","01","02","10:00","-1.7","","-6.7","","69","","22","","14","","24.1","","100.22","","","","-6","","Mostly Cloudy"
"2015-01-02 11:00","2015","01","02","11:00","-0.1","","-7.2","","59","","22","","13","","24.1","","100.28","","","","-4","","NA"
"2015-01-02 12:00","2015","01","02","12:00","0.8","","-8.2","","51","","26","","22","","24.1","","100.29","","","","","","NA"
"2015-01-02 13:00","2015","01","02","13:00","0.7","","-8.3","","51","","26","","21","","24.1","","100.26","","","","","","Mostly Cloudy"
"2015-01-02 14:00","2015","01","02","14:00","1.3","","-7.8","","51","","25","","19","","24.1","","100.19","","","","","","NA"
"2015-01-02 15:00","2015","01","02","15:00","1.3","","-7.8","","51","","24","","20","","24.1","","100.22","","","","","","NA"
"2015-01-02 16:00","2015","01","02","16:00","1.1","","-7.7","","52","","25","","18","","24.1","","100.27","","","","","","Mostly Cloudy"
"2015-01-02 17:00","2015","01","02","17:00","-0.7","","-5.7","","69","","21","","13","","24.1","","100.33","","","","-5","","NA"
"2015-01-02 18:00","2015","01","02","18:00","-2.6","","-5.9","","78","","19","","5","","24.1","","100.38","","","","-5","","NA"
"2015-01-02 19:00","2015","01","02","19:00","-3.2","","-6.0","","81","","19","","9","","24.1","","100.47","","","","-7","","Mostly Cloudy"
"2015-01-02 20:00","2015","01","02","20:00","-4.3","","-6.5","","85","","13","","5","","24.1","","100.49","","","","-6","","NA"
"2015-01-02 21:00","2015","01","02","21:00","-4.8","","-6.8","","86","","16","","7","","24.1","","100.44","","","","-8","","NA"
"2015-01-02 22:00","2015","01","02","22:00","-3.9","","-5.9","","86","","17","","12","","24.1","","100.44","","","","-9","","Cloudy"
"2015-01-02 23:00","2015","01","02","23:00","-5.1","","-6.6","","89","","13","","10","","24.1","","100.37","","","","-9","","NA"
"2015-01-03 00:00","2015","01","03","00:00","-4.8","","-6.2","","90","","13","","7","","19.3","","100.35","","","","-8","","NA"
"2015-01-03 01:00","2015","01","03","01:00","-4.5","","-5.9","","90","","10","","7","","19.3","","100.34","","","","-8","","Mostly Cloudy"
"2015-01-03 02:00","2015","01","03","02:00","-4.8","","-6.1","","91","","13","","9","","24.1","","100.29","","","","-9","","NA"
"2015-01-03 03:00","2015","01","03","03:00","-4.1","","-5.7","","89","","12","","12","","24.1","","100.21","","","","-9","","NA"
"2015-01-03 04:00","2015","01","03","04:00","-4.3","","-5.6","","91","","12","","12","","22.5","","100.13","","","","-9","","Cloudy"
"2015-01-03 05:00","2015","01","03","05:00","-2.2","","-3.6","","90","","10","","10","","24.1","","100.01","","","","-6","","NA"
"2015-01-03 06:00","2015","01","03","06:00","-1.3","","-3.0","","88","","9","","8","","19.3","","99.93","","","","-4","","NA"
"2015-01-03 07:00","2015","01","03","07:00","-1.1","","-2.5","","90","","5","","7","","12.9","","99.87","","","","-4","","Snow"
"2015-01-03 08:00","2015","01","03","08:00","-0.1","","-1.7","","89","","9","","14","","8.1","","99.76","","","","-4","","Freezing Rain,Snow"
"2015-01-03 09:00","2015","01","03","09:00","0.2","","-1.4","","89","","9","","17","","8.1","","99.77","","","","","","Rain,Fog"
"2015-01-03 10:00","2015","01","03","10:00","0.0","","-1.0","","93","","9","","16","","2.4","","99.67","","","","-5","","Rain,Fog"
"2015-01-03 11:00","2015","01","03","11:00","-0.1","","-0.7","","96","","9","","19","","1.6","","99.53","","","","-5","","Freezing Rain,Fog"
"2015-01-03 12:00","2015","01","03","12:00","0.1","","-0.5","","96","","10","","17","","2.4","","99.37","","","","","","Rain,Fog"
"2015-01-03 13:00","2015","01","03","13:00","0.2","","-0.4","","96","","11","","18","","4.0","","99.20","","","","","","Rain,Fog"
"2015-01-03 14:00","2015","01","03","14:00","0.4","","0.0","","97","","10","","16","","4.0","","99.01","","","","","","Rain,Fog"
"2015-01-03 15:00","2015","01","03","15:00","0.8","","0.4","","97","","11","","16","","4.0","","98.92","","","","","","Rain,Fog"
"2015-01-03 16:00","2015","01","03","16:00","1.0","","0.6","","97","","11","","11","","4.0","","98.83","","","","","","Rain,Fog"
"2015-01-03 17:00","2015","01","03","17:00","1.4","","1.1","","98","","12","","13","","4.0","","98.71","","","","","","Rain,Fog"
"2015-01-03 18:00","2015","01","03","18:00","1.4","","1.1","","98","","10","","7","","6.4","","98.61","","","","","","Rain,Fog"
"2015-01-03 19:00","2015","01","03","19:00","1.6","","1.3","","98","","35","","4","","3.2","","98.59","","","","","","Rain,Fog"
"2015-01-03 20:00","2015","01","03","20:00","1.9","","1.8","","99","","36","","3","","4.0","","98.60","","","","","","Rain,Fog"
"2015-01-03 21:00","2015","01","03","21:00","1.5","","1.4","","99","","2","","5","","2.8","","98.52","","","","","","Rain,Blowing Sand"
"2015-01-03 22:00","2015","01","03","22:00","1.5","","1.4","","99","","36","","5","","3.6","","98.53","","","","","","Rain,Fog"
"2015-01-03 23:00","2015","01","03","23:00","1.6","","1.5","","99","","36","","3","","2.4","","98.49","","","","","","Rain,Fog"
"2015-01-04 00:00","2015","01","04","00:00","1.1","","1.0","","99","","13","","4","","1.2","","98.44","","","","","","Drizzle,Fog"
"2015-01-04 01:00","2015","01","04","01:00","1.2","","1.1","","99","","9","","7","","1.2","","98.35","","","","","","Drizzle,Fog"
"2015-01-04 02:00","2015","01","04","02:00","1.0","","0.9","","99","","36","","2","","0.8","","98.36","","","","","","Drizzle,Fog"
"2015-01-04 03:00","2015","01","04","03:00","1.6","","1.5","","99","","33","","5","","0.6","","98.34","","","","","","Drizzle,Fog"
"2015-01-04 04:00","2015","01","04","04:00","1.3","","1.2","","99","","33","","3","","0.8","","98.25","","","","","","Rain,Drizzle,Fog"
"2015-01-04 05:00","2015","01","04","05:00","0.9","","0.8","","99","","6","","4","","0.8","","98.11","","","","","","Rain,Drizzle,Fog"
"2015-01-04 06:00","2015","01","04","06:00","1.0","","0.9","","99","","10","","4","","0.6","","98.01","","","","","","Rain,Drizzle,Fog"
"2015-01-04 07:00","2015","01","04","07:00","1.2","","1.1","","99","","32","","4","","3.6","","98.00","","","","","","Rain,Fog"
"2015-01-04 08:00","2015","01","04","08:00","1.0","","0.9","","99","","22","","8","","3.2","","98.05","","","","","","Rain,Fog"
"2015-01-04 09:00","2015","01","04","09:00","1.4","","1.3","","99","","22","","13","","2.0","","98.06","","","","","","Fog"
"2015-01-04 10:00","2015","01","04","10:00","1.6","","1.5","","99","","24","","27","","3.2","","98.18","","","","","","Rain,Fog"
"2015-01-04 11:00","2015","01","04","11:00","2.0","","1.3","","95","","26","","28","","16.1","","98.30","","","","","","NA"
"2015-01-04 12:00","2015","01","04","12:00","2.2","","0.4","","88","","26","","29","","24.1","","98.35","","","","","","NA"
"2015-01-04 13:00","2015","01","04","13:00","2.1","","-0.2","","85","","26","","27","","24.1","","98.40","","","","","","Cloudy"
"2015-01-04 14:00","2015","01","04","14:00","1.9","","-0.7","","83","","28","","26","","24.1","","98.38","","","","","","NA"
"2015-01-04 15:00","2015","01","04","15:00","1.8","","-1.1","","81","","27","","23","","24.1","","98.56","","","","","","NA"
"2015-01-04 16:00","2015","01","04","16:00","1.2","","-1.4","","83","","28","","22","","16.1","","98.72","","","","","","Snow"
"2015-01-04 17:00","2015","01","04","17:00","0.2","","-0.7","","94","","28","","27","","1.2","","98.90","","","","","","Snow"
"2015-01-04 18:00","2015","01","04","18:00","-1.0","","-2.9","","87","","30","","28","","9.7","","99.10","","","","-8","","Snow"
"2015-01-04 19:00","2015","01","04","19:00","-2.1","","-4.8","","82","","28","","39","","16.1","","99.30","","","","-10","","Snow"
"2015-01-04 20:00","2015","01","04","20:00","-4.0","","-7.8","","75","","28","","39","","24.1","","99.46","","","","-13","","NA"
"2015-01-04 21:00","2015","01","04","21:00","-4.7","","-8.8","","73","","30","","32","","24.1","","99.59","","","","-13","","NA"
"2015-01-04 22:00","2015","01","04","22:00","-5.2","","-9.5","","72","","29","","26","","24.1","","99.70","","","","-13","","Snow"
"2015-01-04 23:00","2015","01","04","23:00","-6.5","","-12.0","","65","","30","","45","","24.1","","99.83","","","","-17","","Snow"
"2015-01-05 00:00","2015","01","05","00:00","-6.8","","-11.8","","68","","28","","36","","19.3","","99.92","","","","-16","","Snow"
"2015-01-05 01:00","2015","01","05","01:00","-7.1","","-11.0","","74","","28","","24","","24.1","","100.00","","","","-15","","Snow Showers"
"2015-01-05 02:00","2015","01","05","02:00","-7.8","","-11.8","","73","","29","","28","","9.7","","100.10","","","","-16","","Snow Showers"
"2015-01-05 03:00","2015","01","05","03:00","-8.8","","-14.4","","64","","27","","40","","19.3","","100.26","","","","-19","","Snow Showers"
"2015-01-05 04:00","2015","01","05","04:00","-9.9","","-15.7","","63","","28","","34","","19.3","","100.37","","","","-20","","Snow Showers"
"2015-01-05 05:00","2015","01","05","05:00","-11.7","","-18.0","","60","","29","","40","","19.3","","100.49","","","","-23","","Snow Showers"
"2015-01-05 06:00","2015","01","05","06:00","-12.7","","-18.4","","63","","29","","30","","24.1","","100.57","","","","-23","","NA"
"2015-01-05 07:00","2015","01","05","07:00","-13.4","","-18.5","","66","","29","","30","","24.1","","100.69","","","","-24","","Mainly Clear"
"2015-01-05 08:00","2015","01","05","08:00","-13.8","","-18.7","","67","","31","","25","","24.1","","100.82","","","","-24","","NA"
"2015-01-05 09:00","2015","01","05","09:00","-13.7","","-18.8","","66","","29","","18","","24.1","","100.94","","","","-22","","NA"
"2015-01-05 10:00","2015","01","05","10:00","-13.2","","-17.9","","68","","29","","23","","16.1","","101.01","","","","-23","","Snow Showers"
"2015-01-05 11:00","2015","01","05","11:00","-11.9","","-17.4","","64","","28","","25","","16.1","","101.00","","","","-21","","Snow Showers"
"2015-01-05 12:00","2015","01","05","12:00","-11.2","","-17.7","","59","","28","","33","","24.1","","100.90","","","","-22","","NA"
"2015-01-05 13:00","2015","01","05","13:00","-11.4","","-17.7","","60","","28","","26","","16.1","","100.82","","","","-21","","Snow Showers"
"2015-01-05 14:00","2015","01","05","14:00","-10.4","","-15.6","","66","","25","","26","","16.1","","100.79","","","","-19","","Snow Showers"
"2015-01-05 15:00","2015","01","05","15:00","-11.2","","-16.0","","68","","25","","22","","19.3","","100.84","","","","-20","","Snow Showers"
"2015-01-05 16:00","2015","01","05","16:00","-11.4","","-17.5","","61","","26","","22","","19.3","","100.92","","","","-20","","Snow Showers"
"2015-01-05 17:00","2015","01","05","17:00","-11.9","","-17.6","","63","","26","","22","","24.1","","100.88","","","","-21","","NA"
"2015-01-05 18:00","2015","01","05","18:00","-12.0","","-17.9","","62","","25","","23","","24.1","","100.94","","","","-21","","NA"
"2015-01-05 19:00","2015","01","05","19:00","-12.1","","-16.7","","69","","23","","14","","24.1","","100.82","","","","-19","","Mostly Cloudy"
"2015-01-05 20:00","2015","01","05","20:00","-12.2","","-16.1","","73","","22","","14","","24.1","","100.77","","","","-19","","NA"
"2015-01-05 21:00","2015","01","05","21:00","-12.6","","-16.7","","72","","22","","30","","24.1","","100.78","","","","-23","","NA"
"2015-01-05 22:00","2015","01","05","22:00","-13.0","","-17.6","","69","","25","","19","","24.1","","100.68","","","","-21","","Cloudy"
"2015-01-05 23:00","2015","01","05","23:00","-13.0","","-17.4","","70","","24","","13","","24.1","","100.57","","","","-20","","NA"
"2015-01-06 00:00","2015","01","06","00:00","-13.1","","-17.5","","70","","26","","16","","19.3","","100.53","","","","-21","","NA"
"2015-01-06 01:00","2015","01","06","01:00","-13.0","","-17.9","","67","","27","","27","","19.3","","100.62","","","","-23","","Cloudy"
"2015-01-06 02:00","2015","01","06","02:00","-13.2","","-16.4","","77","","25","","11","","6.4","","100.50","","","","-19","","Snow"
"2015-01-06 03:00","2015","01","06","03:00","-13.1","","-15.4","","83","","22","","9","","4.0","","100.41","","","","-19","","Snow"
"2015-01-06 04:00","2015","01","06","04:00","-13.1","","-15.6","","82","","24","","10","","4.0","","100.34","","","","-19","","Snow"
"2015-01-06 05:00","2015","01","06","05:00","-13.1","","-15.6","","82","","24","","9","","4.0","","100.25","","","","-19","","Snow"
"2015-01-06 06:00","2015","01","06","06:00","-13.1","","-15.7","","81","","23","","10","","4.8","","100.18","","","","-19","","Snow"
"2015-01-06 07:00","2015","01","06","07:00","-13.1","","-15.4","","83","","22","","13","","8.1","","100.16","","","","-20","","Snow"
"2015-01-06 08:00","2015","01","06","08:00","-14.4","","-16.4","","85","","23","","9","","11.3","","100.18","","","","-20","","NA"
"2015-01-06 09:00","2015","01","06","09:00","-13.5","","-16.0","","82","","25","","14","","24.1","","100.21","","","","-21","","NA"
"2015-01-06 10:00","2015","01","06","10:00","-12.2","","-15.5","","77","","25","","17","","24.1","","100.20","","","","-20","","Mostly Cloudy"
"2015-01-06 11:00","2015","01","06","11:00","-11.1","","-14.9","","74","","26","","18","","24.1","","100.08","","","","-19","","NA"
"2015-01-06 12:00","2015","01","06","12:00","-10.2","","-14.9","","69","","24","","21","","24.1","","100.00","","","","-18","","NA"
"2015-01-06 13:00","2015","01","06","13:00","-8.9","","-14.5","","64","","27","","29","","24.1","","99.91","","","","-18","","Mostly Cloudy"
"2015-01-06 14:00","2015","01","06","14:00","-8.6","","-13.7","","67","","27","","26","","24.1","","99.85","","","","-17","","NA"
"2015-01-06 15:00","2015","01","06","15:00","-8.5","","-13.6","","67","","25","","23","","19.3","","99.82","","","","-17","","Snow Showers"
"2015-01-06 16:00","2015","01","06","16:00","-8.3","","-13.0","","69","","25","","27","","12.9","","99.75","","","","-17","","Snow Showers"
"2015-01-06 17:00","2015","01","06","17:00","-8.3","","-13.0","","69","","24","","28","","19.3","","99.69","","","","-17","","Snow Showers"
"2015-01-06 18:00","2015","01","06","18:00","-8.5","","-11.8","","77","","23","","31","","8.1","","99.66","","","","-18","","Snow"
"2015-01-06 19:00","2015","01","06","19:00","-8.6","","-14.1","","65","","27","","39","","19.3","","99.65","","","","-19","","Snow,Blowing Snow"
"2015-01-06 20:00","2015","01","06","20:00","-8.9","","-14.0","","67","","26","","30","","24.1","","99.57","","","","-18","","Snow,Blowing Snow"
"2015-01-06 21:00","2015","01","06","21:00","-8.9","","-13.8","","68","","26","","28","","19.3","","99.52","","","","-18","","Snow"
"2015-01-06 22:00","2015","01","06","22:00","-8.9","","-13.1","","72","","25","","23","","24.1","","99.46","","","","-17","","Snow"
"2015-01-06 23:00","2015","01","06","23:00","-9.8","","-13.0","","78","","24","","27","","16.1","","99.45","","","","-19","","Snow"
"2015-01-07 00:00","2015","01","07","00:00","-10.3","","-13.4","","78","","24","","24","","9.7","","99.44","","","","-19","","Snow"
"2015-01-07 01:00","2015","01","07","01:00","-11.2","","-14.3","","78","","24","","28","","12.9","","99.47","","","","-21","","Snow"
"2015-01-07 02:00","2015","01","07","02:00","-11.1","","-13.2","","85","","26","","24","","3.2","","99.53","","","","-20","","Snow"
"2015-01-07 03:00","2015","01","07","03:00","-11.1","","-13.2","","85","","26","","19","","2.0","","99.64","","","","-19","","Snow"
"2015-01-07 04:00","2015","01","07","04:00","-10.9","","-17.4","","59","","31","","29","","12.9","","99.70","","","","-21","","Snow,Blowing Snow"
"2015-01-07 05:00","2015","01","07","05:00","-11.9","","-18.8","","57","","31","","26","","16.1","","99.78","","","","-21","","Blowing Snow"
"2015-01-07 06:00","2015","01","07","06:00","-12.5","","-19.2","","58","","31","","32","","24.1","","99.88","","","","-23","","Blowing Snow"
"2015-01-07 07:00","2015","01","07","07:00","-12.9","","-19.1","","60","","31","","33","","24.1","","99.99","","","","-24","","Mainly Clear"
"2015-01-07 08:00","2015","01","07","08:00","-13.2","","-18.8","","63","","31","","30","","24.1","","100.14","","","","-24","","NA"
"2015-01-07 09:00","2015","01","07","09:00","-13.1","","-18.2","","66","","32","","22","","24.1","","100.31","","","","-22","","Blowing Snow"
"2015-01-07 10:00","2015","01","07","10:00","-13.3","","-20.1","","57","","35","","31","","9.7","","100.42","","","","-24","","Mostly Cloudy"
"2015-01-07 11:00","2015","01","07","11:00","-13.0","","-22.4","","46","","32","","29","","24.1","","100.54","","","","-23","","Blowing Snow"
"2015-01-07 12:00","2015","01","07","12:00","-13.1","","-21.7","","49","","32","","31","","24.1","","100.60","","","","-24","","Blowing Snow"
"2015-01-07 13:00","2015","01","07","13:00","-12.9","","-21.1","","51","","32","","40","","24.1","","100.68","","","","-25","","Blowing Snow"
"2015-01-07 14:00","2015","01","07","14:00","-13.5","","-23.3","","44","","34","","29","","24.1","","100.74","","","","-24","","Blowing Snow"
"2015-01-07 15:00","2015","01","07","15:00","-13.2","","-24.2","","40","","34","","26","","24.1","","100.87","","","","-23","","Blowing Snow"
"2015-01-07 16:00","2015","01","07","16:00","-13.1","","-21.7","","49","","30","","22","","24.1","","100.97","","","","-22","","Blowing Snow"
"2015-01-07 17:00","2015","01","07","17:00","-13.1","","-22.2","","47","","29","","32","","24.1","","101.03","","","","-24","","Blowing Snow"
"2015-01-07 18:00","2015","01","07","18:00","-13.5","","-21.9","","50","","30","","26","","24.1","","101.08","","","","-23","","NA"
"2015-01-07 19:00","2015","01","07","19:00","-13.6","","-21.1","","54","","29","","22","","24.1","","101.10","","","","-23","","Mainly Clear"
"2015-01-07 20:00","2015","01","07","20:00","-14.0","","-20.0","","61","","28","","24","","24.1","","101.11","","","","-24","","NA"
"2015-01-07 21:00","2015","01","07","21:00","-14.2","","-20.6","","59","","29","","25","","24.1","","101.13","","","","-24","","NA"
"2015-01-07 22:00","2015","01","07","22:00","-14.7","","-20.3","","63","","28","","21","","24.1","","101.10","","","","-24","","Mainly Clear"
"2015-01-07 23:00","2015","01","07","23:00","-14.9","","-20.5","","63","","26","","24","","24.1","","101.02","","","","-25","","NA"
"2015-01-08 00:00","2015","01","08","00:00","-15.6","","-20.4","","67","","25","","21","","24.1","","100.95","","","","-25","","NA"
"2015-01-08 01:00","2015","01","08","01:00","-15.4","","-19.5","","71","","24","","25","","19.3","","100.88","","","","-26","","Mostly Cloudy"
"2015-01-08 02:00","2015","01","08","02:00","-14.5","","-18.2","","74","","25","","24","","19.3","","100.83","","","","-24","","Snow"
"2015-01-08 03:00","2015","01","08","03:00","-13.5","","-17.4","","73","","24","","30","","16.1","","100.78","","","","-24","","Snow"
"2015-01-08 04:00","2015","01","08","04:00","-14.0","","-18.0","","72","","26","","29","","16.1","","100.74","","","","-25","","Snow"
"2015-01-08 05:00","2015","01","08","05:00","-15.2","","-18.7","","75","","23","","25","","19.3","","100.68","","","","-25","","Snow"
"2015-01-08 06:00","2015","01","08","06:00","-16.5","","-20.1","","74","","23","","28","","19.3","","100.63","","","","-28","","NA"
"2015-01-08 07:00","2015","01","08","07:00","-17.2","","-20.6","","75","","23","","30","","19.3","","100.60","","","","-29","","Snow"
"2015-01-08 08:00","2015","01","08","08:00","-18.0","","-21.4","","75","","23","","30","","24.1","","100.61","","","","-30","","NA"
"2015-01-08 09:00","2015","01","08","09:00","-18.5","","-22.2","","73","","23","","34","","19.3","","100.58","","","","-31","","NA"
"2015-01-08 10:00","2015","01","08","10:00","-18.0","","-22.1","","71","","23","","35","","24.1","","100.46","","","","-31","","Cloudy"
"2015-01-08 11:00","2015","01","08","11:00","-17.5","","-22.3","","67","","22","","32","","24.1","","100.47","","","","-30","","NA"
"2015-01-08 12:00","2015","01","08","12:00","-16.8","","-22.1","","64","","22","","34","","24.1","","100.22","","","","-29","","NA"
"2015-01-08 13:00","2015","01","08","13:00","-16.0","","-22.1","","60","","22","","35","","24.1","","100.05","","","","-28","","Cloudy"
"2015-01-08 14:00","2015","01","08","14:00","-15.2","","-21.9","","57","","22","","32","","24.1","","99.87","","","","-27","","NA"
"2015-01-08 15:00","2015","01","08","15:00","-14.9","","-19.4","","69","","21","","37","","24.1","","99.72","","","","-27","","NA"
"2015-01-08 16:00","2015","01","08","16:00","-14.6","","-19.5","","67","","22","","32","","24.1","","99.66","","","","-26","","Cloudy"
"2015-01-08 17:00","2015","01","08","17:00","-14.0","","-19.1","","66","","21","","37","","24.1","","99.44","","","","-26","","NA"
"2015-01-08 18:00","2015","01","08","18:00","-13.3","","-18.9","","63","","20","","42","","24.1","","99.22","","","","-25","","Snow"
"2015-01-08 19:00","2015","01","08","19:00","-12.7","","-15.2","","82","","20","","37","","1.6","","99.05","","","","-24","","Snow"
"2015-01-08 20:00","2015","01","08","20:00","-12.0","","-14.2","","84","","21","","40","","0.8","","98.92","","","","-23","","Moderate Snow"
"2015-01-08 21:00","2015","01","08","21:00","-10.9","","-13.3","","83","","21","","41","","1.2","","98.81","","","","-22","","Snow,Blowing Snow"
"2015-01-08 22:00","2015","01","08","22:00","-10.6","","-13.0","","83","","22","","38","","1.2","","98.69","","","","-21","","Snow,Blowing Snow"
"2015-01-08 23:00","2015","01","08","23:00","-10.4","","-12.9","","82","","22","","30","","3.2","","98.56","","","","-20","","Snow,Blowing Snow"
"2015-01-09 00:00","2015","01","09","00:00","-9.8","","-13.0","","78","","23","","37","","6.4","","98.49","","","","-20","","Snow,Blowing Snow"
"2015-01-09 01:00","2015","01","09","01:00","-9.4","","-12.4","","79","","22","","34","","8.1","","98.39","","","","-19","","Snow,Blowing Snow"
"2015-01-09 02:00","2015","01","09","02:00","-8.8","","-12.0","","78","","23","","39","","6.4","","98.37","","","","-19","","Snow,Blowing Snow"
"2015-01-09 03:00","2015","01","09","03:00","-8.4","","-11.1","","81","","23","","37","","4.8","","98.48","","","","-18","","Snow,Blowing Snow"
"2015-01-09 04:00","2015","01","09","04:00","-8.2","","-10.3","","85","","24","","25","","3.6","","98.60","","","","-16","","Snow,Blowing Snow"
"2015-01-09 05:00","2015","01","09","05:00","-9.3","","-12.8","","76","","29","","35","","3.2","","98.77","","","","-19","","Snow,Blowing Snow"
"2015-01-09 06:00","2015","01","09","06:00","-10.6","","-15.8","","66","","27","","28","","24.1","","98.92","","","","-20","","Blowing Snow"
"2015-01-09 07:00","2015","01","09","07:00","-10.9","","-15.7","","68","","26","","29","","24.1","","99.07","","","","-21","","Blowing Snow"
"2015-01-09 08:00","2015","01","09","08:00","-11.4","","-15.3","","73","","25","","28","","24.1","","99.25","","","","-21","","NA"
"2015-01-09 09:00","2015","01","09","09:00","-10.8","","-14.6","","74","","26","","29","","24.1","","99.40","","","","-20","","NA"
"2015-01-09 10:00","2015","01","09","10:00","-9.9","","-13.7","","74","","25","","33","","24.1","","99.49","","","","-20","","Snow Showers"
"2015-01-09 11:00","2015","01","09","11:00","-9.4","","-13.2","","74","","24","","22","","9.7","","99.53","","","","-17","","Snow Showers"
"2015-01-09 12:00","2015","01","09","12:00","-9.4","","-11.9","","82","","28","","29","","0.4","","99.50","","","","-19","","Heavy Snow Showers"
"2015-01-09 13:00","2015","01","09","13:00","-9.2","","-13.2","","73","","26","","22","","9.7","","99.52","","","","-17","","Snow,Blowing Snow"
"2015-01-09 14:00","2015","01","09","14:00","-8.8","","-15.0","","61","","27","","32","","16.1","","99.53","","","","-18","","Snow"
"2015-01-09 15:00","2015","01","09","15:00","-9.6","","-13.9","","71","","26","","36","","9.7","","99.62","","","","-20","","Snow Showers,Blowing Snow"
"2015-01-09 16:00","2015","01","09","16:00","-10.8","","-13.2","","83","","28","","30","","12.9","","99.69","","","","-21","","Snow Showers,Blowing Snow"
"2015-01-09 17:00","2015","01","09","17:00","-11.4","","-14.5","","78","","26","","34","","1.2","","99.80","","","","-22","","Snow Showers,Blowing Snow"
"2015-01-09 18:00","2015","01","09","18:00","-12.2","","-16.1","","73","","25","","30","","9.7","","99.89","","","","-22","","Snow Showers,Blowing Snow"
"2015-01-09 19:00","2015","01","09","19:00","-12.8","","-17.9","","66","","25","","30","","16.1","","100.00","","","","-23","","Blowing Snow"
"2015-01-09 20:00","2015","01","09","20:00","-13.3","","-16.7","","76","","25","","27","","3.2","","100.10","","","","-23","","Snow"
"2015-01-09 21:00","2015","01","09","21:00","-14.1","","-17.0","","79","","24","","29","","2.4","","100.21","","","","-25","","Snow,Blowing Snow"
"2015-01-09 22:00","2015","01","09","22:00","-14.9","","-17.9","","78","","24","","27","","4.0","","100.30","","","","-25","","Snow,Blowing Snow"
"2015-01-09 23:00","2015","01","09","23:00","-15.2","","-18.2","","78","","23","","25","","3.2","","100.35","","","","-25","","Snow,Blowing Snow"
"2015-01-10 00:00","2015","01","10","00:00","-15.8","","-19.6","","73","","23","","22","","6.4","","100.39","","","","-26","","Snow,Blowing Snow"
"2015-01-10 01:00","2015","01","10","01:00","-16.1","","-20.2","","71","","23","","27","","19.3","","100.42","","","","-27","","Snow"
"2015-01-10 02:00","2015","01","10","02:00","-16.5","","-20.4","","72","","24","","22","","24.1","","100.46","","","","-27","","NA"
"2015-01-10 03:00","2015","01","10","03:00","-16.8","","-20.6","","73","","24","","22","","24.1","","100.52","","","","-27","","NA"
"2015-01-10 04:00","2015","01","10","04:00","-17.2","","-20.8","","74","","24","","22","","24.1","","100.56","","","","-27","","Mainly Clear"
"2015-01-10 05:00","2015","01","10","05:00","-17.3","","-21.1","","73","","23","","25","","24.1","","100.55","","","","-28","","NA"
"2015-01-10 06:00","2015","01","10","06:00","-17.8","","-21.4","","74","","24","","20","","24.1","","100.57","","","","-28","","NA"
"2015-01-10 07:00","2015","01","10","07:00","-17.6","","-21.2","","74","","23","","26","","24.1","","100.63","","","","-29","","Mostly Cloudy"
"2015-01-10 08:00","2015","01","10","08:00","-17.9","","-21.3","","75","","23","","27","","24.1","","100.68","","","","-29","","NA"
"2015-01-10 09:00","2015","01","10","09:00","-17.3","","-20.9","","74","","23","","28","","24.1","","100.77","","","","-29","","NA"
"2015-01-10 10:00","2015","01","10","10:00","-16.2","","-20.0","","73","","22","","27","","19.3","","100.83","","","","-27","","Mainly Clear"
"2015-01-10 11:00","2015","01","10","11:00","-14.6","","-18.9","","70","","23","","30","","24.1","","100.82","","","","-26","","NA"
"2015-01-10 12:00","2015","01","10","12:00","-13.4","","-17.9","","69","","23","","31","","24.1","","100.71","","","","-24","","NA"
"2015-01-10 13:00","2015","01","10","13:00","-13.4","","-19.4","","61","","23","","32","","24.1","","100.67","","","","-24","","Mostly Cloudy"
"2015-01-10 14:00","2015","01","10","14:00","-13.0","","-18.7","","63","","23","","26","","24.1","","100.54","","","","-23","","NA"
"2015-01-10 15:00","2015","01","10","15:00","-12.5","","-18.2","","63","","22","","33","","24.1","","100.53","","","","-23","","NA"
"2015-01-10 16:00","2015","01","10","16:00","-12.1","","-18.0","","62","","23","","34","","24.1","","100.68","","","","-23","","Cloudy"
"2015-01-10 17:00","2015","01","10","17:00","-11.6","","-17.1","","64","","22","","26","","24.1","","100.61","","","","-21","","NA"
"2015-01-10 18:00","2015","01","10","18:00","-11.7","","-16.8","","66","","22","","21","","24.1","","100.65","","","","-20","","NA"
"2015-01-10 19:00","2015","01","10","19:00","-11.1","","-16.6","","64","","22","","21","","24.1","","100.68","","","","-19","","Mostly Cloudy"
"2015-01-10 20:00","2015","01","10","20:00","-10.6","","-15.6","","67","","22","","28","","24.1","","100.70","","","","-20","","NA"
"2015-01-10 21:00","2015","01","10","21:00","-10.1","","-14.9","","68","","21","","29","","24.1","","100.66","","","","-20","","NA"
"2015-01-10 22:00","2015","01","10","22:00","-9.4","","-14.8","","65","","21","","28","","24.1","","100.64","","","","-18","","Snow"
"2015-01-10 23:00","2015","01","10","23:00","-8.8","","-14.1","","66","","20","","31","","24.1","","100.60","","","","-18","","Snow"
"2015-01-11 00:00","2015","01","11","00:00","-8.2","","-13.7","","65","","21","","14","","24.1","","100.59","","","","-14","","NA"
"2015-01-11 01:00","2015","01","11","01:00","-7.7","","-13.2","","65","","21","","16","","24.1","","100.52","","","","-14","","Cloudy"
"2015-01-11 02:00","2015","01","11","02:00","-7.3","","-12.8","","65","","21","","17","","24.1","","100.52","","","","-14","","NA"
"2015-01-11 03:00","2015","01","11","03:00","-6.8","","-12.1","","66","","22","","14","","24.1","","100.52","","","","-13","","NA"
"2015-01-11 04:00","2015","01","11","04:00","-6.6","","-12.0","","66","","23","","12","","24.1","","100.48","","","","-12","","Mostly Cloudy"
"2015-01-11 05:00","2015","01","11","05:00","-6.2","","-10.8","","70","","21","","8","","24.1","","100.46","","","","-10","","NA"
"2015-01-11 06:00","2015","01","11","06:00","-5.8","","-10.1","","72","","21","","10","","24.1","","100.45","","","","-10","","NA"
"2015-01-11 07:00","2015","01","11","07:00","-5.0","","-9.7","","70","","20","","16","","24.1","","100.44","","","","-11","","Mostly Cloudy"
"2015-01-11 08:00","2015","01","11","08:00","-4.3","","-9.7","","66","","21","","19","","24.1","","100.46","","","","-10","","NA"
"2015-01-11 09:00","2015","01","11","09:00","-3.8","","-9.9","","63","","20","","19","","24.1","","100.46","","","","-10","","NA"
"2015-01-11 10:00","2015","01","11","10:00","-3.2","","-9.1","","64","","22","","22","","24.1","","100.46","","","","-10","","Cloudy"
"2015-01-11 11:00","2015","01","11","11:00","-2.8","","-9.1","","62","","22","","22","","24.1","","100.43","","","","-9","","NA"
"2015-01-11 12:00","2015","01","11","12:00","-2.5","","-9.2","","60","","22","","23","","24.1","","100.35","","","","-9","","NA"
"2015-01-11 13:00","2015","01","11","13:00","-1.9","","-8.7","","60","","22","","18","","24.1","","100.25","","","","-7","","Cloudy"
"2015-01-11 14:00","2015","01","11","14:00","-1.5","","-8.7","","58","","20","","21","","24.1","","100.23","","","","-7","","NA"
"2015-01-11 15:00","2015","01","11","15:00","-1.6","","-7.4","","65","","21","","18","","24.1","","100.26","","","","-7","","NA"
"2015-01-11 16:00","2015","01","11","16:00","-1.3","","-7.5","","63","","20","","18","","24.1","","100.30","","","","-7","","Cloudy"
"2015-01-11 17:00","2015","01","11","17:00","-1.2","","-6.4","","68","","21","","17","","19.3","","100.27","","","","-6","","NA"
"2015-01-11 18:00","2015","01","11","18:00","-1.2","","-6.4","","68","","20","","18","","19.3","","100.27","","","","-6","","NA"
"2015-01-11 19:00","2015","01","11","19:00","-1.0","","-6.2","","68","","20","","27","","16.1","","100.28","","","","-7","","Snow"
"2015-01-11 20:00","2015","01","11","20:00","-2.6","","-3.6","","93","","22","","20","","3.2","","100.35","","","","-9","","Snow"
"2015-01-11 21:00","2015","01","11","21:00","-2.5","","-3.5","","93","","21","","21","","4.0","","100.36","","","","-9","","Snow"
"2015-01-11 22:00","2015","01","11","22:00","-2.4","","-3.2","","94","","21","","18","","4.8","","100.33","","","","-8","","Snow"
"2015-01-11 23:00","2015","01","11","23:00","-2.4","","-3.4","","93","","21","","16","","6.4","","100.30","","","","-8","","Snow"
"2015-01-12 00:00","2015","01","12","00:00","-2.4","","-3.4","","93","","23","","13","","6.4","","100.22","","","","-7","","Snow"
"2015-01-12 01:00","2015","01","12","01:00","-2.3","","-3.3","","93","","23","","8","","6.4","","100.12","","","","-5","","Snow"
"2015-01-12 02:00","2015","01","12","02:00","-2.4","","-3.2","","94","","23","","8","","6.4","","100.11","","","","-6","","Snow"
"2015-01-12 03:00","2015","01","12","03:00","-2.4","","-3.1","","95","","22","","8","","3.2","","100.07","","","","-6","","Snow"
"2015-01-12 04:00","2015","01","12","04:00","-2.3","","-3.0","","95","","24","","10","","2.4","","100.09","","","","-6","","Snow"
"2015-01-12 05:00","2015","01","12","05:00","-2.4","","-3.0","","96","","26","","7","","2.4","","100.07","","","","-5","","Snow"
"2015-01-12 06:00","2015","01","12","06:00","-2.4","","-3.0","","96","","26","","7","","2.4","","100.07","","","","-5","","Snow"
"2015-01-12 07:00","2015","01","12","07:00","-2.3","","-3.3","","93","","28","","11","","4.0","","100.10","","","","-6","","Snow"
"2015-01-12 08:00","2015","01","12","08:00","-2.3","","-3.3","","93","","28","","12","","1.6","","100.11","","","","-7","","Snow"
"2015-01-12 09:00","2015","01","12","09:00","-2.1","","-3.1","","93","","29","","9","","1.6","","100.19","","","","-6","","Snow"
"2015-01-12 10:00","2015","01","12","10:00","-1.6","","-3.5","","87","","33","","14","","6.4","","100.21","","","","-6","","Snow"
"2015-01-12 11:00","2015","01","12","11:00","-1.2","","-3.7","","83","","33","","12","","9.7","","100.30","","","","-5","","Fog"
"2015-01-12 12:00","2015","01","12","12:00","-1.1","","-4.1","","80","","34","","11","","12.9","","100.30","","","","-5","","NA"
"2015-01-12 13:00","2015","01","12","13:00","-1.2","","-6.0","","70","","35","","26","","12.9","","100.31","","","","-8","","Cloudy"
"2015-01-12 14:00","2015","01","12","14:00","-2.5","","-6.2","","76","","34","","23","","12.9","","100.36","","","","-9","","Snow"
"2015-01-12 15:00","2015","01","12","15:00","-3.6","","-8.5","","69","","35","","26","","19.3","","100.46","","","","-11","","Snow,Blowing Snow"
"2015-01-12 16:00","2015","01","12","16:00","-3.9","","-10.4","","61","","35","","21","","24.1","","100.57","","","","-10","","Snow,Blowing Snow"
"2015-01-12 17:00","2015","01","12","17:00","-5.3","","-11.3","","63","","35","","21","","24.1","","100.71","","","","-12","","NA"
"2015-01-12 18:00","2015","01","12","18:00","-5.6","","-11.8","","62","","36","","23","","24.1","","100.86","","","","-13","","NA"
"2015-01-12 19:00","2015","01","12","19:00","-5.8","","-11.4","","65","","35","","26","","19.3","","100.97","","","","-14","","Snow"
"2015-01-12 20:00","2015","01","12","20:00","-6.5","","-11.7","","67","","36","","20","","24.1","","101.08","","","","-13","","NA"
"2015-01-12 21:00","2015","01","12","21:00","-7.7","","-12.8","","67","","36","","21","","24.1","","101.16","","","","-15","","NA"
"2015-01-12 22:00","2015","01","12","22:00","-8.9","","-14.3","","65","","36","","26","","24.1","","101.27","","","","-18","","Mainly Clear"
"2015-01-12 23:00","2015","01","12","23:00","-9.6","","-14.5","","68","","35","","23","","24.1","","101.32","","","","-18","","NA"
"2015-01-13 00:00","2015","01","13","00:00","-10.0","","-14.5","","70","","35","","16","","24.1","","101.34","","","","-17","","NA"
"2015-01-13 01:00","2015","01","13","01:00","-10.5","","-14.6","","72","","35","","15","","24.1","","101.35","","","","-17","","Cloudy"
"2015-01-13 02:00","2015","01","13","02:00","-11.4","","-15.2","","74","","36","","18","","24.1","","101.39","","","","-19","","NA"
"2015-01-13 03:00","2015","01","13","03:00","-11.8","","-15.2","","76","","36","","17","","24.1","","101.48","","","","-19","","NA"
"2015-01-13 04:00","2015","01","13","04:00","-11.9","","-14.7","","80","","4","","12","","24.1","","101.55","","","","-18","","Snow"
"2015-01-13 05:00","2015","01","13","05:00","-12.0","","-14.3","","83","","3","","18","","19.3","","101.60","","","","-20","","Snow"
"2015-01-13 06:00","2015","01","13","06:00","-14.6","","-17.6","","78","","6","","22","","19.3","","101.68","","","","-24","","Snow"
"2015-01-13 07:00","2015","01","13","07:00","-16.0","","-19.6","","74","","4","","22","","24.1","","101.74","","","","-26","","Snow"
"2015-01-13 08:00","2015","01","13","08:00","-16.4","","-21.9","","63","","6","","21","","24.1","","101.79","","","","-26","","NA"
"2015-01-13 09:00","2015","01","13","09:00","-16.0","","-22.5","","58","","5","","22","","24.1","","101.79","","","","-26","","NA"
"2015-01-13 10:00","2015","01","13","10:00","-16.1","","-21.4","","64","","6","","24","","24.1","","101.83","","","","-26","","Clear"
"2015-01-13 11:00","2015","01","13","11:00","-15.9","","-21.6","","62","","5","","23","","24.1","","101.84","","","","-26","","NA"
"2015-01-13 12:00","2015","01","13","12:00","-15.6","","-21.0","","64","","7","","16","","24.1","","101.78","","","","-24","","NA"
"2015-01-13 13:00","2015","01","13","13:00","-14.4","","-20.2","","62","","4","","17","","24.1","","101.66","","","","-23","","Clear"
"2015-01-13 14:00","2015","01","13","14:00","-13.6","","-19.4","","62","","3","","14","","24.1","","101.58","","","","-21","","NA"
"2015-01-13 15:00","2015","01","13","15:00","-13.4","","-17.6","","71","","7","","11","","24.1","","101.53","","","","-20","","NA"
"2015-01-13 16:00","2015","01","13","16:00","-13.2","","-16.9","","74","","3","","13","","24.1","","101.48","","","","-20","","Mainly Clear"
"2015-01-13 17:00","2015","01","13","17:00","-13.7","","-17.4","","74","","2","","12","","24.1","","101.43","","","","-20","","NA"
"2015-01-13 18:00","2015","01","13","18:00","-14.5","","-17.7","","77","","3","","11","","24.1","","101.38","","","","-21","","NA"
"2015-01-13 19:00","2015","01","13","19:00","-15.9","","-18.9","","78","","4","","12","","24.1","","101.32","","","","-23","","Mainly Clear"
"2015-01-13 20:00","2015","01","13","20:00","-16.5","","-19.8","","76","","5","","12","","24.1","","101.30","","","","-24","","NA"
"2015-01-13 21:00","2015","01","13","21:00","-16.6","","-20.4","","73","","4","","12","","24.1","","101.22","","","","-24","","NA"
"2015-01-13 22:00","2015","01","13","22:00","-16.6","","-19.9","","76","","2","","13","","24.1","","101.08","","","","-24","","Mainly Clear"
"2015-01-13 23:00","2015","01","13","23:00","-16.5","","-19.6","","77","","3","","11","","24.1","","100.98","","","","-23","","NA"
"2015-01-14 00:00","2015","01","14","00:00","-16.2","","-18.5","","83","","36","","7","","24.1","","100.89","","","","-21","","NA"
"2015-01-14 01:00","2015","01","14","01:00","-15.8","","-18.5","","80","","2","","8","","24.1","","100.82","","","","-21","","Cloudy"
"2015-01-14 02:00","2015","01","14","02:00","-14.6","","-17.0","","82","","36","","3","","24.1","","100.77","","","","-17","","NA"
"2015-01-14 03:00","2015","01","14","03:00","-13.8","","-16.1","","83","","3","","5","","6.4","","100.69","","","","-17","","Snow"
"2015-01-14 04:00","2015","01","14","04:00","-13.3","","-15.2","","86","","36","","7","","8.1","","100.61","","","","-18","","Snow"
"2015-01-14 05:00","2015","01","14","05:00","-13.0","","-14.7","","87","","36","","5","","6.4","","100.56","","","","-16","","Snow"
"2015-01-14 06:00","2015","01","14","06:00","-13.2","","-14.4","","91","","36","","3","","9.7","","100.52","","","","-15","","Snow"
"2015-01-14 07:00","2015","01","14","07:00","-13.4","","-15.0","","88","","36","","6","","8.1","","100.51","","","","-17","","Snow"
"2015-01-14 08:00","2015","01","14","08:00","-14.6","","-16.3","","87","","35","","7","","8.1","","100.49","","","","-19","","Snow"
"2015-01-14 09:00","2015","01","14","09:00","-15.1","","-16.9","","86","","27","","9","","8.1","","100.51","","","","-21","","Snow,Fog"
"2015-01-14 10:00","2015","01","14","10:00","-14.2","","-16.2","","85","","29","","9","","9.7","","100.52","","","","-20","","Fog"
"2015-01-14 11:00","2015","01","14","11:00","-14.0","","-16.6","","81","","24","","6","","12.9","","100.46","","","","-18","","NA"
"2015-01-14 12:00","2015","01","14","12:00","-11.8","","-15.7","","73","","27","","9","","12.9","","100.39","","","","-17","","NA"
"2015-01-14 13:00","2015","01","14","13:00","-10.8","","-15.6","","68","","24","","8","","12.9","","100.31","","","","-15","","Mainly Clear"
"2015-01-14 14:00","2015","01","14","14:00","-10.2","","-16.2","","62","","23","","8","","12.9","","100.25","","","","-15","","NA"
"2015-01-14 15:00","2015","01","14","15:00","-10.1","","-15.9","","63","","25","","7","","16.1","","100.23","","","","-14","","NA"
"2015-01-14 16:00","2015","01","14","16:00","-11.3","","-15.2","","73","","18","","17","","24.1","","100.22","","","","-19","","Mainly Clear"
"2015-01-14 17:00","2015","01","14","17:00","-12.6","","-15.5","","79","","20","","19","","24.1","","100.23","","","","-21","","NA"
"2015-01-14 18:00","2015","01","14","18:00","-13.7","","-16.0","","83","","19","","14","","24.1","","100.25","","","","-21","","NA"
"2015-01-14 19:00","2015","01","14","19:00","-14.4","","-16.5","","84","","20","","15","","24.1","","100.21","","","","-22","","Mainly Clear"
"2015-01-14 20:00","2015","01","14","20:00","-13.9","","-16.2","","83","","20","","14","","24.1","","100.21","","","","-21","","NA"
"2015-01-14 21:00","2015","01","14","21:00","-12.8","","-15.1","","83","","21","","13","","16.1","","100.19","","","","-20","","NA"
"2015-01-14 22:00","2015","01","14","22:00","-13.1","","-15.7","","81","","24","","14","","16.1","","100.20","","","","-20","","Mostly Cloudy"
"2015-01-14 23:00","2015","01","14","23:00","-12.2","","-15.5","","77","","23","","13","","19.3","","100.17","","","","-19","","NA"
"2015-01-15 00:00","2015","01","15","00:00","-13.2","","-16.4","","77","","23","","15","","19.3","","100.14","","","","-21","","NA"
"2015-01-15 01:00","2015","01","15","01:00","-14.7","","-17.9","","77","","24","","12","","24.1","","100.10","","","","-22","","Mainly Clear"
"2015-01-15 02:00","2015","01","15","02:00","-14.9","","-17.6","","80","","21","","10","","24.1","","100.02","","","","-21","","NA"
"2015-01-15 03:00","2015","01","15","03:00","-16.0","","-18.4","","82","","21","","8","","24.1","","99.98","","","","-22","","NA"
"2015-01-15 04:00","2015","01","15","04:00","-14.7","","-17.0","","83","","20","","12","","24.1","","99.89","","","","-22","","Mostly Cloudy"
"2015-01-15 05:00","2015","01","15","05:00","-13.3","","-15.9","","81","","23","","13","","24.1","","99.83","","","","-20","","NA"
"2015-01-15 06:00","2015","01","15","06:00","-13.8","","-16.0","","84","","21","","13","","24.1","","99.80","","","","-21","","NA"
"2015-01-15 07:00","2015","01","15","07:00","-12.8","","-14.8","","85","","20","","17","","12.9","","99.76","","","","-21","","Mostly Cloudy"
"2015-01-15 08:00","2015","01","15","08:00","-13.5","","-15.5","","85","","20","","14","","8.1","","99.70","","","","-21","","Fog"
"2015-01-15 09:00","2015","01","15","09:00","-13.1","","-15.9","","80","","22","","17","","8.1","","99.70","","","","-21","","Haze"
"2015-01-15 10:00","2015","01","15","10:00"
"2015-01-15 11:00","2015","01","15","11:00","-10.9","","-14.8","","73","","21","","17","","11.3","","99.61","","","","-18","","NA"
"2015-01-15 12:00","2015","01","15","12:00","-8.8","","-13.0","","72","","22","","26","","11.3","","99.49","","","","-17","","NA"
"2015-01-15 13:00","2015","01","15","13:00","-7.4","","-11.3","","74","","21","","26","","11.3","","99.33","","","","-16","","Mostly Cloudy"
"2015-01-15 14:00","2015","01","15","14:00","-6.1","","-10.2","","73","","20","","28","","16.1","","99.22","","","","-14","","NA"
"2015-01-15 15:00","2015","01","15","15:00","-5.3","","-9.4","","73","","21","","27","","11.3","","99.19","","","","-13","","NA"
"2015-01-15 16:00","2015","01","15","16:00","-4.4","","-8.4","","74","","22","","28","","11.3","","99.14","","","","-12","","Mostly Cloudy"
"2015-01-15 17:00","2015","01","15","17:00","-4.1","","-8.6","","71","","22","","31","","11.3","","99.07","","","","-12","","NA"
"2015-01-15 18:00","2015","01","15","18:00","-4.5","","-8.6","","73","","22","","30","","16.1","","99.05","","","","-12","","NA"
"2015-01-15 19:00","2015","01","15","19:00","-4.6","","-8.7","","73","","23","","22","","19.3","","99.05","","","","-11","","Mainly Clear"
"2015-01-15 20:00","2015","01","15","20:00","-3.6","","-7.2","","76","","23","","28","","24.1","","99.02","","","","-11","","NA"
"2015-01-15 21:00","2015","01","15","21:00","-3.6","","-7.4","","75","","23","","27","","24.1","","98.99","","","","-11","","NA"
"2015-01-15 22:00","2015","01","15","22:00","-3.8","","-7.6","","75","","24","","28","","24.1","","98.97","","","","-11","","Mostly Cloudy"
"2015-01-15 23:00","2015","01","15","23:00","-3.9","","-7.5","","76","","24","","22","","24.1","","98.98","","","","-10","","NA"
"2015-01-16 00:00","2015","01","16","00:00","-3.3","","-6.6","","78","","25","","21","","11.3","","98.97","","","","-10","","Snow Showers"
"2015-01-16 01:00","2015","01","16","01:00","-2.8","","-6.1","","78","","24","","17","","16.1","","98.96","","","","-8","","Cloudy"
"2015-01-16 02:00","2015","01","16","02:00","-2.5","","-5.5","","80","","24","","17","","11.3","","98.97","","","","-8","","NA"
"2015-01-16 03:00","2015","01","16","03:00","-2.4","","-5.4","","80","","24","","17","","12.9","","99.05","","","","-8","","NA"
"2015-01-16 04:00","2015","01","16","04:00","-2.3","","-5.1","","81","","25","","17","","12.9","","99.09","","","","-8","","Mostly Cloudy"
"2015-01-16 05:00","2015","01","16","05:00","-3.7","","-6.0","","84","","25","","16","","11.3","","99.11","","","","-9","","NA"
"2015-01-16 06:00","2015","01","16","06:00","-4.7","","-6.5","","87","","27","","16","","11.3","","99.23","","","","-10","","NA"
"2015-01-16 07:00","2015","01","16","07:00","-3.2","","-5.2","","86","","28","","21","","11.3","","99.35","","","","-9","","Mainly Clear"
"2015-01-16 08:00","2015","01","16","08:00","-2.8","","-5.1","","84","","29","","18","","11.3","","99.43","","","","-8","","NA"
"2015-01-16 09:00","2015","01","16","09:00","-3.2","","-5.9","","82","","29","","16","","12.9","","99.59","","","","-9","","NA"
"2015-01-16 10:00","2015","01","16","10:00","-1.8","","-6.4","","71","","32","","16","","19.3","","99.72","","","","-7","","Mostly Cloudy"
"2015-01-16 11:00","2015","01","16","11:00","-2.4","","-10.7","","53","","31","","23","","24.1","","99.81","","","","-9","","NA"
"2015-01-16 12:00","2015","01","16","12:00","-2.5","","-10.8","","53","","30","","16","","24.1","","99.84","","","","-8","","NA"
"2015-01-16 13:00","2015","01","16","13:00","-3.9","","-9.0","","68","","5","","20","","24.1","","99.84","","","","-10","","Mostly Cloudy"
"2015-01-16 14:00","2015","01","16","14:00","-3.9","","-9.6","","65","","5","","21","","24.1","","99.84","","","","-10","","NA"
"2015-01-16 15:00","2015","01","16","15:00","-4.7","","-10.5","","64","","5","","18","","24.1","","99.88","","","","-11","","NA"
"2015-01-16 16:00","2015","01","16","16:00","-5.9","","-12.1","","62","","7","","21","","24.1","","99.97","","","","-13","","Mostly Cloudy"
"2015-01-16 17:00","2015","01","16","17:00","-6.0","","-12.4","","61","","6","","22","","24.1","","100.08","","","","-13","","NA"
"2015-01-16 18:00","2015","01","16","18:00","-6.4","","-13.8","","56","","3","","19","","24.1","","100.13","","","","-13","","NA"
"2015-01-16 19:00","2015","01","16","19:00","-6.9","","-12.6","","64","","7","","17","","24.1","","100.19","","","","-13","","Mostly Cloudy"
"2015-01-16 20:00","2015","01","16","20:00","-7.6","","-12.7","","67","","8","","13","","24.1","","100.22","","","","-13","","NA"
"2015-01-16 21:00","2015","01","16","21:00","-7.6","","-13.7","","62","","9","","15","","24.1","","100.22","","","","-14","","NA"
"2015-01-16 22:00","2015","01","16","22:00","-8.0","","-13.3","","66","","10","","13","","24.1","","100.20","","","","-14","","Mostly Cloudy"
"2015-01-16 23:00","2015","01","16","23:00","-8.8","","-13.5","","69","","11","","12","","24.1","","100.17","","","","-14","","NA"
"2015-01-17 00:00","2015","01","17","00:00","-9.8","","-13.4","","75","","11","","7","","24.1","","100.15","","","","-14","","NA"
"2015-01-17 01:00","2015","01","17","01:00","-11.0","","-14.4","","76","","10","","10","","24.1","","100.06","","","","-16","","Mainly Clear"
"2015-01-17 02:00","2015","01","17","02:00","-11.5","","-14.0","","82","","11","","9","","24.1","","100.02","","","","-17","","NA"
"2015-01-17 03:00","2015","01","17","03:00","-11.2","","-13.0","","87","","10","","9","","24.1","","99.97","","","","-16","","NA"
"2015-01-17 04:00","2015","01","17","04:00","-10.9","","-12.7","","87","","12","","13","","24.1","","99.89","","","","-17","","Mainly Clear"
"2015-01-17 05:00","2015","01","17","05:00","-10.3","","-12.2","","86","","12","","14","","24.1","","99.79","","","","-17","","NA"
"2015-01-17 06:00","2015","01","17","06:00","-7.0","","-9.6","","82","","13","","20","","24.1","","99.68","","","","-14","","NA"
"2015-01-17 07:00","2015","01","17","07:00","-7.0","","-9.6","","82","","14","","19","","24.1","","99.56","","","","-14","","Cloudy"
"2015-01-17 08:00","2015","01","17","08:00","-6.0","","-8.6","","82","","15","","23","","19.3","","99.40","","","","-13","","NA"
"2015-01-17 09:00","2015","01","17","09:00","-4.8","","-7.1","","84","","16","","23","","12.9","","99.27","","","","-12","","NA"
"2015-01-17 10:00","2015","01","17","10:00","-2.2","","-4.9","","82","","17","","22","","11.3","","99.17","","","","-8","","Mostly Cloudy"
"2015-01-17 11:00","2015","01","17","11:00","-0.1","","-3.5","","78","","19","","27","","11.3","","99.10","","","","-6","","NA"
"2015-01-17 12:00","2015","01","17","12:00","0.9","","-2.7","","77","","19","","31","","9.7","","98.94","","","","","","Fog,Haze"
"2015-01-17 13:00","2015","01","17","13:00","1.8","","-2.0","","76","","19","","34","","9.7","","98.72","","","","","","Haze"
"2015-01-17 14:00","2015","01","17","14:00","2.8","","-1.6","","73","","20","","32","","11.3","","98.57","","","","","","NA"
"2015-01-17 15:00","2015","01","17","15:00","3.0","","-1.2","","74","","19","","31","","12.9","","98.40","","","","","","NA"
"2015-01-17 16:00","2015","01","17","16:00","3.4","","-1.0","","73","","20","","32","","12.9","","98.35","","","","","","Mostly Cloudy"
"2015-01-17 17:00","2015","01","17","17:00","3.8","","-0.8","","72","","20","","33","","12.9","","98.32","","","","","","NA"
"2015-01-17 18:00","2015","01","17","18:00","3.0","","-0.8","","76","","21","","25","","12.9","","98.33","","","","","","NA"
"2015-01-17 19:00","2015","01","17","19:00","3.2","","-0.6","","76","","20","","29","","24.1","","98.30","","","","","","Cloudy"
"2015-01-17 20:00","2015","01","17","20:00","3.5","","-0.5","","75","","21","","33","","24.1","","98.30","","","","","","NA"
"2015-01-17 21:00","2015","01","17","21:00","3.6","","-0.4","","75","","21","","31","","24.1","","98.21","","","","","","NA"
"2015-01-17 22:00","2015","01","17","22:00","4.1","","-0.9","","70","","22","","33","","24.1","","98.15","","","","","","Cloudy"
"2015-01-17 23:00","2015","01","17","23:00","4.3","","-0.9","","69","","21","","36","","24.1","","98.10","","","","","","NA"
"2015-01-18 00:00","2015","01","18","00:00","4.1","","-0.7","","71","","22","","30","","24.1","","98.09","","","","","","NA"
"2015-01-18 01:00","2015","01","18","01:00","4.9","","-0.3","","69","","23","","32","","24.1","","98.03","","","","","","Mostly Cloudy"
"2015-01-18 02:00","2015","01","18","02:00","4.5","","-0.1","","72","","23","","34","","24.1","","98.03","","","","","","NA"
"2015-01-18 03:00","2015","01","18","03:00","3.4","","0.5","","81","","24","","28","","19.3","","98.09","","","","","","Rain"
"2015-01-18 04:00","2015","01","18","04:00","2.9","","1.1","","88","","24","","27","","16.1","","98.10","","","","","","Rain"
"2015-01-18 05:00","2015","01","18","05:00","2.3","","0.7","","89","","22","","22","","19.3","","98.12","","","","","","NA"
"2015-01-18 06:00","2015","01","18","06:00","2.2","","0.4","","88","","22","","25","","24.1","","98.16","","","","","","NA"
"2015-01-18 07:00","2015","01","18","07:00","2.0","","0.4","","89","","22","","21","","24.1","","98.21","","","","","","Cloudy"
"2015-01-18 08:00","2015","01","18","08:00","1.6","","0.1","","90","","22","","18","","16.1","","98.21","","","","","","NA"
"2015-01-18 09:00","2015","01","18","09:00","1.5","","0.2","","91","","21","","19","","12.9","","98.22","","","","","","NA"
"2015-01-18 10:00","2015","01","18","10:00","1.5","","0.6","","94","","22","","19","","4.8","","98.27","","","","","","Rain,Fog"
"2015-01-18 11:00","2015","01","18","11:00","1.7","","1.0","","95","","24","","24","","6.4","","98.30","","","","","","Rain,Fog"
"2015-01-18 12:00","2015","01","18","12:00","1.9","","0.6","","91","","26","","23","","9.7","","98.32","","","","","","Rain,Snow,Fog"
"2015-01-18 13:00","2015","01","18","13:00","2.2","","0.3","","87","","26","","22","","11.3","","98.32","","","","","","Rain"
"2015-01-18 14:00","2015","01","18","14:00","2.8","","0.0","","82","","26","","27","","16.1","","98.36","","","","","","NA"
"2015-01-18 15:00","2015","01","18","15:00","4.2","","0.4","","76","","26","","22","","19.3","","98.44","","","","","","NA"
"2015-01-18 16:00","2015","01","18","16:00","3.4","","-1.8","","69","","29","","28","","19.3","","98.52","","","","","","Mostly Cloudy"
"2015-01-18 17:00","2015","01","18","17:00","2.7","","-2.2","","70","","28","","24","","19.3","","98.63","","","","","","NA"
"2015-01-18 18:00","2015","01","18","18:00","2.2","","-2.3","","72","","27","","19","","24.1","","98.72","","","","","","NA"
"2015-01-18 19:00","2015","01","18","19:00","2.0","","-2.0","","75","","28","","14","","24.1","","98.80","","","","","","Snow"
"2015-01-18 20:00","2015","01","18","20:00","1.5","","-1.2","","82","","27","","18","","24.1","","98.84","","","","","","Snow"
"2015-01-18 21:00","2015","01","18","21:00","1.5","","-1.4","","81","","28","","19","","24.1","","98.87","","","","","","Snow"
"2015-01-18 22:00","2015","01","18","22:00","1.1","","-2.0","","80","","28","","19","","24.1","","98.93","","","","","","Snow"
"2015-01-18 23:00","2015","01","18","23:00","0.5","","-1.7","","85","","27","","13","","24.1","","98.99","","","","","","NA"
"2015-01-19 00:00","2015","01","19","00:00","0.7","","-1.9","","83","","28","","16","","24.1","","99.04","","","","","","NA"
"2015-01-19 01:00","2015","01","19","01:00","0.9","","-2.5","","78","","28","","15","","24.1","","99.04","","","","","","Cloudy"
"2015-01-19 02:00","2015","01","19","02:00","0.8","","-2.8","","77","","28","","14","","24.1","","99.08","","","","","","NA"
"2015-01-19 03:00","2015","01","19","03:00","0.8","","-2.6","","78","","27","","17","","24.1","","99.12","","","","","","Snow Showers"
"2015-01-19 04:00","2015","01","19","04:00","0.3","","-2.8","","80","","25","","13","","24.1","","99.10","","","","","","NA"
"2015-01-19 05:00","2015","01","19","05:00","0.4","","-2.3","","82","","25","","13","","24.1","","99.09","","","","","","NA"
"2015-01-19 06:00","2015","01","19","06:00","0.3","","-1.8","","86","","24","","13","","24.1","","99.11","","","","","","NA"
"2015-01-19 07:00","2015","01","19","07:00","0.9","","-1.7","","83","","28","","11","","24.1","","99.17","","","","","","Cloudy"
"2015-01-19 08:00","2015","01","19","08:00","0.9","","-1.7","","83","","28","","13","","19.3","","99.22","","","","","","NA"
"2015-01-19 09:00","2015","01","19","09:00","-0.1","","-3.0","","81","","1","","15","","24.1","","99.30","","","","-5","","NA"
"2015-01-19 10:00","2015","01","19","10:00","0.1","","-3.6","","76","","1","","10","","24.1","","99.35","","","","","","Cloudy"
"2015-01-19 11:00","2015","01","19","11:00","-0.1","","-4.4","","73","","4","","7","","24.1","","99.35","","","","-3","","NA"
"2015-01-19 12:00","2015","01","19","12:00","-0.2","","-3.6","","78","","10","","8","","24.1","","99.32","","","","-3","","NA"
"2015-01-19 13:00","2015","01","19","13:00","-0.2","","-3.6","","78","","10","","5","","24.1","","99.30","","","","-2","","Cloudy"
"2015-01-19 14:00","2015","01","19","14:00","-0.1","","-3.5","","78","","8","","5","","24.1","","99.23","","","","-2","","NA"
"2015-01-19 15:00","2015","01","19","15:00","-0.5","","-3.9","","78","","9","","8","","24.1","","99.20","","","","-3","","NA"
"2015-01-19 16:00","2015","01","19","16:00","-0.7","","-4.2","","77","","8","","12","","24.1","","99.20","","","","-5","","Cloudy"
"2015-01-19 17:00","2015","01","19","17:00","-1.2","","-5.3","","74","","6","","10","","24.1","","99.22","","","","-5","","NA"
"2015-01-19 18:00","2015","01","19","18:00","-1.4","","-5.1","","76","","7","","13","","24.1","","99.23","","","","-6","","NA"
"2015-01-19 19:00","2015","01","19","19:00","-1.5","","-5.2","","76","","6","","12","","24.1","","99.24","","","","-6","","Cloudy"
"2015-01-19 20:00","2015","01","19","20:00","-1.5","","-5.2","","76","","5","","8","","24.1","","99.27","","","","-5","","NA"
"2015-01-19 21:00","2015","01","19","21:00","-1.7","","-4.2","","83","","8","","15","","24.1","","99.26","","","","-7","","NA"
"2015-01-19 22:00","2015","01","19","22:00","-2.2","","-5.0","","81","","8","","16","","24.1","","99.23","","","","-7","","Cloudy"
"2015-01-19 23:00","2015","01","19","23:00","-2.3","","-4.8","","83","","8","","11","","24.1","","99.23","","","","-6","","NA"
"2015-01-20 00:00","2015","01","20","00:00","-2.4","","-5.1","","82","","10","","10","","24.1","","99.19","","","","-6","","NA"
"2015-01-20 01:00","2015","01","20","01:00","-2.4","","-4.7","","84","","9","","10","","24.1","","99.14","","","","-6","","Cloudy"
"2015-01-20 02:00","2015","01","20","02:00","-2.4","","-4.7","","84","","7","","7","","24.1","","99.15","","","","-5","","NA"
"2015-01-20 03:00","2015","01","20","03:00","-2.6","","-4.8","","85","","7","","8","","24.1","","99.15","","","","-6","","Snow"
"2015-01-20 04:00","2015","01","20","04:00","-2.6","","-4.9","","84","","10","","10","","24.1","","99.09","","","","-6","","Snow"
"2015-01-20 05:00","2015","01","20","05:00","-2.8","","-4.7","","87","","6","","12","","24.1","","99.04","","","","-7","","Snow"
"2015-01-20 06:00","2015","01","20","06:00","-2.9","","-4.9","","86","","6","","13","","24.1","","99.07","","","","-8","","Snow"
"2015-01-20 07:00","2015","01","20","07:00","-3.0","","-5.0","","86","","6","","14","","24.1","","99.10","","","","-8","","Snow"
"2015-01-20 08:00","2015","01","20","08:00","-3.2","","-5.1","","87","","6","","16","","11.3","","99.13","","","","-9","","Snow"
"2015-01-20 09:00","2015","01","20","09:00","-3.1","","-5.1","","86","","5","","16","","16.1","","99.19","","","","-8","","Snow"
"2015-01-20 10:00","2015","01","20","10:00","-3.2","","-4.6","","90","","6","","13","","1.2","","99.27","","","","-8","","Snow"
"2015-01-20 11:00","2015","01","20","11:00","-2.7","","-4.3","","89","","6","","10","","9.7","","99.33","","","","-7","","Snow"
"2015-01-20 12:00","2015","01","20","12:00","-2.5","","-4.1","","89","","7","","8","","24.1","","99.31","","","","-6","","Snow"
"2015-01-20 13:00","2015","01","20","13:00","-2.5","","-4.4","","87","","10","","8","","4.0","","99.28","","","","-6","","Snow"
"2015-01-20 14:00","2015","01","20","14:00","-2.1","","-4.1","","86","","8","","9","","9.7","","99.26","","","","-6","","Snow"
"2015-01-20 15:00","2015","01","20","15:00","-2.0","","-4.0","","86","","6","","13","","11.3","","99.29","","","","-6","","Snow"
"2015-01-20 16:00","2015","01","20","16:00","-2.4","","-4.3","","87","","6","","14","","12.9","","99.31","","","","-7","","Mostly Cloudy"
"2015-01-20 17:00","2015","01","20","17:00","-3.9","","-5.5","","89","","8","","13","","16.1","","99.38","","","","-9","","NA"
"2015-01-20 18:00","2015","01","20","18:00","-5.0","","-6.4","","90","","8","","10","","19.3","","99.43","","","","-9","","NA"
"2015-01-20 19:00","2015","01","20","19:00","-5.3","","-6.8","","89","","7","","11","","19.3","","99.51","","","","-10","","Cloudy"
"2015-01-20 20:00","2015","01","20","20:00","-5.8","","-7.3","","89","","9","","11","","24.1","","99.53","","","","-11","","NA"
"2015-01-20 21:00","2015","01","20","21:00","-5.5","","-6.9","","90","","12","","11","","24.1","","99.51","","","","-10","","NA"
"2015-01-20 22:00","2015","01","20","22:00","-6.4","","-7.8","","90","","17","","7","","24.1","","99.54","","","","-10","","Cloudy"
"2015-01-20 23:00","2015","01","20","23:00","-6.1","","-7.6","","89","","9","","8","","24.1","","99.54","","","","-10","","NA"
"2015-01-21 00:00","2015","01","21","00:00","-5.9","","-7.4","","89","","8","","12","","24.1","","99.53","","","","-11","","NA"
"2015-01-21 01:00","2015","01","21","01:00","-5.0","","-7.0","","86","","8","","13","","24.1","","99.52","","","","-10","","Cloudy"
"2015-01-21 02:00","2015","01","21","02:00","-5.0","","-7.3","","84","","9","","13","","24.1","","99.48","","","","-10","","NA"
"2015-01-21 03:00","2015","01","21","03:00","-4.9","","-8.0","","79","","10","","16","","24.1","","99.51","","","","-11","","NA"
"2015-01-21 04:00","2015","01","21","04:00","-4.9","","-8.0","","79","","8","","17","","24.1","","99.47","","","","-11","","Cloudy"
"2015-01-21 05:00","2015","01","21","05:00","-4.9","","-7.7","","81","","8","","13","","24.1","","99.44","","","","-10","","NA"
"2015-01-21 06:00","2015","01","21","06:00","-5.1","","-7.4","","84","","6","","17","","24.1","","99.41","","","","-11","","NA"
"2015-01-21 07:00","2015","01","21","07:00","-5.2","","-7.5","","84","","8","","17","","24.1","","99.45","","","","-11","","Snow"
"2015-01-21 08:00","2015","01","21","08:00","-5.6","","-7.1","","89","","6","","14","","1.2","","99.44","","","","-11","","Snow"
"2015-01-21 09:00","2015","01","21","09:00","-5.6","","-7.1","","89","","6","","21","","1.6","","99.44","","","","-12","","Snow,Blowing Snow"
"2015-01-21 10:00","2015","01","21","10:00","-5.5","","-7.0","","89","","5","","22","","1.6","","99.42","","","","-13","","Snow,Blowing Snow"
"2015-01-21 11:00","2015","01","21","11:00","-5.7","","-7.4","","88","","6","","20","","1.0","","99.48","","","","-12","","Snow,Blowing Snow"
"2015-01-21 12:00","2015","01","21","12:00","-5.4","","-6.9","","89","","5","","16","","1.2","","99.45","","","","-11","","Snow,Blowing Snow"
"2015-01-21 13:00","2015","01","21","13:00","-5.3","","-7.1","","87","","4","","14","","2.4","","99.43","","","","-11","","Snow,Blowing Snow"
"2015-01-21 14:00","2015","01","21","14:00","-5.3","","-6.8","","89","","2","","15","","2.0","","99.42","","","","-11","","Snow"
"2015-01-21 15:00","2015","01","21","15:00","-5.1","","-6.5","","90","","3","","10","","2.4","","99.45","","","","-9","","Snow"
"2015-01-21 16:00","2015","01","21","16:00","-5.0","","-6.4","","90","","3","","14","","1.0","","99.52","","","","-10","","Moderate Snow"
"2015-01-21 17:00","2015","01","21","17:00","-4.7","","-5.8","","92","","4","","10","","0.4","","99.57","","","","-9","","Heavy Snow"
"2015-01-21 18:00","2015","01","21","18:00","-4.7","","-5.7","","93","","4","","8","","1.6","","99.64","","","","-8","","Snow"
"2015-01-21 19:00","2015","01","21","19:00","-4.8","","-5.9","","92","","3","","11","","4.8","","99.70","","","","-9","","Snow"
"2015-01-21 20:00","2015","01","21","20:00","-4.8","","-6.2","","90","","2","","9","","11.3","","99.75","","","","-9","","Snow"
"2015-01-21 21:00","2015","01","21","21:00","-4.7","","-6.2","","89","","3","","7","","16.1","","99.79","","","","-8","","Snow"
"2015-01-21 22:00","2015","01","21","22:00","-4.4","","-6.3","","87","","34","","7","","16.1","","99.84","","","","-8","","Snow"
"2015-01-21 23:00","2015","01","21","23:00","-4.2","","-6.1","","87","","32","","5","","16.1","","99.88","","","","-6","","Snow"
"2015-01-22 00:00","2015","01","22","00:00","-4.2","","-7.3","","79","","33","","10","","12.9","","99.91","","","","-8","","NA"
"2015-01-22 01:00","2015","01","22","01:00","-4.1","","-6.9","","81","","33","","10","","12.9","","99.96","","","","-8","","Cloudy"
"2015-01-22 02:00","2015","01","22","02:00","-4.0","","-6.3","","84","","35","","7","","12.9","","100.00","","","","-7","","NA"
"2015-01-22 03:00","2015","01","22","03:00","-4.0","","-6.2","","85","","35","","8","","9.7","","100.06","","","","-7","","Fog,Haze"
"2015-01-22 04:00","2015","01","22","04:00","-4.1","","-6.1","","86","","35","","10","","9.7","","100.09","","","","-8","","Fog"
"2015-01-22 05:00","2015","01","22","05:00","-4.6","","-7.1","","83","","34","","11","","12.9","","100.16","","","","-9","","NA"
"2015-01-22 06:00","2015","01","22","06:00","-4.6","","-8.0","","77","","34","","15","","16.1","","100.23","","","","-10","","NA"
"2015-01-22 07:00","2015","01","22","07:00","-4.6","","-7.9","","78","","33","","10","","16.1","","100.34","","","","-9","","Cloudy"
"2015-01-22 08:00","2015","01","22","08:00","-4.5","","-7.9","","77","","32","","10","","19.3","","100.44","","","","-9","","NA"
"2015-01-22 09:00","2015","01","22","09:00","-4.2","","-8.0","","75","","32","","13","","19.3","","100.54","","","","-9","","Snow"
"2015-01-22 10:00","2015","01","22","10:00","-4.0","","-7.8","","75","","32","","10","","16.1","","100.60","","","","-8","","Snow"
"2015-01-22 11:00","2015","01","22","11:00","-3.3","","-7.7","","72","","30","","8","","19.3","","100.65","","","","-7","","Snow"
"2015-01-22 12:00","2015","01","22","12:00","-2.8","","-7.5","","70","","25","","10","","24.1","","100.58","","","","-7","","NA"
"2015-01-22 13:00","2015","01","22","13:00","-2.4","","-6.8","","72","","27","","15","","24.1","","100.56","","","","-7","","Mostly Cloudy"
"2015-01-22 14:00","2015","01","22","14:00","-2.2","","-6.1","","75","","29","","14","","24.1","","100.56","","","","-7","","NA"
"2015-01-22 15:00","2015","01","22","15:00","-2.2","","-6.4","","73","","28","","16","","24.1","","100.60","","","","-7","","NA"
"2015-01-22 16:00","2015","01","22","16:00","-2.1","","-6.1","","74","","28","","18","","24.1","","100.66","","","","-8","","Cloudy"
"2015-01-22 17:00","2015","01","22","17:00","-2.5","","-6.3","","75","","27","","15","","24.1","","100.73","","","","-7","","NA"
"2015-01-22 18:00","2015","01","22","18:00","-2.8","","-6.8","","74","","28","","13","","24.1","","100.72","","","","-7","","NA"
"2015-01-22 19:00","2015","01","22","19:00","-4.2","","-7.3","","79","","24","","8","","24.1","","100.69","","","","-8","","Mainly Clear"
"2015-01-22 20:00","2015","01","22","20:00","-5.4","","-7.9","","83","","22","","8","","24.1","","100.71","","","","-9","","NA"
"2015-01-22 21:00","2015","01","22","21:00","-4.7","","-7.3","","82","","22","","14","","24.1","","100.75","","","","-10","","NA"
"2015-01-22 22:00","2015","01","22","22:00","-4.3","","-7.4","","79","","28","","6","","24.1","","100.68","","","","-7","","Cloudy"
"2015-01-22 23:00","2015","01","22","23:00","-4.4","","-7.7","","78","","22","","14","","24.1","","100.63","","","","-10","","NA"
"2015-01-23 00:00","2015","01","23","00:00","-5.4","","-8.5","","79","","20","","13","","24.1","","100.55","","","","-11","","NA"
"2015-01-23 01:00","2015","01","23","01:00","-7.2","","-9.3","","85","","20","","12","","24.1","","100.51","","","","-13","","Mainly Clear"
"2015-01-23 02:00","2015","01","23","02:00","-7.9","","-10.0","","85","","21","","14","","24.1","","100.46","","","","-14","","NA"
"2015-01-23 03:00","2015","01","23","03:00","-5.1","","-7.9","","81","","22","","15","","24.1","","100.43","","","","-11","","NA"
"2015-01-23 04:00","2015","01","23","04:00","-3.8","","-6.8","","80","","23","","13","","24.1","","100.34","","","","-9","","Mostly Cloudy"
"2015-01-23 05:00","2015","01","23","05:00","-2.6","","-6.3","","76","","23","","18","","24.1","","100.30","","","","-8","","NA"
"2015-01-23 06:00","2015","01","23","06:00","-2.8","","-6.3","","77","","23","","21","","24.1","","100.25","","","","-9","","NA"
"2015-01-23 07:00","2015","01","23","07:00","-2.8","","-6.1","","78","","23","","22","","24.1","","100.19","","","","-9","","Mostly Cloudy"
"2015-01-23 08:00","2015","01","23","08:00","-3.0","","-6.3","","78","","23","","32","","19.3","","100.12","","","","-11","","NA"
"2015-01-23 09:00","2015","01","23","09:00","-2.9","","-5.9","","80","","23","","24","","19.3","","100.07","","","","-10","","NA"
"2015-01-23 10:00","2015","01","23","10:00","-2.8","","-6.0","","79","","24","","29","","19.3","","100.00","","","","-10","","Mostly Cloudy"
"2015-01-23 11:00","2015","01","23","11:00","-2.4","","-5.9","","77","","23","","27","","16.1","","99.96","","","","-9","","NA"
"2015-01-23 12:00","2015","01","23","12:00","-2.1","","-5.8","","76","","23","","30","","16.1","","99.84","","","","-9","","NA"
"2015-01-23 13:00","2015","01","23","13:00","-1.6","","-5.5","","75","","21","","27","","16.1","","99.65","","","","-8","","Mostly Cloudy"
"2015-01-23 14:00","2015","01","23","14:00","-1.6","","-5.5","","75","","23","","28","","16.1","","99.56","","","","-8","","NA"
"2015-01-23 15:00","2015","01","23","15:00","-1.5","","-5.4","","75","","24","","27","","16.1","","99.46","","","","-8","","NA"
"2015-01-23 16:00","2015","01","23","16:00","-2.0","","-5.5","","77","","23","","30","","19.3","","99.40","","","","-9","","Mainly Clear"
"2015-01-23 17:00","2015","01","23","17:00","-2.6","","-5.4","","81","","22","","22","","19.3","","99.34","","","","-9","","NA"
"2015-01-23 18:00","2015","01","23","18:00","-2.9","","-5.9","","80","","23","","23","","19.3","","99.29","","","","-9","","NA"
"2015-01-23 19:00","2015","01","23","19:00","-2.5","","-5.5","","80","","23","","27","","19.3","","99.19","","","","-9","","Cloudy"
"2015-01-23 20:00","2015","01","23","20:00","-4.3","","-6.9","","82","","21","","18","","24.1","","99.09","","","","-10","","NA"
"2015-01-23 21:00","2015","01","23","21:00","-2.9","","-5.7","","81","","22","","17","","24.1","","99.06","","","","-8","","NA"
"2015-01-23 22:00","2015","01","23","22:00","-3.5","","-6.6","","79","","23","","18","","24.1","","98.93","","","","-9","","Mostly Cloudy"
"2015-01-23 23:00","2015","01","23","23:00","-4.0","","-6.3","","84","","21","","17","","24.1","","98.80","","","","-10","","NA"
"2015-01-24 00:00","2015","01","24","00:00","-6.1","","-8.1","","86","","24","","14","","19.3","","98.66","","","","-12","","NA"
"2015-01-24 01:00","2015","01","24","01:00","-6.8","","-8.2","","90","","26","","11","","19.3","","98.58","","","","-12","","Mostly Cloudy"
"2015-01-24 02:00","2015","01","24","02:00","-3.6","","-5.9","","84","","26","","21","","16.1","","98.54","","","","-10","","NA"
"2015-01-24 03:00","2015","01","24","03:00","-4.5","","-6.5","","86","","24","","13","","12.9","","98.48","","","","-10","","NA"
"2015-01-24 04:00","2015","01","24","04:00","-4.0","","-6.0","","86","","22","","14","","12.9","","98.38","","","","-9","","Cloudy"
"2015-01-24 05:00","2015","01","24","05:00","-3.6","","-5.6","","86","","24","","16","","11.3","","98.30","","","","-9","","NA"
"2015-01-24 06:00","2015","01","24","06:00","-3.3","","-5.5","","85","","23","","16","","12.9","","98.28","","","","-9","","NA"
"2015-01-24 07:00","2015","01","24","07:00","-3.1","","-5.1","","86","","23","","16","","11.3","","98.25","","","","-8","","Snow"
"2015-01-24 08:00","2015","01","24","08:00","-2.9","","-4.9","","86","","22","","16","","9.7","","98.20","","","","-8","","Fog"
"2015-01-24 09:00","2015","01","24","09:00","-2.6","","-4.6","","86","","23","","17","","9.7","","98.18","","","","-8","","Fog"
"2015-01-24 10:00","2015","01","24","10:00","-2.2","","-4.4","","85","","22","","19","","9.7","","98.12","","","","-8","","Haze"
"2015-01-24 11:00","2015","01","24","11:00","-1.8","","-4.2","","84","","23","","23","","9.7","","98.11","","","","-8","","Haze"
"2015-01-24 12:00","2015","01","24","12:00","-1.3","","-3.7","","84","","24","","17","","9.7","","98.02","","","","-6","","Haze"
"2015-01-24 13:00","2015","01","24","13:00","-0.8","","-3.0","","85","","24","","22","","9.7","","97.92","","","","-7","","Haze"
"2015-01-24 14:00","2015","01","24","14:00","-0.3","","-2.7","","84","","24","","19","","9.7","","97.83","","","","-5","","Haze"
"2015-01-24 15:00","2015","01","24","15:00","0.1","","-2.3","","84","","25","","17","","9.7","","97.83","","","","","","Haze"
"2015-01-24 16:00","2015","01","24","16:00","0.6","","-1.8","","84","","25","","19","","6.4","","97.86","","","","","","Fog"
"2015-01-24 17:00","2015","01","24","17:00","0.7","","-1.7","","84","","25","","16","","9.7","","97.92","","","","","","Fog"
"2015-01-24 18:00","2015","01","24","18:00","0.4","","-1.7","","86","","23","","19","","9.7","","97.97","","","","","","Fog"
"2015-01-24 19:00","2015","01","24","19:00","0.7","","-1.4","","86","","23","","21","","11.3","","98.04","","","","","","Cloudy"
"2015-01-24 20:00","2015","01","24","20:00","0.6","","-1.2","","88","","23","","14","","12.9","","98.10","","","","","","NA"
"2015-01-24 21:00","2015","01","24","21:00","1.5","","-0.8","","85","","24","","20","","12.9","","98.15","","","","","","Snow"
"2015-01-24 22:00","2015","01","24","22:00","1.4","","-0.5","","87","","25","","19","","19.3","","98.18","","","","","","Cloudy"
"2015-01-24 23:00","2015","01","24","23:00","1.1","","-0.8","","87","","25","","16","","24.1","","98.20","","","","","","NA"
"2015-01-25 00:00","2015","01","25","00:00","1.1","","-0.4","","90","","25","","13","","19.3","","98.24","","","","","","NA"
"2015-01-25 01:00","2015","01","25","01:00","0.4","","-0.6","","93","","24","","13","","16.1","","98.24","","","","","","Mostly Cloudy"
"2015-01-25 02:00","2015","01","25","02:00","1.0","","0.0","","93","","24","","15","","11.3","","98.29","","","","","","NA"
"2015-01-25 03:00","2015","01","25","03:00","0.7","","-0.2","","94","","26","","9","","11.3","","98.35","","","","","","Snow"
"2015-01-25 04:00","2015","01","25","04:00","0.3","","-1.8","","86","","4","","22","","11.3","","98.40","","","","","","Snow"
"2015-01-25 05:00","2015","01","25","05:00","-1.4","","-2.8","","90","","5","","21","","19.3","","98.51","","","","-7","","Snow"
"2015-01-25 06:00","2015","01","25","06:00","-2.6","","-4.6","","86","","5","","25","","12.9","","98.57","","","","-9","","Snow"
"2015-01-25 07:00","2015","01","25","07:00","-3.3","","-6.1","","81","","3","","25","","16.1","","98.71","","","","-10","","Snow"
"2015-01-25 08:00","2015","01","25","08:00","-4.0","","-7.5","","77","","3","","32","","24.1","","98.78","","","","-12","","NA"
"2015-01-25 09:00","2015","01","25","09:00","-4.1","","-8.3","","73","","4","","34","","24.1","","98.86","","","","-12","","NA"
"2015-01-25 10:00","2015","01","25","10:00","-4.1","","-8.1","","74","","4","","28","","24.1","","98.94","","","","-12","","Cloudy"
"2015-01-25 11:00","2015","01","25","11:00","-4.4","","-8.0","","76","","6","","30","","24.1","","99.01","","","","-12","","NA"
"2015-01-25 12:00","2015","01","25","12:00","-5.4","","-8.7","","78","","7","","27","","24.1","","99.04","","","","-13","","NA"
"2015-01-25 13:00","2015","01","25","13:00","-5.8","","-9.0","","78","","7","","23","","24.1","","99.01","","","","-13","","Cloudy"
"2015-01-25 14:00","2015","01","25","14:00","-5.7","","-9.3","","76","","7","","23","","24.1","","98.98","","","","-13","","NA"
"2015-01-25 15:00","2015","01","25","15:00","-5.9","","-10.3","","71","","7","","26","","24.1","","98.98","","","","-14","","NA"
"2015-01-25 16:00","2015","01","25","16:00","-6.2","","-11.6","","66","","6","","24","","24.1","","99.05","","","","-14","","Mostly Cloudy"
"2015-01-25 17:00","2015","01","25","17:00","-6.9","","-13.6","","59","","4","","30","","24.1","","99.10","","","","-15","","NA"
"2015-01-25 18:00","2015","01","25","18:00","-7.4","","-12.5","","67","","5","","27","","24.1","","99.15","","","","-16","","NA"
"2015-01-25 19:00","2015","01","25","19:00","-7.9","","-12.6","","69","","5","","25","","24.1","","99.20","","","","-16","","Cloudy"
"2015-01-25 20:00","2015","01","25","20:00","-8.4","","-13.5","","67","","5","","27","","24.1","","99.23","","","","-17","","NA"
"2015-01-25 21:00","2015","01","25","21:00","-8.4","","-14.1","","64","","5","","28","","24.1","","99.24","","","","-17","","NA"
"2015-01-25 22:00","2015","01","25","22:00","-8.4","","-14.5","","62","","5","","28","","24.1","","99.24","","","","-17","","Cloudy"
"2015-01-25 23:00","2015","01","25","23:00","-8.7","","-14.5","","63","","5","","23","","24.1","","99.25","","","","-17","","NA"
"2015-01-26 00:00","2015","01","26","00:00","-9.0","","-14.8","","63","","4","","23","","24.1","","99.26","","","","-17","","NA"
"2015-01-26 01:00","2015","01","26","01:00","-9.4","","-15.2","","63","","4","","22","","24.1","","99.24","","","","-17","","Cloudy"
"2015-01-26 02:00","2015","01","26","02:00","-9.7","","-14.7","","67","","4","","24","","24.1","","99.18","","","","-18","","NA"
"2015-01-26 03:00","2015","01","26","03:00","-10.3","","-15.0","","69","","3","","21","","24.1","","99.15","","","","-18","","NA"
"2015-01-26 04:00","2015","01","26","04:00","-10.6","","-15.1","","70","","3","","20","","24.1","","99.10","","","","-19","","Cloudy"
"2015-01-26 05:00","2015","01","26","05:00","-11.5","","-15.8","","71","","2","","15","","24.1","","99.09","","","","-19","","NA"
"2015-01-26 06:00","2015","01","26","06:00","-12.0","","-15.9","","73","","2","","14","","24.1","","99.05","","","","-19","","NA"
"2015-01-26 07:00","2015","01","26","07:00","-12.0","","-15.7","","74","","2","","17","","24.1","","99.06","","","","-20","","Mainly Clear"
"2015-01-26 08:00","2015","01","26","08:00","-11.5","","-14.6","","78","","2","","21","","24.1","","99.08","","","","-20","","NA"
"2015-01-26 09:00","2015","01","26","09:00","-10.3","","-14.4","","72","","3","","18","","24.1","","99.14","","","","-18","","NA"
"2015-01-26 10:00","2015","01","26","10:00","-9.2","","-14.1","","68","","2","","18","","24.1","","99.16","","","","-16","","Mostly Cloudy"
"2015-01-26 11:00","2015","01","26","11:00","-8.5","","-13.2","","69","","4","","20","","24.1","","99.17","","","","-16","","NA"
"2015-01-26 12:00","2015","01","26","12:00","-7.8","","-12.9","","67","","3","","22","","24.1","","99.10","","","","-15","","NA"
"2015-01-26 13:00","2015","01","26","13:00","-7.1","","-12.8","","64","","1","","22","","24.1","","99.04","","","","-15","","Mostly Cloudy"
"2015-01-26 14:00","2015","01","26","14:00","-6.1","","-13.1","","58","","4","","16","","24.1","","98.98","","","","-12","","NA"
"2015-01-26 15:00","2015","01","26","15:00","-5.9","","-11.9","","63","","4","","13","","24.1","","98.98","","","","-11","","NA"
"2015-01-26 16:00","2015","01","26","16:00","-7.1","","-12.2","","67","","7","","12","","24.1","","99.01","","","","-12","","Mostly Cloudy"
"2015-01-26 17:00","2015","01","26","17:00","-8.6","","-13.7","","67","","10","","12","","24.1","","99.05","","","","-14","","NA"
"2015-01-26 18:00","2015","01","26","18:00","-9.9","","-14.0","","72","","9","","9","","24.1","","99.11","","","","-15","","NA"
"2015-01-26 19:00","2015","01","26","19:00","-10.1","","-13.2","","78","","10","","9","","24.1","","99.16","","","","-15","","Clear"
"2015-01-26 20:00","2015","01","26","20:00","-11.2","","-13.5","","83","","3","","5","","24.1","","99.20","","","","-14","","NA"
"2015-01-26 21:00","2015","01","26","21:00","-9.3","","-12.0","","81","","2","","10","","24.1","","99.23","","","","-14","","NA"
"2015-01-26 22:00","2015","01","26","22:00","-9.1","","-12.1","","79","","2","","8","","24.1","","99.26","","","","-13","","Snow"
"2015-01-26 23:00","2015","01","26","23:00","-8.9","","-11.3","","83","","4","","9","","24.1","","99.24","","","","-14","","Snow"
"2015-01-27 00:00","2015","01","27","00:00","-10.1","","-12.5","","83","","5","","10","","24.1","","99.23","","","","-15","","Snow"
"2015-01-27 01:00","2015","01","27","01:00","-10.7","","-13.1","","83","","3","","8","","24.1","","99.23","","","","-15","","Mainly Clear"
"2015-01-27 02:00","2015","01","27","02:00","-10.8","","-13.3","","82","","2","","12","","24.1","","99.25","","","","-17","","NA"
"2015-01-27 03:00","2015","01","27","03:00","-11.7","","-14.5","","80","","2","","7","","24.1","","99.27","","","","-16","","NA"
"2015-01-27 04:00","2015","01","27","04:00","-11.6","","-14.7","","78","","36","","11","","24.1","","99.28","","","","-18","","Mainly Clear"
"2015-01-27 05:00","2015","01","27","05:00","-12.1","","-14.7","","81","","3","","9","","24.1","","99.31","","","","-17","","NA"
"2015-01-27 06:00","2015","01","27","06:00","-10.9","","-13.4","","82","","2","","12","","24.1","","99.38","","","","-17","","NA"
"2015-01-27 07:00","2015","01","27","07:00","-11.0","","-13.2","","84","","35","","5","","24.1","","99.46","","","","-14","","Mainly Clear"
"2015-01-27 08:00","2015","01","27","08:00","-11.4","","-13.6","","84","","34","","9","","24.1","","99.53","","","","-17","","NA"
"2015-01-27 09:00","2015","01","27","09:00","-9.4","","-12.6","","78","","35","","12","","24.1","","99.61","","","","-15","","NA"
"2015-01-27 10:00","2015","01","27","10:00","-7.9","","-12.6","","69","","1","","13","","24.1","","99.64","","","","-14","","Mainly Clear"
"2015-01-27 11:00","2015","01","27","11:00","-6.7","","-11.9","","67","","3","","22","","24.1","","99.68","","","","-14","","NA"
"2015-01-27 12:00","2015","01","27","12:00","-5.2","","-10.4","","67","","3","","15","","24.1","","99.68","","","","-11","","NA"
"2015-01-27 13:00","2015","01","27","13:00","-5.2","","-11.4","","62","","1","","19","","24.1","","99.65","","","","-12","","Mostly Cloudy"
"2015-01-27 14:00","2015","01","27","14:00","-4.7","","-11.1","","61","","34","","19","","24.1","","99.63","","","","-11","","NA"
"2015-01-27 15:00","2015","01","27","15:00","-3.9","","-10.8","","59","","34","","16","","24.1","","99.67","","","","-9","","NA"
"2015-01-27 16:00","2015","01","27","16:00","-3.7","","-12.2","","52","","34","","16","","24.1","","99.73","","","","-9","","Clear"
"2015-01-27 17:00","2015","01","27","17:00","-4.1","","-11.9","","55","","36","","15","","24.1","","99.80","","","","-9","","NA"
"2015-01-27 18:00","2015","01","27","18:00","-5.4","","-12.2","","59","","1","","15","","24.1","","99.87","","","","-11","","NA"
"2015-01-27 19:00","2015","01","27","19:00","-5.9","","-11.9","","63","","1","","16","","24.1","","99.96","","","","-12","","Clear"
"2015-01-27 20:00","2015","01","27","20:00","-6.6","","-12.0","","66","","36","","16","","24.1","","100.02","","","","-13","","NA"
"2015-01-27 21:00","2015","01","27","21:00","-7.4","","-12.2","","69","","34","","13","","24.1","","100.03","","","","-13","","NA"
"2015-01-27 22:00","2015","01","27","22:00","-7.7","","-12.4","","69","","33","","13","","24.1","","100.03","","","","-13","","Clear"
"2015-01-27 23:00","2015","01","27","23:00","-8.2","","-12.4","","72","","34","","11","","24.1","","100.01","","","","-13","","NA"
"2015-01-28 00:00","2015","01","28","00:00","-8.8","","-12.6","","74","","32","","11","","24.1","","100.05","","","","-14","","NA"
"2015-01-28 01:00","2015","01","28","01:00","-8.8","","-12.6","","74","","32","","13","","24.1","","100.09","","","","-15","","Clear"
"2015-01-28 02:00","2015","01","28","02:00","-8.8","","-12.6","","74","","32","","12","","24.1","","100.11","","","","-14","","NA"
"2015-01-28 03:00","2015","01","28","03:00","-10.7","","-13.4","","81","","35","","3","","24.1","","100.13","","","","-13","","NA"
"2015-01-28 04:00","2015","01","28","04:00","-14.8","","-16.7","","86","","20","","5","","24.1","","100.17","","","","-18","","Mainly Clear"
"2015-01-28 05:00","2015","01","28","05:00","-11.8","","-13.3","","89","","25","","8","","24.1","","100.26","","","","-17","","NA"
"2015-01-28 06:00","2015","01","28","06:00","-12.8","","-14.7","","86","","28","","10","","24.1","","100.36","","","","-19","","NA"
"2015-01-28 07:00","2015","01","28","07:00","-13.4","","-15.1","","87","","29","","9","","24.1","","100.45","","","","-19","","Mainly Clear"
"2015-01-28 08:00","2015","01","28","08:00","-11.9","","-13.6","","87","","28","","4","","24.1","","100.48","","","","-14","","NA"
"2015-01-28 09:00","2015","01","28","09:00","-14.9","","-16.6","","87","","15","","4","","24.1","","100.52","","","","-18","","NA"
"2015-01-28 10:00","2015","01","28","10:00","-11.3","","-13.5","","84","","14","","6","","24.1","","100.51","","","","-15","","Mainly Clear"
"2015-01-28 11:00","2015","01","28","11:00","-7.8","","-11.7","","74","","16","","7","","24.1","","100.51","","","","-11","","NA"
"2015-01-28 12:00","2015","01","28","12:00","-5.9","","-11.1","","67","","15","","9","","24.1","","100.46","","","","-10","","NA"
"2015-01-28 13:00","2015","01","28","13:00","-4.8","","-11.0","","62","","19","","14","","24.1","","100.43","","","","-10","","Mainly Clear"
"2015-01-28 14:00","2015","01","28","14:00","-4.7","","-10.7","","63","","20","","22","","24.1","","100.36","","","","-12","","NA"
"2015-01-28 15:00","2015","01","28","15:00","-4.9","","-10.7","","64","","18","","18","","24.1","","100.30","","","","-11","","NA"
"2015-01-28 16:00","2015","01","28","16:00","-5.7","","-10.7","","68","","19","","17","","24.1","","100.29","","","","-12","","Mostly Cloudy"
"2015-01-28 17:00","2015","01","28","17:00","-6.1","","-10.0","","74","","18","","15","","24.1","","100.22","","","","-12","","NA"
"2015-01-28 18:00","2015","01","28","18:00","-6.6","","-9.8","","78","","18","","10","","24.1","","100.22","","","","-11","","NA"
"2015-01-28 19:00","2015","01","28","19:00","-6.1","","-9.5","","77","","17","","11","","24.1","","100.22","","","","-11","","Cloudy"
"2015-01-28 20:00","2015","01","28","20:00","-6.8","","-9.5","","81","","15","","10","","24.1","","100.17","","","","-11","","NA"
"2015-01-28 21:00","2015","01","28","21:00","-5.8","","-9.6","","75","","16","","14","","24.1","","100.08","","","","-11","","NA"
"2015-01-28 22:00","2015","01","28","22:00","-5.7","","-9.3","","76","","16","","16","","24.1","","99.97","","","","-12","","Cloudy"
"2015-01-28 23:00","2015","01","28","23:00","-5.5","","-8.9","","77","","16","","15","","24.1","","99.87","","","","-11","","NA"
"2015-01-29 00:00","2015","01","29","00:00","-4.9","","-9.2","","72","","15","","18","","24.1","","99.77","","","","-11","","NA"
"2015-01-29 01:00","2015","01","29","01:00","-4.2","","-9.3","","68","","16","","22","","24.1","","99.67","","","","-11","","Cloudy"
"2015-01-29 02:00","2015","01","29","02:00","-3.8","","-9.1","","67","","16","","20","","24.1","","99.55","","","","-10","","NA"
"2015-01-29 03:00","2015","01","29","03:00","-3.6","","-8.3","","70","","15","","22","","24.1","","99.43","","","","-10","","NA"
"2015-01-29 04:00","2015","01","29","04:00","-3.0","","-7.5","","71","","15","","23","","24.1","","99.29","","","","-9","","Cloudy"
"2015-01-29 05:00","2015","01","29","05:00","-2.7","","-7.1","","72","","14","","21","","24.1","","99.11","","","","-9","","NA"
"2015-01-29 06:00","2015","01","29","06:00","-2.2","","-7.5","","67","","16","","17","","16.1","","98.99","","","","-8","","Freezing Rain,Snow"
"2015-01-29 07:00","2015","01","29","07:00","-1.9","","-6.9","","69","","15","","18","","24.1","","98.85","","","","-7","","Cloudy"
"2015-01-29 08:00","2015","01","29","08:00","-1.7","","-5.7","","74","","15","","18","","24.1","","98.71","","","","-7","","NA"
"2015-01-29 09:00","2015","01","29","09:00","-1.4","","-4.9","","77","","16","","9","","24.1","","98.64","","","","-5","","NA"
"2015-01-29 10:00","2015","01","29","10:00","-0.6","","-4.3","","76","","17","","12","","24.1","","98.57","","","","-5","","Cloudy"
"2015-01-29 11:00","2015","01","29","11:00","1.0","","-2.6","","77","","20","","19","","24.1","","98.48","","","","","","NA"
"2015-01-29 12:00","2015","01","29","12:00","1.2","","-1.9","","80","","22","","16","","24.1","","98.43","","","","","","NA"
"2015-01-29 13:00","2015","01","29","13:00","1.2","","-1.5","","82","","24","","11","","24.1","","98.37","","","","","","Cloudy"
"2015-01-29 14:00","2015","01","29","14:00","1.2","","-1.5","","82","","25","","11","","19.3","","98.35","","","","","","Rain,Ice Pellets"
"2015-01-29 15:00","2015","01","29","15:00","0.9","","-1.7","","83","","30","","18","","4.0","","98.40","","","","","","Snow"
"2015-01-29 16:00","2015","01","29","16:00","0.0","","-1.1","","92","","31","","17","","3.2","","98.55","","","","-5","","Snow"
"2015-01-29 17:00","2015","01","29","17:00","-0.3","","-1.6","","91","","31","","23","","1.6","","98.70","","","","-6","","Snow"
"2015-01-29 18:00","2015","01","29","18:00","-0.4","","-2.2","","88","","32","","22","","2.0","","98.89","","","","-6","","Snow"
"2015-01-29 19:00","2015","01","29","19:00","0.0","","-2.9","","81","","30","","26","","9.7","","99.04","","","","-6","","Snow"
"2015-01-29 20:00","2015","01","29","20:00","0.1","","-2.8","","81","","31","","22","","9.7","","99.13","","","","","","Snow,Haze"
"2015-01-29 21:00","2015","01","29","21:00","0.2","","-2.5","","82","","30","","24","","9.7","","99.22","","","","","","Haze"
"2015-01-29 22:00","2015","01","29","22:00","-0.2","","-4.5","","73","","30","","31","","16.1","","99.33","","","","-7","","Snow"
"2015-01-29 23:00","2015","01","29","23:00","-0.9","","-5.9","","69","","32","","33","","19.3","","99.41","","","","-8","","Snow"
"2015-01-30 00:00","2015","01","30","00:00","-1.6","","-7.0","","67","","30","","41","","19.3","","99.50","","","","-10","","Snow"
"2015-01-30 01:00","2015","01","30","01:00","-2.7","","-7.8","","68","","31","","34","","16.1","","99.59","","","","-10","","Snow,Blowing Snow"
"2015-01-30 02:00","2015","01","30","02:00","-4.0","","-8.5","","71","","32","","33","","19.3","","99.67","","","","-12","","Snow,Blowing Snow"
"2015-01-30 03:00","2015","01","30","03:00","-4.8","","-8.8","","74","","32","","33","","19.3","","99.77","","","","-13","","Snow,Blowing Snow"
"2015-01-30 04:00","2015","01","30","04:00","-5.5","","-9.6","","73","","32","","31","","19.3","","99.87","","","","-14","","Snow,Blowing Snow"
"2015-01-30 05:00","2015","01","30","05:00","-6.8","","-12.5","","64","","33","","26","","19.3","","100.02","","","","-15","","Blowing Snow"
"2015-01-30 06:00","2015","01","30","06:00","-7.4","","-13.1","","64","","33","","34","","19.3","","100.16","","","","-17","","Blowing Snow"
"2015-01-30 07:00","2015","01","30","07:00","-8.7","","-14.0","","66","","33","","34","","19.3","","100.33","","","","-18","","Blowing Snow"
"2015-01-30 08:00","2015","01","30","08:00","-9.8","","-15.2","","65","","34","","22","","24.1","","100.48","","","","-18","","Blowing Snow"
"2015-01-30 09:00","2015","01","30","09:00","-10.1","","-16.3","","61","","33","","27","","24.1","","100.59","","","","-19","","Blowing Snow"
"2015-01-30 10:00","2015","01","30","10:00","-10.0","","-16.8","","58","","35","","34","","24.1","","100.65","","","","-20","","Blowing Snow"
"2015-01-30 11:00","2015","01","30","11:00","-9.4","","-16.7","","56","","35","","27","","24.1","","100.75","","","","-18","","Blowing Snow"
"2015-01-30 12:00","2015","01","30","12:00","-8.4","","-16.8","","51","","33","","25","","24.1","","100.76","","","","-17","","NA"
"2015-01-30 13:00","2015","01","30","13:00","-8.4","","-17.8","","47","","32","","24","","24.1","","100.75","","","","-17","","Mainly Clear"
"2015-01-30 14:00","2015","01","30","14:00","-7.8","","-16.8","","49","","33","","24","","24.1","","100.72","","","","-16","","NA"
"2015-01-30 15:00","2015","01","30","15:00","-7.7","","-17.7","","45","","34","","25","","24.1","","100.74","","","","-16","","NA"
"2015-01-30 16:00","2015","01","30","16:00","-7.5","","-17.3","","46","","33","","18","","24.1","","100.77","","","","-14","","Clear"
"2015-01-30 17:00","2015","01","30","17:00","-7.8","","-17.5","","46","","1","","10","","24.1","","100.77","","","","-13","","NA"
"2015-01-30 18:00","2015","01","30","18:00","-12.6","","-17.0","","70","","12","","14","","24.1","","100.79","","","","-20","","NA"
"2015-01-30 19:00","2015","01","30","19:00","-13.4","","-17.9","","69","","13","","9","","24.1","","100.78","","","","-19","","Clear"
"2015-01-30 20:00","2015","01","30","20:00","-13.9","","-18.3","","70","","16","","7","","24.1","","100.79","","","","-19","","NA"
"2015-01-30 21:00","2015","01","30","21:00","-14.1","","-17.9","","73","","16","","3","","24.1","","100.77","","","","-16","","NA"
"2015-01-30 22:00","2015","01","30","22:00","-14.1","","-17.1","","78","","16","","8","","24.1","","100.72","","","","-19","","Mostly Cloudy"
"2015-01-30 23:00","2015","01","30","23:00","-13.1","","-17.7","","69","","16","","4","","24.1","","100.68","","","","-16","","NA"
"2015-01-31 00:00","2015","01","31","00:00","-13.1","","-17.8","","68","","17","","5","","24.1","","100.66","","","","-16","","NA"
"2015-01-31 01:00","2015","01","31","01:00","-13.6","","-18.1","","69","","16","","5","","24.1","","100.61","","","","-17","","Mainly Clear"
"2015-01-31 02:00","2015","01","31","02:00","-13.6","","-17.6","","72","","14","","4","","24.1","","100.56","","","","-16","","NA"
"2015-01-31 03:00","2015","01","31","03:00","-13.2","","-16.0","","80","","18","","7","","24.1","","100.52","","","","-18","","NA"
"2015-01-31 04:00","2015","01","31","04:00","-11.4","","-14.2","","80","","19","","9","","24.1","","100.44","","","","-17","","Mainly Clear"
"2015-01-31 05:00","2015","01","31","05:00","-9.8","","-12.5","","81","","19","","13","","24.1","","100.41","","","","-16","","NA"
"2015-01-31 06:00","2015","01","31","06:00","-9.4","","-11.8","","83","","22","","10","","24.1","","100.37","","","","-15","","NA"
"2015-01-31 07:00","2015","01","31","07:00","-9.1","","-11.6","","82","","21","","10","","24.1","","100.35","","","","-14","","Cloudy"
"2015-01-31 08:00","2015","01","31","08:00","-9.2","","-11.7","","82","","19","","8","","24.1","","100.31","","","","-14","","NA"
"2015-01-31 09:00","2015","01","31","09:00","-9.1","","-10.9","","87","","12","","7","","19.3","","100.31","","","","-13","","NA"
"2015-01-31 10:00","2015","01","31","10:00","-6.6","","-9.2","","82","","20","","17","","19.3","","100.28","","","","-13","","Cloudy"
"2015-01-31 11:00","2015","01","31","11:00","-4.6","","-8.4","","75","","21","","21","","24.1","","100.21","","","","-11","","NA"
"2015-01-31 12:00","2015","01","31","12:00","-3.9","","-7.7","","75","","20","","21","","24.1","","100.15","","","","-10","","NA"
"2015-01-31 13:00","2015","01","31","13:00","-2.7","","-6.7","","74","","19","","18","","24.1","","100.04","","","","-8","","Mainly Clear"
"2015-01-31 14:00","2015","01","31","14:00","-1.4","","-6.0","","71","","19","","23","","24.1","","99.97","","","","-7","","NA"
"2015-01-31 15:00","2015","01","31","15:00","-1.0","","-5.2","","73","","20","","21","","24.1","","99.93","","","","-7","","NA"
"2015-01-31 16:00","2015","01","31","16:00","-0.8","","-4.7","","75","","20","","15","","24.1","","99.91","","","","-5","","Cloudy"
"2015-01-31 17:00","2015","01","31","17:00","-0.4","","-5.0","","71","","23","","16","","24.1","","99.93","","","","-5","","NA"
"2015-01-31 18:00","2015","01","31","18:00","-0.5","","-4.6","","74","","20","","14","","16.1","","99.94","","","","-5","","NA"
"2015-01-31 19:00","2015","01","31","19:00","-0.6","","-3.6","","80","","21","","16","","16.1","","99.92","","","","-5","","Cloudy"
"2015-01-31 20:00","2015","01","31","20:00","-0.4","","-3.6","","79","","22","","17","","16.1","","99.94","","","","-5","","NA"
"2015-01-31 21:00","2015","01","31","21:00","-0.6","","-3.5","","81","","22","","17","","16.1","","99.94","","","","-6","","NA"
"2015-01-31 22:00","2015","01","31","22:00","-1.0","","-3.5","","83","","22","","11","","12.9","","99.90","","","","-5","","Cloudy"
"2015-01-31 23:00","2015","01","31","23:00","-1.2","","-3.3","","86","","21","","11","","11.3","","99.89","","","","-5","","NA"
