"Station Name","WINDSOR A"
"Province","ONTARIO"
"Latitude","42.28"
"Longitude","-82.96"
"Elevation","189.60"
"Climate Identifier","6139525"
"WMO Identifier","71538"
"TC Identifier","YQG"
"All times are specified in Local Standard Time (LST). Add 1 hour to adjust for Daylight Saving Time where and when it is observed."

"Legend"
"E","Estimated"
"M","Missing"
"NA","Not Available"

"Date/Time","Year","Month","Day","Time","Temp (°C)","Temp Flag","Dew Point Temp (°C)","Dew Point Temp Flag","Rel Hum (%)","Rel Hum Flag","Wind Dir (10s deg)","Wind Dir Flag","Wind Spd (km/h)","Wind Spd Flag","Visibility (km)","Visibility Flag","Stn Press (kPa)","Stn Press Flag","Hmdx","Hmdx Flag","Wind Chill","Wind Chill Flag","Weather"
"2009-04-01 00:00","2009","04","01","00:00","8.0","","3.9","","75","","14","","15","","24.1","","98.24","","","","","","Rain Showers"
"2009-04-01 01:00","2009","04","01","01:00","10.0","","5.0","","71","","16","","15","","24.1","","98.19","","","","","","Cloudy"
"2009-04-01 02:00","2009","04","01","02:00","10.5","","5.5","","71","","16","","13","","24.1","","98.13","","","","","","Cloudy"
"2009-04-01 03:00","2009","04","01","03:00","10.9","","8.1","","83","","21","","22","","24.1","","98.14","","","","","","Rain Showers"
"2009-04-01 04:00","2009","04","01","04:00","8.5","","5.6","","82","","26","","28","","8.0","","98.30","","","","","","Rain Showers,Haze"
"2009-04-01 05:00","2009","04","01","05:00","7.8","","5.4","","85","","25","","13","","24.1","","98.29","","","","","","Rain Showers"
"2009-04-01 06:00","2009","04","01","06:00","7.0","","4.7","","85","","22","","15","","24.1","","98.41","","","","","","Mostly Cloudy"
"2009-04-01 07:00","2009","04","01","07:00","6.2","","3.5","","83","","23","","15","","24.1","","98.52","","","","","","Mainly Clear"
"2009-04-01 08:00","2009","04","01","08:00","6.6","","1.7","","71","","22","","22","","24.1","","98.59","","","","","","Mainly Clear"
"2009-04-01 09:00","2009","04","01","09:00","8.1","","1.0","","61","","21","","28","","24.1","","98.60","","","","","","Mainly Clear"
"2009-04-01 10:00","2009","04","01","10:00","9.1","","0.5","","55","","21","","35","","24.1","","98.58","","","","","","Mainly Clear"
"2009-04-01 11:00","2009","04","01","11:00","10.2","","0.8","","52","","21","","41","","24.1","","98.54","","","","","","Mainly Clear"
"2009-04-01 12:00","2009","04","01","12:00","11.1","","-0.1","","46","","20","","50","","24.1","","98.48","","","","","","Mostly Cloudy"
"2009-04-01 13:00","2009","04","01","13:00","12.5","","-0.2","","42","","23","","41","","24.1","","98.48","","","","","","Mainly Clear"
"2009-04-01 14:00","2009","04","01","14:00","12.9","","-1.5","","37","","23","","54","","24.1","","98.51","","","","","","Mainly Clear"
"2009-04-01 15:00","2009","04","01","15:00","13.4","","-1.3","","36","","23","","35","","24.1","","98.50","","","","","","Mainly Clear"
"2009-04-01 16:00","2009","04","01","16:00","13.8","","-2.3","","33","","23","","44","","24.1","","98.51","","","","","","Mainly Clear"
"2009-04-01 17:00","2009","04","01","17:00","13.8","","-4.4","","28","","24","","37","","24.1","","98.54","","","","","","Mainly Clear"
"2009-04-01 18:00","2009","04","01","18:00","13.2","","-4.3","","29","","23","","33","","24.1","","98.64","","","","","","Mainly Clear"
"2009-04-01 19:00","2009","04","01","19:00","11.9","","-4.4","","32","","24","","28","","24.1","","98.71","","","","","","Mainly Clear"
"2009-04-01 20:00","2009","04","01","20:00","10.7","","-4.1","","35","","23","","19","","24.1","","98.84","","","","","","Clear"
"2009-04-01 21:00","2009","04","01","21:00","9.8","","-3.6","","39","","24","","15","","24.1","","98.90","","","","","","Mainly Clear"
"2009-04-01 22:00","2009","04","01","22:00","8.2","","-3.2","","44","","22","","13","","24.1","","98.95","","","","","","Mainly Clear"
"2009-04-01 23:00","2009","04","01","23:00","7.8","","-2.7","","47","","22","","11","","24.1","","98.98","","","","","","Mainly Clear"
"2009-04-02 00:00","2009","04","02","00:00","7.1","","-2.0","","52","","21","","11","","24.1","","99.02","","","","","","Mainly Clear"
"2009-04-02 01:00","2009","04","02","01:00","6.3","","0.2","","65","","21","","13","","24.1","","99.06","","","","","","Mainly Clear"
"2009-04-02 02:00","2009","04","02","02:00","6.2","","0.6","","67","","20","","4","","24.1","","99.05","","","","","","Mostly Cloudy"
"2009-04-02 03:00","2009","04","02","03:00","6.0","","0.8","","69","","19","","7","","24.1","","99.03","","","","","","Cloudy"
"2009-04-02 04:00","2009","04","02","04:00","6.1","","0.7","","68","","","","0","","24.1","","98.98","","","","","","Cloudy"
"2009-04-02 05:00","2009","04","02","05:00","6.7","","0.5","","65","","19","","7","","24.1","","98.99","","","","","","Cloudy"
"2009-04-02 06:00","2009","04","02","06:00","7.2","","0.3","","61","","18","","13","","24.1","","98.99","","","","","","Mostly Cloudy"
"2009-04-02 07:00","2009","04","02","07:00","7.5","","0.3","","60","","16","","13","","24.1","","98.98","","","","","","Cloudy"
"2009-04-02 08:00","2009","04","02","08:00","9.6","","0.7","","54","","18","","17","","24.1","","99.02","","","","","","Cloudy"
"2009-04-02 09:00","2009","04","02","09:00","12.5","","0.3","","43","","18","","17","","24.1","","98.96","","","","","","Cloudy"
"2009-04-02 10:00","2009","04","02","10:00","13.9","","0.2","","39","","20","","20","","24.1","","98.96","","","","","","Cloudy"
"2009-04-02 11:00","2009","04","02","11:00","14.6","","0.2","","37","","18","","20","","24.1","","98.90","","","","","","Cloudy"
"2009-04-02 12:00","2009","04","02","12:00","15.0","","-0.3","","35","","16","","20","","24.1","","98.75","","","","","","Mostly Cloudy"
"2009-04-02 13:00","2009","04","02","13:00","16.5","","1.0","","35","","15","","19","","24.1","","98.66","","","","","","Cloudy"
"2009-04-02 14:00","2009","04","02","14:00","17.0","","0.7","","33","","14","","20","","24.1","","98.47","","","","","","Mostly Cloudy"
"2009-04-02 15:00","2009","04","02","15:00","17.6","","0.7","","32","","9","","19","","24.1","","98.27","","","","","","Mostly Cloudy"
"2009-04-02 16:00","2009","04","02","16:00","17.8","","0.8","","32","","11","","28","","24.1","","98.34","","","","","","Cloudy"
"2009-04-02 17:00","2009","04","02","17:00","16.8","","0.6","","33","","9","","24","","24.1","","98.18","","","","","","Mostly Cloudy"
"2009-04-02 18:00","2009","04","02","18:00","15.1","","1.2","","39","","8","","26","","24.1","","97.97","","","","","","Mostly Cloudy"
"2009-04-02 19:00","2009","04","02","19:00","13.2","","2.1","","47","","7","","20","","24.1","","97.98","","","","","","Cloudy"
"2009-04-02 20:00","2009","04","02","20:00","11.9","","2.4","","52","","5","","20","","24.1","","97.90","","","","","","Mostly Cloudy"
"2009-04-02 21:00","2009","04","02","21:00","11.0","","3.5","","60","","2","","19","","12.9","","97.78","","","","","","Thunderstorms,Rain Showers"
"2009-04-02 22:00","2009","04","02","22:00","10.6","","4.0","","64","","3","","7","","16.1","","97.62","","","","","","Thunderstorms,Rain Showers"
"2009-04-02 23:00","2009","04","02","23:00","10.6","","5.2","","69","","5","","26","","24.1","","97.50","","","","","","Cloudy"
"2009-04-03 00:00","2009","04","03","00:00","10.3","","6.3","","76","","5","","19","","24.1","","97.31","","","","","","Cloudy"
"2009-04-03 01:00","2009","04","03","01:00","9.5","","6.5","","82","","4","","19","","24.1","","97.16","","","","","","Cloudy"
"2009-04-03 02:00","2009","04","03","02:00","9.3","","7.2","","87","","5","","13","","24.1","","97.01","","","","","","Cloudy"
"2009-04-03 03:00","2009","04","03","03:00","9.3","","7.5","","89","","4","","11","","24.1","","96.87","","","","","","Cloudy"
"2009-04-03 04:00","2009","04","03","04:00","10.0","","8.6","","91","","10","","4","","8.0","","96.76","","","","","","Rain Showers,Fog"
"2009-04-03 05:00","2009","04","03","05:00","10.5","","9.5","","94","","12","","6","","6.4","","96.69","","","","","","Rain,Fog"
"2009-04-03 06:00","2009","04","03","06:00","10.4","","9.5","","94","","","","0","","4.0","","96.61","","","","","","Rain,Fog"
"2009-04-03 07:00","2009","04","03","07:00","10.4","","9.6","","95","","2","","7","","1.6","","96.54","","","","","","Rain,Fog"
"2009-04-03 08:00","2009","04","03","08:00","9.9","","9.1","","95","","2","","11","","1.6","","96.47","","","","","","Rain,Fog"
"2009-04-03 09:00","2009","04","03","09:00","10.4","","9.6","","95","","34","","11","","2.4","","96.47","","","","","","Rain,Fog"
"2009-04-03 10:00","2009","04","03","10:00","8.5","","7.7","","95","","31","","28","","9.7","","96.55","","","","","","Drizzle,Fog"
"2009-04-03 11:00","2009","04","03","11:00","6.7","","4.7","","87","","31","","32","","24.1","","96.68","","","","","","Cloudy"
"2009-04-03 12:00","2009","04","03","12:00","6.2","","3.6","","83","","32","","37","","24.1","","96.77","","","","","","Cloudy"
"2009-04-03 13:00","2009","04","03","13:00","6.1","","2.9","","80","","31","","41","","24.1","","96.90","","","","","","Cloudy"
"2009-04-03 14:00","2009","04","03","14:00","6.1","","1.9","","74","","32","","41","","24.1","","97.05","","","","","","Cloudy"
"2009-04-03 15:00","2009","04","03","15:00","6.5","","1.6","","71","","31","","35","","24.1","","97.19","","","","","","Cloudy"
"2009-04-03 16:00","2009","04","03","16:00","6.9","","1.9","","70","","30","","46","","24.1","","97.35","","","","","","Cloudy"
"2009-04-03 17:00","2009","04","03","17:00","8.1","","2.1","","66","","30","","44","","24.1","","97.52","","","","","","Cloudy"
"2009-04-03 18:00","2009","04","03","18:00","7.4","","1.7","","67","","29","","48","","24.1","","97.69","","","","","","Mostly Cloudy"
"2009-04-03 19:00","2009","04","03","19:00","6.5","","1.4","","70","","31","","41","","24.1","","97.84","","","","","","Mostly Cloudy"
"2009-04-03 20:00","2009","04","03","20:00","5.8","","-0.2","","65","","29","","41","","24.1","","97.98","","","","","","Mainly Clear"
"2009-04-03 21:00","2009","04","03","21:00","5.6","","-1.8","","59","","29","","30","","24.1","","98.08","","","","","","Mainly Clear"
"2009-04-03 22:00","2009","04","03","22:00","4.9","","-3.0","","57","","29","","28","","24.1","","98.13","","","","","","Clear"
"2009-04-03 23:00","2009","04","03","23:00","4.4","","-3.7","","56","","29","","33","","24.1","","98.18","","","","","","Clear"
"2009-04-04 00:00","2009","04","04","00:00","3.9","","-3.9","","57","","30","","30","","24.1","","98.24","","","","","","Clear"
"2009-04-04 01:00","2009","04","04","01:00","3.5","","-4.0","","58","","29","","28","","24.1","","98.33","","","","","","Clear"
"2009-04-04 02:00","2009","04","04","02:00","2.8","","-4.0","","61","","30","","28","","24.1","","98.42","","","","","","Clear"
"2009-04-04 03:00","2009","04","04","03:00","2.1","","-3.9","","64","","30","","26","","24.1","","98.50","","","","","","Clear"
"2009-04-04 04:00","2009","04","04","04:00","1.9","","-4.1","","64","","30","","28","","24.1","","98.58","","","","","","Mainly Clear"
"2009-04-04 05:00","2009","04","04","05:00","1.7","","-4.1","","65","","29","","26","","24.1","","98.69","","","","","","Mostly Cloudy"
"2009-04-04 06:00","2009","04","04","06:00","1.8","","-4.1","","65","","29","","24","","24.1","","98.78","","","","","","Mainly Clear"
"2009-04-04 07:00","2009","04","04","07:00","2.0","","-3.8","","65","","29","","28","","24.1","","98.84","","","","","","Clear"
"2009-04-04 08:00","2009","04","04","08:00","3.0","","-3.4","","63","","29","","30","","24.1","","98.92","","","","","","Clear"
"2009-04-04 09:00","2009","04","04","09:00","4.2","","-3.4","","58","","30","","35","","24.1","","98.99","","","","","","Clear"
"2009-04-04 10:00","2009","04","04","10:00","5.9","","-3.3","","52","","30","","32","","24.1","","99.04","","","","","","Clear"
"2009-04-04 11:00","2009","04","04","11:00","7.1","","-3.4","","47","","31","","17","","24.1","","99.07","","","","","","Clear"
"2009-04-04 12:00","2009","04","04","12:00","8.2","","-3.5","","43","","31","","20","","24.1","","99.07","","","","","","Mainly Clear"
"2009-04-04 13:00","2009","04","04","13:00","9.2","","-2.7","","43","","28","","28","","24.1","","99.11","","","","","","Mainly Clear"
"2009-04-04 14:00","2009","04","04","14:00","10.4","","-1.9","","42","","31","","19","","24.1","","99.12","","","","","","Clear"
"2009-04-04 15:00","2009","04","04","15:00","11.4","","-1.6","","40","","29","","22","","24.1","","99.11","","","","","","Mainly Clear"
"2009-04-04 16:00","2009","04","04","16:00","11.8","","-2.7","","36","","32","","22","","24.1","","99.10","","","","","","Mainly Clear"
"2009-04-04 17:00","2009","04","04","17:00","11.6","","-3.0","","36","","31","","20","","24.1","","99.11","","","","","","Mainly Clear"
"2009-04-04 18:00","2009","04","04","18:00","11.2","","-2.7","","38","","31","","15","","24.1","","99.12","","","","","","Mainly Clear"
"2009-04-04 19:00","2009","04","04","19:00","10.4","","-1.6","","43","","29","","15","","24.1","","99.15","","","","","","Mainly Clear"
"2009-04-04 20:00","2009","04","04","20:00","8.9","","-2.1","","46","","30","","7","","24.1","","99.18","","","","","","Clear"
"2009-04-04 21:00","2009","04","04","21:00","8.4","","-1.9","","48","","","","0","","24.1","","99.21","","","","","","Clear"
"2009-04-04 22:00","2009","04","04","22:00","6.2","","-1.5","","58","","","","0","","24.1","","99.22","","","","","","Clear"
"2009-04-04 23:00","2009","04","04","23:00","5.1","","-0.9","","65","","4","","17","","24.1","","99.22","","","","","","Mainly Clear"
"2009-04-05 00:00","2009","04","05","00:00","4.2","","-2.8","","60","","2","","7","","24.1","","99.29","","","","","","Clear"
"2009-04-05 01:00","2009","04","05","01:00","3.6","","-3.4","","60","","4","","9","","24.1","","99.37","","","","","","Clear"
"2009-04-05 02:00","2009","04","05","02:00","2.5","","-1.1","","77","","4","","13","","24.1","","99.25","","","","","","Mainly Clear"
"2009-04-05 03:00","2009","04","05","03:00","2.8","","-2.4","","69","","34","","7","","24.1","","99.27","","","","","","Mainly Clear"
"2009-04-05 04:00","2009","04","05","04:00","2.3","","-3.8","","64","","36","","9","","24.1","","99.27","","","","","","Mainly Clear"
"2009-04-05 05:00","2009","04","05","05:00","1.7","","-4.1","","65","","36","","6","","24.1","","99.26","","","","","","Mainly Clear"
"2009-04-05 06:00","2009","04","05","06:00","0.9","","-2.7","","77","","5","","9","","24.1","","99.16","","","","","","Mainly Clear"
"2009-04-05 07:00","2009","04","05","07:00","2.0","","-1.8","","76","","5","","11","","24.1","","99.19","","","","","","Mainly Clear"
"2009-04-05 08:00","2009","04","05","08:00","3.6","","-0.9","","72","","11","","4","","24.1","","99.22","","","","","","Mostly Cloudy"
"2009-04-05 09:00","2009","04","05","09:00","4.3","","-2.1","","63","","9","","11","","24.1","","99.18","","","","","","Mostly Cloudy"
"2009-04-05 10:00","2009","04","05","10:00","5.3","","-1.8","","60","","6","","13","","24.1","","99.11","","","","","","Mostly Cloudy"
"2009-04-05 11:00","2009","04","05","11:00","5.9","","-0.9","","62","","9","","19","","24.1","","99.00","","","","","","Mostly Cloudy"
"2009-04-05 12:00","2009","04","05","12:00","7.5","","-0.3","","58","","5","","7","","24.1","","98.94","","","","","","Mostly Cloudy"
"2009-04-05 13:00","2009","04","05","13:00","7.9","","-0.6","","55","","4","","13","","24.1","","98.83","","","","","","Mostly Cloudy"
"2009-04-05 14:00","2009","04","05","14:00","7.9","","-0.3","","56","","7","","13","","24.1","","98.68","","","","","","Cloudy"
"2009-04-05 15:00","2009","04","05","15:00","7.9","","-0.9","","54","","4","","15","","24.1","","98.61","","","","","","Cloudy"
"2009-04-05 16:00","2009","04","05","16:00","7.9","","-0.3","","56","","4","","17","","24.1","","98.52","","","","","","Cloudy"
"2009-04-05 17:00","2009","04","05","17:00","7.9","","-0.4","","56","","5","","17","","24.1","","98.41","","","","","","Cloudy"
"2009-04-05 18:00","2009","04","05","18:00","6.9","","2.0","","71","","3","","30","","19.3","","98.34","","","","","","Rain Showers"
"2009-04-05 19:00","2009","04","05","19:00","5.1","","-0.3","","68","","3","","28","","24.1","","98.35","","","","","","Cloudy"
"2009-04-05 20:00","2009","04","05","20:00","4.7","","-2.7","","59","","4","","30","","24.1","","98.34","","","","","","Cloudy"
"2009-04-05 21:00","2009","04","05","21:00","3.1","","-1.4","","72","","3","","35","","11.3","","98.20","","","","","","Rain Showers,Snow Showers"
"2009-04-05 22:00","2009","04","05","22:00","1.7","","-0.9","","83","","2","","22","","8.0","","98.07","","","","","","Rain Showers,Snow Showers"
"2009-04-05 23:00","2009","04","05","23:00","2.4","","0.5","","87","","3","","37","","4.8","","97.88","","","","","","Rain Showers,Snow Showers"
"2009-04-06 00:00","2009","04","06","00:00","2.2","","0.6","","89","","3","","37","","8.0","","97.67","","","","","","Rain Showers,Snow Showers"
"2009-04-06 01:00","2009","04","06","01:00","3.0","","1.7","","91","","3","","37","","4.8","","97.55","","","","","","Rain Showers,Snow Showers"
"2009-04-06 02:00","2009","04","06","02:00","0.4","","-0.9","","91","","36","","26","","0.8","","97.55","","","","","","Moderate Snow"
"2009-04-06 03:00","2009","04","06","03:00","0.4","","-0.7","","92","","36","","26","","1.6","","97.49","","","","","","Snow"
"2009-04-06 04:00","2009","04","06","04:00","0.6","","-0.5","","92","","36","","24","","4.8","","97.46","","","","","","Snow"
"2009-04-06 05:00","2009","04","06","05:00","0.9","","-0.4","","91","","35","","28","","8.0","","97.43","","","","","","Snow"
"2009-04-06 06:00","2009","04","06","06:00","0.9","","-0.5","","90","","35","","33","","4.0","","97.46","","","","","","Snow"
"2009-04-06 07:00","2009","04","06","07:00","0.7","","-0.8","","90","","35","","30","","3.2","","97.55","","","","","","Snow"
"2009-04-06 08:00","2009","04","06","08:00","0.6","","-0.9","","90","","35","","24","","3.2","","97.63","","","","","","Snow"
"2009-04-06 09:00","2009","04","06","09:00","0.4","","-0.9","","91","","35","","37","","2.0","","97.68","","","","","","Snow"
"2009-04-06 10:00","2009","04","06","10:00","0.4","","-0.9","","91","","35","","28","","2.0","","97.75","","","","","","Snow"
"2009-04-06 11:00","2009","04","06","11:00","0.3","","-1.3","","89","","35","","33","","2.0","","97.80","","","","","","Snow"
"2009-04-06 12:00","2009","04","06","12:00","0.6","","-1.4","","86","","34","","28","","4.0","","97.81","","","","","","Snow"
"2009-04-06 13:00","2009","04","06","13:00","0.6","","-1.7","","85","","35","","43","","6.4","","97.85","","","","","","Snow"
"2009-04-06 14:00","2009","04","06","14:00","0.3","","-1.7","","86","","35","","32","","1.6","","97.88","","","","","","Snow"
"2009-04-06 15:00","2009","04","06","15:00","0.8","","-1.1","","87","","34","","19","","4.8","","97.90","","","","","","Snow"
"2009-04-06 16:00","2009","04","06","16:00","1.2","","-1.9","","80","","33","","22","","8.0","","97.96","","","","","","Snow"
"2009-04-06 17:00","2009","04","06","17:00","2.0","","-2.4","","73","","35","","26","","12.9","","98.00","","","","","","Snow Showers"
"2009-04-06 18:00","2009","04","06","18:00","2.2","","-2.9","","69","","34","","24","","24.1","","98.06","","","","","","Cloudy"
"2009-04-06 19:00","2009","04","06","19:00","1.4","","-2.9","","73","","36","","11","","24.1","","98.10","","","","","","Snow Showers"
"2009-04-06 20:00","2009","04","06","20:00","1.4","","-3.1","","72","","35","","9","","24.1","","98.12","","","","","","Cloudy"
"2009-04-06 21:00","2009","04","06","21:00","1.2","","-3.0","","74","","34","","20","","6.4","","98.17","","","","","","Snow Showers"
"2009-04-06 22:00","2009","04","06","22:00","1.3","","-2.8","","74","","33","","11","","24.1","","98.14","","","","","","Snow Showers"
"2009-04-06 23:00","2009","04","06","23:00","0.6","","-4.7","","68","","32","","26","","24.1","","98.14","","","","","","Snow Showers"
"2009-04-07 00:00","2009","04","07","00:00","-0.1","","-5.6","","66","","32","","22","","24.1","","98.13","","","","-6","","Snow Showers"
"2009-04-07 01:00","2009","04","07","01:00","-0.7","","-5.9","","68","","31","","26","","24.1","","98.10","","","","-7","","Snow Showers"
"2009-04-07 02:00","2009","04","07","02:00","-1.1","","-5.4","","73","","30","","20","","24.1","","98.03","","","","-7","","Snow Showers"
"2009-04-07 03:00","2009","04","07","03:00","-1.1","","-5.8","","70","","31","","22","","24.1","","98.00","","","","-7","","Snow Showers"
"2009-04-07 04:00","2009","04","07","04:00","-1.1","","-5.8","","70","","30","","22","","24.1","","98.00","","","","-7","","Snow Showers"
"2009-04-07 05:00","2009","04","07","05:00","-0.9","","-6.0","","68","","31","","19","","24.1","","98.00","","","","-6","","Snow Showers"
"2009-04-07 06:00","2009","04","07","06:00","-1.0","","-5.4","","72","","29","","20","","12.9","","98.01","","","","-7","","Snow Showers"
"2009-04-07 07:00","2009","04","07","07:00","-0.9","","-4.6","","76","","29","","17","","16.1","","98.04","","","","-6","","Snow Showers"
"2009-04-07 08:00","2009","04","07","08:00","-0.6","","-5.0","","72","","27","","30","","19.3","","98.04","","","","-7","","Snow Showers"
"2009-04-07 09:00","2009","04","07","09:00","-0.1","","-5.8","","65","","29","","30","","24.1","","98.05","","","","-7","","Snow Showers"
"2009-04-07 10:00","2009","04","07","10:00","0.6","","-6.1","","61","","30","","35","","24.1","","98.06","","","","","","Mostly Cloudy"
"2009-04-07 11:00","2009","04","07","11:00","1.1","","-4.9","","64","","28","","32","","24.1","","98.07","","","","","","Cloudy"
"2009-04-07 12:00","2009","04","07","12:00","1.4","","-5.2","","61","","27","","30","","6.4","","98.03","","","","","","Snow Showers"
"2009-04-07 13:00","2009","04","07","13:00","1.7","","-4.3","","64","","29","","24","","24.1","","98.00","","","","","","Snow Showers"
"2009-04-07 14:00","2009","04","07","14:00","2.0","","-4.6","","62","","29","","28","","9.7","","98.01","","","","","","Snow Showers"
"2009-04-07 15:00","2009","04","07","15:00","2.3","","-5.7","","55","","29","","30","","19.3","","97.99","","","","","","Cloudy"
"2009-04-07 16:00","2009","04","07","16:00","1.0","","-4.1","","69","","29","","26","","4.0","","98.05","","","","","","Snow Showers"
"2009-04-07 17:00","2009","04","07","17:00","1.2","","-3.0","","74","","29","","24","","8.0","","98.08","","","","","","Snow Showers"
"2009-04-07 18:00","2009","04","07","18:00","0.9","","-2.6","","77","","28","","24","","3.2","","98.11","","","","","","Snow Showers"
"2009-04-07 19:00","2009","04","07","19:00","0.9","","-2.7","","77","","27","","20","","24.1","","98.12","","","","","","Mostly Cloudy"
"2009-04-07 20:00","2009","04","07","20:00","1.2","","-4.8","","64","","28","","19","","24.1","","98.14","","","","","","Mostly Cloudy"
"2009-04-07 21:00","2009","04","07","21:00","1.3","","-5.1","","62","","27","","17","","24.1","","98.15","","","","","","Mostly Cloudy"
"2009-04-07 22:00","2009","04","07","22:00","1.7","","-5.1","","61","","25","","11","","24.1","","98.12","","","","","","Cloudy"
"2009-04-07 23:00","2009","04","07","23:00","1.6","","-5.5","","59","","25","","15","","24.1","","98.10","","","","","","Cloudy"
"2009-04-08 00:00","2009","04","08","00:00","1.0","","-5.7","","61","","27","","15","","24.1","","98.11","","","","","","Mostly Cloudy"
"2009-04-08 01:00","2009","04","08","01:00","1.7","","-6.7","","54","","30","","19","","24.1","","98.10","","","","","","Cloudy"
"2009-04-08 02:00","2009","04","08","02:00","1.8","","-8.3","","47","","29","","19","","24.1","","98.07","","","","","","Cloudy"
"2009-04-08 03:00","2009","04","08","03:00","1.7","","-8.0","","48","","28","","20","","24.1","","98.07","","","","","","Cloudy"
"2009-04-08 04:00","2009","04","08","04:00","1.6","","-5.8","","58","","25","","13","","24.1","","98.04","","","","","","Cloudy"
"2009-04-08 05:00","2009","04","08","05:00","1.2","","-5.7","","60","","26","","7","","24.1","","98.07","","","","","","Mostly Cloudy"
"2009-04-08 06:00","2009","04","08","06:00","0.3","","-5.5","","65","","23","","11","","24.1","","98.09","","","","","","Mainly Clear"
"2009-04-08 07:00","2009","04","08","07:00","0.7","","-5.7","","62","","24","","11","","24.1","","98.11","","","","","","Mainly Clear"
"2009-04-08 08:00","2009","04","08","08:00","3.1","","-7.3","","46","","27","","17","","24.1","","98.14","","","","","","Mainly Clear"
"2009-04-08 09:00","2009","04","08","09:00","4.9","","-8.3","","38","","27","","20","","24.1","","98.15","","","","","","Mainly Clear"
"2009-04-08 10:00","2009","04","08","10:00","6.5","","-9.5","","31","","28","","19","","24.1","","98.16","","","","","","Mainly Clear"
"2009-04-08 11:00","2009","04","08","11:00","8.1","","-9.0","","29","","29","","32","","24.1","","98.16","","","","","","Mainly Clear"
"2009-04-08 12:00","2009","04","08","12:00","8.5","","-9.3","","27","","27","","26","","24.1","","98.15","","","","","","Mainly Clear"
"2009-04-08 13:00","2009","04","08","13:00","9.2","","-9.0","","27","","25","","32","","24.1","","98.13","","","","","","Mainly Clear"
"2009-04-08 14:00","2009","04","08","14:00","10.2","","-8.6","","26","","29","","28","","24.1","","98.08","","","","","","Mainly Clear"
"2009-04-08 15:00","2009","04","08","15:00","10.5","","-8.1","","26","","28","","26","","24.1","","98.08","","","","","","Mainly Clear"
"2009-04-08 16:00","2009","04","08","16:00","10.7","","-7.2","","28","","26","","26","","24.1","","98.09","","","","","","Mainly Clear"
"2009-04-08 17:00","2009","04","08","17:00","10.7","","-6.7","","29","","28","","33","","24.1","","98.11","","","","","","Mainly Clear"
"2009-04-08 18:00","2009","04","08","18:00","10.7","","-8.4","","25","","27","","30","","24.1","","98.14","","","","","","Mostly Cloudy"
"2009-04-08 19:00","2009","04","08","19:00","9.7","","-8.4","","27","","29","","19","","24.1","","98.17","","","","","","Mainly Clear"
"2009-04-08 20:00","2009","04","08","20:00","8.4","","-8.0","","30","","27","","15","","24.1","","98.23","","","","","","Mainly Clear"
"2009-04-08 21:00","2009","04","08","21:00","7.4","","-7.4","","34","","29","","19","","24.1","","98.32","","","","","","Clear"
"2009-04-08 22:00","2009","04","08","22:00","6.3","","-7.8","","36","","28","","11","","24.1","","98.36","","","","","","Clear"
"2009-04-08 23:00","2009","04","08","23:00","5.1","","-7.7","","39","","26","","6","","24.1","","98.38","","","","","","Clear"
"2009-04-09 00:00","2009","04","09","00:00","4.2","","-7.1","","44","","24","","9","","24.1","","98.42","","","","","","Clear"
"2009-04-09 01:00","2009","04","09","01:00","3.7","","-7.3","","44","","25","","11","","24.1","","98.44","","","","","","Clear"
"2009-04-09 02:00","2009","04","09","02:00","3.1","","-7.2","","47","","26","","13","","24.1","","98.46","","","","","","Clear"
"2009-04-09 03:00","2009","04","09","03:00","2.7","","-7.5","","47","","26","","13","","24.1","","98.51","","","","","","Clear"
"2009-04-09 04:00","2009","04","09","04:00","2.5","","-7.3","","48","","26","","7","","24.1","","98.54","","","","","","Clear"
"2009-04-09 05:00","2009","04","09","05:00","1.6","","-7.4","","51","","","","0","","24.1","","98.59","","","","","","Clear"
"2009-04-09 06:00","2009","04","09","06:00","0.6","","-7.1","","56","","","","0","","24.1","","98.65","","","","","","Clear"
"2009-04-09 07:00","2009","04","09","07:00","1.7","","-5.5","","59","","","","0","","24.1","","98.71","","","","","","Clear"
"2009-04-09 08:00","2009","04","09","08:00","4.6","","-5.2","","49","","21","","9","","24.1","","98.75","","","","","","Clear"
"2009-04-09 09:00","2009","04","09","09:00","6.4","","-4.7","","45","","","","0","","24.1","","98.74","","","","","","Clear"
"2009-04-09 10:00","2009","04","09","10:00","8.8","","-3.4","","42","","","","0","","24.1","","98.79","","","","","","Clear"
"2009-04-09 11:00","2009","04","09","11:00","10.8","","-4.5","","34","","26","","17","","24.1","","98.84","","","","","","Clear"
"2009-04-09 12:00","2009","04","09","12:00","12.6","","-4.9","","29","","26","","15","","24.1","","98.79","","","","","","Mainly Clear"
"2009-04-09 13:00","2009","04","09","13:00","13.5","","-5.8","","26","","27","","17","","24.1","","98.75","","","","","","Mainly Clear"
"2009-04-09 14:00","2009","04","09","14:00","14.6","","-5.4","","25","","27","","15","","24.1","","98.73","","","","","","Mainly Clear"
"2009-04-09 15:00","2009","04","09","15:00","15.3","","-5.5","","23","","27","","24","","24.1","","98.73","","","","","","Mainly Clear"
"2009-04-09 16:00","2009","04","09","16:00","14.9","","-5.2","","25","","27","","20","","24.1","","98.72","","","","","","Mainly Clear"
"2009-04-09 17:00","2009","04","09","17:00","14.6","","-6.1","","23","","27","","22","","24.1","","98.77","","","","","","Mainly Clear"
"2009-04-09 18:00","2009","04","09","18:00","14.5","","-6.0","","24","","29","","17","","24.1","","98.80","","","","","","Mainly Clear"
"2009-04-09 19:00","2009","04","09","19:00","13.0","","-5.4","","27","","28","","7","","24.1","","98.83","","","","","","Mainly Clear"
"2009-04-09 20:00","2009","04","09","20:00","11.7","","-4.9","","31","","","","0","","24.1","","98.91","","","","","","Mainly Clear"
"2009-04-09 21:00","2009","04","09","21:00","9.2","","-3.9","","39","","","","0","","24.1","","99.00","","","","","","Mainly Clear"
"2009-04-09 22:00","2009","04","09","22:00","6.8","","-2.3","","52","","","","0","","24.1","","99.00","","","","","","Mostly Cloudy"
"2009-04-09 23:00","2009","04","09","23:00","5.7","","-1.4","","60","","4","","11","","24.1","","99.03","","","","","","Mostly Cloudy"
"2009-04-10 00:00","2009","04","10","00:00","5.2","","-0.7","","66","","2","","13","","24.1","","99.06","","","","","","Cloudy"
"2009-04-10 01:00","2009","04","10","01:00","5.3","","-0.3","","67","","3","","20","","24.1","","99.11","","","","","","Mostly Cloudy"
"2009-04-10 02:00","2009","04","10","02:00","4.3","","-2.3","","62","","3","","26","","24.1","","99.09","","","","","","Mostly Cloudy"
"2009-04-10 03:00","2009","04","10","03:00","3.8","","-1.9","","66","","3","","26","","24.1","","99.08","","","","","","Cloudy"
"2009-04-10 04:00","2009","04","10","04:00","3.9","","-3.0","","61","","4","","26","","24.1","","99.09","","","","","","Cloudy"
"2009-04-10 05:00","2009","04","10","05:00","3.5","","-3.3","","61","","5","","26","","24.1","","99.14","","","","","","Cloudy"
"2009-04-10 06:00","2009","04","10","06:00","2.7","","-3.2","","65","","4","","26","","24.1","","99.18","","","","","","Mostly Cloudy"
"2009-04-10 07:00","2009","04","10","07:00","3.6","","-2.5","","64","","4","","32","","24.1","","99.20","","","","","","Cloudy"
"2009-04-10 08:00","2009","04","10","08:00","4.0","","-3.2","","59","","5","","26","","24.1","","99.21","","","","","","Cloudy"
"2009-04-10 09:00","2009","04","10","09:00","5.2","","-2.8","","56","","4","","26","","24.1","","99.18","","","","","","Cloudy"
"2009-04-10 10:00","2009","04","10","10:00","6.5","","-1.7","","56","","5","","30","","24.1","","99.21","","","","","","Mainly Clear"
"2009-04-10 11:00","2009","04","10","11:00","8.2","","-1.1","","52","","5","","30","","24.1","","99.16","","","","","","Mostly Cloudy"
"2009-04-10 12:00","2009","04","10","12:00","8.9","","-0.2","","53","","3","","30","","24.1","","99.15","","","","","","Cloudy"
"2009-04-10 13:00","2009","04","10","13:00","9.5","","-0.4","","50","","3","","26","","24.1","","99.18","","","","","","Mostly Cloudy"
"2009-04-10 14:00","2009","04","10","14:00","10.2","","-0.6","","47","","2","","33","","24.1","","99.14","","","","","","Cloudy"
"2009-04-10 15:00","2009","04","10","15:00","9.9","","-2.0","","43","","2","","35","","24.1","","99.10","","","","","","Cloudy"
"2009-04-10 16:00","2009","04","10","16:00","9.7","","-1.3","","46","","3","","30","","24.1","","99.13","","","","","","Cloudy"
"2009-04-10 17:00","2009","04","10","17:00","8.9","","-1.0","","50","","4","","28","","24.1","","99.17","","","","","","Cloudy"
"2009-04-10 18:00","2009","04","10","18:00","7.7","","-2.3","","49","","4","","30","","24.1","","99.20","","","","","","Mostly Cloudy"
"2009-04-10 19:00","2009","04","10","19:00","6.2","","-1.8","","56","","3","","22","","24.1","","99.26","","","","","","Mostly Cloudy"
"2009-04-10 20:00","2009","04","10","20:00","5.2","","-2.7","","57","","4","","20","","24.1","","99.35","","","","","","Mostly Cloudy"
"2009-04-10 21:00","2009","04","10","21:00","4.1","","-3.3","","59","","3","","26","","24.1","","99.37","","","","","","Mostly Cloudy"
"2009-04-10 22:00","2009","04","10","22:00","3.3","","-4.1","","58","","1","","26","","24.1","","99.43","","","","","","Mostly Cloudy"
"2009-04-10 23:00","2009","04","10","23:00","2.3","","-4.6","","60","","36","","24","","24.1","","99.45","","","","","","Mostly Cloudy"
"2009-04-11 00:00","2009","04","11","00:00","1.6","","-4.8","","62","","36","","19","","24.1","","99.48","","","","","","Mostly Cloudy"
"2009-04-11 01:00","2009","04","11","01:00","1.5","","-4.7","","63","","1","","20","","24.1","","99.52","","","","","","Mostly Cloudy"
"2009-04-11 02:00","2009","04","11","02:00","1.1","","-5.1","","63","","1","","24","","24.1","","99.52","","","","","","Mostly Cloudy"
"2009-04-11 03:00","2009","04","11","03:00","0.6","","-5.3","","65","","36","","22","","24.1","","99.56","","","","","","Mostly Cloudy"
"2009-04-11 04:00","2009","04","11","04:00","0.4","","-5.3","","66","","36","","22","","24.1","","99.61","","","","","","Mostly Cloudy"
"2009-04-11 05:00","2009","04","11","05:00","0.3","","-5.2","","67","","1","","22","","24.1","","99.66","","","","","","Mainly Clear"
"2009-04-11 06:00","2009","04","11","06:00","0.3","","-5.1","","67","","36","","24","","24.1","","99.74","","","","","","Mostly Cloudy"
"2009-04-11 07:00","2009","04","11","07:00","1.4","","-4.5","","65","","1","","19","","24.1","","99.84","","","","","","Mostly Cloudy"
"2009-04-11 08:00","2009","04","11","08:00","3.2","","-4.2","","58","","2","","26","","24.1","","99.92","","","","","","Mainly Clear"
"2009-04-11 09:00","2009","04","11","09:00","4.8","","-3.7","","54","","2","","19","","24.1","","100.00","","","","","","Mainly Clear"
"2009-04-11 10:00","2009","04","11","10:00","6.1","","-4.3","","47","","4","","17","","24.1","","100.08","","","","","","Mainly Clear"
"2009-04-11 11:00","2009","04","11","11:00","7.2","","-4.2","","44","","5","","20","","24.1","","100.15","","","","","","Mainly Clear"
"2009-04-11 12:00","2009","04","11","12:00","7.9","","-4.1","","42","","5","","28","","24.1","","100.17","","","","","","Mainly Clear"
"2009-04-11 13:00","2009","04","11","13:00","8.4","","-6.0","","35","","5","","24","","24.1","","100.18","","","","","","Mainly Clear"
"2009-04-11 14:00","2009","04","11","14:00","8.8","","-8.6","","28","","5","","28","","24.1","","100.17","","","","","","Clear"
"2009-04-11 15:00","2009","04","11","15:00","8.9","","-8.1","","29","","7","","22","","24.1","","100.16","","","","","","Mainly Clear"
"2009-04-11 16:00","2009","04","11","16:00","8.9","","-7.5","","31","","7","","20","","24.1","","100.14","","","","","","Mainly Clear"
"2009-04-11 17:00","2009","04","11","17:00","8.7","","-6.4","","34","","6","","20","","24.1","","100.17","","","","","","Mainly Clear"
"2009-04-11 18:00","2009","04","11","18:00","7.7","","-6.8","","35","","7","","22","","24.1","","100.21","","","","","","Clear"
"2009-04-11 19:00","2009","04","11","19:00","5.8","","-5.1","","45","","6","","17","","24.1","","100.25","","","","","","Clear"
"2009-04-11 20:00","2009","04","11","20:00","5.0","","-4.6","","50","","8","","7","","24.1","","100.30","","","","","","Clear"
"2009-04-11 21:00","2009","04","11","21:00","3.1","","-4.8","","56","","5","","15","","24.1","","100.37","","","","","","Clear"
"2009-04-11 22:00","2009","04","11","22:00","2.0","","-5.3","","58","","4","","11","","24.1","","100.40","","","","","","Clear"
"2009-04-11 23:00","2009","04","11","23:00","1.3","","-5.0","","63","","4","","13","","24.1","","100.43","","","","","","Clear"
"2009-04-12 00:00","2009","04","12","00:00","1.0","","-5.3","","63","","5","","17","","24.1","","100.46","","","","","","Clear"
"2009-04-12 01:00","2009","04","12","01:00","1.2","","-5.3","","62","","5","","11","","24.1","","100.49","","","","","","Clear"
"2009-04-12 02:00","2009","04","12","02:00","0.9","","-5.5","","62","","35","","7","","24.1","","100.50","","","","","","Clear"
"2009-04-12 03:00","2009","04","12","03:00","0.1","","-5.7","","65","","36","","7","","24.1","","100.48","","","","","","Clear"
"2009-04-12 04:00","2009","04","12","04:00","-0.5","","-5.5","","69","","34","","7","","24.1","","100.53","","","","-3","","Clear"
"2009-04-12 05:00","2009","04","12","05:00","-0.3","","-5.6","","67","","33","","7","","24.1","","100.59","","","","-3","","Clear"
"2009-04-12 06:00","2009","04","12","06:00","-0.7","","-5.9","","68","","","","0","","24.1","","100.61","","","","","","Mainly Clear"
"2009-04-12 07:00","2009","04","12","07:00","0.9","","-4.9","","65","","36","","6","","24.1","","100.64","","","","","","Clear"
"2009-04-12 08:00","2009","04","12","08:00","2.6","","-7.8","","46","","34","","13","","24.1","","100.77","","","","","","Clear"
"2009-04-12 09:00","2009","04","12","09:00","3.7","","-7.3","","44","","3","","7","","24.1","","100.78","","","","","","Clear"
"2009-04-12 10:00","2009","04","12","10:00","5.1","","-8.0","","38","","36","","9","","24.1","","100.77","","","","","","Clear"
"2009-04-12 11:00","2009","04","12","11:00","6.3","","-7.0","","38","","2","","15","","24.1","","100.79","","","","","","Clear"
"2009-04-12 12:00","2009","04","12","12:00","7.1","","-5.9","","39","","5","","13","","24.1","","100.74","","","","","","Mainly Clear"
"2009-04-12 13:00","2009","04","12","13:00","7.0","","-6.2","","38","","5","","19","","24.1","","100.66","","","","","","Mainly Clear"
"2009-04-12 14:00","2009","04","12","14:00","7.8","","-5.8","","38","","5","","15","","24.1","","100.57","","","","","","Mainly Clear"
"2009-04-12 15:00","2009","04","12","15:00","7.6","","-6.2","","37","","6","","19","","24.1","","100.52","","","","","","Mainly Clear"
"2009-04-12 16:00","2009","04","12","16:00","7.9","","-7.2","","33","","6","","26","","24.1","","100.43","","","","","","Mainly Clear"
"2009-04-12 17:00","2009","04","12","17:00","6.7","","-10.3","","28","","7","","28","","24.1","","100.50","","","","","","Mainly Clear"
"2009-04-12 18:00","2009","04","12","18:00","5.5","","-9.1","","34","","6","","28","","24.1","","100.45","","","","","","Mainly Clear"
"2009-04-12 19:00","2009","04","12","19:00","3.8","","-7.5","","43","","5","","20","","24.1","","100.45","","","","","","Mostly Cloudy"
"2009-04-12 20:00","2009","04","12","20:00","2.0","","-8.3","","46","","5","","11","","24.1","","100.43","","","","","","Mostly Cloudy"
"2009-04-12 21:00","2009","04","12","21:00","1.2","","-9.2","","46","","4","","15","","24.1","","100.47","","","","","","Mainly Clear"
"2009-04-12 22:00","2009","04","12","22:00","0.9","","-7.4","","54","","5","","7","","24.1","","100.44","","","","","","Mostly Cloudy"
"2009-04-12 23:00","2009","04","12","23:00","0.7","","-6.4","","59","","5","","9","","24.1","","100.43","","","","","","Mostly Cloudy"
"2009-04-13 00:00","2009","04","13","00:00","-0.3","","-4.9","","71","","7","","9","","24.1","","100.35","","","","-3","","Mostly Cloudy"
"2009-04-13 01:00","2009","04","13","01:00","-0.1","","-4.3","","73","","6","","11","","24.1","","100.29","","","","-4","","Mostly Cloudy"
"2009-04-13 02:00","2009","04","13","02:00","0.2","","-3.3","","77","","6","","15","","24.1","","100.13","","","","","","Mostly Cloudy"
"2009-04-13 03:00","2009","04","13","03:00","0.6","","-2.7","","79","","6","","15","","24.1","","100.11","","","","","","Mostly Cloudy"
"2009-04-13 04:00","2009","04","13","04:00","0.9","","-2.7","","77","","8","","15","","24.1","","99.99","","","","","","Mostly Cloudy"
"2009-04-13 05:00","2009","04","13","05:00","-0.3","","-5.3","","69","","9","","19","","24.1","","99.96","","","","-5","","Mostly Cloudy"
"2009-04-13 06:00","2009","04","13","06:00","0.3","","-3.8","","74","","9","","22","","24.1","","99.89","","","","","","Mostly Cloudy"
"2009-04-13 07:00","2009","04","13","07:00","1.2","","-1.9","","80","","9","","17","","24.1","","99.93","","","","","","Cloudy"
"2009-04-13 08:00","2009","04","13","08:00","2.4","","-0.6","","81","","9","","24","","24.1","","99.88","","","","","","Cloudy"
"2009-04-13 09:00","2009","04","13","09:00","3.8","","-1.7","","67","","10","","26","","24.1","","99.81","","","","","","Cloudy"
"2009-04-13 10:00","2009","04","13","10:00","4.9","","-2.5","","59","","10","","30","","24.1","","99.70","","","","","","Cloudy"
"2009-04-13 11:00","2009","04","13","11:00","5.5","","-5.1","","46","","9","","39","","24.1","","99.63","","","","","","Cloudy"
"2009-04-13 12:00","2009","04","13","12:00","6.1","","-6.1","","41","","7","","37","","24.1","","99.51","","","","","","Cloudy"
"2009-04-13 13:00","2009","04","13","13:00","6.3","","-6.6","","39","","7","","33","","24.1","","99.43","","","","","","Cloudy"
"2009-04-13 14:00","2009","04","13","14:00","6.2","","-6.6","","39","","8","","35","","24.1","","99.34","","","","","","Cloudy"
"2009-04-13 15:00","2009","04","13","15:00","6.6","","-7.8","","35","","8","","35","","24.1","","99.25","","","","","","Cloudy"
"2009-04-13 16:00","2009","04","13","16:00","6.3","","-8.2","","35","","8","","30","","24.1","","99.19","","","","","","Cloudy"
"2009-04-13 17:00","2009","04","13","17:00","6.7","","-7.0","","37","","7","","22","","24.1","","99.16","","","","","","Rain Showers"
"2009-04-13 18:00","2009","04","13","18:00","6.5","","-6.7","","38","","8","","20","","24.1","","99.08","","","","","","Cloudy"
"2009-04-13 19:00","2009","04","13","19:00","6.5","","-6.3","","39","","8","","26","","24.1","","99.03","","","","","","Cloudy"
"2009-04-13 20:00","2009","04","13","20:00","6.4","","-5.6","","42","","9","","28","","24.1","","99.00","","","","","","Cloudy"
"2009-04-13 21:00","2009","04","13","21:00","6.6","","-4.8","","44","","9","","19","","24.1","","99.02","","","","","","Cloudy"
"2009-04-13 22:00","2009","04","13","22:00","7.1","","-4.6","","43","","9","","22","","24.1","","98.91","","","","","","Cloudy"
"2009-04-13 23:00","2009","04","13","23:00","6.6","","-4.6","","45","","9","","30","","24.1","","98.89","","","","","","Cloudy"
"2009-04-14 00:00","2009","04","14","00:00","6.2","","-4.1","","48","","8","","22","","24.1","","98.88","","","","","","Cloudy"
"2009-04-14 01:00","2009","04","14","01:00","5.1","","-0.9","","65","","6","","22","","19.3","","98.85","","","","","","Rain Showers"
"2009-04-14 02:00","2009","04","14","02:00","4.4","","0.1","","74","","6","","26","","19.3","","98.77","","","","","","Rain Showers"
"2009-04-14 03:00","2009","04","14","03:00","4.2","","0.0","","74","","5","","19","","19.3","","98.75","","","","","","Rain Showers"
"2009-04-14 04:00","2009","04","14","04:00","4.1","","0.7","","78","","8","","22","","19.3","","98.74","","","","","","Rain"
"2009-04-14 05:00","2009","04","14","05:00","4.0","","0.9","","80","","7","","28","","24.1","","98.72","","","","","","Drizzle"
"2009-04-14 06:00","2009","04","14","06:00","4.1","","0.8","","79","","7","","22","","16.1","","98.74","","","","","","Rain"
"2009-04-14 07:00","2009","04","14","07:00","4.0","","0.4","","77","","7","","24","","19.3","","98.73","","","","","","Rain"
"2009-04-14 08:00","2009","04","14","08:00","4.7","","0.0","","72","","7","","30","","24.1","","98.72","","","","","","Rain"
"2009-04-14 09:00","2009","04","14","09:00","5.3","","-0.3","","67","","7","","28","","24.1","","98.69","","","","","","Cloudy"
"2009-04-14 10:00","2009","04","14","10:00","6.3","","-0.8","","60","","7","","30","","24.1","","98.72","","","","","","Cloudy"
"2009-04-14 11:00","2009","04","14","11:00","5.5","","0.4","","70","","7","","28","","11.3","","98.70","","","","","","Rain"
"2009-04-14 12:00","2009","04","14","12:00","6.6","","1.2","","68","","6","","28","","19.3","","98.68","","","","","","Rain"
"2009-04-14 13:00","2009","04","14","13:00","7.5","","1.2","","64","","7","","24","","24.1","","98.69","","","","","","Rain"
"2009-04-14 14:00","2009","04","14","14:00","6.8","","2.3","","73","","7","","26","","19.3","","98.70","","","","","","Rain"
"2009-04-14 15:00","2009","04","14","15:00","6.8","","3.0","","77","","5","","24","","12.9","","98.69","","","","","","Rain"
"2009-04-14 16:00","2009","04","14","16:00","6.2","","4.2","","87","","2","","13","","9.7","","98.72","","","","","","Rain,Fog"
"2009-04-14 17:00","2009","04","14","17:00","6.6","","4.8","","88","","4","","11","","4.0","","98.79","","","","","","Rain,Fog"
"2009-04-14 18:00","2009","04","14","18:00","6.1","","4.1","","87","","4","","20","","6.4","","98.82","","","","","","Rain,Fog"
"2009-04-14 19:00","2009","04","14","19:00","5.8","","3.8","","87","","3","","24","","4.8","","98.84","","","","","","Rain,Fog"
"2009-04-14 20:00","2009","04","14","20:00","5.3","","3.4","","88","","3","","20","","6.4","","98.92","","","","","","Moderate Rain,Fog"
"2009-04-14 21:00","2009","04","14","21:00","5.1","","3.1","","87","","3","","24","","6.4","","98.98","","","","","","Rain,Fog"
"2009-04-14 22:00","2009","04","14","22:00","4.8","","2.6","","86","","4","","24","","9.7","","99.00","","","","","","Rain,Fog"
"2009-04-14 23:00","2009","04","14","23:00","4.8","","2.2","","83","","2","","26","","9.7","","99.01","","","","","","Rain,Fog"
"2009-04-15 00:00","2009","04","15","00:00","4.9","","2.3","","83","","3","","28","","9.7","","99.01","","","","","","Rain,Fog"
"2009-04-15 01:00","2009","04","15","01:00","4.8","","2.9","","87","","3","","28","","9.7","","99.03","","","","","","Rain,Fog"
"2009-04-15 02:00","2009","04","15","02:00","4.9","","2.8","","86","","3","","24","","19.3","","99.05","","","","","","Cloudy"
"2009-04-15 03:00","2009","04","15","03:00","5.1","","3.0","","86","","4","","22","","12.9","","99.09","","","","","","Rain Showers"
"2009-04-15 04:00","2009","04","15","04:00","5.2","","2.4","","82","","3","","20","","19.3","","99.16","","","","","","Rain Showers"
"2009-04-15 05:00","2009","04","15","05:00","5.1","","3.0","","86","","2","","20","","19.3","","99.23","","","","","","Rain Showers"
"2009-04-15 06:00","2009","04","15","06:00","5.0","","2.6","","84","","3","","20","","9.7","","99.32","","","","","","Rain Showers,Fog"
"2009-04-15 07:00","2009","04","15","07:00","5.2","","2.1","","80","","3","","20","","12.9","","99.42","","","","","","Rain"
"2009-04-15 08:00","2009","04","15","08:00","5.4","","2.1","","79","","3","","22","","16.1","","99.51","","","","","","Rain"
"2009-04-15 09:00","2009","04","15","09:00","5.8","","2.5","","79","","4","","22","","24.1","","99.56","","","","","","Rain"
"2009-04-15 10:00","2009","04","15","10:00","7.2","","3.8","","79","","5","","24","","24.1","","99.63","","","","","","Rain"
"2009-04-15 11:00","2009","04","15","11:00","8.2","","3.2","","71","","4","","26","","24.1","","99.70","","","","","","Cloudy"
"2009-04-15 12:00","2009","04","15","12:00","9.3","","1.4","","58","","3","","22","","24.1","","99.75","","","","","","Cloudy"
"2009-04-15 13:00","2009","04","15","13:00","12.0","","0.5","","45","","3","","28","","24.1","","99.77","","","","","","Cloudy"
"2009-04-15 14:00","2009","04","15","14:00","12.8","","0.2","","42","","3","","24","","24.1","","99.79","","","","","","Cloudy"
"2009-04-15 15:00","2009","04","15","15:00","13.6","","-0.4","","38","","3","","20","","24.1","","99.81","","","","","","Mostly Cloudy"
"2009-04-15 16:00","2009","04","15","16:00","13.9","","-1.0","","36","","4","","22","","24.1","","99.85","","","","","","Mostly Cloudy"
"2009-04-15 17:00","2009","04","15","17:00","12.9","","-0.6","","39","","4","","15","","24.1","","99.92","","","","","","Mostly Cloudy"
"2009-04-15 18:00","2009","04","15","18:00","11.6","","-0.2","","44","","3","","15","","24.1","","99.97","","","","","","Mostly Cloudy"
"2009-04-15 19:00","2009","04","15","19:00","10.3","","0.3","","50","","4","","19","","24.1","","100.03","","","","","","Mostly Cloudy"
"2009-04-15 20:00","2009","04","15","20:00","8.2","","0.5","","58","","5","","13","","24.1","","100.13","","","","","","Mostly Cloudy"
"2009-04-15 21:00","2009","04","15","21:00","6.9","","0.4","","63","","8","","6","","24.1","","100.21","","","","","","Mostly Cloudy"
"2009-04-15 22:00","2009","04","15","22:00","6.5","","0.0","","63","","2","","7","","24.1","","100.27","","","","","","Mostly Cloudy"
"2009-04-15 23:00","2009","04","15","23:00","6.6","","-4.3","","46","","1","","9","","24.1","","100.32","","","","","","Clear"
"2009-04-16 00:00","2009","04","16","00:00","5.9","","-4.6","","47","","2","","7","","24.1","","100.36","","","","","","Clear"
"2009-04-16 01:00","2009","04","16","01:00","5.0","","-3.7","","53","","2","","6","","24.1","","100.44","","","","","","Clear"
"2009-04-16 02:00","2009","04","16","02:00","4.4","","-3.9","","55","","36","","7","","24.1","","100.39","","","","","","Clear"
"2009-04-16 03:00","2009","04","16","03:00","3.8","","-3.7","","58","","1","","6","","24.1","","100.40","","","","","","Clear"
"2009-04-16 04:00","2009","04","16","04:00","3.1","","-3.6","","61","","35","","7","","24.1","","100.46","","","","","","Clear"
"2009-04-16 05:00","2009","04","16","05:00","3.0","","-3.5","","62","","","","0","","24.1","","100.51","","","","","","Clear"
"2009-04-16 06:00","2009","04","16","06:00","2.5","","-3.7","","64","","36","","4","","24.1","","100.54","","","","","","Clear"
"2009-04-16 07:00","2009","04","16","07:00","3.7","","-2.4","","64","","1","","7","","24.1","","100.67","","","","","","Clear"
"2009-04-16 08:00","2009","04","16","08:00","6.2","","-1.4","","58","","5","","11","","24.1","","100.73","","","","","","Clear"
"2009-04-16 09:00","2009","04","16","09:00","8.5","","-0.5","","53","","","","0","","24.1","","100.78","","","","","","Clear"
"2009-04-16 10:00","2009","04","16","10:00","11.4","","-0.5","","44","","","","0","","24.1","","100.78","","","","","","Clear"
"2009-04-16 11:00","2009","04","16","11:00","13.5","","0.7","","42","","","","0","","24.1","","100.78","","","","","","Clear"
"2009-04-16 12:00","2009","04","16","12:00","14.6","","-0.6","","35","","4","","9","","24.1","","100.76","","","","","","Clear"
"2009-04-16 13:00","2009","04","16","13:00","15.6","","-4.2","","25","","6","","13","","24.1","","100.72","","","","","","Clear"
"2009-04-16 14:00","2009","04","16","14:00","15.9","","-3.5","","26","","7","","19","","24.1","","100.70","","","","","","Clear"
"2009-04-16 15:00","2009","04","16","15:00","16.2","","-2.7","","27","","6","","22","","24.1","","100.66","","","","","","Clear"
"2009-04-16 16:00","2009","04","16","16:00","15.3","","-2.7","","29","","7","","22","","24.1","","100.65","","","","","","Clear"
"2009-04-16 17:00","2009","04","16","17:00","14.6","","-3.4","","29","","7","","17","","24.1","","100.65","","","","","","Clear"
"2009-04-16 18:00","2009","04","16","18:00","14.0","","-4.1","","28","","8","","15","","24.1","","100.65","","","","","","Clear"
"2009-04-16 19:00","2009","04","16","19:00","12.6","","-2.4","","35","","8","","7","","24.1","","100.65","","","","","","Clear"
"2009-04-16 20:00","2009","04","16","20:00","11.5","","-4.5","","32","","","","0","","24.1","","100.67","","","","","","Clear"
"2009-04-16 21:00","2009","04","16","21:00","7.8","","-0.7","","55","","6","","15","","24.1","","100.71","","","","","","Clear"
"2009-04-16 22:00","2009","04","16","22:00","7.3","","-2.1","","51","","5","","9","","24.1","","100.74","","","","","","Clear"
"2009-04-16 23:00","2009","04","16","23:00","7.0","","-3.0","","49","","","","0","","24.1","","100.71","","","","","","Clear"
"2009-04-17 00:00","2009","04","17","00:00","4.8","","-1.9","","62","","","","0","","24.1","","100.69","","","","","","Clear"
"2009-04-17 01:00","2009","04","17","01:00","5.1","","-1.6","","62","","","","0","","24.1","","100.67","","","","","","Clear"
"2009-04-17 02:00","2009","04","17","02:00","4.4","","-2.0","","63","","","","0","","24.1","","100.64","","","","","","Clear"
"2009-04-17 03:00","2009","04","17","03:00","3.2","","-1.9","","69","","","","0","","24.1","","100.64","","","","","","Clear"
"2009-04-17 04:00","2009","04","17","04:00","3.8","","-2.8","","62","","","","0","","24.1","","100.65","","","","","","Clear"
"2009-04-17 05:00","2009","04","17","05:00"
"2009-04-17 06:00","2009","04","17","06:00","2.9","","-2.5","","68","","","","0","","19.3","","100.66","","","","","","Clear"
"2009-04-17 07:00","2009","04","17","07:00","5.8","","-1.3","","60","","","","0","","24.1","","100.72","","","","","","Mainly Clear"
"2009-04-17 08:00","2009","04","17","08:00","9.0","","-1.8","","47","","26","","6","","24.1","","100.74","","","","","","Mainly Clear"
"2009-04-17 09:00","2009","04","17","09:00","11.7","","-2.2","","38","","26","","9","","24.1","","100.71","","","","","","Mainly Clear"
"2009-04-17 10:00","2009","04","17","10:00","13.9","","-1.7","","34","","27","","15","","24.1","","100.70","","","","","","Mainly Clear"
"2009-04-17 11:00","2009","04","17","11:00","16.7","","-0.6","","31","","28","","13","","24.1","","100.67","","","","","","Mainly Clear"
"2009-04-17 12:00","2009","04","17","12:00","18.3","","0.3","","30","","23","","9","","24.1","","100.59","","","","","","Mainly Clear"
"2009-04-17 13:00","2009","04","17","13:00","19.4","","0.8","","29","","","","0","","24.1","","100.48","","","","","","Clear"
"2009-04-17 14:00","2009","04","17","14:00","20.4","","1.9","","29","","23","","17","","24.1","","100.40","","","","","","Clear"
"2009-04-17 15:00","2009","04","17","15:00","20.2","","2.9","","32","","21","","19","","24.1","","100.31","","","","","","Clear"
"2009-04-17 16:00","2009","04","17","16:00","20.2","","3.0","","32","","20","","22","","24.1","","100.24","","","","","","Clear"
"2009-04-17 17:00","2009","04","17","17:00","19.9","","1.7","","30","","21","","24","","24.1","","100.18","","","","","","Clear"
"2009-04-17 18:00","2009","04","17","18:00","18.6","","1.3","","31","","20","","22","","19.3","","100.13","","","","","","Clear"
"2009-04-17 19:00","2009","04","17","19:00","17.2","","2.0","","36","","20","","19","","19.3","","100.06","","","","","","Mainly Clear"
"2009-04-17 20:00","2009","04","17","20:00","14.2","","2.7","","46","","22","","15","","24.1","","100.05","","","","","","Mainly Clear"
"2009-04-17 21:00","2009","04","17","21:00","12.8","","3.2","","52","","23","","11","","24.1","","100.08","","","","","","Clear"
"2009-04-17 22:00","2009","04","17","22:00","12.9","","3.7","","54","","23","","15","","24.1","","100.06","","","","","","Clear"
"2009-04-17 23:00","2009","04","17","23:00","12.6","","3.9","","55","","24","","15","","24.1","","100.02","","","","","","Clear"
"2009-04-18 00:00","2009","04","18","00:00","13.7","","2.6","","47","","27","","15","","24.1","","100.00","","","","","","Clear"
"2009-04-18 01:00","2009","04","18","01:00","13.0","","2.7","","50","","25","","13","","24.1","","99.95","","","","","","Clear"
"2009-04-18 02:00","2009","04","18","02:00","11.3","","2.5","","55","","23","","7","","24.1","","99.85","","","","","","Clear"
"2009-04-18 03:00","2009","04","18","03:00","10.9","","1.9","","54","","28","","7","","24.1","","99.81","","","","","","Clear"
"2009-04-18 04:00","2009","04","18","04:00","10.0","","1.6","","56","","25","","6","","24.1","","99.79","","","","","","Clear"
"2009-04-18 05:00","2009","04","18","05:00","9.7","","1.2","","55","","24","","9","","24.1","","99.79","","","","","","Clear"
"2009-04-18 06:00","2009","04","18","06:00","9.4","","1.1","","56","","26","","9","","24.1","","99.79","","","","","","Mainly Clear"
"2009-04-18 07:00","2009","04","18","07:00","11.0","","1.3","","51","","25","","9","","24.1","","99.81","","","","","","Mainly Clear"
"2009-04-18 08:00","2009","04","18","08:00","14.3","","2.4","","45","","26","","15","","24.1","","99.80","","","","","","Mostly Cloudy"
"2009-04-18 09:00","2009","04","18","09:00","17.3","","2.7","","38","","25","","20","","24.1","","99.79","","","","","","Mostly Cloudy"
"2009-04-18 10:00","2009","04","18","10:00","19.4","","2.3","","32","","27","","15","","24.1","","99.72","","","","","","Mostly Cloudy"
"2009-04-18 11:00","2009","04","18","11:00","21.0","","3.4","","31","","27","","11","","24.1","","99.65","","","","","","Cloudy"
"2009-04-18 12:00","2009","04","18","12:00","21.6","","3.8","","31","","24","","15","","24.1","","99.58","","","","","","Mostly Cloudy"
"2009-04-18 13:00","2009","04","18","13:00","22.2","","4.7","","32","","22","","22","","24.1","","99.51","","","","","","Mostly Cloudy"
"2009-04-18 14:00","2009","04","18","14:00","22.2","","3.3","","29","","20","","28","","24.1","","99.46","","","","","","Mostly Cloudy"
"2009-04-18 15:00","2009","04","18","15:00","23.1","","2.5","","26","","22","","28","","24.1","","99.33","","","","","","Mainly Clear"
"2009-04-18 16:00","2009","04","18","16:00","23.8","","1.6","","23","","22","","17","","24.1","","99.24","","","","","","Mainly Clear"
"2009-04-18 17:00","2009","04","18","17:00","24.2","","0.1","","20","","24","","17","","24.1","","99.24","","","","","","Mainly Clear"
"2009-04-18 18:00","2009","04","18","18:00","23.0","","-0.4","","21","","25","","19","","24.1","","99.23","","","","","","Mostly Cloudy"
"2009-04-18 19:00","2009","04","18","19:00","20.5","","4.3","","34","","21","","9","","24.1","","99.26","","","","","","Mostly Cloudy"
"2009-04-18 20:00","2009","04","18","20:00","18.8","","4.3","","38","","21","","11","","24.1","","99.27","","","","","","Mostly Cloudy"
"2009-04-18 21:00","2009","04","18","21:00","17.6","","4.3","","41","","23","","7","","24.1","","99.25","","","","","","Mostly Cloudy"
"2009-04-18 22:00","2009","04","18","22:00","17.1","","3.7","","41","","27","","9","","24.1","","99.25","","","","","","Mostly Cloudy"
"2009-04-18 23:00","2009","04","18","23:00","17.6","","2.9","","37","","28","","9","","24.1","","99.27","","","","","","Cloudy"
"2009-04-19 00:00","2009","04","19","00:00","12.6","","3.4","","53","","4","","17","","24.1","","99.33","","","","","","Mostly Cloudy"
"2009-04-19 01:00","2009","04","19","01:00","11.5","","4.6","","63","","4","","17","","24.1","","99.29","","","","","","Cloudy"
"2009-04-19 02:00","2009","04","19","02:00","11.1","","3.0","","57","","2","","13","","24.1","","99.31","","","","","","Mostly Cloudy"
"2009-04-19 03:00","2009","04","19","03:00","10.0","","3.9","","66","","2","","17","","24.1","","99.29","","","","","","Mostly Cloudy"
"2009-04-19 04:00","2009","04","19","04:00","8.8","","4.4","","74","","4","","24","","24.1","","99.35","","","","","","Mostly Cloudy"
"2009-04-19 05:00","2009","04","19","05:00","8.4","","4.6","","77","","7","","19","","24.1","","99.38","","","","","","Mostly Cloudy"
"2009-04-19 06:00","2009","04","19","06:00","8.4","","5.1","","80","","7","","15","","19.3","","99.46","","","","","","Cloudy"
"2009-04-19 07:00","2009","04","19","07:00","8.3","","5.4","","82","","7","","17","","24.1","","99.44","","","","","","Cloudy"
"2009-04-19 08:00","2009","04","19","08:00","8.8","","5.2","","78","","8","","19","","24.1","","99.46","","","","","","Mostly Cloudy"
"2009-04-19 09:00","2009","04","19","09:00","8.9","","5.1","","77","","7","","26","","24.1","","99.42","","","","","","Mostly Cloudy"
"2009-04-19 10:00","2009","04","19","10:00","9.3","","4.9","","74","","7","","20","","24.1","","99.38","","","","","","Cloudy"
"2009-04-19 11:00","2009","04","19","11:00","10.9","","4.9","","66","","9","","20","","24.1","","99.36","","","","","","Cloudy"
"2009-04-19 12:00","2009","04","19","12:00","11.7","","4.9","","63","","8","","20","","24.1","","99.28","","","","","","Cloudy"
"2009-04-19 13:00","2009","04","19","13:00","11.8","","5.0","","63","","11","","28","","24.1","","99.29","","","","","","Cloudy"
"2009-04-19 14:00","2009","04","19","14:00","12.0","","4.7","","61","","11","","17","","24.1","","99.22","","","","","","Cloudy"
"2009-04-19 15:00","2009","04","19","15:00","11.4","","4.9","","64","","9","","20","","24.1","","99.11","","","","","","Rain Showers"
"2009-04-19 16:00","2009","04","19","16:00","10.0","","4.7","","70","","9","","19","","24.1","","99.03","","","","","","Rain"
"2009-04-19 17:00","2009","04","19","17:00","10.4","","5.4","","71","","9","","20","","24.1","","98.98","","","","","","Rain"
"2009-04-19 18:00","2009","04","19","18:00","10.0","","5.4","","73","","10","","15","","24.1","","98.93","","","","","","Rain"
"2009-04-19 19:00","2009","04","19","19:00","9.2","","5.1","","75","","10","","22","","19.3","","98.90","","","","","","Rain"
"2009-04-19 20:00","2009","04","19","20:00","8.4","","5.1","","80","","9","","20","","24.1","","98.87","","","","","","Rain"
"2009-04-19 21:00","2009","04","19","21:00","7.6","","4.2","","79","","9","","32","","19.3","","98.84","","","","","","Moderate Rain"
"2009-04-19 22:00","2009","04","19","22:00","6.9","","3.7","","80","","8","","20","","11.3","","98.77","","","","","","Moderate Rain"
"2009-04-19 23:00","2009","04","19","23:00","5.8","","3.3","","84","","9","","28","","9.7","","98.67","","","","","","Rain,Fog"
"2009-04-20 00:00","2009","04","20","00:00","5.6","","3.6","","87","","9","","30","","8.0","","98.52","","","","","","Moderate Rain,Fog"
"2009-04-20 01:00","2009","04","20","01:00","5.8","","4.1","","89","","9","","37","","8.0","","98.34","","","","","","Rain,Fog"
"2009-04-20 02:00","2009","04","20","02:00","6.2","","4.9","","91","","9","","32","","6.4","","98.15","","","","","","Rain,Fog"
"2009-04-20 03:00","2009","04","20","03:00","7.8","","6.7","","93","","10","","28","","4.8","","98.00","","","","","","Rain,Fog"
"2009-04-20 04:00","2009","04","20","04:00","8.3","","7.2","","93","","11","","33","","6.4","","97.91","","","","","","Rain,Fog"
"2009-04-20 05:00","2009","04","20","05:00","8.7","","7.8","","94","","12","","32","","4.8","","97.83","","","","","","Rain,Fog"
"2009-04-20 06:00","2009","04","20","06:00","9.0","","8.2","","95","","12","","20","","2.4","","97.79","","","","","","Fog"
"2009-04-20 07:00","2009","04","20","07:00","10.1","","9.3","","95","","14","","17","","1.6","","97.74","","","","","","Rain Showers,Fog"
"2009-04-20 08:00","2009","04","20","08:00","10.7","","9.8","","94","","14","","32","","4.8","","97.69","","","","","","Rain Showers,Fog"
"2009-04-20 09:00","2009","04","20","09:00","10.7","","9.6","","93","","14","","33","","9.7","","97.65","","","","","","Rain Showers,Fog"
"2009-04-20 10:00","2009","04","20","10:00","10.5","","9.2","","92","","14","","37","","6.4","","97.61","","","","","","Rain,Fog"
"2009-04-20 11:00","2009","04","20","11:00","10.2","","9.0","","92","","15","","33","","4.8","","97.58","","","","","","Rain,Fog"
"2009-04-20 12:00","2009","04","20","12:00","10.1","","8.9","","92","","15","","35","","9.7","","97.52","","","","","","Rain,Fog"
"2009-04-20 13:00","2009","04","20","13:00","10.0","","8.9","","93","","15","","37","","6.4","","97.43","","","","","","Rain,Fog"
"2009-04-20 14:00","2009","04","20","14:00","10.0","","8.7","","92","","16","","35","","9.7","","97.45","","","","","","Rain,Fog"
"2009-04-20 15:00","2009","04","20","15:00","9.6","","8.1","","90","","25","","28","","6.4","","97.53","","","","","","Rain,Fog"
"2009-04-20 16:00","2009","04","20","16:00","9.5","","7.2","","86","","26","","30","","12.9","","97.65","","","","","","Rain"
"2009-04-20 17:00","2009","04","20","17:00","8.5","","5.4","","81","","25","","37","","24.1","","97.80","","","","","","Cloudy"
"2009-04-20 18:00","2009","04","20","18:00","7.6","","3.9","","77","","25","","28","","24.1","","97.93","","","","","","Cloudy"
"2009-04-20 19:00","2009","04","20","19:00","7.7","","3.7","","76","","24","","20","","24.1","","98.01","","","","","","Cloudy"
"2009-04-20 20:00","2009","04","20","20:00","7.2","","2.8","","74","","25","","24","","24.1","","98.12","","","","","","Mostly Cloudy"
"2009-04-20 21:00","2009","04","20","21:00","7.3","","3.2","","75","","24","","17","","24.1","","98.18","","","","","","Mostly Cloudy"
"2009-04-20 22:00","2009","04","20","22:00","7.1","","3.4","","77","","22","","17","","24.1","","98.19","","","","","","Mainly Clear"
"2009-04-20 23:00","2009","04","20","23:00","7.1","","2.9","","75","","22","","22","","24.1","","98.16","","","","","","Mainly Clear"
"2009-04-21 00:00","2009","04","21","00:00","6.0","","3.3","","83","","19","","13","","24.1","","98.14","","","","","","Mainly Clear"
"2009-04-21 01:00","2009","04","21","01:00","6.7","","4.9","","88","","20","","11","","19.3","","98.10","","","","","","Cloudy"
"2009-04-21 02:00","2009","04","21","02:00","6.5","","4.8","","89","","19","","9","","24.1","","98.02","","","","","","Cloudy"
"2009-04-21 03:00","2009","04","21","03:00","6.1","","4.3","","88","","21","","9","","24.1","","97.99","","","","","","Rain Showers"
"2009-04-21 04:00","2009","04","21","04:00","6.1","","4.1","","87","","21","","6","","24.1","","97.95","","","","","","Rain Showers"
"2009-04-21 05:00","2009","04","21","05:00","6.5","","4.6","","88","","20","","17","","24.1","","97.92","","","","","","Cloudy"
"2009-04-21 06:00","2009","04","21","06:00","6.5","","4.5","","87","","19","","19","","19.3","","97.90","","","","","","Cloudy"
"2009-04-21 07:00","2009","04","21","07:00","6.8","","4.6","","86","","19","","22","","24.1","","97.92","","","","","","Cloudy"
"2009-04-21 08:00","2009","04","21","08:00","7.3","","4.6","","83","","20","","28","","19.3","","97.91","","","","","","Cloudy"
"2009-04-21 09:00","2009","04","21","09:00","7.6","","4.9","","83","","20","","24","","19.3","","97.88","","","","","","Rain Showers"
"2009-04-21 10:00","2009","04","21","10:00","7.9","","4.6","","80","","20","","22","","24.1","","97.86","","","","","","Mostly Cloudy"
"2009-04-21 11:00","2009","04","21","11:00","9.1","","4.0","","70","","20","","39","","24.1","","97.82","","","","","","Mostly Cloudy"
"2009-04-21 12:00","2009","04","21","12:00","8.4","","3.9","","73","","19","","33","","24.1","","97.80","","","","","","Mostly Cloudy"
"2009-04-21 13:00","2009","04","21","13:00","8.4","","3.4","","71","","22","","33","","24.1","","97.80","","","","","","Mostly Cloudy"
"2009-04-21 14:00","2009","04","21","14:00","9.4","","3.8","","68","","24","","33","","24.1","","97.78","","","","","","Mostly Cloudy"
"2009-04-21 15:00","2009","04","21","15:00","10.2","","0.8","","52","","23","","33","","24.1","","97.76","","","","","","Mostly Cloudy"
"2009-04-21 16:00","2009","04","21","16:00","7.5","","1.9","","68","","26","","43","","24.1","","97.83","","","","","","Rain Showers"
"2009-04-21 17:00","2009","04","21","17:00","6.0","","3.1","","82","","24","","26","","16.1","","97.88","","","","","","Rain Showers"
"2009-04-21 18:00","2009","04","21","18:00","7.5","","4.0","","78","","24","","22","","24.1","","97.89","","","","","","Rain Showers"
"2009-04-21 19:00","2009","04","21","19:00","6.9","","3.0","","76","","22","","24","","24.1","","97.91","","","","","","Mostly Cloudy"
"2009-04-21 20:00","2009","04","21","20:00","6.4","","0.9","","68","","25","","22","","24.1","","97.98","","","","","","Cloudy"
"2009-04-21 21:00","2009","04","21","21:00","5.8","","0.4","","68","","24","","30","","24.1","","98.02","","","","","","Mostly Cloudy"
"2009-04-21 22:00","2009","04","21","22:00","5.1","","0.4","","72","","25","","28","","24.1","","98.04","","","","","","Mostly Cloudy"
"2009-04-21 23:00","2009","04","21","23:00","5.1","","0.4","","72","","24","","28","","24.1","","98.02","","","","","","Mostly Cloudy"
"2009-04-22 00:00","2009","04","22","00:00","4.6","","0.4","","74","","24","","22","","24.1","","98.02","","","","","","Mostly Cloudy"
"2009-04-22 01:00","2009","04","22","01:00","4.6","","0.2","","73","","26","","26","","24.1","","98.02","","","","","","Mostly Cloudy"
"2009-04-22 02:00","2009","04","22","02:00","4.3","","0.0","","74","","25","","22","","24.1","","98.02","","","","","","Mostly Cloudy"
"2009-04-22 03:00","2009","04","22","03:00","4.1","","0.3","","76","","26","","22","","24.1","","98.05","","","","","","Mostly Cloudy"
"2009-04-22 04:00","2009","04","22","04:00","4.0","","-0.3","","74","","27","","20","","24.1","","98.13","","","","","","Mostly Cloudy"
"2009-04-22 05:00","2009","04","22","05:00","3.5","","0.1","","78","","27","","24","","24.1","","98.16","","","","","","Rain Showers"
"2009-04-22 06:00","2009","04","22","06:00","3.6","","-0.2","","76","","27","","22","","24.1","","98.22","","","","","","Mostly Cloudy"
"2009-04-22 07:00","2009","04","22","07:00","3.9","","-0.3","","74","","27","","24","","24.1","","98.31","","","","","","Mostly Cloudy"
"2009-04-22 08:00","2009","04","22","08:00","4.1","","-0.3","","73","","29","","26","","24.1","","98.36","","","","","","Mostly Cloudy"
"2009-04-22 09:00","2009","04","22","09:00","5.2","","-0.5","","67","","28","","26","","24.1","","98.40","","","","","","Mostly Cloudy"
"2009-04-22 10:00","2009","04","22","10:00","6.5","","-0.2","","62","","30","","20","","24.1","","98.44","","","","","","Mostly Cloudy"
"2009-04-22 11:00","2009","04","22","11:00","8.8","","-0.6","","52","","30","","30","","24.1","","98.46","","","","","","Mostly Cloudy"
"2009-04-22 12:00","2009","04","22","12:00","10.4","","-1.4","","44","","30","","32","","24.1","","98.50","","","","","","Mainly Clear"
"2009-04-22 13:00","2009","04","22","13:00","11.5","","-2.2","","38","","28","","39","","24.1","","98.50","","","","","","Mostly Cloudy"
"2009-04-22 14:00","2009","04","22","14:00","11.5","","-0.9","","42","","29","","30","","24.1","","98.53","","","","","","Mostly Cloudy"
"2009-04-22 15:00","2009","04","22","15:00","11.1","","0.1","","47","","26","","33","","24.1","","98.53","","","","","","Rain Showers"
"2009-04-22 16:00","2009","04","22","16:00","10.9","","0.4","","48","","32","","26","","24.1","","98.55","","","","","","Mostly Cloudy"
"2009-04-22 17:00","2009","04","22","17:00","9.1","","2.6","","64","","30","","9","","19.3","","98.65","","","","","","Moderate Rain Showers"
"2009-04-22 18:00","2009","04","22","18:00","9.7","","1.9","","58","","34","","28","","24.1","","98.72","","","","","","Mostly Cloudy"
"2009-04-22 19:00","2009","04","22","19:00","8.6","","0.9","","58","","33","","15","","24.1","","98.76","","","","","","Mostly Cloudy"
"2009-04-22 20:00","2009","04","22","20:00","8.4","","-0.5","","53","","31","","17","","24.1","","98.81","","","","","","Mainly Clear"
"2009-04-22 21:00","2009","04","22","21:00","7.3","","-0.3","","58","","28","","15","","24.1","","98.90","","","","","","Clear"
"2009-04-22 22:00","2009","04","22","22:00","6.7","","-0.5","","60","","32","","11","","24.1","","98.99","","","","","","Clear"
"2009-04-22 23:00","2009","04","22","23:00","6.5","","-4.0","","47","","34","","17","","24.1","","99.09","","","","","","Clear"
"2009-04-23 00:00","2009","04","23","00:00","4.8","","-2.8","","58","","35","","19","","24.1","","99.16","","","","","","Clear"
"2009-04-23 01:00","2009","04","23","01:00","3.8","","-4.1","","56","","33","","19","","24.1","","99.22","","","","","","Clear"
"2009-04-23 02:00","2009","04","23","02:00","3.3","","-4.2","","58","","32","","19","","24.1","","99.29","","","","","","Clear"
"2009-04-23 03:00","2009","04","23","03:00","3.2","","-4.2","","58","","33","","17","","24.1","","99.34","","","","","","Mainly Clear"
"2009-04-23 04:00","2009","04","23","04:00","2.2","","-3.9","","64","","27","","15","","24.1","","99.41","","","","","","Clear"
"2009-04-23 05:00","2009","04","23","05:00","1.6","","-3.9","","67","","26","","9","","24.1","","99.51","","","","","","Clear"
"2009-04-23 06:00","2009","04","23","06:00","1.5","","-3.9","","67","","29","","13","","24.1","","99.61","","","","","","Clear"
"2009-04-23 07:00","2009","04","23","07:00","2.5","","-3.4","","65","","32","","9","","24.1","","99.71","","","","","","Clear"
"2009-04-23 08:00","2009","04","23","08:00","3.9","","-3.0","","61","","34","","13","","24.1","","99.77","","","","","","Clear"
"2009-04-23 09:00","2009","04","23","09:00","5.3","","-2.7","","56","","5","","6","","24.1","","99.79","","","","","","Clear"
"2009-04-23 10:00","2009","04","23","10:00","7.5","","-1.8","","52","","","","0","","24.1","","99.83","","","","","","Mainly Clear"
"2009-04-23 11:00","2009","04","23","11:00","8.2","","-1.1","","52","","22","","7","","24.1","","99.88","","","","","","Mainly Clear"
"2009-04-23 12:00","2009","04","23","12:00","9.1","","-1.4","","48","","20","","6","","24.1","","99.86","","","","","","Mainly Clear"
"2009-04-23 13:00","2009","04","23","13:00","10.0","","1.1","","54","","20","","17","","24.1","","99.88","","","","","","Clear"
"2009-04-23 14:00","2009","04","23","14:00","11.3","","1.4","","50","","21","","17","","24.1","","99.82","","","","","","Clear"
"2009-04-23 15:00","2009","04","23","15:00","12.5","","1.0","","45","","21","","11","","24.1","","99.76","","","","","","Clear"
"2009-04-23 16:00","2009","04","23","16:00","12.8","","1.4","","46","","20","","19","","24.1","","99.68","","","","","","Mainly Clear"
"2009-04-23 17:00","2009","04","23","17:00","13.1","","0.6","","42","","20","","20","","24.1","","99.67","","","","","","Mostly Cloudy"
"2009-04-23 18:00","2009","04","23","18:00","12.8","","-0.5","","40","","20","","19","","24.1","","99.68","","","","","","Mostly Cloudy"
"2009-04-23 19:00","2009","04","23","19:00","11.8","","1.9","","51","","17","","17","","24.1","","99.58","","","","","","Cloudy"
"2009-04-23 20:00","2009","04","23","20:00","9.6","","2.0","","59","","6","","13","","24.1","","99.71","","","","","","Mainly Clear"
"2009-04-23 21:00","2009","04","23","21:00","8.1","","2.8","","69","","16","","15","","24.1","","99.64","","","","","","Mainly Clear"
"2009-04-23 22:00","2009","04","23","22:00","7.5","","3.6","","76","","16","","19","","24.1","","99.58","","","","","","Mainly Clear"
"2009-04-23 23:00","2009","04","23","23:00","7.1","","3.4","","77","","14","","9","","24.1","","99.52","","","","","","Mainly Clear"
"2009-04-24 00:00","2009","04","24","00:00","7.6","","3.6","","76","","16","","17","","24.1","","99.45","","","","","","Clear"
"2009-04-24 01:00","2009","04","24","01:00","7.3","","3.1","","75","","15","","11","","24.1","","99.43","","","","","","Mainly Clear"
"2009-04-24 02:00","2009","04","24","02:00","7.4","","2.3","","70","","13","","9","","24.1","","99.37","","","","","","Mainly Clear"
"2009-04-24 03:00","2009","04","24","03:00","8.6","","2.5","","65","","16","","13","","24.1","","99.27","","","","","","Mostly Cloudy"
"2009-04-24 04:00","2009","04","24","04:00","9.7","","2.8","","62","","16","","13","","24.1","","99.18","","","","","","Thunderstorms"
"2009-04-24 05:00","2009","04","24","05:00","11.4","","2.3","","54","","16","","19","","24.1","","99.14","","","","","","Mostly Cloudy"
"2009-04-24 06:00","2009","04","24","06:00","11.3","","2.0","","53","","16","","20","","24.1","","99.12","","","","","","Mostly Cloudy"
"2009-04-24 07:00","2009","04","24","07:00","11.5","","3.0","","56","","15","","19","","24.1","","99.11","","","","","","Mostly Cloudy"
"2009-04-24 08:00","2009","04","24","08:00","14.5","","5.1","","53","","17","","22","","24.1","","99.03","","","","","","Mostly Cloudy"
"2009-04-24 09:00","2009","04","24","09:00","17.8","","7.8","","52","","21","","30","","24.1","","98.99","","","","","","Mostly Cloudy"
"2009-04-24 10:00","2009","04","24","10:00","20.9","","10.5","","51","","21","","26","","24.1","","98.94","","","","","","Mostly Cloudy"
"2009-04-24 11:00","2009","04","24","11:00","24.1","","13.3","","51","","22","","32","","24.1","","98.91","","27","","","","Mainly Clear"
"2009-04-24 12:00","2009","04","24","12:00","26.0","","13.0","","45","","23","","39","","24.1","","98.93","","29","","","","Mostly Cloudy"
"2009-04-24 13:00","2009","04","24","13:00","27.8","","12.8","","40","","25","","39","","24.1","","98.97","","30","","","","Mostly Cloudy"
"2009-04-24 14:00","2009","04","24","14:00","29.3","","13.5","","38","","25","","35","","24.1","","98.99","","32","","","","Mostly Cloudy"
"2009-04-24 15:00","2009","04","24","15:00","29.4","","13.6","","38","","24","","30","","24.1","","98.98","","33","","","","Mostly Cloudy"
"2009-04-24 16:00","2009","04","24","16:00","30.3","","13.2","","35","","24","","26","","24.1","","98.96","","33","","","","Mostly Cloudy"
"2009-04-24 17:00","2009","04","24","17:00","29.8","","14.0","","38","","21","","30","","24.1","","98.97","","33","","","","Mostly Cloudy"
"2009-04-24 18:00","2009","04","24","18:00","29.6","","13.8","","38","","22","","26","","24.1","","98.98","","33","","","","Mostly Cloudy"
"2009-04-24 19:00","2009","04","24","19:00","25.9","","11.1","","40","","22","","37","","24.1","","99.05","","28","","","","Mostly Cloudy"
"2009-04-24 20:00","2009","04","24","20:00","24.2","","8.2","","36","","22","","32","","24.1","","99.12","","25","","","","Mainly Clear"
"2009-04-24 21:00","2009","04","24","21:00","22.3","","7.8","","39","","21","","19","","24.1","","99.17","","","","","","Mainly Clear"
"2009-04-24 22:00","2009","04","24","22:00","19.7","","8.3","","48","","20","","17","","24.1","","99.14","","","","","","Mainly Clear"
"2009-04-24 23:00","2009","04","24","23:00","19.5","","8.3","","48","","21","","20","","24.1","","99.11","","","","","","Mainly Clear"
"2009-04-25 00:00","2009","04","25","00:00","20.5","","8.2","","45","","21","","28","","24.1","","99.13","","","","","","Clear"
"2009-04-25 01:00","2009","04","25","01:00","21.1","","7.8","","42","","22","","22","","24.1","","99.14","","","","","","Clear"
"2009-04-25 02:00","2009","04","25","02:00","22.3","","7.1","","37","","22","","28","","24.1","","99.12","","","","","","Clear"
"2009-04-25 03:00","2009","04","25","03:00","19.2","","8.1","","49","","21","","19","","24.1","","99.22","","","","","","Mainly Clear"
"2009-04-25 04:00","2009","04","25","04:00","20.0","","8.6","","48","","22","","20","","24.1","","99.19","","","","","","Mainly Clear"
"2009-04-25 05:00","2009","04","25","05:00","21.5","","9.1","","45","","24","","32","","24.1","","99.28","","","","","","Mostly Cloudy"
"2009-04-25 06:00","2009","04","25","06:00","21.0","","9.7","","48","","23","","22","","24.1","","99.33","","","","","","Mostly Cloudy"
"2009-04-25 07:00","2009","04","25","07:00","20.8","","11.0","","53","","22","","24","","24.1","","99.38","","","","","","Mostly Cloudy"
"2009-04-25 08:00","2009","04","25","08:00","22.5","","11.7","","50","","24","","33","","24.1","","99.42","","25","","","","Mostly Cloudy"
"2009-04-25 09:00","2009","04","25","09:00","24.0","","12.5","","49","","23","","37","","24.1","","99.40","","27","","","","Mostly Cloudy"
"2009-04-25 10:00","2009","04","25","10:00","25.7","","13.6","","47","","23","","39","","24.1","","99.39","","29","","","","Mostly Cloudy"
"2009-04-25 11:00","2009","04","25","11:00","27.1","","14.3","","45","","23","","44","","24.1","","99.39","","31","","","","Mostly Cloudy"
"2009-04-25 12:00","2009","04","25","12:00","28.3","","14.8","","44","","23","","50","","24.1","","99.35","","32","","","","Mostly Cloudy"
"2009-04-25 13:00","2009","04","25","13:00","29.0","","14.8","","42","","23","","41","","24.1","","99.30","","33","","","","Mostly Cloudy"
"2009-04-25 14:00","2009","04","25","14:00","28.2","","14.1","","42","","24","","39","","24.1","","99.33","","32","","","","Cloudy"
"2009-04-25 15:00","2009","04","25","15:00","27.9","","14.5","","44","","24","","30","","24.1","","99.33","","32","","","","Cloudy"
"2009-04-25 16:00","2009","04","25","16:00","27.7","","14.7","","45","","24","","22","","24.1","","99.36","","31","","","","Cloudy"
"2009-04-25 17:00","2009","04","25","17:00","26.6","","16.0","","52","","34","","7","","24.1","","99.40","","31","","","","Cloudy"
"2009-04-25 18:00","2009","04","25","18:00","28.6","","13.7","","40","","23","","19","","24.1","","99.41","","32","","","","Mostly Cloudy"
"2009-04-25 19:00","2009","04","25","19:00","20.5","","15.7","","74","","4","","13","","24.1","","99.59","","25","","","","Cloudy"
"2009-04-25 20:00","2009","04","25","20:00","20.0","","15.5","","75","","","","0","","24.1","","99.64","","","","","","Cloudy"
"2009-04-25 21:00","2009","04","25","21:00","19.1","","15.0","","77","","","","0","","24.1","","99.71","","","","","","Mostly Cloudy"
"2009-04-25 22:00","2009","04","25","22:00","17.6","","14.4","","82","","","","0","","24.1","","99.73","","","","","","Mainly Clear"
"2009-04-25 23:00","2009","04","25","23:00","17.7","","14.6","","82","","","","0","","24.1","","99.82","","","","","","Mostly Cloudy"
"2009-04-26 00:00","2009","04","26","00:00","17.2","","13.9","","81","","13","","9","","24.1","","99.82","","","","","","Mostly Cloudy"
"2009-04-26 01:00","2009","04","26","01:00","14.4","","11.7","","84","","5","","11","","16.1","","99.81","","","","","","Mostly Cloudy"
"2009-04-26 02:00","2009","04","26","02:00","11.3","","9.7","","90","","4","","13","","0.2","","99.84","","","","","","Fog"
"2009-04-26 03:00","2009","04","26","03:00","10.5","","9.1","","91","","4","","17","","0.4","","99.84","","","","","","Fog"
"2009-04-26 04:00","2009","04","26","04:00","10.0","","8.7","","92","","7","","17","","0.4","","99.89","","","","","","Fog"
"2009-04-26 05:00","2009","04","26","05:00","9.5","","8.2","","92","","4","","17","","0.2","","99.89","","","","","","Fog"
"2009-04-26 06:00","2009","04","26","06:00","9.2","","8.1","","93","","5","","15","","0.2","","99.87","","","","","","Fog"
"2009-04-26 07:00","2009","04","26","07:00","9.3","","8.2","","93","","7","","11","","0.2","","99.97","","","","","","Fog"
"2009-04-26 08:00","2009","04","26","08:00","10.4","","9.2","","92","","7","","7","","0.4","","99.97","","","","","","Fog"
"2009-04-26 09:00","2009","04","26","09:00","12.6","","11.0","","90","","4","","6","","4.8","","100.00","","","","","","Fog"
"2009-04-26 10:00","2009","04","26","10:00","17.2","","12.9","","76","","","","0","","24.1","","100.00","","","","","","Mostly Cloudy"
"2009-04-26 11:00","2009","04","26","11:00","23.0","","14.3","","58","","","","0","","24.1","","99.94","","27","","","","Mainly Clear"
"2009-04-26 12:00","2009","04","26","12:00","26.7","","14.4","","47","","19","","24","","24.1","","99.88","","30","","","","Mainly Clear"
"2009-04-26 13:00","2009","04","26","13:00","28.7","","14.6","","42","","20","","24","","24.1","","99.79","","32","","","","Mostly Cloudy"
"2009-04-26 14:00","2009","04","26","14:00","30.0","","13.5","","36","","23","","30","","24.1","","99.79","","33","","","","Mostly Cloudy"
"2009-04-26 15:00","2009","04","26","15:00","28.8","","13.2","","38","","22","","32","","24.1","","99.76","","32","","","","Mostly Cloudy"
"2009-04-26 16:00","2009","04","26","16:00","25.7","","14.4","","50","","21","","33","","24.1","","99.78","","29","","","","Mostly Cloudy"
"2009-04-26 17:00","2009","04","26","17:00","26.5","","13.0","","43","","22","","19","","24.1","","99.75","","29","","","","Mostly Cloudy"
"2009-04-26 18:00","2009","04","26","18:00","26.8","","14.2","","46","","20","","11","","24.1","","99.72","","30","","","","Cloudy"
"2009-04-26 19:00","2009","04","26","19:00","24.4","","14.5","","54","","17","","7","","24.1","","99.71","","28","","","","Mostly Cloudy"
"2009-04-26 20:00","2009","04","26","20:00","22.5","","14.5","","61","","16","","11","","24.1","","99.74","","26","","","","Mostly Cloudy"
"2009-04-26 21:00","2009","04","26","21:00","20.6","","13.8","","65","","16","","13","","24.1","","99.77","","","","","","Mostly Cloudy"
"2009-04-26 22:00","2009","04","26","22:00","19.3","","13.0","","67","","14","","15","","24.1","","99.78","","","","","","Mainly Clear"
"2009-04-26 23:00","2009","04","26","23:00","17.7","","12.9","","73","","14","","11","","24.1","","99.76","","","","","","Mainly Clear"
"2009-04-27 00:00","2009","04","27","00:00","17.1","","12.0","","72","","13","","13","","24.1","","99.73","","","","","","Mainly Clear"
"2009-04-27 01:00","2009","04","27","01:00","16.4","","11.2","","71","","14","","9","","24.1","","99.71","","","","","","Clear"
"2009-04-27 02:00","2009","04","27","02:00","15.7","","10.6","","72","","16","","9","","24.1","","99.69","","","","","","Clear"
"2009-04-27 03:00","2009","04","27","03:00","16.0","","10.4","","69","","17","","11","","24.1","","99.69","","","","","","Clear"
"2009-04-27 04:00","2009","04","27","04:00","16.2","","10.3","","68","","18","","13","","19.3","","99.69","","","","","","Clear"
"2009-04-27 05:00","2009","04","27","05:00","16.6","","10.3","","66","","18","","15","","19.3","","99.69","","","","","","Mainly Clear"
"2009-04-27 06:00","2009","04","27","06:00","17.9","","10.7","","63","","20","","20","","19.3","","99.75","","","","","","Mostly Cloudy"
"2009-04-27 07:00","2009","04","27","07:00","19.5","","11.4","","59","","20","","22","","24.1","","99.81","","","","","","Mostly Cloudy"
"2009-04-27 08:00","2009","04","27","08:00","21.4","","11.9","","55","","20","","26","","24.1","","99.85","","","","","","Mostly Cloudy"
"2009-04-27 09:00","2009","04","27","09:00","24.1","","12.5","","48","","21","","32","","24.1","","99.84","","27","","","","Mostly Cloudy"
"2009-04-27 10:00","2009","04","27","10:00","25.8","","13.0","","45","","21","","35","","24.1","","99.84","","29","","","","Mostly Cloudy"
"2009-04-27 11:00","2009","04","27","11:00","27.5","","13.9","","43","","22","","33","","24.1","","99.83","","31","","","","Mostly Cloudy"
"2009-04-27 12:00","2009","04","27","12:00","27.6","","13.6","","42","","22","","43","","24.1","","99.78","","31","","","","Mostly Cloudy"
"2009-04-27 13:00","2009","04","27","13:00","27.6","","13.4","","42","","22","","43","","24.1","","99.73","","31","","","","Cloudy"
"2009-04-27 14:00","2009","04","27","14:00","28.2","","13.3","","40","","22","","30","","24.1","","99.72","","31","","","","Mostly Cloudy"
"2009-04-27 15:00","2009","04","27","15:00","28.9","","12.8","","37","","21","","44","","24.1","","99.65","","32","","","","Mostly Cloudy"
"2009-04-27 16:00","2009","04","27","16:00","28.4","","12.0","","36","","21","","43","","24.1","","99.61","","31","","","","Mainly Clear"
"2009-04-27 17:00","2009","04","27","17:00","28.2","","11.8","","36","","22","","35","","24.1","","99.61","","30","","","","Mostly Cloudy"
"2009-04-27 18:00","2009","04","27","18:00","27.3","","11.6","","38","","21","","30","","24.1","","99.62","","29","","","","Mostly Cloudy"
"2009-04-27 19:00","2009","04","27","19:00","26.7","","11.4","","38","","22","","20","","24.1","","99.65","","29","","","","Mostly Cloudy"
"2009-04-27 20:00","2009","04","27","20:00","26.0","","11.3","","40","","22","","15","","24.1","","99.68","","28","","","","Mostly Cloudy"
"2009-04-27 21:00","2009","04","27","21:00","22.7","","15.0","","62","","31","","13","","24.1","","99.80","","27","","","","Mostly Cloudy"
"2009-04-27 22:00","2009","04","27","22:00","21.8","","15.1","","66","","31","","17","","24.1","","99.80","","26","","","","Mostly Cloudy"
"2009-04-27 23:00","2009","04","27","23:00","21.2","","15.2","","69","","28","","7","","24.1","","99.80","","25","","","","Mostly Cloudy"
"2009-04-28 00:00","2009","04","28","00:00","20.3","","15.0","","72","","","","0","","24.1","","99.78","","","","","","Cloudy"
"2009-04-28 01:00","2009","04","28","01:00","19.8","","15.1","","74","","","","0","","24.1","","99.78","","","","","","Cloudy"
"2009-04-28 02:00","2009","04","28","02:00","18.8","","15.5","","81","","","","0","","24.1","","99.72","","","","","","Rain Showers"
"2009-04-28 03:00","2009","04","28","03:00","18.7","","15.7","","83","","21","","6","","19.3","","99.73","","","","","","Cloudy"
"2009-04-28 04:00","2009","04","28","04:00","18.1","","15.5","","85","","16","","7","","19.3","","99.72","","","","","","Rain Showers"
"2009-04-28 05:00","2009","04","28","05:00","17.9","","15.4","","85","","17","","7","","11.3","","99.75","","","","","","Rain"
"2009-04-28 06:00","2009","04","28","06:00","8.9","","7.2","","89","","3","","39","","1.6","","100.01","","","","","","Heavy Rain,Fog"
"2009-04-28 07:00","2009","04","28","07:00","7.5","","5.7","","88","","1","","20","","6.4","","100.21","","","","","","Rain,Fog"
"2009-04-28 08:00","2009","04","28","08:00","7.1","","5.4","","89","","2","","22","","8.0","","100.30","","","","","","Rain,Fog"
"2009-04-28 09:00","2009","04","28","09:00","7.2","","5.4","","88","","1","","20","","24.1","","100.37","","","","","","Rain"
"2009-04-28 10:00","2009","04","28","10:00","7.5","","5.2","","85","","1","","24","","24.1","","100.45","","","","","","Cloudy"
"2009-04-28 11:00","2009","04","28","11:00","7.9","","5.4","","84","","2","","22","","24.1","","100.57","","","","","","Cloudy"
"2009-04-28 12:00","2009","04","28","12:00","8.4","","5.4","","81","","2","","22","","24.1","","100.61","","","","","","Cloudy"
"2009-04-28 13:00","2009","04","28","13:00","9.0","","5.4","","78","","2","","22","","24.1","","100.64","","","","","","Cloudy"
"2009-04-28 14:00","2009","04","28","14:00","10.0","","4.9","","71","","3","","17","","24.1","","100.70","","","","","","Rain Showers"
"2009-04-28 15:00","2009","04","28","15:00","10.3","","5.8","","74","","4","","20","","24.1","","100.72","","","","","","Rain Showers"
"2009-04-28 16:00","2009","04","28","16:00","10.4","","4.7","","68","","5","","28","","24.1","","100.70","","","","","","Mostly Cloudy"
"2009-04-28 17:00","2009","04","28","17:00","10.2","","4.4","","67","","4","","30","","24.1","","100.77","","","","","","Mostly Cloudy"
"2009-04-28 18:00","2009","04","28","18:00","9.9","","3.9","","66","","5","","22","","24.1","","100.82","","","","","","Mostly Cloudy"
"2009-04-28 19:00","2009","04","28","19:00","9.4","","3.0","","64","","5","","20","","24.1","","100.87","","","","","","Mostly Cloudy"
"2009-04-28 20:00","2009","04","28","20:00","8.8","","2.7","","66","","4","","26","","24.1","","100.88","","","","","","Mostly Cloudy"
"2009-04-28 21:00","2009","04","28","21:00","8.5","","2.3","","65","","3","","26","","24.1","","100.91","","","","","","Mainly Clear"
"2009-04-28 22:00","2009","04","28","22:00","7.9","","2.6","","69","","4","","28","","24.1","","100.87","","","","","","Mainly Clear"
"2009-04-28 23:00","2009","04","28","23:00","7.5","","3.2","","74","","3","","13","","24.1","","100.94","","","","","","Mostly Cloudy"
"2009-04-29 00:00","2009","04","29","00:00","7.6","","3.3","","74","","5","","26","","24.1","","100.87","","","","","","Mostly Cloudy"
"2009-04-29 01:00","2009","04","29","01:00","7.4","","3.9","","78","","5","","20","","24.1","","100.90","","","","","","Mostly Cloudy"
"2009-04-29 02:00","2009","04","29","02:00","7.1","","4.3","","82","","4","","19","","24.1","","100.88","","","","","","Mostly Cloudy"
"2009-04-29 03:00","2009","04","29","03:00","7.4","","4.4","","81","","5","","20","","24.1","","100.82","","","","","","Mostly Cloudy"
"2009-04-29 04:00","2009","04","29","04:00","7.9","","4.3","","78","","7","","20","","24.1","","100.84","","","","","","Mostly Cloudy"
"2009-04-29 05:00","2009","04","29","05:00","8.5","","4.4","","75","","6","","22","","24.1","","100.86","","","","","","Mostly Cloudy"
"2009-04-29 06:00","2009","04","29","06:00","8.7","","3.4","","69","","7","","28","","24.1","","100.87","","","","","","Mostly Cloudy"
"2009-04-29 07:00","2009","04","29","07:00","9.1","","3.3","","67","","8","","24","","24.1","","100.91","","","","","","Mostly Cloudy"
"2009-04-29 08:00","2009","04","29","08:00","10.2","","2.3","","58","","9","","15","","24.1","","100.92","","","","","","Mostly Cloudy"
"2009-04-29 09:00","2009","04","29","09:00","11.9","","1.1","","47","","9","","32","","24.1","","100.91","","","","","","Mainly Clear"
"2009-04-29 10:00","2009","04","29","10:00","12.9","","2.3","","48","","9","","39","","24.1","","100.88","","","","","","Mainly Clear"
"2009-04-29 11:00","2009","04","29","11:00","13.7","","1.4","","43","","9","","41","","24.1","","100.84","","","","","","Mainly Clear"
"2009-04-29 12:00","2009","04","29","12:00","13.5","","0.8","","42","","10","","39","","24.1","","100.78","","","","","","Mostly Cloudy"
"2009-04-29 13:00","2009","04","29","13:00","13.9","","0.8","","41","","10","","26","","24.1","","100.72","","","","","","Mostly Cloudy"
"2009-04-29 14:00","2009","04","29","14:00","14.4","","1.2","","41","","9","","26","","24.1","","100.64","","","","","","Mostly Cloudy"
"2009-04-29 15:00","2009","04","29","15:00","15.6","","2.2","","40","","9","","24","","24.1","","100.53","","","","","","Mostly Cloudy"
"2009-04-29 16:00","2009","04","29","16:00","15.4","","2.0","","40","","12","","24","","24.1","","100.43","","","","","","Mostly Cloudy"
"2009-04-29 17:00","2009","04","29","17:00","15.0","","2.3","","42","","12","","26","","24.1","","100.43","","","","","","Mostly Cloudy"
"2009-04-29 18:00","2009","04","29","18:00","13.9","","1.5","","43","","12","","22","","24.1","","100.43","","","","","","Mostly Cloudy"
"2009-04-29 19:00","2009","04","29","19:00","13.6","","1.2","","43","","11","","19","","24.1","","100.38","","","","","","Mostly Cloudy"
"2009-04-29 20:00","2009","04","29","20:00","13.2","","1.0","","43","","10","","22","","24.1","","100.31","","","","","","Cloudy"
"2009-04-29 21:00","2009","04","29","21:00","13.0","","2.1","","47","","11","","19","","24.1","","100.31","","","","","","Mostly Cloudy"
"2009-04-29 22:00","2009","04","29","22:00","12.9","","2.8","","50","","11","","17","","24.1","","100.26","","","","","","Mostly Cloudy"
"2009-04-29 23:00","2009","04","29","23:00","12.4","","2.7","","52","","11","","19","","24.1","","100.18","","","","","","Cloudy"
"2009-04-30 00:00","2009","04","30","00:00","11.8","","2.6","","53","","11","","20","","24.1","","100.12","","","","","","Cloudy"
"2009-04-30 01:00","2009","04","30","01:00","11.1","","3.3","","59","","11","","11","","24.1","","100.08","","","","","","Mostly Cloudy"
"2009-04-30 02:00","2009","04","30","02:00","10.8","","3.9","","62","","10","","9","","24.1","","100.00","","","","","","Mostly Cloudy"
"2009-04-30 03:00","2009","04","30","03:00","10.6","","4.0","","64","","9","","9","","24.1","","99.90","","","","","","Mostly Cloudy"
"2009-04-30 04:00","2009","04","30","04:00","10.4","","5.2","","70","","11","","7","","24.1","","99.88","","","","","","Mostly Cloudy"
"2009-04-30 05:00","2009","04","30","05:00","10.1","","5.8","","75","","9","","4","","24.1","","99.81","","","","","","Mostly Cloudy"
"2009-04-30 06:00","2009","04","30","06:00","10.2","","6.7","","79","","11","","4","","24.1","","99.75","","","","","","Mostly Cloudy"
"2009-04-30 07:00","2009","04","30","07:00","12.6","","9.2","","80","","13","","11","","16.1","","99.71","","","","","","Cloudy"
"2009-04-30 08:00","2009","04","30","08:00","14.6","","10.8","","78","","13","","17","","19.3","","99.65","","","","","","Cloudy"
"2009-04-30 09:00","2009","04","30","09:00","14.5","","10.9","","79","","16","","19","","16.1","","99.59","","","","","","Rain Showers"
"2009-04-30 10:00","2009","04","30","10:00","13.7","","11.7","","88","","12","","17","","8.0","","99.51","","","","","","Rain Showers,Fog"
"2009-04-30 11:00","2009","04","30","11:00","14.0","","12.3","","89","","15","","17","","8.0","","99.45","","","","","","Rain,Fog"
"2009-04-30 12:00","2009","04","30","12:00","14.6","","13.0","","90","","16","","13","","4.8","","99.32","","","","","","Rain,Fog"
"2009-04-30 13:00","2009","04","30","13:00","15.6","","14.2","","91","","15","","15","","6.4","","99.20","","","","","","Rain,Fog"
"2009-04-30 14:00","2009","04","30","14:00","16.7","","14.7","","88","","15","","20","","6.4","","99.03","","","","","","Rain,Fog"
"2009-04-30 15:00","2009","04","30","15:00","17.3","","15.3","","88","","16","","24","","4.8","","98.81","","","","","","Rain,Fog"
"2009-04-30 16:00","2009","04","30","16:00","17.9","","15.9","","88","","18","","35","","4.8","","98.60","","","","","","Rain,Fog"
"2009-04-30 17:00","2009","04","30","17:00","17.7","","15.7","","88","","20","","41","","9.7","","98.53","","","","","","Rain,Fog"
"2009-04-30 18:00","2009","04","30","18:00","18.4","","15.9","","85","","20","","37","","6.4","","98.47","","","","","","Rain,Fog"
"2009-04-30 19:00","2009","04","30","19:00","18.2","","15.8","","86","","21","","43","","6.4","","98.43","","","","","","Rain,Fog"
"2009-04-30 20:00","2009","04","30","20:00","18.8","","15.9","","83","","20","","39","","9.7","","98.36","","","","","","Rain Showers,Fog"
"2009-04-30 21:00","2009","04","30","21:00","19.0","","15.8","","82","","22","","26","","24.1","","98.41","","","","","","Mostly Cloudy"
"2009-04-30 22:00","2009","04","30","22:00","19.2","","14.8","","76","","24","","33","","24.1","","98.46","","","","","","Mostly Cloudy"
"2009-04-30 23:00","2009","04","30","23:00","18.8","","14.1","","74","","27","","28","","24.1","","98.56","","","","","","Mostly Cloudy"
