"Station Name","WINDSOR A"
"Province","ONTARIO"
"Current Station Operator","NAV Canada"
"Latitude","42.28"
"Longitude","-82.96"
"Elevation","189.60"
"Climate Identifier","6139527"
"WMO Identifier",""
"TC Identifier","YQG"
"All times are specified in Local Standard Time (LST). Add 1 hour to adjust for Daylight Saving Time where and when it is observed."

"Legend"
"E","Estimated"
"M","Missing"
"NA","Not Available"

"Date/Time","Year","Month","Day","Time","Temp (°C)","Temp Flag","Dew Point Temp (°C)","Dew Point Temp Flag","Rel Hum (%)","Rel Hum Flag","Wind Dir (10s deg)","Wind Dir Flag","Wind Spd (km/h)","Wind Spd Flag","Visibility (km)","Visibility Flag","Stn Press (kPa)","Stn Press Flag","Hmdx","Hmdx Flag","Wind Chill","Wind Chill Flag","Weather"
"2018-09-01 00:00","2018","09","01","00:00"
"2018-09-01 01:00","2018","09","01","01:00"
"2018-09-01 02:00","2018","09","01","02:00"
"2018-09-01 03:00","2018","09","01","03:00"
"2018-09-01 04:00","2018","09","01","04:00"
"2018-09-01 05:00","2018","09","01","05:00"
"2018-09-01 06:00","2018","09","01","06:00"
"2018-09-01 07:00","2018","09","01","07:00","22.7","","21.7","","94","","18","","14","","19.3","","99.69","","32","","","","Mostly Cloudy"
"2018-09-01 08:00","2018","09","01","08:00","24.0","","21.8","","87","","19","","16","","19.3","","99.70","","33","","","","NA"
"2018-09-01 09:00","2018","09","01","09:00","25.6","","21.2","","76","","20","","16","","19.3","","99.76","","34","","","","NA"
"2018-09-01 10:00","2018","09","01","10:00","26.9","","21.3","","71","","20","","21","","24.1","","99.74","","36","","","","Mostly Cloudy"
"2018-09-01 11:00","2018","09","01","11:00","27.1","","21.6","","72","","21","","19","","24.1","","99.77","","36","","","","NA"
"2018-09-01 12:00","2018","09","01","12:00","26.4","","22.0","","76","","17","","15","","24.1","","99.70","","36","","","","NA"
"2018-09-01 13:00","2018","09","01","13:00","28.5","","22.5","","69","","18","","17","","24.1","","99.65","","38","","","","Mostly Cloudy"
"2018-09-01 14:00","2018","09","01","14:00","29.4","","22.2","","65","","18","","23","","24.1","","99.57","","39","","","","NA"
"2018-09-01 15:00","2018","09","01","15:00","28.0","","21.9","","69","","19","","22","","19.3","","99.49","","37","","","","NA"
"2018-09-01 16:00","2018","09","01","16:00","27.3","","22.1","","73","","21","","16","","9.7","","99.51","","37","","","","Thunderstorms"
"2018-09-01 17:00","2018","09","01","17:00","22.0","","20.9","","94","","16","","11","","19.3","","99.48","","30","","","","NA"
"2018-09-01 18:00","2018","09","01","18:00","23.0","","22.0","","94","","16","","9","","19.3","","99.54","","32","","","","NA"
"2018-09-01 19:00","2018","09","01","19:00","22.4","","21.8","","96","","15","","10","","19.3","","99.50","","32","","","","Mostly Cloudy"
"2018-09-01 20:00","2018","09","01","20:00","22.3","","21.7","","96","","17","","12","","19.3","","99.49","","31","","","","NA"
"2018-09-01 21:00","2018","09","01","21:00","23.5","","22.0","","91","","21","","16","","19.3","","99.52","","33","","","","NA"
"2018-09-01 22:00","2018","09","01","22:00","23.7","","22.0","","90","","22","","18","","19.3","","99.59","","33","","","","Mostly Cloudy"
"2018-09-01 23:00","2018","09","01","23:00"
"2018-09-02 00:00","2018","09","02","00:00"
"2018-09-02 01:00","2018","09","02","01:00"
"2018-09-02 02:00","2018","09","02","02:00"
"2018-09-02 03:00","2018","09","02","03:00"
"2018-09-02 04:00","2018","09","02","04:00"
"2018-09-02 05:00","2018","09","02","05:00"
"2018-09-02 06:00","2018","09","02","06:00","22.0","","21.2","","95","","27","","15","","19.3","","99.74","","31","","","","NA"
"2018-09-02 07:00","2018","09","02","07:00","22.4","","21.3","","93","","23","","15","","24.1","","99.80","","31","","","","Mostly Cloudy"
"2018-09-02 08:00","2018","09","02","08:00","23.8","","22.0","","90","","23","","12","","24.1","","99.85","","33","","","","NA"
"2018-09-02 09:00","2018","09","02","09:00","25.2","","22.4","","84","","21","","10","","24.1","","99.81","","35","","","","NA"
"2018-09-02 10:00","2018","09","02","10:00","26.5","","22.9","","80","","21","","15","","24.1","","99.82","","37","","","","Mainly Clear"
"2018-09-02 11:00","2018","09","02","11:00","27.6","","23.5","","78","","20","","18","","24.1","","99.78","","38","","","","NA"
"2018-09-02 12:00","2018","09","02","12:00","27.9","","23.9","","79","","22","","17","","24.1","","99.74","","39","","","","NA"
"2018-09-02 13:00","2018","09","02","13:00","29.0","","23.8","","73","","20","","23","","24.1","","99.71","","40","","","","Mainly Clear"
"2018-09-02 14:00","2018","09","02","14:00","30.0","","22.9","","65","","22","","27","","24.1","","99.68","","40","","","","NA"
"2018-09-02 15:00","2018","09","02","15:00","30.3","","23.4","","66","","23","","25","","19.3","","99.65","","41","","","","NA"
"2018-09-02 16:00","2018","09","02","16:00","30.4","","22.8","","63","","19","","22","","19.3","","99.62","","40","","","","Mainly Clear"
"2018-09-02 17:00","2018","09","02","17:00","30.2","","22.4","","63","","20","","24","","19.3","","99.62","","40","","","","NA"
"2018-09-02 18:00","2018","09","02","18:00","29.2","","22.9","","68","","19","","19","","19.3","","99.61","","39","","","","NA"
"2018-09-02 19:00","2018","09","02","19:00","27.1","","22.9","","77","","20","","14","","19.3","","99.63","","37","","","","Mostly Cloudy"
"2018-09-02 20:00","2018","09","02","20:00","25.6","","22.8","","84","","20","","12","","19.3","","99.67","","36","","","","NA"
"2018-09-02 21:00","2018","09","02","21:00","24.9","","22.8","","88","","20","","13","","19.3","","99.74","","35","","","","NA"
"2018-09-02 22:00","2018","09","02","22:00","24.9","","22.7","","88","","20","","13","","19.3","","99.76","","35","","","","Clear"
"2018-09-02 23:00","2018","09","02","23:00","25.1","","22.3","","84","","21","","16","","24.1","","99.79","","35","","","","NA"
"2018-09-03 00:00","2018","09","03","00:00","24.4","","22.4","","88","","21","","13","","24.1","","99.83","","34","","","","NA"
"2018-09-03 01:00","2018","09","03","01:00","24.0","","22.4","","91","","21","","13","","24.1","","99.83","","34","","","","Clear"
"2018-09-03 02:00","2018","09","03","02:00","24.2","","22.2","","88","","22","","13","","24.1","","99.81","","34","","","","NA"
"2018-09-03 03:00","2018","09","03","03:00","24.0","","21.9","","88","","21","","16","","24.1","","99.79","","33","","","","NA"
"2018-09-03 04:00","2018","09","03","04:00","23.6","","22.5","","93","","23","","10","","24.1","","99.83","","33","","","","Mostly Cloudy"
"2018-09-03 05:00","2018","09","03","05:00","23.2","","22.0","","93","","24","","12","","24.1","","99.89","","33","","","","NA"
"2018-09-03 06:00","2018","09","03","06:00","21.9","","21.0","","95","","22","","9","","24.1","","99.95","","30","","","","NA"
"2018-09-03 07:00","2018","09","03","07:00","23.9","","22.5","","92","","21","","7","","24.1","","100.01","","34","","","","Mainly Clear"
"2018-09-03 08:00","2018","09","03","08:00","25.5","","22.6","","84","","23","","14","","24.1","","100.03","","35","","","","NA"
"2018-09-03 09:00","2018","09","03","09:00","27.2","","23.6","","80","","23","","10","","24.1","","100.04","","38","","","","NA"
"2018-09-03 10:00","2018","09","03","10:00","28.4","","22.9","","72","","23","","15","","24.1","","100.08","","39","","","","Mainly Clear"
"2018-09-03 11:00","2018","09","03","11:00","29.9","","24.2","","71","","23","","14","","24.1","","100.07","","41","","","","NA"
"2018-09-03 12:00","2018","09","03","12:00","30.6","","23.4","","65","","23","","20","","24.1","","100.03","","41","","","","NA"
"2018-09-03 13:00","2018","09","03","13:00","27.8","","20.4","","64","","32","","27","","24.1","","100.02","","36","","","","Thunderstorms"
"2018-09-03 14:00","2018","09","03","14:00","23.0","","21.1","","89","","16","","11","","19.3","","100.07","","32","","","","Thunderstorms,Rain Showers"
"2018-09-03 15:00","2018","09","03","15:00","25.2","","22.8","","86","","16","","9","","19.3","","100.03","","35","","","","NA"
"2018-09-03 16:00","2018","09","03","16:00","26.2","","23.8","","86","","20","","4","","19.3","","99.97","","37","","","","Mostly Cloudy"
"2018-09-03 17:00","2018","09","03","17:00","25.2","","23.1","","88","","23","","10","","19.3","","100.02","","36","","","","Rain Showers"
"2018-09-03 18:00","2018","09","03","18:00","24.6","","22.6","","89","","19","","16","","19.3","","100.13","","34","","","","Rain Showers"
"2018-09-03 19:00","2018","09","03","19:00","23.5","","21.8","","90","","26","","4","","19.3","","100.11","","33","","","","Mostly Cloudy"
"2018-09-03 20:00","2018","09","03","20:00","22.5","","21.9","","96","","11","","4","","19.3","","100.18","","32","","","","NA"
"2018-09-03 21:00","2018","09","03","21:00","22.3","","21.7","","96","","5","","5","","19.3","","100.20","","31","","","","NA"
"2018-09-03 22:00","2018","09","03","22:00","22.0","","21.2","","96","","26","","3","","19.3","","100.26","","31","","","","Mainly Clear"
"2018-09-03 23:00","2018","09","03","23:00","23.2","","20.7","","85","","28","","12","","24.1","","100.29","","31","","","","Rain"
"2018-09-04 00:00","2018","09","04","00:00","21.6","","21.0","","96","","12","","7","","16.1","","100.15","","30","","","","Moderate Rain"
"2018-09-04 01:00","2018","09","04","01:00","21.4","","21.1","","98","","17","","8","","24.1","","100.14","","30","","","","Mostly Cloudy"
"2018-09-04 02:00","2018","09","04","02:00","21.5","","21.0","","97","","28","","4","","24.1","","100.11","","30","","","","NA"
"2018-09-04 03:00","2018","09","04","03:00","21.2","","20.9","","98","","11","","5","","24.1","","100.12","","30","","","","NA"
"2018-09-04 04:00","2018","09","04","04:00","21.2","","20.9","","98","","36","","4","","24.1","","100.09","","30","","","","Mostly Cloudy"
"2018-09-04 05:00","2018","09","04","05:00","20.7","","20.5","","99","","36","","3","","24.1","","100.12","","29","","","","NA"
"2018-09-04 06:00","2018","09","04","06:00","20.6","","20.4","","99","","3","","4","","16.1","","100.14","","29","","","","NA"
"2018-09-04 07:00","2018","09","04","07:00","20.8","","20.6","","99","","36","","2","","12.9","","100.18","","29","","","","Mostly Cloudy"
"2018-09-04 08:00","2018","09","04","08:00","23.8","","23.4","","98","","18","","4","","16.1","","100.20","","34","","","","NA"
"2018-09-04 09:00","2018","09","04","09:00","26.4","","23.1","","82","","19","","14","","24.1","","100.20","","37","","","","NA"
"2018-09-04 10:00","2018","09","04","10:00","27.7","","24.1","","81","","17","","12","","24.1","","100.19","","39","","","","Mostly Cloudy"
"2018-09-04 11:00","2018","09","04","11:00"
"2018-09-04 12:00","2018","09","04","12:00"
"2018-09-04 13:00","2018","09","04","13:00","31.1","","24.4","","67","","23","","12","","24.1","","100.09","","43","","","","Mainly Clear"
"2018-09-04 14:00","2018","09","04","14:00","30.9","","23.4","","64","","20","","11","","24.1","","100.03","","42","","","","NA"
"2018-09-04 15:00","2018","09","04","15:00","31.2","","22.7","","60","","19","","22","","24.1","","99.97","","41","","","","NA"
"2018-09-04 16:00","2018","09","04","16:00","31.2","","24.0","","65","","20","","15","","24.1","","99.93","","42","","","","Mainly Clear"
"2018-09-04 17:00","2018","09","04","17:00","30.7","","24.1","","68","","19","","11","","24.1","","99.90","","42","","","","NA"
"2018-09-04 18:00","2018","09","04","18:00","29.7","","22.6","","65","","19","","14","","24.1","","99.87","","40","","","","NA"
"2018-09-04 19:00","2018","09","04","19:00","26.3","","23.6","","85","","16","","10","","24.1","","99.87","","37","","","","Mostly Cloudy"
"2018-09-04 20:00","2018","09","04","20:00","24.9","","22.9","","88","","16","","10","","19.3","","99.92","","35","","","","NA"
"2018-09-04 21:00","2018","09","04","21:00","24.4","","22.9","","91","","16","","10","","19.3","","99.94","","35","","","","NA"
"2018-09-04 22:00","2018","09","04","22:00","24.1","","23.3","","95","","15","","10","","19.3","","99.93","","35","","","","Mainly Clear"
"2018-09-04 23:00","2018","09","04","23:00"
"2018-09-05 00:00","2018","09","05","00:00"
"2018-09-05 01:00","2018","09","05","01:00"
"2018-09-05 02:00","2018","09","05","02:00"
"2018-09-05 03:00","2018","09","05","03:00"
"2018-09-05 04:00","2018","09","05","04:00"
"2018-09-05 05:00","2018","09","05","05:00"
"2018-09-05 06:00","2018","09","05","06:00","22.6","","21.9","","96","","18","","4","","9.7","","99.83","","32","","","","Fog"
"2018-09-05 07:00","2018","09","05","07:00","24.5","","23.5","","94","","21","","9","","12.9","","99.86","","35","","","","Mainly Clear"
"2018-09-05 08:00","2018","09","05","08:00","26.0","","23.3","","84","","21","","16","","16.1","","99.86","","37","","","","NA"
"2018-09-05 09:00","2018","09","05","09:00","27.8","","22.8","","74","","23","","18","","24.1","","99.84","","38","","","","NA"
"2018-09-05 10:00","2018","09","05","10:00","29.4","","23.7","","71","","23","","15","","24.1","","99.83","","40","","","","Clear"
"2018-09-05 11:00","2018","09","05","11:00","30.4","","23.6","","66","","21","","19","","24.1","","99.79","","41","","","","NA"
"2018-09-05 12:00","2018","09","05","12:00","31.4","","23.6","","63","","22","","24","","24.1","","99.75","","42","","","","NA"
"2018-09-05 13:00","2018","09","05","13:00","31.8","","22.7","","58","","23","","24","","24.1","","99.69","","42","","","","Mainly Clear"
"2018-09-05 14:00","2018","09","05","14:00","32.1","","22.1","","55","","21","","24","","24.1","","99.63","","42","","","","NA"
"2018-09-05 15:00","2018","09","05","15:00","32.1","","21.6","","53","","22","","26","","24.1","","99.58","","41","","","","NA"
"2018-09-05 16:00","2018","09","05","16:00","31.8","","22.3","","57","","24","","23","","24.1","","99.55","","41","","","","Mainly Clear"
"2018-09-05 17:00","2018","09","05","17:00","31.0","","21.1","","55","","24","","22","","24.1","","99.60","","40","","","","NA"
"2018-09-05 18:00","2018","09","05","18:00","30.5","","21.5","","58","","24","","20","","24.1","","99.59","","39","","","","NA"
"2018-09-05 19:00","2018","09","05","19:00","28.3","","21.9","","68","","22","","14","","19.3","","99.63","","38","","","","Mainly Clear"
"2018-09-05 20:00","2018","09","05","20:00","25.7","","22.3","","81","","23","","10","","19.3","","99.71","","35","","","","NA"
"2018-09-05 21:00","2018","09","05","21:00","24.6","","22.3","","87","","19","","10","","19.3","","99.72","","34","","","","NA"
"2018-09-05 22:00","2018","09","05","22:00","25.7","","19.4","","68","","32","","17","","24.1","","99.81","","33","","","","Mainly Clear"
"2018-09-05 23:00","2018","09","05","23:00","24.6","","19.4","","73","","27","","19","","24.1","","99.84","","32","","","","NA"
"2018-09-06 00:00","2018","09","06","00:00","23.6","","20.1","","80","","28","","23","","24.1","","99.92","","31","","","","NA"
"2018-09-06 01:00","2018","09","06","01:00","22.7","","20.7","","88","","36","","5","","24.1","","99.86","","31","","","","Mainly Clear"
"2018-09-06 02:00","2018","09","06","02:00","22.0","","20.7","","92","","36","","8","","24.1","","99.87","","30","","","","NA"
"2018-09-06 03:00","2018","09","06","03:00","21.6","","20.6","","94","","3","","10","","24.1","","99.88","","30","","","","NA"
"2018-09-06 04:00","2018","09","06","04:00","22.6","","21.5","","93","","2","","14","","24.1","","99.96","","31","","","","Cloudy"
"2018-09-06 05:00","2018","09","06","05:00","20.9","","19.7","","93","","2","","19","","24.1","","99.99","","28","","","","NA"
"2018-09-06 06:00","2018","09","06","06:00","20.8","","19.4","","91","","4","","21","","16.1","","100.05","","28","","","","Drizzle"
"2018-09-06 07:00","2018","09","06","07:00","20.3","","19.3","","94","","3","","21","","8.1","","100.16","","27","","","","Rain,Fog"
"2018-09-06 08:00","2018","09","06","08:00","20.6","","19.5","","93","","5","","15","","12.9","","100.16","","28","","","","NA"
"2018-09-06 09:00","2018","09","06","09:00","20.1","","19.5","","96","","1","","12","","3.2","","100.21","","27","","","","Rain,Moderate Drizzle,Fog"
"2018-09-06 10:00","2018","09","06","10:00","20.6","","19.2","","92","","3","","9","","12.9","","100.24","","28","","","","Rain"
"2018-09-06 11:00","2018","09","06","11:00","21.3","","18.7","","85","","4","","20","","24.1","","100.26","","28","","","","NA"
"2018-09-06 12:00","2018","09","06","12:00","21.6","","18.7","","83","","5","","22","","24.1","","100.27","","28","","","","NA"
"2018-09-06 13:00","2018","09","06","13:00","21.5","","17.9","","80","","4","","24","","24.1","","100.22","","27","","","","Cloudy"
"2018-09-06 14:00","2018","09","06","14:00","21.9","","17.8","","77","","4","","17","","24.1","","100.20","","28","","","","NA"
"2018-09-06 15:00","2018","09","06","15:00","23.0","","18.7","","76","","3","","17","","24.1","","100.17","","30","","","","NA"
"2018-09-06 16:00","2018","09","06","16:00","23.8","","18.7","","73","","5","","19","","24.1","","100.13","","30","","","","Mostly Cloudy"
"2018-09-06 17:00","2018","09","06","17:00","22.6","","17.8","","74","","4","","20","","24.1","","100.09","","28","","","","NA"
"2018-09-06 18:00","2018","09","06","18:00","22.1","","17.3","","74","","2","","16","","24.1","","100.15","","28","","","","NA"
"2018-09-06 19:00","2018","09","06","19:00","21.1","","17.2","","78","","6","","15","","19.3","","100.13","","27","","","","Mostly Cloudy"
"2018-09-06 20:00","2018","09","06","20:00","20.4","","16.5","","78","","4","","17","","19.3","","100.18","","25","","","","NA"
"2018-09-06 21:00","2018","09","06","21:00","19.9","","16.2","","79","","4","","17","","19.3","","100.20","","","","","","NA"
"2018-09-06 22:00","2018","09","06","22:00","19.5","","15.3","","77","","3","","21","","24.1","","100.21","","","","","","Mainly Clear"
"2018-09-06 23:00","2018","09","06","23:00","18.7","","14.7","","77","","1","","14","","24.1","","100.20","","","","","","NA"
"2018-09-07 00:00","2018","09","07","00:00","18.3","","13.8","","75","","36","","13","","24.1","","100.17","","","","","","NA"
"2018-09-07 01:00","2018","09","07","01:00","18.3","","13.7","","74","","36","","14","","24.1","","100.18","","","","","","Mostly Cloudy"
"2018-09-07 02:00","2018","09","07","02:00","18.2","","14.2","","77","","1","","12","","24.1","","100.15","","","","","","NA"
"2018-09-07 03:00","2018","09","07","03:00","19.1","","15.1","","77","","4","","16","","24.1","","100.12","","","","","","NA"
"2018-09-07 04:00","2018","09","07","04:00","19.2","","13.1","","67","","3","","17","","24.1","","100.14","","","","","","Mostly Cloudy"
"2018-09-07 05:00","2018","09","07","05:00","17.8","","14.1","","79","","35","","11","","24.1","","100.15","","","","","","NA"
"2018-09-07 06:00","2018","09","07","06:00","17.6","","13.7","","78","","2","","11","","24.1","","100.15","","","","","","NA"
"2018-09-07 07:00","2018","09","07","07:00","17.5","","13.3","","76","","1","","16","","24.1","","100.15","","","","","","Mostly Cloudy"
"2018-09-07 08:00","2018","09","07","08:00","18.4","","13.9","","75","","1","","18","","24.1","","100.15","","","","","","NA"
"2018-09-07 09:00","2018","09","07","09:00","18.7","","13.5","","72","","2","","22","","24.1","","100.16","","","","","","NA"
"2018-09-07 10:00","2018","09","07","10:00","20.5","","14.4","","68","","1","","26","","24.1","","100.19","","","","","","Mostly Cloudy"
"2018-09-07 11:00","2018","09","07","11:00","22.1","","14.7","","63","","4","","25","","24.1","","100.17","","26","","","","NA"
"2018-09-07 12:00","2018","09","07","12:00","20.9","","13.9","","64","","3","","21","","24.1","","100.13","","","","","","NA"
"2018-09-07 13:00","2018","09","07","13:00","21.2","","14.3","","64","","4","","24","","24.1","","100.12","","25","","","","Cloudy"
"2018-09-07 14:00","2018","09","07","14:00","21.2","","15.2","","69","","3","","20","","24.1","","100.08","","25","","","","NA"
"2018-09-07 15:00","2018","09","07","15:00","20.5","","13.2","","63","","3","","26","","19.3","","100.03","","","","","","NA"
"2018-09-07 16:00","2018","09","07","16:00","20.2","","13.9","","67","","3","","23","","19.3","","100.04","","","","","","Mostly Cloudy"
"2018-09-07 17:00","2018","09","07","17:00","19.4","","13.1","","66","","4","","22","","19.3","","100.03","","","","","","NA"
"2018-09-07 18:00","2018","09","07","18:00","19.0","","12.6","","66","","1","","22","","19.3","","100.05","","","","","","NA"
"2018-09-07 19:00","2018","09","07","19:00","18.5","","12.1","","66","","36","","20","","19.3","","100.03","","","","","","Cloudy"
"2018-09-07 20:00","2018","09","07","20:00","18.2","","12.9","","71","","2","","23","","19.3","","100.04","","","","","","NA"
"2018-09-07 21:00","2018","09","07","21:00","17.9","","13.1","","74","","1","","15","","19.3","","100.08","","","","","","NA"
"2018-09-07 22:00","2018","09","07","22:00","17.8","","13.7","","77","","1","","15","","19.3","","100.07","","","","","","Cloudy"
"2018-09-07 23:00","2018","09","07","23:00"
"2018-09-08 00:00","2018","09","08","00:00"
"2018-09-08 01:00","2018","09","08","01:00"
"2018-09-08 02:00","2018","09","08","02:00"
"2018-09-08 03:00","2018","09","08","03:00"
"2018-09-08 04:00","2018","09","08","04:00"
"2018-09-08 05:00","2018","09","08","05:00"
"2018-09-08 06:00","2018","09","08","06:00","17.4","","10.8","","65","","6","","23","","19.3","","99.93","","","","","","NA"
"2018-09-08 07:00","2018","09","08","07:00","17.1","","11.9","","71","","6","","22","","24.1","","99.97","","","","","","Cloudy"
"2018-09-08 08:00","2018","09","08","08:00","17.4","","12.1","","71","","7","","27","","24.1","","99.97","","","","","","NA"
"2018-09-08 09:00","2018","09","08","09:00","17.6","","12.8","","73","","7","","26","","24.1","","100.00","","","","","","NA"
"2018-09-08 10:00","2018","09","08","10:00","17.9","","13.2","","74","","7","","25","","24.1","","100.02","","","","","","Cloudy"
"2018-09-08 11:00","2018","09","08","11:00","18.0","","13.1","","72","","8","","27","","24.1","","100.04","","","","","","NA"
"2018-09-08 12:00","2018","09","08","12:00","18.4","","13.2","","72","","7","","21","","24.1","","100.03","","","","","","NA"
"2018-09-08 13:00","2018","09","08","13:00","18.3","","12.9","","70","","7","","30","","24.1","","100.00","","","","","","Cloudy"
"2018-09-08 14:00","2018","09","08","14:00","18.4","","12.8","","69","","6","","27","","24.1","","99.99","","","","","","NA"
"2018-09-08 15:00","2018","09","08","15:00","18.5","","12.5","","68","","7","","24","","19.3","","99.97","","","","","","NA"
"2018-09-08 16:00","2018","09","08","16:00","18.1","","11.8","","66","","6","","29","","19.3","","99.93","","","","","","Mostly Cloudy"
"2018-09-08 17:00","2018","09","08","17:00","17.9","","11.2","","64","","6","","28","","19.3","","99.88","","","","","","NA"
"2018-09-08 18:00","2018","09","08","18:00","17.6","","10.2","","62","","7","","23","","19.3","","99.90","","","","","","NA"
"2018-09-08 19:00","2018","09","08","19:00","17.1","","10.4","","65","","5","","31","","19.3","","99.90","","","","","","Cloudy"
"2018-09-08 20:00","2018","09","08","20:00","16.4","","10.6","","68","","5","","29","","19.3","","99.93","","","","","","NA"
"2018-09-08 21:00","2018","09","08","21:00","15.7","","10.3","","70","","7","","22","","19.3","","99.95","","","","","","NA"
"2018-09-08 22:00","2018","09","08","22:00","14.9","","8.1","","64","","7","","23","","19.3","","99.96","","","","","","Cloudy"
"2018-09-08 23:00","2018","09","08","23:00"
"2018-09-09 00:00","2018","09","09","00:00"
"2018-09-09 01:00","2018","09","09","01:00"
"2018-09-09 02:00","2018","09","09","02:00"
"2018-09-09 03:00","2018","09","09","03:00"
"2018-09-09 04:00","2018","09","09","04:00"
"2018-09-09 05:00","2018","09","09","05:00"
"2018-09-09 06:00","2018","09","09","06:00","15.3","","10.3","","72","","7","","28","","24.1","","99.55","","","","","","NA"
"2018-09-09 07:00","2018","09","09","07:00","15.0","","10.2","","73","","6","","34","","24.1","","99.56","","","","","","Mostly Cloudy"
"2018-09-09 08:00","2018","09","09","08:00","15.0","","10.3","","73","","5","","31","","24.1","","99.61","","","","","","NA"
"2018-09-09 09:00","2018","09","09","09:00","15.1","","10.3","","73","","4","","36","","24.1","","99.60","","","","","","NA"
"2018-09-09 10:00","2018","09","09","10:00","15.1","","9.7","","70","","6","","32","","24.1","","99.63","","","","","","Cloudy"
"2018-09-09 11:00","2018","09","09","11:00","15.5","","9.4","","67","","6","","40","","24.1","","99.56","","","","","","NA"
"2018-09-09 12:00","2018","09","09","12:00","14.8","","10.2","","74","","5","","27","","24.1","","99.56","","","","","","NA"
"2018-09-09 13:00","2018","09","09","13:00","14.6","","10.9","","78","","4","","34","","11.3","","99.54","","","","","","Rain"
"2018-09-09 14:00","2018","09","09","14:00","15.2","","10.7","","74","","4","","36","","24.1","","99.49","","","","","","Rain"
"2018-09-09 15:00","2018","09","09","15:00","15.1","","11.0","","77","","6","","34","","19.3","","99.47","","","","","","Rain"
"2018-09-09 16:00","2018","09","09","16:00","15.0","","11.0","","77","","5","","34","","19.3","","99.43","","","","","","Cloudy"
"2018-09-09 17:00","2018","09","09","17:00","15.2","","10.8","","75","","5","","35","","19.3","","99.48","","","","","","NA"
"2018-09-09 18:00","2018","09","09","18:00","14.2","","11.4","","83","","5","","30","","11.3","","99.46","","","","","","Rain"
"2018-09-09 19:00","2018","09","09","19:00","14.1","","11.2","","82","","5","","33","","19.3","","99.42","","","","","","Rain"
"2018-09-09 20:00","2018","09","09","20:00","13.9","","11.2","","83","","6","","35","","19.3","","99.40","","","","","","Rain"
"2018-09-09 21:00","2018","09","09","21:00","13.8","","11.1","","83","","6","","31","","19.3","","99.39","","","","","","Rain"
"2018-09-09 22:00","2018","09","09","22:00","14.2","","10.8","","80","","5","","30","","24.1","","99.33","","","","","","Cloudy"
"2018-09-09 23:00","2018","09","09","23:00","13.9","","11.3","","84","","6","","37","","16.1","","99.24","","","","","","Rain"
"2018-09-10 00:00","2018","09","10","00:00","13.8","","12.6","","93","","6","","32","","11.3","","99.18","","","","","","Rain"
"2018-09-10 01:00","2018","09","10","01:00","14.0","","13.5","","97","","6","","27","","8.1","","99.10","","","","","","Drizzle,Fog"
"2018-09-10 02:00","2018","09","10","02:00","14.2","","13.8","","98","","6","","31","","6.4","","99.03","","","","","","Rain,Fog"
"2018-09-10 03:00","2018","09","10","03:00","14.6","","14.3","","98","","7","","22","","8.1","","98.99","","","","","","Rain,Fog"
"2018-09-10 04:00","2018","09","10","04:00","14.9","","14.6","","98","","8","","18","","8.1","","98.93","","","","","","Drizzle,Fog"
"2018-09-10 05:00","2018","09","10","05:00","14.9","","14.6","","98","","8","","21","","11.3","","98.93","","","","","","Drizzle"
"2018-09-10 06:00","2018","09","10","06:00","15.0","","14.7","","98","","8","","20","","8.1","","98.93","","","","","","Drizzle,Fog"
"2018-09-10 07:00","2018","09","10","07:00","15.4","","15.1","","98","","7","","19","","8.1","","98.95","","","","","","Drizzle,Fog"
"2018-09-10 08:00","2018","09","10","08:00","15.2","","14.9","","98","","5","","22","","1.6","","98.94","","","","","","Rain,Fog"
"2018-09-10 09:00","2018","09","10","09:00","15.4","","15.2","","98","","4","","23","","2.4","","98.96","","","","","","Rain,Fog"
"2018-09-10 10:00","2018","09","10","10:00","15.5","","15.2","","98","","3","","27","","9.7","","99.00","","","","","","Rain,Fog"
"2018-09-10 11:00","2018","09","10","11:00","15.7","","15.4","","98","","2","","25","","4.0","","99.00","","","","","","Rain,Fog"
"2018-09-10 12:00","2018","09","10","12:00","15.7","","15.3","","98","","36","","21","","4.8","","99.01","","","","","","Rain,Fog"
"2018-09-10 13:00","2018","09","10","13:00","16.1","","15.5","","96","","1","","22","","4.8","","99.02","","","","","","Rain,Fog"
"2018-09-10 14:00","2018","09","10","14:00","16.2","","15.6","","96","","36","","14","","4.8","","99.04","","","","","","Drizzle,Fog"
"2018-09-10 15:00","2018","09","10","15:00","16.4","","15.6","","95","","36","","16","","9.7","","99.04","","","","","","Drizzle"
"2018-09-10 16:00","2018","09","10","16:00","16.4","","15.6","","95","","36","","13","","9.7","","99.07","","","","","","Drizzle"
"2018-09-10 17:00","2018","09","10","17:00","16.4","","14.9","","91","","35","","18","","19.3","","99.13","","","","","","NA"
"2018-09-10 18:00","2018","09","10","18:00","16.4","","14.6","","89","","35","","12","","19.3","","99.16","","","","","","NA"
"2018-09-10 19:00","2018","09","10","19:00","16.2","","14.0","","87","","35","","14","","19.3","","99.20","","","","","","Cloudy"
"2018-09-10 20:00","2018","09","10","20:00","16.0","","14.0","","88","","36","","10","","19.3","","99.30","","","","","","NA"
"2018-09-10 21:00","2018","09","10","21:00","15.6","","13.8","","89","","35","","10","","19.3","","99.38","","","","","","NA"
"2018-09-10 22:00","2018","09","10","22:00","15.3","","13.8","","90","","34","","6","","19.3","","99.43","","","","","","Mostly Cloudy"
"2018-09-10 23:00","2018","09","10","23:00","15.1","","13.9","","93","","33","","5","","24.1","","99.47","","","","","","NA"
"2018-09-11 00:00","2018","09","11","00:00","15.7","","14.1","","91","","32","","8","","24.1","","99.53","","","","","","NA"
"2018-09-11 01:00","2018","09","11","01:00","15.8","","13.9","","88","","31","","11","","24.1","","99.56","","","","","","Mostly Cloudy"
"2018-09-11 02:00","2018","09","11","02:00","15.7","","13.9","","89","","32","","10","","24.1","","99.56","","","","","","NA"
"2018-09-11 03:00","2018","09","11","03:00","15.7","","13.7","","88","","34","","9","","24.1","","99.61","","","","","","NA"
"2018-09-11 04:00","2018","09","11","04:00","15.7","","13.7","","88","","32","","9","","24.1","","99.66","","","","","","Mostly Cloudy"
"2018-09-11 05:00","2018","09","11","05:00","15.1","","12.8","","86","","33","","8","","24.1","","99.71","","","","","","NA"
"2018-09-11 06:00","2018","09","11","06:00","15.0","","11.4","","79","","35","","14","","24.1","","99.78","","","","","","NA"
"2018-09-11 07:00","2018","09","11","07:00","15.4","","12.6","","83","","36","","8","","24.1","","99.86","","","","","","Mostly Cloudy"
"2018-09-11 08:00","2018","09","11","08:00","16.5","","12.6","","78","","1","","13","","24.1","","99.90","","","","","","NA"
"2018-09-11 09:00","2018","09","11","09:00","17.6","","12.4","","71","","35","","16","","24.1","","99.93","","","","","","NA"
"2018-09-11 10:00","2018","09","11","10:00","19.0","","12.8","","67","","1","","12","","24.1","","99.97","","","","","","Mainly Clear"
"2018-09-11 11:00","2018","09","11","11:00","19.3","","13.4","","68","","6","","15","","24.1","","99.99","","","","","","NA"
"2018-09-11 12:00","2018","09","11","12:00","20.3","","14.1","","67","","5","","14","","24.1","","99.98","","","","","","NA"
"2018-09-11 13:00","2018","09","11","13:00","20.5","","14.3","","67","","4","","14","","24.1","","100.00","","","","","","Mainly Clear"
"2018-09-11 14:00","2018","09","11","14:00","21.4","","14.9","","66","","6","","8","","24.1","","99.96","","25","","","","NA"
"2018-09-11 15:00","2018","09","11","15:00","21.9","","14.8","","63","","6","","8","","24.1","","99.93","","26","","","","NA"
"2018-09-11 16:00","2018","09","11","16:00","21.9","","14.8","","63","","7","","14","","24.1","","99.91","","26","","","","Clear"
"2018-09-11 17:00","2018","09","11","17:00","21.7","","14.7","","64","","8","","11","","24.1","","99.88","","25","","","","NA"
"2018-09-11 18:00","2018","09","11","18:00","20.1","","15.4","","74","","10","","10","","24.1","","99.87","","","","","","NA"
"2018-09-11 19:00","2018","09","11","19:00","17.9","","14.6","","81","","13","","7","","24.1","","99.85","","","","","","Clear"
"2018-09-11 20:00","2018","09","11","20:00","15.2","","13.8","","91","","13","","9","","24.1","","99.89","","","","","","NA"
"2018-09-11 21:00","2018","09","11","21:00","13.8","","13.2","","96","","15","","5","","24.1","","99.95","","","","","","NA"
"2018-09-11 22:00","2018","09","11","22:00","13.3","","12.9","","98","","14","","7","","24.1","","99.98","","","","","","Clear"
"2018-09-11 23:00","2018","09","11","23:00","13.5","","13.2","","99","","11","","3","","24.1","","99.99","","","","","","NA"
"2018-09-12 00:00","2018","09","12","00:00","12.7","","12.4","","98","","","","0","","24.1","","99.96","","","","","","NA"
"2018-09-12 01:00","2018","09","12","01:00","11.4","","11.2","","99","","36","","3","","19.3","","99.96","","","","","","Clear"
"2018-09-12 02:00","2018","09","12","02:00","11.3","","11.1","","99","","36","","2","","4.8","","99.99","","","","","","NA"
"2018-09-12 03:00","2018","09","12","03:00","11.5","","11.3","","99","","36","","1","","19.3","","100.02","","","","","","NA"
"2018-09-12 04:00","2018","09","12","04:00","10.6","","10.4","","99","","36","","3","","24.1","","100.05","","","","","","Clear"
"2018-09-12 05:00","2018","09","12","05:00","11.6","","11.4","","99","","3","","4","","4.8","","100.09","","","","","","NA"
"2018-09-12 06:00","2018","09","12","06:00","11.4","","11.2","","99","","36","","1","","11.3","","100.10","","","","","","NA"
"2018-09-12 07:00","2018","09","12","07:00","12.4","","12.2","","99","","36","","2","","16.1","","100.14","","","","","","Mainly Clear"
"2018-09-12 08:00","2018","09","12","08:00","16.3","","16.1","","99","","4","","4","","8.1","","100.16","","","","","","Fog"
"2018-09-12 09:00","2018","09","12","09:00","18.9","","17.0","","89","","4","","12","","12.9","","100.16","","","","","","NA"
"2018-09-12 10:00","2018","09","12","10:00","20.3","","16.0","","76","","5","","13","","24.1","","100.19","","25","","","","Mostly Cloudy"
"2018-09-12 11:00","2018","09","12","11:00","20.8","","16.4","","75","","7","","8","","24.1","","100.18","","26","","","","NA"
"2018-09-12 12:00","2018","09","12","12:00","21.6","","15.8","","69","","2","","13","","24.1","","100.15","","26","","","","NA"
"2018-09-12 13:00","2018","09","12","13:00","22.7","","15.7","","64","","5","","12","","24.1","","100.13","","27","","","","Mainly Clear"
"2018-09-12 14:00","2018","09","12","14:00","23.3","","15.3","","60","","10","","7","","24.1","","100.08","","27","","","","NA"
"2018-09-12 15:00","2018","09","12","15:00","22.1","","15.8","","67","","9","","11","","24.1","","100.05","","27","","","","NA"
"2018-09-12 16:00","2018","09","12","16:00","21.8","","15.6","","67","","8","","15","","24.1","","100.03","","26","","","","Mostly Cloudy"
"2018-09-12 17:00","2018","09","12","17:00","21.0","","16.0","","73","","9","","10","","24.1","","100.03","","26","","","","NA"
"2018-09-12 18:00","2018","09","12","18:00","20.2","","16.5","","79","","9","","8","","24.1","","100.04","","25","","","","NA"
"2018-09-12 19:00","2018","09","12","19:00","19.6","","16.8","","84","","8","","5","","24.1","","100.04","","","","","","Cloudy"
"2018-09-12 20:00","2018","09","12","20:00","18.8","","16.7","","87","","9","","7","","24.1","","100.07","","","","","","NA"
"2018-09-12 21:00","2018","09","12","21:00","18.0","","16.6","","91","","12","","7","","24.1","","100.08","","","","","","NA"
"2018-09-12 22:00","2018","09","12","22:00","16.8","","15.9","","95","","36","","2","","24.1","","100.06","","","","","","Clear"
"2018-09-12 23:00","2018","09","12","23:00","16.3","","15.9","","97","","36","","2","","24.1","","100.05","","","","","","NA"
"2018-09-13 00:00","2018","09","13","00:00","15.1","","14.7","","97","","36","","3","","24.1","","100.06","","","","","","NA"
"2018-09-13 01:00","2018","09","13","01:00","15.3","","14.7","","96","","34","","4","","24.1","","100.06","","","","","","Mainly Clear"
"2018-09-13 02:00","2018","09","13","02:00","16.1","","15.6","","97","","2","","6","","24.1","","100.05","","","","","","NA"
"2018-09-13 03:00","2018","09","13","03:00","17.1","","16.4","","96","","34","","6","","24.1","","100.03","","","","","","NA"
"2018-09-13 04:00","2018","09","13","04:00","16.4","","15.9","","97","","35","","8","","19.3","","100.01","","","","","","Mainly Clear"
"2018-09-13 05:00","2018","09","13","05:00","16.7","","16.2","","97","","1","","10","","11.3","","100.00","","","","","","NA"
"2018-09-13 06:00","2018","09","13","06:00","16.8","","16.4","","98","","3","","8","","4.8","","100.03","","","","","","Fog"
"2018-09-13 07:00","2018","09","13","07:00","18.2","","17.5","","95","","4","","15","","8.1","","100.06","","","","","","Fog"
"2018-09-13 08:00","2018","09","13","08:00","18.5","","17.6","","94","","3","","15","","8.1","","100.07","","","","","","Fog"
"2018-09-13 09:00","2018","09","13","09:00","18.8","","17.8","","94","","5","","16","","8.1","","100.09","","","","","","Fog"
"2018-09-13 10:00","2018","09","13","10:00","19.5","","18.7","","95","","6","","10","","6.4","","100.09","","","","","","Fog"
"2018-09-13 11:00","2018","09","13","11:00","19.9","","18.9","","94","","3","","10","","6.4","","100.08","","","","","","Fog"
"2018-09-13 12:00","2018","09","13","12:00","20.4","","19.3","","93","","3","","12","","6.4","","100.05","","27","","","","Fog"
"2018-09-13 13:00","2018","09","13","13:00","21.0","","19.9","","93","","4","","9","","6.4","","100.01","","28","","","","Fog"
"2018-09-13 14:00","2018","09","13","14:00","22.0","","20.2","","89","","4","","9","","8.1","","99.97","","30","","","","Fog"
"2018-09-13 15:00","2018","09","13","15:00","22.5","","20.6","","89","","7","","11","","8.1","","99.94","","31","","","","Fog"
"2018-09-13 16:00","2018","09","13","16:00","22.6","","20.6","","88","","8","","10","","8.1","","99.87","","31","","","","Fog"
"2018-09-13 17:00","2018","09","13","17:00","22.1","","20.4","","90","","8","","10","","9.7","","99.82","","30","","","","Fog"
"2018-09-13 18:00","2018","09","13","18:00","21.8","","20.6","","93","","9","","5","","12.9","","99.83","","30","","","","NA"
"2018-09-13 19:00","2018","09","13","19:00","21.6","","20.5","","93","","36","","3","","12.9","","99.81","","30","","","","Cloudy"
"2018-09-13 20:00","2018","09","13","20:00","20.4","","19.9","","97","","10","","5","","9.7","","99.85","","28","","","","Fog"
"2018-09-13 21:00","2018","09","13","21:00","19.6","","19.3","","98","","4","","5","","8.1","","99.87","","","","","","Fog"
"2018-09-13 22:00","2018","09","13","22:00","18.1","","17.8","","99","","29","","3","","8.1","","99.84","","","","","","Fog"
"2018-09-13 23:00","2018","09","13","23:00","18.9","","18.8","","99","","36","","5","","9.7","","99.84","","","","","","Fog"
"2018-09-14 00:00","2018","09","14","00:00","18.4","","18.1","","99","","34","","5","","9.7","","99.82","","","","","","Fog"
"2018-09-14 01:00","2018","09","14","01:00","17.9","","17.8","","99","","3","","7","","4.8","","99.78","","","","","","Fog"
"2018-09-14 02:00","2018","09","14","02:00","17.5","","17.3","","99","","3","","6","","0.8","","99.76","","","","","","Fog"
"2018-09-14 03:00","2018","09","14","03:00","17.5","","17.4","","99","","35","","4","","4.8","","99.78","","","","","","NA"
"2018-09-14 04:00","2018","09","14","04:00","18.0","","17.8","","99","","35","","8","","4.8","","99.77","","","","","","Clear"
"2018-09-14 05:00","2018","09","14","05:00","15.7","","15.6","","99","","5","","5","","3.2","","99.80","","","","","","NA"
"2018-09-14 06:00","2018","09","14","06:00","17.9","","17.8","","99","","33","","8","","2.4","","99.85","","","","","","Fog"
"2018-09-14 07:00","2018","09","14","07:00","18.8","","18.6","","99","","35","","4","","4.8","","99.88","","","","","","Fog"
"2018-09-14 08:00","2018","09","14","08:00","19.9","","19.7","","99","","36","","7","","8.1","","99.86","","","","","","Fog"
"2018-09-14 09:00","2018","09","14","09:00","21.7","","20.1","","90","","35","","8","","9.7","","99.87","","29","","","","Fog"
"2018-09-14 10:00","2018","09","14","10:00","23.4","","20.9","","85","","35","","9","","11.3","","99.87","","32","","","","Mostly Cloudy"
"2018-09-14 11:00","2018","09","14","11:00","24.8","","20.7","","78","","5","","9","","12.9","","99.84","","33","","","","NA"
"2018-09-14 12:00","2018","09","14","12:00","25.9","","20.6","","72","","6","","4","","16.1","","99.82","","34","","","","NA"
"2018-09-14 13:00","2018","09","14","13:00","26.7","","20.9","","70","","2","","12","","16.1","","99.79","","35","","","","Mostly Cloudy"
"2018-09-14 14:00","2018","09","14","14:00","26.4","","21.0","","71","","9","","8","","16.1","","99.74","","35","","","","NA"
"2018-09-14 15:00","2018","09","14","15:00","26.9","","20.7","","68","","10","","12","","9.7","","99.72","","35","","","","Haze"
"2018-09-14 16:00","2018","09","14","16:00","27.2","","20.7","","67","","9","","9","","9.7","","99.71","","35","","","","Haze"
"2018-09-14 17:00","2018","09","14","17:00","26.4","","20.4","","69","","6","","10","","16.1","","99.70","","34","","","","NA"
"2018-09-14 18:00","2018","09","14","18:00","23.9","","20.8","","82","","11","","9","","9.7","","99.71","","32","","","","Haze"
"2018-09-14 19:00","2018","09","14","19:00","22.0","","19.7","","87","","14","","5","","9.7","","99.71","","29","","","","Haze"
"2018-09-14 20:00","2018","09","14","20:00","21.4","","19.8","","90","","25","","6","","9.7","","99.76","","29","","","","Haze"
"2018-09-14 21:00","2018","09","14","21:00","21.0","","19.9","","93","","29","","4","","9.7","","99.79","","28","","","","Fog"
"2018-09-14 22:00","2018","09","14","22:00","19.3","","18.9","","98","","5","","3","","9.7","","99.80","","","","","","Fog"
"2018-09-14 23:00","2018","09","14","23:00"
"2018-09-15 00:00","2018","09","15","00:00"
"2018-09-15 01:00","2018","09","15","01:00"
"2018-09-15 02:00","2018","09","15","02:00"
"2018-09-15 03:00","2018","09","15","03:00"
"2018-09-15 04:00","2018","09","15","04:00"
"2018-09-15 05:00","2018","09","15","05:00"
"2018-09-15 06:00","2018","09","15","06:00","20.0","","19.8","","99","","4","","15","","0.8","","99.85","","27","","","","Fog"
"2018-09-15 07:00","2018","09","15","07:00","19.9","","19.7","","99","","4","","14","","0.8","","99.90","","","","","","Fog"
"2018-09-15 08:00","2018","09","15","08:00","19.9","","19.8","","99","","4","","16","","0.8","","99.91","","","","","","Fog"
"2018-09-15 09:00","2018","09","15","09:00","20.0","","19.9","","99","","7","","9","","1.2","","99.93","","27","","","","Fog"
"2018-09-15 10:00","2018","09","15","10:00","22.0","","21.1","","95","","5","","7","","9.7","","99.96","","31","","","","Fog"
"2018-09-15 11:00","2018","09","15","11:00","24.7","","21.0","","79","","4","","9","","19.3","","99.96","","33","","","","NA"
"2018-09-15 12:00","2018","09","15","12:00","26.0","","21.8","","77","","5","","18","","19.3","","99.95","","35","","","","NA"
"2018-09-15 13:00","2018","09","15","13:00","28.0","","22.3","","71","","8","","16","","24.1","","99.91","","38","","","","Mainly Clear"
"2018-09-15 14:00","2018","09","15","14:00","28.6","","21.9","","67","","7","","11","","24.1","","99.88","","38","","","","NA"
"2018-09-15 15:00","2018","09","15","15:00","29.0","","21.4","","63","","8","","16","","19.3","","99.84","","38","","","","NA"
"2018-09-15 16:00","2018","09","15","16:00","28.9","","21.2","","63","","14","","8","","19.3","","99.80","","37","","","","Mainly Clear"
"2018-09-15 17:00","2018","09","15","17:00","28.1","","20.8","","64","","13","","14","","19.3","","99.79","","36","","","","NA"
"2018-09-15 18:00","2018","09","15","18:00","26.2","","21.0","","73","","11","","9","","19.3","","99.80","","35","","","","NA"
"2018-09-15 19:00","2018","09","15","19:00","22.7","","20.8","","88","","11","","9","","19.3","","99.79","","31","","","","Clear"
"2018-09-15 20:00","2018","09","15","20:00","22.4","","20.6","","89","","4","","10","","19.3","","99.86","","30","","","","NA"
"2018-09-15 21:00","2018","09","15","21:00","21.9","","20.6","","92","","4","","12","","19.3","","99.91","","30","","","","NA"
"2018-09-15 22:00","2018","09","15","22:00","21.2","","20.1","","94","","4","","13","","19.3","","99.92","","29","","","","Clear"
"2018-09-15 23:00","2018","09","15","23:00"
"2018-09-16 00:00","2018","09","16","00:00"
"2018-09-16 01:00","2018","09","16","01:00"
"2018-09-16 02:00","2018","09","16","02:00"
"2018-09-16 03:00","2018","09","16","03:00"
"2018-09-16 04:00","2018","09","16","04:00"
"2018-09-16 05:00","2018","09","16","05:00"
"2018-09-16 06:00","2018","09","16","06:00","19.4","","19.0","","98","","3","","10","","8.1","","99.93","","","","","","Fog"
"2018-09-16 07:00","2018","09","16","07:00","20.1","","19.6","","97","","3","","8","","8.1","","99.94","","27","","","","Fog"
"2018-09-16 08:00","2018","09","16","08:00","22.3","","20.7","","91","","5","","9","","9.7","","99.94","","30","","","","Fog"
"2018-09-16 09:00","2018","09","16","09:00","24.2","","21.0","","82","","6","","11","","12.9","","99.95","","33","","","","NA"
"2018-09-16 10:00","2018","09","16","10:00","25.8","","21.3","","76","","7","","10","","19.3","","99.94","","34","","","","Clear"
"2018-09-16 11:00","2018","09","16","11:00","26.9","","21.6","","72","","8","","13","","24.1","","99.90","","36","","","","NA"
"2018-09-16 12:00","2018","09","16","12:00","28.3","","19.4","","58","","11","","18","","24.1","","99.86","","35","","","","NA"
"2018-09-16 13:00","2018","09","16","13:00","28.9","","19.1","","55","","11","","17","","24.1","","99.82","","36","","","","Mainly Clear"
"2018-09-16 14:00","2018","09","16","14:00","29.2","","18.6","","52","","13","","19","","24.1","","99.74","","36","","","","NA"
"2018-09-16 15:00","2018","09","16","15:00","28.8","","18.1","","52","","10","","21","","19.3","","99.67","","35","","","","NA"
"2018-09-16 16:00","2018","09","16","16:00","28.7","","18.6","","54","","11","","18","","19.3","","99.61","","35","","","","Mainly Clear"
"2018-09-16 17:00","2018","09","16","17:00","27.7","","18.3","","56","","11","","14","","19.3","","99.58","","34","","","","NA"
"2018-09-16 18:00","2018","09","16","18:00","25.6","","19.3","","68","","13","","14","","19.3","","99.57","","33","","","","NA"
"2018-09-16 19:00","2018","09","16","19:00","21.8","","19.4","","86","","12","","10","","19.3","","99.56","","29","","","","Mainly Clear"
"2018-09-16 20:00","2018","09","16","20:00","20.4","","18.7","","90","","13","","9","","19.3","","99.58","","27","","","","NA"
"2018-09-16 21:00","2018","09","16","21:00","20.1","","18.5","","91","","12","","7","","19.3","","99.58","","26","","","","NA"
"2018-09-16 22:00","2018","09","16","22:00","19.6","","18.6","","94","","12","","7","","19.3","","99.55","","","","","","Clear"
"2018-09-16 23:00","2018","09","16","23:00","19.9","","19.3","","96","","4","","3","","24.1","","99.52","","","","","","NA"
"2018-09-17 00:00","2018","09","17","00:00","19.3","","18.8","","97","","3","","4","","24.1","","99.49","","","","","","NA"
"2018-09-17 01:00","2018","09","17","01:00","18.0","","17.6","","98","","7","","7","","24.1","","99.44","","","","","","Clear"
"2018-09-17 02:00","2018","09","17","02:00","18.1","","17.9","","99","","7","","3","","24.1","","99.40","","","","","","NA"
"2018-09-17 03:00","2018","09","17","03:00","17.1","","16.9","","99","","10","","6","","16.1","","99.37","","","","","","NA"
"2018-09-17 04:00","2018","09","17","04:00","17.2","","17.0","","99","","14","","10","","19.3","","99.32","","","","","","Clear"
"2018-09-17 05:00","2018","09","17","05:00","17.7","","17.5","","99","","14","","5","","19.3","","99.31","","","","","","NA"
"2018-09-17 06:00","2018","09","17","06:00","17.8","","17.7","","99","","3","","4","","24.1","","99.30","","","","","","NA"
"2018-09-17 07:00","2018","09","17","07:00","17.7","","17.6","","99","","12","","7","","12.9","","99.30","","","","","","Mostly Cloudy"
"2018-09-17 08:00","2018","09","17","08:00","20.7","","20.5","","99","","12","","7","","19.3","","99.28","","29","","","","NA"
"2018-09-17 09:00","2018","09","17","09:00","22.9","","21.0","","89","","14","","9","","24.1","","99.27","","31","","","","NA"
"2018-09-17 10:00","2018","09","17","10:00","24.2","","20.2","","78","","10","","5","","24.1","","99.26","","32","","","","Mostly Cloudy"
"2018-09-17 11:00","2018","09","17","11:00","25.2","","20.3","","74","","9","","5","","24.1","","99.21","","33","","","","NA"
"2018-09-17 12:00","2018","09","17","12:00","26.8","","20.5","","68","","2","","9","","24.1","","99.15","","35","","","","NA"
"2018-09-17 13:00","2018","09","17","13:00","26.8","","19.6","","64","","6","","13","","24.1","","99.09","","34","","","","Mostly Cloudy"
"2018-09-17 14:00","2018","09","17","14:00","28.2","","19.3","","58","","36","","13","","24.1","","99.02","","35","","","","NA"
"2018-09-17 15:00","2018","09","17","15:00","27.9","","19.4","","59","","10","","8","","24.1","","98.96","","35","","","","NA"
"2018-09-17 16:00","2018","09","17","16:00","27.6","","19.6","","61","","14","","6","","24.1","","98.91","","35","","","","Mainly Clear"
"2018-09-17 17:00","2018","09","17","17:00","27.2","","19.6","","63","","15","","5","","24.1","","98.89","","34","","","","NA"
"2018-09-17 18:00","2018","09","17","18:00","26.1","","20.2","","70","","10","","4","","24.1","","98.91","","34","","","","NA"
"2018-09-17 19:00","2018","09","17","19:00","22.3","","20.4","","89","","20","","10","","24.1","","98.94","","30","","","","Mainly Clear"
"2018-09-17 20:00","2018","09","17","20:00","20.7","","19.5","","93","","20","","10","","24.1","","98.96","","28","","","","NA"
"2018-09-17 21:00","2018","09","17","21:00","20.1","","19.3","","95","","20","","8","","24.1","","98.98","","27","","","","NA"
"2018-09-17 22:00","2018","09","17","22:00","20.0","","19.5","","97","","20","","7","","24.1","","98.99","","27","","","","Clear"
"2018-09-17 23:00","2018","09","17","23:00","18.7","","18.3","","98","","19","","4","","24.1","","99.01","","","","","","NA"
"2018-09-18 00:00","2018","09","18","00:00","19.5","","19.2","","98","","25","","10","","16.1","","99.04","","","","","","NA"
"2018-09-18 01:00","2018","09","18","01:00","19.7","","19.4","","98","","22","","6","","11.3","","99.01","","","","","","Mainly Clear"
"2018-09-18 02:00","2018","09","18","02:00","19.1","","18.9","","98","","24","","6","","16.1","","98.96","","","","","","NA"
"2018-09-18 03:00","2018","09","18","03:00","19.1","","18.9","","98","","26","","8","","24.1","","98.94","","","","","","NA"
"2018-09-18 04:00","2018","09","18","04:00","18.9","","18.7","","98","","24","","9","","16.1","","98.95","","","","","","Clear"
"2018-09-18 05:00","2018","09","18","05:00","18.3","","17.9","","98","","27","","7","","16.1","","99.00","","","","","","NA"
"2018-09-18 06:00","2018","09","18","06:00","19.1","","18.7","","97","","31","","8","","11.3","","99.05","","","","","","NA"
"2018-09-18 07:00","2018","09","18","07:00","19.9","","19.0","","95","","35","","4","","12.9","","99.06","","","","","","Clear"
"2018-09-18 08:00","2018","09","18","08:00","21.3","","19.9","","92","","3","","8","","12.9","","99.07","","29","","","","NA"
"2018-09-18 09:00","2018","09","18","09:00","22.6","","19.9","","85","","5","","6","","16.1","","99.07","","30","","","","NA"
"2018-09-18 10:00","2018","09","18","10:00","24.8","","20.2","","75","","35","","7","","16.1","","99.12","","33","","","","Clear"
"2018-09-18 11:00","2018","09","18","11:00","27.1","","19.7","","64","","36","","2","","19.3","","99.05","","34","","","","NA"
"2018-09-18 12:00","2018","09","18","12:00","29.2","","18.6","","52","","24","","14","","24.1","","99.03","","36","","","","NA"
"2018-09-18 13:00","2018","09","18","13:00","30.3","","18.7","","49","","31","","15","","24.1","","98.97","","37","","","","Clear"
"2018-09-18 14:00","2018","09","18","14:00","29.2","","20.3","","58","","","M","11","","16.1","","98.97","","37","","","","NA"
"2018-09-18 15:00","2018","09","18","15:00","27.3","","19.3","","61","","4","","17","","16.1","","98.94","","34","","","","NA"
"2018-09-18 16:00","2018","09","18","16:00","24.5","","20.5","","78","","7","","11","","16.1","","98.96","","32","","","","Thunderstorms"
"2018-09-18 17:00","2018","09","18","17:00","24.8","","21.3","","81","","9","","5","","16.1","","98.98","","33","","","","NA"
"2018-09-18 18:00","2018","09","18","18:00","24.7","","20.5","","77","","4","","15","","16.1","","99.00","","33","","","","NA"
"2018-09-18 19:00","2018","09","18","19:00","22.0","","18.6","","81","","3","","17","","16.1","","99.07","","28","","","","NA"
"2018-09-18 20:00","2018","09","18","20:00","20.8","","18.4","","86","","4","","17","","16.1","","99.14","","27","","","","NA"
"2018-09-18 21:00","2018","09","18","21:00","19.8","","18.0","","89","","5","","17","","16.1","","99.19","","","","","","NA"
"2018-09-18 22:00","2018","09","18","22:00","19.2","","17.7","","91","","7","","9","","16.1","","99.18","","","","","","NA"
"2018-09-18 23:00","2018","09","18","23:00","19.2","","17.5","","90","","5","","8","","16.1","","99.22","","","","","","NA"
"2018-09-19 00:00","2018","09","19","00:00","18.9","","17.4","","91","","6","","9","","16.1","","99.26","","","","","","Rain"
"2018-09-19 01:00","2018","09","19","01:00","18.5","","17.6","","94","","3","","9","","14.5","","99.27","","","","","","NA"
"2018-09-19 02:00","2018","09","19","02:00","18.2","","16.8","","91","","5","","11","","16.1","","99.28","","","","","","NA"
"2018-09-19 03:00","2018","09","19","03:00","17.8","","16.5","","92","","8","","8","","11.3","","99.30","","","","","","NA"
"2018-09-19 04:00","2018","09","19","04:00","17.4","","16.3","","93","","2","","9","","8.1","","99.32","","","","","","Fog"
"2018-09-19 05:00","2018","09","19","05:00","18.3","","16.3","","88","","2","","9","","16.1","","99.40","","","","","","NA"
"2018-09-19 06:00","2018","09","19","06:00","17.9","","15.7","","87","","2","","9","","16.1","","99.48","","","","","","NA"
"2018-09-19 07:00","2018","09","19","07:00","18.2","","15.7","","85","","2","","9","","16.1","","99.55","","","","","","NA"
"2018-09-19 08:00","2018","09","19","08:00","18.7","","16.0","","84","","7","","11","","16.1","","99.57","","","","","","NA"
"2018-09-19 09:00","2018","09","19","09:00","19.0","","15.9","","82","","6","","11","","16.1","","99.62","","","","","","NA"
"2018-09-19 10:00","2018","09","19","10:00","20.1","","15.2","","73","","4","","18","","16.1","","99.61","","","","","","NA"
"2018-09-19 11:00","2018","09","19","11:00","20.5","","15.5","","73","","5","","15","","16.1","","99.63","","25","","","","NA"
"2018-09-19 12:00","2018","09","19","12:00","21.3","","15.5","","69","","5","","17","","16.1","","99.62","","26","","","","NA"
"2018-09-19 13:00","2018","09","19","13:00","21.6","","15.2","","66","","1","","11","","16.1","","99.61","","26","","","","NA"
"2018-09-19 14:00","2018","09","19","14:00","22.4","","15.8","","66","","7","","15","","16.1","","99.59","","27","","","","NA"
"2018-09-19 15:00","2018","09","19","15:00","22.8","","15.4","","63","","5","","13","","16.1","","99.56","","27","","","","NA"
"2018-09-19 16:00","2018","09","19","16:00","22.6","","15.2","","63","","7","","9","","16.1","","99.54","","27","","","","NA"
"2018-09-19 17:00","2018","09","19","17:00","22.4","","15.5","","65","","6","","11","","16.1","","99.56","","27","","","","NA"
"2018-09-19 18:00","2018","09","19","18:00","20.8","","15.7","","72","","8","","9","","16.1","","99.57","","25","","","","NA"
"2018-09-19 19:00","2018","09","19","19:00","19.1","","15.8","","81","","8","","4","","0.0","","99.62","","","","","","Haze"
"2018-09-19 20:00","2018","09","19","20:00","17.8","","15.5","","86","","9","","8","","16.1","","99.65","","","","","","NA"
"2018-09-19 21:00","2018","09","19","21:00","16.5","","14.5","","88","","8","","9","","16.1","","99.64","","","","","","NA"
"2018-09-19 22:00","2018","09","19","22:00","16.0","","14.4","","90","","7","","4","","16.1","","99.64","","","","","","NA"
"2018-09-19 23:00","2018","09","19","23:00","15.6","","14.2","","91","","14","","11","","16.1","","99.64","","","","","","NA"
"2018-09-20 00:00","2018","09","20","00:00","16.2","","14.2","","88","","10","","8","","16.1","","99.57","","","","","","NA"
"2018-09-20 01:00","2018","09","20","01:00","15.4","","13.5","","88","","5","","8","","16.1","","99.59","","","","","","NA"
"2018-09-20 02:00","2018","09","20","02:00","14.6","","13.3","","92","","9","","8","","16.1","","99.57","","","","","","NA"
"2018-09-20 03:00","2018","09","20","03:00","15.5","","13.8","","90","","6","","4","","16.1","","99.58","","","","","","NA"
"2018-09-20 04:00","2018","09","20","04:00","15.4","","14.1","","92","","8","","4","","16.1","","99.59","","","","","","NA"
"2018-09-20 05:00","2018","09","20","05:00","16.5","","15.5","","94","","6","","8","","16.1","","99.60","","","","","","NA"
"2018-09-20 06:00","2018","09","20","06:00","17.1","","16.1","","94","","9","","4","","16.1","","99.60","","","","","","NA"
"2018-09-20 07:00","2018","09","20","07:00","17.0","","16.5","","97","","11","","8","","1.6","","99.65","","","","","","Moderate Rain,Fog"
"2018-09-20 08:00","2018","09","20","08:00","17.9","","17.6","","98","","2","","11","","1.6","","99.71","","","","","","Heavy Rain,Fog"
"2018-09-20 09:00","2018","09","20","09:00","18.3","","18.0","","98","","34","","9","","2.0","","99.79","","","","","","Thunderstorms,Heavy Rain,Fog"
"2018-09-20 10:00","2018","09","20","10:00","18.4","","18.1","","98","","9","","9","","4.8","","99.75","","","","","","Moderate Rain,Fog"
"2018-09-20 11:00","2018","09","20","11:00","19.0","","18.5","","97","","12","","17","","16.1","","99.67","","","","","","Rain"
"2018-09-20 12:00","2018","09","20","12:00","20.0","","19.1","","95","","12","","11","","16.1","","99.62","","27","","","","NA"
"2018-09-20 13:00","2018","09","20","13:00","21.3","","19.9","","92","","13","","9","","16.1","","99.58","","29","","","","NA"
"2018-09-20 14:00","2018","09","20","14:00","22.3","","20.1","","87","","7","","13","","16.1","","99.50","","30","","","","NA"
"2018-09-20 15:00","2018","09","20","15:00","22.6","","20.4","","87","","7","","15","","16.1","","99.42","","31","","","","NA"
"2018-09-20 16:00","2018","09","20","16:00","22.7","","20.6","","88","","7","","11","","16.1","","99.37","","31","","","","NA"
"2018-09-20 17:00","2018","09","20","17:00","24.5","","21.1","","81","","12","","17","","16.1","","99.28","","33","","","","NA"
"2018-09-20 18:00","2018","09","20","18:00","23.1","","20.9","","87","","13","","13","","16.1","","99.28","","31","","","","NA"
"2018-09-20 19:00","2018","09","20","19:00","21.9","","20.7","","93","","11","","13","","16.1","","99.23","","30","","","","NA"
"2018-09-20 20:00","2018","09","20","20:00","20.7","","20.2","","97","","7","","8","","11.3","","99.22","","28","","","","NA"
"2018-09-20 21:00","2018","09","20","21:00","20.9","","20.4","","97","","","","0","","8.1","","99.15","","29","","","","Fog"
"2018-09-20 22:00","2018","09","20","22:00","20.8","","20.2","","96","","","","0","","9.7","","99.13","","29","","","","Fog"
"2018-09-20 23:00","2018","09","20","23:00","20.6","","20.3","","98","","16","","9","","4.8","","99.09","","28","","","","Fog"
"2018-09-21 00:00","2018","09","21","00:00","22.8","","21.3","","91","","18","","15","","14.5","","99.05","","31","","","","NA"
"2018-09-21 01:00","2018","09","21","01:00","23.1","","21.2","","89","","20","","17","","16.1","","99.02","","32","","","","NA"
"2018-09-21 02:00","2018","09","21","02:00","22.9","","21.0","","89","","19","","17","","16.1","","99.02","","31","","","","NA"
"2018-09-21 03:00","2018","09","21","03:00","23.3","","21.1","","87","","19","","18","","16.1","","98.98","","32","","","","NA"
"2018-09-21 04:00","2018","09","21","04:00","23.4","","21.2","","87","","20","","21","","16.1","","98.96","","32","","","","NA"
"2018-09-21 05:00","2018","09","21","05:00","23.7","","21.0","","85","","20","","24","","16.1","","98.91","","32","","","","NA"
"2018-09-21 06:00","2018","09","21","06:00","23.9","","20.7","","82","","20","","24","","16.1","","98.87","","32","","","","NA"
"2018-09-21 07:00","2018","09","21","07:00","24.2","","20.6","","80","","20","","28","","16.1","","98.86","","32","","","","NA"
"2018-09-21 08:00","2018","09","21","08:00","25.1","","20.7","","76","","21","","26","","16.1","","98.84","","33","","","","NA"
"2018-09-21 09:00","2018","09","21","09:00","26.6","","21.0","","71","","20","","24","","16.1","","98.80","","35","","","","NA"
"2018-09-21 10:00","2018","09","21","10:00","28.8","","20.8","","61","","22","","30","","16.1","","98.73","","37","","","","NA"
"2018-09-21 11:00","2018","09","21","11:00","29.0","","20.2","","59","","22","","35","","16.1","","98.64","","37","","","","NA"
"2018-09-21 12:00","2018","09","21","12:00","27.8","","20.3","","63","","24","","37","","16.1","","98.63","","36","","","","Rain"
"2018-09-21 13:00","2018","09","21","13:00","27.2","","20.1","","65","","24","","43","","16.1","","98.70","","35","","","","NA"
"2018-09-21 14:00","2018","09","21","14:00","27.8","","20.8","","65","","25","","34","","16.1","","98.70","","36","","","","NA"
"2018-09-21 15:00","2018","09","21","15:00","26.9","","19.2","","62","","25","","35","","16.1","","98.74","","34","","","","NA"
"2018-09-21 16:00","2018","09","21","16:00","27.7","","14.9","","45","","27","","48","","16.1","","98.71","","32","","","","NA"
"2018-09-21 17:00","2018","09","21","17:00","26.7","","13.2","","43","","29","","34","","16.1","","98.80","","30","","","","NA"
"2018-09-21 18:00","2018","09","21","18:00","24.7","","13.1","","48","","30","","46","","16.1","","98.95","","28","","","","NA"
"2018-09-21 19:00","2018","09","21","19:00","22.5","","11.1","","48","","29","","32","","16.1","","99.18","","","","","","NA"
"2018-09-21 20:00","2018","09","21","20:00","20.1","","10.8","","55","","30","","34","","16.1","","99.45","","","","","","NA"
"2018-09-21 21:00","2018","09","21","21:00","19.0","","10.1","","56","","32","","26","","16.1","","99.59","","","","","","NA"
"2018-09-21 22:00","2018","09","21","22:00","17.9","","10.7","","62","","30","","21","","16.1","","99.69","","","","","","NA"
"2018-09-21 23:00","2018","09","21","23:00","17.2","","10.9","","66","","31","","17","","16.1","","99.79","","","","","","NA"
"2018-09-22 00:00","2018","09","22","00:00","15.8","","8.6","","62","","34","","30","","16.1","","99.90","","","","","","NA"
"2018-09-22 01:00","2018","09","22","01:00","14.5","","7.8","","64","","35","","22","","16.1","","99.98","","","","","","NA"
"2018-09-22 02:00","2018","09","22","02:00","13.6","","6.8","","63","","35","","26","","16.1","","100.03","","","","","","NA"
"2018-09-22 03:00","2018","09","22","03:00","13.0","","6.6","","65","","2","","24","","16.1","","100.10","","","","","","NA"
"2018-09-22 04:00","2018","09","22","04:00","12.3","","6.0","","65","","1","","22","","16.1","","100.20","","","","","","NA"
"2018-09-22 05:00","2018","09","22","05:00","12.5","","5.9","","64","","35","","22","","16.1","","100.26","","","","","","NA"
"2018-09-22 06:00","2018","09","22","06:00","12.1","","5.4","","64","","36","","26","","16.1","","100.27","","","","","","NA"
"2018-09-22 07:00","2018","09","22","07:00","11.4","","5.3","","66","","36","","18","","16.1","","100.31","","","","","","NA"
"2018-09-22 08:00","2018","09","22","08:00","12.0","","5.9","","66","","36","","15","","16.1","","100.40","","","","","","NA"
"2018-09-22 09:00","2018","09","22","09:00","13.0","","6.6","","65","","1","","18","","16.1","","100.42","","","","","","NA"
"2018-09-22 10:00","2018","09","22","10:00","13.9","","7.8","","66","","3","","18","","16.1","","100.45","","","","","","NA"
"2018-09-22 11:00","2018","09","22","11:00","14.5","","8.7","","68","","2","","21","","16.1","","100.44","","","","","","NA"
"2018-09-22 12:00","2018","09","22","12:00","15.1","","8.5","","64","","3","","18","","16.1","","100.40","","","","","","NA"
"2018-09-22 13:00","2018","09","22","13:00","15.6","","8.7","","63","","4","","13","","16.1","","100.39","","","","","","NA"
"2018-09-22 14:00","2018","09","22","14:00","15.7","","9.0","","64","","9","","8","","16.1","","100.30","","","","","","NA"
"2018-09-22 15:00","2018","09","22","15:00","15.5","","8.4","","62","","12","","8","","16.1","","100.25","","","","","","NA"
"2018-09-22 16:00","2018","09","22","16:00","15.7","","6.6","","54","","","M","4","","16.1","","100.20","","","","","","NA"
"2018-09-22 17:00","2018","09","22","17:00","15.3","","7.7","","60","","9","","8","","16.1","","100.21","","","","","","NA"
"2018-09-22 18:00","2018","09","22","18:00","14.3","","9.5","","73","","10","","5","","16.1","","100.16","","","","","","NA"
"2018-09-22 19:00","2018","09","22","19:00","13.5","","8.5","","72","","","","0","","16.1","","100.15","","","","","","NA"
"2018-09-22 20:00","2018","09","22","20:00","11.9","","9.3","","84","","","","0","","16.1","","100.14","","","","","","NA"
"2018-09-22 21:00","2018","09","22","21:00","10.5","","8.9","","90","","","","0","","16.1","","100.15","","","","","","NA"
"2018-09-22 22:00","2018","09","22","22:00","9.8","","8.0","","89","","","","0","","16.1","","100.15","","","","","","NA"
"2018-09-22 23:00","2018","09","22","23:00","8.6","","7.7","","94","","","","0","","16.1","","100.12","","","","","","NA"
"2018-09-23 00:00","2018","09","23","00:00","8.1","","7.5","","96","","","","0","","16.1","","100.14","","","","","","NA"
"2018-09-23 01:00","2018","09","23","01:00","8.9","","7.5","","91","","","","0","","16.1","","100.11","","","","","","NA"
"2018-09-23 02:00","2018","09","23","02:00","8.4","","7.0","","91","","3","","4","","16.1","","100.09","","","","","","NA"
"2018-09-23 03:00","2018","09","23","03:00","7.4","","6.8","","96","","4","","4","","16.1","","100.04","","","","","","NA"
"2018-09-23 04:00","2018","09","23","04:00","7.6","","7.0","","96","","27","","4","","16.1","","100.05","","","","","","NA"
"2018-09-23 05:00","2018","09","23","05:00","8.4","","7.4","","93","","1","","5","","16.1","","100.09","","","","","","NA"
"2018-09-23 06:00","2018","09","23","06:00","9.3","","7.8","","90","","33","","4","","16.1","","100.09","","","","","","NA"
"2018-09-23 07:00","2018","09","23","07:00","8.0","","7.1","","94","","","","0","","16.1","","100.09","","","","","","NA"
"2018-09-23 08:00","2018","09","23","08:00","13.8","","11.0","","83","","","M","4","","16.1","","100.14","","","","","","NA"
"2018-09-23 09:00","2018","09","23","09:00","15.8","","10.8","","72","","5","","17","","16.1","","100.17","","","","","","NA"
"2018-09-23 10:00","2018","09","23","10:00","16.4","","9.3","","62","","4","","18","","16.1","","100.18","","","","","","NA"
"2018-09-23 11:00","2018","09","23","11:00","17.3","","9.7","","61","","5","","15","","16.1","","100.15","","","","","","NA"
"2018-09-23 12:00","2018","09","23","12:00","17.4","","10.1","","62","","5","","5","","16.1","","100.13","","","","","","NA"
"2018-09-23 13:00","2018","09","23","13:00","18.5","","10.3","","59","","","M","5","","16.1","","100.07","","","","","","NA"
"2018-09-23 14:00","2018","09","23","14:00","19.5","","10.4","","55","","","M","8","","16.1","","100.01","","","","","","NA"
"2018-09-23 15:00","2018","09","23","15:00","19.9","","9.3","","50","","","M","8","","16.1","","99.95","","","","","","NA"
"2018-09-23 16:00","2018","09","23","16:00","19.9","","8.9","","49","","3","","11","","16.1","","99.93","","","","","","NA"
"2018-09-23 17:00","2018","09","23","17:00","19.6","","10.0","","53","","6","","13","","16.1","","99.96","","","","","","NA"
"2018-09-23 18:00","2018","09","23","18:00","17.7","","11.3","","66","","9","","8","","16.1","","99.99","","","","","","NA"
"2018-09-23 19:00","2018","09","23","19:00","14.4","","11.4","","82","","10","","8","","16.1","","100.00","","","","","","NA"
"2018-09-23 20:00","2018","09","23","20:00","13.6","","11.2","","85","","7","","8","","16.1","","100.06","","","","","","NA"
"2018-09-23 21:00","2018","09","23","21:00","12.9","","10.3","","84","","5","","5","","16.1","","100.11","","","","","","NA"
"2018-09-23 22:00","2018","09","23","22:00","13.0","","10.6","","85","","4","","11","","16.1","","100.09","","","","","","NA"
"2018-09-23 23:00","2018","09","23","23:00","13.9","","12.0","","88","","7","","11","","16.1","","100.11","","","","","","NA"
"2018-09-24 00:00","2018","09","24","00:00","12.7","","11.6","","93","","6","","11","","16.1","","100.10","","","","","","NA"
"2018-09-24 01:00","2018","09","24","01:00","12.4","","11.3","","93","","7","","13","","16.1","","100.07","","","","","","NA"
"2018-09-24 02:00","2018","09","24","02:00","12.5","","11.7","","95","","7","","11","","16.1","","100.05","","","","","","NA"
"2018-09-24 03:00","2018","09","24","03:00","12.4","","12.0","","98","","6","","11","","12.9","","100.02","","","","","","NA"
"2018-09-24 04:00","2018","09","24","04:00","12.2","","11.9","","98","","6","","13","","16.1","","100.00","","","","","","NA"
"2018-09-24 05:00","2018","09","24","05:00","13.2","","12.9","","98","","7","","11","","16.1","","100.00","","","","","","NA"
"2018-09-24 06:00","2018","09","24","06:00","12.7","","12.6","","99","","6","","9","","2.0","","100.02","","","","","","Fog"
"2018-09-24 07:00","2018","09","24","07:00","13.8","","13.7","","99","","7","","11","","16.1","","100.05","","","","","","NA"
"2018-09-24 08:00","2018","09","24","08:00","16.4","","15.3","","93","","9","","9","","16.1","","100.05","","","","","","NA"
"2018-09-24 09:00","2018","09","24","09:00","17.0","","15.6","","91","","8","","13","","16.1","","100.00","","","","","","NA"
"2018-09-24 10:00","2018","09","24","10:00","17.6","","15.4","","87","","11","","21","","16.1","","100.00","","","","","","NA"
"2018-09-24 11:00","2018","09","24","11:00","18.7","","15.8","","83","","10","","18","","16.1","","99.93","","","","","","NA"
"2018-09-24 12:00","2018","09","24","12:00","19.3","","16.1","","81","","10","","18","","16.1","","99.93","","","","","","NA"
"2018-09-24 13:00","2018","09","24","13:00"
"2018-09-24 14:00","2018","09","24","14:00"
"2018-09-24 15:00","2018","09","24","15:00","","M","","M","89","","","M","","M","","M","","M","","","","","NA"
"2018-09-24 16:00","2018","09","24","16:00","18.4","","17.9","","97","","12","","13","","9.7","","99.69","","","","","","Rain,Fog"
"2018-09-24 17:00","2018","09","24","17:00","18.8","","18.2","","96","","13","","11","","12.9","","99.67","","","","","","Rain"
"2018-09-24 18:00","2018","09","24","18:00","18.9","","18.1","","95","","14","","17","","16.1","","99.63","","","","","","Rain"
"2018-09-24 19:00","2018","09","24","19:00","18.9","","18.1","","95","","14","","17","","16.1","","99.58","","","","","","Rain"
"2018-09-24 20:00","2018","09","24","20:00","18.9","","18.4","","97","","15","","15","","16.1","","99.58","","","","","","Rain"
"2018-09-24 21:00","2018","09","24","21:00","18.9","","18.6","","98","","14","","11","","4.8","","99.56","","","","","","Rain,Fog"
"2018-09-24 22:00","2018","09","24","22:00","19.1","","18.8","","98","","16","","18","","4.0","","99.53","","","","","","Moderate Rain,Fog"
"2018-09-24 23:00","2018","09","24","23:00","19.4","","18.9","","97","","16","","21","","6.4","","99.50","","","","","","Rain,Fog"
"2018-09-25 00:00","2018","09","25","00:00","19.3","","18.7","","96","","15","","17","","9.7","","99.43","","","","","","Rain,Fog"
"2018-09-25 01:00","2018","09","25","01:00","19.1","","18.6","","97","","17","","17","","6.4","","99.37","","","","","","Rain,Fog"
"2018-09-25 02:00","2018","09","25","02:00","19.1","","18.6","","97","","17","","17","","16.1","","99.32","","","","","","Rain"
"2018-09-25 03:00","2018","09","25","03:00","19.3","","18.8","","97","","18","","18","","11.3","","99.27","","","","","","NA"
"2018-09-25 04:00","2018","09","25","04:00","19.5","","19.2","","98","","18","","13","","6.4","","99.23","","","","","","Fog"
"2018-09-25 05:00","2018","09","25","05:00","19.9","","19.4","","97","","21","","15","","16.1","","99.25","","","","","","NA"
"2018-09-25 06:00","2018","09","25","06:00","20.2","","19.7","","97","","20","","15","","14.5","","99.25","","28","","","","NA"
"2018-09-25 07:00","2018","09","25","07:00","20.5","","20.0","","97","","20","","17","","14.5","","99.27","","28","","","","NA"
"2018-09-25 08:00","2018","09","25","08:00","20.4","","20.1","","98","","19","","11","","2.0","","99.25","","28","","","","Rain,Fog"
"2018-09-25 09:00","2018","09","25","09:00","20.8","","20.2","","96","","19","","22","","4.8","","99.23","","29","","","","Rain,Fog"
"2018-09-25 10:00","2018","09","25","10:00","21.6","","20.5","","93","","20","","26","","16.1","","99.23","","30","","","","NA"
"2018-09-25 11:00","2018","09","25","11:00","21.8","","20.8","","94","","19","","17","","16.1","","99.20","","30","","","","NA"
"2018-09-25 12:00","2018","09","25","12:00","22.4","","21.1","","92","","20","","15","","16.1","","99.21","","31","","","","NA"
"2018-09-25 13:00","2018","09","25","13:00","23.1","","21.0","","88","","21","","24","","16.1","","99.15","","32","","","","NA"
"2018-09-25 14:00","2018","09","25","14:00","22.8","","20.8","","88","","20","","26","","16.1","","99.09","","31","","","","NA"
"2018-09-25 15:00","2018","09","25","15:00","22.6","","21.3","","92","","18","","15","","16.1","","99.04","","31","","","","NA"
"2018-09-25 16:00","2018","09","25","16:00","22.8","","21.3","","91","","19","","13","","16.1","","98.94","","31","","","","NA"
"2018-09-25 17:00","2018","09","25","17:00","23.2","","21.6","","91","","19","","8","","16.1","","98.87","","32","","","","NA"
"2018-09-25 18:00","2018","09","25","18:00","22.7","","21.4","","92","","18","","17","","16.1","","98.94","","31","","","","NA"
"2018-09-25 19:00","2018","09","25","19:00","21.9","","21.4","","97","","11","","13","","8.1","","98.82","","31","","","","Thunderstorms,Rain,Fog"
"2018-09-25 20:00","2018","09","25","20:00","22.0","","21.3","","96","","19","","11","","4.8","","98.86","","31","","","","Thunderstorms,Moderate Rain,Fog"
"2018-09-25 21:00","2018","09","25","21:00","20.6","","19.5","","93","","25","","17","","16.1","","98.86","","28","","","","NA"
"2018-09-25 22:00","2018","09","25","22:00","21.2","","20.6","","96","","22","","15","","16.1","","98.84","","29","","","","NA"
"2018-09-25 23:00","2018","09","25","23:00","21.7","","20.7","","94","","21","","17","","16.1","","98.82","","30","","","","NA"
"2018-09-26 00:00","2018","09","26","00:00","22.5","","21.0","","91","","22","","35","","16.1","","98.79","","31","","","","NA"
"2018-09-26 01:00","2018","09","26","01:00","20.7","","18.3","","86","","24","","21","","16.1","","98.76","","27","","","","NA"
"2018-09-26 02:00","2018","09","26","02:00","19.7","","18.0","","90","","25","","15","","16.1","","98.77","","","","","","NA"
"2018-09-26 03:00","2018","09","26","03:00","19.7","","18.6","","93","","24","","11","","16.1","","98.72","","","","","","NA"
"2018-09-26 04:00","2018","09","26","04:00","19.8","","18.2","","90","","25","","17","","16.1","","98.73","","","","","","NA"
"2018-09-26 05:00","2018","09","26","05:00","19.3","","17.8","","91","","25","","11","","16.1","","98.77","","","","","","NA"
"2018-09-26 06:00","2018","09","26","06:00","19.1","","17.0","","88","","27","","22","","16.1","","98.88","","","","","","NA"
"2018-09-26 07:00","2018","09","26","07:00","18.4","","15.6","","83","","29","","18","","16.1","","98.98","","","","","","NA"
"2018-09-26 08:00","2018","09","26","08:00","18.6","","14.3","","76","","30","","17","","16.1","","99.08","","","","","","NA"
"2018-09-26 09:00","2018","09","26","09:00","17.5","","12.6","","73","","30","","21","","16.1","","99.15","","","","","","NA"
"2018-09-26 10:00","2018","09","26","10:00","18.4","","12.3","","67","","30","","24","","16.1","","99.22","","","","","","NA"
"2018-09-26 11:00","2018","09","26","11:00","19.2","","12.8","","66","","28","","26","","16.1","","99.29","","","","","","NA"
"2018-09-26 12:00","2018","09","26","12:00","18.4","","8.9","","54","","30","","24","","16.1","","99.33","","","","","","NA"
"2018-09-26 13:00","2018","09","26","13:00","18.9","","9.1","","53","","31","","18","","16.1","","99.38","","","","","","NA"
"2018-09-26 14:00","2018","09","26","14:00","19.3","","8.1","","48","","28","","24","","16.1","","99.40","","","","","","NA"
"2018-09-26 15:00","2018","09","26","15:00","19.5","","7.4","","45","","28","","21","","16.1","","99.45","","","","","","NA"
"2018-09-26 16:00","2018","09","26","16:00","18.9","","5.5","","41","","28","","30","","16.1","","99.45","","","","","","NA"
"2018-09-26 17:00","2018","09","26","17:00","18.5","","6.3","","44","","29","","21","","16.1","","99.47","","","","","","NA"
"2018-09-26 18:00","2018","09","26","18:00","17.2","","6.1","","48","","28","","18","","16.1","","99.53","","","","","","NA"
"2018-09-26 19:00","2018","09","26","19:00","15.9","","5.9","","51","","29","","17","","16.1","","99.59","","","","","","NA"
"2018-09-26 20:00","2018","09","26","20:00","14.1","","6.3","","59","","29","","11","","16.1","","99.70","","","","","","NA"
"2018-09-26 21:00","2018","09","26","21:00","14.4","","5.8","","56","","31","","13","","16.1","","99.76","","","","","","NA"
"2018-09-26 22:00","2018","09","26","22:00","11.7","","6.5","","70","","26","","9","","16.1","","99.83","","","","","","NA"
"2018-09-26 23:00","2018","09","26","23:00","8.9","","7.1","","88","","19","","5","","16.1","","99.85","","","","","","NA"
"2018-09-27 00:00","2018","09","27","00:00","10.7","","6.9","","77","","25","","5","","16.1","","99.83","","","","","","NA"
"2018-09-27 01:00","2018","09","27","01:00","8.7","","7.2","","90","","20","","4","","16.1","","99.84","","","","","","NA"
"2018-09-27 02:00","2018","09","27","02:00","8.6","","7.0","","90","","22","","4","","16.1","","99.85","","","","","","NA"
"2018-09-27 03:00","2018","09","27","03:00","7.7","","7.1","","96","","","","0","","16.1","","99.85","","","","","","NA"
"2018-09-27 04:00","2018","09","27","04:00","7.6","","6.7","","94","","25","","4","","16.1","","99.85","","","","","","NA"
"2018-09-27 05:00","2018","09","27","05:00","6.7","","6.4","","98","","","","0","","16.1","","99.85","","","","","","NA"
"2018-09-27 06:00","2018","09","27","06:00","6.5","","6.1","","97","","","","0","","16.1","","99.85","","","","","","NA"
"2018-09-27 07:00","2018","09","27","07:00","6.7","","6.4","","98","","","","0","","12.9","","99.85","","","","","","NA"
"2018-09-27 08:00","2018","09","27","08:00","11.2","","9.8","","91","","","","0","","16.1","","99.88","","","","","","NA"
"2018-09-27 09:00","2018","09","27","09:00","13.7","","8.9","","73","","","M","4","","16.1","","99.87","","","","","","NA"
"2018-09-27 10:00","2018","09","27","10:00","15.2","","9.0","","66","","9","","8","","","M","99.77","","","","","","NA"
"2018-09-27 11:00","2018","09","27","11:00","16.8","","9.2","","61","","11","","5","","16.1","","99.73","","","","","","NA"
"2018-09-27 12:00","2018","09","27","12:00","17.0","","9.1","","59","","","M","5","","16.1","","99.65","","","","","","NA"
"2018-09-27 13:00","2018","09","27","13:00","17.6","","8.7","","56","","18","","9","","16.1","","99.57","","","","","","NA"
"2018-09-27 14:00","2018","09","27","14:00","17.5","","10.3","","62","","16","","11","","16.1","","99.48","","","","","","NA"
"2018-09-27 15:00","2018","09","27","15:00","17.0","","10.5","","65","","19","","13","","16.1","","99.44","","","","","","NA"
"2018-09-27 16:00","2018","09","27","16:00","16.5","","10.6","","68","","24","","11","","16.1","","99.39","","","","","","NA"
"2018-09-27 17:00","2018","09","27","17:00","16.2","","10.7","","70","","24","","5","","16.1","","99.36","","","","","","NA"
"2018-09-27 18:00","2018","09","27","18:00","15.5","","10.5","","72","","25","","4","","16.1","","99.34","","","","","","NA"
"2018-09-27 19:00","2018","09","27","19:00","13.9","","10.9","","82","","","","0","","16.1","","99.32","","","","","","NA"
"2018-09-27 20:00","2018","09","27","20:00","12.2","","10.9","","92","","16","","5","","16.1","","99.31","","","","","","NA"
"2018-09-27 21:00","2018","09","27","21:00","12.2","","10.1","","87","","26","","5","","16.1","","99.37","","","","","","NA"
"2018-09-27 22:00","2018","09","27","22:00","10.2","","9.2","","94","","24","","5","","16.1","","99.38","","","","","","NA"
"2018-09-27 23:00","2018","09","27","23:00","9.1","","8.3","","94","","22","","8","","16.1","","99.34","","","","","","NA"
"2018-09-28 00:00","2018","09","28","00:00","9.9","","8.7","","92","","22","","8","","16.1","","99.34","","","","","","NA"
"2018-09-28 01:00","2018","09","28","01:00","9.6","","9.0","","96","","22","","8","","16.1","","99.34","","","","","","NA"
"2018-09-28 02:00","2018","09","28","02:00","9.1","","8.1","","93","","21","","9","","16.1","","99.40","","","","","","NA"
"2018-09-28 03:00","2018","09","28","03:00","8.7","","7.8","","94","","20","","5","","16.1","","99.37","","","","","","NA"
"2018-09-28 04:00","2018","09","28","04:00","9.5","","8.1","","91","","19","","11","","16.1","","99.37","","","","","","NA"
"2018-09-28 05:00","2018","09","28","05:00","9.6","","8.2","","91","","20","","11","","16.1","","99.39","","","","","","NA"
"2018-09-28 06:00","2018","09","28","06:00","11.3","","8.2","","81","","22","","17","","16.1","","99.44","","","","","","NA"
"2018-09-28 07:00","2018","09","28","07:00","11.9","","8.4","","79","","21","","15","","16.1","","99.44","","","","","","NA"
"2018-09-28 08:00","2018","09","28","08:00","13.6","","8.7","","72","","22","","18","","16.1","","99.46","","","","","","NA"
"2018-09-28 09:00","2018","09","28","09:00","14.8","","9.3","","69","","24","","18","","16.1","","99.49","","","","","","NA"
"2018-09-28 10:00","2018","09","28","10:00","16.2","","10.0","","66","","23","","15","","16.1","","99.50","","","","","","NA"
"2018-09-28 11:00","2018","09","28","11:00","18.0","","11.3","","65","","24","","17","","16.1","","99.52","","","","","","NA"
"2018-09-28 12:00","2018","09","28","12:00","19.5","","11.2","","58","","24","","21","","16.1","","99.52","","","","","","NA"
"2018-09-28 13:00","2018","09","28","13:00","20.0","","11.7","","59","","27","","17","","16.1","","99.52","","","","","","NA"
"2018-09-28 14:00","2018","09","28","14:00","20.8","","11.3","","54","","26","","21","","16.1","","99.47","","","","","","NA"
"2018-09-28 15:00","2018","09","28","15:00","20.2","","11.7","","58","","24","","13","","16.1","","99.46","","","","","","NA"
"2018-09-28 16:00","2018","09","28","16:00","20.0","","11.4","","57","","26","","18","","16.1","","99.47","","","","","","NA"
"2018-09-28 17:00","2018","09","28","17:00","18.6","","11.7","","64","","33","","21","","16.1","","99.56","","","","","","NA"
"2018-09-28 18:00","2018","09","28","18:00","16.2","","10.6","","69","","32","","28","","16.1","","99.72","","","","","","NA"
"2018-09-28 19:00","2018","09","28","19:00","14.3","","10.1","","76","","32","","24","","16.1","","99.80","","","","","","NA"
"2018-09-28 20:00","2018","09","28","20:00","12.5","","8.4","","76","","33","","13","","16.1","","99.87","","","","","","NA"
"2018-09-28 21:00","2018","09","28","21:00","11.6","","8.3","","80","","29","","13","","16.1","","99.95","","","","","","Rain"
"2018-09-28 22:00","2018","09","28","22:00","11.5","","7.0","","74","","30","","11","","16.1","","99.97","","","","","","Rain"
"2018-09-28 23:00","2018","09","28","23:00","11.2","","7.4","","77","","26","","8","","16.1","","100.03","","","","","","NA"
"2018-09-29 00:00","2018","09","29","00:00","11.4","","6.4","","71","","29","","13","","16.1","","100.06","","","","","","NA"
"2018-09-29 01:00","2018","09","29","01:00","10.9","","6.9","","76","","27","","11","","16.1","","100.13","","","","","","NA"
"2018-09-29 02:00","2018","09","29","02:00","9.5","","6.8","","83","","27","","8","","16.1","","100.16","","","","","","NA"
"2018-09-29 03:00","2018","09","29","03:00","7.5","","6.3","","92","","24","","9","","16.1","","100.19","","","","","","NA"
"2018-09-29 04:00","2018","09","29","04:00","6.6","","5.7","","94","","24","","9","","16.1","","100.25","","","","","","NA"
"2018-09-29 05:00","2018","09","29","05:00","7.3","","5.9","","91","","28","","8","","16.1","","100.31","","","","","","NA"
"2018-09-29 06:00","2018","09","29","06:00","7.6","","5.9","","89","","28","","11","","16.1","","100.34","","","","","","NA"
"2018-09-29 07:00","2018","09","29","07:00","6.9","","5.9","","93","","26","","9","","16.1","","100.41","","","","","","NA"
"2018-09-29 08:00","2018","09","29","08:00","9.6","","6.8","","83","","28","","9","","16.1","","100.44","","","","","","NA"
"2018-09-29 09:00","2018","09","29","09:00","11.3","","4.6","","63","","","M","5","","16.1","","100.45","","","","","","NA"
"2018-09-29 10:00","2018","09","29","10:00","12.9","","2.5","","49","","27","","13","","16.1","","100.47","","","","","","NA"
"2018-09-29 11:00","2018","09","29","11:00","13.7","","1.8","","44","","30","","21","","16.1","","100.46","","","","","","NA"
"2018-09-29 12:00","2018","09","29","12:00","14.9","","3.5","","46","","27","","17","","16.1","","100.44","","","","","","NA"
"2018-09-29 13:00","2018","09","29","13:00","15.3","","3.9","","46","","27","","13","","16.1","","100.41","","","","","","NA"
"2018-09-29 14:00","2018","09","29","14:00","16.2","","3.8","","43","","28","","22","","16.1","","100.35","","","","","","NA"
"2018-09-29 15:00","2018","09","29","15:00","16.1","","3.6","","43","","27","","9","","16.1","","100.33","","","","","","NA"
"2018-09-29 16:00","2018","09","29","16:00","16.4","","4.5","","45","","29","","9","","16.1","","100.29","","","","","","NA"
"2018-09-29 17:00","2018","09","29","17:00","16.1","","4.6","","46","","23","","15","","16.1","","100.31","","","","","","NA"
"2018-09-29 18:00","2018","09","29","18:00","14.2","","5.9","","57","","22","","9","","16.1","","100.32","","","","","","NA"
"2018-09-29 19:00","2018","09","29","19:00","13.6","","6.9","","64","","19","","5","","16.1","","100.30","","","","","","NA"
"2018-09-29 20:00","2018","09","29","20:00","12.2","","6.0","","66","","21","","5","","16.1","","100.35","","","","","","NA"
"2018-09-29 21:00","2018","09","29","21:00","13.0","","7.2","","68","","32","","4","","16.1","","100.38","","","","","","NA"
"2018-09-29 22:00","2018","09","29","22:00","10.9","","8.2","","83","","5","","5","","16.1","","100.35","","","","","","NA"
"2018-09-29 23:00","2018","09","29","23:00","13.2","","4.5","","55","","36","","13","","16.1","","100.37","","","","","","NA"
"2018-09-30 00:00","2018","09","30","00:00","12.9","","5.1","","59","","1","","11","","16.1","","100.32","","","","","","NA"
"2018-09-30 01:00","2018","09","30","01:00","11.1","","6.9","","75","","35","","11","","16.1","","100.36","","","","","","Rain"
"2018-09-30 02:00","2018","09","30","02:00","9.6","","7.2","","85","","2","","17","","16.1","","100.37","","","","","","NA"
"2018-09-30 03:00","2018","09","30","03:00","10.1","","8.3","","88","","4","","8","","16.1","","100.38","","","","","","Rain"
"2018-09-30 04:00","2018","09","30","04:00","9.8","","8.0","","89","","2","","22","","16.1","","100.35","","","","","","NA"
"2018-09-30 05:00","2018","09","30","05:00","9.7","","8.3","","91","","6","","17","","16.1","","100.33","","","","","","Rain"
"2018-09-30 06:00","2018","09","30","06:00","9.6","","8.2","","91","","5","","21","","16.1","","100.37","","","","","","Rain"
"2018-09-30 07:00","2018","09","30","07:00","9.8","","8.7","","93","","5","","15","","16.1","","100.39","","","","","","Rain"
"2018-09-30 08:00","2018","09","30","08:00","10.2","","9.2","","94","","7","","13","","16.1","","100.35","","","","","","Rain"
"2018-09-30 09:00","2018","09","30","09:00","10.8","","9.7","","93","","9","","9","","16.1","","100.33","","","","","","Rain"
"2018-09-30 10:00","2018","09","30","10:00","12.0","","10.7","","92","","6","","17","","16.1","","100.24","","","","","","NA"
"2018-09-30 11:00","2018","09","30","11:00","12.5","","10.8","","90","","9","","11","","16.1","","100.18","","","","","","NA"
"2018-09-30 12:00","2018","09","30","12:00","14.0","","12.0","","87","","5","","15","","16.1","","100.13","","","","","","NA"
"2018-09-30 13:00","2018","09","30","13:00","14.2","","12.1","","87","","2","","15","","16.1","","100.09","","","","","","NA"
"2018-09-30 14:00","2018","09","30","14:00","14.9","","12.1","","83","","5","","5","","16.1","","100.02","","","","","","NA"
"2018-09-30 15:00","2018","09","30","15:00","15.5","","12.2","","81","","4","","11","","16.1","","99.99","","","","","","NA"
"2018-09-30 16:00","2018","09","30","16:00","14.8","","12.0","","83","","2","","13","","16.1","","99.97","","","","","","NA"
"2018-09-30 17:00","2018","09","30","17:00","13.8","","11.7","","87","","4","","15","","16.1","","99.95","","","","","","NA"
"2018-09-30 18:00","2018","09","30","18:00","13.1","","11.5","","90","","4","","15","","16.1","","99.94","","","","","","NA"
"2018-09-30 19:00","2018","09","30","19:00","13.3","","11.9","","91","","3","","15","","16.1","","99.97","","","","","","NA"
"2018-09-30 20:00","2018","09","30","20:00","13.2","","11.6","","90","","2","","17","","16.1","","100.03","","","","","","NA"
"2018-09-30 21:00","2018","09","30","21:00","13.2","","11.8","","91","","1","","15","","11.3","","100.05","","","","","","NA"
"2018-09-30 22:00","2018","09","30","22:00","12.7","","11.1","","90","","1","","18","","12.9","","100.06","","","","","","NA"
"2018-09-30 23:00","2018","09","30","23:00","13.2","","11.8","","91","","5","","21","","16.1","","100.00","","","","","","NA"
