"Station Name","WINDSOR A"
"Province","ONTARIO"
"Latitude","42.28"
"Longitude","-82.96"
"Elevation","189.60"
"Climate Identifier","6139525"
"WMO Identifier","71538"
"TC Identifier","YQG"
"All times are specified in Local Standard Time (LST). Add 1 hour to adjust for Daylight Saving Time where and when it is observed."

"Legend"
"E","Estimated"
"M","Missing"
"NA","Not Available"

"Date/Time","Year","Month","Day","Time","Temp (°C)","Temp Flag","Dew Point Temp (°C)","Dew Point Temp Flag","Rel Hum (%)","Rel Hum Flag","Wind Dir (10s deg)","Wind Dir Flag","Wind Spd (km/h)","Wind Spd Flag","Visibility (km)","Visibility Flag","Stn Press (kPa)","Stn Press Flag","Hmdx","Hmdx Flag","Wind Chill","Wind Chill Flag","Weather"
"2009-01-01 00:00","2009","01","01","00:00","-8.8","","-14.0","","66","","29","","7","","24.1","","100.49","","","","-13","","Clear"
"2009-01-01 01:00","2009","01","01","01:00","-9.2","","-13.8","","69","","26","","6","","24.1","","100.50","","","","-13","","Clear"
"2009-01-01 02:00","2009","01","01","02:00","-9.6","","-13.9","","71","","27","","7","","24.1","","100.55","","","","-14","","Clear"
"2009-01-01 03:00","2009","01","01","03:00","-10.6","","-13.9","","77","","","","0","","24.1","","100.50","","","","","","Clear"
"2009-01-01 04:00","2009","01","01","04:00","-10.6","","-13.6","","79","","19","","6","","24.1","","100.50","","","","-14","","Mainly Clear"
"2009-01-01 05:00","2009","01","01","05:00","-11.2","","-13.5","","83","","","","0","","24.1","","100.43","","","","","","Mostly Cloudy"
"2009-01-01 06:00","2009","01","01","06:00","-10.9","","-13.4","","82","","20","","4","","24.1","","100.43","","","","-13","","Mostly Cloudy"
"2009-01-01 07:00","2009","01","01","07:00","-10.7","","-13.1","","82","","","","0","","24.1","","100.36","","","","","","Mostly Cloudy"
"2009-01-01 08:00","2009","01","01","08:00","-8.9","","-11.7","","80","","14","","9","","24.1","","100.35","","","","-14","","Cloudy"
"2009-01-01 09:00","2009","01","01","09:00","-7.6","","-11.4","","74","","18","","11","","24.1","","100.37","","","","-13","","Mostly Cloudy"
"2009-01-01 10:00","2009","01","01","10:00","-5.7","","-11.1","","66","","19","","28","","24.1","","100.33","","","","-14","","Mostly Cloudy"
"2009-01-01 11:00","2009","01","01","11:00","-5.7","","-11.5","","64","","19","","35","","24.1","","100.27","","","","-14","","Mostly Cloudy"
"2009-01-01 12:00","2009","01","01","12:00","-5.4","","-11.1","","64","","18","","28","","24.1","","100.12","","","","-13","","Mostly Cloudy"
"2009-01-01 13:00","2009","01","01","13:00","-5.0","","-10.0","","68","","18","","22","","24.1","","99.95","","","","-12","","Cloudy"
"2009-01-01 14:00","2009","01","01","14:00","-4.6","","-10.0","","66","","18","","24","","24.1","","99.84","","","","-12","","Mostly Cloudy"
"2009-01-01 15:00","2009","01","01","15:00","-4.0","","-9.3","","67","","18","","24","","24.1","","99.74","","","","-11","","Mostly Cloudy"
"2009-01-01 16:00","2009","01","01","16:00","-3.8","","-9.0","","67","","17","","20","","24.1","","99.61","","","","-10","","Cloudy"
"2009-01-01 17:00","2009","01","01","17:00","-3.8","","-9.2","","66","","15","","17","","24.1","","99.43","","","","-10","","Cloudy"
"2009-01-01 18:00","2009","01","01","18:00","-3.6","","-9.2","","65","","15","","22","","24.1","","99.26","","","","-10","","Cloudy"
"2009-01-01 19:00","2009","01","01","19:00","-3.4","","-8.6","","67","","16","","22","","24.1","","99.13","","","","-10","","Cloudy"
"2009-01-01 20:00","2009","01","01","20:00","-2.9","","-8.4","","66","","16","","19","","24.1","","99.00","","","","-9","","Cloudy"
"2009-01-01 21:00","2009","01","01","21:00","-2.5","","-8.1","","65","","17","","22","","24.1","","98.82","","","","-9","","Cloudy"
"2009-01-01 22:00","2009","01","01","22:00","-2.2","","-7.9","","65","","18","","17","","24.1","","98.74","","","","-8","","Cloudy"
"2009-01-01 23:00","2009","01","01","23:00","-1.8","","-7.9","","63","","19","","20","","24.1","","98.64","","","","-8","","Mostly Cloudy"
"2009-01-02 00:00","2009","01","02","00:00","-1.3","","-7.8","","61","","21","","22","","24.1","","98.56","","","","-7","","Cloudy"
"2009-01-02 01:00","2009","01","02","01:00","-0.8","","-7.7","","59","","21","","26","","24.1","","98.43","","","","-7","","Cloudy"
"2009-01-02 02:00","2009","01","02","02:00","-0.4","","-7.3","","60","","23","","19","","24.1","","98.42","","","","-6","","Cloudy"
"2009-01-02 03:00","2009","01","02","03:00","-0.2","","-7.6","","57","","24","","22","","24.1","","98.44","","","","-6","","Cloudy"
"2009-01-02 04:00","2009","01","02","04:00","-0.5","","-7.3","","60","","24","","17","","24.1","","98.40","","","","-5","","Cloudy"
"2009-01-02 05:00","2009","01","02","05:00","-0.8","","-7.0","","63","","23","","19","","24.1","","98.40","","","","-6","","Cloudy"
"2009-01-02 06:00","2009","01","02","06:00","-1.0","","-6.7","","65","","23","","15","","24.1","","98.45","","","","-6","","Cloudy"
"2009-01-02 07:00","2009","01","02","07:00","-1.2","","-6.5","","67","","24","","17","","24.1","","98.48","","","","-6","","Mostly Cloudy"
"2009-01-02 08:00","2009","01","02","08:00","-2.4","","-6.8","","72","","22","","19","","24.1","","98.45","","","","-8","","Mainly Clear"
"2009-01-02 09:00","2009","01","02","09:00","-2.1","","-6.4","","72","","23","","20","","24.1","","98.47","","","","-8","","Mainly Clear"
"2009-01-02 10:00","2009","01","02","10:00","-0.9","","-5.7","","70","","22","","28","","24.1","","98.40","","","","-7","","Mainly Clear"
"2009-01-02 11:00","2009","01","02","11:00","0.0","","-5.7","","65","","24","","33","","24.1","","98.44","","","","-7","","Mostly Cloudy"
"2009-01-02 12:00","2009","01","02","12:00","0.1","","-6.5","","61","","26","","33","","24.1","","98.40","","","","","","Cloudy"
"2009-01-02 13:00","2009","01","02","13:00","0.6","","-7.0","","57","","27","","43","","24.1","","98.39","","","","","","Mostly Cloudy"
"2009-01-02 14:00","2009","01","02","14:00","0.9","","-7.1","","55","","27","","41","","24.1","","98.38","","","","","","Mostly Cloudy"
"2009-01-02 15:00","2009","01","02","15:00","1.3","","-8.2","","49","","28","","39","","24.1","","98.45","","","","","","Mainly Clear"
"2009-01-02 16:00","2009","01","02","16:00","-0.4","","-9.0","","52","","29","","32","","24.1","","98.58","","","","-7","","Mainly Clear"
"2009-01-02 17:00","2009","01","02","17:00","-2.1","","-10.0","","55","","30","","28","","24.1","","98.78","","","","-9","","Mainly Clear"
"2009-01-02 18:00","2009","01","02","18:00","-3.5","","-11.2","","55","","30","","24","","24.1","","98.92","","","","-10","","Mainly Clear"
"2009-01-02 19:00","2009","01","02","19:00","-4.4","","-11.0","","60","","31","","19","","24.1","","99.10","","","","-11","","Clear"
"2009-01-02 20:00","2009","01","02","20:00","-5.0","","-11.6","","60","","31","","26","","24.1","","99.23","","","","-12","","Clear"
"2009-01-02 21:00","2009","01","02","21:00","-5.7","","-11.4","","64","","31","","22","","24.1","","99.33","","","","-13","","Clear"
"2009-01-02 22:00","2009","01","02","22:00","-6.1","","-11.4","","66","","30","","15","","24.1","","99.35","","","","-12","","Clear"
"2009-01-02 23:00","2009","01","02","23:00","-6.5","","-11.3","","69","","30","","13","","24.1","","99.38","","","","-12","","Clear"
"2009-01-03 00:00","2009","01","03","00:00","-6.9","","-11.5","","70","","27","","15","","24.1","","99.46","","","","-13","","Mainly Clear"
"2009-01-03 01:00","2009","01","03","01:00","-6.5","","-11.4","","68","","29","","11","","24.1","","99.49","","","","-11","","Mostly Cloudy"
"2009-01-03 02:00","2009","01","03","02:00","-6.7","","-11.4","","69","","30","","15","","24.1","","99.56","","","","-13","","Mostly Cloudy"
"2009-01-03 03:00","2009","01","03","03:00","-6.6","","-11.1","","70","","32","","7","","24.1","","99.62","","","","-10","","Cloudy"
"2009-01-03 04:00","2009","01","03","04:00","-6.9","","-11.2","","71","","","","0","","24.1","","99.70","","","","","","Mostly Cloudy"
"2009-01-03 05:00","2009","01","03","05:00","-6.7","","-10.8","","73","","","","0","","24.1","","99.74","","","","","","Cloudy"
"2009-01-03 06:00","2009","01","03","06:00","-6.8","","-10.9","","73","","","","0","","24.1","","99.75","","","","","","Mostly Cloudy"
"2009-01-03 07:00","2009","01","03","07:00","-6.4","","-10.6","","72","","","","0","","24.1","","99.82","","","","","","Mostly Cloudy"
"2009-01-03 08:00","2009","01","03","08:00","-6.1","","-10.3","","72","","","","0","","24.1","","99.89","","","","","","Mostly Cloudy"
"2009-01-03 09:00","2009","01","03","09:00","-5.7","","-10.0","","72","","3","","9","","24.1","","99.94","","","","-10","","Mostly Cloudy"
"2009-01-03 10:00","2009","01","03","10:00","-4.7","","-9.5","","69","","4","","11","","24.1","","99.96","","","","-9","","Mostly Cloudy"
"2009-01-03 11:00","2009","01","03","11:00","-3.7","","-8.8","","68","","7","","6","","24.1","","99.98","","","","-6","","Mainly Clear"
"2009-01-03 12:00","2009","01","03","12:00","-2.3","","-8.8","","61","","7","","7","","24.1","","99.94","","","","-5","","Mainly Clear"
"2009-01-03 13:00","2009","01","03","13:00","-1.5","","-8.3","","60","","8","","4","","24.1","","99.90","","","","-3","","Mostly Cloudy"
"2009-01-03 14:00","2009","01","03","14:00","-1.3","","-9.7","","53","","8","","7","","24.1","","99.85","","","","-4","","Mainly Clear"
"2009-01-03 15:00","2009","01","03","15:00","-1.0","","-8.9","","55","","8","","9","","24.1","","99.86","","","","-4","","Mainly Clear"
"2009-01-03 16:00","2009","01","03","16:00","-1.2","","-8.1","","59","","7","","9","","24.1","","99.91","","","","-4","","Mainly Clear"
"2009-01-03 17:00","2009","01","03","17:00","-2.3","","-8.6","","62","","6","","11","","24.1","","99.92","","","","-6","","Mainly Clear"
"2009-01-03 18:00","2009","01","03","18:00","-3.1","","-8.5","","66","","8","","11","","24.1","","99.95","","","","-7","","Mainly Clear"
"2009-01-03 19:00","2009","01","03","19:00","-3.1","","-6.7","","76","","7","","17","","24.1","","99.86","","","","-9","","Mostly Cloudy"
"2009-01-03 20:00","2009","01","03","20:00","-3.2","","-6.8","","76","","9","","9","","24.1","","99.89","","","","-7","","Mainly Clear"
"2009-01-03 21:00","2009","01","03","21:00","-3.8","","-6.8","","80","","8","","17","","24.1","","99.83","","","","-10","","Mainly Clear"
"2009-01-03 22:00","2009","01","03","22:00","-3.6","","-6.8","","78","","9","","11","","24.1","","99.89","","","","-8","","Clear"
"2009-01-03 23:00","2009","01","03","23:00","-4.0","","-6.7","","81","","8","","9","","24.1","","99.89","","","","-8","","Clear"
"2009-01-04 00:00","2009","01","04","00:00","-4.5","","-6.7","","85","","7","","11","","24.1","","99.85","","","","-9","","Clear"
"2009-01-04 01:00","2009","01","04","01:00","-4.0","","-6.2","","85","","7","","17","","24.1","","99.71","","","","-10","","Clear"
"2009-01-04 02:00","2009","01","04","02:00","-3.4","","-5.8","","83","","9","","13","","24.1","","99.68","","","","-8","","Mostly Cloudy"
"2009-01-04 03:00","2009","01","04","03:00","-2.9","","-5.4","","83","","9","","17","","19.3","","99.59","","","","-8","","Mostly Cloudy"
"2009-01-04 04:00","2009","01","04","04:00","-2.0","","-4.5","","83","","11","","15","","19.3","","99.51","","","","-7","","Mostly Cloudy"
"2009-01-04 05:00","2009","01","04","05:00","-1.2","","-4.9","","76","","11","","20","","19.3","","99.38","","","","-7","","Mostly Cloudy"
"2009-01-04 06:00","2009","01","04","06:00","-0.8","","-4.8","","74","","12","","20","","19.3","","99.36","","","","-6","","Mostly Cloudy"
"2009-01-04 07:00","2009","01","04","07:00","-0.7","","-4.8","","74","","11","","22","","19.3","","99.31","","","","-6","","Mostly Cloudy"
"2009-01-04 08:00","2009","01","04","08:00","-0.5","","-3.8","","78","","11","","20","","19.3","","99.27","","","","-6","","Freezing Rain"
"2009-01-04 09:00","2009","01","04","09:00","-0.5","","-3.0","","83","","11","","17","","19.3","","99.22","","","","-5","","Cloudy"
"2009-01-04 10:00","2009","01","04","10:00","0.0","","-3.0","","80","","13","","17","","19.3","","99.19","","","","-5","","Cloudy"
"2009-01-04 11:00","2009","01","04","11:00","0.4","","-3.3","","76","","13","","11","","24.1","","99.14","","","","","","Cloudy"
"2009-01-04 12:00","2009","01","04","12:00","0.9","","-2.8","","76","","","","0","","19.3","","99.09","","","","","","Cloudy"
"2009-01-04 13:00","2009","01","04","13:00","1.4","","-2.5","","75","","","","0","","16.1","","98.99","","","","","","Cloudy"
"2009-01-04 14:00","2009","01","04","14:00","1.5","","-1.5","","80","","18","","7","","12.9","","98.96","","","","","","Cloudy"
"2009-01-04 15:00","2009","01","04","15:00","1.2","","-0.7","","87","","25","","13","","8.0","","99.03","","","","","","Fog"
"2009-01-04 16:00","2009","01","04","16:00","1.6","","-0.1","","88","","26","","11","","6.4","","99.10","","","","","","Fog"
"2009-01-04 17:00","2009","01","04","17:00","2.0","","0.3","","88","","27","","15","","4.8","","99.17","","","","","","Fog"
"2009-01-04 18:00","2009","01","04","18:00","2.3","","0.5","","88","","28","","17","","6.4","","99.23","","","","","","Fog"
"2009-01-04 19:00","2009","01","04","19:00","2.5","","0.8","","89","","27","","13","","6.4","","99.33","","","","","","Fog"
"2009-01-04 20:00","2009","01","04","20:00","2.5","","1.0","","90","","28","","19","","6.4","","99.40","","","","","","Drizzle,Fog"
"2009-01-04 21:00","2009","01","04","21:00","2.3","","-0.4","","82","","29","","22","","12.9","","99.49","","","","","","Cloudy"
"2009-01-04 22:00","2009","01","04","22:00","1.6","","-1.9","","78","","29","","24","","12.9","","99.51","","","","","","Cloudy"
"2009-01-04 23:00","2009","01","04","23:00","1.0","","-3.2","","73","","30","","19","","16.1","","99.55","","","","","","Cloudy"
"2009-01-05 00:00","2009","01","05","00:00","0.0","","-5.0","","69","","28","","24","","19.3","","99.59","","","","-6","","Mostly Cloudy"
"2009-01-05 01:00","2009","01","05","01:00","-1.3","","-6.6","","67","","28","","24","","24.1","","99.62","","","","-7","","Mostly Cloudy"
"2009-01-05 02:00","2009","01","05","02:00","-2.2","","-6.9","","70","","29","","20","","24.1","","99.67","","","","-8","","Mostly Cloudy"
"2009-01-05 03:00","2009","01","05","03:00","-3.2","","-9.1","","64","","29","","22","","24.1","","99.78","","","","-10","","Mainly Clear"
"2009-01-05 04:00","2009","01","05","04:00","-3.9","","-10.9","","58","","29","","22","","24.1","","99.79","","","","-10","","Mostly Cloudy"
"2009-01-05 05:00","2009","01","05","05:00","-4.0","","-11.6","","55","","29","","20","","24.1","","99.81","","","","-10","","Mostly Cloudy"
"2009-01-05 06:00","2009","01","05","06:00","-4.5","","-12.9","","52","","28","","22","","24.1","","99.85","","","","-11","","Mostly Cloudy"
"2009-01-05 07:00","2009","01","05","07:00","-4.9","","-13.0","","53","","28","","22","","24.1","","99.90","","","","-12","","Mostly Cloudy"
"2009-01-05 08:00","2009","01","05","08:00","-5.4","","-11.9","","60","","28","","19","","24.1","","99.97","","","","-12","","Mostly Cloudy"
"2009-01-05 09:00","2009","01","05","09:00","-5.2","","-11.4","","62","","27","","17","","24.1","","99.97","","","","-11","","Mostly Cloudy"
"2009-01-05 10:00","2009","01","05","10:00","-4.7","","-11.5","","59","","28","","22","","24.1","","99.95","","","","-12","","Mostly Cloudy"
"2009-01-05 11:00","2009","01","05","11:00","-4.2","","-11.7","","56","","26","","20","","24.1","","99.92","","","","-11","","Mostly Cloudy"
"2009-01-05 12:00","2009","01","05","12:00","-3.6","","-12.1","","52","","26","","19","","24.1","","99.83","","","","-10","","Mostly Cloudy"
"2009-01-05 13:00","2009","01","05","13:00","-2.9","","-11.9","","50","","26","","19","","24.1","","99.71","","","","-9","","Mostly Cloudy"
"2009-01-05 14:00","2009","01","05","14:00","-2.1","","-11.6","","48","","25","","17","","24.1","","99.67","","","","-7","","Mostly Cloudy"
"2009-01-05 15:00","2009","01","05","15:00","-1.5","","-11.3","","47","","26","","20","","24.1","","99.62","","","","-7","","Mainly Clear"
"2009-01-05 16:00","2009","01","05","16:00","-1.3","","-11.9","","44","","24","","17","","24.1","","99.62","","","","-6","","Mainly Clear"
"2009-01-05 17:00","2009","01","05","17:00","-1.8","","-11.0","","49","","25","","7","","24.1","","99.61","","","","-4","","Mainly Clear"
"2009-01-05 18:00","2009","01","05","18:00","-3.2","","-9.9","","60","","21","","11","","24.1","","99.60","","","","-7","","Mainly Clear"
"2009-01-05 19:00","2009","01","05","19:00","-3.9","","-9.9","","63","","21","","11","","24.1","","99.56","","","","-8","","Clear"
"2009-01-05 20:00","2009","01","05","20:00","-4.4","","-9.8","","66","","21","","9","","24.1","","99.54","","","","-8","","Clear"
"2009-01-05 21:00","2009","01","05","21:00","-4.9","","-9.8","","68","","20","","9","","24.1","","99.50","","","","-9","","Clear"
"2009-01-05 22:00","2009","01","05","22:00","-5.4","","-9.8","","71","","23","","9","","24.1","","99.45","","","","-9","","Clear"
"2009-01-05 23:00","2009","01","05","23:00","-5.4","","-9.6","","72","","22","","6","","24.1","","99.43","","","","-8","","Clear"
"2009-01-06 00:00","2009","01","06","00:00","-6.9","","-10.2","","77","","","","0","","24.1","","99.40","","","","","","Clear"
"2009-01-06 01:00","2009","01","06","01:00","-6.4","","-10.2","","74","","","","0","","24.1","","99.32","","","","","","Clear"
"2009-01-06 02:00","2009","01","06","02:00","-8.7","","-11.5","","80","","","","0","","24.1","","99.26","","","","","","Clear"
"2009-01-06 03:00","2009","01","06","03:00","-9.2","","-11.2","","85","","","","0","","24.1","","99.24","","","","","","Clear"
"2009-01-06 04:00","2009","01","06","04:00","-9.6","","-11.6","","85","","","","0","","24.1","","99.19","","","","","","Clear"
"2009-01-06 05:00","2009","01","06","05:00","-9.8","","-11.8","","85","","15","","4","","24.1","","99.13","","","","-12","","Clear"
"2009-01-06 06:00","2009","01","06","06:00","-9.7","","-11.8","","85","","","","0","","24.1","","99.12","","","","","","Mainly Clear"
"2009-01-06 07:00","2009","01","06","07:00","-9.7","","-11.8","","85","","5","","7","","24.1","","99.09","","","","-14","","Mainly Clear"
"2009-01-06 08:00","2009","01","06","08:00","-8.4","","-10.2","","87","","10","","4","","16.1","","99.07","","","","-11","","Mainly Clear"
"2009-01-06 09:00","2009","01","06","09:00","-6.5","","-8.7","","84","","7","","9","","24.1","","99.01","","","","-11","","Mostly Cloudy"
"2009-01-06 10:00","2009","01","06","10:00","-4.5","","-8.8","","72","","7","","13","","24.1","","99.00","","","","-10","","Mostly Cloudy"
"2009-01-06 11:00","2009","01","06","11:00","-3.2","","-7.1","","74","","8","","15","","24.1","","98.93","","","","-8","","Mostly Cloudy"
"2009-01-06 12:00","2009","01","06","12:00","-2.4","","-5.4","","80","","8","","11","","24.1","","98.82","","","","-6","","Cloudy"
"2009-01-06 13:00","2009","01","06","13:00","-2.1","","-4.7","","82","","12","","17","","2.4","","98.61","","","","-7","","Snow"
"2009-01-06 14:00","2009","01","06","14:00","-3.1","","-4.6","","89","","10","","13","","2.4","","98.45","","","","-8","","Snow"
"2009-01-06 15:00","2009","01","06","15:00","-2.5","","-4.4","","87","","10","","19","","9.7","","98.38","","","","-8","","Snow"
"2009-01-06 16:00","2009","01","06","16:00","-2.1","","-4.6","","83","","8","","15","","19.3","","98.26","","","","-7","","Snow"
"2009-01-06 17:00","2009","01","06","17:00","-2.2","","-4.7","","83","","7","","15","","24.1","","98.21","","","","-7","","Cloudy"
"2009-01-06 18:00","2009","01","06","18:00","-2.1","","-4.3","","85","","7","","13","","16.1","","98.11","","","","-7","","Snow"
"2009-01-06 19:00","2009","01","06","19:00","-1.8","","-3.6","","87","","7","","22","","19.3","","97.95","","","","-8","","Snow"
"2009-01-06 20:00","2009","01","06","20:00","-1.9","","-3.6","","88","","8","","24","","9.7","","97.92","","","","-8","","Freezing Rain"
"2009-01-06 21:00","2009","01","06","21:00","-1.7","","-3.0","","91","","8","","15","","2.4","","97.86","","","","-7","","Freezing Drizzle,Fog"
"2009-01-06 22:00","2009","01","06","22:00","-1.5","","-2.7","","92","","7","","13","","1.6","","97.74","","","","-6","","Freezing Drizzle,Fog"
"2009-01-06 23:00","2009","01","06","23:00","-1.2","","-2.2","","93","","6","","9","","2.4","","97.61","","","","-4","","Freezing Drizzle,Fog"
"2009-01-07 00:00","2009","01","07","00:00","-1.2","","-2.0","","94","","8","","13","","2.4","","97.50","","","","-5","","Freezing Drizzle,Fog"
"2009-01-07 01:00","2009","01","07","01:00","-1.2","","-1.9","","95","","9","","9","","2.0","","97.40","","","","-4","","Freezing Drizzle,Fog"
"2009-01-07 02:00","2009","01","07","02:00","-1.1","","-1.8","","95","","7","","7","","2.0","","97.23","","","","-4","","Freezing Drizzle,Fog"
"2009-01-07 03:00","2009","01","07","03:00","-1.1","","-1.7","","96","","8","","6","","1.6","","97.15","","","","-3","","Freezing Drizzle,Fog"
"2009-01-07 04:00","2009","01","07","04:00","-1.0","","-1.6","","96","","","","0","","0.4","","96.98","","","","","","Snow Grains,Freezing Fog"
"2009-01-07 05:00","2009","01","07","05:00","-1.0","","-1.6","","96","","","","0","","1.2","","96.81","","","","","","Snow,Fog"
"2009-01-07 06:00","2009","01","07","06:00","-1.1","","-1.8","","95","","","","0","","3.2","","96.73","","","","","","Snow,Fog"
"2009-01-07 07:00","2009","01","07","07:00","-1.0","","-1.9","","94","","23","","11","","4.8","","96.76","","","","-5","","Snow,Fog"
"2009-01-07 08:00","2009","01","07","08:00","-1.0","","-1.8","","94","","25","","15","","1.6","","96.65","","","","-6","","Snow,Fog"
"2009-01-07 09:00","2009","01","07","09:00","-1.1","","-2.1","","93","","25","","17","","9.7","","96.62","","","","-6","","Snow"
"2009-01-07 10:00","2009","01","07","10:00","-1.0","","-2.4","","90","","26","","20","","12.9","","96.60","","","","-7","","Cloudy"
"2009-01-07 11:00","2009","01","07","11:00","-0.8","","-2.7","","87","","25","","20","","16.1","","96.56","","","","-6","","Cloudy"
"2009-01-07 12:00","2009","01","07","12:00","-0.6","","-2.7","","86","","26","","20","","16.1","","96.47","","","","-6","","Cloudy"
"2009-01-07 13:00","2009","01","07","13:00","-0.6","","-3.3","","82","","25","","20","","16.1","","96.44","","","","-6","","Cloudy"
"2009-01-07 14:00","2009","01","07","14:00","-0.9","","-4.0","","79","","26","","24","","9.7","","96.43","","","","-7","","Snow"
"2009-01-07 15:00","2009","01","07","15:00","-1.0","","-3.8","","81","","26","","24","","8.0","","96.46","","","","-7","","Snow"
"2009-01-07 16:00","2009","01","07","16:00","-1.4","","-4.1","","82","","26","","24","","4.8","","96.55","","","","-8","","Snow"
"2009-01-07 17:00","2009","01","07","17:00","-1.3","","-3.2","","87","","26","","24","","3.2","","96.62","","","","-7","","Snow"
"2009-01-07 18:00","2009","01","07","18:00","-1.3","","-2.7","","90","","25","","28","","3.2","","96.69","","","","-8","","Snow"
"2009-01-07 19:00","2009","01","07","19:00","-1.0","","-3.3","","84","","27","","28","","4.8","","96.76","","","","-8","","Snow"
"2009-01-07 20:00","2009","01","07","20:00","-1.3","","-3.3","","86","","27","","26","","4.0","","96.83","","","","-8","","Snow"
"2009-01-07 21:00","2009","01","07","21:00","-1.1","","-2.8","","88","","25","","33","","4.8","","96.87","","","","-8","","Snow"
"2009-01-07 22:00","2009","01","07","22:00","-1.3","","-4.4","","79","","26","","28","","8.0","","96.92","","","","-8","","Snow"
"2009-01-07 23:00","2009","01","07","23:00","-1.5","","-5.2","","76","","25","","33","","8.0","","96.96","","","","-9","","Snow"
"2009-01-08 00:00","2009","01","08","00:00","-2.6","","-6.1","","77","","25","","37","","8.0","","97.03","","","","-11","","Snow"
"2009-01-08 01:00","2009","01","08","01:00","-3.5","","-6.4","","80","","25","","30","","8.0","","97.08","","","","-11","","Snow"
"2009-01-08 02:00","2009","01","08","02:00","-3.9","","-7.3","","77","","25","","35","","9.7","","97.15","","","","-12","","Snow"
"2009-01-08 03:00","2009","01","08","03:00","-4.2","","-7.4","","78","","25","","28","","9.7","","97.26","","","","-12","","Snow"
"2009-01-08 04:00","2009","01","08","04:00","-4.6","","-7.3","","81","","25","","30","","4.8","","97.32","","","","-12","","Snow"
"2009-01-08 05:00","2009","01","08","05:00","-4.9","","-7.0","","85","","26","","28","","2.4","","97.40","","","","-13","","Snow"
"2009-01-08 06:00","2009","01","08","06:00","-4.6","","-6.8","","85","","26","","24","","2.0","","97.50","","","","-12","","Snow"
"2009-01-08 07:00","2009","01","08","07:00","-4.7","","-6.7","","86","","26","","20","","2.4","","97.61","","","","-11","","Snow"
"2009-01-08 08:00","2009","01","08","08:00","-3.7","","-6.8","","79","","30","","22","","9.7","","97.77","","","","-10","","Snow"
"2009-01-08 09:00","2009","01","08","09:00","-3.5","","-8.4","","69","","31","","28","","24.1","","97.91","","","","-11","","Cloudy"
"2009-01-08 10:00","2009","01","08","10:00","-3.8","","-9.1","","67","","31","","32","","24.1","","98.04","","","","-12","","Mostly Cloudy"
"2009-01-08 11:00","2009","01","08","11:00","-3.3","","-9.2","","64","","30","","24","","24.1","","98.14","","","","-10","","Mostly Cloudy"
"2009-01-08 12:00","2009","01","08","12:00","-2.5","","-9.1","","60","","28","","26","","24.1","","98.16","","","","-9","","Mainly Clear"
"2009-01-08 13:00","2009","01","08","13:00","-1.8","","-9.0","","58","","29","","20","","24.1","","98.19","","","","-8","","Mainly Clear"
"2009-01-08 14:00","2009","01","08","14:00","-1.4","","-9.4","","54","","29","","22","","24.1","","98.27","","","","-7","","Mainly Clear"
"2009-01-08 15:00","2009","01","08","15:00","-0.8","","-8.4","","56","","30","","28","","24.1","","98.35","","","","-7","","Mainly Clear"
"2009-01-08 16:00","2009","01","08","16:00","-1.4","","-8.8","","57","","29","","24","","24.1","","98.48","","","","-8","","Mainly Clear"
"2009-01-08 17:00","2009","01","08","17:00","-1.7","","-8.4","","60","","28","","17","","24.1","","98.58","","","","-7","","Mainly Clear"
"2009-01-08 18:00","2009","01","08","18:00","-1.9","","-7.8","","64","","25","","13","","24.1","","98.65","","","","-6","","Mostly Cloudy"
"2009-01-08 19:00","2009","01","08","19:00","-2.2","","-5.7","","77","","26","","20","","6.4","","98.73","","","","-8","","Snow Showers"
"2009-01-08 20:00","2009","01","08","20:00","-2.5","","-5.3","","81","","25","","20","","6.4","","98.80","","","","-8","","Snow Showers"
"2009-01-08 21:00","2009","01","08","21:00","-2.3","","-5.3","","80","","25","","22","","11.3","","98.87","","","","-8","","Snow"
"2009-01-08 22:00","2009","01","08","22:00","-2.4","","-5.6","","79","","26","","17","","8.0","","98.94","","","","-8","","Snow"
"2009-01-08 23:00","2009","01","08","23:00","-3.2","","-6.7","","77","","26","","28","","9.7","","98.99","","","","-10","","Snow"
"2009-01-09 00:00","2009","01","09","00:00","-3.9","","-7.7","","75","","26","","20","","9.7","","99.04","","","","-10","","Snow"
"2009-01-09 01:00","2009","01","09","01:00","-5.0","","-8.7","","75","","25","","26","","9.7","","99.09","","","","-12","","Snow"
"2009-01-09 02:00","2009","01","09","02:00","-6.7","","-9.7","","79","","25","","22","","11.3","","99.20","","","","-14","","Mainly Clear"
"2009-01-09 03:00","2009","01","09","03:00","-6.9","","-10.1","","78","","27","","24","","11.3","","99.28","","","","-15","","Mainly Clear"
"2009-01-09 04:00","2009","01","09","04:00","-7.1","","-10.2","","78","","25","","19","","11.3","","99.35","","","","-14","","Snow Showers"
"2009-01-09 05:00","2009","01","09","05:00","-7.2","","-10.0","","80","","26","","13","","11.3","","99.38","","","","-13","","Snow Showers"
"2009-01-09 06:00","2009","01","09","06:00","-6.7","","-9.6","","80","","24","","15","","11.3","","99.44","","","","-13","","Snow Showers"
"2009-01-09 07:00","2009","01","09","07:00","-7.1","","-9.9","","80","","24","","11","","12.9","","99.52","","","","-12","","Mostly Cloudy"
"2009-01-09 08:00","2009","01","09","08:00","-7.8","","-10.5","","81","","24","","15","","11.3","","99.62","","","","-14","","Cloudy"
"2009-01-09 09:00","2009","01","09","09:00","-7.4","","-10.5","","78","","24","","13","","9.7","","99.66","","","","-13","","Haze"
"2009-01-09 10:00","2009","01","09","10:00","-6.3","","-10.1","","74","","25","","13","","9.7","","99.74","","","","-12","","Haze"
"2009-01-09 11:00","2009","01","09","11:00","-5.0","","-9.5","","71","","24","","9","","9.7","","99.79","","","","-9","","Haze"
"2009-01-09 12:00","2009","01","09","12:00","-3.6","","-9.3","","65","","27","","7","","11.3","","99.73","","","","-7","","Cloudy"
"2009-01-09 13:00","2009","01","09","13:00","-4.2","","-9.2","","68","","22","","15","","8.0","","99.73","","","","-10","","Snow,Haze"
"2009-01-09 14:00","2009","01","09","14:00","-4.3","","-6.8","","83","","23","","7","","1.6","","99.71","","","","-7","","Snow,Haze"
"2009-01-09 15:00","2009","01","09","15:00","-4.7","","-6.9","","85","","20","","11","","2.4","","99.77","","","","-9","","Snow,Haze"
"2009-01-09 16:00","2009","01","09","16:00","-4.7","","-7.0","","84","","20","","11","","2.0","","99.83","","","","-9","","Snow"
"2009-01-09 17:00","2009","01","09","17:00","-5.0","","-7.1","","85","","18","","6","","1.6","","99.80","","","","-8","","Snow"
"2009-01-09 18:00","2009","01","09","18:00","-5.0","","-7.1","","85","","","","0","","4.8","","99.85","","","","","","Snow"
"2009-01-09 19:00","2009","01","09","19:00","-5.1","","-6.8","","88","","","","0","","4.8","","99.86","","","","","","Snow"
"2009-01-09 20:00","2009","01","09","20:00","-5.0","","-6.7","","88","","","","0","","16.1","","99.91","","","","","","Cloudy"
"2009-01-09 21:00","2009","01","09","21:00","-4.9","","-6.6","","88","","","","0","","12.9","","99.91","","","","","","Snow"
"2009-01-09 22:00","2009","01","09","22:00","-4.9","","-6.6","","88","","8","","7","","12.9","","99.92","","","","-8","","Cloudy"
"2009-01-09 23:00","2009","01","09","23:00","-4.7","","-6.7","","86","","8","","9","","16.1","","99.93","","","","-9","","Cloudy"
"2009-01-10 00:00","2009","01","10","00:00","-4.7","","-6.8","","85","","6","","13","","16.1","","99.92","","","","-10","","Cloudy"
"2009-01-10 01:00","2009","01","10","01:00","-4.8","","-6.8","","86","","6","","15","","12.9","","99.89","","","","-10","","Snow"
"2009-01-10 02:00","2009","01","10","02:00","-4.9","","-7.0","","85","","6","","15","","4.8","","99.87","","","","-10","","Snow"
"2009-01-10 03:00","2009","01","10","03:00","-5.4","","-7.1","","88","","7","","20","","1.6","","99.85","","","","-12","","Snow"
"2009-01-10 04:00","2009","01","10","04:00","-5.5","","-7.1","","88","","7","","19","","1.6","","99.83","","","","-12","","Snow"
"2009-01-10 05:00","2009","01","10","05:00","-5.3","","-7.0","","88","","7","","20","","2.0","","99.79","","","","-12","","Snow"
"2009-01-10 06:00","2009","01","10","06:00","-5.5","","-7.1","","88","","6","","22","","3.2","","99.73","","","","-13","","Snow"
"2009-01-10 07:00","2009","01","10","07:00","-5.4","","-7.1","","88","","7","","24","","4.8","","99.69","","","","-13","","Snow"
"2009-01-10 08:00","2009","01","10","08:00","-5.2","","-7.1","","86","","6","","26","","4.8","","99.64","","","","-13","","Snow"
"2009-01-10 09:00","2009","01","10","09:00","-5.1","","-6.9","","87","","6","","19","","2.4","","99.60","","","","-12","","Snow"
"2009-01-10 10:00","2009","01","10","10:00","-5.0","","-6.8","","87","","6","","28","","0.8","","99.55","","","","-13","","Moderate Snow"
"2009-01-10 11:00","2009","01","10","11:00","-4.4","","-6.2","","87","","5","","26","","1.6","","99.50","","","","-12","","Snow"
"2009-01-10 12:00","2009","01","10","12:00","-4.2","","-6.1","","87","","5","","26","","1.6","","99.36","","","","-11","","Snow"
"2009-01-10 13:00","2009","01","10","13:00","-4.5","","-6.2","","88","","5","","28","","0.8","","99.20","","","","-12","","Moderate Snow"
"2009-01-10 14:00","2009","01","10","14:00","-4.7","","-6.4","","88","","4","","30","","0.8","","99.20","","","","-13","","Moderate Snow"
"2009-01-10 15:00","2009","01","10","15:00","-4.5","","-6.2","","88","","3","","30","","0.4","","99.36","","","","-12","","Heavy Snow"
"2009-01-10 16:00","2009","01","10","16:00","-4.7","","-6.2","","89","","3","","32","","0.4","","99.14","","","","-13","","Heavy Snow"
"2009-01-10 17:00","2009","01","10","17:00","-5.1","","-6.8","","88","","4","","32","","1.6","","99.15","","","","-13","","Snow"
"2009-01-10 18:00","2009","01","10","18:00","-5.3","","-7.1","","87","","3","","26","","1.6","","99.16","","","","-13","","Snow"
"2009-01-10 19:00","2009","01","10","19:00","-5.4","","-7.1","","88","","1","","17","","2.4","","99.20","","","","-11","","Snow"
"2009-01-10 20:00","2009","01","10","20:00","-5.5","","-7.6","","85","","36","","20","","11.3","","99.20","","","","-12","","Snow"
"2009-01-10 21:00","2009","01","10","21:00","-5.4","","-7.7","","84","","36","","17","","9.7","","99.22","","","","-11","","Snow"
"2009-01-10 22:00","2009","01","10","22:00","-5.5","","-7.3","","87","","26","","17","","1.6","","99.25","","","","-12","","Snow"
"2009-01-10 23:00","2009","01","10","23:00","-5.4","","-7.6","","84","","35","","19","","8.0","","99.31","","","","-12","","Snow"
"2009-01-11 00:00","2009","01","11","00:00","-6.1","","-8.6","","82","","34","","11","","19.3","","99.37","","","","-11","","Snow"
"2009-01-11 01:00","2009","01","11","01:00","-6.7","","-9.2","","82","","32","","13","","24.1","","99.43","","","","-12","","Mainly Clear"
"2009-01-11 02:00","2009","01","11","02:00","-6.4","","-9.0","","82","","35","","11","","24.1","","99.47","","","","-11","","Mostly Cloudy"
"2009-01-11 03:00","2009","01","11","03:00","-7.1","","-9.7","","82","","33","","11","","24.1","","99.58","","","","-12","","Mainly Clear"
"2009-01-11 04:00","2009","01","11","04:00","-8.3","","-10.6","","83","","33","","9","","24.1","","99.59","","","","-13","","Mainly Clear"
"2009-01-11 05:00","2009","01","11","05:00","-9.6","","-11.2","","88","","31","","9","","24.1","","99.62","","","","-14","","Mainly Clear"
"2009-01-11 06:00","2009","01","11","06:00","-9.7","","-11.3","","88","","30","","6","","24.1","","99.66","","","","-13","","Mainly Clear"
"2009-01-11 07:00","2009","01","11","07:00","-10.6","","-12.4","","87","","27","","13","","24.1","","99.71","","","","-17","","Mostly Cloudy"
"2009-01-11 08:00","2009","01","11","08:00","-10.0","","-11.5","","89","","","","0","","9.7","","99.66","","","","","","Fog"
"2009-01-11 09:00","2009","01","11","09:00","-10.1","","-11.8","","87","","27","","9","","9.7","","99.78","","","","-15","","Fog"
"2009-01-11 10:00","2009","01","11","10:00","-8.3","","-9.7","","90","","25","","7","","8.0","","99.79","","","","-12","","Fog"
"2009-01-11 11:00","2009","01","11","11:00","-5.8","","-7.2","","90","","","","0","","9.7","","99.77","","","","","","Haze"
"2009-01-11 12:00","2009","01","11","12:00","-6.3","","-8.6","","84","","20","","7","","11.3","","99.71","","","","-10","","Cloudy"
"2009-01-11 13:00","2009","01","11","13:00","-6.1","","-8.8","","81","","18","","9","","12.9","","99.62","","","","-10","","Cloudy"
"2009-01-11 14:00","2009","01","11","14:00","-6.8","","-8.9","","85","","20","","11","","12.9","","99.56","","","","-12","","Cloudy"
"2009-01-11 15:00","2009","01","11","15:00","-6.2","","-8.2","","86","","19","","9","","16.1","","99.49","","","","-10","","Cloudy"
"2009-01-11 16:00","2009","01","11","16:00","-6.4","","-8.5","","85","","20","","13","","11.3","","99.49","","","","-12","","Cloudy"
"2009-01-11 17:00","2009","01","11","17:00","-6.4","","-8.5","","85","","18","","11","","11.3","","99.49","","","","-11","","Cloudy"
"2009-01-11 18:00","2009","01","11","18:00","-7.0","","-9.0","","86","","20","","13","","9.7","","99.50","","","","-13","","Snow"
"2009-01-11 19:00","2009","01","11","19:00","-7.0","","-8.8","","87","","22","","9","","4.8","","99.53","","","","-11","","Snow"
"2009-01-11 20:00","2009","01","11","20:00","-6.8","","-8.5","","88","","23","","7","","6.4","","99.55","","","","-10","","Snow"
"2009-01-11 21:00","2009","01","11","21:00","-6.7","","-8.3","","88","","24","","9","","3.2","","99.55","","","","-11","","Snow"
"2009-01-11 22:00","2009","01","11","22:00","-6.5","","-8.1","","88","","25","","11","","4.8","","99.55","","","","-11","","Snow"
"2009-01-11 23:00","2009","01","11","23:00","-6.2","","-8.0","","87","","25","","13","","6.4","","99.53","","","","-12","","Snow"
"2009-01-12 00:00","2009","01","12","00:00","-6.3","","-8.0","","88","","25","","13","","6.4","","99.52","","","","-12","","Snow"
"2009-01-12 01:00","2009","01","12","01:00","-6.8","","-8.6","","87","","25","","13","","6.4","","99.50","","","","-12","","Snow"
"2009-01-12 02:00","2009","01","12","02:00","-8.1","","-9.6","","89","","25","","11","","6.4","","99.51","","","","-13","","Haze"
"2009-01-12 03:00","2009","01","12","03:00","-8.6","","-10.2","","88","","24","","9","","6.4","","99.58","","","","-13","","Haze"
"2009-01-12 04:00","2009","01","12","04:00","-9.2","","-10.7","","89","","25","","9","","6.4","","99.65","","","","-14","","Haze"
"2009-01-12 05:00","2009","01","12","05:00","-9.7","","-11.3","","88","","25","","6","","6.4","","99.71","","","","-13","","Haze"
"2009-01-12 06:00","2009","01","12","06:00","-9.7","","-11.7","","85","","24","","9","","6.4","","99.77","","","","-15","","Haze"
"2009-01-12 07:00","2009","01","12","07:00","-10.6","","-12.3","","87","","","","0","","6.4","","99.81","","","","","","Haze"
"2009-01-12 08:00","2009","01","12","08:00","-10.3","","-12.1","","87","","21","","11","","6.4","","99.92","","","","-16","","Fog"
"2009-01-12 09:00","2009","01","12","09:00","-8.6","","-10.2","","88","","22","","11","","3.6","","99.97","","","","-14","","Fog"
"2009-01-12 10:00","2009","01","12","10:00","-8.3","","-9.7","","90","","22","","11","","1.6","","100.02","","","","-14","","Snow Grains,Fog"
"2009-01-12 11:00","2009","01","12","11:00","-7.2","","-8.6","","90","","19","","4","","8.0","","100.05","","","","-9","","Snow Grains,Fog"
"2009-01-12 12:00","2009","01","12","12:00","-6.4","","-7.8","","90","","20","","6","","8.0","","100.02","","","","-9","","Snow,Fog"
"2009-01-12 13:00","2009","01","12","13:00","-5.9","","-8.1","","84","","16","","11","","12.9","","99.85","","","","-11","","Mostly Cloudy"
"2009-01-12 14:00","2009","01","12","14:00","-4.8","","-8.0","","78","","22","","15","","16.1","","99.90","","","","-10","","Cloudy"
"2009-01-12 15:00","2009","01","12","15:00","-4.5","","-7.6","","79","","20","","22","","8.0","","99.83","","","","-11","","Snow Showers"
"2009-01-12 16:00","2009","01","12","16:00","-5.0","","-8.8","","75","","19","","15","","16.1","","99.77","","","","-11","","Snow Showers"
"2009-01-12 17:00","2009","01","12","17:00","-5.0","","-8.5","","76","","21","","15","","12.9","","99.81","","","","-11","","Snow Showers"
"2009-01-12 18:00","2009","01","12","18:00","-5.5","","-8.1","","82","","19","","9","","19.3","","99.77","","","","-10","","Cloudy"
"2009-01-12 19:00","2009","01","12","19:00","-5.5","","-8.6","","79","","18","","15","","24.1","","99.71","","","","-11","","Cloudy"
"2009-01-12 20:00","2009","01","12","20:00","-5.0","","-8.1","","79","","18","","11","","24.1","","99.64","","","","-10","","Cloudy"
"2009-01-12 21:00","2009","01","12","21:00","-4.5","","-7.5","","80","","18","","11","","24.1","","99.54","","","","-9","","Cloudy"
"2009-01-12 22:00","2009","01","12","22:00","-3.7","","-6.6","","80","","18","","15","","24.1","","99.42","","","","-9","","Cloudy"
"2009-01-12 23:00","2009","01","12","23:00","-3.3","","-5.8","","83","","18","","17","","24.1","","99.29","","","","-9","","Cloudy"
"2009-01-13 00:00","2009","01","13","00:00","-2.7","","-5.1","","84","","19","","17","","11.3","","99.20","","","","-8","","Cloudy"
"2009-01-13 01:00","2009","01","13","01:00","-2.4","","-4.5","","85","","19","","19","","1.6","","99.06","","","","-8","","Snow"
"2009-01-13 02:00","2009","01","13","02:00","-1.6","","-2.8","","92","","19","","26","","1.6","","98.90","","","","-8","","Snow"
"2009-01-13 03:00","2009","01","13","03:00","-0.9","","-1.9","","93","","20","","28","","0.8","","98.73","","","","-7","","Moderate Snow"
"2009-01-13 04:00","2009","01","13","04:00","-0.2","","-1.0","","94","","20","","28","","4.0","","98.62","","","","-7","","Snow"
"2009-01-13 05:00","2009","01","13","05:00","-0.2","","-1.0","","94","","20","","26","","2.4","","98.51","","","","-6","","Snow"
"2009-01-13 06:00","2009","01","13","06:00","0.0","","-0.7","","95","","22","","28","","4.0","","98.46","","","","-6","","Haze"
"2009-01-13 07:00","2009","01","13","07:00","0.5","","-0.2","","95","","23","","19","","3.2","","98.43","","","","","","Drizzle,Fog"
"2009-01-13 08:00","2009","01","13","08:00","0.8","","0.0","","94","","23","","19","","9.7","","98.43","","","","","","Fog"
"2009-01-13 09:00","2009","01","13","09:00","0.4","","-0.7","","92","","25","","19","","3.6","","98.43","","","","","","Snow"
"2009-01-13 10:00","2009","01","13","10:00","-1.4","","-2.5","","92","","29","","32","","1.6","","98.50","","","","-9","","Snow"
"2009-01-13 11:00","2009","01","13","11:00","-1.9","","-5.5","","76","","30","","32","","16.1","","98.59","","","","-9","","Snow"
"2009-01-13 12:00","2009","01","13","12:00","-3.8","","-8.0","","73","","31","","33","","11.3","","98.72","","","","-12","","Snow"
"2009-01-13 13:00","2009","01","13","13:00","-5.5","","-9.8","","72","","32","","35","","24.1","","98.84","","","","-14","","Snow Showers"
"2009-01-13 14:00","2009","01","13","14:00","-6.1","","-11.2","","67","","31","","28","","24.1","","98.94","","","","-14","","Snow Showers"
"2009-01-13 15:00","2009","01","13","15:00","-6.1","","-13.4","","56","","32","","30","","24.1","","99.05","","","","-14","","Mainly Clear"
"2009-01-13 16:00","2009","01","13","16:00","-6.9","","-15.0","","52","","29","","35","","24.1","","99.21","","","","-16","","Mostly Cloudy"
"2009-01-13 17:00","2009","01","13","17:00","-7.4","","-15.3","","53","","32","","20","","24.1","","99.34","","","","-15","","Mostly Cloudy"
"2009-01-13 18:00","2009","01","13","18:00","-8.6","","-17.1","","50","","30","","28","","24.1","","99.47","","","","-17","","Mainly Clear"
"2009-01-13 19:00","2009","01","13","19:00","-9.6","","-16.9","","55","","32","","20","","24.1","","99.60","","","","-17","","Mainly Clear"
"2009-01-13 20:00","2009","01","13","20:00","-10.4","","-18.1","","53","","32","","20","","24.1","","99.68","","","","-18","","Clear"
"2009-01-13 21:00","2009","01","13","21:00","-11.0","","-18.6","","53","","33","","17","","24.1","","99.76","","","","-18","","Clear"
"2009-01-13 22:00","2009","01","13","22:00","-12.0","","-19.0","","56","","34","","7","","24.1","","99.83","","","","-16","","Clear"
"2009-01-13 23:00","2009","01","13","23:00","-12.9","","-19.6","","57","","33","","11","","24.1","","99.85","","","","-19","","Clear"
"2009-01-14 00:00","2009","01","14","00:00","-13.8","","-18.6","","67","","","","0","","24.1","","99.86","","","","","","Clear"
"2009-01-14 01:00","2009","01","14","01:00","-14.9","","-19.6","","67","","3","","6","","24.1","","99.81","","","","-19","","Clear"
"2009-01-14 02:00","2009","01","14","02:00","-16.9","","-19.6","","80","","","","0","","24.1","","99.83","","","","","","Clear"
"2009-01-14 03:00","2009","01","14","03:00","-17.7","","-19.3","","87","","","","0","","24.1","","99.88","","","","","","Clear"
"2009-01-14 04:00","2009","01","14","04:00","-18.9","","-20.5","","87","","19","","7","","24.1","","99.88","","","","-24","","Mainly Clear"
"2009-01-14 05:00","2009","01","14","05:00","-18.5","","-20.3","","86","","","","0","","24.1","","99.82","","","","","","Mostly Cloudy"
"2009-01-14 06:00","2009","01","14","06:00","-17.6","","-19.2","","87","","","","0","","24.1","","99.80","","","","","","Mostly Cloudy"
"2009-01-14 07:00","2009","01","14","07:00","-17.3","","-19.7","","82","","","","0","","24.1","","99.78","","","","","","Mostly Cloudy"
"2009-01-14 08:00","2009","01","14","08:00","-16.6","","-19.5","","78","","","","0","","24.1","","99.76","","","","","","Cloudy"
"2009-01-14 09:00","2009","01","14","09:00","-15.2","","-18.5","","76","","","","0","","4.0","","99.76","","","","","","Snow"
"2009-01-14 10:00","2009","01","14","10:00","-14.1","","-17.1","","78","","","","0","","1.2","","99.77","","","","","","Snow"
"2009-01-14 11:00","2009","01","14","11:00","-13.3","","-15.8","","81","","11","","4","","3.2","","99.71","","","","-16","","Snow"
"2009-01-14 12:00","2009","01","14","12:00","-12.7","","-15.0","","83","","9","","7","","1.2","","99.60","","","","-17","","Snow"
"2009-01-14 13:00","2009","01","14","13:00","-12.2","","-14.7","","82","","8","","11","","1.6","","99.49","","","","-18","","Snow"
"2009-01-14 14:00","2009","01","14","14:00","-11.7","","-14.1","","82","","9","","9","","3.2","","99.43","","","","-17","","Snow"
"2009-01-14 15:00","2009","01","14","15:00","-11.8","","-14.3","","82","","7","","11","","2.4","","99.42","","","","-18","","Snow"
"2009-01-14 16:00","2009","01","14","16:00","-11.7","","-14.2","","82","","5","","11","","3.6","","99.47","","","","-18","","Snow"
"2009-01-14 17:00","2009","01","14","17:00","-11.7","","-14.2","","82","","5","","13","","4.0","","99.51","","","","-18","","Snow"
"2009-01-14 18:00","2009","01","14","18:00","-12.0","","-14.3","","83","","5","","7","","8.0","","99.61","","","","-16","","Snow"
"2009-01-14 19:00","2009","01","14","19:00","-11.7","","-13.8","","84","","4","","11","","6.4","","99.70","","","","-18","","Snow"
"2009-01-14 20:00","2009","01","14","20:00","-12.2","","-14.9","","80","","36","","13","","11.3","","99.78","","","","-19","","Snow"
"2009-01-14 21:00","2009","01","14","21:00","-12.5","","-15.5","","78","","36","","13","","16.1","","99.80","","","","-19","","Snow"
"2009-01-14 22:00","2009","01","14","22:00","-12.9","","-16.4","","75","","33","","9","","19.3","","99.88","","","","-18","","Snow"
"2009-01-14 23:00","2009","01","14","23:00","-13.5","","-17.3","","73","","34","","9","","24.1","","99.94","","","","-19","","Mostly Cloudy"
"2009-01-15 00:00","2009","01","15","00:00","-14.4","","-17.3","","79","","32","","9","","24.1","","100.01","","","","-20","","Cloudy"
"2009-01-15 01:00","2009","01","15","01:00","-14.6","","-17.6","","78","","30","","13","","24.1","","100.05","","","","-22","","Mainly Clear"
"2009-01-15 02:00","2009","01","15","02:00","-15.0","","-17.7","","80","","28","","13","","24.1","","100.11","","","","-22","","Mainly Clear"
"2009-01-15 03:00","2009","01","15","03:00","-14.8","","-17.7","","79","","29","","17","","24.1","","100.19","","","","-23","","Mainly Clear"
"2009-01-15 04:00","2009","01","15","04:00","-15.6","","-18.3","","80","","31","","17","","24.1","","100.25","","","","-24","","Clear"
"2009-01-15 05:00","2009","01","15","05:00","-16.1","","-18.4","","82","","29","","11","","24.1","","100.29","","","","-23","","Clear"
"2009-01-15 06:00","2009","01","15","06:00","-16.2","","-19.0","","79","","29","","7","","24.1","","100.38","","","","-21","","Clear"
"2009-01-15 07:00","2009","01","15","07:00","-16.9","","-19.4","","81","","28","","9","","24.1","","100.44","","","","-23","","Clear"
"2009-01-15 08:00","2009","01","15","08:00","-17.4","","-19.7","","82","","28","","15","","24.1","","100.51","","","","-26","","Mainly Clear"
"2009-01-15 09:00","2009","01","15","09:00","-16.9","","-19.2","","82","","28","","11","","24.1","","100.57","","","","-24","","Clear"
"2009-01-15 10:00","2009","01","15","10:00","-14.8","","-19.2","","69","","28","","9","","24.1","","100.62","","","","-21","","Clear"
"2009-01-15 11:00","2009","01","15","11:00","-13.4","","-17.9","","69","","29","","11","","24.1","","100.65","","","","-20","","Clear"
"2009-01-15 12:00","2009","01","15","12:00","-12.0","","-17.9","","61","","28","","19","","24.1","","100.63","","","","-20","","Mainly Clear"
"2009-01-15 13:00","2009","01","15","13:00","-11.1","","-17.9","","57","","27","","26","","24.1","","100.59","","","","-20","","Mainly Clear"
"2009-01-15 14:00","2009","01","15","14:00","-11.7","","-20.6","","48","","27","","28","","24.1","","100.59","","","","-21","","Mostly Cloudy"
"2009-01-15 15:00","2009","01","15","15:00","-11.7","","-19.7","","51","","29","","20","","24.1","","100.59","","","","-20","","Snow Showers"
"2009-01-15 16:00","2009","01","15","16:00","-12.4","","-17.8","","64","","29","","24","","16.1","","100.63","","","","-22","","Snow Showers"
"2009-01-15 17:00","2009","01","15","17:00","-12.2","","-19.6","","54","","28","","19","","19.3","","100.66","","","","-20","","Mostly Cloudy"
"2009-01-15 18:00","2009","01","15","18:00","-12.9","","-17.0","","71","","23","","15","","4.8","","100.70","","","","-20","","Snow Showers"
"2009-01-15 19:00","2009","01","15","19:00","-13.3","","-16.6","","76","","25","","17","","6.4","","100.73","","","","-21","","Snow Showers"
"2009-01-15 20:00","2009","01","15","20:00","-13.6","","-16.7","","77","","27","","22","","24.1","","100.78","","","","-23","","Snow Showers"
"2009-01-15 21:00","2009","01","15","21:00","-14.1","","-19.3","","65","","27","","22","","24.1","","100.81","","","","-23","","Mainly Clear"
"2009-01-15 22:00","2009","01","15","22:00","-14.5","","-20.3","","61","","28","","24","","24.1","","100.85","","","","-24","","Mainly Clear"
"2009-01-15 23:00","2009","01","15","23:00","-16.9","","-21.0","","70","","23","","24","","24.1","","100.88","","","","-27","","Mainly Clear"
"2009-01-16 00:00","2009","01","16","00:00","-18.3","","-22.4","","70","","24","","24","","24.1","","100.92","","","","-29","","Clear"
"2009-01-16 01:00","2009","01","16","01:00","-19.3","","-24.9","","61","","25","","24","","24.1","","100.92","","","","-31","","Clear"
"2009-01-16 02:00","2009","01","16","02:00","-20.4","","-25.5","","64","","24","","19","","24.1","","100.94","","","","-31","","Clear"
"2009-01-16 03:00","2009","01","16","03:00","-21.7","","-26.7","","64","","25","","19","","16.1","","101.00","","","","-32","","Clear"
"2009-01-16 04:00","2009","01","16","04:00","-22.7","","-27.3","","66","","24","","17","","16.1","","101.01","","","","-33","","Clear"
"2009-01-16 05:00","2009","01","16","05:00","-23.2","","-27.6","","67","","24","","15","","16.1","","101.06","","","","-33","","Clear"
"2009-01-16 06:00","2009","01","16","06:00","-23.5","","-27.9","","67","","24","","19","","12.9","","101.12","","","","-35","","Clear"
"2009-01-16 07:00","2009","01","16","07:00","-23.8","","-28.4","","66","","23","","15","","12.9","","101.18","","","","-34","","Clear"
"2009-01-16 08:00","2009","01","16","08:00","-24.3","","-28.7","","67","","24","","17","","11.3","","101.21","","","","-35","","Mainly Clear"
"2009-01-16 09:00","2009","01","16","09:00","-23.9","","-28.3","","67","","23","","17","","11.3","","101.24","","","","-35","","Mainly Clear"
"2009-01-16 10:00","2009","01","16","10:00","-22.5","","-26.8","","68","","23","","17","","12.9","","101.30","","","","-33","","Mainly Clear"
"2009-01-16 11:00","2009","01","16","11:00","-20.9","","-25.3","","68","","23","","15","","11.3","","101.33","","","","-30","","Clear"
"2009-01-16 12:00","2009","01","16","12:00","-19.0","","-24.2","","63","","23","","26","","19.3","","101.30","","","","-31","","Mainly Clear"
"2009-01-16 13:00","2009","01","16","13:00","-17.4","","-23.1","","61","","22","","22","","19.3","","101.21","","","","-28","","Mostly Cloudy"
"2009-01-16 14:00","2009","01","16","14:00","-16.8","","-22.5","","61","","22","","22","","24.1","","101.15","","","","-27","","Mainly Clear"
"2009-01-16 15:00","2009","01","16","15:00","-16.8","","-22.6","","61","","22","","19","","24.1","","101.16","","","","-26","","Mainly Clear"
"2009-01-16 16:00","2009","01","16","16:00","-16.3","","-22.6","","58","","23","","20","","24.1","","101.16","","","","-26","","Mainly Clear"
"2009-01-16 17:00","2009","01","16","17:00","-16.9","","-22.8","","60","","21","","19","","24.1","","101.14","","","","-26","","Mainly Clear"
"2009-01-16 18:00","2009","01","16","18:00","-17.7","","-23.1","","63","","22","","17","","24.1","","101.13","","","","-27","","Clear"
"2009-01-16 19:00","2009","01","16","19:00","-17.8","","-23.1","","63","","23","","22","","24.1","","101.08","","","","-28","","Clear"
"2009-01-16 20:00","2009","01","16","20:00","-18.0","","-24.1","","59","","23","","17","","24.1","","101.07","","","","-27","","Clear"
"2009-01-16 21:00","2009","01","16","21:00","-18.4","","-24.8","","57","","23","","17","","24.1","","101.02","","","","-28","","Clear"
"2009-01-16 22:00","2009","01","16","22:00","-19.3","","-26.3","","54","","23","","19","","24.1","","101.05","","","","-29","","Clear"
"2009-01-16 23:00","2009","01","16","23:00","-19.8","","-27.4","","51","","23","","19","","24.1","","101.01","","","","-30","","Clear"
"2009-01-17 00:00","2009","01","17","00:00","-20.4","","-27.5","","53","","24","","17","","24.1","","100.98","","","","-30","","Clear"
"2009-01-17 01:00","2009","01","17","01:00","-20.8","","-27.6","","54","","23","","17","","24.1","","100.96","","","","-31","","Clear"
"2009-01-17 02:00","2009","01","17","02:00","-20.8","","-27.4","","55","","23","","17","","24.1","","100.87","","","","-31","","Clear"
"2009-01-17 03:00","2009","01","17","03:00","-21.2","","-27.1","","59","","21","","11","","24.1","","100.78","","","","-29","","Clear"
"2009-01-17 04:00","2009","01","17","04:00","-20.9","","-26.1","","63","","20","","7","","24.1","","100.67","","","","-27","","Clear"
"2009-01-17 05:00","2009","01","17","05:00","-20.3","","-25.8","","61","","18","","13","","24.1","","100.57","","","","-29","","Mainly Clear"
"2009-01-17 06:00","2009","01","17","06:00","-17.8","","-24.6","","55","","20","","20","","24.1","","100.48","","","","-28","","Cloudy"
"2009-01-17 07:00","2009","01","17","07:00","-17.2","","-23.6","","57","","19","","17","","24.1","","100.35","","","","-26","","Cloudy"
"2009-01-17 08:00","2009","01","17","08:00","-15.2","","-22.5","","54","","19","","20","","24.1","","100.22","","","","-24","","Mostly Cloudy"
"2009-01-17 09:00","2009","01","17","09:00","-14.0","","-21.8","","52","","18","","28","","24.1","","100.00","","","","-24","","Cloudy"
"2009-01-17 10:00","2009","01","17","10:00","-13.3","","-20.8","","53","","18","","28","","4.8","","99.91","","","","-24","","Snow"
"2009-01-17 11:00","2009","01","17","11:00","-13.2","","-16.7","","75","","18","","30","","0.6","","99.73","","","","-24","","Moderate Snow"
"2009-01-17 12:00","2009","01","17","12:00","-12.6","","-15.2","","81","","18","","32","","0.6","","99.50","","","","-23","","Moderate Snow"
"2009-01-17 13:00","2009","01","17","13:00","-11.7","","-15.0","","76","","18","","30","","1.2","","99.28","","","","-22","","Snow"
"2009-01-17 14:00","2009","01","17","14:00","-11.0","","-13.3","","83","","18","","30","","1.0","","99.10","","","","-21","","Snow"
"2009-01-17 15:00","2009","01","17","15:00","-10.3","","-12.3","","85","","17","","28","","1.2","","98.89","","","","-20","","Snow"
"2009-01-17 16:00","2009","01","17","16:00","-9.7","","-11.9","","84","","17","","28","","0.8","","98.76","","","","-19","","Moderate Snow"
"2009-01-17 17:00","2009","01","17","17:00","-9.6","","-11.6","","85","","16","","24","","1.2","","98.69","","","","-18","","Snow"
"2009-01-17 18:00","2009","01","17","18:00","-7.9","","-12.4","","70","","17","","22","","16.1","","98.64","","","","-16","","Snow"
"2009-01-17 19:00","2009","01","17","19:00","-7.6","","-11.1","","76","","18","","17","","4.0","","98.59","","","","-14","","Snow"
"2009-01-17 20:00","2009","01","17","20:00","-7.6","","-9.5","","86","","16","","15","","1.6","","98.51","","","","-14","","Snow"
"2009-01-17 21:00","2009","01","17","21:00","-6.6","","-8.2","","88","","17","","19","","1.6","","98.37","","","","-13","","Snow"
"2009-01-17 22:00","2009","01","17","22:00","-6.1","","-7.5","","90","","19","","24","","2.4","","98.27","","","","-14","","Snow"
"2009-01-17 23:00","2009","01","17","23:00","-5.0","","-6.2","","91","","19","","20","","1.6","","98.20","","","","-12","","Snow"
"2009-01-18 00:00","2009","01","18","00:00","-4.0","","-5.3","","91","","21","","26","","4.0","","98.14","","","","-11","","Freezing Rain,Snow"
"2009-01-18 01:00","2009","01","18","01:00","-4.0","","-6.3","","84","","23","","20","","11.3","","98.14","","","","-10","","Snow"
"2009-01-18 02:00","2009","01","18","02:00","-4.2","","-7.4","","78","","24","","22","","8.0","","98.16","","","","-11","","Snow"
"2009-01-18 03:00","2009","01","18","03:00","-4.5","","-7.4","","80","","24","","19","","9.7","","98.19","","","","-11","","Snow"
"2009-01-18 04:00","2009","01","18","04:00","-5.1","","-6.9","","87","","23","","19","","3.2","","98.19","","","","-12","","Snow"
"2009-01-18 05:00","2009","01","18","05:00","-5.2","","-6.9","","88","","24","","17","","4.0","","98.18","","","","-11","","Snow"
"2009-01-18 06:00","2009","01","18","06:00","-5.2","","-6.7","","89","","29","","7","","2.4","","98.20","","","","-8","","Snow"
"2009-01-18 07:00","2009","01","18","07:00","-6.1","","-10.1","","73","","28","","24","","12.9","","98.22","","","","-14","","Snow"
"2009-01-18 08:00","2009","01","18","08:00","-7.5","","-10.4","","80","","28","","22","","4.8","","98.29","","","","-15","","Snow"
"2009-01-18 09:00","2009","01","18","09:00","-7.7","","-10.2","","82","","26","","13","","16.1","","98.33","","","","-13","","Snow"
"2009-01-18 10:00","2009","01","18","10:00","-7.4","","-11.2","","74","","25","","22","","16.1","","98.35","","","","-15","","Snow"
"2009-01-18 11:00","2009","01","18","11:00","-6.8","","-11.5","","69","","25","","24","","19.3","","98.36","","","","-14","","Mostly Cloudy"
"2009-01-18 12:00","2009","01","18","12:00","-6.8","","-11.8","","68","","25","","26","","11.3","","98.27","","","","-15","","Mostly Cloudy"
"2009-01-18 13:00","2009","01","18","13:00","-6.9","","-10.4","","76","","26","","24","","8.0","","98.20","","","","-15","","Snow Showers"
"2009-01-18 14:00","2009","01","18","14:00","-7.0","","-10.3","","77","","26","","22","","4.8","","98.18","","","","-14","","Snow Showers"
"2009-01-18 15:00","2009","01","18","15:00","-5.9","","-11.5","","65","","25","","26","","19.3","","98.19","","","","-14","","Snow Showers"
"2009-01-18 16:00","2009","01","18","16:00","-6.1","","-11.7","","65","","25","","22","","19.3","","98.24","","","","-13","","Snow Showers"
"2009-01-18 17:00","2009","01","18","17:00","-6.8","","-11.3","","70","","23","","20","","19.3","","98.28","","","","-14","","Snow Showers"
"2009-01-18 18:00","2009","01","18","18:00","-7.6","","-12.2","","70","","23","","17","","19.3","","98.35","","","","-14","","Snow Showers"
"2009-01-18 19:00","2009","01","18","19:00","-7.9","","-12.3","","71","","22","","20","","19.3","","98.37","","","","-15","","Snow Showers"
"2009-01-18 20:00","2009","01","18","20:00","-8.4","","-12.3","","73","","23","","15","","9.7","","98.42","","","","-15","","Snow Showers,Haze"
"2009-01-18 21:00","2009","01","18","21:00","-9.6","","-13.4","","74","","23","","17","","9.7","","98.40","","","","-17","","Snow Showers,Haze"
"2009-01-18 22:00","2009","01","18","22:00","-10.3","","-13.7","","76","","24","","15","","9.7","","98.41","","","","-17","","Snow Showers,Haze"
"2009-01-18 23:00","2009","01","18","23:00","-10.3","","-13.2","","79","","24","","15","","9.7","","98.42","","","","-17","","Snow Showers,Haze"
"2009-01-19 00:00","2009","01","19","00:00","-11.0","","-13.5","","82","","25","","15","","8.0","","98.35","","","","-18","","Snow Showers"
"2009-01-19 01:00","2009","01","19","01:00","-11.7","","-13.9","","84","","26","","9","","12.9","","98.33","","","","-17","","Mainly Clear"
"2009-01-19 02:00","2009","01","19","02:00","-12.3","","-14.1","","86","","25","","13","","11.3","","98.29","","","","-19","","Mostly Cloudy"
"2009-01-19 03:00","2009","01","19","03:00","-12.9","","-14.5","","88","","25","","13","","12.9","","98.29","","","","-20","","Mostly Cloudy"
"2009-01-19 04:00","2009","01","19","04:00","-13.0","","-14.6","","88","","27","","9","","12.9","","98.30","","","","-18","","Mostly Cloudy"
"2009-01-19 05:00","2009","01","19","05:00","-12.0","","-13.5","","89","","26","","13","","12.9","","98.30","","","","-19","","Mostly Cloudy"
"2009-01-19 06:00","2009","01","19","06:00","-10.2","","-11.8","","88","","28","","13","","19.3","","98.27","","","","-16","","Mostly Cloudy"
"2009-01-19 07:00","2009","01","19","07:00","-10.7","","-12.8","","84","","30","","15","","24.1","","98.31","","","","-18","","Mostly Cloudy"
"2009-01-19 08:00","2009","01","19","08:00","-11.5","","-13.5","","85","","27","","9","","19.3","","98.32","","","","-17","","Mostly Cloudy"
"2009-01-19 09:00","2009","01","19","09:00","-11.1","","-13.3","","84","","28","","11","","24.1","","98.34","","","","-17","","Mostly Cloudy"
"2009-01-19 10:00","2009","01","19","10:00","-9.9","","-12.6","","81","","31","","17","","24.1","","98.32","","","","-17","","Snow Showers"
"2009-01-19 11:00","2009","01","19","11:00","-7.8","","-11.4","","75","","31","","19","","24.1","","98.32","","","","-15","","Mainly Clear"
"2009-01-19 12:00","2009","01","19","12:00","-6.6","","-10.9","","71","","30","","13","","24.1","","98.33","","","","-12","","Mostly Cloudy"
"2009-01-19 13:00","2009","01","19","13:00","-6.1","","-10.6","","70","","30","","15","","24.1","","98.30","","","","-12","","Snow Showers"
"2009-01-19 14:00","2009","01","19","14:00","-5.7","","-10.4","","69","","30","","15","","24.1","","98.28","","","","-11","","Mostly Cloudy"
"2009-01-19 15:00","2009","01","19","15:00","-5.6","","-10.8","","67","","33","","19","","24.1","","98.31","","","","-12","","Cloudy"
"2009-01-19 16:00","2009","01","19","16:00","-6.3","","-11.7","","65","","33","","13","","24.1","","98.37","","","","-12","","Mostly Cloudy"
"2009-01-19 17:00","2009","01","19","17:00","-6.8","","-12.2","","65","","32","","11","","24.1","","98.44","","","","-12","","Mostly Cloudy"
"2009-01-19 18:00","2009","01","19","18:00","-7.5","","-12.6","","67","","33","","17","","16.1","","98.52","","","","-14","","Mostly Cloudy"
"2009-01-19 19:00","2009","01","19","19:00","-8.8","","-13.0","","72","","32","","15","","24.1","","98.56","","","","-15","","Mainly Clear"
"2009-01-19 20:00","2009","01","19","20:00","-9.2","","-13.3","","72","","32","","9","","24.1","","98.65","","","","-14","","Mainly Clear"
"2009-01-19 21:00","2009","01","19","21:00","-9.4","","-13.7","","71","","32","","15","","24.1","","98.66","","","","-16","","Mainly Clear"
"2009-01-19 22:00","2009","01","19","22:00","-9.6","","-13.7","","72","","32","","17","","24.1","","98.72","","","","-17","","Mainly Clear"
"2009-01-19 23:00","2009","01","19","23:00","-9.3","","-13.5","","71","","32","","17","","24.1","","98.73","","","","-16","","Mostly Cloudy"
"2009-01-20 00:00","2009","01","20","00:00","-9.4","","-13.3","","73","","34","","17","","24.1","","98.74","","","","-16","","Snow Showers"
"2009-01-20 01:00","2009","01","20","01:00","-9.6","","-13.2","","75","","34","","15","","24.1","","98.75","","","","-16","","Snow Showers"
"2009-01-20 02:00","2009","01","20","02:00","-9.3","","-13.2","","73","","32","","17","","24.1","","98.77","","","","-16","","Snow Showers"
"2009-01-20 03:00","2009","01","20","03:00","-9.6","","-13.7","","72","","34","","9","","24.1","","98.79","","","","-14","","Snow Showers"
"2009-01-20 04:00","2009","01","20","04:00","-9.8","","-13.9","","72","","34","","17","","24.1","","98.81","","","","-17","","Snow Showers"
"2009-01-20 05:00","2009","01","20","05:00","-10.2","","-13.8","","75","","35","","15","","24.1","","98.83","","","","-17","","Snow Showers"
"2009-01-20 06:00","2009","01","20","06:00","-10.5","","-13.6","","78","","34","","11","","19.3","","98.86","","","","-16","","Snow Showers"
"2009-01-20 07:00","2009","01","20","07:00","-11.0","","-13.8","","80","","33","","11","","24.1","","98.95","","","","-17","","Snow Showers"
"2009-01-20 08:00","2009","01","20","08:00","-10.8","","-13.6","","80","","35","","13","","24.1","","99.05","","","","-17","","Snow Showers"
"2009-01-20 09:00","2009","01","20","09:00","-11.3","","-14.1","","80","","35","","13","","24.1","","99.12","","","","-18","","Mainly Clear"
"2009-01-20 10:00","2009","01","20","10:00","-10.3","","-13.6","","77","","34","","15","","24.1","","99.18","","","","-17","","Mainly Clear"
"2009-01-20 11:00","2009","01","20","11:00","-8.9","","-13.5","","69","","36","","13","","24.1","","99.20","","","","-15","","Mainly Clear"
"2009-01-20 12:00","2009","01","20","12:00","-8.3","","-13.2","","68","","33","","17","","24.1","","99.23","","","","-15","","Mainly Clear"
"2009-01-20 13:00","2009","01","20","13:00","-7.5","","-13.0","","65","","34","","11","","24.1","","99.16","","","","-13","","Mainly Clear"
"2009-01-20 14:00","2009","01","20","14:00","-6.9","","-13.2","","61","","33","","15","","24.1","","99.17","","","","-13","","Mainly Clear"
"2009-01-20 15:00","2009","01","20","15:00","-6.5","","-13.3","","58","","32","","13","","24.1","","99.18","","","","-12","","Mostly Cloudy"
"2009-01-20 16:00","2009","01","20","16:00","-7.1","","-13.7","","59","","31","","17","","24.1","","99.22","","","","-14","","Mostly Cloudy"
"2009-01-20 17:00","2009","01","20","17:00","-7.5","","-14.3","","58","","32","","17","","24.1","","99.28","","","","-14","","Mostly Cloudy"
"2009-01-20 18:00","2009","01","20","18:00","-8.5","","-14.3","","63","","33","","13","","24.1","","99.31","","","","-14","","Mainly Clear"
"2009-01-20 19:00","2009","01","20","19:00","-9.3","","-14.8","","64","","32","","11","","24.1","","99.35","","","","-15","","Clear"
"2009-01-20 20:00","2009","01","20","20:00","-10.0","","-15.2","","66","","32","","11","","24.1","","99.41","","","","-16","","Clear"
"2009-01-20 21:00","2009","01","20","21:00","-11.3","","-16.0","","68","","29","","9","","24.1","","99.43","","","","-16","","Clear"
"2009-01-20 22:00","2009","01","20","22:00","-12.0","","-16.2","","71","","29","","15","","24.1","","99.44","","","","-19","","Clear"
"2009-01-20 23:00","2009","01","20","23:00","-12.6","","-16.5","","73","","29","","13","","24.1","","99.42","","","","-19","","Clear"
"2009-01-21 00:00","2009","01","21","00:00","-13.6","","-16.6","","78","","25","","7","","24.1","","99.41","","","","-18","","Clear"
"2009-01-21 01:00","2009","01","21","01:00","-14.0","","-16.6","","81","","25","","11","","24.1","","99.41","","","","-20","","Clear"
"2009-01-21 02:00","2009","01","21","02:00","-15.3","","-17.6","","83","","23","","7","","24.1","","99.40","","","","-20","","Clear"
"2009-01-21 03:00","2009","01","21","03:00","-15.8","","-18.0","","83","","22","","13","","24.1","","99.42","","","","-23","","Clear"
"2009-01-21 04:00","2009","01","21","04:00","-16.1","","-18.2","","84","","23","","15","","24.1","","99.37","","","","-24","","Mainly Clear"
"2009-01-21 05:00","2009","01","21","05:00","-15.8","","-19.6","","73","","22","","11","","24.1","","99.28","","","","-23","","Mainly Clear"
"2009-01-21 06:00","2009","01","21","06:00","-16.2","","-19.8","","74","","22","","13","","19.3","","99.24","","","","-24","","Mainly Clear"
"2009-01-21 07:00","2009","01","21","07:00","-15.2","","-18.2","","78","","22","","13","","16.1","","99.27","","","","-23","","Mainly Clear"
"2009-01-21 08:00","2009","01","21","08:00","-14.6","","-17.2","","81","","22","","15","","12.9","","99.29","","","","-22","","Mostly Cloudy"
"2009-01-21 09:00","2009","01","21","09:00","-13.1","","-15.4","","83","","22","","17","","9.7","","99.29","","","","-21","","Haze"
"2009-01-21 10:00","2009","01","21","10:00","-10.9","","-13.6","","80","","22","","22","","9.7","","99.28","","","","-19","","Haze"
"2009-01-21 11:00","2009","01","21","11:00","-9.6","","-13.2","","75","","23","","32","","12.9","","99.26","","","","-19","","Mostly Cloudy"
"2009-01-21 12:00","2009","01","21","12:00","-8.5","","-12.8","","71","","23","","24","","12.9","","99.19","","","","-17","","Mostly Cloudy"
"2009-01-21 13:00","2009","01","21","13:00","-7.6","","-12.4","","68","","24","","28","","19.3","","99.09","","","","-16","","Mostly Cloudy"
"2009-01-21 14:00","2009","01","21","14:00","-6.7","","-12.1","","65","","23","","26","","24.1","","99.06","","","","-15","","Mostly Cloudy"
"2009-01-21 15:00","2009","01","21","15:00","-5.8","","-11.6","","64","","22","","28","","24.1","","99.04","","","","-14","","Mainly Clear"
"2009-01-21 16:00","2009","01","21","16:00","-5.1","","-11.4","","61","","23","","24","","24.1","","99.02","","","","-12","","Mainly Clear"
"2009-01-21 17:00","2009","01","21","17:00","-6.1","","-11.6","","65","","22","","26","","24.1","","99.05","","","","-14","","Clear"
"2009-01-21 18:00","2009","01","21","18:00","-6.8","","-11.6","","69","","22","","20","","19.3","","99.06","","","","-14","","Mainly Clear"
"2009-01-21 19:00","2009","01","21","19:00","-7.0","","-11.0","","73","","22","","22","","19.3","","99.09","","","","-14","","Mainly Clear"
"2009-01-21 20:00","2009","01","21","20:00","-6.1","","-10.0","","74","","22","","26","","16.1","","99.07","","","","-14","","Cloudy"
"2009-01-21 21:00","2009","01","21","21:00","-5.8","","-9.8","","73","","22","","24","","16.1","","99.05","","","","-13","","Mainly Clear"
"2009-01-21 22:00","2009","01","21","22:00","-5.6","","-9.8","","72","","22","","22","","12.9","","99.06","","","","-13","","Cloudy"
"2009-01-21 23:00","2009","01","21","23:00","-5.4","","-9.3","","74","","22","","22","","12.9","","99.05","","","","-12","","Cloudy"
"2009-01-22 00:00","2009","01","22","00:00","-5.4","","-9.4","","73","","23","","19","","12.9","","98.99","","","","-12","","Cloudy"
"2009-01-22 01:00","2009","01","22","01:00","-5.2","","-8.8","","76","","22","","15","","12.9","","98.95","","","","-11","","Cloudy"
"2009-01-22 02:00","2009","01","22","02:00","-5.0","","-8.5","","76","","21","","13","","12.9","","98.95","","","","-10","","Cloudy"
"2009-01-22 03:00","2009","01","22","03:00","-4.2","","-8.0","","75","","22","","17","","12.9","","98.93","","","","-10","","Cloudy"
"2009-01-22 04:00","2009","01","22","04:00","-4.0","","-7.4","","77","","20","","13","","11.3","","98.89","","","","-9","","Cloudy"
"2009-01-22 05:00","2009","01","22","05:00","-3.5","","-7.3","","75","","22","","20","","11.3","","98.85","","","","-10","","Cloudy"
"2009-01-22 06:00","2009","01","22","06:00","-4.5","","-8.4","","74","","21","","15","","11.3","","98.88","","","","-10","","Cloudy"
"2009-01-22 07:00","2009","01","22","07:00","-5.4","","-8.5","","79","","22","","15","","11.3","","98.92","","","","-11","","Cloudy"
"2009-01-22 08:00","2009","01","22","08:00","-5.0","","-8.6","","76","","23","","19","","9.7","","98.97","","","","-11","","Haze"
"2009-01-22 09:00","2009","01","22","09:00","-4.9","","-8.3","","77","","22","","17","","9.7","","99.02","","","","-11","","Haze"
"2009-01-22 10:00","2009","01","22","10:00","-4.3","","-7.8","","77","","22","","17","","9.7","","99.06","","","","-10","","Haze"
"2009-01-22 11:00","2009","01","22","11:00","-3.9","","-7.1","","78","","22","","20","","9.7","","99.10","","","","-10","","Snow Showers,Haze"
"2009-01-22 12:00","2009","01","22","12:00","-3.5","","-6.8","","78","","22","","19","","9.7","","99.05","","","","-9","","Haze"
"2009-01-22 13:00","2009","01","22","13:00","-3.3","","-6.8","","77","","23","","17","","9.7","","99.01","","","","-9","","Haze"
"2009-01-22 14:00","2009","01","22","14:00","-3.0","","-6.9","","74","","22","","15","","9.7","","98.97","","","","-8","","Haze"
"2009-01-22 15:00","2009","01","22","15:00","-2.5","","-6.9","","72","","25","","15","","9.7","","99.02","","","","-7","","Haze"
"2009-01-22 16:00","2009","01","22","16:00","-1.9","","-6.8","","69","","22","","15","","9.7","","99.00","","","","-7","","Haze"
"2009-01-22 17:00","2009","01","22","17:00","-1.8","","-6.8","","69","","24","","11","","9.7","","99.04","","","","-6","","Haze"
"2009-01-22 18:00","2009","01","22","18:00","-2.9","","-7.1","","73","","22","","9","","8.0","","99.05","","","","-6","","Haze"
"2009-01-22 19:00","2009","01","22","19:00","-4.1","","-7.4","","78","","23","","6","","9.7","","99.11","","","","-7","","Haze"
"2009-01-22 20:00","2009","01","22","20:00","-6.0","","-8.3","","84","","","","0","","8.0","","99.12","","","","","","Haze"
"2009-01-22 21:00","2009","01","22","21:00","-7.3","","-8.6","","90","","14","","4","","8.0","","99.07","","","","-9","","Fog"
"2009-01-22 22:00","2009","01","22","22:00","-7.0","","-8.4","","90","","18","","7","","8.0","","99.04","","","","-11","","Fog"
"2009-01-22 23:00","2009","01","22","23:00","-5.3","","-6.6","","91","","20","","9","","6.4","","99.02","","","","-9","","Fog"
"2009-01-23 00:00","2009","01","23","00:00","-6.1","","-7.3","","91","","21","","4","","6.4","","98.96","","","","-8","","Fog"
"2009-01-23 01:00","2009","01","23","01:00","-9.2","","-10.2","","92","","","","0","","4.8","","98.94","","","","","","Fog"
"2009-01-23 02:00","2009","01","23","02:00","-8.7","","-10.2","","89","","","","0","","2.4","","98.90","","","","","","Fog"
"2009-01-23 03:00","2009","01","23","03:00","-8.9","","-10.4","","89","","","","0","","2.4","","98.84","","","","","","Fog"
"2009-01-23 04:00","2009","01","23","04:00","-6.3","","-7.8","","89","","16","","7","","6.4","","98.72","","","","-10","","Fog"
"2009-01-23 05:00","2009","01","23","05:00","-3.5","","-5.5","","86","","","","0","","8.0","","98.62","","","","","","Fog"
"2009-01-23 06:00","2009","01","23","06:00","-2.7","","-5.3","","82","","18","","11","","9.7","","98.47","","","","-7","","Haze"
"2009-01-23 07:00","2009","01","23","07:00","-1.5","","-4.8","","78","","20","","20","","9.7","","98.42","","","","-7","","Haze"
"2009-01-23 08:00","2009","01","23","08:00","-1.7","","-4.9","","79","","20","","19","","9.7","","98.39","","","","-7","","Haze"
"2009-01-23 09:00","2009","01","23","09:00","-0.7","","-4.1","","78","","21","","24","","9.7","","98.36","","","","-7","","Haze"
"2009-01-23 10:00","2009","01","23","10:00","0.3","","-3.1","","78","","22","","20","","9.7","","98.30","","","","","","Haze"
"2009-01-23 11:00","2009","01","23","11:00","2.0","","-1.9","","75","","24","","26","","9.7","","98.28","","","","","","Haze"
"2009-01-23 12:00","2009","01","23","12:00","2.3","","-2.1","","73","","25","","33","","9.7","","98.27","","","","","","Haze"
"2009-01-23 13:00","2009","01","23","13:00","2.5","","-2.1","","72","","26","","20","","9.7","","98.23","","","","","","Haze"
"2009-01-23 14:00","2009","01","23","14:00","3.1","","-1.6","","71","","27","","20","","9.7","","98.25","","","","","","Haze"
"2009-01-23 15:00","2009","01","23","15:00","3.8","","-1.7","","67","","28","","30","","9.7","","98.36","","","","","","Haze"
"2009-01-23 16:00","2009","01","23","16:00","2.7","","-2.7","","68","","29","","35","","9.7","","98.55","","","","","","Haze"
"2009-01-23 17:00","2009","01","23","17:00","0.8","","-3.5","","73","","28","","32","","8.0","","98.75","","","","","","Haze"
"2009-01-23 18:00","2009","01","23","18:00","-0.9","","-5.4","","71","","30","","35","","12.9","","98.99","","","","-8","","Cloudy"
"2009-01-23 19:00","2009","01","23","19:00","-0.9","","-5.9","","69","","31","","22","","16.1","","99.11","","","","-7","","Snow Showers"
"2009-01-23 20:00","2009","01","23","20:00","-0.9","","-6.0","","68","","29","","26","","24.1","","99.18","","","","-7","","Snow Showers"
"2009-01-23 21:00","2009","01","23","21:00","-1.1","","-5.8","","70","","29","","22","","19.3","","99.27","","","","-7","","Snow Showers"
"2009-01-23 22:00","2009","01","23","22:00","-1.5","","-5.5","","74","","29","","26","","9.7","","99.33","","","","-8","","Snow Showers,Haze"
"2009-01-23 23:00","2009","01","23","23:00","-2.9","","-6.5","","76","","35","","32","","19.3","","99.53","","","","-10","","Snow Showers"
"2009-01-24 00:00","2009","01","24","00:00","-4.1","","-10.3","","62","","34","","19","","24.1","","99.65","","","","-10","","Mostly Cloudy"
"2009-01-24 01:00","2009","01","24","01:00","-4.7","","-10.8","","62","","34","","22","","24.1","","99.76","","","","-12","","Mostly Cloudy"
"2009-01-24 02:00","2009","01","24","02:00","-5.7","","-11.9","","62","","33","","24","","24.1","","99.88","","","","-13","","Mostly Cloudy"
"2009-01-24 03:00","2009","01","24","03:00","-7.2","","-10.8","","75","","34","","17","","19.3","","99.99","","","","-14","","Snow Showers"
"2009-01-24 04:00","2009","01","24","04:00","-7.3","","-15.0","","54","","32","","28","","24.1","","100.03","","","","-16","","Snow Showers"
"2009-01-24 05:00","2009","01","24","05:00","-8.3","","-15.2","","57","","32","","24","","24.1","","100.10","","","","-16","","Snow Showers"
"2009-01-24 06:00","2009","01","24","06:00","-8.9","","-15.6","","58","","33","","19","","24.1","","100.17","","","","-16","","Snow Showers"
"2009-01-24 07:00","2009","01","24","07:00","-9.2","","-16.1","","57","","32","","17","","24.1","","100.26","","","","-16","","Snow Showers"
"2009-01-24 08:00","2009","01","24","08:00","-9.7","","-17.2","","54","","32","","20","","24.1","","100.37","","","","-17","","Snow Showers"
"2009-01-24 09:00","2009","01","24","09:00","-9.7","","-16.2","","59","","31","","19","","24.1","","100.48","","","","-17","","Mostly Cloudy"
"2009-01-24 10:00","2009","01","24","10:00","-9.6","","-15.9","","60","","33","","17","","24.1","","100.50","","","","-17","","Mostly Cloudy"
"2009-01-24 11:00","2009","01","24","11:00","-9.4","","-16.3","","57","","32","","11","","24.1","","100.53","","","","-15","","Mostly Cloudy"
"2009-01-24 12:00","2009","01","24","12:00","-9.4","","-17.1","","53","","34","","9","","24.1","","100.51","","","","-14","","Mostly Cloudy"
"2009-01-24 13:00","2009","01","24","13:00","-8.6","","-16.1","","55","","33","","15","","24.1","","100.46","","","","-15","","Mostly Cloudy"
"2009-01-24 14:00","2009","01","24","14:00","-8.7","","-16.7","","52","","26","","7","","24.1","","100.44","","","","-13","","Mostly Cloudy"
"2009-01-24 15:00","2009","01","24","15:00","-8.0","","-16.6","","50","","27","","11","","24.1","","100.46","","","","-13","","Mainly Clear"
"2009-01-24 16:00","2009","01","24","16:00","-7.7","","-16.5","","49","","28","","9","","24.1","","100.46","","","","-12","","Mainly Clear"
"2009-01-24 17:00","2009","01","24","17:00","-8.0","","-16.8","","49","","26","","17","","24.1","","100.44","","","","-15","","Clear"
"2009-01-24 18:00","2009","01","24","18:00","-8.9","","-16.8","","53","","24","","15","","24.1","","100.45","","","","-15","","Clear"
"2009-01-24 19:00","2009","01","24","19:00","-9.7","","-16.8","","56","","24","","13","","24.1","","100.44","","","","-16","","Clear"
"2009-01-24 20:00","2009","01","24","20:00","-10.7","","-17.0","","60","","22","","11","","24.1","","100.40","","","","-16","","Clear"
"2009-01-24 21:00","2009","01","24","21:00","-11.4","","-16.8","","64","","23","","11","","24.1","","100.38","","","","-17","","Clear"
"2009-01-24 22:00","2009","01","24","22:00","-11.9","","-16.9","","66","","24","","11","","24.1","","100.37","","","","-18","","Clear"
"2009-01-24 23:00","2009","01","24","23:00","-12.0","","-16.7","","68","","28","","17","","24.1","","100.39","","","","-20","","Clear"
"2009-01-25 00:00","2009","01","25","00:00","-11.7","","-16.5","","68","","26","","19","","24.1","","100.39","","","","-20","","Clear"
"2009-01-25 01:00","2009","01","25","01:00","-12.8","","-17.0","","71","","23","","13","","24.1","","100.40","","","","-20","","Clear"
"2009-01-25 02:00","2009","01","25","02:00","-13.8","","-17.0","","77","","22","","9","","24.1","","100.31","","","","-19","","Clear"
"2009-01-25 03:00","2009","01","25","03:00","-13.8","","-16.7","","79","","24","","15","","24.1","","100.31","","","","-21","","Clear"
"2009-01-25 04:00","2009","01","25","04:00","-14.0","","-16.6","","81","","25","","17","","24.1","","100.32","","","","-22","","Clear"
"2009-01-25 05:00","2009","01","25","05:00","-14.5","","-17.0","","81","","23","","15","","24.1","","100.29","","","","-22","","Clear"
"2009-01-25 06:00","2009","01","25","06:00","-15.1","","-17.4","","83","","23","","17","","24.1","","100.26","","","","-24","","Clear"
"2009-01-25 07:00","2009","01","25","07:00","-15.2","","-17.3","","84","","23","","17","","24.1","","100.27","","","","-24","","Clear"
"2009-01-25 08:00","2009","01","25","08:00","-14.6","","-17.0","","82","","23","","15","","24.1","","100.31","","","","-22","","Mostly Cloudy"
"2009-01-25 09:00","2009","01","25","09:00","-13.7","","-16.5","","79","","23","","13","","24.1","","100.36","","","","-21","","Cloudy"
"2009-01-25 10:00","2009","01","25","10:00","-12.2","","-15.7","","75","","25","","17","","24.1","","100.33","","","","-20","","Cloudy"
"2009-01-25 11:00","2009","01","25","11:00","-10.8","","-15.0","","71","","26","","17","","24.1","","100.37","","","","-18","","Cloudy"
"2009-01-25 12:00","2009","01","25","12:00","-9.7","","-14.4","","69","","25","","19","","24.1","","100.37","","","","-17","","Cloudy"
"2009-01-25 13:00","2009","01","25","13:00","-8.8","","-14.0","","66","","26","","17","","24.1","","100.29","","","","-16","","Cloudy"
"2009-01-25 14:00","2009","01","25","14:00","-8.6","","-14.2","","64","","28","","19","","24.1","","100.23","","","","-16","","Cloudy"
"2009-01-25 15:00","2009","01","25","15:00","-8.6","","-14.2","","64","","27","","9","","24.1","","100.24","","","","-13","","Mostly Cloudy"
"2009-01-25 16:00","2009","01","25","16:00","-8.2","","-14.2","","62","","25","","15","","24.1","","100.30","","","","-15","","Mostly Cloudy"
"2009-01-25 17:00","2009","01","25","17:00","-9.0","","-14.3","","65","","22","","19","","24.1","","100.35","","","","-16","","Mainly Clear"
"2009-01-25 18:00","2009","01","25","18:00","-9.8","","-14.5","","68","","23","","17","","24.1","","100.39","","","","-17","","Mainly Clear"
"2009-01-25 19:00","2009","01","25","19:00","-9.7","","-14.0","","71","","23","","19","","24.1","","100.41","","","","-17","","Mostly Cloudy"
"2009-01-25 20:00","2009","01","25","20:00","-9.7","","-13.9","","71","","23","","15","","24.1","","100.41","","","","-16","","Mostly Cloudy"
"2009-01-25 21:00","2009","01","25","21:00","-10.2","","-14.3","","72","","24","","11","","24.1","","100.42","","","","-16","","Mainly Clear"
"2009-01-25 22:00","2009","01","25","22:00","-11.6","","-14.9","","76","","22","","9","","24.1","","100.43","","","","-17","","Mainly Clear"
"2009-01-25 23:00","2009","01","25","23:00","-12.5","","-15.4","","79","","21","","11","","24.1","","100.46","","","","-19","","Mainly Clear"
"2009-01-26 00:00","2009","01","26","00:00","-12.9","","-15.5","","81","","22","","13","","24.1","","100.46","","","","-20","","Mainly Clear"
"2009-01-26 01:00","2009","01","26","01:00","-13.3","","-15.9","","81","","23","","11","","24.1","","100.50","","","","-20","","Mainly Clear"
"2009-01-26 02:00","2009","01","26","02:00","-13.7","","-16.2","","81","","24","","9","","24.1","","100.56","","","","-19","","Mostly Cloudy"
"2009-01-26 03:00","2009","01","26","03:00","-14.3","","-16.7","","82","","23","","11","","16.1","","100.60","","","","-21","","Mostly Cloudy"
"2009-01-26 04:00","2009","01","26","04:00","-13.8","","-16.5","","80","","25","","11","","16.1","","100.60","","","","-20","","Mostly Cloudy"
"2009-01-26 05:00","2009","01","26","05:00","-14.2","","-16.9","","80","","27","","11","","19.3","","100.62","","","","-21","","Mostly Cloudy"
"2009-01-26 06:00","2009","01","26","06:00","-14.6","","-17.0","","82","","27","","11","","19.3","","100.63","","","","-21","","Mostly Cloudy"
"2009-01-26 07:00","2009","01","26","07:00","-15.1","","-17.3","","83","","22","","11","","19.3","","100.67","","","","-22","","Mainly Clear"
"2009-01-26 08:00","2009","01","26","08:00","-15.4","","-17.4","","85","","25","","9","","16.1","","100.73","","","","-21","","Mostly Cloudy"
"2009-01-26 09:00","2009","01","26","09:00","-14.3","","-16.8","","81","","23","","11","","19.3","","100.76","","","","-21","","Mostly Cloudy"
"2009-01-26 10:00","2009","01","26","10:00","-12.3","","-15.8","","75","","25","","9","","24.1","","100.78","","","","-18","","Mostly Cloudy"
"2009-01-26 11:00","2009","01","26","11:00","-10.5","","-15.1","","69","","21","","9","","24.1","","100.79","","","","-15","","Mostly Cloudy"
"2009-01-26 12:00","2009","01","26","12:00","-9.3","","-14.5","","66","","21","","13","","24.1","","100.74","","","","-15","","Mostly Cloudy"
"2009-01-26 13:00","2009","01","26","13:00","-7.4","","-13.5","","62","","20","","9","","24.1","","100.65","","","","-12","","Mostly Cloudy"
"2009-01-26 14:00","2009","01","26","14:00","-6.9","","-13.1","","61","","23","","13","","24.1","","100.62","","","","-12","","Mostly Cloudy"
"2009-01-26 15:00","2009","01","26","15:00","-6.4","","-13.2","","58","","27","","17","","24.1","","100.63","","","","-13","","Cloudy"
"2009-01-26 16:00","2009","01","26","16:00","-6.0","","-13.6","","55","","27","","17","","24.1","","100.68","","","","-12","","Cloudy"
"2009-01-26 17:00","2009","01","26","17:00","-6.3","","-13.4","","57","","25","","15","","24.1","","100.64","","","","-12","","Cloudy"
"2009-01-26 18:00","2009","01","26","18:00","-6.2","","-13.2","","58","","23","","11","","24.1","","100.65","","","","-11","","Cloudy"
"2009-01-26 19:00","2009","01","26","19:00","-6.4","","-12.3","","63","","23","","13","","24.1","","100.70","","","","-12","","Snow"
"2009-01-26 20:00","2009","01","26","20:00","-7.1","","-10.8","","75","","24","","11","","4.0","","100.75","","","","-12","","Snow"
"2009-01-26 21:00","2009","01","26","21:00","-7.7","","-10.2","","82","","22","","9","","4.0","","100.69","","","","-12","","Snow"
"2009-01-26 22:00","2009","01","26","22:00","-7.8","","-10.0","","84","","22","","9","","4.8","","100.68","","","","-12","","Snow"
"2009-01-26 23:00","2009","01","26","23:00","-7.9","","-10.2","","84","","25","","9","","4.8","","100.74","","","","-12","","Snow"
"2009-01-27 00:00","2009","01","27","00:00","-8.4","","-10.6","","84","","22","","7","","6.4","","100.74","","","","-12","","Snow"
"2009-01-27 01:00","2009","01","27","01:00","-8.4","","-10.6","","84","","24","","7","","6.4","","100.76","","","","-12","","Snow"
"2009-01-27 02:00","2009","01","27","02:00","-9.4","","-11.4","","85","","26","","7","","16.1","","100.78","","","","-13","","Snow"
"2009-01-27 03:00","2009","01","27","03:00","-9.1","","-11.1","","85","","30","","9","","19.3","","100.81","","","","-14","","Cloudy"
"2009-01-27 04:00","2009","01","27","04:00","-9.5","","-11.5","","85","","32","","4","","19.3","","100.84","","","","-12","","Cloudy"
"2009-01-27 05:00","2009","01","27","05:00","-9.3","","-11.6","","83","","","","0","","19.3","","100.86","","","","","","Cloudy"
"2009-01-27 06:00","2009","01","27","06:00","-9.7","","-12.0","","83","","","","0","","19.3","","100.85","","","","","","Cloudy"
"2009-01-27 07:00","2009","01","27","07:00","-11.0","","-13.0","","85","","","","0","","19.3","","100.88","","","","","","Mostly Cloudy"
"2009-01-27 08:00","2009","01","27","08:00","-10.7","","-12.4","","87","","","","0","","16.1","","100.85","","","","","","Cloudy"
"2009-01-27 09:00","2009","01","27","09:00","-11.7","","-13.4","","87","","","","0","","16.1","","100.90","","","","","","Mostly Cloudy"
"2009-01-27 10:00","2009","01","27","10:00","-9.1","","-11.6","","82","","9","","6","","16.1","","100.90","","","","-12","","Mostly Cloudy"
"2009-01-27 11:00","2009","01","27","11:00","-8.9","","-11.7","","80","","9","","7","","16.1","","100.85","","","","-13","","Mostly Cloudy"
"2009-01-27 12:00","2009","01","27","12:00","-8.4","","-13.9","","64","","","","0","","19.3","","100.76","","","","","","Mostly Cloudy"
"2009-01-27 13:00","2009","01","27","13:00","-7.9","","-13.5","","64","","13","","7","","19.3","","100.63","","","","-12","","Cloudy"
"2009-01-27 14:00","2009","01","27","14:00","-7.8","","-13.6","","63","","10","","6","","19.3","","100.58","","","","-11","","Mostly Cloudy"
"2009-01-27 15:00","2009","01","27","15:00","-7.5","","-13.1","","64","","9","","7","","19.3","","100.50","","","","-11","","Cloudy"
"2009-01-27 16:00","2009","01","27","16:00","-7.6","","-12.5","","68","","7","","9","","19.3","","100.48","","","","-12","","Cloudy"
"2009-01-27 17:00","2009","01","27","17:00","-8.1","","-12.0","","73","","5","","11","","19.3","","100.36","","","","-13","","Cloudy"
"2009-01-27 18:00","2009","01","27","18:00","-8.4","","-12.1","","75","","6","","11","","19.3","","100.29","","","","-14","","Cloudy"
"2009-01-27 19:00","2009","01","27","19:00","-8.2","","-12.0","","74","","7","","13","","24.1","","100.23","","","","-14","","Cloudy"
"2009-01-27 20:00","2009","01","27","20:00","-7.8","","-11.0","","78","","6","","11","","24.1","","100.11","","","","-13","","Cloudy"
"2009-01-27 21:00","2009","01","27","21:00","-7.7","","-10.4","","81","","6","","13","","19.3","","99.99","","","","-13","","Snow Showers"
"2009-01-27 22:00","2009","01","27","22:00","-7.6","","-10.1","","82","","6","","13","","11.3","","99.83","","","","-13","","Snow"
"2009-01-27 23:00","2009","01","27","23:00","-7.8","","-10.1","","84","","6","","13","","8.0","","99.72","","","","-14","","Snow"
"2009-01-28 00:00","2009","01","28","00:00","-7.5","","-9.8","","84","","4","","15","","8.0","","99.59","","","","-14","","Snow"
"2009-01-28 01:00","2009","01","28","01:00","-7.5","","-9.7","","84","","3","","20","","8.0","","99.50","","","","-15","","Snow"
"2009-01-28 02:00","2009","01","28","02:00","-7.9","","-9.8","","86","","4","","20","","1.6","","99.38","","","","-15","","Snow"
"2009-01-28 03:00","2009","01","28","03:00","-7.9","","-9.8","","86","","3","","26","","4.0","","99.26","","","","-16","","Snow"
"2009-01-28 04:00","2009","01","28","04:00","-7.9","","-9.9","","86","","3","","20","","1.6","","99.11","","","","-15","","Snow"
"2009-01-28 05:00","2009","01","28","05:00","-8.0","","-9.9","","86","","3","","20","","2.4","","98.97","","","","-15","","Snow"
"2009-01-28 06:00","2009","01","28","06:00","-8.0","","-9.9","","86","","2","","17","","1.2","","98.81","","","","-15","","Snow"
"2009-01-28 07:00","2009","01","28","07:00","-8.0","","-9.7","","88","","36","","13","","1.6","","98.71","","","","-14","","Snow"
"2009-01-28 08:00","2009","01","28","08:00","-8.1","","-9.9","","87","","36","","15","","1.6","","98.64","","","","-14","","Snow"
"2009-01-28 09:00","2009","01","28","09:00","-7.9","","-9.8","","86","","35","","13","","1.6","","98.59","","","","-14","","Snow"
"2009-01-28 10:00","2009","01","28","10:00","-7.9","","-9.7","","87","","33","","17","","1.2","","98.54","","","","-15","","Snow"
"2009-01-28 11:00","2009","01","28","11:00","-7.8","","-9.7","","86","","33","","20","","0.8","","98.50","","","","-15","","Moderate Snow"
"2009-01-28 12:00","2009","01","28","12:00","-7.0","","-9.5","","82","","32","","24","","3.2","","98.47","","","","-15","","Snow"
"2009-01-28 13:00","2009","01","28","13:00","-6.8","","-9.6","","80","","32","","22","","3.2","","98.48","","","","-14","","Snow"
"2009-01-28 14:00","2009","01","28","14:00","-6.1","","-10.1","","73","","30","","32","","19.3","","98.51","","","","-15","","Snow"
"2009-01-28 15:00","2009","01","28","15:00","-5.7","","-11.0","","66","","29","","22","","24.1","","98.61","","","","-13","","Mainly Clear"
"2009-01-28 16:00","2009","01","28","16:00","-5.3","","-11.3","","63","","28","","28","","24.1","","98.78","","","","-13","","Mainly Clear"
"2009-01-28 17:00","2009","01","28","17:00","-5.5","","-11.5","","63","","29","","30","","24.1","","98.91","","","","-14","","Mainly Clear"
"2009-01-28 18:00","2009","01","28","18:00","-6.5","","-12.6","","62","","29","","20","","24.1","","99.01","","","","-13","","Mainly Clear"
"2009-01-28 19:00","2009","01","28","19:00","-7.3","","-12.8","","65","","28","","17","","24.1","","99.01","","","","-14","","Mainly Clear"
"2009-01-28 20:00","2009","01","28","20:00","-8.6","","-12.9","","71","","22","","11","","24.1","","99.04","","","","-14","","Clear"
"2009-01-28 21:00","2009","01","28","21:00","-9.7","","-13.6","","73","","22","","15","","24.1","","99.11","","","","-16","","Mainly Clear"
"2009-01-28 22:00","2009","01","28","22:00","-9.4","","-12.7","","77","","23","","15","","24.1","","99.11","","","","-16","","Mostly Cloudy"
"2009-01-28 23:00","2009","01","28","23:00","-8.7","","-11.8","","78","","23","","20","","24.1","","99.14","","","","-16","","Mostly Cloudy"
"2009-01-29 00:00","2009","01","29","00:00","-7.7","","-11.1","","77","","23","","20","","24.1","","99.11","","","","-15","","Snow Showers"
"2009-01-29 01:00","2009","01","29","01:00","-8.8","","-11.7","","79","","22","","15","","24.1","","99.11","","","","-15","","Cloudy"
"2009-01-29 02:00","2009","01","29","02:00","-10.2","","-13.4","","77","","23","","24","","19.3","","99.10","","","","-19","","Cloudy"
"2009-01-29 03:00","2009","01","29","03:00","-10.8","","-13.9","","78","","23","","19","","19.3","","99.13","","","","-19","","Cloudy"
"2009-01-29 04:00","2009","01","29","04:00","-10.6","","-14.1","","75","","22","","17","","19.3","","99.08","","","","-18","","Cloudy"
"2009-01-29 05:00","2009","01","29","05:00","-10.9","","-14.1","","77","","22","","15","","19.3","","99.06","","","","-18","","Cloudy"
"2009-01-29 06:00","2009","01","29","06:00","-10.9","","-14.1","","77","","22","","19","","19.3","","99.01","","","","-19","","Cloudy"
"2009-01-29 07:00","2009","01","29","07:00","-11.8","","-14.3","","82","","20","","17","","19.3","","98.99","","","","-19","","Cloudy"
"2009-01-29 08:00","2009","01","29","08:00","-10.3","","-12.5","","84","","22","","28","","9.7","","99.00","","","","-20","","Haze"
"2009-01-29 09:00","2009","01","29","09:00","-9.6","","-11.5","","86","","22","","26","","3.2","","98.98","","","","-18","","Snow Showers,Fog"
"2009-01-29 10:00","2009","01","29","10:00","-8.0","","-10.2","","84","","22","","28","","4.0","","98.95","","","","-17","","Snow Showers"
"2009-01-29 11:00","2009","01","29","11:00","-7.2","","-9.2","","86","","22","","24","","4.8","","98.93","","","","-15","","Snow Showers,Fog"
"2009-01-29 12:00","2009","01","29","12:00","-6.1","","-8.4","","84","","22","","32","","8.0","","98.85","","","","-15","","Snow Showers,Haze"
"2009-01-29 13:00","2009","01","29","13:00","-5.4","","-8.0","","82","","22","","33","","8.0","","98.78","","","","-14","","Snow Showers,Haze"
"2009-01-29 14:00","2009","01","29","14:00","-4.0","","-7.3","","78","","22","","28","","9.7","","98.74","","","","-11","","Snow Showers,Haze"
"2009-01-29 15:00","2009","01","29","15:00","-3.5","","-6.8","","78","","23","","33","","9.7","","98.73","","","","-11","","Snow Showers,Haze"
"2009-01-29 16:00","2009","01","29","16:00","-3.4","","-6.6","","78","","23","","30","","9.7","","98.77","","","","-11","","Snow"
"2009-01-29 17:00","2009","01","29","17:00","-3.7","","-6.2","","83","","21","","26","","8.0","","98.78","","","","-11","","Snow"
"2009-01-29 18:00","2009","01","29","18:00","-3.9","","-5.8","","87","","21","","24","","1.6","","98.81","","","","-11","","Snow"
"2009-01-29 19:00","2009","01","29","19:00","-3.6","","-5.4","","87","","22","","22","","2.8","","98.81","","","","-10","","Snow"
"2009-01-29 20:00","2009","01","29","20:00","-3.4","","-5.5","","85","","23","","30","","3.2","","98.85","","","","-11","","Snow"
"2009-01-29 21:00","2009","01","29","21:00","-3.0","","-5.8","","81","","23","","28","","12.9","","98.84","","","","-10","","Snow"
"2009-01-29 22:00","2009","01","29","22:00","-2.9","","-6.1","","79","","23","","26","","6.4","","98.83","","","","-10","","Snow"
"2009-01-29 23:00","2009","01","29","23:00","-2.9","","-6.1","","79","","24","","28","","12.9","","98.77","","","","-10","","Snow"
"2009-01-30 00:00","2009","01","30","00:00","-2.9","","-6.0","","79","","24","","22","","12.9","","98.75","","","","-9","","Snow"
"2009-01-30 01:00","2009","01","30","01:00","-3.1","","-6.6","","77","","25","","30","","8.0","","98.73","","","","-11","","Snow"
"2009-01-30 02:00","2009","01","30","02:00","-3.9","","-7.0","","79","","29","","19","","8.0","","98.76","","","","-10","","Snow"
"2009-01-30 03:00","2009","01","30","03:00","-4.5","","-7.7","","78","","29","","19","","4.0","","98.77","","","","-11","","Snow"
"2009-01-30 04:00","2009","01","30","04:00","-4.7","","-7.6","","80","","28","","17","","4.0","","98.76","","","","-11","","Snow"
"2009-01-30 05:00","2009","01","30","05:00","-5.4","","-8.2","","81","","25","","17","","4.0","","98.77","","","","-11","","Snow"
"2009-01-30 06:00","2009","01","30","06:00","-8.1","","-11.4","","77","","23","","26","","9.7","","98.81","","","","-16","","Snow"
"2009-01-30 07:00","2009","01","30","07:00","-9.1","","-12.5","","76","","24","","22","","12.9","","98.85","","","","-17","","Mostly Cloudy"
"2009-01-30 08:00","2009","01","30","08:00","-8.5","","-12.0","","76","","25","","22","","12.9","","98.89","","","","-16","","Cloudy"
"2009-01-30 09:00","2009","01","30","09:00","-8.1","","-11.4","","77","","26","","24","","12.9","","98.93","","","","-16","","Cloudy"
"2009-01-30 10:00","2009","01","30","10:00","-7.8","","-10.9","","78","","26","","22","","9.7","","98.96","","","","-15","","Snow Showers"
"2009-01-30 11:00","2009","01","30","11:00","-6.6","","-10.5","","74","","27","","24","","16.1","","98.98","","","","-14","","Mostly Cloudy"
"2009-01-30 12:00","2009","01","30","12:00","-5.7","","-11.0","","66","","27","","28","","12.9","","98.99","","","","-14","","Snow Showers"
"2009-01-30 13:00","2009","01","30","13:00","-5.6","","-10.5","","68","","26","","24","","16.1","","98.97","","","","-13","","Snow Showers"
"2009-01-30 14:00","2009","01","30","14:00","-6.1","","-9.0","","80","","27","","15","","1.2","","99.01","","","","-12","","Snow Showers"
"2009-01-30 15:00","2009","01","30","15:00","-5.6","","-10.6","","68","","27","","26","","19.3","","99.05","","","","-13","","Mostly Cloudy"
"2009-01-30 16:00","2009","01","30","16:00","-5.8","","-9.6","","74","","29","","20","","12.9","","99.13","","","","-13","","Snow Showers"
"2009-01-30 17:00","2009","01","30","17:00","-6.3","","-10.9","","70","","27","","32","","16.1","","99.20","","","","-15","","Snow Showers"
"2009-01-30 18:00","2009","01","30","18:00","-7.3","","-11.6","","71","","28","","30","","2.0","","99.28","","","","-16","","Snow Showers"
"2009-01-30 19:00","2009","01","30","19:00","-7.0","","-12.0","","67","","28","","26","","24.1","","99.30","","","","-15","","Snow Showers"
"2009-01-30 20:00","2009","01","30","20:00","-7.4","","-13.0","","64","","29","","22","","24.1","","99.33","","","","-15","","Mostly Cloudy"
"2009-01-30 21:00","2009","01","30","21:00","-7.8","","-14.0","","61","","30","","28","","24.1","","99.40","","","","-16","","Snow Showers"
"2009-01-30 22:00","2009","01","30","22:00","-8.5","","-13.7","","66","","29","","20","","16.1","","99.41","","","","-16","","Snow Showers"
"2009-01-30 23:00","2009","01","30","23:00","-9.0","","-15.3","","60","","31","","24","","19.3","","99.42","","","","-17","","Snow Showers"
"2009-01-31 00:00","2009","01","31","00:00","-9.7","","-15.9","","61","","32","","20","","19.3","","99.44","","","","-17","","Snow Showers"
"2009-01-31 01:00","2009","01","31","01:00","-10.1","","-16.1","","61","","29","","22","","24.1","","99.48","","","","-18","","Mostly Cloudy"
"2009-01-31 02:00","2009","01","31","02:00","-10.5","","-16.4","","62","","29","","22","","24.1","","99.51","","","","-19","","Mostly Cloudy"
"2009-01-31 03:00","2009","01","31","03:00","-10.5","","-16.1","","63","","28","","15","","24.1","","99.57","","","","-17","","Mostly Cloudy"
"2009-01-31 04:00","2009","01","31","04:00","-10.4","","-15.7","","65","","28","","11","","24.1","","99.55","","","","-16","","Mostly Cloudy"
"2009-01-31 05:00","2009","01","31","05:00","-11.3","","-15.1","","73","","23","","13","","24.1","","99.54","","","","-18","","Snow Showers"
"2009-01-31 06:00","2009","01","31","06:00","-11.7","","-14.3","","81","","20","","13","","24.1","","99.47","","","","-18","","Snow Showers"
"2009-01-31 07:00","2009","01","31","07:00","-11.7","","-14.5","","80","","23","","19","","24.1","","99.46","","","","-20","","Snow Showers"
"2009-01-31 08:00","2009","01","31","08:00","-12.4","","-15.3","","79","","22","","19","","19.3","","99.45","","","","-21","","Mostly Cloudy"
"2009-01-31 09:00","2009","01","31","09:00","-12.0","","-15.3","","76","","22","","22","","24.1","","99.43","","","","-21","","Mostly Cloudy"
"2009-01-31 10:00","2009","01","31","10:00","-11.5","","-14.8","","76","","22","","30","","24.1","","99.43","","","","-21","","Cloudy"
"2009-01-31 11:00","2009","01","31","11:00","-11.7","","-14.9","","77","","21","","26","","24.1","","99.40","","","","-21","","Cloudy"
"2009-01-31 12:00","2009","01","31","12:00","-11.6","","-15.0","","76","","21","","32","","19.3","","99.31","","","","-22","","Snow Showers"
"2009-01-31 13:00","2009","01","31","13:00","-10.3","","-14.6","","71","","21","","30","","16.1","","99.17","","","","-20","","Snow Showers"
"2009-01-31 14:00","2009","01","31","14:00","-9.1","","-13.5","","70","","21","","33","","19.3","","99.04","","","","-19","","Snow Showers"
"2009-01-31 15:00","2009","01","31","15:00","-7.9","","-12.5","","69","","21","","30","","24.1","","98.91","","","","-17","","Cloudy"
"2009-01-31 16:00","2009","01","31","16:00","-6.8","","-11.2","","71","","21","","33","","16.1","","98.75","","","","-16","","Cloudy"
"2009-01-31 17:00","2009","01","31","17:00","-6.0","","-10.5","","70","","20","","28","","24.1","","98.66","","","","-14","","Mostly Cloudy"
"2009-01-31 18:00","2009","01","31","18:00","-6.1","","-10.5","","71","","20","","30","","24.1","","98.57","","","","-14","","Mainly Clear"
"2009-01-31 19:00","2009","01","31","19:00","-6.7","","-10.8","","73","","20","","32","","24.1","","98.50","","","","-15","","Mainly Clear"
"2009-01-31 20:00","2009","01","31","20:00","-6.1","","-10.3","","72","","21","","32","","24.1","","98.41","","","","-15","","Clear"
"2009-01-31 21:00","2009","01","31","21:00","-5.9","","-9.8","","74","","20","","30","","24.1","","98.34","","","","-14","","Clear"
"2009-01-31 22:00","2009","01","31","22:00","-5.4","","-8.8","","77","","20","","26","","24.1","","98.29","","","","-13","","Clear"
"2009-01-31 23:00","2009","01","31","23:00","-4.1","","-6.8","","81","","21","","28","","24.1","","98.18","","","","-12","","Mainly Clear"
