"Station Name","WINDSOR A"
"Province","ONTARIO"
"Latitude","42.28"
"Longitude","-82.96"
"Elevation","189.60"
"Climate Identifier","6139525"
"WMO Identifier","71538"
"TC Identifier","YQG"
"All times are specified in Local Standard Time (LST). Add 1 hour to adjust for Daylight Saving Time where and when it is observed."

"Legend"
"E","Estimated"
"M","Missing"
"NA","Not Available"

"Date/Time","Year","Month","Day","Time","Temp (°C)","Temp Flag","Dew Point Temp (°C)","Dew Point Temp Flag","Rel Hum (%)","Rel Hum Flag","Wind Dir (10s deg)","Wind Dir Flag","Wind Spd (km/h)","Wind Spd Flag","Visibility (km)","Visibility Flag","Stn Press (kPa)","Stn Press Flag","Hmdx","Hmdx Flag","Wind Chill","Wind Chill Flag","Weather"
"2013-06-01 00:00","2013","06","01","00:00","20.4","","18.5","","89","","19","","28","","24.1","","98.90","","27","","","","Cloudy"
"2013-06-01 01:00","2013","06","01","01:00","20.9","","18.6","","87","","21","","33","","24.1","","98.77","","27","","","","Cloudy"
"2013-06-01 02:00","2013","06","01","02:00","20.8","","17.6","","82","","20","","22","","24.1","","98.68","","27","","","","Cloudy"
"2013-06-01 03:00","2013","06","01","03:00","20.0","","16.0","","78","","20","","22","","24.1","","98.71","","25","","","","Cloudy"
"2013-06-01 04:00","2013","06","01","04:00","19.2","","16.2","","83","","23","","19","","19.3","","98.83","","","","","","Rain Showers"
"2013-06-01 05:00","2013","06","01","05:00","18.1","","16.7","","92","","23","","19","","9.7","","98.90","","","","","","Rain Showers,Fog"
"2013-06-01 06:00","2013","06","01","06:00","18.1","","16.8","","92","","13","","19","","19.3","","98.64","","","","","","Mostly Cloudy"
"2013-06-01 07:00","2013","06","01","07:00","19.0","","17.0","","88","","21","","24","","24.1","","98.75","","","","","","Mostly Cloudy"
"2013-06-01 08:00","2013","06","01","08:00","19.8","","17.4","","86","","20","","22","","24.1","","98.68","","","","","","Mostly Cloudy"
"2013-06-01 09:00","2013","06","01","09:00","21.6","","17.9","","79","","21","","37","","24.1","","98.64","","28","","","","Mostly Cloudy"
"2013-06-01 10:00","2013","06","01","10:00","22.6","","18.0","","75","","22","","28","","24.1","","98.61","","29","","","","Mostly Cloudy"
"2013-06-01 11:00","2013","06","01","11:00","24.0","","17.6","","67","","22","","35","","24.1","","98.65","","30","","","","Mostly Cloudy"
"2013-06-01 12:00","2013","06","01","12:00","24.8","","18.4","","68","","21","","28","","24.1","","98.69","","31","","","","Mostly Cloudy"
"2013-06-01 13:00","2013","06","01","13:00","24.7","","18.2","","67","","21","","24","","24.1","","98.66","","31","","","","Mostly Cloudy"
"2013-06-01 14:00","2013","06","01","14:00","26.8","","18.0","","59","","25","","30","","24.1","","98.67","","33","","","","Mostly Cloudy"
"2013-06-01 15:00","2013","06","01","15:00","26.9","","17.4","","56","","25","","33","","24.1","","98.63","","32","","","","Mostly Cloudy"
"2013-06-01 16:00","2013","06","01","16:00","26.3","","17.4","","58","","24","","32","","24.1","","98.64","","32","","","","Mostly Cloudy"
"2013-06-01 17:00","2013","06","01","17:00","25.1","","16.2","","58","","24","","26","","24.1","","98.62","","30","","","","Cloudy"
"2013-06-01 18:00","2013","06","01","18:00","24.4","","16.3","","61","","25","","17","","24.1","","98.61","","29","","","","Mostly Cloudy"
"2013-06-01 19:00","2013","06","01","19:00","23.2","","16.3","","65","","24","","7","","24.1","","98.58","","28","","","","Rain Showers"
"2013-06-01 20:00","2013","06","01","20:00","22.0","","17.7","","77","","19","","6","","24.1","","98.56","","28","","","","Rain Showers"
"2013-06-01 21:00","2013","06","01","21:00","20.0","","18.5","","91","","12","","4","","24.1","","98.50","","26","","","","Mostly Cloudy"
"2013-06-01 22:00","2013","06","01","22:00","20.1","","18.3","","89","","","","0","","24.1","","98.39","","26","","","","Mostly Cloudy"
"2013-06-01 23:00","2013","06","01","23:00","19.7","","18.2","","91","","19","","9","","24.1","","98.39","","","","","","Cloudy"
"2013-06-02 00:00","2013","06","02","00:00","19.8","","18.2","","90","","19","","13","","24.1","","98.35","","","","","","Cloudy"
"2013-06-02 01:00","2013","06","02","01:00","19.2","","18.0","","93","","19","","9","","12.9","","98.30","","","","","","Rain Showers"
"2013-06-02 02:00","2013","06","02","02:00","19.1","","17.9","","93","","18","","11","","24.1","","98.27","","","","","","Mostly Cloudy"
"2013-06-02 03:00","2013","06","02","03:00","19.3","","17.9","","92","","23","","15","","24.1","","98.27","","","","","","Mainly Clear"
"2013-06-02 04:00","2013","06","02","04:00","19.2","","17.1","","88","","22","","19","","24.1","","98.28","","","","","","Mostly Cloudy"
"2013-06-02 05:00","2013","06","02","05:00","18.8","","16.9","","89","","23","","24","","24.1","","98.31","","","","","","Mainly Clear"
"2013-06-02 06:00","2013","06","02","06:00","18.8","","16.0","","84","","23","","28","","24.1","","98.36","","","","","","Mainly Clear"
"2013-06-02 07:00","2013","06","02","07:00","18.9","","15.0","","78","","24","","33","","24.1","","98.43","","","","","","Mainly Clear"
"2013-06-02 08:00","2013","06","02","08:00","19.6","","14.8","","74","","25","","32","","24.1","","98.48","","","","","","Mostly Cloudy"
"2013-06-02 09:00","2013","06","02","09:00","19.8","","14.8","","73","","24","","24","","24.1","","98.51","","","","","","Mostly Cloudy"
"2013-06-02 10:00","2013","06","02","10:00","20.9","","14.3","","66","","25","","28","","24.1","","98.57","","","","","","Mostly Cloudy"
"2013-06-02 11:00","2013","06","02","11:00","21.9","","13.6","","59","","26","","32","","24.1","","98.60","","25","","","","Mostly Cloudy"
"2013-06-02 12:00","2013","06","02","12:00","22.4","","14.0","","59","","26","","26","","24.1","","98.67","","26","","","","Mostly Cloudy"
"2013-06-02 13:00","2013","06","02","13:00","22.3","","13.9","","59","","27","","20","","24.1","","98.72","","26","","","","Mostly Cloudy"
"2013-06-02 14:00","2013","06","02","14:00","22.2","","13.8","","59","","27","","26","","24.1","","98.77","","25","","","","Mostly Cloudy"
"2013-06-02 15:00","2013","06","02","15:00","21.6","","13.0","","58","","27","","24","","24.1","","98.82","","","","","","Mostly Cloudy"
"2013-06-02 16:00","2013","06","02","16:00","21.3","","12.8","","58","","29","","22","","24.1","","98.84","","","","","","Mostly Cloudy"
"2013-06-02 17:00","2013","06","02","17:00","20.7","","12.1","","58","","28","","22","","24.1","","98.85","","","","","","Mostly Cloudy"
"2013-06-02 18:00","2013","06","02","18:00","19.8","","11.7","","60","","32","","22","","24.1","","98.90","","","","","","Mainly Clear"
"2013-06-02 19:00","2013","06","02","19:00","17.1","","10.4","","65","","32","","20","","24.1","","98.98","","","","","","Mostly Cloudy"
"2013-06-02 20:00","2013","06","02","20:00","15.7","","9.8","","68","","35","","17","","24.1","","99.04","","","","","","Mostly Cloudy"
"2013-06-02 21:00","2013","06","02","21:00","15.0","","8.9","","67","","34","","13","","24.1","","99.15","","","","","","Mostly Cloudy"
"2013-06-02 22:00","2013","06","02","22:00","14.2","","7.8","","65","","35","","17","","24.1","","99.22","","","","","","Mostly Cloudy"
"2013-06-02 23:00","2013","06","02","23:00","13.5","","7.0","","65","","35","","15","","24.1","","99.25","","","","","","Cloudy"
"2013-06-03 00:00","2013","06","03","00:00","13.2","","6.8","","65","","35","","15","","24.1","","99.28","","","","","","Cloudy"
"2013-06-03 01:00","2013","06","03","01:00","12.5","","6.0","","65","","36","","15","","24.1","","99.31","","","","","","Cloudy"
"2013-06-03 02:00","2013","06","03","02:00","11.7","","5.1","","64","","35","","13","","24.1","","99.31","","","","","","Cloudy"
"2013-06-03 03:00","2013","06","03","03:00","11.2","","5.0","","66","","34","","17","","24.1","","99.34","","","","","","Cloudy"
"2013-06-03 04:00","2013","06","03","04:00","10.8","","4.6","","65","","32","","13","","24.1","","99.40","","","","","","Mostly Cloudy"
"2013-06-03 05:00","2013","06","03","05:00","10.0","","4.5","","69","","1","","11","","24.1","","99.45","","","","","","Mainly Clear"
"2013-06-03 06:00","2013","06","03","06:00","9.7","","4.4","","70","","35","","9","","24.1","","99.49","","","","","","Mainly Clear"
"2013-06-03 07:00","2013","06","03","07:00","9.9","","4.1","","67","","34","","6","","24.1","","99.52","","","","","","Clear"
"2013-06-03 08:00","2013","06","03","08:00","10.9","","4.2","","63","","31","","4","","24.1","","99.55","","","","","","Mainly Clear"
"2013-06-03 09:00","2013","06","03","09:00","11.6","","3.6","","58","","34","","11","","24.1","","99.57","","","","","","Mainly Clear"
"2013-06-03 10:00","2013","06","03","10:00","13.2","","5.1","","58","","5","","9","","24.1","","99.58","","","","","","Clear"
"2013-06-03 11:00","2013","06","03","11:00","14.3","","3.6","","49","","3","","6","","24.1","","99.61","","","","","","Clear"
"2013-06-03 12:00","2013","06","03","12:00","14.7","","3.0","","45","","3","","7","","24.1","","99.57","","","","","","Clear"
"2013-06-03 13:00","2013","06","03","13:00","15.9","","5.1","","49","","7","","4","","24.1","","99.53","","","","","","Clear"
"2013-06-03 14:00","2013","06","03","14:00","16.6","","6.2","","50","","10","","13","","24.1","","99.48","","","","","","Clear"
"2013-06-03 15:00","2013","06","03","15:00","17.4","","5.3","","45","","11","","9","","24.1","","99.39","","","","","","Clear"
"2013-06-03 16:00","2013","06","03","16:00","18.4","","6.2","","45","","20","","7","","24.1","","99.39","","","","","","Clear"
"2013-06-03 17:00","2013","06","03","17:00","18.6","","7.0","","47","","12","","6","","24.1","","99.35","","","","","","Mainly Clear"
"2013-06-03 18:00","2013","06","03","18:00","17.5","","6.3","","48","","20","","13","","24.1","","99.39","","","","","","Mostly Cloudy"
"2013-06-03 19:00","2013","06","03","19:00","16.5","","6.4","","51","","19","","13","","24.1","","99.46","","","","","","Mostly Cloudy"
"2013-06-03 20:00","2013","06","03","20:00","15.6","","5.6","","51","","20","","7","","24.1","","99.48","","","","","","Mostly Cloudy"
"2013-06-03 21:00","2013","06","03","21:00","15.0","","5.6","","53","","20","","9","","24.1","","99.51","","","","","","Mostly Cloudy"
"2013-06-03 22:00","2013","06","03","22:00","14.6","","5.8","","55","","21","","11","","24.1","","99.58","","","","","","Mainly Clear"
"2013-06-03 23:00","2013","06","03","23:00","13.9","","6.6","","61","","21","","11","","24.1","","99.62","","","","","","Mainly Clear"
"2013-06-04 00:00","2013","06","04","00:00","13.3","","7.8","","69","","22","","11","","24.1","","99.62","","","","","","Mainly Clear"
"2013-06-04 01:00","2013","06","04","01:00","12.4","","7.9","","74","","31","","7","","24.1","","99.68","","","","","","Clear"
"2013-06-04 02:00","2013","06","04","02:00","12.9","","8.0","","72","","33","","6","","24.1","","99.68","","","","","","Clear"
"2013-06-04 03:00","2013","06","04","03:00","11.9","","7.2","","73","","34","","9","","24.1","","99.70","","","","","","Clear"
"2013-06-04 04:00","2013","06","04","04:00","11.0","","7.1","","77","","36","","11","","24.1","","99.73","","","","","","Clear"
"2013-06-04 05:00","2013","06","04","05:00","10.4","","7.8","","84","","5","","19","","24.1","","99.82","","","","","","Clear"
"2013-06-04 06:00","2013","06","04","06:00","11.7","","7.8","","77","","5","","13","","24.1","","99.88","","","","","","Clear"
"2013-06-04 07:00","2013","06","04","07:00","12.6","","6.9","","68","","7","","15","","24.1","","99.95","","","","","","Clear"
"2013-06-04 08:00","2013","06","04","08:00","13.4","","5.6","","59","","5","","9","","24.1","","100.02","","","","","","Mainly Clear"
"2013-06-04 09:00","2013","06","04","09:00","14.2","","5.0","","54","","5","","11","","24.1","","99.99","","","","","","Mainly Clear"
"2013-06-04 10:00","2013","06","04","10:00","14.9","","6.0","","55","","6","","11","","24.1","","100.00","","","","","","Mostly Cloudy"
"2013-06-04 11:00","2013","06","04","11:00","16.4","","6.4","","52","","4","","7","","24.1","","100.04","","","","","","Mostly Cloudy"
"2013-06-04 12:00","2013","06","04","12:00","17.6","","7.5","","52","","9","","13","","24.1","","99.98","","","","","","Mainly Clear"
"2013-06-04 13:00","2013","06","04","13:00","17.6","","7.0","","50","","10","","11","","24.1","","99.96","","","","","","Mostly Cloudy"
"2013-06-04 14:00","2013","06","04","14:00","18.4","","8.2","","51","","6","","15","","24.1","","99.94","","","","","","Mostly Cloudy"
"2013-06-04 15:00","2013","06","04","15:00","19.2","","8.3","","49","","8","","13","","24.1","","99.93","","","","","","Mainly Clear"
"2013-06-04 16:00","2013","06","04","16:00","18.8","","7.4","","47","","9","","17","","24.1","","99.89","","","","","","Mainly Clear"
"2013-06-04 17:00","2013","06","04","17:00","18.9","","6.7","","45","","8","","19","","24.1","","99.93","","","","","","Mostly Cloudy"
"2013-06-04 18:00","2013","06","04","18:00","18.4","","5.7","","43","","8","","13","","24.1","","99.89","","","","","","Mostly Cloudy"
"2013-06-04 19:00","2013","06","04","19:00","17.8","","3.7","","39","","6","","17","","24.1","","99.88","","","","","","Mostly Cloudy"
"2013-06-04 20:00","2013","06","04","20:00","16.1","","1.1","","36","","6","","15","","24.1","","99.94","","","","","","Mostly Cloudy"
"2013-06-04 21:00","2013","06","04","21:00","14.8","","1.2","","40","","6","","11","","24.1","","99.96","","","","","","Mostly Cloudy"
"2013-06-04 22:00","2013","06","04","22:00","14.0","","1.7","","43","","9","","7","","24.1","","99.98","","","","","","Mostly Cloudy"
"2013-06-04 23:00","2013","06","04","23:00","13.0","","3.7","","53","","3","","6","","24.1","","99.95","","","","","","Mainly Clear"
"2013-06-05 00:00","2013","06","05","00:00","12.8","","2.6","","50","","11","","6","","24.1","","99.92","","","","","","Mainly Clear"
"2013-06-05 01:00","2013","06","05","01:00","12.3","","2.7","","52","","","","0","","24.1","","99.94","","","","","","Mainly Clear"
"2013-06-05 02:00","2013","06","05","02:00","12.0","","3.4","","56","","5","","4","","24.1","","99.91","","","","","","Mostly Cloudy"
"2013-06-05 03:00","2013","06","05","03:00","12.0","","4.4","","60","","5","","6","","24.1","","99.88","","","","","","Mostly Cloudy"
"2013-06-05 04:00","2013","06","05","04:00","11.8","","6.9","","72","","4","","13","","24.1","","99.88","","","","","","Mostly Cloudy"
"2013-06-05 05:00","2013","06","05","05:00","12.4","","6.0","","65","","6","","15","","24.1","","99.90","","","","","","Mostly Cloudy"
"2013-06-05 06:00","2013","06","05","06:00","12.8","","7.8","","72","","7","","9","","24.1","","99.89","","","","","","Mostly Cloudy"
"2013-06-05 07:00","2013","06","05","07:00","14.2","","6.4","","59","","8","","15","","24.1","","99.91","","","","","","Mostly Cloudy"
"2013-06-05 08:00","2013","06","05","08:00","14.6","","6.5","","58","","8","","11","","24.1","","99.91","","","","","","Mostly Cloudy"
"2013-06-05 09:00","2013","06","05","09:00","15.9","","7.7","","58","","7","","13","","24.1","","99.91","","","","","","Mostly Cloudy"
"2013-06-05 10:00","2013","06","05","10:00","16.8","","9.7","","63","","7","","11","","24.1","","99.83","","","","","","Mostly Cloudy"
"2013-06-05 11:00","2013","06","05","11:00","17.7","","10.3","","62","","4","","13","","24.1","","99.76","","","","","","Mainly Clear"
"2013-06-05 12:00","2013","06","05","12:00","19.1","","10.6","","58","","5","","17","","24.1","","99.71","","","","","","Mostly Cloudy"
"2013-06-05 13:00","2013","06","05","13:00","20.7","","8.8","","46","","7","","17","","24.1","","99.65","","","","","","Mostly Cloudy"
"2013-06-05 14:00","2013","06","05","14:00","21.2","","8.4","","44","","6","","26","","24.1","","99.60","","","","","","Mostly Cloudy"
"2013-06-05 15:00","2013","06","05","15:00","21.6","","7.8","","41","","6","","26","","24.1","","99.50","","","","","","Mainly Clear"
"2013-06-05 16:00","2013","06","05","16:00","21.4","","4.8","","34","","5","","22","","24.1","","99.48","","","","","","Mostly Cloudy"
"2013-06-05 17:00","2013","06","05","17:00","21.2","","3.1","","30","","5","","26","","24.1","","99.45","","","","","","Mostly Cloudy"
"2013-06-05 18:00","2013","06","05","18:00","21.1","","3.6","","32","","8","","19","","24.1","","99.41","","","","","","Cloudy"
"2013-06-05 19:00","2013","06","05","19:00","19.5","","7.6","","46","","4","","17","","24.1","","99.37","","","","","","Cloudy"
"2013-06-05 20:00","2013","06","05","20:00","17.5","","9.0","","57","","4","","19","","24.1","","99.38","","","","","","Mostly Cloudy"
"2013-06-05 21:00","2013","06","05","21:00","16.3","","9.2","","63","","7","","11","","24.1","","99.37","","","","","","Mainly Clear"
"2013-06-05 22:00","2013","06","05","22:00","14.9","","9.8","","72","","4","","11","","24.1","","99.39","","","","","","Mainly Clear"
"2013-06-05 23:00","2013","06","05","23:00","15.4","","11.2","","76","","8","","7","","24.1","","99.34","","","","","","Mostly Cloudy"
"2013-06-06 00:00","2013","06","06","00:00","16.1","","7.2","","56","","8","","19","","24.1","","99.34","","","","","","Mostly Cloudy"
"2013-06-06 01:00","2013","06","06","01:00","14.9","","7.0","","59","","4","","15","","24.1","","99.28","","","","","","Mostly Cloudy"
"2013-06-06 02:00","2013","06","06","02:00","14.2","","6.0","","58","","4","","19","","24.1","","99.24","","","","","","Mostly Cloudy"
"2013-06-06 03:00","2013","06","06","03:00","13.9","","5.9","","58","","4","","19","","24.1","","99.16","","","","","","Mostly Cloudy"
"2013-06-06 04:00","2013","06","06","04:00","13.9","","5.8","","58","","4","","17","","24.1","","99.13","","","","","","Mostly Cloudy"
"2013-06-06 05:00","2013","06","06","05:00","14.0","","6.6","","61","","3","","22","","24.1","","99.07","","","","","","Mostly Cloudy"
"2013-06-06 06:00","2013","06","06","06:00","13.9","","7.8","","67","","4","","20","","24.1","","99.09","","","","","","Mostly Cloudy"
"2013-06-06 07:00","2013","06","06","07:00","14.3","","7.8","","65","","4","","24","","24.1","","99.00","","","","","","Cloudy"
"2013-06-06 08:00","2013","06","06","08:00","14.5","","7.8","","64","","4","","20","","24.1","","99.00","","","","","","Cloudy"
"2013-06-06 09:00","2013","06","06","09:00","14.8","","8.0","","64","","5","","26","","24.1","","98.97","","","","","","Cloudy"
"2013-06-06 10:00","2013","06","06","10:00","14.8","","8.6","","66","","6","","22","","24.1","","98.99","","","","","","Cloudy"
"2013-06-06 11:00","2013","06","06","11:00","15.5","","9.3","","67","","4","","13","","24.1","","99.05","","","","","","Cloudy"
"2013-06-06 12:00","2013","06","06","12:00","15.9","","9.7","","67","","3","","20","","24.1","","99.01","","","","","","Cloudy"
"2013-06-06 13:00","2013","06","06","13:00","16.7","","10.2","","65","","4","","20","","24.1","","98.92","","","","","","Mostly Cloudy"
"2013-06-06 14:00","2013","06","06","14:00","17.6","","10.8","","64","","4","","22","","24.1","","98.93","","","","","","Cloudy"
"2013-06-06 15:00","2013","06","06","15:00","17.0","","10.7","","66","","4","","24","","24.1","","98.91","","","","","","Cloudy"
"2013-06-06 16:00","2013","06","06","16:00","17.2","","10.7","","66","","2","","28","","24.1","","98.92","","","","","","Mostly Cloudy"
"2013-06-06 17:00","2013","06","06","17:00","17.0","","10.5","","66","","2","","26","","24.1","","98.93","","","","","","Mostly Cloudy"
"2013-06-06 18:00","2013","06","06","18:00","16.2","","10.5","","69","","4","","24","","24.1","","98.92","","","","","","Mostly Cloudy"
"2013-06-06 19:00","2013","06","06","19:00","16.0","","9.7","","66","","3","","24","","24.1","","98.93","","","","","","Mostly Cloudy"
"2013-06-06 20:00","2013","06","06","20:00","15.2","","10.0","","71","","4","","20","","24.1","","98.98","","","","","","Mostly Cloudy"
"2013-06-06 21:00","2013","06","06","21:00","14.8","","10.4","","75","","3","","19","","24.1","","99.00","","","","","","Cloudy"
"2013-06-06 22:00","2013","06","06","22:00","14.7","","10.4","","75","","4","","13","","24.1","","99.02","","","","","","Cloudy"
"2013-06-06 23:00","2013","06","06","23:00","14.7","","10.5","","76","","2","","11","","24.1","","98.98","","","","","","Cloudy"
"2013-06-07 00:00","2013","06","07","00:00","14.6","","9.8","","73","","36","","9","","24.1","","98.96","","","","","","Cloudy"
"2013-06-07 01:00","2013","06","07","01:00","14.3","","9.7","","74","","36","","11","","24.1","","98.95","","","","","","Cloudy"
"2013-06-07 02:00","2013","06","07","02:00","13.1","","9.6","","79","","1","","11","","24.1","","98.96","","","","","","Mainly Clear"
"2013-06-07 03:00","2013","06","07","03:00","11.7","","9.5","","86","","36","","9","","24.1","","98.90","","","","","","Mainly Clear"
"2013-06-07 04:00","2013","06","07","04:00","11.3","","9.5","","89","","36","","11","","24.1","","98.92","","","","","","Mainly Clear"
"2013-06-07 05:00","2013","06","07","05:00","11.8","","9.8","","88","","35","","17","","16.1","","98.95","","","","","","Cloudy"
"2013-06-07 06:00","2013","06","07","06:00","12.4","","9.9","","85","","1","","13","","19.3","","98.97","","","","","","Cloudy"
"2013-06-07 07:00","2013","06","07","07:00","12.5","","9.8","","84","","1","","17","","24.1","","98.99","","","","","","Cloudy"
"2013-06-07 08:00","2013","06","07","08:00","12.5","","9.7","","83","","36","","13","","24.1","","99.01","","","","","","Cloudy"
"2013-06-07 09:00","2013","06","07","09:00","13.1","","10.2","","83","","36","","7","","24.1","","99.04","","","","","","Cloudy"
"2013-06-07 10:00","2013","06","07","10:00","13.0","","10.5","","85","","3","","11","","19.3","","99.03","","","","","","Drizzle"
"2013-06-07 11:00","2013","06","07","11:00","13.5","","10.8","","84","","1","","11","","19.3","","99.04","","","","","","Drizzle"
"2013-06-07 12:00","2013","06","07","12:00","13.9","","10.9","","82","","35","","13","","24.1","","99.02","","","","","","Cloudy"
"2013-06-07 13:00","2013","06","07","13:00","14.4","","11.2","","81","","35","","13","","24.1","","98.99","","","","","","Cloudy"
"2013-06-07 14:00","2013","06","07","14:00","14.9","","10.9","","77","","2","","13","","24.1","","99.00","","","","","","Cloudy"
"2013-06-07 15:00","2013","06","07","15:00","15.4","","11.1","","76","","36","","11","","24.1","","98.97","","","","","","Cloudy"
"2013-06-07 16:00","2013","06","07","16:00","15.6","","11.3","","76","","36","","15","","24.1","","98.96","","","","","","Cloudy"
"2013-06-07 17:00","2013","06","07","17:00","15.7","","11.3","","75","","4","","13","","24.1","","98.95","","","","","","Cloudy"
"2013-06-07 18:00","2013","06","07","18:00","15.3","","11.7","","79","","5","","9","","24.1","","98.94","","","","","","Cloudy"
"2013-06-07 19:00","2013","06","07","19:00","15.1","","11.4","","79","","5","","11","","24.1","","98.96","","","","","","Cloudy"
"2013-06-07 20:00","2013","06","07","20:00","14.9","","11.3","","79","","5","","7","","24.1","","99.01","","","","","","Cloudy"
"2013-06-07 21:00","2013","06","07","21:00","14.8","","11.3","","80","","5","","7","","24.1","","99.03","","","","","","Cloudy"
"2013-06-07 22:00","2013","06","07","22:00","14.6","","11.6","","82","","4","","13","","24.1","","99.05","","","","","","Cloudy"
"2013-06-07 23:00","2013","06","07","23:00","14.2","","11.5","","84","","7","","6","","24.1","","99.05","","","","","","Cloudy"
"2013-06-08 00:00","2013","06","08","00:00","14.2","","11.2","","82","","35","","4","","24.1","","99.04","","","","","","Cloudy"
"2013-06-08 01:00","2013","06","08","01:00","14.4","","10.0","","75","","35","","6","","24.1","","99.04","","","","","","Cloudy"
"2013-06-08 02:00","2013","06","08","02:00","14.3","","10.1","","76","","1","","7","","24.1","","99.04","","","","","","Cloudy"
"2013-06-08 03:00","2013","06","08","03:00","14.3","","9.9","","75","","36","","7","","24.1","","99.04","","","","","","Cloudy"
"2013-06-08 04:00","2013","06","08","04:00","14.1","","10.6","","79","","35","","6","","24.1","","99.05","","","","","","Cloudy"
"2013-06-08 05:00","2013","06","08","05:00","14.1","","10.6","","79","","36","","4","","24.1","","99.12","","","","","","Mostly Cloudy"
"2013-06-08 06:00","2013","06","08","06:00","14.2","","10.7","","79","","35","","6","","24.1","","99.21","","","","","","Mostly Cloudy"
"2013-06-08 07:00","2013","06","08","07:00","14.5","","10.8","","78","","33","","6","","24.1","","99.25","","","","","","Mostly Cloudy"
"2013-06-08 08:00","2013","06","08","08:00","14.8","","10.7","","76","","32","","7","","24.1","","99.31","","","","","","Cloudy"
"2013-06-08 09:00","2013","06","08","09:00","15.2","","10.8","","75","","36","","6","","24.1","","99.35","","","","","","Cloudy"
"2013-06-08 10:00","2013","06","08","10:00","15.7","","11.4","","76","","4","","4","","24.1","","99.36","","","","","","Cloudy"
"2013-06-08 11:00","2013","06","08","11:00","17.0","","11.7","","71","","6","","4","","24.1","","99.40","","","","","","Mostly Cloudy"
"2013-06-08 12:00","2013","06","08","12:00","17.7","","11.0","","65","","30","","4","","24.1","","99.42","","","","","","Cloudy"
"2013-06-08 13:00","2013","06","08","13:00","19.2","","11.9","","63","","","","0","","24.1","","99.36","","","","","","Mostly Cloudy"
"2013-06-08 14:00","2013","06","08","14:00","19.4","","11.1","","59","","17","","6","","24.1","","99.37","","","","","","Mostly Cloudy"
"2013-06-08 15:00","2013","06","08","15:00","19.9","","10.8","","56","","23","","7","","24.1","","99.36","","","","","","Mostly Cloudy"
"2013-06-08 16:00","2013","06","08","16:00","21.2","","11.5","","54","","","","0","","24.1","","99.36","","","","","","Mostly Cloudy"
"2013-06-08 17:00","2013","06","08","17:00","20.3","","12.0","","59","","18","","9","","24.1","","99.39","","","","","","Mostly Cloudy"
"2013-06-08 18:00","2013","06","08","18:00","20.8","","12.1","","57","","16","","11","","24.1","","99.40","","","","","","Mostly Cloudy"
"2013-06-08 19:00","2013","06","08","19:00","19.2","","11.9","","63","","17","","9","","24.1","","99.46","","","","","","Mostly Cloudy"
"2013-06-08 20:00","2013","06","08","20:00","18.0","","11.8","","67","","16","","7","","24.1","","99.49","","","","","","Mostly Cloudy"
"2013-06-08 21:00","2013","06","08","21:00","16.9","","11.6","","71","","15","","9","","24.1","","99.55","","","","","","Mostly Cloudy"
"2013-06-08 22:00","2013","06","08","22:00","15.7","","11.7","","77","","17","","7","","24.1","","99.64","","","","","","Mainly Clear"
"2013-06-08 23:00","2013","06","08","23:00","15.2","","12.3","","83","","18","","6","","24.1","","99.62","","","","","","Mainly Clear"
"2013-06-09 00:00","2013","06","09","00:00","15.0","","12.3","","84","","13","","4","","24.1","","99.65","","","","","","Mainly Clear"
"2013-06-09 01:00","2013","06","09","01:00","13.7","","11.3","","85","","7","","9","","19.3","","99.67","","","","","","Mainly Clear"
"2013-06-09 02:00","2013","06","09","02:00","13.9","","11.4","","85","","9","","6","","19.3","","99.67","","","","","","Mainly Clear"
"2013-06-09 03:00","2013","06","09","03:00","13.9","","11.4","","85","","13","","7","","19.3","","99.68","","","","","","Mainly Clear"
"2013-06-09 04:00","2013","06","09","04:00","14.0","","11.3","","84","","7","","4","","19.3","","99.70","","","","","","Mostly Cloudy"
"2013-06-09 05:00","2013","06","09","05:00","14.0","","11.4","","84","","9","","7","","16.1","","99.73","","","","","","Mostly Cloudy"
"2013-06-09 06:00","2013","06","09","06:00","15.5","","11.7","","78","","9","","6","","16.1","","99.74","","","","","","Cloudy"
"2013-06-09 07:00","2013","06","09","07:00","16.7","","12.0","","74","","9","","9","","24.1","","99.78","","","","","","Mostly Cloudy"
"2013-06-09 08:00","2013","06","09","08:00","18.8","","12.1","","65","","12","","15","","24.1","","99.79","","","","","","Mostly Cloudy"
"2013-06-09 09:00","2013","06","09","09:00","20.2","","12.7","","62","","11","","15","","24.1","","99.77","","","","","","Mostly Cloudy"
"2013-06-09 10:00","2013","06","09","10:00","21.5","","12.6","","57","","13","","19","","24.1","","99.74","","","","","","Mostly Cloudy"
"2013-06-09 11:00","2013","06","09","11:00","22.5","","12.7","","54","","13","","24","","24.1","","99.75","","25","","","","Cloudy"
"2013-06-09 12:00","2013","06","09","12:00","23.2","","13.4","","54","","11","","24","","24.1","","99.69","","26","","","","Cloudy"
"2013-06-09 13:00","2013","06","09","13:00","22.0","","13.0","","57","","11","","19","","24.1","","99.65","","25","","","","Cloudy"
"2013-06-09 14:00","2013","06","09","14:00","21.9","","13.3","","58","","12","","20","","24.1","","99.59","","25","","","","Cloudy"
"2013-06-09 15:00","2013","06","09","15:00","23.8","","13.4","","52","","11","","17","","24.1","","99.53","","27","","","","Mostly Cloudy"
"2013-06-09 16:00","2013","06","09","16:00","24.2","","13.0","","50","","12","","24","","24.1","","99.44","","27","","","","Cloudy"
"2013-06-09 17:00","2013","06","09","17:00","23.3","","13.0","","52","","11","","30","","24.1","","99.40","","26","","","","Cloudy"
"2013-06-09 18:00","2013","06","09","18:00","22.8","","13.0","","54","","10","","28","","24.1","","99.37","","26","","","","Cloudy"
"2013-06-09 19:00","2013","06","09","19:00","21.5","","11.1","","52","","11","","24","","24.1","","99.35","","","","","","Cloudy"
"2013-06-09 20:00","2013","06","09","20:00","20.1","","9.4","","50","","11","","22","","24.1","","99.33","","","","","","Cloudy"
"2013-06-09 21:00","2013","06","09","21:00","19.2","","9.5","","53","","10","","22","","24.1","","99.35","","","","","","Cloudy"
"2013-06-09 22:00","2013","06","09","22:00","19.1","","10.4","","57","","11","","20","","24.1","","99.33","","","","","","Cloudy"
"2013-06-09 23:00","2013","06","09","23:00","16.8","","12.1","","74","","12","","22","","24.1","","99.27","","","","","","Rain"
"2013-06-10 00:00","2013","06","10","00:00","15.5","","13.9","","90","","13","","11","","9.7","","99.24","","","","","","Rain"
"2013-06-10 01:00","2013","06","10","01:00","15.9","","14.7","","93","","6","","15","","16.1","","99.13","","","","","","Cloudy"
"2013-06-10 02:00","2013","06","10","02:00","16.6","","14.4","","87","","6","","9","","24.1","","99.09","","","","","","Cloudy"
"2013-06-10 03:00","2013","06","10","03:00","16.7","","14.5","","87","","6","","7","","24.1","","99.05","","","","","","Cloudy"
"2013-06-10 04:00","2013","06","10","04:00","16.7","","15.2","","91","","2","","7","","19.3","","98.97","","","","","","Rain"
"2013-06-10 05:00","2013","06","10","05:00","16.5","","15.1","","91","","4","","11","","11.3","","98.94","","","","","","Rain"
"2013-06-10 06:00","2013","06","10","06:00","16.6","","15.5","","93","","5","","9","","8.0","","98.90","","","","","","Rain,Fog"
"2013-06-10 07:00","2013","06","10","07:00","17.3","","16.1","","93","","4","","7","","9.7","","98.87","","","","","","Rain,Fog"
"2013-06-10 08:00","2013","06","10","08:00","18.4","","17.1","","92","","9","","7","","6.4","","98.83","","","","","","Rain,Fog"
"2013-06-10 09:00","2013","06","10","09:00","19.1","","18.1","","94","","15","","11","","4.0","","98.79","","","","","","Rain,Fog"
"2013-06-10 10:00","2013","06","10","10:00","19.1","","18.1","","94","","16","","13","","6.4","","98.75","","","","","","Rain,Fog"
"2013-06-10 11:00","2013","06","10","11:00","19.2","","18.2","","94","","13","","13","","6.4","","98.73","","","","","","Rain,Fog"
"2013-06-10 12:00","2013","06","10","12:00","20.3","","19.0","","92","","12","","7","","9.7","","98.65","","27","","","","Rain,Fog"
"2013-06-10 13:00","2013","06","10","13:00","20.3","","18.8","","91","","12","","4","","19.3","","98.63","","27","","","","Rain"
"2013-06-10 14:00","2013","06","10","14:00","21.1","","19.3","","89","","","","0","","24.1","","98.57","","28","","","","Rain"
"2013-06-10 15:00","2013","06","10","15:00","19.2","","18.1","","93","","31","","22","","8.0","","98.58","","","","","","Moderate Rain,Fog"
"2013-06-10 16:00","2013","06","10","16:00","19.0","","17.7","","92","","","","0","","8.0","","98.57","","","","","","Rain,Fog"
"2013-06-10 17:00","2013","06","10","17:00","19.1","","17.6","","91","","","","0","","9.7","","98.51","","","","","","Rain,Fog"
"2013-06-10 18:00","2013","06","10","18:00","19.4","","18.0","","92","","29","","6","","12.9","","98.49","","","","","","Rain"
"2013-06-10 19:00","2013","06","10","19:00","19.0","","17.7","","92","","20","","4","","12.9","","98.54","","","","","","Rain"
"2013-06-10 20:00","2013","06","10","20:00","19.0","","17.8","","93","","","","0","","11.3","","98.55","","","","","","Rain"
"2013-06-10 21:00","2013","06","10","21:00","18.7","","17.7","","94","","21","","7","","9.7","","98.54","","","","","","Rain,Fog"
"2013-06-10 22:00","2013","06","10","22:00","18.3","","17.4","","94","","29","","4","","12.9","","98.54","","","","","","Cloudy"
"2013-06-10 23:00","2013","06","10","23:00","17.9","","17.2","","96","","24","","4","","11.3","","98.55","","","","","","Mainly Clear"
"2013-06-11 00:00","2013","06","11","00:00","17.7","","16.8","","94","","24","","7","","8.0","","98.59","","","","","","Fog"
"2013-06-11 01:00","2013","06","11","01:00","17.7","","17.0","","96","","27","","6","","6.4","","98.61","","","","","","Fog"
"2013-06-11 02:00","2013","06","11","02:00","17.4","","16.8","","96","","29","","4","","3.2","","98.61","","","","","","Fog"
"2013-06-11 03:00","2013","06","11","03:00","18.1","","17.3","","95","","32","","9","","9.7","","98.65","","","","","","Fog"
"2013-06-11 04:00","2013","06","11","04:00","18.5","","17.2","","92","","33","","13","","12.9","","98.67","","","","","","Mostly Cloudy"
"2013-06-11 05:00","2013","06","11","05:00","18.3","","17.1","","93","","29","","11","","11.3","","98.77","","","","","","Mostly Cloudy"
"2013-06-11 06:00","2013","06","11","06:00","18.3","","16.8","","91","","29","","13","","12.9","","98.83","","","","","","Mostly Cloudy"
"2013-06-11 07:00","2013","06","11","07:00","19.2","","17.1","","88","","32","","11","","11.3","","98.88","","","","","","Mostly Cloudy"
"2013-06-11 08:00","2013","06","11","08:00","18.9","","17.0","","89","","30","","15","","12.9","","98.94","","","","","","Cloudy"
"2013-06-11 09:00","2013","06","11","09:00","20.3","","17.3","","83","","29","","13","","12.9","","98.94","","26","","","","Mostly Cloudy"
"2013-06-11 10:00","2013","06","11","10:00","21.7","","17.5","","77","","32","","15","","16.1","","98.91","","27","","","","Mostly Cloudy"
"2013-06-11 11:00","2013","06","11","11:00","24.0","","18.0","","69","","31","","19","","19.3","","98.94","","30","","","","Mostly Cloudy"
"2013-06-11 12:00","2013","06","11","12:00","24.7","","16.4","","60","","31","","20","","24.1","","98.95","","30","","","","Mostly Cloudy"
"2013-06-11 13:00","2013","06","11","13:00","25.6","","17.0","","59","","32","","20","","24.1","","98.93","","31","","","","Mostly Cloudy"
"2013-06-11 14:00","2013","06","11","14:00","25.3","","16.7","","59","","28","","17","","24.1","","98.88","","30","","","","Mostly Cloudy"
"2013-06-11 15:00","2013","06","11","15:00","26.6","","16.5","","54","","25","","15","","24.1","","98.83","","32","","","","Mostly Cloudy"
"2013-06-11 16:00","2013","06","11","16:00","27.5","","16.8","","52","","28","","11","","24.1","","98.80","","33","","","","Mostly Cloudy"
"2013-06-11 17:00","2013","06","11","17:00","27.2","","15.9","","50","","28","","17","","24.1","","98.81","","32","","","","Mostly Cloudy"
"2013-06-11 18:00","2013","06","11","18:00","26.6","","16.5","","54","","28","","15","","24.1","","98.76","","32","","","","Mostly Cloudy"
"2013-06-11 19:00","2013","06","11","19:00","26.2","","16.8","","56","","28","","11","","24.1","","98.80","","31","","","","Cloudy"
"2013-06-11 20:00","2013","06","11","20:00","25.5","","17.3","","60","","8","","9","","24.1","","98.80","","31","","","","Cloudy"
"2013-06-11 21:00","2013","06","11","21:00","23.0","","17.5","","71","","7","","11","","24.1","","98.84","","29","","","","Mostly Cloudy"
"2013-06-11 22:00","2013","06","11","22:00","21.5","","17.7","","79","","7","","6","","24.1","","98.88","","27","","","","Mostly Cloudy"
"2013-06-11 23:00","2013","06","11","23:00","21.1","","17.6","","80","","22","","4","","24.1","","98.86","","27","","","","Clear"
"2013-06-12 00:00","2013","06","12","00:00","21.5","","17.1","","76","","27","","7","","24.1","","98.87","","27","","","","Clear"
"2013-06-12 01:00","2013","06","12","01:00","21.5","","16.7","","74","","31","","9","","24.1","","98.87","","27","","","","Clear"
"2013-06-12 02:00","2013","06","12","02:00","20.8","","16.3","","75","","32","","9","","24.1","","98.84","","26","","","","Clear"
"2013-06-12 03:00","2013","06","12","03:00","19.3","","15.8","","80","","32","","6","","24.1","","98.85","","","","","","Clear"
"2013-06-12 04:00","2013","06","12","04:00","18.8","","15.7","","82","","34","","6","","24.1","","98.91","","","","","","Clear"
"2013-06-12 05:00","2013","06","12","05:00","18.3","","15.9","","86","","31","","4","","19.3","","98.99","","","","","","Mainly Clear"
"2013-06-12 06:00","2013","06","12","06:00","19.3","","16.3","","83","","9","","4","","12.9","","98.99","","","","","","Mostly Cloudy"
"2013-06-12 07:00","2013","06","12","07:00","20.2","","17.0","","82","","24","","4","","16.1","","99.02","","25","","","","Mainly Clear"
"2013-06-12 08:00","2013","06","12","08:00","21.6","","17.5","","78","","5","","6","","16.1","","98.98","","27","","","","Mostly Cloudy"
"2013-06-12 09:00","2013","06","12","09:00","21.4","","17.8","","80","","","","0","","9.7","","99.06","","27","","","","Haze"
"2013-06-12 10:00","2013","06","12","10:00","22.2","","18.5","","80","","13","","6","","9.7","","99.00","","29","","","","Haze"
"2013-06-12 11:00","2013","06","12","11:00","22.8","","18.5","","77","","23","","9","","9.7","","99.14","","29","","","","Haze"
"2013-06-12 12:00","2013","06","12","12:00","22.5","","18.5","","78","","10","","7","","9.7","","98.87","","29","","","","Haze"
"2013-06-12 13:00","2013","06","12","13:00","22.5","","19.4","","83","","18","","17","","9.7","","98.80","","30","","","","Haze"
"2013-06-12 14:00","2013","06","12","14:00","22.4","","18.3","","78","","18","","7","","9.7","","98.88","","29","","","","Rain Showers,Haze"
"2013-06-12 15:00","2013","06","12","15:00","22.6","","17.8","","74","","18","","4","","9.7","","98.85","","28","","","","Haze"
"2013-06-12 16:00","2013","06","12","16:00","22.8","","18.1","","75","","","","0","","8.0","","98.79","","29","","","","Haze"
"2013-06-12 17:00","2013","06","12","17:00","22.6","","18.6","","78","","9","","6","","9.7","","98.78","","29","","","","Haze"
"2013-06-12 18:00","2013","06","12","18:00","20.9","","19.7","","93","","12","","11","","6.4","","98.70","","28","","","","Rain Showers,Fog"
"2013-06-12 19:00","2013","06","12","19:00","20.3","","18.9","","92","","5","","19","","6.4","","98.60","","27","","","","Rain Showers,Fog"
"2013-06-12 20:00","2013","06","12","20:00","19.9","","18.7","","93","","9","","6","","4.8","","98.55","","","","","","Thunderstorms,Rain Showers,Fog"
"2013-06-12 21:00","2013","06","12","21:00","19.2","","18.0","","93","","10","","11","","6.4","","98.50","","","","","","Fog"
"2013-06-12 22:00","2013","06","12","22:00","18.1","","16.7","","92","","10","","15","","8.0","","98.34","","","","","","Fog"
"2013-06-12 23:00","2013","06","12","23:00","17.8","","16.3","","91","","","","0","","9.7","","98.25","","","","","","Thunderstorms,Rain Showers,Fog"
"2013-06-13 00:00","2013","06","13","00:00","17.9","","16.5","","92","","3","","17","","9.7","","98.12","","","","","","Thunderstorms,Rain Showers,Fog"
"2013-06-13 01:00","2013","06","13","01:00","17.7","","16.8","","94","","4","","19","","4.8","","98.02","","","","","","Thunderstorms,Rain Showers,Fog"
"2013-06-13 02:00","2013","06","13","02:00","17.4","","16.7","","96","","36","","15","","4.8","","97.96","","","","","","Rain Showers,Fog"
"2013-06-13 03:00","2013","06","13","03:00","17.1","","16.4","","96","","3","","24","","4.8","","97.82","","","","","","Rain Showers,Fog"
"2013-06-13 04:00","2013","06","13","04:00","17.0","","15.9","","93","","3","","24","","8.0","","97.85","","","","","","Rain Showers,Fog"
"2013-06-13 05:00","2013","06","13","05:00","17.0","","15.8","","93","","36","","19","","4.8","","98.01","","","","","","Rain Showers,Fog"
"2013-06-13 06:00","2013","06","13","06:00","17.6","","16.4","","93","","36","","20","","8.0","","98.11","","","","","","Rain Showers,Fog"
"2013-06-13 07:00","2013","06","13","07:00","17.0","","14.5","","85","","35","","17","","11.3","","98.22","","","","","","Rain"
"2013-06-13 08:00","2013","06","13","08:00","17.4","","14.5","","83","","36","","19","","24.1","","98.30","","","","","","Mostly Cloudy"
"2013-06-13 09:00","2013","06","13","09:00","17.7","","14.1","","79","","34","","17","","24.1","","98.37","","","","","","Mostly Cloudy"
"2013-06-13 10:00","2013","06","13","10:00","19.9","","14.1","","69","","2","","22","","24.1","","98.37","","","","","","Mostly Cloudy"
"2013-06-13 11:00","2013","06","13","11:00","21.2","","14.0","","63","","1","","20","","24.1","","98.49","","25","","","","Mostly Cloudy"
"2013-06-13 12:00","2013","06","13","12:00","23.2","","13.8","","55","","33","","22","","24.1","","98.50","","26","","","","Mostly Cloudy"
"2013-06-13 13:00","2013","06","13","13:00","23.8","","13.6","","53","","2","","26","","24.1","","98.51","","27","","","","Mostly Cloudy"
"2013-06-13 14:00","2013","06","13","14:00","24.6","","13.6","","50","","1","","24","","24.1","","98.60","","28","","","","Mostly Cloudy"
"2013-06-13 15:00","2013","06","13","15:00","24.1","","13.1","","50","","35","","24","","24.1","","98.65","","27","","","","Mainly Clear"
"2013-06-13 16:00","2013","06","13","16:00","24.0","","12.8","","50","","36","","28","","24.1","","98.67","","27","","","","Mainly Clear"
"2013-06-13 17:00","2013","06","13","17:00","23.7","","11.9","","48","","34","","26","","24.1","","98.72","","26","","","","Mainly Clear"
"2013-06-13 18:00","2013","06","13","18:00","23.6","","12.5","","50","","2","","24","","24.1","","98.74","","26","","","","Mainly Clear"
"2013-06-13 19:00","2013","06","13","19:00","22.6","","10.8","","47","","1","","28","","24.1","","98.84","","","","","","Mainly Clear"
"2013-06-13 20:00","2013","06","13","20:00","21.1","","11.7","","55","","1","","17","","24.1","","98.90","","","","","","Mainly Clear"
"2013-06-13 21:00","2013","06","13","21:00","20.6","","11.4","","56","","36","","13","","24.1","","98.95","","","","","","Clear"
"2013-06-13 22:00","2013","06","13","22:00","19.5","","11.5","","60","","1","","15","","24.1","","99.03","","","","","","Clear"
"2013-06-13 23:00","2013","06","13","23:00","19.1","","11.8","","63","","36","","15","","24.1","","99.05","","","","","","Clear"
"2013-06-14 00:00","2013","06","14","00:00","18.0","","12.2","","69","","35","","17","","24.1","","99.08","","","","","","Clear"
"2013-06-14 01:00","2013","06","14","01:00","17.5","","12.3","","72","","33","","17","","24.1","","99.12","","","","","","Clear"
"2013-06-14 02:00","2013","06","14","02:00","17.0","","12.4","","74","","36","","15","","24.1","","99.10","","","","","","Clear"
"2013-06-14 03:00","2013","06","14","03:00","16.3","","12.6","","79","","35","","15","","24.1","","99.12","","","","","","Clear"
"2013-06-14 04:00","2013","06","14","04:00","15.8","","12.3","","80","","35","","13","","24.1","","99.13","","","","","","Clear"
"2013-06-14 05:00","2013","06","14","05:00","15.8","","12.0","","78","","36","","13","","24.1","","99.19","","","","","","Clear"
"2013-06-14 06:00","2013","06","14","06:00","15.7","","11.5","","76","","36","","17","","24.1","","99.28","","","","","","Clear"
"2013-06-14 07:00","2013","06","14","07:00","16.2","","11.4","","73","","1","","13","","24.1","","99.35","","","","","","Clear"
"2013-06-14 08:00","2013","06","14","08:00","17.2","","11.5","","69","","1","","17","","24.1","","99.46","","","","","","Clear"
"2013-06-14 09:00","2013","06","14","09:00","18.0","","11.5","","66","","34","","17","","24.1","","99.48","","","","","","Clear"
"2013-06-14 10:00","2013","06","14","10:00","19.1","","11.7","","62","","34","","17","","24.1","","99.53","","","","","","Clear"
"2013-06-14 11:00","2013","06","14","11:00","20.8","","12.3","","58","","34","","22","","24.1","","99.54","","","","","","Clear"
"2013-06-14 12:00","2013","06","14","12:00","21.2","","12.0","","56","","1","","15","","24.1","","99.55","","","","","","Clear"
"2013-06-14 13:00","2013","06","14","13:00","21.6","","12.3","","55","","4","","13","","24.1","","99.53","","","","","","Mainly Clear"
"2013-06-14 14:00","2013","06","14","14:00","22.5","","12.5","","53","","5","","19","","24.1","","99.50","","25","","","","Mainly Clear"
"2013-06-14 15:00","2013","06","14","15:00","22.4","","12.8","","55","","6","","19","","24.1","","99.49","","25","","","","Mainly Clear"
"2013-06-14 16:00","2013","06","14","16:00","22.2","","12.2","","53","","5","","19","","19.3","","99.46","","25","","","","Mainly Clear"
"2013-06-14 17:00","2013","06","14","17:00","22.5","","12.4","","53","","8","","17","","19.3","","99.47","","25","","","","Mainly Clear"
"2013-06-14 18:00","2013","06","14","18:00","22.1","","11.9","","52","","7","","13","","24.1","","99.49","","","","","","Mainly Clear"
"2013-06-14 19:00","2013","06","14","19:00","20.4","","12.7","","61","","8","","11","","24.1","","99.51","","","","","","Mainly Clear"
"2013-06-14 20:00","2013","06","14","20:00","18.8","","12.8","","68","","9","","7","","24.1","","99.49","","","","","","Clear"
"2013-06-14 21:00","2013","06","14","21:00","17.9","","12.5","","71","","7","","7","","24.1","","99.56","","","","","","Clear"
"2013-06-14 22:00","2013","06","14","22:00","16.7","","11.8","","73","","8","","4","","24.1","","99.62","","","","","","Clear"
"2013-06-14 23:00","2013","06","14","23:00","15.3","","11.9","","80","","18","","4","","24.1","","99.59","","","","","","Clear"
"2013-06-15 00:00","2013","06","15","00:00","14.9","","11.8","","82","","14","","4","","24.1","","99.53","","","","","","Clear"
"2013-06-15 01:00","2013","06","15","01:00","14.1","","11.7","","85","","11","","7","","24.1","","99.47","","","","","","Clear"
"2013-06-15 02:00","2013","06","15","02:00","13.5","","11.5","","88","","","","0","","24.1","","99.51","","","","","","Clear"
"2013-06-15 03:00","2013","06","15","03:00","13.5","","11.1","","85","","","","0","","24.1","","99.54","","","","","","Clear"
"2013-06-15 04:00","2013","06","15","04:00","13.3","","11.2","","87","","","","0","","24.1","","99.55","","","","","","Mainly Clear"
"2013-06-15 05:00","2013","06","15","05:00","13.1","","11.4","","89","","","","0","","24.1","","99.56","","","","","","Mostly Cloudy"
"2013-06-15 06:00","2013","06","15","06:00","14.7","","12.6","","87","","","","0","","16.1","","99.63","","","","","","Mostly Cloudy"
"2013-06-15 07:00","2013","06","15","07:00","17.8","","14.3","","80","","27","","4","","24.1","","99.65","","","","","","Mostly Cloudy"
"2013-06-15 08:00","2013","06","15","08:00","19.1","","13.7","","71","","25","","19","","24.1","","99.66","","","","","","Mostly Cloudy"
"2013-06-15 09:00","2013","06","15","09:00","21.6","","14.9","","66","","24","","15","","24.1","","99.60","","26","","","","Mostly Cloudy"
"2013-06-15 10:00","2013","06","15","10:00","23.0","","15.0","","61","","23","","15","","24.1","","99.52","","27","","","","Mostly Cloudy"
"2013-06-15 11:00","2013","06","15","11:00","24.4","","15.5","","58","","24","","13","","24.1","","99.48","","29","","","","Cloudy"
"2013-06-15 12:00","2013","06","15","12:00","24.4","","15.8","","59","","20","","15","","24.1","","99.39","","29","","","","Mostly Cloudy"
"2013-06-15 13:00","2013","06","15","13:00","24.8","","15.3","","56","","23","","17","","24.1","","99.38","","29","","","","Mostly Cloudy"
"2013-06-15 14:00","2013","06","15","14:00","24.3","","15.5","","58","","19","","17","","24.1","","99.36","","29","","","","Mostly Cloudy"
"2013-06-15 15:00","2013","06","15","15:00","25.1","","14.4","","51","","22","","24","","19.3","","99.38","","29","","","","Mostly Cloudy"
"2013-06-15 16:00","2013","06","15","16:00","24.9","","15.0","","54","","21","","20","","24.1","","99.34","","29","","","","Mostly Cloudy"
"2013-06-15 17:00","2013","06","15","17:00","24.2","","15.6","","59","","21","","19","","19.3","","99.31","","29","","","","Rain Showers"
"2013-06-15 18:00","2013","06","15","18:00","22.3","","16.1","","68","","23","","28","","16.1","","99.29","","27","","","","Rain Showers"
"2013-06-15 19:00","2013","06","15","19:00","22.2","","13.8","","59","","23","","17","","19.3","","99.24","","25","","","","Mostly Cloudy"
"2013-06-15 20:00","2013","06","15","20:00","21.5","","15.3","","68","","24","","9","","19.3","","99.20","","26","","","","Mostly Cloudy"
"2013-06-15 21:00","2013","06","15","21:00","21.2","","15.9","","72","","23","","7","","24.1","","99.23","","26","","","","Mostly Cloudy"
"2013-06-15 22:00","2013","06","15","22:00","19.5","","16.0","","80","","19","","11","","24.1","","99.22","","","","","","Mostly Cloudy"
"2013-06-15 23:00","2013","06","15","23:00","19.5","","16.0","","80","","16","","11","","24.1","","99.11","","","","","","Mostly Cloudy"
"2013-06-16 00:00","2013","06","16","00:00","18.8","","16.7","","88","","20","","9","","24.1","","99.05","","","","","","Mostly Cloudy"
"2013-06-16 01:00","2013","06","16","01:00","18.6","","16.6","","88","","20","","7","","19.3","","98.97","","","","","","Mostly Cloudy"
"2013-06-16 02:00","2013","06","16","02:00","19.0","","16.5","","85","","19","","13","","19.3","","98.84","","","","","","Mostly Cloudy"
"2013-06-16 03:00","2013","06","16","03:00","19.8","","16.7","","82","","21","","15","","19.3","","98.84","","","","","","Rain Showers"
"2013-06-16 04:00","2013","06","16","04:00","19.1","","17.4","","90","","22","","20","","6.4","","98.80","","","","","","Thunderstorms,Moderate Rain Showers,Fog"
"2013-06-16 05:00","2013","06","16","05:00","19.0","","17.6","","92","","23","","28","","6.4","","98.65","","","","","","Fog"
"2013-06-16 06:00","2013","06","16","06:00","19.3","","18.0","","92","","24","","20","","8.0","","98.64","","","","","","Fog"
"2013-06-16 07:00","2013","06","16","07:00","20.0","","18.0","","88","","26","","22","","19.3","","98.67","","26","","","","Mostly Cloudy"
"2013-06-16 08:00","2013","06","16","08:00","20.7","","17.7","","83","","28","","28","","24.1","","98.74","","26","","","","Cloudy"
"2013-06-16 09:00","2013","06","16","09:00","21.4","","17.4","","78","","29","","28","","24.1","","98.79","","27","","","","Mostly Cloudy"
"2013-06-16 10:00","2013","06","16","10:00","22.2","","17.4","","74","","29","","20","","24.1","","98.83","","28","","","","Mostly Cloudy"
"2013-06-16 11:00","2013","06","16","11:00","23.4","","17.2","","68","","28","","19","","24.1","","98.82","","29","","","","Mostly Cloudy"
"2013-06-16 12:00","2013","06","16","12:00","24.8","","17.2","","63","","30","","19","","24.1","","98.85","","30","","","","Mostly Cloudy"
"2013-06-16 13:00","2013","06","16","13:00","25.3","","17.1","","60","","28","","17","","24.1","","98.87","","31","","","","Mostly Cloudy"
"2013-06-16 14:00","2013","06","16","14:00","26.8","","17.5","","57","","25","","20","","24.1","","98.85","","32","","","","Mainly Clear"
"2013-06-16 15:00","2013","06","16","15:00","26.9","","17.4","","56","","25","","20","","24.1","","98.84","","32","","","","Mostly Cloudy"
"2013-06-16 16:00","2013","06","16","16:00","27.4","","17.1","","53","","29","","19","","24.1","","98.85","","33","","","","Mostly Cloudy"
"2013-06-16 17:00","2013","06","16","17:00","27.9","","17.5","","53","","25","","22","","24.1","","98.81","","34","","","","Mostly Cloudy"
"2013-06-16 18:00","2013","06","16","18:00","27.3","","16.7","","52","","27","","22","","24.1","","98.79","","32","","","","Mainly Clear"
"2013-06-16 19:00","2013","06","16","19:00","27.2","","14.5","","46","","30","","30","","24.1","","98.84","","31","","","","Mainly Clear"
"2013-06-16 20:00","2013","06","16","20:00","25.7","","10.4","","38","","29","","20","","24.1","","98.90","","27","","","","Mainly Clear"
"2013-06-16 21:00","2013","06","16","21:00","24.3","","10.9","","43","","29","","15","","24.1","","98.93","","26","","","","Clear"
"2013-06-16 22:00","2013","06","16","22:00","23.0","","11.0","","47","","28","","11","","24.1","","98.97","","25","","","","Clear"
"2013-06-16 23:00","2013","06","16","23:00","21.2","","11.3","","53","","25","","7","","24.1","","99.00","","","","","","Clear"
"2013-06-17 00:00","2013","06","17","00:00","20.7","","11.3","","55","","25","","11","","24.1","","99.00","","","","","","Clear"
"2013-06-17 01:00","2013","06","17","01:00","19.5","","11.7","","61","","25","","13","","24.1","","99.02","","","","","","Clear"
"2013-06-17 02:00","2013","06","17","02:00","19.2","","11.9","","63","","25","","11","","24.1","","98.98","","","","","","Clear"
"2013-06-17 03:00","2013","06","17","03:00","18.7","","12.3","","66","","25","","11","","24.1","","98.97","","","","","","Clear"
"2013-06-17 04:00","2013","06","17","04:00","17.8","","12.5","","71","","24","","11","","24.1","","98.97","","","","","","Mainly Clear"
"2013-06-17 05:00","2013","06","17","05:00","17.5","","12.8","","74","","25","","11","","24.1","","99.03","","","","","","Mainly Clear"
"2013-06-17 06:00","2013","06","17","06:00","19.1","","13.2","","69","","27","","9","","24.1","","99.09","","","","","","Mainly Clear"
"2013-06-17 07:00","2013","06","17","07:00","20.9","","14.3","","66","","27","","11","","24.1","","99.09","","","","","","Clear"
"2013-06-17 08:00","2013","06","17","08:00","22.5","","14.0","","59","","20","","7","","24.1","","99.08","","26","","","","Clear"
"2013-06-17 09:00","2013","06","17","09:00","24.4","","15.3","","57","","26","","11","","24.1","","99.10","","29","","","","Mainly Clear"
"2013-06-17 10:00","2013","06","17","10:00","26.0","","16.7","","57","","31","","17","","24.1","","99.09","","31","","","","Mainly Clear"
"2013-06-17 11:00","2013","06","17","11:00","26.2","","16.1","","54","","24","","6","","24.1","","99.09","","31","","","","Mainly Clear"
"2013-06-17 12:00","2013","06","17","12:00","25.5","","16.5","","58","","8","","13","","24.1","","99.08","","30","","","","Mostly Cloudy"
"2013-06-17 13:00","2013","06","17","13:00","26.6","","17.1","","56","","9","","13","","24.1","","99.03","","32","","","","Mainly Clear"
"2013-06-17 14:00","2013","06","17","14:00","26.9","","16.2","","52","","8","","13","","24.1","","98.99","","32","","","","Mostly Cloudy"
"2013-06-17 15:00","2013","06","17","15:00","26.9","","16.4","","53","","8","","7","","24.1","","98.96","","32","","","","Mostly Cloudy"
"2013-06-17 16:00","2013","06","17","16:00","28.2","","16.4","","49","","13","","11","","24.1","","98.88","","33","","","","Mostly Cloudy"
"2013-06-17 17:00","2013","06","17","17:00","26.5","","18.6","","62","","5","","17","","24.1","","98.88","","33","","","","Mostly Cloudy"
"2013-06-17 18:00","2013","06","17","18:00","21.6","","15.6","","69","","9","","20","","24.1","","98.93","","26","","","","Mostly Cloudy"
"2013-06-17 19:00","2013","06","17","19:00","22.1","","15.9","","68","","11","","17","","24.1","","98.88","","27","","","","Mostly Cloudy"
"2013-06-17 20:00","2013","06","17","20:00","20.1","","16.1","","78","","4","","28","","24.1","","99.03","","25","","","","Rain Showers"
"2013-06-17 21:00","2013","06","17","21:00","18.2","","14.6","","80","","9","","17","","24.1","","99.00","","","","","","Mostly Cloudy"
"2013-06-17 22:00","2013","06","17","22:00","17.7","","14.4","","81","","11","","7","","24.1","","99.05","","","","","","Cloudy"
"2013-06-17 23:00","2013","06","17","23:00","17.3","","13.9","","80","","4","","13","","24.1","","99.09","","","","","","Mostly Cloudy"
"2013-06-18 00:00","2013","06","18","00:00","17.1","","15.0","","87","","6","","13","","24.1","","99.06","","","","","","Mostly Cloudy"
"2013-06-18 01:00","2013","06","18","01:00","16.0","","14.4","","90","","36","","22","","12.9","","99.08","","","","","","Thunderstorms,Rain Showers"
"2013-06-18 02:00","2013","06","18","02:00","15.6","","14.5","","93","","4","","9","","19.3","","99.04","","","","","","Mostly Cloudy"
"2013-06-18 03:00","2013","06","18","03:00","15.4","","13.9","","91","","3","","17","","19.3","","99.07","","","","","","Mostly Cloudy"
"2013-06-18 04:00","2013","06","18","04:00","14.8","","13.3","","91","","1","","11","","19.3","","99.09","","","","","","Mostly Cloudy"
"2013-06-18 05:00","2013","06","18","05:00","14.2","","12.6","","90","","2","","17","","24.1","","99.11","","","","","","Mostly Cloudy"
"2013-06-18 06:00","2013","06","18","06:00","14.2","","12.2","","88","","1","","20","","24.1","","99.17","","","","","","Mostly Cloudy"
"2013-06-18 07:00","2013","06","18","07:00","14.9","","11.9","","82","","2","","24","","24.1","","99.23","","","","","","Mainly Clear"
"2013-06-18 08:00","2013","06","18","08:00","16.5","","12.8","","79","","4","","20","","24.1","","99.29","","","","","","Mainly Clear"
"2013-06-18 09:00","2013","06","18","09:00","17.6","","12.7","","73","","3","","22","","24.1","","99.32","","","","","","Mainly Clear"
"2013-06-18 10:00","2013","06","18","10:00","18.6","","12.6","","68","","4","","24","","24.1","","99.33","","","","","","Mainly Clear"
"2013-06-18 11:00","2013","06","18","11:00","20.2","","13.3","","65","","3","","26","","24.1","","99.34","","","","","","Mainly Clear"
"2013-06-18 12:00","2013","06","18","12:00","20.2","","13.1","","64","","4","","30","","24.1","","99.35","","","","","","Mainly Clear"
"2013-06-18 13:00","2013","06","18","13:00","19.9","","12.7","","63","","5","","26","","24.1","","99.37","","","","","","Mainly Clear"
"2013-06-18 14:00","2013","06","18","14:00","20.2","","11.9","","59","","5","","30","","24.1","","99.37","","","","","","Mainly Clear"
"2013-06-18 15:00","2013","06","18","15:00","21.0","","11.3","","54","","3","","24","","24.1","","99.37","","","","","","Mostly Cloudy"
"2013-06-18 16:00","2013","06","18","16:00","20.5","","11.7","","57","","4","","28","","24.1","","99.36","","","","","","Mostly Cloudy"
"2013-06-18 17:00","2013","06","18","17:00","19.8","","11.0","","57","","5","","32","","24.1","","99.37","","","","","","Mostly Cloudy"
"2013-06-18 18:00","2013","06","18","18:00","19.1","","9.9","","55","","5","","26","","24.1","","99.39","","","","","","Mostly Cloudy"
"2013-06-18 19:00","2013","06","18","19:00","18.7","","9.2","","54","","5","","28","","24.1","","99.45","","","","","","Mostly Cloudy"
"2013-06-18 20:00","2013","06","18","20:00","17.1","","7.8","","54","","4","","22","","24.1","","99.49","","","","","","Mainly Clear"
"2013-06-18 21:00","2013","06","18","21:00","16.2","","5.0","","47","","2","","19","","24.1","","99.55","","","","","","Mainly Clear"
"2013-06-18 22:00","2013","06","18","22:00","14.9","","4.8","","51","","1","","13","","24.1","","99.61","","","","","","Clear"
"2013-06-18 23:00","2013","06","18","23:00","14.1","","4.3","","52","","2","","11","","24.1","","99.60","","","","","","Clear"
"2013-06-19 00:00","2013","06","19","00:00","14.3","","6.8","","61","","4","","20","","24.1","","99.60","","","","","","Clear"
"2013-06-19 01:00","2013","06","19","01:00","13.8","","7.8","","67","","4","","19","","24.1","","99.60","","","","","","Clear"
"2013-06-19 02:00","2013","06","19","02:00","13.5","","7.6","","67","","3","","17","","24.1","","99.64","","","","","","Clear"
"2013-06-19 03:00","2013","06","19","03:00","13.0","","8.0","","72","","5","","15","","24.1","","99.65","","","","","","Clear"
"2013-06-19 04:00","2013","06","19","04:00","11.3","","7.3","","76","","1","","4","","24.1","","99.68","","","","","","Mainly Clear"
"2013-06-19 05:00","2013","06","19","05:00","11.0","","7.7","","80","","5","","11","","24.1","","99.73","","","","","","Mainly Clear"
"2013-06-19 06:00","2013","06","19","06:00","12.3","","8.7","","79","","4","","11","","24.1","","99.81","","","","","","Clear"
"2013-06-19 07:00","2013","06","19","07:00","14.9","","8.2","","64","","5","","17","","24.1","","99.87","","","","","","Clear"
"2013-06-19 08:00","2013","06","19","08:00","16.0","","8.6","","61","","6","","15","","24.1","","99.91","","","","","","Clear"
"2013-06-19 09:00","2013","06","19","09:00","17.2","","9.5","","61","","5","","11","","24.1","","99.93","","","","","","Clear"
"2013-06-19 10:00","2013","06","19","10:00","17.7","","10.1","","61","","10","","7","","24.1","","99.90","","","","","","Clear"
"2013-06-19 11:00","2013","06","19","11:00","19.2","","10.9","","59","","4","","11","","24.1","","99.93","","","","","","Clear"
"2013-06-19 12:00","2013","06","19","12:00","20.1","","9.9","","52","","5","","11","","24.1","","99.93","","","","","","Mainly Clear"
"2013-06-19 13:00","2013","06","19","13:00","20.6","","9.1","","48","","9","","15","","24.1","","99.91","","","","","","Mainly Clear"
"2013-06-19 14:00","2013","06","19","14:00","20.6","","7.8","","44","","4","","7","","24.1","","99.85","","","","","","Mainly Clear"
"2013-06-19 15:00","2013","06","19","15:00","21.4","","8.4","","43","","7","","13","","24.1","","99.83","","","","","","Mainly Clear"
"2013-06-19 16:00","2013","06","19","16:00","21.3","","8.6","","44","","9","","7","","24.1","","99.80","","","","","","Mainly Clear"
"2013-06-19 17:00","2013","06","19","17:00","21.6","","9.4","","46","","12","","7","","24.1","","99.77","","","","","","Mainly Clear"
"2013-06-19 18:00","2013","06","19","18:00","20.2","","11.1","","56","","15","","9","","24.1","","99.76","","","","","","Mainly Clear"
"2013-06-19 19:00","2013","06","19","19:00","19.5","","10.3","","55","","18","","13","","24.1","","99.81","","","","","","Clear"
"2013-06-19 20:00","2013","06","19","20:00","17.8","","9.7","","59","","19","","9","","24.1","","99.81","","","","","","Mainly Clear"
"2013-06-19 21:00","2013","06","19","21:00","16.8","","9.4","","62","","18","","7","","24.1","","99.87","","","","","","Mainly Clear"
"2013-06-19 22:00","2013","06","19","22:00","15.8","","9.6","","67","","18","","7","","24.1","","99.93","","","","","","Clear"
"2013-06-19 23:00","2013","06","19","23:00","15.3","","9.7","","69","","16","","6","","24.1","","99.94","","","","","","Clear"
"2013-06-20 00:00","2013","06","20","00:00","14.5","","10.0","","74","","12","","11","","24.1","","99.92","","","","","","Clear"
"2013-06-20 01:00","2013","06","20","01:00","13.6","","10.5","","82","","13","","9","","24.1","","99.92","","","","","","Clear"
"2013-06-20 02:00","2013","06","20","02:00","13.5","","9.7","","78","","13","","6","","24.1","","99.93","","","","","","Clear"
"2013-06-20 03:00","2013","06","20","03:00","13.6","","10.3","","80","","11","","9","","24.1","","99.91","","","","","","Clear"
"2013-06-20 04:00","2013","06","20","04:00","13.4","","10.4","","82","","11","","4","","24.1","","99.93","","","","","","Clear"
"2013-06-20 05:00","2013","06","20","05:00","13.1","","10.0","","81","","24","","6","","24.1","","99.96","","","","","","Clear"
"2013-06-20 06:00","2013","06","20","06:00","14.4","","10.7","","78","","28","","4","","24.1","","100.01","","","","","","Clear"
"2013-06-20 07:00","2013","06","20","07:00","16.8","","12.1","","74","","","","0","","24.1","","100.06","","","","","","Mainly Clear"
"2013-06-20 08:00","2013","06","20","08:00","18.9","","13.8","","72","","17","","4","","24.1","","100.11","","","","","","Mainly Clear"
"2013-06-20 09:00","2013","06","20","09:00","21.1","","12.8","","59","","18","","13","","24.1","","100.09","","","","","","Mainly Clear"
"2013-06-20 10:00","2013","06","20","10:00","22.4","","12.6","","54","","18","","11","","24.1","","100.07","","25","","","","Mainly Clear"
"2013-06-20 11:00","2013","06","20","11:00","23.5","","12.1","","49","","22","","11","","24.1","","100.06","","26","","","","Mainly Clear"
"2013-06-20 12:00","2013","06","20","12:00","24.2","","11.3","","44","","19","","9","","24.1","","100.05","","26","","","","Mainly Clear"
"2013-06-20 13:00","2013","06","20","13:00","25.3","","11.7","","43","","24","","15","","24.1","","100.05","","27","","","","Mainly Clear"
"2013-06-20 14:00","2013","06","20","14:00","25.3","","11.7","","43","","","","0","","24.1","","100.00","","27","","","","Mainly Clear"
"2013-06-20 15:00","2013","06","20","15:00","25.5","","12.7","","45","","15","","15","","24.1","","99.99","","28","","","","Mostly Cloudy"
"2013-06-20 16:00","2013","06","20","16:00","25.3","","12.2","","44","","16","","17","","24.1","","99.97","","28","","","","Mostly Cloudy"
"2013-06-20 17:00","2013","06","20","17:00","25.0","","12.1","","45","","16","","19","","24.1","","99.94","","27","","","","Mostly Cloudy"
"2013-06-20 18:00","2013","06","20","18:00","24.1","","11.5","","45","","15","","17","","24.1","","99.91","","26","","","","Mostly Cloudy"
"2013-06-20 19:00","2013","06","20","19:00","23.0","","11.5","","48","","14","","13","","24.1","","99.93","","25","","","","Mostly Cloudy"
"2013-06-20 20:00","2013","06","20","20:00","20.5","","10.7","","53","","16","","13","","24.1","","99.95","","","","","","Mostly Cloudy"
"2013-06-20 21:00","2013","06","20","21:00","19.5","","11.0","","58","","12","","6","","24.1","","99.99","","","","","","Mostly Cloudy"
"2013-06-20 22:00","2013","06","20","22:00","18.5","","10.9","","61","","9","","4","","24.1","","100.01","","","","","","Mainly Clear"
"2013-06-20 23:00","2013","06","20","23:00","17.6","","11.3","","67","","12","","4","","24.1","","100.03","","","","","","Clear"
"2013-06-21 00:00","2013","06","21","00:00","17.3","","10.5","","64","","","","0","","24.1","","100.07","","","","","","Mainly Clear"
"2013-06-21 01:00","2013","06","21","01:00","17.0","","10.7","","66","","","","0","","24.1","","100.06","","","","","","Mainly Clear"
"2013-06-21 02:00","2013","06","21","02:00","16.6","","10.5","","67","","15","","6","","24.1","","100.01","","","","","","Clear"
"2013-06-21 03:00","2013","06","21","03:00","17.6","","11.9","","69","","15","","7","","24.1","","99.98","","","","","","Clear"
"2013-06-21 04:00","2013","06","21","04:00","17.4","","11.5","","68","","16","","9","","24.1","","99.97","","","","","","Mainly Clear"
"2013-06-21 05:00","2013","06","21","05:00","17.7","","12.1","","70","","14","","9","","24.1","","99.98","","","","","","Mainly Clear"
"2013-06-21 06:00","2013","06","21","06:00","18.8","","13.8","","73","","15","","7","","24.1","","100.01","","","","","","Mainly Clear"
"2013-06-21 07:00","2013","06","21","07:00","20.7","","15.4","","72","","16","","11","","24.1","","99.97","","25","","","","Mainly Clear"
"2013-06-21 08:00","2013","06","21","08:00","22.3","","16.2","","68","","19","","9","","19.3","","100.07","","27","","","","Mostly Cloudy"
"2013-06-21 09:00","2013","06","21","09:00","23.3","","16.5","","66","","19","","11","","19.3","","100.00","","28","","","","Mostly Cloudy"
"2013-06-21 10:00","2013","06","21","10:00","25.2","","17.0","","60","","20","","11","","19.3","","99.99","","30","","","","Mainly Clear"
"2013-06-21 11:00","2013","06","21","11:00","26.4","","17.2","","57","","26","","7","","16.1","","100.05","","32","","","","Mostly Cloudy"
"2013-06-21 12:00","2013","06","21","12:00","27.2","","17.6","","56","","17","","13","","16.1","","100.01","","33","","","","Mostly Cloudy"
"2013-06-21 13:00","2013","06","21","13:00","28.1","","17.3","","52","","17","","13","","16.1","","99.94","","34","","","","Mostly Cloudy"
"2013-06-21 14:00","2013","06","21","14:00","29.1","","16.4","","46","","20","","19","","16.1","","99.92","","34","","","","Cloudy"
"2013-06-21 15:00","2013","06","21","15:00","28.4","","18.2","","54","","17","","22","","19.3","","99.87","","35","","","","Mostly Cloudy"
"2013-06-21 16:00","2013","06","21","16:00","28.0","","17.6","","53","","18","","19","","24.1","","99.82","","34","","","","Mostly Cloudy"
"2013-06-21 17:00","2013","06","21","17:00","27.5","","17.7","","55","","17","","19","","19.3","","99.75","","33","","","","Mostly Cloudy"
"2013-06-21 18:00","2013","06","21","18:00","26.3","","16.7","","56","","17","","17","","24.1","","99.68","","31","","","","Mostly Cloudy"
"2013-06-21 19:00","2013","06","21","19:00","25.2","","16.5","","59","","16","","13","","24.1","","99.68","","30","","","","Mostly Cloudy"
"2013-06-21 20:00","2013","06","21","20:00","24.4","","16.3","","61","","16","","15","","24.1","","99.63","","29","","","","Mostly Cloudy"
"2013-06-21 21:00","2013","06","21","21:00","23.7","","16.9","","66","","15","","15","","24.1","","99.62","","29","","","","Mostly Cloudy"
"2013-06-21 22:00","2013","06","21","22:00","23.0","","16.8","","68","","17","","7","","24.1","","99.70","","28","","","","Mostly Cloudy"
"2013-06-21 23:00","2013","06","21","23:00","22.3","","16.2","","68","","18","","9","","24.1","","99.72","","27","","","","Mostly Cloudy"
"2013-06-22 00:00","2013","06","22","00:00","22.4","","15.8","","66","","19","","11","","24.1","","99.71","","27","","","","Mainly Clear"
"2013-06-22 01:00","2013","06","22","01:00","22.4","","15.7","","66","","20","","11","","24.1","","99.65","","27","","","","Mainly Clear"
"2013-06-22 02:00","2013","06","22","02:00","22.5","","15.9","","66","","20","","15","","24.1","","99.60","","27","","","","Mainly Clear"
"2013-06-22 03:00","2013","06","22","03:00","22.4","","16.3","","68","","20","","17","","24.1","","99.52","","27","","","","Mostly Cloudy"
"2013-06-22 04:00","2013","06","22","04:00","22.2","","16.6","","71","","21","","17","","24.1","","99.50","","27","","","","Mostly Cloudy"
"2013-06-22 05:00","2013","06","22","05:00","21.8","","17.0","","74","","21","","15","","19.3","","99.50","","27","","","","Mostly Cloudy"
"2013-06-22 06:00","2013","06","22","06:00","22.2","","17.4","","74","","21","","13","","19.3","","99.53","","28","","","","Mostly Cloudy"
"2013-06-22 07:00","2013","06","22","07:00","23.1","","18.3","","74","","22","","13","","19.3","","99.58","","29","","","","Cloudy"
"2013-06-22 08:00","2013","06","22","08:00","24.7","","18.5","","68","","22","","20","","19.3","","99.61","","31","","","","Mostly Cloudy"
"2013-06-22 09:00","2013","06","22","09:00","27.2","","19.6","","63","","24","","20","","19.3","","99.66","","34","","","","Cloudy"
"2013-06-22 10:00","2013","06","22","10:00","27.9","","19.9","","62","","23","","20","","19.3","","99.62","","35","","","","Cloudy"
"2013-06-22 11:00","2013","06","22","11:00","28.6","","20.4","","61","","25","","15","","19.3","","99.59","","37","","","","Mostly Cloudy"
"2013-06-22 12:00","2013","06","22","12:00","29.8","","21.4","","61","","26","","20","","19.3","","99.60","","39","","","","Mostly Cloudy"
"2013-06-22 13:00","2013","06","22","13:00","30.0","","21.7","","61","","22","","13","","19.3","","99.57","","39","","","","Mostly Cloudy"
"2013-06-22 14:00","2013","06","22","14:00","30.1","","22.3","","63","","20","","17","","12.9","","99.51","","40","","","","Mostly Cloudy"
"2013-06-22 15:00","2013","06","22","15:00","30.4","","21.9","","61","","23","","15","","11.3","","99.43","","40","","","","Mostly Cloudy"
"2013-06-22 16:00","2013","06","22","16:00","23.1","","20.3","","84","","24","","43","","16.1","","99.52","","31","","","","Thunderstorms,Rain Showers"
"2013-06-22 17:00","2013","06","22","17:00","23.7","","19.9","","79","","28","","9","","19.3","","99.42","","31","","","","Thunderstorms"
"2013-06-22 18:00","2013","06","22","18:00","23.0","","19.8","","82","","25","","9","","19.3","","99.34","","30","","","","Mostly Cloudy"
"2013-06-22 19:00","2013","06","22","19:00","23.0","","20.2","","84","","27","","7","","16.1","","99.36","","31","","","","Rain Showers"
"2013-06-22 20:00","2013","06","22","20:00","23.5","","19.9","","80","","23","","11","","19.3","","99.40","","31","","","","Mostly Cloudy"
"2013-06-22 21:00","2013","06","22","21:00","23.4","","20.1","","82","","22","","15","","24.1","","99.47","","31","","","","Cloudy"
"2013-06-22 22:00","2013","06","22","22:00","23.3","","20.2","","83","","22","","11","","24.1","","99.50","","31","","","","Cloudy"
"2013-06-22 23:00","2013","06","22","23:00","22.8","","19.9","","84","","23","","11","","19.3","","99.48","","30","","","","Mainly Clear"
"2013-06-23 00:00","2013","06","23","00:00","22.1","","20.0","","88","","19","","4","","19.3","","99.54","","30","","","","Mainly Clear"
"2013-06-23 01:00","2013","06","23","01:00","22.2","","19.9","","87","","21","","7","","19.3","","99.51","","30","","","","Mainly Clear"
"2013-06-23 02:00","2013","06","23","02:00","22.1","","19.8","","87","","22","","11","","19.3","","99.48","","30","","","","Mainly Clear"
"2013-06-23 03:00","2013","06","23","03:00","21.8","","20.0","","90","","22","","9","","19.3","","99.48","","29","","","","Mostly Cloudy"
"2013-06-23 04:00","2013","06","23","04:00","21.8","","20.1","","90","","20","","7","","12.9","","99.48","","29","","","","Mostly Cloudy"
"2013-06-23 05:00","2013","06","23","05:00","21.8","","20.1","","90","","20","","11","","9.7","","99.52","","29","","","","Fog"
"2013-06-23 06:00","2013","06","23","06:00","21.9","","19.9","","88","","23","","11","","9.7","","99.57","","29","","","","Fog"
"2013-06-23 07:00","2013","06","23","07:00","22.8","","20.0","","84","","23","","17","","9.7","","99.60","","30","","","","Haze"
"2013-06-23 08:00","2013","06","23","08:00","23.3","","19.9","","81","","23","","17","","16.1","","99.60","","31","","","","Mostly Cloudy"
"2013-06-23 09:00","2013","06","23","09:00","24.8","","20.3","","76","","23","","15","","19.3","","99.58","","33","","","","Mostly Cloudy"
"2013-06-23 10:00","2013","06","23","10:00","26.2","","20.6","","71","","21","","24","","19.3","","99.57","","34","","","","Mostly Cloudy"
"2013-06-23 11:00","2013","06","23","11:00","27.6","","20.1","","64","","23","","22","","19.3","","99.56","","35","","","","Mostly Cloudy"
"2013-06-23 12:00","2013","06","23","12:00","28.9","","19.5","","57","","24","","24","","19.3","","99.54","","36","","","","Mainly Clear"
"2013-06-23 13:00","2013","06","23","13:00","29.7","","20.6","","58","","22","","26","","19.3","","99.53","","38","","","","Mainly Clear"
"2013-06-23 14:00","2013","06","23","14:00","30.4","","20.7","","56","","22","","20","","19.3","","99.50","","39","","","","Mainly Clear"
"2013-06-23 15:00","2013","06","23","15:00","30.9","","20.8","","55","","24","","24","","24.1","","99.43","","39","","","","Mainly Clear"
"2013-06-23 16:00","2013","06","23","16:00","31.2","","19.9","","51","","22","","24","","24.1","","99.37","","39","","","","Mainly Clear"
"2013-06-23 17:00","2013","06","23","17:00","30.9","","19.9","","52","","25","","19","","24.1","","99.33","","38","","","","Mainly Clear"
"2013-06-23 18:00","2013","06","23","18:00","30.7","","19.8","","52","","22","","19","","24.1","","99.29","","38","","","","Clear"
"2013-06-23 19:00","2013","06","23","19:00","29.6","","20.8","","59","","20","","17","","19.3","","99.30","","38","","","","Clear"
"2013-06-23 20:00","2013","06","23","20:00","27.9","","20.5","","64","","20","","15","","19.3","","99.33","","36","","","","Mainly Clear"
"2013-06-23 21:00","2013","06","23","21:00","26.8","","19.9","","66","","21","","11","","24.1","","99.42","","34","","","","Mainly Clear"
"2013-06-23 22:00","2013","06","23","22:00","26.0","","18.6","","64","","24","","30","","24.1","","99.48","","32","","","","Mostly Cloudy"
"2013-06-23 23:00","2013","06","23","23:00","25.3","","17.2","","61","","27","","11","","24.1","","99.42","","31","","","","Mostly Cloudy"
"2013-06-24 00:00","2013","06","24","00:00","23.0","","17.3","","70","","17","","9","","24.1","","99.36","","28","","","","Mainly Clear"
"2013-06-24 01:00","2013","06","24","01:00","23.4","","17.2","","68","","24","","28","","24.1","","99.52","","29","","","","Mainly Clear"
"2013-06-24 02:00","2013","06","24","02:00","22.2","","17.8","","76","","24","","9","","24.1","","99.54","","28","","","","Mainly Clear"
"2013-06-24 03:00","2013","06","24","03:00","20.9","","17.7","","82","","21","","6","","19.3","","99.52","","27","","","","Mainly Clear"
"2013-06-24 04:00","2013","06","24","04:00","21.0","","17.9","","82","","23","","11","","19.3","","99.54","","27","","","","Mainly Clear"
"2013-06-24 05:00","2013","06","24","05:00","20.8","","18.3","","86","","21","","15","","11.3","","99.54","","27","","","","Mainly Clear"
"2013-06-24 06:00","2013","06","24","06:00","21.5","","18.7","","84","","22","","15","","11.3","","99.54","","28","","","","Mainly Clear"
"2013-06-24 07:00","2013","06","24","07:00","22.9","","19.1","","79","","23","","15","","24.1","","99.56","","30","","","","Mainly Clear"
"2013-06-24 08:00","2013","06","24","08:00","24.4","","19.8","","76","","24","","20","","24.1","","99.61","","32","","","","Mainly Clear"
"2013-06-24 09:00","2013","06","24","09:00","25.7","","20.2","","72","","24","","24","","24.1","","99.61","","33","","","","Mainly Clear"
"2013-06-24 10:00","2013","06","24","10:00","27.5","","20.8","","67","","23","","24","","24.1","","99.59","","36","","","","Mainly Clear"
"2013-06-24 11:00","2013","06","24","11:00","28.3","","20.6","","63","","24","","28","","24.1","","99.57","","36","","","","Mostly Cloudy"
"2013-06-24 12:00","2013","06","24","12:00","29.1","","20.3","","59","","22","","26","","24.1","","99.53","","37","","","","Mostly Cloudy"
"2013-06-24 13:00","2013","06","24","13:00","29.5","","20.2","","57","","22","","22","","24.1","","99.45","","37","","","","Mostly Cloudy"
"2013-06-24 14:00","2013","06","24","14:00","30.4","","20.6","","56","","24","","22","","24.1","","99.37","","38","","","","Mostly Cloudy"
"2013-06-24 15:00","2013","06","24","15:00","30.1","","20.8","","58","","22","","19","","24.1","","99.27","","38","","","","Mostly Cloudy"
"2013-06-24 16:00","2013","06","24","16:00","29.7","","20.6","","58","","22","","24","","12.9","","99.25","","38","","","","Mostly Cloudy"
"2013-06-24 17:00","2013","06","24","17:00","29.6","","20.9","","60","","21","","22","","11.3","","99.15","","38","","","","Mainly Clear"
"2013-06-24 18:00","2013","06","24","18:00","29.3","","20.2","","58","","21","","22","","12.9","","99.17","","37","","","","Mainly Clear"
"2013-06-24 19:00","2013","06","24","19:00","28.8","","20.6","","61","","24","","17","","11.3","","99.19","","37","","","","Mostly Cloudy"
"2013-06-24 20:00","2013","06","24","20:00","27.6","","20.4","","65","","22","","15","","11.3","","99.16","","36","","","","Mostly Cloudy"
"2013-06-24 21:00","2013","06","24","21:00","26.9","","20.3","","67","","22","","11","","19.3","","99.16","","35","","","","Mostly Cloudy"
"2013-06-24 22:00","2013","06","24","22:00","26.4","","20.0","","68","","22","","13","","19.3","","99.17","","34","","","","Mostly Cloudy"
"2013-06-24 23:00","2013","06","24","23:00","26.3","","19.6","","67","","21","","13","","16.1","","99.15","","34","","","","Mostly Cloudy"
"2013-06-25 00:00","2013","06","25","00:00","25.9","","19.9","","70","","22","","28","","16.1","","99.06","","33","","","","Rain Showers"
"2013-06-25 01:00","2013","06","25","01:00","24.9","","19.7","","73","","24","","24","","19.3","","99.08","","32","","","","Mostly Cloudy"
"2013-06-25 02:00","2013","06","25","02:00","24.0","","17.7","","68","","26","","19","","24.1","","99.07","","30","","","","Mainly Clear"
"2013-06-25 03:00","2013","06","25","03:00","22.7","","17.2","","71","","26","","24","","24.1","","99.07","","28","","","","Mainly Clear"
"2013-06-25 04:00","2013","06","25","04:00","21.6","","17.0","","75","","25","","28","","24.1","","99.11","","27","","","","Mostly Cloudy"
"2013-06-25 05:00","2013","06","25","05:00","21.2","","17.2","","78","","26","","17","","24.1","","99.17","","27","","","","Mostly Cloudy"
"2013-06-25 06:00","2013","06","25","06:00","21.4","","17.5","","78","","24","","17","","24.1","","99.19","","27","","","","Mostly Cloudy"
"2013-06-25 07:00","2013","06","25","07:00","21.8","","17.8","","78","","25","","20","","24.1","","99.28","","28","","","","Mostly Cloudy"
"2013-06-25 08:00","2013","06","25","08:00","20.6","","18.9","","90","","29","","7","","9.7","","99.19","","27","","","","Rain Showers,Fog"
"2013-06-25 09:00","2013","06","25","09:00","20.9","","19.0","","89","","26","","11","","16.1","","99.20","","28","","","","Rain Showers"
"2013-06-25 10:00","2013","06","25","10:00","21.2","","19.2","","88","","21","","15","","24.1","","99.06","","28","","","","Mostly Cloudy"
"2013-06-25 11:00","2013","06","25","11:00","22.6","","19.8","","84","","24","","19","","24.1","","99.13","","30","","","","Mostly Cloudy"
"2013-06-25 12:00","2013","06","25","12:00","25.2","","20.7","","76","","24","","20","","24.1","","99.13","","33","","","","Mostly Cloudy"
"2013-06-25 13:00","2013","06","25","13:00","24.3","","21.3","","83","","25","","17","","16.1","","99.08","","33","","","","Thunderstorms,Rain Showers"
"2013-06-25 14:00","2013","06","25","14:00","26.5","","21.3","","73","","26","","17","","24.1","","99.02","","35","","","","Cloudy"
"2013-06-25 15:00","2013","06","25","15:00","27.0","","22.4","","76","","19","","13","","24.1","","98.82","","37","","","","Mostly Cloudy"
"2013-06-25 16:00","2013","06","25","16:00","29.5","","22.9","","68","","27","","11","","12.9","","98.88","","40","","","","Mostly Cloudy"
"2013-06-25 17:00","2013","06","25","17:00","30.0","","22.1","","63","","27","","11","","11.3","","98.78","","39","","","","Mostly Cloudy"
"2013-06-25 18:00","2013","06","25","18:00","26.8","","21.3","","72","","4","","11","","16.1","","98.79","","35","","","","Mostly Cloudy"
"2013-06-25 19:00","2013","06","25","19:00","25.5","","21.0","","76","","4","","17","","16.1","","98.84","","34","","","","Mostly Cloudy"
"2013-06-25 20:00","2013","06","25","20:00","24.7","","20.5","","77","","10","","6","","19.3","","98.81","","33","","","","Mostly Cloudy"
"2013-06-25 21:00","2013","06","25","21:00","24.3","","21.4","","84","","","","0","","19.3","","98.86","","33","","","","Thunderstorms,Rain Showers"
"2013-06-25 22:00","2013","06","25","22:00","23.3","","21.7","","91","","21","","9","","16.1","","98.90","","32","","","","Rain Showers"
"2013-06-25 23:00","2013","06","25","23:00","23.3","","21.9","","92","","23","","11","","8.0","","98.96","","33","","","","Thunderstorms,Rain Showers"
"2013-06-26 00:00","2013","06","26","00:00","22.6","","20.8","","90","","25","","26","","8.0","","98.93","","31","","","","Thunderstorms,Moderate Rain Showers"
"2013-06-26 01:00","2013","06","26","01:00","20.5","","18.6","","89","","27","","20","","16.1","","98.82","","27","","","","Rain Showers"
"2013-06-26 02:00","2013","06","26","02:00","20.4","","18.6","","89","","34","","9","","16.1","","98.77","","27","","","","Cloudy"
"2013-06-26 03:00","2013","06","26","03:00","20.2","","18.9","","92","","12","","9","","12.9","","98.83","","27","","","","Rain Showers"
"2013-06-26 04:00","2013","06","26","04:00","19.5","","18.5","","94","","15","","7","","12.9","","98.82","","","","","","Mainly Clear"
"2013-06-26 05:00","2013","06","26","05:00","19.5","","18.1","","92","","20","","9","","19.3","","98.84","","","","","","Mostly Cloudy"
"2013-06-26 06:00","2013","06","26","06:00","20.2","","18.7","","91","","22","","11","","12.9","","98.87","","27","","","","Mostly Cloudy"
"2013-06-26 07:00","2013","06","26","07:00","21.1","","19.3","","89","","22","","15","","24.1","","98.89","","28","","","","Mostly Cloudy"
"2013-06-26 08:00","2013","06","26","08:00","22.1","","19.5","","85","","23","","17","","24.1","","98.91","","29","","","","Mostly Cloudy"
"2013-06-26 09:00","2013","06","26","09:00","23.5","","19.0","","76","","23","","19","","24.1","","98.91","","30","","","","Mostly Cloudy"
"2013-06-26 10:00","2013","06","26","10:00","24.4","","19.3","","73","","26","","17","","24.1","","98.85","","31","","","","Mostly Cloudy"
"2013-06-26 11:00","2013","06","26","11:00","25.3","","19.7","","71","","28","","13","","24.1","","98.90","","33","","","","Mostly Cloudy"
"2013-06-26 12:00","2013","06","26","12:00","26.0","","19.6","","68","","25","","11","","24.1","","98.87","","33","","","","Mostly Cloudy"
"2013-06-26 13:00","2013","06","26","13:00","27.2","","19.6","","63","","23","","15","","24.1","","98.83","","34","","","","Mostly Cloudy"
"2013-06-26 14:00","2013","06","26","14:00","27.5","","20.0","","64","","10","","7","","24.1","","98.74","","35","","","","Mostly Cloudy"
"2013-06-26 15:00","2013","06","26","15:00","28.2","","21.0","","65","","14","","6","","24.1","","98.72","","37","","","","Mostly Cloudy"
"2013-06-26 16:00","2013","06","26","16:00","27.2","","20.6","","67","","20","","11","","24.1","","98.68","","35","","","","Mostly Cloudy"
"2013-06-26 17:00","2013","06","26","17:00","26.5","","21.0","","72","","19","","15","","24.1","","98.66","","35","","","","Mostly Cloudy"
"2013-06-26 18:00","2013","06","26","18:00","26.6","","20.1","","68","","17","","13","","24.1","","98.60","","34","","","","Mainly Clear"
"2013-06-26 19:00","2013","06","26","19:00","26.2","","20.0","","69","","18","","9","","24.1","","98.58","","34","","","","Mainly Clear"
"2013-06-26 20:00","2013","06","26","20:00","25.0","","20.5","","76","","17","","6","","24.1","","98.60","","33","","","","Mostly Cloudy"
"2013-06-26 21:00","2013","06","26","21:00","24.5","","20.8","","80","","11","","4","","24.1","","98.59","","33","","","","Mostly Cloudy"
"2013-06-26 22:00","2013","06","26","22:00","23.5","","20.4","","83","","17","","9","","24.1","","98.59","","31","","","","Cloudy"
"2013-06-26 23:00","2013","06","26","23:00","23.2","","20.6","","85","","12","","7","","16.1","","98.58","","31","","","","Cloudy"
"2013-06-27 00:00","2013","06","27","00:00","22.7","","20.9","","90","","16","","11","","12.9","","98.59","","31","","","","Cloudy"
"2013-06-27 01:00","2013","06","27","01:00","22.4","","20.7","","90","","19","","7","","12.9","","98.56","","31","","","","Rain Showers"
"2013-06-27 02:00","2013","06","27","02:00","22.2","","20.6","","91","","19","","11","","11.3","","98.51","","30","","","","Cloudy"
"2013-06-27 03:00","2013","06","27","03:00","21.9","","20.6","","92","","17","","6","","9.7","","98.48","","30","","","","Rain Showers"
"2013-06-27 04:00","2013","06","27","04:00","21.7","","20.9","","95","","14","","4","","6.4","","98.51","","30","","","","Rain Showers"
"2013-06-27 05:00","2013","06","27","05:00","21.7","","20.6","","93","","","","0","","4.8","","98.50","","30","","","","Rain Showers,Fog"
"2013-06-27 06:00","2013","06","27","06:00","21.7","","20.9","","95","","","","0","","8.0","","98.51","","30","","","","Fog"
"2013-06-27 07:00","2013","06","27","07:00","21.7","","20.8","","95","","","","0","","9.7","","98.51","","30","","","","Fog"
"2013-06-27 08:00","2013","06","27","08:00","22.9","","20.7","","87","","10","","4","","8.0","","98.47","","31","","","","Haze"
"2013-06-27 09:00","2013","06","27","09:00","24.0","","21.1","","84","","6","","6","","16.1","","98.49","","33","","","","Mostly Cloudy"
"2013-06-27 10:00","2013","06","27","10:00","24.5","","20.2","","77","","10","","11","","24.1","","98.46","","32","","","","Mostly Cloudy"
"2013-06-27 11:00","2013","06","27","11:00","25.0","","19.6","","72","","9","","9","","24.1","","98.49","","32","","","","Mostly Cloudy"
"2013-06-27 12:00","2013","06","27","12:00","25.5","","20.0","","72","","16","","6","","24.1","","98.48","","33","","","","Mostly Cloudy"
"2013-06-27 13:00","2013","06","27","13:00","26.7","","19.9","","66","","18","","11","","24.1","","98.42","","34","","","","Mostly Cloudy"
"2013-06-27 14:00","2013","06","27","14:00","27.0","","19.5","","64","","17","","19","","24.1","","98.37","","34","","","","Mostly Cloudy"
"2013-06-27 15:00","2013","06","27","15:00","25.7","","18.9","","66","","17","","19","","24.1","","98.36","","32","","","","Mostly Cloudy"
"2013-06-27 16:00","2013","06","27","16:00","23.8","","18.6","","73","","17","","17","","24.1","","98.29","","30","","","","Rain Showers"
"2013-06-27 17:00","2013","06","27","17:00","22.5","","19.5","","83","","28","","4","","11.3","","98.45","","30","","","","Thunderstorms,Rain Showers"
"2013-06-27 18:00","2013","06","27","18:00","19.8","","18.6","","93","","24","","7","","6.4","","98.52","","","","","","Thunderstorms,Moderate Rain Showers,Fog"
"2013-06-27 19:00","2013","06","27","19:00","19.5","","18.5","","94","","13","","6","","12.9","","98.35","","","","","","Rain Showers"
"2013-06-27 20:00","2013","06","27","20:00","20.3","","18.8","","91","","22","","13","","19.3","","98.21","","27","","","","Mostly Cloudy"
"2013-06-27 21:00","2013","06","27","21:00","19.8","","18.4","","92","","29","","13","","24.1","","98.24","","","","","","Mainly Clear"
"2013-06-27 22:00","2013","06","27","22:00","19.7","","18.2","","91","","27","","6","","24.1","","98.22","","","","","","Mostly Cloudy"
"2013-06-27 23:00","2013","06","27","23:00","19.5","","18.5","","94","","16","","6","","12.9","","98.18","","","","","","Mostly Cloudy"
"2013-06-28 00:00","2013","06","28","00:00","19.4","","18.5","","95","","6","","7","","8.0","","98.16","","","","","","Fog"
"2013-06-28 01:00","2013","06","28","01:00","19.4","","18.5","","95","","3","","6","","8.0","","98.16","","","","","","Fog"
"2013-06-28 02:00","2013","06","28","02:00","19.6","","18.5","","93","","25","","6","","8.0","","98.13","","","","","","Fog"
"2013-06-28 03:00","2013","06","28","03:00","19.5","","18.3","","93","","24","","6","","8.0","","98.08","","","","","","Fog"
"2013-06-28 04:00","2013","06","28","04:00","19.1","","18.2","","95","","27","","7","","6.4","","98.05","","","","","","Fog"
"2013-06-28 05:00","2013","06","28","05:00","19.2","","18.2","","94","","32","","9","","4.8","","98.03","","","","","","Fog"
"2013-06-28 06:00","2013","06","28","06:00","19.5","","18.2","","92","","26","","7","","4.8","","98.00","","","","","","Fog"
"2013-06-28 07:00","2013","06","28","07:00","20.6","","18.5","","88","","32","","9","","16.1","","98.00","","27","","","","Mainly Clear"
"2013-06-28 08:00","2013","06","28","08:00","21.6","","18.2","","81","","31","","13","","24.1","","97.96","","28","","","","Mostly Cloudy"
"2013-06-28 09:00","2013","06","28","09:00","23.1","","18.8","","77","","34","","11","","24.1","","97.93","","30","","","","Mostly Cloudy"
"2013-06-28 10:00","2013","06","28","10:00","24.0","","18.3","","70","","30","","9","","24.1","","97.92","","30","","","","Mostly Cloudy"
"2013-06-28 11:00","2013","06","28","11:00","23.8","","17.4","","67","","31","","13","","24.1","","97.90","","29","","","","Thunderstorms"
"2013-06-28 12:00","2013","06","28","12:00","21.2","","17.1","","77","","31","","48","","12.9","","97.95","","27","","","","Thunderstorms,Heavy Rain Showers"
"2013-06-28 13:00","2013","06","28","13:00","18.3","","16.4","","89","","21","","4","","12.9","","97.92","","","","","","Thunderstorms,Rain Showers"
"2013-06-28 14:00","2013","06","28","14:00","19.0","","17.2","","89","","21","","11","","24.1","","97.88","","","","","","Rain Showers"
"2013-06-28 15:00","2013","06","28","15:00","20.9","","18.6","","87","","27","","4","","24.1","","97.83","","27","","","","Mostly Cloudy"
"2013-06-28 16:00","2013","06","28","16:00","21.2","","16.2","","73","","36","","9","","24.1","","97.80","","26","","","","Cloudy"
"2013-06-28 17:00","2013","06","28","17:00","21.2","","16.7","","76","","36","","6","","24.1","","97.82","","26","","","","Mostly Cloudy"
"2013-06-28 18:00","2013","06","28","18:00","21.1","","17.3","","79","","27","","13","","24.1","","97.89","","27","","","","Rain Showers"
"2013-06-28 19:00","2013","06","28","19:00","19.8","","17.2","","85","","27","","15","","16.1","","97.90","","","","","","Rain Showers"
"2013-06-28 20:00","2013","06","28","20:00","19.4","","18.0","","92","","2","","7","","24.1","","97.91","","","","","","Thunderstorms,Rain Showers"
"2013-06-28 21:00","2013","06","28","21:00","19.1","","17.9","","93","","","","0","","19.3","","97.91","","","","","","Rain Showers"
"2013-06-28 22:00","2013","06","28","22:00","18.8","","17.6","","93","","35","","6","","24.1","","97.91","","","","","","Rain Showers"
"2013-06-28 23:00","2013","06","28","23:00","18.2","","16.9","","92","","31","","6","","19.3","","97.88","","","","","","Rain Showers"
"2013-06-29 00:00","2013","06","29","00:00","18.2","","16.6","","90","","36","","9","","19.3","","97.86","","","","","","Cloudy"
"2013-06-29 01:00","2013","06","29","01:00","18.2","","16.8","","92","","34","","7","","24.1","","97.85","","","","","","Cloudy"
"2013-06-29 02:00","2013","06","29","02:00","18.4","","16.9","","91","","34","","6","","24.1","","97.84","","","","","","Cloudy"
"2013-06-29 03:00","2013","06","29","03:00","18.2","","17.0","","93","","35","","9","","19.3","","97.83","","","","","","Cloudy"
"2013-06-29 04:00","2013","06","29","04:00","18.1","","16.7","","92","","34","","6","","19.3","","97.85","","","","","","Cloudy"
"2013-06-29 05:00","2013","06","29","05:00","18.2","","16.6","","90","","33","","7","","16.1","","97.90","","","","","","Cloudy"
"2013-06-29 06:00","2013","06","29","06:00","18.3","","16.7","","90","","34","","7","","19.3","","97.93","","","","","","Mostly Cloudy"
"2013-06-29 07:00","2013","06","29","07:00","18.7","","16.6","","88","","35","","9","","16.1","","97.96","","","","","","Mostly Cloudy"
"2013-06-29 08:00","2013","06","29","08:00","19.0","","17.1","","89","","1","","7","","16.1","","97.98","","","","","","Cloudy"
"2013-06-29 09:00","2013","06","29","09:00","20.1","","17.0","","82","","4","","11","","16.1","","98.01","","25","","","","Mostly Cloudy"
"2013-06-29 10:00","2013","06","29","10:00","20.7","","16.6","","77","","4","","9","","24.1","","98.02","","26","","","","Mostly Cloudy"
"2013-06-29 11:00","2013","06","29","11:00","21.6","","16.8","","74","","6","","9","","24.1","","98.06","","27","","","","Mostly Cloudy"
"2013-06-29 12:00","2013","06","29","12:00","21.9","","14.7","","64","","5","","20","","24.1","","98.07","","26","","","","Mostly Cloudy"
"2013-06-29 13:00","2013","06","29","13:00","21.9","","15.6","","67","","4","","17","","24.1","","98.06","","26","","","","Mostly Cloudy"
"2013-06-29 14:00","2013","06","29","14:00","22.6","","15.8","","65","","7","","19","","24.1","","98.09","","27","","","","Mostly Cloudy"
"2013-06-29 15:00","2013","06","29","15:00","23.1","","15.9","","64","","6","","19","","24.1","","98.12","","28","","","","Mostly Cloudy"
"2013-06-29 16:00","2013","06","29","16:00","23.0","","15.7","","63","","4","","24","","24.1","","98.17","","27","","","","Mostly Cloudy"
"2013-06-29 17:00","2013","06","29","17:00","22.4","","14.9","","63","","5","","26","","24.1","","98.16","","26","","","","Mainly Clear"
"2013-06-29 18:00","2013","06","29","18:00","21.5","","14.3","","64","","5","","30","","24.1","","98.24","","25","","","","Mostly Cloudy"
"2013-06-29 19:00","2013","06","29","19:00","20.8","","14.5","","67","","5","","24","","24.1","","98.31","","","","","","Mostly Cloudy"
"2013-06-29 20:00","2013","06","29","20:00","20.0","","13.0","","64","","4","","22","","24.1","","98.37","","","","","","Mostly Cloudy"
"2013-06-29 21:00","2013","06","29","21:00","19.5","","13.0","","66","","5","","22","","24.1","","98.43","","","","","","Mostly Cloudy"
"2013-06-29 22:00","2013","06","29","22:00","18.8","","13.9","","73","","4","","17","","24.1","","98.46","","","","","","Mostly Cloudy"
"2013-06-29 23:00","2013","06","29","23:00","18.6","","14.8","","79","","4","","22","","24.1","","98.46","","","","","","Mostly Cloudy"
"2013-06-30 00:00","2013","06","30","00:00","18.3","","15.0","","81","","4","","20","","24.1","","98.49","","","","","","Mostly Cloudy"
"2013-06-30 01:00","2013","06","30","01:00","18.3","","14.9","","81","","5","","22","","24.1","","98.52","","","","","","Mostly Cloudy"
"2013-06-30 02:00","2013","06","30","02:00","18.3","","15.2","","82","","5","","13","","24.1","","98.55","","","","","","Mostly Cloudy"
"2013-06-30 03:00","2013","06","30","03:00","18.1","","15.0","","82","","4","","15","","24.1","","98.57","","","","","","Mostly Cloudy"
"2013-06-30 04:00","2013","06","30","04:00","18.1","","14.9","","82","","3","","13","","24.1","","98.56","","","","","","Mostly Cloudy"
"2013-06-30 05:00","2013","06","30","05:00","17.7","","15.2","","85","","4","","6","","24.1","","98.62","","","","","","Mostly Cloudy"
"2013-06-30 06:00","2013","06","30","06:00","17.8","","15.7","","88","","36","","13","","24.1","","98.64","","","","","","Rain Showers"
"2013-06-30 07:00","2013","06","30","07:00","18.1","","15.8","","86","","36","","6","","24.1","","98.71","","","","","","Mostly Cloudy"
"2013-06-30 08:00","2013","06","30","08:00","19.5","","15.3","","77","","4","","13","","24.1","","98.77","","","","","","Mostly Cloudy"
"2013-06-30 09:00","2013","06","30","09:00","19.8","","14.8","","73","","5","","20","","24.1","","98.81","","","","","","Cloudy"
"2013-06-30 10:00","2013","06","30","10:00","20.0","","15.0","","73","","4","","17","","24.1","","98.85","","","","","","Rain Showers"
"2013-06-30 11:00","2013","06","30","11:00","21.3","","15.0","","67","","8","","20","","24.1","","98.90","","25","","","","Mostly Cloudy"
"2013-06-30 12:00","2013","06","30","12:00","21.2","","14.4","","65","","6","","20","","24.1","","98.91","","25","","","","Mostly Cloudy"
"2013-06-30 13:00","2013","06","30","13:00","22.1","","15.6","","67","","7","","17","","24.1","","98.91","","26","","","","Mostly Cloudy"
"2013-06-30 14:00","2013","06","30","14:00","22.5","","15.6","","65","","5","","13","","24.1","","98.91","","27","","","","Mostly Cloudy"
"2013-06-30 15:00","2013","06","30","15:00","23.3","","15.6","","62","","4","","22","","24.1","","98.89","","28","","","","Mainly Clear"
"2013-06-30 16:00","2013","06","30","16:00","24.0","","15.8","","60","","3","","32","","24.1","","98.90","","28","","","","Mainly Clear"
"2013-06-30 17:00","2013","06","30","17:00","23.8","","15.0","","58","","3","","30","","24.1","","98.94","","28","","","","Mainly Clear"
"2013-06-30 18:00","2013","06","30","18:00","23.0","","15.2","","61","","4","","26","","24.1","","98.96","","27","","","","Mostly Cloudy"
"2013-06-30 19:00","2013","06","30","19:00","22.4","","15.0","","63","","4","","30","","24.1","","99.02","","26","","","","Mostly Cloudy"
"2013-06-30 20:00","2013","06","30","20:00","21.5","","14.3","","64","","4","","24","","19.3","","99.04","","25","","","","Mostly Cloudy"
"2013-06-30 21:00","2013","06","30","21:00","19.3","","13.2","","68","","4","","24","","24.1","","99.11","","","","","","Mostly Cloudy"
"2013-06-30 22:00","2013","06","30","22:00","19.8","","10.7","","56","","2","","20","","24.1","","99.15","","","","","","Mostly Cloudy"
"2013-06-30 23:00","2013","06","30","23:00","18.4","","10.5","","60","","2","","17","","24.1","","99.15","","","","","","Mostly Cloudy"
