"Station Name","WINDSOR A"
"Province","ONTARIO"
"Latitude","42.28"
"Longitude","-82.96"
"Elevation","189.60"
"Climate Identifier","6139525"
"WMO Identifier","71538"
"TC Identifier","YQG"
"All times are specified in Local Standard Time (LST). Add 1 hour to adjust for Daylight Saving Time where and when it is observed."

"Legend"
"E","Estimated"
"M","Missing"
"NA","Not Available"

"Date/Time","Year","Month","Day","Time","Temp (°C)","Temp Flag","Dew Point Temp (°C)","Dew Point Temp Flag","Rel Hum (%)","Rel Hum Flag","Wind Dir (10s deg)","Wind Dir Flag","Wind Spd (km/h)","Wind Spd Flag","Visibility (km)","Visibility Flag","Stn Press (kPa)","Stn Press Flag","Hmdx","Hmdx Flag","Wind Chill","Wind Chill Flag","Weather"
"2006-09-01 00:00","2006","09","01","00:00","17.3","","13.6","","79","","6","","20","","24.1","","100.03","","","","","","Mostly Cloudy"
"2006-09-01 01:00","2006","09","01","01:00","17.1","","13.8","","81","","6","","17","","24.1","","99.99","","","","","","Mostly Cloudy"
"2006-09-01 02:00","2006","09","01","02:00","17.4","","14.5","","83","","6","","15","","24.1","","99.95","","","","","","Cloudy"
"2006-09-01 03:00","2006","09","01","03:00","17.7","","15.0","","84","","7","","15","","24.1","","99.94","","","","","","Rain Showers"
"2006-09-01 04:00","2006","09","01","04:00","17.6","","15.2","","86","","5","","13","","24.1","","99.94","","","","","","Rain Showers"
"2006-09-01 05:00","2006","09","01","05:00","17.5","","15.1","","86","","8","","11","","24.1","","99.96","","","","","","Cloudy"
"2006-09-01 06:00","2006","09","01","06:00","17.7","","14.3","","80","","8","","13","","24.1","","99.96","","","","","","Mostly Cloudy"
"2006-09-01 07:00","2006","09","01","07:00","18.2","","14.5","","79","","8","","17","","24.1","","99.98","","","","","","Mostly Cloudy"
"2006-09-01 08:00","2006","09","01","08:00","18.7","","14.8","","78","","8","","17","","24.1","","100.00","","","","","","Cloudy"
"2006-09-01 09:00","2006","09","01","09:00","19.1","","15.0","","77","","8","","20","","24.1","","99.99","","","","","","Cloudy"
"2006-09-01 10:00","2006","09","01","10:00","19.8","","14.9","","73","","8","","19","","24.1","","100.01","","","","","","Cloudy"
"2006-09-01 11:00","2006","09","01","11:00","20.4","","14.5","","69","","7","","28","","24.1","","100.02","","","","","","Cloudy"
"2006-09-01 12:00","2006","09","01","12:00","21.2","","13.6","","62","","9","","22","","24.1","","100.01","","","","","","Cloudy"
"2006-09-01 13:00","2006","09","01","13:00","21.2","","13.0","","59","","7","","22","","24.1","","100.03","","","","","","Cloudy"
"2006-09-01 14:00","2006","09","01","14:00","20.9","","15.7","","72","","5","","22","","24.1","","100.02","","25","","","","Mostly Cloudy"
"2006-09-01 15:00","2006","09","01","15:00","20.9","","14.1","","65","","6","","24","","24.1","","99.97","","","","","","Mostly Cloudy"
"2006-09-01 16:00","2006","09","01","16:00","21.6","","13.6","","60","","6","","20","","24.1","","99.97","","25","","","","Mostly Cloudy"
"2006-09-01 17:00","2006","09","01","17:00","21.6","","13.1","","58","","6","","20","","24.1","","99.95","","","","","","Mostly Cloudy"
"2006-09-01 18:00","2006","09","01","18:00","20.8","","12.3","","58","","9","","11","","24.1","","99.98","","","","","","Mostly Cloudy"
"2006-09-01 19:00","2006","09","01","19:00","19.7","","12.5","","63","","9","","15","","24.1","","99.95","","","","","","Mostly Cloudy"
"2006-09-01 20:00","2006","09","01","20:00","18.8","","13.3","","70","","8","","15","","24.1","","99.96","","","","","","Mostly Cloudy"
"2006-09-01 21:00","2006","09","01","21:00","19.2","","13.8","","71","","8","","11","","24.1","","100.05","","","","","","Mostly Cloudy"
"2006-09-01 22:00","2006","09","01","22:00","18.8","","13.8","","73","","9","","15","","24.1","","100.05","","","","","","Mostly Cloudy"
"2006-09-01 23:00","2006","09","01","23:00","18.2","","13.8","","75","","9","","13","","24.1","","100.01","","","","","","Mostly Cloudy"
"2006-09-02 00:00","2006","09","02","00:00","17.4","","13.9","","80","","8","","11","","24.1","","99.99","","","","","","Mostly Cloudy"
"2006-09-02 01:00","2006","09","02","01:00","17.2","","14.4","","84","","9","","11","","24.1","","99.97","","","","","","Mostly Cloudy"
"2006-09-02 02:00","2006","09","02","02:00","16.8","","14.7","","87","","8","","13","","24.1","","99.93","","","","","","Mainly Clear"
"2006-09-02 03:00","2006","09","02","03:00","16.7","","14.4","","86","","9","","7","","24.1","","99.93","","","","","","Mostly Cloudy"
"2006-09-02 04:00","2006","09","02","04:00","16.4","","14.5","","89","","6","","7","","24.1","","99.93","","","","","","Mostly Cloudy"
"2006-09-02 05:00","2006","09","02","05:00","16.4","","14.2","","87","","4","","9","","24.1","","99.89","","","","","","Cloudy"
"2006-09-02 06:00","2006","09","02","06:00","16.9","","15.1","","89","","5","","11","","24.1","","99.93","","","","","","Cloudy"
"2006-09-02 07:00","2006","09","02","07:00","17.3","","15.3","","88","","4","","13","","24.1","","99.91","","","","","","Cloudy"
"2006-09-02 08:00","2006","09","02","08:00","17.8","","15.6","","87","","5","","17","","24.1","","99.91","","","","","","Cloudy"
"2006-09-02 09:00","2006","09","02","09:00","18.1","","15.7","","86","","5","","15","","24.1","","99.88","","","","","","Cloudy"
"2006-09-02 10:00","2006","09","02","10:00","18.5","","15.4","","82","","4","","24","","24.1","","99.87","","","","","","Cloudy"
"2006-09-02 11:00","2006","09","02","11:00","18.9","","15.3","","80","","4","","17","","24.1","","99.86","","","","","","Cloudy"
"2006-09-02 12:00","2006","09","02","12:00","19.4","","15.3","","77","","5","","20","","24.1","","99.85","","","","","","Rain Showers"
"2006-09-02 13:00","2006","09","02","13:00","19.4","","14.6","","74","","6","","28","","24.1","","99.86","","","","","","Rain Showers"
"2006-09-02 14:00","2006","09","02","14:00","19.3","","14.3","","73","","5","","32","","24.1","","99.84","","","","","","Rain"
"2006-09-02 15:00","2006","09","02","15:00","18.3","","13.8","","75","","6","","26","","24.1","","99.83","","","","","","Rain"
"2006-09-02 16:00","2006","09","02","16:00","14.9","","13.5","","91","","6","","24","","1.6","","99.89","","","","","","Rain,Fog"
"2006-09-02 17:00","2006","09","02","17:00","15.5","","13.8","","90","","6","","35","","4.0","","99.87","","","","","","Rain,Fog"
"2006-09-02 18:00","2006","09","02","18:00","15.2","","13.7","","91","","4","","22","","4.8","","99.86","","","","","","Rain,Fog"
"2006-09-02 19:00","2006","09","02","19:00","15.4","","14.0","","91","","1","","15","","9.7","","99.81","","","","","","Rain,Fog"
"2006-09-02 20:00","2006","09","02","20:00","15.2","","12.8","","86","","6","","22","","24.1","","99.80","","","","","","Cloudy"
"2006-09-02 21:00","2006","09","02","21:00","15.1","","12.7","","86","","5","","17","","24.1","","99.76","","","","","","Cloudy"
"2006-09-02 22:00","2006","09","02","22:00","14.9","","12.0","","83","","36","","19","","24.1","","99.73","","","","","","Cloudy"
"2006-09-02 23:00","2006","09","02","23:00","14.2","","11.3","","83","","36","","17","","24.1","","99.72","","","","","","Mostly Cloudy"
"2006-09-03 00:00","2006","09","03","00:00","14.3","","11.8","","85","","36","","17","","24.1","","99.68","","","","","","Cloudy"
"2006-09-03 01:00","2006","09","03","01:00","14.5","","12.0","","85","","35","","11","","24.1","","99.65","","","","","","Cloudy"
"2006-09-03 02:00","2006","09","03","02:00","14.6","","12.2","","86","","34","","19","","24.1","","99.60","","","","","","Cloudy"
"2006-09-03 03:00","2006","09","03","03:00","14.5","","12.5","","88","","36","","17","","24.1","","99.60","","","","","","Cloudy"
"2006-09-03 04:00","2006","09","03","04:00","14.3","","12.7","","90","","36","","13","","24.1","","99.60","","","","","","Cloudy"
"2006-09-03 05:00","2006","09","03","05:00","14.2","","12.8","","91","","34","","13","","24.1","","99.63","","","","","","Mostly Cloudy"
"2006-09-03 06:00","2006","09","03","06:00","14.2","","12.6","","90","","35","","11","","24.1","","99.68","","","","","","Mostly Cloudy"
"2006-09-03 07:00","2006","09","03","07:00","14.7","","12.9","","89","","33","","11","","24.1","","99.72","","","","","","Mainly Clear"
"2006-09-03 08:00","2006","09","03","08:00","15.3","","12.9","","86","","31","","13","","24.1","","99.79","","","","","","Mostly Cloudy"
"2006-09-03 09:00","2006","09","03","09:00","16.6","","13.3","","81","","31","","15","","24.1","","99.80","","","","","","Mostly Cloudy"
"2006-09-03 10:00","2006","09","03","10:00","18.1","","13.5","","74","","31","","19","","24.1","","99.80","","","","","","Mostly Cloudy"
"2006-09-03 11:00","2006","09","03","11:00","19.4","","13.2","","67","","33","","20","","24.1","","99.81","","","","","","Mostly Cloudy"
"2006-09-03 12:00","2006","09","03","12:00","20.8","","13.0","","61","","35","","13","","24.1","","99.77","","","","","","Mostly Cloudy"
"2006-09-03 13:00","2006","09","03","13:00","21.3","","12.7","","58","","36","","17","","24.1","","99.75","","","","","","Mostly Cloudy"
"2006-09-03 14:00","2006","09","03","14:00","21.5","","12.6","","57","","32","","19","","24.1","","99.73","","","","","","Mostly Cloudy"
"2006-09-03 15:00","2006","09","03","15:00","21.9","","12.1","","54","","33","","9","","24.1","","99.69","","","","","","Mostly Cloudy"
"2006-09-03 16:00","2006","09","03","16:00","22.3","","12.4","","53","","31","","15","","24.1","","99.67","","25","","","","Mostly Cloudy"
"2006-09-03 17:00","2006","09","03","17:00","21.9","","12.1","","54","","36","","13","","24.1","","99.65","","","","","","Mainly Clear"
"2006-09-03 18:00","2006","09","03","18:00","20.5","","14.0","","66","","8","","9","","24.1","","99.66","","","","","","Mostly Cloudy"
"2006-09-03 19:00","2006","09","03","19:00","19.5","","14.1","","71","","8","","7","","24.1","","99.66","","","","","","Mainly Clear"
"2006-09-03 20:00","2006","09","03","20:00","17.5","","13.9","","79","","15","","6","","24.1","","99.70","","","","","","Mainly Clear"
"2006-09-03 21:00","2006","09","03","21:00","17.0","","13.8","","81","","18","","7","","24.1","","99.75","","","","","","Mainly Clear"
"2006-09-03 22:00","2006","09","03","22:00","16.4","","13.5","","83","","18","","6","","24.1","","99.76","","","","","","Mainly Clear"
"2006-09-03 23:00","2006","09","03","23:00","16.5","","13.2","","81","","20","","6","","24.1","","99.75","","","","","","Mainly Clear"
"2006-09-04 00:00","2006","09","04","00:00","16.3","","13.0","","81","","22","","9","","24.1","","99.74","","","","","","Mainly Clear"
"2006-09-04 01:00","2006","09","04","01:00","16.7","","13.2","","80","","26","","7","","24.1","","99.74","","","","","","Mainly Clear"
"2006-09-04 02:00","2006","09","04","02:00","16.3","","13.0","","81","","27","","13","","24.1","","99.72","","","","","","Clear"
"2006-09-04 03:00","2006","09","04","03:00","16.1","","12.6","","80","","26","","11","","24.1","","99.72","","","","","","Mainly Clear"
"2006-09-04 04:00","2006","09","04","04:00","15.5","","12.5","","82","","25","","11","","24.1","","99.72","","","","","","Clear"
"2006-09-04 05:00","2006","09","04","05:00","14.9","","12.6","","86","","26","","11","","24.1","","99.73","","","","","","Mainly Clear"
"2006-09-04 06:00","2006","09","04","06:00","14.7","","12.7","","88","","27","","9","","19.3","","99.74","","","","","","Mainly Clear"
"2006-09-04 07:00","2006","09","04","07:00","15.4","","13.2","","87","","26","","6","","24.1","","99.79","","","","","","Mainly Clear"
"2006-09-04 08:00","2006","09","04","08:00","17.7","","14.1","","79","","29","","11","","24.1","","99.82","","","","","","Mainly Clear"
"2006-09-04 09:00","2006","09","04","09:00","18.9","","13.9","","73","","27","","9","","24.1","","99.84","","","","","","Mostly Cloudy"
"2006-09-04 10:00","2006","09","04","10:00","20.1","","14.7","","71","","27","","9","","24.1","","99.85","","","","","","Mostly Cloudy"
"2006-09-04 11:00","2006","09","04","11:00","22.1","","14.1","","60","","29","","13","","24.1","","99.84","","26","","","","Mostly Cloudy"
"2006-09-04 12:00","2006","09","04","12:00","22.9","","13.9","","57","","34","","13","","24.1","","99.82","","26","","","","Mostly Cloudy"
"2006-09-04 13:00","2006","09","04","13:00","23.5","","13.1","","52","","30","","11","","24.1","","99.78","","26","","","","Cloudy"
"2006-09-04 14:00","2006","09","04","14:00","23.1","","13.7","","55","","32","","4","","24.1","","99.74","","26","","","","Cloudy"
"2006-09-04 15:00","2006","09","04","15:00","22.6","","14.8","","61","","8","","9","","24.1","","99.70","","26","","","","Cloudy"
"2006-09-04 16:00","2006","09","04","16:00","21.9","","15.2","","66","","9","","6","","24.1","","99.69","","26","","","","Cloudy"
"2006-09-04 17:00","2006","09","04","17:00","22.5","","15.3","","64","","12","","7","","19.3","","99.65","","27","","","","Cloudy"
"2006-09-04 18:00","2006","09","04","18:00","21.9","","15.0","","65","","14","","6","","19.3","","99.66","","26","","","","Mostly Cloudy"
"2006-09-04 19:00","2006","09","04","19:00","21.0","","14.6","","67","","6","","9","","19.3","","99.68","","25","","","","Mostly Cloudy"
"2006-09-04 20:00","2006","09","04","20:00","19.9","","15.5","","76","","6","","9","","24.1","","99.72","","","","","","Mostly Cloudy"
"2006-09-04 21:00","2006","09","04","21:00","18.5","","15.6","","83","","11","","6","","24.1","","99.76","","","","","","Mostly Cloudy"
"2006-09-04 22:00","2006","09","04","22:00","17.8","","14.9","","83","","13","","6","","24.1","","99.78","","","","","","Mostly Cloudy"
"2006-09-04 23:00","2006","09","04","23:00","17.4","","13.7","","79","","12","","4","","24.1","","99.78","","","","","","Mainly Clear"
"2006-09-05 00:00","2006","09","05","00:00","16.4","","13.0","","80","","10","","6","","24.1","","99.76","","","","","","Mainly Clear"
"2006-09-05 01:00","2006","09","05","01:00","14.7","","12.4","","86","","8","","4","","24.1","","99.74","","","","","","Clear"
"2006-09-05 02:00","2006","09","05","02:00","14.3","","12.1","","87","","5","","4","","24.1","","99.68","","","","","","Clear"
"2006-09-05 03:00","2006","09","05","03:00","15.0","","11.9","","82","","","","0","","24.1","","99.66","","","","","","Clear"
"2006-09-05 04:00","2006","09","05","04:00","13.9","","11.5","","85","","","","0","","24.1","","99.66","","","","","","Clear"
"2006-09-05 05:00","2006","09","05","05:00","13.6","","11.2","","85","","","","0","","24.1","","99.66","","","","","","Mainly Clear"
"2006-09-05 06:00","2006","09","05","06:00","13.9","","11.6","","86","","30","","4","","24.1","","99.67","","","","","","Mainly Clear"
"2006-09-05 07:00","2006","09","05","07:00","15.2","","13.0","","87","","","","0","","24.1","","99.69","","","","","","Mainly Clear"
"2006-09-05 08:00","2006","09","05","08:00","17.5","","14.7","","84","","","","0","","24.1","","99.68","","","","","","Mainly Clear"
"2006-09-05 09:00","2006","09","05","09:00","19.9","","15.1","","74","","9","","6","","24.1","","99.67","","","","","","Mainly Clear"
"2006-09-05 10:00","2006","09","05","10:00","21.3","","14.1","","64","","7","","6","","24.1","","99.66","","25","","","","Mainly Clear"
"2006-09-05 11:00","2006","09","05","11:00","22.3","","13.0","","56","","9","","13","","24.1","","99.75","","25","","","","Mainly Clear"
"2006-09-05 12:00","2006","09","05","12:00","22.5","","13.0","","55","","7","","9","","24.1","","99.60","","25","","","","Mostly Cloudy"
"2006-09-05 13:00","2006","09","05","13:00","22.9","","12.9","","53","","7","","11","","24.1","","99.53","","26","","","","Mostly Cloudy"
"2006-09-05 14:00","2006","09","05","14:00","23.8","","13.1","","51","","10","","9","","24.1","","99.47","","27","","","","Mostly Cloudy"
"2006-09-05 15:00","2006","09","05","15:00","23.4","","12.7","","51","","7","","11","","24.1","","99.37","","26","","","","Mostly Cloudy"
"2006-09-05 16:00","2006","09","05","16:00","23.3","","11.3","","47","","8","","13","","24.1","","99.36","","25","","","","Mostly Cloudy"
"2006-09-05 17:00","2006","09","05","17:00","22.7","","10.9","","47","","9","","4","","24.1","","99.36","","","","","","Mostly Cloudy"
"2006-09-05 18:00","2006","09","05","18:00","21.8","","11.1","","51","","22","","7","","24.1","","99.36","","","","","","Mostly Cloudy"
"2006-09-05 19:00","2006","09","05","19:00","20.2","","14.4","","69","","27","","15","","19.3","","99.32","","","","","","Mostly Cloudy"
"2006-09-05 20:00","2006","09","05","20:00","18.6","","15.0","","80","","28","","4","","19.3","","99.39","","","","","","Rain Showers"
"2006-09-05 21:00","2006","09","05","21:00","18.4","","15.0","","81","","30","","11","","24.1","","99.43","","","","","","Rain Showers"
"2006-09-05 22:00","2006","09","05","22:00","18.2","","15.2","","83","","30","","6","","24.1","","99.42","","","","","","Cloudy"
"2006-09-05 23:00","2006","09","05","23:00","17.9","","14.3","","79","","32","","9","","24.1","","99.42","","","","","","Mostly Cloudy"
"2006-09-06 00:00","2006","09","06","00:00","17.3","","14.2","","82","","26","","4","","24.1","","99.40","","","","","","Mostly Cloudy"
"2006-09-06 01:00","2006","09","06","01:00","17.0","","14.3","","84","","22","","6","","24.1","","99.38","","","","","","Mostly Cloudy"
"2006-09-06 02:00","2006","09","06","02:00","17.2","","14.1","","82","","28","","7","","24.1","","99.36","","","","","","Mostly Cloudy"
"2006-09-06 03:00","2006","09","06","03:00","16.8","","14.1","","84","","27","","11","","40.2","","99.36","","","","","","Mostly Cloudy"
"2006-09-06 04:00","2006","09","06","04:00","16.5","","14.2","","86","","26","","7","","24.1","","99.38","","","","","","Rain Showers"
"2006-09-06 05:00","2006","09","06","05:00","16.4","","14.3","","87","","27","","6","","24.1","","99.37","","","","","","Mostly Cloudy"
"2006-09-06 06:00","2006","09","06","06:00","16.8","","14.7","","87","","27","","4","","24.1","","99.40","","","","","","Mostly Cloudy"
"2006-09-06 07:00","2006","09","06","07:00","17.3","","15.3","","88","","26","","6","","9.7","","99.43","","","","","","Rain Showers,Haze"
"2006-09-06 08:00","2006","09","06","08:00","18.0","","15.9","","88","","27","","7","","9.7","","99.45","","","","","","Haze"
"2006-09-06 09:00","2006","09","06","09:00","20.3","","16.3","","78","","27","","6","","11.3","","99.47","","25","","","","Mostly Cloudy"
"2006-09-06 10:00","2006","09","06","10:00","21.5","","15.9","","70","","35","","11","","16.1","","99.54","","26","","","","Mainly Clear"
"2006-09-06 11:00","2006","09","06","11:00","23.1","","15.0","","60","","1","","7","","24.1","","99.55","","27","","","","Mainly Clear"
"2006-09-06 12:00","2006","09","06","12:00","24.4","","15.3","","57","","5","","7","","24.1","","99.54","","29","","","","Mainly Clear"
"2006-09-06 13:00","2006","09","06","13:00","23.5","","16.4","","64","","7","","11","","24.1","","99.52","","28","","","","Mostly Cloudy"
"2006-09-06 14:00","2006","09","06","14:00","22.3","","17.5","","74","","8","","9","","24.1","","99.51","","28","","","","Thunderstorms,Rain Showers"
"2006-09-06 15:00","2006","09","06","15:00","21.6","","17.8","","79","","","","0","","16.1","","99.53","","27","","","","Thunderstorms,Rain Showers"
"2006-09-06 16:00","2006","09","06","16:00","19.8","","17.5","","87","","","","0","","19.3","","99.53","","","","","","Thunderstorms,Rain Showers"
"2006-09-06 17:00","2006","09","06","17:00","19.8","","17.3","","86","","22","","4","","19.3","","99.52","","","","","","Rain Showers"
"2006-09-06 18:00","2006","09","06","18:00","20.5","","16.6","","78","","","","0","","24.1","","99.51","","26","","","","Mostly Cloudy"
"2006-09-06 19:00","2006","09","06","19:00","19.1","","17.2","","89","","","","0","","19.3","","99.55","","","","","","Mostly Cloudy"
"2006-09-06 20:00","2006","09","06","20:00","18.1","","16.2","","89","","7","","11","","24.1","","99.61","","","","","","Mostly Cloudy"
"2006-09-06 21:00","2006","09","06","21:00","16.9","","15.1","","89","","6","","11","","19.3","","99.67","","","","","","Mainly Clear"
"2006-09-06 22:00","2006","09","06","22:00","17.0","","15.2","","89","","8","","7","","19.3","","99.66","","","","","","Mostly Cloudy"
"2006-09-06 23:00","2006","09","06","23:00","16.0","","14.6","","91","","9","","7","","19.3","","99.68","","","","","","Mainly Clear"
"2006-09-07 00:00","2006","09","07","00:00","15.6","","14.1","","91","","9","","6","","24.1","","99.66","","","","","","Mainly Clear"
"2006-09-07 01:00","2006","09","07","01:00","14.0","","13.1","","94","","18","","6","","24.1","","99.65","","","","","","Mostly Cloudy"
"2006-09-07 02:00","2006","09","07","02:00","13.4","","12.5","","94","","18","","4","","19.3","","99.62","","","","","","Mainly Clear"
"2006-09-07 03:00","2006","09","07","03:00","13.4","","12.7","","96","","","","0","","24.1","","99.60","","","","","","Mainly Clear"
"2006-09-07 04:00","2006","09","07","04:00","13.1","","12.4","","96","","","","0","","24.1","","99.60","","","","","","Mainly Clear"
"2006-09-07 05:00","2006","09","07","05:00","13.9","","13.0","","94","","","","0","","24.1","","99.61","","","","","","Mostly Cloudy"
"2006-09-07 06:00","2006","09","07","06:00","13.7","","13.0","","96","","","","0","","16.1","","99.64","","","","","","Mostly Cloudy"
"2006-09-07 07:00","2006","09","07","07:00","14.6","","13.4","","93","","14","","6","","24.1","","99.65","","","","","","Mostly Cloudy"
"2006-09-07 08:00","2006","09","07","08:00","16.2","","14.8","","91","","","","0","","24.1","","99.68","","","","","","Mostly Cloudy"
"2006-09-07 09:00","2006","09","07","09:00","17.9","","15.5","","86","","","","0","","24.1","","99.70","","","","","","Mostly Cloudy"
"2006-09-07 10:00","2006","09","07","10:00","20.4","","17.1","","81","","","","0","","24.1","","99.73","","26","","","","Mostly Cloudy"
"2006-09-07 11:00","2006","09","07","11:00","22.3","","17.2","","73","","9","","4","","19.3","","99.70","","28","","","","Mostly Cloudy"
"2006-09-07 12:00","2006","09","07","12:00","23.7","","16.9","","66","","","","0","","24.1","","99.64","","29","","","","Mostly Cloudy"
"2006-09-07 13:00","2006","09","07","13:00","24.7","","17.2","","63","","22","","9","","24.1","","99.58","","30","","","","Mostly Cloudy"
"2006-09-07 14:00","2006","09","07","14:00","25.1","","15.9","","57","","22","","4","","24.1","","99.53","","30","","","","Mostly Cloudy"
"2006-09-07 15:00","2006","09","07","15:00","25.4","","17.5","","62","","9","","15","","24.1","","99.47","","31","","","","Mostly Cloudy"
"2006-09-07 16:00","2006","09","07","16:00","25.8","","16.0","","55","","36","","4","","24.1","","99.43","","30","","","","Mainly Clear"
"2006-09-07 17:00","2006","09","07","17:00","25.2","","15.4","","55","","21","","13","","24.1","","99.38","","29","","","","Mainly Clear"
"2006-09-07 18:00","2006","09","07","18:00","24.6","","15.0","","55","","20","","11","","24.1","","99.36","","29","","","","Mainly Clear"
"2006-09-07 19:00","2006","09","07","19:00","22.6","","15.2","","63","","20","","11","","24.1","","99.35","","27","","","","Mainly Clear"
"2006-09-07 20:00","2006","09","07","20:00","20.3","","16.1","","77","","18","","11","","24.1","","99.41","","25","","","","Mainly Clear"
"2006-09-07 21:00","2006","09","07","21:00","19.2","","16.7","","85","","18","","7","","24.1","","99.42","","","","","","Mostly Cloudy"
"2006-09-07 22:00","2006","09","07","22:00","19.6","","16.7","","83","","19","","11","","24.1","","99.38","","","","","","Mostly Cloudy"
"2006-09-07 23:00","2006","09","07","23:00","19.7","","16.7","","83","","20","","9","","24.1","","99.37","","","","","","Mainly Clear"
"2006-09-08 00:00","2006","09","08","00:00","18.7","","16.5","","87","","20","","9","","24.1","","99.39","","","","","","Mainly Clear"
"2006-09-08 01:00","2006","09","08","01:00","19.0","","16.6","","86","","22","","7","","24.1","","99.38","","","","","","Mainly Clear"
"2006-09-08 02:00","2006","09","08","02:00","18.5","","15.9","","85","","23","","7","","24.1","","99.39","","","","","","Mainly Clear"
"2006-09-08 03:00","2006","09","08","03:00","18.0","","14.8","","82","","23","","7","","24.1","","99.39","","","","","","Mainly Clear"
"2006-09-08 04:00","2006","09","08","04:00","17.5","","14.3","","81","","22","","6","","24.1","","99.39","","","","","","Mainly Clear"
"2006-09-08 05:00","2006","09","08","05:00","17.1","","14.2","","83","","22","","7","","24.1","","99.41","","","","","","Mainly Clear"
"2006-09-08 06:00","2006","09","08","06:00","16.7","","14.0","","84","","19","","7","","9.7","","99.43","","","","","","Haze"
"2006-09-08 07:00","2006","09","08","07:00","18.0","","16.6","","92","","22","","11","","12.9","","99.46","","","","","","Clear"
"2006-09-08 08:00","2006","09","08","08:00","19.3","","15.3","","78","","23","","15","","12.9","","99.48","","","","","","Clear"
"2006-09-08 09:00","2006","09","08","09:00","21.1","","15.8","","72","","21","","17","","12.9","","99.51","","26","","","","Clear"
"2006-09-08 10:00","2006","09","08","10:00","23.1","","16.4","","66","","24","","19","","24.1","","99.51","","28","","","","Mainly Clear"
"2006-09-08 11:00","2006","09","08","11:00","24.6","","16.4","","60","","22","","20","","24.1","","99.49","","29","","","","Mainly Clear"
"2006-09-08 12:00","2006","09","08","12:00","25.6","","16.6","","58","","22","","19","","24.1","","99.43","","31","","","","Mainly Clear"
"2006-09-08 13:00","2006","09","08","13:00","26.7","","16.4","","53","","21","","24","","24.1","","99.37","","32","","","","Mainly Clear"
"2006-09-08 14:00","2006","09","08","14:00","27.5","","16.6","","51","","22","","20","","24.1","","99.31","","33","","","","Mainly Clear"
"2006-09-08 15:00","2006","09","08","15:00","27.6","","15.6","","48","","20","","26","","24.1","","99.25","","32","","","","Mainly Clear"
"2006-09-08 16:00","2006","09","08","16:00","27.5","","15.8","","49","","22","","20","","24.1","","99.21","","32","","","","Mainly Clear"
"2006-09-08 17:00","2006","09","08","17:00","27.7","","14.5","","44","","24","","20","","24.1","","99.20","","31","","","","Mainly Clear"
"2006-09-08 18:00","2006","09","08","18:00","26.9","","14.2","","46","","25","","15","","24.1","","99.19","","30","","","","Mainly Clear"
"2006-09-08 19:00","2006","09","08","19:00","25.3","","14.4","","51","","24","","15","","24.1","","99.20","","29","","","","Mainly Clear"
"2006-09-08 20:00","2006","09","08","20:00","24.1","","14.8","","56","","25","","11","","24.1","","99.27","","28","","","","Mainly Clear"
"2006-09-08 21:00","2006","09","08","21:00","23.4","","14.8","","58","","25","","11","","24.1","","99.31","","27","","","","Clear"
"2006-09-08 22:00","2006","09","08","22:00","21.9","","15.0","","65","","23","","11","","24.1","","99.32","","26","","","","Mainly Clear"
"2006-09-08 23:00","2006","09","08","23:00","21.6","","15.3","","67","","24","","9","","24.1","","99.35","","26","","","","Mostly Cloudy"
"2006-09-09 00:00","2006","09","09","00:00","21.3","","15.5","","70","","29","","9","","24.1","","99.37","","26","","","","Mostly Cloudy"
"2006-09-09 01:00","2006","09","09","01:00","20.9","","15.3","","70","","32","","4","","24.1","","99.33","","25","","","","Mostly Cloudy"
"2006-09-09 02:00","2006","09","09","02:00","19.2","","15.3","","78","","23","","11","","24.1","","99.31","","","","","","Mainly Clear"
"2006-09-09 03:00","2006","09","09","03:00","19.0","","15.2","","79","","23","","9","","16.1","","99.33","","","","","","Mainly Clear"
"2006-09-09 04:00","2006","09","09","04:00","19.3","","14.2","","72","","","","0","","12.9","","99.42","","","","","","Mainly Clear"
"2006-09-09 05:00","2006","09","09","05:00","17.2","","14.2","","83","","","","0","","19.3","","99.42","","","","","","Mainly Clear"
"2006-09-09 06:00","2006","09","09","06:00","16.5","","13.7","","84","","35","","9","","12.9","","99.52","","","","","","Mostly Cloudy"
"2006-09-09 07:00","2006","09","09","07:00","16.7","","14.1","","85","","17","","6","","19.3","","99.49","","","","","","Mainly Clear"
"2006-09-09 08:00","2006","09","09","08:00","19.6","","15.7","","78","","","","0","","24.1","","99.53","","","","","","Mainly Clear"
"2006-09-09 09:00","2006","09","09","09:00","20.8","","15.5","","72","","","","0","","24.1","","99.55","","25","","","","Mostly Cloudy"
"2006-09-09 10:00","2006","09","09","10:00","21.8","","15.5","","67","","1","","13","","24.1","","99.64","","26","","","","Mostly Cloudy"
"2006-09-09 11:00","2006","09","09","11:00","20.8","","14.8","","69","","5","","17","","24.1","","99.65","","25","","","","Mostly Cloudy"
"2006-09-09 12:00","2006","09","09","12:00","21.0","","15.4","","70","","9","","15","","24.1","","99.62","","25","","","","Mostly Cloudy"
"2006-09-09 13:00","2006","09","09","13:00","18.0","","15.3","","84","","6","","7","","16.1","","99.69","","","","","","Thunderstorms,Rain Showers"
"2006-09-09 14:00","2006","09","09","14:00","19.1","","16.5","","85","","3","","20","","24.1","","99.67","","","","","","Rain Showers"
"2006-09-09 15:00","2006","09","09","15:00","18.2","","15.4","","84","","4","","24","","19.3","","99.67","","","","","","Mostly Cloudy"
"2006-09-09 16:00","2006","09","09","16:00","18.0","","14.1","","78","","5","","26","","19.3","","99.66","","","","","","Mostly Cloudy"
"2006-09-09 17:00","2006","09","09","17:00","17.4","","13.1","","76","","3","","26","","19.3","","99.70","","","","","","Mostly Cloudy"
"2006-09-09 18:00","2006","09","09","18:00","16.8","","12.5","","76","","2","","20","","19.3","","99.75","","","","","","Cloudy"
"2006-09-09 19:00","2006","09","09","19:00","16.0","","11.8","","76","","3","","20","","19.3","","99.77","","","","","","Cloudy"
"2006-09-09 20:00","2006","09","09","20:00","15.8","","11.4","","75","","4","","28","","24.1","","99.85","","","","","","Cloudy"
"2006-09-09 21:00","2006","09","09","21:00","15.7","","10.6","","72","","3","","26","","24.1","","99.95","","","","","","Cloudy"
"2006-09-09 22:00","2006","09","09","22:00","15.6","","10.6","","72","","5","","19","","24.1","","99.98","","","","","","Cloudy"
"2006-09-09 23:00","2006","09","09","23:00","15.7","","10.4","","71","","3","","19","","24.1","","99.99","","","","","","Cloudy"
"2006-09-10 00:00","2006","09","10","00:00","14.9","","10.1","","73","","1","","11","","24.1","","99.99","","","","","","Cloudy"
"2006-09-10 01:00","2006","09","10","01:00","15.2","","10.5","","74","","5","","22","","24.1","","99.98","","","","","","Cloudy"
"2006-09-10 02:00","2006","09","10","02:00","15.1","","9.9","","71","","5","","20","","24.1","","99.98","","","","","","Cloudy"
"2006-09-10 03:00","2006","09","10","03:00","14.7","","10.0","","73","","4","","20","","24.1","","100.00","","","","","","Cloudy"
"2006-09-10 04:00","2006","09","10","04:00","14.6","","9.8","","73","","6","","19","","24.1","","99.98","","","","","","Cloudy"
"2006-09-10 05:00","2006","09","10","05:00","14.3","","9.4","","72","","5","","13","","24.1","","100.04","","","","","","Cloudy"
"2006-09-10 06:00","2006","09","10","06:00","14.6","","8.8","","68","","4","","19","","24.1","","100.09","","","","","","Mostly Cloudy"
"2006-09-10 07:00","2006","09","10","07:00","14.7","","8.5","","66","","5","","20","","24.1","","100.12","","","","","","Mostly Cloudy"
"2006-09-10 08:00","2006","09","10","08:00","14.8","","8.2","","65","","5","","24","","24.1","","100.15","","","","","","Mostly Cloudy"
"2006-09-10 09:00","2006","09","10","09:00","14.7","","8.7","","67","","4","","26","","24.1","","100.20","","","","","","Mostly Cloudy"
"2006-09-10 10:00","2006","09","10","10:00","14.8","","9.6","","71","","5","","20","","24.1","","100.28","","","","","","Mostly Cloudy"
"2006-09-10 11:00","2006","09","10","11:00","14.5","","10.6","","77","","5","","22","","24.1","","100.28","","","","","","Cloudy"
"2006-09-10 12:00","2006","09","10","12:00","14.7","","10.6","","76","","5","","19","","24.1","","100.28","","","","","","Cloudy"
"2006-09-10 13:00","2006","09","10","13:00","15.1","","10.9","","76","","5","","22","","24.1","","100.26","","","","","","Cloudy"
"2006-09-10 14:00","2006","09","10","14:00","15.8","","10.9","","73","","7","","19","","24.1","","100.23","","","","","","Cloudy"
"2006-09-10 15:00","2006","09","10","15:00","16.3","","10.7","","69","","6","","17","","24.1","","100.20","","","","","","Cloudy"
"2006-09-10 16:00","2006","09","10","16:00","16.8","","10.6","","67","","7","","19","","24.1","","100.18","","","","","","Cloudy"
"2006-09-10 17:00","2006","09","10","17:00","16.5","","10.2","","66","","3","","19","","24.1","","100.18","","","","","","Mostly Cloudy"
"2006-09-10 18:00","2006","09","10","18:00","16.0","","9.8","","67","","4","","20","","24.1","","100.16","","","","","","Cloudy"
"2006-09-10 19:00","2006","09","10","19:00","15.8","","9.4","","66","","5","","17","","24.1","","100.18","","","","","","Cloudy"
"2006-09-10 20:00","2006","09","10","20:00","15.4","","9.4","","67","","6","","15","","24.1","","100.23","","","","","","Cloudy"
"2006-09-10 21:00","2006","09","10","21:00","15.2","","9.4","","68","","6","","13","","24.1","","100.20","","","","","","Mostly Cloudy"
"2006-09-10 22:00","2006","09","10","22:00","15.3","","9.7","","69","","6","","15","","24.1","","100.25","","","","","","Cloudy"
"2006-09-10 23:00","2006","09","10","23:00","15.1","","9.8","","71","","8","","13","","24.1","","100.25","","","","","","Cloudy"
"2006-09-11 00:00","2006","09","11","00:00","15.0","","8.2","","64","","8","","19","","24.1","","100.22","","","","","","Mostly Cloudy"
"2006-09-11 01:00","2006","09","11","01:00","14.7","","8.3","","65","","9","","13","","24.1","","100.24","","","","","","Cloudy"
"2006-09-11 02:00","2006","09","11","02:00","14.2","","8.9","","70","","7","","13","","24.1","","100.20","","","","","","Cloudy"
"2006-09-11 03:00","2006","09","11","03:00","14.3","","10.2","","76","","6","","15","","24.1","","100.23","","","","","","Cloudy"
"2006-09-11 04:00","2006","09","11","04:00","14.3","","10.8","","79","","6","","17","","24.1","","100.20","","","","","","Cloudy"
"2006-09-11 05:00","2006","09","11","05:00","14.5","","10.4","","76","","7","","19","","24.1","","100.20","","","","","","Cloudy"
"2006-09-11 06:00","2006","09","11","06:00","14.4","","10.6","","78","","8","","22","","24.1","","100.20","","","","","","Cloudy"
"2006-09-11 07:00","2006","09","11","07:00","14.7","","11.2","","80","","8","","20","","24.1","","100.22","","","","","","Mostly Cloudy"
"2006-09-11 08:00","2006","09","11","08:00","15.5","","12.0","","80","","7","","22","","24.1","","100.22","","","","","","Mostly Cloudy"
"2006-09-11 09:00","2006","09","11","09:00","16.7","","12.5","","76","","7","","19","","24.1","","100.21","","","","","","Mostly Cloudy"
"2006-09-11 10:00","2006","09","11","10:00","17.7","","13.2","","75","","8","","20","","24.1","","100.21","","","","","","Mostly Cloudy"
"2006-09-11 11:00","2006","09","11","11:00","18.5","","13.6","","73","","7","","20","","24.1","","100.20","","","","","","Mostly Cloudy"
"2006-09-11 12:00","2006","09","11","12:00","20.0","","13.9","","68","","7","","26","","24.1","","100.15","","","","","","Mostly Cloudy"
"2006-09-11 13:00","2006","09","11","13:00","20.4","","13.9","","66","","7","","28","","24.1","","100.13","","","","","","Mostly Cloudy"
"2006-09-11 14:00","2006","09","11","14:00","20.2","","13.8","","67","","7","","22","","24.1","","100.06","","","","","","Mostly Cloudy"
"2006-09-11 15:00","2006","09","11","15:00","19.7","","13.3","","67","","7","","28","","40.2","","100.01","","","","","","Mostly Cloudy"
"2006-09-11 16:00","2006","09","11","16:00","20.0","","13.0","","64","","8","","24","","24.1","","99.94","","","","","","Mostly Cloudy"
"2006-09-11 17:00","2006","09","11","17:00","19.3","","12.6","","65","","8","","19","","24.1","","99.93","","","","","","Rain Showers"
"2006-09-11 18:00","2006","09","11","18:00","18.8","","12.5","","67","","9","","19","","24.1","","99.92","","","","","","Cloudy"
"2006-09-11 19:00","2006","09","11","19:00","18.1","","12.0","","68","","8","","20","","24.1","","99.89","","","","","","Cloudy"
"2006-09-11 20:00","2006","09","11","20:00","17.6","","12.5","","72","","9","","22","","24.1","","99.85","","","","","","Cloudy"
"2006-09-11 21:00","2006","09","11","21:00","17.2","","13.3","","78","","8","","15","","24.1","","99.84","","","","","","Cloudy"
"2006-09-11 22:00","2006","09","11","22:00","17.4","","13.9","","80","","8","","15","","24.1","","99.79","","","","","","Cloudy"
"2006-09-11 23:00","2006","09","11","23:00","17.3","","14.4","","83","","7","","15","","24.1","","99.74","","","","","","Cloudy"
"2006-09-12 00:00","2006","09","12","00:00","17.6","","15.2","","86","","6","","13","","16.1","","99.69","","","","","","Cloudy"
"2006-09-12 01:00","2006","09","12","01:00","18.0","","16.1","","89","","9","","11","","9.7","","99.62","","","","","","Rain Showers,Fog"
"2006-09-12 02:00","2006","09","12","02:00","18.4","","17.3","","93","","","","0","","4.8","","99.57","","","","","","Rain Showers,Fog"
"2006-09-12 03:00","2006","09","12","03:00","18.9","","18.0","","95","","12","","11","","4.8","","99.53","","","","","","Fog"
"2006-09-12 04:00","2006","09","12","04:00","18.8","","17.8","","94","","12","","11","","4.8","","99.54","","","","","","Fog"
"2006-09-12 05:00","2006","09","12","05:00","18.5","","17.5","","94","","12","","17","","6.4","","99.51","","","","","","Rain Showers,Fog"
"2006-09-12 06:00","2006","09","12","06:00","18.4","","17.4","","94","","13","","17","","3.2","","99.50","","","","","","Rain Showers,Fog"
"2006-09-12 07:00","2006","09","12","07:00","18.6","","17.7","","95","","13","","13","","3.6","","99.51","","","","","","Fog"
"2006-09-12 08:00","2006","09","12","08:00","18.9","","17.8","","93","","13","","13","","4.0","","99.47","","","","","","Fog"
"2006-09-12 09:00","2006","09","12","09:00","19.4","","18.2","","93","","13","","17","","4.0","","99.44","","","","","","Fog"
"2006-09-12 10:00","2006","09","12","10:00","19.7","","18.6","","93","","14","","11","","4.8","","99.42","","","","","","Rain Showers,Fog"
"2006-09-12 11:00","2006","09","12","11:00","20.2","","19.2","","94","","12","","9","","4.0","","99.37","","27","","","","Rain Showers,Fog"
"2006-09-12 12:00","2006","09","12","12:00","19.8","","18.6","","93","","16","","17","","2.0","","99.34","","","","","","Thunderstorms,Heavy Rain Showers,Fog"
"2006-09-12 13:00","2006","09","12","13:00","20.1","","19.1","","94","","20","","6","","6.4","","99.28","","27","","","","Rain Showers,Fog"
"2006-09-12 14:00","2006","09","12","14:00","20.4","","19.6","","95","","15","","7","","4.8","","99.21","","28","","","","Rain,Fog"
"2006-09-12 15:00","2006","09","12","15:00","20.3","","19.5","","95","","14","","9","","4.8","","99.11","","27","","","","Heavy Rain,Fog"
"2006-09-12 16:00","2006","09","12","16:00","20.0","","19.2","","95","","16","","17","","4.8","","99.04","","27","","","","Moderate Rain,Fog"
"2006-09-12 17:00","2006","09","12","17:00","20.2","","19.1","","93","","17","","11","","9.7","","99.01","","27","","","","Fog"
"2006-09-12 18:00","2006","09","12","18:00","20.0","","19.0","","94","","15","","9","","9.7","","98.97","","27","","","","Fog"
"2006-09-12 19:00","2006","09","12","19:00","19.8","","18.8","","94","","14","","6","","8.0","","98.93","","","","","","Rain Showers,Fog"
"2006-09-12 20:00","2006","09","12","20:00","19.7","","18.8","","95","","6","","7","","8.0","","98.91","","","","","","Fog"
"2006-09-12 21:00","2006","09","12","21:00","19.7","","18.7","","94","","19","","7","","4.0","","98.88","","","","","","Heavy Rain Showers,Fog"
"2006-09-12 22:00","2006","09","12","22:00","19.6","","18.6","","94","","22","","17","","4.8","","98.86","","","","","","Fog"
"2006-09-12 23:00","2006","09","12","23:00","19.6","","18.5","","93","","21","","11","","6.4","","98.81","","","","","","Fog"
"2006-09-13 00:00","2006","09","13","00:00","19.5","","18.6","","95","","22","","9","","8.0","","98.79","","","","","","Fog"
"2006-09-13 01:00","2006","09","13","01:00","19.2","","18.3","","95","","21","","11","","6.4","","98.76","","","","","","Thunderstorms,Rain Showers,Fog"
"2006-09-13 02:00","2006","09","13","02:00","19.0","","18.2","","95","","21","","13","","6.4","","98.73","","","","","","Rain Showers,Fog"
"2006-09-13 03:00","2006","09","13","03:00","18.6","","17.8","","95","","19","","7","","8.0","","98.69","","","","","","Fog"
"2006-09-13 04:00","2006","09","13","04:00","18.3","","17.6","","96","","19","","9","","9.7","","98.68","","","","","","Thunderstorms,Rain Showers,Fog"
"2006-09-13 05:00","2006","09","13","05:00","18.1","","17.7","","98","","18","","4","","8.0","","98.64","","","","","","Rain Showers,Fog"
"2006-09-13 06:00","2006","09","13","06:00","18.7","","18.0","","96","","23","","7","","4.0","","98.67","","","","","","Fog"
"2006-09-13 07:00","2006","09","13","07:00","18.8","","18.3","","97","","27","","4","","3.2","","98.69","","","","","","Fog"
"2006-09-13 08:00","2006","09","13","08:00","19.6","","18.8","","95","","21","","9","","4.0","","98.66","","","","","","Fog"
"2006-09-13 09:00","2006","09","13","09:00","20.2","","19.3","","95","","","","0","","8.0","","98.66","","27","","","","Fog"
"2006-09-13 10:00","2006","09","13","10:00","20.9","","19.1","","89","","18","","6","","12.9","","98.66","","28","","","","Mostly Cloudy"
"2006-09-13 11:00","2006","09","13","11:00","21.9","","18.9","","83","","20","","15","","16.1","","98.62","","29","","","","Mostly Cloudy"
"2006-09-13 12:00","2006","09","13","12:00","23.0","","17.9","","73","","22","","9","","19.3","","98.58","","29","","","","Mostly Cloudy"
"2006-09-13 13:00","2006","09","13","13:00","23.7","","17.8","","70","","19","","7","","19.3","","98.58","","30","","","","Mostly Cloudy"
"2006-09-13 14:00","2006","09","13","14:00","23.0","","17.9","","73","","19","","13","","19.3","","98.54","","29","","","","Cloudy"
"2006-09-13 15:00","2006","09","13","15:00","22.9","","17.0","","69","","23","","7","","16.1","","98.56","","28","","","","Cloudy"
"2006-09-13 16:00","2006","09","13","16:00","22.6","","16.4","","68","","","","0","","16.1","","98.54","","27","","","","Mostly Cloudy"
"2006-09-13 17:00","2006","09","13","17:00","22.8","","17.4","","72","","23","","6","","16.1","","98.55","","28","","","","Mostly Cloudy"
"2006-09-13 18:00","2006","09","13","18:00","21.9","","17.9","","78","","24","","7","","16.1","","98.58","","28","","","","Mostly Cloudy"
"2006-09-13 19:00","2006","09","13","19:00","21.2","","16.8","","76","","29","","4","","24.1","","98.62","","26","","","","Cloudy"
"2006-09-13 20:00","2006","09","13","20:00","18.4","","17.1","","92","","7","","11","","4.0","","98.71","","","","","","Thunderstorms,Moderate Rain Showers,Fog"
"2006-09-13 21:00","2006","09","13","21:00","18.0","","16.9","","93","","3","","22","","8.0","","98.73","","","","","","Thunderstorms,Rain Showers,Fog"
"2006-09-13 22:00","2006","09","13","22:00","17.7","","16.8","","94","","4","","17","","8.0","","98.76","","","","","","Fog"
"2006-09-13 23:00","2006","09","13","23:00","17.8","","16.7","","93","","4","","17","","8.0","","98.82","","","","","","Fog"
"2006-09-14 00:00","2006","09","14","00:00","17.9","","16.6","","92","","3","","15","","16.1","","98.85","","","","","","Cloudy"
"2006-09-14 01:00","2006","09","14","01:00","17.7","","15.8","","89","","2","","11","","16.1","","98.87","","","","","","Cloudy"
"2006-09-14 02:00","2006","09","14","02:00","17.6","","15.6","","88","","36","","7","","16.1","","98.88","","","","","","Cloudy"
"2006-09-14 03:00","2006","09","14","03:00","17.4","","15.4","","88","","34","","7","","12.9","","98.90","","","","","","Cloudy"
"2006-09-14 04:00","2006","09","14","04:00","17.4","","15.2","","87","","36","","9","","12.9","","98.94","","","","","","Cloudy"
"2006-09-14 05:00","2006","09","14","05:00","17.1","","14.9","","87","","36","","9","","16.1","","99.00","","","","","","Cloudy"
"2006-09-14 06:00","2006","09","14","06:00","16.8","","14.6","","87","","36","","17","","12.9","","99.07","","","","","","Cloudy"
"2006-09-14 07:00","2006","09","14","07:00","17.0","","14.7","","86","","35","","13","","19.3","","99.13","","","","","","Cloudy"
"2006-09-14 08:00","2006","09","14","08:00","17.5","","14.6","","83","","35","","15","","24.1","","99.20","","","","","","Mostly Cloudy"
"2006-09-14 09:00","2006","09","14","09:00","17.9","","14.5","","81","","36","","20","","24.1","","99.24","","","","","","Cloudy"
"2006-09-14 10:00","2006","09","14","10:00","18.1","","14.7","","81","","36","","20","","24.1","","99.31","","","","","","Cloudy"
"2006-09-14 11:00","2006","09","14","11:00","19.1","","14.6","","75","","1","","11","","24.1","","99.33","","","","","","Cloudy"
"2006-09-14 12:00","2006","09","14","12:00","19.3","","14.6","","74","","4","","17","","24.1","","99.35","","","","","","Cloudy"
"2006-09-14 13:00","2006","09","14","13:00","20.0","","14.2","","69","","36","","13","","24.1","","99.36","","","","","","Cloudy"
"2006-09-14 14:00","2006","09","14","14:00","20.3","","14.2","","68","","4","","13","","24.1","","99.37","","","","","","Mostly Cloudy"
"2006-09-14 15:00","2006","09","14","15:00","21.0","","14.4","","66","","36","","13","","24.1","","99.35","","25","","","","Mostly Cloudy"
"2006-09-14 16:00","2006","09","14","16:00","20.9","","15.1","","69","","3","","13","","24.1","","99.38","","25","","","","Mostly Cloudy"
"2006-09-14 17:00","2006","09","14","17:00","20.4","","15.2","","72","","5","","11","","19.3","","99.41","","","","","","Mostly Cloudy"
"2006-09-14 18:00","2006","09","14","18:00","20.3","","14.6","","70","","36","","7","","24.1","","99.44","","","","","","Mostly Cloudy"
"2006-09-14 19:00","2006","09","14","19:00","18.8","","15.0","","79","","7","","6","","19.3","","99.47","","","","","","Mainly Clear"
"2006-09-14 20:00","2006","09","14","20:00","17.0","","14.9","","87","","6","","11","","24.1","","99.54","","","","","","Mainly Clear"
"2006-09-14 21:00","2006","09","14","21:00","16.0","","14.2","","89","","6","","9","","24.1","","99.61","","","","","","Mainly Clear"
"2006-09-14 22:00","2006","09","14","22:00","15.8","","14.4","","91","","","","0","","12.9","","99.61","","","","","","Mainly Clear"
"2006-09-14 23:00","2006","09","14","23:00","15.5","","14.3","","93","","","","0","","9.7","","99.64","","","","","","Fog"
"2006-09-15 00:00","2006","09","15","00:00","15.4","","14.1","","92","","35","","6","","9.7","","99.65","","","","","","Fog"
"2006-09-15 01:00","2006","09","15","01:00","14.8","","13.5","","92","","35","","9","","9.7","","99.65","","","","","","Fog"
"2006-09-15 02:00","2006","09","15","02:00","14.6","","13.3","","92","","36","","9","","9.7","","99.67","","","","","","Fog"
"2006-09-15 03:00","2006","09","15","03:00","14.2","","12.8","","91","","36","","11","","9.7","","99.67","","","","","","Fog"
"2006-09-15 04:00","2006","09","15","04:00","14.8","","13.0","","89","","36","","13","","12.9","","99.73","","","","","","Mostly Cloudy"
"2006-09-15 05:00","2006","09","15","05:00","15.1","","12.9","","87","","34","","13","","19.3","","99.76","","","","","","Mostly Cloudy"
"2006-09-15 06:00","2006","09","15","06:00","15.3","","13.1","","87","","34","","13","","16.1","","99.82","","","","","","Cloudy"
"2006-09-15 07:00","2006","09","15","07:00","15.4","","13.2","","87","","36","","13","","24.1","","99.88","","","","","","Cloudy"
"2006-09-15 08:00","2006","09","15","08:00","15.8","","13.6","","87","","3","","7","","24.1","","99.91","","","","","","Cloudy"
"2006-09-15 09:00","2006","09","15","09:00","16.1","","13.5","","85","","5","","9","","24.1","","99.96","","","","","","Cloudy"
"2006-09-15 10:00","2006","09","15","10:00","18.0","","13.6","","75","","3","","13","","19.3","","99.98","","","","","","Mostly Cloudy"
"2006-09-15 11:00","2006","09","15","11:00","18.8","","13.9","","73","","6","","13","","24.1","","99.97","","","","","","Mainly Clear"
"2006-09-15 12:00","2006","09","15","12:00","20.1","","14.5","","70","","5","","11","","24.1","","99.97","","","","","","Mostly Cloudy"
"2006-09-15 13:00","2006","09","15","13:00","20.4","","14.6","","69","","3","","15","","24.1","","99.95","","","","","","Cloudy"
"2006-09-15 14:00","2006","09","15","14:00","20.9","","14.6","","67","","4","","19","","24.1","","99.92","","25","","","","Mostly Cloudy"
"2006-09-15 15:00","2006","09","15","15:00","21.1","","14.9","","68","","4","","17","","16.1","","99.89","","25","","","","Mostly Cloudy"
"2006-09-15 16:00","2006","09","15","16:00","20.8","","15.1","","70","","4","","11","","24.1","","99.88","","25","","","","Mostly Cloudy"
"2006-09-15 17:00","2006","09","15","17:00","20.3","","15.1","","72","","5","","9","","24.1","","99.90","","","","","","Cloudy"
"2006-09-15 18:00","2006","09","15","18:00","19.8","","15.4","","76","","5","","7","","24.1","","99.87","","","","","","Mostly Cloudy"
"2006-09-15 19:00","2006","09","15","19:00","19.5","","14.8","","74","","9","","6","","24.1","","99.88","","","","","","Mostly Cloudy"
"2006-09-15 20:00","2006","09","15","20:00","18.6","","15.2","","81","","6","","6","","24.1","","99.91","","","","","","Mostly Cloudy"
"2006-09-15 21:00","2006","09","15","21:00","17.8","","15.1","","84","","7","","4","","24.1","","99.90","","","","","","Mainly Clear"
"2006-09-15 22:00","2006","09","15","22:00","16.6","","15.0","","90","","5","","6","","24.1","","99.89","","","","","","Mainly Clear"
"2006-09-15 23:00","2006","09","15","23:00","17.1","","15.3","","89","","3","","4","","24.1","","99.89","","","","","","Mostly Cloudy"
"2006-09-16 00:00","2006","09","16","00:00","17.3","","15.5","","89","","9","","4","","24.1","","99.91","","","","","","Mostly Cloudy"
"2006-09-16 01:00","2006","09","16","01:00","16.8","","15.3","","91","","8","","7","","24.1","","99.87","","","","","","Mostly Cloudy"
"2006-09-16 02:00","2006","09","16","02:00","16.8","","15.5","","92","","8","","4","","24.1","","99.88","","","","","","Mostly Cloudy"
"2006-09-16 03:00","2006","09","16","03:00","16.0","","14.9","","93","","5","","4","","24.1","","99.88","","","","","","Mainly Clear"
"2006-09-16 04:00","2006","09","16","04:00","15.9","","14.9","","94","","4","","6","","24.1","","99.89","","","","","","Mostly Cloudy"
"2006-09-16 05:00","2006","09","16","05:00","16.7","","15.6","","93","","","","0","","12.9","","99.93","","","","","","Mostly Cloudy"
"2006-09-16 06:00","2006","09","16","06:00","16.4","","15.4","","94","","7","","4","","4.8","","99.96","","","","","","Fog"
"2006-09-16 07:00","2006","09","16","07:00","16.9","","15.7","","93","","9","","4","","6.4","","99.98","","","","","","Fog"
"2006-09-16 08:00","2006","09","16","08:00","17.7","","16.5","","93","","9","","4","","6.4","","100.01","","","","","","Fog"
"2006-09-16 09:00","2006","09","16","09:00","18.4","","16.8","","90","","14","","6","","24.1","","100.00","","","","","","Cloudy"
"2006-09-16 10:00","2006","09","16","10:00","19.2","","16.4","","84","","23","","7","","11.3","","100.03","","","","","","Cloudy"
"2006-09-16 11:00","2006","09","16","11:00","19.4","","15.9","","80","","21","","7","","16.1","","99.97","","","","","","Cloudy"
"2006-09-16 12:00","2006","09","16","12:00","20.9","","16.7","","77","","20","","6","","24.1","","99.89","","26","","","","Mostly Cloudy"
"2006-09-16 13:00","2006","09","16","13:00","21.4","","16.1","","72","","8","","4","","24.1","","99.84","","26","","","","Mostly Cloudy"
"2006-09-16 14:00","2006","09","16","14:00","21.2","","16.0","","72","","13","","11","","24.1","","99.77","","26","","","","Cloudy"
"2006-09-16 15:00","2006","09","16","15:00","20.5","","16.6","","78","","17","","17","","24.1","","99.71","","26","","","","Cloudy"
"2006-09-16 16:00","2006","09","16","16:00","21.4","","16.0","","71","","16","","9","","24.1","","99.67","","26","","","","Mostly Cloudy"
"2006-09-16 17:00","2006","09","16","17:00","21.3","","14.7","","66","","17","","13","","24.1","","99.64","","25","","","","Mostly Cloudy"
"2006-09-16 18:00","2006","09","16","18:00","20.3","","14.8","","71","","17","","7","","24.1","","99.60","","","","","","Mostly Cloudy"
"2006-09-16 19:00","2006","09","16","19:00","18.4","","15.2","","82","","16","","7","","24.1","","99.58","","","","","","Mostly Cloudy"
"2006-09-16 20:00","2006","09","16","20:00","17.3","","15.5","","89","","14","","7","","16.1","","99.53","","","","","","Mostly Cloudy"
"2006-09-16 21:00","2006","09","16","21:00","16.5","","15.3","","93","","14","","6","","12.9","","99.57","","","","","","Mostly Cloudy"
"2006-09-16 22:00","2006","09","16","22:00","16.3","","15.1","","93","","16","","7","","16.1","","99.51","","","","","","Mainly Clear"
"2006-09-16 23:00","2006","09","16","23:00","16.6","","15.5","","93","","14","","7","","8.0","","99.45","","","","","","Fog"
"2006-09-17 00:00","2006","09","17","00:00","17.3","","15.9","","91","","18","","9","","9.7","","99.39","","","","","","Fog"
"2006-09-17 01:00","2006","09","17","01:00","17.0","","15.7","","92","","18","","11","","9.7","","99.33","","","","","","Fog"
"2006-09-17 02:00","2006","09","17","02:00","16.9","","15.7","","93","","20","","11","","8.0","","99.26","","","","","","Fog"
"2006-09-17 03:00","2006","09","17","03:00","16.6","","15.6","","94","","20","","9","","8.0","","99.25","","","","","","Fog"
"2006-09-17 04:00","2006","09","17","04:00","16.3","","15.4","","94","","19","","9","","8.0","","99.30","","","","","","Fog"
"2006-09-17 05:00","2006","09","17","05:00","16.3","","15.4","","94","","20","","9","","8.0","","99.34","","","","","","Fog"
"2006-09-17 06:00","2006","09","17","06:00","16.2","","15.0","","93","","19","","13","","2.8","","99.28","","","","","","Fog"
"2006-09-17 07:00","2006","09","17","07:00","16.1","","15.2","","94","","19","","9","","2.8","","99.29","","","","","","Fog"
"2006-09-17 08:00","2006","09","17","08:00","18.1","","16.6","","91","","19","","17","","4.0","","99.25","","","","","","Fog"
"2006-09-17 09:00","2006","09","17","09:00","19.4","","16.3","","82","","20","","24","","8.0","","99.20","","","","","","Haze"
"2006-09-17 10:00","2006","09","17","10:00","20.9","","16.8","","77","","21","","22","","8.0","","99.16","","26","","","","Haze"
"2006-09-17 11:00","2006","09","17","11:00","22.0","","16.7","","72","","22","","22","","8.0","","99.12","","27","","","","Haze"
"2006-09-17 12:00","2006","09","17","12:00","22.6","","17.0","","71","","20","","24","","9.7","","99.05","","28","","","","Haze"
"2006-09-17 13:00","2006","09","17","13:00","23.8","","17.3","","67","","19","","26","","11.3","","98.93","","29","","","","Mostly Cloudy"
"2006-09-17 14:00","2006","09","17","14:00","25.2","","17.2","","61","","20","","22","","11.3","","98.83","","31","","","","Mainly Clear"
"2006-09-17 15:00","2006","09","17","15:00","25.7","","17.0","","59","","20","","24","","16.1","","98.71","","31","","","","Mainly Clear"
"2006-09-17 16:00","2006","09","17","16:00","25.4","","16.9","","59","","18","","22","","11.3","","98.70","","31","","","","Mostly Cloudy"
"2006-09-17 17:00","2006","09","17","17:00","24.9","","17.3","","63","","17","","19","","14.5","","98.60","","30","","","","Mostly Cloudy"
"2006-09-17 18:00","2006","09","17","18:00","24.3","","17.6","","66","","18","","13","","16.1","","98.66","","30","","","","Mostly Cloudy"
"2006-09-17 19:00","2006","09","17","19:00","22.9","","17.2","","70","","18","","13","","19.3","","98.64","","28","","","","Mainly Clear"
"2006-09-17 20:00","2006","09","17","20:00","21.8","","17.2","","75","","18","","11","","24.1","","98.63","","27","","","","Mainly Clear"
"2006-09-17 21:00","2006","09","17","21:00","22.0","","17.2","","74","","18","","13","","24.1","","98.63","","27","","","","Clear"
"2006-09-17 22:00","2006","09","17","22:00","22.9","","17.0","","69","","20","","15","","24.1","","98.64","","28","","","","Mainly Clear"
"2006-09-17 23:00","2006","09","17","23:00","22.9","","16.5","","67","","20","","19","","19.3","","98.59","","28","","","","Mostly Cloudy"
"2006-09-18 00:00","2006","09","18","00:00","22.4","","16.1","","68","","21","","19","","19.3","","98.57","","27","","","","Mostly Cloudy"
"2006-09-18 01:00","2006","09","18","01:00","21.4","","16.0","","71","","20","","17","","19.3","","98.50","","26","","","","Mostly Cloudy"
"2006-09-18 02:00","2006","09","18","02:00","21.9","","15.7","","68","","21","","19","","19.3","","98.48","","26","","","","Mostly Cloudy"
"2006-09-18 03:00","2006","09","18","03:00","21.2","","16.1","","73","","20","","20","","19.3","","98.43","","26","","","","Mostly Cloudy"
"2006-09-18 04:00","2006","09","18","04:00","21.2","","16.4","","74","","20","","17","","24.1","","98.41","","26","","","","Cloudy"
"2006-09-18 05:00","2006","09","18","05:00","21.1","","16.4","","75","","20","","19","","19.3","","98.41","","26","","","","Cloudy"
"2006-09-18 06:00","2006","09","18","06:00","21.0","","16.2","","74","","20","","19","","12.9","","98.38","","26","","","","Cloudy"
"2006-09-18 07:00","2006","09","18","07:00","21.3","","16.9","","76","","21","","19","","11.3","","98.41","","27","","","","Cloudy"
"2006-09-18 08:00","2006","09","18","08:00","21.4","","16.7","","75","","21","","17","","11.3","","98.38","","26","","","","Cloudy"
"2006-09-18 09:00","2006","09","18","09:00","21.5","","17.0","","76","","20","","17","","11.3","","98.37","","27","","","","Cloudy"
"2006-09-18 10:00","2006","09","18","10:00","21.7","","16.6","","73","","21","","15","","9.7","","98.38","","27","","","","Rain Showers,Haze"
"2006-09-18 11:00","2006","09","18","11:00","19.8","","17.9","","89","","22","","17","","3.2","","98.40","","","","","","Rain,Fog"
"2006-09-18 12:00","2006","09","18","12:00","17.9","","16.4","","91","","32","","22","","9.7","","98.45","","","","","","Rain,Fog"
"2006-09-18 13:00","2006","09","18","13:00","17.1","","15.8","","92","","31","","11","","3.2","","98.45","","","","","","Moderate Rain,Fog"
"2006-09-18 14:00","2006","09","18","14:00","17.7","","15.6","","88","","33","","11","","11.3","","98.42","","","","","","Rain"
"2006-09-18 15:00","2006","09","18","15:00","15.9","","14.5","","91","","31","","24","","8.0","","98.50","","","","","","Rain,Fog"
"2006-09-18 16:00","2006","09","18","16:00","15.3","","12.1","","81","","34","","9","","24.1","","98.50","","","","","","Rain"
"2006-09-18 17:00","2006","09","18","17:00","15.1","","12.4","","84","","1","","4","","24.1","","98.46","","","","","","Rain"
"2006-09-18 18:00","2006","09","18","18:00","14.8","","12.3","","85","","","","0","","24.1","","98.46","","","","","","Rain"
"2006-09-18 19:00","2006","09","18","19:00","14.8","","12.5","","86","","25","","7","","24.1","","98.51","","","","","","Rain"
"2006-09-18 20:00","2006","09","18","20:00","14.4","","12.8","","90","","23","","6","","24.1","","98.50","","","","","","Cloudy"
"2006-09-18 21:00","2006","09","18","21:00","14.3","","12.8","","91","","22","","11","","24.1","","98.54","","","","","","Cloudy"
"2006-09-18 22:00","2006","09","18","22:00","14.3","","13.2","","93","","21","","7","","24.1","","98.44","","","","","","Cloudy"
"2006-09-18 23:00","2006","09","18","23:00","14.2","","12.9","","92","","23","","13","","24.1","","98.46","","","","","","Mostly Cloudy"
"2006-09-19 00:00","2006","09","19","00:00","13.8","","12.4","","91","","22","","9","","24.1","","98.47","","","","","","Mostly Cloudy"
"2006-09-19 01:00","2006","09","19","01:00","13.4","","11.9","","91","","24","","13","","24.1","","98.50","","","","","","Mainly Clear"
"2006-09-19 02:00","2006","09","19","02:00","13.5","","12.0","","91","","24","","13","","24.1","","98.47","","","","","","Mainly Clear"
"2006-09-19 03:00","2006","09","19","03:00","13.7","","12.6","","93","","26","","17","","16.1","","98.47","","","","","","Mostly Cloudy"
"2006-09-19 04:00","2006","09","19","04:00","13.6","","12.4","","92","","27","","13","","19.3","","98.48","","","","","","Clear"
"2006-09-19 05:00","2006","09","19","05:00","13.2","","11.1","","87","","27","","13","","24.1","","98.51","","","","","","Clear"
"2006-09-19 06:00","2006","09","19","06:00","12.4","","9.6","","83","","27","","13","","24.1","","98.58","","","","","","Mainly Clear"
"2006-09-19 07:00","2006","09","19","07:00","12.1","","9.5","","84","","24","","11","","24.1","","98.64","","","","","","Mainly Clear"
"2006-09-19 08:00","2006","09","19","08:00","13.2","","9.2","","77","","26","","22","","24.1","","98.69","","","","","","Clear"
"2006-09-19 09:00","2006","09","19","09:00","14.4","","9.6","","73","","26","","19","","24.1","","98.71","","","","","","Clear"
"2006-09-19 10:00","2006","09","19","10:00","15.6","","9.4","","67","","26","","20","","24.1","","98.72","","","","","","Mainly Clear"
"2006-09-19 11:00","2006","09","19","11:00","16.3","","9.6","","64","","23","","24","","24.1","","98.72","","","","","","Mainly Clear"
"2006-09-19 12:00","2006","09","19","12:00","17.1","","8.4","","57","","24","","24","","24.1","","98.70","","","","","","Mostly Cloudy"
"2006-09-19 13:00","2006","09","19","13:00","17.0","","8.2","","56","","26","","22","","24.1","","98.68","","","","","","Mostly Cloudy"
"2006-09-19 14:00","2006","09","19","14:00","16.8","","7.9","","56","","26","","6","","24.1","","98.69","","","","","","Mostly Cloudy"
"2006-09-19 15:00","2006","09","19","15:00","16.8","","8.3","","57","","24","","19","","24.1","","98.69","","","","","","Cloudy"
"2006-09-19 16:00","2006","09","19","16:00","16.4","","8.0","","58","","25","","20","","24.1","","98.70","","","","","","Cloudy"
"2006-09-19 17:00","2006","09","19","17:00","15.5","","7.8","","60","","27","","20","","24.1","","98.74","","","","","","Cloudy"
"2006-09-19 18:00","2006","09","19","18:00","14.8","","8.2","","65","","27","","17","","24.1","","98.77","","","","","","Cloudy"
"2006-09-19 19:00","2006","09","19","19:00","14.0","","7.6","","65","","26","","17","","24.1","","98.80","","","","","","Cloudy"
"2006-09-19 20:00","2006","09","19","20:00","13.3","","8.0","","70","","27","","20","","24.1","","98.85","","","","","","Cloudy"
"2006-09-19 21:00","2006","09","19","21:00","13.0","","7.9","","71","","27","","22","","24.1","","98.85","","","","","","Cloudy"
"2006-09-19 22:00","2006","09","19","22:00","12.2","","8.3","","77","","26","","19","","24.1","","98.86","","","","","","Cloudy"
"2006-09-19 23:00","2006","09","19","23:00","11.9","","8.6","","80","","27","","19","","24.1","","98.86","","","","","","Cloudy"
"2006-09-20 00:00","2006","09","20","00:00","11.6","","8.2","","80","","29","","13","","24.1","","98.85","","","","","","Rain Showers"
"2006-09-20 01:00","2006","09","20","01:00","11.4","","7.9","","79","","28","","15","","24.1","","98.84","","","","","","Cloudy"
"2006-09-20 02:00","2006","09","20","02:00","11.2","","8.0","","81","","28","","20","","24.1","","98.85","","","","","","Cloudy"
"2006-09-20 03:00","2006","09","20","03:00","10.6","","7.8","","83","","27","","15","","24.1","","98.84","","","","","","Mostly Cloudy"
"2006-09-20 04:00","2006","09","20","04:00","10.9","","7.8","","81","","28","","15","","24.1","","98.86","","","","","","Mostly Cloudy"
"2006-09-20 05:00","2006","09","20","05:00","11.1","","7.8","","80","","28","","20","","24.1","","98.91","","","","","","Cloudy"
"2006-09-20 06:00","2006","09","20","06:00","10.9","","7.6","","80","","29","","15","","24.1","","98.95","","","","","","Mostly Cloudy"
"2006-09-20 07:00","2006","09","20","07:00","10.6","","6.5","","76","","31","","19","","24.1","","99.03","","","","","","Mainly Clear"
"2006-09-20 08:00","2006","09","20","08:00","11.1","","6.4","","73","","30","","24","","24.1","","99.09","","","","","","Mainly Clear"
"2006-09-20 09:00","2006","09","20","09:00","11.7","","6.5","","70","","31","","19","","24.1","","99.14","","","","","","Mainly Clear"
"2006-09-20 10:00","2006","09","20","10:00","13.3","","5.8","","60","","32","","24","","24.1","","99.18","","","","","","Mostly Cloudy"
"2006-09-20 11:00","2006","09","20","11:00","13.4","","5.3","","58","","31","","28","","24.1","","99.20","","","","","","Mainly Clear"
"2006-09-20 12:00","2006","09","20","12:00","14.4","","5.1","","54","","32","","24","","24.1","","99.21","","","","","","Mostly Cloudy"
"2006-09-20 13:00","2006","09","20","13:00","14.9","","4.4","","49","","30","","19","","24.1","","99.23","","","","","","Mainly Clear"
"2006-09-20 14:00","2006","09","20","14:00","15.6","","4.8","","49","","34","","24","","24.1","","99.19","","","","","","Mostly Cloudy"
"2006-09-20 15:00","2006","09","20","15:00","15.0","","4.0","","48","","32","","17","","24.1","","99.18","","","","","","Mostly Cloudy"
"2006-09-20 16:00","2006","09","20","16:00","15.8","","4.7","","48","","32","","15","","24.1","","99.17","","","","","","Mostly Cloudy"
"2006-09-20 17:00","2006","09","20","17:00","14.8","","5.0","","52","","30","","13","","24.1","","99.18","","","","","","Mainly Clear"
"2006-09-20 18:00","2006","09","20","18:00","14.5","","4.6","","51","","30","","19","","24.1","","99.21","","","","","","Mainly Clear"
"2006-09-20 19:00","2006","09","20","19:00","14.1","","5.7","","57","","26","","9","","24.1","","99.25","","","","","","Mainly Clear"
"2006-09-20 20:00","2006","09","20","20:00","12.8","","5.6","","62","","27","","9","","24.1","","99.32","","","","","","Mainly Clear"
"2006-09-20 21:00","2006","09","20","21:00","12.0","","6.2","","68","","26","","13","","24.1","","99.36","","","","","","Mainly Clear"
"2006-09-20 22:00","2006","09","20","22:00","11.3","","6.3","","71","","28","","13","","24.1","","99.39","","","","","","Clear"
"2006-09-20 23:00","2006","09","20","23:00","10.8","","6.2","","73","","28","","13","","24.1","","99.44","","","","","","Clear"
"2006-09-21 00:00","2006","09","21","00:00","10.5","","5.7","","72","","29","","13","","24.1","","99.45","","","","","","Clear"
"2006-09-21 01:00","2006","09","21","01:00","9.6","","5.5","","76","","29","","11","","24.1","","99.49","","","","","","Clear"
"2006-09-21 02:00","2006","09","21","02:00","8.9","","5.5","","79","","28","","7","","24.1","","99.51","","","","","","Clear"
"2006-09-21 03:00","2006","09","21","03:00","8.5","","5.3","","80","","27","","9","","24.1","","99.51","","","","","","Clear"
"2006-09-21 04:00","2006","09","21","04:00","7.9","","5.4","","84","","26","","7","","24.1","","99.54","","","","","","Clear"
"2006-09-21 05:00","2006","09","21","05:00","7.1","","5.1","","87","","24","","9","","24.1","","99.58","","","","","","Clear"
"2006-09-21 06:00","2006","09","21","06:00","6.8","","5.2","","90","","24","","4","","24.1","","99.60","","","","","","Clear"
"2006-09-21 07:00","2006","09","21","07:00","7.5","","5.4","","87","","23","","6","","24.1","","99.64","","","","","","Mainly Clear"
"2006-09-21 08:00","2006","09","21","08:00","9.6","","7.1","","84","","23","","6","","24.1","","99.67","","","","","","Mainly Clear"
"2006-09-21 09:00","2006","09","21","09:00","12.4","","6.4","","67","","24","","9","","24.1","","99.73","","","","","","Mainly Clear"
"2006-09-21 10:00","2006","09","21","10:00","14.5","","5.8","","56","","21","","11","","24.1","","99.76","","","","","","Mainly Clear"
"2006-09-21 11:00","2006","09","21","11:00","15.5","","5.2","","50","","23","","13","","24.1","","99.74","","","","","","Mainly Clear"
"2006-09-21 12:00","2006","09","21","12:00","15.7","","5.6","","51","","22","","11","","24.1","","99.68","","","","","","Mainly Clear"
"2006-09-21 13:00","2006","09","21","13:00","16.9","","6.5","","50","","22","","11","","24.1","","99.63","","","","","","Mainly Clear"
"2006-09-21 14:00","2006","09","21","14:00","17.7","","6.9","","49","","13","","6","","24.1","","99.59","","","","","","Mainly Clear"
"2006-09-21 15:00","2006","09","21","15:00","17.5","","6.5","","48","","20","","11","","24.1","","99.53","","","","","","Mainly Clear"
"2006-09-21 16:00","2006","09","21","16:00","17.5","","6.0","","47","","17","","9","","24.1","","99.50","","","","","","Mainly Clear"
"2006-09-21 17:00","2006","09","21","17:00","17.0","","5.8","","48","","20","","9","","24.1","","99.51","","","","","","Mostly Cloudy"
"2006-09-21 18:00","2006","09","21","18:00","15.2","","6.2","","55","","16","","17","","19.3","","99.51","","","","","","Mostly Cloudy"
"2006-09-21 19:00","2006","09","21","19:00","13.0","","6.6","","65","","14","","7","","24.1","","99.49","","","","","","Mainly Clear"
"2006-09-21 20:00","2006","09","21","20:00","11.7","","6.8","","72","","13","","11","","24.1","","99.51","","","","","","Mainly Clear"
"2006-09-21 21:00","2006","09","21","21:00","11.0","","6.9","","76","","14","","9","","24.1","","99.53","","","","","","Mainly Clear"
"2006-09-21 22:00","2006","09","21","22:00","10.8","","6.6","","75","","14","","7","","24.1","","99.54","","","","","","Mainly Clear"
"2006-09-21 23:00","2006","09","21","23:00","11.0","","6.6","","74","","12","","9","","24.1","","99.52","","","","","","Mainly Clear"
"2006-09-22 00:00","2006","09","22","00:00","12.2","","7.5","","73","","13","","9","","24.1","","99.47","","","","","","Cloudy"
"2006-09-22 01:00","2006","09","22","01:00","12.1","","8.3","","78","","12","","7","","24.1","","99.46","","","","","","Cloudy"
"2006-09-22 02:00","2006","09","22","02:00","12.4","","9.2","","81","","11","","7","","24.1","","99.41","","","","","","Cloudy"
"2006-09-22 03:00","2006","09","22","03:00","12.6","","9.5","","81","","11","","9","","24.1","","99.36","","","","","","Cloudy"
"2006-09-22 04:00","2006","09","22","04:00","11.5","","9.4","","87","","13","","4","","24.1","","99.34","","","","","","Mostly Cloudy"
"2006-09-22 05:00","2006","09","22","05:00","11.7","","9.4","","86","","13","","4","","24.1","","99.24","","","","","","Mainly Clear"
"2006-09-22 06:00","2006","09","22","06:00","11.7","","9.1","","84","","10","","6","","24.1","","99.24","","","","","","Cloudy"
"2006-09-22 07:00","2006","09","22","07:00","12.6","","9.6","","82","","10","","7","","24.1","","99.21","","","","","","Mostly Cloudy"
"2006-09-22 08:00","2006","09","22","08:00","13.8","","10.3","","79","","14","","9","","24.1","","99.24","","","","","","Cloudy"
"2006-09-22 09:00","2006","09","22","09:00","15.9","","11.4","","75","","14","","13","","24.1","","99.16","","","","","","Cloudy"
"2006-09-22 10:00","2006","09","22","10:00","16.3","","11.8","","75","","15","","11","","24.1","","99.14","","","","","","Cloudy"
"2006-09-22 11:00","2006","09","22","11:00","16.7","","11.8","","73","","16","","11","","24.1","","99.09","","","","","","Cloudy"
"2006-09-22 12:00","2006","09","22","12:00","18.6","","12.4","","67","","21","","17","","24.1","","99.03","","","","","","Cloudy"
"2006-09-22 13:00","2006","09","22","13:00","17.8","","12.5","","71","","20","","20","","24.1","","98.99","","","","","","Cloudy"
"2006-09-22 14:00","2006","09","22","14:00","17.8","","13.6","","76","","16","","15","","24.1","","98.88","","","","","","Cloudy"
"2006-09-22 15:00","2006","09","22","15:00","17.3","","14.3","","83","","15","","17","","12.9","","98.83","","","","","","Cloudy"
"2006-09-22 16:00","2006","09","22","16:00","17.9","","14.3","","79","","16","","20","","9.7","","98.81","","","","","","Haze"
"2006-09-22 17:00","2006","09","22","17:00","17.5","","14.5","","83","","17","","24","","12.9","","98.74","","","","","","Cloudy"
"2006-09-22 18:00","2006","09","22","18:00","17.0","","15.1","","89","","17","","20","","4.0","","98.70","","","","","","Rain Showers,Fog"
"2006-09-22 19:00","2006","09","22","19:00","16.8","","15.4","","91","","17","","19","","4.8","","98.60","","","","","","Rain Showers,Fog"
"2006-09-22 20:00","2006","09","22","20:00","16.9","","15.8","","93","","18","","13","","4.8","","98.55","","","","","","Fog"
"2006-09-22 21:00","2006","09","22","21:00","17.4","","16.0","","91","","18","","22","","4.8","","98.53","","","","","","Rain Showers,Fog"
"2006-09-22 22:00","2006","09","22","22:00","18.2","","16.2","","88","","19","","24","","6.4","","98.53","","","","","","Rain Showers,Fog"
"2006-09-22 23:00","2006","09","22","23:00","18.0","","16.3","","90","","21","","11","","6.4","","98.57","","","","","","Moderate Rain,Fog"
"2006-09-23 00:00","2006","09","23","00:00","17.6","","16.5","","93","","20","","9","","4.8","","98.43","","","","","","Rain,Fog"
"2006-09-23 01:00","2006","09","23","01:00","17.5","","16.4","","93","","18","","11","","4.8","","98.31","","","","","","Fog"
"2006-09-23 02:00","2006","09","23","02:00","17.5","","16.4","","93","","17","","17","","4.8","","98.23","","","","","","Fog"
"2006-09-23 03:00","2006","09","23","03:00","18.6","","16.6","","88","","22","","19","","8.0","","98.28","","","","","","Fog"
"2006-09-23 04:00","2006","09","23","04:00","17.8","","16.8","","94","","20","","15","","4.8","","98.22","","","","","","Fog"
"2006-09-23 05:00","2006","09","23","05:00","18.3","","17.2","","93","","20","","13","","4.8","","98.27","","","","","","Fog"
"2006-09-23 06:00","2006","09","23","06:00","18.3","","17.2","","93","","22","","11","","8.0","","98.30","","","","","","Fog"
"2006-09-23 07:00","2006","09","23","07:00","18.4","","17.4","","94","","24","","13","","4.0","","98.42","","","","","","Fog"
"2006-09-23 08:00","2006","09","23","08:00","19.0","","17.8","","93","","23","","9","","4.0","","98.44","","","","","","Fog"
"2006-09-23 09:00","2006","09","23","09:00","19.5","","18.2","","92","","21","","11","","6.4","","98.42","","","","","","Fog"
"2006-09-23 10:00","2006","09","23","10:00","19.9","","18.5","","92","","22","","11","","6.4","","98.41","","","","","","Fog"
"2006-09-23 11:00","2006","09","23","11:00","21.6","","19.1","","86","","23","","15","","8.0","","98.47","","28","","","","Haze"
"2006-09-23 12:00","2006","09","23","12:00","22.3","","18.7","","80","","24","","13","","12.9","","98.48","","29","","","","Cloudy"
"2006-09-23 13:00","2006","09","23","13:00","22.7","","19.3","","81","","25","","6","","16.1","","98.41","","30","","","","Cloudy"
"2006-09-23 14:00","2006","09","23","14:00","22.9","","19.3","","80","","24","","9","","19.3","","98.42","","30","","","","Cloudy"
"2006-09-23 15:00","2006","09","23","15:00","22.4","","20.0","","86","","20","","15","","8.0","","98.36","","30","","","","Haze"
"2006-09-23 16:00","2006","09","23","16:00","21.6","","18.6","","83","","20","","26","","12.9","","98.32","","28","","","","Cloudy"
"2006-09-23 17:00","2006","09","23","17:00","20.9","","18.3","","85","","20","","15","","12.9","","98.24","","27","","","","Cloudy"
"2006-09-23 18:00","2006","09","23","18:00","20.8","","17.4","","81","","19","","17","","19.3","","98.08","","26","","","","Cloudy"
"2006-09-23 19:00","2006","09","23","19:00","20.7","","17.2","","80","","20","","24","","19.3","","98.04","","26","","","","Cloudy"
"2006-09-23 20:00","2006","09","23","20:00","20.1","","17.6","","86","","19","","20","","19.3","","97.98","","26","","","","Rain Showers"
"2006-09-23 21:00","2006","09","23","21:00","20.2","","17.8","","86","","20","","20","","24.1","","97.95","","26","","","","Cloudy"
"2006-09-23 22:00","2006","09","23","22:00","19.9","","17.6","","87","","20","","32","","19.3","","97.86","","","","","","Rain Showers"
"2006-09-23 23:00","2006","09","23","23:00","19.9","","17.7","","87","","21","","37","","11.3","","97.80","","","","","","Rain Showers"
"2006-09-24 00:00","2006","09","24","00:00","19.6","","18.0","","90","","24","","30","","19.3","","97.85","","","","","","Rain Showers"
"2006-09-24 01:00","2006","09","24","01:00","18.8","","16.9","","89","","25","","15","","19.3","","97.86","","","","","","Cloudy"
"2006-09-24 02:00","2006","09","24","02:00","17.7","","15.9","","89","","23","","15","","24.1","","97.94","","","","","","Mostly Cloudy"
"2006-09-24 03:00","2006","09","24","03:00","16.5","","14.6","","89","","25","","20","","24.1","","98.00","","","","","","Mainly Clear"
"2006-09-24 04:00","2006","09","24","04:00","16.0","","13.1","","83","","25","","19","","24.1","","98.04","","","","","","Clear"
"2006-09-24 05:00","2006","09","24","05:00","15.2","","13.1","","87","","25","","17","","24.1","","98.09","","","","","","Clear"
"2006-09-24 06:00","2006","09","24","06:00","14.8","","13.0","","89","","24","","13","","11.3","","98.09","","","","","","Mainly Clear"
"2006-09-24 07:00","2006","09","24","07:00","14.9","","13.3","","90","","24","","19","","11.3","","98.16","","","","","","Mainly Clear"
"2006-09-24 08:00","2006","09","24","08:00","15.6","","13.0","","85","","25","","24","","24.1","","98.17","","","","","","Mainly Clear"
"2006-09-24 09:00","2006","09","24","09:00","16.8","","12.1","","74","","25","","30","","24.1","","98.19","","","","","","Mostly Cloudy"
"2006-09-24 10:00","2006","09","24","10:00","17.6","","11.9","","69","","27","","30","","24.1","","98.26","","","","","","Mostly Cloudy"
"2006-09-24 11:00","2006","09","24","11:00","16.2","","12.9","","81","","25","","30","","24.1","","98.32","","","","","","Rain Showers"
"2006-09-24 12:00","2006","09","24","12:00","18.5","","12.7","","69","","24","","28","","24.1","","98.30","","","","","","Mostly Cloudy"
"2006-09-24 13:00","2006","09","24","13:00","18.7","","11.3","","62","","30","","24","","24.1","","98.34","","","","","","Mostly Cloudy"
"2006-09-24 14:00","2006","09","24","14:00","19.1","","10.8","","59","","28","","24","","24.1","","98.38","","","","","","Mostly Cloudy"
"2006-09-24 15:00","2006","09","24","15:00","18.6","","10.7","","60","","31","","19","","24.1","","98.45","","","","","","Mostly Cloudy"
"2006-09-24 16:00","2006","09","24","16:00","17.3","","10.5","","64","","29","","28","","24.1","","98.56","","","","","","Mostly Cloudy"
"2006-09-24 17:00","2006","09","24","17:00","15.9","","10.3","","69","","29","","28","","24.1","","98.65","","","","","","Mostly Cloudy"
"2006-09-24 18:00","2006","09","24","18:00","15.3","","9.0","","66","","31","","17","","24.1","","98.73","","","","","","Mostly Cloudy"
"2006-09-24 19:00","2006","09","24","19:00","14.6","","8.6","","67","","32","","19","","24.1","","98.83","","","","","","Mostly Cloudy"
"2006-09-24 20:00","2006","09","24","20:00","13.6","","7.2","","65","","32","","19","","24.1","","98.92","","","","","","Mainly Clear"
"2006-09-24 21:00","2006","09","24","21:00","13.0","","7.2","","68","","31","","9","","24.1","","98.98","","","","","","Mostly Cloudy"
"2006-09-24 22:00","2006","09","24","22:00","12.7","","6.6","","66","","32","","11","","24.1","","99.03","","","","","","Mainly Clear"
"2006-09-24 23:00","2006","09","24","23:00","11.5","","6.8","","73","","31","","7","","24.1","","99.08","","","","","","Mainly Clear"
"2006-09-25 00:00","2006","09","25","00:00","11.2","","6.8","","74","","32","","9","","24.1","","99.07","","","","","","Clear"
"2006-09-25 01:00","2006","09","25","01:00","10.0","","7.5","","84","","29","","9","","24.1","","99.08","","","","","","Clear"
"2006-09-25 02:00","2006","09","25","02:00","8.9","","6.8","","87","","28","","9","","24.1","","99.09","","","","","","Clear"
"2006-09-25 03:00","2006","09","25","03:00","8.3","","6.0","","85","","27","","11","","24.1","","99.09","","","","","","Clear"
"2006-09-25 04:00","2006","09","25","04:00","7.6","","5.6","","87","","25","","11","","24.1","","99.10","","","","","","Mainly Clear"
"2006-09-25 05:00","2006","09","25","05:00","7.5","","5.3","","86","","25","","9","","24.1","","99.12","","","","","","Mainly Clear"
"2006-09-25 06:00","2006","09","25","06:00","7.4","","5.5","","88","","23","","9","","24.1","","99.11","","","","","","Clear"
"2006-09-25 07:00","2006","09","25","07:00","7.4","","5.7","","89","","23","","7","","24.1","","99.13","","","","","","Clear"
"2006-09-25 08:00","2006","09","25","08:00","10.4","","7.2","","81","","22","","13","","24.1","","99.13","","","","","","Mainly Clear"
"2006-09-25 09:00","2006","09","25","09:00","12.9","","7.1","","68","","23","","19","","24.1","","99.11","","","","","","Mainly Clear"
"2006-09-25 10:00","2006","09","25","10:00","14.6","","9.1","","70","","24","","20","","24.1","","99.08","","","","","","Mainly Clear"
"2006-09-25 11:00","2006","09","25","11:00","16.3","","9.0","","62","","24","","20","","24.1","","99.02","","","","","","Mainly Clear"
"2006-09-25 12:00","2006","09","25","12:00","17.7","","8.4","","54","","26","","22","","24.1","","98.91","","","","","","Mostly Cloudy"
"2006-09-25 13:00","2006","09","25","13:00","18.8","","8.2","","50","","27","","19","","24.1","","98.84","","","","","","Mostly Cloudy"
"2006-09-25 14:00","2006","09","25","14:00","19.5","","6.8","","44","","27","","26","","24.1","","98.81","","","","","","Mostly Cloudy"
"2006-09-25 15:00","2006","09","25","15:00","19.8","","6.7","","42","","26","","19","","24.1","","98.79","","","","","","Mostly Cloudy"
"2006-09-25 16:00","2006","09","25","16:00","19.7","","7.2","","44","","27","","30","","24.1","","98.79","","","","","","Mostly Cloudy"
"2006-09-25 17:00","2006","09","25","17:00","19.8","","7.3","","44","","27","","24","","24.1","","98.84","","","","","","Mostly Cloudy"
"2006-09-25 18:00","2006","09","25","18:00","19.2","","6.7","","44","","26","","22","","24.1","","98.85","","","","","","Mostly Cloudy"
"2006-09-25 19:00","2006","09","25","19:00","18.5","","6.6","","46","","27","","19","","24.1","","98.93","","","","","","Mostly Cloudy"
"2006-09-25 20:00","2006","09","25","20:00","17.5","","6.6","","49","","27","","13","","24.1","","99.00","","","","","","Mainly Clear"
"2006-09-25 21:00","2006","09","25","21:00","16.2","","7.2","","55","","25","","11","","24.1","","99.05","","","","","","Mainly Clear"
"2006-09-25 22:00","2006","09","25","22:00","15.9","","7.6","","58","","28","","13","","24.1","","99.10","","","","","","Mainly Clear"
"2006-09-25 23:00","2006","09","25","23:00","15.5","","7.9","","61","","32","","11","","24.1","","99.17","","","","","","Mainly Clear"
"2006-09-26 00:00","2006","09","26","00:00","14.2","","7.5","","64","","32","","9","","24.1","","99.19","","","","","","Mainly Clear"
"2006-09-26 01:00","2006","09","26","01:00","12.8","","7.3","","69","","35","","11","","24.1","","99.23","","","","","","Clear"
"2006-09-26 02:00","2006","09","26","02:00","10.9","","7.4","","79","","31","","4","","24.1","","99.26","","","","","","Mainly Clear"
"2006-09-26 03:00","2006","09","26","03:00","10.2","","7.2","","82","","31","","4","","24.1","","99.27","","","","","","Mainly Clear"
"2006-09-26 04:00","2006","09","26","04:00","9.7","","7.4","","86","","25","","6","","24.1","","99.31","","","","","","Mainly Clear"
"2006-09-26 05:00","2006","09","26","05:00","9.5","","7.1","","85","","28","","11","","24.1","","99.38","","","","","","Mainly Clear"
"2006-09-26 06:00","2006","09","26","06:00","9.0","","6.9","","87","","27","","6","","24.1","","99.45","","","","","","Mainly Clear"
"2006-09-26 07:00","2006","09","26","07:00","9.6","","7.1","","84","","31","","6","","24.1","","99.48","","","","","","Mainly Clear"
"2006-09-26 08:00","2006","09","26","08:00","11.9","","8.2","","78","","23","","6","","24.1","","99.53","","","","","","Mainly Clear"
"2006-09-26 09:00","2006","09","26","09:00","14.2","","7.2","","63","","","","0","","24.1","","99.53","","","","","","Mainly Clear"
"2006-09-26 10:00","2006","09","26","10:00","15.9","","6.8","","55","","","","0","","24.1","","99.54","","","","","","Mainly Clear"
"2006-09-26 11:00","2006","09","26","11:00","17.1","","6.5","","50","","34","","4","","24.1","","99.52","","","","","","Mainly Clear"
"2006-09-26 12:00","2006","09","26","12:00","18.0","","5.1","","43","","27","","9","","24.1","","99.47","","","","","","Mostly Cloudy"
"2006-09-26 13:00","2006","09","26","13:00","18.3","","4.9","","41","","25","","11","","24.1","","99.41","","","","","","Mostly Cloudy"
"2006-09-26 14:00","2006","09","26","14:00","19.4","","6.5","","43","","28","","4","","24.1","","99.33","","","","","","Mostly Cloudy"
"2006-09-26 15:00","2006","09","26","15:00","19.5","","5.1","","39","","21","","7","","24.1","","99.28","","","","","","Mostly Cloudy"
"2006-09-26 16:00","2006","09","26","16:00","19.6","","6.3","","42","","22","","11","","24.1","","99.22","","","","","","Mostly Cloudy"
"2006-09-26 17:00","2006","09","26","17:00","18.9","","6.8","","45","","20","","13","","24.1","","99.16","","","","","","Mostly Cloudy"
"2006-09-26 18:00","2006","09","26","18:00","17.4","","7.6","","53","","17","","11","","24.1","","99.11","","","","","","Mostly Cloudy"
"2006-09-26 19:00","2006","09","26","19:00","14.8","","8.3","","65","","16","","9","","24.1","","99.10","","","","","","Mainly Clear"
"2006-09-26 20:00","2006","09","26","20:00","13.5","","8.5","","72","","15","","7","","24.1","","99.08","","","","","","Mainly Clear"
"2006-09-26 21:00","2006","09","26","21:00","12.7","","8.7","","77","","16","","7","","24.1","","99.03","","","","","","Clear"
"2006-09-26 22:00","2006","09","26","22:00","13.4","","10.1","","80","","16","","11","","24.1","","98.95","","","","","","Clear"
"2006-09-26 23:00","2006","09","26","23:00","13.0","","10.2","","83","","15","","7","","24.1","","98.90","","","","","","Clear"
"2006-09-27 00:00","2006","09","27","00:00","13.8","","11.2","","84","","18","","11","","24.1","","98.84","","","","","","Clear"
"2006-09-27 01:00","2006","09","27","01:00","15.6","","12.3","","81","","20","","17","","24.1","","98.79","","","","","","Mainly Clear"
"2006-09-27 02:00","2006","09","27","02:00","15.6","","12.0","","79","","21","","15","","24.1","","98.75","","","","","","Mostly Cloudy"
"2006-09-27 03:00","2006","09","27","03:00","15.3","","12.0","","81","","21","","15","","24.1","","98.70","","","","","","Mainly Clear"
"2006-09-27 04:00","2006","09","27","04:00","15.6","","11.2","","75","","21","","15","","24.1","","98.69","","","","","","Clear"
"2006-09-27 05:00","2006","09","27","05:00","14.8","","12.0","","83","","21","","11","","24.1","","98.74","","","","","","Mainly Clear"
"2006-09-27 06:00","2006","09","27","06:00","15.0","","11.8","","81","","20","","15","","24.1","","98.62","","","","","","Mainly Clear"
"2006-09-27 07:00","2006","09","27","07:00","15.3","","12.0","","81","","21","","19","","24.1","","98.60","","","","","","Mostly Cloudy"
"2006-09-27 08:00","2006","09","27","08:00","16.5","","12.2","","76","","21","","20","","24.1","","98.58","","","","","","Mostly Cloudy"
"2006-09-27 09:00","2006","09","27","09:00","18.4","","12.8","","70","","21","","26","","24.1","","98.54","","","","","","Mostly Cloudy"
"2006-09-27 10:00","2006","09","27","10:00","19.4","","13.0","","66","","21","","32","","24.1","","98.50","","","","","","Mostly Cloudy"
"2006-09-27 11:00","2006","09","27","11:00","21.8","","13.1","","58","","20","","33","","24.1","","98.45","","25","","","","Mostly Cloudy"
"2006-09-27 12:00","2006","09","27","12:00","20.8","","12.5","","59","","20","","22","","24.1","","98.40","","","","","","Rain Showers"
"2006-09-27 13:00","2006","09","27","13:00","21.8","","13.0","","57","","19","","19","","24.1","","98.30","","25","","","","Mostly Cloudy"
"2006-09-27 14:00","2006","09","27","14:00","22.4","","11.9","","51","","21","","28","","24.1","","98.23","","25","","","","Mostly Cloudy"
"2006-09-27 15:00","2006","09","27","15:00","22.5","","12.5","","53","","22","","26","","24.1","","98.20","","25","","","","Cloudy"
"2006-09-27 16:00","2006","09","27","16:00","22.9","","13.0","","54","","22","","20","","24.1","","98.15","","26","","","","Mostly Cloudy"
"2006-09-27 17:00","2006","09","27","17:00","22.6","","12.3","","52","","23","","28","","24.1","","98.14","","25","","","","Mostly Cloudy"
"2006-09-27 18:00","2006","09","27","18:00","19.3","","13.6","","70","","26","","17","","19.3","","98.24","","","","","","Thunderstorms,Rain Showers"
"2006-09-27 19:00","2006","09","27","19:00","16.8","","14.5","","86","","22","","9","","24.1","","98.27","","","","","","Rain Showers"
"2006-09-27 20:00","2006","09","27","20:00","16.7","","15.0","","90","","25","","9","","24.1","","98.34","","","","","","Rain Showers"
"2006-09-27 21:00","2006","09","27","21:00","16.7","","12.6","","77","","30","","9","","24.1","","98.38","","","","","","Rain Showers"
"2006-09-27 22:00","2006","09","27","22:00","15.9","","11.1","","73","","32","","17","","24.1","","98.43","","","","","","Mostly Cloudy"
"2006-09-27 23:00","2006","09","27","23:00","14.4","","9.8","","74","","32","","17","","24.1","","98.47","","","","","","Mostly Cloudy"
"2006-09-28 00:00","2006","09","28","00:00","13.6","","9.8","","78","","30","","11","","24.1","","98.49","","","","","","Mostly Cloudy"
"2006-09-28 01:00","2006","09","28","01:00","12.6","","8.7","","77","","32","","19","","24.1","","98.51","","","","","","Mostly Cloudy"
"2006-09-28 02:00","2006","09","28","02:00","12.1","","8.4","","78","","33","","15","","24.1","","98.52","","","","","","Mostly Cloudy"
"2006-09-28 03:00","2006","09","28","03:00","11.7","","7.9","","77","","32","","17","","24.1","","98.55","","","","","","Mostly Cloudy"
"2006-09-28 04:00","2006","09","28","04:00","11.1","","7.2","","77","","35","","17","","24.1","","98.53","","","","","","Mostly Cloudy"
"2006-09-28 05:00","2006","09","28","05:00","10.7","","6.7","","76","","32","","19","","24.1","","98.57","","","","","","Mostly Cloudy"
"2006-09-28 06:00","2006","09","28","06:00","10.7","","6.6","","76","","33","","11","","24.1","","98.61","","","","","","Cloudy"
"2006-09-28 07:00","2006","09","28","07:00","10.4","","7.1","","80","","33","","19","","24.1","","98.66","","","","","","Mostly Cloudy"
"2006-09-28 08:00","2006","09","28","08:00","10.3","","7.0","","80","","34","","20","","24.1","","98.64","","","","","","Mostly Cloudy"
"2006-09-28 09:00","2006","09","28","09:00","10.6","","6.7","","77","","34","","19","","24.1","","98.72","","","","","","Mostly Cloudy"
"2006-09-28 10:00","2006","09","28","10:00","10.8","","6.1","","73","","34","","20","","24.1","","98.72","","","","","","Mostly Cloudy"
"2006-09-28 11:00","2006","09","28","11:00","11.3","","5.9","","69","","36","","17","","24.1","","98.71","","","","","","Mostly Cloudy"
"2006-09-28 12:00","2006","09","28","12:00","12.1","","5.8","","65","","34","","15","","24.1","","98.71","","","","","","Mostly Cloudy"
"2006-09-28 13:00","2006","09","28","13:00","12.5","","5.6","","63","","33","","15","","24.1","","98.73","","","","","","Mostly Cloudy"
"2006-09-28 14:00","2006","09","28","14:00","13.0","","5.3","","59","","36","","15","","24.1","","98.74","","","","","","Mostly Cloudy"
"2006-09-28 15:00","2006","09","28","15:00","13.5","","5.1","","57","","34","","17","","24.1","","98.73","","","","","","Mostly Cloudy"
"2006-09-28 16:00","2006","09","28","16:00","13.3","","4.1","","54","","30","","17","","24.1","","98.72","","","","","","Mainly Clear"
"2006-09-28 17:00","2006","09","28","17:00","14.1","","4.1","","51","","32","","17","","24.1","","98.79","","","","","","Mainly Clear"
"2006-09-28 18:00","2006","09","28","18:00","13.4","","3.4","","51","","1","","15","","24.1","","98.86","","","","","","Mostly Cloudy"
"2006-09-28 19:00","2006","09","28","19:00","11.8","","5.1","","63","","36","","9","","24.1","","98.88","","","","","","Mostly Cloudy"
"2006-09-28 20:00","2006","09","28","20:00","10.7","","5.3","","69","","36","","9","","24.1","","98.92","","","","","","Mainly Clear"
"2006-09-28 21:00","2006","09","28","21:00","9.8","","5.6","","75","","36","","13","","24.1","","98.96","","","","","","Clear"
"2006-09-28 22:00","2006","09","28","22:00","8.9","","5.6","","80","","34","","7","","24.1","","98.98","","","","","","Clear"
"2006-09-28 23:00","2006","09","28","23:00","8.2","","5.8","","85","","35","","9","","24.1","","99.02","","","","","","Clear"
"2006-09-29 00:00","2006","09","29","00:00","8.2","","5.5","","83","","34","","9","","24.1","","99.01","","","","","","Clear"
"2006-09-29 01:00","2006","09","29","01:00","7.8","","5.5","","85","","34","","9","","24.1","","99.03","","","","","","Clear"
"2006-09-29 02:00","2006","09","29","02:00","7.4","","5.1","","85","","32","","9","","24.1","","99.04","","","","","","Clear"
"2006-09-29 03:00","2006","09","29","03:00","7.0","","5.0","","87","","31","","6","","24.1","","99.05","","","","","","Mainly Clear"
"2006-09-29 04:00","2006","09","29","04:00","6.4","","4.5","","88","","29","","7","","24.1","","99.08","","","","","","Mainly Clear"
"2006-09-29 05:00","2006","09","29","05:00","6.0","","4.1","","88","","28","","9","","24.1","","99.12","","","","","","Mainly Clear"
"2006-09-29 06:00","2006","09","29","06:00","5.9","","4.1","","88","","29","","7","","24.1","","99.13","","","","","","Clear"
"2006-09-29 07:00","2006","09","29","07:00","5.8","","4.1","","89","","27","","9","","24.1","","99.17","","","","","","Mainly Clear"
"2006-09-29 08:00","2006","09","29","08:00","8.0","","5.3","","83","","28","","7","","24.1","","99.20","","","","","","Mainly Clear"
"2006-09-29 09:00","2006","09","29","09:00","10.0","","5.5","","74","","28","","9","","24.1","","99.20","","","","","","Mainly Clear"
"2006-09-29 10:00","2006","09","29","10:00","11.5","","3.9","","60","","27","","13","","24.1","","99.23","","","","","","Mainly Clear"
"2006-09-29 11:00","2006","09","29","11:00","13.0","","2.3","","48","","27","","9","","24.1","","99.20","","","","","","Mostly Cloudy"
"2006-09-29 12:00","2006","09","29","12:00","13.6","","1.2","","43","","23","","13","","24.1","","99.18","","","","","","Mostly Cloudy"
"2006-09-29 13:00","2006","09","29","13:00","13.5","","1.3","","43","","22","","9","","24.1","","99.15","","","","","","Mostly Cloudy"
"2006-09-29 14:00","2006","09","29","14:00","14.5","","3.3","","47","","22","","20","","24.1","","99.08","","","","","","Mostly Cloudy"
"2006-09-29 15:00","2006","09","29","15:00","13.5","","3.7","","51","","21","","13","","24.1","","99.04","","","","","","Mostly Cloudy"
"2006-09-29 16:00","2006","09","29","16:00","14.6","","3.0","","46","","21","","19","","24.1","","99.02","","","","","","Mostly Cloudy"
"2006-09-29 17:00","2006","09","29","17:00","14.2","","3.2","","47","","20","","17","","24.1","","99.01","","","","","","Mostly Cloudy"
"2006-09-29 18:00","2006","09","29","18:00","14.0","","3.5","","49","","23","","4","","24.1","","99.03","","","","","","Mostly Cloudy"
"2006-09-29 19:00","2006","09","29","19:00","12.7","","5.0","","59","","18","","7","","24.1","","99.04","","","","","","Mostly Cloudy"
"2006-09-29 20:00","2006","09","29","20:00","11.5","","6.2","","70","","17","","9","","24.1","","99.05","","","","","","Mainly Clear"
"2006-09-29 21:00","2006","09","29","21:00","11.3","","6.3","","71","","17","","9","","24.1","","99.06","","","","","","Cloudy"
"2006-09-29 22:00","2006","09","29","22:00","11.7","","5.9","","68","","17","","7","","24.1","","99.04","","","","","","Cloudy"
"2006-09-29 23:00","2006","09","29","23:00","11.9","","5.7","","66","","18","","7","","24.1","","99.03","","","","","","Cloudy"
"2006-09-30 00:00","2006","09","30","00:00","12.6","","5.6","","62","","18","","11","","24.1","","99.00","","","","","","Cloudy"
"2006-09-30 01:00","2006","09","30","01:00","13.4","","6.3","","62","","19","","15","","24.1","","98.97","","","","","","Cloudy"
"2006-09-30 02:00","2006","09","30","02:00","12.7","","4.9","","59","","23","","20","","24.1","","98.99","","","","","","Cloudy"
"2006-09-30 03:00","2006","09","30","03:00","11.7","","5.8","","67","","22","","11","","24.1","","98.97","","","","","","Rain Showers"
"2006-09-30 04:00","2006","09","30","04:00","10.4","","7.3","","81","","21","","9","","16.1","","98.93","","","","","","Rain Showers"
"2006-09-30 05:00","2006","09","30","05:00","10.4","","8.8","","90","","18","","13","","9.7","","98.89","","","","","","Rain,Fog"
"2006-09-30 06:00","2006","09","30","06:00","10.4","","9.0","","91","","18","","17","","9.7","","98.87","","","","","","Rain,Fog"
"2006-09-30 07:00","2006","09","30","07:00","10.5","","9.3","","92","","18","","19","","9.7","","98.84","","","","","","Rain,Fog"
"2006-09-30 08:00","2006","09","30","08:00","10.7","","9.5","","92","","18","","15","","9.7","","98.80","","","","","","Rain,Fog"
"2006-09-30 09:00","2006","09","30","09:00","10.8","","9.4","","91","","18","","22","","19.3","","98.76","","","","","","Cloudy"
"2006-09-30 10:00","2006","09","30","10:00","11.6","","9.4","","86","","18","","17","","19.3","","98.75","","","","","","Cloudy"
"2006-09-30 11:00","2006","09","30","11:00","12.5","","9.9","","84","","19","","20","","24.1","","98.68","","","","","","Cloudy"
"2006-09-30 12:00","2006","09","30","12:00","11.7","","10.0","","89","","20","","19","","8.0","","98.66","","","","","","Rain,Fog"
"2006-09-30 13:00","2006","09","30","13:00","12.8","","11.4","","91","","20","","20","","11.3","","98.59","","","","","","Cloudy"
"2006-09-30 14:00","2006","09","30","14:00","13.5","","11.7","","89","","20","","13","","8.0","","98.54","","","","","","Rain,Fog"
"2006-09-30 15:00","2006","09","30","15:00","14.2","","11.4","","83","","20","","9","","12.9","","98.54","","","","","","Cloudy"
"2006-09-30 16:00","2006","09","30","16:00","15.3","","11.7","","79","","19","","13","","12.9","","98.51","","","","","","Mostly Cloudy"
"2006-09-30 17:00","2006","09","30","17:00","14.9","","12.1","","83","","","","0","","16.1","","98.51","","","","","","Mostly Cloudy"
"2006-09-30 18:00","2006","09","30","18:00","14.5","","12.1","","86","","","","0","","16.1","","98.56","","","","","","Mostly Cloudy"
"2006-09-30 19:00","2006","09","30","19:00","12.0","","10.0","","88","","24","","11","","9.7","","98.62","","","","","","Thunderstorms,Moderate Rain Showers"
"2006-09-30 20:00","2006","09","30","20:00","11.6","","10.1","","91","","25","","7","","16.1","","98.67","","","","","","Mostly Cloudy"
"2006-09-30 21:00","2006","09","30","21:00","10.9","","10.0","","94","","25","","9","","24.1","","98.73","","","","","","Mostly Cloudy"
"2006-09-30 22:00","2006","09","30","22:00","10.5","","9.6","","94","","24","","9","","16.1","","98.79","","","","","","Clear"
"2006-09-30 23:00","2006","09","30","23:00","10.2","","9.4","","95","","24","","6","","16.1","","98.83","","","","","","Mainly Clear"
