"Station Name","WINDSOR A"
"Province","ONTARIO"
"Latitude","42.28"
"Longitude","-82.96"
"Elevation","189.60"
"Climate Identifier","6139525"
"WMO Identifier","71538"
"TC Identifier","YQG"
"All times are specified in Local Standard Time (LST). Add 1 hour to adjust for Daylight Saving Time where and when it is observed."

"Legend"
"E","Estimated"
"M","Missing"
"NA","Not Available"

"Date/Time","Year","Month","Day","Time","Temp (°C)","Temp Flag","Dew Point Temp (°C)","Dew Point Temp Flag","Rel Hum (%)","Rel Hum Flag","Wind Dir (10s deg)","Wind Dir Flag","Wind Spd (km/h)","Wind Spd Flag","Visibility (km)","Visibility Flag","Stn Press (kPa)","Stn Press Flag","Hmdx","Hmdx Flag","Wind Chill","Wind Chill Flag","Weather"
"1998-06-01 00:00","1998","06","01","00:00","15.0","","7.0","","59","","1","","11","","24.1","","98.63","","","","","","Mostly Cloudy"
"1998-06-01 01:00","1998","06","01","01:00","14.3","","7.0","","61","","1","","22","","24.1","","98.66","","","","","","Mostly Cloudy"
"1998-06-01 02:00","1998","06","01","02:00","13.0","","6.6","","65","","35","","26","","24.1","","98.70","","","","","","Mainly Clear"
"1998-06-01 03:00","1998","06","01","03:00","12.0","","5.8","","66","","34","","28","","24.1","","98.70","","","","","","Mainly Clear"
"1998-06-01 04:00","1998","06","01","04:00","10.5","","4.7","","67","","35","","22","","24.1","","98.73","","","","","","Mainly Clear"
"1998-06-01 05:00","1998","06","01","05:00","9.3","","2.8","","64","","34","","22","","24.1","","98.80","","","","","","Mainly Clear"
"1998-06-01 06:00","1998","06","01","06:00","8.4","","1.0","","60","","36","","24","","24.1","","98.86","","","","","","Clear"
"1998-06-01 07:00","1998","06","01","07:00","9.5","","2.2","","60","","35","","19","","25.0","","98.93","","","","","","Clear"
"1998-06-01 08:00","1998","06","01","08:00","9.9","","1.4","","55","","30","","15","","25.0","","98.96","","","","","","Mainly Clear"
"1998-06-01 09:00","1998","06","01","09:00","10.8","","0.7","","50","","32","","7","","25.0","","99.03","","","","","","Mainly Clear"
"1998-06-01 10:00","1998","06","01","10:00","13.1","","0.7","","43","","","","0","","25.0","","99.00","","","","","","Mainly Clear"
"1998-06-01 11:00","1998","06","01","11:00","14.1","","0.8","","40","","4","","9","","25.0","","98.96","","","","","","Mostly Cloudy"
"1998-06-01 12:00","1998","06","01","12:00","15.7","","2.7","","42","","9","","7","","25.0","","98.86","","","","","","Cloudy"
"1998-06-01 13:00","1998","06","01","13:00","17.3","","1.7","","35","","26","","15","","25.0","","98.80","","","","","","Cloudy"
"1998-06-01 14:00","1998","06","01","14:00","17.5","","1.7","","35","","17","","13","","25.0","","98.70","","","","","","Cloudy"
"1998-06-01 15:00","1998","06","01","15:00","17.8","","3.6","","39","","22","","17","","25.0","","98.66","","","","","","Mostly Cloudy"
"1998-06-01 16:00","1998","06","01","16:00","19.0","","4.1","","37","","21","","17","","25.0","","98.53","","","","","","Mainly Clear"
"1998-06-01 17:00","1998","06","01","17:00","19.7","","4.4","","36","","21","","19","","25.0","","98.47","","","","","","Mostly Cloudy"
"1998-06-01 18:00","1998","06","01","18:00","19.5","","5.8","","41","","19","","15","","25.0","","98.40","","","","","","Mostly Cloudy"
"1998-06-01 19:00","1998","06","01","19:00","17.8","","7.2","","50","","16","","17","","25.0","","98.37","","","","","","Mostly Cloudy"
"1998-06-01 20:00","1998","06","01","20:00","15.8","","8.6","","62","","17","","11","","25.0","","98.30","","","","","","Mostly Cloudy"
"1998-06-01 21:00","1998","06","01","21:00","15.2","","9.3","","68","","17","","9","","25.0","","98.30","","","","","","Mostly Cloudy"
"1998-06-01 22:00","1998","06","01","22:00","15.2","","10.4","","73","","17","","11","","25.0","","98.30","","","","","","Cloudy"
"1998-06-01 23:00","1998","06","01","23:00","15.8","","10.9","","73","","17","","11","","25.0","","98.23","","","","","","Cloudy"
"1998-06-02 00:00","1998","06","02","00:00","16.5","","12.2","","76","","17","","15","","24.1","","98.13","","","","","","Cloudy"
"1998-06-02 01:00","1998","06","02","01:00","17.3","","13.2","","77","","19","","6","","24.1","","98.07","","","","","","Rain"
"1998-06-02 02:00","1998","06","02","02:00","17.4","","14.3","","82","","30","","7","","19.3","","98.00","","","","","","Cloudy"
"1998-06-02 03:00","1998","06","02","03:00","17.5","","13.8","","79","","23","","9","","19.3","","97.97","","","","","","Mostly Cloudy"
"1998-06-02 04:00","1998","06","02","04:00","17.4","","13.4","","77","","24","","6","","19.3","","97.93","","","","","","Mostly Cloudy"
"1998-06-02 05:00","1998","06","02","05:00","17.5","","13.3","","76","","22","","7","","12.9","","97.90","","","","","","Cloudy"
"1998-06-02 06:00","1998","06","02","06:00","17.1","","13.1","","77","","22","","9","","19.3","","97.83","","","","","","Mainly Clear"
"1998-06-02 07:00","1998","06","02","07:00","18.6","","13.0","","70","","23","","11","","19.3","","97.77","","","","","","Clear"
"1998-06-02 08:00","1998","06","02","08:00","20.8","","12.2","","58","","22","","20","","16.1","","97.70","","","","","","Clear"
"1998-06-02 09:00","1998","06","02","09:00","21.7","","12.9","","57","","21","","30","","16.1","","97.63","","","","","","Clear"
"1998-06-02 10:00","1998","06","02","10:00","22.9","","12.3","","51","","22","","37","","19.3","","97.53","","25","","","","Clear"
"1998-06-02 11:00","1998","06","02","11:00","24.8","","14.3","","52","","22","","37","","16.1","","97.43","","28","","","","Clear"
"1998-06-02 12:00","1998","06","02","12:00","26.7","","14.6","","47","","25","","39","","19.3","","97.40","","30","","","","Mostly Cloudy"
"1998-06-02 13:00","1998","06","02","13:00","27.8","","15.3","","47","","27","","37","","19.3","","97.33","","32","","","","Mainly Clear"
"1998-06-02 14:00","1998","06","02","14:00","27.8","","14.8","","45","","26","","39","","19.3","","97.33","","32","","","","Mostly Cloudy"
"1998-06-02 15:00","1998","06","02","15:00","26.5","","13.9","","46","","29","","54","","19.3","","97.47","","30","","","","Mainly Clear"
"1998-06-02 16:00","1998","06","02","16:00","24.4","","11.5","","44","","30","","48","","24.1","","97.60","","26","","","","Mainly Clear"
"1998-06-02 17:00","1998","06","02","17:00","23.4","","11.7","","48","","30","","46","","24.1","","97.67","","26","","","","Mostly Cloudy"
"1998-06-02 18:00","1998","06","02","18:00","21.4","","10.4","","49","","31","","44","","24.1","","97.83","","","","","","Mainly Clear"
"1998-06-02 19:00","1998","06","02","19:00","18.8","","8.7","","52","","34","","44","","24.1","","98.03","","","","","","Mainly Clear"
"1998-06-02 20:00","1998","06","02","20:00","16.2","","6.7","","53","","35","","39","","25.0","","98.23","","","","","","Mainly Clear"
"1998-06-02 21:00","1998","06","02","21:00","14.3","","6.1","","58","","35","","32","","25.0","","98.43","","","","","","Mainly Clear"
"1998-06-02 22:00","1998","06","02","22:00","13.3","","5.3","","58","","35","","24","","25.0","","98.57","","","","","","Mainly Clear"
"1998-06-02 23:00","1998","06","02","23:00","12.4","","4.7","","59","","32","","32","","24.1","","98.63","","","","","","Mainly Clear"
"1998-06-03 00:00","1998","06","03","00:00","11.6","","3.9","","59","","33","","22","","24.1","","98.70","","","","","","Clear"
"1998-06-03 01:00","1998","06","03","01:00","10.9","","3.0","","58","","35","","19","","24.1","","98.70","","","","","","Clear"
"1998-06-03 02:00","1998","06","03","02:00","10.1","","2.7","","60","","36","","11","","24.1","","98.73","","","","","","Clear"
"1998-06-03 03:00","1998","06","03","03:00","9.7","","2.4","","60","","34","","6","","24.1","","98.76","","","","","","Clear"
"1998-06-03 04:00","1998","06","03","04:00","8.8","","2.4","","64","","26","","6","","24.1","","98.76","","","","","","Clear"
"1998-06-03 05:00","1998","06","03","05:00","7.8","","3.1","","72","","26","","4","","24.1","","98.76","","","","","","Mainly Clear"
"1998-06-03 06:00","1998","06","03","06:00","9.3","","4.1","","70","","26","","9","","24.1","","98.76","","","","","","Mainly Clear"
"1998-06-03 07:00","1998","06","03","07:00","10.8","","3.3","","60","","27","","13","","19.3","","98.80","","","","","","Mostly Cloudy"
"1998-06-03 08:00","1998","06","03","08:00","12.1","","3.3","","55","","25","","15","","24.1","","98.80","","","","","","Mostly Cloudy"
"1998-06-03 09:00","1998","06","03","09:00","13.7","","3.1","","49","","25","","19","","24.1","","98.80","","","","","","Mostly Cloudy"
"1998-06-03 10:00","1998","06","03","10:00","14.9","","5.0","","51","","28","","19","","24.1","","98.76","","","","","","Cloudy"
"1998-06-03 11:00","1998","06","03","11:00","15.0","","5.9","","54","","28","","28","","24.1","","98.83","","","","","","Cloudy"
"1998-06-03 12:00","1998","06","03","12:00","15.5","","6.0","","53","","29","","24","","24.1","","98.80","","","","","","Cloudy"
"1998-06-03 13:00","1998","06","03","13:00","15.0","","5.9","","54","","28","","22","","24.1","","98.76","","","","","","Cloudy"
"1998-06-03 14:00","1998","06","03","14:00","15.0","","6.1","","55","","30","","22","","24.1","","98.73","","","","","","Cloudy"
"1998-06-03 15:00","1998","06","03","15:00","15.9","","5.0","","48","","29","","28","","24.1","","98.73","","","","","","Mostly Cloudy"
"1998-06-03 16:00","1998","06","03","16:00","16.6","","5.4","","47","","31","","22","","25.0","","98.70","","","","","","Mostly Cloudy"
"1998-06-03 17:00","1998","06","03","17:00","16.9","","4.3","","43","","30","","22","","25.0","","98.70","","","","","","Mainly Clear"
"1998-06-03 18:00","1998","06","03","18:00","16.8","","2.5","","38","","30","","28","","25.0","","98.70","","","","","","Mainly Clear"
"1998-06-03 19:00","1998","06","03","19:00","16.3","","2.9","","41","","32","","24","","25.0","","98.70","","","","","","Mainly Clear"
"1998-06-03 20:00","1998","06","03","20:00","15.1","","2.4","","42","","31","","17","","25.0","","98.73","","","","","","Mainly Clear"
"1998-06-03 21:00","1998","06","03","21:00","14.4","","1.3","","41","","31","","15","","25.0","","98.80","","","","","","Mainly Clear"
"1998-06-03 22:00","1998","06","03","22:00","13.2","","2.1","","47","","30","","15","","25.0","","98.83","","","","","","Clear"
"1998-06-03 23:00","1998","06","03","23:00","12.3","","1.8","","49","","35","","11","","25.0","","98.86","","","","","","Clear"
"1998-06-04 00:00","1998","06","04","00:00","10.9","","4.5","","65","","1","","7","","25.0","","98.86","","","","","","Clear"
"1998-06-04 01:00","1998","06","04","01:00","9.3","","5.4","","77","","36","","7","","24.1","","98.90","","","","","","Clear"
"1998-06-04 02:00","1998","06","04","02:00","8.4","","5.0","","79","","34","","7","","24.1","","98.93","","","","","","Clear"
"1998-06-04 03:00","1998","06","04","03:00","8.2","","4.5","","77","","30","","4","","24.1","","98.93","","","","","","Clear"
"1998-06-04 04:00","1998","06","04","04:00","7.8","","4.6","","80","","28","","4","","24.1","","98.93","","","","","","Clear"
"1998-06-04 05:00","1998","06","04","05:00","7.7","","4.7","","81","","29","","4","","24.1","","98.96","","","","","","Mainly Clear"
"1998-06-04 06:00","1998","06","04","06:00","8.4","","4.3","","75","","27","","6","","24.1","","99.00","","","","","","Mainly Clear"
"1998-06-04 07:00","1998","06","04","07:00","10.6","","4.6","","66","","26","","7","","19.3","","99.03","","","","","","Clear"
"1998-06-04 08:00","1998","06","04","08:00","12.7","","2.2","","49","","25","","13","","24.1","","99.03","","","","","","Clear"
"1998-06-04 09:00","1998","06","04","09:00","14.1","","0.9","","41","","27","","19","","24.1","","99.03","","","","","","Clear"
"1998-06-04 10:00","1998","06","04","10:00","15.3","","2.2","","41","","29","","19","","24.1","","99.00","","","","","","Mostly Cloudy"
"1998-06-04 11:00","1998","06","04","11:00","15.7","","1.9","","39","","30","","28","","24.1","","98.96","","","","","","Mostly Cloudy"
"1998-06-04 12:00","1998","06","04","12:00","17.9","","3.6","","39","","30","","22","","24.1","","98.90","","","","","","Mostly Cloudy"
"1998-06-04 13:00","1998","06","04","13:00","17.8","","2.6","","36","","30","","22","","24.1","","98.80","","","","","","Mostly Cloudy"
"1998-06-04 14:00","1998","06","04","14:00","17.8","","1.4","","33","","","","0","","24.1","","98.80","","","","","","Mostly Cloudy"
"1998-06-04 15:00","1998","06","04","15:00","18.6","","2.4","","34","","33","","11","","25.0","","98.76","","","","","","Mostly Cloudy"
"1998-06-04 16:00","1998","06","04","16:00","19.1","","2.3","","33","","30","","17","","25.0","","98.76","","","","","","Mostly Cloudy"
"1998-06-04 17:00","1998","06","04","17:00","18.9","","2.6","","34","","29","","19","","25.0","","98.73","","","","","","Mostly Cloudy"
"1998-06-04 18:00","1998","06","04","18:00","18.6","","2.4","","34","","30","","20","","25.0","","98.73","","","","","","Mostly Cloudy"
"1998-06-04 19:00","1998","06","04","19:00","18.2","","2.4","","35","","30","","20","","25.0","","98.76","","","","","","Mostly Cloudy"
"1998-06-04 20:00","1998","06","04","20:00","17.3","","2.4","","37","","30","","13","","25.0","","98.80","","","","","","Mostly Cloudy"
"1998-06-04 21:00","1998","06","04","21:00","16.2","","4.2","","45","","27","","11","","25.0","","98.83","","","","","","Mainly Clear"
"1998-06-04 22:00","1998","06","04","22:00","16.2","","1.8","","38","","35","","15","","24.1","","98.90","","","","","","Mostly Cloudy"
"1998-06-04 23:00","1998","06","04","23:00","12.3","","5.5","","63","","4","","20","","24.1","","98.93","","","","","","Mainly Clear"
"1998-06-05 00:00","1998","06","05","00:00","11.5","","5.1","","65","","5","","22","","24.1","","98.96","","","","","","Mainly Clear"
"1998-06-05 01:00","1998","06","05","01:00","10.9","","3.6","","61","","5","","22","","24.1","","98.96","","","","","","Clear"
"1998-06-05 02:00","1998","06","05","02:00","10.6","","4.2","","65","","6","","26","","24.1","","98.93","","","","","","Mainly Clear"
"1998-06-05 03:00","1998","06","05","03:00","10.1","","4.6","","69","","5","","19","","24.1","","98.93","","","","","","Mainly Clear"
"1998-06-05 04:00","1998","06","05","04:00","9.5","","4.2","","69","","6","","19","","24.1","","98.90","","","","","","Mainly Clear"
"1998-06-05 05:00","1998","06","05","05:00","8.8","","4.1","","72","","6","","11","","24.1","","98.93","","","","","","Mainly Clear"
"1998-06-05 06:00","1998","06","05","06:00","9.0","","4.8","","75","","1","","9","","24.1","","99.06","","","","","","Mostly Cloudy"
"1998-06-05 07:00","1998","06","05","07:00","10.1","","5.3","","72","","1","","13","","25.0","","99.06","","","","","","Mostly Cloudy"
"1998-06-05 08:00","1998","06","05","08:00","10.3","","4.9","","69","","5","","15","","25.0","","99.06","","","","","","Cloudy"
"1998-06-05 09:00","1998","06","05","09:00","10.6","","3.7","","62","","4","","13","","25.0","","99.03","","","","","","Cloudy"
"1998-06-05 10:00","1998","06","05","10:00","10.2","","4.0","","65","","36","","20","","25.0","","99.10","","","","","","Cloudy"
"1998-06-05 11:00","1998","06","05","11:00","9.1","","3.3","","67","","32","","6","","16.1","","99.10","","","","","","Rain Showers"
"1998-06-05 12:00","1998","06","05","12:00","9.0","","3.3","","67","","1","","9","","19.3","","99.13","","","","","","Rain"
"1998-06-05 13:00","1998","06","05","13:00","9.0","","4.1","","71","","35","","13","","24.1","","99.13","","","","","","Rain"
"1998-06-05 14:00","1998","06","05","14:00","9.7","","4.5","","70","","2","","9","","24.1","","99.06","","","","","","Cloudy"
"1998-06-05 15:00","1998","06","05","15:00","10.3","","4.4","","67","","33","","7","","24.1","","99.03","","","","","","Cloudy"
"1998-06-05 16:00","1998","06","05","16:00","10.8","","3.9","","62","","3","","9","","24.1","","99.06","","","","","","Cloudy"
"1998-06-05 17:00","1998","06","05","17:00","11.0","","4.4","","64","","33","","13","","24.1","","99.10","","","","","","Cloudy"
"1998-06-05 18:00","1998","06","05","18:00","11.0","","5.6","","69","","33","","11","","24.1","","99.13","","","","","","Cloudy"
"1998-06-05 19:00","1998","06","05","19:00","11.4","","5.1","","65","","35","","15","","24.1","","99.16","","","","","","Cloudy"
"1998-06-05 20:00","1998","06","05","20:00","10.6","","4.5","","66","","35","","19","","24.1","","99.23","","","","","","Mostly Cloudy"
"1998-06-05 21:00","1998","06","05","21:00","10.6","","4.8","","67","","31","","9","","24.1","","99.20","","","","","","Mostly Cloudy"
"1998-06-05 22:00","1998","06","05","22:00","10.7","","4.4","","65","","34","","15","","24.1","","99.26","","","","","","Mostly Cloudy"
"1998-06-05 23:00","1998","06","05","23:00","9.6","","4.5","","70","","34","","9","","24.1","","99.26","","","","","","Mainly Clear"
"1998-06-06 00:00","1998","06","06","00:00","8.9","","4.0","","71","","33","","11","","24.1","","99.20","","","","","","Clear"
"1998-06-06 01:00","1998","06","06","01:00","8.0","","4.6","","79","","29","","9","","24.1","","99.20","","","","","","Clear"
"1998-06-06 02:00","1998","06","06","02:00","7.9","","4.5","","79","","28","","15","","24.1","","99.20","","","","","","Clear"
"1998-06-06 03:00","1998","06","06","03:00","8.4","","4.5","","76","","27","","7","","24.1","","99.23","","","","","","Mostly Cloudy"
"1998-06-06 04:00","1998","06","06","04:00","8.1","","4.4","","77","","27","","15","","24.1","","99.33","","","","","","Mostly Cloudy"
"1998-06-06 05:00","1998","06","06","05:00","8.0","","4.4","","78","","29","","7","","24.1","","99.26","","","","","","Mostly Cloudy"
"1998-06-06 06:00","1998","06","06","06:00","7.9","","4.4","","79","","29","","9","","24.1","","99.33","","","","","","Mainly Clear"
"1998-06-06 07:00","1998","06","06","07:00","9.9","","5.1","","72","","34","","13","","24.1","","99.36","","","","","","Mainly Clear"
"1998-06-06 08:00","1998","06","06","08:00","12.0","","3.8","","57","","34","","15","","24.1","","99.40","","","","","","Mainly Clear"
"1998-06-06 09:00","1998","06","06","09:00","13.5","","2.7","","48","","32","","22","","24.1","","99.43","","","","","","Mainly Clear"
"1998-06-06 10:00","1998","06","06","10:00","14.5","","3.7","","48","","36","","19","","24.1","","99.43","","","","","","Mainly Clear"
"1998-06-06 11:00","1998","06","06","11:00","15.4","","1.3","","38","","31","","17","","24.1","","99.43","","","","","","Mostly Cloudy"
"1998-06-06 12:00","1998","06","06","12:00","15.4","","1.6","","39","","31","","20","","24.1","","99.43","","","","","","Mostly Cloudy"
"1998-06-06 13:00","1998","06","06","13:00","15.4","","1.7","","39","","31","","20","","24.1","","99.43","","","","","","Mostly Cloudy"
"1998-06-06 14:00","1998","06","06","14:00","15.1","","2.3","","42","","28","","22","","24.1","","99.40","","","","","","Mostly Cloudy"
"1998-06-06 15:00","1998","06","06","15:00","15.7","","1.6","","38","","26","","17","","24.1","","99.40","","","","","","Mostly Cloudy"
"1998-06-06 16:00","1998","06","06","16:00","15.6","","1.4","","38","","31","","15","","24.1","","99.36","","","","","","Mostly Cloudy"
"1998-06-06 17:00","1998","06","06","17:00","15.4","","2.4","","42","","32","","11","","24.1","","99.36","","","","","","Mostly Cloudy"
"1998-06-06 18:00","1998","06","06","18:00","15.3","","1.6","","39","","29","","20","","24.1","","99.36","","","","","","Mostly Cloudy"
"1998-06-06 19:00","1998","06","06","19:00","14.6","","2.2","","43","","29","","19","","24.1","","99.43","","","","","","Cloudy"
"1998-06-06 20:00","1998","06","06","20:00","13.9","","2.9","","47","","30","","15","","24.1","","99.43","","","","","","Mostly Cloudy"
"1998-06-06 21:00","1998","06","06","21:00","13.6","","2.9","","48","","31","","15","","24.1","","99.43","","","","","","Cloudy"
"1998-06-06 22:00","1998","06","06","22:00","13.1","","3.1","","51","","32","","17","","24.1","","99.46","","","","","","Cloudy"
"1998-06-06 23:00","1998","06","06","23:00","13.0","","2.6","","49","","32","","15","","24.1","","99.46","","","","","","Cloudy"
"1998-06-07 00:00","1998","06","07","00:00","12.4","","3.5","","55","","30","","11","","24.1","","99.43","","","","","","Cloudy"
"1998-06-07 01:00","1998","06","07","01:00","12.1","","3.7","","56","","31","","15","","24.1","","99.43","","","","","","Cloudy"
"1998-06-07 02:00","1998","06","07","02:00","11.7","","3.9","","59","","30","","15","","24.1","","99.43","","","","","","Cloudy"
"1998-06-07 03:00","1998","06","07","03:00","10.9","","3.9","","62","","30","","15","","24.1","","99.43","","","","","","Mostly Cloudy"
"1998-06-07 04:00","1998","06","07","04:00","9.8","","3.8","","66","","30","","13","","24.1","","99.43","","","","","","Mainly Clear"
"1998-06-07 05:00","1998","06","07","05:00","9.1","","3.5","","68","","31","","17","","24.1","","99.53","","","","","","Mostly Cloudy"
"1998-06-07 06:00","1998","06","07","06:00","9.9","","4.0","","67","","30","","19","","24.1","","99.60","","","","","","Mostly Cloudy"
"1998-06-07 07:00","1998","06","07","07:00","10.1","","4.3","","67","","31","","15","","24.1","","99.63","","","","","","Mostly Cloudy"
"1998-06-07 08:00","1998","06","07","08:00","11.5","","4.9","","64","","33","","17","","24.1","","99.66","","","","","","Mostly Cloudy"
"1998-06-07 09:00","1998","06","07","09:00","12.7","","4.5","","57","","29","","22","","24.1","","99.70","","","","","","Mostly Cloudy"
"1998-06-07 10:00","1998","06","07","10:00","13.7","","4.1","","52","","33","","22","","24.1","","99.70","","","","","","Mostly Cloudy"
"1998-06-07 11:00","1998","06","07","11:00","15.3","","3.8","","46","","33","","19","","24.1","","99.66","","","","","","Mostly Cloudy"
"1998-06-07 12:00","1998","06","07","12:00","15.1","","3.8","","47","","29","","20","","24.1","","99.70","","","","","","Mostly Cloudy"
"1998-06-07 13:00","1998","06","07","13:00","16.6","","3.6","","42","","31","","28","","24.1","","99.66","","","","","","Mostly Cloudy"
"1998-06-07 14:00","1998","06","07","14:00","16.7","","3.2","","40","","32","","20","","24.1","","99.63","","","","","","Mostly Cloudy"
"1998-06-07 15:00","1998","06","07","15:00","17.8","","3.0","","37","","29","","24","","24.1","","99.63","","","","","","Mostly Cloudy"
"1998-06-07 16:00","1998","06","07","16:00","17.8","","3.2","","38","","30","","24","","24.1","","99.60","","","","","","Mostly Cloudy"
"1998-06-07 17:00","1998","06","07","17:00","17.7","","3.1","","38","","30","","17","","24.1","","99.60","","","","","","Mostly Cloudy"
"1998-06-07 18:00","1998","06","07","18:00","18.2","","2.8","","36","","27","","28","","24.1","","99.60","","","","","","Mostly Cloudy"
"1998-06-07 19:00","1998","06","07","19:00","17.2","","2.8","","38","","30","","13","","24.1","","99.63","","","","","","Mostly Cloudy"
"1998-06-07 20:00","1998","06","07","20:00","16.7","","3.7","","42","","2","","9","","24.1","","99.63","","","","","","Mostly Cloudy"
"1998-06-07 21:00","1998","06","07","21:00","15.4","","4.1","","47","","31","","6","","24.1","","99.66","","","","","","Mainly Clear"
"1998-06-07 22:00","1998","06","07","22:00","14.3","","3.9","","50","","31","","7","","24.1","","99.70","","","","","","Mainly Clear"
"1998-06-07 23:00","1998","06","07","23:00","13.3","","4.1","","54","","28","","7","","25.0","","99.70","","","","","","Clear"
"1998-06-08 00:00","1998","06","08","00:00","12.7","","4.5","","57","","28","","7","","24.1","","99.73","","","","","","Clear"
"1998-06-08 01:00","1998","06","08","01:00","11.5","","5.3","","66","","28","","7","","24.1","","99.73","","","","","","Clear"
"1998-06-08 02:00","1998","06","08","02:00","11.2","","5.3","","67","","30","","11","","24.1","","99.76","","","","","","Clear"
"1998-06-08 03:00","1998","06","08","03:00","10.7","","5.1","","68","","32","","11","","24.1","","99.80","","","","","","Clear"
"1998-06-08 04:00","1998","06","08","04:00","8.5","","5.1","","79","","","","0","","24.1","","99.80","","","","","","Clear"
"1998-06-08 05:00","1998","06","08","05:00","8.9","","5.2","","78","","31","","7","","24.1","","99.86","","","","","","Mainly Clear"
"1998-06-08 06:00","1998","06","08","06:00","10.3","","6.2","","76","","31","","7","","24.1","","99.93","","","","","","Mainly Clear"
"1998-06-08 07:00","1998","06","08","07:00","12.8","","6.5","","65","","35","","9","","24.1","","99.93","","","","","","Mainly Clear"
"1998-06-08 08:00","1998","06","08","08:00","14.9","","6.4","","57","","32","","11","","24.1","","99.99","","","","","","Mainly Clear"
"1998-06-08 09:00","1998","06","08","09:00","16.4","","5.9","","50","","33","","9","","24.1","","100.03","","","","","","Mainly Clear"
"1998-06-08 10:00","1998","06","08","10:00","17.6","","4.1","","41","","33","","15","","24.1","","99.99","","","","","","Mainly Clear"
"1998-06-08 11:00","1998","06","08","11:00","18.2","","4.1","","39","","29","","22","","24.1","","99.99","","","","","","Mainly Clear"
"1998-06-08 12:00","1998","06","08","12:00","18.8","","3.6","","36","","35","","17","","24.1","","99.96","","","","","","Mostly Cloudy"
"1998-06-08 13:00","1998","06","08","13:00","18.7","","3.5","","36","","34","","9","","24.1","","99.93","","","","","","Mostly Cloudy"
"1998-06-08 14:00","1998","06","08","14:00","19.2","","4.4","","38","","5","","4","","24.1","","99.96","","","","","","Mostly Cloudy"
"1998-06-08 15:00","1998","06","08","15:00","20.0","","4.4","","36","","6","","4","","24.1","","99.96","","","","","","Mostly Cloudy"
"1998-06-08 16:00","1998","06","08","16:00","20.7","","4.9","","35","","23","","4","","24.1","","99.93","","","","","","Mostly Cloudy"
"1998-06-08 17:00","1998","06","08","17:00","20.1","","5.2","","38","","3","","17","","24.1","","99.93","","","","","","Mostly Cloudy"
"1998-06-08 18:00","1998","06","08","18:00","19.9","","4.8","","37","","10","","13","","24.1","","99.90","","","","","","Mostly Cloudy"
"1998-06-08 19:00","1998","06","08","19:00","18.6","","5.6","","42","","9","","15","","24.1","","99.93","","","","","","Mostly Cloudy"
"1998-06-08 20:00","1998","06","08","20:00","17.2","","5.5","","46","","9","","11","","24.1","","99.90","","","","","","Mostly Cloudy"
"1998-06-08 21:00","1998","06","08","21:00","15.2","","7.4","","60","","15","","7","","24.1","","99.93","","","","","","Mainly Clear"
"1998-06-08 22:00","1998","06","08","22:00","14.4","","8.3","","67","","14","","6","","24.1","","99.96","","","","","","Mainly Clear"
"1998-06-08 23:00","1998","06","08","23:00","13.2","","8.1","","71","","10","","4","","24.1","","99.96","","","","","","Mainly Clear"
"1998-06-09 00:00","1998","06","09","00:00","12.4","","8.4","","77","","17","","4","","19.3","","100.03","","","","","","Mainly Clear"
"1998-06-09 01:00","1998","06","09","01:00","11.4","","8.0","","80","","11","","4","","24.1","","99.93","","","","","","Mainly Clear"
"1998-06-09 02:00","1998","06","09","02:00","10.8","","8.0","","83","","18","","6","","24.1","","99.93","","","","","","Mainly Clear"
"1998-06-09 03:00","1998","06","09","03:00","11.3","","8.1","","81","","12","","6","","19.3","","99.90","","","","","","Mostly Cloudy"
"1998-06-09 04:00","1998","06","09","04:00","12.6","","9.5","","81","","12","","9","","24.1","","99.90","","","","","","Mainly Clear"
"1998-06-09 05:00","1998","06","09","05:00","12.4","","9.6","","83","","12","","7","","24.1","","99.83","","","","","","Mostly Cloudy"
"1998-06-09 06:00","1998","06","09","06:00","13.5","","10.0","","79","","11","","9","","24.1","","99.83","","","","","","Mostly Cloudy"
"1998-06-09 07:00","1998","06","09","07:00","15.0","","10.5","","74","","13","","7","","24.1","","99.83","","","","","","Cloudy"
"1998-06-09 08:00","1998","06","09","08:00","16.7","","10.2","","65","","13","","11","","24.1","","99.86","","","","","","Mostly Cloudy"
"1998-06-09 09:00","1998","06","09","09:00","17.5","","8.4","","55","","14","","19","","24.1","","99.83","","","","","","Mostly Cloudy"
"1998-06-09 10:00","1998","06","09","10:00","18.1","","6.9","","48","","14","","22","","24.1","","99.76","","","","","","Mostly Cloudy"
"1998-06-09 11:00","1998","06","09","11:00","18.2","","7.4","","49","","14","","26","","24.1","","99.76","","","","","","Cloudy"
"1998-06-09 12:00","1998","06","09","12:00","17.8","","8.4","","54","","17","","26","","24.1","","99.73","","","","","","Cloudy"
"1998-06-09 13:00","1998","06","09","13:00","17.4","","9.9","","61","","14","","22","","24.1","","99.70","","","","","","Rain Showers"
"1998-06-09 14:00","1998","06","09","14:00","17.4","","9.2","","59","","16","","19","","24.1","","99.63","","","","","","Rain Showers"
"1998-06-09 15:00","1998","06","09","15:00","17.5","","8.1","","54","","14","","26","","19.3","","99.53","","","","","","Cloudy"
"1998-06-09 16:00","1998","06","09","16:00"
"1998-06-09 17:00","1998","06","09","17:00","16.8","","9.3","","61","","14","","24","","19.3","","99.50","","","","","","Cloudy"
"1998-06-09 18:00","1998","06","09","18:00","16.4","","9.7","","65","","14","","20","","16.1","","99.46","","","","","","Cloudy"
"1998-06-09 19:00","1998","06","09","19:00","16.4","","9.5","","64","","12","","19","","16.1","","99.43","","","","","","Cloudy"
"1998-06-09 20:00","1998","06","09","20:00","15.7","","10.8","","73","","12","","19","","12.9","","99.40","","","","","","Rain Showers"
"1998-06-09 21:00","1998","06","09","21:00","15.8","","10.7","","72","","14","","19","","19.3","","99.43","","","","","","Cloudy"
"1998-06-09 22:00","1998","06","09","22:00","14.6","","12.5","","87","","10","","19","","19.3","","99.33","","","","","","Cloudy"
"1998-06-09 23:00","1998","06","09","23:00","14.2","","12.2","","88","","11","","17","","8.0","","99.33","","","","","","Rain Showers,Fog"
"1998-06-10 00:00","1998","06","10","00:00","14.2","","12.9","","92","","9","","11","","6.4","","99.30","","","","","","Rain Showers,Fog"
"1998-06-10 01:00","1998","06","10","01:00","13.9","","13.3","","96","","11","","6","","4.8","","99.26","","","","","","Rain Showers,Fog"
"1998-06-10 02:00","1998","06","10","02:00","13.8","","13.4","","97","","10","","11","","3.2","","99.23","","","","","","Rain,Fog"
"1998-06-10 03:00","1998","06","10","03:00","13.7","","13.0","","96","","9","","15","","3.2","","99.20","","","","","","Rain,Fog"
"1998-06-10 04:00","1998","06","10","04:00","13.4","","12.9","","97","","9","","22","","2.4","","99.16","","","","","","Rain,Fog"
"1998-06-10 05:00","1998","06","10","05:00","13.4","","12.7","","96","","10","","17","","4.8","","99.16","","","","","","Rain,Fog"
"1998-06-10 06:00","1998","06","10","06:00","13.5","","13.0","","97","","10","","13","","6.4","","99.16","","","","","","Rain,Fog"
"1998-06-10 07:00","1998","06","10","07:00","13.8","","13.3","","97","","11","","13","","8.0","","99.20","","","","","","Rain,Fog"
"1998-06-10 08:00","1998","06","10","08:00","14.0","","13.7","","98","","11","","9","","1.6","","99.20","","","","","","Drizzle,Fog"
"1998-06-10 09:00","1998","06","10","09:00","14.5","","14.1","","97","","12","","9","","2.0","","99.23","","","","","","Drizzle,Fog"
"1998-06-10 10:00","1998","06","10","10:00","15.2","","14.5","","96","","14","","6","","3.2","","99.23","","","","","","Rain,Fog"
"1998-06-10 11:00","1998","06","10","11:00","15.9","","14.9","","94","","15","","2","","4.0","","99.23","","","","","","Fog"
"1998-06-10 12:00","1998","06","10","12:00","16.4","","15.2","","93","","4","","4","","4.0","","99.23","","","","","","Drizzle,Fog"
"1998-06-10 13:00","1998","06","10","13:00","17.1","","15.4","","90","","6","","9","","4.8","","99.13","","","","","","Fog"
"1998-06-10 14:00","1998","06","10","14:00","16.7","","15.2","","91","","6","","11","","4.8","","99.20","","","","","","Fog"
"1998-06-10 15:00","1998","06","10","15:00","16.7","","15.3","","91","","6","","11","","4.8","","99.16","","","","","","Fog"
"1998-06-10 16:00","1998","06","10","16:00","16.8","","15.4","","91","","7","","19","","4.8","","99.16","","","","","","Fog"
"1998-06-10 17:00","1998","06","10","17:00","16.8","","15.3","","91","","9","","15","","4.8","","99.16","","","","","","Fog"
"1998-06-10 18:00","1998","06","10","18:00","17.1","","15.2","","89","","7","","6","","4.8","","99.20","","","","","","Fog"
"1998-06-10 19:00","1998","06","10","19:00","16.7","","15.3","","91","","5","","13","","4.8","","99.16","","","","","","Fog"
"1998-06-10 20:00","1998","06","10","20:00","16.0","","14.8","","93","","6","","11","","4.8","","99.20","","","","","","Fog"
"1998-06-10 21:00","1998","06","10","21:00","15.7","","14.4","","92","","10","","13","","4.8","","99.16","","","","","","Fog"
"1998-06-10 22:00","1998","06","10","22:00","15.3","","14.3","","94","","9","","6","","4.8","","99.20","","","","","","Fog"
"1998-06-10 23:00","1998","06","10","23:00","15.1","","14.4","","96","","","","0","","4.8","","99.23","","","","","","Fog"
"1998-06-11 00:00","1998","06","11","00:00","14.8","","14.3","","97","","8","","4","","3.2","","99.23","","","","","","Fog"
"1998-06-11 01:00","1998","06","11","01:00","15.4","","14.5","","94","","","","0","","3.2","","99.30","","","","","","Fog"
"1998-06-11 02:00","1998","06","11","02:00","15.4","","14.4","","94","","","","0","","4.0","","99.26","","","","","","Fog"
"1998-06-11 03:00","1998","06","11","03:00","15.3","","14.5","","95","","4","","7","","3.2","","99.20","","","","","","Fog"
"1998-06-11 04:00","1998","06","11","04:00","14.8","","14.2","","96","","6","","11","","3.2","","99.13","","","","","","Fog"
"1998-06-11 05:00","1998","06","11","05:00","14.6","","14.2","","97","","8","","6","","1.2","","99.16","","","","","","Fog"
"1998-06-11 06:00","1998","06","11","06:00","15.0","","14.5","","97","","13","","6","","1.2","","99.23","","","","","","Fog"
"1998-06-11 07:00","1998","06","11","07:00","15.0","","14.5","","97","","13","","6","","1.6","","99.30","","","","","","Fog"
"1998-06-11 08:00","1998","06","11","08:00","14.9","","14.5","","97","","10","","11","","1.6","","99.23","","","","","","Fog"
"1998-06-11 09:00","1998","06","11","09:00","15.0","","14.4","","96","","10","","7","","1.6","","99.20","","","","","","Fog"
"1998-06-11 10:00","1998","06","11","10:00","15.5","","14.9","","96","","16","","9","","2.0","","99.23","","","","","","Fog"
"1998-06-11 11:00","1998","06","11","11:00","16.5","","15.3","","93","","17","","11","","3.2","","99.26","","","","","","Fog"
"1998-06-11 12:00","1998","06","11","12:00","16.7","","15.7","","94","","14","","15","","3.2","","99.10","","","","","","Fog"
"1998-06-11 13:00","1998","06","11","13:00","17.5","","16.3","","93","","11","","4","","4.0","","99.03","","","","","","Rain Showers,Fog"
"1998-06-11 14:00","1998","06","11","14:00","18.5","","16.7","","89","","10","","13","","4.0","","98.96","","","","","","Rain Showers,Fog"
"1998-06-11 15:00","1998","06","11","15:00","18.7","","16.9","","89","","11","","13","","4.0","","98.86","","","","","","Fog"
"1998-06-11 16:00","1998","06","11","16:00","19.8","","17.8","","88","","14","","11","","4.0","","98.86","","","","","","Fog"
"1998-06-11 17:00","1998","06","11","17:00","19.5","","17.7","","89","","13","","20","","3.2","","98.73","","","","","","Fog"
"1998-06-11 18:00","1998","06","11","18:00","18.3","","17.4","","94","","13","","19","","2.4","","98.57","","","","","","Rain Showers,Fog"
"1998-06-11 19:00","1998","06","11","19:00","17.9","","17.5","","98","","12","","9","","0.8","","98.60","","","","","","Moderate Rain Showers,Fog"
"1998-06-11 20:00","1998","06","11","20:00"
"1998-06-11 21:00","1998","06","11","21:00","19.2","","18.4","","95","","17","","15","","3.2","","98.40","","","","","","Rain Showers,Fog"
"1998-06-11 22:00","1998","06","11","22:00","19.6","","18.7","","95","","16","","24","","4.8","","98.23","","","","","","Rain Showers,Fog"
"1998-06-11 23:00","1998","06","11","23:00","19.7","","18.6","","93","","18","","26","","9.7","","98.20","","","","","","Fog"
"1998-06-12 00:00","1998","06","12","00:00","19.8","","18.7","","93","","20","","32","","6.4","","98.17","","","","","","Rain Showers"
"1998-06-12 01:00","1998","06","12","01:00","19.8","","18.4","","92","","20","","26","","9.7","","98.10","","","","","","Fog"
"1998-06-12 02:00","1998","06","12","02:00","19.8","","18.5","","92","","21","","28","","8.0","","98.07","","","","","","Fog"
"1998-06-12 03:00","1998","06","12","03:00","20.2","","19.0","","93","","20","","22","","8.0","","98.00","","27","","","","Fog"
"1998-06-12 04:00","1998","06","12","04:00","20.7","","19.6","","93","","20","","19","","8.0","","97.97","","28","","","","Fog"
"1998-06-12 05:00","1998","06","12","05:00","21.1","","19.8","","92","","22","","15","","19.3","","98.00","","29","","","","Mostly Cloudy"
"1998-06-12 06:00","1998","06","12","06:00","21.6","","18.9","","85","","25","","30","","19.3","","98.00","","28","","","","Mainly Clear"
"1998-06-12 07:00","1998","06","12","07:00","21.8","","16.4","","71","","25","","32","","24.1","","98.07","","27","","","","Mainly Clear"
"1998-06-12 08:00","1998","06","12","08:00","22.5","","16.9","","71","","25","","32","","25.0","","98.13","","28","","","","Mainly Clear"
"1998-06-12 09:00","1998","06","12","09:00","23.4","","16.4","","65","","27","","32","","25.0","","98.20","","28","","","","Mainly Clear"
"1998-06-12 10:00","1998","06","12","10:00","24.5","","16.3","","60","","26","","33","","25.0","","98.23","","29","","","","Mainly Clear"
"1998-06-12 11:00","1998","06","12","11:00","25.5","","16.3","","57","","27","","32","","25.0","","98.27","","30","","","","Mainly Clear"
"1998-06-12 12:00","1998","06","12","12:00","26.8","","16.8","","54","","26","","28","","25.0","","98.27","","32","","","","Mainly Clear"
"1998-06-12 13:00","1998","06","12","13:00","27.8","","16.5","","50","","24","","33","","25.0","","98.27","","33","","","","Mainly Clear"
"1998-06-12 14:00","1998","06","12","14:00","28.5","","16.4","","48","","24","","32","","25.0","","98.23","","33","","","","Mainly Clear"
"1998-06-12 15:00","1998","06","12","15:00","29.1","","16.9","","48","","23","","30","","24.1","","98.20","","34","","","","Mainly Clear"
"1998-06-12 16:00","1998","06","12","16:00","29.4","","16.5","","46","","22","","26","","24.1","","98.10","","34","","","","Mainly Clear"
"1998-06-12 17:00","1998","06","12","17:00","27.4","","17.1","","53","","22","","22","","24.1","","98.07","","33","","","","Mostly Cloudy"
"1998-06-12 18:00","1998","06","12","18:00","25.2","","19.0","","69","","32","","17","","3.2","","98.13","","32","","","","Thunderstorms,Rain Showers,Haze"
"1998-06-12 19:00","1998","06","12","19:00","19.5","","17.3","","87","","20","","26","","19.3","","98.13","","","","","","Rain Showers"
"1998-06-12 20:00","1998","06","12","20:00","19.2","","16.5","","84","","22","","24","","24.1","","98.17","","","","","","Mostly Cloudy"
"1998-06-12 21:00","1998","06","12","21:00","18.3","","16.1","","87","","22","","26","","24.1","","98.20","","","","","","Mostly Cloudy"
"1998-06-12 22:00","1998","06","12","22:00","18.7","","16.8","","89","","21","","26","","24.1","","98.23","","","","","","Mostly Cloudy"
"1998-06-12 23:00","1998","06","12","23:00","18.5","","17.1","","92","","21","","28","","24.1","","98.07","","","","","","Mainly Clear"
"1998-06-13 00:00","1998","06","13","00:00","18.1","","16.9","","93","","21","","22","","24.1","","98.10","","","","","","Mainly Clear"
"1998-06-13 01:00","1998","06","13","01:00","18.0","","17.0","","94","","22","","26","","16.1","","98.07","","","","","","Clear"
"1998-06-13 02:00","1998","06","13","02:00","17.9","","17.0","","94","","24","","13","","9.7","","98.00","","","","","","Fog"
"1998-06-13 03:00","1998","06","13","03:00","18.2","","16.9","","92","","24","","17","","8.0","","98.00","","","","","","Fog"
"1998-06-13 04:00","1998","06","13","04:00","17.8","","16.7","","93","","24","","15","","8.0","","98.00","","","","","","Fog"
"1998-06-13 05:00","1998","06","13","05:00","17.4","","16.6","","95","","25","","13","","6.4","","98.00","","","","","","Fog"
"1998-06-13 06:00","1998","06","13","06:00","17.6","","16.7","","94","","25","","20","","6.4","","98.00","","","","","","Fog"
"1998-06-13 07:00","1998","06","13","07:00","18.7","","15.8","","83","","31","","19","","16.1","","98.03","","","","","","Mainly Clear"
"1998-06-13 08:00","1998","06","13","08:00","20.8","","14.4","","67","","31","","17","","24.1","","98.03","","","","","","Mainly Clear"
"1998-06-13 09:00","1998","06","13","09:00","21.4","","14.3","","64","","31","","20","","24.1","","98.10","","25","","","","Mostly Cloudy"
"1998-06-13 10:00","1998","06","13","10:00","21.6","","13.6","","60","","31","","19","","24.1","","98.10","","25","","","","Mostly Cloudy"
"1998-06-13 11:00","1998","06","13","11:00","21.5","","15.3","","68","","29","","22","","19.3","","98.10","","26","","","","Mostly Cloudy"
"1998-06-13 12:00","1998","06","13","12:00","19.3","","17.2","","88","","33","","20","","12.9","","98.13","","","","","","Rain Showers"
"1998-06-13 13:00","1998","06","13","13:00","20.3","","16.8","","80","","4","","11","","19.3","","98.17","","25","","","","Mostly Cloudy"
"1998-06-13 14:00","1998","06","13","14:00","22.8","","15.4","","63","","1","","19","","24.1","","98.13","","27","","","","Mostly Cloudy"
"1998-06-13 15:00","1998","06","13","15:00","22.6","","13.9","","58","","33","","26","","24.1","","98.17","","26","","","","Mostly Cloudy"
"1998-06-13 16:00","1998","06","13","16:00","22.6","","14.5","","60","","34","","28","","24.1","","98.20","","26","","","","Mostly Cloudy"
"1998-06-13 17:00","1998","06","13","17:00","22.0","","13.4","","58","","34","","20","","24.1","","98.20","","25","","","","Mostly Cloudy"
"1998-06-13 18:00","1998","06","13","18:00","20.7","","14.7","","68","","34","","32","","19.3","","98.27","","","","","","Rain Showers"
"1998-06-13 19:00","1998","06","13","19:00","18.8","","16.1","","84","","33","","7","","19.3","","98.30","","","","","","Rain Showers"
"1998-06-13 20:00","1998","06","13","20:00","18.2","","16.4","","89","","34","","20","","19.3","","98.30","","","","","","Mostly Cloudy"
"1998-06-13 21:00","1998","06","13","21:00","18.2","","16.5","","90","","36","","9","","12.9","","98.37","","","","","","Cloudy"
"1998-06-13 22:00","1998","06","13","22:00","18.0","","15.0","","83","","35","","19","","24.1","","98.37","","","","","","Cloudy"
"1998-06-13 23:00","1998","06","13","23:00","17.9","","14.8","","82","","36","","20","","24.1","","98.33","","","","","","Mostly Cloudy"
"1998-06-14 00:00","1998","06","14","00:00","18.2","","14.8","","81","","34","","26","","24.1","","98.33","","","","","","Mostly Cloudy"
"1998-06-14 01:00","1998","06","14","01:00","18.0","","14.9","","82","","35","","19","","24.1","","98.33","","","","","","Mostly Cloudy"
"1998-06-14 02:00","1998","06","14","02:00","17.8","","15.0","","84","","31","","7","","24.1","","98.33","","","","","","Mostly Cloudy"
"1998-06-14 03:00","1998","06","14","03:00","16.5","","15.0","","91","","30","","11","","16.1","","98.30","","","","","","Mainly Clear"
"1998-06-14 04:00","1998","06","14","04:00","16.4","","15.1","","92","","30","","11","","12.9","","98.30","","","","","","Mostly Cloudy"
"1998-06-14 05:00","1998","06","14","05:00","17.0","","15.1","","89","","33","","15","","12.9","","98.27","","","","","","Cloudy"
"1998-06-14 06:00","1998","06","14","06:00","17.5","","15.1","","86","","33","","9","","19.3","","98.30","","","","","","Mostly Cloudy"
"1998-06-14 07:00","1998","06","14","07:00","17.9","","15.1","","84","","32","","19","","24.1","","98.27","","","","","","Cloudy"
"1998-06-14 08:00","1998","06","14","08:00","18.5","","15.3","","82","","34","","9","","24.1","","98.33","","","","","","Mostly Cloudy"
"1998-06-14 09:00","1998","06","14","09:00","20.1","","15.3","","74","","33","","13","","24.1","","98.27","","","","","","Mostly Cloudy"
"1998-06-14 10:00","1998","06","14","10:00","21.2","","14.9","","67","","35","","17","","24.1","","98.23","","25","","","","Mostly Cloudy"
"1998-06-14 11:00","1998","06","14","11:00","21.5","","14.6","","65","","1","","15","","24.1","","98.23","","25","","","","Mostly Cloudy"
"1998-06-14 12:00","1998","06","14","12:00","21.9","","15.3","","66","","9","","15","","24.1","","98.20","","26","","","","Mostly Cloudy"
"1998-06-14 13:00","1998","06","14","13:00","22.9","","14.7","","60","","6","","19","","24.1","","98.13","","27","","","","Mostly Cloudy"
"1998-06-14 14:00","1998","06","14","14:00","22.5","","14.4","","60","","9","","17","","24.1","","98.13","","26","","","","Cloudy"
"1998-06-14 15:00","1998","06","14","15:00","22.6","","14.9","","62","","10","","17","","19.3","","98.03","","27","","","","Cloudy"
"1998-06-14 16:00","1998","06","14","16:00","22.8","","14.8","","61","","9","","13","","19.3","","98.00","","27","","","","Cloudy"
"1998-06-14 17:00","1998","06","14","17:00","22.5","","14.4","","60","","11","","11","","19.3","","97.97","","26","","","","Cloudy"
"1998-06-14 18:00","1998","06","14","18:00","20.9","","16.3","","75","","21","","17","","19.3","","97.97","","26","","","","Cloudy"
"1998-06-14 19:00","1998","06","14","19:00","20.4","","16.6","","79","","21","","13","","19.3","","97.90","","25","","","","Cloudy"
"1998-06-14 20:00","1998","06","14","20:00","20.0","","16.5","","80","","23","","13","","19.3","","97.90","","25","","","","Mostly Cloudy"
"1998-06-14 21:00","1998","06","14","21:00","18.7","","16.0","","84","","22","","6","","24.1","","97.87","","","","","","Mostly Cloudy"
"1998-06-14 22:00","1998","06","14","22:00","17.9","","15.9","","88","","19","","7","","12.9","","97.87","","","","","","Mainly Clear"
"1998-06-14 23:00","1998","06","14","23:00","16.9","","15.7","","93","","8","","2","","12.9","","97.77","","","","","","Mainly Clear"
"1998-06-15 00:00","1998","06","15","00:00","16.0","","15.3","","96","","18","","2","","12.9","","97.73","","","","","","Mainly Clear"
"1998-06-15 01:00","1998","06","15","01:00","15.7","","15.0","","96","","11","","6","","12.9","","97.67","","","","","","Mostly Cloudy"
"1998-06-15 02:00","1998","06","15","02:00","15.7","","15.2","","97","","6","","9","","12.9","","97.67","","","","","","Mainly Clear"
"1998-06-15 03:00","1998","06","15","03:00","15.7","","15.2","","97","","6","","9","","9.7","","97.60","","","","","","Fog"
"1998-06-15 04:00","1998","06","15","04:00","15.3","","14.9","","97","","5","","11","","9.7","","97.53","","","","","","Fog"
"1998-06-15 05:00","1998","06","15","05:00","15.5","","15.0","","97","","5","","13","","9.7","","97.57","","","","","","Fog"
"1998-06-15 06:00","1998","06","15","06:00","16.6","","15.3","","92","","5","","9","","12.9","","97.57","","","","","","Mostly Cloudy"
"1998-06-15 07:00","1998","06","15","07:00","16.6","","15.8","","95","","4","","7","","9.7","","97.57","","","","","","Fog"
"1998-06-15 08:00","1998","06","15","08:00","17.4","","15.9","","91","","5","","9","","9.7","","97.57","","","","","","Fog"
"1998-06-15 09:00","1998","06","15","09:00","19.1","","16.2","","83","","9","","6","","9.7","","97.53","","","","","","Haze"
"1998-06-15 10:00","1998","06","15","10:00","21.0","","16.0","","73","","5","","4","","19.3","","97.53","","26","","","","Mostly Cloudy"
"1998-06-15 11:00","1998","06","15","11:00","22.4","","15.8","","66","","","","0","","24.1","","97.53","","27","","","","Mostly Cloudy"
"1998-06-15 12:00","1998","06","15","12:00","23.6","","14.8","","58","","19","","9","","24.1","","97.50","","27","","","","Mostly Cloudy"
"1998-06-15 13:00","1998","06","15","13:00","23.7","","15.2","","59","","28","","7","","24.1","","97.50","","28","","","","Mostly Cloudy"
"1998-06-15 14:00","1998","06","15","14:00","23.2","","15.6","","62","","20","","11","","24.1","","97.47","","28","","","","Mostly Cloudy"
"1998-06-15 15:00","1998","06","15","15:00","24.0","","15.5","","59","","17","","11","","12.9","","97.47","","28","","","","Mostly Cloudy"
"1998-06-15 16:00","1998","06","15","16:00","24.2","","15.5","","58","","20","","7","","12.9","","97.47","","28","","","","Cloudy"
"1998-06-15 17:00","1998","06","15","17:00","24.6","","15.8","","58","","17","","15","","12.9","","97.47","","29","","","","Cloudy"
"1998-06-15 18:00","1998","06","15","18:00","24.3","","15.7","","59","","22","","13","","12.9","","97.47","","29","","","","Cloudy"
"1998-06-15 19:00","1998","06","15","19:00","23.2","","15.4","","62","","20","","15","","12.9","","97.50","","27","","","","Cloudy"
"1998-06-15 20:00","1998","06","15","20:00","21.7","","15.9","","70","","22","","13","","16.1","","97.53","","26","","","","Cloudy"
"1998-06-15 21:00","1998","06","15","21:00","20.6","","15.9","","74","","21","","11","","16.1","","97.60","","25","","","","Mostly Cloudy"
"1998-06-15 22:00","1998","06","15","22:00","19.9","","16.1","","79","","21","","11","","16.1","","97.63","","","","","","Mostly Cloudy"
"1998-06-15 23:00","1998","06","15","23:00","19.5","","15.6","","78","","22","","15","","19.3","","97.63","","","","","","Mostly Cloudy"
"1998-06-16 00:00","1998","06","16","00:00","19.7","","15.9","","79","","22","","13","","19.3","","97.63","","","","","","Mostly Cloudy"
"1998-06-16 01:00","1998","06","16","01:00","20.1","","17.4","","84","","23","","13","","16.1","","97.63","","26","","","","Mostly Cloudy"
"1998-06-16 02:00","1998","06","16","02:00","19.8","","17.1","","84","","23","","7","","11.3","","97.63","","","","","","Mostly Cloudy"
"1998-06-16 03:00","1998","06","16","03:00","19.0","","16.7","","87","","27","","9","","8.0","","97.63","","","","","","Haze"
"1998-06-16 04:00","1998","06","16","04:00","18.2","","16.6","","90","","23","","13","","8.0","","97.67","","","","","","Fog"
"1998-06-16 05:00","1998","06","16","05:00","18.3","","16.5","","89","","25","","9","","8.0","","97.73","","","","","","Fog"
"1998-06-16 06:00","1998","06","16","06:00","18.5","","16.7","","89","","25","","9","","6.4","","97.83","","","","","","Fog"
"1998-06-16 07:00","1998","06","16","07:00","19.1","","16.8","","87","","23","","7","","6.4","","97.87","","","","","","Haze"
"1998-06-16 08:00","1998","06","16","08:00","21.1","","17.4","","79","","24","","4","","8.0","","97.87","","27","","","","Haze"
"1998-06-16 09:00","1998","06","16","09:00","22.9","","16.6","","68","","22","","20","","9.7","","97.87","","28","","","","Haze"
"1998-06-16 10:00","1998","06","16","10:00","22.9","","17.2","","70","","22","","20","","9.7","","97.93","","28","","","","Haze"
"1998-06-16 11:00","1998","06","16","11:00","23.2","","18.3","","74","","22","","22","","9.7","","97.93","","29","","","","Haze"
"1998-06-16 12:00","1998","06","16","12:00","23.7","","18.9","","75","","24","","19","","9.7","","97.97","","30","","","","Haze"
"1998-06-16 13:00","1998","06","16","13:00","24.2","","18.5","","71","","24","","26","","9.7","","97.90","","31","","","","Haze"
"1998-06-16 14:00","1998","06","16","14:00","25.5","","17.9","","63","","25","","19","","12.9","","97.87","","31","","","","Mostly Cloudy"
"1998-06-16 15:00","1998","06","16","15:00","26.9","","17.7","","57","","22","","7","","12.9","","97.87","","33","","","","Mostly Cloudy"
"1998-06-16 16:00","1998","06","16","16:00","24.8","","16.9","","61","","22","","33","","12.9","","97.90","","30","","","","Mostly Cloudy"
"1998-06-16 17:00","1998","06","16","17:00","22.6","","18.5","","78","","1","","24","","6.4","","98.00","","29","","","","Thunderstorms,Moderate Rain Showers"
"1998-06-16 18:00","1998","06","16","18:00","22.3","","17.7","","75","","20","","15","","12.9","","98.03","","28","","","","Thunderstorms"
"1998-06-16 19:00","1998","06","16","19:00","22.2","","18.6","","80","","30","","4","","12.9","","98.17","","29","","","","Thunderstorms,Rain Showers"
"1998-06-16 20:00","1998","06","16","20:00","20.4","","17.6","","84","","24","","11","","12.9","","98.20","","26","","","","Mostly Cloudy"
"1998-06-16 21:00","1998","06","16","21:00","19.7","","17.5","","87","","27","","11","","16.1","","98.27","","","","","","Mostly Cloudy"
"1998-06-16 22:00","1998","06","16","22:00","20.4","","17.8","","85","","29","","17","","16.1","","98.33","","26","","","","Cloudy"
"1998-06-16 23:00","1998","06","16","23:00","19.0","","17.0","","88","","31","","20","","19.3","","98.30","","","","","","Rain Showers"
"1998-06-17 00:00","1998","06","17","00:00","19.4","","17.9","","91","","","","0","","19.3","","98.37","","","","","","Mostly Cloudy"
"1998-06-17 01:00","1998","06","17","01:00","18.9","","17.5","","92","","","","0","","11.3","","98.50","","","","","","Mostly Cloudy"
"1998-06-17 02:00","1998","06","17","02:00","18.9","","17.8","","93","","23","","6","","8.0","","98.50","","","","","","Fog"
"1998-06-17 03:00","1998","06","17","03:00","18.5","","17.7","","95","","23","","9","","6.4","","98.60","","","","","","Fog"
"1998-06-17 04:00","1998","06","17","04:00","17.8","","17.4","","98","","27","","7","","6.4","","98.66","","","","","","Fog"
"1998-06-17 05:00","1998","06","17","05:00","17.8","","17.2","","96","","26","","9","","6.4","","98.76","","","","","","Fog"
"1998-06-17 06:00","1998","06","17","06:00","18.2","","17.5","","96","","28","","9","","3.6","","98.86","","","","","","Fog"
"1998-06-17 07:00","1998","06","17","07:00","19.6","","17.9","","90","","29","","9","","8.0","","98.90","","","","","","Fog"
"1998-06-17 08:00","1998","06","17","08:00","21.3","","18.1","","82","","27","","13","","9.7","","98.96","","27","","","","Haze"
"1998-06-17 09:00","1998","06","17","09:00","22.3","","18.3","","78","","28","","17","","9.7","","99.00","","29","","","","Haze"
"1998-06-17 10:00","1998","06","17","10:00","23.2","","17.7","","71","","29","","22","","19.3","","99.06","","29","","","","Mostly Cloudy"
"1998-06-17 11:00","1998","06","17","11:00","25.0","","17.0","","61","","29","","26","","24.1","","99.10","","30","","","","Mostly Cloudy"
"1998-06-17 12:00","1998","06","17","12:00","25.6","","16.7","","58","","28","","19","","24.1","","99.13","","31","","","","Mostly Cloudy"
"1998-06-17 13:00","1998","06","17","13:00","26.1","","16.0","","54","","30","","26","","24.1","","99.06","","31","","","","Mostly Cloudy"
"1998-06-17 14:00","1998","06","17","14:00","26.7","","15.8","","51","","29","","26","","24.1","","99.16","","31","","","","Mostly Cloudy"
"1998-06-17 15:00","1998","06","17","15:00","26.8","","15.4","","50","","29","","22","","24.1","","99.16","","31","","","","Mostly Cloudy"
"1998-06-17 16:00","1998","06","17","16:00","26.8","","14.9","","48","","30","","33","","24.1","","99.20","","31","","","","Mostly Cloudy"
"1998-06-17 17:00","1998","06","17","17:00","27.7","","15.2","","46","","30","","22","","24.1","","99.16","","32","","","","Mainly Clear"
"1998-06-17 18:00","1998","06","17","18:00","27.8","","15.3","","47","","31","","26","","24.1","","99.16","","32","","","","Mainly Clear"
"1998-06-17 19:00","1998","06","17","19:00","27.4","","14.1","","44","","30","","26","","24.1","","99.16","","31","","","","Mainly Clear"
"1998-06-17 20:00","1998","06","17","20:00","26.1","","14.5","","49","","31","","11","","24.1","","99.16","","30","","","","Mainly Clear"
"1998-06-17 21:00","1998","06","17","21:00","24.8","","14.7","","53","","27","","9","","24.1","","99.23","","29","","","","Mainly Clear"
"1998-06-17 22:00","1998","06","17","22:00","22.4","","17.2","","72","","10","","2","","24.1","","99.26","","28","","","","Mainly Clear"
"1998-06-17 23:00","1998","06","17","23:00","21.4","","17.6","","79","","4","","7","","24.1","","99.30","","27","","","","Mainly Clear"
"1998-06-18 00:00","1998","06","18","00:00","20.6","","18.0","","85","","36","","6","","24.1","","99.30","","27","","","","Mainly Clear"
"1998-06-18 01:00","1998","06","18","01:00","20.0","","17.6","","86","","","","0","","24.1","","99.30","","26","","","","Mainly Clear"
"1998-06-18 02:00","1998","06","18","02:00","18.2","","16.8","","92","","","","0","","19.3","","99.26","","","","","","Mainly Clear"
"1998-06-18 03:00","1998","06","18","03:00","18.6","","17.1","","91","","36","","4","","19.3","","99.33","","","","","","Mainly Clear"
"1998-06-18 04:00","1998","06","18","04:00","18.2","","16.6","","90","","29","","4","","16.1","","99.36","","","","","","Mainly Clear"
"1998-06-18 05:00","1998","06","18","05:00","17.7","","15.7","","88","","30","","6","","24.1","","99.40","","","","","","Mainly Clear"
"1998-06-18 06:00","1998","06","18","06:00","18.7","","15.7","","83","","30","","6","","24.1","","99.43","","","","","","Mainly Clear"
"1998-06-18 07:00","1998","06","18","07:00","20.3","","15.8","","75","","35","","13","","24.1","","99.43","","25","","","","Mainly Clear"
"1998-06-18 08:00","1998","06","18","08:00","22.0","","16.5","","71","","3","","7","","24.1","","99.43","","27","","","","Mainly Clear"
"1998-06-18 09:00","1998","06","18","09:00","23.0","","16.5","","67","","","","0","","24.1","","99.46","","28","","","","Mainly Clear"
"1998-06-18 10:00","1998","06","18","10:00","24.4","","15.0","","56","","22","","7","","24.1","","99.43","","28","","","","Mainly Clear"
"1998-06-18 11:00","1998","06","18","11:00","25.3","","15.3","","54","","33","","9","","24.1","","99.36","","29","","","","Mainly Clear"
"1998-06-18 12:00","1998","06","18","12:00","26.6","","14.4","","47","","31","","4","","24.1","","99.33","","30","","","","Mainly Clear"
"1998-06-18 13:00","1998","06","18","13:00","27.9","","12.4","","38","","35","","15","","24.1","","99.30","","30","","","","Mainly Clear"
"1998-06-18 14:00","1998","06","18","14:00","28.7","","12.2","","36","","7","","6","","24.1","","99.23","","31","","","","Mainly Clear"
"1998-06-18 15:00","1998","06","18","15:00","28.8","","15.2","","44","","12","","4","","24.1","","99.20","","33","","","","Mainly Clear"
"1998-06-18 16:00","1998","06","18","16:00","29.5","","16.2","","45","","6","","7","","16.1","","99.16","","34","","","","Mainly Clear"
"1998-06-18 17:00","1998","06","18","17:00","28.6","","15.3","","44","","8","","2","","16.1","","99.23","","33","","","","Mainly Clear"
"1998-06-18 18:00","1998","06","18","18:00","28.6","","16.7","","49","","12","","4","","16.1","","99.10","","34","","","","Mainly Clear"
"1998-06-18 19:00","1998","06","18","19:00","27.1","","15.9","","50","","8","","11","","24.1","","99.06","","32","","","","Mainly Clear"
"1998-06-18 20:00","1998","06","18","20:00","26.2","","16.2","","54","","11","","7","","16.1","","99.03","","31","","","","Mostly Cloudy"
"1998-06-18 21:00","1998","06","18","21:00","24.4","","14.7","","55","","15","","11","","16.1","","99.03","","28","","","","Mainly Clear"
"1998-06-18 22:00","1998","06","18","22:00","23.6","","13.9","","55","","16","","4","","16.1","","99.03","","27","","","","Mainly Clear"
"1998-06-18 23:00","1998","06","18","23:00","23.3","","14.0","","56","","10","","9","","19.3","","98.96","","27","","","","Cloudy"
"1998-06-19 00:00","1998","06","19","00:00","22.8","","14.0","","58","","10","","6","","24.1","","98.90","","26","","","","Mainly Clear"
"1998-06-19 01:00","1998","06","19","01:00","22.2","","14.3","","61","","6","","4","","24.1","","98.83","","26","","","","Cloudy"
"1998-06-19 02:00","1998","06","19","02:00","21.5","","14.9","","66","","8","","11","","24.1","","98.73","","25","","","","Cloudy"
"1998-06-19 03:00","1998","06","19","03:00","21.9","","13.7","","60","","11","","7","","24.1","","98.63","","25","","","","Cloudy"
"1998-06-19 04:00","1998","06","19","04:00","21.6","","15.9","","70","","31","","7","","16.1","","98.66","","26","","","","Rain Showers"
"1998-06-19 05:00","1998","06","19","05:00","20.6","","17.5","","82","","11","","9","","16.1","","98.70","","26","","","","Rain Showers"
"1998-06-19 06:00","1998","06","19","06:00","20.4","","18.3","","88","","13","","17","","9.7","","98.60","","27","","","","Rain Showers,Fog"
"1998-06-19 07:00","1998","06","19","07:00","21.5","","19.8","","90","","23","","17","","6.4","","98.73","","29","","","","Rain Showers,Fog"
"1998-06-19 08:00","1998","06","19","08:00","21.8","","19.3","","86","","26","","22","","6.4","","98.73","","29","","","","Haze"
"1998-06-19 09:00","1998","06","19","09:00","21.7","","19.0","","85","","27","","13","","9.7","","98.70","","28","","","","Haze"
"1998-06-19 10:00","1998","06","19","10:00","24.8","","19.1","","71","","26","","11","","12.9","","98.66","","32","","","","Mostly Cloudy"
"1998-06-19 11:00","1998","06","19","11:00","25.5","","18.2","","64","","25","","17","","24.1","","98.70","","32","","","","Mostly Cloudy"
"1998-06-19 12:00","1998","06","19","12:00","26.7","","18.9","","62","","25","","15","","24.1","","98.70","","33","","","","Mostly Cloudy"
"1998-06-19 13:00","1998","06","19","13:00","27.4","","18.3","","58","","23","","17","","24.1","","98.63","","34","","","","Mostly Cloudy"
"1998-06-19 14:00","1998","06","19","14:00","29.1","","17.3","","49","","26","","19","","24.1","","98.60","","35","","","","Mostly Cloudy"
"1998-06-19 15:00","1998","06","19","15:00","29.7","","16.8","","46","","26","","22","","24.1","","98.57","","35","","","","Mostly Cloudy"
"1998-06-19 16:00","1998","06","19","16:00","29.6","","14.5","","40","","26","","28","","24.1","","98.57","","33","","","","Mostly Cloudy"
"1998-06-19 17:00","1998","06","19","17:00","29.8","","15.3","","41","","27","","20","","24.1","","98.57","","34","","","","Mostly Cloudy"
"1998-06-19 18:00","1998","06","19","18:00","29.0","","14.7","","42","","26","","26","","24.1","","98.57","","33","","","","Mostly Cloudy"
"1998-06-19 19:00","1998","06","19","19:00","28.3","","14.8","","44","","24","","22","","24.1","","98.57","","32","","","","Mostly Cloudy"
"1998-06-19 20:00","1998","06","19","20:00","27.0","","14.8","","47","","27","","22","","24.1","","98.63","","31","","","","Mainly Clear"
"1998-06-19 21:00","1998","06","19","21:00","25.2","","14.9","","53","","28","","13","","24.1","","98.70","","29","","","","Mainly Clear"
"1998-06-19 22:00","1998","06","19","22:00","24.5","","15.2","","56","","27","","15","","24.1","","98.76","","29","","","","Mainly Clear"
"1998-06-19 23:00","1998","06","19","23:00","24.2","","15.7","","59","","27","","13","","24.1","","98.80","","29","","","","Mainly Clear"
"1998-06-20 00:00","1998","06","20","00:00","23.7","","15.3","","59","","32","","15","","24.1","","98.83","","28","","","","Mainly Clear"
"1998-06-20 01:00","1998","06","20","01:00","22.8","","15.3","","63","","31","","11","","24.1","","98.86","","27","","","","Mainly Clear"
"1998-06-20 02:00","1998","06","20","02:00","21.8","","15.3","","67","","29","","4","","24.1","","98.90","","26","","","","Clear"
"1998-06-20 03:00","1998","06","20","03:00","20.8","","15.4","","71","","27","","6","","24.1","","98.90","","25","","","","Clear"
"1998-06-20 04:00","1998","06","20","04:00","19.8","","15.6","","77","","26","","7","","24.1","","99.03","","","","","","Mainly Clear"
"1998-06-20 05:00","1998","06","20","05:00","19.9","","15.8","","77","","26","","13","","24.1","","99.03","","","","","","Mainly Clear"
"1998-06-20 06:00","1998","06","20","06:00","19.9","","16.5","","81","","24","","9","","16.1","","99.10","","","","","","Mainly Clear"
"1998-06-20 07:00","1998","06","20","07:00","21.9","","16.1","","70","","26","","15","","19.3","","99.10","","27","","","","Clear"
"1998-06-20 08:00","1998","06","20","08:00","24.5","","16.1","","59","","26","","11","","19.3","","99.13","","29","","","","Clear"
"1998-06-20 09:00","1998","06","20","09:00","25.6","","16.2","","56","","26","","15","","24.1","","99.13","","30","","","","Clear"
"1998-06-20 10:00","1998","06","20","10:00","26.8","","16.3","","53","","25","","11","","24.1","","99.06","","32","","","","Mainly Clear"
"1998-06-20 11:00","1998","06","20","11:00","28.1","","16.6","","50","","27","","15","","24.1","","99.10","","33","","","","Mostly Cloudy"
"1998-06-20 12:00","1998","06","20","12:00","29.7","","15.8","","43","","24","","22","","24.1","","99.13","","34","","","","Mostly Cloudy"
"1998-06-20 13:00","1998","06","20","13:00","29.7","","15.8","","43","","24","","24","","24.1","","99.03","","34","","","","Mostly Cloudy"
"1998-06-20 14:00","1998","06","20","14:00","30.8","","16.1","","41","","24","","22","","24.1","","99.00","","35","","","","Mostly Cloudy"
"1998-06-20 15:00","1998","06","20","15:00","31.3","","15.0","","37","","24","","19","","24.1","","99.00","","35","","","","Cloudy"
"1998-06-20 16:00","1998","06","20","16:00","31.4","","16.1","","40","","24","","20","","24.1","","99.00","","36","","","","Cloudy"
"1998-06-20 17:00","1998","06","20","17:00","29.9","","15.8","","43","","19","","17","","24.1","","98.96","","34","","","","Cloudy"
"1998-06-20 18:00","1998","06","20","18:00","30.0","","16.2","","43","","21","","15","","24.1","","99.00","","35","","","","Cloudy"
"1998-06-20 19:00","1998","06","20","19:00","28.7","","16.6","","48","","18","","15","","24.1","","99.00","","34","","","","Cloudy"
"1998-06-20 20:00","1998","06","20","20:00","27.0","","16.1","","51","","19","","11","","24.1","","99.03","","32","","","","Cloudy"
"1998-06-20 21:00","1998","06","20","21:00","25.8","","16.7","","57","","19","","9","","24.1","","99.03","","31","","","","Cloudy"
"1998-06-20 22:00","1998","06","20","22:00","24.5","","17.2","","64","","17","","9","","24.1","","99.06","","30","","","","Mainly Clear"
"1998-06-20 23:00","1998","06","20","23:00","24.5","","17.8","","66","","20","","13","","24.1","","99.06","","30","","","","Mainly Clear"
"1998-06-21 00:00","1998","06","21","00:00","23.9","","17.9","","69","","22","","11","","24.1","","99.10","","30","","","","Mainly Clear"
"1998-06-21 01:00","1998","06","21","01:00","23.6","","17.8","","70","","27","","11","","24.1","","99.10","","29","","","","Mainly Clear"
"1998-06-21 02:00","1998","06","21","02:00","23.0","","17.9","","73","","22","","13","","24.1","","99.03","","29","","","","Mainly Clear"
"1998-06-21 03:00","1998","06","21","03:00","22.6","","18.0","","75","","22","","13","","24.1","","99.00","","29","","","","Clear"
"1998-06-21 04:00","1998","06","21","04:00","22.0","","18.3","","80","","22","","13","","24.1","","99.03","","28","","","","Mainly Clear"
"1998-06-21 05:00","1998","06","21","05:00","21.7","","18.3","","81","","22","","9","","24.1","","99.10","","28","","","","Mainly Clear"
"1998-06-21 06:00","1998","06","21","06:00","22.4","","18.7","","80","","22","","9","","24.1","","99.10","","29","","","","Mostly Cloudy"
"1998-06-21 07:00","1998","06","21","07:00","24.0","","19.3","","75","","22","","13","","19.3","","99.10","","31","","","","Cloudy"
"1998-06-21 08:00","1998","06","21","08:00","25.8","","18.4","","64","","21","","17","","24.1","","99.10","","32","","","","Cloudy"
"1998-06-21 09:00","1998","06","21","09:00","27.4","","18.0","","57","","21","","19","","24.1","","99.10","","33","","","","Cloudy"
"1998-06-21 10:00","1998","06","21","10:00","27.6","","19.0","","59","","22","","24","","24.1","","99.10","","34","","","","Cloudy"
"1998-06-21 11:00","1998","06","21","11:00","28.8","","19.5","","57","","23","","26","","24.1","","99.13","","36","","","","Cloudy"
"1998-06-21 12:00","1998","06","21","12:00","29.7","","19.0","","53","","20","","32","","24.1","","99.13","","36","","","","Mostly Cloudy"
"1998-06-21 13:00","1998","06","21","13:00","30.6","","15.1","","39","","21","","33","","24.1","","99.13","","35","","","","Mostly Cloudy"
"1998-06-21 14:00","1998","06","21","14:00","30.9","","15.6","","40","","21","","32","","24.1","","99.10","","35","","","","Mainly Clear"
"1998-06-21 15:00","1998","06","21","15:00","30.0","","17.7","","48","","18","","33","","24.1","","99.06","","36","","","","Cloudy"
"1998-06-21 16:00","1998","06","21","16:00","28.7","","18.8","","55","","22","","33","","24.1","","99.13","","35","","","","Cloudy"
"1998-06-21 17:00","1998","06","21","17:00","26.5","","18.2","","60","","20","","28","","24.1","","99.10","","33","","","","Cloudy"
"1998-06-21 18:00","1998","06","21","18:00","26.1","","17.4","","59","","19","","41","","24.1","","99.10","","32","","","","Cloudy"
"1998-06-21 19:00","1998","06","21","19:00","25.4","","17.7","","62","","20","","24","","19.3","","99.16","","31","","","","Rain Showers"
"1998-06-21 20:00","1998","06","21","20:00","24.4","","19.0","","72","","19","","13","","19.3","","99.16","","31","","","","Cloudy"
"1998-06-21 21:00","1998","06","21","21:00","24.3","","19.7","","76","","19","","9","","12.9","","99.16","","32","","","","Cloudy"
"1998-06-21 22:00","1998","06","21","22:00","23.9","","20.2","","80","","19","","13","","12.9","","99.16","","32","","","","Mostly Cloudy"
"1998-06-21 23:00","1998","06","21","23:00","23.9","","20.0","","79","","24","","9","","16.1","","99.26","","31","","","","Mostly Cloudy"
"1998-06-22 00:00","1998","06","22","00:00","22.9","","19.0","","79","","25","","6","","12.9","","99.26","","30","","","","Mainly Clear"
"1998-06-22 01:00","1998","06","22","01:00","22.0","","18.9","","83","","23","","7","","12.9","","99.30","","29","","","","Clear"
"1998-06-22 02:00","1998","06","22","02:00","21.8","","19.2","","85","","25","","9","","11.3","","99.30","","29","","","","Clear"
"1998-06-22 03:00","1998","06","22","03:00","21.8","","19.8","","88","","27","","13","","9.7","","99.26","","29","","","","Fog"
"1998-06-22 04:00","1998","06","22","04:00","21.4","","20.1","","92","","28","","11","","6.4","","99.30","","29","","","","Fog"
"1998-06-22 05:00","1998","06","22","05:00","21.3","","20.0","","92","","29","","7","","4.8","","99.33","","29","","","","Fog"
"1998-06-22 06:00","1998","06","22","06:00","22.0","","20.1","","89","","30","","9","","9.7","","99.40","","30","","","","Fog"
"1998-06-22 07:00","1998","06","22","07:00","23.6","","19.5","","78","","31","","9","","12.9","","99.46","","31","","","","Clear"
"1998-06-22 08:00","1998","06","22","08:00","25.5","","18.3","","64","","35","","11","","16.1","","99.43","","32","","","","Mainly Clear"
"1998-06-22 09:00","1998","06","22","09:00","27.2","","18.9","","61","","29","","4","","24.1","","99.50","","34","","","","Mainly Clear"
"1998-06-22 10:00","1998","06","22","10:00","28.1","","18.7","","57","","26","","11","","24.1","","99.50","","35","","","","Mainly Clear"
"1998-06-22 11:00","1998","06","22","11:00","29.3","","18.4","","52","","28","","15","","24.1","","99.50","","36","","","","Mostly Cloudy"
"1998-06-22 12:00","1998","06","22","12:00","29.2","","18.1","","51","","23","","15","","24.1","","99.53","","35","","","","Mainly Clear"
"1998-06-22 13:00","1998","06","22","13:00","30.8","","17.0","","44","","27","","17","","24.1","","99.53","","36","","","","Mainly Clear"
"1998-06-22 14:00","1998","06","22","14:00","30.6","","16.7","","43","","26","","19","","24.1","","99.46","","36","","","","Mainly Clear"
"1998-06-22 15:00","1998","06","22","15:00","30.6","","16.7","","43","","25","","19","","24.1","","99.46","","36","","","","Mainly Clear"
"1998-06-22 16:00","1998","06","22","16:00","31.1","","16.6","","42","","23","","19","","24.1","","99.40","","36","","","","Mainly Clear"
"1998-06-22 17:00","1998","06","22","17:00","31.5","","17.4","","43","","27","","19","","24.1","","99.33","","37","","","","Mainly Clear"
"1998-06-22 18:00","1998","06","22","18:00","31.0","","16.9","","43","","26","","13","","24.1","","99.26","","36","","","","Mainly Clear"
"1998-06-22 19:00","1998","06","22","19:00","29.8","","16.8","","46","","10","","6","","24.1","","99.13","","35","","","","Mostly Cloudy"
"1998-06-22 20:00","1998","06","22","20:00","29.0","","17.2","","49","","","","0","","24.1","","99.20","","34","","","","Mostly Cloudy"
"1998-06-22 21:00","1998","06","22","21:00","27.4","","18.7","","59","","20","","13","","24.1","","99.26","","34","","","","Mostly Cloudy"
"1998-06-22 22:00","1998","06","22","22:00","26.0","","20.0","","70","","17","","15","","12.9","","99.23","","34","","","","Thunderstorms,Rain Showers"
"1998-06-22 23:00","1998","06","22","23:00","23.9","","18.1","","70","","13","","15","","24.1","","99.26","","30","","","","Mostly Cloudy"
"1998-06-23 00:00","1998","06","23","00:00","23.7","","18.1","","71","","6","","7","","24.1","","99.23","","30","","","","Mostly Cloudy"
"1998-06-23 01:00","1998","06","23","01:00","23.9","","18.5","","72","","","","0","","24.1","","99.20","","30","","","","Mostly Cloudy"
"1998-06-23 02:00","1998","06","23","02:00","23.0","","20.4","","85","","3","","4","","19.3","","99.20","","31","","","","Rain Showers"
"1998-06-23 03:00","1998","06","23","03:00","22.2","","19.7","","86","","1","","4","","19.3","","99.20","","30","","","","Mostly Cloudy"
"1998-06-23 04:00","1998","06","23","04:00","22.0","","20.1","","89","","","","0","","12.9","","99.23","","30","","","","Mostly Cloudy"
"1998-06-23 05:00","1998","06","23","05:00","22.9","","19.3","","80","","24","","11","","19.3","","99.23","","30","","","","Cloudy"
"1998-06-23 06:00","1998","06","23","06:00","23.1","","19.2","","79","","24","","9","","24.1","","99.26","","30","","","","Rain Showers"
"1998-06-23 07:00","1998","06","23","07:00","22.8","","19.9","","84","","24","","15","","12.9","","99.30","","30","","","","Cloudy"
"1998-06-23 08:00","1998","06","23","08:00","23.1","","19.7","","81","","24","","15","","11.3","","99.33","","30","","","","Mostly Cloudy"
"1998-06-23 09:00","1998","06","23","09:00","24.0","","19.7","","77","","30","","15","","14.5","","99.33","","31","","","","Mostly Cloudy"
"1998-06-23 10:00","1998","06","23","10:00","25.8","","19.2","","67","","24","","11","","16.1","","99.30","","33","","","","Mainly Clear"
"1998-06-23 11:00","1998","06","23","11:00","27.8","","19.4","","60","","22","","13","","16.1","","99.33","","35","","","","Mainly Clear"
"1998-06-23 12:00","1998","06","23","12:00","28.2","","19.2","","58","","31","","11","","11.3","","99.36","","35","","","","Mainly Clear"
"1998-06-23 13:00","1998","06","23","13:00","28.0","","20.1","","62","","4","","19","","11.3","","99.33","","36","","","","Mostly Cloudy"
"1998-06-23 14:00","1998","06","23","14:00","29.3","","19.6","","56","","7","","15","","11.3","","99.33","","37","","","","Mainly Clear"
"1998-06-23 15:00","1998","06","23","15:00","30.3","","19.3","","52","","5","","13","","11.3","","99.30","","37","","","","Mainly Clear"
"1998-06-23 16:00","1998","06","23","16:00","30.1","","18.9","","51","","4","","9","","11.3","","99.30","","37","","","","Mainly Clear"
"1998-06-23 17:00","1998","06","23","17:00","30.1","","17.5","","47","","9","","7","","11.3","","99.23","","36","","","","Mainly Clear"
"1998-06-23 18:00","1998","06","23","18:00","30.2","","17.6","","47","","6","","9","","16.1","","99.23","","36","","","","Mainly Clear"
"1998-06-23 19:00","1998","06","23","19:00","28.8","","17.7","","51","","10","","11","","16.1","","99.30","","35","","","","Mainly Clear"
"1998-06-23 20:00","1998","06","23","20:00","28.2","","17.4","","52","","8","","7","","19.3","","99.30","","34","","","","Mostly Cloudy"
"1998-06-23 21:00","1998","06","23","21:00","27.0","","18.0","","58","","9","","7","","19.3","","99.33","","33","","","","Mainly Clear"
"1998-06-23 22:00","1998","06","23","22:00","25.4","","18.3","","65","","17","","4","","16.1","","99.36","","32","","","","Mainly Clear"
"1998-06-23 23:00","1998","06","23","23:00","25.0","","19.6","","72","","23","","6","","24.1","","99.43","","32","","","","Mainly Clear"
"1998-06-24 00:00","1998","06","24","00:00","23.4","","20.3","","83","","18","","4","","16.1","","99.43","","31","","","","Mainly Clear"
"1998-06-24 01:00","1998","06","24","01:00","22.4","","19.5","","84","","","","0","","12.9","","99.46","","30","","","","Mainly Clear"
"1998-06-24 02:00","1998","06","24","02:00","22.7","","19.8","","84","","11","","6","","12.9","","99.43","","30","","","","Mainly Clear"
"1998-06-24 03:00","1998","06","24","03:00","21.8","","19.6","","87","","","","0","","12.9","","99.43","","29","","","","Clear"
"1998-06-24 04:00","1998","06","24","04:00","21.8","","20.1","","90","","9","","6","","6.4","","99.43","","29","","","","Fog"
"1998-06-24 05:00","1998","06","24","05:00","21.5","","20.4","","93","","","","0","","1.0","","99.50","","29","","","","Fog"
"1998-06-24 06:00","1998","06","24","06:00","22.0","","20.6","","92","","","","0","","1.2","","99.53","","30","","","","Fog"
"1998-06-24 07:00","1998","06","24","07:00","23.9","","21.3","","85","","16","","4","","3.2","","99.53","","33","","","","Haze"
"1998-06-24 08:00","1998","06","24","08:00","27.1","","19.8","","64","","21","","13","","9.7","","99.53","","35","","","","Haze"
"1998-06-24 09:00","1998","06","24","09:00","28.5","","20.1","","60","","19","","9","","9.7","","99.53","","36","","","","Haze"
"1998-06-24 10:00","1998","06","24","10:00","29.9","","19.4","","53","","24","","15","","12.9","","99.53","","37","","","","Mostly Cloudy"
"1998-06-24 11:00","1998","06","24","11:00","31.1","","17.4","","44","","22","","15","","16.1","","99.50","","37","","","","Mostly Cloudy"
"1998-06-24 12:00","1998","06","24","12:00","30.8","","17.8","","46","","22","","15","","16.1","","99.46","","37","","","","Mostly Cloudy"
"1998-06-24 13:00","1998","06","24","13:00","31.8","","18.0","","44","","21","","19","","16.1","","99.40","","38","","","","Mostly Cloudy"
"1998-06-24 14:00","1998","06","24","14:00","32.4","","17.5","","41","","19","","26","","16.1","","99.36","","38","","","","Mostly Cloudy"
"1998-06-24 15:00","1998","06","24","15:00","32.8","","17.1","","39","","20","","26","","16.1","","99.30","","38","","","","Mostly Cloudy"
"1998-06-24 16:00","1998","06","24","16:00","32.8","","18.2","","42","","22","","32","","19.3","","99.26","","39","","","","Mainly Clear"
"1998-06-24 17:00","1998","06","24","17:00","32.0","","18.3","","44","","20","","22","","12.9","","99.26","","38","","","","Mostly Cloudy"
"1998-06-24 18:00","1998","06","24","18:00","31.2","","18.5","","47","","17","","15","","12.9","","99.26","","38","","","","Cloudy"
"1998-06-24 19:00","1998","06","24","19:00","29.9","","19.9","","55","","14","","13","","19.3","","99.20","","37","","","","Thunderstorms,Rain Showers"
"1998-06-24 20:00","1998","06","24","20:00","26.9","","20.8","","69","","21","","33","","12.9","","99.20","","35","","","","Mostly Cloudy"
"1998-06-24 21:00","1998","06","24","21:00","25.4","","18.1","","64","","21","","20","","19.3","","99.23","","31","","","","Mainly Clear"
"1998-06-24 22:00","1998","06","24","22:00","25.2","","19.9","","72","","20","","20","","16.1","","99.26","","33","","","","Mainly Clear"
"1998-06-24 23:00","1998","06","24","23:00","26.1","","18.2","","62","","22","","20","","24.1","","99.33","","32","","","","Mainly Clear"
"1998-06-25 00:00","1998","06","25","00:00","25.7","","18.3","","64","","22","","20","","19.3","","99.30","","32","","","","Mainly Clear"
"1998-06-25 01:00","1998","06","25","01:00","25.1","","20.3","","75","","22","","22","","12.9","","99.26","","33","","","","Mainly Clear"
"1998-06-25 02:00","1998","06","25","02:00","24.8","","20.7","","78","","22","","22","","12.9","","99.23","","33","","","","Mostly Cloudy"
"1998-06-25 03:00","1998","06","25","03:00","24.5","","21.0","","81","","23","","13","","9.7","","99.26","","33","","","","Haze"
"1998-06-25 04:00","1998","06","25","04:00","24.1","","21.1","","83","","23","","15","","9.7","","99.30","","33","","","","Haze"
"1998-06-25 05:00","1998","06","25","05:00","24.3","","20.7","","80","","23","","13","","8.0","","99.30","","32","","","","Haze"
"1998-06-25 06:00","1998","06","25","06:00","24.9","","20.9","","78","","24","","19","","8.0","","99.30","","33","","","","Haze"
"1998-06-25 07:00","1998","06","25","07:00","26.3","","21.3","","74","","24","","22","","9.7","","99.26","","35","","","","Haze"
"1998-06-25 08:00","1998","06","25","08:00","28.2","","21.6","","67","","24","","22","","9.7","","99.26","","37","","","","Haze"
"1998-06-25 09:00","1998","06","25","09:00","29.2","","21.8","","64","","24","","26","","9.7","","99.23","","38","","","","Haze"
"1998-06-25 10:00","1998","06","25","10:00","30.4","","21.7","","60","","25","","32","","9.7","","99.23","","39","","","","Haze"
"1998-06-25 11:00","1998","06","25","11:00","31.7","","22.1","","57","","24","","20","","11.3","","99.23","","41","","","","Mostly Cloudy"
"1998-06-25 12:00","1998","06","25","12:00","33.0","","21.9","","52","","25","","19","","11.3","","99.20","","42","","","","Mostly Cloudy"
"1998-06-25 13:00","1998","06","25","13:00","33.5","","21.4","","49","","23","","26","","11.3","","99.10","","42","","","","Mostly Cloudy"
"1998-06-25 14:00","1998","06","25","14:00","34.7","","21.5","","46","","25","","30","","11.3","","99.03","","44","","","","Mostly Cloudy"
"1998-06-25 15:00","1998","06","25","15:00","34.5","","20.5","","44","","23","","33","","16.1","","99.00","","42","","","","Mostly Cloudy"
"1998-06-25 16:00","1998","06","25","16:00","35.3","","19.2","","39","","23","","33","","19.3","","98.93","","42","","","","Mostly Cloudy"
"1998-06-25 17:00","1998","06","25","17:00","35.3","","19.2","","39","","24","","32","","19.3","","98.90","","42","","","","Mostly Cloudy"
"1998-06-25 18:00","1998","06","25","18:00","34.5","","19.3","","41","","23","","32","","19.3","","98.83","","42","","","","Mainly Clear"
"1998-06-25 19:00","1998","06","25","19:00","34.0","","19.7","","43","","24","","22","","24.1","","98.80","","41","","","","Mainly Clear"
"1998-06-25 20:00","1998","06","25","20:00","32.6","","19.2","","45","","24","","17","","24.1","","98.83","","40","","","","Mainly Clear"
"1998-06-25 21:00","1998","06","25","21:00","31.2","","19.5","","50","","24","","17","","24.1","","98.83","","38","","","","Mainly Clear"
"1998-06-25 22:00","1998","06","25","22:00","30.7","","20.9","","56","","24","","20","","19.3","","98.90","","39","","","","Mostly Cloudy"
"1998-06-25 23:00","1998","06","25","23:00","30.1","","21.0","","58","","25","","19","","16.1","","98.90","","39","","","","Mostly Cloudy"
"1998-06-26 00:00","1998","06","26","00:00","29.2","","21.4","","63","","24","","15","","12.9","","98.86","","38","","","","Mainly Clear"
"1998-06-26 01:00","1998","06","26","01:00","28.4","","21.5","","66","","23","","22","","12.9","","98.76","","37","","","","Mainly Clear"
"1998-06-26 02:00","1998","06","26","02:00","28.8","","21.7","","66","","24","","32","","12.9","","98.73","","38","","","","Mostly Cloudy"
"1998-06-26 03:00","1998","06","26","03:00","28.9","","15.4","","44","","26","","48","","24.1","","98.73","","33","","","","Mostly Cloudy"
"1998-06-26 04:00","1998","06","26","04:00","26.0","","15.4","","52","","25","","44","","24.1","","98.76","","30","","","","Rain Showers"
"1998-06-26 05:00","1998","06","26","05:00","22.3","","16.7","","71","","25","","20","","24.1","","98.73","","27","","","","Mostly Cloudy"
"1998-06-26 06:00","1998","06","26","06:00","23.8","","16.1","","62","","26","","33","","24.1","","98.73","","28","","","","Mostly Cloudy"
"1998-06-26 07:00","1998","06","26","07:00","23.3","","17.1","","68","","26","","37","","24.1","","98.83","","29","","","","Rain Showers"
"1998-06-26 08:00","1998","06","26","08:00","23.7","","18.3","","72","","24","","24","","24.1","","98.76","","30","","","","Mostly Cloudy"
"1998-06-26 09:00","1998","06","26","09:00","25.4","","19.2","","69","","25","","32","","16.1","","98.76","","32","","","","Mainly Clear"
"1998-06-26 10:00","1998","06","26","10:00","27.2","","19.9","","64","","26","","26","","16.1","","98.80","","35","","","","Mostly Cloudy"
"1998-06-26 11:00","1998","06","26","11:00","28.1","","20.5","","63","","27","","30","","16.1","","98.76","","36","","","","Mostly Cloudy"
"1998-06-26 12:00","1998","06","26","12:00","29.7","","21.0","","60","","26","","37","","16.1","","98.70","","38","","","","Mainly Clear"
"1998-06-26 13:00","1998","06","26","13:00","31.0","","20.0","","52","","28","","33","","16.1","","98.63","","39","","","","Mainly Clear"
"1998-06-26 14:00","1998","06","26","14:00","32.3","","18.2","","43","","26","","37","","24.1","","98.60","","38","","","","Mainly Clear"
"1998-06-26 15:00","1998","06","26","15:00","32.9","","17.8","","41","","29","","41","","24.1","","98.57","","39","","","","Mainly Clear"
"1998-06-26 16:00","1998","06","26","16:00","33.0","","17.2","","39","","29","","32","","24.1","","98.57","","38","","","","Mainly Clear"
"1998-06-26 17:00","1998","06","26","17:00","32.4","","16.5","","39","","28","","33","","24.1","","98.53","","37","","","","Mainly Clear"
"1998-06-26 18:00","1998","06","26","18:00","32.3","","16.9","","40","","28","","28","","25.0","","98.53","","38","","","","Mainly Clear"
"1998-06-26 19:00","1998","06","26","19:00","31.2","","16.3","","41","","29","","26","","25.0","","98.57","","36","","","","Mainly Clear"
"1998-06-26 20:00","1998","06","26","20:00","29.6","","16.6","","46","","28","","20","","25.0","","98.57","","35","","","","Mainly Clear"
"1998-06-26 21:00","1998","06","26","21:00","28.8","","16.3","","47","","30","","20","","24.1","","98.57","","34","","","","Mainly Clear"
"1998-06-26 22:00","1998","06","26","22:00","24.4","","18.7","","71","","7","","20","","24.1","","98.73","","31","","","","Mainly Clear"
"1998-06-26 23:00","1998","06","26","23:00","23.3","","19.2","","78","","5","","11","","24.1","","98.73","","30","","","","Mainly Clear"
"1998-06-27 00:00","1998","06","27","00:00","22.6","","19.1","","81","","7","","13","","24.1","","98.76","","29","","","","Clear"
"1998-06-27 01:00","1998","06","27","01:00","22.0","","18.9","","83","","7","","6","","24.1","","98.73","","29","","","","Clear"
"1998-06-27 02:00","1998","06","27","02:00","21.8","","19.2","","85","","36","","4","","24.1","","98.76","","29","","","","Clear"
"1998-06-27 03:00","1998","06","27","03:00","21.5","","19.2","","87","","23","","6","","24.1","","98.80","","28","","","","Mainly Clear"
"1998-06-27 04:00","1998","06","27","04:00","21.3","","18.9","","86","","","","0","","24.1","","98.83","","28","","","","Mainly Clear"
"1998-06-27 05:00","1998","06","27","05:00","21.4","","18.9","","86","","","","0","","24.1","","98.90","","28","","","","Mostly Cloudy"
"1998-06-27 06:00","1998","06","27","06:00","21.6","","19.8","","90","","20","","7","","16.1","","98.86","","29","","","","Mostly Cloudy"
"1998-06-27 07:00","1998","06","27","07:00","22.3","","19.6","","85","","24","","4","","11.3","","98.90","","30","","","","Thunderstorms,Rain Showers"
"1998-06-27 08:00","1998","06","27","08:00","21.5","","19.8","","90","","21","","4","","11.3","","98.90","","29","","","","Thunderstorms"
"1998-06-27 09:00","1998","06","27","09:00","22.1","","19.9","","87","","34","","22","","12.9","","99.13","","30","","","","Thunderstorms,Rain Showers"
"1998-06-27 10:00","1998","06","27","10:00","21.9","","19.9","","88","","4","","6","","19.3","","99.03","","29","","","","Rain Showers"
"1998-06-27 11:00","1998","06","27","11:00","22.3","","19.9","","86","","13","","26","","19.3","","98.60","","30","","","","Mostly Cloudy"
"1998-06-27 12:00","1998","06","27","12:00","24.3","","19.2","","73","","17","","11","","19.3","","98.80","","31","","","","Mostly Cloudy"
"1998-06-27 13:00","1998","06","27","13:00","26.3","","20.8","","72","","20","","9","","19.3","","98.86","","35","","","","Mostly Cloudy"
"1998-06-27 14:00","1998","06","27","14:00","25.5","","19.2","","68","","19","","19","","19.3","","98.86","","32","","","","Mostly Cloudy"
"1998-06-27 15:00","1998","06","27","15:00","25.7","","19.8","","70","","19","","9","","19.3","","98.86","","33","","","","Mostly Cloudy"
"1998-06-27 16:00","1998","06","27","16:00","26.2","","19.6","","67","","9","","6","","19.3","","98.73","","33","","","","Mostly Cloudy"
"1998-06-27 17:00","1998","06","27","17:00","25.4","","19.8","","71","","13","","11","","19.3","","98.73","","33","","","","Cloudy"
"1998-06-27 18:00","1998","06","27","18:00","25.7","","20.1","","71","","14","","11","","19.3","","98.73","","33","","","","Mostly Cloudy"
"1998-06-27 19:00","1998","06","27","19:00","24.6","","20.8","","79","","14","","11","","16.1","","98.73","","33","","","","Mostly Cloudy"
"1998-06-27 20:00","1998","06","27","20:00","24.1","","19.9","","77","","14","","11","","16.1","","98.73","","32","","","","Cloudy"
"1998-06-27 21:00","1998","06","27","21:00","22.8","","18.2","","75","","10","","22","","19.3","","98.80","","29","","","","Cloudy"
"1998-06-27 22:00","1998","06","27","22:00","22.4","","18.4","","78","","12","","11","","19.3","","98.86","","29","","","","Cloudy"
"1998-06-27 23:00","1998","06","27","23:00","21.8","","18.6","","82","","13","","6","","19.3","","98.96","","28","","","","Mostly Cloudy"
"1998-06-28 00:00","1998","06","28","00:00","21.7","","18.2","","81","","11","","4","","24.1","","98.93","","28","","","","Mainly Clear"
"1998-06-28 01:00","1998","06","28","01:00","20.8","","18.0","","84","","8","","6","","24.1","","98.90","","27","","","","Mainly Clear"
"1998-06-28 02:00","1998","06","28","02:00","20.4","","18.1","","87","","10","","9","","24.1","","98.86","","26","","","","Mainly Clear"
"1998-06-28 03:00","1998","06","28","03:00","20.1","","18.2","","89","","14","","6","","24.1","","98.90","","26","","","","Mainly Clear"
"1998-06-28 04:00","1998","06","28","04:00","19.8","","18.4","","92","","11","","2","","24.1","","99.00","","","","","","Mainly Clear"
"1998-06-28 05:00","1998","06","28","05:00","19.4","","18.3","","93","","7","","4","","16.1","","99.03","","","","","","Mainly Clear"
"1998-06-28 06:00","1998","06","28","06:00","20.3","","18.7","","91","","28","","2","","12.9","","99.13","","27","","","","Mostly Cloudy"
"1998-06-28 07:00","1998","06","28","07:00","21.3","","19.1","","87","","9","","9","","16.1","","99.10","","28","","","","Cloudy"
"1998-06-28 08:00","1998","06","28","08:00","22.9","","19.7","","82","","18","","7","","16.1","","99.13","","30","","","","Mostly Cloudy"
"1998-06-28 09:00","1998","06","28","09:00","24.1","","20.2","","79","","17","","7","","19.3","","99.13","","32","","","","Cloudy"
"1998-06-28 10:00","1998","06","28","10:00","25.0","","20.2","","75","","10","","22","","19.3","","98.83","","33","","","","Cloudy"
"1998-06-28 11:00","1998","06","28","11:00","26.1","","21.1","","74","","19","","15","","16.1","","98.93","","35","","","","Mostly Cloudy"
"1998-06-28 12:00","1998","06","28","12:00","26.9","","20.8","","69","","21","","19","","19.3","","98.93","","35","","","","Mostly Cloudy"
"1998-06-28 13:00","1998","06","28","13:00","27.6","","21.0","","67","","20","","22","","19.3","","98.93","","36","","","","Cloudy"
"1998-06-28 14:00","1998","06","28","14:00","28.9","","20.7","","61","","23","","15","","19.3","","98.96","","37","","","","Mostly Cloudy"
"1998-06-28 15:00","1998","06","28","15:00","29.2","","21.3","","62","","23","","15","","19.3","","98.93","","38","","","","Mostly Cloudy"
"1998-06-28 16:00","1998","06","28","16:00","29.2","","21.3","","62","","23","","9","","19.3","","98.90","","38","","","","Mostly Cloudy"
"1998-06-28 17:00","1998","06","28","17:00","31.1","","21.2","","56","","26","","22","","19.3","","98.83","","40","","","","Mostly Cloudy"
"1998-06-28 18:00","1998","06","28","18:00","31.4","","20.1","","51","","28","","30","","19.3","","98.80","","39","","","","Mainly Clear"
"1998-06-28 19:00","1998","06","28","19:00","30.5","","19.0","","50","","30","","24","","19.3","","98.83","","37","","","","Mainly Clear"
"1998-06-28 20:00","1998","06","28","20:00","29.3","","18.8","","53","","26","","19","","19.3","","98.86","","36","","","","Mainly Clear"
"1998-06-28 21:00","1998","06","28","21:00","25.5","","21.7","","80","","20","","15","","19.3","","98.90","","35","","","","Clear"
"1998-06-28 22:00","1998","06","28","22:00","24.8","","21.7","","83","","22","","11","","16.1","","98.93","","34","","","","Mainly Clear"
"1998-06-28 23:00","1998","06","28","23:00","25.0","","22.1","","84","","24","","9","","16.1","","98.93","","34","","","","Mainly Clear"
"1998-06-29 00:00","1998","06","29","00:00","24.8","","21.7","","83","","24","","7","","16.1","","98.90","","34","","","","Mainly Clear"
"1998-06-29 01:00","1998","06","29","01:00","24.9","","19.8","","73","","29","","17","","24.1","","98.93","","32","","","","Clear"
"1998-06-29 02:00","1998","06","29","02:00","23.9","","19.6","","77","","24","","6","","24.1","","98.96","","31","","","","Clear"
"1998-06-29 03:00","1998","06","29","03:00","22.9","","19.8","","83","","26","","13","","24.1","","99.03","","30","","","","Clear"
"1998-06-29 04:00","1998","06","29","04:00","22.4","","19.3","","83","","28","","11","","24.1","","98.93","","29","","","","Mainly Clear"
"1998-06-29 05:00","1998","06","29","05:00","21.5","","19.2","","87","","24","","9","","16.1","","98.96","","28","","","","Mainly Clear"
"1998-06-29 06:00","1998","06","29","06:00","22.8","","19.6","","82","","24","","11","","16.1","","99.03","","30","","","","Mainly Clear"
"1998-06-29 07:00","1998","06","29","07:00","24.9","","19.5","","72","","30","","11","","24.1","","99.03","","32","","","","Mainly Clear"
"1998-06-29 08:00","1998","06","29","08:00","26.4","","19.1","","64","","29","","13","","24.1","","99.03","","33","","","","Mainly Clear"
"1998-06-29 09:00","1998","06","29","09:00","27.5","","16.1","","50","","28","","7","","24.1","","99.00","","32","","","","Mostly Cloudy"
"1998-06-29 10:00","1998","06","29","10:00","28.6","","15.2","","44","","22","","15","","24.1","","99.00","","33","","","","Mainly Clear"
"1998-06-29 11:00","1998","06","29","11:00","29.6","","15.0","","41","","23","","19","","24.1","","98.90","","34","","","","Mainly Clear"
"1998-06-29 12:00","1998","06","29","12:00","29.7","","14.2","","39","","22","","11","","25.0","","98.76","","33","","","","Mainly Clear"
"1998-06-29 13:00","1998","06","29","13:00","30.7","","15.4","","40","","23","","19","","25.0","","98.73","","35","","","","Mostly Cloudy"
"1998-06-29 14:00","1998","06","29","14:00","30.4","","20.0","","54","","22","","37","","24.1","","98.70","","38","","","","Mainly Clear"
"1998-06-29 15:00","1998","06","29","15:00","28.5","","21.0","","64","","21","","37","","24.1","","98.57","","37","","","","Mainly Clear"
"1998-06-29 16:00","1998","06","29","16:00","29.0","","20.2","","59","","21","","30","","19.3","","98.53","","37","","","","Mainly Clear"
"1998-06-29 17:00","1998","06","29","17:00","29.4","","21.2","","61","","21","","33","","19.3","","98.50","","38","","","","Mostly Cloudy"
"1998-06-29 18:00","1998","06","29","18:00","29.3","","20.8","","60","","22","","33","","19.3","","98.43","","38","","","","Mostly Cloudy"
"1998-06-29 19:00","1998","06","29","19:00","28.1","","20.7","","64","","22","","24","","19.3","","98.33","","36","","","","Mostly Cloudy"
"1998-06-29 20:00","1998","06","29","20:00","27.2","","21.1","","69","","22","","19","","12.9","","98.33","","36","","","","Cloudy"
"1998-06-29 21:00","1998","06","29","21:00","26.7","","21.5","","73","","21","","19","","16.1","","98.30","","36","","","","Cloudy"
"1998-06-29 22:00","1998","06","29","22:00","26.2","","21.5","","75","","27","","13","","16.1","","98.17","","35","","","","Cloudy"
"1998-06-29 23:00","1998","06","29","23:00","25.4","","21.5","","79","","23","","11","","16.1","","98.00","","34","","","","Cloudy"
"1998-06-30 00:00","1998","06","30","00:00","24.8","","21.4","","81","","23","","13","","16.1","","98.00","","34","","","","Mostly Cloudy"
"1998-06-30 01:00","1998","06","30","01:00","24.9","","21.6","","82","","24","","19","","16.1","","97.97","","34","","","","Cloudy"
"1998-06-30 02:00","1998","06","30","02:00","24.4","","17.5","","65","","25","","22","","16.1","","97.90","","30","","","","Thunderstorms"
"1998-06-30 03:00","1998","06","30","03:00","23.5","","16.9","","66","","26","","24","","24.1","","97.83","","29","","","","Mainly Clear"
"1998-06-30 04:00","1998","06","30","04:00","22.4","","16.9","","71","","26","","17","","24.1","","97.83","","28","","","","Mainly Clear"
"1998-06-30 05:00","1998","06","30","05:00","21.5","","17.0","","76","","24","","19","","24.1","","97.83","","27","","","","Mainly Clear"
"1998-06-30 06:00","1998","06","30","06:00","21.1","","17.3","","79","","27","","17","","24.1","","97.83","","27","","","","Mainly Clear"
"1998-06-30 07:00","1998","06","30","07:00","21.8","","17.2","","75","","29","","26","","24.1","","97.83","","27","","","","Mostly Cloudy"
"1998-06-30 08:00","1998","06","30","08:00","21.7","","17.1","","75","","28","","22","","24.1","","97.83","","27","","","","Mostly Cloudy"
"1998-06-30 09:00","1998","06","30","09:00","22.2","","16.8","","71","","29","","20","","24.1","","97.87","","27","","","","Mostly Cloudy"
"1998-06-30 10:00","1998","06","30","10:00","21.9","","16.1","","70","","30","","20","","19.3","","97.90","","27","","","","Rain Showers"
"1998-06-30 11:00","1998","06","30","11:00","21.7","","17.5","","77","","28","","20","","24.1","","97.93","","27","","","","Mostly Cloudy"
"1998-06-30 12:00","1998","06","30","12:00","21.5","","17.2","","77","","29","","22","","24.1","","97.90","","27","","","","Rain Showers"
"1998-06-30 13:00","1998","06","30","13:00","19.2","","16.2","","83","","28","","22","","19.3","","97.90","","","","","","Thunderstorms,Rain Showers"
"1998-06-30 14:00","1998","06","30","14:00","22.5","","17.3","","72","","28","","26","","19.3","","97.87","","28","","","","Mostly Cloudy"
"1998-06-30 15:00","1998","06","30","15:00","22.2","","14.4","","61","","31","","32","","24.1","","98.00","","26","","","","Mostly Cloudy"
"1998-06-30 16:00","1998","06","30","16:00","18.6","","16.5","","88","","34","","17","","19.3","","98.10","","","","","","Rain Showers"
"1998-06-30 17:00","1998","06","30","17:00","22.2","","16.2","","69","","33","","33","","24.1","","98.10","","27","","","","Mostly Cloudy"
"1998-06-30 18:00","1998","06","30","18:00","22.0","","17.1","","74","","34","","28","","24.1","","98.17","","27","","","","Mainly Clear"
"1998-06-30 19:00","1998","06","30","19:00","22.3","","14.1","","60","","33","","32","","25.0","","98.20","","26","","","","Mainly Clear"
"1998-06-30 20:00","1998","06","30","20:00","21.7","","14.8","","65","","32","","19","","24.1","","98.30","","26","","","","Mainly Clear"
"1998-06-30 21:00","1998","06","30","21:00","20.6","","15.6","","73","","28","","7","","24.1","","98.37","","25","","","","Mainly Clear"
"1998-06-30 22:00","1998","06","30","22:00","20.0","","16.1","","78","","30","","11","","24.1","","98.40","","25","","","","Clear"
"1998-06-30 23:00","1998","06","30","23:00","20.0","","16.3","","79","","29","","9","","24.1","","98.40","","25","","","","Clear"
