"Station Name","WINDSOR A"
"Province","ONTARIO"
"Latitude","42.28"
"Longitude","-82.96"
"Elevation","189.60"
"Climate Identifier","6139527"
"WMO Identifier",""
"TC Identifier","YQG"
"All times are specified in Local Standard Time (LST). Add 1 hour to adjust for Daylight Saving Time where and when it is observed."

"Legend"
"E","Estimated"
"M","Missing"
"NA","Not Available"

"Date/Time","Year","Month","Day","Time","Temp (°C)","Temp Flag","Dew Point Temp (°C)","Dew Point Temp Flag","Rel Hum (%)","Rel Hum Flag","Wind Dir (10s deg)","Wind Dir Flag","Wind Spd (km/h)","Wind Spd Flag","Visibility (km)","Visibility Flag","Stn Press (kPa)","Stn Press Flag","Hmdx","Hmdx Flag","Wind Chill","Wind Chill Flag","Weather"
"2015-09-01 00:00","2015","09","01","00:00","20.1","","19.8","","98","","22","","3","","9.7","","99.57","","28","","","","Fog"
"2015-09-01 01:00","2015","09","01","01:00","19.2","","19.0","","99","","36","","3","","3.2","","99.57","","","","","","Fog"
"2015-09-01 02:00","2015","09","01","02:00","18.4","","18.2","","99","","36","","2","","0.0","","99.55","","","","","","Fog"
"2015-09-01 03:00","2015","09","01","03:00","19.6","","19.4","","99","","23","","4","","0.0","","99.53","","","","","","Fog"
"2015-09-01 04:00","2015","09","01","04:00","19.2","","19.0","","99","","25","","7","","0.0","","99.55","","","","","","Fog"
"2015-09-01 05:00","2015","09","01","05:00","18.2","","18.0","","99","","36","","2","","2.4","","99.57","","","","","","Fog"
"2015-09-01 06:00","2015","09","01","06:00","17.2","","17.2","","100","","36","","3","","4.0","","99.61","","","","","","Fog"
"2015-09-01 07:00","2015","09","01","07:00","17.9","","17.9","","100","","36","","3","","6.4","","99.65","","","","","","Fog"
"2015-09-01 08:00","2015","09","01","08:00","22.0","","22.0","","100","","22","","5","","8.1","","99.66","","31","","","","Fog"
"2015-09-01 09:00","2015","09","01","09:00","25.1","","21.7","","81","","25","","7","","9.7","","99.67","","34","","","","Fog"
"2015-09-01 10:00","2015","09","01","10:00","27.0","","20.7","","68","","23","","10","","11.3","","99.67","","35","","","","Mainly Clear"
"2015-09-01 11:00","2015","09","01","11:00","28.1","","21.5","","67","","18","","3","","12.9","","99.63","","37","","","","NA"
"2015-09-01 12:00","2015","09","01","12:00","29.6","","20.7","","58","","24","","11","","16.1","","99.59","","38","","","","NA"
"2015-09-01 13:00","2015","09","01","13:00","30.0","","21.6","","60","","23","","16","","19.3","","99.56","","39","","","","Mainly Clear"
"2015-09-01 14:00","2015","09","01","14:00","30.4","","21.7","","59","","23","","10","","19.3","","99.51","","39","","","","NA"
"2015-09-01 15:00","2015","09","01","15:00","29.3","","21.7","","63","","20","","19","","19.3","","99.47","","38","","","","NA"
"2015-09-01 16:00","2015","09","01","16:00","30.0","","22.1","","62","","20","","14","","12.9","","99.43","","39","","","","Mainly Clear"
"2015-09-01 17:00","2015","09","01","17:00","29.4","","21.3","","61","","19","","20","","16.1","","99.40","","38","","","","NA"
"2015-09-01 18:00","2015","09","01","18:00","28.4","","21.1","","64","","21","","20","","16.1","","99.42","","37","","","","NA"
"2015-09-01 19:00","2015","09","01","19:00","25.9","","22.1","","79","","19","","10","","16.1","","99.44","","35","","","","Clear"
"2015-09-01 20:00","2015","09","01","20:00","24.4","","22.1","","87","","19","","10","","19.3","","99.47","","34","","","","NA"
"2015-09-01 21:00","2015","09","01","21:00","23.7","","22.2","","91","","19","","9","","19.3","","99.52","","33","","","","NA"
"2015-09-01 22:00","2015","09","01","22:00","23.5","","22.2","","92","","18","","12","","16.1","","99.52","","33","","","","Mainly Clear"
"2015-09-01 23:00","2015","09","01","23:00","23.0","","21.8","","93","","22","","13","","19.3","","99.52","","32","","","","NA"
"2015-09-02 00:00","2015","09","02","00:00","22.4","","21.2","","93","","22","","12","","19.3","","99.54","","31","","","","NA"
"2015-09-02 01:00","2015","09","02","01:00","22.2","","20.9","","92","","22","","12","","19.3","","99.53","","31","","","","Clear"
"2015-09-02 02:00","2015","09","02","02:00","21.3","","20.3","","94","","25","","9","","19.3","","99.48","","29","","","","NA"
"2015-09-02 03:00","2015","09","02","03:00","20.8","","19.8","","94","","23","","8","","19.3","","99.48","","28","","","","NA"
"2015-09-02 04:00","2015","09","02","04:00","20.7","","19.6","","93","","22","","7","","19.3","","99.48","","28","","","","Mainly Clear"
"2015-09-02 05:00","2015","09","02","05:00","20.5","","19.9","","96","","23","","10","","16.1","","99.47","","28","","","","NA"
"2015-09-02 06:00","2015","09","02","06:00","20.1","","19.6","","97","","22","","9","","9.7","","99.51","","27","","","","Fog"
"2015-09-02 07:00","2015","09","02","07:00","21.6","","20.8","","95","","21","","8","","9.7","","99.52","","30","","","","Fog"
"2015-09-02 08:00","2015","09","02","08:00","23.5","","21.6","","89","","23","","9","","11.3","","99.55","","32","","","","NA"
"2015-09-02 09:00","2015","09","02","09:00","25.0","","21.8","","82","","24","","13","","12.9","","99.53","","34","","","","NA"
"2015-09-02 10:00","2015","09","02","10:00","26.5","","21.8","","75","","23","","4","","16.1","","99.52","","36","","","","Mainly Clear"
"2015-09-02 11:00","2015","09","02","11:00","28.3","","22.7","","71","","22","","18","","19.3","","99.48","","38","","","","NA"
"2015-09-02 12:00","2015","09","02","12:00","28.4","","22.8","","71","","22","","18","","19.3","","99.40","","38","","","","NA"
"2015-09-02 13:00","2015","09","02","13:00","29.5","","23.1","","68","","20","","18","","19.3","","99.34","","40","","","","Mostly Cloudy"
"2015-09-02 14:00","2015","09","02","14:00","30.1","","23.4","","67","","21","","19","","19.3","","99.31","","41","","","","NA"
"2015-09-02 15:00","2015","09","02","15:00","30.0","","23.6","","68","","23","","17","","19.3","","99.21","","41","","","","NA"
"2015-09-02 16:00","2015","09","02","16:00","29.9","","22.8","","65","","25","","17","","19.3","","99.16","","40","","","","Mainly Clear"
"2015-09-02 17:00","2015","09","02","17:00","26.8","","22.7","","78","","24","","15","","16.1","","99.11","","37","","","","Thunderstorms,Rain Showers"
"2015-09-02 18:00","2015","09","02","18:00","29.4","","21.3","","61","","29","","18","","24.1","","99.12","","38","","","","NA"
"2015-09-02 19:00","2015","09","02","19:00","25.6","","19.1","","67","","14","","4","","19.3","","99.21","","32","","","","Rain Showers"
"2015-09-02 20:00","2015","09","02","20:00","22.8","","20.0","","84","","20","","3","","24.1","","99.26","","30","","","","NA"
"2015-09-02 21:00","2015","09","02","21:00","23.0","","20.8","","87","","22","","4","","24.1","","99.26","","31","","","","NA"
"2015-09-02 22:00","2015","09","02","22:00","22.0","","20.5","","91","","21","","5","","24.1","","99.26","","30","","","","Mostly Cloudy"
"2015-09-02 23:00","2015","09","02","23:00","22.1","","19.9","","87","","31","","4","","24.1","","99.25","","30","","","","NA"
"2015-09-03 00:00","2015","09","03","00:00","21.0","","19.7","","92","","21","","7","","24.1","","99.20","","28","","","","NA"
"2015-09-03 01:00","2015","09","03","01:00","19.9","","19.4","","97","","16","","7","","19.3","","99.20","","","","","","Mostly Cloudy"
"2015-09-03 02:00","2015","09","03","02:00","20.3","","19.7","","96","","20","","7","","24.1","","99.19","","28","","","","NA"
"2015-09-03 03:00","2015","09","03","03:00","19.2","","18.6","","96","","33","","3","","24.1","","99.22","","","","","","NA"
"2015-09-03 04:00","2015","09","03","04:00","18.7","","18.2","","97","","24","","5","","24.1","","99.20","","","","","","Mostly Cloudy"
"2015-09-03 05:00","2015","09","03","05:00","19.6","","19.1","","97","","23","","11","","24.1","","99.21","","","","","","NA"
"2015-09-03 06:00","2015","09","03","06:00","19.8","","19.2","","96","","18","","3","","14.5","","99.26","","","","","","NA"
"2015-09-03 07:00","2015","09","03","07:00","19.9","","19.4","","97","","14","","3","","11.3","","99.28","","","","","","Mainly Clear"
"2015-09-03 08:00","2015","09","03","08:00","23.5","","21.6","","89","","13","","4","","16.1","","99.25","","32","","","","NA"
"2015-09-03 09:00","2015","09","03","09:00","25.5","","21.0","","76","","18","","8","","16.1","","99.24","","34","","","","NA"
"2015-09-03 10:00","2015","09","03","10:00","26.9","","21.8","","73","","17","","5","","19.3","","99.21","","36","","","","Mainly Clear"
"2015-09-03 11:00","2015","09","03","11:00","28.9","","23.2","","71","","22","","13","","19.3","","99.21","","39","","","","NA"
"2015-09-03 12:00","2015","09","03","12:00","30.3","","22.9","","64","","23","","10","","16.1","","99.15","","40","","","","NA"
"2015-09-03 13:00","2015","09","03","13:00","30.4","","23.0","","64","","21","","9","","16.1","","99.07","","41","","","","Mostly Cloudy"
"2015-09-03 14:00","2015","09","03","14:00","26.3","","18.3","","61","","32","","21","","16.1","","99.12","","33","","","","Thunderstorms"
"2015-09-03 15:00","2015","09","03","15:00","22.1","","20.2","","89","","12","","14","","12.9","","99.14","","30","","","","Thunderstorms,Rain Showers"
"2015-09-03 16:00","2015","09","03","16:00","21.5","","20.5","","94","","4","","12","","12.9","","99.08","","29","","","","Thunderstorms"
"2015-09-03 17:00","2015","09","03","17:00","22.2","","20.9","","92","","36","","2","","12.9","","99.04","","31","","","","NA"
"2015-09-03 18:00","2015","09","03","18:00","21.9","","20.7","","93","","8","","8","","17.7","","99.03","","30","","","","NA"
"2015-09-03 19:00","2015","09","03","19:00","20.0","","19.2","","95","","20","","10","","8.1","","99.07","","27","","","","NA"
"2015-09-03 20:00","2015","09","03","20:00","19.4","","18.8","","96","","14","","16","","11.3","","99.07","","","","","","Thunderstorms,Rain Showers"
"2015-09-03 21:00","2015","09","03","21:00","19.5","","18.9","","96","","33","","4","","11.3","","99.22","","","","","","Thunderstorms,Moderate Rain Showers"
"2015-09-03 22:00","2015","09","03","22:00","19.4","","19.1","","98","","9","","9","","4.8","","99.25","","","","","","Thunderstorms,Heavy Rain Showers,Fog"
"2015-09-03 23:00","2015","09","03","23:00","20.0","","19.5","","97","","12","","8","","4.8","","99.20","","27","","","","Thunderstorms,Heavy Rain Showers,Fog"
"2015-09-04 00:00","2015","09","04","00:00","20.0","","19.7","","98","","14","","14","","9.7","","99.20","","27","","","","Blowing Sand"
"2015-09-04 01:00","2015","09","04","01:00","20.2","","19.7","","97","","28","","6","","4.0","","99.26","","28","","","","Thunderstorms,Heavy Rain Showers,Fog"
"2015-09-04 02:00","2015","09","04","02:00","20.1","","19.8","","98","","17","","13","","11.3","","99.21","","28","","","","NA"
"2015-09-04 03:00","2015","09","04","03:00","20.4","","19.9","","97","","18","","13","","19.3","","99.21","","28","","","","NA"
"2015-09-04 04:00","2015","09","04","04:00","20.0","","19.5","","97","","17","","7","","19.3","","99.21","","27","","","","Cloudy"
"2015-09-04 05:00","2015","09","04","05:00","20.3","","19.7","","96","","18","","10","","24.1","","99.23","","28","","","","NA"
"2015-09-04 06:00","2015","09","04","06:00","20.1","","19.5","","96","","17","","12","","24.1","","99.26","","27","","","","NA"
"2015-09-04 07:00","2015","09","04","07:00","21.1","","19.9","","93","","17","","14","","24.1","","99.31","","29","","","","Mostly Cloudy"
"2015-09-04 08:00","2015","09","04","08:00","22.1","","20.1","","88","","17","","11","","24.1","","99.39","","30","","","","NA"
"2015-09-04 09:00","2015","09","04","09:00","23.5","","20.9","","85","","17","","17","","24.1","","99.41","","32","","","","NA"
"2015-09-04 10:00","2015","09","04","10:00","23.8","","20.0","","79","","17","","23","","24.1","","99.43","","31","","","","Cloudy"
"2015-09-04 11:00","2015","09","04","11:00","24.7","","20.7","","78","","17","","18","","24.1","","99.44","","33","","","","NA"
"2015-09-04 12:00","2015","09","04","12:00","25.3","","21.1","","77","","19","","20","","24.1","","99.41","","34","","","","NA"
"2015-09-04 13:00","2015","09","04","13:00","25.9","","21.9","","78","","19","","13","","24.1","","99.41","","35","","","","Mostly Cloudy"
"2015-09-04 14:00","2015","09","04","14:00","25.5","","22.5","","83","","14","","12","","24.1","","99.41","","35","","","","NA"
"2015-09-04 15:00","2015","09","04","15:00","25.9","","","M","","M","13","","13","","16.1","","99.36","","","","","","NA"
"2015-09-04 16:00","2015","09","04","16:00","26.5","","22.6","","79","","14","","14","","19.3","","99.36","","36","","","","Mostly Cloudy"
"2015-09-04 17:00","2015","09","04","17:00","25.0","","22.2","","84","","16","","13","","19.3","","99.41","","35","","","","NA"
"2015-09-04 18:00","2015","09","04","18:00","24.1","","21.5","","85","","15","","9","","19.3","","99.46","","33","","","","NA"
"2015-09-04 19:00","2015","09","04","19:00","22.0","","20.7","","92","","12","","9","","19.3","","99.43","","30","","","","Mostly Cloudy"
"2015-09-04 20:00","2015","09","04","20:00","21.3","","20.5","","95","","12","","8","","24.1","","99.50","","29","","","","NA"
"2015-09-04 21:00","2015","09","04","21:00","21.2","","20.4","","95","","10","","5","","24.1","","99.54","","29","","","","NA"
"2015-09-04 22:00","2015","09","04","22:00","20.5","","20.0","","97","","14","","8","","16.1","","99.56","","28","","","","Mainly Clear"
"2015-09-04 23:00","2015","09","04","23:00","19.6","","19.3","","98","","14","","6","","19.3","","99.58","","","","","","NA"
"2015-09-05 00:00","2015","09","05","00:00","20.8","","20.0","","95","","19","","10","","24.1","","99.56","","28","","","","NA"
"2015-09-05 01:00","2015","09","05","01:00","20.3","","19.7","","96","","20","","5","","24.1","","99.56","","28","","","","Mainly Clear"
"2015-09-05 02:00","2015","09","05","02:00","19.7","","19.2","","97","","21","","4","","24.1","","99.54","","","","","","NA"
"2015-09-05 03:00","2015","09","05","03:00","18.5","","18.3","","99","","15","","11","","24.1","","99.60","","","","","","NA"
"2015-09-05 04:00","2015","09","05","04:00","19.0","","18.8","","99","","20","","6","","24.1","","99.65","","","","","","Mainly Clear"
"2015-09-05 05:00","2015","09","05","05:00","19.8","","19.5","","98","","36","","3","","9.7","","99.70","","","","","","Fog"
"2015-09-05 06:00","2015","09","05","06:00","19.4","","19.2","","99","","13","","7","","8.1","","99.76","","","","","","Fog"
"2015-09-05 07:00","2015","09","05","07:00","21.1","","20.6","","97","","20","","18","","9.7","","99.82","","29","","","","Fog"
"2015-09-05 08:00","2015","09","05","08:00","21.2","","20.2","","94","","19","","14","","16.1","","99.77","","29","","","","Rain Showers"
"2015-09-05 09:00","2015","09","05","09:00","22.0","","20.8","","93","","25","","17","","16.1","","99.80","","30","","","","NA"
"2015-09-05 10:00","2015","09","05","10:00","23.0","","20.6","","86","","24","","10","","24.1","","99.80","","31","","","","Mostly Cloudy"
"2015-09-05 11:00","2015","09","05","11:00","24.6","","20.8","","79","","23","","13","","24.1","","99.81","","33","","","","NA"
"2015-09-05 12:00","2015","09","05","12:00","23.5","","20.1","","81","","22","","19","","24.1","","99.85","","31","","","","NA"
"2015-09-05 13:00","2015","09","05","13:00","23.9","","19.5","","76","","23","","21","","24.1","","99.84","","31","","","","Mostly Cloudy"
"2015-09-05 14:00","2015","09","05","14:00","25.4","","20.1","","72","","24","","15","","24.1","","99.80","","33","","","","NA"
"2015-09-05 15:00","2015","09","05","15:00","26.1","","20.8","","72","","19","","10","","24.1","","99.73","","34","","","","NA"
"2015-09-05 16:00","2015","09","05","16:00","26.9","","21.3","","71","","23","","5","","24.1","","99.66","","36","","","","Mostly Cloudy"
"2015-09-05 17:00","2015","09","05","17:00","26.6","","21.0","","71","","22","","12","","24.1","","99.66","","35","","","","NA"
"2015-09-05 18:00","2015","09","05","18:00","25.2","","21.8","","81","","20","","11","","24.1","","99.65","","34","","","","NA"
"2015-09-05 19:00","2015","09","05","19:00","23.3","","21.4","","89","","20","","10","","24.1","","99.68","","32","","","","Mainly Clear"
"2015-09-05 20:00","2015","09","05","20:00","21.8","","20.8","","94","","19","","5","","24.1","","99.74","","30","","","","NA"
"2015-09-05 21:00","2015","09","05","21:00","21.5","","20.3","","93","","22","","4","","24.1","","99.77","","29","","","","NA"
"2015-09-05 22:00","2015","09","05","22:00","21.2","","19.9","","92","","26","","8","","24.1","","99.77","","29","","","","Clear"
"2015-09-05 23:00","2015","09","05","23:00","20.7","","19.9","","95","","22","","8","","24.1","","99.76","","28","","","","NA"
"2015-09-06 00:00","2015","09","06","00:00","19.1","","18.6","","97","","14","","9","","24.1","","99.73","","","","","","NA"
"2015-09-06 01:00","2015","09","06","01:00","19.4","","19.1","","98","","29","","4","","24.1","","99.70","","","","","","Clear"
"2015-09-06 02:00","2015","09","06","02:00","20.5","","19.5","","94","","18","","6","","19.3","","99.68","","28","","","","NA"
"2015-09-06 03:00","2015","09","06","03:00","19.8","","19.2","","96","","27","","4","","19.3","","99.69","","","","","","NA"
"2015-09-06 04:00","2015","09","06","04:00","18.9","","18.4","","97","","25","","5","","19.3","","99.69","","","","","","Clear"
"2015-09-06 05:00","2015","09","06","05:00","19.2","","19.0","","99","","36","","3","","19.3","","99.68","","","","","","NA"
"2015-09-06 06:00","2015","09","06","06:00","18.2","","18.0","","99","","36","","3","","9.7","","99.71","","","","","","Fog"
"2015-09-06 07:00","2015","09","06","07:00","19.2","","19.0","","99","","0","","1","","9.7","","99.76","","","","","","Fog"
"2015-09-06 08:00","2015","09","06","08:00","22.4","","21.6","","95","","12","","3","","9.7","","99.77","","31","","","","Fog"
"2015-09-06 09:00","2015","09","06","09:00","25.3","","21.5","","79","","25","","5","","16.1","","99.79","","34","","","","NA"
"2015-09-06 10:00","2015","09","06","10:00","27.0","","21.2","","70","","22","","7","","19.3","","99.79","","36","","","","Mainly Clear"
"2015-09-06 11:00","2015","09","06","11:00","27.9","","20.6","","64","","26","","7","","19.3","","99.79","","36","","","","NA"
"2015-09-06 12:00","2015","09","06","12:00","29.0","","20.9","","61","","36","","1","","24.1","","99.75","","37","","","","NA"
"2015-09-06 13:00","2015","09","06","13:00","29.7","","21.6","","61","","18","","8","","24.1","","99.71","","39","","","","Mainly Clear"
"2015-09-06 14:00","2015","09","06","14:00","30.0","","21.3","","59","","21","","11","","24.1","","99.68","","39","","","","NA"
"2015-09-06 15:00","2015","09","06","15:00","30.1","","21.1","","58","","20","","17","","24.1","","99.62","","39","","","","NA"
"2015-09-06 16:00","2015","09","06","16:00","29.6","","23.0","","67","","19","","15","","24.1","","99.58","","40","","","","Cloudy"
"2015-09-06 17:00","2015","09","06","17:00","28.9","","22.1","","66","","19","","12","","24.1","","99.55","","38","","","","NA"
"2015-09-06 18:00","2015","09","06","18:00","28.1","","22.2","","70","","18","","10","","24.1","","99.53","","38","","","","NA"
"2015-09-06 19:00","2015","09","06","19:00","25.1","","22.5","","85","","17","","7","","24.1","","99.49","","35","","","","Mostly Cloudy"
"2015-09-06 20:00","2015","09","06","20:00","24.1","","21.8","","87","","17","","4","","24.1","","99.49","","33","","","","NA"
"2015-09-06 21:00","2015","09","06","21:00","22.5","","21.0","","91","","17","","10","","19.3","","99.52","","31","","","","NA"
"2015-09-06 22:00","2015","09","06","22:00","23.5","","21.4","","88","","18","","14","","24.1","","99.51","","32","","","","Mostly Cloudy"
"2015-09-06 23:00","2015","09","06","23:00","23.4","","21.7","","90","","19","","12","","24.1","","99.51","","32","","","","NA"
"2015-09-07 00:00","2015","09","07","00:00","22.3","","21.3","","94","","17","","9","","24.1","","99.46","","31","","","","NA"
"2015-09-07 01:00","2015","09","07","01:00","22.0","","20.8","","93","","20","","10","","24.1","","99.44","","30","","","","Mostly Cloudy"
"2015-09-07 02:00","2015","09","07","02:00","21.1","","20.1","","94","","29","","3","","24.1","","99.43","","29","","","","NA"
"2015-09-07 03:00","2015","09","07","03:00","21.7","","20.9","","95","","20","","14","","24.1","","99.39","","30","","","","NA"
"2015-09-07 04:00","2015","09","07","04:00","21.4","","20.8","","96","","20","","10","","16.1","","99.39","","30","","","","Mainly Clear"
"2015-09-07 05:00","2015","09","07","05:00","20.7","","19.9","","95","","23","","7","","19.3","","99.43","","28","","","","NA"
"2015-09-07 06:00","2015","09","07","06:00","20.6","","19.6","","94","","20","","5","","12.9","","99.45","","28","","","","NA"
"2015-09-07 07:00","2015","09","07","07:00","22.2","","20.7","","91","","22","","10","","12.9","","99.48","","30","","","","Cloudy"
"2015-09-07 08:00","2015","09","07","08:00","24.5","","20.7","","79","","23","","13","","16.1","","99.49","","33","","","","NA"
"2015-09-07 09:00","2015","09","07","09:00","25.7","","21.0","","75","","22","","17","","16.1","","99.50","","34","","","","NA"
"2015-09-07 10:00","2015","09","07","10:00","26.8","","21.2","","71","","21","","18","","16.1","","99.48","","35","","","","Mostly Cloudy"
"2015-09-07 11:00","2015","09","07","11:00","28.5","","21.7","","66","","23","","20","","16.1","","99.45","","38","","","","NA"
"2015-09-07 12:00","2015","09","07","12:00","29.7","","22.3","","64","","22","","19","","16.1","","99.41","","39","","","","NA"
"2015-09-07 13:00","2015","09","07","13:00","30.7","","24.3","","68","","20","","17","","19.3","","99.36","","42","","","","Mainly Clear"
"2015-09-07 14:00","2015","09","07","14:00","30.8","","23.9","","66","","21","","17","","19.3","","99.31","","42","","","","NA"
"2015-09-07 15:00","2015","09","07","15:00","30.7","","22.8","","62","","19","","21","","24.1","","99.24","","41","","","","NA"
"2015-09-07 16:00","2015","09","07","16:00","30.6","","23.2","","64","","20","","16","","24.1","","99.19","","41","","","","Mostly Cloudy"
"2015-09-07 17:00","2015","09","07","17:00","29.9","","22.3","","63","","20","","14","","24.1","","99.19","","40","","","","NA"
"2015-09-07 18:00","2015","09","07","18:00","28.1","","22.0","","69","","19","","14","","24.1","","99.22","","37","","","","NA"
"2015-09-07 19:00","2015","09","07","19:00","26.3","","22.4","","79","","21","","12","","19.3","","99.25","","36","","","","Cloudy"
"2015-09-07 20:00","2015","09","07","20:00","26.2","","21.7","","76","","7","","5","","19.3","","99.30","","35","","","","NA"
"2015-09-07 21:00","2015","09","07","21:00","24.7","","22.1","","85","","7","","8","","19.3","","99.36","","34","","","","NA"
"2015-09-07 22:00","2015","09","07","22:00","24.7","","20.7","","78","","36","","5","","19.3","","99.36","","33","","","","Cloudy"
"2015-09-07 23:00","2015","09","07","23:00","22.2","","21.2","","94","","14","","8","","19.3","","99.33","","31","","","","NA"
"2015-09-08 00:00","2015","09","08","00:00","21.9","","21.1","","95","","15","","7","","19.3","","99.30","","30","","","","NA"
"2015-09-08 01:00","2015","09","08","01:00","21.8","","20.6","","93","","19","","4","","19.3","","99.29","","30","","","","Clear"
"2015-09-08 02:00","2015","09","08","02:00","21.1","","20.6","","97","","36","","2","","24.1","","99.29","","29","","","","NA"
"2015-09-08 03:00","2015","09","08","03:00","21.9","","20.6","","92","","18","","5","","24.1","","99.28","","30","","","","NA"
"2015-09-08 04:00","2015","09","08","04:00","22.0","","20.8","","93","","20","","8","","19.3","","99.23","","30","","","","Mainly Clear"
"2015-09-08 05:00","2015","09","08","05:00","22.2","","21.0","","93","","21","","8","","16.1","","99.20","","31","","","","NA"
"2015-09-08 06:00","2015","09","08","06:00","22.5","","21.0","","91","","22","","13","","11.3","","99.21","","31","","","","NA"
"2015-09-08 07:00","2015","09","08","07:00","22.7","","21.0","","90","","22","","9","","9.7","","99.26","","31","","","","Fog"
"2015-09-08 08:00","2015","09","08","08:00","24.3","","21.3","","83","","21","","9","","9.7","","99.23","","33","","","","Fog,Haze"
"2015-09-08 09:00","2015","09","08","09:00","25.9","","21.9","","78","","19","","10","","12.9","","99.22","","35","","","","NA"
"2015-09-08 10:00","2015","09","08","10:00","27.0","","22.1","","74","","19","","12","","12.9","","99.19","","36","","","","Cloudy"
"2015-09-08 11:00","2015","09","08","11:00","27.2","","22.9","","77","","19","","8","","9.7","","99.11","","37","","","","Haze"
"2015-09-08 12:00","2015","09","08","12:00","27.9","","22.9","","74","","18","","12","","9.7","","99.07","","38","","","","Haze"
"2015-09-08 13:00","2015","09","08","13:00","28.7","","23.7","","74","","19","","18","","9.7","","99.02","","40","","","","Haze"
"2015-09-08 14:00","2015","09","08","14:00","29.6","","23.0","","67","","19","","26","","9.7","","98.87","","40","","","","Haze"
"2015-09-08 15:00","2015","09","08","15:00","30.0","","22.9","","65","","21","","25","","12.9","","98.81","","40","","","","NA"
"2015-09-08 16:00","2015","09","08","16:00","29.9","","22.3","","63","","19","","22","","12.9","","98.75","","40","","","","Cloudy"
"2015-09-08 17:00","2015","09","08","17:00","29.0","","21.7","","64","","20","","22","","12.9","","98.72","","38","","","","NA"
"2015-09-08 18:00","2015","09","08","18:00","27.2","","22.5","","75","","19","","15","","12.9","","98.73","","37","","","","NA"
"2015-09-08 19:00","2015","09","08","19:00","26.4","","21.7","","75","","20","","14","","11.3","","98.71","","35","","","","Cloudy"
"2015-09-08 20:00","2015","09","08","20:00","25.0","","21.6","","81","","20","","13","","16.1","","98.73","","34","","","","NA"
"2015-09-08 21:00","2015","09","08","21:00","25.0","","21.2","","79","","19","","14","","16.1","","98.73","","34","","","","NA"
"2015-09-08 22:00","2015","09","08","22:00","25.1","","20.4","","75","","20","","17","","19.3","","98.72","","33","","","","Mostly Cloudy"
"2015-09-08 23:00","2015","09","08","23:00","25.0","","21.0","","78","","23","","15","","19.3","","98.73","","33","","","","NA"
"2015-09-09 00:00","2015","09","09","00:00","24.6","","20.2","","76","","27","","14","","19.3","","98.76","","32","","","","NA"
"2015-09-09 01:00","2015","09","09","01:00","24.0","","19.8","","77","","27","","17","","24.1","","98.78","","31","","","","Mostly Cloudy"
"2015-09-09 02:00","2015","09","09","02:00","23.6","","20.0","","80","","25","","17","","24.1","","98.77","","31","","","","NA"
"2015-09-09 03:00","2015","09","09","03:00","22.1","","20.8","","92","","25","","14","","24.1","","98.81","","30","","","","Rain Showers"
"2015-09-09 04:00","2015","09","09","04:00","21.7","","20.9","","95","","24","","10","","24.1","","98.83","","30","","","","Rain Showers"
"2015-09-09 05:00","2015","09","09","05:00","21.8","","21.0","","95","","25","","11","","16.1","","98.89","","30","","","","Rain Showers"
"2015-09-09 06:00","2015","09","09","06:00","21.8","","20.6","","93","","28","","10","","19.3","","98.92","","30","","","","Rain Showers"
"2015-09-09 07:00","2015","09","09","07:00","21.5","","19.5","","88","","36","","19","","19.3","","99.01","","29","","","","Cloudy"
"2015-09-09 08:00","2015","09","09","08:00","21.0","","18.2","","84","","35","","18","","24.1","","99.11","","27","","","","NA"
"2015-09-09 09:00","2015","09","09","09:00","21.2","","18.3","","83","","35","","14","","24.1","","99.14","","27","","","","NA"
"2015-09-09 10:00","2015","09","09","10:00","22.1","","17.3","","74","","1","","13","","24.1","","99.18","","28","","","","Cloudy"
"2015-09-09 11:00","2015","09","09","11:00","22.9","","17.9","","73","","3","","15","","24.1","","99.17","","29","","","","NA"
"2015-09-09 12:00","2015","09","09","12:00","23.2","","17.3","","69","","36","","9","","24.1","","99.20","","29","","","","NA"
"2015-09-09 13:00","2015","09","09","13:00","23.7","","17.3","","67","","34","","7","","24.1","","99.19","","29","","","","Mostly Cloudy"
"2015-09-09 14:00","2015","09","09","14:00","24.0","","18.1","","69","","6","","12","","24.1","","99.17","","30","","","","NA"
"2015-09-09 15:00","2015","09","09","15:00","24.0","","18.7","","72","","10","","9","","24.1","","99.12","","31","","","","NA"
"2015-09-09 16:00","2015","09","09","16:00","23.6","","18.6","","73","","8","","11","","24.1","","99.09","","30","","","","Cloudy"
"2015-09-09 17:00","2015","09","09","17:00","23.3","","18.9","","76","","6","","10","","24.1","","99.08","","30","","","","NA"
"2015-09-09 18:00","2015","09","09","18:00","23.0","","15.9","","64","","1","","16","","24.1","","99.11","","28","","","","NA"
"2015-09-09 19:00","2015","09","09","19:00","21.5","","16.1","","71","","3","","22","","24.1","","99.17","","26","","","","Mainly Clear"
"2015-09-09 20:00","2015","09","09","20:00","19.8","","14.7","","72","","5","","19","","24.1","","99.24","","","","","","NA"
"2015-09-09 21:00","2015","09","09","21:00","18.2","","14.4","","78","","7","","11","","24.1","","99.28","","","","","","NA"
"2015-09-09 22:00","2015","09","09","22:00","17.2","","13.2","","77","","7","","11","","24.1","","99.27","","","","","","Mostly Cloudy"
"2015-09-09 23:00","2015","09","09","23:00","15.7","","13.2","","85","","8","","6","","24.1","","99.29","","","","","","NA"
"2015-09-10 00:00","2015","09","10","00:00","15.8","","12.6","","81","","6","","3","","24.1","","99.29","","","","","","NA"
"2015-09-10 01:00","2015","09","10","01:00","15.6","","10.4","","71","","4","","8","","24.1","","99.27","","","","","","Mainly Clear"
"2015-09-10 02:00","2015","09","10","02:00","15.5","","10.7","","73","","3","","9","","24.1","","99.28","","","","","","NA"
"2015-09-10 03:00","2015","09","10","03:00","15.7","","10.7","","72","","35","","8","","24.1","","99.26","","","","","","NA"
"2015-09-10 04:00","2015","09","10","04:00","14.4","","11.9","","85","","35","","7","","24.1","","99.22","","","","","","Mainly Clear"
"2015-09-10 05:00","2015","09","10","05:00","13.6","","12.3","","92","","35","","4","","24.1","","99.19","","","","","","NA"
"2015-09-10 06:00","2015","09","10","06:00","13.8","","12.0","","89","","34","","8","","24.1","","99.26","","","","","","NA"
"2015-09-10 07:00","2015","09","10","07:00","13.8","","12.9","","94","","18","","3","","24.1","","99.26","","","","","","Mainly Clear"
"2015-09-10 08:00","2015","09","10","08:00","17.4","","14.0","","80","","36","","2","","24.1","","99.29","","","","","","NA"
"2015-09-10 09:00","2015","09","10","09:00","19.7","","13.0","","65","","10","","9","","24.1","","99.26","","","","","","NA"
"2015-09-10 10:00","2015","09","10","10:00","20.9","","11.7","","55","","11","","18","","24.1","","99.23","","","","","","Mainly Clear"
"2015-09-10 11:00","2015","09","10","11:00","22.4","","11.6","","50","","10","","12","","24.1","","99.21","","","","","","NA"
"2015-09-10 12:00","2015","09","10","12:00","23.1","","10.7","","45","","16","","10","","24.1","","99.16","","25","","","","NA"
"2015-09-10 13:00","2015","09","10","13:00","24.1","","13.2","","50","","8","","6","","24.1","","99.10","","27","","","","Mainly Clear"
"2015-09-10 14:00","2015","09","10","14:00","24.2","","12.0","","46","","10","","8","","24.1","","99.04","","26","","","","NA"
"2015-09-10 15:00","2015","09","10","15:00","24.4","","10.5","","41","","11","","7","","24.1","","98.98","","26","","","","NA"
"2015-09-10 16:00","2015","09","10","16:00","24.4","","12.9","","48","","19","","9","","24.1","","98.95","","27","","","","Mostly Cloudy"
"2015-09-10 17:00","2015","09","10","17:00","23.1","","15.5","","62","","21","","11","","24.1","","98.95","","27","","","","NA"
"2015-09-10 18:00","2015","09","10","18:00","21.8","","15.3","","66","","18","","9","","24.1","","98.92","","26","","","","NA"
"2015-09-10 19:00","2015","09","10","19:00","17.8","","15.5","","86","","16","","8","","24.1","","98.93","","","","","","Mainly Clear"
"2015-09-10 20:00","2015","09","10","20:00","16.9","","14.4","","85","","16","","11","","24.1","","98.96","","","","","","NA"
"2015-09-10 21:00","2015","09","10","21:00","16.2","","14.1","","87","","12","","5","","24.1","","98.94","","","","","","NA"
"2015-09-10 22:00","2015","09","10","22:00","16.6","","13.9","","84","","17","","3","","24.1","","98.95","","","","","","Clear"
"2015-09-10 23:00","2015","09","10","23:00","16.6","","14.5","","87","","26","","10","","24.1","","98.97","","","","","","NA"
"2015-09-11 00:00","2015","09","11","00:00","16.6","","14.8","","89","","27","","4","","24.1","","98.90","","","","","","NA"
"2015-09-11 01:00","2015","09","11","01:00","16.1","","14.5","","90","","27","","3","","24.1","","98.95","","","","","","Mainly Clear"
"2015-09-11 02:00","2015","09","11","02:00","15.9","","14.5","","91","","25","","7","","24.1","","98.95","","","","","","NA"
"2015-09-11 03:00","2015","09","11","03:00","16.2","","14.1","","87","","24","","5","","24.1","","98.90","","","","","","NA"
"2015-09-11 04:00","2015","09","11","04:00","15.3","","13.4","","88","","29","","5","","24.1","","98.90","","","","","","Mainly Clear"
"2015-09-11 05:00","2015","09","11","05:00","14.8","","13.4","","91","","26","","4","","24.1","","98.91","","","","","","NA"
"2015-09-11 06:00","2015","09","11","06:00","16.2","","13.5","","84","","35","","10","","24.1","","98.94","","","","","","NA"
"2015-09-11 07:00","2015","09","11","07:00","17.5","","15.3","","87","","1","","14","","24.1","","99.02","","","","","","Mostly Cloudy"
"2015-09-11 08:00","2015","09","11","08:00","18.7","","15.8","","83","","2","","18","","24.1","","99.02","","","","","","NA"
"2015-09-11 09:00","2015","09","11","09:00","18.5","","15.8","","84","","2","","23","","24.1","","99.03","","","","","","NA"
"2015-09-11 10:00","2015","09","11","10:00","19.4","","15.9","","80","","4","","23","","24.1","","99.07","","","","","","Cloudy"
"2015-09-11 11:00","2015","09","11","11:00","19.4","","15.3","","77","","3","","21","","24.1","","99.10","","","","","","NA"
"2015-09-11 12:00","2015","09","11","12:00","19.1","","15.6","","80","","36","","15","","19.3","","99.11","","","","","","Rain Showers"
"2015-09-11 13:00","2015","09","11","13:00","18.1","","15.4","","84","","35","","16","","16.1","","99.07","","","","","","Rain Showers"
"2015-09-11 14:00","2015","09","11","14:00","17.3","","15.5","","89","","35","","13","","16.1","","99.05","","","","","","Rain"
"2015-09-11 15:00","2015","09","11","15:00","17.1","","15.3","","89","","1","","12","","16.1","","99.05","","","","","","Rain"
"2015-09-11 16:00","2015","09","11","16:00","16.9","","15.6","","92","","3","","9","","19.3","","99.04","","","","","","Rain"
"2015-09-11 17:00","2015","09","11","17:00","16.3","","14.3","","88","","4","","18","","19.3","","99.04","","","","","","Rain"
"2015-09-11 18:00","2015","09","11","18:00","16.5","","13.8","","84","","2","","17","","24.1","","99.04","","","","","","NA"
"2015-09-11 19:00","2015","09","11","19:00","16.1","","12.5","","79","","36","","18","","24.1","","99.06","","","","","","Mostly Cloudy"
"2015-09-11 20:00","2015","09","11","20:00","15.9","","11.9","","77","","35","","18","","24.1","","99.10","","","","","","NA"
"2015-09-11 21:00","2015","09","11","21:00","15.7","","11.3","","75","","1","","18","","24.1","","99.11","","","","","","NA"
"2015-09-11 22:00","2015","09","11","22:00","15.7","","11.1","","74","","35","","18","","24.1","","99.10","","","","","","Cloudy"
"2015-09-11 23:00","2015","09","11","23:00","15.1","","10.8","","75","","36","","15","","24.1","","99.10","","","","","","NA"
"2015-09-12 00:00","2015","09","12","00:00","14.9","","10.8","","76","","36","","20","","24.1","","99.11","","","","","","Rain"
"2015-09-12 01:00","2015","09","12","01:00","14.4","","10.5","","77","","36","","19","","24.1","","99.06","","","","","","Mostly Cloudy"
"2015-09-12 02:00","2015","09","12","02:00","13.9","","9.6","","75","","36","","18","","24.1","","99.07","","","","","","NA"
"2015-09-12 03:00","2015","09","12","03:00"
"2015-09-12 04:00","2015","09","12","04:00","12.5","","8.4","","76","","35","","18","","24.1","","99.06","","","","","","Mainly Clear"
"2015-09-12 05:00","2015","09","12","05:00","11.6","","8.3","","80","","34","","14","","24.1","","99.04","","","","","","NA"
"2015-09-12 06:00","2015","09","12","06:00","11.1","","8.4","","83","","34","","21","","24.1","","99.07","","","","","","NA"
"2015-09-12 07:00","2015","09","12","07:00","11.6","","8.1","","79","","32","","20","","24.1","","99.05","","","","","","Mostly Cloudy"
"2015-09-12 08:00","2015","09","12","08:00","13.1","","9.0","","76","","32","","21","","24.1","","99.07","","","","","","NA"
"2015-09-12 09:00","2015","09","12","09:00","14.4","","8.6","","68","","33","","21","","24.1","","99.03","","","","","","NA"
"2015-09-12 10:00","2015","09","12","10:00","15.2","","10.0","","71","","34","","21","","24.1","","99.05","","","","","","Mostly Cloudy"
"2015-09-12 11:00","2015","09","12","11:00","15.9","","10.7","","71","","32","","19","","24.1","","99.06","","","","","","NA"
"2015-09-12 12:00","2015","09","12","12:00","16.5","","11.1","","70","","32","","20","","24.1","","99.01","","","","","","NA"
"2015-09-12 13:00","2015","09","12","13:00","16.6","","11.6","","72","","32","","27","","24.1","","98.99","","","","","","Mostly Cloudy"
"2015-09-12 14:00","2015","09","12","14:00","16.5","","12.1","","75","","4","","22","","24.1","","98.98","","","","","","NA"
"2015-09-12 15:00","2015","09","12","15:00","17.1","","10.3","","64","","36","","26","","24.1","","98.94","","","","","","NA"
"2015-09-12 16:00","2015","09","12","16:00","15.7","","9.7","","67","","34","","23","","24.1","","98.94","","","","","","Cloudy"
"2015-09-12 17:00","2015","09","12","17:00","15.8","","8.4","","61","","1","","21","","24.1","","98.95","","","","","","NA"
"2015-09-12 18:00","2015","09","12","18:00","15.4","","7.5","","59","","35","","21","","24.1","","98.99","","","","","","NA"
"2015-09-12 19:00","2015","09","12","19:00","14.4","","6.8","","60","","36","","18","","24.1","","99.01","","","","","","Mainly Clear"
"2015-09-12 20:00","2015","09","12","20:00","13.3","","6.5","","63","","35","","12","","24.1","","99.07","","","","","","NA"
"2015-09-12 21:00","2015","09","12","21:00","12.7","","5.9","","63","","35","","18","","24.1","","99.11","","","","","","NA"
"2015-09-12 22:00","2015","09","12","22:00","12.1","","5.8","","65","","34","","15","","24.1","","99.10","","","","","","Mainly Clear"
"2015-09-12 23:00","2015","09","12","23:00","11.4","","6.2","","70","","32","","14","","24.1","","99.09","","","","","","NA"
"2015-09-13 00:00","2015","09","13","00:00","11.0","","6.2","","72","","33","","14","","24.1","","99.08","","","","","","NA"
"2015-09-13 01:00","2015","09","13","01:00","9.8","","6.4","","79","","28","","14","","24.1","","99.05","","","","","","Clear"
"2015-09-13 02:00","2015","09","13","02:00","11.0","","6.0","","71","","31","","17","","24.1","","99.04","","","","","","NA"
"2015-09-13 03:00","2015","09","13","03:00","11.1","","6.3","","72","","31","","18","","24.1","","99.03","","","","","","NA"
"2015-09-13 04:00","2015","09","13","04:00","10.7","","6.1","","73","","31","","17","","24.1","","99.05","","","","","","Clear"
"2015-09-13 05:00","2015","09","13","05:00","10.6","","6.2","","74","","30","","19","","24.1","","99.06","","","","","","NA"
"2015-09-13 06:00","2015","09","13","06:00","8.8","","6.4","","85","","28","","14","","24.1","","99.10","","","","","","NA"
"2015-09-13 07:00","2015","09","13","07:00","10.1","","7.5","","84","","30","","9","","24.1","","99.15","","","","","","Mainly Clear"
"2015-09-13 08:00","2015","09","13","08:00","12.3","","8.2","","76","","32","","19","","24.1","","99.20","","","","","","NA"
"2015-09-13 09:00","2015","09","13","09:00","13.6","","7.2","","65","","33","","23","","24.1","","99.22","","","","","","NA"
"2015-09-13 10:00","2015","09","13","10:00","14.7","","5.6","","54","","33","","24","","24.1","","99.25","","","","","","Mostly Cloudy"
"2015-09-13 11:00","2015","09","13","11:00","15.4","","5.7","","52","","30","","18","","24.1","","99.24","","","","","","NA"
"2015-09-13 12:00","2015","09","13","12:00","16.2","","5.9","","50","","34","","20","","24.1","","99.22","","","","","","NA"
"2015-09-13 13:00","2015","09","13","13:00","17.6","","6.9","","49","","30","","23","","24.1","","99.22","","","","","","Mostly Cloudy"
"2015-09-13 14:00","2015","09","13","14:00","17.8","","6.1","","46","","32","","27","","24.1","","99.21","","","","","","NA"
"2015-09-13 15:00","2015","09","13","15:00","18.4","","6.7","","46","","31","","18","","24.1","","99.16","","","","","","NA"
"2015-09-13 16:00","2015","09","13","16:00","18.9","","6.2","","43","","30","","17","","24.1","","99.15","","","","","","Mainly Clear"
"2015-09-13 17:00","2015","09","13","17:00","19.0","","7.2","","46","","29","","16","","24.1","","99.13","","","","","","NA"
"2015-09-13 18:00","2015","09","13","18:00","18.2","","5.9","","44","","32","","17","","24.1","","99.16","","","","","","NA"
"2015-09-13 19:00","2015","09","13","19:00","16.1","","6.3","","52","","30","","10","","24.1","","99.19","","","","","","Clear"
"2015-09-13 20:00","2015","09","13","20:00","15.0","","6.6","","57","","29","","8","","24.1","","99.26","","","","","","NA"
"2015-09-13 21:00","2015","09","13","21:00","12.4","","7.3","","71","","26","","7","","24.1","","99.29","","","","","","NA"
"2015-09-13 22:00","2015","09","13","22:00","10.6","","7.7","","82","","24","","11","","24.1","","99.31","","","","","","Clear"
"2015-09-13 23:00","2015","09","13","23:00","10.5","","7.2","","80","","25","","14","","24.1","","99.36","","","","","","NA"
"2015-09-14 00:00","2015","09","14","00:00","11.2","","7.4","","77","","28","","12","","24.1","","99.39","","","","","","NA"
"2015-09-14 01:00","2015","09","14","01:00","11.5","","6.9","","73","","28","","9","","24.1","","99.41","","","","","","Clear"
"2015-09-14 02:00","2015","09","14","02:00","10.9","","6.9","","76","","28","","8","","24.1","","99.45","","","","","","NA"
"2015-09-14 03:00","2015","09","14","03:00","9.8","","7.1","","83","","26","","9","","24.1","","99.52","","","","","","NA"
"2015-09-14 04:00","2015","09","14","04:00","8.8","","7.3","","90","","24","","4","","24.1","","99.56","","","","","","Clear"
"2015-09-14 05:00","2015","09","14","05:00","8.5","","7.1","","91","","23","","8","","24.1","","99.60","","","","","","NA"
"2015-09-14 06:00","2015","09","14","06:00","8.7","","7.2","","90","","22","","11","","24.1","","99.66","","","","","","NA"
"2015-09-14 07:00","2015","09","14","07:00","10.2","","8.5","","89","","22","","8","","24.1","","99.73","","","","","","Clear"
"2015-09-14 08:00","2015","09","14","08:00","13.9","","9.6","","75","","21","","9","","24.1","","99.77","","","","","","NA"
"2015-09-14 09:00","2015","09","14","09:00","16.8","","10.3","","65","","22","","12","","24.1","","99.81","","","","","","NA"
"2015-09-14 10:00","2015","09","14","10:00","18.9","","10.0","","56","","21","","15","","24.1","","99.85","","","","","","Clear"
"2015-09-14 11:00","2015","09","14","11:00","20.7","","10.3","","51","","22","","17","","24.1","","99.87","","","","","","NA"
"2015-09-14 12:00","2015","09","14","12:00","21.8","","10.1","","47","","21","","17","","24.1","","99.85","","","","","","NA"
"2015-09-14 13:00","2015","09","14","13:00","22.7","","11.0","","47","","25","","17","","24.1","","99.83","","","","","","Clear"
"2015-09-14 14:00","2015","09","14","14:00","23.4","","10.3","","43","","22","","21","","24.1","","99.79","","25","","","","NA"
"2015-09-14 15:00","2015","09","14","15:00","23.6","","10.5","","43","","20","","22","","24.1","","99.76","","25","","","","NA"
"2015-09-14 16:00","2015","09","14","16:00","23.5","","10.7","","44","","20","","22","","24.1","","99.74","","25","","","","Clear"
"2015-09-14 17:00","2015","09","14","17:00","23.1","","10.4","","44","","20","","26","","24.1","","99.72","","25","","","","NA"
"2015-09-14 18:00","2015","09","14","18:00","22.0","","10.6","","48","","20","","17","","24.1","","99.70","","","","","","NA"
"2015-09-14 19:00","2015","09","14","19:00","19.1","","11.7","","62","","19","","13","","24.1","","99.73","","","","","","Mainly Clear"
"2015-09-14 20:00","2015","09","14","20:00","17.2","","12.8","","75","","20","","10","","24.1","","99.82","","","","","","NA"
"2015-09-14 21:00","2015","09","14","21:00","17.1","","12.9","","76","","19","","12","","24.1","","99.85","","","","","","NA"
"2015-09-14 22:00","2015","09","14","22:00","16.2","","13.5","","84","","19","","9","","24.1","","99.88","","","","","","Mainly Clear"
"2015-09-14 23:00","2015","09","14","23:00","15.7","","13.2","","85","","18","","3","","24.1","","99.92","","","","","","NA"
"2015-09-15 00:00","2015","09","15","00:00","14.6","","13.0","","90","","20","","5","","24.1","","99.96","","","","","","NA"
"2015-09-15 01:00","2015","09","15","01:00","16.1","","13.6","","85","","19","","10","","24.1","","100.01","","","","","","Mostly Cloudy"
"2015-09-15 02:00","2015","09","15","02:00","16.1","","13.1","","82","","21","","11","","24.1","","100.06","","","","","","NA"
"2015-09-15 03:00","2015","09","15","03:00","15.6","","13.6","","88","","21","","9","","24.1","","100.11","","","","","","NA"
"2015-09-15 04:00","2015","09","15","04:00","16.5","","12.1","","75","","23","","12","","24.1","","100.18","","","","","","Mostly Cloudy"
"2015-09-15 05:00","2015","09","15","05:00","16.7","","11.7","","72","","22","","11","","24.1","","100.23","","","","","","NA"
"2015-09-15 06:00","2015","09","15","06:00","16.0","","11.6","","75","","22","","12","","24.1","","100.27","","","","","","NA"
"2015-09-15 07:00","2015","09","15","07:00","16.0","","11.6","","75","","21","","12","","24.1","","100.31","","","","","","Mostly Cloudy"
"2015-09-15 08:00","2015","09","15","08:00","18.6","","12.0","","65","","22","","16","","24.1","","100.34","","","","","","NA"
"2015-09-15 09:00","2015","09","15","09:00","20.1","","12.2","","60","","22","","19","","24.1","","100.36","","","","","","NA"
"2015-09-15 10:00","2015","09","15","10:00","21.8","","13.6","","59","","22","","18","","24.1","","100.37","","25","","","","Cloudy"
"2015-09-15 11:00","2015","09","15","11:00","23.0","","13.9","","56","","22","","19","","24.1","","100.36","","26","","","","NA"
"2015-09-15 12:00","2015","09","15","12:00","24.0","","14.8","","56","","22","","18","","24.1","","100.33","","28","","","","NA"
"2015-09-15 13:00","2015","09","15","13:00","25.1","","15.0","","53","","20","","20","","24.1","","100.30","","29","","","","Mostly Cloudy"
"2015-09-15 14:00","2015","09","15","14:00","25.4","","13.1","","46","","22","","23","","24.1","","100.27","","28","","","","NA"
"2015-09-15 15:00","2015","09","15","15:00","25.8","","13.8","","47","","19","","20","","24.1","","100.24","","29","","","","NA"
"2015-09-15 16:00","2015","09","15","16:00","25.8","","13.5","","46","","18","","22","","24.1","","100.23","","29","","","","Mainly Clear"
"2015-09-15 17:00","2015","09","15","17:00","25.3","","13.7","","48","","18","","16","","24.1","","100.24","","28","","","","NA"
"2015-09-15 18:00","2015","09","15","18:00","23.0","","14.7","","59","","18","","12","","24.1","","100.25","","27","","","","NA"
"2015-09-15 19:00","2015","09","15","19:00","18.9","","15.0","","78","","16","","13","","24.1","","100.27","","","","","","Mostly Cloudy"
"2015-09-15 20:00","2015","09","15","20:00","18.3","","14.7","","79","","16","","9","","24.1","","100.29","","","","","","NA"
"2015-09-15 21:00","2015","09","15","21:00","16.9","","14.4","","85","","16","","11","","24.1","","100.30","","","","","","NA"
"2015-09-15 22:00","2015","09","15","22:00","16.5","","14.7","","89","","16","","10","","24.1","","100.31","","","","","","Mainly Clear"
"2015-09-15 23:00","2015","09","15","23:00","16.0","","14.9","","93","","17","","9","","24.1","","100.30","","","","","","NA"
"2015-09-16 00:00","2015","09","16","00:00","16.3","","15.4","","94","","18","","8","","24.1","","100.31","","","","","","NA"
"2015-09-16 01:00","2015","09","16","01:00","15.7","","14.8","","94","","17","","8","","24.1","","100.30","","","","","","Mainly Clear"
"2015-09-16 02:00","2015","09","16","02:00","14.9","","14.3","","96","","17","","5","","24.1","","100.31","","","","","","NA"
"2015-09-16 03:00","2015","09","16","03:00","14.4","","13.1","","92","","19","","4","","24.1","","100.33","","","","","","NA"
"2015-09-16 04:00","2015","09","16","04:00","14.4","","13.5","","94","","","","0","","24.1","","100.35","","","","","","Clear"
"2015-09-16 05:00","2015","09","16","05:00","14.9","","13.6","","92","","21","","5","","24.1","","100.36","","","","","","NA"
"2015-09-16 06:00","2015","09","16","06:00","14.1","","13.3","","95","","20","","4","","24.1","","100.36","","","","","","NA"
"2015-09-16 07:00","2015","09","16","07:00","13.5","","12.2","","92","","16","","7","","24.1","","100.37","","","","","","Mainly Clear"
"2015-09-16 08:00","2015","09","16","08:00","18.0","","16.0","","88","","14","","3","","24.1","","100.39","","","","","","NA"
"2015-09-16 09:00","2015","09","16","09:00","20.8","","15.7","","72","","23","","12","","24.1","","100.44","","25","","","","NA"
"2015-09-16 10:00","2015","09","16","10:00","22.6","","15.8","","65","","21","","10","","24.1","","100.43","","27","","","","Mainly Clear"
"2015-09-16 11:00","2015","09","16","11:00","24.2","","15.0","","56","","20","","7","","24.1","","100.39","","28","","","","NA"
"2015-09-16 12:00","2015","09","16","12:00","25.7","","15.6","","53","","21","","9","","24.1","","100.32","","30","","","","NA"
"2015-09-16 13:00","2015","09","16","13:00","26.1","","14.4","","48","","21","","5","","24.1","","100.25","","30","","","","Mainly Clear"
"2015-09-16 14:00","2015","09","16","14:00","26.6","","14.2","","46","","21","","8","","24.1","","100.18","","30","","","","NA"
"2015-09-16 15:00","2015","09","16","15:00","26.2","","12.9","","43","","18","","17","","24.1","","100.10","","29","","","","NA"
"2015-09-16 16:00","2015","09","16","16:00","26.0","","13.7","","46","","18","","18","","24.1","","100.04","","29","","","","Mainly Clear"
"2015-09-16 17:00","2015","09","16","17:00","25.3","","14.0","","49","","19","","15","","24.1","","99.99","","29","","","","NA"
"2015-09-16 18:00","2015","09","16","18:00","22.4","","15.6","","65","","16","","9","","24.1","","99.98","","27","","","","NA"
"2015-09-16 19:00","2015","09","16","19:00","19.3","","14.8","","75","","16","","10","","24.1","","99.95","","","","","","Clear"
"2015-09-16 20:00","2015","09","16","20:00","18.1","","14.3","","78","","16","","8","","24.1","","99.97","","","","","","NA"
"2015-09-16 21:00","2015","09","16","21:00","15.7","","13.6","","87","","15","","13","","24.1","","99.95","","","","","","NA"
"2015-09-16 22:00","2015","09","16","22:00","16.0","","13.9","","87","","16","","13","","24.1","","99.92","","","","","","Clear"
"2015-09-16 23:00","2015","09","16","23:00","16.0","","14.7","","92","","17","","10","","24.1","","99.92","","","","","","NA"
"2015-09-17 00:00","2015","09","17","00:00","15.9","","15.0","","94","","17","","10","","24.1","","99.90","","","","","","NA"
"2015-09-17 01:00","2015","09","17","01:00","15.6","","14.8","","95","","19","","8","","24.1","","99.89","","","","","","Clear"
"2015-09-17 02:00","2015","09","17","02:00","14.5","","14.2","","98","","15","","7","","24.1","","99.88","","","","","","NA"
"2015-09-17 03:00","2015","09","17","03:00","15.2","","15.1","","99","","0","","1","","24.1","","99.89","","","","","","NA"
"2015-09-17 04:00","2015","09","17","04:00","14.0","","13.9","","99","","20","","5","","24.1","","99.88","","","","","","Clear"
"2015-09-17 05:00","2015","09","17","05:00","14.2","","13.7","","97","","21","","8","","24.1","","99.88","","","","","","NA"
"2015-09-17 06:00","2015","09","17","06:00","13.4","","12.8","","96","","21","","7","","16.1","","99.88","","","","","","NA"
"2015-09-17 07:00","2015","09","17","07:00","14.7","","13.4","","92","","22","","10","","16.1","","99.87","","","","","","Clear"
"2015-09-17 08:00","2015","09","17","08:00","18.5","","15.4","","82","","22","","9","","16.1","","99.88","","","","","","NA"
"2015-09-17 09:00","2015","09","17","09:00","20.9","","15.3","","70","","21","","10","","19.3","","99.86","","25","","","","NA"
"2015-09-17 10:00","2015","09","17","10:00","23.2","","16.1","","64","","20","","12","","19.3","","99.80","","28","","","","Clear"
"2015-09-17 11:00","2015","09","17","11:00","24.6","","16.2","","59","","20","","16","","24.1","","99.77","","29","","","","NA"
"2015-09-17 12:00","2015","09","17","12:00","25.5","","15.4","","53","","21","","20","","24.1","","99.70","","30","","","","NA"
"2015-09-17 13:00","2015","09","17","13:00","26.0","","14.7","","49","","21","","20","","24.1","","99.63","","30","","","","Clear"
"2015-09-17 14:00","2015","09","17","14:00","26.2","","14.5","","48","","20","","24","","24.1","","99.57","","30","","","","NA"
"2015-09-17 15:00","2015","09","17","15:00","26.6","","14.9","","48","","21","","21","","24.1","","99.51","","31","","","","NA"
"2015-09-17 16:00","2015","09","17","16:00","26.4","","14.1","","46","","21","","17","","24.1","","99.44","","30","","","","Mainly Clear"
"2015-09-17 17:00","2015","09","17","17:00","26.2","","13.9","","46","","20","","21","","24.1","","99.38","","30","","","","NA"
"2015-09-17 18:00","2015","09","17","18:00","23.1","","16.0","","64","","16","","12","","24.1","","99.33","","28","","","","NA"
"2015-09-17 19:00","2015","09","17","19:00","19.7","","15.8","","78","","17","","10","","24.1","","99.32","","","","","","Mainly Clear"
"2015-09-17 20:00","2015","09","17","20:00","18.3","","15.6","","84","","16","","14","","24.1","","99.30","","","","","","NA"
"2015-09-17 21:00","2015","09","17","21:00","17.6","","15.8","","89","","16","","10","","24.1","","99.29","","","","","","NA"
"2015-09-17 22:00","2015","09","17","22:00","17.2","","16.2","","94","","17","","9","","24.1","","99.28","","","","","","Clear"
"2015-09-17 23:00","2015","09","17","23:00","16.0","","15.1","","94","","16","","11","","24.1","","99.21","","","","","","NA"
"2015-09-18 00:00","2015","09","18","00:00","17.4","","16.1","","92","","18","","8","","24.1","","99.21","","","","","","NA"
"2015-09-18 01:00","2015","09","18","01:00","16.5","","14.5","","88","","20","","13","","24.1","","99.21","","","","","","Clear"
"2015-09-18 02:00","2015","09","18","02:00","17.3","","15.3","","88","","20","","12","","24.1","","99.19","","","","","","NA"
"2015-09-18 03:00","2015","09","18","03:00","17.7","","15.9","","89","","21","","11","","24.1","","99.14","","","","","","NA"
"2015-09-18 04:00","2015","09","18","04:00","17.9","","15.9","","88","","19","","8","","24.1","","99.09","","","","","","Mostly Cloudy"
"2015-09-18 05:00","2015","09","18","05:00","18.0","","15.5","","85","","18","","10","","24.1","","99.04","","","","","","NA"
"2015-09-18 06:00","2015","09","18","06:00","19.0","","15.1","","78","","19","","14","","24.1","","99.04","","","","","","NA"
"2015-09-18 07:00","2015","09","18","07:00","19.2","","15.1","","77","","19","","17","","24.1","","99.03","","","","","","Cloudy"
"2015-09-18 08:00","2015","09","18","08:00","20.4","","15.9","","75","","20","","20","","19.3","","99.03","","25","","","","NA"
"2015-09-18 09:00","2015","09","18","09:00","20.8","","15.7","","72","","19","","26","","19.3","","98.95","","25","","","","NA"
"2015-09-18 10:00","2015","09","18","10:00","21.5","","16.3","","72","","23","","18","","19.3","","99.00","","26","","","","Cloudy"
"2015-09-18 11:00","2015","09","18","11:00","20.6","","16.1","","75","","25","","14","","19.3","","99.05","","25","","","","NA"
"2015-09-18 12:00","2015","09","18","12:00","21.1","","16.8","","76","","24","","13","","19.3","","99.06","","26","","","","NA"
"2015-09-18 13:00","2015","09","18","13:00","22.1","","17.3","","74","","20","","14","","19.3","","99.01","","28","","","","Mostly Cloudy"
"2015-09-18 14:00","2015","09","18","14:00","23.4","","17.9","","71","","24","","12","","19.3","","98.99","","29","","","","NA"
"2015-09-18 15:00","2015","09","18","15:00","24.2","","18.7","","71","","25","","10","","24.1","","98.94","","31","","","","NA"
"2015-09-18 16:00","2015","09","18","16:00","24.8","","18.8","","69","","16","","7","","24.1","","98.92","","31","","","","Mainly Clear"
"2015-09-18 17:00","2015","09","18","17:00","24.4","","19.1","","72","","20","","8","","24.1","","98.90","","31","","","","NA"
"2015-09-18 18:00","2015","09","18","18:00","22.9","","18.5","","76","","15","","14","","24.1","","98.85","","29","","","","NA"
"2015-09-18 19:00","2015","09","18","19:00","21.0","","18.2","","84","","19","","8","","24.1","","98.93","","27","","","","Cloudy"
"2015-09-18 20:00","2015","09","18","20:00","19.6","","18.5","","93","","14","","9","","24.1","","98.89","","","","","","NA"
"2015-09-18 21:00","2015","09","18","21:00","20.4","","18.6","","89","","15","","8","","24.1","","98.87","","27","","","","NA"
"2015-09-18 22:00","2015","09","18","22:00","21.2","","18.3","","83","","16","","13","","24.1","","98.84","","27","","","","Cloudy"
"2015-09-18 23:00","2015","09","18","23:00","20.9","","19.4","","91","","15","","14","","19.3","","98.78","","28","","","","NA"
"2015-09-19 00:00","2015","09","19","00:00","20.2","","19.2","","94","","18","","20","","11.3","","98.73","","27","","","","Thunderstorms,Rain Showers"
"2015-09-19 01:00","2015","09","19","01:00","20.1","","19.5","","96","","18","","16","","16.1","","98.63","","27","","","","Rain Showers"
"2015-09-19 02:00","2015","09","19","02:00","19.3","","18.8","","97","","15","","14","","19.3","","98.46","","","","","","NA"
"2015-09-19 03:00","2015","09","19","03:00","20.1","","19.5","","96","","19","","9","","19.3","","98.45","","27","","","","NA"
"2015-09-19 04:00","2015","09","19","04:00","20.0","","19.5","","97","","23","","11","","19.3","","98.51","","27","","","","Cloudy"
"2015-09-19 05:00","2015","09","19","05:00","20.0","","18.9","","93","","23","","26","","19.3","","98.46","","27","","","","Rain Showers"
"2015-09-19 06:00","2015","09","19","06:00","19.5","","18.4","","93","","19","","22","","19.3","","98.31","","","","","","Rain Showers"
"2015-09-19 07:00","2015","09","19","07:00","19.7","","18.7","","94","","21","","16","","24.1","","98.40","","","","","","Rain Showers"
"2015-09-19 08:00","2015","09","19","08:00","20.1","","18.6","","91","","23","","24","","12.9","","98.42","","27","","","","Rain Showers"
"2015-09-19 09:00","2015","09","19","09:00","21.0","","19.7","","92","","22","","24","","19.3","","98.39","","28","","","","NA"
"2015-09-19 10:00","2015","09","19","10:00","21.2","","19.5","","90","","23","","23","","12.9","","98.40","","28","","","","Cloudy"
"2015-09-19 11:00","2015","09","19","11:00","21.5","","20.2","","92","","25","","19","","19.3","","98.48","","29","","","","NA"
"2015-09-19 12:00","2015","09","19","12:00","21.2","","17.5","","79","","29","","28","","24.1","","98.54","","27","","","","NA"
"2015-09-19 13:00","2015","09","19","13:00","19.5","","14.0","","70","","32","","36","","24.1","","98.73","","","","","","Mostly Cloudy"
"2015-09-19 14:00","2015","09","19","14:00","19.7","","13.5","","67","","33","","23","","24.1","","98.81","","","","","","NA"
"2015-09-19 15:00","2015","09","19","15:00","20.8","","12.1","","57","","31","","32","","24.1","","98.91","","","","","","NA"
"2015-09-19 16:00","2015","09","19","16:00","20.4","","11.7","","57","","33","","25","","24.1","","99.02","","","","","","Mostly Cloudy"
"2015-09-19 17:00","2015","09","19","17:00","19.2","","10.6","","57","","33","","25","","24.1","","99.12","","","","","","NA"
"2015-09-19 18:00","2015","09","19","18:00","18.2","","10.7","","61","","33","","14","","24.1","","99.21","","","","","","NA"
"2015-09-19 19:00","2015","09","19","19:00","17.4","","9.1","","58","","33","","18","","24.1","","99.30","","","","","","Mainly Clear"
"2015-09-19 20:00","2015","09","19","20:00","16.0","","9.5","","65","","33","","6","","24.1","","99.40","","","","","","NA"
"2015-09-19 21:00","2015","09","19","21:00","15.6","","10.0","","69","","34","","7","","24.1","","99.47","","","","","","NA"
"2015-09-19 22:00","2015","09","19","22:00","14.9","","10.2","","73","","33","","10","","24.1","","99.54","","","","","","Clear"
"2015-09-19 23:00","2015","09","19","23:00","14.9","","9.3","","69","","33","","14","","24.1","","99.57","","","","","","NA"
"2015-09-20 00:00","2015","09","20","00:00","14.1","","8.6","","69","","34","","13","","24.1","","99.61","","","","","","NA"
"2015-09-20 01:00","2015","09","20","01:00","13.3","","8.2","","71","","35","","13","","24.1","","99.62","","","","","","Mainly Clear"
"2015-09-20 02:00","2015","09","20","02:00","12.5","","8.2","","75","","1","","8","","24.1","","99.67","","","","","","NA"
"2015-09-20 03:00","2015","09","20","03:00","12.1","","8.2","","77","","35","","8","","24.1","","99.73","","","","","","NA"
"2015-09-20 04:00","2015","09","20","04:00","11.5","","8.2","","80","","34","","8","","24.1","","99.78","","","","","","Mainly Clear"
"2015-09-20 05:00","2015","09","20","05:00","9.3","","7.8","","90","","34","","4","","24.1","","99.84","","","","","","NA"
"2015-09-20 06:00","2015","09","20","06:00","10.6","","8.2","","85","","34","","6","","24.1","","99.88","","","","","","NA"
"2015-09-20 07:00","2015","09","20","07:00","11.2","","8.8","","85","","33","","8","","24.1","","99.96","","","","","","Mainly Clear"
"2015-09-20 08:00","2015","09","20","08:00","14.1","","10.2","","77","","2","","10","","24.1","","100.02","","","","","","NA"
"2015-09-20 09:00","2015","09","20","09:00","16.5","","9.3","","62","","4","","12","","24.1","","100.04","","","","","","NA"
"2015-09-20 10:00","2015","09","20","10:00","18.0","","10.9","","63","","2","","13","","24.1","","100.08","","","","","","Mostly Cloudy"
"2015-09-20 11:00","2015","09","20","11:00","18.5","","12.6","","68","","5","","12","","24.1","","100.06","","","","","","NA"
"2015-09-20 12:00","2015","09","20","12:00","18.9","","10.6","","58","","10","","10","","24.1","","100.05","","","","","","NA"
"2015-09-20 13:00","2015","09","20","13:00","18.9","","11.3","","61","","6","","10","","24.1","","100.02","","","","","","Mostly Cloudy"
"2015-09-20 14:00","2015","09","20","14:00","19.7","","10.0","","53","","4","","17","","24.1","","99.94","","","","","","NA"
"2015-09-20 15:00","2015","09","20","15:00","19.6","","11.5","","59","","3","","13","","24.1","","99.89","","","","","","NA"
"2015-09-20 16:00","2015","09","20","16:00","19.7","","10.5","","55","","5","","15","","24.1","","99.89","","","","","","Mostly Cloudy"
"2015-09-20 17:00","2015","09","20","17:00","19.0","","11.2","","60","","3","","9","","24.1","","99.86","","","","","","NA"
"2015-09-20 18:00","2015","09","20","18:00","17.4","","10.6","","64","","5","","9","","24.1","","99.83","","","","","","NA"
"2015-09-20 19:00","2015","09","20","19:00","15.1","","11.1","","77","","13","","7","","24.1","","99.83","","","","","","Mostly Cloudy"
"2015-09-20 20:00","2015","09","20","20:00","12.9","","11.5","","91","","14","","5","","24.1","","99.86","","","","","","NA"
"2015-09-20 21:00","2015","09","20","21:00","14.4","","11.4","","82","","7","","4","","24.1","","99.90","","","","","","NA"
"2015-09-20 22:00","2015","09","20","22:00","14.2","","11.6","","84","","2","","4","","24.1","","99.91","","","","","","Mostly Cloudy"
"2015-09-20 23:00","2015","09","20","23:00","13.9","","11.5","","85","","3","","5","","24.1","","99.90","","","","","","NA"
"2015-09-21 00:00","2015","09","21","00:00","11.9","","11.0","","94","","5","","4","","24.1","","99.89","","","","","","NA"
"2015-09-21 01:00","2015","09","21","01:00","11.9","","10.7","","92","","4","","7","","24.1","","99.86","","","","","","Mostly Cloudy"
"2015-09-21 02:00","2015","09","21","02:00","13.1","","11.0","","87","","2","","7","","24.1","","99.85","","","","","","NA"
"2015-09-21 03:00","2015","09","21","03:00","12.1","","10.7","","91","","2","","4","","24.1","","99.84","","","","","","NA"
"2015-09-21 04:00","2015","09","21","04:00","11.9","","10.5","","91","","5","","10","","24.1","","99.82","","","","","","Mainly Clear"
"2015-09-21 05:00","2015","09","21","05:00","11.6","","9.5","","87","","3","","5","","24.1","","99.86","","","","","","NA"
"2015-09-21 06:00","2015","09","21","06:00","12.2","","9.8","","85","","5","","3","","24.1","","99.90","","","","","","NA"
"2015-09-21 07:00","2015","09","21","07:00","13.0","","10.4","","84","","6","","13","","24.1","","99.93","","","","","","Mainly Clear"
"2015-09-21 08:00","2015","09","21","08:00","16.4","","13.0","","80","","7","","18","","24.1","","99.94","","","","","","NA"
"2015-09-21 09:00","2015","09","21","09:00","17.8","","13.4","","75","","8","","21","","24.1","","99.96","","","","","","NA"
"2015-09-21 10:00","2015","09","21","10:00","18.8","","13.7","","72","","7","","25","","24.1","","99.97","","","","","","Mainly Clear"
"2015-09-21 11:00","2015","09","21","11:00","19.6","","14.5","","72","","5","","18","","24.1","","99.98","","","","","","NA"
"2015-09-21 12:00","2015","09","21","12:00","20.2","","12.5","","61","","5","","22","","24.1","","99.95","","","","","","NA"
"2015-09-21 13:00","2015","09","21","13:00","20.7","","10.0","","50","","5","","27","","24.1","","99.89","","","","","","Mainly Clear"
"2015-09-21 14:00","2015","09","21","14:00","21.0","","10.9","","52","","4","","23","","24.1","","99.82","","","","","","NA"
"2015-09-21 15:00","2015","09","21","15:00","20.8","","9.5","","48","","6","","21","","24.1","","99.81","","","","","","NA"
"2015-09-21 16:00","2015","09","21","16:00","20.9","","9.3","","47","","7","","17","","24.1","","99.79","","","","","","Clear"
"2015-09-21 17:00","2015","09","21","17:00","20.2","","9.0","","48","","7","","9","","24.1","","99.78","","","","","","NA"
"2015-09-21 18:00","2015","09","21","18:00","18.5","","10.4","","59","","5","","5","","24.1","","99.80","","","","","","NA"
"2015-09-21 19:00","2015","09","21","19:00","13.8","","10.1","","78","","14","","10","","24.1","","99.83","","","","","","Clear"
"2015-09-21 20:00","2015","09","21","20:00","12.9","","9.9","","82","","14","","5","","24.1","","99.86","","","","","","NA"
"2015-09-21 21:00","2015","09","21","21:00","14.4","","10.1","","75","","36","","1","","24.1","","99.87","","","","","","NA"
"2015-09-21 22:00","2015","09","21","22:00","11.8","","9.9","","88","","35","","3","","24.1","","99.87","","","","","","Clear"
"2015-09-21 23:00","2015","09","21","23:00","12.5","","9.7","","83","","36","","2","","24.1","","99.86","","","","","","NA"
"2015-09-22 00:00","2015","09","22","00:00","12.5","","9.5","","82","","36","","4","","24.1","","99.83","","","","","","NA"
"2015-09-22 01:00","2015","09","22","01:00","11.4","","9.8","","90","","1","","5","","24.1","","99.83","","","","","","Clear"
"2015-09-22 02:00","2015","09","22","02:00","11.7","","9.5","","86","","5","","3","","24.1","","99.83","","","","","","NA"
"2015-09-22 03:00","2015","09","22","03:00","11.9","","10.8","","93","","35","","5","","24.1","","99.86","","","","","","NA"
"2015-09-22 04:00","2015","09","22","04:00","13.1","","12.6","","97","","36","","6","","24.1","","99.89","","","","","","Clear"
"2015-09-22 05:00","2015","09","22","05:00","12.4","","12.1","","98","","36","","8","","24.1","","99.96","","","","","","NA"
"2015-09-22 06:00","2015","09","22","06:00","11.9","","11.6","","98","","35","","8","","24.1","","100.03","","","","","","NA"
"2015-09-22 07:00","2015","09","22","07:00","12.5","","12.0","","97","","35","","7","","24.1","","100.09","","","","","","Clear"
"2015-09-22 08:00","2015","09","22","08:00","15.7","","14.3","","91","","4","","8","","24.1","","100.12","","","","","","NA"
"2015-09-22 09:00","2015","09","22","09:00","18.5","","16.0","","85","","4","","10","","24.1","","100.14","","","","","","NA"
"2015-09-22 10:00","2015","09","22","10:00","20.0","","15.9","","77","","4","","9","","24.1","","100.16","","25","","","","Mainly Clear"
"2015-09-22 11:00","2015","09","22","11:00","20.7","","15.3","","71","","4","","10","","24.1","","100.16","","25","","","","NA"
"2015-09-22 12:00","2015","09","22","12:00","21.0","","13.8","","63","","7","","8","","24.1","","100.13","","","","","","NA"
"2015-09-22 13:00","2015","09","22","13:00","21.3","","12.6","","57","","17","","4","","24.1","","100.10","","","","","","Mainly Clear"
"2015-09-22 14:00","2015","09","22","14:00","21.8","","10.1","","47","","12","","5","","24.1","","100.05","","","","","","NA"
"2015-09-22 15:00","2015","09","22","15:00","22.6","","8.9","","41","","36","","2","","24.1","","100.01","","","","","","NA"
"2015-09-22 16:00","2015","09","22","16:00","23.1","","6.6","","34","","33","","5","","24.1","","100.01","","","","","","Mainly Clear"
"2015-09-22 17:00","2015","09","22","17:00","21.9","","15.4","","66","","16","","10","","24.1","","100.02","","26","","","","NA"
"2015-09-22 18:00","2015","09","22","18:00","19.4","","16.3","","82","","15","","7","","24.1","","100.05","","","","","","NA"
"2015-09-22 19:00","2015","09","22","19:00","16.0","","14.2","","89","","17","","8","","24.1","","100.07","","","","","","Clear"
"2015-09-22 20:00","2015","09","22","20:00","15.9","","13.9","","88","","17","","7","","24.1","","100.12","","","","","","NA"
"2015-09-22 21:00","2015","09","22","21:00","14.6","","13.7","","94","","13","","4","","24.1","","100.14","","","","","","NA"
"2015-09-22 22:00","2015","09","22","22:00","14.0","","13.5","","97","","13","","3","","24.1","","100.16","","","","","","Clear"
"2015-09-22 23:00","2015","09","22","23:00","12.9","","12.9","","100","","36","","2","","24.1","","100.19","","","","","","NA"
"2015-09-23 00:00","2015","09","23","00:00","12.1","","12.1","","100","","36","","1","","19.3","","100.18","","","","","","NA"
"2015-09-23 01:00","2015","09","23","01:00","12.6","","12.6","","100","","33","","3","","19.3","","100.18","","","","","","Mainly Clear"
"2015-09-23 02:00","2015","09","23","02:00","11.0","","11.0","","100","","7","","3","","19.3","","100.17","","","","","","NA"
"2015-09-23 03:00","2015","09","23","03:00","11.0","","11.0","","100","","30","","4","","0.8","","100.20","","","","","","Fog"
"2015-09-23 04:00","2015","09","23","04:00","11.2","","11.1","","99","","32","","4","","12.9","","100.20","","","","","","Clear"
"2015-09-23 05:00","2015","09","23","05:00","9.3","","9.3","","100","","5","","5","","3.2","","100.22","","","","","","Fog"
"2015-09-23 06:00","2015","09","23","06:00","10.3","","10.3","","100","","36","","1","","9.7","","100.26","","","","","","Fog"
"2015-09-23 07:00","2015","09","23","07:00","9.7","","9.7","","100","","","","0","","8.1","","100.35","","","","","","Fog"
"2015-09-23 08:00","2015","09","23","08:00","13.9","","13.9","","100","","15","","3","","8.1","","100.39","","","","","","Fog"
"2015-09-23 09:00","2015","09","23","09:00","18.7","","17.6","","93","","5","","8","","9.7","","100.45","","","","","","Fog"
"2015-09-23 10:00","2015","09","23","10:00","20.3","","16.6","","79","","6","","12","","16.1","","100.44","","25","","","","Clear"
"2015-09-23 11:00","2015","09","23","11:00","21.7","","15.6","","68","","4","","13","","19.3","","100.37","","26","","","","NA"
"2015-09-23 12:00","2015","09","23","12:00","22.2","","13.7","","58","","4","","10","","24.1","","100.36","","25","","","","NA"
"2015-09-23 13:00","2015","09","23","13:00","23.2","","14.4","","57","","4","","16","","24.1","","100.29","","27","","","","Clear"
"2015-09-23 14:00","2015","09","23","14:00","23.4","","12.9","","51","","4","","10","","24.1","","100.27","","26","","","","NA"
"2015-09-23 15:00","2015","09","23","15:00","24.0","","13.1","","50","","4","","12","","24.1","","100.22","","27","","","","NA"
"2015-09-23 16:00","2015","09","23","16:00","23.8","","12.9","","50","","5","","11","","24.1","","100.19","","27","","","","Clear"
"2015-09-23 17:00","2015","09","23","17:00","23.5","","12.9","","51","","4","","8","","24.1","","100.19","","26","","","","NA"
"2015-09-23 18:00","2015","09","23","18:00","21.4","","13.7","","61","","7","","8","","24.1","","100.20","","25","","","","NA"
"2015-09-23 19:00","2015","09","23","19:00","16.1","","12.7","","80","","14","","9","","24.1","","100.23","","","","","","Clear"
"2015-09-23 20:00","2015","09","23","20:00","16.2","","11.4","","73","","9","","6","","24.1","","100.26","","","","","","NA"
"2015-09-23 21:00","2015","09","23","21:00","14.8","","11.6","","81","","9","","6","","24.1","","100.24","","","","","","NA"
"2015-09-23 22:00","2015","09","23","22:00","15.4","","11.4","","77","","4","","4","","24.1","","100.24","","","","","","Mainly Clear"
"2015-09-23 23:00","2015","09","23","23:00","14.4","","11.2","","81","","2","","5","","24.1","","100.27","","","","","","NA"
"2015-09-24 00:00","2015","09","24","00:00","12.7","","11.0","","89","","36","","4","","24.1","","100.27","","","","","","NA"
"2015-09-24 01:00","2015","09","24","01:00","13.3","","10.9","","85","","1","","5","","24.1","","100.25","","","","","","Clear"
"2015-09-24 02:00","2015","09","24","02:00","13.7","","12.9","","95","","2","","5","","24.1","","100.26","","","","","","NA"
"2015-09-24 03:00","2015","09","24","03:00","13.8","","13.0","","95","","2","","9","","24.1","","100.24","","","","","","NA"
"2015-09-24 04:00","2015","09","24","04:00","13.2","","12.7","","97","","1","","8","","24.1","","100.27","","","","","","Mainly Clear"
"2015-09-24 05:00","2015","09","24","05:00","13.5","","13.2","","98","","36","","5","","24.1","","100.31","","","","","","NA"
"2015-09-24 06:00","2015","09","24","06:00","11.9","","11.9","","100","","2","","8","","16.1","","100.35","","","","","","NA"
"2015-09-24 07:00","2015","09","24","07:00","13.8","","13.5","","98","","2","","8","","16.1","","100.41","","","","","","Mainly Clear"
"2015-09-24 08:00","2015","09","24","08:00","18.6","","16.6","","88","","6","","11","","19.3","","100.42","","","","","","NA"
"2015-09-24 09:00","2015","09","24","09:00","20.1","","17.2","","83","","7","","17","","19.3","","100.45","","26","","","","NA"
"2015-09-24 10:00","2015","09","24","10:00","21.2","","16.0","","72","","7","","15","","24.1","","100.45","","26","","","","Mostly Cloudy"
"2015-09-24 11:00","2015","09","24","11:00","22.6","","17.0","","70","","6","","15","","24.1","","100.42","","28","","","","NA"
"2015-09-24 12:00","2015","09","24","12:00","23.3","","16.9","","67","","5","","12","","24.1","","100.38","","29","","","","NA"
"2015-09-24 13:00","2015","09","24","13:00","24.3","","16.2","","60","","7","","19","","24.1","","100.32","","29","","","","Mostly Cloudy"
"2015-09-24 14:00","2015","09","24","14:00","24.3","","15.7","","58","","5","","19","","24.1","","100.27","","29","","","","NA"
"2015-09-24 15:00","2015","09","24","15:00","25.3","","14.0","","49","","6","","22","","24.1","","100.26","","29","","","","NA"
"2015-09-24 16:00","2015","09","24","16:00","24.4","","13.2","","49","","6","","21","","24.1","","100.24","","27","","","","Mostly Cloudy"
"2015-09-24 17:00","2015","09","24","17:00","23.4","","11.3","","46","","7","","21","","24.1","","100.23","","25","","","","NA"
"2015-09-24 18:00","2015","09","24","18:00","20.9","","13.5","","62","","8","","15","","24.1","","100.23","","","","","","NA"
"2015-09-24 19:00","2015","09","24","19:00","18.1","","13.3","","73","","8","","15","","24.1","","100.21","","","","","","Mostly Cloudy"
"2015-09-24 20:00","2015","09","24","20:00","18.1","","13.5","","74","","9","","16","","24.1","","100.21","","","","","","NA"
"2015-09-24 21:00","2015","09","24","21:00","17.5","","13.7","","78","","7","","9","","24.1","","100.27","","","","","","NA"
"2015-09-24 22:00","2015","09","24","22:00","17.2","","15.2","","88","","2","","10","","24.1","","100.28","","","","","","Mostly Cloudy"
"2015-09-24 23:00","2015","09","24","23:00","16.9","","15.3","","90","","3","","11","","24.1","","100.28","","","","","","NA"
"2015-09-25 00:00","2015","09","25","00:00","16.4","","15.0","","91","","4","","9","","24.1","","100.24","","","","","","NA"
"2015-09-25 01:00","2015","09","25","01:00","15.9","","15.0","","94","","5","","10","","24.1","","100.21","","","","","","Mainly Clear"
"2015-09-25 02:00","2015","09","25","02:00","16.3","","15.5","","95","","3","","11","","24.1","","100.20","","","","","","NA"
"2015-09-25 03:00","2015","09","25","03:00","15.7","","15.4","","98","","4","","10","","19.3","","100.19","","","","","","NA"
"2015-09-25 04:00","2015","09","25","04:00","15.3","","15.0","","98","","6","","10","","8.1","","100.17","","","","","","Fog"
"2015-09-25 05:00","2015","09","25","05:00","15.6","","15.5","","99","","4","","10","","8.1","","100.19","","","","","","Fog"
"2015-09-25 06:00","2015","09","25","06:00","15.5","","15.4","","99","","6","","7","","16.1","","100.23","","","","","","NA"
"2015-09-25 07:00","2015","09","25","07:00","15.5","","15.2","","98","","7","","5","","12.9","","100.28","","","","","","Mostly Cloudy"
"2015-09-25 08:00","2015","09","25","08:00","18.3","","17.0","","92","","5","","11","","16.1","","100.29","","","","","","NA"
"2015-09-25 09:00","2015","09","25","09:00","20.5","","18.1","","86","","10","","15","","19.3","","100.31","","27","","","","NA"
"2015-09-25 10:00","2015","09","25","10:00","22.4","","17.0","","71","","10","","16","","24.1","","100.31","","28","","","","Mainly Clear"
"2015-09-25 11:00","2015","09","25","11:00","23.4","","14.8","","58","","10","","17","","24.1","","100.29","","27","","","","NA"
"2015-09-25 12:00","2015","09","25","12:00","24.0","","14.0","","53","","11","","22","","24.1","","100.26","","27","","","","NA"
"2015-09-25 13:00","2015","09","25","13:00","24.8","","14.2","","51","","6","","27","","24.1","","100.22","","28","","","","Mostly Cloudy"
"2015-09-25 14:00","2015","09","25","14:00","24.2","","14.5","","54","","6","","23","","24.1","","100.19","","28","","","","NA"
"2015-09-25 15:00","2015","09","25","15:00","24.0","","14.8","","56","","7","","21","","24.1","","100.16","","28","","","","NA"
"2015-09-25 16:00","2015","09","25","16:00","24.1","","14.1","","53","","8","","23","","24.1","","100.13","","28","","","","Mostly Cloudy"
"2015-09-25 17:00","2015","09","25","17:00","23.1","","14.0","","56","","8","","20","","24.1","","100.15","","26","","","","NA"
"2015-09-25 18:00","2015","09","25","18:00","20.9","","14.6","","67","","8","","14","","24.1","","100.19","","25","","","","NA"
"2015-09-25 19:00","2015","09","25","19:00","18.5","","14.1","","75","","8","","13","","24.1","","100.23","","","","","","Mostly Cloudy"
"2015-09-25 20:00","2015","09","25","20:00","17.0","","13.8","","81","","8","","12","","24.1","","100.28","","","","","","NA"
"2015-09-25 21:00","2015","09","25","21:00","17.0","","13.8","","81","","7","","11","","24.1","","100.32","","","","","","NA"
"2015-09-25 22:00","2015","09","25","22:00","17.4","","15.2","","87","","8","","13","","24.1","","100.35","","","","","","Mostly Cloudy"
"2015-09-25 23:00","2015","09","25","23:00","18.0","","16.2","","89","","7","","15","","32.2","","100.35","","","","","","NA"
"2015-09-26 00:00","2015","09","26","00:00","17.5","","15.9","","90","","8","","16","","24.1","","100.36","","","","","","NA"
"2015-09-26 01:00","2015","09","26","01:00","17.0","","15.5","","91","","8","","16","","24.1","","100.37","","","","","","Mostly Cloudy"
"2015-09-26 02:00","2015","09","26","02:00","16.5","","15.4","","93","","8","","15","","24.1","","100.36","","","","","","NA"
"2015-09-26 03:00","2015","09","26","03:00","15.8","","15.2","","96","","9","","12","","24.1","","100.33","","","","","","NA"
"2015-09-26 04:00","2015","09","26","04:00","15.1","","14.8","","98","","8","","11","","12.9","","100.34","","","","","","Mostly Cloudy"
"2015-09-26 05:00","2015","09","26","05:00","15.4","","14.9","","97","","7","","12","","16.1","","100.38","","","","","","NA"
"2015-09-26 06:00","2015","09","26","06:00","15.5","","14.9","","96","","8","","12","","19.3","","100.40","","","","","","NA"
"2015-09-26 07:00","2015","09","26","07:00","15.8","","15.3","","97","","8","","12","","19.3","","100.44","","","","","","Mostly Cloudy"
"2015-09-26 08:00","2015","09","26","08:00","17.4","","16.4","","94","","8","","16","","24.1","","100.48","","","","","","NA"
"2015-09-26 09:00","2015","09","26","09:00","19.4","","17.0","","86","","8","","18","","24.1","","100.50","","","","","","NA"
"2015-09-26 10:00","2015","09","26","10:00","20.1","","17.4","","84","","6","","24","","24.1","","100.51","","26","","","","Mostly Cloudy"
"2015-09-26 11:00","2015","09","26","11:00","20.7","","16.8","","78","","7","","24","","24.1","","100.50","","26","","","","NA"
"2015-09-26 12:00","2015","09","26","12:00","23.1","","13.4","","54","","11","","25","","24.1","","100.47","","26","","","","NA"
"2015-09-26 13:00","2015","09","26","13:00","23.1","","13.4","","54","","9","","28","","24.1","","100.42","","26","","","","Mostly Cloudy"
"2015-09-26 14:00","2015","09","26","14:00","23.7","","14.6","","56","","8","","22","","24.1","","100.33","","27","","","","NA"
"2015-09-26 15:00","2015","09","26","15:00","22.1","","9.8","","45","","12","","23","","24.1","","100.29","","","","","","NA"
"2015-09-26 16:00","2015","09","26","16:00","21.4","","13.2","","59","","10","","18","","24.1","","100.27","","","","","","Mostly Cloudy"
"2015-09-26 17:00","2015","09","26","17:00","21.3","","10.6","","50","","11","","26","","24.1","","100.24","","","","","","NA"
"2015-09-26 18:00","2015","09","26","18:00","19.2","","13.0","","67","","10","","16","","24.1","","100.22","","","","","","NA"
"2015-09-26 19:00","2015","09","26","19:00","17.7","","14.4","","81","","10","","13","","24.1","","100.22","","","","","","Mostly Cloudy"
"2015-09-26 20:00","2015","09","26","20:00","16.8","","15.0","","89","","10","","11","","24.1","","100.25","","","","","","NA"
"2015-09-26 21:00","2015","09","26","21:00","16.9","","15.6","","92","","10","","12","","24.1","","100.24","","","","","","NA"
"2015-09-26 22:00","2015","09","26","22:00","17.0","","15.9","","93","","11","","11","","24.1","","100.24","","","","","","Mostly Cloudy"
"2015-09-26 23:00","2015","09","26","23:00","15.9","","15.1","","95","","10","","7","","24.1","","100.23","","","","","","NA"
"2015-09-27 00:00","2015","09","27","00:00","14.9","","14.3","","96","","13","","8","","24.1","","100.19","","","","","","NA"
"2015-09-27 01:00","2015","09","27","01:00","14.6","","13.7","","94","","13","","7","","24.1","","100.16","","","","","","Mainly Clear"
"2015-09-27 02:00","2015","09","27","02:00","13.5","","12.4","","93","","13","","7","","24.1","","100.14","","","","","","NA"
"2015-09-27 03:00","2015","09","27","03:00","13.2","","10.6","","84","","15","","11","","24.1","","100.12","","","","","","NA"
"2015-09-27 04:00","2015","09","27","04:00","13.2","","10.6","","84","","15","","8","","24.1","","100.10","","","","","","Clear"
"2015-09-27 05:00","2015","09","27","05:00","12.4","","10.7","","89","","13","","8","","24.1","","100.08","","","","","","NA"
"2015-09-27 06:00","2015","09","27","06:00","12.6","","11.0","","90","","12","","5","","24.1","","100.09","","","","","","NA"
"2015-09-27 07:00","2015","09","27","07:00","14.1","","12.8","","92","","14","","8","","24.1","","100.12","","","","","","Mostly Cloudy"
"2015-09-27 08:00","2015","09","27","08:00","16.6","","14.8","","89","","9","","3","","24.1","","100.12","","","","","","NA"
"2015-09-27 09:00","2015","09","27","09:00","18.9","","13.8","","72","","17","","17","","24.1","","100.12","","","","","","NA"
"2015-09-27 10:00","2015","09","27","10:00","20.4","","14.6","","69","","18","","14","","24.1","","100.11","","","","","","Mostly Cloudy"
"2015-09-27 11:00","2015","09","27","11:00","21.5","","14.8","","65","","15","","16","","24.1","","100.04","","25","","","","NA"
"2015-09-27 12:00","2015","09","27","12:00","22.7","","13.9","","57","","17","","22","","24.1","","100.00","","26","","","","NA"
"2015-09-27 13:00","2015","09","27","13:00","23.2","","14.1","","56","","19","","15","","24.1","","99.92","","27","","","","Mainly Clear"
"2015-09-27 14:00","2015","09","27","14:00","23.7","","14.8","","57","","19","","14","","24.1","","99.84","","28","","","","NA"
"2015-09-27 15:00","2015","09","27","15:00","24.0","","15.1","","57","","18","","12","","24.1","","99.75","","28","","","","NA"
"2015-09-27 16:00","2015","09","27","16:00","24.2","","15.0","","56","","18","","13","","24.1","","99.70","","28","","","","Mainly Clear"
"2015-09-27 17:00","2015","09","27","17:00","23.3","","14.7","","58","","16","","19","","24.1","","99.69","","27","","","","NA"
"2015-09-27 18:00","2015","09","27","18:00","21.2","","15.4","","69","","12","","15","","24.1","","99.68","","25","","","","NA"
"2015-09-27 19:00","2015","09","27","19:00","20.1","","17.0","","82","","12","","10","","24.1","","99.67","","25","","","","Mostly Cloudy"
"2015-09-27 20:00","2015","09","27","20:00","19.7","","17.2","","85","","16","","14","","24.1","","99.69","","","","","","NA"
"2015-09-27 21:00","2015","09","27","21:00","20.0","","16.7","","81","","17","","16","","24.1","","99.70","","25","","","","NA"
"2015-09-27 22:00","2015","09","27","22:00","20.0","","17.1","","83","","17","","15","","24.1","","99.70","","25","","","","Mostly Cloudy"
"2015-09-27 23:00","2015","09","27","23:00","19.9","","17.2","","84","","18","","13","","24.1","","99.71","","","","","","NA"
"2015-09-28 00:00","2015","09","28","00:00","19.9","","17.0","","83","","18","","11","","24.1","","99.68","","","","","","NA"
"2015-09-28 01:00","2015","09","28","01:00","19.8","","17.1","","84","","18","","14","","24.1","","99.64","","","","","","Mostly Cloudy"
"2015-09-28 02:00","2015","09","28","02:00","19.2","","17.2","","88","","19","","9","","24.1","","99.64","","","","","","NA"
"2015-09-28 03:00","2015","09","28","03:00","19.2","","17.2","","88","","19","","12","","24.1","","99.62","","","","","","NA"
"2015-09-28 04:00","2015","09","28","04:00","19.1","","17.3","","89","","19","","10","","24.1","","99.59","","","","","","Mostly Cloudy"
"2015-09-28 05:00","2015","09","28","05:00","19.4","","17.4","","88","","20","","10","","24.1","","99.59","","","","","","NA"
"2015-09-28 06:00","2015","09","28","06:00","19.1","","17.5","","90","","19","","10","","24.1","","99.60","","","","","","NA"
"2015-09-28 07:00","2015","09","28","07:00","19.2","","17.6","","90","","19","","12","","24.1","","99.62","","","","","","Mostly Cloudy"
"2015-09-28 08:00","2015","09","28","08:00","19.9","","17.7","","87","","20","","16","","24.1","","99.62","","","","","","NA"
"2015-09-28 09:00","2015","09","28","09:00","20.4","","17.8","","85","","20","","21","","24.1","","99.61","","26","","","","NA"
"2015-09-28 10:00","2015","09","28","10:00","20.6","","17.9","","84","","21","","18","","24.1","","99.62","","27","","","","Cloudy"
"2015-09-28 11:00","2015","09","28","11:00","21.3","","18.3","","83","","19","","15","","24.1","","99.58","","28","","","","NA"
"2015-09-28 12:00","2015","09","28","12:00","22.5","","18.3","","77","","24","","12","","24.1","","99.53","","29","","","","NA"
"2015-09-28 13:00","2015","09","28","13:00","23.9","","18.2","","70","","21","","6","","24.1","","99.45","","30","","","","Mainly Clear"
"2015-09-28 14:00","2015","09","28","14:00","25.4","","18.2","","64","","22","","11","","24.1","","99.39","","32","","","","NA"
"2015-09-28 15:00","2015","09","28","15:00","24.6","","17.9","","66","","18","","12","","24.1","","99.31","","31","","","","NA"
"2015-09-28 16:00","2015","09","28","16:00"
"2015-09-28 17:00","2015","09","28","17:00","23.9","","18.2","","70","","20","","8","","24.1","","99.22","","30","","","","NA"
"2015-09-28 18:00","2015","09","28","18:00","22.7","","17.7","","73","","18","","12","","24.1","","99.25","","28","","","","NA"
"2015-09-28 19:00","2015","09","28","19:00","20.1","","17.9","","87","","16","","12","","24.1","","99.28","","26","","","","Mostly Cloudy"
"2015-09-28 20:00","2015","09","28","20:00","19.4","","18.3","","93","","16","","10","","24.1","","99.31","","","","","","NA"
"2015-09-28 21:00","2015","09","28","21:00","18.1","","17.3","","95","","15","","5","","24.1","","99.30","","","","","","NA"
"2015-09-28 22:00","2015","09","28","22:00","18.3","","17.5","","95","","16","","7","","19.3","","99.29","","","","","","Cloudy"
"2015-09-28 23:00","2015","09","28","23:00","18.1","","17.5","","96","","15","","5","","19.3","","99.26","","","","","","NA"
"2015-09-29 00:00","2015","09","29","00:00","18.1","","17.8","","98","","36","","2","","19.3","","99.24","","","","","","NA"
"2015-09-29 01:00","2015","09","29","01:00","19.3","","18.7","","96","","19","","10","","19.3","","99.22","","","","","","Cloudy"
"2015-09-29 02:00","2015","09","29","02:00","18.9","","18.3","","96","","22","","6","","24.1","","99.18","","","","","","NA"
"2015-09-29 03:00","2015","09","29","03:00","17.4","","16.9","","97","","15","","7","","16.1","","99.12","","","","","","NA"
"2015-09-29 04:00","2015","09","29","04:00","18.1","","17.6","","97","","19","","5","","16.1","","99.09","","","","","","Cloudy"
"2015-09-29 05:00","2015","09","29","05:00","18.6","","18.1","","97","","23","","4","","19.3","","99.08","","","","","","NA"
"2015-09-29 06:00","2015","09","29","06:00","18.8","","18.3","","97","","28","","5","","19.3","","99.09","","","","","","NA"
"2015-09-29 07:00","2015","09","29","07:00","18.1","","17.8","","98","","19","","5","","19.3","","99.12","","","","","","Cloudy"
"2015-09-29 08:00","2015","09","29","08:00","19.2","","18.7","","97","","26","","5","","9.7","","99.13","","","","","","Rain Showers,Fog"
"2015-09-29 09:00","2015","09","29","09:00","20.5","","19.5","","94","","36","","2","","9.7","","99.16","","28","","","","Fog"
"2015-09-29 10:00","2015","09","29","10:00","21.8","","19.0","","84","","2","","8","","11.3","","99.18","","29","","","","Rain Showers"
"2015-09-29 11:00","2015","09","29","11:00","21.7","","19.7","","88","","5","","13","","9.7","","99.22","","29","","","","Rain Showers,Fog"
"2015-09-29 12:00","2015","09","29","12:00","21.4","","19.7","","90","","5","","15","","9.7","","99.19","","29","","","","Rain,Fog"
"2015-09-29 13:00","2015","09","29","13:00","19.0","","17.9","","93","","3","","29","","48.3","","99.19","","","","","","Rain"
"2015-09-29 14:00","2015","09","29","14:00","16.8","","15.8","","94","","35","","21","","2.0","","99.21","","","","","","Heavy Rain Showers,Fog"
"2015-09-29 15:00","2015","09","29","15:00","17.1","","15.8","","92","","3","","22","","12.9","","99.19","","","","","","Rain Showers"
"2015-09-29 16:00","2015","09","29","16:00","16.7","","14.2","","85","","4","","21","","19.3","","99.16","","","","","","Rain Showers"
"2015-09-29 17:00","2015","09","29","17:00","17.0","","12.4","","74","","2","","24","","24.1","","99.21","","","","","","Rain Showers"
"2015-09-29 18:00","2015","09","29","18:00","17.1","","12.1","","72","","1","","29","","24.1","","99.27","","","","","","NA"
"2015-09-29 19:00","2015","09","29","19:00","16.4","","11.4","","72","","2","","23","","24.1","","99.31","","","","","","Mostly Cloudy"
"2015-09-29 20:00","2015","09","29","20:00","15.9","","11.7","","76","","2","","27","","24.1","","99.35","","","","","","NA"
"2015-09-29 21:00","2015","09","29","21:00","15.1","","11.1","","77","","1","","26","","24.1","","99.38","","","","","","NA"
"2015-09-29 22:00","2015","09","29","22:00","14.6","","11.0","","79","","36","","22","","24.1","","99.39","","","","","","Cloudy"
"2015-09-29 23:00","2015","09","29","23:00","14.3","","10.9","","80","","36","","26","","24.1","","99.38","","","","","","NA"
"2015-09-30 00:00","2015","09","30","00:00","14.2","","10.8","","80","","36","","27","","24.1","","99.38","","","","","","NA"
"2015-09-30 01:00","2015","09","30","01:00","13.9","","10.7","","81","","36","","19","","24.1","","99.38","","","","","","Cloudy"
"2015-09-30 02:00","2015","09","30","02:00","13.7","","10.5","","81","","36","","23","","24.1","","99.39","","","","","","NA"
"2015-09-30 03:00","2015","09","30","03:00","13.2","","10.4","","83","","36","","18","","24.1","","99.38","","","","","","NA"
"2015-09-30 04:00","2015","09","30","04:00","13.1","","10.3","","83","","35","","19","","24.1","","99.40","","","","","","Cloudy"
"2015-09-30 05:00","2015","09","30","05:00","13.0","","10.4","","84","","36","","18","","24.1","","99.44","","","","","","NA"
"2015-09-30 06:00","2015","09","30","06:00","12.8","","10.0","","83","","36","","18","","24.1","","99.49","","","","","","NA"
"2015-09-30 07:00","2015","09","30","07:00","12.6","","9.6","","82","","36","","19","","24.1","","99.55","","","","","","Mostly Cloudy"
"2015-09-30 08:00","2015","09","30","08:00","12.8","","9.3","","79","","36","","22","","24.1","","99.61","","","","","","NA"
"2015-09-30 09:00","2015","09","30","09:00","14.3","","9.4","","72","","1","","29","","24.1","","99.68","","","","","","NA"
"2015-09-30 10:00","2015","09","30","10:00","14.2","","8.0","","66","","36","","26","","24.1","","99.75","","","","","","Mostly Cloudy"
"2015-09-30 11:00","2015","09","30","11:00","16.2","","9.0","","62","","36","","26","","24.1","","99.77","","","","","","NA"
"2015-09-30 12:00","2015","09","30","12:00","17.0","","8.3","","56","","4","","35","","24.1","","99.78","","","","","","NA"
"2015-09-30 13:00","2015","09","30","13:00","17.3","","8.3","","55","","2","","27","","24.1","","99.79","","","","","","Mostly Cloudy"
"2015-09-30 14:00","2015","09","30","14:00","17.2","","7.4","","52","","3","","32","","24.1","","99.79","","","","","","NA"
"2015-09-30 15:00","2015","09","30","15:00","16.8","","7.8","","55","","3","","31","","24.1","","99.79","","","","","","NA"
"2015-09-30 16:00","2015","09","30","16:00","16.3","","8.1","","58","","4","","29","","24.1","","99.82","","","","","","Mainly Clear"
"2015-09-30 17:00","2015","09","30","17:00","15.3","","6.7","","56","","1","","29","","24.1","","99.85","","","","","","NA"
"2015-09-30 18:00","2015","09","30","18:00","14.0","","5.4","","56","","36","","24","","24.1","","99.88","","","","","","NA"
"2015-09-30 19:00","2015","09","30","19:00","13.1","","5.1","","58","","1","","28","","24.1","","99.92","","","","","","Mostly Cloudy"
"2015-09-30 20:00","2015","09","30","20:00","12.3","","5.3","","62","","1","","20","","24.1","","99.96","","","","","","NA"
"2015-09-30 21:00","2015","09","30","21:00","12.1","","6.0","","66","","1","","20","","24.1","","99.98","","","","","","NA"
"2015-09-30 22:00","2015","09","30","22:00","12.9","","4.9","","58","","4","","36","","24.1","","100.02","","","","","","Mainly Clear"
"2015-09-30 23:00","2015","09","30","23:00","12.3","","4.3","","58","","4","","33","","24.1","","100.01","","","","","","NA"
