"Station Name","WINDSOR A"
"Province","ONTARIO"
"Current Station Operator","NAV Canada"
"Latitude","42.28"
"Longitude","-82.96"
"Elevation","189.60"
"Climate Identifier","6139527"
"WMO Identifier",""
"TC Identifier","YQG"
"All times are specified in Local Standard Time (LST). Add 1 hour to adjust for Daylight Saving Time where and when it is observed."

"Legend"
"E","Estimated"
"M","Missing"
"NA","Not Available"

"Date/Time","Year","Month","Day","Time","Temp (°C)","Temp Flag","Dew Point Temp (°C)","Dew Point Temp Flag","Rel Hum (%)","Rel Hum Flag","Wind Dir (10s deg)","Wind Dir Flag","Wind Spd (km/h)","Wind Spd Flag","Visibility (km)","Visibility Flag","Stn Press (kPa)","Stn Press Flag","Hmdx","Hmdx Flag","Wind Chill","Wind Chill Flag","Weather"
"2018-07-01 00:00","2018","07","01","00:00","25.8","","22.5","","82","","20","","14","","24.1","","99.30","","36","","","","NA"
"2018-07-01 01:00","2018","07","01","01:00","25.0","","22.2","","85","","22","","11","","24.1","","99.35","","35","","","","Clear"
"2018-07-01 02:00","2018","07","01","02:00","25.0","","22.2","","84","","19","","10","","24.1","","99.35","","35","","","","NA"
"2018-07-01 03:00","2018","07","01","03:00","24.1","","22.5","","90","","19","","11","","24.1","","99.35","","34","","","","NA"
"2018-07-01 04:00","2018","07","01","04:00","23.9","","22.5","","92","","19","","9","","24.1","","99.36","","34","","","","Mainly Clear"
"2018-07-01 05:00","2018","07","01","05:00","22.7","","21.6","","94","","18","","6","","11.3","","99.31","","32","","","","NA"
"2018-07-01 06:00","2018","07","01","06:00","24.5","","22.4","","88","","19","","11","","12.9","","99.30","","34","","","","NA"
"2018-07-01 07:00","2018","07","01","07:00","26.2","","22.4","","80","","20","","13","","16.1","","99.36","","36","","","","Mostly Cloudy"
"2018-07-01 08:00","2018","07","01","08:00","28.0","","22.4","","71","","20","","16","","16.1","","99.37","","38","","","","NA"
"2018-07-01 09:00","2018","07","01","09:00","29.0","","22.6","","68","","18","","14","","19.3","","99.36","","39","","","","NA"
"2018-07-01 10:00","2018","07","01","10:00","30.5","","23.0","","64","","19","","14","","19.3","","99.33","","41","","","","Mainly Clear"
"2018-07-01 11:00","2018","07","01","11:00","31.5","","22.8","","60","","18","","18","","19.3","","99.29","","42","","","","NA"
"2018-07-01 12:00","2018","07","01","12:00","31.9","","22.5","","57","","19","","23","","19.3","","99.26","","42","","","","NA"
"2018-07-01 13:00","2018","07","01","13:00","32.7","","23.2","","57","","19","","21","","19.3","","99.21","","43","","","","Mainly Clear"
"2018-07-01 14:00","2018","07","01","14:00","33.3","","22.2","","51","","19","","30","","19.3","","99.12","","43","","","","NA"
"2018-07-01 15:00","2018","07","01","15:00","33.6","","22.5","","52","","18","","22","","19.3","","99.04","","43","","","","NA"
"2018-07-01 16:00","2018","07","01","16:00","33.8","","22.3","","50","","19","","29","","19.3","","99.00","","43","","","","Mainly Clear"
"2018-07-01 17:00","2018","07","01","17:00","32.3","","22.0","","54","","16","","24","","19.3","","99.00","","42","","","","NA"
"2018-07-01 18:00","2018","07","01","18:00","31.0","","21.8","","57","","18","","23","","19.3","","98.98","","40","","","","NA"
"2018-07-01 19:00","2018","07","01","19:00","30.8","","22.5","","61","","17","","20","","19.3","","98.97","","41","","","","Mainly Clear"
"2018-07-01 20:00","2018","07","01","20:00","29.8","","23.1","","67","","18","","14","","19.3","","98.95","","40","","","","NA"
"2018-07-01 21:00","2018","07","01","21:00","29.7","","22.6","","65","","21","","19","","19.3","","99.03","","40","","","","NA"
"2018-07-01 22:00","2018","07","01","22:00","28.6","","21.3","","64","","21","","22","","19.3","","99.08","","37","","","","Clear"
"2018-07-01 23:00","2018","07","01","23:00","28.1","","21.5","","67","","20","","24","","19.3","","99.08","","37","","","","NA"
"2018-07-02 00:00","2018","07","02","00:00","27.2","","22.4","","75","","21","","24","","19.3","","99.07","","37","","","","NA"
"2018-07-02 01:00","2018","07","02","01:00","26.5","","22.3","","77","","20","","19","","19.3","","99.06","","36","","","","Clear"
"2018-07-02 02:00","2018","07","02","02:00","25.9","","21.8","","78","","21","","20","","19.3","","99.05","","35","","","","NA"
"2018-07-02 03:00","2018","07","02","03:00","25.4","","21.8","","80","","21","","22","","19.3","","99.06","","35","","","","NA"
"2018-07-02 04:00","2018","07","02","04:00","24.9","","21.8","","83","","21","","15","","19.3","","99.07","","34","","","","Mainly Clear"
"2018-07-02 05:00","2018","07","02","05:00","24.3","","21.7","","85","","23","","13","","19.3","","99.13","","33","","","","NA"
"2018-07-02 06:00","2018","07","02","06:00","24.9","","22.1","","84","","23","","12","","19.3","","99.16","","34","","","","NA"
"2018-07-02 07:00","2018","07","02","07:00","25.7","","22.5","","82","","24","","13","","19.3","","99.22","","35","","","","Mostly Cloudy"
"2018-07-02 08:00","2018","07","02","08:00","26.7","","22.8","","79","","26","","13","","19.3","","99.29","","37","","","","NA"
"2018-07-02 09:00","2018","07","02","09:00","26.9","","21.9","","74","","25","","5","","19.3","","99.32","","36","","","","NA"
"2018-07-02 10:00","2018","07","02","10:00","27.9","","22.5","","72","","25","","10","","19.3","","99.34","","38","","","","Mostly Cloudy"
"2018-07-02 11:00","2018","07","02","11:00","28.4","","21.9","","67","","23","","16","","19.3","","99.37","","38","","","","NA"
"2018-07-02 12:00","2018","07","02","12:00","29.9","","21.3","","59","","23","","18","","19.3","","99.40","","39","","","","NA"
"2018-07-02 13:00","2018","07","02","13:00","30.6","","21.1","","56","","26","","17","","19.3","","99.38","","39","","","","Mostly Cloudy"
"2018-07-02 14:00","2018","07","02","14:00","30.8","","21.1","","56","","23","","19","","19.3","","99.36","","39","","","","NA"
"2018-07-02 15:00","2018","07","02","15:00","30.4","","20.4","","54","","27","","15","","19.3","","99.33","","38","","","","NA"
"2018-07-02 16:00","2018","07","02","16:00","30.3","","20.3","","54","","26","","18","","19.3","","99.33","","38","","","","Mostly Cloudy"
"2018-07-02 17:00","2018","07","02","17:00","31.1","","18.9","","47","","30","","11","","19.3","","99.38","","38","","","","NA"
"2018-07-02 18:00","2018","07","02","18:00","30.6","","17.6","","45","","28","","13","","19.3","","99.39","","36","","","","NA"
"2018-07-02 19:00","2018","07","02","19:00","29.9","","16.0","","42","","32","","15","","19.3","","99.44","","35","","","","Mainly Clear"
"2018-07-02 20:00","2018","07","02","20:00","26.0","","21.9","","78","","5","","16","","19.3","","99.52","","35","","","","NA"
"2018-07-02 21:00","2018","07","02","21:00","24.5","","21.1","","81","","5","","15","","19.3","","99.64","","33","","","","NA"
"2018-07-02 22:00","2018","07","02","22:00","23.3","","20.2","","83","","4","","15","","19.3","","99.73","","31","","","","Clear"
"2018-07-02 23:00","2018","07","02","23:00","22.4","","19.8","","85","","4","","10","","19.3","","99.77","","30","","","","NA"
"2018-07-03 00:00","2018","07","03","00:00","21.9","","20.0","","89","","4","","7","","19.3","","99.79","","29","","","","NA"
"2018-07-03 01:00","2018","07","03","01:00","21.4","","19.9","","91","","5","","5","","19.3","","99.80","","29","","","","Clear"
"2018-07-03 02:00","2018","07","03","02:00","21.3","","20.1","","93","","3","","5","","19.3","","99.81","","29","","","","NA"
"2018-07-03 03:00","2018","07","03","03:00","21.1","","18.8","","86","","2","","8","","19.3","","99.79","","28","","","","NA"
"2018-07-03 04:00","2018","07","03","04:00","20.8","","19.0","","90","","4","","5","","19.3","","99.83","","28","","","","Mainly Clear"
"2018-07-03 05:00","2018","07","03","05:00","20.7","","19.5","","93","","2","","10","","19.3","","99.87","","28","","","","NA"
"2018-07-03 06:00","2018","07","03","06:00","22.2","","20.4","","90","","5","","8","","19.3","","99.92","","30","","","","NA"
"2018-07-03 07:00","2018","07","03","07:00","23.4","","20.5","","84","","6","","10","","24.1","","99.97","","31","","","","Mostly Cloudy"
"2018-07-03 08:00","2018","07","03","08:00","25.1","","19.8","","72","","5","","14","","24.1","","99.99","","33","","","","NA"
"2018-07-03 09:00","2018","07","03","09:00","26.2","","19.8","","67","","4","","17","","24.1","","100.03","","34","","","","NA"
"2018-07-03 10:00","2018","07","03","10:00","26.8","","20.4","","67","","5","","12","","24.1","","100.05","","35","","","","Mainly Clear"
"2018-07-03 11:00","2018","07","03","11:00","27.8","","21.6","","69","","3","","13","","24.1","","100.07","","37","","","","NA"
"2018-07-03 12:00","2018","07","03","12:00","29.2","","21.8","","64","","2","","15","","24.1","","100.06","","38","","","","NA"
"2018-07-03 13:00","2018","07","03","13:00","29.8","","22.0","","63","","6","","17","","24.1","","100.05","","39","","","","Mainly Clear"
"2018-07-03 14:00","2018","07","03","14:00","30.2","","21.8","","60","","7","","16","","24.1","","100.02","","39","","","","NA"
"2018-07-03 15:00","2018","07","03","15:00","31.1","","21.5","","56","","6","","18","","24.1","","99.99","","40","","","","NA"
"2018-07-03 16:00","2018","07","03","16:00","30.8","","21.5","","57","","5","","22","","24.1","","99.98","","40","","","","Mainly Clear"
"2018-07-03 17:00","2018","07","03","17:00","31.1","","21.1","","55","","9","","16","","19.3","","99.98","","40","","","","NA"
"2018-07-03 18:00","2018","07","03","18:00","29.7","","19.6","","54","","13","","23","","19.3","","99.94","","37","","","","NA"
"2018-07-03 19:00","2018","07","03","19:00","28.0","","18.7","","56","","12","","20","","19.3","","100.01","","35","","","","Mostly Cloudy"
"2018-07-03 20:00","2018","07","03","20:00","26.7","","18.2","","59","","12","","12","","19.3","","100.01","","33","","","","NA"
"2018-07-03 21:00","2018","07","03","21:00","25.4","","18.9","","67","","12","","10","","19.3","","100.05","","32","","","","NA"
"2018-07-03 22:00","2018","07","03","22:00","23.9","","19.3","","75","","8","","7","","24.1","","100.05","","31","","","","Mainly Clear"
"2018-07-03 23:00","2018","07","03","23:00","23.4","","19.8","","80","","6","","8","","19.3","","100.08","","31","","","","NA"
"2018-07-04 00:00","2018","07","04","00:00","23.6","","19.9","","80","","5","","7","","19.3","","100.12","","31","","","","NA"
"2018-07-04 01:00","2018","07","04","01:00","23.4","","20.1","","82","","6","","5","","19.3","","100.11","","31","","","","Mainly Clear"
"2018-07-04 02:00","2018","07","04","02:00","22.6","","20.0","","85","","8","","6","","19.3","","100.08","","30","","","","NA"
"2018-07-04 03:00","2018","07","04","03:00","23.0","","18.9","","78","","4","","5","","19.3","","100.07","","30","","","","NA"
"2018-07-04 04:00","2018","07","04","04:00","22.6","","19.4","","82","","3","","6","","19.3","","100.10","","30","","","","Mainly Clear"
"2018-07-04 05:00","2018","07","04","05:00","22.1","","19.9","","87","","7","","3","","19.3","","100.10","","30","","","","NA"
"2018-07-04 06:00","2018","07","04","06:00","23.0","","21.3","","90","","5","","5","","19.3","","100.15","","32","","","","NA"
"2018-07-04 07:00","2018","07","04","07:00","25.3","","21.5","","79","","6","","7","","19.3","","100.21","","34","","","","Mainly Clear"
"2018-07-04 08:00","2018","07","04","08:00","26.8","","23.0","","79","","9","","8","","24.1","","100.19","","37","","","","NA"
"2018-07-04 09:00","2018","07","04","09:00","28.1","","22.7","","72","","3","","9","","24.1","","100.22","","38","","","","NA"
"2018-07-04 10:00","2018","07","04","10:00","27.9","","22.4","","71","","3","","12","","24.1","","100.22","","38","","","","Mostly Cloudy"
"2018-07-04 11:00","2018","07","04","11:00","29.6","","21.9","","63","","5","","9","","24.1","","100.20","","39","","","","NA"
"2018-07-04 12:00","2018","07","04","12:00","30.8","","22.4","","60","","13","","20","","24.1","","100.19","","40","","","","NA"
"2018-07-04 13:00","2018","07","04","13:00","31.9","","22.1","","55","","13","","14","","24.1","","100.15","","41","","","","Mostly Cloudy"
"2018-07-04 14:00","2018","07","04","14:00","32.9","","23.0","","55","","12","","12","","24.1","","100.09","","43","","","","NA"
"2018-07-04 15:00","2018","07","04","15:00","33.1","","23.1","","55","","16","","16","","24.1","","100.05","","43","","","","NA"
"2018-07-04 16:00","2018","07","04","16:00","33.3","","21.2","","49","","17","","18","","24.1","","100.03","","42","","","","Mainly Clear"
"2018-07-04 17:00","2018","07","04","17:00","33.0","","20.7","","48","","18","","14","","24.1","","100.00","","41","","","","NA"
"2018-07-04 18:00","2018","07","04","18:00","32.8","","21.8","","52","","19","","14","","24.1","","99.99","","42","","","","NA"
"2018-07-04 19:00","2018","07","04","19:00","31.2","","22.6","","60","","18","","18","","24.1","","99.98","","41","","","","Mainly Clear"
"2018-07-04 20:00","2018","07","04","20:00","29.3","","23.9","","72","","18","","13","","19.3","","100.02","","40","","","","NA"
"2018-07-04 21:00","2018","07","04","21:00","28.1","","23.9","","78","","17","","4","","19.3","","100.11","","39","","","","NA"
"2018-07-04 22:00","2018","07","04","22:00","26.9","","24.2","","84","","36","","2","","19.3","","100.15","","38","","","","Mainly Clear"
"2018-07-04 23:00","2018","07","04","23:00","26.1","","24.1","","88","","12","","7","","19.3","","100.07","","37","","","","NA"
"2018-07-05 00:00","2018","07","05","00:00","25.9","","23.9","","89","","16","","5","","19.3","","100.04","","37","","","","NA"
"2018-07-05 01:00","2018","07","05","01:00","26.3","","24.3","","89","","19","","10","","19.3","","100.00","","38","","","","Mainly Clear"
"2018-07-05 02:00","2018","07","05","02:00","25.9","","24.4","","91","","17","","8","","19.3","","99.95","","38","","","","NA"
"2018-07-05 03:00","2018","07","05","03:00","25.4","","24.3","","94","","20","","4","","16.1","","99.93","","37","","","","NA"
"2018-07-05 04:00","2018","07","05","04:00","24.8","","23.9","","95","","16","","5","","16.1","","99.96","","36","","","","Mainly Clear"
"2018-07-05 05:00","2018","07","05","05:00","24.5","","23.8","","96","","24","","7","","9.7","","100.01","","36","","","","Fog"
"2018-07-05 06:00","2018","07","05","06:00","26.2","","24.6","","91","","24","","9","","11.3","","100.05","","38","","","","NA"
"2018-07-05 07:00","2018","07","05","07:00","25.8","","22.8","","83","","17","","8","","19.3","","100.08","","36","","","","Mostly Cloudy"
"2018-07-05 08:00","2018","07","05","08:00","25.9","","23.5","","87","","18","","10","","24.1","","100.07","","37","","","","NA"
"2018-07-05 09:00","2018","07","05","09:00","28.2","","23.2","","74","","21","","16","","24.1","","100.02","","39","","","","NA"
"2018-07-05 10:00","2018","07","05","10:00","27.6","","22.1","","71","","23","","19","","24.1","","100.02","","37","","","","Mostly Cloudy"
"2018-07-05 11:00","2018","07","05","11:00","29.6","","23.2","","68","","22","","21","","24.1","","99.94","","40","","","","NA"
"2018-07-05 12:00","2018","07","05","12:00","31.2","","24.0","","65","","22","","21","","24.1","","99.87","","42","","","","NA"
"2018-07-05 13:00","2018","07","05","13:00","32.3","","23.5","","59","","24","","27","","24.1","","99.84","","43","","","","Mainly Clear"
"2018-07-05 14:00","2018","07","05","14:00","32.8","","23.2","","56","","24","","16","","24.1","","99.72","","43","","","","NA"
"2018-07-05 15:00","2018","07","05","15:00","33.8","","22.6","","51","","27","","17","","24.1","","99.64","","44","","","","NA"
"2018-07-05 16:00","2018","07","05","16:00","33.0","","22.4","","53","","26","","20","","24.1","","99.64","","43","","","","Mostly Cloudy"
"2018-07-05 17:00","2018","07","05","17:00","33.1","","22.5","","53","","28","","28","","24.1","","99.62","","43","","","","NA"
"2018-07-05 18:00","2018","07","05","18:00","32.4","","22.0","","54","","28","","28","","24.1","","99.60","","42","","","","NA"
"2018-07-05 19:00","2018","07","05","19:00","28.1","","22.8","","73","","26","","15","","24.1","","99.67","","38","","","","Cloudy"
"2018-07-05 20:00","2018","07","05","20:00","23.7","","22.1","","91","","36","","3","","24.1","","99.75","","33","","","","Thunderstorms,Rain Showers"
"2018-07-05 21:00","2018","07","05","21:00","24.2","","22.4","","89","","26","","5","","24.1","","99.78","","34","","","","NA"
"2018-07-05 22:00","2018","07","05","22:00","24.7","","23.2","","91","","26","","7","","24.1","","99.80","","35","","","","Mostly Cloudy"
"2018-07-05 23:00","2018","07","05","23:00","24.9","","22.5","","86","","28","","10","","19.3","","99.80","","35","","","","NA"
"2018-07-06 00:00","2018","07","06","00:00","23.4","","20.4","","83","","3","","33","","19.3","","99.94","","31","","","","NA"
"2018-07-06 01:00","2018","07","06","01:00"
"2018-07-06 02:00","2018","07","06","02:00","21.3","","15.1","","67","","4","","30","","19.3","","100.07","","25","","","","NA"
"2018-07-06 03:00","2018","07","06","03:00","21.1","","14.1","","64","","1","","25","","19.3","","100.15","","25","","","","NA"
"2018-07-06 04:00","2018","07","06","04:00","20.1","","13.4","","65","","1","","19","","24.1","","100.18","","","","","","Mainly Clear"
"2018-07-06 05:00","2018","07","06","05:00","19.4","","11.3","","59","","2","","27","","19.3","","100.24","","","","","","NA"
"2018-07-06 06:00","2018","07","06","06:00","19.1","","9.8","","55","","36","","29","","19.3","","100.31","","","","","","NA"
"2018-07-06 07:00","2018","07","06","07:00","19.4","","10.3","","55","","35","","26","","24.1","","100.37","","","","","","Mostly Cloudy"
"2018-07-06 08:00","2018","07","06","08:00","20.1","","10.0","","52","","36","","25","","24.1","","100.39","","","","","","NA"
"2018-07-06 09:00","2018","07","06","09:00","20.7","","10.2","","51","","1","","22","","24.1","","100.43","","","","","","NA"
"2018-07-06 10:00","2018","07","06","10:00","21.7","","10.3","","48","","36","","16","","24.1","","100.47","","","","","","Mainly Clear"
"2018-07-06 11:00","2018","07","06","11:00","22.8","","11.2","","48","","35","","23","","24.1","","100.48","","25","","","","NA"
"2018-07-06 12:00","2018","07","06","12:00","23.4","","11.8","","47","","2","","22","","24.1","","100.51","","26","","","","NA"
"2018-07-06 13:00","2018","07","06","13:00","24.4","","11.2","","43","","5","","26","","24.1","","100.48","","26","","","","Mainly Clear"
"2018-07-06 14:00","2018","07","06","14:00","24.1","","11.7","","45","","4","","26","","24.1","","100.43","","26","","","","NA"
"2018-07-06 15:00","2018","07","06","15:00","24.9","","9.2","","36","","3","","22","","24.1","","100.39","","26","","","","NA"
"2018-07-06 16:00","2018","07","06","16:00","24.7","","7.5","","33","","3","","26","","24.1","","100.38","","25","","","","Clear"
"2018-07-06 17:00","2018","07","06","17:00","24.0","","8.0","","35","","3","","31","","24.1","","100.34","","","","","","NA"
"2018-07-06 18:00","2018","07","06","18:00","23.6","","6.8","","33","","3","","26","","24.1","","100.33","","","","","","NA"
"2018-07-06 19:00","2018","07","06","19:00","22.6","","5.8","","33","","2","","17","","24.1","","100.34","","","","","","Clear"
"2018-07-06 20:00","2018","07","06","20:00","20.2","","12.5","","61","","4","","28","","24.1","","100.38","","","","","","NA"
"2018-07-06 21:00","2018","07","06","21:00","18.3","","11.0","","62","","4","","21","","24.1","","100.46","","","","","","NA"
"2018-07-06 22:00","2018","07","06","22:00","17.9","","8.5","","54","","5","","21","","24.1","","100.51","","","","","","Clear"
"2018-07-06 23:00","2018","07","06","23:00","17.5","","8.4","","55","","4","","19","","24.1","","100.54","","","","","","NA"
"2018-07-07 00:00","2018","07","07","00:00"
"2018-07-07 01:00","2018","07","07","01:00"
"2018-07-07 02:00","2018","07","07","02:00","15.6","","10.4","","71","","5","","16","","24.1","","100.52","","","","","","NA"
"2018-07-07 03:00","2018","07","07","03:00","15.0","","9.9","","71","","5","","14","","24.1","","100.52","","","","","","NA"
"2018-07-07 04:00","2018","07","07","04:00","14.0","","9.7","","75","","6","","9","","24.1","","100.54","","","","","","Clear"
"2018-07-07 05:00","2018","07","07","05:00","14.3","","9.9","","75","","6","","9","","24.1","","100.57","","","","","","NA"
"2018-07-07 06:00","2018","07","07","06:00","15.2","","10.4","","73","","14","","4","","24.1","","100.61","","","","","","NA"
"2018-07-07 07:00","2018","07","07","07:00","16.9","","10.4","","66","","10","","8","","24.1","","100.66","","","","","","Clear"
"2018-07-07 08:00","2018","07","07","08:00","20.0","","8.4","","47","","8","","14","","24.1","","100.69","","","","","","NA"
"2018-07-07 09:00","2018","07","07","09:00","21.8","","9.3","","44","","9","","15","","24.1","","100.72","","","","","","NA"
"2018-07-07 10:00","2018","07","07","10:00","23.4","","8.6","","38","","14","","20","","24.1","","100.70","","","","","","Clear"
"2018-07-07 11:00","2018","07","07","11:00","23.9","","9.8","","40","","13","","13","","24.1","","100.66","","25","","","","NA"
"2018-07-07 12:00","2018","07","07","12:00","24.6","","9.7","","38","","11","","15","","24.1","","100.64","","26","","","","NA"
"2018-07-07 13:00","2018","07","07","13:00","24.8","","11.5","","43","","12","","25","","24.1","","100.57","","27","","","","Clear"
"2018-07-07 14:00","2018","07","07","14:00","25.0","","9.9","","38","","12","","19","","19.3","","100.51","","26","","","","NA"
"2018-07-07 15:00","2018","07","07","15:00","24.9","","6.8","","31","","8","","9","","19.3","","100.51","","25","","","","NA"
"2018-07-07 16:00","2018","07","07","16:00","25.1","","9.4","","37","","4","","22","","19.3","","100.51","","26","","","","Clear"
"2018-07-07 17:00","2018","07","07","17:00","24.8","","10.3","","40","","4","","10","","19.3","","100.40","","26","","","","NA"
"2018-07-07 18:00","2018","07","07","18:00","24.2","","9.7","","39","","6","","16","","19.3","","100.33","","25","","","","NA"
"2018-07-07 19:00","2018","07","07","19:00","23.1","","9.9","","43","","6","","13","","19.3","","100.32","","","","","","Mostly Cloudy"
"2018-07-07 20:00","2018","07","07","20:00","21.1","","10.1","","49","","9","","9","","19.3","","100.34","","","","","","NA"
"2018-07-07 21:00","2018","07","07","21:00","20.1","","9.6","","50","","6","","5","","19.3","","100.37","","","","","","NA"
"2018-07-07 22:00","2018","07","07","22:00","17.9","","11.1","","64","","14","","3","","19.3","","100.37","","","","","","Clear"
"2018-07-07 23:00","2018","07","07","23:00","16.7","","10.7","","67","","13","","5","","19.3","","100.37","","","","","","NA"
"2018-07-08 00:00","2018","07","08","00:00","16.2","","10.5","","69","","7","","3","","24.1","","100.36","","","","","","NA"
"2018-07-08 01:00","2018","07","08","01:00","15.4","","10.5","","72","","8","","4","","24.1","","100.35","","","","","","Clear"
"2018-07-08 02:00","2018","07","08","02:00","14.6","","11.1","","79","","6","","3","","24.1","","100.32","","","","","","NA"
"2018-07-08 03:00","2018","07","08","03:00","14.5","","10.6","","78","","6","","4","","24.1","","100.28","","","","","","NA"
"2018-07-08 04:00","2018","07","08","04:00","14.1","","10.7","","80","","2","","3","","24.1","","100.31","","","","","","Mainly Clear"
"2018-07-08 05:00","2018","07","08","05:00","15.1","","11.4","","78","","36","","3","","24.1","","100.36","","","","","","NA"
"2018-07-08 06:00","2018","07","08","06:00","15.4","","12.7","","84","","36","","3","","24.1","","100.40","","","","","","NA"
"2018-07-08 07:00","2018","07","08","07:00","19.5","","15.8","","79","","7","","4","","24.1","","100.43","","","","","","Mainly Clear"
"2018-07-08 08:00","2018","07","08","08:00","22.3","","16.5","","69","","18","","3","","24.1","","100.46","","27","","","","NA"
"2018-07-08 09:00","2018","07","08","09:00","24.3","","14.5","","54","","18","","9","","24.1","","100.47","","28","","","","NA"
"2018-07-08 10:00","2018","07","08","10:00","25.1","","13.4","","48","","19","","7","","24.1","","100.41","","28","","","","Clear"
"2018-07-08 11:00","2018","07","08","11:00","26.1","","15.9","","53","","23","","6","","24.1","","100.37","","31","","","","NA"
"2018-07-08 12:00","2018","07","08","12:00","26.5","","14.1","","46","","18","","9","","24.1","","100.33","","30","","","","NA"
"2018-07-08 13:00","2018","07","08","13:00","27.9","","12.8","","39","","19","","10","","24.1","","100.31","","31","","","","Clear"
"2018-07-08 14:00","2018","07","08","14:00","27.7","","12.3","","38","","24","","4","","24.1","","100.27","","30","","","","NA"
"2018-07-08 15:00","2018","07","08","15:00","28.6","","11.1","","33","","20","","7","","19.3","","100.23","","30","","","","NA"
"2018-07-08 16:00","2018","07","08","16:00","28.9","","13.0","","37","","15","","16","","19.3","","100.20","","32","","","","Clear"
"2018-07-08 17:00","2018","07","08","17:00","27.8","","11.1","","35","","15","","18","","19.3","","100.14","","30","","","","NA"
"2018-07-08 18:00","2018","07","08","18:00","27.1","","10.5","","35","","18","","16","","19.3","","100.10","","29","","","","NA"
"2018-07-08 19:00","2018","07","08","19:00","25.5","","11.0","","40","","17","","17","","19.3","","100.09","","27","","","","Clear"
"2018-07-08 20:00","2018","07","08","20:00","22.5","","12.5","","53","","16","","8","","19.3","","100.11","","25","","","","NA"
"2018-07-08 21:00","2018","07","08","21:00","19.9","","12.6","","62","","17","","9","","19.3","","100.11","","","","","","NA"
"2018-07-08 22:00","2018","07","08","22:00","18.8","","13.3","","70","","15","","5","","19.3","","100.10","","","","","","Clear"
"2018-07-08 23:00","2018","07","08","23:00","18.6","","14.1","","75","","36","","1","","19.3","","100.07","","","","","","NA"
"2018-07-09 00:00","2018","07","09","00:00","17.0","","14.7","","86","","15","","4","","24.1","","100.06","","","","","","NA"
"2018-07-09 01:00","2018","07","09","01:00","19.1","","17.0","","88","","19","","9","","24.1","","100.08","","","","","","Clear"
"2018-07-09 02:00","2018","07","09","02:00","18.6","","16.6","","88","","21","","5","","24.1","","100.13","","","","","","NA"
"2018-07-09 03:00","2018","07","09","03:00","16.9","","15.6","","92","","20","","7","","24.1","","100.11","","","","","","NA"
"2018-07-09 04:00","2018","07","09","04:00","15.1","","13.8","","92","","21","","4","","24.1","","100.06","","","","","","Clear"
"2018-07-09 05:00","2018","07","09","05:00","16.6","","15.6","","94","","24","","6","","19.3","","100.03","","","","","","NA"
"2018-07-09 06:00","2018","07","09","06:00","18.4","","16.4","","88","","23","","8","","24.1","","100.03","","","","","","NA"
"2018-07-09 07:00","2018","07","09","07:00","21.1","","15.6","","71","","26","","8","","24.1","","100.06","","25","","","","Clear"
"2018-07-09 08:00","2018","07","09","08:00","24.1","","15.6","","58","","23","","12","","24.1","","100.07","","28","","","","NA"
"2018-07-09 09:00","2018","07","09","09:00","26.4","","16.2","","53","","28","","15","","24.1","","100.04","","31","","","","NA"
"2018-07-09 10:00","2018","07","09","10:00","27.4","","15.6","","48","","26","","17","","24.1","","99.99","","32","","","","Clear"
"2018-07-09 11:00","2018","07","09","11:00","28.0","","16.2","","48","","24","","14","","24.1","","99.92","","33","","","","NA"
"2018-07-09 12:00","2018","07","09","12:00","28.9","","17.3","","49","","26","","14","","24.1","","99.91","","34","","","","NA"
"2018-07-09 13:00","2018","07","09","13:00","30.3","","17.1","","44","","22","","17","","24.1","","99.85","","36","","","","Mainly Clear"
"2018-07-09 14:00","2018","07","09","14:00","30.8","","16.8","","42","","22","","21","","24.1","","99.78","","36","","","","NA"
"2018-07-09 15:00","2018","07","09","15:00","31.5","","16.5","","40","","23","","21","","19.3","","99.70","","36","","","","NA"
"2018-07-09 16:00","2018","07","09","16:00","31.7","","16.4","","39","","24","","17","","19.3","","99.63","","37","","","","Mainly Clear"
"2018-07-09 17:00","2018","07","09","17:00","32.0","","16.1","","38","","23","","18","","19.3","","99.61","","37","","","","NA"
"2018-07-09 18:00","2018","07","09","18:00","31.3","","15.3","","37","","23","","22","","19.3","","99.57","","35","","","","NA"
"2018-07-09 19:00","2018","07","09","19:00","30.0","","16.2","","43","","24","","19","","19.3","","99.55","","35","","","","Mainly Clear"
"2018-07-09 20:00","2018","07","09","20:00","28.1","","15.7","","46","","26","","19","","19.3","","99.56","","33","","","","NA"
"2018-07-09 21:00","2018","07","09","21:00","26.8","","14.7","","47","","28","","14","","19.3","","99.58","","31","","","","NA"
"2018-07-09 22:00","2018","07","09","22:00","24.2","","14.6","","55","","27","","10","","19.3","","99.62","","28","","","","Clear"
"2018-07-09 23:00","2018","07","09","23:00","23.4","","14.3","","56","","27","","10","","19.3","","99.60","","27","","","","NA"
"2018-07-10 00:00","2018","07","10","00:00","21.9","","14.8","","64","","26","","10","","19.3","","99.59","","26","","","","NA"
"2018-07-10 01:00","2018","07","10","01:00","20.5","","15.3","","72","","25","","11","","19.3","","99.56","","25","","","","Clear"
"2018-07-10 02:00","2018","07","10","02:00","20.0","","15.6","","75","","26","","12","","19.3","","99.52","","","","","","NA"
"2018-07-10 03:00","2018","07","10","03:00","20.7","","15.5","","72","","25","","13","","19.3","","99.49","","25","","","","NA"
"2018-07-10 04:00","2018","07","10","04:00","20.3","","15.3","","73","","25","","11","","24.1","","99.48","","","","","","Mainly Clear"
"2018-07-10 05:00","2018","07","10","05:00","20.7","","15.4","","71","","27","","9","","16.1","","99.49","","25","","","","NA"
"2018-07-10 06:00","2018","07","10","06:00","22.2","","16.2","","68","","28","","10","","19.3","","99.51","","27","","","","NA"
"2018-07-10 07:00","2018","07","10","07:00","24.3","","16.3","","61","","32","","13","","19.3","","99.54","","29","","","","Mostly Cloudy"
"2018-07-10 08:00","2018","07","10","08:00","24.1","","16.9","","64","","4","","19","","19.3","","99.56","","29","","","","NA"
"2018-07-10 09:00","2018","07","10","09:00","24.6","","12.8","","47","","3","","23","","19.3","","99.56","","27","","","","NA"
"2018-07-10 10:00","2018","07","10","10:00","26.2","","10.6","","37","","5","","18","","19.3","","99.53","","28","","","","Mostly Cloudy"
"2018-07-10 11:00","2018","07","10","11:00","27.1","","15.0","","47","","5","","10","","19.3","","99.53","","31","","","","NA"
"2018-07-10 12:00","2018","07","10","12:00","27.7","","14.8","","45","","6","","16","","19.3","","99.56","","32","","","","NA"
"2018-07-10 13:00","2018","07","10","13:00","28.8","","13.0","","37","","6","","17","","19.3","","99.53","","32","","","","Mostly Cloudy"
"2018-07-10 14:00","2018","07","10","14:00","28.7","","11.9","","35","","6","","16","","24.1","","99.45","","31","","","","NA"
"2018-07-10 15:00","2018","07","10","15:00","28.9","","12.0","","35","","6","","16","","24.1","","99.43","","31","","","","NA"
"2018-07-10 16:00","2018","07","10","16:00","29.2","","13.3","","37","","5","","18","","24.1","","99.39","","32","","","","Mainly Clear"
"2018-07-10 17:00","2018","07","10","17:00","27.2","","14.8","","46","","6","","32","","24.1","","99.46","","31","","","","NA"
"2018-07-10 18:00","2018","07","10","18:00","25.6","","11.6","","41","","6","","25","","24.1","","99.50","","28","","","","NA"
"2018-07-10 19:00","2018","07","10","19:00","24.3","","10.8","","42","","4","","26","","24.1","","99.48","","26","","","","Mostly Cloudy"
"2018-07-10 20:00","2018","07","10","20:00","23.1","","11.0","","46","","4","","27","","24.1","","99.51","","25","","","","NA"
"2018-07-10 21:00","2018","07","10","21:00","21.9","","11.7","","52","","5","","19","","24.1","","99.56","","","","","","NA"
"2018-07-10 22:00","2018","07","10","22:00","20.9","","11.5","","54","","3","","16","","24.1","","99.59","","","","","","Mainly Clear"
"2018-07-10 23:00","2018","07","10","23:00","19.9","","11.5","","58","","3","","12","","24.1","","99.60","","","","","","NA"
"2018-07-11 00:00","2018","07","11","00:00","20.1","","12.0","","59","","4","","16","","24.1","","99.60","","","","","","NA"
"2018-07-11 01:00","2018","07","11","01:00","18.7","","11.6","","63","","3","","10","","19.3","","99.62","","","","","","Clear"
"2018-07-11 02:00","2018","07","11","02:00","18.6","","12.0","","65","","33","","8","","19.3","","99.63","","","","","","NA"
"2018-07-11 03:00","2018","07","11","03:00","17.8","","11.2","","65","","35","","4","","19.3","","99.67","","","","","","NA"
"2018-07-11 04:00","2018","07","11","04:00","16.8","","10.1","","65","","34","","10","","19.3","","99.72","","","","","","Mainly Clear"
"2018-07-11 05:00","2018","07","11","05:00","16.7","","9.9","","64","","35","","9","","19.3","","99.74","","","","","","NA"
"2018-07-11 06:00","2018","07","11","06:00","17.5","","10.5","","63","","35","","8","","24.1","","99.79","","","","","","NA"
"2018-07-11 07:00","2018","07","11","07:00","20.1","","11.0","","56","","35","","6","","24.1","","99.82","","","","","","Clear"
"2018-07-11 08:00","2018","07","11","08:00","22.2","","11.5","","50","","1","","13","","24.1","","99.83","","","","","","NA"
"2018-07-11 09:00","2018","07","11","09:00","23.7","","13.3","","52","","3","","13","","24.1","","99.84","","27","","","","NA"
"2018-07-11 10:00","2018","07","11","10:00","24.7","","12.7","","47","","3","","11","","24.1","","99.84","","27","","","","Clear"
"2018-07-11 11:00","2018","07","11","11:00","25.9","","13.2","","45","","6","","10","","24.1","","99.86","","29","","","","NA"
"2018-07-11 12:00","2018","07","11","12:00","26.5","","11.5","","39","","4","","9","","24.1","","99.88","","29","","","","NA"
"2018-07-11 13:00","2018","07","11","13:00","27.3","","11.4","","37","","10","","19","","24.1","","99.81","","29","","","","Mainly Clear"
"2018-07-11 14:00","2018","07","11","14:00","27.8","","11.9","","36","","4","","11","","24.1","","99.80","","30","","","","NA"
"2018-07-11 15:00","2018","07","11","15:00","28.4","","12.2","","36","","7","","19","","19.3","","99.76","","31","","","","NA"
"2018-07-11 16:00","2018","07","11","16:00","28.1","","12.4","","37","","9","","17","","19.3","","99.76","","31","","","","Mainly Clear"
"2018-07-11 17:00","2018","07","11","17:00","26.4","","12.7","","42","","4","","28","","19.3","","99.79","","29","","","","NA"
"2018-07-11 18:00","2018","07","11","18:00","25.6","","11.9","","42","","4","","21","","19.3","","99.77","","28","","","","NA"
"2018-07-11 19:00","2018","07","11","19:00","24.2","","11.0","","43","","4","","19","","19.3","","99.77","","26","","","","Mainly Clear"
"2018-07-11 20:00","2018","07","11","20:00","21.9","","12.1","","53","","5","","11","","19.3","","99.79","","","","","","NA"
"2018-07-11 21:00","2018","07","11","21:00","20.1","","11.8","","59","","5","","11","","19.3","","99.85","","","","","","NA"
"2018-07-11 22:00","2018","07","11","22:00","19.7","","11.9","","60","","5","","10","","19.3","","99.91","","","","","","Mainly Clear"
"2018-07-11 23:00","2018","07","11","23:00","19.8","","10.8","","55","","3","","7","","24.1","","99.95","","","","","","NA"
"2018-07-12 00:00","2018","07","12","00:00","17.7","","11.9","","69","","26","","3","","24.1","","99.96","","","","","","NA"
"2018-07-12 01:00","2018","07","12","01:00","18.6","","12.0","","65","","33","","9","","24.1","","99.95","","","","","","Clear"
"2018-07-12 02:00","2018","07","12","02:00","17.8","","11.0","","64","","34","","5","","24.1","","99.92","","","","","","NA"
"2018-07-12 03:00","2018","07","12","03:00","17.0","","10.9","","67","","35","","8","","24.1","","99.94","","","","","","NA"
"2018-07-12 04:00","2018","07","12","04:00","15.7","","11.0","","73","","35","","9","","24.1","","99.97","","","","","","Clear"
"2018-07-12 05:00","2018","07","12","05:00","15.0","","11.4","","79","","36","","1","","24.1","","99.98","","","","","","NA"
"2018-07-12 06:00","2018","07","12","06:00","15.5","","12.5","","82","","36","","2","","19.3","","100.01","","","","","","NA"
"2018-07-12 07:00","2018","07","12","07:00","19.1","","14.7","","76","","36","","1","","19.3","","100.07","","","","","","Mostly Cloudy"
"2018-07-12 08:00","2018","07","12","08:00","22.3","","16.5","","69","","18","","6","","19.3","","100.09","","27","","","","NA"
"2018-07-12 09:00","2018","07","12","09:00","24.3","","15.8","","58","","19","","9","","19.3","","100.06","","29","","","","NA"
"2018-07-12 10:00","2018","07","12","10:00","26.1","","14.4","","48","","15","","14","","19.3","","100.08","","30","","","","Mainly Clear"
"2018-07-12 11:00","2018","07","12","11:00","27.0","","12.1","","39","","16","","16","","19.3","","100.17","","29","","","","NA"
"2018-07-12 12:00","2018","07","12","12:00","27.4","","12.4","","39","","19","","12","","19.3","","100.13","","30","","","","NA"
"2018-07-12 13:00","2018","07","12","13:00","27.4","","11.7","","37","","12","","16","","19.3","","100.05","","30","","","","Mostly Cloudy"
"2018-07-12 14:00","2018","07","12","14:00","27.4","","11.3","","36","","15","","13","","19.3","","100.02","","29","","","","NA"
"2018-07-12 15:00","2018","07","12","15:00","26.7","","9.7","","34","","16","","16","","24.1","","100.01","","28","","","","NA"
"2018-07-12 16:00","2018","07","12","16:00","27.3","","8.9","","31","","15","","17","","24.1","","100.02","","28","","","","Mostly Cloudy"
"2018-07-12 17:00","2018","07","12","17:00","26.7","","10.7","","36","","14","","15","","24.1","","99.94","","28","","","","NA"
"2018-07-12 18:00","2018","07","12","18:00","26.0","","9.4","","34","","12","","18","","24.1","","99.88","","27","","","","NA"
"2018-07-12 19:00","2018","07","12","19:00","24.8","","10.7","","41","","13","","9","","24.1","","99.93","","26","","","","Mostly Cloudy"
"2018-07-12 20:00","2018","07","12","20:00","22.6","","12.6","","53","","11","","10","","24.1","","99.96","","25","","","","NA"
"2018-07-12 21:00","2018","07","12","21:00","22.6","","12.5","","52","","13","","9","","24.1","","99.92","","25","","","","NA"
"2018-07-12 22:00","2018","07","12","22:00","22.3","","13.4","","57","","14","","9","","24.1","","99.92","","25","","","","Mostly Cloudy"
"2018-07-12 23:00","2018","07","12","23:00","22.0","","14.9","","64","","16","","8","","24.1","","99.96","","26","","","","NA"
"2018-07-13 00:00","2018","07","13","00:00","21.6","","15.6","","68","","18","","5","","24.1","","99.95","","26","","","","NA"
"2018-07-13 01:00","2018","07","13","01:00","20.2","","15.3","","73","","36","","2","","24.1","","99.94","","","","","","Mainly Clear"
"2018-07-13 02:00","2018","07","13","02:00","18.4","","15.2","","82","","36","","2","","24.1","","99.92","","","","","","NA"
"2018-07-13 03:00","2018","07","13","03:00","17.9","","14.9","","82","","36","","2","","24.1","","99.92","","","","","","NA"
"2018-07-13 04:00","2018","07","13","04:00","17.0","","15.1","","88","","11","","5","","24.1","","99.89","","","","","","Mostly Cloudy"
"2018-07-13 05:00","2018","07","13","05:00","17.5","","15.8","","89","","14","","10","","24.1","","99.90","","","","","","NA"
"2018-07-13 06:00","2018","07","13","06:00","19.2","","16.9","","86","","16","","6","","24.1","","99.88","","","","","","NA"
"2018-07-13 07:00","2018","07","13","07:00","22.1","","18.9","","82","","22","","7","","16.1","","99.89","","29","","","","Mostly Cloudy"
"2018-07-13 08:00","2018","07","13","08:00","23.4","","19.0","","76","","25","","8","","16.1","","99.87","","30","","","","NA"
"2018-07-13 09:00","2018","07","13","09:00","24.6","","17.1","","63","","21","","9","","16.1","","99.87","","30","","","","NA"
"2018-07-13 10:00","2018","07","13","10:00","26.9","","13.9","","44","","20","","16","","19.3","","99.89","","30","","","","Mainly Clear"
"2018-07-13 11:00","2018","07","13","11:00","27.9","","13.8","","41","","24","","13","","19.3","","99.90","","31","","","","NA"
"2018-07-13 12:00","2018","07","13","12:00","29.0","","13.0","","37","","18","","13","","19.3","","99.86","","32","","","","NA"
"2018-07-13 13:00","2018","07","13","13:00","30.4","","13.3","","35","","20","","17","","19.3","","99.81","","33","","","","Mainly Clear"
"2018-07-13 14:00","2018","07","13","14:00","30.5","","11.7","","31","","18","","20","","24.1","","99.76","","33","","","","NA"
"2018-07-13 15:00","2018","07","13","15:00","30.8","","9.7","","27","","16","","20","","24.1","","99.73","","32","","","","NA"
"2018-07-13 16:00","2018","07","13","16:00","31.2","","9.8","","26","","19","","14","","24.1","","99.68","","32","","","","Mainly Clear"
"2018-07-13 17:00","2018","07","13","17:00","30.8","","14.4","","36","","20","","16","","24.1","","99.61","","34","","","","NA"
"2018-07-13 18:00","2018","07","13","18:00","30.1","","14.1","","37","","21","","14","","24.1","","99.61","","34","","","","NA"
"2018-07-13 19:00","2018","07","13","19:00","29.3","","13.8","","38","","18","","14","","24.1","","99.55","","33","","","","Clear"
"2018-07-13 20:00","2018","07","13","20:00","27.0","","15.3","","48","","19","","14","","24.1","","99.54","","31","","","","NA"
"2018-07-13 21:00","2018","07","13","21:00","25.2","","16.3","","57","","18","","16","","24.1","","99.58","","30","","","","NA"
"2018-07-13 22:00","2018","07","13","22:00","24.0","","18.5","","71","","17","","9","","24.1","","99.64","","30","","","","Clear"
"2018-07-13 23:00","2018","07","13","23:00","23.3","","19.4","","78","","20","","10","","24.1","","99.64","","30","","","","NA"
"2018-07-14 00:00","2018","07","14","00:00","22.1","","19.4","","85","","14","","5","","24.1","","99.64","","29","","","","NA"
"2018-07-14 01:00","2018","07","14","01:00","21.9","","19.4","","85","","19","","8","","24.1","","99.60","","29","","","","Clear"
"2018-07-14 02:00","2018","07","14","02:00","20.6","","18.8","","89","","14","","3","","24.1","","99.55","","27","","","","NA"
"2018-07-14 03:00","2018","07","14","03:00","22.0","","19.7","","87","","23","","3","","24.1","","99.52","","29","","","","NA"
"2018-07-14 04:00","2018","07","14","04:00","21.8","","19.6","","87","","36","","3","","24.1","","99.50","","29","","","","Mainly Clear"
"2018-07-14 05:00","2018","07","14","05:00","21.5","","19.4","","88","","23","","3","","24.1","","99.52","","29","","","","NA"
"2018-07-14 06:00","2018","07","14","06:00","21.9","","19.9","","88","","20","","8","","12.9","","99.56","","29","","","","NA"
"2018-07-14 07:00","2018","07","14","07:00","24.2","","18.8","","71","","22","","8","","16.1","","99.59","","31","","","","Mostly Cloudy"
"2018-07-14 08:00","2018","07","14","08:00","25.8","","18.5","","64","","21","","12","","16.1","","99.57","","32","","","","NA"
"2018-07-14 09:00","2018","07","14","09:00","27.0","","19.1","","61","","24","","11","","16.1","","99.57","","34","","","","NA"
"2018-07-14 10:00","2018","07","14","10:00","29.4","","19.7","","55","","25","","9","","16.1","","99.57","","37","","","","Cloudy"
"2018-07-14 11:00","2018","07","14","11:00","29.7","","19.4","","53","","24","","14","","16.1","","99.53","","37","","","","NA"
"2018-07-14 12:00","2018","07","14","12:00","29.6","","19.1","","53","","23","","15","","16.1","","99.54","","36","","","","NA"
"2018-07-14 13:00","2018","07","14","13:00","29.5","","19.5","","54","","24","","18","","16.1","","99.56","","37","","","","Cloudy"
"2018-07-14 14:00","2018","07","14","14:00","30.0","","20.6","","56","","26","","14","","11.3","","99.53","","38","","","","NA"
"2018-07-14 15:00","2018","07","14","15:00","29.6","","20.1","","56","","24","","15","","19.3","","99.48","","37","","","","NA"
"2018-07-14 16:00","2018","07","14","16:00","29.4","","20.1","","57","","27","","16","","19.3","","99.47","","37","","","","Cloudy"
"2018-07-14 17:00","2018","07","14","17:00","29.0","","20.6","","60","","27","","4","","19.3","","99.37","","37","","","","NA"
"2018-07-14 18:00","2018","07","14","18:00","28.9","","20.1","","58","","32","","4","","19.3","","99.34","","37","","","","NA"
"2018-07-14 19:00","2018","07","14","19:00","28.0","","19.3","","58","","34","","17","","24.1","","99.30","","35","","","","Mostly Cloudy"
"2018-07-14 20:00","2018","07","14","20:00","27.0","","18.8","","60","","33","","10","","24.1","","99.39","","34","","","","NA"
"2018-07-14 21:00","2018","07","14","21:00","26.8","","18.2","","59","","31","","14","","24.1","","99.43","","33","","","","NA"
"2018-07-14 22:00","2018","07","14","22:00","24.8","","18.7","","69","","26","","6","","24.1","","99.43","","31","","","","Mostly Cloudy"
"2018-07-14 23:00","2018","07","14","23:00","25.8","","19.3","","67","","32","","8","","24.1","","99.44","","33","","","","NA"
"2018-07-15 00:00","2018","07","15","00:00","23.9","","19.6","","76","","36","","1","","16.1","","99.43","","31","","","","NA"
"2018-07-15 01:00","2018","07","15","01:00","24.4","","19.9","","76","","36","","2","","16.1","","99.39","","32","","","","Cloudy"
"2018-07-15 02:00","2018","07","15","02:00","23.8","","20.8","","83","","20","","3","","16.1","","99.40","","32","","","","NA"
"2018-07-15 03:00","2018","07","15","03:00","23.7","","20.9","","84","","","","0","","16.1","","99.39","","32","","","","NA"
"2018-07-15 04:00","2018","07","15","04:00","23.5","","20.8","","85","","18","","6","","16.1","","99.40","","32","","","","Cloudy"
"2018-07-15 05:00","2018","07","15","05:00","22.7","","20.6","","88","","36","","2","","16.1","","99.42","","31","","","","NA"
"2018-07-15 06:00","2018","07","15","06:00","22.9","","20.9","","89","","19","","3","","19.3","","99.41","","31","","","","NA"
"2018-07-15 07:00","2018","07","15","07:00","25.4","","21.1","","77","","36","","2","","24.1","","99.40","","34","","","","Mainly Clear"
"2018-07-15 08:00","2018","07","15","08:00","26.8","","21.1","","70","","36","","2","","24.1","","99.39","","35","","","","NA"
"2018-07-15 09:00","2018","07","15","09:00","28.0","","20.7","","64","","20","","4","","24.1","","99.36","","36","","","","NA"
"2018-07-15 10:00","2018","07","15","10:00","28.9","","21.2","","63","","28","","3","","24.1","","99.33","","37","","","","Mostly Cloudy"
"2018-07-15 11:00","2018","07","15","11:00","29.1","","20.4","","59","","24","","5","","19.3","","99.33","","37","","","","NA"
"2018-07-15 12:00","2018","07","15","12:00","30.4","","21.7","","59","","36","","7","","19.3","","99.29","","39","","","","NA"
"2018-07-15 13:00","2018","07","15","13:00","30.3","","21.1","","57","","4","","13","","19.3","","99.29","","39","","","","Mostly Cloudy"
"2018-07-15 14:00","2018","07","15","14:00","29.7","","21.3","","60","","15","","7","","19.3","","99.25","","38","","","","NA"
"2018-07-15 15:00","2018","07","15","15:00","32.1","","21.4","","52","","19","","17","","19.3","","99.22","","41","","","","NA"
"2018-07-15 16:00","2018","07","15","16:00","31.9","","20.4","","50","","24","","5","","19.3","","99.15","","40","","","","Mainly Clear"
"2018-07-15 17:00","2018","07","15","17:00","31.9","","21.2","","52","","15","","10","","19.3","","99.10","","40","","","","NA"
"2018-07-15 18:00","2018","07","15","18:00","31.1","","21.4","","56","","14","","19","","24.1","","99.08","","40","","","","NA"
"2018-07-15 19:00","2018","07","15","19:00","29.2","","21.4","","62","","16","","11","","19.3","","99.10","","38","","","","Mainly Clear"
"2018-07-15 20:00","2018","07","15","20:00","28.9","","21.6","","64","","30","","5","","19.3","","99.16","","38","","","","NA"
"2018-07-15 21:00","2018","07","15","21:00","25.9","","21.6","","77","","16","","8","","24.1","","99.19","","35","","","","NA"
"2018-07-15 22:00","2018","07","15","22:00","25.3","","21.2","","78","","18","","7","","24.1","","99.19","","34","","","","Mostly Cloudy"
"2018-07-15 23:00","2018","07","15","23:00","25.0","","21.6","","81","","19","","7","","24.1","","99.19","","34","","","","NA"
"2018-07-16 00:00","2018","07","16","00:00","23.9","","21.2","","85","","15","","7","","19.3","","99.17","","32","","","","NA"
"2018-07-16 01:00","2018","07","16","01:00","23.6","","21.8","","89","","17","","10","","16.1","","99.14","","33","","","","Clear"
"2018-07-16 02:00","2018","07","16","02:00","23.9","","21.9","","88","","20","","11","","19.3","","99.13","","33","","","","NA"
"2018-07-16 03:00","2018","07","16","03:00","24.4","","21.5","","83","","22","","12","","19.3","","99.14","","33","","","","NA"
"2018-07-16 04:00","2018","07","16","04:00","23.4","","21.0","","86","","20","","11","","19.3","","99.08","","32","","","","Mainly Clear"
"2018-07-16 05:00","2018","07","16","05:00","22.7","","20.8","","89","","22","","9","","12.9","","99.07","","31","","","","NA"
"2018-07-16 06:00","2018","07","16","06:00","23.8","","21.4","","86","","22","","9","","12.9","","99.10","","33","","","","NA"
"2018-07-16 07:00","2018","07","16","07:00","24.5","","21.6","","84","","24","","15","","12.9","","99.11","","33","","","","Mostly Cloudy"
"2018-07-16 08:00","2018","07","16","08:00","26.1","","22.1","","79","","24","","12","","12.9","","99.13","","36","","","","NA"
"2018-07-16 09:00","2018","07","16","09:00","27.3","","22.4","","74","","20","","14","","12.9","","99.11","","37","","","","NA"
"2018-07-16 10:00","2018","07","16","10:00","29.3","","23.1","","68","","22","","9","","19.3","","99.10","","40","","","","Mainly Clear"
"2018-07-16 11:00","2018","07","16","11:00","29.6","","22.9","","67","","24","","16","","19.3","","99.07","","40","","","","NA"
"2018-07-16 12:00","2018","07","16","12:00","30.8","","22.8","","62","","22","","21","","19.3","","99.02","","41","","","","NA"
"2018-07-16 13:00","2018","07","16","13:00","31.1","","22.6","","60","","22","","19","","19.3","","98.94","","41","","","","Mostly Cloudy"
"2018-07-16 14:00","2018","07","16","14:00","30.2","","22.2","","62","","21","","28","","19.3","","98.87","","40","","","","NA"
"2018-07-16 15:00","2018","07","16","15:00","29.0","","21.5","","63","","23","","23","","19.3","","98.84","","38","","","","NA"
"2018-07-16 16:00","2018","07","16","16:00","28.9","","21.7","","65","","21","","18","","19.3","","98.82","","38","","","","Mostly Cloudy"
"2018-07-16 17:00","2018","07","16","17:00","29.1","","23.0","","69","","29","","13","","19.3","","98.81","","39","","","","NA"
"2018-07-16 18:00","2018","07","16","18:00","25.5","","20.5","","74","","6","","12","","19.3","","98.88","","33","","","","NA"
"2018-07-16 19:00","2018","07","16","19:00","25.7","","20.2","","71","","11","","7","","19.3","","98.81","","33","","","","Mostly Cloudy"
"2018-07-16 20:00","2018","07","16","20:00","25.2","","20.4","","74","","36","","3","","19.3","","98.77","","33","","","","NA"
"2018-07-16 21:00","2018","07","16","21:00","24.7","","20.8","","79","","19","","8","","19.3","","98.86","","33","","","","NA"
"2018-07-16 22:00","2018","07","16","22:00","24.9","","20.1","","74","","24","","10","","19.3","","98.91","","33","","","","Mainly Clear"
"2018-07-16 23:00","2018","07","16","23:00","23.9","","19.2","","75","","27","","13","","19.3","","98.91","","31","","","","NA"
"2018-07-17 00:00","2018","07","17","00:00","24.6","","18.4","","68","","30","","23","","19.3","","98.91","","31","","","","NA"
"2018-07-17 01:00","2018","07","17","01:00","23.4","","17.2","","68","","33","","19","","19.3","","98.92","","29","","","","Clear"
"2018-07-17 02:00","2018","07","17","02:00","22.7","","15.8","","65","","33","","18","","19.3","","98.94","","27","","","","NA"
"2018-07-17 03:00","2018","07","17","03:00","21.7","","15.0","","65","","35","","16","","19.3","","99.00","","26","","","","NA"
"2018-07-17 04:00","2018","07","17","04:00","20.1","","14.8","","71","","34","","10","","19.3","","99.02","","","","","","Clear"
"2018-07-17 05:00","2018","07","17","05:00","19.4","","14.4","","73","","35","","10","","19.3","","99.07","","","","","","NA"
"2018-07-17 06:00","2018","07","17","06:00","19.8","","15.1","","74","","34","","8","","19.3","","99.15","","","","","","NA"
"2018-07-17 07:00","2018","07","17","07:00","21.4","","13.9","","62","","35","","11","","24.1","","99.22","","25","","","","Clear"
"2018-07-17 08:00","2018","07","17","08:00","23.2","","12.8","","52","","2","","18","","24.1","","99.25","","26","","","","NA"
"2018-07-17 09:00","2018","07","17","09:00","24.5","","12.0","","45","","35","","9","","24.1","","99.26","","27","","","","NA"
"2018-07-17 10:00","2018","07","17","10:00","25.9","","12.5","","43","","36","","16","","24.1","","99.27","","28","","","","Clear"
"2018-07-17 11:00","2018","07","17","11:00","25.8","","13.6","","46","","33","","17","","24.1","","99.27","","29","","","","NA"
"2018-07-17 12:00","2018","07","17","12:00","26.4","","13.1","","43","","31","","12","","24.1","","99.26","","29","","","","NA"
"2018-07-17 13:00","2018","07","17","13:00","27.9","","11.0","","34","","33","","32","","24.1","","99.23","","30","","","","Mostly Cloudy"
"2018-07-17 14:00","2018","07","17","14:00","27.2","","10.1","","34","","33","","28","","24.1","","99.24","","29","","","","NA"
"2018-07-17 15:00","2018","07","17","15:00","27.5","","10.3","","34","","33","","26","","24.1","","99.26","","29","","","","NA"
"2018-07-17 16:00","2018","07","17","16:00","26.8","","10.6","","36","","33","","26","","24.1","","99.25","","28","","","","Mainly Clear"
"2018-07-17 17:00","2018","07","17","17:00","26.6","","10.1","","35","","34","","20","","24.1","","99.24","","28","","","","NA"
"2018-07-17 18:00","2018","07","17","18:00","25.9","","9.8","","36","","35","","23","","24.1","","99.24","","27","","","","NA"
"2018-07-17 19:00","2018","07","17","19:00","25.6","","10.4","","38","","36","","24","","24.1","","99.27","","27","","","","Mainly Clear"
"2018-07-17 20:00","2018","07","17","20:00","22.7","","14.8","","60","","5","","23","","24.1","","99.33","","27","","","","NA"
"2018-07-17 21:00","2018","07","17","21:00","20.8","","14.8","","68","","5","","26","","24.1","","99.41","","25","","","","NA"
"2018-07-17 22:00","2018","07","17","22:00","19.8","","13.8","","68","","6","","16","","24.1","","99.48","","","","","","Clear"
"2018-07-17 23:00","2018","07","17","23:00","18.2","","13.6","","74","","6","","11","","19.3","","99.54","","","","","","NA"
"2018-07-18 00:00","2018","07","18","00:00","18.0","","13.9","","77","","6","","9","","24.1","","99.55","","","","","","NA"
"2018-07-18 01:00","2018","07","18","01:00","17.0","","14.1","","83","","5","","8","","19.3","","99.58","","","","","","Clear"
"2018-07-18 02:00","2018","07","18","02:00","17.2","","14.4","","83","","35","","7","","24.1","","99.59","","","","","","NA"
"2018-07-18 03:00","2018","07","18","03:00","16.8","","14.4","","86","","35","","9","","24.1","","99.57","","","","","","NA"
"2018-07-18 04:00","2018","07","18","04:00","16.3","","13.9","","86","","35","","10","","24.1","","99.58","","","","","","Mainly Clear"
"2018-07-18 05:00","2018","07","18","05:00","16.1","","13.8","","86","","35","","9","","24.1","","99.63","","","","","","NA"
"2018-07-18 06:00","2018","07","18","06:00","17.0","","13.8","","82","","35","","10","","24.1","","99.67","","","","","","NA"
"2018-07-18 07:00","2018","07","18","07:00","18.7","","14.1","","74","","1","","14","","24.1","","99.71","","","","","","Clear"
"2018-07-18 08:00","2018","07","18","08:00","20.5","","14.9","","70","","3","","12","","24.1","","99.73","","","","","","NA"
"2018-07-18 09:00","2018","07","18","09:00","22.1","","12.9","","55","","2","","12","","24.1","","99.73","","25","","","","NA"
"2018-07-18 10:00","2018","07","18","10:00","23.4","","13.4","","53","","4","","12","","24.1","","99.71","","26","","","","Mainly Clear"
"2018-07-18 11:00","2018","07","18","11:00","24.0","","11.9","","46","","6","","16","","24.1","","99.70","","26","","","","NA"
"2018-07-18 12:00","2018","07","18","12:00","24.6","","11.3","","43","","5","","16","","24.1","","99.68","","27","","","","NA"
"2018-07-18 13:00","2018","07","18","13:00","24.5","","11.6","","44","","6","","12","","24.1","","99.66","","27","","","","Mainly Clear"
"2018-07-18 14:00","2018","07","18","14:00","25.1","","11.7","","43","","7","","11","","24.1","","99.62","","27","","","","NA"
"2018-07-18 15:00","2018","07","18","15:00","25.7","","11.0","","39","","4","","12","","24.1","","99.58","","27","","","","NA"
"2018-07-18 16:00","2018","07","18","16:00","25.6","","11.8","","42","","10","","8","","24.1","","99.52","","28","","","","Mainly Clear"
"2018-07-18 17:00","2018","07","18","17:00","25.7","","11.4","","40","","9","","13","","24.1","","99.47","","28","","","","NA"
"2018-07-18 18:00","2018","07","18","18:00","25.2","","11.7","","43","","14","","8","","24.1","","99.47","","27","","","","NA"
"2018-07-18 19:00","2018","07","18","19:00","23.6","","13.7","","53","","18","","18","","24.1","","99.48","","27","","","","Mainly Clear"
"2018-07-18 20:00","2018","07","18","20:00","21.5","","13.5","","60","","15","","9","","24.1","","99.48","","25","","","","NA"
"2018-07-18 21:00","2018","07","18","21:00","19.8","","13.8","","68","","18","","8","","24.1","","99.51","","","","","","NA"
"2018-07-18 22:00","2018","07","18","22:00","18.4","","13.6","","73","","5","","3","","24.1","","99.55","","","","","","Mainly Clear"
"2018-07-18 23:00","2018","07","18","23:00","20.3","","13.4","","64","","36","","1","","24.1","","99.55","","","","","","NA"
"2018-07-19 00:00","2018","07","19","00:00","17.2","","13.7","","80","","18","","3","","24.1","","99.57","","","","","","NA"
"2018-07-19 01:00","2018","07","19","01:00","16.2","","13.2","","82","","7","","5","","24.1","","99.56","","","","","","Clear"
"2018-07-19 02:00","2018","07","19","02:00","15.3","","13.2","","87","","36","","2","","24.1","","99.57","","","","","","NA"
"2018-07-19 03:00","2018","07","19","03:00","16.6","","13.3","","81","","36","","2","","24.1","","99.57","","","","","","NA"
"2018-07-19 04:00","2018","07","19","04:00","14.4","","12.5","","89","","13","","4","","24.1","","99.57","","","","","","Clear"
"2018-07-19 05:00","2018","07","19","05:00","14.9","","13.0","","88","","14","","5","","24.1","","99.59","","","","","","NA"
"2018-07-19 06:00","2018","07","19","06:00","15.8","","13.7","","87","","14","","5","","24.1","","99.61","","","","","","NA"
"2018-07-19 07:00","2018","07","19","07:00","19.5","","14.9","","75","","9","","3","","24.1","","99.61","","","","","","Mostly Cloudy"
"2018-07-19 08:00","2018","07","19","08:00","22.8","","16.2","","66","","15","","11","","24.1","","99.63","","28","","","","NA"
"2018-07-19 09:00","2018","07","19","09:00","24.7","","14.8","","53","","14","","19","","24.1","","99.63","","29","","","","NA"
"2018-07-19 10:00","2018","07","19","10:00","25.2","","14.3","","50","","17","","14","","24.1","","99.61","","29","","","","Mostly Cloudy"
"2018-07-19 11:00","2018","07","19","11:00","26.1","","13.3","","44","","14","","17","","24.1","","99.60","","29","","","","NA"
"2018-07-19 12:00","2018","07","19","12:00","26.2","","12.4","","42","","14","","13","","24.1","","99.56","","29","","","","NA"
"2018-07-19 13:00","2018","07","19","13:00","26.6","","12.3","","40","","17","","18","","24.1","","99.51","","29","","","","Mostly Cloudy"
"2018-07-19 14:00","2018","07","19","14:00","27.3","","13.2","","41","","15","","11","","24.1","","99.48","","30","","","","NA"
"2018-07-19 15:00","2018","07","19","15:00","27.1","","11.9","","38","","12","","15","","24.1","","99.44","","29","","","","NA"
"2018-07-19 16:00","2018","07","19","16:00","27.5","","12.2","","38","","17","","10","","24.1","","99.41","","30","","","","Cloudy"
"2018-07-19 17:00","2018","07","19","17:00","27.8","","10.0","","32","","16","","14","","24.1","","99.37","","29","","","","NA"
"2018-07-19 18:00","2018","07","19","18:00","26.9","","11.6","","38","","14","","11","","24.1","","99.31","","29","","","","NA"
"2018-07-19 19:00","2018","07","19","19:00","25.5","","14.8","","51","","11","","15","","24.1","","99.27","","29","","","","Mainly Clear"
"2018-07-19 20:00","2018","07","19","20:00","22.6","","14.7","","61","","13","","13","","24.1","","99.27","","26","","","","NA"
"2018-07-19 21:00","2018","07","19","21:00","20.3","","14.9","","71","","12","","11","","24.1","","99.27","","","","","","NA"
"2018-07-19 22:00","2018","07","19","22:00","19.5","","15.1","","76","","10","","10","","24.1","","99.24","","","","","","Clear"
"2018-07-19 23:00","2018","07","19","23:00","18.9","","15.7","","82","","11","","8","","24.1","","99.23","","","","","","NA"
"2018-07-20 00:00","2018","07","20","00:00","18.8","","16.1","","84","","11","","10","","24.1","","99.20","","","","","","NA"
"2018-07-20 01:00","2018","07","20","01:00","18.9","","16.8","","87","","11","","10","","24.1","","99.13","","","","","","Clear"
"2018-07-20 02:00","2018","07","20","02:00","17.8","","16.4","","91","","10","","5","","24.1","","99.09","","","","","","NA"
"2018-07-20 03:00","2018","07","20","03:00","17.2","","16.4","","95","","12","","5","","24.1","","99.07","","","","","","NA"
"2018-07-20 04:00","2018","07","20","04:00","16.9","","16.2","","96","","12","","8","","24.1","","99.02","","","","","","Clear"
"2018-07-20 05:00","2018","07","20","05:00","17.1","","16.0","","93","","11","","5","","24.1","","98.98","","","","","","NA"
"2018-07-20 06:00","2018","07","20","06:00","18.3","","16.9","","92","","11","","4","","24.1","","98.97","","","","","","NA"
"2018-07-20 07:00","2018","07","20","07:00","21.9","","18.9","","83","","13","","10","","24.1","","98.96","","29","","","","Mostly Cloudy"
"2018-07-20 08:00","2018","07","20","08:00","24.8","","19.8","","73","","17","","18","","24.1","","98.93","","32","","","","NA"
"2018-07-20 09:00","2018","07","20","09:00","25.8","","20.2","","71","","19","","23","","24.1","","98.92","","34","","","","NA"
"2018-07-20 10:00","2018","07","20","10:00","27.2","","20.5","","66","","20","","21","","19.3","","98.91","","35","","","","Mostly Cloudy"
"2018-07-20 11:00","2018","07","20","11:00","26.3","","18.9","","63","","21","","21","","19.3","","98.90","","33","","","","NA"
"2018-07-20 12:00","2018","07","20","12:00","23.2","","20.3","","83","","20","","23","","9.7","","98.95","","31","","","","Rain Showers"
"2018-07-20 13:00","2018","07","20","13:00","22.2","","19.7","","86","","20","","19","","11.3","","98.93","","30","","","","Rain Showers"
"2018-07-20 14:00","2018","07","20","14:00","22.3","","21.0","","92","","12","","15","","11.3","","98.76","","31","","","","Rain Showers"
"2018-07-20 15:00","2018","07","20","15:00","23.3","","19.7","","80","","14","","25","","24.1","","98.66","","31","","","","NA"
"2018-07-20 16:00","2018","07","20","16:00","24.9","","19.7","","73","","16","","29","","24.1","","98.64","","32","","","","Mostly Cloudy"
"2018-07-20 17:00","2018","07","20","17:00","24.8","","20.2","","75","","17","","27","","24.1","","98.63","","33","","","","NA"
"2018-07-20 18:00","2018","07","20","18:00","24.2","","19.6","","75","","15","","23","","24.1","","98.59","","31","","","","NA"
"2018-07-20 19:00","2018","07","20","19:00","24.2","","18.5","","70","","19","","21","","24.1","","98.62","","31","","","","Mostly Cloudy"
"2018-07-20 20:00","2018","07","20","20:00","22.9","","19.0","","78","","13","","9","","24.1","","98.57","","30","","","","NA"
"2018-07-20 21:00","2018","07","20","21:00","22.7","","18.8","","78","","16","","11","","19.3","","98.59","","29","","","","Rain"
"2018-07-20 22:00","2018","07","20","22:00","22.4","","18.0","","75","","19","","12","","24.1","","98.61","","28","","","","Cloudy"
"2018-07-20 23:00","2018","07","20","23:00","21.3","","18.9","","86","","16","","9","","24.1","","98.60","","28","","","","NA"
"2018-07-21 00:00","2018","07","21","00:00","21.3","","18.4","","83","","16","","13","","24.1","","98.59","","28","","","","NA"
"2018-07-21 01:00","2018","07","21","01:00","21.7","","17.6","","77","","17","","13","","24.1","","98.55","","27","","","","Mostly Cloudy"
"2018-07-21 02:00","2018","07","21","02:00","20.5","","17.9","","85","","14","","8","","24.1","","98.51","","26","","","","NA"
"2018-07-21 03:00","2018","07","21","03:00","20.4","","17.6","","84","","14","","11","","24.1","","98.47","","26","","","","NA"
"2018-07-21 04:00","2018","07","21","04:00","21.0","","18.2","","84","","15","","14","","24.1","","98.45","","27","","","","Cloudy"
"2018-07-21 05:00","2018","07","21","05:00","20.9","","18.6","","86","","16","","13","","24.1","","98.46","","27","","","","NA"
"2018-07-21 06:00","2018","07","21","06:00","20.2","","18.8","","92","","17","","13","","8.1","","98.48","","27","","","","Drizzle"
"2018-07-21 07:00","2018","07","21","07:00","20.2","","19.1","","93","","15","","8","","9.7","","98.52","","27","","","","Drizzle"
"2018-07-21 08:00","2018","07","21","08:00","20.6","","18.9","","90","","16","","15","","12.9","","98.54","","27","","","","Drizzle"
"2018-07-21 09:00","2018","07","21","09:00","20.4","","19.2","","93","","13","","8","","9.7","","98.57","","27","","","","Drizzle"
"2018-07-21 10:00","2018","07","21","10:00","20.3","","19.5","","95","","15","","13","","6.4","","98.58","","27","","","","Rain,Fog"
"2018-07-21 11:00","2018","07","21","11:00","20.7","","19.4","","93","","16","","15","","12.9","","98.62","","28","","","","Rain"
"2018-07-21 12:00","2018","07","21","12:00","21.1","","19.4","","90","","15","","17","","16.1","","98.60","","28","","","","Rain"
"2018-07-21 13:00","2018","07","21","13:00","21.1","","19.4","","90","","15","","14","","19.3","","98.59","","28","","","","Cloudy"
"2018-07-21 14:00","2018","07","21","14:00","21.4","","19.1","","87","","12","","14","","19.3","","98.58","","28","","","","NA"
"2018-07-21 15:00","2018","07","21","15:00","21.8","","19.2","","85","","11","","16","","19.3","","98.56","","29","","","","NA"
"2018-07-21 16:00","2018","07","21","16:00","21.6","","18.9","","85","","11","","17","","19.3","","98.58","","28","","","","Cloudy"
"2018-07-21 17:00","2018","07","21","17:00","22.1","","19.1","","83","","12","","9","","19.3","","98.60","","29","","","","NA"
"2018-07-21 18:00","2018","07","21","18:00","22.9","","19.1","","79","","","","","M","19.3","","98.59","","30","","","","NA"
"2018-07-21 19:00","2018","07","21","19:00","22.4","","19.2","","82","","10","","11","","19.3","","98.58","","29","","","","Mostly Cloudy"
"2018-07-21 20:00","2018","07","21","20:00","21.1","","19.2","","88","","9","","9","","19.3","","98.59","","28","","","","NA"
"2018-07-21 21:00","2018","07","21","21:00","21.1","","19.3","","90","","6","","12","","19.3","","98.63","","28","","","","NA"
"2018-07-21 22:00","2018","07","21","22:00","21.7","","20.4","","92","","5","","13","","19.3","","98.62","","30","","","","Mostly Cloudy"
"2018-07-21 23:00","2018","07","21","23:00","22.0","","20.6","","91","","8","","13","","24.1","","98.60","","30","","","","NA"
"2018-07-22 00:00","2018","07","22","00:00","21.6","","19.7","","89","","9","","15","","24.1","","98.59","","29","","","","NA"
"2018-07-22 01:00","2018","07","22","01:00","20.6","","19.0","","91","","8","","9","","24.1","","98.58","","27","","","","Mostly Cloudy"
"2018-07-22 02:00","2018","07","22","02:00","20.3","","18.9","","91","","7","","10","","24.1","","98.57","","27","","","","NA"
"2018-07-22 03:00","2018","07","22","03:00","20.3","","18.7","","90","","6","","13","","24.1","","98.54","","27","","","","NA"
"2018-07-22 04:00","2018","07","22","04:00","20.4","","18.0","","86","","8","","9","","24.1","","98.54","","26","","","","Mostly Cloudy"
"2018-07-22 05:00","2018","07","22","05:00","20.4","","18.0","","86","","9","","10","","19.3","","98.57","","26","","","","NA"
"2018-07-22 06:00","2018","07","22","06:00","20.6","","17.8","","84","","6","","14","","16.1","","98.61","","26","","","","NA"
"2018-07-22 07:00","2018","07","22","07:00","20.0","","18.3","","90","","5","","20","","24.1","","98.64","","26","","","","Cloudy"
"2018-07-22 08:00","2018","07","22","08:00","19.8","","17.6","","87","","5","","23","","19.3","","98.68","","","","","","Rain"
"2018-07-22 09:00","2018","07","22","09:00","18.7","","16.8","","88","","7","","25","","19.3","","98.71","","","","","","Rain"
"2018-07-22 10:00","2018","07","22","10:00","17.8","","16.6","","93","","5","","19","","9.7","","98.75","","","","","","Rain,Fog"
"2018-07-22 11:00","2018","07","22","11:00","17.4","","15.6","","89","","3","","27","","9.7","","98.77","","","","","","Rain,Fog"
"2018-07-22 12:00","2018","07","22","12:00","18.3","","15.5","","84","","4","","22","","16.1","","98.77","","","","","","Rain"
"2018-07-22 13:00","2018","07","22","13:00","19.2","","17.0","","87","","35","","11","","16.1","","98.77","","","","","","Rain"
"2018-07-22 14:00","2018","07","22","14:00","18.8","","15.5","","81","","36","","16","","16.1","","98.76","","","","","","Rain"
"2018-07-22 15:00","2018","07","22","15:00","18.6","","17.0","","91","","1","","13","","16.1","","98.78","","","","","","Rain"
"2018-07-22 16:00","2018","07","22","16:00","19.5","","16.7","","84","","36","","16","","19.3","","98.77","","","","","","Cloudy"
"2018-07-22 17:00","2018","07","22","17:00","19.3","","15.9","","80","","1","","13","","19.3","","98.77","","","","","","NA"
"2018-07-22 18:00","2018","07","22","18:00","19.2","","15.0","","77","","1","","14","","19.3","","98.79","","","","","","NA"
"2018-07-22 19:00","2018","07","22","19:00","18.6","","14.2","","75","","34","","14","","19.3","","98.82","","","","","","Mostly Cloudy"
"2018-07-22 20:00","2018","07","22","20:00","17.9","","14.0","","78","","36","","12","","19.3","","98.88","","","","","","NA"
"2018-07-22 21:00","2018","07","22","21:00","17.9","","14.1","","78","","35","","7","","19.3","","98.90","","","","","","NA"
"2018-07-22 22:00","2018","07","22","22:00","18.0","","14.3","","79","","31","","3","","19.3","","98.90","","","","","","Mostly Cloudy"
"2018-07-22 23:00","2018","07","22","23:00","16.9","","14.4","","85","","36","","2","","19.3","","98.90","","","","","","NA"
"2018-07-23 00:00","2018","07","23","00:00","15.6","","14.0","","90","","36","","1","","19.3","","98.87","","","","","","NA"
"2018-07-23 01:00","2018","07","23","01:00","15.7","","13.9","","89","","30","","6","","19.3","","98.81","","","","","","Mainly Clear"
"2018-07-23 02:00","2018","07","23","02:00","15.2","","13.6","","90","","29","","5","","19.3","","98.84","","","","","","NA"
"2018-07-23 03:00","2018","07","23","03:00","14.5","","13.7","","95","","36","","2","","19.3","","98.83","","","","","","NA"
"2018-07-23 04:00","2018","07","23","04:00","14.9","","14.2","","95","","36","","3","","19.3","","98.82","","","","","","Mostly Cloudy"
"2018-07-23 05:00","2018","07","23","05:00","15.9","","14.8","","93","","28","","8","","16.1","","98.89","","","","","","NA"
"2018-07-23 06:00","2018","07","23","06:00","17.1","","16.3","","95","","36","","3","","16.1","","98.93","","","","","","NA"
"2018-07-23 07:00","2018","07","23","07:00","18.2","","16.8","","91","","0","","1","","9.7","","98.97","","","","","","Fog"
"2018-07-23 08:00","2018","07","23","08:00","19.0","","17.1","","88","","6","","4","","9.7","","99.01","","","","","","Fog"
"2018-07-23 09:00","2018","07","23","09:00","19.4","","17.3","","87","","8","","9","","12.9","","98.98","","","","","","Haze"
"2018-07-23 10:00","2018","07","23","10:00","20.9","","18.4","","85","","7","","10","","9.7","","98.98","","27","","","","Haze"
"2018-07-23 11:00","2018","07","23","11:00","21.2","","17.9","","81","","10","","10","","9.7","","99.02","","27","","","","Haze"
"2018-07-23 12:00","2018","07","23","12:00","23.4","","18.1","","72","","7","","4","","12.9","","99.01","","29","","","","NA"
"2018-07-23 13:00","2018","07","23","13:00","24.4","","19.4","","73","","6","","7","","12.9","","99.00","","31","","","","Mostly Cloudy"
"2018-07-23 14:00","2018","07","23","14:00","24.6","","19.0","","71","","15","","7","","12.9","","99.01","","31","","","","NA"
"2018-07-23 15:00","2018","07","23","15:00","26.0","","20.2","","70","","16","","6","","16.1","","98.96","","34","","","","NA"
"2018-07-23 16:00","2018","07","23","16:00","25.9","","20.1","","70","","19","","5","","16.1","","98.93","","34","","","","Mostly Cloudy"
"2018-07-23 17:00","2018","07","23","17:00","25.5","","20.0","","71","","16","","7","","16.1","","98.95","","33","","","","NA"
"2018-07-23 18:00","2018","07","23","18:00","25.2","","20.1","","73","","13","","10","","16.1","","98.95","","33","","","","NA"
"2018-07-23 19:00","2018","07","23","19:00","25.2","","20.1","","73","","23","","8","","16.1","","99.01","","33","","","","Mostly Cloudy"
"2018-07-23 20:00","2018","07","23","20:00","23.0","","19.8","","82","","22","","11","","19.3","","99.01","","30","","","","NA"
"2018-07-23 21:00","2018","07","23","21:00","22.2","","19.6","","85","","20","","9","","19.3","","99.07","","29","","","","NA"
"2018-07-23 22:00","2018","07","23","22:00","21.0","","19.4","","90","","20","","5","","19.3","","99.05","","28","","","","Mainly Clear"
"2018-07-23 23:00","2018","07","23","23:00","21.0","","19.2","","89","","32","","3","","19.3","","99.04","","28","","","","NA"
"2018-07-24 00:00","2018","07","24","00:00","19.6","","19.0","","96","","36","","2","","19.3","","99.04","","","","","","NA"
"2018-07-24 01:00","2018","07","24","01:00","20.1","","19.1","","94","","23","","9","","19.3","","99.02","","27","","","","Mostly Cloudy"
"2018-07-24 02:00","2018","07","24","02:00","20.9","","19.6","","92","","22","","7","","19.3","","99.00","","28","","","","NA"
"2018-07-24 03:00","2018","07","24","03:00","20.0","","19.3","","96","","12","","6","","19.3","","99.01","","27","","","","NA"
"2018-07-24 04:00","2018","07","24","04:00","20.7","","19.8","","94","","23","","9","","19.3","","99.05","","28","","","","Mostly Cloudy"
"2018-07-24 05:00","2018","07","24","05:00","20.6","","19.6","","94","","24","","7","","12.9","","99.08","","28","","","","NA"
"2018-07-24 06:00","2018","07","24","06:00","20.6","","19.6","","94","","26","","5","","11.3","","99.10","","28","","","","NA"
"2018-07-24 07:00","2018","07","24","07:00","20.9","","19.9","","94","","36","","2","","8.1","","99.12","","28","","","","Fog"
"2018-07-24 08:00","2018","07","24","08:00","23.4","","20.0","","81","","16","","7","","9.7","","99.15","","31","","","","Haze"
"2018-07-24 09:00","2018","07","24","09:00","24.8","","19.2","","71","","23","","10","","16.1","","99.18","","32","","","","NA"
"2018-07-24 10:00","2018","07","24","10:00","25.5","","18.2","","64","","25","","12","","16.1","","99.18","","32","","","","Mostly Cloudy"
"2018-07-24 11:00","2018","07","24","11:00","24.8","","18.0","","65","","28","","18","","16.1","","99.21","","31","","","","NA"
"2018-07-24 12:00","2018","07","24","12:00","26.3","","18.3","","61","","22","","10","","19.3","","99.19","","33","","","","NA"
"2018-07-24 13:00","2018","07","24","13:00","27.1","","19.4","","62","","20","","14","","19.3","","99.15","","34","","","","Mostly Cloudy"
"2018-07-24 14:00","2018","07","24","14:00","26.9","","18.6","","60","","21","","20","","19.3","","99.10","","33","","","","NA"
"2018-07-24 15:00","2018","07","24","15:00","27.6","","20.1","","63","","27","","9","","19.3","","99.07","","35","","","","NA"
"2018-07-24 16:00","2018","07","24","16:00","27.8","","17.6","","53","","30","","12","","19.3","","99.05","","34","","","","Mostly Cloudy"
"2018-07-24 17:00","2018","07","24","17:00","26.9","","19.2","","62","","26","","10","","19.3","","99.04","","34","","","","NA"
"2018-07-24 18:00","2018","07","24","18:00","26.6","","19.3","","64","","24","","16","","19.3","","99.02","","34","","","","NA"
"2018-07-24 19:00","2018","07","24","19:00","26.6","","18.1","","59","","30","","14","","19.3","","99.03","","33","","","","Mostly Cloudy"
"2018-07-24 20:00","2018","07","24","20:00","25.3","","18.5","","66","","34","","10","","19.3","","99.06","","32","","","","NA"
"2018-07-24 21:00","2018","07","24","21:00","24.8","","18.0","","65","","29","","9","","24.1","","99.11","","31","","","","NA"
"2018-07-24 22:00","2018","07","24","22:00","23.7","","17.7","","69","","31","","7","","24.1","","99.12","","29","","","","Mostly Cloudy"
"2018-07-24 23:00","2018","07","24","23:00","21.4","","18.9","","86","","24","","5","","19.3","","99.13","","28","","","","NA"
"2018-07-25 00:00","2018","07","25","00:00","22.0","","18.0","","78","","28","","5","","19.3","","99.09","","28","","","","NA"
"2018-07-25 01:00","2018","07","25","01:00","21.7","","18.0","","79","","28","","7","","19.3","","99.07","","28","","","","Mainly Clear"
"2018-07-25 02:00","2018","07","25","02:00","20.6","","18.1","","85","","24","","5","","19.3","","99.04","","27","","","","NA"
"2018-07-25 03:00","2018","07","25","03:00","19.8","","17.8","","88","","28","","9","","19.3","","99.06","","","","","","NA"
"2018-07-25 04:00","2018","07","25","04:00","21.2","","18.9","","86","","32","","10","","19.3","","99.06","","28","","","","Mainly Clear"
"2018-07-25 05:00","2018","07","25","05:00","20.9","","19.1","","89","","34","","7","","19.3","","99.10","","28","","","","NA"
"2018-07-25 06:00","2018","07","25","06:00","21.1","","19.4","","90","","34","","10","","19.3","","99.12","","28","","","","NA"
"2018-07-25 07:00","2018","07","25","07:00","22.4","","19.9","","86","","35","","12","","24.1","","99.14","","30","","","","Mainly Clear"
"2018-07-25 08:00","2018","07","25","08:00","24.2","","20.0","","77","","4","","11","","24.1","","99.19","","32","","","","NA"
"2018-07-25 09:00","2018","07","25","09:00","25.3","","19.7","","70","","6","","11","","24.1","","99.19","","33","","","","NA"
"2018-07-25 10:00","2018","07","25","10:00","26.4","","19.8","","67","","8","","8","","19.3","","99.19","","34","","","","Mainly Clear"
"2018-07-25 11:00","2018","07","25","11:00","26.4","","19.5","","65","","12","","7","","19.3","","99.21","","34","","","","NA"
"2018-07-25 12:00","2018","07","25","12:00","27.6","","18.6","","57","","36","","2","","19.3","","99.19","","34","","","","NA"
"2018-07-25 13:00","2018","07","25","13:00","28.3","","19.6","","59","","36","","1","","19.3","","99.12","","36","","","","Mostly Cloudy"
"2018-07-25 14:00","2018","07","25","14:00","29.2","","17.1","","48","","30","","8","","19.3","","99.08","","35","","","","NA"
"2018-07-25 15:00","2018","07","25","15:00","29.4","","19.4","","54","","7","","12","","19.3","","99.03","","36","","","","NA"
"2018-07-25 16:00","2018","07","25","16:00","28.3","","18.0","","53","","10","","16","","19.3","","98.98","","34","","","","Mainly Clear"
"2018-07-25 17:00","2018","07","25","17:00","27.8","","18.8","","57","","9","","14","","19.3","","98.98","","34","","","","NA"
"2018-07-25 18:00","2018","07","25","18:00","27.2","","18.8","","59","","10","","10","","24.1","","98.96","","34","","","","NA"
"2018-07-25 19:00","2018","07","25","19:00","26.4","","18.9","","63","","9","","7","","19.3","","98.98","","33","","","","Mostly Cloudy"
"2018-07-25 20:00","2018","07","25","20:00","25.6","","18.5","","64","","8","","6","","24.1","","98.99","","32","","","","NA"
"2018-07-25 21:00","2018","07","25","21:00","25.0","","19.8","","73","","4","","10","","19.3","","99.04","","32","","","","NA"
"2018-07-25 22:00","2018","07","25","22:00","23.3","","20.4","","83","","7","","8","","24.1","","99.05","","31","","","","Mostly Cloudy"
"2018-07-25 23:00","2018","07","25","23:00","21.8","","19.8","","88","","10","","10","","19.3","","99.01","","29","","","","NA"
"2018-07-26 00:00","2018","07","26","00:00","20.9","","19.3","","90","","13","","7","","19.3","","98.99","","28","","","","NA"
"2018-07-26 01:00","2018","07","26","01:00","20.6","","19.0","","91","","17","","8","","19.3","","98.93","","27","","","","Mainly Clear"
"2018-07-26 02:00","2018","07","26","02:00","20.2","","19.0","","93","","20","","3","","19.3","","98.90","","27","","","","NA"
"2018-07-26 03:00","2018","07","26","03:00","19.2","","18.3","","94","","24","","7","","19.3","","98.88","","","","","","NA"
"2018-07-26 04:00","2018","07","26","04:00","19.5","","18.4","","93","","27","","12","","19.3","","98.88","","","","","","Mainly Clear"
"2018-07-26 05:00","2018","07","26","05:00","19.0","","16.1","","83","","26","","9","","24.1","","98.87","","","","","","NA"
"2018-07-26 06:00","2018","07","26","06:00","19.4","","17.6","","89","","19","","7","","19.3","","98.87","","","","","","NA"
"2018-07-26 07:00","2018","07","26","07:00","21.2","","17.0","","77","","20","","14","","24.1","","98.86","","26","","","","Mostly Cloudy"
"2018-07-26 08:00","2018","07","26","08:00","21.5","","16.7","","74","","22","","18","","24.1","","98.88","","27","","","","NA"
"2018-07-26 09:00","2018","07","26","09:00","24.1","","16.4","","62","","21","","24","","24.1","","98.88","","29","","","","NA"
"2018-07-26 10:00","2018","07","26","10:00","24.2","","17.0","","64","","22","","25","","24.1","","98.88","","29","","","","Mostly Cloudy"
"2018-07-26 11:00","2018","07","26","11:00","26.1","","17.8","","60","","22","","29","","24.1","","98.87","","32","","","","NA"
"2018-07-26 12:00","2018","07","26","12:00","28.0","","18.9","","57","","21","","28","","24.1","","98.81","","35","","","","NA"
"2018-07-26 13:00","2018","07","26","13:00","23.5","","16.2","","63","","35","","16","","24.1","","98.80","","28","","","","Cloudy"
"2018-07-26 14:00","2018","07","26","14:00","22.6","","19.6","","83","","25","","15","","24.1","","98.80","","30","","","","NA"
"2018-07-26 15:00","2018","07","26","15:00","25.3","","21.2","","78","","23","","14","","24.1","","98.78","","34","","","","NA"
"2018-07-26 16:00","2018","07","26","16:00","26.4","","17.9","","59","","27","","23","","24.1","","98.72","","32","","","","Mostly Cloudy"
"2018-07-26 17:00","2018","07","26","17:00","27.6","","15.3","","46","","28","","22","","24.1","","98.74","","32","","","","NA"
"2018-07-26 18:00","2018","07","26","18:00","27.5","","11.7","","37","","28","","24","","24.1","","98.76","","30","","","","NA"
"2018-07-26 19:00","2018","07","26","19:00","26.0","","12.2","","42","","29","","20","","24.1","","98.84","","28","","","","Mainly Clear"
"2018-07-26 20:00","2018","07","26","20:00","24.4","","11.4","","44","","30","","22","","24.1","","98.91","","26","","","","NA"
"2018-07-26 21:00","2018","07","26","21:00","22.8","","12.4","","51","","30","","16","","24.1","","99.04","","25","","","","NA"
"2018-07-26 22:00","2018","07","26","22:00","21.4","","11.9","","54","","28","","13","","24.1","","99.11","","","","","","Clear"
"2018-07-26 23:00","2018","07","26","23:00","20.4","","12.6","","60","","28","","15","","19.3","","99.08","","","","","","NA"
"2018-07-27 00:00","2018","07","27","00:00","19.3","","13.0","","67","","28","","15","","19.3","","99.08","","","","","","NA"
"2018-07-27 01:00","2018","07","27","01:00","17.6","","13.0","","74","","27","","11","","19.3","","99.06","","","","","","Clear"
"2018-07-27 02:00","2018","07","27","02:00","18.0","","13.1","","72","","28","","13","","19.3","","99.04","","","","","","NA"
"2018-07-27 03:00","2018","07","27","03:00","17.6","","13.2","","75","","29","","13","","19.3","","99.03","","","","","","NA"
"2018-07-27 04:00","2018","07","27","04:00","15.9","","13.1","","83","","27","","8","","24.1","","99.07","","","","","","Clear"
"2018-07-27 05:00","2018","07","27","05:00","13.6","","12.6","","94","","16","","7","","19.3","","99.09","","","","","","NA"
"2018-07-27 06:00","2018","07","27","06:00","15.2","","13.9","","92","","19","","7","","24.1","","99.15","","","","","","NA"
"2018-07-27 07:00","2018","07","27","07:00","18.3","","15.0","","81","","24","","6","","22.5","","99.17","","","","","","Mostly Cloudy"
"2018-07-27 08:00","2018","07","27","08:00","19.8","","15.1","","74","","24","","8","","24.1","","99.22","","","","","","NA"
"2018-07-27 09:00","2018","07","27","09:00","21.2","","15.7","","71","","23","","5","","24.1","","99.24","","26","","","","NA"
"2018-07-27 10:00","2018","07","27","10:00","21.7","","15.0","","65","","30","","19","","24.1","","99.27","","26","","","","Mostly Cloudy"
"2018-07-27 11:00","2018","07","27","11:00","22.2","","16.1","","68","","32","","4","","24.1","","99.29","","27","","","","NA"
"2018-07-27 12:00","2018","07","27","12:00","23.4","","15.8","","62","","23","","17","","24.1","","99.25","","28","","","","NA"
"2018-07-27 13:00","2018","07","27","13:00","24.6","","14.8","","54","","24","","13","","24.1","","99.22","","28","","","","Mainly Clear"
"2018-07-27 14:00","2018","07","27","14:00","24.6","","16.3","","60","","21","","19","","24.1","","99.17","","29","","","","NA"
"2018-07-27 15:00","2018","07","27","15:00","24.9","","15.4","","55","","21","","22","","24.1","","99.16","","29","","","","NA"
"2018-07-27 16:00","2018","07","27","16:00","25.5","","14.4","","50","","27","","14","","24.1","","99.14","","29","","","","Mostly Cloudy"
"2018-07-27 17:00","2018","07","27","17:00","25.5","","14.1","","49","","26","","25","","24.1","","99.14","","29","","","","NA"
"2018-07-27 18:00","2018","07","27","18:00","24.8","","13.6","","49","","27","","22","","24.1","","99.16","","28","","","","NA"
"2018-07-27 19:00","2018","07","27","19:00","23.9","","14.9","","57","","32","","27","","24.1","","99.22","","28","","","","Mainly Clear"
"2018-07-27 20:00","2018","07","27","20:00","22.2","","14.2","","60","","31","","24","","24.1","","99.31","","26","","","","NA"
"2018-07-27 21:00","2018","07","27","21:00","21.2","","14.0","","63","","31","","21","","24.1","","99.38","","25","","","","NA"
"2018-07-27 22:00","2018","07","27","22:00","20.2","","14.5","","70","","32","","10","","24.1","","99.41","","","","","","Mainly Clear"
"2018-07-27 23:00","2018","07","27","23:00","20.3","","14.6","","70","","31","","14","","19.3","","99.43","","","","","","NA"
"2018-07-28 00:00","2018","07","28","00:00","18.7","","13.5","","71","","27","","13","","19.3","","99.43","","","","","","NA"
"2018-07-28 01:00","2018","07","28","01:00","18.1","","12.9","","71","","30","","15","","19.3","","99.45","","","","","","Mainly Clear"
"2018-07-28 02:00","2018","07","28","02:00","16.8","","12.8","","77","","28","","11","","19.3","","99.45","","","","","","NA"
"2018-07-28 03:00","2018","07","28","03:00","15.2","","12.5","","84","","26","","8","","19.3","","99.47","","","","","","NA"
"2018-07-28 04:00","2018","07","28","04:00","14.4","","12.6","","89","","25","","8","","24.1","","99.49","","","","","","Clear"
"2018-07-28 05:00","2018","07","28","05:00","13.8","","12.1","","89","","26","","9","","24.1","","99.53","","","","","","NA"
"2018-07-28 06:00","2018","07","28","06:00","14.8","","13.1","","89","","27","","7","","24.1","","99.58","","","","","","NA"
"2018-07-28 07:00","2018","07","28","07:00","17.3","","13.6","","78","","30","","10","","24.1","","99.58","","","","","","Mainly Clear"
"2018-07-28 08:00","2018","07","28","08:00","19.2","","13.9","","71","","29","","17","","24.1","","99.61","","","","","","NA"
"2018-07-28 09:00","2018","07","28","09:00","20.1","","14.0","","67","","28","","11","","24.1","","99.65","","","","","","NA"
"2018-07-28 10:00","2018","07","28","10:00","21.8","","14.1","","61","","32","","16","","24.1","","99.66","","25","","","","Mainly Clear"
"2018-07-28 11:00","2018","07","28","11:00","22.8","","14.0","","57","","30","","16","","24.1","","99.67","","26","","","","NA"
"2018-07-28 12:00","2018","07","28","12:00","23.2","","12.5","","50","","31","","14","","24.1","","99.64","","26","","","","NA"
"2018-07-28 13:00","2018","07","28","13:00","24.3","","12.8","","48","","28","","20","","24.1","","99.61","","27","","","","Mostly Cloudy"
"2018-07-28 14:00","2018","07","28","14:00","25.1","","12.0","","44","","31","","11","","24.1","","99.59","","27","","","","NA"
"2018-07-28 15:00","2018","07","28","15:00","24.8","","11.7","","43","","32","","15","","19.3","","99.57","","27","","","","NA"
"2018-07-28 16:00","2018","07","28","16:00","25.2","","11.7","","42","","33","","13","","19.3","","99.55","","27","","","","Mostly Cloudy"
"2018-07-28 17:00","2018","07","28","17:00","25.8","","14.7","","50","","11","","9","","19.3","","99.58","","30","","","","NA"
"2018-07-28 18:00","2018","07","28","18:00","23.4","","14.5","","57","","10","","11","","19.3","","99.56","","27","","","","NA"
"2018-07-28 19:00","2018","07","28","19:00","23.1","","15.4","","61","","17","","9","","19.3","","99.58","","27","","","","Mostly Cloudy"
"2018-07-28 20:00","2018","07","28","20:00","21.8","","15.9","","69","","18","","8","","19.3","","99.59","","26","","","","NA"
"2018-07-28 21:00","2018","07","28","21:00","20.9","","15.5","","71","","15","","5","","19.3","","99.61","","25","","","","NA"
"2018-07-28 22:00","2018","07","28","22:00","18.7","","15.7","","82","","7","","3","","19.3","","99.60","","","","","","Mainly Clear"
"2018-07-28 23:00","2018","07","28","23:00","17.3","","15.6","","89","","17","","6","","24.1","","99.62","","","","","","NA"
"2018-07-29 00:00","2018","07","29","00:00","16.6","","14.8","","89","","36","","2","","24.1","","99.64","","","","","","NA"
"2018-07-29 01:00","2018","07","29","01:00","15.8","","14.7","","93","","15","","12","","24.1","","99.66","","","","","","Mainly Clear"
"2018-07-29 02:00","2018","07","29","02:00","16.1","","14.4","","90","","21","","6","","24.1","","99.67","","","","","","NA"
"2018-07-29 03:00","2018","07","29","03:00","17.1","","15.1","","88","","26","","5","","24.1","","99.68","","","","","","NA"
"2018-07-29 04:00","2018","07","29","04:00","16.5","","15.1","","91","","27","","5","","24.1","","99.69","","","","","","Mostly Cloudy"
"2018-07-29 05:00","2018","07","29","05:00","16.3","","15.4","","94","","25","","3","","24.1","","99.71","","","","","","NA"
"2018-07-29 06:00","2018","07","29","06:00","16.6","","15.3","","92","","25","","7","","19.3","","99.73","","","","","","NA"
"2018-07-29 07:00","2018","07","29","07:00","20.2","","15.8","","76","","32","","7","","24.1","","99.69","","25","","","","Mainly Clear"
"2018-07-29 08:00","2018","07","29","08:00","21.7","","15.0","","65","","29","","8","","24.1","","99.69","","26","","","","NA"
"2018-07-29 09:00","2018","07","29","09:00","23.7","","14.2","","54","","29","","11","","24.1","","99.69","","27","","","","NA"
"2018-07-29 10:00","2018","07","29","10:00","24.7","","14.0","","51","","30","","9","","24.1","","99.71","","28","","","","Mainly Clear"
"2018-07-29 11:00","2018","07","29","11:00","26.1","","14.0","","47","","27","","5","","24.1","","99.71","","29","","","","NA"
"2018-07-29 12:00","2018","07","29","12:00","26.3","","11.6","","40","","27","","15","","24.1","","99.67","","28","","","","NA"
"2018-07-29 13:00","2018","07","29","13:00","27.1","","12.3","","39","","22","","18","","24.1","","99.63","","30","","","","Mainly Clear"
"2018-07-29 14:00","2018","07","29","14:00","27.1","","12.7","","40","","20","","22","","24.1","","99.60","","30","","","","NA"
"2018-07-29 15:00","2018","07","29","15:00","27.8","","14.2","","43","","21","","15","","19.3","","99.56","","31","","","","NA"
"2018-07-29 16:00","2018","07","29","16:00","26.2","","13.4","","45","","20","","19","","19.3","","99.55","","29","","","","Mostly Cloudy"
"2018-07-29 17:00","2018","07","29","17:00","26.2","","14.0","","46","","21","","20","","19.3","","99.55","","30","","","","NA"
"2018-07-29 18:00","2018","07","29","18:00","24.5","","14.1","","52","","21","","18","","19.3","","99.54","","28","","","","NA"
"2018-07-29 19:00","2018","07","29","19:00","23.8","","15.0","","58","","20","","17","","19.3","","99.55","","28","","","","Mostly Cloudy"
"2018-07-29 20:00","2018","07","29","20:00","22.1","","14.8","","63","","21","","12","","19.3","","99.53","","26","","","","NA"
"2018-07-29 21:00","2018","07","29","21:00","19.9","","15.2","","74","","20","","10","","19.3","","99.60","","","","","","NA"
"2018-07-29 22:00","2018","07","29","22:00","20.5","","15.3","","71","","20","","10","","19.3","","99.68","","25","","","","Mainly Clear"
"2018-07-29 23:00","2018","07","29","23:00","19.2","","15.2","","77","","20","","12","","24.1","","99.68","","","","","","NA"
"2018-07-30 00:00","2018","07","30","00:00","18.7","","15.2","","80","","19","","11","","24.1","","99.70","","","","","","NA"
"2018-07-30 01:00","2018","07","30","01:00","18.4","","15.1","","81","","24","","8","","24.1","","99.66","","","","","","Mostly Cloudy"
"2018-07-30 02:00","2018","07","30","02:00","18.3","","15.5","","84","","25","","12","","24.1","","99.67","","","","","","NA"
"2018-07-30 03:00","2018","07","30","03:00","16.5","","15.0","","91","","20","","9","","24.1","","99.65","","","","","","NA"
"2018-07-30 04:00","2018","07","30","04:00","16.5","","15.4","","93","","12","","3","","24.1","","99.63","","","","","","Mostly Cloudy"
"2018-07-30 05:00","2018","07","30","05:00","15.2","","14.4","","95","","15","","3","","24.1","","99.61","","","","","","NA"
"2018-07-30 06:00","2018","07","30","06:00","15.4","","14.6","","95","","17","","6","","24.1","","99.63","","","","","","NA"
"2018-07-30 07:00","2018","07","30","07:00","17.8","","16.4","","91","","17","","5","","19.3","","99.63","","","","","","Mostly Cloudy"
"2018-07-30 08:00","2018","07","30","08:00","20.1","","16.5","","80","","36","","2","","19.3","","99.62","","25","","","","NA"
"2018-07-30 09:00","2018","07","30","09:00","22.8","","17.0","","70","","16","","5","","24.1","","99.63","","28","","","","NA"
"2018-07-30 10:00","2018","07","30","10:00","24.5","","17.0","","62","","15","","8","","24.1","","99.60","","30","","","","Mostly Cloudy"
"2018-07-30 11:00","2018","07","30","11:00","25.1","","16.1","","57","","19","","3","","24.1","","99.57","","30","","","","NA"
"2018-07-30 12:00","2018","07","30","12:00","26.0","","14.9","","50","","12","","8","","24.1","","99.60","","30","","","","NA"
"2018-07-30 13:00","2018","07","30","13:00","25.3","","16.4","","57","","7","","14","","24.1","","99.59","","30","","","","Mostly Cloudy"
"2018-07-30 14:00","2018","07","30","14:00","24.4","","15.4","","57","","14","","9","","24.1","","99.57","","29","","","","NA"
"2018-07-30 15:00","2018","07","30","15:00","23.9","","14.9","","57","","16","","8","","19.3","","99.57","","28","","","","NA"
"2018-07-30 16:00","2018","07","30","16:00","24.2","","14.6","","55","","15","","13","","19.3","","99.51","","28","","","","Cloudy"
"2018-07-30 17:00","2018","07","30","17:00","23.6","","15.4","","60","","17","","8","","19.3","","99.52","","28","","","","NA"
"2018-07-30 18:00","2018","07","30","18:00","23.6","","16.3","","63","","17","","7","","19.3","","99.49","","28","","","","NA"
"2018-07-30 19:00","2018","07","30","19:00","22.9","","16.4","","67","","16","","7","","19.3","","99.49","","28","","","","Mostly Cloudy"
"2018-07-30 20:00","2018","07","30","20:00","21.8","","16.7","","72","","36","","2","","19.3","","99.49","","27","","","","NA"
"2018-07-30 21:00","2018","07","30","21:00","19.3","","16.7","","85","","7","","4","","19.3","","99.52","","","","","","NA"
"2018-07-30 22:00","2018","07","30","22:00","18.0","","16.4","","90","","12","","4","","24.1","","99.55","","","","","","Mainly Clear"
"2018-07-30 23:00","2018","07","30","23:00","17.4","","16.1","","92","","18","","7","","24.1","","99.56","","","","","","NA"
"2018-07-31 00:00","2018","07","31","00:00","17.6","","16.0","","91","","5","","3","","24.1","","99.56","","","","","","NA"
"2018-07-31 01:00","2018","07","31","01:00","17.1","","16.0","","93","","36","","2","","24.1","","99.54","","","","","","Mainly Clear"
"2018-07-31 02:00","2018","07","31","02:00","16.6","","15.4","","93","","0","","1","","24.1","","99.53","","","","","","NA"
"2018-07-31 03:00","2018","07","31","03:00","16.3","","15.1","","92","","2","","5","","24.1","","99.51","","","","","","NA"
"2018-07-31 04:00","2018","07","31","04:00","17.5","","16.2","","92","","2","","7","","24.1","","99.51","","","","","","Mainly Clear"
"2018-07-31 05:00","2018","07","31","05:00","17.9","","16.7","","93","","36","","8","","16.1","","99.48","","","","","","NA"
"2018-07-31 06:00","2018","07","31","06:00","18.9","","17.7","","93","","2","","9","","11.3","","99.49","","","","","","NA"
"2018-07-31 07:00","2018","07","31","07:00","20.7","","17.6","","82","","5","","11","","12.9","","99.51","","26","","","","Cloudy"
"2018-07-31 08:00","2018","07","31","08:00","21.4","","15.8","","70","","5","","16","","19.3","","99.46","","26","","","","NA"
"2018-07-31 09:00","2018","07","31","09:00","21.9","","16.4","","71","","6","","13","","24.1","","99.50","","27","","","","NA"
"2018-07-31 10:00","2018","07","31","10:00","22.8","","17.8","","73","","8","","15","","24.1","","99.48","","29","","","","Cloudy"
"2018-07-31 11:00","2018","07","31","11:00","23.3","","18.8","","76","","8","","17","","24.1","","99.49","","30","","","","NA"
"2018-07-31 12:00","2018","07","31","12:00","23.5","","19.1","","76","","6","","13","","22.5","","99.44","","30","","","","NA"
"2018-07-31 13:00","2018","07","31","13:00","24.3","","20.0","","77","","6","","16","","19.3","","99.35","","32","","","","Mostly Cloudy"
"2018-07-31 14:00","2018","07","31","14:00","24.7","","19.8","","74","","10","","16","","19.3","","99.26","","32","","","","Rain Showers"
"2018-07-31 15:00","2018","07","31","15:00","24.8","","18.4","","67","","8","","23","","19.3","","99.19","","31","","","","NA"
"2018-07-31 16:00","2018","07","31","16:00","22.6","","20.1","","85","","6","","17","","11.3","","99.19","","30","","","","Rain Showers"
"2018-07-31 17:00","2018","07","31","17:00","21.8","","18.2","","80","","2","","13","","11.3","","99.19","","28","","","","Rain Showers"
"2018-07-31 18:00","2018","07","31","18:00","21.3","","19.7","","90","","35","","7","","16.1","","99.12","","29","","","","NA"
"2018-07-31 19:00","2018","07","31","19:00","21.2","","20.3","","94","","1","","5","","16.1","","99.06","","29","","","","Cloudy"
"2018-07-31 20:00","2018","07","31","20:00","21.9","","20.4","","91","","5","","9","","16.1","","99.02","","30","","","","NA"
"2018-07-31 21:00","2018","07","31","21:00","21.7","","20.3","","92","","4","","16","","11.3","","98.99","","30","","","","NA"
"2018-07-31 22:00","2018","07","31","22:00","21.0","","20.4","","96","","5","","17","","8.1","","98.96","","29","","","","Moderate Rain Showers,Fog"
"2018-07-31 23:00","2018","07","31","23:00","20.1","","19.4","","96","","3","","25","","6.4","","98.85","","27","","","","Rain Showers,Fog"
