"Station Name","WINDSOR A"
"Province","ONTARIO"
"Latitude","42.28"
"Longitude","-82.96"
"Elevation","189.60"
"Climate Identifier","6139525"
"WMO Identifier","71538"
"TC Identifier","YQG"
"All times are specified in Local Standard Time (LST). Add 1 hour to adjust for Daylight Saving Time where and when it is observed."

"Legend"
"E","Estimated"
"M","Missing"
"NA","Not Available"

"Date/Time","Year","Month","Day","Time","Temp (°C)","Temp Flag","Dew Point Temp (°C)","Dew Point Temp Flag","Rel Hum (%)","Rel Hum Flag","Wind Dir (10s deg)","Wind Dir Flag","Wind Spd (km/h)","Wind Spd Flag","Visibility (km)","Visibility Flag","Stn Press (kPa)","Stn Press Flag","Hmdx","Hmdx Flag","Wind Chill","Wind Chill Flag","Weather"
"2001-07-01 00:00","2001","07","01","00:00","26.1","","18.3","","62","","25","","11","","19.3","","98.95","","32","","","","Mostly Cloudy"
"2001-07-01 01:00","2001","07","01","01:00","25.0","","18.2","","66","","22","","11","","19.3","","98.89","","31","","","","Mostly Cloudy"
"2001-07-01 02:00","2001","07","01","02:00","24.9","","18.4","","67","","24","","20","","24.1","","98.84","","31","","","","Mostly Cloudy"
"2001-07-01 03:00","2001","07","01","03:00","24.6","","18.6","","69","","26","","15","","24.1","","98.79","","31","","","","Mostly Cloudy"
"2001-07-01 04:00","2001","07","01","04:00","24.0","","18.3","","70","","27","","19","","24.1","","98.78","","30","","","","Mostly Cloudy"
"2001-07-01 05:00","2001","07","01","05:00","23.8","","18.4","","72","","26","","17","","19.3","","98.81","","30","","","","Mainly Clear"
"2001-07-01 06:00","2001","07","01","06:00","23.7","","18.5","","73","","26","","19","","19.3","","98.79","","30","","","","Mostly Cloudy"
"2001-07-01 07:00","2001","07","01","07:00","24.3","","18.2","","69","","29","","22","","19.3","","98.84","","30","","","","Mostly Cloudy"
"2001-07-01 08:00","2001","07","01","08:00","24.1","","17.3","","66","","34","","32","","19.3","","98.99","","30","","","","Mostly Cloudy"
"2001-07-01 09:00","2001","07","01","09:00","23.5","","16.7","","66","","1","","17","","19.3","","98.98","","29","","","","Mostly Cloudy"
"2001-07-01 10:00","2001","07","01","10:00","22.5","","15.3","","64","","36","","26","","24.1","","99.05","","27","","","","Cloudy"
"2001-07-01 11:00","2001","07","01","11:00","18.5","","12.9","","70","","35","","24","","24.1","","99.22","","","","","","Cloudy"
"2001-07-01 12:00","2001","07","01","12:00","18.9","","10.2","","57","","1","","22","","24.1","","99.25","","","","","","Mainly Clear"
"2001-07-01 13:00","2001","07","01","13:00","19.8","","8.1","","47","","35","","28","","24.1","","99.27","","","","","","Mainly Clear"
"2001-07-01 14:00","2001","07","01","14:00","21.2","","8.7","","45","","33","","33","","24.1","","99.26","","","","","","Mainly Clear"
"2001-07-01 15:00","2001","07","01","15:00","21.1","","5.3","","36","","31","","30","","24.1","","99.24","","","","","","Mostly Cloudy"
"2001-07-01 16:00","2001","07","01","16:00","20.7","","5.2","","36","","35","","20","","24.1","","99.29","","","","","","Mostly Cloudy"
"2001-07-01 17:00","2001","07","01","17:00","20.5","","4.7","","35","","33","","24","","24.1","","99.39","","","","","","Mainly Clear"
"2001-07-01 18:00","2001","07","01","18:00","18.9","","3.9","","37","","2","","26","","24.1","","99.47","","","","","","Mainly Clear"
"2001-07-01 19:00","2001","07","01","19:00","17.7","","2.9","","37","","36","","19","","24.1","","99.58","","","","","","Mainly Clear"
"2001-07-01 20:00","2001","07","01","20:00","16.5","","3.2","","41","","34","","20","","24.1","","99.70","","","","","","Mainly Clear"
"2001-07-01 21:00","2001","07","01","21:00","15.3","","3.8","","46","","36","","15","","24.1","","99.82","","","","","","Mainly Clear"
"2001-07-01 22:00","2001","07","01","22:00","14.2","","3.9","","50","","1","","20","","24.1","","99.96","","","","","","Mainly Clear"
"2001-07-01 23:00","2001","07","01","23:00","13.4","","3.4","","51","","35","","15","","25.0","","100.00","","","","","","Clear"
"2001-07-02 00:00","2001","07","02","00:00","13.0","","3.6","","53","","36","","17","","25.0","","100.03","","","","","","Clear"
"2001-07-02 01:00","2001","07","02","01:00","11.7","","3.0","","55","","1","","20","","25.0","","100.11","","","","","","Clear"
"2001-07-02 02:00","2001","07","02","02:00","11.3","","2.5","","55","","1","","17","","25.0","","100.11","","","","","","Clear"
"2001-07-02 03:00","2001","07","02","03:00","10.7","","3.0","","59","","36","","15","","25.0","","100.13","","","","","","Clear"
"2001-07-02 04:00","2001","07","02","04:00","10.1","","3.2","","62","","36","","11","","25.0","","100.18","","","","","","Clear"
"2001-07-02 05:00","2001","07","02","05:00","9.6","","3.3","","65","","36","","7","","25.0","","100.27","","","","","","Clear"
"2001-07-02 06:00","2001","07","02","06:00","10.5","","4.1","","65","","35","","7","","25.0","","100.33","","","","","","Clear"
"2001-07-02 07:00","2001","07","02","07:00","12.0","","3.9","","58","","1","","13","","24.1","","100.42","","","","","","Mainly Clear"
"2001-07-02 08:00","2001","07","02","08:00","13.8","","3.5","","50","","4","","7","","24.1","","100.46","","","","","","Mainly Clear"
"2001-07-02 09:00","2001","07","02","09:00","14.9","","3.1","","45","","5","","9","","24.1","","100.41","","","","","","Mainly Clear"
"2001-07-02 10:00","2001","07","02","10:00","16.0","","3.0","","42","","7","","7","","24.1","","100.41","","","","","","Mainly Clear"
"2001-07-02 11:00","2001","07","02","11:00","16.7","","3.0","","40","","7","","6","","24.1","","100.37","","","","","","Mainly Clear"
"2001-07-02 12:00","2001","07","02","12:00","17.8","","4.2","","40","","9","","11","","24.1","","100.34","","","","","","Mainly Clear"
"2001-07-02 13:00","2001","07","02","13:00","19.0","","2.7","","34","","10","","13","","24.1","","100.31","","","","","","Mainly Clear"
"2001-07-02 14:00","2001","07","02","14:00","18.8","","0.9","","30","","9","","11","","24.1","","100.28","","","","","","Mostly Cloudy"
"2001-07-02 15:00","2001","07","02","15:00","19.6","","-0.3","","26","","","","0","","24.1","","100.20","","","","","","Mostly Cloudy"
"2001-07-02 16:00","2001","07","02","16:00","19.7","","0.0","","27","","","","0","","25.0","","100.13","","","","","","Mostly Cloudy"
"2001-07-02 17:00","2001","07","02","17:00","19.1","","0.0","","28","","18","","19","","25.0","","100.10","","","","","","Mostly Cloudy"
"2001-07-02 18:00","2001","07","02","18:00","18.4","","2.6","","35","","21","","19","","25.0","","100.12","","","","","","Mostly Cloudy"
"2001-07-02 19:00","2001","07","02","19:00","18.0","","7.4","","50","","18","","19","","25.0","","100.07","","","","","","Mainly Clear"
"2001-07-02 20:00","2001","07","02","20:00","16.6","","6.6","","52","","17","","11","","25.0","","100.00","","","","","","Mainly Clear"
"2001-07-02 21:00","2001","07","02","21:00","15.6","","7.9","","60","","17","","9","","25.0","","100.02","","","","","","Mostly Cloudy"
"2001-07-02 22:00","2001","07","02","22:00","15.3","","7.4","","59","","16","","7","","25.0","","100.02","","","","","","Mostly Cloudy"
"2001-07-02 23:00","2001","07","02","23:00","15.5","","7.8","","60","","17","","6","","25.0","","99.96","","","","","","Mostly Cloudy"
"2001-07-03 00:00","2001","07","03","00:00","15.3","","8.1","","62","","18","","9","","25.0","","99.94","","","","","","Mostly Cloudy"
"2001-07-03 01:00","2001","07","03","01:00","15.8","","9.3","","65","","15","","6","","25.0","","99.92","","","","","","Mostly Cloudy"
"2001-07-03 02:00","2001","07","03","02:00","16.1","","10.6","","70","","16","","11","","25.0","","99.84","","","","","","Rain"
"2001-07-03 03:00","2001","07","03","03:00","16.3","","13.1","","81","","","","0","","25.0","","99.79","","","","","","Mostly Cloudy"
"2001-07-03 04:00","2001","07","03","04:00","16.9","","13.7","","81","","","","0","","25.0","","99.83","","","","","","Cloudy"
"2001-07-03 05:00","2001","07","03","05:00","16.5","","13.7","","84","","18","","13","","24.1","","99.68","","","","","","Rain Showers"
"2001-07-03 06:00","2001","07","03","06:00","16.6","","14.0","","85","","29","","6","","24.1","","99.83","","","","","","Rain"
"2001-07-03 07:00","2001","07","03","07:00","16.8","","12.5","","76","","23","","19","","24.1","","99.77","","","","","","Mostly Cloudy"
"2001-07-03 08:00","2001","07","03","08:00","16.2","","12.7","","80","","23","","13","","24.1","","99.75","","","","","","Mostly Cloudy"
"2001-07-03 09:00","2001","07","03","09:00","18.3","","13.7","","75","","21","","20","","24.1","","99.65","","","","","","Cloudy"
"2001-07-03 10:00","2001","07","03","10:00","20.1","","14.0","","68","","22","","28","","24.1","","99.60","","","","","","Mostly Cloudy"
"2001-07-03 11:00","2001","07","03","11:00","21.1","","13.9","","63","","24","","28","","24.1","","99.60","","","","","","Cloudy"
"2001-07-03 12:00","2001","07","03","12:00","22.2","","13.9","","59","","23","","28","","24.1","","99.53","","26","","","","Cloudy"
"2001-07-03 13:00","2001","07","03","13:00","23.4","","14.8","","58","","23","","22","","24.1","","99.46","","27","","","","Cloudy"
"2001-07-03 14:00","2001","07","03","14:00","23.8","","15.6","","60","","24","","20","","24.1","","99.42","","28","","","","Cloudy"
"2001-07-03 15:00","2001","07","03","15:00","24.1","","16.1","","61","","23","","22","","24.1","","99.37","","29","","","","Cloudy"
"2001-07-03 16:00","2001","07","03","16:00","24.9","","16.7","","60","","23","","19","","14.5","","99.30","","30","","","","Mostly Cloudy"
"2001-07-03 17:00","2001","07","03","17:00","23.4","","16.7","","66","","22","","17","","16.1","","99.30","","28","","","","Cloudy"
"2001-07-03 18:00","2001","07","03","18:00","23.5","","17.2","","68","","22","","17","","11.3","","99.27","","29","","","","Mostly Cloudy"
"2001-07-03 19:00","2001","07","03","19:00","24.1","","17.7","","67","","25","","9","","11.3","","99.29","","30","","","","Mostly Cloudy"
"2001-07-03 20:00","2001","07","03","20:00","23.0","","17.7","","72","","23","","20","","12.9","","99.30","","29","","","","Mostly Cloudy"
"2001-07-03 21:00","2001","07","03","21:00","22.2","","17.7","","76","","25","","15","","12.9","","99.35","","28","","","","Mostly Cloudy"
"2001-07-03 22:00","2001","07","03","22:00","21.6","","17.5","","78","","26","","13","","19.3","","99.36","","27","","","","Mainly Clear"
"2001-07-03 23:00","2001","07","03","23:00","21.0","","17.3","","79","","25","","13","","19.3","","99.34","","26","","","","Mainly Clear"
"2001-07-04 00:00","2001","07","04","00:00","20.3","","17.2","","82","","23","","11","","19.3","","99.34","","26","","","","Mainly Clear"
"2001-07-04 01:00","2001","07","04","01:00","19.4","","17.2","","87","","24","","13","","12.9","","99.26","","","","","","Mainly Clear"
"2001-07-04 02:00","2001","07","04","02:00","19.3","","17.2","","88","","25","","19","","8.0","","99.25","","","","","","Haze"
"2001-07-04 03:00","2001","07","04","03:00","19.3","","17.3","","88","","26","","15","","8.0","","99.18","","","","","","Haze"
"2001-07-04 04:00","2001","07","04","04:00","18.9","","17.0","","89","","27","","13","","8.0","","99.15","","","","","","Haze"
"2001-07-04 05:00","2001","07","04","05:00","18.4","","17.4","","94","","22","","7","","6.4","","99.14","","","","","","Haze"
"2001-07-04 06:00","2001","07","04","06:00","18.8","","17.2","","90","","26","","11","","4.8","","99.14","","","","","","Fog"
"2001-07-04 07:00","2001","07","04","07:00","19.2","","17.5","","90","","22","","17","","6.4","","99.10","","","","","","Fog"
"2001-07-04 08:00","2001","07","04","08:00","21.0","","17.9","","82","","25","","15","","8.0","","99.12","","27","","","","Haze"
"2001-07-04 09:00","2001","07","04","09:00","21.8","","18.5","","82","","24","","22","","9.7","","99.07","","28","","","","Haze"
"2001-07-04 10:00","2001","07","04","10:00","22.3","","18.8","","81","","24","","17","","12.9","","99.06","","29","","","","Cloudy"
"2001-07-04 11:00","2001","07","04","11:00","22.5","","18.7","","79","","25","","20","","14.5","","99.06","","29","","","","Cloudy"
"2001-07-04 12:00","2001","07","04","12:00","23.9","","20.1","","79","","25","","15","","16.1","","98.99","","32","","","","Mostly Cloudy"
"2001-07-04 13:00","2001","07","04","13:00","26.0","","19.2","","66","","25","","24","","19.3","","98.95","","33","","","","Mostly Cloudy"
"2001-07-04 14:00","2001","07","04","14:00","27.7","","18.0","","56","","23","","24","","24.1","","98.82","","34","","","","Mainly Clear"
"2001-07-04 15:00","2001","07","04","15:00","27.8","","17.3","","53","","34","","22","","19.3","","98.78","","33","","","","Thunderstorms"
"2001-07-04 16:00","2001","07","04","16:00","28.9","","15.7","","45","","26","","30","","24.1","","98.76","","33","","","","Mostly Cloudy"
"2001-07-04 17:00","2001","07","04","17:00","28.9","","14.8","","42","","26","","24","","16.1","","98.75","","33","","","","Mostly Cloudy"
"2001-07-04 18:00","2001","07","04","18:00","28.8","","13.8","","40","","29","","32","","19.3","","98.76","","32","","","","Mostly Cloudy"
"2001-07-04 19:00","2001","07","04","19:00","27.3","","11.4","","37","","31","","20","","16.1","","98.79","","29","","","","Mainly Clear"
"2001-07-04 20:00","2001","07","04","20:00","25.9","","10.4","","38","","28","","26","","19.3","","98.83","","27","","","","Mainly Clear"
"2001-07-04 21:00","2001","07","04","21:00","24.2","","9.4","","39","","28","","22","","24.1","","98.89","","25","","","","Mainly Clear"
"2001-07-04 22:00","2001","07","04","22:00","23.0","","10.0","","44","","30","","15","","24.1","","98.94","","","","","","Mainly Clear"
"2001-07-04 23:00","2001","07","04","23:00","18.2","","12.6","","70","","5","","13","","24.1","","98.98","","","","","","Mainly Clear"
"2001-07-05 00:00","2001","07","05","00:00","17.2","","12.0","","71","","7","","7","","24.1","","98.98","","","","","","Mainly Clear"
"2001-07-05 01:00","2001","07","05","01:00","17.0","","10.8","","67","","5","","4","","24.1","","98.94","","","","","","Clear"
"2001-07-05 02:00","2001","07","05","02:00","15.8","","10.0","","68","","5","","9","","24.1","","98.92","","","","","","Clear"
"2001-07-05 03:00","2001","07","05","03:00","15.5","","10.4","","72","","","","0","","24.1","","98.93","","","","","","Mainly Clear"
"2001-07-05 04:00","2001","07","05","04:00","15.6","","10.6","","72","","","","0","","24.1","","98.92","","","","","","Mostly Cloudy"
"2001-07-05 05:00","2001","07","05","05:00","15.5","","10.4","","72","","","","0","","24.1","","98.90","","","","","","Mostly Cloudy"
"2001-07-05 06:00","2001","07","05","06:00","16.3","","10.1","","67","","","","0","","24.1","","98.91","","","","","","Mostly Cloudy"
"2001-07-05 07:00","2001","07","05","07:00","18.1","","10.5","","61","","31","","6","","24.1","","98.92","","","","","","Mostly Cloudy"
"2001-07-05 08:00","2001","07","05","08:00","19.4","","10.1","","55","","36","","13","","24.1","","98.96","","","","","","Mainly Clear"
"2001-07-05 09:00","2001","07","05","09:00","20.1","","11.4","","57","","36","","13","","24.1","","99.01","","","","","","Mainly Clear"
"2001-07-05 10:00","2001","07","05","10:00","20.4","","10.6","","53","","36","","15","","25.0","","99.05","","","","","","Mainly Clear"
"2001-07-05 11:00","2001","07","05","11:00","21.6","","9.5","","46","","34","","20","","25.0","","99.09","","","","","","Mainly Clear"
"2001-07-05 12:00","2001","07","05","12:00","22.4","","8.4","","41","","32","","22","","25.0","","99.13","","","","","","Mainly Clear"
"2001-07-05 13:00","2001","07","05","13:00","22.8","","0.7","","23","","33","","15","","25.0","","99.15","","","","","","Mainly Clear"
"2001-07-05 14:00","2001","07","05","14:00","22.0","","4.1","","31","","32","","20","","25.0","","99.18","","","","","","Mainly Clear"
"2001-07-05 15:00","2001","07","05","15:00","22.8","","5.1","","32","","35","","28","","25.0","","99.16","","","","","","Mostly Cloudy"
"2001-07-05 16:00","2001","07","05","16:00","22.9","","5.6","","33","","32","","19","","25.0","","99.15","","","","","","Mainly Clear"
"2001-07-05 17:00","2001","07","05","17:00","23.2","","5.4","","32","","32","","22","","25.0","","99.14","","","","","","Mainly Clear"
"2001-07-05 18:00","2001","07","05","18:00","22.7","","5.1","","32","","33","","17","","25.0","","99.16","","","","","","Mainly Clear"
"2001-07-05 19:00","2001","07","05","19:00","22.1","","5.3","","33","","31","","19","","25.0","","99.21","","","","","","Clear"
"2001-07-05 20:00","2001","07","05","20:00","21.4","","5.3","","35","","33","","22","","25.0","","99.24","","","","","","Clear"
"2001-07-05 21:00","2001","07","05","21:00","20.4","","4.1","","34","","33","","19","","25.0","","99.33","","","","","","Clear"
"2001-07-05 22:00","2001","07","05","22:00","19.2","","4.2","","37","","34","","15","","25.0","","99.42","","","","","","Clear"
"2001-07-05 23:00","2001","07","05","23:00","18.0","","2.2","","35","","35","","13","","24.1","","99.50","","","","","","Clear"
"2001-07-06 00:00","2001","07","06","00:00","16.6","","2.9","","40","","35","","11","","24.1","","99.55","","","","","","Clear"
"2001-07-06 01:00","2001","07","06","01:00","15.2","","3.4","","45","","35","","9","","24.1","","99.57","","","","","","Clear"
"2001-07-06 02:00","2001","07","06","02:00","14.2","","3.7","","49","","36","","6","","24.1","","99.58","","","","","","Clear"
"2001-07-06 03:00","2001","07","06","03:00","13.6","","3.7","","51","","33","","6","","24.1","","99.59","","","","","","Clear"
"2001-07-06 04:00","2001","07","06","04:00","12.6","","3.9","","55","","31","","4","","24.1","","99.63","","","","","","Clear"
"2001-07-06 05:00","2001","07","06","05:00","11.3","","4.4","","62","","24","","6","","24.1","","99.65","","","","","","Clear"
"2001-07-06 06:00","2001","07","06","06:00","11.9","","5.2","","63","","24","","7","","24.1","","99.71","","","","","","Clear"
"2001-07-06 07:00","2001","07","06","07:00","14.8","","6.5","","58","","26","","7","","25.0","","99.77","","","","","","Clear"
"2001-07-06 08:00","2001","07","06","08:00","17.1","","6.1","","48","","27","","9","","25.0","","99.83","","","","","","Clear"
"2001-07-06 09:00","2001","07","06","09:00","19.0","","4.8","","39","","26","","11","","25.0","","99.87","","","","","","Clear"
"2001-07-06 10:00","2001","07","06","10:00","20.4","","4.4","","35","","28","","11","","25.0","","99.84","","","","","","Clear"
"2001-07-06 11:00","2001","07","06","11:00","21.6","","5.1","","34","","19","","6","","25.0","","99.82","","","","","","Clear"
"2001-07-06 12:00","2001","07","06","12:00","23.2","","6.0","","33","","28","","15","","25.0","","99.80","","","","","","Clear"
"2001-07-06 13:00","2001","07","06","13:00","22.8","","5.3","","32","","32","","7","","25.0","","99.72","","","","","","Clear"
"2001-07-06 14:00","2001","07","06","14:00","24.5","","5.8","","30","","26","","15","","25.0","","99.69","","","","","","Clear"
"2001-07-06 15:00","2001","07","06","15:00","24.7","","6.0","","30","","25","","13","","25.0","","99.67","","","","","","Mainly Clear"
"2001-07-06 16:00","2001","07","06","16:00","24.3","","6.3","","31","","25","","15","","25.0","","99.55","","","","","","Mainly Clear"
"2001-07-06 17:00","2001","07","06","17:00","24.2","","6.2","","31","","21","","22","","25.0","","99.52","","","","","","Mostly Cloudy"
"2001-07-06 18:00","2001","07","06","18:00","23.5","","5.9","","32","","22","","22","","25.0","","99.54","","","","","","Mostly Cloudy"
"2001-07-06 19:00","2001","07","06","19:00","22.0","","6.9","","38","","19","","15","","25.0","","99.53","","","","","","Mostly Cloudy"
"2001-07-06 20:00","2001","07","06","20:00","20.6","","8.0","","44","","19","","15","","25.0","","99.56","","","","","","Mostly Cloudy"
"2001-07-06 21:00","2001","07","06","21:00","18.5","","8.6","","52","","18","","13","","25.0","","99.59","","","","","","Mostly Cloudy"
"2001-07-06 22:00","2001","07","06","22:00","17.7","","9.0","","57","","19","","13","","25.0","","99.59","","","","","","Mostly Cloudy"
"2001-07-06 23:00","2001","07","06","23:00","18.2","","10.1","","59","","17","","9","","24.1","","99.56","","","","","","Mostly Cloudy"
"2001-07-07 00:00","2001","07","07","00:00","17.4","","10.8","","65","","18","","7","","24.1","","99.49","","","","","","Mostly Cloudy"
"2001-07-07 01:00","2001","07","07","01:00","18.1","","11.7","","66","","21","","11","","24.1","","99.48","","","","","","Mostly Cloudy"
"2001-07-07 02:00","2001","07","07","02:00","17.2","","11.8","","71","","22","","9","","24.1","","99.48","","","","","","Mostly Cloudy"
"2001-07-07 03:00","2001","07","07","03:00","16.7","","12.2","","75","","20","","7","","24.1","","99.47","","","","","","Mostly Cloudy"
"2001-07-07 04:00","2001","07","07","04:00","17.7","","13.2","","75","","22","","9","","24.1","","99.43","","","","","","Mostly Cloudy"
"2001-07-07 05:00","2001","07","07","05:00","18.0","","12.0","","68","","20","","7","","24.1","","99.35","","","","","","Mostly Cloudy"
"2001-07-07 06:00","2001","07","07","06:00","19.0","","12.9","","68","","19","","4","","25.0","","99.33","","","","","","Mainly Clear"
"2001-07-07 07:00","2001","07","07","07:00","20.6","","13.3","","63","","20","","17","","25.0","","99.31","","","","","","Mostly Cloudy"
"2001-07-07 08:00","2001","07","07","08:00","21.4","","12.6","","57","","21","","20","","25.0","","99.30","","","","","","Rain Showers"
"2001-07-07 09:00","2001","07","07","09:00","22.1","","13.1","","57","","20","","19","","25.0","","99.23","","25","","","","Mostly Cloudy"
"2001-07-07 10:00","2001","07","07","10:00","22.8","","13.2","","55","","21","","24","","25.0","","99.15","","26","","","","Mostly Cloudy"
"2001-07-07 11:00","2001","07","07","11:00","23.3","","13.8","","55","","21","","30","","24.1","","99.12","","27","","","","Mostly Cloudy"
"2001-07-07 12:00","2001","07","07","12:00","24.1","","16.3","","62","","21","","30","","24.1","","99.05","","29","","","","Mostly Cloudy"
"2001-07-07 13:00","2001","07","07","13:00","22.6","","16.7","","69","","21","","28","","24.1","","99.00","","28","","","","Cloudy"
"2001-07-07 14:00","2001","07","07","14:00","23.5","","17.6","","69","","21","","26","","24.1","","98.91","","29","","","","Cloudy"
"2001-07-07 15:00","2001","07","07","15:00","23.3","","17.4","","69","","22","","28","","19.3","","98.89","","29","","","","Cloudy"
"2001-07-07 16:00","2001","07","07","16:00","23.0","","17.5","","71","","22","","28","","12.9","","98.89","","29","","","","Cloudy"
"2001-07-07 17:00","2001","07","07","17:00","23.1","","17.9","","73","","23","","19","","12.9","","98.90","","29","","","","Cloudy"
"2001-07-07 18:00","2001","07","07","18:00","23.3","","18.2","","73","","24","","13","","16.1","","98.81","","29","","","","Cloudy"
"2001-07-07 19:00","2001","07","07","19:00","23.2","","18.6","","75","","20","","11","","14.5","","98.74","","30","","","","Cloudy"
"2001-07-07 20:00","2001","07","07","20:00","23.0","","19.2","","79","","22","","13","","14.5","","98.71","","30","","","","Cloudy"
"2001-07-07 21:00","2001","07","07","21:00","22.8","","19.9","","84","","25","","9","","16.1","","98.83","","30","","","","Rain Showers"
"2001-07-07 22:00","2001","07","07","22:00","23.0","","20.2","","84","","22","","7","","16.1","","98.85","","31","","","","Cloudy"
"2001-07-07 23:00","2001","07","07","23:00","22.8","","20.4","","86","","21","","6","","12.9","","98.78","","31","","","","Cloudy"
"2001-07-08 00:00","2001","07","08","00:00","22.6","","21.1","","91","","25","","9","","8.0","","98.74","","31","","","","Fog"
"2001-07-08 01:00","2001","07","08","01:00","23.2","","21.6","","91","","26","","7","","6.4","","98.72","","32","","","","Fog"
"2001-07-08 02:00","2001","07","08","02:00","22.7","","21.4","","92","","26","","7","","4.8","","98.69","","31","","","","Fog"
"2001-07-08 03:00","2001","07","08","03:00","22.4","","21.3","","94","","27","","7","","3.2","","98.70","","31","","","","Fog"
"2001-07-08 04:00","2001","07","08","04:00","22.2","","21.0","","93","","33","","9","","3.2","","98.74","","31","","","","Fog"
"2001-07-08 05:00","2001","07","08","05:00","22.0","","20.5","","91","","34","","9","","3.2","","98.80","","30","","","","Fog"
"2001-07-08 06:00","2001","07","08","06:00","22.0","","20.2","","90","","35","","9","","4.0","","98.89","","30","","","","Fog"
"2001-07-08 07:00","2001","07","08","07:00","22.4","","19.8","","85","","35","","7","","4.8","","98.90","","30","","","","Haze"
"2001-07-08 08:00","2001","07","08","08:00","23.3","","19.3","","78","","5","","17","","9.7","","98.99","","30","","","","Haze"
"2001-07-08 09:00","2001","07","08","09:00","24.0","","19.1","","74","","6","","17","","19.3","","99.00","","31","","","","Mainly Clear"
"2001-07-08 10:00","2001","07","08","10:00","24.6","","19.0","","71","","7","","13","","19.3","","99.03","","31","","","","Mainly Clear"
"2001-07-08 11:00","2001","07","08","11:00","26.2","","18.5","","63","","8","","6","","24.1","","99.08","","33","","","","Mainly Clear"
"2001-07-08 12:00","2001","07","08","12:00","27.6","","15.2","","47","","30","","4","","24.1","","99.08","","32","","","","Clear"
"2001-07-08 13:00","2001","07","08","13:00","29.0","","13.7","","39","","6","","6","","25.0","","99.04","","32","","","","Clear"
"2001-07-08 14:00","2001","07","08","14:00","29.5","","11.6","","33","","7","","11","","25.0","","98.97","","32","","","","Clear"
"2001-07-08 15:00","2001","07","08","15:00","29.6","","10.8","","31","","8","","11","","25.0","","98.93","","31","","","","Clear"
"2001-07-08 16:00","2001","07","08","16:00","29.7","","11.6","","33","","13","","11","","25.0","","98.93","","32","","","","Clear"
"2001-07-08 17:00","2001","07","08","17:00","29.4","","11.5","","33","","10","","9","","25.0","","98.91","","31","","","","Clear"
"2001-07-08 18:00","2001","07","08","18:00","29.4","","12.0","","34","","14","","9","","24.1","","98.90","","32","","","","Mainly Clear"
"2001-07-08 19:00","2001","07","08","19:00","27.4","","16.4","","51","","18","","11","","16.1","","98.85","","32","","","","Mostly Cloudy"
"2001-07-08 20:00","2001","07","08","20:00","25.7","","16.0","","55","","18","","9","","16.1","","98.82","","30","","","","Mostly Cloudy"
"2001-07-08 21:00","2001","07","08","21:00","24.0","","16.0","","61","","17","","6","","19.3","","98.88","","29","","","","Mostly Cloudy"
"2001-07-08 22:00","2001","07","08","22:00","23.4","","15.1","","60","","19","","6","","25.0","","98.91","","27","","","","Mostly Cloudy"
"2001-07-08 23:00","2001","07","08","23:00","23.1","","14.9","","60","","26","","7","","24.1","","98.94","","27","","","","Mainly Clear"
"2001-07-09 00:00","2001","07","09","00:00","22.8","","15.1","","62","","26","","7","","24.1","","98.93","","27","","","","Mainly Clear"
"2001-07-09 01:00","2001","07","09","01:00","20.5","","15.6","","73","","27","","4","","24.1","","98.87","","25","","","","Mainly Clear"
"2001-07-09 02:00","2001","07","09","02:00","20.7","","16.1","","75","","26","","7","","24.1","","98.88","","25","","","","Clear"
"2001-07-09 03:00","2001","07","09","03:00","20.2","","15.9","","76","","25","","4","","24.1","","98.87","","25","","","","Clear"
"2001-07-09 04:00","2001","07","09","04:00","19.7","","15.9","","79","","27","","9","","24.1","","98.87","","","","","","Clear"
"2001-07-09 05:00","2001","07","09","05:00","20.0","","15.4","","75","","26","","7","","24.1","","98.91","","","","","","Mainly Clear"
"2001-07-09 06:00","2001","07","09","06:00","20.2","","15.2","","73","","23","","6","","24.1","","98.91","","","","","","Mainly Clear"
"2001-07-09 07:00","2001","07","09","07:00","23.0","","14.7","","60","","23","","4","","24.1","","98.95","","27","","","","Clear"
"2001-07-09 08:00","2001","07","09","08:00","25.8","","14.5","","50","","25","","6","","24.1","","98.92","","29","","","","Mainly Clear"
"2001-07-09 09:00","2001","07","09","09:00","27.8","","13.9","","42","","25","","17","","24.1","","98.92","","31","","","","Mainly Clear"
"2001-07-09 10:00","2001","07","09","10:00","29.4","","14.9","","41","","26","","13","","19.3","","98.92","","33","","","","Mostly Cloudy"
"2001-07-09 11:00","2001","07","09","11:00","29.4","","16.3","","45","","27","","13","","19.3","","98.94","","34","","","","Mostly Cloudy"
"2001-07-09 12:00","2001","07","09","12:00","29.1","","17.2","","49","","32","","11","","24.1","","98.93","","35","","","","Mostly Cloudy"
"2001-07-09 13:00","2001","07","09","13:00","29.4","","17.9","","50","","23","","4","","19.3","","98.92","","35","","","","Mostly Cloudy"
"2001-07-09 14:00","2001","07","09","14:00","28.8","","18.0","","52","","10","","6","","19.3","","98.87","","35","","","","Mostly Cloudy"
"2001-07-09 15:00","2001","07","09","15:00","30.1","","18.7","","51","","14","","6","","12.9","","98.82","","37","","","","Mainly Clear"
"2001-07-09 16:00","2001","07","09","16:00","31.2","","18.9","","48","","12","","4","","12.9","","98.77","","38","","","","Mainly Clear"
"2001-07-09 17:00","2001","07","09","17:00","30.7","","18.3","","48","","9","","6","","11.3","","98.71","","37","","","","Mainly Clear"
"2001-07-09 18:00","2001","07","09","18:00","29.5","","18.9","","53","","6","","13","","11.3","","98.71","","36","","","","Mainly Clear"
"2001-07-09 19:00","2001","07","09","19:00","29.2","","18.0","","51","","11","","6","","11.3","","98.70","","35","","","","Mainly Clear"
"2001-07-09 20:00","2001","07","09","20:00","26.9","","18.7","","61","","17","","11","","11.3","","98.73","","33","","","","Mainly Clear"
"2001-07-09 21:00","2001","07","09","21:00","25.5","","18.9","","67","","21","","13","","11.3","","98.76","","32","","","","Mainly Clear"
"2001-07-09 22:00","2001","07","09","22:00","24.5","","18.5","","69","","21","","13","","19.3","","98.75","","31","","","","Mainly Clear"
"2001-07-09 23:00","2001","07","09","23:00","23.6","","18.5","","73","","24","","7","","24.1","","98.71","","30","","","","Mainly Clear"
"2001-07-10 00:00","2001","07","10","00:00","23.2","","19.1","","78","","23","","9","","24.1","","98.66","","30","","","","Clear"
"2001-07-10 01:00","2001","07","10","01:00","23.6","","18.9","","75","","27","","9","","24.1","","98.66","","30","","","","Mainly Clear"
"2001-07-10 02:00","2001","07","10","02:00","23.5","","17.7","","70","","28","","11","","24.1","","98.65","","29","","","","Mainly Clear"
"2001-07-10 03:00","2001","07","10","03:00","22.9","","17.6","","72","","29","","11","","24.1","","98.63","","29","","","","Mostly Cloudy"
"2001-07-10 04:00","2001","07","10","04:00","22.9","","17.9","","73","","1","","11","","24.1","","98.68","","29","","","","Mostly Cloudy"
"2001-07-10 05:00","2001","07","10","05:00","22.2","","16.9","","72","","","","0","","24.1","","98.69","","27","","","","Rain Showers"
"2001-07-10 06:00","2001","07","10","06:00","20.0","","17.9","","88","","9","","11","","24.1","","98.70","","26","","","","Rain Showers"
"2001-07-10 07:00","2001","07","10","07:00","21.4","","18.4","","83","","","","0","","24.1","","98.71","","28","","","","Mostly Cloudy"
"2001-07-10 08:00","2001","07","10","08:00","22.8","","18.6","","77","","","","0","","24.1","","98.70","","29","","","","Mostly Cloudy"
"2001-07-10 09:00","2001","07","10","09:00","25.2","","18.3","","66","","27","","4","","24.1","","98.69","","31","","","","Mainly Clear"
"2001-07-10 10:00","2001","07","10","10:00","26.4","","18.0","","60","","24","","7","","24.1","","98.68","","32","","","","Clear"
"2001-07-10 11:00","2001","07","10","11:00","27.0","","18.3","","59","","25","","17","","19.3","","98.68","","33","","","","Clear"
"2001-07-10 12:00","2001","07","10","12:00","28.2","","18.2","","55","","24","","15","","24.1","","98.65","","34","","","","Mainly Clear"
"2001-07-10 13:00","2001","07","10","13:00","29.2","","17.5","","49","","27","","13","","24.1","","98.56","","35","","","","Mainly Clear"
"2001-07-10 14:00","2001","07","10","14:00","31.6","","13.9","","34","","31","","28","","24.1","","98.50","","35","","","","Mainly Clear"
"2001-07-10 15:00","2001","07","10","15:00","31.9","","13.2","","32","","32","","20","","24.1","","98.43","","35","","","","Mainly Clear"
"2001-07-10 16:00","2001","07","10","16:00","32.4","","13.3","","31","","31","","28","","24.1","","98.35","","35","","","","Mainly Clear"
"2001-07-10 17:00","2001","07","10","17:00","31.1","","13.4","","34","","32","","26","","24.1","","98.30","","34","","","","Mostly Cloudy"
"2001-07-10 18:00","2001","07","10","18:00","30.7","","14.1","","36","","30","","26","","24.1","","98.31","","34","","","","Mainly Clear"
"2001-07-10 19:00","2001","07","10","19:00","30.0","","12.4","","34","","34","","28","","24.1","","98.32","","32","","","","Mainly Clear"
"2001-07-10 20:00","2001","07","10","20:00","28.8","","10.1","","31","","33","","24","","24.1","","98.37","","30","","","","Mainly Clear"
"2001-07-10 21:00","2001","07","10","21:00","27.5","","9.9","","33","","34","","17","","24.1","","98.45","","29","","","","Mostly Cloudy"
"2001-07-10 22:00","2001","07","10","22:00","22.5","","12.9","","55","","2","","19","","24.1","","98.61","","25","","","","Mostly Cloudy"
"2001-07-10 23:00","2001","07","10","23:00","21.5","","11.0","","51","","2","","19","","24.1","","98.67","","","","","","Mostly Cloudy"
"2001-07-11 00:00","2001","07","11","00:00","20.3","","10.7","","54","","2","","15","","24.1","","98.72","","","","","","Mostly Cloudy"
"2001-07-11 01:00","2001","07","11","01:00","18.7","","11.9","","65","","1","","15","","24.1","","98.74","","","","","","Mainly Clear"
"2001-07-11 02:00","2001","07","11","02:00","18.0","","11.4","","65","","36","","11","","24.1","","98.77","","","","","","Mainly Clear"
"2001-07-11 03:00","2001","07","11","03:00","17.5","","11.5","","68","","36","","13","","24.1","","98.83","","","","","","Mainly Clear"
"2001-07-11 04:00","2001","07","11","04:00","17.3","","11.3","","68","","33","","17","","24.1","","98.86","","","","","","Mainly Clear"
"2001-07-11 05:00","2001","07","11","05:00","16.3","","10.1","","67","","33","","15","","24.1","","98.90","","","","","","Mainly Clear"
"2001-07-11 06:00","2001","07","11","06:00","16.5","","9.7","","64","","34","","11","","24.1","","98.92","","","","","","Clear"
"2001-07-11 07:00","2001","07","11","07:00","16.6","","9.6","","63","","33","","13","","25.0","","98.98","","","","","","Clear"
"2001-07-11 08:00","2001","07","11","08:00","18.2","","10.3","","60","","35","","15","","25.0","","99.01","","","","","","Clear"
"2001-07-11 09:00","2001","07","11","09:00","19.6","","10.7","","56","","35","","17","","25.0","","99.01","","","","","","Clear"
"2001-07-11 10:00","2001","07","11","10:00","21.4","","10.8","","51","","36","","11","","25.0","","99.03","","","","","","Mainly Clear"
"2001-07-11 11:00","2001","07","11","11:00","21.9","","10.0","","47","","36","","11","","25.0","","99.03","","","","","","Mainly Clear"
"2001-07-11 12:00","2001","07","11","12:00","22.8","","9.5","","43","","33","","15","","25.0","","99.04","","","","","","Mainly Clear"
"2001-07-11 13:00","2001","07","11","13:00","23.2","","9.9","","43","","36","","15","","25.0","","99.05","","","","","","Mostly Cloudy"
"2001-07-11 14:00","2001","07","11","14:00","23.1","","9.6","","42","","34","","19","","25.0","","99.05","","","","","","Mostly Cloudy"
"2001-07-11 15:00","2001","07","11","15:00","23.8","","10.0","","42","","32","","15","","25.0","","99.02","","25","","","","Mostly Cloudy"
"2001-07-11 16:00","2001","07","11","16:00","23.9","","10.0","","41","","35","","19","","25.0","","99.00","","25","","","","Mostly Cloudy"
"2001-07-11 17:00","2001","07","11","17:00","24.0","","10.3","","42","","36","","9","","25.0","","98.99","","25","","","","Mostly Cloudy"
"2001-07-11 18:00","2001","07","11","18:00","24.1","","10.0","","41","","34","","15","","25.0","","98.99","","25","","","","Mostly Cloudy"
"2001-07-11 19:00","2001","07","11","19:00","23.7","","9.9","","42","","33","","15","","25.0","","98.99","","25","","","","Mostly Cloudy"
"2001-07-11 20:00","2001","07","11","20:00","22.7","","10.6","","46","","35","","11","","25.0","","99.01","","","","","","Mostly Cloudy"
"2001-07-11 21:00","2001","07","11","21:00","22.8","","10.3","","45","","34","","15","","25.0","","99.07","","","","","","Mostly Cloudy"
"2001-07-11 22:00","2001","07","11","22:00","19.6","","14.3","","71","","5","","20","","25.0","","99.14","","","","","","Mainly Clear"
"2001-07-11 23:00","2001","07","11","23:00","17.9","","12.1","","69","","4","","13","","24.1","","99.20","","","","","","Mainly Clear"
"2001-07-12 00:00","2001","07","12","00:00","17.3","","12.4","","73","","3","","9","","24.1","","99.24","","","","","","Clear"
"2001-07-12 01:00","2001","07","12","01:00","17.4","","11.5","","68","","4","","7","","24.1","","99.27","","","","","","Clear"
"2001-07-12 02:00","2001","07","12","02:00","16.4","","11.9","","75","","27","","6","","24.1","","99.28","","","","","","Mainly Clear"
"2001-07-12 03:00","2001","07","12","03:00","16.0","","12.1","","78","","28","","7","","24.1","","99.29","","","","","","Clear"
"2001-07-12 04:00","2001","07","12","04:00","15.8","","11.7","","77","","28","","9","","24.1","","99.27","","","","","","Clear"
"2001-07-12 05:00","2001","07","12","05:00","15.5","","11.0","","75","","33","","11","","24.1","","99.29","","","","","","Mainly Clear"
"2001-07-12 06:00","2001","07","12","06:00","15.9","","11.5","","75","","34","","7","","24.1","","99.33","","","","","","Mainly Clear"
"2001-07-12 07:00","2001","07","12","07:00","17.1","","11.7","","71","","34","","13","","25.0","","99.34","","","","","","Clear"
"2001-07-12 08:00","2001","07","12","08:00","19.0","","11.7","","63","","36","","13","","25.0","","99.39","","","","","","Clear"
"2001-07-12 09:00","2001","07","12","09:00","20.0","","11.4","","58","","33","","7","","25.0","","99.42","","","","","","Clear"
"2001-07-12 10:00","2001","07","12","10:00","22.1","","11.6","","51","","1","","15","","25.0","","99.42","","","","","","Mainly Clear"
"2001-07-12 11:00","2001","07","12","11:00","22.9","","10.7","","46","","35","","20","","25.0","","99.39","","25","","","","Mainly Clear"
"2001-07-12 12:00","2001","07","12","12:00","24.2","","10.3","","41","","35","","24","","25.0","","99.39","","26","","","","Mainly Clear"
"2001-07-12 13:00","2001","07","12","13:00","24.0","","9.5","","40","","35","","13","","25.0","","99.38","","25","","","","Mainly Clear"
"2001-07-12 14:00","2001","07","12","14:00","24.3","","9.3","","39","","1","","15","","25.0","","99.35","","25","","","","Mainly Clear"
"2001-07-12 15:00","2001","07","12","15:00","24.6","","9.4","","38","","1","","19","","25.0","","99.34","","26","","","","Mostly Cloudy"
"2001-07-12 16:00","2001","07","12","16:00","24.2","","8.5","","37","","36","","17","","25.0","","99.31","","25","","","","Mostly Cloudy"
"2001-07-12 17:00","2001","07","12","17:00","24.3","","9.4","","39","","5","","13","","25.0","","99.28","","25","","","","Mostly Cloudy"
"2001-07-12 18:00","2001","07","12","18:00","23.2","","11.5","","48","","8","","15","","25.0","","99.28","","25","","","","Mostly Cloudy"
"2001-07-12 19:00","2001","07","12","19:00","22.2","","12.3","","53","","9","","13","","25.0","","99.32","","25","","","","Mainly Clear"
"2001-07-12 20:00","2001","07","12","20:00","20.7","","12.9","","61","","10","","7","","25.0","","99.34","","","","","","Mainly Clear"
"2001-07-12 21:00","2001","07","12","21:00","18.4","","12.9","","70","","5","","13","","25.0","","99.40","","","","","","Mainly Clear"
"2001-07-12 22:00","2001","07","12","22:00","17.5","","11.1","","66","","6","","15","","25.0","","99.46","","","","","","Mainly Clear"
"2001-07-12 23:00","2001","07","12","23:00","16.5","","11.2","","71","","6","","9","","24.1","","99.47","","","","","","Mainly Clear"
"2001-07-13 00:00","2001","07","13","00:00","15.8","","10.7","","72","","4","","9","","24.1","","99.48","","","","","","Mainly Clear"
"2001-07-13 01:00","2001","07","13","01:00","16.0","","10.4","","69","","5","","6","","24.1","","99.48","","","","","","Mainly Clear"
"2001-07-13 02:00","2001","07","13","02:00","15.8","","10.5","","71","","4","","6","","24.1","","99.46","","","","","","Clear"
"2001-07-13 03:00","2001","07","13","03:00","15.4","","10.6","","73","","35","","6","","24.1","","99.44","","","","","","Mainly Clear"
"2001-07-13 04:00","2001","07","13","04:00","15.0","","10.4","","74","","34","","7","","24.1","","99.45","","","","","","Clear"
"2001-07-13 05:00","2001","07","13","05:00","14.4","","9.7","","73","","32","","6","","24.1","","99.45","","","","","","Mainly Clear"
"2001-07-13 06:00","2001","07","13","06:00","15.0","","10.0","","72","","33","","7","","25.0","","99.47","","","","","","Clear"
"2001-07-13 07:00","2001","07","13","07:00","17.5","","10.1","","62","","31","","7","","25.0","","99.50","","","","","","Clear"
"2001-07-13 08:00","2001","07","13","08:00","18.7","","9.6","","55","","","","0","","25.0","","99.49","","","","","","Clear"
"2001-07-13 09:00","2001","07","13","09:00","20.7","","9.8","","50","","11","","4","","25.0","","99.53","","","","","","Clear"
"2001-07-13 10:00","2001","07","13","10:00","21.1","","10.2","","50","","10","","6","","25.0","","99.53","","","","","","Mainly Clear"
"2001-07-13 11:00","2001","07","13","11:00","22.7","","9.6","","43","","4","","15","","25.0","","99.54","","","","","","Mainly Clear"
"2001-07-13 12:00","2001","07","13","12:00","23.6","","10.0","","42","","1","","9","","25.0","","99.52","","25","","","","Mainly Clear"
"2001-07-13 13:00","2001","07","13","13:00","23.5","","10.1","","43","","9","","4","","25.0","","99.47","","25","","","","Mainly Clear"
"2001-07-13 14:00","2001","07","13","14:00","23.2","","10.5","","45","","7","","4","","25.0","","99.45","","25","","","","Mainly Clear"
"2001-07-13 15:00","2001","07","13","15:00","24.7","","10.5","","41","","35","","9","","25.0","","99.41","","26","","","","Mainly Clear"
"2001-07-13 16:00","2001","07","13","16:00","25.5","","10.9","","40","","5","","9","E","25.0","","99.39","","27","","","","Mainly Clear"
"2001-07-13 17:00","2001","07","13","17:00","25.0","","10.2","","39","","34","","7","","25.0","","99.39","","26","","","","Mainly Clear"
"2001-07-13 18:00","2001","07","13","18:00","25.3","","10.0","","38","","32","","20","","24.1","","99.36","","27","","","","Mainly Clear"
"2001-07-13 19:00","2001","07","13","19:00","25.1","","10.4","","40","","30","","15","","24.1","","99.33","","27","","","","Mostly Cloudy"
"2001-07-13 20:00","2001","07","13","20:00","24.0","","10.6","","43","","31","","7","","24.1","","99.30","","26","","","","Mainly Clear"
"2001-07-13 21:00","2001","07","13","21:00","20.6","","13.2","","63","","5","","24","","24.1","","99.36","","","","","","Mainly Clear"
"2001-07-13 22:00","2001","07","13","22:00","18.8","","12.6","","67","","4","","15","","24.1","","99.41","","","","","","Clear"
"2001-07-13 23:00","2001","07","13","23:00","17.9","","12.3","","70","","5","","11","","24.1","","99.39","","","","","","Clear"
"2001-07-14 00:00","2001","07","14","00:00","17.2","","11.3","","68","","1","","9","","24.1","","99.39","","","","","","Clear"
"2001-07-14 01:00","2001","07","14","01:00","17.1","","10.9","","67","","35","","6","","24.1","","99.38","","","","","","Clear"
"2001-07-14 02:00","2001","07","14","02:00","16.3","","10.9","","70","","32","","7","","24.1","","99.37","","","","","","Clear"
"2001-07-14 03:00","2001","07","14","03:00","15.9","","10.8","","72","","29","","6","","24.1","","99.37","","","","","","Clear"
"2001-07-14 04:00","2001","07","14","04:00","15.9","","11.6","","76","","29","","13","","24.1","","99.39","","","","","","Clear"
"2001-07-14 05:00","2001","07","14","05:00","15.8","","11.8","","77","","29","","9","","24.1","","99.41","","","","","","Clear"
"2001-07-14 06:00","2001","07","14","06:00","16.4","","12.0","","75","","30","","7","","24.1","","99.42","","","","","","Clear"
"2001-07-14 07:00","2001","07","14","07:00","18.7","","11.8","","64","","33","","15","","24.1","","99.45","","","","","","Clear"
"2001-07-14 08:00","2001","07","14","08:00","20.6","","10.0","","51","","36","","11","","24.1","","99.47","","","","","","Clear"
"2001-07-14 09:00","2001","07","14","09:00","22.1","","10.5","","48","","32","","13","","25.0","","99.48","","","","","","Clear"
"2001-07-14 10:00","2001","07","14","10:00","24.4","","11.7","","45","","32","","11","","25.0","","99.48","","27","","","","Mainly Clear"
"2001-07-14 11:00","2001","07","14","11:00","24.9","","11.1","","42","","5","","17","","25.0","","99.45","","27","","","","Mainly Clear"
"2001-07-14 12:00","2001","07","14","12:00","26.1","","10.1","","37","","36","","17","","25.0","","99.42","","27","","","","Mainly Clear"
"2001-07-14 13:00","2001","07","14","13:00","26.6","","9.7","","35","","5","","19","","25.0","","99.36","","28","","","","Mainly Clear"
"2001-07-14 14:00","2001","07","14","14:00","26.5","","10.9","","38","","7","","7","","25.0","","99.32","","28","","","","Mainly Clear"
"2001-07-14 15:00","2001","07","14","15:00","26.9","","11.8","","39","","8","","11","","24.1","","99.31","","29","","","","Mainly Clear"
"2001-07-14 16:00","2001","07","14","16:00","27.2","","11.2","","37","","10","","9","","24.1","","99.30","","29","","","","Mostly Cloudy"
"2001-07-14 17:00","2001","07","14","17:00","27.7","","10.9","","35","","1","","7","","24.1","","99.29","","29","","","","Mostly Cloudy"
"2001-07-14 18:00","2001","07","14","18:00","28.0","","9.1","","31","","7","","9","","24.1","","99.25","","29","","","","Mostly Cloudy"
"2001-07-14 19:00","2001","07","14","19:00","25.9","","10.2","","37","","12","","7","","24.1","","99.25","","27","","","","Mostly Cloudy"
"2001-07-14 20:00","2001","07","14","20:00","23.9","","11.3","","45","","14","","7","","24.1","","99.24","","26","","","","Mostly Cloudy"
"2001-07-14 21:00","2001","07","14","21:00","22.6","","13.1","","55","","20","","7","","24.1","","99.27","","25","","","","Mostly Cloudy"
"2001-07-14 22:00","2001","07","14","22:00","21.5","","13.4","","60","","20","","4","","24.1","","99.29","","25","","","","Mostly Cloudy"
"2001-07-14 23:00","2001","07","14","23:00","20.7","","14.0","","65","","18","","4","","24.1","","99.28","","","","","","Mainly Clear"
"2001-07-15 00:00","2001","07","15","00:00","20.4","","14.8","","70","","25","","7","","24.1","","99.30","","","","","","Mainly Clear"
"2001-07-15 01:00","2001","07","15","01:00","19.3","","13.8","","70","","24","","9","","24.1","","99.27","","","","","","Mainly Clear"
"2001-07-15 02:00","2001","07","15","02:00","19.9","","10.7","","55","","28","","11","","25.0","","99.27","","","","","","Clear"
"2001-07-15 03:00","2001","07","15","03:00","19.9","","10.2","","54","","29","","9","","25.0","","99.26","","","","","","Clear"
"2001-07-15 04:00","2001","07","15","04:00","19.6","","10.2","","55","","30","","9","","25.0","","99.29","","","","","","Clear"
"2001-07-15 05:00","2001","07","15","05:00","19.0","","10.1","","56","","29","","4","","24.1","","99.32","","","","","","Clear"
"2001-07-15 06:00","2001","07","15","06:00","19.2","","10.4","","57","","34","","7","","24.1","","99.35","","","","","","Clear"
"2001-07-15 07:00","2001","07","15","07:00","20.6","","11.0","","54","","28","","4","","24.1","","99.39","","","","","","Mainly Clear"
"2001-07-15 08:00","2001","07","15","08:00","22.8","","11.7","","50","","28","","11","","24.1","","99.42","","25","","","","Clear"
"2001-07-15 09:00","2001","07","15","09:00","25.6","","12.0","","43","","31","","9","","24.1","","99.42","","28","","","","Mainly Clear"
"2001-07-15 10:00","2001","07","15","10:00","26.9","","11.9","","39","","32","","9","","24.1","","99.42","","29","","","","Mainly Clear"
"2001-07-15 11:00","2001","07","15","11:00","29.3","","12.0","","34","","29","","4","","24.1","","99.40","","32","","","","Clear"
"2001-07-15 12:00","2001","07","15","12:00","29.0","","11.5","","34","","30","","6","","24.1","","99.38","","31","","","","Mainly Clear"
"2001-07-15 13:00","2001","07","15","13:00","30.1","","11.6","","32","","30","","17","","24.1","","99.33","","32","","","","Mainly Clear"
"2001-07-15 14:00","2001","07","15","14:00","30.7","","13.2","","34","","32","","15","","24.1","","99.32","","34","","","","Mainly Clear"
"2001-07-15 15:00","2001","07","15","15:00","28.5","","14.2","","42","","5","","11","","24.1","","99.31","","32","","","","Mostly Cloudy"
"2001-07-15 16:00","2001","07","15","16:00","28.0","","15.1","","45","","7","","9","","24.1","","99.31","","32","","","","Mostly Cloudy"
"2001-07-15 17:00","2001","07","15","17:00","28.2","","15.7","","47","","10","","6","","24.1","","99.31","","33","","","","Mostly Cloudy"
"2001-07-15 18:00","2001","07","15","18:00","27.2","","16.3","","51","","15","","6","","24.1","","99.30","","32","","","","Mostly Cloudy"
"2001-07-15 19:00","2001","07","15","19:00","24.9","","16.2","","58","","11","","7","","24.1","","99.34","","30","","","","Mostly Cloudy"
"2001-07-15 20:00","2001","07","15","20:00","24.7","","15.9","","58","","11","","4","","19.3","","99.34","","29","","","","Mostly Cloudy"
"2001-07-15 21:00","2001","07","15","21:00","23.6","","15.6","","61","","","","0","","19.3","","99.38","","28","","","","Mostly Cloudy"
"2001-07-15 22:00","2001","07","15","22:00","23.0","","15.6","","63","","","","0","","24.1","","99.40","","27","","","","Mostly Cloudy"
"2001-07-15 23:00","2001","07","15","23:00","22.0","","16.2","","70","","16","","4","","24.1","","99.40","","27","","","","Mostly Cloudy"
"2001-07-16 00:00","2001","07","16","00:00","22.3","","18.1","","77","","7","","11","","24.1","","99.46","","28","","","","Mostly Cloudy"
"2001-07-16 01:00","2001","07","16","01:00","22.1","","17.2","","74","","5","","7","","24.1","","99.45","","28","","","","Mostly Cloudy"
"2001-07-16 02:00","2001","07","16","02:00","21.5","","15.3","","68","","4","","6","","24.1","","99.48","","26","","","","Mostly Cloudy"
"2001-07-16 03:00","2001","07","16","03:00","20.8","","16.3","","75","","7","","7","","24.1","","99.45","","26","","","","Mostly Cloudy"
"2001-07-16 04:00","2001","07","16","04:00","21.1","","14.8","","67","","7","","6","","24.1","","99.43","","25","","","","Mostly Cloudy"
"2001-07-16 05:00","2001","07","16","05:00","20.0","","14.2","","69","","6","","7","","24.1","","99.47","","","","","","Mostly Cloudy"
"2001-07-16 06:00","2001","07","16","06:00","20.6","","14.5","","68","","11","","4","","24.1","","99.48","","","","","","Mostly Cloudy"
"2001-07-16 07:00","2001","07","16","07:00","20.8","","15.9","","74","","18","","4","","19.3","","99.50","","25","","","","Mostly Cloudy"
"2001-07-16 08:00","2001","07","16","08:00","22.2","","17.6","","75","","18","","7","","19.3","","99.53","","28","","","","Mostly Cloudy"
"2001-07-16 09:00","2001","07","16","09:00","25.4","","18.6","","66","","21","","13","","19.3","","99.52","","32","","","","Mostly Cloudy"
"2001-07-16 10:00","2001","07","16","10:00","26.7","","16.9","","55","","25","","13","","19.3","","99.48","","32","","","","Mostly Cloudy"
"2001-07-16 11:00","2001","07","16","11:00","28.2","","15.1","","45","","25","","11","","24.1","","99.48","","32","","","","Mostly Cloudy"
"2001-07-16 12:00","2001","07","16","12:00","29.4","","15.3","","42","","23","","9","","24.1","","99.44","","34","","","","Mostly Cloudy"
"2001-07-16 13:00","2001","07","16","13:00","29.9","","12.9","","35","","22","","17","","24.1","","99.41","","33","","","","Mostly Cloudy"
"2001-07-16 14:00","2001","07","16","14:00","31.0","","13.1","","34","","30","","7","","24.1","","99.35","","34","","","","Mostly Cloudy"
"2001-07-16 15:00","2001","07","16","15:00","31.0","","13.1","","34","","30","","19","","24.1","","99.32","","34","","","","Mostly Cloudy"
"2001-07-16 16:00","2001","07","16","16:00","30.3","","13.4","","36","","23","","17","","19.3","","99.29","","33","","","","Mostly Cloudy"
"2001-07-16 17:00","2001","07","16","17:00","31.0","","14.0","","36","","26","","15","","19.3","","99.25","","34","","","","Mostly Cloudy"
"2001-07-16 18:00","2001","07","16","18:00","30.3","","14.5","","38","","27","","17","","16.1","","99.24","","34","","","","Mostly Cloudy"
"2001-07-16 19:00","2001","07","16","19:00","29.9","","14.7","","40","","","","0","","16.1","","99.25","","34","","","","Mainly Clear"
"2001-07-16 20:00","2001","07","16","20:00","28.6","","14.6","","42","","24","","11","","16.1","","99.26","","32","","","","Mostly Cloudy"
"2001-07-16 21:00","2001","07","16","21:00","25.7","","16.0","","55","","21","","13","","16.1","","99.29","","30","","","","Mainly Clear"
"2001-07-16 22:00","2001","07","16","22:00","24.5","","17.5","","65","","22","","13","","19.3","","99.31","","30","","","","Mainly Clear"
"2001-07-16 23:00","2001","07","16","23:00","23.8","","17.5","","68","","22","","11","","19.3","","99.32","","29","","","","Mainly Clear"
"2001-07-17 00:00","2001","07","17","00:00","24.1","","16.7","","63","","24","","9","","24.1","","99.31","","29","","","","Mostly Cloudy"
"2001-07-17 01:00","2001","07","17","01:00","23.5","","15.6","","61","","24","","9","","24.1","","99.30","","28","","","","Mostly Cloudy"
"2001-07-17 02:00","2001","07","17","02:00","22.3","","15.7","","66","","23","","11","","24.1","","99.29","","27","","","","Mostly Cloudy"
"2001-07-17 03:00","2001","07","17","03:00","22.2","","15.8","","67","","25","","7","","24.1","","99.30","","27","","","","Mostly Cloudy"
"2001-07-17 04:00","2001","07","17","04:00","21.8","","15.8","","69","","26","","9","","24.1","","99.31","","26","","","","Mainly Clear"
"2001-07-17 05:00","2001","07","17","05:00","21.3","","15.6","","70","","28","","9","","24.1","","99.34","","26","","","","Mostly Cloudy"
"2001-07-17 06:00","2001","07","17","06:00","21.6","","15.6","","69","","27","","9","","24.1","","99.34","","26","","","","Mostly Cloudy"
"2001-07-17 07:00","2001","07","17","07:00","22.7","","16.7","","69","","27","","7","","16.1","","99.37","","28","","","","Mostly Cloudy"
"2001-07-17 08:00","2001","07","17","08:00","25.9","","16.7","","57","","32","","6","","12.9","","99.38","","31","","","","Mostly Cloudy"
"2001-07-17 09:00","2001","07","17","09:00","26.8","","15.4","","50","","31","","6","","19.3","","99.41","","31","","","","Mostly Cloudy"
"2001-07-17 10:00","2001","07","17","10:00","28.2","","15.7","","47","","35","","6","","24.1","","99.39","","33","","","","Mainly Clear"
"2001-07-17 11:00","2001","07","17","11:00","28.7","","14.0","","41","","19","","7","","24.1","","99.36","","32","","","","Mostly Cloudy"
"2001-07-17 12:00","2001","07","17","12:00","29.0","","14.8","","42","","13","","9","","19.3","","99.30","","33","","","","Mostly Cloudy"
"2001-07-17 13:00","2001","07","17","13:00","28.9","","16.0","","46","","3","","9","","19.3","","99.32","","34","","","","Mostly Cloudy"
"2001-07-17 14:00","2001","07","17","14:00","28.2","","15.8","","47","","5","","9","E","16.1","","99.30","","33","","","","Mostly Cloudy"
"2001-07-17 15:00","2001","07","17","15:00","29.1","","16.5","","47","","14","","9","E","16.1","","99.27","","34","","","","Mostly Cloudy"
"2001-07-17 16:00","2001","07","17","16:00","28.8","","15.6","","45","","23","","15","E","16.1","","99.25","","33","","","","Cloudy"
"2001-07-17 17:00","2001","07","17","17:00","27.9","","15.8","","48","","23","","11","E","16.1","","99.25","","32","","","","Cloudy"
"2001-07-17 18:00","2001","07","17","18:00","27.4","","15.7","","49","","22","","4","","16.1","","99.24","","32","","","","Cloudy"
"2001-07-17 19:00","2001","07","17","19:00","25.5","","17.3","","60","","25","","19","","11.3","","99.28","","31","","","","Cloudy"
"2001-07-17 20:00","2001","07","17","20:00","24.2","","19.0","","73","","29","","9","","8.0","","99.31","","31","","","","Rain Showers,Haze"
"2001-07-17 21:00","2001","07","17","21:00","23.8","","19.0","","75","","1","","6","","12.9","","99.31","","31","","","","Rain Showers"
"2001-07-17 22:00","2001","07","17","22:00","23.8","","18.9","","74","","","","0","","16.1","","99.30","","30","","","","Cloudy"
"2001-07-17 23:00","2001","07","17","23:00","22.4","","19.2","","82","","13","","4","","12.9","","99.33","","29","","","","Mostly Cloudy"
"2001-07-18 00:00","2001","07","18","00:00","21.8","","18.6","","82","","12","","4","","12.9","","99.29","","28","","","","Mostly Cloudy"
"2001-07-18 01:00","2001","07","18","01:00","21.5","","18.4","","83","","","","0","","9.7","","99.31","","28","","","","Haze"
"2001-07-18 02:00","2001","07","18","02:00","21.7","","19.0","","85","","14","","4","","4.8","","99.27","","28","","","","Haze"
"2001-07-18 03:00","2001","07","18","03:00","20.7","","18.8","","89","","9","","4","","2.4","","99.27","","27","","","","Fog"
"2001-07-18 04:00","2001","07","18","04:00","20.9","","19.4","","91","","","","0","","1.6","","99.29","","28","","","","Fog"
"2001-07-18 05:00","2001","07","18","05:00","19.9","","18.6","","92","","","","0","","0.2","","99.26","","","","","","Fog"
"2001-07-18 06:00","2001","07","18","06:00","19.5","","18.3","","93","","7","","9","","1.0","","99.27","","","","","","Fog"
"2001-07-18 07:00","2001","07","18","07:00","21.1","","19.8","","92","","8","","11","","2.4","","99.31","","29","","","","Fog"
"2001-07-18 08:00","2001","07","18","08:00","22.7","","19.5","","82","","9","","13","","4.0","","99.37","","30","","","","Haze"
"2001-07-18 09:00","2001","07","18","09:00","23.6","","19.2","","76","","8","","11","","8.0","","99.36","","31","","","","Haze"
"2001-07-18 10:00","2001","07","18","10:00","25.4","","17.4","","61","","8","","15","","12.9","","99.34","","31","","","","Mainly Clear"
"2001-07-18 11:00","2001","07","18","11:00","26.7","","18.0","","59","","6","","13","","16.1","","99.44","","33","","","","Mostly Cloudy"
"2001-07-18 12:00","2001","07","18","12:00","26.9","","18.8","","61","","7","","15","","16.1","","99.43","","34","","","","Mostly Cloudy"
"2001-07-18 13:00","2001","07","18","13:00","27.4","","18.5","","58","","9","","15","","16.1","","99.45","","34","","","","Mostly Cloudy"
"2001-07-18 14:00","2001","07","18","14:00","28.1","","18.7","","57","","9","","13","","12.9","","99.40","","35","","","","Mostly Cloudy"
"2001-07-18 15:00","2001","07","18","15:00","28.0","","18.4","","56","","8","","19","","19.3","","99.33","","34","","","","Mostly Cloudy"
"2001-07-18 16:00","2001","07","18","16:00","28.7","","16.7","","48","","14","","17","","16.1","","99.31","","34","","","","Mostly Cloudy"
"2001-07-18 17:00","2001","07","18","17:00","28.5","","15.3","","45","","13","","11","","16.1","","99.28","","33","","","","Mostly Cloudy"
"2001-07-18 18:00","2001","07","18","18:00","28.1","","15.7","","47","","15","","13","","16.1","","99.34","","33","","","","Mostly Cloudy"
"2001-07-18 19:00","2001","07","18","19:00","27.1","","15.3","","48","","14","","7","","12.9","","99.39","","31","","","","Mainly Clear"
"2001-07-18 20:00","2001","07","18","20:00","24.8","","16.4","","60","","13","","11","","11.3","","99.42","","30","","","","Mostly Cloudy"
"2001-07-18 21:00","2001","07","18","21:00","23.9","","16.7","","64","","11","","6","","12.9","","99.45","","29","","","","Mostly Cloudy"
"2001-07-18 22:00","2001","07","18","22:00","22.7","","18.0","","75","","8","","7","","11.3","","99.48","","29","","","","Cloudy"
"2001-07-18 23:00","2001","07","18","23:00","22.8","","18.6","","77","","9","","6","","11.3","","99.51","","29","","","","Cloudy"
"2001-07-19 00:00","2001","07","19","00:00","23.2","","18.3","","74","","9","","6","","11.3","","99.50","","29","","","","Cloudy"
"2001-07-19 01:00","2001","07","19","01:00","22.9","","18.0","","74","","8","","9","","12.9","","99.48","","29","","","","Cloudy"
"2001-07-19 02:00","2001","07","19","02:00","22.9","","18.2","","75","","4","","9","","12.9","","99.47","","29","","","","Cloudy"
"2001-07-19 03:00","2001","07","19","03:00","22.0","","18.8","","82","","7","","9","","24.1","","99.47","","29","","","","Mostly Cloudy"
"2001-07-19 04:00","2001","07","19","04:00","21.5","","17.7","","79","","5","","6","","24.1","","99.49","","27","","","","Mainly Clear"
"2001-07-19 05:00","2001","07","19","05:00","20.5","","16.8","","79","","4","","9","","24.1","","99.52","","26","","","","Mainly Clear"
"2001-07-19 06:00","2001","07","19","06:00","20.2","","16.9","","81","","7","","7","","24.1","","99.52","","25","","","","Clear"
"2001-07-19 07:00","2001","07","19","07:00","22.3","","17.8","","76","","6","","9","","24.1","","99.54","","28","","","","Clear"
"2001-07-19 08:00","2001","07","19","08:00","23.5","","18.1","","72","","5","","11","","24.1","","99.57","","30","","","","Mostly Cloudy"
"2001-07-19 09:00","2001","07","19","09:00","23.9","","17.9","","69","","7","","9","","24.1","","99.56","","30","","","","Mostly Cloudy"
"2001-07-19 10:00","2001","07","19","10:00","25.6","","18.3","","64","","6","","9","","19.3","","99.59","","32","","","","Mostly Cloudy"
"2001-07-19 11:00","2001","07","19","11:00","27.0","","18.6","","60","","8","","11","","9.7","","99.59","","33","","","","Haze"
"2001-07-19 12:00","2001","07","19","12:00","27.3","","18.7","","59","","3","","11","","8.0","","99.59","","34","","","","Haze"
"2001-07-19 13:00","2001","07","19","13:00","28.0","","19.3","","59","","7","","9","","8.0","","99.57","","35","","","","Haze"
"2001-07-19 14:00","2001","07","19","14:00","29.5","","20.4","","58","","9","","11","","9.7","","99.52","","37","","","","Haze"
"2001-07-19 15:00","2001","07","19","15:00","29.8","","19.9","","55","","6","","9","","9.7","","99.48","","37","","","","Haze"
"2001-07-19 16:00","2001","07","19","16:00","29.7","","18.9","","52","","8","","11","","9.7","","99.45","","36","","","","Haze"
"2001-07-19 17:00","2001","07","19","17:00","30.0","","19.5","","53","","7","","11","","9.7","","99.43","","37","","","","Haze"
"2001-07-19 18:00","2001","07","19","18:00","28.3","","19.6","","59","","13","","13","","8.0","","99.42","","36","","","","Haze"
"2001-07-19 19:00","2001","07","19","19:00","26.7","","20.2","","68","","12","","17","","8.0","","99.48","","34","","","","Haze"
"2001-07-19 20:00","2001","07","19","20:00","24.7","","20.0","","75","","14","","13","","8.0","","99.50","","32","","","","Haze"
"2001-07-19 21:00","2001","07","19","21:00","23.6","","19.2","","76","","12","","11","","8.0","","99.50","","31","","","","Haze"
"2001-07-19 22:00","2001","07","19","22:00","22.6","","18.8","","79","","7","","7","","9.7","","99.53","","29","","","","Haze"
"2001-07-19 23:00","2001","07","19","23:00","22.3","","18.3","","78","","6","","9","","11.3","","99.55","","29","","","","Mainly Clear"
"2001-07-20 00:00","2001","07","20","00:00","22.2","","18.5","","80","","8","","7","","9.7","","99.55","","29","","","","Haze"
"2001-07-20 01:00","2001","07","20","01:00","22.2","","18.9","","82","","4","","6","","8.0","","99.56","","29","","","","Haze"
"2001-07-20 02:00","2001","07","20","02:00","22.6","","20.3","","87","","4","","6","","8.0","","99.57","","30","","","","Haze"
"2001-07-20 03:00","2001","07","20","03:00","22.1","","20.3","","90","","8","","6","","8.0","","99.53","","30","","","","Haze"
"2001-07-20 04:00","2001","07","20","04:00","21.8","","20.0","","90","","","","0","","4.8","","99.52","","29","","","","Haze"
"2001-07-20 05:00","2001","07","20","05:00","21.4","","19.7","","90","","6","","6","","3.2","","99.52","","29","","","","Fog"
"2001-07-20 06:00","2001","07","20","06:00","20.7","","18.9","","89","","7","","7","","1.2","","99.55","","27","","","","Fog"
"2001-07-20 07:00","2001","07","20","07:00","22.4","","20.3","","88","","","","0","","1.2","","99.59","","30","","","","Haze"
"2001-07-20 08:00","2001","07","20","08:00","25.0","","21.6","","81","","14","","7","","4.0","","99.58","","34","","","","Haze"
"2001-07-20 09:00","2001","07","20","09:00","26.3","","21.4","","74","","11","","7","","6.4","","99.59","","35","","","","Haze"
"2001-07-20 10:00","2001","07","20","10:00","28.1","","21.6","","68","","11","","4","","6.4","","99.58","","37","","","","Haze"
"2001-07-20 11:00","2001","07","20","11:00","28.1","","21.3","","67","","11","","9","","8.0","","99.55","","37","","","","Haze"
"2001-07-20 12:00","2001","07","20","12:00","29.4","","20.2","","58","","12","","11","","8.0","","99.51","","37","","","","Haze"
"2001-07-20 13:00","2001","07","20","13:00","30.1","","19.2","","52","","16","","17","","8.0","","99.47","","37","","","","Haze"
"2001-07-20 14:00","2001","07","20","14:00","29.9","","19.5","","54","","18","","19","","8.0","","99.44","","37","","","","Haze"
"2001-07-20 15:00","2001","07","20","15:00","28.1","","19.1","","58","","19","","13","","8.0","","99.46","","35","","","","Haze"
"2001-07-20 16:00","2001","07","20","16:00","28.1","","19.9","","61","","16","","13","","8.0","","99.40","","36","","","","Haze"
"2001-07-20 17:00","2001","07","20","17:00","28.6","","18.3","","54","","15","","11","","8.0","","99.38","","35","","","","Haze"
"2001-07-20 18:00","2001","07","20","18:00","29.0","","18.3","","52","","14","","11","","8.0","","99.34","","35","","","","Haze"
"2001-07-20 19:00","2001","07","20","19:00","27.8","","17.9","","55","","12","","9","","8.0","","99.36","","34","","","","Haze"
"2001-07-20 20:00","2001","07","20","20:00","25.8","","17.8","","61","","13","","9","","9.7","","99.38","","32","","","","Haze"
"2001-07-20 21:00","2001","07","20","21:00","24.1","","17.7","","67","","13","","4","","11.3","","99.39","","30","","","","Mostly Cloudy"
"2001-07-20 22:00","2001","07","20","22:00","23.0","","18.7","","77","","14","","7","","11.3","","99.36","","30","","","","Mainly Clear"
"2001-07-20 23:00","2001","07","20","23:00","21.5","","18.5","","83","","11","","4","","11.3","","99.35","","28","","","","Mainly Clear"
"2001-07-21 00:00","2001","07","21","00:00","21.4","","19.0","","86","","","","0","","11.3","","99.35","","28","","","","Mainly Clear"
"2001-07-21 01:00","2001","07","21","01:00","21.1","","19.0","","88","","","","0","","11.3","","99.31","","28","","","","Mainly Clear"
"2001-07-21 02:00","2001","07","21","02:00","21.5","","19.0","","86","","18","","4","","11.3","","99.29","","28","","","","Mostly Cloudy"
"2001-07-21 03:00","2001","07","21","03:00","22.4","","20.1","","87","","17","","6","","9.7","","99.25","","30","","","","Haze"
"2001-07-21 04:00","2001","07","21","04:00","23.2","","20.8","","86","","21","","9","","8.0","","99.27","","31","","","","Haze"
"2001-07-21 05:00","2001","07","21","05:00","23.1","","20.5","","85","","21","","7","","4.0","","99.30","","31","","","","Haze"
"2001-07-21 06:00","2001","07","21","06:00","22.6","","20.6","","88","","","","0","","2.4","","99.28","","31","","","","Haze"
"2001-07-21 07:00","2001","07","21","07:00","23.9","","21.4","","86","","20","","9","","3.2","","99.25","","33","","","","Haze"
"2001-07-21 08:00","2001","07","21","08:00","25.7","","21.7","","79","","21","","13","","6.4","","99.27","","35","","","","Haze"
"2001-07-21 09:00","2001","07","21","09:00","27.1","","21.9","","73","","21","","15","","6.4","","99.28","","36","","","","Haze"
"2001-07-21 10:00","2001","07","21","10:00","28.2","","22.0","","69","","19","","17","","8.0","","99.22","","38","","","","Haze"
"2001-07-21 11:00","2001","07","21","11:00","29.3","","22.3","","66","","22","","19","","8.0","","99.19","","39","","","","Haze"
"2001-07-21 12:00","2001","07","21","12:00","30.0","","21.9","","62","","22","","20","","8.0","","99.15","","39","","","","Haze"
"2001-07-21 13:00","2001","07","21","13:00","30.0","","21.4","","60","","20","","22","","8.0","","99.04","","39","","","","Haze"
"2001-07-21 14:00","2001","07","21","14:00","26.5","","22.7","","80","","27","","24","","1.6","","99.17","","36","","","","Thunderstorms,Rain Showers,Haze"
"2001-07-21 15:00","2001","07","21","15:00","22.2","","19.7","","86","","","","0","","12.9","","99.17","","30","","","","Rain Showers"
"2001-07-21 16:00","2001","07","21","16:00","23.8","","21.6","","88","","17","","9","","8.0","","99.06","","33","","","","Rain Showers,Haze"
"2001-07-21 17:00","2001","07","21","17:00","25.3","","21.1","","78","","18","","9","","8.0","","99.03","","34","","","","Haze"
"2001-07-21 18:00","2001","07","21","18:00","25.6","","22.0","","81","","18","","7","","8.0","","98.98","","35","","","","Haze"
"2001-07-21 19:00","2001","07","21","19:00","25.4","","21.1","","77","","22","","17","","8.0","","99.00","","34","","","","Haze"
"2001-07-21 20:00","2001","07","21","20:00","23.9","","20.8","","83","","22","","11","","9.7","","99.01","","32","","","","Haze"
"2001-07-21 21:00","2001","07","21","21:00","23.0","","20.7","","87","","19","","6","","11.3","","99.03","","31","","","","Mainly Clear"
"2001-07-21 22:00","2001","07","21","22:00","22.6","","20.7","","89","","","","0","","9.7","","99.00","","31","","","","Haze"
"2001-07-21 23:00","2001","07","21","23:00","22.6","","20.7","","89","","26","","6","","8.0","","99.01","","31","","","","Haze"
"2001-07-22 00:00","2001","07","22","00:00","22.2","","20.3","","89","","25","","7","","6.4","","99.00","","30","","","","Haze"
"2001-07-22 01:00","2001","07","22","01:00","21.8","","20.1","","90","","24","","4","","4.8","","99.02","","29","","","","Fog"
"2001-07-22 02:00","2001","07","22","02:00","21.3","","20.0","","92","","19","","9","","4.8","","98.98","","29","","","","Fog"
"2001-07-22 03:00","2001","07","22","03:00","21.3","","20.1","","93","","23","","7","","4.8","","98.97","","29","","","","Fog"
"2001-07-22 04:00","2001","07","22","04:00","21.2","","20.0","","93","","22","","7","","4.8","","98.95","","29","","","","Fog"
"2001-07-22 05:00","2001","07","22","05:00","21.5","","19.8","","90","","25","","7","","4.8","","99.00","","29","","","","Fog"
"2001-07-22 06:00","2001","07","22","06:00","21.3","","19.8","","91","","27","","7","","4.0","","99.04","","29","","","","Fog"
"2001-07-22 07:00","2001","07","22","07:00","22.3","","20.2","","88","","27","","6","","4.0","","99.08","","30","","","","Haze"
"2001-07-22 08:00","2001","07","22","08:00","24.1","","20.9","","82","","27","","4","","8.0","","99.10","","32","","","","Haze"
"2001-07-22 09:00","2001","07","22","09:00","26.5","","21.2","","73","","","","0","","9.7","","99.11","","35","","","","Haze"
"2001-07-22 10:00","2001","07","22","10:00","27.9","","22.2","","71","","9","","6","","9.7","","99.09","","37","","","","Haze"
"2001-07-22 11:00","2001","07","22","11:00","28.6","","22.2","","68","","9","","9","","9.7","","99.07","","38","","","","Haze"
"2001-07-22 12:00","2001","07","22","12:00","29.8","","22.6","","65","","17","","11","","9.7","","99.00","","40","","","","Haze"
"2001-07-22 13:00","2001","07","22","13:00","29.1","","22.9","","69","","19","","17","","9.7","","99.00","","39","","","","Haze"
"2001-07-22 14:00","2001","07","22","14:00","29.9","","22.2","","63","","18","","13","","11.3","","99.00","","39","","","","Mainly Clear"
"2001-07-22 15:00","2001","07","22","15:00","30.2","","21.4","","59","","22","","15","","16.1","","99.00","","39","","","","Mostly Cloudy"
"2001-07-22 16:00","2001","07","22","16:00","30.9","","20.4","","54","","20","","15","","19.3","","98.95","","39","","","","Mostly Cloudy"
"2001-07-22 17:00","2001","07","22","17:00","30.9","","21.1","","56","","19","","17","","17.7","","98.92","","39","","","","Mostly Cloudy"
"2001-07-22 18:00","2001","07","22","18:00","30.7","","21.6","","58","","21","","13","","12.9","","98.93","","40","","","","Mostly Cloudy"
"2001-07-22 19:00","2001","07","22","19:00","29.3","","21.6","","63","","20","","9","","12.9","","98.90","","38","","","","Mostly Cloudy"
"2001-07-22 20:00","2001","07","22","20:00","27.6","","21.8","","71","","20","","7","","11.3","","98.95","","37","","","","Mostly Cloudy"
"2001-07-22 21:00","2001","07","22","21:00","26.8","","21.9","","75","","20","","11","","11.3","","99.00","","36","","","","Mostly Cloudy"
"2001-07-22 22:00","2001","07","22","22:00","26.0","","21.9","","78","","20","","11","","11.3","","99.01","","35","","","","Mostly Cloudy"
"2001-07-22 23:00","2001","07","22","23:00","25.8","","22.4","","82","","20","","11","","11.3","","98.99","","35","","","","Mainly Clear"
"2001-07-23 00:00","2001","07","23","00:00","25.1","","23.0","","88","","20","","13","","6.4","","98.97","","35","","","","Haze"
"2001-07-23 01:00","2001","07","23","01:00","24.7","","22.6","","88","","19","","9","","6.4","","98.93","","35","","","","Haze"
"2001-07-23 02:00","2001","07","23","02:00","24.6","","22.1","","86","","20","","7","","8.0","","98.97","","34","","","","Haze"
"2001-07-23 03:00","2001","07","23","03:00","24.4","","22.0","","86","","","","0","","6.4","","98.97","","34","","","","Haze"
"2001-07-23 04:00","2001","07","23","04:00","24.6","","22.7","","89","","24","","6","","6.4","","98.99","","35","","","","Haze"
"2001-07-23 05:00","2001","07","23","05:00","24.5","","22.7","","90","","20","","6","","2.8","","99.04","","34","","","","Fog"
"2001-07-23 06:00","2001","07","23","06:00","24.7","","23.1","","91","","23","","6","","2.0","","99.09","","35","","","","Fog"
"2001-07-23 07:00","2001","07","23","07:00","25.2","","22.9","","87","","21","","9","","3.2","","99.11","","35","","","","Haze"
"2001-07-23 08:00","2001","07","23","08:00","27.0","","23.1","","79","","23","","7","","8.0","","99.08","","37","","","","Haze"
"2001-07-23 09:00","2001","07","23","09:00","29.0","","23.5","","72","","23","","11","","9.7","","99.07","","40","","","","Haze"
"2001-07-23 10:00","2001","07","23","10:00","30.1","","23.1","","66","","23","","19","","9.7","","99.07","","40","","","","Haze"
"2001-07-23 11:00","2001","07","23","11:00","31.1","","23.5","","64","","21","","19","","9.7","","99.05","","42","","","","Haze"
"2001-07-23 12:00","2001","07","23","12:00","31.9","","23.3","","60","","21","","13","","9.7","","99.02","","42","","","","Haze"
"2001-07-23 13:00","2001","07","23","13:00","32.4","","24.3","","62","","24","","20","","9.7","","98.99","","44","","","","Haze"
"2001-07-23 14:00","2001","07","23","14:00","27.4","","21.6","","71","","27","","19","","16.1","","99.01","","36","","","","Rain Showers"
"2001-07-23 15:00","2001","07","23","15:00","27.6","","19.9","","63","","23","","22","","16.1","","98.96","","35","","","","Cloudy"
"2001-07-23 16:00","2001","07","23","16:00","28.9","","21.0","","62","","21","","17","","11.3","","98.92","","37","","","","Cloudy"
"2001-07-23 17:00","2001","07","23","17:00","29.6","","21.4","","61","","22","","15","","11.3","","98.84","","38","","","","Cloudy"
"2001-07-23 18:00","2001","07","23","18:00","29.8","","21.7","","62","","23","","13","","16.1","","98.79","","39","","","","Cloudy"
"2001-07-23 19:00","2001","07","23","19:00","29.7","","22.5","","65","","25","","11","","9.7","","98.79","","39","","","","Haze"
"2001-07-23 20:00","2001","07","23","20:00","28.5","","23.1","","73","","22","","13","","9.7","","98.79","","39","","","","Haze"
"2001-07-23 21:00","2001","07","23","21:00","27.3","","23.1","","78","","21","","13","","12.9","","98.78","","38","","","","Mainly Clear"
"2001-07-23 22:00","2001","07","23","22:00","26.9","","23.6","","82","","24","","13","","16.1","","98.81","","38","","","","Mainly Clear"
"2001-07-23 23:00","2001","07","23","23:00","26.6","","23.1","","81","","24","","13","","16.1","","98.82","","37","","","","Mainly Clear"
"2001-07-24 00:00","2001","07","24","00:00","25.8","","21.7","","78","","23","","11","","16.1","","98.83","","35","","","","Mainly Clear"
"2001-07-24 01:00","2001","07","24","01:00","25.3","","21.3","","79","","24","","11","","16.1","","98.85","","34","","","","Mainly Clear"
"2001-07-24 02:00","2001","07","24","02:00","24.8","","21.2","","80","","24","","9","","16.1","","98.83","","33","","","","Mostly Cloudy"
"2001-07-24 03:00","2001","07","24","03:00","24.4","","21.1","","82","","23","","9","","19.3","","98.85","","33","","","","Mostly Cloudy"
"2001-07-24 04:00","2001","07","24","04:00","24.0","","21.1","","84","","25","","11","","12.9","","98.85","","33","","","","Mostly Cloudy"
"2001-07-24 05:00","2001","07","24","05:00","23.5","","21.1","","86","","24","","11","","8.0","","98.84","","32","","","","Haze"
"2001-07-24 06:00","2001","07","24","06:00","23.4","","21.3","","88","","24","","11","","9.7","","98.87","","32","","","","Haze"
"2001-07-24 07:00","2001","07","24","07:00","23.9","","21.4","","86","","25","","13","","9.7","","98.92","","33","","","","Haze"
"2001-07-24 08:00","2001","07","24","08:00","24.8","","21.5","","82","","25","","11","","12.9","","98.90","","34","","","","Mostly Cloudy"
"2001-07-24 09:00","2001","07","24","09:00","26.7","","21.8","","75","","27","","11","","12.9","","98.94","","36","","","","Mostly Cloudy"
"2001-07-24 10:00","2001","07","24","10:00","28.2","","22.2","","70","","21","","13","","19.3","","98.93","","38","","","","Mostly Cloudy"
"2001-07-24 11:00","2001","07","24","11:00","29.8","","22.6","","65","","24","","17","","24.1","","98.92","","40","","","","Mostly Cloudy"
"2001-07-24 12:00","2001","07","24","12:00","31.4","","22.9","","61","","23","","17","","24.1","","98.89","","42","","","","Mostly Cloudy"
"2001-07-24 13:00","2001","07","24","13:00","33.0","","20.9","","49","","26","","20","","24.1","","98.85","","41","","","","Mostly Cloudy"
"2001-07-24 14:00","2001","07","24","14:00","33.7","","19.1","","42","","26","","13","","24.1","","98.84","","41","","","","Mostly Cloudy"
"2001-07-24 15:00","2001","07","24","15:00","34.5","","19.7","","42","","26","","17","","19.3","","98.81","","42","","","","Mostly Cloudy"
"2001-07-24 16:00","2001","07","24","16:00","34.3","","19.1","","41","","24","","17","","16.1","","98.77","","41","","","","Mostly Cloudy"
"2001-07-24 17:00","2001","07","24","17:00","33.6","","19.1","","42","","27","","17","","16.1","","98.72","","40","","","","Mostly Cloudy"
"2001-07-24 18:00","2001","07","24","18:00","33.1","","18.6","","42","","29","","17","","12.9","","98.73","","40","","","","Cloudy"
"2001-07-24 19:00","2001","07","24","19:00","32.0","","19.2","","47","","28","","17","","16.1","","98.77","","39","","","","Mostly Cloudy"
"2001-07-24 20:00","2001","07","24","20:00","30.7","","19.2","","50","","30","","13","","16.1","","98.82","","38","","","","Mostly Cloudy"
"2001-07-24 21:00","2001","07","24","21:00","29.5","","19.9","","56","","29","","11","","24.1","","98.91","","37","","","","Mostly Cloudy"
"2001-07-24 22:00","2001","07","24","22:00","29.1","","19.9","","58","","30","","13","","24.1","","98.95","","37","","","","Mostly Cloudy"
"2001-07-24 23:00","2001","07","24","23:00","28.4","","20.2","","61","","27","","9","","24.1","","98.96","","36","","","","Mainly Clear"
"2001-07-25 00:00","2001","07","25","00:00","23.5","","19.4","","78","","5","","19","","24.1","","99.03","","31","","","","Mainly Clear"
"2001-07-25 01:00","2001","07","25","01:00","22.6","","18.3","","77","","4","","20","","24.1","","99.03","","29","","","","Mainly Clear"
"2001-07-25 02:00","2001","07","25","02:00","22.1","","17.7","","76","","5","","20","","25.0","","99.07","","28","","","","Mainly Clear"
"2001-07-25 03:00","2001","07","25","03:00","21.4","","16.9","","76","","5","","19","","25.0","","99.07","","27","","","","Mainly Clear"
"2001-07-25 04:00","2001","07","25","04:00","21.0","","16.7","","76","","6","","20","","25.0","","99.05","","26","","","","Mainly Clear"
"2001-07-25 05:00","2001","07","25","05:00","20.0","","17.0","","83","","5","","17","","25.0","","99.10","","25","","","","Mainly Clear"
"2001-07-25 06:00","2001","07","25","06:00","20.7","","16.6","","77","","7","","19","","25.0","","99.12","","26","","","","Mostly Cloudy"
"2001-07-25 07:00","2001","07","25","07:00","21.7","","16.3","","71","","10","","15","","24.1","","99.03","","27","","","","Mostly Cloudy"
"2001-07-25 08:00","2001","07","25","08:00","21.9","","15.4","","67","","8","","7","","24.1","","99.13","","26","","","","Cloudy"
"2001-07-25 09:00","2001","07","25","09:00","21.7","","16.1","","70","","6","","6","","25.0","","99.13","","26","","","","Cloudy"
"2001-07-25 10:00","2001","07","25","10:00","23.8","","18.0","","70","","3","","22","","25.0","","99.15","","30","","","","Mostly Cloudy"
"2001-07-25 11:00","2001","07","25","11:00","23.5","","16.7","","66","","4","","19","","24.1","","99.16","","29","","","","Mostly Cloudy"
"2001-07-25 12:00","2001","07","25","12:00","24.0","","17.3","","66","","3","","24","","24.1","","99.20","","29","","","","Mostly Cloudy"
"2001-07-25 13:00","2001","07","25","13:00","22.7","","17.8","","74","","4","","28","","24.1","","99.17","","29","","","","Cloudy"
"2001-07-25 14:00","2001","07","25","14:00","21.0","","18.2","","84","","4","","20","","12.9","","99.17","","27","","","","Rain Showers"
"2001-07-25 15:00","2001","07","25","15:00","20.1","","17.8","","87","","5","","22","","19.3","","99.15","","26","","","","Rain Showers"
"2001-07-25 16:00","2001","07","25","16:00","19.7","","17.2","","85","","4","","26","","19.3","","99.19","","","","","","Rain Showers"
"2001-07-25 17:00","2001","07","25","17:00","19.1","","17.4","","90","","4","","26","","24.1","","99.20","","","","","","Rain Showers"
"2001-07-25 18:00","2001","07","25","18:00","19.4","","17.0","","86","","5","","19","","24.1","","99.25","","","","","","Cloudy"
"2001-07-25 19:00","2001","07","25","19:00","19.2","","16.9","","87","","6","","15","","24.1","","99.26","","","","","","Cloudy"
"2001-07-25 20:00","2001","07","25","20:00","19.6","","16.8","","84","","5","","15","","24.1","","99.30","","","","","","Cloudy"
"2001-07-25 21:00","2001","07","25","21:00","19.3","","16.2","","82","","8","","11","","25.0","","99.32","","","","","","Mostly Cloudy"
"2001-07-25 22:00","2001","07","25","22:00","19.4","","17.1","","87","","7","","11","","25.0","","99.37","","","","","","Mostly Cloudy"
"2001-07-25 23:00","2001","07","25","23:00","19.7","","17.7","","88","","5","","13","","25.0","","99.39","","","","","","Mostly Cloudy"
"2001-07-26 00:00","2001","07","26","00:00","19.9","","17.5","","86","","36","","9","","25.0","","99.40","","","","","","Mostly Cloudy"
"2001-07-26 01:00","2001","07","26","01:00","19.6","","17.4","","87","","36","","11","","25.0","","99.39","","","","","","Mostly Cloudy"
"2001-07-26 02:00","2001","07","26","02:00","19.2","","17.1","","88","","36","","11","","25.0","","99.38","","","","","","Mostly Cloudy"
"2001-07-26 03:00","2001","07","26","03:00","19.1","","16.1","","83","","36","","11","","25.0","","99.38","","","","","","Mostly Cloudy"
"2001-07-26 04:00","2001","07","26","04:00","18.4","","15.4","","83","","36","","13","","25.0","","99.41","","","","","","Mostly Cloudy"
"2001-07-26 05:00","2001","07","26","05:00","17.9","","15.3","","85","","36","","13","","25.0","","99.43","","","","","","Mainly Clear"
"2001-07-26 06:00","2001","07","26","06:00","17.5","","15.2","","86","","1","","13","","25.0","","99.51","","","","","","Mainly Clear"
"2001-07-26 07:00","2001","07","26","07:00","19.0","","16.0","","83","","1","","15","","25.0","","99.53","","","","","","Mainly Clear"
"2001-07-26 08:00","2001","07","26","08:00","20.6","","16.5","","77","","2","","20","","25.0","","99.60","","26","","","","Mainly Clear"
"2001-07-26 09:00","2001","07","26","09:00","20.7","","14.9","","69","","6","","22","","25.0","","99.65","","25","","","","Mostly Cloudy"
"2001-07-26 10:00","2001","07","26","10:00","21.7","","14.0","","62","","3","","28","","25.0","","99.71","","25","","","","Mainly Clear"
"2001-07-26 11:00","2001","07","26","11:00","22.4","","14.1","","59","","4","","22","","25.0","","99.75","","26","","","","Mainly Clear"
"2001-07-26 12:00","2001","07","26","12:00","23.1","","14.6","","59","","4","","20","","25.0","","99.84","","27","","","","Mainly Clear"
"2001-07-26 13:00","2001","07","26","13:00","24.8","","13.9","","51","","7","","20","","25.0","","99.84","","28","","","","Mainly Clear"
"2001-07-26 14:00","2001","07","26","14:00","24.7","","13.0","","48","","4","","26","","25.0","","99.85","","27","","","","Mainly Clear"
"2001-07-26 15:00","2001","07","26","15:00","24.8","","11.3","","43","","3","","28","","25.0","","99.86","","27","","","","Mainly Clear"
"2001-07-26 16:00","2001","07","26","16:00","24.4","","11.0","","43","","4","","28","","25.0","","99.86","","26","","","","Mainly Clear"
"2001-07-26 17:00","2001","07","26","17:00","23.2","","10.7","","45","","5","","33","","25.0","","99.88","","25","","","","Mainly Clear"
"2001-07-26 18:00","2001","07","26","18:00","22.5","","10.5","","47","","4","","22","","25.0","","99.92","","","","","","Mainly Clear"
"2001-07-26 19:00","2001","07","26","19:00","21.1","","10.9","","52","","4","","26","","25.0","","99.97","","","","","","Clear"
"2001-07-26 20:00","2001","07","26","20:00","19.7","","9.8","","53","","3","","22","","25.0","","100.02","","","","","","Clear"
"2001-07-26 21:00","2001","07","26","21:00","17.8","","9.8","","59","","2","","15","","25.0","","100.09","","","","","","Clear"
"2001-07-26 22:00","2001","07","26","22:00","17.1","","10.4","","65","","2","","13","","25.0","","100.16","","","","","","Clear"
"2001-07-26 23:00","2001","07","26","23:00","16.4","","10.6","","69","","1","","11","","24.1","","100.17","","","","","","Clear"
"2001-07-27 00:00","2001","07","27","00:00","15.4","","11.2","","76","","3","","15","","24.1","","100.17","","","","","","Clear"
"2001-07-27 01:00","2001","07","27","01:00","16.1","","10.7","","70","","4","","13","","24.1","","100.21","","","","","","Clear"
"2001-07-27 02:00","2001","07","27","02:00","16.7","","11.0","","69","","3","","13","","24.1","","100.22","","","","","","Mostly Cloudy"
"2001-07-27 03:00","2001","07","27","03:00","15.9","","11.7","","76","","6","","9","","24.1","","100.20","","","","","","Clear"
"2001-07-27 04:00","2001","07","27","04:00","15.0","","11.0","","77","","6","","11","","24.1","","100.27","","","","","","Mainly Clear"
"2001-07-27 05:00","2001","07","27","05:00","15.5","","11.1","","75","","3","","9","","24.1","","100.32","","","","","","Mainly Clear"
"2001-07-27 06:00","2001","07","27","06:00","16.4","","12.2","","76","","5","","6","","24.1","","100.36","","","","","","Mainly Clear"
"2001-07-27 07:00","2001","07","27","07:00","16.9","","11.6","","71","","","","0","","25.0","","100.37","","","","","","Mainly Clear"
"2001-07-27 08:00","2001","07","27","08:00","18.8","","11.8","","64","","9","","19","","25.0","","100.38","","","","","","Mainly Clear"
"2001-07-27 09:00","2001","07","27","09:00","21.9","","11.6","","52","","12","","19","","25.0","","100.37","","","","","","Mainly Clear"
"2001-07-27 10:00","2001","07","27","10:00","22.6","","7.6","","38","","6","","7","","25.0","","100.38","","","","","","Mainly Clear"
"2001-07-27 11:00","2001","07","27","11:00","22.9","","10.5","","45","","14","","11","","25.0","","100.36","","","","","","Mainly Clear"
"2001-07-27 12:00","2001","07","27","12:00","23.8","","10.6","","43","","9","","20","","25.0","","100.34","","25","","","","Mainly Clear"
"2001-07-27 13:00","2001","07","27","13:00","23.7","","10.1","","42","","12","","19","","25.0","","100.31","","25","","","","Mainly Clear"
"2001-07-27 14:00","2001","07","27","14:00","24.6","","9.9","","39","","9","","22","","25.0","","100.25","","26","","","","Mainly Clear"
"2001-07-27 15:00","2001","07","27","15:00","24.2","","8.6","","37","","11","","19","","25.0","","100.22","","25","","","","Mostly Cloudy"
"2001-07-27 16:00","2001","07","27","16:00","24.2","","9.5","","39","","11","","11","","25.0","","100.18","","25","","","","Mostly Cloudy"
"2001-07-27 17:00","2001","07","27","17:00","23.9","","9.5","","40","","11","","11","","25.0","","100.13","","25","","","","Mostly Cloudy"
"2001-07-27 18:00","2001","07","27","18:00","23.1","","6.7","","35","","10","","19","","25.0","","100.11","","","","","","Mostly Cloudy"
"2001-07-27 19:00","2001","07","27","19:00","22.3","","4.8","","32","","11","","17","","25.0","","100.07","","","","","","Mostly Cloudy"
"2001-07-27 20:00","2001","07","27","20:00","20.3","","5.9","","39","","11","","11","","25.0","","100.07","","","","","","Mostly Cloudy"
"2001-07-27 21:00","2001","07","27","21:00","18.4","","7.6","","49","","9","","6","","25.0","","100.11","","","","","","Mostly Cloudy"
"2001-07-27 22:00","2001","07","27","22:00","17.3","","9.6","","61","","9","","9","","25.0","","100.11","","","","","","Mostly Cloudy"
"2001-07-27 23:00","2001","07","27","23:00","17.8","","10.5","","62","","8","","11","","24.1","","100.09","","","","","","Mostly Cloudy"
"2001-07-28 00:00","2001","07","28","00:00","17.2","","11.4","","69","","9","","11","","24.1","","100.05","","","","","","Mostly Cloudy"
"2001-07-28 01:00","2001","07","28","01:00","17.0","","12.2","","73","","10","","11","","24.1","","100.01","","","","","","Mainly Clear"
"2001-07-28 02:00","2001","07","28","02:00","15.9","","12.6","","81","","8","","7","","24.1","","99.98","","","","","","Mainly Clear"
"2001-07-28 03:00","2001","07","28","03:00","15.7","","13.1","","85","","7","","7","","24.1","","99.95","","","","","","Mainly Clear"
"2001-07-28 04:00","2001","07","28","04:00","15.0","","13.2","","89","","7","","7","","24.1","","99.91","","","","","","Mainly Clear"
"2001-07-28 05:00","2001","07","28","05:00","14.9","","13.4","","91","","9","","7","","24.1","","99.91","","","","","","Mostly Cloudy"
"2001-07-28 06:00","2001","07","28","06:00","15.2","","13.5","","90","","","","0","","24.1","","99.89","","","","","","Mostly Cloudy"
"2001-07-28 07:00","2001","07","28","07:00","16.2","","14.2","","88","","","","0","","24.1","","99.93","","","","","","Mostly Cloudy"
"2001-07-28 08:00","2001","07","28","08:00","20.5","","16.0","","75","","10","","7","","25.0","","99.89","","25","","","","Mostly Cloudy"
"2001-07-28 09:00","2001","07","28","09:00","22.7","","16.7","","69","","12","","11","","25.0","","99.83","","28","","","","Mostly Cloudy"
"2001-07-28 10:00","2001","07","28","10:00","24.6","","16.1","","59","","13","","7","","25.0","","99.79","","29","","","","Mostly Cloudy"
"2001-07-28 11:00","2001","07","28","11:00","26.2","","14.2","","48","","11","","13","","25.0","","99.78","","30","","","","Mostly Cloudy"
"2001-07-28 12:00","2001","07","28","12:00","27.4","","13.3","","42","","13","","17","","25.0","","99.70","","30","","","","Mostly Cloudy"
"2001-07-28 13:00","2001","07","28","13:00","27.3","","14.8","","46","","12","","15","","25.0","","99.64","","31","","","","Mostly Cloudy"
"2001-07-28 14:00","2001","07","28","14:00","27.4","","15.0","","47","","17","","17","","24.1","","99.58","","31","","","","Mostly Cloudy"
"2001-07-28 15:00","2001","07","28","15:00","27.8","","15.5","","47","","17","","13","","12.9","","99.51","","32","","","","Mostly Cloudy"
"2001-07-28 16:00","2001","07","28","16:00","27.5","","15.4","","48","","20","","13","","11.3","","99.47","","32","","","","Mostly Cloudy"
"2001-07-28 17:00","2001","07","28","17:00","27.0","","16.0","","51","","20","","13","","11.3","","99.44","","32","","","","Mostly Cloudy"
"2001-07-28 18:00","2001","07","28","18:00","26.0","","17.4","","59","","14","","15","","11.3","","99.42","","32","","","","Cloudy"
"2001-07-28 19:00","2001","07","28","19:00","24.3","","17.6","","66","","13","","13","","14.5","","99.42","","30","","","","Cloudy"
"2001-07-28 20:00","2001","07","28","20:00","23.0","","17.8","","73","","14","","11","","12.9","","99.38","","29","","","","Cloudy"
"2001-07-28 21:00","2001","07","28","21:00","22.2","","18.1","","78","","12","","6","","19.3","","99.41","","28","","","","Mostly Cloudy"
"2001-07-28 22:00","2001","07","28","22:00","21.9","","18.6","","82","","11","","4","","16.1","","99.43","","28","","","","Mostly Cloudy"
"2001-07-28 23:00","2001","07","28","23:00","21.4","","18.5","","84","","9","","6","","24.1","","99.42","","28","","","","Mostly Cloudy"
"2001-07-29 00:00","2001","07","29","00:00","21.5","","18.4","","83","","7","","4","","24.1","","99.40","","28","","","","Mainly Clear"
"2001-07-29 01:00","2001","07","29","01:00","20.2","","17.8","","86","","5","","9","","24.1","","99.32","","26","","","","Mostly Cloudy"
"2001-07-29 02:00","2001","07","29","02:00","20.7","","17.7","","83","","8","","6","","24.1","","99.29","","26","","","","Mostly Cloudy"
"2001-07-29 03:00","2001","07","29","03:00","20.2","","17.7","","86","","9","","4","","24.1","","99.24","","26","","","","Mostly Cloudy"
"2001-07-29 04:00","2001","07","29","04:00","20.4","","17.7","","84","","5","","4","","24.1","","99.24","","26","","","","Mostly Cloudy"
"2001-07-29 05:00","2001","07","29","05:00","20.1","","18.1","","88","","","","0","","24.1","","99.25","","26","","","","Mostly Cloudy"
"2001-07-29 06:00","2001","07","29","06:00","20.1","","18.3","","89","","7","","4","","24.1","","99.26","","26","","","","Mostly Cloudy"
"2001-07-29 07:00","2001","07","29","07:00","21.2","","19.0","","87","","5","","7","","19.3","","99.27","","28","","","","Mainly Clear"
"2001-07-29 08:00","2001","07","29","08:00","22.5","","19.3","","82","","7","","4","","19.3","","99.32","","30","","","","Mostly Cloudy"
"2001-07-29 09:00","2001","07","29","09:00","24.5","","20.6","","79","","9","","7","","16.1","","99.32","","33","","","","Mostly Cloudy"
"2001-07-29 10:00","2001","07","29","10:00","25.5","","20.6","","74","","4","","7","","14.5","","99.28","","34","","","","Mainly Clear"
"2001-07-29 11:00","2001","07","29","11:00","27.1","","20.8","","68","","8","","9","","11.3","","99.24","","35","","","","Mostly Cloudy"
"2001-07-29 12:00","2001","07","29","12:00","26.5","","20.8","","71","","15","","6","","12.9","","99.25","","35","","","","Rain Showers"
"2001-07-29 13:00","2001","07","29","13:00","23.9","","21.9","","89","","10","","15","","9.7","","99.26","","33","","","","Rain Showers,Fog"
"2001-07-29 14:00","2001","07","29","14:00","24.8","","22.3","","86","","11","","6","","11.3","","99.24","","34","","","","Rain Showers"
"2001-07-29 15:00","2001","07","29","15:00","26.8","","20.1","","67","","14","","15","","12.9","","99.22","","34","","","","Mainly Clear"
"2001-07-29 16:00","2001","07","29","16:00","27.1","","18.7","","60","","17","","11","","12.9","","99.20","","34","","","","Mostly Cloudy"
"2001-07-29 17:00","2001","07","29","17:00","26.5","","19.0","","63","","13","","19","","12.9","","99.16","","33","","","","Mostly Cloudy"
"2001-07-29 18:00","2001","07","29","18:00","25.8","","17.7","","61","","13","","17","","16.1","","99.17","","32","","","","Mainly Clear"
"2001-07-29 19:00","2001","07","29","19:00","23.9","","16.7","","64","","10","","11","","19.3","","99.25","","29","","","","Mostly Cloudy"
"2001-07-29 20:00","2001","07","29","20:00","22.5","","18.0","","76","","11","","9","","19.3","","99.29","","29","","","","Mostly Cloudy"
"2001-07-29 21:00","2001","07","29","21:00","20.8","","18.7","","88","","9","","13","","8.0","","99.32","","27","","","","Thunderstorms,Rain Showers"
"2001-07-29 22:00","2001","07","29","22:00","20.3","","18.6","","90","","10","","6","","24.1","","99.28","","27","","","","Mostly Cloudy"
"2001-07-29 23:00","2001","07","29","23:00","20.4","","18.8","","91","","10","","9","","24.1","","99.32","","27","","","","Mostly Cloudy"
"2001-07-30 00:00","2001","07","30","00:00","20.0","","18.6","","92","","35","","4","","24.1","","99.35","","26","","","","Mainly Clear"
"2001-07-30 01:00","2001","07","30","01:00","19.6","","18.5","","93","","","","0","","24.1","","99.32","","","","","","Clear"
"2001-07-30 02:00","2001","07","30","02:00","19.8","","18.9","","95","","13","","4","","19.3","","99.26","","","","","","Clear"
"2001-07-30 03:00","2001","07","30","03:00","19.3","","18.5","","95","","","","0","","12.9","","99.31","","","","","","Mainly Clear"
"2001-07-30 04:00","2001","07","30","04:00","18.9","","18.4","","97","","9","","6","","9.7","","99.34","","","","","","Fog"
"2001-07-30 05:00","2001","07","30","05:00","18.9","","18.1","","95","","","","0","","8.0","","99.37","","","","","","Fog"
"2001-07-30 06:00","2001","07","30","06:00","18.4","","17.8","","96","","9","","6","","3.2","","99.42","","","","","","Fog"
"2001-07-30 07:00","2001","07","30","07:00","20.6","","19.2","","92","","8","","6","","3.2","","99.46","","28","","","","Fog"
"2001-07-30 08:00","2001","07","30","08:00","22.1","","20.2","","89","","9","","6","","4.0","","99.49","","30","","","","Haze"
"2001-07-30 09:00","2001","07","30","09:00","23.9","","20.5","","81","","16","","4","","8.0","","99.52","","32","","","","Haze"
"2001-07-30 10:00","2001","07","30","10:00","25.7","","20.0","","71","","13","","6","","11.3","","99.52","","33","","","","Mostly Cloudy"
"2001-07-30 11:00","2001","07","30","11:00","26.1","","20.6","","72","","6","","4","","14.5","","99.56","","34","","","","Mostly Cloudy"
"2001-07-30 12:00","2001","07","30","12:00","26.5","","20.5","","70","","8","","15","","11.3","","99.54","","34","","","","Mostly Cloudy"
"2001-07-30 13:00","2001","07","30","13:00","27.1","","21.1","","70","","8","","17","","9.7","","99.48","","36","","","","Haze"
"2001-07-30 14:00","2001","07","30","14:00","26.5","","20.3","","69","","14","","15","","9.7","","99.50","","34","","","","Haze"
"2001-07-30 15:00","2001","07","30","15:00","26.6","","20.4","","69","","17","","13","","9.7","","99.58","","35","","","","Haze"
"2001-07-30 16:00","2001","07","30","16:00","26.8","","20.3","","68","","12","","9","","9.7","","99.59","","35","","","","Haze"
"2001-07-30 17:00","2001","07","30","17:00","27.2","","19.8","","64","","11","","11","","12.9","","99.51","","35","","","","Mainly Clear"
"2001-07-30 18:00","2001","07","30","18:00","27.1","","19.5","","63","","12","","7","","11.3","","99.51","","34","","","","Mainly Clear"
"2001-07-30 19:00","2001","07","30","19:00","26.0","","20.0","","70","","11","","11","","11.3","","99.56","","34","","","","Mainly Clear"
"2001-07-30 20:00","2001","07","30","20:00","23.3","","19.6","","80","","13","","11","","9.7","","99.63","","31","","","","Haze"
"2001-07-30 21:00","2001","07","30","21:00","21.7","","18.8","","84","","13","","9","","12.9","","99.70","","28","","","","Mainly Clear"
"2001-07-30 22:00","2001","07","30","22:00","20.8","","18.0","","84","","12","","4","","12.9","","99.71","","27","","","","Clear"
"2001-07-30 23:00","2001","07","30","23:00","20.2","","18.0","","87","","","","0","","19.3","","99.72","","26","","","","Clear"
"2001-07-31 00:00","2001","07","31","00:00","19.9","","18.0","","89","","","","0","","24.1","","99.68","","","","","","Mainly Clear"
"2001-07-31 01:00","2001","07","31","01:00","20.3","","18.4","","89","","28","","4","","19.3","","99.72","","27","","","","Mainly Clear"
"2001-07-31 02:00","2001","07","31","02:00","19.9","","18.0","","89","","29","","6","","19.3","","99.75","","","","","","Clear"
"2001-07-31 03:00","2001","07","31","03:00","18.9","","17.7","","93","","6","","7","","16.1","","99.76","","","","","","Clear"
"2001-07-31 04:00","2001","07","31","04:00","19.2","","18.1","","93","","7","","6","","16.1","","99.82","","","","","","Mainly Clear"
"2001-07-31 05:00","2001","07","31","05:00","19.7","","18.3","","92","","8","","7","","12.9","","99.86","","","","","","Mostly Cloudy"
"2001-07-31 06:00","2001","07","31","06:00","20.6","","18.9","","90","","11","","4","","16.1","","99.91","","27","","","","Mostly Cloudy"
"2001-07-31 07:00","2001","07","31","07:00","21.5","","19.2","","87","","","","0","","9.7","","99.99","","28","","","","Haze"
"2001-07-31 08:00","2001","07","31","08:00","22.5","","19.9","","85","","","","0","","8.0","","100.02","","30","","","","Haze"
"2001-07-31 09:00","2001","07","31","09:00","23.9","","19.4","","76","","11","","4","","11.3","","100.05","","31","","","","Mostly Cloudy"
"2001-07-31 10:00","2001","07","31","10:00","25.9","","20.3","","71","","13","","6","","11.3","","100.06","","34","","","","Mostly Cloudy"
"2001-07-31 11:00","2001","07","31","11:00","27.4","","18.5","","58","","9","","9","","17.7","","100.06","","34","","","","Mainly Clear"
"2001-07-31 12:00","2001","07","31","12:00","28.4","","17.5","","52","","8","","6","","19.3","","100.04","","34","","","","Mainly Clear"
"2001-07-31 13:00","2001","07","31","13:00","30.1","","19.1","","52","","7","","6","","19.3","","100.03","","37","","","","Mainly Clear"
"2001-07-31 14:00","2001","07","31","14:00","30.1","","17.9","","48","","8","","4","","19.3","","100.01","","36","","","","Mainly Clear"
"2001-07-31 15:00","2001","07","31","15:00","30.1","","18.1","","49","","9","","19","","19.3","","100.01","","36","","","","Mainly Clear"
"2001-07-31 16:00","2001","07","31","16:00","29.7","","19.7","","55","","10","","7","","19.3","","99.98","","37","","","","Mainly Clear"
"2001-07-31 17:00","2001","07","31","17:00","29.5","","19.8","","56","","19","","4","","19.3","","99.97","","37","","","","Mainly Clear"
"2001-07-31 18:00","2001","07","31","18:00","29.0","","18.3","","52","","12","","15","","12.9","","99.97","","35","","","","Mainly Clear"
"2001-07-31 19:00","2001","07","31","19:00","27.5","","17.4","","54","","13","","9","","11.3","","99.99","","33","","","","Mostly Cloudy"
"2001-07-31 20:00","2001","07","31","20:00","25.0","","17.1","","62","","12","","9","","11.3","","100.04","","30","","","","Mostly Cloudy"
"2001-07-31 21:00","2001","07","31","21:00","22.6","","16.9","","70","","14","","7","","16.1","","100.10","","28","","","","Mainly Clear"
"2001-07-31 22:00","2001","07","31","22:00","21.9","","18.0","","79","","12","","4","","19.3","","100.09","","28","","","","Mainly Clear"
"2001-07-31 23:00","2001","07","31","23:00","21.2","","18.3","","84","","","","0","","16.1","","100.12","","27","","","","Mainly Clear"
