"Station Name","WINDSOR A"
"Province","ONTARIO"
"Latitude","42.28"
"Longitude","-82.96"
"Elevation","189.60"
"Climate Identifier","6139525"
"WMO Identifier","71538"
"TC Identifier","YQG"
"All times are specified in Local Standard Time (LST). Add 1 hour to adjust for Daylight Saving Time where and when it is observed."

"Legend"
"E","Estimated"
"M","Missing"
"NA","Not Available"

"Date/Time","Year","Month","Day","Time","Temp (°C)","Temp Flag","Dew Point Temp (°C)","Dew Point Temp Flag","Rel Hum (%)","Rel Hum Flag","Wind Dir (10s deg)","Wind Dir Flag","Wind Spd (km/h)","Wind Spd Flag","Visibility (km)","Visibility Flag","Stn Press (kPa)","Stn Press Flag","Hmdx","Hmdx Flag","Wind Chill","Wind Chill Flag","Weather"
"2012-02-01 00:00","2012","02","01","00:00","9.5","","8.0","","90","","23","","24","","16.1","","98.74","","","","","","Rain Showers"
"2012-02-01 01:00","2012","02","01","01:00","10.3","","8.3","","87","","23","","26","","24.1","","98.74","","","","","","Rain Showers"
"2012-02-01 02:00","2012","02","01","02:00","10.3","","8.6","","89","","23","","26","","24.1","","98.75","","","","","","Cloudy"
"2012-02-01 03:00","2012","02","01","03:00","10.3","","8.9","","91","","23","","24","","24.1","","98.76","","","","","","Cloudy"
"2012-02-01 04:00","2012","02","01","04:00","9.7","","8.6","","93","","24","","20","","24.1","","98.76","","","","","","Mostly Cloudy"
"2012-02-01 05:00","2012","02","01","05:00","9.1","","8.2","","94","","24","","19","","19.3","","98.80","","","","","","Mainly Clear"
"2012-02-01 06:00","2012","02","01","06:00","8.5","","7.2","","92","","27","","20","","19.3","","98.90","","","","","","Mainly Clear"
"2012-02-01 07:00","2012","02","01","07:00","7.2","","4.3","","82","","29","","30","","24.1","","99.04","","","","","","Mainly Clear"
"2012-02-01 08:00","2012","02","01","08:00","5.5","","2.1","","79","","30","","20","","12.9","","99.19","","","","","","Clear"
"2012-02-01 09:00","2012","02","01","09:00","5.3","","1.6","","77","","31","","19","","16.1","","99.34","","","","","","Mainly Clear"
"2012-02-01 10:00","2012","02","01","10:00","5.8","","1.7","","75","","31","","13","","16.1","","99.37","","","","","","Mainly Clear"
"2012-02-01 11:00","2012","02","01","11:00","6.9","","1.8","","70","","31","","15","","19.3","","99.43","","","","","","Mainly Clear"
"2012-02-01 12:00","2012","02","01","12:00","7.6","","1.4","","65","","29","","17","","24.1","","99.46","","","","","","Mostly Cloudy"
"2012-02-01 13:00","2012","02","01","13:00","7.8","","1.4","","64","","26","","19","","19.3","","99.46","","","","","","Mostly Cloudy"
"2012-02-01 14:00","2012","02","01","14:00","8.5","","1.6","","62","","27","","13","","19.3","","99.47","","","","","","Mostly Cloudy"
"2012-02-01 15:00","2012","02","01","15:00","8.6","","1.5","","61","","31","","15","","19.3","","99.51","","","","","","Mostly Cloudy"
"2012-02-01 16:00","2012","02","01","16:00","8.1","","0.7","","60","","31","","11","","24.1","","99.51","","","","","","Mostly Cloudy"
"2012-02-01 17:00","2012","02","01","17:00","7.4","","0.7","","62","","33","","9","","24.1","","99.54","","","","","","Mostly Cloudy"
"2012-02-01 18:00","2012","02","01","18:00","5.7","","0.7","","70","","11","","4","","24.1","","99.61","","","","","","Cloudy"
"2012-02-01 19:00","2012","02","01","19:00","4.7","","1.6","","80","","17","","4","","24.1","","99.69","","","","","","Cloudy"
"2012-02-01 20:00","2012","02","01","20:00","4.7","","1.6","","80","","35","","15","","24.1","","99.69","","","","","","Cloudy"
"2012-02-01 21:00","2012","02","01","21:00","4.6","","0.1","","73","","35","","13","","19.3","","99.68","","","","","","Cloudy"
"2012-02-01 22:00","2012","02","01","22:00","4.2","","-0.1","","74","","1","","11","","24.1","","99.64","","","","","","Cloudy"
"2012-02-01 23:00","2012","02","01","23:00","4.0","","-0.3","","74","","34","","6","","24.1","","99.70","","","","","","Cloudy"
"2012-02-02 00:00","2012","02","02","00:00","3.9","","-0.2","","75","","34","","6","","24.1","","99.71","","","","","","Cloudy"
"2012-02-02 01:00","2012","02","02","01:00","3.9","","-0.2","","75","","32","","4","","24.1","","99.72","","","","","","Cloudy"
"2012-02-02 02:00","2012","02","02","02:00","3.0","","-0.2","","79","","4","","13","","24.1","","99.69","","","","","","Cloudy"
"2012-02-02 03:00","2012","02","02","03:00","2.7","","-0.8","","78","","3","","11","","24.1","","99.72","","","","","","Cloudy"
"2012-02-02 04:00","2012","02","02","04:00","2.6","","-0.9","","78","","3","","11","","24.1","","99.73","","","","","","Cloudy"
"2012-02-02 05:00","2012","02","02","05:00","2.4","","-0.6","","81","","36","","9","","24.1","","99.79","","","","","","Cloudy"
"2012-02-02 06:00","2012","02","02","06:00","2.0","","0.1","","87","","36","","6","","12.9","","99.82","","","","","","Drizzle"
"2012-02-02 07:00","2012","02","02","07:00","1.7","","0.3","","90","","","","0","","16.1","","99.88","","","","","","Snow"
"2012-02-02 08:00","2012","02","02","08:00","2.0","","0.4","","89","","32","","6","","11.3","","99.95","","","","","","Drizzle"
"2012-02-02 09:00","2012","02","02","09:00","2.4","","0.3","","86","","30","","7","","9.7","","100.05","","","","","","Haze"
"2012-02-02 10:00","2012","02","02","10:00","2.7","","-0.3","","81","","35","","9","","11.3","","100.07","","","","","","Cloudy"
"2012-02-02 11:00","2012","02","02","11:00","2.6","","-0.4","","81","","32","","11","","12.9","","100.15","","","","","","Cloudy"
"2012-02-02 12:00","2012","02","02","12:00","3.1","","-1.7","","71","","33","","9","","16.1","","100.18","","","","","","Cloudy"
"2012-02-02 13:00","2012","02","02","13:00","3.1","","-2.0","","69","","35","","15","","16.1","","100.19","","","","","","Cloudy"
"2012-02-02 14:00","2012","02","02","14:00","3.6","","-2.1","","66","","32","","17","","19.3","","100.22","","","","","","Cloudy"
"2012-02-02 15:00","2012","02","02","15:00","3.5","","-2.5","","65","","30","","11","","19.3","","100.29","","","","","","Mostly Cloudy"
"2012-02-02 16:00","2012","02","02","16:00","3.6","","-2.5","","64","","30","","11","","24.1","","100.35","","","","","","Mostly Cloudy"
"2012-02-02 17:00","2012","02","02","17:00","3.3","","-2.5","","66","","29","","6","","24.1","","100.39","","","","","","Mostly Cloudy"
"2012-02-02 18:00","2012","02","02","18:00","2.7","","-2.7","","68","","1","","6","","24.1","","100.46","","","","","","Mostly Cloudy"
"2012-02-02 19:00","2012","02","02","19:00","1.1","","-2.5","","77","","","","0","","24.1","","100.52","","","","","","Clear"
"2012-02-02 20:00","2012","02","02","20:00","0.2","","-2.5","","82","","","","0","","24.1","","100.57","","","","","","Mainly Clear"
"2012-02-02 21:00","2012","02","02","21:00","-0.2","","-2.7","","83","","12","","4","","24.1","","100.61","","","","-1","","Clear"
"2012-02-02 22:00","2012","02","02","22:00","-1.1","","-3.0","","87","","9","","4","","24.1","","100.65","","","","-2","","Clear"
"2012-02-02 23:00","2012","02","02","23:00","-1.8","","-3.3","","89","","11","","4","","24.1","","100.65","","","","-3","","Clear"
"2012-02-03 00:00","2012","02","03","00:00","-1.2","","-2.7","","90","","17","","4","","24.1","","100.70","","","","-3","","Clear"
"2012-02-03 01:00","2012","02","03","01:00","-1.3","","-2.7","","90","","18","","4","","24.1","","100.73","","","","-3","","Clear"
"2012-02-03 02:00","2012","02","03","02:00","-1.9","","-3.0","","92","","","","0","","24.1","","100.75","","","","","","Clear"
"2012-02-03 03:00","2012","02","03","03:00","-1.6","","-2.6","","93","","19","","6","","24.1","","100.79","","","","-4","","Clear"
"2012-02-03 04:00","2012","02","03","04:00","-0.1","","-1.7","","89","","20","","9","","24.1","","100.82","","","","-3","","Mostly Cloudy"
"2012-02-03 05:00","2012","02","03","05:00","0.4","","-1.2","","89","","22","","4","","24.1","","100.85","","","","","","Cloudy"
"2012-02-03 06:00","2012","02","03","06:00","0.3","","-1.1","","90","","","","0","","24.1","","100.85","","","","","","Cloudy"
"2012-02-03 07:00","2012","02","03","07:00","-0.8","","-1.9","","92","","11","","4","","19.3","","100.90","","","","-2","","Mainly Clear"
"2012-02-03 08:00","2012","02","03","08:00","-1.2","","-1.9","","95","","14","","6","","11.3","","100.90","","","","-3","","Clear"
"2012-02-03 09:00","2012","02","03","09:00","0.6","","-1.2","","88","","18","","6","","16.1","","100.92","","","","","","Clear"
"2012-02-03 10:00","2012","02","03","10:00","1.6","","-0.3","","87","","20","","11","","9.7","","100.93","","","","","","Fog"
"2012-02-03 11:00","2012","02","03","11:00","1.9","","0.2","","88","","22","","9","","8.0","","100.92","","","","","","Fog"
"2012-02-03 12:00","2012","02","03","12:00","3.2","","1.2","","87","","22","","11","","6.4","","100.85","","","","","","Fog"
"2012-02-03 13:00","2012","02","03","13:00","3.8","","1.2","","83","","22","","11","","6.4","","100.77","","","","","","Haze"
"2012-02-03 14:00","2012","02","03","14:00","4.7","","0.9","","76","","25","","15","","8.0","","100.66","","","","","","Haze"
"2012-02-03 15:00","2012","02","03","15:00","4.3","","0.3","","75","","27","","17","","9.7","","100.66","","","","","","Haze"
"2012-02-03 16:00","2012","02","03","16:00","4.7","","0.0","","72","","31","","9","","9.7","","100.69","","","","","","Haze"
"2012-02-03 17:00","2012","02","03","17:00","4.2","","-0.8","","70","","32","","9","","11.3","","100.68","","","","","","Mostly Cloudy"
"2012-02-03 18:00","2012","02","03","18:00","3.9","","-0.9","","71","","34","","9","","11.3","","100.67","","","","","","Cloudy"
"2012-02-03 19:00","2012","02","03","19:00","3.2","","-1.4","","72","","36","","11","","12.9","","100.70","","","","","","Cloudy"
"2012-02-03 20:00","2012","02","03","20:00","2.8","","-1.1","","75","","36","","11","","12.9","","100.69","","","","","","Cloudy"
"2012-02-03 21:00","2012","02","03","21:00","2.4","","-1.7","","74","","2","","15","","12.9","","100.70","","","","","","Cloudy"
"2012-02-03 22:00","2012","02","03","22:00","2.5","","-1.9","","73","","4","","15","","16.1","","100.66","","","","","","Cloudy"
"2012-02-03 23:00","2012","02","03","23:00","2.0","","-0.9","","81","","5","","11","","16.1","","100.62","","","","","","Cloudy"
"2012-02-04 00:00","2012","02","04","00:00","2.1","","-1.5","","77","","3","","13","","16.1","","100.63","","","","","","Cloudy"
"2012-02-04 01:00","2012","02","04","01:00","1.8","","-1.9","","76","","3","","11","","19.3","","100.59","","","","","","Cloudy"
"2012-02-04 02:00","2012","02","04","02:00","1.7","","-1.4","","80","","5","","11","","19.3","","100.54","","","","","","Cloudy"
"2012-02-04 03:00","2012","02","04","03:00","0.9","","-1.9","","82","","5","","6","","24.1","","100.55","","","","","","Cloudy"
"2012-02-04 04:00","2012","02","04","04:00","0.6","","-2.0","","83","","5","","6","","19.3","","100.51","","","","","","Cloudy"
"2012-02-04 05:00","2012","02","04","05:00","0.6","","-1.1","","88","","2","","6","","19.3","","100.51","","","","","","Cloudy"
"2012-02-04 06:00","2012","02","04","06:00","0.6","","-1.3","","87","","1","","6","","19.3","","100.52","","","","","","Cloudy"
"2012-02-04 07:00","2012","02","04","07:00","0.3","","-1.4","","88","","36","","4","","12.9","","100.50","","","","","","Cloudy"
"2012-02-04 08:00","2012","02","04","08:00","0.4","","-1.3","","88","","3","","9","","11.3","","100.48","","","","","","Mostly Cloudy"
"2012-02-04 09:00","2012","02","04","09:00","0.9","","-0.8","","88","","3","","11","","12.9","","100.48","","","","","","Mostly Cloudy"
"2012-02-04 10:00","2012","02","04","10:00","1.6","","-1.1","","82","","5","","9","","16.1","","100.41","","","","","","Cloudy"
"2012-02-04 11:00","2012","02","04","11:00","2.2","","-0.9","","80","","9","","11","","16.1","","100.33","","","","","","Mostly Cloudy"
"2012-02-04 12:00","2012","02","04","12:00","3.2","","-2.3","","67","","8","","15","","24.1","","100.24","","","","","","Mostly Cloudy"
"2012-02-04 13:00","2012","02","04","13:00","3.0","","-2.4","","68","","5","","15","","24.1","","100.18","","","","","","Mostly Cloudy"
"2012-02-04 14:00","2012","02","04","14:00","3.1","","-2.2","","68","","7","","9","","24.1","","100.10","","","","","","Mostly Cloudy"
"2012-02-04 15:00","2012","02","04","15:00","3.7","","-2.7","","63","","4","","9","","24.1","","100.04","","","","","","Mainly Clear"
"2012-02-04 16:00","2012","02","04","16:00","3.5","","-3.6","","60","","7","","13","","24.1","","99.98","","","","","","Mainly Clear"
"2012-02-04 17:00","2012","02","04","17:00","3.4","","-2.7","","64","","9","","9","","24.1","","99.97","","","","","","Mainly Clear"
"2012-02-04 18:00","2012","02","04","18:00","2.0","","-2.4","","73","","14","","6","","24.1","","99.93","","","","","","Mainly Clear"
"2012-02-04 19:00","2012","02","04","19:00","0.7","","-2.4","","80","","17","","6","","24.1","","99.91","","","","","","Clear"
"2012-02-04 20:00","2012","02","04","20:00","0.2","","-2.5","","82","","16","","7","","24.1","","99.91","","","","","","Clear"
"2012-02-04 21:00","2012","02","04","21:00","-0.8","","-2.0","","92","","21","","6","","24.1","","99.90","","","","-3","","Clear"
"2012-02-04 22:00","2012","02","04","22:00","-1.5","","-2.5","","93","","","","0","","24.1","","99.91","","","","","","Mainly Clear"
"2012-02-04 23:00","2012","02","04","23:00","-1.5","","-2.3","","94","","27","","6","","24.1","","99.91","","","","-4","","Mostly Cloudy"
"2012-02-05 00:00","2012","02","05","00:00","-1.6","","-2.3","","95","","26","","7","","24.1","","99.87","","","","-4","","Mainly Clear"
"2012-02-05 01:00","2012","02","05","01:00","-2.1","","-2.7","","96","","29","","6","","24.1","","99.87","","","","-4","","Mainly Clear"
"2012-02-05 02:00","2012","02","05","02:00","-1.4","","-1.7","","98","","33","","4","","12.9","","99.86","","","","-3","","Mainly Clear"
"2012-02-05 03:00","2012","02","05","03:00","-2.3","","-2.9","","96","","","","0","","19.3","","99.88","","","","","","Mainly Clear"
"2012-02-05 04:00","2012","02","05","04:00","-2.3","","-3.2","","94","","26","","4","","24.1","","99.84","","","","-4","","Clear"
"2012-02-05 05:00","2012","02","05","05:00","-2.6","","-3.4","","94","","22","","9","","24.1","","99.80","","","","-6","","Clear"
"2012-02-05 06:00","2012","02","05","06:00","-3.5","","-4.2","","95","","26","","6","","24.1","","99.87","","","","-6","","Clear"
"2012-02-05 07:00","2012","02","05","07:00","-4.0","","-4.8","","94","","16","","6","","12.9","","99.95","","","","-7","","Clear"
"2012-02-05 08:00","2012","02","05","08:00","-3.8","","-4.5","","95","","22","","6","","19.3","","100.00","","","","-6","","Clear"
"2012-02-05 09:00","2012","02","05","09:00","-1.0","","-2.2","","92","","25","","6","","24.1","","100.03","","","","-3","","Clear"
"2012-02-05 10:00","2012","02","05","10:00","0.3","","-1.7","","86","","26","","6","","24.1","","100.08","","","","","","Clear"
"2012-02-05 11:00","2012","02","05","11:00","3.3","","-1.4","","71","","","","0","","24.1","","100.11","","","","","","Clear"
"2012-02-05 12:00","2012","02","05","12:00","3.7","","-1.8","","67","","26","","6","","24.1","","100.11","","","","","","Clear"
"2012-02-05 13:00","2012","02","05","13:00","4.7","","-2.8","","58","","31","","7","","24.1","","100.05","","","","","","Clear"
"2012-02-05 14:00","2012","02","05","14:00","5.9","","-2.3","","56","","31","","7","","24.1","","100.00","","","","","","Mainly Clear"
"2012-02-05 15:00","2012","02","05","15:00","6.4","","-2.5","","53","","5","","4","","24.1","","99.98","","","","","","Mainly Clear"
"2012-02-05 16:00","2012","02","05","16:00","6.9","","-2.9","","50","","26","","11","","24.1","","99.98","","","","","","Mainly Clear"
"2012-02-05 17:00","2012","02","05","17:00","4.7","","-0.6","","68","","7","","11","","24.1","","99.99","","","","","","Mainly Clear"
"2012-02-05 18:00","2012","02","05","18:00","3.1","","-1.1","","74","","6","","4","","24.1","","100.02","","","","","","Clear"
"2012-02-05 19:00","2012","02","05","19:00","1.6","","-1.7","","79","","","","0","","24.1","","100.04","","","","","","Clear"
"2012-02-05 20:00","2012","02","05","20:00","1.2","","-1.8","","80","","23","","7","","24.1","","100.06","","","","","","Clear"
"2012-02-05 21:00","2012","02","05","21:00","0.2","","-2.1","","84","","26","","4","","24.1","","100.02","","","","","","Clear"
"2012-02-05 22:00","2012","02","05","22:00","-0.1","","-2.2","","86","","22","","9","","24.1","","99.98","","","","-3","","Clear"
"2012-02-05 23:00","2012","02","05","23:00","0.0","","-2.5","","83","","22","","11","","24.1","","99.93","","","","-4","","Clear"
"2012-02-06 00:00","2012","02","06","00:00","0.3","","-2.7","","80","","23","","13","","24.1","","99.91","","","","","","Clear"
"2012-02-06 01:00","2012","02","06","01:00","0.3","","-2.9","","79","","23","","13","","24.1","","99.90","","","","","","Clear"
"2012-02-06 02:00","2012","02","06","02:00","0.1","","-2.8","","81","","27","","9","","24.1","","99.91","","","","","","Clear"
"2012-02-06 03:00","2012","02","06","03:00","-1.2","","-3.4","","85","","25","","7","","24.1","","99.90","","","","-4","","Clear"
"2012-02-06 04:00","2012","02","06","04:00","-1.2","","-3.1","","87","","25","","9","","24.1","","99.85","","","","-4","","Clear"
"2012-02-06 05:00","2012","02","06","05:00","-1.3","","-3.0","","88","","25","","17","","24.1","","99.82","","","","-6","","Mainly Clear"
"2012-02-06 06:00","2012","02","06","06:00","-1.1","","-2.6","","90","","26","","28","","24.1","","99.81","","","","-8","","Mostly Cloudy"
"2012-02-06 07:00","2012","02","06","07:00","-0.8","","-2.2","","90","","26","","22","","19.3","","99.78","","","","-7","","Mostly Cloudy"
"2012-02-06 08:00","2012","02","06","08:00","-1.1","","-2.4","","91","","25","","19","","24.1","","99.76","","","","-6","","Mainly Clear"
"2012-02-06 09:00","2012","02","06","09:00","-0.2","","-2.0","","88","","23","","20","","24.1","","99.74","","","","-5","","Clear"
"2012-02-06 10:00","2012","02","06","10:00","2.0","","-1.6","","77","","26","","22","","24.1","","99.70","","","","","","Clear"
"2012-02-06 11:00","2012","02","06","11:00","4.2","","-2.2","","63","","25","","24","","24.1","","99.67","","","","","","Clear"
"2012-02-06 12:00","2012","02","06","12:00","6.1","","-1.8","","57","","22","","26","","24.1","","99.59","","","","","","Clear"
"2012-02-06 13:00","2012","02","06","13:00","7.4","","-1.6","","53","","24","","26","","24.1","","99.50","","","","","","Clear"
"2012-02-06 14:00","2012","02","06","14:00","7.8","","-0.9","","54","","22","","32","","24.1","","99.42","","","","","","Clear"
"2012-02-06 15:00","2012","02","06","15:00","8.5","","-0.6","","53","","23","","30","","24.1","","99.36","","","","","","Clear"
"2012-02-06 16:00","2012","02","06","16:00","8.2","","-0.9","","53","","23","","32","","24.1","","99.35","","","","","","Clear"
"2012-02-06 17:00","2012","02","06","17:00","7.6","","-0.5","","56","","23","","24","","24.1","","99.36","","","","","","Clear"
"2012-02-06 18:00","2012","02","06","18:00","6.4","","-1.4","","57","","23","","22","","24.1","","99.37","","","","","","Clear"
"2012-02-06 19:00","2012","02","06","19:00","5.6","","-3.6","","52","","25","","26","","24.1","","99.43","","","","","","Clear"
"2012-02-06 20:00","2012","02","06","20:00","4.1","","-3.0","","60","","25","","15","","24.1","","99.49","","","","","","Clear"
"2012-02-06 21:00","2012","02","06","21:00","2.9","","-3.3","","64","","29","","22","","24.1","","99.54","","","","","","Clear"
"2012-02-06 22:00","2012","02","06","22:00","1.6","","-2.7","","73","","31","","20","","24.1","","99.57","","","","","","Clear"
"2012-02-06 23:00","2012","02","06","23:00","0.7","","-2.6","","79","","30","","15","","19.3","","99.59","","","","","","Mostly Cloudy"
"2012-02-07 00:00","2012","02","07","00:00","1.2","","-2.7","","75","","31","","19","","11.3","","99.69","","","","","","Mostly Cloudy"
"2012-02-07 01:00","2012","02","07","01:00","0.9","","-2.7","","77","","29","","15","","11.3","","99.73","","","","","","Mainly Clear"
"2012-02-07 02:00","2012","02","07","02:00","0.3","","-2.6","","81","","29","","13","","12.9","","99.76","","","","","","Mainly Clear"
"2012-02-07 03:00","2012","02","07","03:00","1.0","","-2.2","","79","","30","","13","","12.9","","99.79","","","","","","Mostly Cloudy"
"2012-02-07 04:00","2012","02","07","04:00","1.3","","-2.3","","77","","30","","9","","12.9","","99.80","","","","","","Cloudy"
"2012-02-07 05:00","2012","02","07","05:00","1.4","","-2.4","","76","","28","","7","","12.9","","99.85","","","","","","Cloudy"
"2012-02-07 06:00","2012","02","07","06:00","1.5","","-2.3","","76","","28","","9","","11.3","","99.88","","","","","","Cloudy"
"2012-02-07 07:00","2012","02","07","07:00","1.6","","-2.3","","75","","28","","11","","11.3","","99.93","","","","","","Cloudy"
"2012-02-07 08:00","2012","02","07","08:00","1.9","","-2.3","","74","","34","","9","","9.7","","100.01","","","","","","Haze"
"2012-02-07 09:00","2012","02","07","09:00","2.0","","-2.4","","73","","34","","9","","12.9","","100.09","","","","","","Cloudy"
"2012-02-07 10:00","2012","02","07","10:00","2.2","","-3.1","","68","","36","","7","","19.3","","100.13","","","","","","Cloudy"
"2012-02-07 11:00","2012","02","07","11:00","2.2","","-2.4","","72","","1","","15","","11.3","","100.22","","","","","","Snow Grains"
"2012-02-07 12:00","2012","02","07","12:00","0.9","","-0.9","","88","","4","","26","","16.1","","100.25","","","","","","Snow Showers"
"2012-02-07 13:00","2012","02","07","13:00","0.5","","-1.9","","84","","4","","26","","19.3","","100.24","","","","","","Snow Showers"
"2012-02-07 14:00","2012","02","07","14:00","0.5","","-3.0","","77","","4","","24","","24.1","","100.22","","","","","","Snow Showers"
"2012-02-07 15:00","2012","02","07","15:00","0.9","","-3.1","","75","","4","","28","","24.1","","100.27","","","","","","Cloudy"
"2012-02-07 16:00","2012","02","07","16:00","0.2","","-4.1","","73","","4","","28","","24.1","","100.35","","","","","","Mostly Cloudy"
"2012-02-07 17:00","2012","02","07","17:00","-0.4","","-5.2","","70","","3","","22","","24.1","","100.38","","","","-6","","Mostly Cloudy"
"2012-02-07 18:00","2012","02","07","18:00","-1.2","","-6.0","","70","","1","","11","","24.1","","100.45","","","","-5","","Cloudy"
"2012-02-07 19:00","2012","02","07","19:00","-1.7","","-6.4","","70","","1","","20","","24.1","","100.46","","","","-7","","Cloudy"
"2012-02-07 20:00","2012","02","07","20:00","-2.6","","-7.1","","71","","1","","20","","24.1","","100.50","","","","-9","","Mostly Cloudy"
"2012-02-07 21:00","2012","02","07","21:00","-2.9","","-7.1","","73","","36","","15","","24.1","","100.51","","","","-8","","Mostly Cloudy"
"2012-02-07 22:00","2012","02","07","22:00","-3.3","","-7.6","","72","","2","","15","","24.1","","100.53","","","","-8","","Cloudy"
"2012-02-07 23:00","2012","02","07","23:00","-3.4","","-8.1","","70","","1","","15","","24.1","","100.54","","","","-9","","Cloudy"
"2012-02-08 00:00","2012","02","08","00:00","-3.6","","-8.4","","69","","2","","13","","24.1","","100.48","","","","-8","","Mostly Cloudy"
"2012-02-08 01:00","2012","02","08","01:00","-3.6","","-8.1","","71","","1","","9","","24.1","","100.48","","","","-7","","Mostly Cloudy"
"2012-02-08 02:00","2012","02","08","02:00","-3.8","","-8.2","","71","","36","","13","","24.1","","100.47","","","","-9","","Mostly Cloudy"
"2012-02-08 03:00","2012","02","08","03:00","-3.8","","-8.0","","73","","36","","13","","24.1","","100.45","","","","-9","","Mostly Cloudy"
"2012-02-08 04:00","2012","02","08","04:00","-4.4","","-8.0","","76","","36","","11","","24.1","","100.39","","","","-9","","Mostly Cloudy"
"2012-02-08 05:00","2012","02","08","05:00","-4.2","","-7.8","","76","","34","","13","","24.1","","100.37","","","","-9","","Mostly Cloudy"
"2012-02-08 06:00","2012","02","08","06:00","-4.3","","-8.4","","73","","35","","13","","24.1","","100.41","","","","-9","","Mostly Cloudy"
"2012-02-08 07:00","2012","02","08","07:00","-4.7","","-8.4","","75","","34","","11","","24.1","","100.41","","","","-9","","Mostly Cloudy"
"2012-02-08 08:00","2012","02","08","08:00","-4.5","","-9.2","","70","","34","","7","","24.1","","100.41","","","","-8","","Mostly Cloudy"
"2012-02-08 09:00","2012","02","08","09:00","-3.9","","-9.1","","67","","1","","9","","24.1","","100.40","","","","-8","","Mostly Cloudy"
"2012-02-08 10:00","2012","02","08","10:00","-2.8","","-9.3","","61","","1","","7","","24.1","","100.40","","","","-6","","Mostly Cloudy"
"2012-02-08 11:00","2012","02","08","11:00","-2.2","","-9.6","","57","","35","","7","","24.1","","100.37","","","","-5","","Mostly Cloudy"
"2012-02-08 12:00","2012","02","08","12:00","-1.0","","-11.7","","44","","34","","9","","24.1","","100.31","","","","-4","","Mostly Cloudy"
"2012-02-08 13:00","2012","02","08","13:00","-0.1","","-11.9","","41","","31","","9","","24.1","","100.22","","","","-3","","Cloudy"
"2012-02-08 14:00","2012","02","08","14:00","0.3","","-11.0","","42","","31","","11","","24.1","","100.13","","","","","","Mostly Cloudy"
"2012-02-08 15:00","2012","02","08","15:00","0.8","","-12.4","","37","","27","","11","","24.1","","100.07","","","","","","Mostly Cloudy"
"2012-02-08 16:00","2012","02","08","16:00","1.9","","-11.5","","36","","27","","19","","24.1","","100.05","","","","","","Mostly Cloudy"
"2012-02-08 17:00","2012","02","08","17:00","2.1","","-12.2","","34","","26","","13","","24.1","","100.01","","","","","","Mainly Clear"
"2012-02-08 18:00","2012","02","08","18:00","-0.9","","-6.1","","68","","21","","19","","24.1","","100.02","","","","-6","","Mainly Clear"
"2012-02-08 19:00","2012","02","08","19:00","-1.7","","-6.0","","72","","20","","9","","24.1","","99.99","","","","-5","","Mainly Clear"
"2012-02-08 20:00","2012","02","08","20:00","-1.6","","-6.8","","68","","24","","9","","24.1","","100.01","","","","-5","","Mainly Clear"
"2012-02-08 21:00","2012","02","08","21:00","-1.0","","-8.9","","55","","27","","13","","24.1","","100.01","","","","-5","","Mainly Clear"
"2012-02-08 22:00","2012","02","08","22:00","-0.8","","-9.1","","53","","26","","17","","24.1","","100.03","","","","-6","","Mainly Clear"
"2012-02-08 23:00","2012","02","08","23:00","-1.2","","-8.8","","56","","28","","19","","24.1","","100.04","","","","-7","","Mainly Clear"
"2012-02-09 00:00","2012","02","09","00:00","-1.9","","-8.7","","60","","28","","20","","24.1","","100.04","","","","-8","","Clear"
"2012-02-09 01:00","2012","02","09","01:00","-2.6","","-8.3","","65","","27","","13","","24.1","","100.02","","","","-7","","Clear"
"2012-02-09 02:00","2012","02","09","02:00","-2.9","","-7.8","","69","","26","","13","","24.1","","100.01","","","","-8","","Clear"
"2012-02-09 03:00","2012","02","09","03:00","-3.4","","-7.7","","72","","25","","13","","24.1","","100.01","","","","-8","","Clear"
"2012-02-09 04:00","2012","02","09","04:00","-3.6","","-7.4","","75","","24","","11","","24.1","","99.97","","","","-8","","Clear"
"2012-02-09 05:00","2012","02","09","05:00","-3.9","","-7.2","","78","","24","","11","","24.1","","99.99","","","","-8","","Clear"
"2012-02-09 06:00","2012","02","09","06:00","-4.1","","-7.1","","80","","23","","13","","24.1","","99.99","","","","-9","","Clear"
"2012-02-09 07:00","2012","02","09","07:00","-4.0","","-6.7","","81","","24","","13","","24.1","","100.00","","","","-9","","Clear"
"2012-02-09 08:00","2012","02","09","08:00","-3.8","","-6.7","","80","","25","","19","","24.1","","100.01","","","","-10","","Clear"
"2012-02-09 09:00","2012","02","09","09:00","-2.8","","-6.3","","77","","25","","22","","24.1","","100.06","","","","-9","","Clear"
"2012-02-09 10:00","2012","02","09","10:00","-1.0","","-6.2","","68","","26","","24","","24.1","","100.02","","","","-7","","Clear"
"2012-02-09 11:00","2012","02","09","11:00","0.2","","-6.3","","62","","25","","24","","24.1","","100.00","","","","","","Clear"
"2012-02-09 12:00","2012","02","09","12:00","1.3","","-6.8","","55","","24","","24","","24.1","","99.95","","","","","","Clear"
"2012-02-09 13:00","2012","02","09","13:00","2.1","","-5.8","","56","","22","","28","","24.1","","99.87","","","","","","Clear"
"2012-02-09 14:00","2012","02","09","14:00","2.5","","-6.1","","53","","24","","30","","24.1","","99.78","","","","","","Clear"
"2012-02-09 15:00","2012","02","09","15:00","3.0","","-6.9","","48","","23","","30","","24.1","","99.74","","","","","","Clear"
"2012-02-09 16:00","2012","02","09","16:00","2.7","","-6.9","","49","","24","","33","","24.1","","99.75","","","","","","Clear"
"2012-02-09 17:00","2012","02","09","17:00","2.3","","-7.4","","49","","23","","30","","24.1","","99.71","","","","","","Clear"
"2012-02-09 18:00","2012","02","09","18:00","1.0","","-6.5","","57","","23","","20","","24.1","","99.68","","","","","","Clear"
"2012-02-09 19:00","2012","02","09","19:00","0.1","","-6.1","","63","","22","","22","","24.1","","99.69","","","","","","Clear"
"2012-02-09 20:00","2012","02","09","20:00","-0.8","","-5.8","","69","","23","","26","","24.1","","99.71","","","","-7","","Clear"
"2012-02-09 21:00","2012","02","09","21:00","-1.6","","-5.9","","72","","23","","30","","24.1","","99.73","","","","-9","","Clear"
"2012-02-09 22:00","2012","02","09","22:00","-2.2","","-6.2","","74","","23","","24","","24.1","","99.74","","","","-9","","Clear"
"2012-02-09 23:00","2012","02","09","23:00","-2.7","","-6.3","","76","","23","","24","","24.1","","99.72","","","","-9","","Clear"
"2012-02-10 00:00","2012","02","10","00:00","-2.7","","-6.5","","75","","23","","22","","24.1","","99.69","","","","-9","","Clear"
"2012-02-10 01:00","2012","02","10","01:00","-3.1","","-6.5","","77","","22","","20","","24.1","","99.65","","","","-9","","Clear"
"2012-02-10 02:00","2012","02","10","02:00","-3.5","","-6.6","","79","","22","","17","","24.1","","99.61","","","","-9","","Clear"
"2012-02-10 03:00","2012","02","10","03:00","-3.3","","-6.5","","78","","22","","20","","19.3","","99.56","","","","-9","","Mainly Clear"
"2012-02-10 04:00","2012","02","10","04:00","-3.3","","-6.7","","77","","22","","22","","12.9","","99.48","","","","-10","","Mainly Clear"
"2012-02-10 05:00","2012","02","10","05:00","-3.5","","-6.5","","80","","23","","20","","12.9","","99.47","","","","-10","","Mostly Cloudy"
"2012-02-10 06:00","2012","02","10","06:00","-3.6","","-6.4","","81","","22","","17","","12.9","","99.43","","","","-9","","Mostly Cloudy"
"2012-02-10 07:00","2012","02","10","07:00","-2.5","","-6.0","","77","","22","","24","","11.3","","99.41","","","","-9","","Mostly Cloudy"
"2012-02-10 08:00","2012","02","10","08:00","-1.5","","-6.1","","71","","22","","20","","24.1","","99.36","","","","-7","","Cloudy"
"2012-02-10 09:00","2012","02","10","09:00","-0.7","","-5.9","","68","","22","","20","","24.1","","99.37","","","","-6","","Cloudy"
"2012-02-10 10:00","2012","02","10","10:00","-0.6","","-5.2","","71","","23","","20","","19.3","","99.33","","","","-6","","Snow Showers"
"2012-02-10 11:00","2012","02","10","11:00","-0.4","","-4.8","","72","","22","","26","","19.3","","99.29","","","","-7","","Snow"
"2012-02-10 12:00","2012","02","10","12:00","-0.1","","-4.4","","73","","22","","22","","16.1","","99.26","","","","-6","","Snow"
"2012-02-10 13:00","2012","02","10","13:00","0.0","","-3.8","","76","","22","","24","","11.3","","99.16","","","","-6","","Snow"
"2012-02-10 14:00","2012","02","10","14:00","-0.1","","-3.1","","80","","22","","17","","9.7","","99.08","","","","-5","","Snow"
"2012-02-10 15:00","2012","02","10","15:00","0.2","","-3.1","","78","","22","","17","","8.0","","99.01","","","","","","Snow"
"2012-02-10 16:00","2012","02","10","16:00","-0.6","","-2.1","","90","","22","","20","","9.7","","98.98","","","","-6","","Snow"
"2012-02-10 17:00","2012","02","10","17:00","0.2","","-2.3","","83","","22","","20","","9.7","","98.97","","","","","","Snow"
"2012-02-10 18:00","2012","02","10","18:00","-0.1","","-1.5","","90","","22","","19","","4.0","","98.96","","","","-5","","Snow"
"2012-02-10 19:00","2012","02","10","19:00","-0.5","","-0.9","","97","","22","","15","","3.2","","98.93","","","","-5","","Snow"
"2012-02-10 20:00","2012","02","10","20:00","-0.7","","-0.9","","99","","20","","19","","2.0","","98.88","","","","-6","","Snow"
"2012-02-10 21:00","2012","02","10","21:00","-0.7","","-0.9","","99","","20","","13","","2.0","","98.81","","","","-5","","Snow"
"2012-02-10 22:00","2012","02","10","22:00","-0.6","","-0.9","","98","","21","","17","","1.6","","98.77","","","","-6","","Snow"
"2012-02-10 23:00","2012","02","10","23:00","-4.0","","-4.6","","96","","1","","26","","0.4","","98.84","","","","-11","","Heavy Snow"
"2012-02-11 00:00","2012","02","11","00:00","-6.2","","-7.5","","90","","35","","30","","1.6","","98.88","","","","-15","","Snow"
"2012-02-11 01:00","2012","02","11","01:00","-7.0","","-8.5","","89","","36","","28","","1.2","","98.88","","","","-15","","Snow"
"2012-02-11 02:00","2012","02","11","02:00","-7.5","","-9.0","","89","","36","","33","","1.6","","98.91","","","","-17","","Snow"
"2012-02-11 03:00","2012","02","11","03:00","-8.0","","-9.9","","86","","35","","37","","2.4","","98.96","","","","-18","","Snow"
"2012-02-11 04:00","2012","02","11","04:00","-8.4","","-10.6","","84","","34","","32","","2.4","","99.00","","","","-18","","Snow"
"2012-02-11 05:00","2012","02","11","05:00","-8.8","","-11.1","","83","","33","","33","","3.2","","99.07","","","","-18","","Snow"
"2012-02-11 06:00","2012","02","11","06:00","-9.7","","-11.9","","84","","33","","33","","8.0","","99.16","","","","-20","","Snow"
"2012-02-11 07:00","2012","02","11","07:00","-9.8","","-12.8","","79","","33","","32","","8.0","","99.24","","","","-20","","Snow"
"2012-02-11 08:00","2012","02","11","08:00","-10.3","","-12.6","","83","","34","","32","","4.0","","99.39","","","","-20","","Snow"
"2012-02-11 09:00","2012","02","11","09:00","-10.3","","-13.3","","79","","33","","35","","16.1","","99.50","","","","-21","","Mostly Cloudy"
"2012-02-11 10:00","2012","02","11","10:00","-10.3","","-14.1","","74","","33","","28","","24.1","","99.59","","","","-20","","Mostly Cloudy"
"2012-02-11 11:00","2012","02","11","11:00","-9.8","","-13.8","","73","","33","","35","","24.1","","99.68","","","","-20","","Mostly Cloudy"
"2012-02-11 12:00","2012","02","11","12:00","-9.2","","-13.9","","69","","33","","22","","24.1","","99.72","","","","-17","","Mostly Cloudy"
"2012-02-11 13:00","2012","02","11","13:00","-9.2","","-14.1","","68","","32","","28","","24.1","","99.74","","","","-18","","Mostly Cloudy"
"2012-02-11 14:00","2012","02","11","14:00","-9.3","","-14.2","","67","","35","","30","","24.1","","99.75","","","","-19","","Mainly Clear"
"2012-02-11 15:00","2012","02","11","15:00","-9.3","","-14.2","","67","","34","","22","","24.1","","99.79","","","","-17","","Mainly Clear"
"2012-02-11 16:00","2012","02","11","16:00","-8.6","","-15.9","","56","","32","","30","","24.1","","99.95","","","","-18","","Mainly Clear"
"2012-02-11 17:00","2012","02","11","17:00","-8.7","","-15.5","","58","","28","","28","","24.1","","99.89","","","","-18","","Mainly Clear"
"2012-02-11 18:00","2012","02","11","18:00","-9.0","","-14.8","","63","","31","","17","","24.1","","99.92","","","","-16","","Mainly Clear"
"2012-02-11 19:00","2012","02","11","19:00","-9.1","","-14.2","","66","","27","","9","","24.1","","99.96","","","","-14","","Mostly Cloudy"
"2012-02-11 20:00","2012","02","11","20:00","-8.9","","-13.3","","70","","26","","11","","24.1","","99.93","","","","-14","","Mainly Clear"
"2012-02-11 21:00","2012","02","11","21:00","-8.5","","-12.5","","73","","26","","13","","24.1","","99.91","","","","-14","","Mainly Clear"
"2012-02-11 22:00","2012","02","11","22:00","-7.8","","-12.0","","72","","27","","15","","24.1","","99.91","","","","-14","","Mainly Clear"
"2012-02-11 23:00","2012","02","11","23:00","-7.1","","-12.3","","66","","29","","24","","24.1","","99.88","","","","-15","","Snow Showers"
"2012-02-12 00:00","2012","02","12","00:00","-7.6","","-12.2","","70","","31","","26","","24.1","","99.86","","","","-16","","Snow Showers"
"2012-02-12 01:00","2012","02","12","01:00","-8.2","","-12.3","","72","","31","","28","","24.1","","99.87","","","","-17","","Snow Showers"
"2012-02-12 02:00","2012","02","12","02:00","-8.2","","-13.1","","68","","28","","19","","24.1","","99.79","","","","-15","","Snow Showers"
"2012-02-12 03:00","2012","02","12","03:00","-7.5","","-12.4","","68","","28","","24","","24.1","","99.76","","","","-15","","Mostly Cloudy"
"2012-02-12 04:00","2012","02","12","04:00","-7.9","","-12.0","","72","","28","","11","","24.1","","99.68","","","","-13","","Snow Showers"
"2012-02-12 05:00","2012","02","12","05:00","-6.9","","-11.2","","71","","29","","28","","24.1","","99.68","","","","-15","","Cloudy"
"2012-02-12 06:00","2012","02","12","06:00","-6.8","","-11.6","","69","","28","","28","","24.1","","99.68","","","","-15","","Snow Showers"
"2012-02-12 07:00","2012","02","12","07:00","-6.6","","-10.9","","71","","28","","19","","24.1","","99.71","","","","-13","","Snow Showers"
"2012-02-12 08:00","2012","02","12","08:00","-6.4","","-10.8","","71","","28","","24","","24.1","","99.74","","","","-14","","Snow"
"2012-02-12 09:00","2012","02","12","09:00","-5.9","","-11.2","","66","","28","","22","","24.1","","99.79","","","","-13","","Snow"
"2012-02-12 10:00","2012","02","12","10:00","-5.5","","-11.5","","63","","28","","28","","24.1","","99.83","","","","-13","","Snow"
"2012-02-12 11:00","2012","02","12","11:00","-5.1","","-11.0","","63","","30","","22","","24.1","","99.84","","","","-12","","Snow"
"2012-02-12 12:00","2012","02","12","12:00","-4.6","","-9.8","","67","","28","","19","","16.1","","99.84","","","","-11","","Snow"
"2012-02-12 13:00","2012","02","12","13:00","-3.8","","-10.5","","60","","27","","28","","24.1","","99.73","","","","-11","","Mostly Cloudy"
"2012-02-12 14:00","2012","02","12","14:00","-2.8","","-10.3","","56","","28","","26","","24.1","","99.66","","","","-10","","Mainly Clear"
"2012-02-12 15:00","2012","02","12","15:00","-1.9","","-11.0","","50","","28","","24","","24.1","","99.63","","","","-8","","Mainly Clear"
"2012-02-12 16:00","2012","02","12","16:00","-1.2","","-10.6","","49","","29","","26","","24.1","","99.61","","","","-8","","Mainly Clear"
"2012-02-12 17:00","2012","02","12","17:00","-0.7","","-10.3","","48","","29","","24","","24.1","","99.62","","","","-7","","Clear"
"2012-02-12 18:00","2012","02","12","18:00","-1.5","","-9.4","","55","","27","","17","","24.1","","99.64","","","","-7","","Clear"
"2012-02-12 19:00","2012","02","12","19:00","-2.0","","-9.7","","56","","27","","22","","24.1","","99.66","","","","-8","","Clear"
"2012-02-12 20:00","2012","02","12","20:00","-2.2","","-10.1","","55","","27","","30","","24.1","","99.67","","","","-9","","Clear"
"2012-02-12 21:00","2012","02","12","21:00","-2.7","","-9.9","","58","","27","","30","","24.1","","99.68","","","","-10","","Clear"
"2012-02-12 22:00","2012","02","12","22:00","-3.3","","-9.5","","62","","27","","26","","24.1","","99.69","","","","-10","","Clear"
"2012-02-12 23:00","2012","02","12","23:00","-3.8","","-9.1","","67","","27","","22","","24.1","","99.68","","","","-10","","Clear"
"2012-02-13 00:00","2012","02","13","00:00","-4.3","","-9.2","","69","","25","","19","","24.1","","99.66","","","","-10","","Clear"
"2012-02-13 01:00","2012","02","13","01:00","-5.3","","-9.2","","74","","23","","13","","24.1","","99.66","","","","-10","","Clear"
"2012-02-13 02:00","2012","02","13","02:00","-5.7","","-9.3","","76","","24","","13","","24.1","","99.64","","","","-11","","Clear"
"2012-02-13 03:00","2012","02","13","03:00","-5.5","","-9.1","","76","","25","","11","","24.1","","99.62","","","","-10","","Clear"
"2012-02-13 04:00","2012","02","13","04:00","-5.4","","-9.0","","76","","24","","19","","24.1","","99.60","","","","-12","","Clear"
"2012-02-13 05:00","2012","02","13","05:00","-5.7","","-9.0","","77","","24","","13","","24.1","","99.62","","","","-11","","Clear"
"2012-02-13 06:00","2012","02","13","06:00","-5.6","","-9.2","","76","","25","","17","","24.1","","99.62","","","","-12","","Clear"
"2012-02-13 07:00","2012","02","13","07:00","-6.1","","-9.4","","77","","23","","15","","24.1","","99.63","","","","-12","","Clear"
"2012-02-13 08:00","2012","02","13","08:00","-6.1","","-9.5","","77","","24","","15","","24.1","","99.67","","","","-12","","Mainly Clear"
"2012-02-13 09:00","2012","02","13","09:00","-4.5","","-9.1","","70","","24","","17","","24.1","","99.70","","","","-10","","Mainly Clear"
"2012-02-13 10:00","2012","02","13","10:00","-2.2","","-8.4","","62","","26","","19","","24.1","","99.69","","","","-8","","Mainly Clear"
"2012-02-13 11:00","2012","02","13","11:00","-0.9","","-7.9","","59","","26","","24","","24.1","","99.71","","","","-7","","Mostly Cloudy"
"2012-02-13 12:00","2012","02","13","12:00","0.1","","-7.6","","56","","25","","22","","24.1","","99.67","","","","","","Mostly Cloudy"
"2012-02-13 13:00","2012","02","13","13:00","1.2","","-7.4","","53","","25","","22","","24.1","","99.56","","","","","","Mostly Cloudy"
"2012-02-13 14:00","2012","02","13","14:00","1.7","","-6.6","","54","","22","","19","","24.1","","99.49","","","","","","Mostly Cloudy"
"2012-02-13 15:00","2012","02","13","15:00","1.8","","-6.7","","53","","22","","20","","24.1","","99.41","","","","","","Mostly Cloudy"
"2012-02-13 16:00","2012","02","13","16:00","1.2","","-6.3","","57","","21","","20","","19.3","","99.38","","","","","","Mostly Cloudy"
"2012-02-13 17:00","2012","02","13","17:00","0.9","","-6.4","","58","","22","","20","","24.1","","99.38","","","","","","Cloudy"
"2012-02-13 18:00","2012","02","13","18:00","0.4","","-7.4","","56","","22","","19","","19.3","","99.38","","","","","","Cloudy"
"2012-02-13 19:00","2012","02","13","19:00","0.2","","-8.0","","54","","22","","11","","16.1","","99.34","","","","","","Snow Showers"
"2012-02-13 20:00","2012","02","13","20:00","-0.1","","-9.4","","49","","23","","15","","24.1","","99.34","","","","-5","","Cloudy"
"2012-02-13 21:00","2012","02","13","21:00","-0.7","","-9.6","","51","","23","","11","","24.1","","99.33","","","","-4","","Mostly Cloudy"
"2012-02-13 22:00","2012","02","13","22:00","-1.1","","-9.1","","55","","20","","9","","19.3","","99.31","","","","-4","","Mostly Cloudy"
"2012-02-13 23:00","2012","02","13","23:00","-0.9","","-8.2","","58","","21","","7","","24.1","","99.28","","","","-3","","Cloudy"
"2012-02-14 00:00","2012","02","14","00:00","-1.1","","-5.9","","70","","20","","7","","24.1","","99.22","","","","-4","","Cloudy"
"2012-02-14 01:00","2012","02","14","01:00","-1.1","","-5.8","","70","","19","","9","","24.1","","99.18","","","","-4","","Cloudy"
"2012-02-14 02:00","2012","02","14","02:00","-1.2","","-5.3","","74","","19","","11","","24.1","","99.12","","","","-5","","Cloudy"
"2012-02-14 03:00","2012","02","14","03:00","-0.5","","-5.3","","70","","20","","24","","24.1","","99.09","","","","-6","","Snow Showers"
"2012-02-14 04:00","2012","02","14","04:00","-2.0","","-2.6","","96","","22","","13","","4.0","","99.05","","","","-6","","Snow Showers"
"2012-02-14 05:00","2012","02","14","05:00","-1.9","","-2.3","","97","","21","","11","","2.4","","99.03","","","","-6","","Snow Showers"
"2012-02-14 06:00","2012","02","14","06:00","-1.6","","-1.9","","98","","20","","9","","3.2","","99.01","","","","-5","","Snow Showers"
"2012-02-14 07:00","2012","02","14","07:00","-1.6","","-1.9","","98","","20","","9","","3.2","","98.98","","","","-5","","Snow Showers,Fog"
"2012-02-14 08:00","2012","02","14","08:00","-1.1","","-1.4","","98","","19","","13","","1.6","","98.98","","","","-5","","Snow"
"2012-02-14 09:00","2012","02","14","09:00","-0.8","","-1.1","","98","","20","","11","","1.2","","98.98","","","","-5","","Snow"
"2012-02-14 10:00","2012","02","14","10:00","-0.2","","-0.7","","96","","20","","13","","1.6","","98.95","","","","-4","","Snow"
"2012-02-14 11:00","2012","02","14","11:00","-0.1","","-0.9","","94","","22","","17","","4.8","","98.93","","","","-5","","Snow,Fog"
"2012-02-14 12:00","2012","02","14","12:00","0.3","","-0.9","","92","","22","","19","","9.7","","98.93","","","","","","Fog"
"2012-02-14 13:00","2012","02","14","13:00","0.3","","-1.1","","90","","22","","17","","9.7","","98.87","","","","","","Fog"
"2012-02-14 14:00","2012","02","14","14:00","0.7","","-0.9","","89","","22","","13","","9.7","","98.86","","","","","","Fog"
"2012-02-14 15:00","2012","02","14","15:00","0.9","","-1.1","","86","","23","","11","","9.7","","98.87","","","","","","Snow Showers,Fog"
"2012-02-14 16:00","2012","02","14","16:00","1.0","","-1.6","","83","","25","","13","","9.7","","98.91","","","","","","Snow Showers,Haze"
"2012-02-14 17:00","2012","02","14","17:00","0.9","","-1.6","","83","","23","","13","","9.7","","98.94","","","","","","Haze"
"2012-02-14 18:00","2012","02","14","18:00","0.9","","-1.6","","83","","23","","13","","8.0","","99.01","","","","","","Haze"
"2012-02-14 19:00","2012","02","14","19:00","0.7","","-1.5","","85","","23","","13","","8.0","","99.08","","","","","","Snow Showers,Haze"
"2012-02-14 20:00","2012","02","14","20:00","0.7","","-1.4","","86","","25","","13","","11.3","","99.15","","","","","","Snow Showers"
"2012-02-14 21:00","2012","02","14","21:00","0.6","","-1.3","","87","","24","","11","","11.3","","99.22","","","","","","Snow Showers"
"2012-02-14 22:00","2012","02","14","22:00","0.5","","-1.4","","87","","25","","11","","11.3","","99.28","","","","","","Snow Showers"
"2012-02-14 23:00","2012","02","14","23:00","0.6","","-1.7","","85","","25","","13","","11.3","","99.35","","","","","","Snow Showers"
"2012-02-15 00:00","2012","02","15","00:00","0.4","","-1.6","","86","","24","","13","","19.3","","99.45","","","","","","Cloudy"
"2012-02-15 01:00","2012","02","15","01:00","0.4","","-1.8","","85","","24","","15","","12.9","","99.50","","","","","","Cloudy"
"2012-02-15 02:00","2012","02","15","02:00","0.5","","-2.3","","81","","24","","15","","11.3","","99.54","","","","","","Cloudy"
"2012-02-15 03:00","2012","02","15","03:00","-0.1","","-2.5","","84","","23","","9","","11.3","","99.58","","","","-3","","Cloudy"
"2012-02-15 04:00","2012","02","15","04:00","0.0","","-2.3","","84","","22","","11","","11.3","","99.61","","","","-4","","Cloudy"
"2012-02-15 05:00","2012","02","15","05:00","0.3","","-2.1","","84","","22","","13","","11.3","","99.70","","","","","","Cloudy"
"2012-02-15 06:00","2012","02","15","06:00","0.8","","-2.5","","79","","23","","15","","19.3","","99.79","","","","","","Cloudy"
"2012-02-15 07:00","2012","02","15","07:00","0.7","","-2.5","","79","","22","","11","","19.3","","99.86","","","","","","Cloudy"
"2012-02-15 08:00","2012","02","15","08:00","0.9","","-1.9","","82","","21","","13","","19.3","","99.92","","","","","","Cloudy"
"2012-02-15 09:00","2012","02","15","09:00","1.1","","-1.9","","80","","20","","17","","19.3","","99.96","","","","","","Cloudy"
"2012-02-15 10:00","2012","02","15","10:00","1.6","","-1.9","","78","","21","","22","","24.1","","99.98","","","","","","Cloudy"
"2012-02-15 11:00","2012","02","15","11:00","2.0","","-1.7","","76","","22","","22","","24.1","","99.98","","","","","","Cloudy"
"2012-02-15 12:00","2012","02","15","12:00","2.2","","-1.2","","78","","20","","20","","24.1","","99.98","","","","","","Cloudy"
"2012-02-15 13:00","2012","02","15","13:00","2.5","","-1.0","","78","","20","","19","","19.3","","99.89","","","","","","Cloudy"
"2012-02-15 14:00","2012","02","15","14:00","2.7","","-1.0","","77","","21","","20","","19.3","","99.86","","","","","","Cloudy"
"2012-02-15 15:00","2012","02","15","15:00","2.6","","-1.7","","73","","21","","24","","24.1","","99.85","","","","","","Cloudy"
"2012-02-15 16:00","2012","02","15","16:00","2.3","","-1.8","","74","","21","","19","","12.9","","99.85","","","","","","Mostly Cloudy"
"2012-02-15 17:00","2012","02","15","17:00","2.5","","-1.4","","75","","20","","15","","9.7","","99.87","","","","","","Haze"
"2012-02-15 18:00","2012","02","15","18:00","1.7","","-0.9","","83","","18","","9","","9.7","","99.86","","","","","","Haze"
"2012-02-15 19:00","2012","02","15","19:00","1.4","","-0.9","","85","","17","","7","","11.3","","99.86","","","","","","Cloudy"
"2012-02-15 20:00","2012","02","15","20:00","1.9","","-0.5","","84","","18","","13","","11.3","","99.83","","","","","","Cloudy"
"2012-02-15 21:00","2012","02","15","21:00","1.8","","-0.2","","87","","16","","9","","9.7","","99.77","","","","","","Fog"
"2012-02-15 22:00","2012","02","15","22:00","1.8","","0.5","","91","","15","","11","","8.0","","99.74","","","","","","Rain,Fog"
"2012-02-15 23:00","2012","02","15","23:00","1.7","","0.6","","92","","14","","9","","8.0","","99.66","","","","","","Rain,Fog"
"2012-02-16 00:00","2012","02","16","00:00","1.6","","0.9","","95","","12","","11","","6.4","","99.54","","","","","","Rain,Fog"
"2012-02-16 01:00","2012","02","16","01:00","1.7","","1.4","","98","","14","","6","","6.4","","99.49","","","","","","Rain,Fog"
"2012-02-16 02:00","2012","02","16","02:00","2.1","","1.7","","97","","17","","7","","8.0","","99.43","","","","","","Rain,Fog"
"2012-02-16 03:00","2012","02","16","03:00","2.5","","2.3","","99","","","","0","","4.8","","99.41","","","","","","Rain,Fog"
"2012-02-16 04:00","2012","02","16","04:00","2.1","","2.1","","100","","7","","7","","2.4","","99.28","","","","","","Rain,Fog"
"2012-02-16 05:00","2012","02","16","05:00","2.0","","2.0","","100","","10","","6","","1.2","","99.28","","","","","","Fog"
"2012-02-16 06:00","2012","02","16","06:00","2.1","","2.1","","100","","14","","6","","1.6","","99.23","","","","","","Fog"
"2012-02-16 07:00","2012","02","16","07:00","2.3","","2.3","","100","","13","","6","","0.6","","99.16","","","","","","Fog"
"2012-02-16 08:00","2012","02","16","08:00","2.5","","2.5","","100","","17","","6","","2.0","","99.13","","","","","","Rain,Fog"
"2012-02-16 09:00","2012","02","16","09:00","3.1","","3.1","","100","","17","","4","","1.6","","99.11","","","","","","Fog"
"2012-02-16 10:00","2012","02","16","10:00","3.8","","3.8","","100","","20","","13","","1.6","","99.13","","","","","","Fog"
"2012-02-16 11:00","2012","02","16","11:00","4.3","","4.3","","100","","21","","13","","1.6","","99.09","","","","","","Fog"
"2012-02-16 12:00","2012","02","16","12:00","4.9","","4.8","","99","","22","","15","","1.6","","99.06","","","","","","Fog"
"2012-02-16 13:00","2012","02","16","13:00","5.6","","4.9","","95","","27","","20","","6.4","","99.08","","","","","","Fog"
"2012-02-16 14:00","2012","02","16","14:00","5.9","","4.6","","91","","27","","20","","8.0","","99.03","","","","","","Fog"
"2012-02-16 15:00","2012","02","16","15:00","5.9","","4.4","","90","","27","","17","","11.3","","99.01","","","","","","Cloudy"
"2012-02-16 16:00","2012","02","16","16:00","5.9","","3.0","","82","","28","","24","","16.1","","99.09","","","","","","Cloudy"
"2012-02-16 17:00","2012","02","16","17:00","5.9","","2.1","","77","","29","","22","","19.3","","99.17","","","","","","Cloudy"
"2012-02-16 18:00","2012","02","16","18:00","5.7","","1.3","","73","","29","","15","","11.3","","99.22","","","","","","Cloudy"
"2012-02-16 19:00","2012","02","16","19:00","5.2","","0.0","","69","","28","","26","","12.9","","99.34","","","","","","Cloudy"
"2012-02-16 20:00","2012","02","16","20:00","4.4","","-0.7","","69","","27","","17","","12.9","","99.42","","","","","","Mainly Clear"
"2012-02-16 21:00","2012","02","16","21:00","3.6","","-0.7","","73","","28","","24","","12.9","","99.45","","","","","","Clear"
"2012-02-16 22:00","2012","02","16","22:00","2.8","","-1.1","","75","","28","","20","","12.9","","99.50","","","","","","Clear"
"2012-02-16 23:00","2012","02","16","23:00","1.8","","-1.8","","77","","28","","17","","12.9","","99.53","","","","","","Clear"
"2012-02-17 00:00","2012","02","17","00:00","0.9","","-1.8","","82","","24","","11","","12.9","","99.56","","","","","","Clear"
"2012-02-17 01:00","2012","02","17","01:00","-0.1","","-2.2","","86","","23","","13","","12.9","","99.57","","","","-4","","Clear"
"2012-02-17 02:00","2012","02","17","02:00","-0.1","","-2.0","","87","","23","","9","","12.9","","99.51","","","","-3","","Mostly Cloudy"
"2012-02-17 03:00","2012","02","17","03:00","0.1","","-1.9","","86","","23","","9","","19.3","","99.51","","","","","","Mostly Cloudy"
"2012-02-17 04:00","2012","02","17","04:00","1.2","","-2.3","","77","","23","","19","","16.1","","99.51","","","","","","Mostly Cloudy"
"2012-02-17 05:00","2012","02","17","05:00","1.6","","-1.8","","78","","24","","17","","11.3","","99.52","","","","","","Cloudy"
"2012-02-17 06:00","2012","02","17","06:00","1.8","","-1.8","","77","","25","","17","","16.1","","99.53","","","","","","Mostly Cloudy"
"2012-02-17 07:00","2012","02","17","07:00","0.9","","-2.2","","80","","25","","15","","19.3","","99.53","","","","","","Mainly Clear"
"2012-02-17 08:00","2012","02","17","08:00","0.8","","-2.2","","80","","27","","17","","19.3","","99.59","","","","","","Clear"
"2012-02-17 09:00","2012","02","17","09:00","2.1","","-3.1","","68","","29","","17","","19.3","","99.63","","","","","","Clear"
"2012-02-17 10:00","2012","02","17","10:00","3.0","","-4.2","","59","","28","","28","","24.1","","99.65","","","","","","Mainly Clear"
"2012-02-17 11:00","2012","02","17","11:00","3.9","","-5.1","","52","","27","","28","","24.1","","99.65","","","","","","Mainly Clear"
"2012-02-17 12:00","2012","02","17","12:00","4.7","","-6.5","","44","","29","","24","","24.1","","99.68","","","","","","Mainly Clear"
"2012-02-17 13:00","2012","02","17","13:00","5.4","","-6.6","","42","","30","","28","","24.1","","99.67","","","","","","Mainly Clear"
"2012-02-17 14:00","2012","02","17","14:00","5.6","","-6.4","","42","","29","","20","","24.1","","99.63","","","","","","Mainly Clear"
"2012-02-17 15:00","2012","02","17","15:00","6.1","","-6.9","","39","","29","","19","","24.1","","99.62","","","","","","Mainly Clear"
"2012-02-17 16:00","2012","02","17","16:00","6.3","","-7.0","","38","","29","","9","","24.1","","99.63","","","","","","Mainly Clear"
"2012-02-17 17:00","2012","02","17","17:00","5.8","","-6.8","","40","","25","","13","","24.1","","99.60","","","","","","Mostly Cloudy"
"2012-02-17 18:00","2012","02","17","18:00","5.0","","-6.6","","43","","23","","7","","24.1","","99.57","","","","","","Cloudy"
"2012-02-17 19:00","2012","02","17","19:00","3.7","","-2.6","","63","","20","","11","","24.1","","99.61","","","","","","Cloudy"
"2012-02-17 20:00","2012","02","17","20:00","3.2","","-2.4","","67","","19","","7","","24.1","","99.56","","","","","","Cloudy"
"2012-02-17 21:00","2012","02","17","21:00","3.0","","-2.3","","68","","19","","11","","24.1","","99.52","","","","","","Snow Showers"
"2012-02-17 22:00","2012","02","17","22:00","2.5","","-2.2","","71","","19","","13","","24.1","","99.51","","","","","","Mostly Cloudy"
"2012-02-17 23:00","2012","02","17","23:00","2.3","","-1.7","","75","","18","","17","","24.1","","99.37","","","","","","Mostly Cloudy"
"2012-02-18 00:00","2012","02","18","00:00","2.6","","-1.6","","74","","18","","19","","24.1","","99.21","","","","","","Mostly Cloudy"
"2012-02-18 01:00","2012","02","18","01:00","3.3","","-2.0","","68","","20","","22","","24.1","","99.14","","","","","","Mostly Cloudy"
"2012-02-18 02:00","2012","02","18","02:00","3.1","","-0.6","","77","","23","","22","","24.1","","99.11","","","","","","Mostly Cloudy"
"2012-02-18 03:00","2012","02","18","03:00","2.5","","-1.2","","77","","22","","19","","24.1","","99.05","","","","","","Mostly Cloudy"
"2012-02-18 04:00","2012","02","18","04:00","3.3","","-1.2","","72","","24","","22","","24.1","","99.02","","","","","","Mostly Cloudy"
"2012-02-18 05:00","2012","02","18","05:00","2.7","","-1.0","","77","","25","","20","","24.1","","99.08","","","","","","Mostly Cloudy"
"2012-02-18 06:00","2012","02","18","06:00","2.3","","-1.3","","77","","25","","20","","24.1","","99.09","","","","","","Mainly Clear"
"2012-02-18 07:00","2012","02","18","07:00","1.7","","-1.4","","80","","25","","19","","24.1","","99.09","","","","","","Mainly Clear"
"2012-02-18 08:00","2012","02","18","08:00","2.1","","-2.1","","74","","27","","22","","19.3","","99.13","","","","","","Mainly Clear"
"2012-02-18 09:00","2012","02","18","09:00","2.6","","-2.5","","69","","27","","32","","19.3","","99.20","","","","","","Mostly Cloudy"
"2012-02-18 10:00","2012","02","18","10:00","2.6","","-3.0","","67","","29","","28","","24.1","","99.23","","","","","","Mostly Cloudy"
"2012-02-18 11:00","2012","02","18","11:00","1.9","","-4.3","","63","","31","","39","","24.1","","99.34","","","","","","Mostly Cloudy"
"2012-02-18 12:00","2012","02","18","12:00","1.5","","-5.3","","61","","32","","35","","24.1","","99.44","","","","","","Mostly Cloudy"
"2012-02-18 13:00","2012","02","18","13:00","1.4","","-6.3","","56","","32","","33","","24.1","","99.51","","","","","","Mostly Cloudy"
"2012-02-18 14:00","2012","02","18","14:00","2.0","","-6.6","","53","","34","","35","","24.1","","99.56","","","","","","Mainly Clear"
"2012-02-18 15:00","2012","02","18","15:00","2.3","","-6.9","","51","","32","","30","","24.1","","99.61","","","","","","Mostly Cloudy"
"2012-02-18 16:00","2012","02","18","16:00","1.1","","-8.0","","51","","34","","22","","24.1","","99.70","","","","","","Mostly Cloudy"
"2012-02-18 17:00","2012","02","18","17:00","0.9","","-7.6","","53","","34","","15","","24.1","","99.81","","","","","","Mostly Cloudy"
"2012-02-18 18:00","2012","02","18","18:00","0.3","","-8.1","","53","","36","","13","","24.1","","99.89","","","","","","Mostly Cloudy"
"2012-02-18 19:00","2012","02","18","19:00","0.0","","-8.5","","53","","34","","4","","24.1","","99.95","","","","-1","","Mostly Cloudy"
"2012-02-18 20:00","2012","02","18","20:00","-0.4","","-9.0","","52","","32","","15","","24.1","","100.00","","","","-5","","Mostly Cloudy"
"2012-02-18 21:00","2012","02","18","21:00","-0.8","","-8.4","","56","","36","","11","","24.1","","100.01","","","","-5","","Mostly Cloudy"
"2012-02-18 22:00","2012","02","18","22:00","-1.6","","-8.7","","58","","36","","6","","24.1","","100.00","","","","-4","","Mostly Cloudy"
"2012-02-18 23:00","2012","02","18","23:00","-1.3","","-8.3","","59","","3","","15","","24.1","","99.96","","","","-6","","Mostly Cloudy"
"2012-02-19 00:00","2012","02","19","00:00","-1.7","","-8.2","","61","","3","","11","","24.1","","100.00","","","","-6","","Mostly Cloudy"
"2012-02-19 01:00","2012","02","19","01:00","-1.8","","-9.4","","56","","2","","4","","24.1","","99.98","","","","-3","","Mostly Cloudy"
"2012-02-19 02:00","2012","02","19","02:00","-2.0","","-9.9","","55","","","","0","","24.1","","100.05","","","","","","Mostly Cloudy"
"2012-02-19 03:00","2012","02","19","03:00","-2.1","","-8.9","","60","","1","","6","","24.1","","100.01","","","","-4","","Mostly Cloudy"
"2012-02-19 04:00","2012","02","19","04:00","-2.2","","-8.8","","61","","4","","13","","24.1","","99.95","","","","-7","","Mostly Cloudy"
"2012-02-19 05:00","2012","02","19","05:00","-2.6","","-9.3","","60","","5","","11","","24.1","","99.92","","","","-7","","Mostly Cloudy"
"2012-02-19 06:00","2012","02","19","06:00","-2.9","","-8.6","","65","","2","","13","","24.1","","99.92","","","","-8","","Mostly Cloudy"
"2012-02-19 07:00","2012","02","19","07:00","-4.4","","-8.6","","72","","1","","9","","24.1","","99.91","","","","-8","","Mostly Cloudy"
"2012-02-19 08:00","2012","02","19","08:00","-4.4","","-8.0","","76","","36","","11","","24.1","","99.96","","","","-9","","Mostly Cloudy"
"2012-02-19 09:00","2012","02","19","09:00","-3.6","","-8.2","","70","","36","","15","","24.1","","99.98","","","","-9","","Mostly Cloudy"
"2012-02-19 10:00","2012","02","19","10:00","-2.7","","-8.3","","65","","1","","17","","24.1","","99.96","","","","-8","","Mostly Cloudy"
"2012-02-19 11:00","2012","02","19","11:00","-1.8","","-7.6","","65","","2","","13","","24.1","","100.00","","","","-6","","Mostly Cloudy"
"2012-02-19 12:00","2012","02","19","12:00","-1.0","","-7.3","","62","","2","","13","","24.1","","99.99","","","","-5","","Mostly Cloudy"
"2012-02-19 13:00","2012","02","19","13:00","-0.6","","-7.2","","61","","3","","15","","24.1","","99.90","","","","-5","","Cloudy"
"2012-02-19 14:00","2012","02","19","14:00","-0.6","","-7.0","","62","","5","","11","","24.1","","99.83","","","","-4","","Cloudy"
"2012-02-19 15:00","2012","02","19","15:00","-0.5","","-7.4","","60","","2","","17","","24.1","","99.80","","","","-5","","Mostly Cloudy"
"2012-02-19 16:00","2012","02","19","16:00","-0.8","","-7.7","","59","","7","","17","","24.1","","99.79","","","","-6","","Mostly Cloudy"
"2012-02-19 17:00","2012","02","19","17:00","-1.7","","-7.2","","66","","4","","24","","24.1","","99.75","","","","-8","","Mostly Cloudy"
"2012-02-19 18:00","2012","02","19","18:00","-2.0","","-7.4","","66","","4","","22","","24.1","","99.77","","","","-8","","Mostly Cloudy"
"2012-02-19 19:00","2012","02","19","19:00","-2.2","","-8.1","","64","","2","","15","","24.1","","99.83","","","","-7","","Mostly Cloudy"
"2012-02-19 20:00","2012","02","19","20:00","-2.0","","-7.9","","64","","2","","15","","24.1","","99.88","","","","-7","","Mostly Cloudy"
"2012-02-19 21:00","2012","02","19","21:00","-1.9","","-7.4","","66","","1","","13","","24.1","","99.90","","","","-6","","Cloudy"
"2012-02-19 22:00","2012","02","19","22:00","-2.9","","-7.5","","71","","3","","11","","24.1","","99.95","","","","-7","","Mainly Clear"
"2012-02-19 23:00","2012","02","19","23:00","-3.6","","-7.8","","73","","2","","6","","24.1","","99.96","","","","-6","","Clear"
"2012-02-20 00:00","2012","02","20","00:00","-4.2","","-8.3","","73","","34","","7","","24.1","","99.99","","","","-7","","Clear"
"2012-02-20 01:00","2012","02","20","01:00","-4.9","","-8.3","","77","","34","","7","","24.1","","100.07","","","","-8","","Mainly Clear"
"2012-02-20 02:00","2012","02","20","02:00","-5.3","","-7.9","","82","","","","0","","24.1","","100.11","","","","","","Mainly Clear"
"2012-02-20 03:00","2012","02","20","03:00","-5.4","","-7.8","","83","","","","0","","24.1","","100.16","","","","","","Mainly Clear"
"2012-02-20 04:00","2012","02","20","04:00","-5.7","","-8.0","","84","","","","0","","24.1","","100.16","","","","","","Mainly Clear"
"2012-02-20 05:00","2012","02","20","05:00","-5.5","","-8.0","","83","","","","0","","24.1","","100.18","","","","","","Mostly Cloudy"
"2012-02-20 06:00","2012","02","20","06:00","-4.8","","-7.7","","80","","34","","6","","24.1","","100.28","","","","-8","","Mostly Cloudy"
"2012-02-20 07:00","2012","02","20","07:00","-5.4","","-8.0","","82","","35","","6","","24.1","","100.31","","","","-8","","Mostly Cloudy"
"2012-02-20 08:00","2012","02","20","08:00","-4.0","","-7.4","","77","","31","","6","","24.1","","100.43","","","","-7","","Mostly Cloudy"
"2012-02-20 09:00","2012","02","20","09:00","-3.0","","-6.4","","77","","26","","6","","24.1","","100.55","","","","-5","","Mostly Cloudy"
"2012-02-20 10:00","2012","02","20","10:00","-1.8","","-5.5","","76","","15","","4","","24.1","","100.57","","","","-3","","Mostly Cloudy"
"2012-02-20 11:00","2012","02","20","11:00","-0.1","","-5.4","","67","","10","","4","","24.1","","100.58","","","","-1","","Mainly Clear"
"2012-02-20 12:00","2012","02","20","12:00","0.3","","-5.3","","66","","10","","7","","24.1","","100.56","","","","","","Mainly Clear"
"2012-02-20 13:00","2012","02","20","13:00","0.0","","-6.1","","63","","11","","6","","24.1","","100.49","","","","-2","","Mainly Clear"
"2012-02-20 14:00","2012","02","20","14:00","1.9","","-5.8","","57","","11","","11","","24.1","","100.40","","","","","","Mainly Clear"
"2012-02-20 15:00","2012","02","20","15:00","2.7","","-4.8","","58","","14","","7","","24.1","","100.35","","","","","","Mostly Cloudy"
"2012-02-20 16:00","2012","02","20","16:00","2.3","","-4.6","","60","","14","","7","","24.1","","100.31","","","","","","Mostly Cloudy"
"2012-02-20 17:00","2012","02","20","17:00","0.9","","-5.8","","61","","13","","13","","24.1","","100.29","","","","","","Mostly Cloudy"
"2012-02-20 18:00","2012","02","20","18:00","-0.7","","-6.3","","66","","12","","11","","24.1","","100.24","","","","-4","","Mostly Cloudy"
"2012-02-20 19:00","2012","02","20","19:00","-1.9","","-6.4","","71","","12","","11","","24.1","","100.20","","","","-6","","Mostly Cloudy"
"2012-02-20 20:00","2012","02","20","20:00","-2.6","","-6.1","","77","","11","","9","","24.1","","100.17","","","","-6","","Mostly Cloudy"
"2012-02-20 21:00","2012","02","20","21:00","-3.0","","-6.2","","79","","10","","7","","24.1","","100.13","","","","-6","","Mainly Clear"
"2012-02-20 22:00","2012","02","20","22:00","-2.6","","-5.7","","79","","11","","11","","24.1","","100.02","","","","-7","","Cloudy"
"2012-02-20 23:00","2012","02","20","23:00","-1.9","","-5.1","","79","","13","","9","","24.1","","99.93","","","","-5","","Cloudy"
"2012-02-21 00:00","2012","02","21","00:00","-1.7","","-4.0","","84","","12","","13","","24.1","","99.80","","","","-6","","Cloudy"
"2012-02-21 01:00","2012","02","21","01:00","-1.7","","-3.0","","91","","12","","6","","24.1","","99.73","","","","-4","","Cloudy"
"2012-02-21 02:00","2012","02","21","02:00","-1.9","","-3.0","","92","","11","","6","","24.1","","99.63","","","","-4","","Cloudy"
"2012-02-21 03:00","2012","02","21","03:00","-0.4","","-3.1","","82","","13","","11","","24.1","","99.41","","","","-4","","Cloudy"
"2012-02-21 04:00","2012","02","21","04:00","-0.5","","-3.9","","78","","18","","7","","24.1","","99.38","","","","-3","","Cloudy"
"2012-02-21 05:00","2012","02","21","05:00","-0.2","","-4.3","","74","","12","","17","","24.1","","99.14","","","","-5","","Cloudy"
"2012-02-21 06:00","2012","02","21","06:00","0.0","","-4.5","","72","","13","","13","","24.1","","98.90","","","","-4","","Cloudy"
"2012-02-21 07:00","2012","02","21","07:00","0.9","","-4.5","","67","","16","","17","","24.1","","98.84","","","","","","Cloudy"
"2012-02-21 08:00","2012","02","21","08:00","1.3","","-4.0","","68","","16","","22","","19.3","","98.67","","","","","","Cloudy"
"2012-02-21 09:00","2012","02","21","09:00","2.0","","-2.9","","70","","16","","15","","19.3","","98.59","","","","","","Cloudy"
"2012-02-21 10:00","2012","02","21","10:00","1.3","","0.4","","94","","19","","20","","1.6","","98.53","","","","","","Snow Showers"
"2012-02-21 11:00","2012","02","21","11:00","0.7","","0.5","","99","","18","","19","","3.2","","98.42","","","","","","Snow"
"2012-02-21 12:00","2012","02","21","12:00","1.3","","1.1","","99","","18","","11","","6.4","","98.32","","","","","","Rain Showers,Fog"
"2012-02-21 13:00","2012","02","21","13:00","2.8","","2.0","","94","","20","","24","","8.0","","98.20","","","","","","Fog"
"2012-02-21 14:00","2012","02","21","14:00","3.6","","2.7","","94","","21","","24","","9.7","","98.12","","","","","","Fog"
"2012-02-21 15:00","2012","02","21","15:00","4.0","","3.1","","94","","22","","20","","12.9","","98.10","","","","","","Cloudy"
"2012-02-21 16:00","2012","02","21","16:00","4.8","","2.7","","86","","23","","22","","16.1","","98.14","","","","","","Cloudy"
"2012-02-21 17:00","2012","02","21","17:00","4.8","","3.4","","91","","22","","15","","9.7","","98.16","","","","","","Rain Showers,Fog"
"2012-02-21 18:00","2012","02","21","18:00","4.7","","4.2","","97","","22","","19","","8.0","","98.15","","","","","","Rain Showers,Fog"
"2012-02-21 19:00","2012","02","21","19:00","5.5","","3.9","","89","","22","","26","","19.3","","98.14","","","","","","Cloudy"
"2012-02-21 20:00","2012","02","21","20:00","5.6","","4.1","","90","","23","","24","","19.3","","98.16","","","","","","Cloudy"
"2012-02-21 21:00","2012","02","21","21:00","5.5","","3.5","","87","","24","","28","","24.1","","98.15","","","","","","Mostly Cloudy"
"2012-02-21 22:00","2012","02","21","22:00","5.4","","2.2","","80","","26","","32","","24.1","","98.26","","","","","","Mostly Cloudy"
"2012-02-21 23:00","2012","02","21","23:00","3.9","","-1.4","","68","","27","","26","","24.1","","98.34","","","","","","Cloudy"
"2012-02-22 00:00","2012","02","22","00:00","3.0","","-0.8","","76","","23","","13","","24.1","","98.31","","","","","","Cloudy"
"2012-02-22 01:00","2012","02","22","01:00","2.4","","-0.2","","83","","21","","20","","24.1","","98.28","","","","","","Mostly Cloudy"
"2012-02-22 02:00","2012","02","22","02:00","2.6","","0.7","","87","","21","","17","","16.1","","98.23","","","","","","Rain Showers"
"2012-02-22 03:00","2012","02","22","03:00","2.5","","1.4","","92","","21","","19","","19.3","","98.19","","","","","","Mainly Clear"
"2012-02-22 04:00","2012","02","22","04:00","2.3","","1.5","","94","","21","","19","","19.3","","98.13","","","","","","Mainly Clear"
"2012-02-22 05:00","2012","02","22","05:00","2.0","","1.2","","94","","21","","17","","19.3","","98.09","","","","","","Mostly Cloudy"
"2012-02-22 06:00","2012","02","22","06:00","2.4","","0.8","","89","","22","","20","","24.1","","98.08","","","","","","Mainly Clear"
"2012-02-22 07:00","2012","02","22","07:00","2.7","","0.5","","85","","22","","19","","24.1","","98.04","","","","","","Mostly Cloudy"
"2012-02-22 08:00","2012","02","22","08:00","3.0","","-0.1","","80","","22","","19","","24.1","","98.01","","","","","","Mostly Cloudy"
"2012-02-22 09:00","2012","02","22","09:00","3.1","","-0.3","","78","","22","","19","","24.1","","98.00","","","","","","Mostly Cloudy"
"2012-02-22 10:00","2012","02","22","10:00","3.9","","-0.5","","73","","23","","17","","24.1","","97.94","","","","","","Mostly Cloudy"
"2012-02-22 11:00","2012","02","22","11:00","4.8","","-1.5","","64","","24","","20","","24.1","","97.86","","","","","","Mostly Cloudy"
"2012-02-22 12:00","2012","02","22","12:00","3.7","","-0.5","","74","","23","","30","","12.9","","97.84","","","","","","Rain"
"2012-02-22 13:00","2012","02","22","13:00","1.6","","0.8","","94","","25","","13","","2.4","","97.75","","","","","","Snow"
"2012-02-22 14:00","2012","02","22","14:00","2.0","","1.3","","95","","23","","11","","6.4","","97.64","","","","","","Rain,Fog"
"2012-02-22 15:00","2012","02","22","15:00","2.2","","1.2","","93","","24","","11","","11.3","","97.58","","","","","","Rain"
"2012-02-22 16:00","2012","02","22","16:00","2.6","","1.5","","92","","26","","19","","16.1","","97.54","","","","","","Rain"
"2012-02-22 17:00","2012","02","22","17:00","3.0","","0.3","","82","","25","","20","","19.3","","97.47","","","","","","Rain"
"2012-02-22 18:00","2012","02","22","18:00","2.7","","0.9","","88","","24","","15","","19.3","","97.42","","","","","","Mostly Cloudy"
"2012-02-22 19:00","2012","02","22","19:00","2.5","","0.5","","87","","24","","11","","24.1","","97.41","","","","","","Mostly Cloudy"
"2012-02-22 20:00","2012","02","22","20:00","2.3","","0.8","","90","","22","","15","","24.1","","97.42","","","","","","Mostly Cloudy"
"2012-02-22 21:00","2012","02","22","21:00","1.9","","1.0","","94","","22","","9","","24.1","","97.41","","","","","","Mostly Cloudy"
"2012-02-22 22:00","2012","02","22","22:00","1.7","","1.0","","95","","21","","11","","24.1","","97.45","","","","","","Mostly Cloudy"
"2012-02-22 23:00","2012","02","22","23:00","1.5","","0.8","","95","","20","","7","","16.1","","97.42","","","","","","Mostly Cloudy"
"2012-02-23 00:00","2012","02","23","00:00","0.9","","0.7","","99","","22","","13","","9.7","","97.44","","","","","","Fog"
"2012-02-23 01:00","2012","02","23","01:00","0.9","","0.7","","99","","22","","13","","9.7","","97.47","","","","","","Fog"
"2012-02-23 02:00","2012","02","23","02:00","0.9","","0.9","","100","","21","","17","","4.8","","97.49","","","","","","Fog"
"2012-02-23 03:00","2012","02","23","03:00","1.1","","1.1","","100","","23","","11","","3.2","","97.54","","","","","","Fog"
"2012-02-23 04:00","2012","02","23","04:00","1.1","","0.9","","99","","25","","9","","6.4","","97.55","","","","","","Fog"
"2012-02-23 05:00","2012","02","23","05:00","0.9","","0.6","","98","","25","","9","","6.4","","97.66","","","","","","Fog"
"2012-02-23 06:00","2012","02","23","06:00","0.3","","0.1","","99","","23","","7","","9.7","","97.68","","","","","","Fog"
"2012-02-23 07:00","2012","02","23","07:00","0.9","","-0.5","","90","","27","","17","","12.9","","97.81","","","","","","Mostly Cloudy"
"2012-02-23 08:00","2012","02","23","08:00","0.9","","-0.9","","88","","27","","17","","11.3","","97.92","","","","","","Mainly Clear"
"2012-02-23 09:00","2012","02","23","09:00","2.2","","-0.6","","82","","30","","11","","11.3","","98.01","","","","","","Mostly Cloudy"
"2012-02-23 10:00","2012","02","23","10:00","2.5","","-0.1","","83","","31","","28","","11.3","","98.02","","","","","","Mainly Clear"
"2012-02-23 11:00","2012","02","23","11:00","3.7","","-0.8","","72","","27","","6","","12.9","","98.02","","","","","","Mostly Cloudy"
"2012-02-23 12:00","2012","02","23","12:00","4.6","","-1.4","","65","","25","","7","","12.9","","98.04","","","","","","Cloudy"
"2012-02-23 13:00","2012","02","23","13:00","5.3","","-1.5","","61","","21","","15","","12.9","","98.05","","","","","","Cloudy"
"2012-02-23 14:00","2012","02","23","14:00","4.5","","-0.2","","71","","21","","22","","9.7","","98.09","","","","","","Haze"
"2012-02-23 15:00","2012","02","23","15:00","4.0","","-0.1","","75","","20","","11","","9.7","","98.01","","","","","","Haze"
"2012-02-23 16:00","2012","02","23","16:00","4.1","","1.0","","80","","18","","7","","11.3","","98.03","","","","","","Cloudy"
"2012-02-23 17:00","2012","02","23","17:00","4.3","","-0.3","","72","","14","","4","","16.1","","98.02","","","","","","Cloudy"
"2012-02-23 18:00","2012","02","23","18:00","4.0","","0.4","","77","","9","","7","","12.9","","97.96","","","","","","Cloudy"
"2012-02-23 19:00","2012","02","23","19:00","3.7","","0.8","","81","","8","","9","","12.9","","98.01","","","","","","Cloudy"
"2012-02-23 20:00","2012","02","23","20:00","2.8","","0.9","","87","","13","","13","","12.9","","98.02","","","","","","Rain Showers,Ice Pellet Showers"
"2012-02-23 21:00","2012","02","23","21:00","2.5","","1.1","","90","","8","","13","","16.1","","97.99","","","","","","Cloudy"
"2012-02-23 22:00","2012","02","23","22:00","2.4","","-0.1","","84","","9","","15","","11.3","","97.95","","","","","","Cloudy"
"2012-02-23 23:00","2012","02","23","23:00","0.9","","-0.9","","88","","10","","22","","1.6","","97.89","","","","","","Snow Showers"
"2012-02-24 00:00","2012","02","24","00:00","0.3","","0.1","","99","","6","","11","","1.2","","97.87","","","","","","Snow"
"2012-02-24 01:00","2012","02","24","01:00","0.2","","0.1","","99","","7","","20","","1.2","","97.80","","","","","","Snow"
"2012-02-24 02:00","2012","02","24","02:00","0.2","","0.1","","99","","7","","24","","2.0","","97.66","","","","","","Snow"
"2012-02-24 03:00","2012","02","24","03:00","0.3","","0.2","","99","","7","","22","","4.0","","97.57","","","","","","Snow"
"2012-02-24 04:00","2012","02","24","04:00","0.2","","0.1","","99","","7","","22","","6.4","","97.40","","","","","","Snow"
"2012-02-24 05:00","2012","02","24","05:00","0.3","","0.2","","99","","5","","20","","8.0","","97.31","","","","","","Drizzle,Fog"
"2012-02-24 06:00","2012","02","24","06:00","0.3","","0.3","","100","","6","","22","","8.0","","97.19","","","","","","Drizzle,Fog"
"2012-02-24 07:00","2012","02","24","07:00","0.5","","0.4","","99","","7","","17","","4.0","","97.11","","","","","","Drizzle,Fog"
"2012-02-24 08:00","2012","02","24","08:00","0.9","","0.9","","100","","","","0","","4.8","","97.05","","","","","","Rain,Fog"
"2012-02-24 09:00","2012","02","24","09:00","0.9","","0.8","","99","","7","","7","","1.6","","96.98","","","","","","Fog"
"2012-02-24 10:00","2012","02","24","10:00","1.0","","1.0","","100","","18","","6","","1.2","","96.89","","","","","","Drizzle,Fog"
"2012-02-24 11:00","2012","02","24","11:00","2.0","","2.0","","100","","23","","19","","2.0","","96.83","","","","","","Drizzle,Fog"
"2012-02-24 12:00","2012","02","24","12:00","2.6","","2.3","","98","","25","","28","","8.0","","96.84","","","","","","Rain,Fog"
"2012-02-24 13:00","2012","02","24","13:00","2.5","","1.9","","96","","26","","35","","12.9","","96.86","","","","","","Rain"
"2012-02-24 14:00","2012","02","24","14:00","","M","0.2","","","M","28","","33","","19.3","","97.01","","","","","","Cloudy"
"2012-02-24 15:00","2012","02","24","15:00","1.8","","0.1","","88","","29","","30","","9.7","","97.27","","","","","","Snow,Fog"
"2012-02-24 16:00","2012","02","24","16:00","2.0","","-0.3","","85","","28","","41","","9.7","","97.59","","","","","","Snow Showers,Haze"
"2012-02-24 17:00","2012","02","24","17:00","1.7","","-1.3","","80","","29","","30","","19.3","","97.79","","","","","","Snow Showers"
"2012-02-24 18:00","2012","02","24","18:00","1.2","","-1.5","","82","","29","","30","","9.7","","97.99","","","","","","Snow Showers"
"2012-02-24 19:00","2012","02","24","19:00","1.6","","-2.4","","75","","28","","24","","19.3","","98.10","","","","","","Snow Showers"
"2012-02-24 20:00","2012","02","24","20:00","0.6","","-1.9","","83","","28","","28","","19.3","","98.22","","","","","","Snow Showers"
"2012-02-24 21:00","2012","02","24","21:00","0.6","","-4.4","","69","","28","","28","","24.1","","98.28","","","","","","Mostly Cloudy"
"2012-02-24 22:00","2012","02","24","22:00","0.3","","-4.5","","70","","28","","24","","24.1","","98.36","","","","","","Cloudy"
"2012-02-24 23:00","2012","02","24","23:00","0.3","","-4.7","","69","","27","","30","","24.1","","98.38","","","","","","Cloudy"
"2012-02-25 00:00","2012","02","25","00:00","0.3","","-4.5","","70","","28","","28","","24.1","","98.38","","","","","","Mostly Cloudy"
"2012-02-25 01:00","2012","02","25","01:00","0.1","","-4.5","","71","","29","","28","","24.1","","98.41","","","","","","Cloudy"
"2012-02-25 02:00","2012","02","25","02:00","-0.2","","-4.6","","72","","28","","24","","24.1","","98.44","","","","-6","","Mostly Cloudy"
"2012-02-25 03:00","2012","02","25","03:00","-0.7","","-4.4","","76","","28","","22","","24.1","","98.42","","","","-6","","Mainly Clear"
"2012-02-25 04:00","2012","02","25","04:00","-0.8","","-3.7","","81","","28","","26","","19.3","","98.47","","","","-7","","Mainly Clear"
"2012-02-25 05:00","2012","02","25","05:00","-0.7","","-4.1","","78","","27","","22","","19.3","","98.55","","","","-6","","Snow Showers"
"2012-02-25 06:00","2012","02","25","06:00","-0.7","","-3.9","","79","","29","","20","","8.0","","98.63","","","","-6","","Snow Showers"
"2012-02-25 07:00","2012","02","25","07:00","-0.9","","-3.3","","84","","30","","15","","8.0","","98.70","","","","-6","","Snow Showers"
"2012-02-25 08:00","2012","02","25","08:00","-0.9","","-3.7","","81","","31","","22","","3.2","","98.82","","","","-7","","Snow Showers"
"2012-02-25 09:00","2012","02","25","09:00","-0.6","","-4.4","","75","","29","","17","","19.3","","98.94","","","","-6","","Mostly Cloudy"
"2012-02-25 10:00","2012","02","25","10:00","-0.4","","-5.3","","69","","30","","20","","12.9","","99.01","","","","-6","","Snow Showers"
"2012-02-25 11:00","2012","02","25","11:00","-0.1","","-5.5","","67","","30","","28","","16.1","","99.12","","","","-6","","Snow Showers"
"2012-02-25 12:00","2012","02","25","12:00","0.1","","-6.3","","62","","30","","32","","24.1","","99.21","","","","","","Snow Showers"
"2012-02-25 13:00","2012","02","25","13:00","0.0","","-5.5","","66","","30","","32","","24.1","","99.29","","","","-7","","Snow Showers"
"2012-02-25 14:00","2012","02","25","14:00","0.1","","-6.1","","63","","31","","28","","24.1","","99.38","","","","","","Snow Showers"
"2012-02-25 15:00","2012","02","25","15:00","-0.1","","-5.8","","65","","30","","26","","24.1","","99.53","","","","-6","","Snow Showers"
"2012-02-25 16:00","2012","02","25","16:00","0.3","","-6.1","","62","","29","","28","","24.1","","99.64","","","","","","Snow Showers"
"2012-02-25 17:00","2012","02","25","17:00","0.4","","-7.1","","57","","30","","20","","24.1","","99.75","","","","","","Snow Showers"
"2012-02-25 18:00","2012","02","25","18:00","0.2","","-6.0","","63","","29","","17","","24.1","","99.82","","","","","","Mostly Cloudy"
"2012-02-25 19:00","2012","02","25","19:00","0.0","","-7.1","","59","","31","","22","","24.1","","99.93","","","","-6","","Mostly Cloudy"
"2012-02-25 20:00","2012","02","25","20:00","-0.1","","-6.5","","62","","30","","20","","24.1","","100.05","","","","-5","","Snow Showers"
"2012-02-25 21:00","2012","02","25","21:00","-0.2","","-6.3","","63","","31","","17","","24.1","","100.15","","","","-5","","Snow Showers"
"2012-02-25 22:00","2012","02","25","22:00","-0.5","","-7.1","","61","","31","","15","","24.1","","100.20","","","","-5","","Snow Showers"
"2012-02-25 23:00","2012","02","25","23:00","-0.7","","-6.4","","65","","27","","19","","24.1","","100.30","","","","-6","","Snow Showers"
"2012-02-26 00:00","2012","02","26","00:00","-1.2","","-6.5","","67","","27","","20","","24.1","","100.37","","","","-7","","Snow Showers"
"2012-02-26 01:00","2012","02","26","01:00","-1.4","","-7.3","","64","","26","","17","","24.1","","100.45","","","","-7","","Snow Showers"
"2012-02-26 02:00","2012","02","26","02:00","-1.6","","-7.4","","65","","28","","13","","24.1","","100.49","","","","-6","","Snow Showers"
"2012-02-26 03:00","2012","02","26","03:00","-1.9","","-8.0","","63","","29","","11","","24.1","","100.52","","","","-6","","Mostly Cloudy"
"2012-02-26 04:00","2012","02","26","04:00","-2.9","","-7.1","","73","","30","","9","","24.1","","100.53","","","","-6","","Mainly Clear"
"2012-02-26 05:00","2012","02","26","05:00","-2.8","","-6.6","","75","","27","","9","","24.1","","100.59","","","","-6","","Mostly Cloudy"
"2012-02-26 06:00","2012","02","26","06:00","-2.6","","-8.1","","66","","26","","4","","24.1","","100.58","","","","-4","","Mostly Cloudy"
"2012-02-26 07:00","2012","02","26","07:00","-3.5","","-8.2","","70","","22","","7","","24.1","","100.57","","","","-6","","Mainly Clear"
"2012-02-26 08:00","2012","02","26","08:00","-3.3","","-7.1","","75","","22","","9","","24.1","","100.68","","","","-7","","Mostly Cloudy"
"2012-02-26 09:00","2012","02","26","09:00","-1.2","","-7.8","","61","","22","","13","","24.1","","100.74","","","","-5","","Mostly Cloudy"
"2012-02-26 10:00","2012","02","26","10:00","-1.0","","-7.7","","60","","22","","11","","24.1","","100.66","","","","-5","","Mainly Clear"
"2012-02-26 11:00","2012","02","26","11:00","-0.8","","-6.8","","64","","19","","24","","24.1","","100.64","","","","-7","","Mostly Cloudy"
"2012-02-26 12:00","2012","02","26","12:00","0.3","","-6.1","","62","","17","","24","","24.1","","100.58","","","","","","Mostly Cloudy"
"2012-02-26 13:00","2012","02","26","13:00","0.4","","-6.4","","60","","20","","22","","24.1","","100.51","","","","","","Mostly Cloudy"
"2012-02-26 14:00","2012","02","26","14:00","1.3","","-5.0","","63","","15","","22","","24.1","","100.31","","","","","","Mostly Cloudy"
"2012-02-26 15:00","2012","02","26","15:00","1.7","","-4.9","","62","","18","","26","","24.1","","100.26","","","","","","Mainly Clear"
"2012-02-26 16:00","2012","02","26","16:00","2.3","","-4.5","","61","","16","","22","","24.1","","100.17","","","","","","Clear"
"2012-02-26 17:00","2012","02","26","17:00","2.1","","-4.4","","62","","16","","20","","19.3","","100.09","","","","","","Clear"
"2012-02-26 18:00","2012","02","26","18:00","1.3","","-4.4","","66","","14","","17","","19.3","","100.02","","","","","","Mainly Clear"
"2012-02-26 19:00","2012","02","26","19:00","0.7","","-3.8","","72","","14","","13","","16.1","","99.97","","","","","","Mainly Clear"
"2012-02-26 20:00","2012","02","26","20:00","0.2","","-2.7","","81","","14","","13","","16.1","","99.91","","","","","","Mainly Clear"
"2012-02-26 21:00","2012","02","26","21:00","-0.3","","-2.9","","83","","18","","4","","16.1","","99.96","","","","-2","","Mainly Clear"
"2012-02-26 22:00","2012","02","26","22:00","-0.5","","-3.2","","82","","16","","7","","16.1","","99.94","","","","-3","","Clear"
"2012-02-26 23:00","2012","02","26","23:00","0.3","","-3.3","","77","","16","","13","","19.3","","99.86","","","","","","Clear"
"2012-02-27 00:00","2012","02","27","00:00","0.6","","-3.5","","74","","17","","13","","19.3","","99.79","","","","","","Clear"
"2012-02-27 01:00","2012","02","27","01:00","1.8","","-4.3","","64","","19","","22","","19.3","","99.73","","","","","","Clear"
"2012-02-27 02:00","2012","02","27","02:00","2.5","","-4.5","","60","","19","","20","","19.3","","99.69","","","","","","Mainly Clear"
"2012-02-27 03:00","2012","02","27","03:00","2.3","","-3.6","","65","","20","","22","","19.3","","99.62","","","","","","Mostly Cloudy"
"2012-02-27 04:00","2012","02","27","04:00","2.5","","-3.1","","67","","22","","20","","16.1","","99.56","","","","","","Mostly Cloudy"
"2012-02-27 05:00","2012","02","27","05:00","3.0","","-3.0","","65","","23","","19","","24.1","","99.58","","","","","","Mostly Cloudy"
"2012-02-27 06:00","2012","02","27","06:00","3.6","","-3.7","","59","","24","","19","","24.1","","99.57","","","","","","Mostly Cloudy"
"2012-02-27 07:00","2012","02","27","07:00","3.9","","-3.4","","59","","24","","20","","24.1","","99.56","","","","","","Mostly Cloudy"
"2012-02-27 08:00","2012","02","27","08:00","3.6","","-3.1","","62","","24","","20","","24.1","","99.60","","","","","","Mostly Cloudy"
"2012-02-27 09:00","2012","02","27","09:00","4.6","","-2.9","","58","","23","","24","","24.1","","99.59","","","","","","Mostly Cloudy"
"2012-02-27 10:00","2012","02","27","10:00","6.2","","-4.0","","48","","25","","30","","24.1","","99.58","","","","","","Mainly Clear"
"2012-02-27 11:00","2012","02","27","11:00","7.8","","-5.0","","40","","25","","46","","24.1","","99.60","","","","","","Mainly Clear"
"2012-02-27 12:00","2012","02","27","12:00","7.9","","-6.3","","36","","27","","37","","24.1","","99.60","","","","","","Mainly Clear"
"2012-02-27 13:00","2012","02","27","13:00","7.1","","-6.2","","38","","28","","44","","24.1","","99.73","","","","","","Mainly Clear"
"2012-02-27 14:00","2012","02","27","14:00","4.8","","-5.7","","46","","30","","37","","24.1","","99.87","","","","","","Mostly Cloudy"
"2012-02-27 15:00","2012","02","27","15:00","2.6","","-6.3","","52","","28","","35","","24.1","","100.08","","","","","","Mostly Cloudy"
"2012-02-27 16:00","2012","02","27","16:00","2.0","","-6.1","","55","","30","","35","","24.1","","100.25","","","","","","Mostly Cloudy"
"2012-02-27 17:00","2012","02","27","17:00","1.8","","-5.9","","57","","28","","33","","24.1","","100.33","","","","","","Cloudy"
"2012-02-27 18:00","2012","02","27","18:00","1.4","","-5.5","","60","","27","","32","","24.1","","100.47","","","","","","Mostly Cloudy"
"2012-02-27 19:00","2012","02","27","19:00","1.1","","-5.3","","62","","28","","22","","24.1","","100.53","","","","","","Mostly Cloudy"
"2012-02-27 20:00","2012","02","27","20:00","1.0","","-5.2","","63","","29","","20","","24.1","","100.61","","","","","","Cloudy"
"2012-02-27 21:00","2012","02","27","21:00","0.6","","-5.3","","65","","27","","20","","24.1","","100.67","","","","","","Mostly Cloudy"
"2012-02-27 22:00","2012","02","27","22:00","0.1","","-5.1","","68","","26","","15","","24.1","","100.78","","","","","","Mainly Clear"
"2012-02-27 23:00","2012","02","27","23:00","-0.3","","-5.0","","71","","25","","11","","24.1","","100.85","","","","-4","","Mainly Clear"
"2012-02-28 00:00","2012","02","28","00:00","-0.4","","-5.1","","71","","25","","13","","24.1","","100.88","","","","-5","","Mainly Clear"
"2012-02-28 01:00","2012","02","28","01:00","-0.9","","-5.2","","73","","25","","11","","24.1","","100.90","","","","-5","","Mainly Clear"
"2012-02-28 02:00","2012","02","28","02:00","-1.2","","-5.1","","75","","24","","11","","24.1","","100.90","","","","-5","","Clear"
"2012-02-28 03:00","2012","02","28","03:00","-1.8","","-5.4","","76","","27","","9","","24.1","","100.90","","","","-5","","Clear"
"2012-02-28 04:00","2012","02","28","04:00","-2.3","","-5.7","","77","","28","","6","","24.1","","100.89","","","","-5","","Clear"
"2012-02-28 05:00","2012","02","28","05:00","-3.6","","-5.7","","85","","26","","7","","24.1","","100.97","","","","-7","","Clear"
"2012-02-28 06:00","2012","02","28","06:00","-4.1","","-5.8","","88","","20","","6","","24.1","","100.94","","","","-7","","Clear"
"2012-02-28 07:00","2012","02","28","07:00","-4.1","","-6.1","","86","","","","0","","12.9","","100.94","","","","","","Mainly Clear"
"2012-02-28 08:00","2012","02","28","08:00","-3.2","","-5.2","","86","","1","","6","","24.1","","101.01","","","","-6","","Mostly Cloudy"
"2012-02-28 09:00","2012","02","28","09:00","-0.6","","-4.3","","76","","4","","6","","24.1","","101.00","","","","-3","","Mostly Cloudy"
"2012-02-28 10:00","2012","02","28","10:00","0.9","","-4.2","","69","","12","","6","","24.1","","100.96","","","","","","Mainly Clear"
"2012-02-28 11:00","2012","02","28","11:00","2.0","","-3.6","","66","","13","","7","","24.1","","100.93","","","","","","Mostly Cloudy"
"2012-02-28 12:00","2012","02","28","12:00","3.7","","-3.8","","58","","14","","11","","24.1","","100.85","","","","","","Mostly Cloudy"
"2012-02-28 13:00","2012","02","28","13:00","3.8","","-3.1","","61","","17","","11","","24.1","","100.72","","","","","","Mostly Cloudy"
"2012-02-28 14:00","2012","02","28","14:00","3.9","","-4.9","","53","","15","","15","","24.1","","100.62","","","","","","Mostly Cloudy"
"2012-02-28 15:00","2012","02","28","15:00","3.9","","-4.3","","55","","17","","13","","24.1","","100.54","","","","","","Mostly Cloudy"
"2012-02-28 16:00","2012","02","28","16:00","3.8","","-4.1","","56","","16","","15","","24.1","","100.50","","","","","","Mostly Cloudy"
"2012-02-28 17:00","2012","02","28","17:00","3.4","","-5.2","","53","","13","","9","","24.1","","100.39","","","","","","Mostly Cloudy"
"2012-02-28 18:00","2012","02","28","18:00","2.4","","-3.8","","64","","10","","11","","24.1","","100.38","","","","","","Mostly Cloudy"
"2012-02-28 19:00","2012","02","28","19:00","2.0","","-4.1","","64","","9","","15","","24.1","","100.33","","","","","","Mostly Cloudy"
"2012-02-28 20:00","2012","02","28","20:00","1.6","","-3.8","","67","","9","","11","","24.1","","100.30","","","","","","Cloudy"
"2012-02-28 21:00","2012","02","28","21:00","1.4","","-3.6","","69","","12","","13","","24.1","","100.20","","","","","","Cloudy"
"2012-02-28 22:00","2012","02","28","22:00","1.2","","-4.3","","67","","10","","11","","24.1","","100.14","","","","","","Cloudy"
"2012-02-28 23:00","2012","02","28","23:00","1.1","","-3.4","","72","","11","","13","","24.1","","100.04","","","","","","Cloudy"
"2012-02-29 00:00","2012","02","29","00:00","1.2","","-4.0","","68","","9","","20","","24.1","","99.83","","","","","","Cloudy"
"2012-02-29 01:00","2012","02","29","01:00","1.3","","-3.3","","71","","9","","20","","24.1","","99.70","","","","","","Cloudy"
"2012-02-29 02:00","2012","02","29","02:00","1.6","","-3.0","","71","","9","","22","","24.1","","99.54","","","","","","Snow"
"2012-02-29 03:00","2012","02","29","03:00","1.2","","-2.3","","77","","10","","17","","19.3","","99.47","","","","","","Rain,Ice Pellets"
"2012-02-29 04:00","2012","02","29","04:00","0.7","","-1.1","","88","","10","","20","","19.3","","99.31","","","","","","Freezing Rain"
"2012-02-29 05:00","2012","02","29","05:00","0.4","","-0.6","","93","","9","","26","","9.7","","99.10","","","","","","Freezing Rain"
"2012-02-29 06:00","2012","02","29","06:00","0.5","","-0.2","","95","","10","","20","","9.7","","99.07","","","","","","Rain,Fog"
"2012-02-29 07:00","2012","02","29","07:00","0.7","","0.1","","96","","9","","17","","9.7","","98.91","","","","","","Rain,Fog"
"2012-02-29 08:00","2012","02","29","08:00","0.9","","0.6","","98","","9","","22","","6.4","","98.75","","","","","","Rain,Fog"
"2012-02-29 09:00","2012","02","29","09:00","1.4","","1.2","","99","","8","","22","","4.8","","98.63","","","","","","Rain,Fog"
"2012-02-29 10:00","2012","02","29","10:00","1.9","","1.6","","98","","10","","20","","8.0","","98.51","","","","","","Rain,Fog"
"2012-02-29 11:00","2012","02","29","11:00","2.4","","2.3","","99","","10","","26","","3.2","","98.37","","","","","","Drizzle,Fog"
"2012-02-29 12:00","2012","02","29","12:00","2.9","","2.9","","100","","10","","15","","2.4","","98.27","","","","","","Drizzle,Fog"
"2012-02-29 13:00","2012","02","29","13:00","3.6","","3.6","","100","","13","","17","","1.6","","98.20","","","","","","Drizzle,Fog"
"2012-02-29 14:00","2012","02","29","14:00","4.8","","4.8","","100","","12","","13","","1.0","","98.07","","","","","","Fog"
"2012-02-29 15:00","2012","02","29","15:00","5.6","","5.6","","100","","12","","15","","0.4","","97.97","","","","","","Fog"
"2012-02-29 16:00","2012","02","29","16:00","5.9","","5.9","","100","","10","","9","","0.4","","97.85","","","","","","Fog"
"2012-02-29 17:00","2012","02","29","17:00","6.3","","6.3","","100","","13","","13","","0.4","","97.77","","","","","","Fog"
"2012-02-29 18:00","2012","02","29","18:00","6.0","","6.0","","100","","10","","11","","0.2","","97.67","","","","","","Drizzle,Fog"
"2012-02-29 19:00","2012","02","29","19:00","5.2","","5.2","","100","","14","","11","","0.2","","97.67","","","","","","Drizzle,Fog"
"2012-02-29 20:00","2012","02","29","20:00","4.8","","4.8","","100","","16","","7","","0.2","","97.72","","","","","","Rain,Fog"
"2012-02-29 21:00","2012","02","29","21:00","4.4","","4.4","","100","","14","","13","","4.0","","97.60","","","","","","Rain Showers,Fog"
"2012-02-29 22:00","2012","02","29","22:00","6.2","","5.7","","97","","14","","7","","24.1","","97.57","","","","","","Rain Showers"
"2012-02-29 23:00","2012","02","29","23:00","7.7","","5.4","","85","","29","","17","","24.1","","97.77","","","","","","Rain Showers"
