"Station Name","WINDSOR A"
"Province","ONTARIO"
"Latitude","42.28"
"Longitude","-82.96"
"Elevation","189.60"
"Climate Identifier","6139525"
"WMO Identifier","71538"
"TC Identifier","YQG"
"All times are specified in Local Standard Time (LST). Add 1 hour to adjust for Daylight Saving Time where and when it is observed."

"Legend"
"E","Estimated"
"M","Missing"
"NA","Not Available"

"Date/Time","Year","Month","Day","Time","Temp (°C)","Temp Flag","Dew Point Temp (°C)","Dew Point Temp Flag","Rel Hum (%)","Rel Hum Flag","Wind Dir (10s deg)","Wind Dir Flag","Wind Spd (km/h)","Wind Spd Flag","Visibility (km)","Visibility Flag","Stn Press (kPa)","Stn Press Flag","Hmdx","Hmdx Flag","Wind Chill","Wind Chill Flag","Weather"
"2001-12-01 00:00","2001","12","01","00:00","6.6","","3.7","","82","","24","","26","","24.1","","98.88","","","","","","Cloudy"
"2001-12-01 01:00","2001","12","01","01:00","6.3","","3.9","","85","","23","","28","","11.3","","98.93","","","","","","Drizzle"
"2001-12-01 02:00","2001","12","01","02:00","6.4","","3.3","","81","","24","","33","","12.9","","98.96","","","","","","Drizzle"
"2001-12-01 03:00","2001","12","01","03:00","6.3","","2.8","","78","","24","","32","","24.1","","99.05","","","","","","Cloudy"
"2001-12-01 04:00","2001","12","01","04:00","5.9","","2.5","","79","","24","","30","","24.1","","99.10","","","","","","Cloudy"
"2001-12-01 05:00","2001","12","01","05:00","6.1","","1.8","","74","","24","","28","","24.1","","99.13","","","","","","Cloudy"
"2001-12-01 06:00","2001","12","01","06:00","6.1","","2.0","","75","","23","","26","","24.1","","99.20","","","","","","Cloudy"
"2001-12-01 07:00","2001","12","01","07:00","6.1","","2.5","","78","","24","","24","","24.1","","99.30","","","","","","Cloudy"
"2001-12-01 08:00","2001","12","01","08:00","6.2","","2.6","","78","","23","","28","","19.3","","99.37","","","","","","Mostly Cloudy"
"2001-12-01 09:00","2001","12","01","09:00","6.4","","2.7","","77","","24","","24","","19.3","","99.48","","","","","","Cloudy"
"2001-12-01 10:00","2001","12","01","10:00","6.6","","2.9","","77","","23","","26","","17.7","","99.53","","","","","","Cloudy"
"2001-12-01 11:00","2001","12","01","11:00","6.7","","3.0","","77","","24","","24","","24.1","","99.61","","","","","","Cloudy"
"2001-12-01 12:00","2001","12","01","12:00","6.8","","2.8","","76","","23","","26","","24.1","","99.61","","","","","","Cloudy"
"2001-12-01 13:00","2001","12","01","13:00","7.1","","2.6","","73","","24","","22","","24.1","","99.62","","","","","","Cloudy"
"2001-12-01 14:00","2001","12","01","14:00","7.2","","2.2","","70","","25","","19","","24.1","","99.64","","","","","","Cloudy"
"2001-12-01 15:00","2001","12","01","15:00","7.3","","2.1","","70","","25","","22","","24.1","","99.68","","","","","","Cloudy"
"2001-12-01 16:00","2001","12","01","16:00","7.1","","1.9","","69","","25","","20","","24.1","","99.77","","","","","","Mostly Cloudy"
"2001-12-01 17:00","2001","12","01","17:00","6.7","","2.0","","72","","25","","17","","24.1","","99.82","","","","","","Mostly Cloudy"
"2001-12-01 18:00","2001","12","01","18:00","6.6","","0.6","","65","","26","","20","","24.1","","99.92","","","","","","Mostly Cloudy"
"2001-12-01 19:00","2001","12","01","19:00","6.4","","0.0","","64","","26","","17","","24.1","","99.96","","","","","","Mostly Cloudy"
"2001-12-01 20:00","2001","12","01","20:00","6.2","","0.0","","64","","25","","19","","24.1","","100.00","","","","","","Mostly Cloudy"
"2001-12-01 21:00","2001","12","01","21:00","5.5","","0.1","","68","","26","","13","","19.3","","100.03","","","","","","Mostly Cloudy"
"2001-12-01 22:00","2001","12","01","22:00","5.1","","0.5","","72","","24","","9","","19.3","","100.08","","","","","","Cloudy"
"2001-12-01 23:00","2001","12","01","23:00","4.5","","0.9","","77","","23","","9","","12.9","","100.11","","","","","","Cloudy"
"2001-12-02 00:00","2001","12","02","00:00","4.2","","1.2","","81","","24","","9","","12.9","","100.14","","","","","","Cloudy"
"2001-12-02 01:00","2001","12","02","01:00","3.7","","1.1","","83","","23","","11","","11.3","","100.14","","","","","","Cloudy"
"2001-12-02 02:00","2001","12","02","02:00","3.5","","0.9","","83","","23","","9","","12.9","","100.16","","","","","","Cloudy"
"2001-12-02 03:00","2001","12","02","03:00","2.6","","0.5","","86","","23","","9","","11.3","","100.20","","","","","","Mostly Cloudy"
"2001-12-02 04:00","2001","12","02","04:00","2.2","","0.3","","87","","26","","6","","8.0","","100.21","","","","","","Fog"
"2001-12-02 05:00","2001","12","02","05:00","1.6","","-0.1","","88","","23","","7","","8.0","","100.22","","","","","","Fog"
"2001-12-02 06:00","2001","12","02","06:00","1.8","","0.1","","88","","26","","6","","6.4","","100.24","","","","","","Fog"
"2001-12-02 07:00","2001","12","02","07:00","2.6","","0.6","","87","","25","","6","","6.4","","100.29","","","","","","Fog"
"2001-12-02 08:00","2001","12","02","08:00","2.9","","0.9","","87","","25","","6","","3.2","","100.32","","","","","","Fog"
"2001-12-02 09:00","2001","12","02","09:00","3.0","","1.0","","87","","26","","7","","2.4","","100.38","","","","","","Fog"
"2001-12-02 10:00","2001","12","02","10:00","3.6","","1.1","","84","","29","","7","","2.8","","100.43","","","","","","Fog"
"2001-12-02 11:00","2001","12","02","11:00","5.4","","2.3","","80","","22","","4","","4.8","","100.42","","","","","","Fog"
"2001-12-02 12:00","2001","12","02","12:00","5.8","","2.9","","82","","20","","11","","8.0","","100.39","","","","","","Haze"
"2001-12-02 13:00","2001","12","02","13:00","5.4","","2.4","","81","","21","","11","","4.8","","100.33","","","","","","Haze"
"2001-12-02 14:00","2001","12","02","14:00","6.8","","3.2","","78","","23","","11","","6.4","","100.28","","","","","","Haze"
"2001-12-02 15:00","2001","12","02","15:00","7.5","","3.4","","75","","23","","11","","8.0","","100.27","","","","","","Haze"
"2001-12-02 16:00","2001","12","02","16:00","7.3","","3.5","","77","","20","","15","","12.9","","100.23","","","","","","Mainly Clear"
"2001-12-02 17:00","2001","12","02","17:00","6.3","","3.4","","82","","19","","7","","11.3","","100.22","","","","","","Mainly Clear"
"2001-12-02 18:00","2001","12","02","18:00","4.9","","2.9","","87","","17","","9","","11.3","","100.21","","","","","","Mainly Clear"
"2001-12-02 19:00","2001","12","02","19:00","4.8","","2.6","","86","","17","","11","","11.3","","100.15","","","","","","Mainly Clear"
"2001-12-02 20:00","2001","12","02","20:00","5.6","","3.2","","85","","19","","11","","11.3","","100.13","","","","","","Mostly Cloudy"
"2001-12-02 21:00","2001","12","02","21:00","5.3","","3.2","","86","","18","","11","","12.9","","100.08","","","","","","Mostly Cloudy"
"2001-12-02 22:00","2001","12","02","22:00","6.5","","3.5","","81","","21","","17","","12.9","","100.07","","","","","","Mostly Cloudy"
"2001-12-02 23:00","2001","12","02","23:00","6.6","","3.4","","80","","19","","19","","12.9","","99.99","","","","","","Mostly Cloudy"
"2001-12-03 00:00","2001","12","03","00:00","6.8","","3.5","","79","","20","","26","","12.9","","99.85","","","","","","Mostly Cloudy"
"2001-12-03 01:00","2001","12","03","01:00","7.2","","3.4","","77","","21","","22","","24.1","","99.81","","","","","","Mainly Clear"
"2001-12-03 02:00","2001","12","03","02:00","6.8","","2.9","","76","","21","","24","","24.1","","99.76","","","","","","Clear"
"2001-12-03 03:00","2001","12","03","03:00","6.2","","2.6","","78","","23","","19","","24.1","","99.80","","","","","","Clear"
"2001-12-03 04:00","2001","12","03","04:00","5.9","","2.6","","79","","22","","22","","24.1","","99.76","","","","","","Clear"
"2001-12-03 05:00","2001","12","03","05:00","5.6","","2.6","","81","","21","","20","","24.1","","99.69","","","","","","Mainly Clear"
"2001-12-03 06:00","2001","12","03","06:00","6.2","","2.7","","78","","22","","20","","19.3","","99.68","","","","","","Mostly Cloudy"
"2001-12-03 07:00","2001","12","03","07:00","6.0","","2.8","","80","","23","","13","","19.3","","99.76","","","","","","Clear"
"2001-12-03 08:00","2001","12","03","08:00","5.4","","2.6","","82","","22","","13","","12.9","","99.75","","","","","","Clear"
"2001-12-03 09:00","2001","12","03","09:00","6.9","","2.6","","74","","24","","17","","12.9","","99.77","","","","","","Clear"
"2001-12-03 10:00","2001","12","03","10:00","8.0","","2.9","","70","","24","","19","","19.3","","99.78","","","","","","Mainly Clear"
"2001-12-03 11:00","2001","12","03","11:00","9.4","","3.3","","66","","25","","19","","19.3","","99.81","","","","","","Mostly Cloudy"
"2001-12-03 12:00","2001","12","03","12:00","10.7","","3.8","","62","","26","","17","","19.3","","99.76","","","","","","Mostly Cloudy"
"2001-12-03 13:00","2001","12","03","13:00","12.0","","4.4","","60","","23","","9","","19.3","","99.74","","","","","","Mostly Cloudy"
"2001-12-03 14:00","2001","12","03","14:00","12.2","","5.3","","63","","22","","11","","19.3","","99.71","","","","","","Mostly Cloudy"
"2001-12-03 15:00","2001","12","03","15:00","12.4","","5.6","","63","","22","","11","","19.3","","99.73","","","","","","Mostly Cloudy"
"2001-12-03 16:00","2001","12","03","16:00","12.5","","5.9","","64","","23","","15","","24.1","","99.77","","","","","","Mostly Cloudy"
"2001-12-03 17:00","2001","12","03","17:00","10.7","","6.0","","73","","21","","11","","19.3","","99.82","","","","","","Mostly Cloudy"
"2001-12-03 18:00","2001","12","03","18:00","9.6","","5.5","","76","","22","","11","","19.3","","99.87","","","","","","Mostly Cloudy"
"2001-12-03 19:00","2001","12","03","19:00","8.8","","5.4","","79","","22","","15","","19.3","","99.89","","","","","","Mostly Cloudy"
"2001-12-03 20:00","2001","12","03","20:00","9.8","","5.9","","77","","23","","7","","19.3","","99.91","","","","","","Mostly Cloudy"
"2001-12-03 21:00","2001","12","03","21:00","8.8","","5.8","","81","","25","","4","","19.3","","99.91","","","","","","Mostly Cloudy"
"2001-12-03 22:00","2001","12","03","22:00","7.9","","5.5","","85","","21","","4","","16.1","","99.91","","","","","","Mostly Cloudy"
"2001-12-03 23:00","2001","12","03","23:00","8.1","","5.8","","85","","","","0","","16.1","","99.94","","","","","","Mostly Cloudy"
"2001-12-04 00:00","2001","12","04","00:00","7.3","","5.5","","88","","16","","4","","19.3","","99.96","","","","","","Cloudy"
"2001-12-04 01:00","2001","12","04","01:00","7.8","","6.0","","88","","14","","6","","12.9","","99.95","","","","","","Cloudy"
"2001-12-04 02:00","2001","12","04","02:00","7.5","","5.6","","88","","","","0","","12.9","","99.96","","","","","","Cloudy"
"2001-12-04 03:00","2001","12","04","03:00","8.3","","6.0","","85","","16","","6","","16.1","","99.94","","","","","","Mostly Cloudy"
"2001-12-04 04:00","2001","12","04","04:00","8.9","","5.9","","81","","18","","6","","19.3","","99.88","","","","","","Cloudy"
"2001-12-04 05:00","2001","12","04","05:00","8.8","","5.5","","80","","18","","7","","24.1","","99.85","","","","","","Cloudy"
"2001-12-04 06:00","2001","12","04","06:00","8.6","","5.0","","78","","18","","7","","24.1","","99.86","","","","","","Mostly Cloudy"
"2001-12-04 07:00","2001","12","04","07:00","9.6","","5.0","","73","","19","","15","","24.1","","99.85","","","","","","Mostly Cloudy"
"2001-12-04 08:00","2001","12","04","08:00","10.2","","4.9","","70","","20","","22","","19.3","","99.83","","","","","","Mostly Cloudy"
"2001-12-04 09:00","2001","12","04","09:00","9.5","","6.0","","79","","21","","20","","6.4","","99.88","","","","","","Rain Showers,Fog"
"2001-12-04 10:00","2001","12","04","10:00","9.6","","7.0","","84","","21","","15","","9.7","","99.85","","","","","","Haze"
"2001-12-04 11:00","2001","12","04","11:00","12.1","","7.6","","74","","21","","24","","19.3","","99.80","","","","","","Mostly Cloudy"
"2001-12-04 12:00","2001","12","04","12:00","12.4","","9.8","","84","","21","","28","","19.3","","99.70","","","","","","Mostly Cloudy"
"2001-12-04 13:00","2001","12","04","13:00","12.8","","9.8","","82","","22","","24","","16.1","","99.68","","","","","","Mostly Cloudy"
"2001-12-04 14:00","2001","12","04","14:00","13.4","","9.5","","77","","22","","20","","19.3","","99.67","","","","","","Cloudy"
"2001-12-04 15:00","2001","12","04","15:00","14.3","","10.3","","77","","23","","20","","19.3","","99.66","","","","","","Mostly Cloudy"
"2001-12-04 16:00","2001","12","04","16:00","14.2","","10.6","","79","","22","","20","","16.1","","99.69","","","","","","Mainly Clear"
"2001-12-04 17:00","2001","12","04","17:00","13.5","","10.5","","82","","23","","19","","12.9","","99.74","","","","","","Mostly Cloudy"
"2001-12-04 18:00","2001","12","04","18:00","12.7","","10.4","","86","","22","","13","","19.3","","99.78","","","","","","Mostly Cloudy"
"2001-12-04 19:00","2001","12","04","19:00","12.7","","10.6","","87","","22","","19","","19.3","","99.82","","","","","","Mostly Cloudy"
"2001-12-04 20:00","2001","12","04","20:00","13.4","","10.5","","83","","21","","20","","19.3","","99.86","","","","","","Mostly Cloudy"
"2001-12-04 21:00","2001","12","04","21:00","12.5","","10.1","","85","","21","","20","","16.1","","99.90","","","","","","Mostly Cloudy"
"2001-12-04 22:00","2001","12","04","22:00","12.5","","10.0","","85","","22","","17","","16.1","","99.90","","","","","","Mostly Cloudy"
"2001-12-04 23:00","2001","12","04","23:00","12.3","","10.0","","86","","22","","15","","19.3","","99.93","","","","","","Mostly Cloudy"
"2001-12-05 00:00","2001","12","05","00:00","12.4","","10.1","","86","","21","","15","","12.9","","99.95","","","","","","Cloudy"
"2001-12-05 01:00","2001","12","05","01:00","12.4","","10.1","","86","","21","","9","","19.3","","99.97","","","","","","Cloudy"
"2001-12-05 02:00","2001","12","05","02:00","12.0","","10.2","","89","","21","","6","","19.3","","99.98","","","","","","Cloudy"
"2001-12-05 03:00","2001","12","05","03:00","11.5","","9.9","","90","","18","","7","","19.3","","99.98","","","","","","Mostly Cloudy"
"2001-12-05 04:00","2001","12","05","04:00","11.3","","9.6","","89","","19","","7","","19.3","","99.95","","","","","","Mostly Cloudy"
"2001-12-05 05:00","2001","12","05","05:00","11.4","","9.4","","87","","20","","13","","19.3","","99.93","","","","","","Mainly Clear"
"2001-12-05 06:00","2001","12","05","06:00","12.4","","9.6","","83","","22","","13","","19.3","","99.94","","","","","","Mostly Cloudy"
"2001-12-05 07:00","2001","12","05","07:00","12.2","","9.5","","84","","20","","11","","19.3","","99.94","","","","","","Mostly Cloudy"
"2001-12-05 08:00","2001","12","05","08:00","12.4","","9.5","","82","","22","","15","","24.1","","99.95","","","","","","Mostly Cloudy"
"2001-12-05 09:00","2001","12","05","09:00","13.6","","9.7","","77","","22","","24","","24.1","","99.91","","","","","","Mostly Cloudy"
"2001-12-05 10:00","2001","12","05","10:00","14.8","","10.1","","73","","21","","24","","24.1","","99.91","","","","","","Mostly Cloudy"
"2001-12-05 11:00","2001","12","05","11:00","15.2","","10.1","","72","","22","","26","","24.1","","99.86","","","","","","Mostly Cloudy"
"2001-12-05 12:00","2001","12","05","12:00","16.1","","10.2","","68","","22","","28","","24.1","","99.73","","","","","","Mostly Cloudy"
"2001-12-05 13:00","2001","12","05","13:00","16.1","","9.5","","65","","22","","28","","24.1","","99.64","","","","","","Mostly Cloudy"
"2001-12-05 14:00","2001","12","05","14:00","17.6","","10.1","","61","","21","","28","","24.1","","99.55","","","","","","Mainly Clear"
"2001-12-05 15:00","2001","12","05","15:00","17.6","","10.0","","61","","21","","35","","24.1","","99.49","","","","","","Mainly Clear"
"2001-12-05 16:00","2001","12","05","16:00","17.5","","10.0","","61","","21","","28","","16.1","","99.45","","","","","","Mainly Clear"
"2001-12-05 17:00","2001","12","05","17:00","16.6","","9.1","","61","","22","","30","","16.1","","99.42","","","","","","Mainly Clear"
"2001-12-05 18:00","2001","12","05","18:00","15.5","","8.2","","62","","20","","24","","24.1","","99.37","","","","","","Mostly Cloudy"
"2001-12-05 19:00","2001","12","05","19:00","16.0","","6.5","","53","","21","","37","","24.1","","99.31","","","","","","Mostly Cloudy"
"2001-12-05 20:00","2001","12","05","20:00","14.3","","6.3","","59","","21","","28","","24.1","","99.30","","","","","","Mainly Clear"
"2001-12-05 21:00","2001","12","05","21:00","14.3","","6.3","","59","","22","","32","","24.1","","99.26","","","","","","Mostly Cloudy"
"2001-12-05 22:00","2001","12","05","22:00","14.0","","5.9","","58","","22","","32","","24.1","","99.15","","","","","","Mainly Clear"
"2001-12-05 23:00","2001","12","05","23:00","13.5","","5.8","","60","","22","","28","","25.0","","99.15","","","","","","Mostly Cloudy"
"2001-12-06 00:00","2001","12","06","00:00","14.6","","5.4","","54","","22","","30","","24.1","","99.10","","","","","","Mostly Cloudy"
"2001-12-06 01:00","2001","12","06","01:00","14.6","","6.3","","57","","22","","26","","25.0","","99.06","","","","","","Cloudy"
"2001-12-06 02:00","2001","12","06","02:00","16.2","","7.4","","56","","24","","35","","25.0","","99.07","","","","","","Cloudy"
"2001-12-06 03:00","2001","12","06","03:00","14.3","","9.7","","74","","29","","41","","24.1","","99.24","","","","","","Rain Showers"
"2001-12-06 04:00","2001","12","06","04:00","13.1","","6.6","","65","","27","","33","","24.1","","99.31","","","","","","Rain Showers"
"2001-12-06 05:00","2001","12","06","05:00","12.5","","-0.2","","42","","28","","32","","24.1","","99.41","","","","","","Cloudy"
"2001-12-06 06:00","2001","12","06","06:00","11.6","","-0.9","","42","","27","","13","","24.1","","99.51","","","","","","Mostly Cloudy"
"2001-12-06 07:00","2001","12","06","07:00","10.9","","-4.4","","34","","27","","15","","25.0","","99.60","","","","","","Cloudy"
"2001-12-06 08:00","2001","12","06","08:00","10.0","","-4.4","","36","","28","","19","","24.1","","99.67","","","","","","Mostly Cloudy"
"2001-12-06 09:00","2001","12","06","09:00","9.5","","-4.1","","38","","28","","24","","24.1","","99.71","","","","","","Mostly Cloudy"
"2001-12-06 10:00","2001","12","06","10:00","9.1","","-4.5","","38","","27","","19","","24.1","","99.73","","","","","","Mostly Cloudy"
"2001-12-06 11:00","2001","12","06","11:00","8.8","","-1.7","","48","","26","","17","","24.1","","99.71","","","","","","Mostly Cloudy"
"2001-12-06 12:00","2001","12","06","12:00","8.7","","-3.0","","44","","26","","19","","24.1","","99.67","","","","","","Mostly Cloudy"
"2001-12-06 13:00","2001","12","06","13:00","8.8","","-3.0","","43","","25","","20","","24.1","","99.60","","","","","","Mostly Cloudy"
"2001-12-06 14:00","2001","12","06","14:00","9.7","","-3.9","","38","","25","","15","","24.1","","99.56","","","","","","Mainly Clear"
"2001-12-06 15:00","2001","12","06","15:00","9.6","","-1.4","","46","","26","","13","","24.1","","99.47","","","","","","Mainly Clear"
"2001-12-06 16:00","2001","12","06","16:00","9.0","","-1.0","","49","","22","","17","","25.0","","99.41","","","","","","Mainly Clear"
"2001-12-06 17:00","2001","12","06","17:00","7.0","","1.1","","66","","22","","11","","19.3","","99.41","","","","","","Mainly Clear"
"2001-12-06 18:00","2001","12","06","18:00","5.5","","0.5","","70","","21","","11","","24.1","","99.40","","","","","","Mainly Clear"
"2001-12-06 19:00","2001","12","06","19:00","4.9","","-0.3","","69","","22","","9","","25.0","","99.39","","","","","","Clear"
"2001-12-06 20:00","2001","12","06","20:00","3.1","","-0.6","","77","","19","","6","","25.0","","99.35","","","","","","Clear"
"2001-12-06 21:00","2001","12","06","21:00","2.8","","-0.1","","81","","21","","4","","25.0","","99.26","","","","","","Clear"
"2001-12-06 22:00","2001","12","06","22:00","2.3","","-0.4","","82","","","","0","","25.0","","99.21","","","","","","Mainly Clear"
"2001-12-06 23:00","2001","12","06","23:00","3.7","","1.6","","86","","26","","7","","25.0","","99.22","","","","","","Mainly Clear"
"2001-12-07 00:00","2001","12","07","00:00","6.0","","1.7","","74","","27","","15","","25.0","","99.22","","","","","","Mainly Clear"
"2001-12-07 01:00","2001","12","07","01:00","4.9","","1.3","","77","","26","","9","","25.0","","99.20","","","","","","Clear"
"2001-12-07 02:00","2001","12","07","02:00","4.4","","1.7","","83","","25","","11","","24.1","","99.22","","","","","","Mainly Clear"
"2001-12-07 03:00","2001","12","07","03:00","4.5","","2.1","","84","","26","","11","","24.1","","99.25","","","","","","Mainly Clear"
"2001-12-07 04:00","2001","12","07","04:00","4.2","","2.4","","88","","26","","11","","19.3","","99.26","","","","","","Clear"
"2001-12-07 05:00","2001","12","07","05:00","3.3","","1.9","","91","","27","","11","","16.1","","99.32","","","","","","Clear"
"2001-12-07 06:00","2001","12","07","06:00","2.7","","1.6","","92","","28","","7","","12.9","","99.37","","","","","","Clear"
"2001-12-07 07:00","2001","12","07","07:00","2.9","","1.9","","93","","28","","7","","11.3","","99.45","","","","","","Clear"
"2001-12-07 08:00","2001","12","07","08:00","2.7","","2.0","","95","","26","","7","","9.7","","99.53","","","","","","Fog"
"2001-12-07 09:00","2001","12","07","09:00","3.5","","2.7","","94","","27","","6","","8.0","","99.60","","","","","","Fog"
"2001-12-07 10:00","2001","12","07","10:00","3.9","","3.2","","95","","27","","11","","3.2","","99.67","","","","","","Fog"
"2001-12-07 11:00","2001","12","07","11:00","3.7","","3.6","","99","","27","","9","","1.2","","99.71","","","","","","Fog"
"2001-12-07 12:00","2001","12","07","12:00","5.7","","4.3","","91","","27","","7","","2.4","","99.67","","","","","","Fog"
"2001-12-07 13:00","2001","12","07","13:00","5.9","","4.4","","90","","29","","11","","3.2","","99.71","","","","","","Fog"
"2001-12-07 14:00","2001","12","07","14:00","6.6","","4.2","","85","","28","","9","","8.0","","99.71","","","","","","Haze"
"2001-12-07 15:00","2001","12","07","15:00","6.7","","4.0","","83","","31","","9","","9.7","","99.72","","","","","","Haze"
"2001-12-07 16:00","2001","12","07","16:00","6.7","","3.3","","79","","","","0","","9.7","","99.78","","","","","","Haze"
"2001-12-07 17:00","2001","12","07","17:00","6.1","","1.8","","74","","7","","20","","16.1","","99.80","","","","","","Mostly Cloudy"
"2001-12-07 18:00","2001","12","07","18:00","5.6","","2.8","","82","","6","","22","","24.1","","99.88","","","","","","Mostly Cloudy"
"2001-12-07 19:00","2001","12","07","19:00","4.2","","1.8","","84","","6","","22","","25.0","","99.91","","","","","","Mostly Cloudy"
"2001-12-07 20:00","2001","12","07","20:00","3.7","","1.3","","84","","6","","20","","25.0","","99.98","","","","","","Mostly Cloudy"
"2001-12-07 21:00","2001","12","07","21:00","3.0","","0.7","","85","","6","","15","","25.0","","99.99","","","","","","Mostly Cloudy"
"2001-12-07 22:00","2001","12","07","22:00","2.9","","0.1","","82","","6","","17","","25.0","","99.93","","","","","","Mainly Clear"
"2001-12-07 23:00","2001","12","07","23:00","2.8","","-0.6","","78","","6","","17","","25.0","","99.96","","","","","","Mostly Cloudy"
"2001-12-08 00:00","2001","12","08","00:00","2.1","","-0.7","","82","","7","","20","","25.0","","99.97","","","","","","Mostly Cloudy"
"2001-12-08 01:00","2001","12","08","01:00","2.2","","-1.3","","78","","7","","20","","25.0","","99.91","","","","","","Mostly Cloudy"
"2001-12-08 02:00","2001","12","08","02:00","1.8","","-1.3","","80","","9","","19","","25.0","","99.90","","","","","","Mostly Cloudy"
"2001-12-08 03:00","2001","12","08","03:00","1.0","","-2.2","","79","","10","","13","","25.0","","99.91","","","","","","Mostly Cloudy"
"2001-12-08 04:00","2001","12","08","04:00","1.2","","-3.0","","74","","9","","13","","25.0","","99.81","","","","","","Mostly Cloudy"
"2001-12-08 05:00","2001","12","08","05:00","1.9","","-1.0","","81","","7","","13","","25.0","","99.74","","","","","","Cloudy"
"2001-12-08 06:00","2001","12","08","06:00","3.0","","0.7","","85","","7","","15","","25.0","","99.69","","","","","","Cloudy"
"2001-12-08 07:00","2001","12","08","07:00","2.8","","0.7","","86","","7","","15","","24.1","","99.65","","","","","","Cloudy"
"2001-12-08 08:00","2001","12","08","08:00","3.0","","1.1","","87","","7","","17","","19.3","","99.58","","","","","","Cloudy"
"2001-12-08 09:00","2001","12","08","09:00","3.6","","1.9","","89","","7","","15","","19.3","","99.55","","","","","","Cloudy"
"2001-12-08 10:00","2001","12","08","10:00","4.4","","2.4","","87","","7","","17","","19.3","","99.50","","","","","","Mostly Cloudy"
"2001-12-08 11:00","2001","12","08","11:00","4.8","","2.5","","85","","3","","20","","19.3","","99.48","","","","","","Mostly Cloudy"
"2001-12-08 12:00","2001","12","08","12:00","4.3","","2.2","","86","","3","","19","","19.3","","99.39","","","","","","Cloudy"
"2001-12-08 13:00","2001","12","08","13:00","4.9","","2.1","","82","","4","","17","","19.3","","99.29","","","","","","Mostly Cloudy"
"2001-12-08 14:00","2001","12","08","14:00","4.5","","1.7","","82","","5","","17","","16.1","","99.24","","","","","","Cloudy"
"2001-12-08 15:00","2001","12","08","15:00","4.4","","1.6","","82","","3","","19","","16.1","","99.18","","","","","","Cloudy"
"2001-12-08 16:00","2001","12","08","16:00","4.5","","2.1","","84","","6","","17","","11.3","","99.18","","","","","","Cloudy"
"2001-12-08 17:00","2001","12","08","17:00","4.4","","2.2","","86","","6","","6","","11.3","","99.21","","","","","","Cloudy"
"2001-12-08 18:00","2001","12","08","18:00","4.4","","2.4","","87","","9","","6","","16.1","","99.26","","","","","","Cloudy"
"2001-12-08 19:00","2001","12","08","19:00","4.4","","1.9","","84","","36","","9","","16.1","","99.29","","","","","","Cloudy"
"2001-12-08 20:00","2001","12","08","20:00","4.0","","1.4","","83","","34","","4","","16.1","","99.31","","","","","","Cloudy"
"2001-12-08 21:00","2001","12","08","21:00","4.2","","1.5","","83","","29","","6","","16.1","","99.34","","","","","","Cloudy"
"2001-12-08 22:00","2001","12","08","22:00","4.1","","2.0","","86","","29","","9","","16.1","","99.34","","","","","","Cloudy"
"2001-12-08 23:00","2001","12","08","23:00","4.4","","2.1","","85","","29","","15","","16.1","","99.35","","","","","","Rain Showers"
"2001-12-09 00:00","2001","12","09","00:00","3.5","","1.3","","85","","29","","20","","19.3","","99.41","","","","","","Mostly Cloudy"
"2001-12-09 01:00","2001","12","09","01:00","3.1","","1.2","","87","","30","","17","","16.1","","99.43","","","","","","Mostly Cloudy"
"2001-12-09 02:00","2001","12","09","02:00","3.1","","1.0","","86","","30","","17","","11.3","","99.51","","","","","","Rain Showers"
"2001-12-09 03:00","2001","12","09","03:00","2.6","","1.5","","92","","29","","17","","8.0","","99.61","","","","","","Rain Showers,Fog"
"2001-12-09 04:00","2001","12","09","04:00","2.7","","0.9","","88","","33","","17","","12.9","","99.65","","","","","","Mostly Cloudy"
"2001-12-09 05:00","2001","12","09","05:00","2.1","","0.2","","87","","34","","15","","14.5","","99.70","","","","","","Mainly Clear"
"2001-12-09 06:00","2001","12","09","06:00","2.0","","-0.8","","82","","34","","19","","19.3","","99.82","","","","","","Cloudy"
"2001-12-09 07:00","2001","12","09","07:00","1.9","","-1.8","","76","","34","","15","","24.1","","99.91","","","","","","Cloudy"
"2001-12-09 08:00","2001","12","09","08:00","1.2","","-1.8","","80","","33","","11","","20.9","","100.04","","","","","","Mostly Cloudy"
"2001-12-09 09:00","2001","12","09","09:00","1.9","","-1.5","","78","","32","","9","","24.1","","100.13","","","","","","Mainly Clear"
"2001-12-09 10:00","2001","12","09","10:00","2.4","","-1.5","","75","","36","","15","","25.0","","100.20","","","","","","Mainly Clear"
"2001-12-09 11:00","2001","12","09","11:00","3.4","","-2.2","","67","","35","","11","","25.0","","100.24","","","","","","Mainly Clear"
"2001-12-09 12:00","2001","12","09","12:00","3.9","","-2.1","","65","","30","","6","","25.0","","100.23","","","","","","Mostly Cloudy"
"2001-12-09 13:00","2001","12","09","13:00","4.6","","-2.9","","58","","35","","6","","25.0","","100.18","","","","","","Mostly Cloudy"
"2001-12-09 14:00","2001","12","09","14:00","5.2","","-3.4","","54","","34","","9","","24.1","","100.16","","","","","","Mostly Cloudy"
"2001-12-09 15:00","2001","12","09","15:00","4.7","","-3.3","","56","","27","","9","","24.1","","100.14","","","","","","Mainly Clear"
"2001-12-09 16:00","2001","12","09","16:00","4.5","","-3.4","","56","","24","","4","","24.1","","100.18","","","","","","Mainly Clear"
"2001-12-09 17:00","2001","12","09","17:00","3.4","","-2.8","","64","","20","","9","","24.1","","100.19","","","","","","Clear"
"2001-12-09 18:00","2001","12","09","18:00","2.5","","-1.5","","75","","20","","9","","24.1","","100.21","","","","","","Clear"
"2001-12-09 19:00","2001","12","09","19:00","1.5","","-1.6","","80","","20","","11","","25.0","","100.21","","","","","","Clear"
"2001-12-09 20:00","2001","12","09","20:00","1.2","","-1.7","","81","","20","","9","","25.0","","100.23","","","","","","Clear"
"2001-12-09 21:00","2001","12","09","21:00","0.5","","-2.0","","83","","20","","7","","24.1","","100.25","","","","","","Clear"
"2001-12-09 22:00","2001","12","09","22:00","0.8","","-1.8","","83","","19","","13","","25.0","","100.24","","","","","","Clear"
"2001-12-09 23:00","2001","12","09","23:00","0.7","","-1.5","","85","","23","","7","","24.1","","100.23","","","","","","Clear"
"2001-12-10 00:00","2001","12","10","00:00","0.4","","-1.6","","86","","21","","7","","24.1","","100.19","","","","","","Clear"
"2001-12-10 01:00","2001","12","10","01:00","-0.6","","-2.1","","90","","19","","4","","24.1","","100.13","","","","-2","","Clear"
"2001-12-10 02:00","2001","12","10","02:00","-0.5","","-1.8","","91","","19","","7","","24.1","","100.09","","","","-3","","Clear"
"2001-12-10 03:00","2001","12","10","03:00","0.1","","-1.6","","88","","20","","7","","19.3","","100.11","","","","","","Clear"
"2001-12-10 04:00","2001","12","10","04:00","-0.2","","-1.7","","90","","19","","7","","16.1","","100.04","","","","-3","","Clear"
"2001-12-10 05:00","2001","12","10","05:00","-0.8","","-2.1","","91","","21","","6","","16.1","","100.03","","","","-3","","Clear"
"2001-12-10 06:00","2001","12","10","06:00","-0.9","","-1.9","","93","","26","","6","","12.9","","100.02","","","","-3","","Clear"
"2001-12-10 07:00","2001","12","10","07:00","-0.9","","-1.6","","95","","26","","4","","9.7","","100.02","","","","-2","","Fog"
"2001-12-10 08:00","2001","12","10","08:00","-0.6","","-1.7","","92","","26","","6","","4.0","","100.03","","","","-3","","Fog"
"2001-12-10 09:00","2001","12","10","09:00","0.8","","-1.2","","86","","25","","6","","6.4","","100.01","","","","","","Fog"
"2001-12-10 10:00","2001","12","10","10:00","2.6","","-0.6","","79","","23","","7","","9.7","","99.99","","","","","","Haze"
"2001-12-10 11:00","2001","12","10","11:00","3.9","","-0.3","","74","","23","","11","","11.3","","99.98","","","","","","Clear"
"2001-12-10 12:00","2001","12","10","12:00","5.4","","-0.5","","66","","25","","9","","11.3","","99.92","","","","","","Clear"
"2001-12-10 13:00","2001","12","10","13:00","6.1","","-0.6","","62","","23","","17","","19.3","","99.83","","","","","","Mainly Clear"
"2001-12-10 14:00","2001","12","10","14:00","6.1","","-1.3","","59","","22","","19","","19.3","","99.79","","","","","","Mainly Clear"
"2001-12-10 15:00","2001","12","10","15:00","6.4","","-0.1","","63","","21","","19","","19.3","","99.74","","","","","","Clear"
"2001-12-10 16:00","2001","12","10","16:00","5.7","","-0.1","","66","","20","","17","","19.3","","99.73","","","","","","Clear"
"2001-12-10 17:00","2001","12","10","17:00","4.7","","-0.1","","71","","20","","11","","19.3","","99.74","","","","","","Clear"
"2001-12-10 18:00","2001","12","10","18:00","3.5","","0.1","","78","","20","","11","","19.3","","99.79","","","","","","Clear"
"2001-12-10 19:00","2001","12","10","19:00","3.2","","0.0","","79","","20","","13","","19.3","","99.88","","","","","","Clear"
"2001-12-10 20:00","2001","12","10","20:00","2.6","","-0.2","","82","","24","","9","","19.3","","99.87","","","","","","Clear"
"2001-12-10 21:00","2001","12","10","21:00","1.4","","-0.4","","88","","21","","11","","19.3","","99.88","","","","","","Clear"
"2001-12-10 22:00","2001","12","10","22:00","2.2","","-0.5","","82","","23","","15","","19.3","","99.93","","","","","","Clear"
"2001-12-10 23:00","2001","12","10","23:00","2.5","","-0.8","","79","","23","","15","","19.3","","99.93","","","","","","Clear"
"2001-12-11 00:00","2001","12","11","00:00","1.8","","-1.0","","82","","24","","11","","24.1","","100.00","","","","","","Clear"
"2001-12-11 01:00","2001","12","11","01:00","1.2","","-1.1","","85","","25","","9","","12.9","","100.04","","","","","","Clear"
"2001-12-11 02:00","2001","12","11","02:00","0.4","","-1.5","","87","","22","","4","","12.9","","100.10","","","","","","Clear"
"2001-12-11 03:00","2001","12","11","03:00","-1.3","","-2.4","","92","","27","","4","","12.9","","100.13","","","","-3","","Clear"
"2001-12-11 04:00","2001","12","11","04:00","0.0","","-1.9","","87","","30","","15","","12.9","","100.13","","","","-4","","Clear"
"2001-12-11 05:00","2001","12","11","05:00","0.8","","-2.4","","79","","30","","11","","12.9","","100.16","","","","","","Clear"
"2001-12-11 06:00","2001","12","11","06:00","0.6","","-2.4","","80","","33","","7","","12.9","","100.18","","","","","","Clear"
"2001-12-11 07:00","2001","12","11","07:00","0.5","","-2.6","","80","","","","0","","12.9","","100.25","","","","","","Clear"
"2001-12-11 08:00","2001","12","11","08:00","-0.5","","-2.4","","87","","6","","4","","8.0","","100.34","","","","-2","","Fog"
"2001-12-11 09:00","2001","12","11","09:00","1.7","","-1.7","","78","","","","0","","9.7","","100.44","","","","","","Haze"
"2001-12-11 10:00","2001","12","11","10:00","3.3","","-0.3","","77","","4","","11","","9.7","","100.50","","","","","","Haze"
"2001-12-11 11:00","2001","12","11","11:00","5.1","","1.6","","78","","9","","11","","12.9","","100.52","","","","","","Clear"
"2001-12-11 12:00","2001","12","11","12:00","5.6","","0.7","","71","","7","","13","","12.9","","100.51","","","","","","Clear"
"2001-12-11 13:00","2001","12","11","13:00","6.2","","1.5","","72","","11","","9","","12.9","","100.48","","","","","","Clear"
"2001-12-11 14:00","2001","12","11","14:00","7.2","","1.0","","65","","13","","13","","16.1","","100.45","","","","","","Clear"
"2001-12-11 15:00","2001","12","11","15:00","7.6","","1.2","","64","","14","","9","","19.3","","100.46","","","","","","Clear"
"2001-12-11 16:00","2001","12","11","16:00","7.8","","1.4","","64","","16","","4","","19.3","","100.51","","","","","","Clear"
"2001-12-11 17:00","2001","12","11","17:00","6.3","","1.5","","71","","7","","7","","12.9","","100.48","","","","","","Clear"
"2001-12-11 18:00","2001","12","11","18:00","4.3","","2.1","","86","","10","","7","","12.9","","100.49","","","","","","Clear"
"2001-12-11 19:00","2001","12","11","19:00","2.7","","1.3","","90","","11","","4","","12.9","","100.47","","","","","","Clear"
"2001-12-11 20:00","2001","12","11","20:00","1.7","","1.1","","96","","8","","9","","11.3","","100.48","","","","","","Clear"
"2001-12-11 21:00","2001","12","11","21:00","1.5","","0.8","","95","","7","","11","","11.3","","100.49","","","","","","Clear"
"2001-12-11 22:00","2001","12","11","22:00","2.2","","1.7","","96","","10","","11","","6.4","","100.40","","","","","","Fog"
"2001-12-11 23:00","2001","12","11","23:00","1.8","","1.3","","96","","9","","9","","4.8","","100.41","","","","","","Fog"
"2001-12-12 00:00","2001","12","12","00:00","0.9","","0.6","","98","","7","","4","","4.8","","100.44","","","","","","Fog"
"2001-12-12 01:00","2001","12","12","01:00","-0.2","","-0.2","","100","","","","0","","0.4","","100.40","","","","","","Freezing Fog"
"2001-12-12 02:00","2001","12","12","02:00","0.5","","0.5","","100","","10","","6","","0.2","","100.34","","","","","","Fog"
"2001-12-12 03:00","2001","12","12","03:00","0.5","","0.5","","100","","9","","6","","0.2","","100.29","","","","","","Fog"
"2001-12-12 04:00","2001","12","12","04:00","1.0","","1.0","","100","","","","0","","0.2","","100.21","","","","","","Fog"
"2001-12-12 05:00","2001","12","12","05:00","0.7","","0.7","","100","","","","0","","0.4","","100.18","","","","","","Fog"
"2001-12-12 06:00","2001","12","12","06:00","1.5","","1.5","","100","","","","0","","12.9","","100.16","","","","","","Mostly Cloudy"
"2001-12-12 07:00","2001","12","12","07:00","2.0","","1.9","","99","","","","0","","12.9","","100.17","","","","","","Cloudy"
"2001-12-12 08:00","2001","12","12","08:00","3.6","","3.4","","99","","","","0","","8.0","","100.21","","","","","","Fog"
"2001-12-12 09:00","2001","12","12","09:00","4.6","","4.0","","96","","14","","7","","11.3","","100.12","","","","","","Cloudy"
"2001-12-12 10:00","2001","12","12","10:00","5.0","","4.0","","93","","14","","11","","11.3","","100.09","","","","","","Cloudy"
"2001-12-12 11:00","2001","12","12","11:00","5.8","","4.6","","92","","14","","7","","9.7","","100.01","","","","","","Fog"
"2001-12-12 12:00","2001","12","12","12:00","6.7","","5.4","","91","","15","","9","","6.4","","99.83","","","","","","Fog"
"2001-12-12 13:00","2001","12","12","13:00","7.9","","5.8","","87","","18","","11","","9.7","","99.69","","","","","","Haze"
"2001-12-12 14:00","2001","12","12","14:00","8.3","","5.8","","84","","19","","7","","9.7","","99.61","","","","","","Haze"
"2001-12-12 15:00","2001","12","12","15:00","8.1","","6.0","","87","","18","","9","","9.7","","99.56","","","","","","Rain,Haze"
"2001-12-12 16:00","2001","12","12","16:00","8.2","","6.4","","88","","20","","9","","6.4","","99.56","","","","","","Rain,Fog"
"2001-12-12 17:00","2001","12","12","17:00","7.9","","6.8","","93","","21","","9","","6.4","","99.53","","","","","","Rain,Fog"
"2001-12-12 18:00","2001","12","12","18:00","7.6","","7.0","","96","","18","","9","","4.8","","99.49","","","","","","Rain,Fog"
"2001-12-12 19:00","2001","12","12","19:00","7.8","","7.6","","99","","18","","9","","4.8","","99.45","","","","","","Rain,Fog"
"2001-12-12 20:00","2001","12","12","20:00","7.9","","7.8","","99","","18","","7","","4.8","","99.39","","","","","","Rain,Fog"
"2001-12-12 21:00","2001","12","12","21:00","8.4","","8.2","","99","","19","","15","","4.8","","99.36","","","","","","Rain,Fog"
"2001-12-12 22:00","2001","12","12","22:00","8.7","","8.5","","99","","19","","7","","4.8","","99.23","","","","","","Rain,Fog"
"2001-12-12 23:00","2001","12","12","23:00","8.5","","8.5","","100","","15","","6","","2.4","","99.12","","","","","","Rain,Fog"
"2001-12-13 00:00","2001","12","13","00:00","9.0","","8.8","","99","","18","","13","","4.8","","99.07","","","","","","Rain,Fog"
"2001-12-13 01:00","2001","12","13","01:00","9.3","","9.1","","99","","19","","15","","4.8","","98.94","","","","","","Rain,Fog"
"2001-12-13 02:00","2001","12","13","02:00","9.1","","8.9","","99","","18","","15","","4.8","","98.78","","","","","","Fog"
"2001-12-13 03:00","2001","12","13","03:00","9.2","","8.9","","98","","20","","19","","4.8","","98.80","","","","","","Fog"
"2001-12-13 04:00","2001","12","13","04:00","9.2","","9.0","","99","","20","","17","","1.6","","98.68","","","","","","Drizzle,Fog"
"2001-12-13 05:00","2001","12","13","05:00","9.1","","9.1","","100","","20","","20","","1.2","","98.63","","","","","","Drizzle,Fog"
"2001-12-13 06:00","2001","12","13","06:00","9.2","","9.1","","99","","21","","20","","1.6","","98.59","","","","","","Drizzle,Fog"
"2001-12-13 07:00","2001","12","13","07:00","9.8","","9.6","","99","","22","","22","","1.6","","98.56","","","","","","Drizzle,Fog"
"2001-12-13 08:00","2001","12","13","08:00","10.1","","9.9","","99","","22","","22","","2.0","","98.57","","","","","","Drizzle,Fog"
"2001-12-13 09:00","2001","12","13","09:00","10.2","","9.9","","98","","24","","19","","2.0","","98.65","","","","","","Drizzle,Fog"
"2001-12-13 10:00","2001","12","13","10:00","11.0","","9.6","","91","","26","","28","","11.3","","98.70","","","","","","Cloudy"
"2001-12-13 11:00","2001","12","13","11:00","11.1","","9.2","","88","","26","","24","","19.3","","98.78","","","","","","Cloudy"
"2001-12-13 12:00","2001","12","13","12:00","11.0","","8.3","","83","","26","","26","","24.1","","98.77","","","","","","Cloudy"
"2001-12-13 13:00","2001","12","13","13:00","10.5","","7.2","","80","","27","","26","","24.1","","98.78","","","","","","Cloudy"
"2001-12-13 14:00","2001","12","13","14:00","10.4","","6.6","","77","","28","","22","","24.1","","98.80","","","","","","Cloudy"
"2001-12-13 15:00","2001","12","13","15:00","10.4","","6.5","","77","","27","","22","","24.1","","98.88","","","","","","Cloudy"
"2001-12-13 16:00","2001","12","13","16:00","10.2","","6.4","","77","","28","","19","","24.1","","98.95","","","","","","Cloudy"
"2001-12-13 17:00","2001","12","13","17:00","9.5","","5.9","","78","","28","","15","","24.1","","99.04","","","","","","Cloudy"
"2001-12-13 18:00","2001","12","13","18:00","9.1","","5.1","","76","","28","","15","","24.1","","99.05","","","","","","Cloudy"
"2001-12-13 19:00","2001","12","13","19:00","8.8","","4.6","","75","","27","","15","","24.1","","99.13","","","","","","Cloudy"
"2001-12-13 20:00","2001","12","13","20:00","8.5","","3.8","","72","","29","","13","","24.1","","99.20","","","","","","Cloudy"
"2001-12-13 21:00","2001","12","13","21:00","8.1","","3.8","","74","","28","","11","","24.1","","99.24","","","","","","Cloudy"
"2001-12-13 22:00","2001","12","13","22:00","7.8","","3.9","","76","","28","","11","","24.1","","99.31","","","","","","Cloudy"
"2001-12-13 23:00","2001","12","13","23:00","7.5","","3.7","","77","","31","","11","","24.1","","99.34","","","","","","Cloudy"
"2001-12-14 00:00","2001","12","14","00:00","6.9","","3.5","","79","","32","","7","","24.1","","99.39","","","","","","Cloudy"
"2001-12-14 01:00","2001","12","14","01:00","6.8","","3.0","","77","","35","","7","","24.1","","99.32","","","","","","Cloudy"
"2001-12-14 02:00","2001","12","14","02:00","6.7","","2.6","","75","","36","","6","","24.1","","99.28","","","","","","Cloudy"
"2001-12-14 03:00","2001","12","14","03:00","5.9","","3.2","","83","","6","","7","","24.1","","99.19","","","","","","Mostly Cloudy"
"2001-12-14 04:00","2001","12","14","04:00","6.1","","3.9","","86","","7","","7","","24.1","","99.18","","","","","","Mostly Cloudy"
"2001-12-14 05:00","2001","12","14","05:00","5.8","","4.1","","89","","11","","11","","16.1","","99.09","","","","","","Cloudy"
"2001-12-14 06:00","2001","12","14","06:00","5.5","","3.7","","88","","7","","11","","12.9","","99.06","","","","","","Cloudy"
"2001-12-14 07:00","2001","12","14","07:00","5.5","","3.8","","89","","9","","19","","12.9","","98.99","","","","","","Cloudy"
"2001-12-14 08:00","2001","12","14","08:00","5.3","","3.0","","85","","7","","22","","16.1","","98.85","","","","","","Cloudy"
"2001-12-14 09:00","2001","12","14","09:00","5.4","","3.0","","84","","7","","24","","12.9","","98.82","","","","","","Rain Showers"
"2001-12-14 10:00","2001","12","14","10:00","5.0","","3.8","","92","","6","","24","","4.0","","98.74","","","","","","Rain Showers,Fog"
"2001-12-14 11:00","2001","12","14","11:00","4.6","","3.5","","93","","6","","28","","4.0","","98.60","","","","","","Rain Showers,Fog"
"2001-12-14 12:00","2001","12","14","12:00","4.8","","3.9","","94","","6","","26","","3.6","","98.47","","","","","","Rain,Fog"
"2001-12-14 13:00","2001","12","14","13:00","4.8","","4.1","","95","","4","","26","","4.0","","98.29","","","","","","Rain,Fog"
"2001-12-14 14:00","2001","12","14","14:00","4.7","","4.0","","95","","4","","35","","3.2","","98.11","","","","","","Rain,Fog"
"2001-12-14 15:00","2001","12","14","15:00","4.3","","3.4","","94","","2","","30","","3.2","","98.12","","","","","","Rain,Fog"
"2001-12-14 16:00","2001","12","14","16:00","3.3","","2.2","","92","","35","","28","","8.0","","98.36","","","","","","Rain,Fog"
"2001-12-14 17:00","2001","12","14","17:00","3.3","","1.9","","91","","35","","28","","9.7","","98.65","","","","","","Rain,Fog"
"2001-12-14 18:00","2001","12","14","18:00","2.4","","1.5","","94","","35","","22","","12.9","","98.91","","","","","","Rain"
"2001-12-14 19:00","2001","12","14","19:00","2.3","","1.0","","91","","36","","20","","24.1","","99.13","","","","","","Rain"
"2001-12-14 20:00","2001","12","14","20:00","2.2","","0.8","","90","","36","","19","","24.1","","99.28","","","","","","Rain Showers"
"2001-12-14 21:00","2001","12","14","21:00","2.2","","0.6","","89","","35","","11","","12.9","","99.44","","","","","","Rain"
"2001-12-14 22:00","2001","12","14","22:00","2.2","","0.9","","91","","35","","11","","24.1","","99.55","","","","","","Rain Showers"
"2001-12-14 23:00","2001","12","14","23:00","2.3","","0.5","","88","","36","","7","","24.1","","99.65","","","","","","Mostly Cloudy"
"2001-12-15 00:00","2001","12","15","00:00","2.4","","0.8","","89","","30","","7","","24.1","","99.77","","","","","","Cloudy"
"2001-12-15 01:00","2001","12","15","01:00","2.6","","1.0","","89","","29","","7","","24.1","","99.82","","","","","","Cloudy"
"2001-12-15 02:00","2001","12","15","02:00","2.7","","1.0","","89","","35","","6","","24.1","","99.90","","","","","","Cloudy"
"2001-12-15 03:00","2001","12","15","03:00","2.8","","1.4","","90","","4","","4","","24.1","","100.01","","","","","","Cloudy"
"2001-12-15 04:00","2001","12","15","04:00","2.9","","0.9","","87","","","","0","","24.1","","100.10","","","","","","Cloudy"
"2001-12-15 05:00","2001","12","15","05:00","2.7","","1.3","","90","","15","","6","","24.1","","100.18","","","","","","Mostly Cloudy"
"2001-12-15 06:00","2001","12","15","06:00","2.8","","1.6","","92","","23","","9","","24.1","","100.29","","","","","","Cloudy"
"2001-12-15 07:00","2001","12","15","07:00","1.5","","0.9","","96","","27","","6","","19.3","","100.40","","","","","","Mainly Clear"
"2001-12-15 08:00","2001","12","15","08:00","2.4","","1.2","","92","","35","","7","","12.9","","100.49","","","","","","Cloudy"
"2001-12-15 09:00","2001","12","15","09:00","2.2","","0.9","","91","","1","","9","","16.1","","100.58","","","","","","Cloudy"
"2001-12-15 10:00","2001","12","15","10:00","2.6","","0.8","","88","","36","","4","","17.7","","100.66","","","","","","Cloudy"
"2001-12-15 11:00","2001","12","15","11:00","3.0","","0.6","","84","","35","","4","","19.3","","100.71","","","","","","Mostly Cloudy"
"2001-12-15 12:00","2001","12","15","12:00","3.5","","0.5","","81","","","","0","","24.1","","100.75","","","","","","Cloudy"
"2001-12-15 13:00","2001","12","15","13:00","4.0","","0.3","","77","","23","","6","","24.1","","100.80","","","","","","Mostly Cloudy"
"2001-12-15 14:00","2001","12","15","14:00","4.4","","0.7","","77","","20","","6","","24.1","","100.76","","","","","","Mostly Cloudy"
"2001-12-15 15:00","2001","12","15","15:00","5.1","","1.0","","75","","23","","7","","24.1","","100.78","","","","","","Mainly Clear"
"2001-12-15 16:00","2001","12","15","16:00","4.7","","0.3","","73","","17","","6","","24.1","","100.84","","","","","","Mainly Clear"
"2001-12-15 17:00","2001","12","15","17:00","3.8","","0.6","","80","","8","","6","","12.9","","100.83","","","","","","Mostly Cloudy"
"2001-12-15 18:00","2001","12","15","18:00","3.2","","0.5","","82","","9","","4","","24.1","","100.93","","","","","","Mostly Cloudy"
"2001-12-15 19:00","2001","12","15","19:00","2.8","","0.4","","84","","11","","15","","24.1","","100.78","","","","","","Cloudy"
"2001-12-15 20:00","2001","12","15","20:00","2.7","","0.3","","84","","12","","11","","24.1","","100.77","","","","","","Cloudy"
"2001-12-15 21:00","2001","12","15","21:00","2.5","","0.1","","84","","10","","6","","24.1","","100.77","","","","","","Cloudy"
"2001-12-15 22:00","2001","12","15","22:00","1.8","","0.3","","90","","11","","4","","24.1","","100.78","","","","","","Cloudy"
"2001-12-15 23:00","2001","12","15","23:00","1.8","","0.1","","88","","10","","6","","24.1","","100.82","","","","","","Mostly Cloudy"
"2001-12-16 00:00","2001","12","16","00:00","1.0","","-0.1","","92","","8","","7","","24.1","","100.84","","","","","","Mostly Cloudy"
"2001-12-16 01:00","2001","12","16","01:00","1.7","","0.0","","88","","9","","13","","24.1","","100.76","","","","","","Mostly Cloudy"
"2001-12-16 02:00","2001","12","16","02:00","1.9","","0.3","","89","","12","","9","","24.1","","100.82","","","","","","Cloudy"
"2001-12-16 03:00","2001","12","16","03:00","2.1","","0.5","","89","","12","","9","","24.1","","100.85","","","","","","Cloudy"
"2001-12-16 04:00","2001","12","16","04:00","2.3","","0.8","","90","","12","","6","","24.1","","100.78","","","","","","Cloudy"
"2001-12-16 05:00","2001","12","16","05:00","2.7","","1.0","","89","","12","","13","","24.1","","100.72","","","","","","Cloudy"
"2001-12-16 06:00","2001","12","16","06:00","3.0","","0.4","","83","","15","","9","","24.1","","100.65","","","","","","Cloudy"
"2001-12-16 07:00","2001","12","16","07:00","3.0","","0.4","","83","","11","","11","","24.1","","100.66","","","","","","Cloudy"
"2001-12-16 08:00","2001","12","16","08:00","3.3","","0.1","","80","","9","","9","","19.3","","100.55","","","","","","Cloudy"
"2001-12-16 09:00","2001","12","16","09:00","3.7","","0.6","","80","","11","","11","","19.3","","100.47","","","","","","Cloudy"
"2001-12-16 10:00","2001","12","16","10:00","4.3","","0.7","","77","","13","","6","","19.3","","100.51","","","","","","Cloudy"
"2001-12-16 11:00","2001","12","16","11:00","5.0","","1.0","","75","","14","","13","","19.3","","100.47","","","","","","Cloudy"
"2001-12-16 12:00","2001","12","16","12:00","5.7","","0.4","","69","","16","","17","","24.1","","100.41","","","","","","Cloudy"
"2001-12-16 13:00","2001","12","16","13:00","5.6","","0.4","","69","","14","","17","","24.1","","100.27","","","","","","Cloudy"
"2001-12-16 14:00","2001","12","16","14:00","5.7","","0.2","","68","","11","","20","","24.1","","100.06","","","","","","Cloudy"
"2001-12-16 15:00","2001","12","16","15:00","5.6","","-1.1","","62","","14","","15","","24.1","","100.02","","","","","","Cloudy"
"2001-12-16 16:00","2001","12","16","16:00","5.4","","-0.3","","67","","14","","13","","24.1","","100.03","","","","","","Cloudy"
"2001-12-16 17:00","2001","12","16","17:00","4.9","","1.4","","78","","14","","9","","24.1","","100.06","","","","","","Rain"
"2001-12-16 18:00","2001","12","16","18:00","4.6","","2.3","","85","","13","","9","","24.1","","99.94","","","","","","Rain"
"2001-12-16 19:00","2001","12","16","19:00","4.5","","2.9","","89","","16","","13","","19.3","","99.91","","","","","","Rain"
"2001-12-16 20:00","2001","12","16","20:00","4.4","","3.5","","94","","13","","9","","16.1","","99.77","","","","","","Rain"
"2001-12-16 21:00","2001","12","16","21:00","4.6","","3.6","","93","","15","","9","","11.3","","99.67","","","","","","Rain"
"2001-12-16 22:00","2001","12","16","22:00","4.8","","4.2","","96","","17","","13","","4.8","","99.61","","","","","","Rain,Fog"
"2001-12-16 23:00","2001","12","16","23:00","4.8","","4.6","","99","","17","","11","","4.0","","99.53","","","","","","Rain,Fog"
"2001-12-17 00:00","2001","12","17","00:00","5.0","","4.6","","97","","17","","11","","4.0","","99.44","","","","","","Rain,Fog"
"2001-12-17 01:00","2001","12","17","01:00","5.0","","4.7","","98","","15","","13","","4.8","","99.28","","","","","","Rain,Fog"
"2001-12-17 02:00","2001","12","17","02:00","5.2","","4.8","","97","","16","","13","","4.8","","99.16","","","","","","Rain,Fog"
"2001-12-17 03:00","2001","12","17","03:00","5.3","","4.9","","97","","16","","7","","4.8","","99.11","","","","","","Rain,Fog"
"2001-12-17 04:00","2001","12","17","04:00","5.2","","5.0","","99","","15","","6","","4.8","","98.97","","","","","","Rain,Fog"
"2001-12-17 05:00","2001","12","17","05:00","5.3","","5.2","","99","","","","0","","4.0","","98.88","","","","","","Rain,Fog"
"2001-12-17 06:00","2001","12","17","06:00","5.3","","5.3","","100","","","","0","","3.2","","98.75","","","","","","Rain,Fog"
"2001-12-17 07:00","2001","12","17","07:00","5.5","","5.4","","99","","","","0","","3.6","","98.73","","","","","","Rain,Fog"
"2001-12-17 08:00","2001","12","17","08:00","5.6","","5.4","","99","","","","0","","3.2","","98.68","","","","","","Rain,Fog"
"2001-12-17 09:00","2001","12","17","09:00","5.6","","5.3","","98","","","","0","","4.0","","98.56","","","","","","Rain,Fog"
"2001-12-17 10:00","2001","12","17","10:00","5.9","","5.5","","97","","","","0","","4.8","","98.49","","","","","","Drizzle,Fog"
"2001-12-17 11:00","2001","12","17","11:00","6.2","","5.8","","97","","34","","6","","4.0","","98.48","","","","","","Rain,Fog"
"2001-12-17 12:00","2001","12","17","12:00","6.5","","5.9","","96","","2","","4","","3.2","","98.27","","","","","","Rain,Fog"
"2001-12-17 13:00","2001","12","17","13:00","6.3","","5.9","","97","","35","","15","","3.2","","98.25","","","","","","Rain,Fog"
"2001-12-17 14:00","2001","12","17","14:00","6.4","","5.7","","95","","36","","11","","4.8","","98.13","","","","","","Rain,Fog"
"2001-12-17 15:00","2001","12","17","15:00","6.4","","5.8","","96","","36","","11","","6.4","","98.08","","","","","","Rain,Fog"
"2001-12-17 16:00","2001","12","17","16:00","6.4","","5.7","","95","","36","","7","","8.0","","98.08","","","","","","Rain,Fog"
"2001-12-17 17:00","2001","12","17","17:00","6.2","","5.5","","95","","1","","13","","9.7","","98.07","","","","","","Rain,Fog"
"2001-12-17 18:00","2001","12","17","18:00","6.2","","5.3","","94","","36","","17","","12.9","","98.07","","","","","","Rain"
"2001-12-17 19:00","2001","12","17","19:00","6.3","","5.3","","93","","36","","13","","16.1","","98.09","","","","","","Rain"
"2001-12-17 20:00","2001","12","17","20:00","6.2","","5.1","","93","","34","","19","","14.5","","98.13","","","","","","Rain"
"2001-12-17 21:00","2001","12","17","21:00","6.1","","4.6","","90","","34","","17","","14.5","","98.12","","","","","","Drizzle"
"2001-12-17 22:00","2001","12","17","22:00","5.9","","4.4","","90","","35","","17","","24.1","","98.09","","","","","","Cloudy"
"2001-12-17 23:00","2001","12","17","23:00","6.0","","4.3","","89","","34","","20","","24.1","","98.13","","","","","","Cloudy"
"2001-12-18 00:00","2001","12","18","00:00","6.2","","4.1","","86","","34","","20","","24.1","","98.17","","","","","","Cloudy"
"2001-12-18 01:00","2001","12","18","01:00","6.1","","3.8","","85","","34","","17","","24.1","","98.22","","","","","","Mostly Cloudy"
"2001-12-18 02:00","2001","12","18","02:00","5.9","","3.3","","83","","32","","19","","24.1","","98.27","","","","","","Mostly Cloudy"
"2001-12-18 03:00","2001","12","18","03:00","5.6","","2.4","","80","","32","","24","","25.0","","98.34","","","","","","Mostly Cloudy"
"2001-12-18 04:00","2001","12","18","04:00","5.5","","1.5","","75","","32","","19","","25.0","","98.39","","","","","","Cloudy"
"2001-12-18 05:00","2001","12","18","05:00","5.1","","1.8","","79","","30","","19","","25.0","","98.44","","","","","","Cloudy"
"2001-12-18 06:00","2001","12","18","06:00","4.5","","0.6","","76","","32","","24","","25.0","","98.52","","","","","","Mostly Cloudy"
"2001-12-18 07:00","2001","12","18","07:00","4.0","","1.0","","81","","33","","19","","25.0","","98.60","","","","","","Rain Showers"
"2001-12-18 08:00","2001","12","18","08:00","3.5","","0.3","","80","","29","","19","","19.3","","98.65","","","","","","Mostly Cloudy"
"2001-12-18 09:00","2001","12","18","09:00","4.0","","-2.3","","63","","33","","24","","24.1","","98.72","","","","","","Mostly Cloudy"
"2001-12-18 10:00","2001","12","18","10:00","4.1","","-1.6","","66","","30","","20","","24.1","","98.76","","","","","","Mostly Cloudy"
"2001-12-18 11:00","2001","12","18","11:00","4.3","","-1.2","","67","","29","","24","","24.1","","98.82","","","","","","Mostly Cloudy"
"2001-12-18 12:00","2001","12","18","12:00","4.4","","-1.9","","64","","31","","22","","25.0","","98.79","","","","","","Mostly Cloudy"
"2001-12-18 13:00","2001","12","18","13:00","5.2","","-1.0","","64","","28","","24","","25.0","","98.77","","","","","","Mostly Cloudy"
"2001-12-18 14:00","2001","12","18","14:00","6.0","","-1.3","","59","","26","","22","","25.0","","98.72","","","","","","Mainly Clear"
"2001-12-18 15:00","2001","12","18","15:00","7.0","","-1.1","","56","","27","","17","","25.0","","98.70","","","","","","Clear"
"2001-12-18 16:00","2001","12","18","16:00","6.9","","-1.5","","55","","24","","15","","24.1","","98.67","","","","","","Mainly Clear"
"2001-12-18 17:00","2001","12","18","17:00","6.2","","-0.9","","60","","25","","13","","24.1","","98.72","","","","","","Mainly Clear"
"2001-12-18 18:00","2001","12","18","18:00","5.3","","-0.3","","67","","24","","11","","24.1","","98.75","","","","","","Mainly Clear"
"2001-12-18 19:00","2001","12","18","19:00","3.8","","0.6","","80","","21","","11","","24.1","","98.73","","","","","","Clear"
"2001-12-18 20:00","2001","12","18","20:00","4.1","","1.0","","80","","24","","17","","12.9","","98.76","","","","","","Clear"
"2001-12-18 21:00","2001","12","18","21:00","3.9","","1.1","","82","","25","","13","","16.1","","98.71","","","","","","Clear"
"2001-12-18 22:00","2001","12","18","22:00","3.6","","0.7","","81","","25","","17","","19.3","","98.72","","","","","","Clear"
"2001-12-18 23:00","2001","12","18","23:00","3.0","","0.5","","84","","24","","11","","16.1","","98.69","","","","","","Clear"
"2001-12-19 00:00","2001","12","19","00:00","2.7","","0.3","","84","","24","","11","","16.1","","98.67","","","","","","Clear"
"2001-12-19 01:00","2001","12","19","01:00","2.5","","0.2","","85","","24","","15","","16.1","","98.69","","","","","","Clear"
"2001-12-19 02:00","2001","12","19","02:00","2.6","","0.0","","83","","25","","13","","16.1","","98.68","","","","","","Mainly Clear"
"2001-12-19 03:00","2001","12","19","03:00","2.7","","0.5","","85","","24","","9","","11.3","","98.69","","","","","","Mostly Cloudy"
"2001-12-19 04:00","2001","12","19","04:00","3.0","","0.8","","85","","23","","11","","11.3","","98.61","","","","","","Mostly Cloudy"
"2001-12-19 05:00","2001","12","19","05:00","3.0","","1.0","","87","","22","","11","","11.3","","98.57","","","","","","Cloudy"
"2001-12-19 06:00","2001","12","19","06:00","3.4","","1.2","","85","","21","","9","","11.3","","98.49","","","","","","Cloudy"
"2001-12-19 07:00","2001","12","19","07:00","3.6","","2.1","","90","","21","","13","","11.3","","98.48","","","","","","Cloudy"
"2001-12-19 08:00","2001","12","19","08:00","3.7","","1.9","","88","","24","","17","","8.0","","98.50","","","","","","Fog"
"2001-12-19 09:00","2001","12","19","09:00","3.7","","1.3","","84","","22","","13","","9.7","","98.46","","","","","","Haze"
"2001-12-19 10:00","2001","12","19","10:00","4.3","","1.5","","82","","23","","20","","11.3","","98.42","","","","","","Mostly Cloudy"
"2001-12-19 11:00","2001","12","19","11:00","5.1","","2.3","","82","","22","","15","","16.1","","98.34","","","","","","Mostly Cloudy"
"2001-12-19 12:00","2001","12","19","12:00","5.7","","2.8","","82","","22","","13","","12.9","","98.18","","","","","","Mostly Cloudy"
"2001-12-19 13:00","2001","12","19","13:00","5.8","","2.6","","80","","22","","11","","11.3","","98.12","","","","","","Mostly Cloudy"
"2001-12-19 14:00","2001","12","19","14:00","5.9","","3.0","","82","","22","","17","","11.3","","98.09","","","","","","Cloudy"
"2001-12-19 15:00","2001","12","19","15:00","6.4","","2.7","","77","","23","","15","","11.3","","98.03","","","","","","Rain Showers"
"2001-12-19 16:00","2001","12","19","16:00","5.9","","3.1","","82","","23","","19","","8.0","","98.04","","","","","","Rain Showers,Haze"
"2001-12-19 17:00","2001","12","19","17:00","5.2","","3.8","","91","","27","","15","","3.2","","98.09","","","","","","Rain,Fog"
"2001-12-19 18:00","2001","12","19","18:00","4.0","","2.3","","89","","29","","22","","16.1","","98.19","","","","","","Rain"
"2001-12-19 19:00","2001","12","19","19:00","2.7","","1.3","","90","","30","","24","","11.3","","98.33","","","","","","Rain"
"2001-12-19 20:00","2001","12","19","20:00","2.7","","0.5","","85","","31","","30","","24.1","","98.40","","","","","","Rain"
"2001-12-19 21:00","2001","12","19","21:00","2.5","","-1.0","","78","","28","","32","","24.1","","98.45","","","","","","Cloudy"
"2001-12-19 22:00","2001","12","19","22:00","1.2","","-2.7","","75","","29","","28","","24.1","","98.54","","","","","","Mostly Cloudy"
"2001-12-19 23:00","2001","12","19","23:00","0.9","","-3.0","","75","","29","","39","","24.1","","98.62","","","","","","Snow Showers"
"2001-12-20 00:00","2001","12","20","00:00","0.7","","-3.6","","73","","29","","28","","24.1","","98.69","","","","","","Snow Showers"
"2001-12-20 01:00","2001","12","20","01:00","0.1","","-4.9","","69","","28","","30","","25.0","","98.75","","","","","","Mainly Clear"
"2001-12-20 02:00","2001","12","20","02:00","0.6","","-6.0","","61","","29","","30","","25.0","","98.81","","","","","","Snow Showers"
"2001-12-20 03:00","2001","12","20","03:00","0.8","","-5.7","","62","","28","","32","","25.0","","98.90","","","","","","Snow Showers"
"2001-12-20 04:00","2001","12","20","04:00","0.7","","-5.3","","64","","28","","33","","25.0","","98.93","","","","","","Mostly Cloudy"
"2001-12-20 05:00","2001","12","20","05:00","0.6","","-5.2","","65","","28","","33","","25.0","","98.97","","","","","","Mostly Cloudy"
"2001-12-20 06:00","2001","12","20","06:00","0.8","","-5.2","","64","","27","","24","","25.0","","99.00","","","","","","Snow Showers"
"2001-12-20 07:00","2001","12","20","07:00","0.7","","-7.1","","56","","29","","32","","25.0","","99.05","","","","","","Mostly Cloudy"
"2001-12-20 08:00","2001","12","20","08:00","0.3","","-7.8","","54","","30","","33","","25.0","","99.09","","","","","","Mainly Clear"
"2001-12-20 09:00","2001","12","20","09:00","0.6","","-7.0","","57","","29","","24","","25.0","","99.17","","","","","","Mainly Clear"
"2001-12-20 10:00","2001","12","20","10:00","1.1","","-6.3","","58","","28","","32","","25.0","","99.22","","","","","","Mainly Clear"
"2001-12-20 11:00","2001","12","20","11:00","1.0","","-6.6","","57","","29","","35","","25.0","","99.25","","","","","","Mainly Clear"
"2001-12-20 12:00","2001","12","20","12:00","2.2","","-6.3","","53","","29","","30","","25.0","","99.21","","","","","","Mainly Clear"
"2001-12-20 13:00","2001","12","20","13:00","3.0","","-5.8","","52","","29","","35","","25.0","","99.20","","","","","","Mainly Clear"
"2001-12-20 14:00","2001","12","20","14:00","3.2","","-6.5","","49","","28","","35","","25.0","","99.20","","","","","","Mainly Clear"
"2001-12-20 15:00","2001","12","20","15:00","3.6","","-6.4","","48","","29","","35","","25.0","","99.27","","","","","","Mainly Clear"
"2001-12-20 16:00","2001","12","20","16:00","3.5","","-7.1","","46","","30","","32","","24.1","","99.33","","","","","","Mostly Cloudy"
"2001-12-20 17:00","2001","12","20","17:00","2.8","","-7.9","","45","","31","","19","","24.1","","99.41","","","","","","Mainly Clear"
"2001-12-20 18:00","2001","12","20","18:00","1.7","","-9.4","","43","","30","","28","","24.1","","99.46","","","","","","Clear"
"2001-12-20 19:00","2001","12","20","19:00","0.9","","-7.6","","53","","31","","22","","24.1","","99.54","","","","","","Clear"
"2001-12-20 20:00","2001","12","20","20:00","0.4","","-7.5","","55","","32","","22","","24.1","","99.59","","","","","","Clear"
"2001-12-20 21:00","2001","12","20","21:00","-0.4","","-7.2","","60","","31","","13","","24.1","","99.63","","","","-5","","Clear"
"2001-12-20 22:00","2001","12","20","22:00","-0.5","","-7.6","","59","","29","","19","","24.1","","99.66","","","","-6","","Clear"
"2001-12-20 23:00","2001","12","20","23:00","-1.1","","-7.3","","63","","30","","19","","24.1","","99.72","","","","-6","","Mainly Clear"
"2001-12-21 00:00","2001","12","21","00:00","-1.4","","-7.0","","66","","29","","19","","25.0","","99.77","","","","-7","","Mainly Clear"
"2001-12-21 01:00","2001","12","21","01:00","-1.7","","-6.8","","68","","29","","15","","25.0","","99.76","","","","-7","","Mainly Clear"
"2001-12-21 02:00","2001","12","21","02:00","-1.9","","-6.7","","70","","29","","13","","25.0","","99.78","","","","-6","","Mostly Cloudy"
"2001-12-21 03:00","2001","12","21","03:00","-1.4","","-6.8","","67","","31","","11","","25.0","","99.85","","","","-5","","Mostly Cloudy"
"2001-12-21 04:00","2001","12","21","04:00","-2.0","","-6.8","","70","","28","","11","","25.0","","99.88","","","","-6","","Mostly Cloudy"
"2001-12-21 05:00","2001","12","21","05:00","-2.6","","-6.7","","73","","29","","13","","25.0","","99.90","","","","-7","","Mostly Cloudy"
"2001-12-21 06:00","2001","12","21","06:00","-2.0","","-6.7","","70","","29","","9","","25.0","","99.95","","","","-5","","Mostly Cloudy"
"2001-12-21 07:00","2001","12","21","07:00","-3.2","","-6.7","","77","","26","","11","","25.0","","100.00","","","","-7","","Mainly Clear"
"2001-12-21 08:00","2001","12","21","08:00","-3.5","","-6.6","","79","","26","","9","","25.0","","100.06","","","","-7","","Mainly Clear"
"2001-12-21 09:00","2001","12","21","09:00","-2.5","","-6.3","","75","","27","","9","","25.0","","100.15","","","","-6","","Mainly Clear"
"2001-12-21 10:00","2001","12","21","10:00","-0.3","","-6.6","","62","","29","","13","","25.0","","100.20","","","","-4","","Mainly Clear"
"2001-12-21 11:00","2001","12","21","11:00","0.8","","-7.5","","54","","32","","7","","25.0","","100.27","","","","","","Mainly Clear"
"2001-12-21 12:00","2001","12","21","12:00","2.0","","-8.7","","45","","29","","17","","25.0","","100.26","","","","","","Mainly Clear"
"2001-12-21 13:00","2001","12","21","13:00","1.9","","-9.0","","44","","30","","13","","25.0","","100.26","","","","","","Mainly Clear"
"2001-12-21 14:00","2001","12","21","14:00","2.6","","-9.1","","42","","33","","13","","25.0","","100.26","","","","","","Mainly Clear"
"2001-12-21 15:00","2001","12","21","15:00","2.6","","-8.8","","43","","29","","20","","25.0","","100.29","","","","","","Mainly Clear"
"2001-12-21 16:00","2001","12","21","16:00","2.7","","-8.7","","43","","30","","15","","24.1","","100.33","","","","","","Mainly Clear"
"2001-12-21 17:00","2001","12","21","17:00","1.5","","-9.0","","46","","30","","7","","24.1","","100.38","","","","","","Mainly Clear"
"2001-12-21 18:00","2001","12","21","18:00","0.6","","-8.9","","49","","","","0","","24.1","","100.43","","","","","","Clear"
"2001-12-21 19:00","2001","12","21","19:00","-0.1","","-8.3","","54","","","","0","","24.1","","100.44","","","","","","Clear"
"2001-12-21 20:00","2001","12","21","20:00","-1.6","","-5.9","","72","","","","0","","24.1","","100.46","","","","","","Clear"
"2001-12-21 21:00","2001","12","21","21:00","-1.6","","-6.7","","68","","","","0","","24.1","","100.47","","","","","","Clear"
"2001-12-21 22:00","2001","12","21","22:00","-1.8","","-7.2","","67","","11","","7","","24.1","","100.42","","","","-4","","Mainly Clear"
"2001-12-21 23:00","2001","12","21","23:00","-2.2","","-6.2","","74","","14","","6","","24.1","","100.45","","","","-5","","Mainly Clear"
"2001-12-22 00:00","2001","12","22","00:00","-1.7","","-6.8","","68","","13","","6","","25.0","","100.41","","","","-4","","Mainly Clear"
"2001-12-22 01:00","2001","12","22","01:00","-2.0","","-7.1","","68","","11","","7","","25.0","","100.42","","","","-5","","Mainly Clear"
"2001-12-22 02:00","2001","12","22","02:00","-2.4","","-7.3","","69","","12","","9","","25.0","","100.40","","","","-6","","Clear"
"2001-12-22 03:00","2001","12","22","03:00","-2.6","","-6.7","","73","","11","","7","","25.0","","100.43","","","","-5","","Clear"
"2001-12-22 04:00","2001","12","22","04:00","-3.8","","-6.6","","81","","12","","7","","25.0","","100.41","","","","-7","","Clear"
"2001-12-22 05:00","2001","12","22","05:00","-2.5","","-5.3","","81","","16","","9","","25.0","","100.39","","","","-6","","Mainly Clear"
"2001-12-22 06:00","2001","12","22","06:00","-1.0","","-3.9","","81","","15","","11","","25.0","","100.36","","","","-5","","Mainly Clear"
"2001-12-22 07:00","2001","12","22","07:00","-1.6","","-3.7","","86","","15","","7","","24.1","","100.35","","","","-4","","Mostly Cloudy"
"2001-12-22 08:00","2001","12","22","08:00","-1.4","","-3.4","","86","","14","","11","","19.3","","100.30","","","","-5","","Mostly Cloudy"
"2001-12-22 09:00","2001","12","22","09:00","0.8","","-2.4","","79","","17","","11","","24.1","","100.33","","","","","","Mostly Cloudy"
"2001-12-22 10:00","2001","12","22","10:00","1.9","","-1.9","","76","","17","","13","","24.1","","100.32","","","","","","Mostly Cloudy"
"2001-12-22 11:00","2001","12","22","11:00","3.6","","-2.6","","64","","17","","20","","24.1","","100.26","","","","","","Mostly Cloudy"
"2001-12-22 12:00","2001","12","22","12:00","4.4","","-2.5","","61","","17","","22","","24.1","","100.09","","","","","","Mostly Cloudy"
"2001-12-22 13:00","2001","12","22","13:00","4.8","","-1.7","","63","","17","","19","","24.1","","99.93","","","","","","Mostly Cloudy"
"2001-12-22 14:00","2001","12","22","14:00","5.1","","-1.7","","61","","17","","19","","24.1","","99.83","","","","","","Mostly Cloudy"
"2001-12-22 15:00","2001","12","22","15:00","4.7","","-1.1","","66","","15","","20","","24.1","","99.73","","","","","","Mostly Cloudy"
"2001-12-22 16:00","2001","12","22","16:00","4.8","","-0.8","","67","","15","","22","","24.1","","99.61","","","","","","Mostly Cloudy"
"2001-12-22 17:00","2001","12","22","17:00","4.2","","-1.5","","66","","16","","20","","24.1","","99.53","","","","","","Mostly Cloudy"
"2001-12-22 18:00","2001","12","22","18:00","4.8","","-1.2","","65","","15","","26","","24.1","","99.37","","","","","","Cloudy"
"2001-12-22 19:00","2001","12","22","19:00","5.2","","-1.7","","61","","15","","30","","24.1","","99.26","","","","","","Mostly Cloudy"
"2001-12-22 20:00","2001","12","22","20:00","5.6","","-1.8","","59","","16","","22","","24.1","","99.22","","","","","","Cloudy"
"2001-12-22 21:00","2001","12","22","21:00","5.5","","-1.0","","63","","16","","24","","24.1","","99.08","","","","","","Cloudy"
"2001-12-22 22:00","2001","12","22","22:00","5.1","","0.1","","70","","19","","19","","24.1","","99.12","","","","","","Rain"
"2001-12-22 23:00","2001","12","22","23:00","4.0","","1.7","","85","","18","","17","","24.1","","99.06","","","","","","Rain"
"2001-12-23 00:00","2001","12","23","00:00","4.4","","2.2","","86","","18","","19","","24.1","","98.97","","","","","","Rain"
"2001-12-23 01:00","2001","12","23","01:00","5.7","","2.2","","78","","20","","22","","24.1","","98.89","","","","","","Cloudy"
"2001-12-23 02:00","2001","12","23","02:00","6.5","","2.7","","77","","20","","24","","25.0","","98.80","","","","","","Cloudy"
"2001-12-23 03:00","2001","12","23","03:00","6.4","","4.0","","85","","20","","24","","25.0","","98.72","","","","","","Cloudy"
"2001-12-23 04:00","2001","12","23","04:00","6.2","","4.1","","86","","20","","24","","25.0","","98.67","","","","","","Cloudy"
"2001-12-23 05:00","2001","12","23","05:00","6.4","","4.4","","87","","20","","22","","24.1","","98.61","","","","","","Cloudy"
"2001-12-23 06:00","2001","12","23","06:00","6.7","","4.5","","86","","20","","24","","24.1","","98.57","","","","","","Cloudy"
"2001-12-23 07:00","2001","12","23","07:00","6.6","","4.3","","85","","20","","24","","24.1","","98.58","","","","","","Cloudy"
"2001-12-23 08:00","2001","12","23","08:00","6.7","","4.5","","86","","21","","22","","19.3","","98.56","","","","","","Cloudy"
"2001-12-23 09:00","2001","12","23","09:00","6.9","","4.8","","86","","20","","22","","19.3","","98.57","","","","","","Cloudy"
"2001-12-23 10:00","2001","12","23","10:00","6.3","","5.5","","95","","21","","22","","4.0","","98.52","","","","","","Drizzle,Fog"
"2001-12-23 11:00","2001","12","23","11:00","5.5","","3.7","","88","","24","","22","","8.0","","98.46","","","","","","Drizzle,Fog"
"2001-12-23 12:00","2001","12","23","12:00","4.7","","2.0","","83","","24","","32","","8.0","","98.40","","","","","","Drizzle,Fog"
"2001-12-23 13:00","2001","12","23","13:00","3.8","","1.4","","84","","24","","26","","8.0","","98.31","","","","","","Drizzle,Fog"
"2001-12-23 14:00","2001","12","23","14:00","2.0","","-0.4","","84","","24","","28","","8.0","","98.31","","","","","","Drizzle,Fog"
"2001-12-23 15:00","2001","12","23","15:00","0.8","","-4.2","","69","","25","","33","","16.1","","98.37","","","","","","Mostly Cloudy"
"2001-12-23 16:00","2001","12","23","16:00","-0.1","","-6.3","","63","","26","","30","","24.1","","98.46","","","","-7","","Mostly Cloudy"
"2001-12-23 17:00","2001","12","23","17:00","-0.6","","-7.4","","60","","27","","33","","24.1","","98.53","","","","-8","","Mostly Cloudy"
"2001-12-23 18:00","2001","12","23","18:00","-1.2","","-7.9","","60","","23","","19","","24.1","","98.55","","","","-7","","Mainly Clear"
"2001-12-23 19:00","2001","12","23","19:00","-1.4","","-6.8","","67","","23","","15","","24.1","","98.54","","","","-6","","Mostly Cloudy"
"2001-12-23 20:00","2001","12","23","20:00","-0.7","","-5.8","","68","","23","","19","","8.0","","98.52","","","","-6","","Snow Showers"
"2001-12-23 21:00","2001","12","23","21:00","-1.4","","-4.3","","81","","24","","20","","24.1","","98.52","","","","-7","","Mostly Cloudy"
"2001-12-23 22:00","2001","12","23","22:00","-1.7","","-8.4","","60","","26","","37","","24.1","","98.58","","","","-9","","Snow Showers"
"2001-12-23 23:00","2001","12","23","23:00","-2.8","","-10.3","","56","","25","","33","","24.1","","98.59","","","","-10","","Mainly Clear"
"2001-12-24 00:00","2001","12","24","00:00","-2.5","","-10.0","","56","","25","","28","","25.0","","98.56","","","","-10","","Mostly Cloudy"
"2001-12-24 01:00","2001","12","24","01:00","-2.6","","-8.3","","65","","25","","24","","25.0","","98.53","","","","-9","","Mostly Cloudy"
"2001-12-24 02:00","2001","12","24","02:00","-2.7","","-7.0","","72","","23","","30","","19.3","","98.51","","","","-10","","Snow Showers"
"2001-12-24 03:00","2001","12","24","03:00","-2.5","","-7.3","","70","","25","","28","","24.1","","98.47","","","","-10","","Snow Showers"
"2001-12-24 04:00","2001","12","24","04:00","-2.3","","-7.3","","69","","25","","32","","19.3","","98.41","","","","-10","","Snow Showers"
"2001-12-24 05:00","2001","12","24","05:00","-2.7","","-7.1","","72","","24","","19","","25.0","","98.37","","","","-8","","Mainly Clear"
"2001-12-24 06:00","2001","12","24","06:00","-2.8","","-7.0","","73","","25","","30","","24.1","","98.36","","","","-10","","Cloudy"
"2001-12-24 07:00","2001","12","24","07:00","-3.2","","-6.6","","77","","25","","30","","24.1","","98.37","","","","-11","","Snow Showers"
"2001-12-24 08:00","2001","12","24","08:00","-4.1","","-8.4","","72","","25","","32","","24.1","","98.39","","","","-12","","Mostly Cloudy"
"2001-12-24 09:00","2001","12","24","09:00","-4.2","","-8.7","","71","","24","","30","","24.1","","98.46","","","","-12","","Mostly Cloudy"
"2001-12-24 10:00","2001","12","24","10:00","-4.2","","-8.5","","72","","26","","30","","24.1","","98.51","","","","-12","","Cloudy"
"2001-12-24 11:00","2001","12","24","11:00","-3.4","","-8.3","","69","","25","","30","","24.1","","98.54","","","","-11","","Mostly Cloudy"
"2001-12-24 12:00","2001","12","24","12:00","-2.9","","-8.1","","67","","26","","26","","16.1","","98.50","","","","-10","","Snow Showers"
"2001-12-24 13:00","2001","12","24","13:00","-3.2","","-7.8","","70","","25","","33","","12.9","","98.51","","","","-11","","Snow Showers"
"2001-12-24 14:00","2001","12","24","14:00","-3.6","","-7.6","","74","","25","","26","","9.7","","98.54","","","","-11","","Snow Showers"
"2001-12-24 15:00","2001","12","24","15:00","-3.2","","-8.0","","69","","24","","30","","8.0","","98.56","","","","-11","","Snow Showers"
"2001-12-24 16:00","2001","12","24","16:00","-3.6","","-7.7","","73","","24","","28","","6.4","","98.63","","","","-11","","Snow Showers"
"2001-12-24 17:00","2001","12","24","17:00","-3.7","","-7.7","","74","","22","","30","","6.4","","98.69","","","","-11","","Snow Showers"
"2001-12-24 18:00","2001","12","24","18:00","-3.9","","-8.3","","71","","25","","26","","16.1","","98.75","","","","-11","","Snow Showers"
"2001-12-24 19:00","2001","12","24","19:00","-3.9","","-8.3","","71","","25","","33","","19.3","","98.84","","","","-12","","Snow Showers"
"2001-12-24 20:00","2001","12","24","20:00","-4.7","","-9.0","","72","","25","","39","","19.3","","98.86","","","","-14","","Snow Showers"
"2001-12-24 21:00","2001","12","24","21:00","-5.0","","-9.0","","73","","26","","30","","19.3","","98.88","","","","-13","","Snow Showers"
"2001-12-24 22:00","2001","12","24","22:00","-5.2","","-9.2","","73","","26","","30","","19.3","","98.90","","","","-13","","Snow Showers"
"2001-12-24 23:00","2001","12","24","23:00","-5.4","","-9.5","","73","","26","","30","","19.3","","98.92","","","","-14","","Snow Showers"
"2001-12-25 00:00","2001","12","25","00:00","-5.8","","-9.8","","73","","25","","30","","24.1","","98.93","","","","-14","","Snow Showers"
"2001-12-25 01:00","2001","12","25","01:00","-5.9","","-9.7","","74","","25","","26","","24.1","","98.94","","","","-14","","Snow Showers"
"2001-12-25 02:00","2001","12","25","02:00","-6.3","","-9.6","","77","","26","","22","","24.1","","98.96","","","","-14","","Mainly Clear"
"2001-12-25 03:00","2001","12","25","03:00","-6.5","","-9.7","","78","","25","","19","","24.1","","99.01","","","","-13","","Mainly Clear"
"2001-12-25 04:00","2001","12","25","04:00","-6.0","","-9.4","","77","","24","","19","","24.1","","99.02","","","","-13","","Cloudy"
"2001-12-25 05:00","2001","12","25","05:00","-5.7","","-9.3","","76","","25","","24","","24.1","","99.02","","","","-13","","Snow Showers"
"2001-12-25 06:00","2001","12","25","06:00","-5.6","","-9.1","","76","","25","","22","","19.3","","99.06","","","","-13","","Snow Showers"
"2001-12-25 07:00","2001","12","25","07:00","-5.7","","-8.6","","80","","24","","20","","11.3","","99.09","","","","-12","","Snow"
"2001-12-25 08:00","2001","12","25","08:00","-5.8","","-8.8","","79","","24","","17","","9.7","","99.16","","","","-12","","Snow"
"2001-12-25 09:00","2001","12","25","09:00","-5.7","","-8.6","","80","","24","","20","","11.3","","99.19","","","","-12","","Snow"
"2001-12-25 10:00","2001","12","25","10:00","-5.8","","-9.0","","78","","24","","19","","8.0","","99.19","","","","-12","","Snow"
"2001-12-25 11:00","2001","12","25","11:00","-6.2","","-8.2","","86","","23","","22","","1.6","","99.21","","","","-13","","Snow"
"2001-12-25 12:00","2001","12","25","12:00","-5.6","","-8.4","","81","","23","","20","","11.3","","99.13","","","","-12","","Snow"
"2001-12-25 13:00","2001","12","25","13:00","-5.1","","-8.5","","77","","24","","24","","4.8","","99.11","","","","-12","","Snow"
"2001-12-25 14:00","2001","12","25","14:00","-5.0","","-7.4","","83","","23","","20","","4.0","","99.07","","","","-12","","Snow"
"2001-12-25 15:00","2001","12","25","15:00","-4.9","","-7.3","","83","","22","","22","","4.0","","99.07","","","","-12","","Snow"
"2001-12-25 16:00","2001","12","25","16:00","-4.7","","-7.2","","83","","23","","20","","4.8","","99.10","","","","-11","","Snow"
"2001-12-25 17:00","2001","12","25","17:00","-4.8","","-7.8","","79","","23","","19","","16.1","","99.15","","","","-11","","Snow"
"2001-12-25 18:00","2001","12","25","18:00","-5.0","","-8.1","","79","","22","","20","","19.3","","99.17","","","","-12","","Snow"
"2001-12-25 19:00","2001","12","25","19:00","-5.2","","-7.9","","81","","23","","19","","19.3","","99.20","","","","-12","","Snow"
"2001-12-25 20:00","2001","12","25","20:00","-5.6","","-8.2","","82","","24","","22","","19.3","","99.18","","","","-13","","Snow"
"2001-12-25 21:00","2001","12","25","21:00","-6.5","","-9.0","","82","","23","","20","","24.1","","99.14","","","","-13","","Mainly Clear"
"2001-12-25 22:00","2001","12","25","22:00","-5.7","","-9.4","","75","","24","","17","","24.1","","99.13","","","","-12","","Snow"
"2001-12-25 23:00","2001","12","25","23:00","-6.1","","-10.4","","72","","25","","20","","24.1","","99.08","","","","-13","","Snow"
"2001-12-26 00:00","2001","12","26","00:00","-6.8","","-10.7","","74","","23","","15","","25.0","","99.03","","","","-13","","Mainly Clear"
"2001-12-26 01:00","2001","12","26","01:00","-7.8","","-10.5","","81","","22","","9","","25.0","","98.95","","","","-12","","Mainly Clear"
"2001-12-26 02:00","2001","12","26","02:00","-7.7","","-10.3","","82","","22","","7","","24.1","","98.88","","","","-11","","Mostly Cloudy"
"2001-12-26 03:00","2001","12","26","03:00","-5.9","","-9.3","","77","","24","","17","","24.1","","98.85","","","","-12","","Snow Showers"
"2001-12-26 04:00","2001","12","26","04:00","-5.7","","-9.9","","72","","23","","15","","24.1","","98.76","","","","-11","","Snow Showers"
"2001-12-26 05:00","2001","12","26","05:00","-6.1","","-9.4","","77","","23","","24","","24.1","","98.70","","","","-14","","Snow Showers"
"2001-12-26 06:00","2001","12","26","06:00","-8.3","","-12.6","","71","","26","","30","","24.1","","98.68","","","","-17","","Snow Showers"
"2001-12-26 07:00","2001","12","26","07:00","-8.9","","-13.1","","72","","24","","22","","24.1","","98.68","","","","-17","","Mainly Clear"
"2001-12-26 08:00","2001","12","26","08:00","-9.3","","-13.2","","73","","25","","19","","16.1","","98.73","","","","-17","","Snow Showers"
"2001-12-26 09:00","2001","12","26","09:00","-9.6","","-13.1","","76","","25","","19","","24.1","","98.74","","","","-17","","Mainly Clear"
"2001-12-26 10:00","2001","12","26","10:00","-8.6","","-12.2","","75","","25","","20","","19.3","","98.70","","","","-16","","Mostly Cloudy"
"2001-12-26 11:00","2001","12","26","11:00","-7.7","","-11.5","","74","","24","","24","","24.1","","98.64","","","","-16","","Mainly Clear"
"2001-12-26 12:00","2001","12","26","12:00","-6.3","","-11.2","","68","","25","","24","","24.1","","98.55","","","","-14","","Mainly Clear"
"2001-12-26 13:00","2001","12","26","13:00","-5.7","","-11.4","","64","","24","","22","","24.1","","98.45","","","","-13","","Mainly Clear"
"2001-12-26 14:00","2001","12","26","14:00","-4.8","","-11.7","","58","","23","","26","","24.1","","98.38","","","","-12","","Mostly Cloudy"
"2001-12-26 15:00","2001","12","26","15:00","-4.7","","-11.9","","57","","23","","26","","24.1","","98.36","","","","-12","","Mostly Cloudy"
"2001-12-26 16:00","2001","12","26","16:00","-4.7","","-12.0","","57","","23","","26","","24.1","","98.32","","","","-12","","Mostly Cloudy"
"2001-12-26 17:00","2001","12","26","17:00","-5.1","","-11.6","","60","","25","","20","","16.1","","98.31","","","","-12","","Mostly Cloudy"
"2001-12-26 18:00","2001","12","26","18:00","-5.3","","-12.1","","59","","25","","20","","24.1","","98.32","","","","-12","","Mainly Clear"
"2001-12-26 19:00","2001","12","26","19:00","-5.8","","-13.5","","55","","26","","26","","24.1","","98.35","","","","-14","","Mainly Clear"
"2001-12-26 20:00","2001","12","26","20:00","-6.1","","-12.7","","60","","25","","20","","24.1","","98.33","","","","-13","","Mostly Cloudy"
"2001-12-26 21:00","2001","12","26","21:00","-6.4","","-13.0","","59","","26","","20","","24.1","","98.27","","","","-13","","Mostly Cloudy"
"2001-12-26 22:00","2001","12","26","22:00","-6.7","","-12.8","","62","","25","","19","","24.1","","98.23","","","","-14","","Mostly Cloudy"
"2001-12-26 23:00","2001","12","26","23:00","-6.9","","-12.1","","66","","25","","30","","24.1","","98.20","","","","-15","","Mostly Cloudy"
"2001-12-27 00:00","2001","12","27","00:00","-7.2","","-11.9","","69","","25","","24","","19.3","","98.18","","","","-15","","Cloudy"
"2001-12-27 01:00","2001","12","27","01:00","-7.6","","-12.1","","70","","25","","24","","24.1","","98.14","","","","-16","","Cloudy"
"2001-12-27 02:00","2001","12","27","02:00","-8.1","","-12.2","","72","","24","","26","","24.1","","98.09","","","","-16","","Snow"
"2001-12-27 03:00","2001","12","27","03:00","-7.9","","-11.4","","76","","25","","22","","12.9","","98.05","","","","-16","","Snow"
"2001-12-27 04:00","2001","12","27","04:00","-7.9","","-11.0","","78","","25","","20","","8.0","","98.01","","","","-15","","Snow"
"2001-12-27 05:00","2001","12","27","05:00","-8.1","","-10.4","","83","","23","","26","","6.4","","97.93","","","","-16","","Snow"
"2001-12-27 06:00","2001","12","27","06:00","-8.5","","-10.5","","85","","23","","35","","3.2","","97.91","","","","-18","","Snow"
"2001-12-27 07:00","2001","12","27","07:00","-8.1","","-10.1","","85","","23","","22","","9.7","","97.91","","","","-16","","Snow"
"2001-12-27 08:00","2001","12","27","08:00","-7.5","","-10.3","","80","","24","","26","","9.7","","97.92","","","","-16","","Snow"
"2001-12-27 09:00","2001","12","27","09:00","-7.0","","-10.0","","79","","24","","28","","9.7","","97.92","","","","-15","","Snow"
"2001-12-27 10:00","2001","12","27","10:00","-6.2","","-9.0","","81","","24","","28","","4.8","","97.92","","","","-14","","Snow"
"2001-12-27 11:00","2001","12","27","11:00","-5.7","","-8.1","","83","","24","","26","","2.8","","97.91","","","","-13","","Snow"
"2001-12-27 12:00","2001","12","27","12:00","-5.0","","-7.3","","84","","25","","26","","4.8","","97.83","","","","-12","","Snow"
"2001-12-27 13:00","2001","12","27","13:00","-3.9","","-6.9","","80","","25","","32","","11.3","","97.78","","","","-12","","Snow"
"2001-12-27 14:00","2001","12","27","14:00","-3.2","","-6.4","","79","","25","","33","","4.8","","97.77","","","","-11","","Snow"
"2001-12-27 15:00","2001","12","27","15:00","-3.0","","-6.7","","76","","24","","24","","8.0","","97.80","","","","-10","","Snow"
"2001-12-27 16:00","2001","12","27","16:00","-2.7","","-6.5","","75","","24","","26","","12.9","","97.84","","","","-10","","Snow"
"2001-12-27 17:00","2001","12","27","17:00","-3.0","","-7.2","","73","","24","","24","","12.9","","97.89","","","","-10","","Snow"
"2001-12-27 18:00","2001","12","27","18:00","-3.3","","-7.5","","73","","24","","22","","19.3","","97.93","","","","-10","","Snow"
"2001-12-27 19:00","2001","12","27","19:00","-3.2","","-7.7","","71","","24","","26","","19.3","","97.96","","","","-10","","Snow"
"2001-12-27 20:00","2001","12","27","20:00","-3.2","","-8.1","","69","","25","","20","","24.1","","97.95","","","","-9","","Snow"
"2001-12-27 21:00","2001","12","27","21:00","-3.1","","-8.6","","66","","25","","26","","19.3","","97.95","","","","-10","","Snow"
"2001-12-27 22:00","2001","12","27","22:00","-2.8","","-8.8","","63","","25","","26","","24.1","","97.90","","","","-10","","Snow"
"2001-12-27 23:00","2001","12","27","23:00","-2.5","","-8.9","","61","","24","","26","","24.1","","97.87","","","","-9","","Mostly Cloudy"
"2001-12-28 00:00","2001","12","28","00:00","-3.1","","-7.3","","73","","23","","19","","24.1","","97.84","","","","-9","","Snow Showers"
"2001-12-28 01:00","2001","12","28","01:00","-2.5","","-6.7","","73","","23","","20","","16.1","","97.78","","","","-8","","Snow Showers"
"2001-12-28 02:00","2001","12","28","02:00","-2.2","","-6.4","","73","","23","","26","","19.3","","97.73","","","","-9","","Snow Showers"
"2001-12-28 03:00","2001","12","28","03:00","-2.1","","-6.3","","73","","24","","24","","19.3","","97.69","","","","-8","","Snow Showers"
"2001-12-28 04:00","2001","12","28","04:00","-2.2","","-6.2","","74","","24","","24","","19.3","","97.61","","","","-9","","Snow Showers"
"2001-12-28 05:00","2001","12","28","05:00","-2.6","","-6.8","","73","","25","","20","","8.0","","97.57","","","","-9","","Snow Showers"
"2001-12-28 06:00","2001","12","28","06:00","-3.6","","-5.6","","86","","24","","20","","6.4","","97.54","","","","-10","","Snow Showers"
"2001-12-28 07:00","2001","12","28","07:00","-3.6","","-5.1","","89","","25","","24","","3.2","","97.60","","","","-10","","Snow Showers"
"2001-12-28 08:00","2001","12","28","08:00","-3.5","","-7.5","","74","","26","","26","","24.1","","97.65","","","","-11","","Snow"
"2001-12-28 09:00","2001","12","28","09:00","-4.8","","-6.7","","87","","29","","24","","16.1","","97.76","","","","-12","","Snow"
"2001-12-28 10:00","2001","12","28","10:00","-3.7","","-8.6","","69","","27","","28","","24.1","","97.80","","","","-11","","Mostly Cloudy"
"2001-12-28 11:00","2001","12","28","11:00","-3.8","","-8.9","","68","","26","","28","","24.1","","97.85","","","","-11","","Snow Showers"
"2001-12-28 12:00","2001","12","28","12:00","-3.5","","-8.3","","69","","26","","26","","24.1","","97.80","","","","-11","","Snow Showers"
"2001-12-28 13:00","2001","12","28","13:00","-2.3","","-9.1","","60","","26","","30","","4.8","","97.79","","","","-9","","Snow Showers"
"2001-12-28 14:00","2001","12","28","14:00","-2.4","","-8.1","","65","","26","","17","","12.9","","97.78","","","","-8","","Snow Showers"
"2001-12-28 15:00","2001","12","28","15:00","-3.1","","-6.6","","77","","24","","15","","9.7","","97.83","","","","-8","","Snow Showers"
"2001-12-28 16:00","2001","12","28","16:00","-3.6","","-5.7","","85","","26","","13","","4.8","","97.91","","","","-8","","Snow"
"2001-12-28 17:00","2001","12","28","17:00","-3.7","","-5.8","","85","","25","","6","","4.8","","98.00","","","","-6","","Snow"
"2001-12-28 18:00","2001","12","28","18:00","-4.0","","-5.8","","87","","32","","4","","6.4","","98.04","","","","-6","","Snow"
"2001-12-28 19:00","2001","12","28","19:00","-4.3","","-5.7","","90","","","","0","","12.9","","98.11","","","","","","Snow"
"2001-12-28 20:00","2001","12","28","20:00","-4.0","","-6.1","","85","","26","","7","","19.3","","98.13","","","","-7","","Snow"
"2001-12-28 21:00","2001","12","28","21:00","-3.9","","-6.0","","85","","28","","7","","19.3","","98.16","","","","-7","","Snow"
"2001-12-28 22:00","2001","12","28","22:00","-4.3","","-6.8","","83","","29","","7","","24.1","","98.17","","","","-7","","Snow"
"2001-12-28 23:00","2001","12","28","23:00","-4.5","","-7.2","","81","","29","","9","","24.1","","98.19","","","","-8","","Mostly Cloudy"
"2001-12-29 00:00","2001","12","29","00:00","-4.6","","-8.0","","77","","31","","11","","24.1","","98.17","","","","-9","","Cloudy"
"2001-12-29 01:00","2001","12","29","01:00","-5.0","","-7.7","","81","","29","","13","","24.1","","98.18","","","","-10","","Cloudy"
"2001-12-29 02:00","2001","12","29","02:00","-5.0","","-7.7","","81","","29","","15","","19.3","","98.26","","","","-11","","Snow Showers"
"2001-12-29 03:00","2001","12","29","03:00","-5.3","","-8.0","","81","","27","","15","","19.3","","98.31","","","","-11","","Snow Showers"
"2001-12-29 04:00","2001","12","29","04:00","-5.4","","-8.0","","82","","27","","15","","6.4","","98.34","","","","-11","","Snow"
"2001-12-29 05:00","2001","12","29","05:00","-5.5","","-8.7","","78","","29","","13","","19.3","","98.32","","","","-11","","Snow"
"2001-12-29 06:00","2001","12","29","06:00","-6.1","","-8.5","","83","","28","","20","","4.8","","98.37","","","","-13","","Snow"
"2001-12-29 07:00","2001","12","29","07:00","-6.2","","-8.3","","85","","29","","19","","16.1","","98.44","","","","-13","","Snow"
"2001-12-29 08:00","2001","12","29","08:00","-6.4","","-9.0","","82","","27","","17","","24.1","","98.51","","","","-13","","Mostly Cloudy"
"2001-12-29 09:00","2001","12","29","09:00","-6.0","","-8.7","","81","","26","","19","","24.1","","98.59","","","","-13","","Snow Showers"
"2001-12-29 10:00","2001","12","29","10:00","-5.4","","-9.4","","73","","28","","28","","24.1","","98.62","","","","-13","","Mostly Cloudy"
"2001-12-29 11:00","2001","12","29","11:00","-5.0","","-8.7","","75","","27","","26","","24.1","","98.66","","","","-12","","Snow Showers"
"2001-12-29 12:00","2001","12","29","12:00","-5.2","","-9.3","","73","","27","","26","","24.1","","98.66","","","","-13","","Snow Showers"
"2001-12-29 13:00","2001","12","29","13:00","-5.1","","-9.5","","71","","27","","32","","16.1","","98.69","","","","-13","","Snow Showers"
"2001-12-29 14:00","2001","12","29","14:00","-4.6","","-9.9","","66","","29","","24","","24.1","","98.75","","","","-12","","Snow Showers"
"2001-12-29 15:00","2001","12","29","15:00","-4.4","","-9.9","","65","","30","","24","","24.1","","98.85","","","","-11","","Snow Showers"
"2001-12-29 16:00","2001","12","29","16:00","-4.2","","-10.8","","60","","29","","22","","24.1","","98.92","","","","-11","","Mostly Cloudy"
"2001-12-29 17:00","2001","12","29","17:00","-4.9","","-10.7","","64","","27","","28","","25.0","","98.98","","","","-13","","Mainly Clear"
"2001-12-29 18:00","2001","12","29","18:00","-5.7","","-9.1","","77","","26","","19","","19.3","","99.07","","","","-12","","Snow Showers"
"2001-12-29 19:00","2001","12","29","19:00","-5.9","","-9.7","","74","","26","","22","","24.1","","99.12","","","","-13","","Snow Showers"
"2001-12-29 20:00","2001","12","29","20:00","-5.7","","-9.9","","72","","29","","26","","24.1","","99.16","","","","-13","","Snow Showers"
"2001-12-29 21:00","2001","12","29","21:00","-5.8","","-10.0","","72","","30","","35","","24.1","","99.20","","","","-15","","Snow Showers"
"2001-12-29 22:00","2001","12","29","22:00","-6.4","","-10.0","","76","","27","","22","","24.1","","99.21","","","","-14","","Snow Showers"
"2001-12-29 23:00","2001","12","29","23:00","-6.8","","-10.1","","77","","27","","24","","19.3","","99.23","","","","-14","","Snow Showers"
"2001-12-30 00:00","2001","12","30","00:00","-7.0","","-10.4","","77","","27","","22","","24.1","","99.25","","","","-14","","Snow Showers"
"2001-12-30 01:00","2001","12","30","01:00","-8.2","","-11.0","","80","","26","","26","","24.1","","99.30","","","","-17","","Snow Showers"
"2001-12-30 02:00","2001","12","30","02:00","-8.6","","-11.5","","80","","27","","22","","24.1","","99.31","","","","-16","","Clear"
"2001-12-30 03:00","2001","12","30","03:00","-9.0","","-12.0","","79","","27","","24","","24.1","","99.36","","","","-17","","Clear"
"2001-12-30 04:00","2001","12","30","04:00","-9.4","","-12.3","","79","","26","","22","","24.1","","99.37","","","","-17","","Mainly Clear"
"2001-12-30 05:00","2001","12","30","05:00","-10.0","","-12.7","","81","","26","","24","","24.1","","99.34","","","","-19","","Mainly Clear"
"2001-12-30 06:00","2001","12","30","06:00","-10.0","","-13.0","","79","","26","","24","","24.1","","99.32","","","","-19","","Mainly Clear"
"2001-12-30 07:00","2001","12","30","07:00","-9.8","","-12.9","","78","","26","","24","","24.1","","99.36","","","","-18","","Clear"
"2001-12-30 08:00","2001","12","30","08:00","-9.9","","-13.0","","78","","25","","22","","12.9","","99.38","","","","-18","","Snow Showers"
"2001-12-30 09:00","2001","12","30","09:00","-9.2","","-12.6","","76","","25","","22","","12.9","","99.40","","","","-17","","Snow Showers"
"2001-12-30 10:00","2001","12","30","10:00","-8.2","","-12.3","","72","","25","","26","","17.7","","99.42","","","","-17","","Snow Showers"
"2001-12-30 11:00","2001","12","30","11:00","-7.6","","-12.2","","70","","25","","28","","24.1","","99.39","","","","-16","","Mainly Clear"
"2001-12-30 12:00","2001","12","30","12:00","-6.8","","-11.8","","68","","26","","30","","19.3","","99.32","","","","-15","","Mostly Cloudy"
"2001-12-30 13:00","2001","12","30","13:00","-6.0","","-11.3","","66","","26","","32","","12.9","","99.26","","","","-15","","Snow Showers"
"2001-12-30 14:00","2001","12","30","14:00","-5.4","","-11.5","","62","","27","","22","","19.3","","99.23","","","","-12","","Snow Showers"
"2001-12-30 15:00","2001","12","30","15:00","-5.3","","-12.1","","59","","27","","33","","19.3","","99.27","","","","-14","","Snow Showers"
"2001-12-30 16:00","2001","12","30","16:00","-5.7","","-12.4","","59","","26","","35","","24.1","","99.34","","","","-14","","Snow Showers"
"2001-12-30 17:00","2001","12","30","17:00","-5.8","","-12.7","","58","","27","","28","","24.1","","99.38","","","","-14","","Snow Showers"
"2001-12-30 18:00","2001","12","30","18:00","-5.9","","-12.6","","59","","27","","32","","24.1","","99.40","","","","-14","","Snow Showers"
"2001-12-30 19:00","2001","12","30","19:00","-6.1","","-12.1","","62","","26","","30","","24.1","","99.42","","","","-14","","Snow Showers"
"2001-12-30 20:00","2001","12","30","20:00","-6.2","","-12.1","","63","","27","","33","","24.1","","99.45","","","","-15","","Snow Showers"
"2001-12-30 21:00","2001","12","30","21:00","-7.0","","-10.0","","79","","25","","26","","9.7","","99.47","","","","-15","","Snow Showers"
"2001-12-30 22:00","2001","12","30","22:00","-7.5","","-11.0","","76","","26","","24","","16.1","","99.43","","","","-15","","Snow Showers"
"2001-12-30 23:00","2001","12","30","23:00","-7.9","","-11.7","","74","","27","","22","","19.3","","99.45","","","","-16","","Snow Showers"
"2001-12-31 00:00","2001","12","31","00:00","-7.6","","-11.5","","74","","25","","20","","24.1","","99.44","","","","-15","","Snow Showers"
"2001-12-31 01:00","2001","12","31","01:00","-7.3","","-11.2","","74","","26","","20","","12.9","","99.42","","","","-14","","Snow Showers"
"2001-12-31 02:00","2001","12","31","02:00","-7.3","","-11.0","","75","","25","","19","","12.9","","99.45","","","","-14","","Snow"
"2001-12-31 03:00","2001","12","31","03:00","-7.7","","-10.8","","78","","24","","20","","12.9","","99.50","","","","-15","","Snow"
"2001-12-31 04:00","2001","12","31","04:00","-7.7","","-10.7","","79","","24","","22","","11.3","","99.48","","","","-15","","Snow"
"2001-12-31 05:00","2001","12","31","05:00","-7.6","","-10.2","","82","","25","","24","","8.0","","99.44","","","","-16","","Snow"
"2001-12-31 06:00","2001","12","31","06:00","-7.6","","-10.0","","83","","25","","20","","8.0","","99.43","","","","-15","","Snow"
"2001-12-31 07:00","2001","12","31","07:00","-7.3","","-9.9","","82","","25","","22","","8.0","","99.47","","","","-15","","Snow"
"2001-12-31 08:00","2001","12","31","08:00","-7.3","","-10.1","","80","","25","","22","","6.4","","99.51","","","","-15","","Snow"
"2001-12-31 09:00","2001","12","31","09:00","-7.2","","-10.0","","80","","25","","22","","4.8","","99.59","","","","-15","","Snow"
"2001-12-31 10:00","2001","12","31","10:00","-7.1","","-10.0","","80","","25","","22","","4.8","","99.62","","","","-15","","Snow"
"2001-12-31 11:00","2001","12","31","11:00","-6.2","","-10.3","","73","","25","","30","","19.3","","99.59","","","","-15","","Snow"
"2001-12-31 12:00","2001","12","31","12:00","-5.4","","-10.3","","68","","27","","24","","19.3","","99.52","","","","-13","","Snow"
"2001-12-31 13:00","2001","12","31","13:00","-5.4","","-10.3","","68","","27","","19","","14.5","","99.47","","","","-12","","Snow"
"2001-12-31 14:00","2001","12","31","14:00","-5.4","","-10.5","","67","","26","","22","","14.5","","99.45","","","","-12","","Snow"
"2001-12-31 15:00","2001","12","31","15:00","-5.0","","-10.1","","67","","26","","17","","12.9","","99.44","","","","-11","","Snow"
"2001-12-31 16:00","2001","12","31","16:00","-5.0","","-11.4","","61","","27","","19","","19.3","","99.49","","","","-11","","Snow"
"2001-12-31 17:00","2001","12","31","17:00","-5.3","","-11.0","","64","","25","","20","","24.1","","99.53","","","","-12","","Snow"
"2001-12-31 18:00","2001","12","31","18:00","-5.7","","-11.5","","64","","26","","20","","19.3","","99.57","","","","-12","","Snow"
"2001-12-31 19:00","2001","12","31","19:00","-5.9","","-11.5","","65","","25","","22","","24.1","","99.62","","","","-13","","Snow"
"2001-12-31 20:00","2001","12","31","20:00","-6.3","","-11.6","","66","","25","","19","","19.3","","99.67","","","","-13","","Snow"
"2001-12-31 21:00","2001","12","31","21:00","-6.6","","-11.1","","70","","25","","19","","19.3","","99.67","","","","-13","","Snow"
"2001-12-31 22:00","2001","12","31","22:00","-6.8","","-10.7","","74","","26","","19","","16.1","","99.67","","","","-14","","Snow"
"2001-12-31 23:00","2001","12","31","23:00","-7.0","","-10.5","","76","","25","","20","","11.3","","99.69","","","","-14","","Snow"
