"Station Name","PUKASKWA (AUT)"
"Province","ONTARIO"
"Latitude","48.61"
"Longitude","-86.29"
"Elevation","191.50"
"Climate Identifier","6046768"
"WMO Identifier","71750"
"TC Identifier","WCJ"
"All times are specified in Local Standard Time (LST). Add 1 hour to adjust for Daylight Saving Time where and when it is observed."

"Legend"
"E","Estimated"
"M","Missing"
"NA","Not Available"

"Date/Time","Year","Month","Day","Time","Temp (°C)","Temp Flag","Dew Point Temp (°C)","Dew Point Temp Flag","Rel Hum (%)","Rel Hum Flag","Wind Dir (10s deg)","Wind Dir Flag","Wind Spd (km/h)","Wind Spd Flag","Visibility (km)","Visibility Flag","Stn Press (kPa)","Stn Press Flag","Hmdx","Hmdx Flag","Wind Chill","Wind Chill Flag","Weather"
"2013-11-01 00:00","2013","11","01","00:00","5.1","","4.3","","95","","4","","15","","","M","96.56","","","","","","NA"
"2013-11-01 01:00","2013","11","01","01:00","4.5","","3.5","","93","","3","","15","","","M","96.49","","","","","","NA"
"2013-11-01 02:00","2013","11","01","02:00","4.0","","2.9","","93","","3","","17","","","M","96.48","","","","","","NA"
"2013-11-01 03:00","2013","11","01","03:00","3.8","","2.6","","92","","3","","11","","","M","96.56","","","","","","NA"
"2013-11-01 04:00","2013","11","01","04:00","3.4","","2.4","","93","","2","","11","","","M","96.57","","","","","","NA"
"2013-11-01 05:00","2013","11","01","05:00","3.3","","2.1","","92","","2","","9","","","M","96.64","","","","","","NA"
"2013-11-01 06:00","2013","11","01","06:00","3.0","","1.6","","90","","1","","11","","","M","96.74","","","","","","NA"
"2013-11-01 07:00","2013","11","01","07:00","2.5","","1.0","","90","","2","","11","","","M","96.84","","","","","","NA"
"2013-11-01 08:00","2013","11","01","08:00","2.2","","0.5","","89","","2","","11","","","M","96.95","","","","","","NA"
"2013-11-01 09:00","2013","11","01","09:00","2.3","","0.7","","89","","1","","7","","","M","97.08","","","","","","NA"
"2013-11-01 10:00","2013","11","01","10:00","2.8","","1.0","","88","","35","","6","","","M","97.20","","","","","","NA"
"2013-11-01 11:00","2013","11","01","11:00","2.5","","0.5","","87","","36","","7","","","M","97.32","","","","","","NA"
"2013-11-01 12:00","2013","11","01","12:00","3.5","","0.0","","78","","2","","11","","","M","97.44","","","","","","NA"
"2013-11-01 13:00","2013","11","01","13:00","3.0","","-1.2","","74","","3","","11","","","M","97.51","","","","","","NA"
"2013-11-01 14:00","2013","11","01","14:00","3.9","","-0.8","","71","","1","","7","","","M","97.60","","","","","","NA"
"2013-11-01 15:00","2013","11","01","15:00","4.0","","-0.3","","74","","2","","7","","","M","97.70","","","","","","NA"
"2013-11-01 16:00","2013","11","01","16:00","4.4","","-0.7","","69","","2","","6","","","M","97.81","","","","","","NA"
"2013-11-01 17:00","2013","11","01","17:00","3.5","","0.6","","81","","2","","2","","","M","97.93","","","","","","NA"
"2013-11-01 18:00","2013","11","01","18:00","1.2","","-0.7","","87","","4","","2","","","M","98.05","","","","","","NA"
"2013-11-01 19:00","2013","11","01","19:00","-0.9","","-2.0","","92","","6","","2","","","M","98.16","","","","-2","","NA"
"2013-11-01 20:00","2013","11","01","20:00","-0.7","","-1.5","","94","","5","","6","","","M","98.24","","","","-3","","NA"
"2013-11-01 21:00","2013","11","01","21:00","-0.4","","-1.5","","92","","3","","7","","","M","98.38","","","","-3","","NA"
"2013-11-01 22:00","2013","11","01","22:00","-0.8","","-2.7","","87","","3","","7","","","M","98.47","","","","-3","","NA"
"2013-11-01 23:00","2013","11","01","23:00","-0.8","","-2.5","","88","","5","","2","","","M","98.51","","","","-1","","NA"
"2013-11-02 00:00","2013","11","02","00:00","-0.9","","-2.5","","89","","3","","2","","","M","98.53","","","","-2","","NA"
"2013-11-02 01:00","2013","11","02","01:00","-2.4","","-3.6","","91","","3","","2","","","M","98.61","","","","-3","","NA"
"2013-11-02 02:00","2013","11","02","02:00","-2.7","","-3.5","","94","","","","0","","","M","98.67","","","","","","NA"
"2013-11-02 03:00","2013","11","02","03:00","-3.0","","-3.6","","96","","","","0","","","M","98.74","","","","","","NA"
"2013-11-02 04:00","2013","11","02","04:00","-2.5","","-3.1","","96","","7","","2","","","M","98.80","","","","-3","","NA"
"2013-11-02 05:00","2013","11","02","05:00","-2.2","","-2.9","","95","","7","","2","","","M","98.88","","","","-3","","NA"
"2013-11-02 06:00","2013","11","02","06:00","-1.8","","-2.6","","94","","3","","4","","","M","98.98","","","","-3","","NA"
"2013-11-02 07:00","2013","11","02","07:00","-1.8","","-2.6","","94","","3","","4","","","M","99.05","","","","-3","","NA"
"2013-11-02 08:00","2013","11","02","08:00","-1.5","","-3.6","","86","","2","","4","","","M","99.15","","","","-3","","NA"
"2013-11-02 09:00","2013","11","02","09:00","-1.1","","-4.1","","80","","2","","4","","","M","99.25","","","","-2","","NA"
"2013-11-02 10:00","2013","11","02","10:00","-0.6","","-4.6","","74","","3","","7","","","M","99.29","","","","-3","","NA"
"2013-11-02 11:00","2013","11","02","11:00","-0.1","","-5.7","","66","","5","","9","","","M","99.34","","","","-3","","NA"
"2013-11-02 12:00","2013","11","02","12:00","0.4","","-5.5","","65","","5","","7","","","M","99.41","","","","","","NA"
"2013-11-02 13:00","2013","11","02","13:00","0.6","","-7.1","","56","","4","","9","","","M","99.44","","","","","","NA"
"2013-11-02 14:00","2013","11","02","14:00","0.8","","-8.8","","49","","36","","7","","","M","99.48","","","","","","NA"
"2013-11-02 15:00","2013","11","02","15:00","0.9","","-8.9","","48","","2","","6","","","M","99.52","","","","","","NA"
"2013-11-02 16:00","2013","11","02","16:00","0.5","","-10.4","","44","","4","","6","","","M","99.55","","","","","","NA"
"2013-11-02 17:00","2013","11","02","17:00","-0.1","","-10.2","","46","","5","","4","","","M","99.61","","","","-1","","NA"
"2013-11-02 18:00","2013","11","02","18:00","-1.2","","-6.8","","66","","2","","2","","","M","99.67","","","","-2","","NA"
"2013-11-02 19:00","2013","11","02","19:00","-1.7","","-6.4","","70","","3","","2","","","M","99.72","","","","-2","","NA"
"2013-11-02 20:00","2013","11","02","20:00","-2.0","","-6.6","","71","","6","","2","","","M","99.76","","","","-3","","NA"
"2013-11-02 21:00","2013","11","02","21:00","-2.4","","-6.3","","75","","6","","6","","","M","99.80","","","","-5","","NA"
"2013-11-02 22:00","2013","11","02","22:00","-2.2","","-6.5","","72","","5","","4","","","M","99.84","","","","-4","","NA"
"2013-11-02 23:00","2013","11","02","23:00","-2.1","","-7.6","","66","","7","","4","","","M","99.87","","","","-4","","NA"
"2013-11-03 00:00","2013","11","03","00:00","-2.1","","-8.8","","60","","12","","2","","","M","99.91","","","","-3","","NA"
"2013-11-03 01:00","2013","11","03","01:00","-2.2","","-8.0","","64","","11","","6","","","M","99.96","","","","-5","","NA"
"2013-11-03 02:00","2013","11","03","02:00","-1.7","","-9.3","","56","","10","","4","","","M","99.99","","","","-3","","NA"
"2013-11-03 03:00","2013","11","03","03:00","-1.6","","-9.1","","57","","12","","6","","","M","100.03","","","","-4","","NA"
"2013-11-03 04:00","2013","11","03","04:00","-1.4","","-9.2","","55","","12","","4","","","M","100.07","","","","-3","","NA"
"2013-11-03 05:00","2013","11","03","05:00","-1.1","","-8.6","","57","","12","","6","","","M","100.09","","","","-3","","NA"
"2013-11-03 06:00","2013","11","03","06:00","-0.9","","-7.9","","59","","14","","7","","","M","100.09","","","","-3","","NA"
"2013-11-03 07:00","2013","11","03","07:00","-0.6","","-7.0","","62","","14","","6","","","M","100.12","","","","-3","","NA"
"2013-11-03 08:00","2013","11","03","08:00","-0.5","","-6.2","","65","","14","","6","","","M","100.18","","","","-3","","NA"
"2013-11-03 09:00","2013","11","03","09:00","0.4","","-4.7","","69","","16","","7","","","M","100.18","","","","","","NA"
"2013-11-03 10:00","2013","11","03","10:00","2.2","","-2.9","","69","","17","","9","","","M","100.20","","","","","","NA"
"2013-11-03 11:00","2013","11","03","11:00","3.4","","-1.5","","70","","17","","11","","","M","100.23","","","","","","NA"
"2013-11-03 12:00","2013","11","03","12:00","3.7","","-1.2","","70","","18","","13","","","M","100.24","","","","","","NA"
"2013-11-03 13:00","2013","11","03","13:00","4.2","","-1.2","","68","","18","","13","","","M","100.23","","","","","","NA"
"2013-11-03 14:00","2013","11","03","14:00","4.5","","-0.6","","69","","17","","11","","","M","100.25","","","","","","NA"
"2013-11-03 15:00","2013","11","03","15:00","4.3","","-1.0","","68","","18","","11","","","M","100.26","","","","","","NA"
"2013-11-03 16:00","2013","11","03","16:00","3.8","","-1.4","","69","","18","","9","","","M","100.25","","","","","","NA"
"2013-11-03 17:00","2013","11","03","17:00","3.3","","-1.5","","71","","17","","9","","","M","100.25","","","","","","NA"
"2013-11-03 18:00","2013","11","03","18:00","1.6","","-2.5","","74","","14","","6","","","M","100.27","","","","","","NA"
"2013-11-03 19:00","2013","11","03","19:00","1.4","","-2.2","","77","","14","","6","","","M","100.25","","","","","","NA"
"2013-11-03 20:00","2013","11","03","20:00","1.5","","-1.7","","79","","13","","4","","","M","100.24","","","","","","NA"
"2013-11-03 21:00","2013","11","03","21:00","1.3","","-1.6","","81","","14","","6","","","M","100.19","","","","","","NA"
"2013-11-03 22:00","2013","11","03","22:00","2.9","","-0.8","","77","","15","","9","","","M","100.22","","","","","","NA"
"2013-11-03 23:00","2013","11","03","23:00","3.5","","-0.8","","73","","15","","9","","","M","100.22","","","","","","NA"
"2013-11-04 00:00","2013","11","04","00:00","3.4","","-0.5","","76","","16","","9","","","M","100.21","","","","","","NA"
"2013-11-04 01:00","2013","11","04","01:00","4.1","","0.2","","76","","16","","9","","","M","100.21","","","","","","NA"
"2013-11-04 02:00","2013","11","04","02:00","4.5","","0.6","","76","","15","","7","","","M","100.17","","","","","","NA"
"2013-11-04 03:00","2013","11","04","03:00","5.1","","1.1","","75","","15","","11","","","M","100.13","","","","","","NA"
"2013-11-04 04:00","2013","11","04","04:00","5.4","","1.2","","74","","17","","17","","","M","100.04","","","","","","NA"
"2013-11-04 05:00","2013","11","04","05:00","5.5","","1.1","","73","","17","","15","","","M","100.00","","","","","","NA"
"2013-11-04 06:00","2013","11","04","06:00","5.6","","1.1","","73","","16","","11","","","M","99.94","","","","","","NA"
"2013-11-04 07:00","2013","11","04","07:00","5.7","","1.3","","73","","16","","15","","","M","99.86","","","","","","NA"
"2013-11-04 08:00","2013","11","04","08:00","5.6","","1.6","","75","","17","","17","","","M","99.94","","","","","","NA"
"2013-11-04 09:00","2013","11","04","09:00","5.6","","1.6","","75","","16","","15","","","M","99.89","","","","","","NA"
"2013-11-04 10:00","2013","11","04","10:00","5.9","","1.5","","73","","16","","15","","","M","99.84","","","","","","NA"
"2013-11-04 11:00","2013","11","04","11:00","6.4","","1.9","","73","","16","","15","","","M","99.76","","","","","","NA"
"2013-11-04 12:00","2013","11","04","12:00","6.5","","1.9","","72","","17","","17","","","M","99.71","","","","","","NA"
"2013-11-04 13:00","2013","11","04","13:00","6.5","","1.9","","72","","18","","17","","","M","99.62","","","","","","NA"
"2013-11-04 14:00","2013","11","04","14:00","6.4","","2.4","","76","","17","","17","","","M","99.53","","","","","","NA"
"2013-11-04 15:00","2013","11","04","15:00","6.6","","2.8","","77","","17","","19","","","M","99.42","","","","","","NA"
"2013-11-04 16:00","2013","11","04","16:00","7.1","","1.9","","69","","17","","17","","","M","99.38","","","","","","NA"
"2013-11-04 17:00","2013","11","04","17:00","7.3","","1.6","","67","","16","","17","","","M","99.25","","","","","","NA"
"2013-11-04 18:00","2013","11","04","18:00","7.5","","1.0","","63","","17","","19","","","M","99.21","","","","","","NA"
"2013-11-04 19:00","2013","11","04","19:00","6.8","","1.6","","69","","17","","19","","","M","99.12","","","","","","NA"
"2013-11-04 20:00","2013","11","04","20:00","6.0","","2.9","","80","","18","","19","","","M","99.13","","","","","","NA"
"2013-11-04 21:00","2013","11","04","21:00","5.6","","3.5","","86","","18","","24","","","M","99.11","","","","","","NA"
"2013-11-04 22:00","2013","11","04","22:00","5.4","","3.4","","87","","17","","19","","","M","99.08","","","","","","NA"
"2013-11-04 23:00","2013","11","04","23:00","5.8","","4.5","","91","","18","","20","","","M","99.03","","","","","","NA"
"2013-11-05 00:00","2013","11","05","00:00","6.2","","5.6","","96","","19","","24","","","M","99.05","","","","","","NA"
"2013-11-05 01:00","2013","11","05","01:00","6.7","","6.0","","95","","20","","19","","","M","99.13","","","","","","NA"
"2013-11-05 02:00","2013","11","05","02:00","6.1","","5.0","","93","","20","","15","","","M","99.21","","","","","","NA"
"2013-11-05 03:00","2013","11","05","03:00","6.1","","4.6","","90","","22","","15","","","M","99.30","","","","","","NA"
"2013-11-05 04:00","2013","11","05","04:00","5.8","","3.4","","85","","22","","15","","","M","99.36","","","","","","NA"
"2013-11-05 05:00","2013","11","05","05:00","4.9","","2.5","","84","","25","","11","","","M","99.45","","","","","","NA"
"2013-11-05 06:00","2013","11","05","06:00","4.6","","1.8","","82","","23","","13","","","M","99.51","","","","","","NA"
"2013-11-05 07:00","2013","11","05","07:00","4.1","","1.7","","84","","22","","9","","","M","99.51","","","","","","NA"
"2013-11-05 08:00","2013","11","05","08:00","4.0","","1.9","","86","","23","","11","","","M","99.53","","","","","","NA"
"2013-11-05 09:00","2013","11","05","09:00","5.3","","2.5","","82","","22","","11","","","M","99.59","","","","","","NA"
"2013-11-05 10:00","2013","11","05","10:00","5.5","","2.0","","78","","23","","13","","","M","99.63","","","","","","NA"
"2013-11-05 11:00","2013","11","05","11:00","6.5","","2.3","","74","","22","","13","","","M","99.64","","","","","","NA"
"2013-11-05 12:00","2013","11","05","12:00","6.5","","2.3","","74","","22","","13","","","M","99.69","","","","","","NA"
"2013-11-05 13:00","2013","11","05","13:00","6.3","","3.1","","80","","21","","15","","","M","99.69","","","","","","NA"
"2013-11-05 14:00","2013","11","05","14:00","5.9","","2.6","","79","","22","","13","","","M","99.68","","","","","","NA"
"2013-11-05 15:00","2013","11","05","15:00","5.7","","2.8","","82","","22","","13","","","M","99.72","","","","","","NA"
"2013-11-05 16:00","2013","11","05","16:00","5.4","","2.3","","80","","23","","15","","","M","99.73","","","","","","NA"
"2013-11-05 17:00","2013","11","05","17:00","4.8","","1.6","","80","","23","","11","","","M","99.67","","","","","","NA"
"2013-11-05 18:00","2013","11","05","18:00","4.3","","1.5","","82","","24","","11","","","M","99.64","","","","","","NA"
"2013-11-05 19:00","2013","11","05","19:00","4.4","","2.1","","85","","23","","13","","","M","99.62","","","","","","NA"
"2013-11-05 20:00","2013","11","05","20:00","4.7","","2.1","","83","","24","","9","","","M","99.58","","","","","","NA"
"2013-11-05 21:00","2013","11","05","21:00","4.6","","2.3","","85","","24","","7","","","M","99.52","","","","","","NA"
"2013-11-05 22:00","2013","11","05","22:00","4.5","","2.5","","87","","20","","6","","","M","99.50","","","","","","NA"
"2013-11-05 23:00","2013","11","05","23:00","4.8","","2.5","","85","","20","","7","","","M","99.51","","","","","","NA"
"2013-11-06 00:00","2013","11","06","00:00","5.0","","2.5","","84","","21","","7","","","M","99.43","","","","","","NA"
"2013-11-06 01:00","2013","11","06","01:00","4.6","","3.0","","89","","21","","7","","","M","99.39","","","","","","NA"
"2013-11-06 02:00","2013","11","06","02:00","3.5","","2.6","","94","","19","","6","","","M","99.29","","","","","","NA"
"2013-11-06 03:00","2013","11","06","03:00","2.9","","2.1","","94","","17","","2","","","M","99.20","","","","","","NA"
"2013-11-06 04:00","2013","11","06","04:00","2.6","","2.1","","96","","7","","2","","","M","99.09","","","","","","NA"
"2013-11-06 05:00","2013","11","06","05:00","1.6","","1.1","","96","","4","","6","","","M","99.07","","","","","","NA"
"2013-11-06 06:00","2013","11","06","06:00","1.0","","0.6","","97","","4","","6","","","M","98.96","","","","","","NA"
"2013-11-06 07:00","2013","11","06","07:00","1.0","","0.6","","97","","4","","7","","","M","98.88","","","","","","NA"
"2013-11-06 08:00","2013","11","06","08:00","0.5","","0.1","","97","","4","","9","","","M","98.81","","","","","","NA"
"2013-11-06 09:00","2013","11","06","09:00","0.7","","0.0","","95","","4","","9","","","M","98.80","","","","","","NA"
"2013-11-06 10:00","2013","11","06","10:00","0.9","","0.0","","94","","3","","11","","","M","98.76","","","","","","NA"
"2013-11-06 11:00","2013","11","06","11:00","1.0","","-0.1","","92","","3","","11","","","M","98.69","","","","","","NA"
"2013-11-06 12:00","2013","11","06","12:00","1.6","","-0.7","","85","","2","","11","","","M","98.68","","","","","","NA"
"2013-11-06 13:00","2013","11","06","13:00","1.9","","-1.6","","78","","2","","7","","","M","98.58","","","","","","NA"
"2013-11-06 14:00","2013","11","06","14:00","2.1","","-2.3","","73","","1","","7","","","M","98.55","","","","","","NA"
"2013-11-06 15:00","2013","11","06","15:00","3.1","","-2.9","","65","","35","","6","","","M","98.55","","","","","","NA"
"2013-11-06 16:00","2013","11","06","16:00","2.5","","-2.8","","68","","35","","6","","","M","98.62","","","","","","NA"
"2013-11-06 17:00","2013","11","06","17:00","0.9","","-2.9","","76","","36","","4","","","M","98.68","","","","","","NA"
"2013-11-06 18:00","2013","11","06","18:00","-1.1","","-3.2","","86","","34","","4","","","M","98.73","","","","-2","","NA"
"2013-11-06 19:00","2013","11","06","19:00","-1.2","","-3.0","","88","","36","","4","","","M","98.79","","","","-3","","NA"
"2013-11-06 20:00","2013","11","06","20:00","-0.1","","-2.9","","81","","32","","6","","","M","98.82","","","","-2","","NA"
"2013-11-06 21:00","2013","11","06","21:00","0.4","","-2.7","","80","","32","","4","","","M","98.86","","","","","","NA"
"2013-11-06 22:00","2013","11","06","22:00","1.0","","-3.1","","74","","32","","6","","","M","98.88","","","","","","NA"
"2013-11-06 23:00","2013","11","06","23:00","0.9","","-3.2","","74","","31","","6","","","M","98.91","","","","","","NA"
"2013-11-07 00:00","2013","11","07","00:00","1.1","","-3.0","","74","","32","","7","","","M","98.90","","","","","","NA"
"2013-11-07 01:00","2013","11","07","01:00","1.3","","-1.9","","79","","31","","7","","","M","98.93","","","","","","NA"
"2013-11-07 02:00","2013","11","07","02:00","1.2","","-1.8","","80","","31","","6","","","M","98.94","","","","","","NA"
"2013-11-07 03:00","2013","11","07","03:00","1.0","","-2.0","","80","","30","","6","","","M","98.95","","","","","","NA"
"2013-11-07 04:00","2013","11","07","04:00","1.2","","-1.7","","81","","30","","4","","","M","98.95","","","","","","NA"
"2013-11-07 05:00","2013","11","07","05:00","1.2","","-1.8","","80","","31","","7","","","M","98.99","","","","","","NA"
"2013-11-07 06:00","2013","11","07","06:00","0.0","","-3.9","","75","","34","","6","","","M","99.05","","","","-2","","NA"
"2013-11-07 07:00","2013","11","07","07:00","-0.4","","-4.5","","74","","32","","6","","","M","99.06","","","","-2","","NA"
"2013-11-07 08:00","2013","11","07","08:00","-0.7","","-4.5","","75","","34","","4","","","M","99.12","","","","-2","","NA"
"2013-11-07 09:00","2013","11","07","09:00","0.0","","-4.2","","73","","33","","6","","","M","99.15","","","","-2","","NA"
"2013-11-07 10:00","2013","11","07","10:00","0.0","","-4.7","","71","","32","","6","","","M","99.17","","","","-2","","NA"
"2013-11-07 11:00","2013","11","07","11:00","0.7","","-5.1","","65","","33","","7","","","M","99.20","","","","","","NA"
"2013-11-07 12:00","2013","11","07","12:00","1.1","","-4.4","","67","","31","","6","","","M","99.21","","","","","","NA"
"2013-11-07 13:00","2013","11","07","13:00","1.1","","-4.4","","67","","32","","4","","","M","99.19","","","","","","NA"
"2013-11-07 14:00","2013","11","07","14:00","1.3","","-4.2","","67","","30","","6","","","M","99.19","","","","","","NA"
"2013-11-07 15:00","2013","11","07","15:00","1.2","","-6.1","","58","","34","","7","","","M","99.19","","","","","","NA"
"2013-11-07 16:00","2013","11","07","16:00","1.1","","-5.4","","62","","30","","9","","","M","99.19","","","","","","NA"
"2013-11-07 17:00","2013","11","07","17:00","0.6","","-5.1","","66","","31","","9","","","M","99.23","","","","","","NA"
"2013-11-07 18:00","2013","11","07","18:00","0.4","","-6.7","","59","","33","","7","","","M","99.29","","","","","","NA"
"2013-11-07 19:00","2013","11","07","19:00","-0.3","","-6.1","","65","","34","","4","","","M","99.30","","","","-2","","NA"
"2013-11-07 20:00","2013","11","07","20:00","0.3","","-5.1","","67","","31","","7","","","M","99.32","","","","","","NA"
"2013-11-07 21:00","2013","11","07","21:00","0.4","","-4.8","","68","","31","","6","","","M","99.32","","","","","","NA"
"2013-11-07 22:00","2013","11","07","22:00","-0.4","","-4.8","","72","","31","","7","","","M","99.33","","","","-3","","NA"
"2013-11-07 23:00","2013","11","07","23:00","-0.6","","-5.2","","71","","32","","6","","","M","99.34","","","","-3","","NA"
"2013-11-08 00:00","2013","11","08","00:00","-1.0","","-5.4","","72","","32","","6","","","M","99.34","","","","-3","","NA"
"2013-11-08 01:00","2013","11","08","01:00","-0.8","","-4.9","","74","","32","","4","","","M","99.38","","","","-2","","NA"
"2013-11-08 02:00","2013","11","08","02:00","-0.4","","-4.9","","72","","1","","6","","","M","99.38","","","","-2","","NA"
"2013-11-08 03:00","2013","11","08","03:00","-0.8","","-4.1","","78","","3","","4","","","M","99.43","","","","-2","","NA"
"2013-11-08 04:00","2013","11","08","04:00","-0.4","","-3.7","","78","","35","","4","","","M","99.47","","","","-2","","NA"
"2013-11-08 05:00","2013","11","08","05:00","-0.6","","-3.4","","81","","36","","2","","","M","99.50","","","","-1","","NA"
"2013-11-08 06:00","2013","11","08","06:00","-0.9","","-3.7","","81","","","","0","","","M","99.54","","","","","","NA"
"2013-11-08 07:00","2013","11","08","07:00","-1.2","","-3.5","","84","","5","","4","","","M","99.56","","","","-3","","NA"
"2013-11-08 08:00","2013","11","08","08:00","-1.3","","-3.4","","86","","","","0","","","M","99.59","","","","","","NA"
"2013-11-08 09:00","2013","11","08","09:00","-0.7","","-2.8","","86","","","","0","","","M","99.63","","","","","","NA"
"2013-11-08 10:00","2013","11","08","10:00","1.0","","-3.2","","73","","5","","2","","","M","99.62","","","","","","NA"
"2013-11-08 11:00","2013","11","08","11:00","2.2","","-3.7","","65","","","","0","","","M","99.64","","","","","","NA"
"2013-11-08 12:00","2013","11","08","12:00","2.7","","-5.7","","54","","29","","4","","","M","99.62","","","","","","NA"
"2013-11-08 13:00","2013","11","08","13:00","2.6","","-4.7","","59","","24","","6","","","M","99.57","","","","","","NA"
"2013-11-08 14:00","2013","11","08","14:00","3.0","","-5.1","","55","","24","","7","","","M","99.53","","","","","","NA"
"2013-11-08 15:00","2013","11","08","15:00","2.7","","-4.8","","58","","22","","6","","","M","99.50","","","","","","NA"
"2013-11-08 16:00","2013","11","08","16:00","2.5","","-3.9","","63","","22","","4","","","M","99.48","","","","","","NA"
"2013-11-08 17:00","2013","11","08","17:00","2.1","","-4.3","","63","","23","","4","","","M","99.45","","","","","","NA"
"2013-11-08 18:00","2013","11","08","18:00","2.1","","-3.1","","68","","22","","7","","","M","99.43","","","","","","NA"
"2013-11-08 19:00","2013","11","08","19:00","0.8","","-3.9","","71","","22","","6","","","M","99.41","","","","","","NA"
"2013-11-08 20:00","2013","11","08","20:00","1.6","","-3.6","","68","","19","","6","","","M","99.36","","","","","","NA"
"2013-11-08 21:00","2013","11","08","21:00","1.7","","-4.0","","66","","21","","6","","","M","99.32","","","","","","NA"
"2013-11-08 22:00","2013","11","08","22:00","1.0","","-4.0","","69","","13","","6","","","M","99.29","","","","","","NA"
"2013-11-08 23:00","2013","11","08","23:00","0.7","","-4.2","","70","","13","","6","","","M","99.22","","","","","","NA"
"2013-11-09 00:00","2013","11","09","00:00","1.1","","-3.2","","73","","12","","7","","","M","99.11","","","","","","NA"
"2013-11-09 01:00","2013","11","09","01:00","1.5","","-2.5","","75","","12","","6","","","M","99.02","","","","","","NA"
"2013-11-09 02:00","2013","11","09","02:00","1.9","","-2.7","","72","","13","","7","","","M","98.91","","","","","","NA"
"2013-11-09 03:00","2013","11","09","03:00","1.6","","-1.6","","79","","13","","7","","","M","98.79","","","","","","NA"
"2013-11-09 04:00","2013","11","09","04:00","2.0","","-0.8","","82","","10","","7","","","M","98.64","","","","","","NA"
"2013-11-09 05:00","2013","11","09","05:00","1.8","","0.3","","90","","9","","7","","","M","98.53","","","","","","NA"
"2013-11-09 06:00","2013","11","09","06:00","1.2","","0.3","","94","","7","","7","","","M","98.45","","","","","","NA"
"2013-11-09 07:00","2013","11","09","07:00","0.4","","-0.1","","96","","5","","9","","","M","98.35","","","","","","NA"
"2013-11-09 08:00","2013","11","09","08:00","0.4","","0.0","","97","","5","","9","","","M","98.29","","","","","","NA"
"2013-11-09 09:00","2013","11","09","09:00","0.4","","0.0","","97","","5","","9","","","M","98.23","","","","","","NA"
"2013-11-09 10:00","2013","11","09","10:00","0.4","","0.0","","97","","6","","9","","","M","98.12","","","","","","NA"
"2013-11-09 11:00","2013","11","09","11:00","0.8","","0.3","","96","","6","","7","","","M","98.05","","","","","","NA"
"2013-11-09 12:00","2013","11","09","12:00","0.7","","0.2","","96","","5","","9","","","M","97.97","","","","","","NA"
"2013-11-09 13:00","2013","11","09","13:00","1.0","","0.5","","96","","4","","11","","","M","97.92","","","","","","NA"
"2013-11-09 14:00","2013","11","09","14:00","0.9","","0.4","","96","","4","","9","","","M","97.88","","","","","","NA"
"2013-11-09 15:00","2013","11","09","15:00","1.0","","0.6","","97","","4","","7","","","M","97.85","","","","","","NA"
"2013-11-09 16:00","2013","11","09","16:00","0.9","","0.5","","97","","4","","7","","","M","97.88","","","","","","NA"
"2013-11-09 17:00","2013","11","09","17:00","0.5","","0.1","","97","","3","","9","","","M","97.91","","","","","","NA"
"2013-11-09 18:00","2013","11","09","18:00","0.3","","0.0","","98","","4","","9","","","M","97.96","","","","","","NA"
"2013-11-09 19:00","2013","11","09","19:00","0.3","","0.0","","98","","4","","7","","","M","98.03","","","","","","NA"
"2013-11-09 20:00","2013","11","09","20:00","0.4","","0.1","","98","","2","","6","","","M","98.09","","","","","","NA"
"2013-11-09 21:00","2013","11","09","21:00","0.5","","0.1","","97","","1","","6","","","M","98.14","","","","","","NA"
"2013-11-09 22:00","2013","11","09","22:00","0.4","","0.0","","97","","36","","6","","","M","98.22","","","","","","NA"
"2013-11-09 23:00","2013","11","09","23:00","0.4","","0.0","","97","","35","","7","","","M","98.31","","","","","","NA"
"2013-11-10 00:00","2013","11","10","00:00","0.3","","-0.3","","96","","36","","7","","","M","98.39","","","","","","NA"
"2013-11-10 01:00","2013","11","10","01:00","0.1","","-0.5","","96","","36","","7","","","M","98.50","","","","","","NA"
"2013-11-10 02:00","2013","11","10","02:00","0.1","","-0.7","","94","","34","","7","","","M","98.59","","","","","","NA"
"2013-11-10 03:00","2013","11","10","03:00","0.2","","-1.1","","91","","34","","11","","","M","98.71","","","","","","NA"
"2013-11-10 04:00","2013","11","10","04:00","-0.1","","-1.2","","92","","35","","9","","","M","98.82","","","","-3","","NA"
"2013-11-10 05:00","2013","11","10","05:00","-0.1","","-1.2","","92","","33","","6","","","M","98.98","","","","-2","","NA"
"2013-11-10 06:00","2013","11","10","06:00","-0.2","","-1.5","","91","","36","","6","","","M","99.11","","","","-2","","NA"
"2013-11-10 07:00","2013","11","10","07:00","-0.5","","-1.4","","94","","32","","4","","","M","99.23","","","","-2","","NA"
"2013-11-10 08:00","2013","11","10","08:00","-0.8","","-2.4","","89","","35","","4","","","M","99.32","","","","-2","","NA"
"2013-11-10 09:00","2013","11","10","09:00","-1.2","","-2.6","","90","","34","","6","","","M","99.41","","","","-3","","NA"
"2013-11-10 10:00","2013","11","10","10:00","-0.6","","-2.7","","86","","34","","6","","","M","99.51","","","","-3","","NA"
"2013-11-10 11:00","2013","11","10","11:00","-0.4","","-2.0","","89","","34","","4","","","M","99.56","","","","-2","","NA"
"2013-11-10 12:00","2013","11","10","12:00","-0.2","","-3.7","","77","","31","","7","","","M","99.57","","","","-3","","NA"
"2013-11-10 13:00","2013","11","10","13:00","0.4","","-4.3","","71","","32","","6","","","M","99.48","","","","","","NA"
"2013-11-10 14:00","2013","11","10","14:00","0.2","","-3.1","","78","","28","","6","","","M","99.47","","","","","","NA"
"2013-11-10 15:00","2013","11","10","15:00","0.7","","-3.0","","76","","27","","11","","","M","99.43","","","","","","NA"
"2013-11-10 16:00","2013","11","10","16:00","1.0","","-1.8","","82","","24","","11","","","M","99.33","","","","","","NA"
"2013-11-10 17:00","2013","11","10","17:00","1.4","","-1.3","","82","","24","","13","","","M","99.25","","","","","","NA"
"2013-11-10 18:00","2013","11","10","18:00","2.4","","-0.3","","82","","22","","15","","","M","99.19","","","","","","NA"
"2013-11-10 19:00","2013","11","10","19:00","3.1","","0.2","","81","","24","","19","","","M","99.10","","","","","","NA"
"2013-11-10 20:00","2013","11","10","20:00","2.3","","0.9","","90","","24","","20","","","M","99.00","","","","","","NA"
"2013-11-10 21:00","2013","11","10","21:00","2.3","","1.5","","94","","25","","24","","","M","98.91","","","","","","NA"
"2013-11-10 22:00","2013","11","10","22:00","1.8","","0.6","","92","","26","","19","","","M","98.84","","","","","","NA"
"2013-11-10 23:00","2013","11","10","23:00","2.3","","-0.2","","84","","26","","20","","","M","98.75","","","","","","NA"
"2013-11-11 00:00","2013","11","11","00:00","-1.3","","-4.2","","81","","33","","9","","","M","98.90","","","","-5","","NA"
"2013-11-11 01:00","2013","11","11","01:00","-3.1","","-7.4","","72","","34","","11","","","M","98.97","","","","-7","","NA"
"2013-11-11 02:00","2013","11","11","02:00","-4.6","","-8.9","","72","","32","","6","","","M","99.06","","","","-7","","NA"
"2013-11-11 03:00","2013","11","11","03:00","-5.3","","-9.1","","75","","32","","9","","","M","99.15","","","","-9","","NA"
"2013-11-11 04:00","2013","11","11","04:00","-6.2","","-10.8","","70","","31","","9","","","M","99.21","","","","-10","","NA"
"2013-11-11 05:00","2013","11","11","05:00","-6.2","","-11.3","","67","","32","","11","","","M","99.25","","","","-11","","NA"
"2013-11-11 06:00","2013","11","11","06:00","-6.2","","-10.9","","69","","32","","7","","","M","99.28","","","","-10","","NA"
"2013-11-11 07:00","2013","11","11","07:00","-6.2","","-10.7","","70","","33","","9","","","M","99.32","","","","-10","","NA"
"2013-11-11 08:00","2013","11","11","08:00","-6.7","","-11.4","","69","","33","","9","","","M","99.41","","","","-11","","NA"
"2013-11-11 09:00","2013","11","11","09:00","-6.8","","-11.8","","68","","33","","9","","","M","99.49","","","","-11","","NA"
"2013-11-11 10:00","2013","11","11","10:00","-6.9","","-12.1","","66","","34","","9","","","M","99.57","","","","-11","","NA"
"2013-11-11 11:00","2013","11","11","11:00","-7.3","","-12.2","","68","","33","","7","","","M","99.66","","","","-11","","NA"
"2013-11-11 12:00","2013","11","11","12:00","-8.0","","-13.1","","67","","33","","9","","","M","99.74","","","","-13","","NA"
"2013-11-11 13:00","2013","11","11","13:00","-7.7","","-13.5","","63","","34","","11","","","M","99.79","","","","-13","","NA"
"2013-11-11 14:00","2013","11","11","14:00","-7.0","","-13.1","","62","","35","","11","","","M","99.85","","","","-12","","NA"
"2013-11-11 15:00","2013","11","11","15:00","-6.5","","-12.4","","63","","35","","11","","","M","99.90","","","","-11","","NA"
"2013-11-11 16:00","2013","11","11","16:00","-7.7","","-12.7","","67","","35","","13","","","M","100.03","","","","-13","","NA"
"2013-11-11 17:00","2013","11","11","17:00","-8.0","","-12.6","","69","","34","","7","","","M","100.13","","","","-12","","NA"
"2013-11-11 18:00","2013","11","11","18:00","-8.0","","-12.1","","72","","34","","6","","","M","100.24","","","","-11","","NA"
"2013-11-11 19:00","2013","11","11","19:00","-7.7","","-11.7","","73","","34","","6","","","M","100.31","","","","-11","","NA"
"2013-11-11 20:00","2013","11","11","20:00","-7.0","","-11.3","","71","","34","","6","","","M","100.43","","","","-10","","NA"
"2013-11-11 21:00","2013","11","11","21:00","-6.9","","-10.9","","73","","33","","7","","","M","100.50","","","","-10","","NA"
"2013-11-11 22:00","2013","11","11","22:00","-7.7","","-12.4","","69","","35","","13","","","M","100.60","","","","-13","","NA"
"2013-11-11 23:00","2013","11","11","23:00","-8.4","","-13.1","","69","","36","","9","","","M","100.65","","","","-13","","NA"
"2013-11-12 00:00","2013","11","12","00:00","-8.7","","-13.1","","70","","33","","7","","","M","100.69","","","","-13","","NA"
"2013-11-12 01:00","2013","11","12","01:00","-9.5","","-14.1","","69","","36","","7","","","M","100.77","","","","-13","","NA"
"2013-11-12 02:00","2013","11","12","02:00","-10.3","","-15.5","","66","","33","","9","","","M","100.85","","","","-15","","NA"
"2013-11-12 03:00","2013","11","12","03:00","-11.1","","-16.9","","62","","34","","7","","","M","100.91","","","","-15","","NA"
"2013-11-12 04:00","2013","11","12","04:00","-11.8","","-18.2","","59","","34","","7","","","M","100.94","","","","-16","","NA"
"2013-11-12 05:00","2013","11","12","05:00","-12.4","","-18.2","","62","","36","","4","","","M","100.96","","","","-15","","NA"
"2013-11-12 06:00","2013","11","12","06:00","-12.5","","-17.7","","65","","36","","7","","","M","100.96","","","","-17","","NA"
"2013-11-12 07:00","2013","11","12","07:00","-12.6","","-16.8","","71","","2","","6","","","M","100.94","","","","-17","","NA"
"2013-11-12 08:00","2013","11","12","08:00","-12.6","","-16.2","","74","","7","","4","","","M","100.95","","","","-15","","NA"
"2013-11-12 09:00","2013","11","12","09:00","-10.9","","-14.4","","75","","3","","4","","","M","100.98","","","","-13","","NA"
"2013-11-12 10:00","2013","11","12","10:00","-8.4","","-11.9","","76","","30","","6","","","M","100.94","","","","-12","","NA"
"2013-11-12 11:00","2013","11","12","11:00","-6.8","","-11.2","","71","","29","","6","","","M","100.91","","","","-10","","NA"
"2013-11-12 12:00","2013","11","12","12:00","-5.9","","-10.3","","71","","29","","6","","","M","100.82","","","","-9","","NA"
"2013-11-12 13:00","2013","11","12","13:00","-4.6","","-9.5","","69","","26","","11","","","M","100.69","","","","-9","","NA"
"2013-11-12 14:00","2013","11","12","14:00","-3.5","","-9.1","","65","","27","","9","","","M","100.60","","","","-7","","NA"
"2013-11-12 15:00","2013","11","12","15:00","-3.6","","-9.5","","64","","26","","15","","","M","100.57","","","","-9","","NA"
"2013-11-12 16:00","2013","11","12","16:00","-3.7","","-9.4","","65","","27","","11","","","M","100.51","","","","-8","","NA"
"2013-11-12 17:00","2013","11","12","17:00","-3.8","","-8.8","","68","","27","","9","","","M","100.40","","","","-8","","NA"
"2013-11-12 18:00","2013","11","12","18:00","-3.1","","-7.7","","70","","26","","11","","","M","100.39","","","","-7","","NA"
"2013-11-12 19:00","2013","11","12","19:00","-2.0","","-6.5","","71","","26","","13","","","M","100.29","","","","-6","","NA"
"2013-11-12 20:00","2013","11","12","20:00","-1.4","","-6.2","","70","","25","","11","","","M","100.19","","","","-5","","NA"
"2013-11-12 21:00","2013","11","12","21:00","-0.7","","-5.2","","72","","26","","15","","","M","100.20","","","","-5","","NA"
"2013-11-12 22:00","2013","11","12","22:00","-0.9","","-5.8","","69","","28","","13","","","M","100.16","","","","-5","","NA"
"2013-11-12 23:00","2013","11","12","23:00","-0.9","","-5.1","","73","","26","","13","","","M","100.12","","","","-5","","NA"
"2013-11-13 00:00","2013","11","13","00:00","-0.6","","-4.8","","73","","26","","13","","","M","100.05","","","","-5","","NA"
"2013-11-13 01:00","2013","11","13","01:00","-0.8","","-4.8","","74","","26","","13","","","M","99.96","","","","-5","","NA"
"2013-11-13 02:00","2013","11","13","02:00","-0.5","","-4.1","","77","","24","","13","","","M","99.85","","","","-5","","NA"
"2013-11-13 03:00","2013","11","13","03:00","0.6","","-3.2","","76","","24","","15","","","M","99.78","","","","","","NA"
"2013-11-13 04:00","2013","11","13","04:00","1.2","","-2.8","","75","","25","","17","","","M","99.69","","","","","","NA"
"2013-11-13 05:00","2013","11","13","05:00","1.4","","-2.1","","77","","23","","15","","","M","99.58","","","","","","NA"
"2013-11-13 06:00","2013","11","13","06:00","1.7","","-1.6","","79","","23","","17","","","M","99.43","","","","","","NA"
"2013-11-13 07:00","2013","11","13","07:00","2.1","","-1.2","","79","","24","","19","","","M","99.34","","","","","","NA"
"2013-11-13 08:00","2013","11","13","08:00","2.0","","-0.8","","82","","23","","19","","","M","99.27","","","","","","NA"
"2013-11-13 09:00","2013","11","13","09:00","1.9","","-0.9","","82","","22","","19","","","M","99.17","","","","","","NA"
"2013-11-13 10:00","2013","11","13","10:00","2.0","","-0.6","","83","","21","","15","","","M","98.99","","","","","","NA"
"2013-11-13 11:00","2013","11","13","11:00","2.1","","-0.7","","82","","21","","17","","","M","98.86","","","","","","NA"
"2013-11-13 12:00","2013","11","13","12:00","2.3","","-1.6","","75","","20","","20","","","M","98.64","","","","","","NA"
"2013-11-13 13:00","2013","11","13","13:00","3.4","","-0.9","","73","","21","","19","","","M","98.42","","","","","","NA"
"2013-11-13 14:00","2013","11","13","14:00","4.0","","-0.5","","72","","21","","22","","","M","98.30","","","","","","NA"
"2013-11-13 15:00","2013","11","13","15:00","3.9","","-0.1","","75","","20","","17","","","M","98.13","","","","","","NA"
"2013-11-13 16:00","2013","11","13","16:00","4.0","","0.9","","80","","20","","19","","","M","98.05","","","","","","NA"
"2013-11-13 17:00","2013","11","13","17:00","4.3","","1.5","","82","","20","","17","","","M","97.95","","","","","","NA"
"2013-11-13 18:00","2013","11","13","18:00","4.4","","1.1","","79","","23","","22","","","M","97.97","","","","","","NA"
"2013-11-13 19:00","2013","11","13","19:00","3.8","","1.8","","87","","23","","17","","","M","97.99","","","","","","NA"
"2013-11-13 20:00","2013","11","13","20:00","4.3","","2.3","","87","","25","","15","","","M","98.00","","","","","","NA"
"2013-11-13 21:00","2013","11","13","21:00","4.6","","1.6","","81","","26","","13","","","M","98.07","","","","","","NA"
"2013-11-13 22:00","2013","11","13","22:00","4.2","","1.2","","81","","26","","13","","","M","98.10","","","","","","NA"
"2013-11-13 23:00","2013","11","13","23:00","4.4","","0.9","","78","","26","","11","","","M","98.12","","","","","","NA"
"2013-11-14 00:00","2013","11","14","00:00","4.0","","1.0","","81","","27","","11","","","M","98.10","","","","","","NA"
"2013-11-14 01:00","2013","11","14","01:00","2.8","","0.7","","86","","24","","6","","","M","98.15","","","","","","NA"
"2013-11-14 02:00","2013","11","14","02:00","3.7","","1.6","","86","","26","","9","","","M","98.11","","","","","","NA"
"2013-11-14 03:00","2013","11","14","03:00","4.3","","1.8","","84","","27","","11","","","M","98.14","","","","","","NA"
"2013-11-14 04:00","2013","11","14","04:00","3.6","","1.6","","87","","26","","9","","","M","98.09","","","","","","NA"
"2013-11-14 05:00","2013","11","14","05:00","2.7","","0.7","","87","","24","","6","","","M","98.10","","","","","","NA"
"2013-11-14 06:00","2013","11","14","06:00","3.3","","1.0","","85","","26","","13","","","M","98.11","","","","","","NA"
"2013-11-14 07:00","2013","11","14","07:00","3.5","","0.7","","82","","26","","11","","","M","98.11","","","","","","NA"
"2013-11-14 08:00","2013","11","14","08:00","2.9","","0.7","","85","","25","","9","","","M","98.12","","","","","","NA"
"2013-11-14 09:00","2013","11","14","09:00","3.8","","-0.1","","76","","29","","13","","","M","98.26","","","","","","NA"
"2013-11-14 10:00","2013","11","14","10:00","3.2","","-0.8","","75","","31","","6","","","M","98.30","","","","","","NA"
"2013-11-14 11:00","2013","11","14","11:00","4.1","","-1.3","","68","","27","","7","","","M","98.34","","","","","","NA"
"2013-11-14 12:00","2013","11","14","12:00","3.8","","-1.4","","69","","28","","7","","","M","98.32","","","","","","NA"
"2013-11-14 13:00","2013","11","14","13:00","3.4","","-1.4","","71","","29","","6","","","M","98.23","","","","","","NA"
"2013-11-14 14:00","2013","11","14","14:00","4.0","","-1.3","","68","","26","","6","","","M","98.26","","","","","","NA"
"2013-11-14 15:00","2013","11","14","15:00","3.8","","-0.9","","71","","25","","6","","","M","98.28","","","","","","NA"
"2013-11-14 16:00","2013","11","14","16:00","3.3","","-1.1","","73","","24","","7","","","M","98.28","","","","","","NA"
"2013-11-14 17:00","2013","11","14","17:00","2.7","","0.0","","82","","24","","11","","","M","98.34","","","","","","NA"
"2013-11-14 18:00","2013","11","14","18:00","1.5","","0.6","","94","","24","","9","","","M","98.36","","","","","","NA"
"2013-11-14 19:00","2013","11","14","19:00","1.3","","0.8","","96","","24","","6","","","M","98.34","","","","","","NA"
"2013-11-14 20:00","2013","11","14","20:00","1.4","","0.9","","96","","24","","6","","","M","98.36","","","","","","NA"
"2013-11-14 21:00","2013","11","14","21:00","1.4","","0.9","","96","","23","","6","","","M","98.37","","","","","","NA"
"2013-11-14 22:00","2013","11","14","22:00","1.2","","0.8","","97","","22","","4","","","M","98.38","","","","","","NA"
"2013-11-14 23:00","2013","11","14","23:00","1.6","","1.2","","97","","21","","6","","","M","98.36","","","","","","NA"
"2013-11-15 00:00","2013","11","15","00:00","2.0","","1.5","","96","","22","","6","","","M","98.34","","","","","","NA"
"2013-11-15 01:00","2013","11","15","01:00","1.7","","1.1","","96","","24","","7","","","M","98.33","","","","","","NA"
"2013-11-15 02:00","2013","11","15","02:00","1.9","","1.3","","96","","24","","6","","","M","98.33","","","","","","NA"
"2013-11-15 03:00","2013","11","15","03:00","2.1","","0.7","","90","","27","","11","","","M","98.36","","","","","","NA"
"2013-11-15 04:00","2013","11","15","04:00","0.3","","-0.6","","94","","27","","7","","","M","98.36","","","","","","NA"
"2013-11-15 05:00","2013","11","15","05:00","-0.4","","-1.1","","95","","28","","4","","","M","98.39","","","","-2","","NA"
"2013-11-15 06:00","2013","11","15","06:00","-1.8","","-2.3","","96","","36","","2","","","M","98.43","","","","-3","","NA"
"2013-11-15 07:00","2013","11","15","07:00","-1.8","","-2.1","","98","","10","","2","","","M","98.45","","","","-3","","NA"
"2013-11-15 08:00","2013","11","15","08:00","-1.0","","-1.3","","98","","","","0","","","M","98.46","","","","","","NA"
"2013-11-15 09:00","2013","11","15","09:00","-0.3","","-0.6","","98","","","","0","","","M","98.51","","","","","","NA"
"2013-11-15 10:00","2013","11","15","10:00","1.2","","0.6","","96","","21","","6","","","M","98.50","","","","","","NA"
"2013-11-15 11:00","2013","11","15","11:00","2.7","","1.3","","90","","20","","9","","","M","98.48","","","","","","NA"
"2013-11-15 12:00","2013","11","15","12:00","3.1","","2.5","","96","","20","","9","","","M","98.45","","","","","","NA"
"2013-11-15 13:00","2013","11","15","13:00","3.6","","2.7","","94","","21","","13","","","M","98.42","","","","","","NA"
"2013-11-15 14:00","2013","11","15","14:00","4.3","","3.4","","94","","21","","13","","","M","98.41","","","","","","NA"
"2013-11-15 15:00","2013","11","15","15:00","4.4","","3.4","","93","","21","","11","","","M","98.40","","","","","","NA"
"2013-11-15 16:00","2013","11","15","16:00","4.4","","3.4","","93","","22","","9","","","M","98.42","","","","","","NA"
"2013-11-15 17:00","2013","11","15","17:00","4.4","","3.5","","94","","21","","9","","","M","98.45","","","","","","NA"
"2013-11-15 18:00","2013","11","15","18:00","4.2","","3.3","","94","","21","","9","","","M","98.49","","","","","","NA"
"2013-11-15 19:00","2013","11","15","19:00","4.1","","3.1","","93","","21","","7","","","M","98.51","","","","","","NA"
"2013-11-15 20:00","2013","11","15","20:00","3.8","","2.7","","93","","21","","7","","","M","98.54","","","","","","NA"
"2013-11-15 21:00","2013","11","15","21:00","3.4","","2.2","","92","","21","","9","","","M","98.55","","","","","","NA"
"2013-11-15 22:00","2013","11","15","22:00","2.7","","2.0","","95","","20","","7","","","M","98.59","","","","","","NA"
"2013-11-15 23:00","2013","11","15","23:00","3.4","","2.6","","94","","18","","9","","","M","98.61","","","","","","NA"
"2013-11-16 00:00","2013","11","16","00:00","2.4","","1.3","","92","","16","","4","","","M","98.56","","","","","","NA"
"2013-11-16 01:00","2013","11","16","01:00","2.6","","1.5","","92","","18","","9","","","M","98.55","","","","","","NA"
"2013-11-16 02:00","2013","11","16","02:00","4.4","","2.7","","89","","17","","11","","","M","98.52","","","","","","NA"
"2013-11-16 03:00","2013","11","16","03:00","4.6","","3.1","","90","","17","","11","","","M","98.52","","","","","","NA"
"2013-11-16 04:00","2013","11","16","04:00","4.5","","2.8","","89","","17","","9","","","M","98.46","","","","","","NA"
"2013-11-16 05:00","2013","11","16","05:00","3.1","","1.8","","91","","14","","6","","","M","98.44","","","","","","NA"
"2013-11-16 06:00","2013","11","16","06:00","4.3","","2.8","","90","","17","","7","","","M","98.45","","","","","","NA"
"2013-11-16 07:00","2013","11","16","07:00","5.7","","3.6","","86","","17","","15","","","M","98.37","","","","","","NA"
"2013-11-16 08:00","2013","11","16","08:00","6.0","","3.6","","85","","17","","13","","","M","98.32","","","","","","NA"
"2013-11-16 09:00","2013","11","16","09:00","6.3","","3.3","","81","","17","","17","","","M","98.26","","","","","","NA"
"2013-11-16 10:00","2013","11","16","10:00","6.4","","3.9","","84","","17","","17","","","M","98.23","","","","","","NA"
"2013-11-16 11:00","2013","11","16","11:00","6.7","","3.3","","79","","18","","19","","","M","98.19","","","","","","NA"
"2013-11-16 12:00","2013","11","16","12:00","6.9","","4.2","","83","","18","","20","","","M","98.14","","","","","","NA"
"2013-11-16 13:00","2013","11","16","13:00","6.9","","4.6","","85","","18","","20","","","M","98.05","","","","","","NA"
"2013-11-16 14:00","2013","11","16","14:00","7.2","","4.7","","84","","18","","20","","","M","97.98","","","","","","NA"
"2013-11-16 15:00","2013","11","16","15:00","7.2","","5.0","","86","","18","","19","","","M","97.95","","","","","","NA"
"2013-11-16 16:00","2013","11","16","16:00","7.1","","5.6","","90","","18","","22","","","M","97.93","","","","","","NA"
"2013-11-16 17:00","2013","11","16","17:00","7.5","","5.8","","89","","18","","17","","","M","97.85","","","","","","NA"
"2013-11-16 18:00","2013","11","16","18:00","7.7","","6.3","","91","","17","","17","","","M","97.83","","","","","","NA"
"2013-11-16 19:00","2013","11","16","19:00","8.3","","6.4","","88","","17","","15","","","M","97.76","","","","","","NA"
"2013-11-16 20:00","2013","11","16","20:00","8.8","","6.6","","86","","16","","11","","","M","97.63","","","","","","NA"
"2013-11-16 21:00","2013","11","16","21:00","8.2","","7.0","","92","","14","","7","","","M","97.50","","","","","","NA"
"2013-11-16 22:00","2013","11","16","22:00","7.8","","6.9","","94","","12","","6","","","M","97.36","","","","","","NA"
"2013-11-16 23:00","2013","11","16","23:00","8.1","","7.1","","93","","14","","6","","","M","97.18","","","","","","NA"
"2013-11-17 00:00","2013","11","17","00:00","9.3","","8.5","","95","","17","","15","","","M","97.03","","","","","","NA"
"2013-11-17 01:00","2013","11","17","01:00","9.6","","8.7","","94","","18","","13","","","M","96.98","","","","","","NA"
"2013-11-17 02:00","2013","11","17","02:00","8.1","","7.5","","96","","18","","17","","","M","96.97","","","","","","NA"
"2013-11-17 03:00","2013","11","17","03:00","7.6","","7.2","","97","","18","","13","","","M","97.00","","","","","","NA"
"2013-11-17 04:00","2013","11","17","04:00","7.3","","6.9","","97","","18","","13","","","M","96.97","","","","","","NA"
"2013-11-17 05:00","2013","11","17","05:00","7.2","","6.8","","97","","19","","7","","","M","96.98","","","","","","NA"
"2013-11-17 06:00","2013","11","17","06:00","7.1","","6.8","","98","","18","","7","","","M","96.94","","","","","","NA"
"2013-11-17 07:00","2013","11","17","07:00","7.1","","6.8","","98","","17","","7","","","M","96.94","","","","","","NA"
"2013-11-17 08:00","2013","11","17","08:00","7.1","","6.8","","98","","18","","13","","","M","96.98","","","","","","NA"
"2013-11-17 09:00","2013","11","17","09:00","7.3","","7.0","","98","","18","","15","","","M","97.01","","","","","","NA"
"2013-11-17 10:00","2013","11","17","10:00","7.2","","6.9","","98","","18","","11","","","M","97.01","","","","","","NA"
"2013-11-17 11:00","2013","11","17","11:00","7.4","","7.1","","98","","17","","11","","","M","96.99","","","","","","NA"
"2013-11-17 12:00","2013","11","17","12:00","7.9","","7.6","","98","","18","","15","","","M","96.92","","","","","","NA"
"2013-11-17 13:00","2013","11","17","13:00","8.3","","8.0","","98","","18","","11","","","M","96.82","","","","","","NA"
"2013-11-17 14:00","2013","11","17","14:00","8.4","","8.1","","98","","18","","6","","","M","96.78","","","","","","NA"
"2013-11-17 15:00","2013","11","17","15:00","7.6","","7.3","","98","","21","","2","","","M","96.70","","","","","","NA"
"2013-11-17 16:00","2013","11","17","16:00","7.7","","7.4","","98","","1","","2","","","M","96.55","","","","","","NA"
"2013-11-17 17:00","2013","11","17","17:00","7.7","","7.4","","98","","","","0","","","M","96.50","","","","","","NA"
"2013-11-17 18:00","2013","11","17","18:00","7.8","","7.5","","98","","4","","6","","","M","96.41","","","","","","NA"
"2013-11-17 19:00","2013","11","17","19:00","7.7","","7.4","","98","","4","","6","","","M","96.40","","","","","","NA"
"2013-11-17 20:00","2013","11","17","20:00","7.6","","7.3","","98","","4","","9","","","M","96.31","","","","","","NA"
"2013-11-17 21:00","2013","11","17","21:00","6.5","","6.2","","98","","3","","13","","","M","96.23","","","","","","NA"
"2013-11-17 22:00","2013","11","17","22:00","4.0","","3.7","","98","","1","","17","","","M","96.23","","","","","","NA"
"2013-11-17 23:00","2013","11","17","23:00","2.2","","1.7","","96","","2","","15","","","M","96.25","","","","","","NA"
"2013-11-18 00:00","2013","11","18","00:00","1.2","","0.4","","94","","3","","20","","","M","96.28","","","","","","NA"
"2013-11-18 01:00","2013","11","18","01:00","1.0","","0.3","","95","","36","","11","","","M","96.31","","","","","","NA"
"2013-11-18 02:00","2013","11","18","02:00","0.5","","-0.5","","93","","36","","11","","","M","96.41","","","","","","NA"
"2013-11-18 03:00","2013","11","18","03:00","-0.1","","-1.1","","93","","35","","11","","","M","96.54","","","","-4","","NA"
"2013-11-18 04:00","2013","11","18","04:00","-0.9","","-2.2","","91","","33","","6","","","M","96.70","","","","-3","","NA"
"2013-11-18 05:00","2013","11","18","05:00","-1.5","","-2.2","","95","","32","","6","","","M","96.85","","","","-4","","NA"
"2013-11-18 06:00","2013","11","18","06:00","-2.3","","-3.4","","92","","32","","7","","","M","96.98","","","","-5","","NA"
"2013-11-18 07:00","2013","11","18","07:00","-2.8","","-3.8","","93","","34","","6","","","M","97.13","","","","-5","","NA"
"2013-11-18 08:00","2013","11","18","08:00","-3.6","","-4.9","","91","","32","","9","","","M","97.30","","","","-7","","NA"
"2013-11-18 09:00","2013","11","18","09:00","-3.8","","-5.3","","89","","33","","9","","","M","97.47","","","","-8","","NA"
"2013-11-18 10:00","2013","11","18","10:00","-4.2","","-5.8","","89","","32","","7","","","M","97.65","","","","-7","","NA"
"2013-11-18 11:00","2013","11","18","11:00","-4.2","","-5.6","","90","","32","","7","","","M","97.80","","","","-7","","NA"
"2013-11-18 12:00","2013","11","18","12:00","-3.9","","-6.3","","83","","33","","9","","","M","97.95","","","","-8","","NA"
"2013-11-18 13:00","2013","11","18","13:00","-3.9","","-6.8","","80","","32","","13","","","M","98.11","","","","-9","","NA"
"2013-11-18 14:00","2013","11","18","14:00","-3.9","","-6.4","","83","","32","","11","","","M","98.30","","","","-8","","NA"
"2013-11-18 15:00","2013","11","18","15:00","-4.1","","-7.4","","78","","31","","11","","","M","98.47","","","","-9","","NA"
"2013-11-18 16:00","2013","11","18","16:00","-4.5","","-8.3","","75","","33","","11","","","M","98.66","","","","-9","","NA"
"2013-11-18 17:00","2013","11","18","17:00","-5.2","","-9.0","","75","","33","","9","","","M","98.81","","","","-9","","NA"
"2013-11-18 18:00","2013","11","18","18:00","-6.0","","-9.5","","76","","34","","9","","","M","99.04","","","","-10","","NA"
"2013-11-18 19:00","2013","11","18","19:00","-6.2","","-10.5","","72","","35","","13","","","M","99.14","","","","-12","","NA"
"2013-11-18 20:00","2013","11","18","20:00","-6.4","","-10.1","","75","","32","","7","","","M","99.25","","","","-10","","NA"
"2013-11-18 21:00","2013","11","18","21:00","-6.9","","-10.7","","74","","34","","9","","","M","99.37","","","","-11","","NA"
"2013-11-18 22:00","2013","11","18","22:00","-7.0","","-10.9","","74","","34","","9","","","M","99.46","","","","-11","","NA"
"2013-11-18 23:00","2013","11","18","23:00","-7.1","","-11.0","","74","","1","","7","","","M","99.55","","","","-11","","NA"
"2013-11-19 00:00","2013","11","19","00:00","-7.4","","-11.2","","74","","35","","7","","","M","99.68","","","","-11","","NA"
"2013-11-19 01:00","2013","11","19","01:00","-7.7","","-11.6","","74","","36","","9","","","M","99.78","","","","-12","","NA"
"2013-11-19 02:00","2013","11","19","02:00","-7.8","","-11.1","","77","","1","","7","","","M","99.85","","","","-11","","NA"
"2013-11-19 03:00","2013","11","19","03:00","-8.4","","-12.2","","74","","35","","7","","","M","99.95","","","","-12","","NA"
"2013-11-19 04:00","2013","11","19","04:00","-8.4","","-11.7","","77","","32","","4","","","M","100.06","","","","-11","","NA"
"2013-11-19 05:00","2013","11","19","05:00","-8.6","","-12.3","","75","","35","","7","","","M","100.13","","","","-12","","NA"
"2013-11-19 06:00","2013","11","19","06:00","-8.7","","-12.2","","76","","36","","6","","","M","100.21","","","","-12","","NA"
"2013-11-19 07:00","2013","11","19","07:00","-8.9","","-12.5","","75","","7","","2","","","M","100.26","","","","-10","","NA"
"2013-11-19 08:00","2013","11","19","08:00","-9.0","","-12.6","","75","","1","","2","","","M","100.32","","","","-10","","NA"
"2013-11-19 09:00","2013","11","19","09:00","-8.8","","-12.8","","73","","10","","2","","","M","100.40","","","","-10","","NA"
"2013-11-19 10:00","2013","11","19","10:00","-8.3","","-12.4","","72","","6","","6","","","M","100.44","","","","-12","","NA"
"2013-11-19 11:00","2013","11","19","11:00","-7.5","","-12.1","","70","","8","","6","","","M","100.46","","","","-11","","NA"
"2013-11-19 12:00","2013","11","19","12:00","-7.4","","-11.9","","70","","2","","6","","","M","100.46","","","","-11","","NA"
"2013-11-19 13:00","2013","11","19","13:00","-6.5","","-11.3","","69","","8","","6","","","M","100.36","","","","-9","","NA"
"2013-11-19 14:00","2013","11","19","14:00","-5.2","","-10.7","","65","","19","","6","","","M","100.35","","","","-8","","NA"
"2013-11-19 15:00","2013","11","19","15:00","-5.0","","-9.4","","71","","10","","4","","","M","100.32","","","","-7","","NA"
"2013-11-19 16:00","2013","11","19","16:00","-5.2","","-9.0","","75","","17","","6","","","M","100.27","","","","-8","","NA"
"2013-11-19 17:00","2013","11","19","17:00","-5.0","","-7.9","","80","","12","","6","","","M","100.22","","","","-8","","NA"
"2013-11-19 18:00","2013","11","19","18:00","-5.7","","-8.6","","80","","13","","7","","","M","100.15","","","","-9","","NA"
"2013-11-19 19:00","2013","11","19","19:00","-6.2","","-8.8","","82","","14","","6","","","M","100.12","","","","-9","","NA"
"2013-11-19 20:00","2013","11","19","20:00","-5.9","","-8.2","","84","","13","","4","","","M","100.03","","","","-8","","NA"
"2013-11-19 21:00","2013","11","19","21:00","-5.2","","-7.2","","86","","14","","6","","","M","100.01","","","","-8","","NA"
"2013-11-19 22:00","2013","11","19","22:00","-3.6","","-5.9","","84","","15","","7","","","M","99.91","","","","-7","","NA"
"2013-11-19 23:00","2013","11","19","23:00","-1.2","","-3.6","","84","","16","","15","","","M","99.81","","","","-6","","NA"
"2013-11-20 00:00","2013","11","20","00:00","0.3","","-2.7","","80","","17","","17","","","M","99.75","","","","","","NA"
"2013-11-20 01:00","2013","11","20","01:00","0.8","","-2.1","","81","","17","","17","","","M","99.73","","","","","","NA"
"2013-11-20 02:00","2013","11","20","02:00","1.7","","-1.0","","82","","17","","17","","","M","99.62","","","","","","NA"
"2013-11-20 03:00","2013","11","20","03:00","1.9","","-0.9","","82","","17","","24","","","M","99.58","","","","","","NA"
"2013-11-20 04:00","2013","11","20","04:00","2.0","","-0.7","","82","","17","","20","","","M","99.49","","","","","","NA"
"2013-11-20 05:00","2013","11","20","05:00","2.9","","0.1","","82","","20","","17","","","M","99.51","","","","","","NA"
"2013-11-20 06:00","2013","11","20","06:00","3.9","","1.3","","83","","20","","22","","","M","99.44","","","","","","NA"
"2013-11-20 07:00","2013","11","20","07:00","4.2","","1.6","","83","","19","","20","","","M","99.40","","","","","","NA"
"2013-11-20 08:00","2013","11","20","08:00","4.3","","1.7","","83","","19","","19","","","M","99.38","","","","","","NA"
"2013-11-20 09:00","2013","11","20","09:00","4.4","","1.8","","83","","18","","24","","","M","99.36","","","","","","NA"
"2013-11-20 10:00","2013","11","20","10:00","4.5","","1.9","","83","","18","","24","","","M","99.41","","","","","","NA"
"2013-11-20 11:00","2013","11","20","11:00","4.7","","2.0","","83","","19","","20","","","M","99.45","","","","","","NA"
"2013-11-20 12:00","2013","11","20","12:00","4.9","","1.7","","80","","19","","28","","","M","99.51","","","","","","NA"
"2013-11-20 13:00","2013","11","20","13:00","4.0","","2.3","","89","","19","","24","","","M","99.56","","","","","","NA"
"2013-11-20 14:00","2013","11","20","14:00","4.4","","2.4","","87","","20","","19","","","M","99.57","","","","","","NA"
"2013-11-20 15:00","2013","11","20","15:00","3.6","","2.4","","92","","18","","19","","","M","99.51","","","","","","NA"
"2013-11-20 16:00","2013","11","20","16:00","3.7","","2.4","","91","","17","","19","","","M","99.51","","","","","","NA"
"2013-11-20 17:00","2013","11","20","17:00","3.9","","1.9","","87","","18","","19","","","M","99.59","","","","","","NA"
"2013-11-20 18:00","2013","11","20","18:00","4.2","","1.8","","84","","19","","15","","","M","99.64","","","","","","NA"
"2013-11-20 19:00","2013","11","20","19:00","4.3","","1.4","","81","","19","","19","","","M","99.68","","","","","","NA"
"2013-11-20 20:00","2013","11","20","20:00","4.2","","1.1","","80","","19","","17","","","M","99.72","","","","","","NA"
"2013-11-20 21:00","2013","11","20","21:00","3.7","","1.7","","87","","19","","17","","","M","99.72","","","","","","NA"
"2013-11-20 22:00","2013","11","20","22:00","3.3","","2.1","","92","","20","","17","","","M","99.72","","","","","","NA"
"2013-11-20 23:00","2013","11","20","23:00","2.5","","1.5","","93","","18","","17","","","M","99.76","","","","","","NA"
"2013-11-21 00:00","2013","11","21","00:00","2.0","","1.3","","95","","19","","13","","","M","99.79","","","","","","NA"
"2013-11-21 01:00","2013","11","21","01:00","1.5","","1.0","","96","","19","","11","","","M","99.77","","","","","","NA"
"2013-11-21 02:00","2013","11","21","02:00","2.0","","1.5","","96","","18","","11","","","M","99.74","","","","","","NA"
"2013-11-21 03:00","2013","11","21","03:00","1.5","","0.9","","96","","15","","6","","","M","99.74","","","","","","NA"
"2013-11-21 04:00","2013","11","21","04:00","1.4","","0.9","","96","","14","","6","","","M","99.70","","","","","","NA"
"2013-11-21 05:00","2013","11","21","05:00","1.6","","1.0","","96","","13","","6","","","M","99.64","","","","","","NA"
"2013-11-21 06:00","2013","11","21","06:00","2.2","","1.6","","96","","16","","6","","","M","99.61","","","","","","NA"
"2013-11-21 07:00","2013","11","21","07:00","2.9","","2.2","","95","","20","","11","","","M","99.60","","","","","","NA"
"2013-11-21 08:00","2013","11","21","08:00","2.8","","2.1","","95","","18","","7","","","M","99.60","","","","","","NA"
"2013-11-21 09:00","2013","11","21","09:00","3.1","","2.3","","94","","19","","9","","","M","99.62","","","","","","NA"
"2013-11-21 10:00","2013","11","21","10:00","3.1","","2.3","","94","","19","","9","","","M","99.61","","","","","","NA"
"2013-11-21 11:00","2013","11","21","11:00","3.4","","2.7","","95","","20","","7","","","M","99.57","","","","","","NA"
"2013-11-21 12:00","2013","11","21","12:00","3.3","","2.6","","95","","23","","7","","","M","99.63","","","","","","NA"
"2013-11-21 13:00","2013","11","21","13:00","3.1","","2.5","","96","","23","","6","","","M","99.60","","","","","","NA"
"2013-11-21 14:00","2013","11","21","14:00","3.4","","2.4","","93","","24","","7","","","M","99.64","","","","","","NA"
"2013-11-21 15:00","2013","11","21","15:00","3.2","","2.4","","94","","24","","6","","","M","99.64","","","","","","NA"
"2013-11-21 16:00","2013","11","21","16:00","3.2","","2.5","","95","","26","","6","","","M","99.67","","","","","","NA"
"2013-11-21 17:00","2013","11","21","17:00","3.2","","2.7","","97","","27","","6","","","M","99.70","","","","","","NA"
"2013-11-21 18:00","2013","11","21","18:00","0.3","","-1.0","","91","","2","","13","","","M","99.85","","","","","","NA"
"2013-11-21 19:00","2013","11","21","19:00","-2.2","","-4.0","","87","","2","","17","","","M","99.98","","","","-8","","NA"
"2013-11-21 20:00","2013","11","21","20:00","-3.4","","-5.2","","87","","1","","13","","","M","100.09","","","","-8","","NA"
"2013-11-21 21:00","2013","11","21","21:00","-4.6","","-7.1","","83","","3","","17","","","M","100.14","","","","-10","","NA"
"2013-11-21 22:00","2013","11","21","22:00","-5.3","","-7.5","","84","","3","","13","","","M","100.17","","","","-10","","NA"
"2013-11-21 23:00","2013","11","21","23:00","-5.3","","-7.5","","84","","3","","11","","","M","100.23","","","","-10","","NA"
"2013-11-22 00:00","2013","11","22","00:00","-6.2","","-8.7","","82","","1","","11","","","M","100.31","","","","-11","","NA"
"2013-11-22 01:00","2013","11","22","01:00","-6.8","","-9.4","","82","","2","","11","","","M","100.36","","","","-12","","NA"
"2013-11-22 02:00","2013","11","22","02:00","-7.1","","-9.4","","84","","2","","11","","","M","100.43","","","","-12","","NA"
"2013-11-22 03:00","2013","11","22","03:00","-7.3","","-9.4","","85","","36","","7","","","M","100.50","","","","-11","","NA"
"2013-11-22 04:00","2013","11","22","04:00","-7.7","","-9.8","","85","","2","","11","","","M","100.51","","","","-13","","NA"
"2013-11-22 05:00","2013","11","22","05:00","-8.3","","-10.8","","82","","3","","11","","","M","100.51","","","","-14","","NA"
"2013-11-22 06:00","2013","11","22","06:00","-8.7","","-10.9","","84","","2","","7","","","M","100.53","","","","-13","","NA"
"2013-11-22 07:00","2013","11","22","07:00","-9.1","","-11.4","","83","","1","","7","","","M","100.62","","","","-13","","NA"
"2013-11-22 08:00","2013","11","22","08:00","-9.4","","-11.6","","84","","4","","11","","","M","100.60","","","","-15","","NA"
"2013-11-22 09:00","2013","11","22","09:00","-9.9","","-11.8","","86","","3","","9","","","M","100.59","","","","-15","","NA"
"2013-11-22 10:00","2013","11","22","10:00","-9.3","","-11.9","","81","","4","","9","","","M","100.60","","","","-14","","NA"
"2013-11-22 11:00","2013","11","22","11:00","-8.2","","-11.8","","75","","2","","6","","","M","100.59","","","","-11","","NA"
"2013-11-22 12:00","2013","11","22","12:00","-6.4","","-11.1","","69","","36","","4","","","M","100.55","","","","-8","","NA"
"2013-11-22 13:00","2013","11","22","13:00","-5.5","","-10.5","","68","","11","","6","","","M","100.41","","","","-8","","NA"
"2013-11-22 14:00","2013","11","22","14:00","-5.4","","-9.4","","73","","24","","7","","","M","100.34","","","","-9","","NA"
"2013-11-22 15:00","2013","11","22","15:00","-5.8","","-8.4","","82","","24","","6","","","M","100.29","","","","-9","","NA"
"2013-11-22 16:00","2013","11","22","16:00","-5.5","","-8.2","","81","","8","","2","","","M","100.19","","","","-6","","NA"
"2013-11-22 17:00","2013","11","22","17:00","-5.6","","-7.1","","89","","14","","9","","","M","100.03","","","","-10","","NA"
"2013-11-22 18:00","2013","11","22","18:00","-5.5","","-6.5","","93","","13","","9","","","M","99.83","","","","-10","","NA"
"2013-11-22 19:00","2013","11","22","19:00","-4.4","","-5.3","","93","","31","","9","","","M","99.88","","","","-8","","NA"
"2013-11-22 20:00","2013","11","22","20:00","-6.6","","-8.6","","86","","33","","7","","","M","99.96","","","","-10","","NA"
"2013-11-22 21:00","2013","11","22","21:00","-8.3","","-9.9","","88","","31","","6","","","M","100.00","","","","-12","","NA"
"2013-11-22 22:00","2013","11","22","22:00","-9.1","","-10.9","","87","","31","","7","","","M","100.05","","","","-13","","NA"
"2013-11-22 23:00","2013","11","22","23:00","-10.0","","-12.1","","85","","34","","7","","","M","100.10","","","","-14","","NA"
"2013-11-23 00:00","2013","11","23","00:00","-11.8","","-14.0","","84","","1","","9","","","M","100.26","","","","-17","","NA"
"2013-11-23 01:00","2013","11","23","01:00","-13.5","","-16.0","","81","","1","","13","","","M","100.36","","","","-20","","NA"
"2013-11-23 02:00","2013","11","23","02:00","-15.1","","-17.6","","81","","36","","7","","","M","100.47","","","","-20","","NA"
"2013-11-23 03:00","2013","11","23","03:00","-16.2","","-19.1","","78","","36","","9","","","M","100.58","","","","-22","","NA"
"2013-11-23 04:00","2013","11","23","04:00","-16.8","","-19.3","","81","","36","","6","","","M","100.63","","","","-21","","NA"
"2013-11-23 05:00","2013","11","23","05:00","-17.6","","-20.0","","81","","1","","4","","","M","100.67","","","","-21","","NA"
"2013-11-23 06:00","2013","11","23","06:00","-18.2","","-20.6","","81","","1","","7","","","M","100.73","","","","-24","","NA"
"2013-11-23 07:00","2013","11","23","07:00","-18.5","","-20.8","","82","","36","","7","","","M","100.81","","","","-24","","NA"
"2013-11-23 08:00","2013","11","23","08:00","-18.3","","-20.8","","81","","1","","9","","","M","100.88","","","","-25","","NA"
"2013-11-23 09:00","2013","11","23","09:00","-18.0","","-20.5","","81","","1","","6","","","M","100.92","","","","-23","","NA"
"2013-11-23 10:00","2013","11","23","10:00","-16.0","","-19.2","","76","","35","","7","","","M","100.96","","","","-21","","NA"
"2013-11-23 11:00","2013","11","23","11:00","-14.2","","-19.0","","67","","36","","11","","","M","100.96","","","","-21","","NA"
"2013-11-23 12:00","2013","11","23","12:00","-13.6","","-19.1","","63","","34","","11","","","M","100.98","","","","-20","","NA"
"2013-11-23 13:00","2013","11","23","13:00","-13.2","","-19.1","","61","","35","","11","","","M","100.98","","","","-19","","NA"
"2013-11-23 14:00","2013","11","23","14:00","-12.9","","-19.1","","60","","1","","11","","","M","100.96","","","","-19","","NA"
"2013-11-23 15:00","2013","11","23","15:00","-13.5","","-19.9","","59","","35","","11","","","M","100.97","","","","-20","","NA"
"2013-11-23 16:00","2013","11","23","16:00","-13.9","","-19.7","","61","","35","","9","","","M","100.97","","","","-20","","NA"
"2013-11-23 17:00","2013","11","23","17:00","-14.6","","-19.6","","66","","36","","7","","","M","101.04","","","","-19","","NA"
"2013-11-23 18:00","2013","11","23","18:00","-15.3","","-19.1","","73","","35","","6","","","M","101.12","","","","-20","","NA"
"2013-11-23 19:00","2013","11","23","19:00","-16.0","","-19.6","","74","","35","","6","","","M","101.13","","","","-20","","NA"
"2013-11-23 20:00","2013","11","23","20:00","-16.2","","-20.0","","72","","36","","11","","","M","101.18","","","","-23","","NA"
"2013-11-23 21:00","2013","11","23","21:00","-16.9","","-20.6","","73","","35","","6","","","M","101.16","","","","-21","","NA"
"2013-11-23 22:00","2013","11","23","22:00","-18.2","","-20.7","","81","","1","","6","","","M","101.16","","","","-23","","NA"
"2013-11-23 23:00","2013","11","23","23:00","-19.2","","-21.7","","81","","2","","4","","","M","101.16","","","","-23","","NA"
"2013-11-24 00:00","2013","11","24","00:00","-20.0","","-22.5","","80","","3","","4","","","M","101.19","","","","-23","","NA"
"2013-11-24 01:00","2013","11","24","01:00","-21.2","","-23.2","","84","","3","","4","","","M","101.15","","","","-25","","NA"
"2013-11-24 02:00","2013","11","24","02:00","-23.0","","-25.1","","83","","7","","2","","","M","101.17","","","","-25","","NA"
"2013-11-24 03:00","2013","11","24","03:00","-23.5","","-25.6","","83","","","","0","","","M","101.18","","","","","","NA"
"2013-11-24 04:00","2013","11","24","04:00","-24.4","","-26.6","","82","","5","","2","","","M","101.13","","","","-26","","NA"
"2013-11-24 05:00","2013","11","24","05:00","-23.8","","-26.0","","82","","5","","7","","","M","101.12","","","","-30","","NA"
"2013-11-24 06:00","2013","11","24","06:00","-24.5","","-26.9","","80","","5","","7","","","M","101.11","","","","-31","","NA"
"2013-11-24 07:00","2013","11","24","07:00","-25.4","","-27.9","","80","","5","","4","","","M","101.09","","","","-29","","NA"
"2013-11-24 08:00","2013","11","24","08:00","-25.6","","-28.0","","80","","5","","6","","","M","101.06","","","","-31","","NA"
"2013-11-24 09:00","2013","11","24","09:00","-25.2","","-27.7","","80","","5","","6","","","M","101.02","","","","-31","","NA"
"2013-11-24 10:00","2013","11","24","10:00","-21.7","","-23.9","","82","","4","","6","","","M","100.97","","","","-27","","NA"
"2013-11-24 11:00","2013","11","24","11:00","-17.4","","-19.9","","81","","4","","7","","","M","100.89","","","","-23","","NA"
"2013-11-24 12:00","2013","11","24","12:00","-15.0","","-18.6","","74","","4","","7","","","M","100.70","","","","-20","","NA"
"2013-11-24 13:00","2013","11","24","13:00","-13.4","","-17.8","","69","","10","","7","","","M","100.58","","","","-18","","NA"
"2013-11-24 14:00","2013","11","24","14:00","-12.9","","-16.9","","72","","11","","7","","","M","100.43","","","","-17","","NA"
"2013-11-24 15:00","2013","11","24","15:00","-12.4","","-14.5","","84","","10","","6","","","M","100.26","","","","-16","","NA"
"2013-11-24 16:00","2013","11","24","16:00","-11.5","","-13.1","","88","","12","","7","","","M","100.05","","","","-16","","NA"
"2013-11-24 17:00","2013","11","24","17:00","-10.1","","-11.7","","88","","13","","11","","","M","99.84","","","","-16","","NA"
"2013-11-24 18:00","2013","11","24","18:00","-9.6","","-11.1","","89","","13","","11","","","M","99.59","","","","-15","","NA"
"2013-11-24 19:00","2013","11","24","19:00","-8.3","","-9.3","","92","","16","","9","","","M","99.39","","","","-13","","NA"
"2013-11-24 20:00","2013","11","24","20:00","-4.9","","-6.1","","91","","19","","24","","","M","99.26","","","","-12","","NA"
"2013-11-24 21:00","2013","11","24","21:00","-4.2","","-4.9","","95","","19","","20","","","M","99.14","","","","-11","","NA"
"2013-11-24 22:00","2013","11","24","22:00","-3.8","","-5.3","","89","","20","","19","","","M","98.99","","","","-10","","NA"
"2013-11-24 23:00","2013","11","24","23:00","-3.4","","-5.4","","86","","21","","19","","","M","98.88","","","","-9","","NA"
"2013-11-25 00:00","2013","11","25","00:00","-2.7","","-5.4","","82","","21","","19","","","M","98.72","","","","-8","","NA"
"2013-11-25 01:00","2013","11","25","01:00","-2.1","","-5.6","","77","","21","","20","","","M","98.58","","","","-8","","NA"
"2013-11-25 02:00","2013","11","25","02:00","-1.7","","-4.8","","79","","20","","19","","","M","98.43","","","","-7","","NA"
"2013-11-25 03:00","2013","11","25","03:00","-1.4","","-4.0","","82","","20","","19","","","M","98.33","","","","-7","","NA"
"2013-11-25 04:00","2013","11","25","04:00","-1.0","","-4.1","","79","","21","","22","","","M","98.24","","","","-7","","NA"
"2013-11-25 05:00","2013","11","25","05:00","-0.9","","-2.9","","86","","20","","19","","","M","98.07","","","","-6","","NA"
"2013-11-25 06:00","2013","11","25","06:00","-1.0","","-1.6","","96","","21","","19","","","M","98.02","","","","-6","","NA"
"2013-11-25 07:00","2013","11","25","07:00","-0.9","","-1.5","","96","","21","","20","","","M","97.94","","","","-6","","NA"
"2013-11-25 08:00","2013","11","25","08:00","0.0","","-0.9","","94","","21","","17","","","M","97.86","","","","-5","","NA"
"2013-11-25 09:00","2013","11","25","09:00","0.3","","-0.3","","96","","21","","20","","","M","97.81","","","","","","NA"
"2013-11-25 10:00","2013","11","25","10:00","0.9","","-0.1","","93","","26","","15","","","M","97.81","","","","","","NA"
"2013-11-25 11:00","2013","11","25","11:00","0.4","","-0.7","","92","","28","","17","","","M","97.85","","","","","","NA"
"2013-11-25 12:00","2013","11","25","12:00","0.1","","-1.3","","90","","29","","9","","","M","97.85","","","","","","NA"
"2013-11-25 13:00","2013","11","25","13:00","-0.2","","-1.8","","89","","31","","6","","","M","97.91","","","","-2","","NA"
"2013-11-25 14:00","2013","11","25","14:00","-0.3","","-2.5","","85","","30","","6","","","M","97.96","","","","-2","","NA"
"2013-11-25 15:00","2013","11","25","15:00","-0.4","","-2.1","","88","","32","","4","","","M","98.03","","","","-2","","NA"
"2013-11-25 16:00","2013","11","25","16:00","-0.9","","-2.7","","88","","31","","6","","","M","98.12","","","","-3","","NA"
"2013-11-25 17:00","2013","11","25","17:00","-1.5","","-3.4","","87","","32","","4","","","M","98.23","","","","-3","","NA"
"2013-11-25 18:00","2013","11","25","18:00","-2.0","","-3.1","","92","","33","","4","","","M","98.32","","","","-3","","NA"
"2013-11-25 19:00","2013","11","25","19:00","-2.0","","-3.6","","89","","","","0","","","M","98.35","","","","","","NA"
"2013-11-25 20:00","2013","11","25","20:00","-1.7","","-3.5","","87","","30","","6","","","M","98.41","","","","-4","","NA"
"2013-11-25 21:00","2013","11","25","21:00","-1.7","","-3.8","","86","","30","","4","","","M","98.39","","","","-3","","NA"
"2013-11-25 22:00","2013","11","25","22:00","-2.3","","-3.1","","94","","30","","2","","","M","98.36","","","","-3","","NA"
"2013-11-25 23:00","2013","11","25","23:00","-2.1","","-2.8","","95","","5","","4","","","M","98.34","","","","-4","","NA"
"2013-11-26 00:00","2013","11","26","00:00","-2.3","","-2.8","","96","","6","","2","","","M","98.36","","","","-3","","NA"
"2013-11-26 01:00","2013","11","26","01:00","-2.4","","-3.0","","96","","4","","4","","","M","98.35","","","","-4","","NA"
"2013-11-26 02:00","2013","11","26","02:00","-2.7","","-3.4","","95","","31","","7","","","M","98.40","","","","-6","","NA"
"2013-11-26 03:00","2013","11","26","03:00","-4.3","","-5.3","","93","","30","","6","","","M","98.56","","","","-7","","NA"
"2013-11-26 04:00","2013","11","26","04:00","-5.4","","-6.7","","91","","31","","7","","","M","98.64","","","","-9","","NA"
"2013-11-26 05:00","2013","11","26","05:00","-6.5","","-8.2","","88","","32","","6","","","M","98.73","","","","-9","","NA"
"2013-11-26 06:00","2013","11","26","06:00","-7.1","","-9.4","","84","","36","","9","","","M","98.75","","","","-11","","NA"
"2013-11-26 07:00","2013","11","26","07:00","-7.6","","-9.8","","84","","34","","6","","","M","98.84","","","","-11","","NA"
"2013-11-26 08:00","2013","11","26","08:00","-8.0","","-10.3","","83","","1","","4","","","M","98.92","","","","-10","","NA"
"2013-11-26 09:00","2013","11","26","09:00","-8.1","","-9.9","","87","","2","","6","","","M","98.97","","","","-11","","NA"
"2013-11-26 10:00","2013","11","26","10:00","-8.1","","-10.0","","86","","3","","6","","","M","99.07","","","","-11","","NA"
"2013-11-26 11:00","2013","11","26","11:00","-7.6","","-10.0","","83","","1","","6","","","M","99.13","","","","-11","","NA"
"2013-11-26 12:00","2013","11","26","12:00","-7.3","","-10.1","","80","","1","","7","","","M","99.14","","","","-11","","NA"
"2013-11-26 13:00","2013","11","26","13:00","-7.1","","-9.8","","81","","2","","9","","","M","99.14","","","","-11","","NA"
"2013-11-26 14:00","2013","11","26","14:00","-7.5","","-10.3","","80","","1","","9","","","M","99.19","","","","-12","","NA"
"2013-11-26 15:00","2013","11","26","15:00","-7.9","","-10.8","","80","","1","","7","","","M","99.22","","","","-12","","NA"
"2013-11-26 16:00","2013","11","26","16:00","-9.0","","-12.5","","76","","2","","11","","","M","99.35","","","","-14","","NA"
"2013-11-26 17:00","2013","11","26","17:00","-10.4","","-13.1","","81","","2","","7","","","M","99.45","","","","-14","","NA"
"2013-11-26 18:00","2013","11","26","18:00","-10.8","","-13.5","","80","","2","","7","","","M","99.58","","","","-15","","NA"
"2013-11-26 19:00","2013","11","26","19:00","-11.1","","-13.6","","82","","36","","4","","","M","99.60","","","","-14","","NA"
"2013-11-26 20:00","2013","11","26","20:00","-11.8","","-14.2","","82","","3","","7","","","M","99.62","","","","-16","","NA"
"2013-11-26 21:00","2013","11","26","21:00","-12.5","","-14.2","","87","","36","","6","","","M","99.64","","","","-16","","NA"
"2013-11-26 22:00","2013","11","26","22:00","-12.6","","-14.2","","88","","2","","7","","","M","99.67","","","","-17","","NA"
"2013-11-26 23:00","2013","11","26","23:00","-12.9","","-14.0","","91","","2","","7","","","M","99.70","","","","-17","","NA"
"2013-11-27 00:00","2013","11","27","00:00","-11.8","","-13.2","","89","","2","","7","","","M","99.74","","","","-16","","NA"
"2013-11-27 01:00","2013","11","27","01:00","-10.1","","-12.4","","83","","1","","11","","","M","99.77","","","","-16","","NA"
"2013-11-27 02:00","2013","11","27","02:00","-10.0","","-12.7","","81","","2","","11","","","M","99.83","","","","-16","","NA"
"2013-11-27 03:00","2013","11","27","03:00","-10.6","","-12.7","","85","","36","","6","","","M","99.85","","","","-14","","NA"
"2013-11-27 04:00","2013","11","27","04:00","-11.6","","-13.3","","87","","1","","6","","","M","99.86","","","","-15","","NA"
"2013-11-27 05:00","2013","11","27","05:00","-11.7","","-13.2","","89","","36","","6","","","M","99.91","","","","-15","","NA"
"2013-11-27 06:00","2013","11","27","06:00","-11.7","","-13.2","","89","","36","","6","","","M","99.95","","","","-15","","NA"
"2013-11-27 07:00","2013","11","27","07:00","-10.8","","-12.4","","88","","36","","7","","","M","99.99","","","","-15","","NA"
"2013-11-27 08:00","2013","11","27","08:00","-11.0","","-12.9","","86","","1","","7","","","M","100.02","","","","-15","","NA"
"2013-11-27 09:00","2013","11","27","09:00","-10.9","","-12.8","","86","","2","","6","","","M","100.05","","","","-15","","NA"
"2013-11-27 10:00","2013","11","27","10:00","-10.1","","-12.7","","81","","2","","7","","","M","100.03","","","","-14","","NA"
"2013-11-27 11:00","2013","11","27","11:00","-9.0","","-12.3","","77","","2","","11","","","M","100.02","","","","-14","","NA"
"2013-11-27 12:00","2013","11","27","12:00","-8.2","","-12.4","","72","","36","","9","","","M","99.96","","","","-13","","NA"
"2013-11-27 13:00","2013","11","27","13:00","-8.0","","-12.3","","71","","1","","9","","","M","99.92","","","","-13","","NA"
"2013-11-27 14:00","2013","11","27","14:00","-7.8","","-12.2","","71","","2","","6","","","M","99.89","","","","-11","","NA"
"2013-11-27 15:00","2013","11","27","15:00","-8.5","","-12.7","","72","","2","","7","","","M","99.87","","","","-12","","NA"
"2013-11-27 16:00","2013","11","27","16:00","-9.0","","-12.6","","75","","3","","7","","","M","99.91","","","","-13","","NA"
"2013-11-27 17:00","2013","11","27","17:00","-9.9","","-12.9","","79","","1","","6","","","M","99.93","","","","-13","","NA"
"2013-11-27 18:00","2013","11","27","18:00","-10.3","","-12.9","","81","","1","","4","","","M","99.94","","","","-13","","NA"
"2013-11-27 19:00","2013","11","27","19:00","-10.6","","-13.5","","79","","3","","7","","","M","99.94","","","","-15","","NA"
"2013-11-27 20:00","2013","11","27","20:00","-10.7","","-13.3","","81","","5","","6","","","M","99.96","","","","-14","","NA"
"2013-11-27 21:00","2013","11","27","21:00","-10.9","","-13.9","","79","","4","","7","","","M","99.94","","","","-15","","NA"
"2013-11-27 22:00","2013","11","27","22:00","-11.2","","-13.9","","80","","2","","4","","","M","99.96","","","","-14","","NA"
"2013-11-27 23:00","2013","11","27","23:00","-11.5","","-14.1","","81","","4","","6","","","M","99.96","","","","-15","","NA"
"2013-11-28 00:00","2013","11","28","00:00","-11.7","","-14.3","","81","","6","","4","","","M","99.95","","","","-14","","NA"
"2013-11-28 01:00","2013","11","28","01:00","-11.9","","-14.2","","83","","3","","2","","","M","99.94","","","","-13","","NA"
"2013-11-28 02:00","2013","11","28","02:00","-12.2","","-14.5","","83","","5","","2","","","M","99.97","","","","-13","","NA"
"2013-11-28 03:00","2013","11","28","03:00","-12.3","","-14.4","","84","","4","","2","","","M","99.99","","","","-14","","NA"
"2013-11-28 04:00","2013","11","28","04:00","-12.3","","-14.3","","85","","","","0","","","M","100.00","","","","","","NA"
"2013-11-28 05:00","2013","11","28","05:00","-12.4","","-14.6","","84","","5","","7","","","M","99.99","","","","-17","","NA"
"2013-11-28 06:00","2013","11","28","06:00","-12.5","","-14.8","","83","","4","","9","","","M","100.05","","","","-18","","NA"
"2013-11-28 07:00","2013","11","28","07:00","-13.3","","-15.3","","85","","5","","11","","","M","100.11","","","","-20","","NA"
"2013-11-28 08:00","2013","11","28","08:00","-14.2","","-16.3","","84","","5","","9","","","M","100.16","","","","-20","","NA"
"2013-11-28 09:00","2013","11","28","09:00","-14.7","","-16.8","","84","","4","","7","","","M","100.21","","","","-19","","NA"
"2013-11-28 10:00","2013","11","28","10:00","-13.6","","-16.4","","79","","5","","9","","","M","100.25","","","","-19","","NA"
"2013-11-28 11:00","2013","11","28","11:00","-12.6","","-16.3","","74","","5","","9","","","M","100.30","","","","-18","","NA"
"2013-11-28 12:00","2013","11","28","12:00","-10.7","","-15.8","","66","","3","","9","","","M","100.28","","","","-16","","NA"
"2013-11-28 13:00","2013","11","28","13:00","-9.5","","-14.5","","67","","7","","7","","","M","100.28","","","","-13","","NA"
"2013-11-28 14:00","2013","11","28","14:00","-8.5","","-14.7","","61","","5","","7","","","M","100.30","","","","-12","","NA"
"2013-11-28 15:00","2013","11","28","15:00","-9.2","","-15.0","","63","","7","","6","","","M","100.34","","","","-13","","NA"
"2013-11-28 16:00","2013","11","28","16:00","-9.4","","-15.1","","63","","5","","6","","","M","100.41","","","","-13","","NA"
"2013-11-28 17:00","2013","11","28","17:00","-11.3","","-14.3","","78","","6","","2","","","M","100.49","","","","-13","","NA"
"2013-11-28 18:00","2013","11","28","18:00","-14.4","","-16.8","","82","","","","0","","","M","100.58","","","","","","NA"
"2013-11-28 19:00","2013","11","28","19:00","-16.3","","-18.0","","87","","5","","6","","","M","100.65","","","","-21","","NA"
"2013-11-28 20:00","2013","11","28","20:00","-16.6","","-18.3","","87","","4","","7","","","M","100.73","","","","-22","","NA"
"2013-11-28 21:00","2013","11","28","21:00","-16.7","","-18.3","","87","","5","","9","","","M","100.77","","","","-23","","NA"
"2013-11-28 22:00","2013","11","28","22:00","-17.9","","-19.6","","87","","5","","9","","","M","100.82","","","","-24","","NA"
"2013-11-28 23:00","2013","11","28","23:00","-19.0","","-20.9","","85","","5","","11","","","M","100.86","","","","-26","","NA"
"2013-11-29 00:00","2013","11","29","00:00","-19.9","","-22.0","","83","","5","","11","","","M","100.91","","","","-28","","NA"
"2013-11-29 01:00","2013","11","29","01:00","-20.8","","-23.0","","82","","5","","11","","","M","100.93","","","","-29","","NA"
"2013-11-29 02:00","2013","11","29","02:00","-21.5","","-23.6","","83","","5","","11","","","M","100.96","","","","-29","","NA"
"2013-11-29 03:00","2013","11","29","03:00","-21.9","","-24.1","","82","","4","","11","","","M","101.01","","","","-30","","NA"
"2013-11-29 04:00","2013","11","29","04:00","-22.3","","-24.6","","82","","4","","11","","","M","101.02","","","","-30","","NA"
"2013-11-29 05:00","2013","11","29","05:00","-21.9","","-24.1","","82","","5","","11","","","M","101.06","","","","-30","","NA"
"2013-11-29 06:00","2013","11","29","06:00","-21.2","","-23.4","","82","","4","","13","","","M","101.10","","","","-30","","NA"
"2013-11-29 07:00","2013","11","29","07:00","-20.7","","-22.9","","82","","4","","11","","","M","101.14","","","","-28","","NA"
"2013-11-29 08:00","2013","11","29","08:00","-20.5","","-22.7","","82","","4","","11","","","M","101.17","","","","-28","","NA"
"2013-11-29 09:00","2013","11","29","09:00","-21.3","","-23.6","","82","","5","","11","","","M","101.21","","","","-29","","NA"
"2013-11-29 10:00","2013","11","29","10:00","-20.0","","-22.3","","82","","4","","9","","","M","101.24","","","","-27","","NA"
"2013-11-29 11:00","2013","11","29","11:00","-16.0","","-18.5","","81","","4","","9","","","M","101.24","","","","-22","","NA"
"2013-11-29 12:00","2013","11","29","12:00","-12.3","","-15.4","","78","","3","","6","","","M","101.20","","","","-16","","NA"
"2013-11-29 13:00","2013","11","29","13:00","-8.7","","-12.8","","72","","3","","6","","","M","101.11","","","","-12","","NA"
"2013-11-29 14:00","2013","11","29","14:00","-7.8","","-12.2","","71","","6","","6","","","M","101.03","","","","-11","","NA"
"2013-11-29 15:00","2013","11","29","15:00","-7.6","","-11.4","","74","","6","","6","","","M","100.98","","","","-11","","NA"
"2013-11-29 16:00","2013","11","29","16:00","-7.5","","-10.9","","77","","4","","7","","","M","100.95","","","","-11","","NA"
"2013-11-29 17:00","2013","11","29","17:00","-8.1","","-10.8","","81","","4","","7","","","M","100.85","","","","-12","","NA"
"2013-11-29 18:00","2013","11","29","18:00","-8.4","","-11.0","","81","","4","","7","","","M","100.77","","","","-12","","NA"
"2013-11-29 19:00","2013","11","29","19:00","-8.6","","-10.8","","84","","2","","6","","","M","100.69","","","","-12","","NA"
"2013-11-29 20:00","2013","11","29","20:00","-7.4","","-9.0","","88","","10","","9","","","M","100.60","","","","-12","","NA"
"2013-11-29 21:00","2013","11","29","21:00","-5.9","","-7.9","","86","","11","","9","","","M","100.48","","","","-10","","NA"
"2013-11-29 22:00","2013","11","29","22:00","-5.3","","-6.7","","90","","11","","6","","","M","100.41","","","","-8","","NA"
"2013-11-29 23:00","2013","11","29","23:00","-4.0","","-4.6","","96","","15","","4","","","M","100.31","","","","-6","","NA"
"2013-11-30 00:00","2013","11","30","00:00","-1.6","","-3.9","","84","","20","","17","","","M","100.23","","","","-7","","NA"
"2013-11-30 01:00","2013","11","30","01:00","-0.6","","-4.3","","76","","20","","20","","","M","100.08","","","","-6","","NA"
"2013-11-30 02:00","2013","11","30","02:00","-0.3","","-4.3","","74","","20","","19","","","M","99.96","","","","-5","","NA"
"2013-11-30 03:00","2013","11","30","03:00","-0.5","","-2.7","","85","","20","","22","","","M","99.81","","","","-6","","NA"
"2013-11-30 04:00","2013","11","30","04:00","-1.6","","-2.8","","92","","21","","19","","","M","99.72","","","","-7","","NA"
"2013-11-30 05:00","2013","11","30","05:00","-2.0","","-2.7","","95","","22","","13","","","M","99.63","","","","-6","","NA"
"2013-11-30 06:00","2013","11","30","06:00","-1.8","","-2.5","","95","","22","","11","","","M","99.54","","","","-6","","NA"
"2013-11-30 07:00","2013","11","30","07:00","-1.5","","-2.1","","96","","23","","13","","","M","99.47","","","","-6","","NA"
"2013-11-30 08:00","2013","11","30","08:00","-1.8","","-2.8","","93","","24","","7","","","M","99.43","","","","-4","","NA"
"2013-11-30 09:00","2013","11","30","09:00","-1.7","","-2.5","","94","","23","","6","","","M","99.42","","","","-4","","NA"
"2013-11-30 10:00","2013","11","30","10:00","-1.0","","-1.7","","95","","22","","6","","","M","99.39","","","","-3","","NA"
"2013-11-30 11:00","2013","11","30","11:00","-0.6","","-1.2","","96","","20","","7","","","M","99.33","","","","-3","","NA"
"2013-11-30 12:00","2013","11","30","12:00","-0.8","","-1.7","","94","","29","","4","","","M","99.31","","","","-2","","NA"
"2013-11-30 13:00","2013","11","30","13:00","-0.7","","-1.9","","92","","","","0","","","M","99.31","","","","","","NA"
"2013-11-30 14:00","2013","11","30","14:00","-1.1","","-2.2","","92","","4","","6","","","M","99.29","","","","-3","","NA"
"2013-11-30 15:00","2013","11","30","15:00","-1.0","","-2.4","","90","","3","","6","","","M","99.28","","","","-3","","NA"
"2013-11-30 16:00","2013","11","30","16:00","-1.4","","-2.7","","91","","2","","4","","","M","99.34","","","","-3","","NA"
"2013-11-30 17:00","2013","11","30","17:00","-1.9","","-2.9","","93","","2","","4","","","M","99.39","","","","-3","","NA"
"2013-11-30 18:00","2013","11","30","18:00","-2.2","","-3.0","","94","","2","","2","","","M","99.45","","","","-3","","NA"
"2013-11-30 19:00","2013","11","30","19:00","-2.4","","-3.6","","91","","2","","4","","","M","99.49","","","","-4","","NA"
"2013-11-30 20:00","2013","11","30","20:00","-3.6","","-4.3","","95","","33","","2","","","M","99.55","","","","-4","","NA"
"2013-11-30 21:00","2013","11","30","21:00","-3.8","","-4.6","","94","","2","","4","","","M","99.59","","","","-5","","NA"
"2013-11-30 22:00","2013","11","30","22:00","-3.9","","-4.7","","94","","3","","6","","","M","99.61","","","","-7","","NA"
"2013-11-30 23:00","2013","11","30","23:00","-3.4","","-4.5","","92","","3","","9","","","M","99.63","","","","-7","","NA"
