"Station Name","PUKASKWA (AUT)"
"Province","ONTARIO"
"Latitude","48.59"
"Longitude","-86.29"
"Elevation","207.60"
"Climate Identifier","6046767"
"WMO Identifier","71750"
"TC Identifier","WCJ"
"All times are specified in Local Standard Time (LST). Add 1 hour to adjust for Daylight Saving Time where and when it is observed."

"Legend"
"E","Estimated"
"M","Missing"
"NA","Not Available"

"Date/Time","Year","Month","Day","Time","Temp (°C)","Temp Flag","Dew Point Temp (°C)","Dew Point Temp Flag","Rel Hum (%)","Rel Hum Flag","Wind Dir (10s deg)","Wind Dir Flag","Wind Spd (km/h)","Wind Spd Flag","Visibility (km)","Visibility Flag","Stn Press (kPa)","Stn Press Flag","Hmdx","Hmdx Flag","Wind Chill","Wind Chill Flag","Weather"
"2001-09-01 00:00","2001","09","01","00:00","5.8","","5.4","","97","","8","","11","","","M","99.27","","","","","","NA"
"2001-09-01 01:00","2001","09","01","01:00","5.6","","4.9","","95","","8","","6","","","M","99.27","","","","","","NA"
"2001-09-01 02:00","2001","09","01","02:00","5.0","","5.0","","100","","9","","13","","","M","99.27","","","","","","NA"
"2001-09-01 03:00","2001","09","01","03:00","4.8","","4.5","","98","","9","","13","","","M","99.26","","","","","","NA"
"2001-09-01 04:00","2001","09","01","04:00","4.9","","4.9","","100","","9","","13","","","M","99.30","","","","","","NA"
"2001-09-01 05:00","2001","09","01","05:00","5.6","","5.2","","97","","9","","11","","","M","99.31","","","","","","NA"
"2001-09-01 06:00","2001","09","01","06:00","5.7","","4.8","","94","","10","","13","","","M","99.29","","","","","","NA"
"2001-09-01 07:00","2001","09","01","07:00","6.4","","5.2","","92","","11","","13","","","M","99.30","","","","","","NA"
"2001-09-01 08:00","2001","09","01","08:00","9.5","","7.8","","89","","21","","4","","","M","99.30","","","","","","NA"
"2001-09-01 09:00","2001","09","01","09:00","13.7","","10.1","","79","","25","","33","","","M","99.28","","","","","","NA"
"2001-09-01 10:00","2001","09","01","10:00","14.1","","9.9","","76","","25","","35","","","M","99.27","","","","","","NA"
"2001-09-01 11:00","2001","09","01","11:00","14.5","","9.7","","73","","24","","33","","","M","99.26","","","","","","NA"
"2001-09-01 12:00","2001","09","01","12:00","15.4","","10.2","","71","","24","","32","","","M","99.25","","","","","","NA"
"2001-09-01 13:00","2001","09","01","13:00","15.6","","10.2","","70","","24","","32","","","M","99.21","","","","","","NA"
"2001-09-01 14:00","2001","09","01","14:00","16.4","","10.3","","67","","22","","28","","","M","99.15","","","","","","NA"
"2001-09-01 15:00","2001","09","01","15:00","16.3","","10.0","","66","","22","","33","","","M","99.14","","","","","","NA"
"2001-09-01 16:00","2001","09","01","16:00","15.6","","9.9","","69","","22","","32","","","M","99.11","","","","","","NA"
"2001-09-01 17:00","2001","09","01","17:00","15.7","","10.3","","70","","22","","28","","","M","99.06","","","","","","NA"
"2001-09-01 18:00","2001","09","01","18:00","14.4","","9.8","","74","","21","","26","","","M","99.06","","","","","","NA"
"2001-09-01 19:00","2001","09","01","19:00","14.1","","10.1","","77","","20","","22","","","M","99.03","","","","","","NA"
"2001-09-01 20:00","2001","09","01","20:00","13.4","","9.8","","79","","16","","15","","","M","98.98","","","","","","NA"
"2001-09-01 21:00","2001","09","01","21:00","14.0","","9.0","","72","","18","","15","","","M","99.01","","","","","","NA"
"2001-09-01 22:00","2001","09","01","22:00","13.5","","11.0","","85","","22","","35","","","M","99.00","","","","","","NA"
"2001-09-01 23:00","2001","09","01","23:00","14.2","","11.2","","82","","19","","24","","","M","98.93","","","","","","NA"
"2001-09-02 00:00","2001","09","02","00:00","13.7","","10.7","","82","","17","","17","","","M","98.85","","","","","","NA"
"2001-09-02 01:00","2001","09","02","01:00","14.7","","12.6","","87","","19","","30","","","M","98.82","","","","","","NA"
"2001-09-02 02:00","2001","09","02","02:00","15.1","","13.7","","91","","19","","30","","","M","98.76","","","","","","NA"
"2001-09-02 03:00","2001","09","02","03:00","15.4","","13.8","","90","","20","","41","","","M","98.71","","","","","","NA"
"2001-09-02 04:00","2001","09","02","04:00","15.4","","14.3","","93","","20","","37","","","M","98.65","","","","","","NA"
"2001-09-02 05:00","2001","09","02","05:00","15.4","","14.3","","93","","20","","39","","","M","98.58","","","","","","NA"
"2001-09-02 06:00","2001","09","02","06:00","15.6","","14.5","","93","","20","","30","","","M","98.55","","","","","","NA"
"2001-09-02 07:00","2001","09","02","07:00","15.7","","14.4","","92","","20","","35","","","M","98.49","","","","","","NA"
"2001-09-02 08:00","2001","09","02","08:00","15.7","","14.6","","93","","19","","41","","","M","98.40","","","","","","NA"
"2001-09-02 09:00","2001","09","02","09:00","15.6","","14.8","","95","","20","","33","","","M","98.42","","","","","","NA"
"2001-09-02 10:00","2001","09","02","10:00","15.9","","14.9","","94","","19","","46","","","M","98.26","","","","","","NA"
"2001-09-02 11:00","2001","09","02","11:00","16.0","","14.5","","91","","20","","35","","","M","98.31","","","","","","NA"
"2001-09-02 12:00","2001","09","02","12:00","16.1","","14.5","","90","","19","","41","","","M","98.24","","","","","","NA"
"2001-09-02 13:00","2001","09","02","13:00","15.4","","15.3","","99","","19","","50","","","M","98.17","","","","","","NA"
"2001-09-02 14:00","2001","09","02","14:00","15.8","","15.2","","96","","20","","41","","","M","98.12","","","","","","NA"
"2001-09-02 15:00","2001","09","02","15:00","16.7","","14.7","","88","","19","","41","","","M","98.02","","","","","","NA"
"2001-09-02 16:00","2001","09","02","16:00","18.1","","14.8","","81","","20","","37","","","M","97.98","","","","","","NA"
"2001-09-02 17:00","2001","09","02","17:00","18.6","","14.7","","78","","20","","37","","","M","97.91","","","","","","NA"
"2001-09-02 18:00","2001","09","02","18:00","18.2","","15.1","","82","","20","","37","","","M","97.84","","","","","","NA"
"2001-09-02 19:00","2001","09","02","19:00","18.2","","15.1","","82","","19","","35","","","M","97.77","","","","","","NA"
"2001-09-02 20:00","2001","09","02","20:00","17.8","","15.4","","86","","19","","39","","","M","97.76","","","","","","NA"
"2001-09-02 21:00","2001","09","02","21:00","17.7","","15.7","","88","","19","","33","","","M","97.74","","","","","","NA"
"2001-09-02 22:00","2001","09","02","22:00","18.2","","15.6","","85","","20","","32","","","M","97.72","","","","","","NA"
"2001-09-02 23:00","2001","09","02","23:00","18.3","","16.1","","87","","19","","32","","","M","97.63","","","","","","NA"
"2001-09-03 00:00","2001","09","03","00:00","18.0","","16.2","","89","","21","","17","","","M","97.72","","","","","","NA"
"2001-09-03 01:00","2001","09","03","01:00","17.9","","16.4","","91","","22","","20","","","M","97.65","","","","","","NA"
"2001-09-03 02:00","2001","09","03","02:00","17.2","","16.2","","94","","22","","15","","","M","97.65","","","","","","NA"
"2001-09-03 03:00","2001","09","03","03:00","16.9","","16.4","","97","","19","","7","","","M","97.64","","","","","","NA"
"2001-09-03 04:00","2001","09","03","04:00","16.4","","16.3","","99","","24","","7","","","M","97.62","","","","","","NA"
"2001-09-03 05:00","2001","09","03","05:00","16.5","","15.2","","92","","30","","13","","","M","97.65","","","","","","NA"
"2001-09-03 06:00","2001","09","03","06:00","16.2","","14.0","","87","","27","","15","","","M","97.68","","","","","","NA"
"2001-09-03 07:00","2001","09","03","07:00","16.1","","13.6","","85","","26","","22","","","M","97.73","","","","","","NA"
"2001-09-03 08:00","2001","09","03","08:00","16.5","","13.2","","81","","26","","26","","","M","97.75","","","","","","NA"
"2001-09-03 09:00","2001","09","03","09:00","16.9","","13.4","","80","","26","","28","","","M","97.74","","","","","","NA"
"2001-09-03 10:00","2001","09","03","10:00","17.6","","12.7","","73","","27","","32","","","M","97.77","","","","","","NA"
"2001-09-03 11:00","2001","09","03","11:00","17.4","","12.7","","74","","28","","33","","","M","97.78","","","","","","NA"
"2001-09-03 12:00","2001","09","03","12:00","17.4","","12.9","","75","","28","","32","","","M","97.84","","","","","","NA"
"2001-09-03 13:00","2001","09","03","13:00","18.0","","12.7","","71","","28","","28","","","M","97.87","","","","","","NA"
"2001-09-03 14:00","2001","09","03","14:00","17.4","","13.3","","77","","28","","26","","","M","97.94","","","","","","NA"
"2001-09-03 15:00","2001","09","03","15:00","18.4","","13.7","","74","","30","","20","","","M","98.01","","","","","","NA"
"2001-09-03 16:00","2001","09","03","16:00","18.9","","14.0","","73","","30","","13","","","M","98.12","","","","","","NA"
"2001-09-03 17:00","2001","09","03","17:00","17.9","","11.0","","64","","36","","24","","","M","98.27","","","","","","NA"
"2001-09-03 18:00","2001","09","03","18:00","17.2","","9.9","","62","","1","","20","","","M","98.41","","","","","","NA"
"2001-09-03 19:00","2001","09","03","19:00","15.2","","9.8","","70","","1","","13","","","M","98.55","","","","","","NA"
"2001-09-03 20:00","2001","09","03","20:00","14.2","","9.6","","74","","3","","15","","","M","98.70","","","","","","NA"
"2001-09-03 21:00","2001","09","03","21:00","13.7","","9.4","","75","","5","","13","","","M","98.82","","","","","","NA"
"2001-09-03 22:00","2001","09","03","22:00","13.1","","9.6","","79","","3","","7","","","M","98.92","","","","","","NA"
"2001-09-03 23:00","2001","09","03","23:00","12.7","","9.4","","80","","2","","13","","","M","99.03","","","","","","NA"
"2001-09-04 00:00","2001","09","04","00:00","12.0","","8.5","","79","","4","","15","","","M","99.11","","","","","","NA"
"2001-09-04 01:00","2001","09","04","01:00","11.5","","8.5","","82","","3","","9","","","M","99.18","","","","","","NA"
"2001-09-04 02:00","2001","09","04","02:00","10.0","","8.1","","88","","36","","7","","","M","99.20","","","","","","NA"
"2001-09-04 03:00","2001","09","04","03:00","9.2","","8.6","","96","","","","0","","","M","99.25","","","","","","NA"
"2001-09-04 04:00","2001","09","04","04:00","8.5","","7.9","","96","","3","","11","","","M","99.33","","","","","","NA"
"2001-09-04 05:00","2001","09","04","05:00","8.7","","7.8","","94","","5","","9","","","M","99.41","","","","","","NA"
"2001-09-04 06:00","2001","09","04","06:00","7.7","","7.1","","96","","5","","13","","","M","99.51","","","","","","NA"
"2001-09-04 07:00","2001","09","04","07:00","8.4","","5.5","","82","","5","","17","","","M","99.58","","","","","","NA"
"2001-09-04 08:00","2001","09","04","08:00","10.3","","5.5","","72","","8","","17","","","M","99.66","","","","","","NA"
"2001-09-04 09:00","2001","09","04","09:00","11.5","","5.2","","65","","10","","13","","","M","99.71","","","","","","NA"
"2001-09-04 10:00","2001","09","04","10:00","13.0","","4.4","","56","","5","","15","","","M","99.75","","","","","","NA"
"2001-09-04 11:00","2001","09","04","11:00","13.8","","4.7","","54","","34","","7","","","M","99.75","","","","","","NA"
"2001-09-04 12:00","2001","09","04","12:00","14.5","","4.5","","51","","29","","4","","","M","99.71","","","","","","NA"
"2001-09-04 13:00","2001","09","04","13:00","15.1","","6.1","","55","","31","","13","","","M","99.71","","","","","","NA"
"2001-09-04 14:00","2001","09","04","14:00","16.1","","7.6","","57","","28","","15","","","M","99.67","","","","","","NA"
"2001-09-04 15:00","2001","09","04","15:00","14.6","","7.4","","62","","29","","17","","","M","99.66","","","","","","NA"
"2001-09-04 16:00","2001","09","04","16:00","14.6","","7.7","","63","","29","","19","","","M","99.65","","","","","","NA"
"2001-09-04 17:00","2001","09","04","17:00","15.0","","8.5","","65","","30","","9","","","M","99.63","","","","","","NA"
"2001-09-04 18:00","2001","09","04","18:00","13.9","","9.4","","74","","29","","11","","","M","99.64","","","","","","NA"
"2001-09-04 19:00","2001","09","04","19:00","13.2","","9.8","","80","","29","","7","","","M","99.61","","","","","","NA"
"2001-09-04 20:00","2001","09","04","20:00","12.9","","10.5","","85","","28","","9","","","M","99.62","","","","","","NA"
"2001-09-04 21:00","2001","09","04","21:00","11.0","","9.6","","91","","9","","4","","","M","99.63","","","","","","NA"
"2001-09-04 22:00","2001","09","04","22:00","9.5","","9.4","","99","","10","","6","","","M","99.61","","","","","","NA"
"2001-09-04 23:00","2001","09","04","23:00","9.4","","9.3","","99","","13","","7","","","M","99.61","","","","","","NA"
"2001-09-05 00:00","2001","09","05","00:00","9.9","","9.6","","98","","15","","9","","","M","99.57","","","","","","NA"
"2001-09-05 01:00","2001","09","05","01:00","11.1","","10.5","","96","","17","","9","","","M","99.59","","","","","","NA"
"2001-09-05 02:00","2001","09","05","02:00","13.1","","11.2","","88","","22","","22","","","M","99.60","","","","","","NA"
"2001-09-05 03:00","2001","09","05","03:00","13.3","","11.5","","89","","22","","20","","","M","99.63","","","","","","NA"
"2001-09-05 04:00","2001","09","05","04:00","13.5","","11.0","","85","","21","","22","","","M","99.61","","","","","","NA"
"2001-09-05 05:00","2001","09","05","05:00","12.3","","11.0","","92","","16","","9","","","M","99.60","","","","","","NA"
"2001-09-05 06:00","2001","09","05","06:00","13.5","","11.9","","90","","19","","26","","","M","99.57","","","","","","NA"
"2001-09-05 07:00","2001","09","05","07:00","14.4","","12.3","","87","","20","","24","","","M","99.59","","","","","","NA"
"2001-09-05 08:00","2001","09","05","08:00","15.0","","12.0","","82","","21","","24","","","M","99.60","","","","","","NA"
"2001-09-05 09:00","2001","09","05","09:00","16.3","","13.0","","81","","20","","26","","","M","99.57","","","","","","NA"
"2001-09-05 10:00","2001","09","05","10:00","16.9","","13.4","","80","","22","","24","","","M","99.55","","","","","","NA"
"2001-09-05 11:00","2001","09","05","11:00","17.6","","13.9","","79","","20","","30","","","M","99.54","","","","","","NA"
"2001-09-05 12:00","2001","09","05","12:00","18.1","","13.8","","76","","20","","30","","","M","99.52","","","","","","NA"
"2001-09-05 13:00","2001","09","05","13:00","18.4","","14.1","","76","","19","","28","","","M","99.49","","","","","","NA"
"2001-09-05 14:00","2001","09","05","14:00","18.2","","14.1","","77","","20","","28","","","M","99.45","","","","","","NA"
"2001-09-05 15:00","2001","09","05","15:00","18.4","","14.1","","76","","20","","26","","","M","99.37","","","","","","NA"
"2001-09-05 16:00","2001","09","05","16:00","18.2","","13.5","","74","","20","","28","","","M","99.29","","","","","","NA"
"2001-09-05 17:00","2001","09","05","17:00","18.2","","13.9","","76","","18","","22","","","M","99.27","","","","","","NA"
"2001-09-05 18:00","2001","09","05","18:00","18.3","","14.2","","77","","18","","24","","","M","99.21","","","","","","NA"
"2001-09-05 19:00","2001","09","05","19:00","18.3","","14.0","","76","","19","","24","","","M","99.18","","","","","","NA"
"2001-09-05 20:00","2001","09","05","20:00","18.4","","14.3","","77","","19","","22","","","M","99.17","","","","","","NA"
"2001-09-05 21:00","2001","09","05","21:00","18.6","","13.9","","74","","20","","32","","","M","99.12","","","","","","NA"
"2001-09-05 22:00","2001","09","05","22:00","18.2","","14.1","","77","","20","","35","","","M","99.09","","","","","","NA"
"2001-09-05 23:00","2001","09","05","23:00","18.1","","13.8","","76","","20","","32","","","M","99.09","","","","","","NA"
"2001-09-06 00:00","2001","09","06","00:00","17.9","","14.6","","81","","21","","30","","","M","99.08","","","","","","NA"
"2001-09-06 01:00","2001","09","06","01:00","17.2","","15.6","","90","","20","","37","","","M","99.06","","","","","","NA"
"2001-09-06 02:00","2001","09","06","02:00","16.9","","15.9","","94","","20","","32","","","M","99.04","","","","","","NA"
"2001-09-06 03:00","2001","09","06","03:00","16.7","","16.1","","96","","20","","37","","","M","99.00","","","","","","NA"
"2001-09-06 04:00","2001","09","06","04:00","16.6","","16.1","","97","","20","","30","","","M","99.01","","","","","","NA"
"2001-09-06 05:00","2001","09","06","05:00","16.5","","16.2","","98","","20","","30","","","M","99.00","","","","","","NA"
"2001-09-06 06:00","2001","09","06","06:00","16.8","","15.8","","94","","20","","28","","","M","99.01","","","","","","NA"
"2001-09-06 07:00","2001","09","06","07:00","17.1","","15.5","","90","","20","","26","","","M","99.00","","","","","","NA"
"2001-09-06 08:00","2001","09","06","08:00","17.1","","15.6","","91","","20","","33","","","M","98.95","","","","","","NA"
"2001-09-06 09:00","2001","09","06","09:00","17.7","","15.7","","88","","19","","32","","","M","98.94","","","","","","NA"
"2001-09-06 10:00","2001","09","06","10:00","18.3","","15.4","","83","","19","","30","","","M","98.89","","","","","","NA"
"2001-09-06 11:00","2001","09","06","11:00","18.6","","15.3","","81","","19","","30","","","M","98.87","","","","","","NA"
"2001-09-06 12:00","2001","09","06","12:00","18.6","","15.3","","81","","20","","32","","","M","98.84","","","","","","NA"
"2001-09-06 13:00","2001","09","06","13:00","18.4","","15.3","","82","","19","","33","","","M","98.77","","","","","","NA"
"2001-09-06 14:00","2001","09","06","14:00","18.6","","15.5","","82","","19","","32","","","M","98.70","","","","","","NA"
"2001-09-06 15:00","2001","09","06","15:00","19.1","","15.6","","80","","19","","28","","","M","98.62","","","","","","NA"
"2001-09-06 16:00","2001","09","06","16:00","19.1","","15.8","","81","","19","","30","","","M","98.54","","","","","","NA"
"2001-09-06 17:00","2001","09","06","17:00","19.3","","15.8","","80","","19","","33","","","M","98.40","","","","","","NA"
"2001-09-06 18:00","2001","09","06","18:00","20.1","","15.5","","75","","19","","35","","","M","98.29","","","","","","NA"
"2001-09-06 19:00","2001","09","06","19:00","20.0","","15.9","","77","","19","","35","","","M","98.26","","25","","","","NA"
"2001-09-06 20:00","2001","09","06","20:00","19.6","","16.5","","82","","20","","37","","","M","98.22","","","","","","NA"
"2001-09-06 21:00","2001","09","06","21:00","19.2","","17.2","","88","","19","","39","","","M","98.17","","","","","","NA"
"2001-09-06 22:00","2001","09","06","22:00","19.0","","17.2","","89","","19","","41","","","M","98.07","","","","","","NA"
"2001-09-06 23:00","2001","09","06","23:00","18.4","","17.1","","92","","19","","35","","","M","98.07","","","","","","NA"
"2001-09-07 00:00","2001","09","07","00:00","17.7","","16.6","","93","","20","","33","","","M","98.06","","","","","","NA"
"2001-09-07 01:00","2001","09","07","01:00","17.3","","16.5","","95","","19","","35","","","M","98.02","","","","","","NA"
"2001-09-07 02:00","2001","09","07","02:00","17.1","","17.0","","99","","19","","30","","","M","97.94","","","","","","NA"
"2001-09-07 03:00","2001","09","07","03:00","17.1","","17.1","","100","","19","","32","","","M","97.81","","","","","","NA"
"2001-09-07 04:00","2001","09","07","04:00","17.3","","17.3","","100","","19","","32","","","M","97.71","","","","","","NA"
"2001-09-07 05:00","2001","09","07","05:00","17.3","","17.3","","100","","19","","28","","","M","97.62","","","","","","NA"
"2001-09-07 06:00","2001","09","07","06:00","17.4","","17.4","","100","","19","","32","","","M","97.54","","","","","","NA"
"2001-09-07 07:00","2001","09","07","07:00","17.5","","17.5","","100","","19","","26","","","M","97.53","","","","","","NA"
"2001-09-07 08:00","2001","09","07","08:00","17.2","","17.2","","100","","19","","26","","","M","97.52","","","","","","NA"
"2001-09-07 09:00","2001","09","07","09:00","17.3","","17.3","","100","","19","","20","","","M","97.56","","","","","","NA"
"2001-09-07 10:00","2001","09","07","10:00","17.6","","17.6","","100","","20","","26","","","M","97.58","","","","","","NA"
"2001-09-07 11:00","2001","09","07","11:00","17.6","","17.6","","100","","19","","28","","","M","97.61","","","","","","NA"
"2001-09-07 12:00","2001","09","07","12:00","18.2","","18.2","","100","","19","","22","","","M","97.63","","","","","","NA"
"2001-09-07 13:00","2001","09","07","13:00","18.7","","18.5","","99","","20","","28","","","M","97.65","","","","","","NA"
"2001-09-07 14:00","2001","09","07","14:00","18.6","","18.4","","99","","19","","20","","","M","97.66","","","","","","NA"
"2001-09-07 15:00","2001","09","07","15:00","18.8","","18.8","","100","","18","","30","","","M","97.62","","","","","","NA"
"2001-09-07 16:00","2001","09","07","16:00","19.9","","18.9","","94","","19","","32","","","M","97.61","","","","","","NA"
"2001-09-07 17:00","2001","09","07","17:00","19.8","","19.2","","96","","19","","33","","","M","97.57","","","","","","NA"
"2001-09-07 18:00","2001","09","07","18:00","19.7","","19.7","","100","","19","","30","","","M","97.56","","","","","","NA"
"2001-09-07 19:00","2001","09","07","19:00","19.0","","19.0","","100","","18","","35","","","M","97.47","","","","","","NA"
"2001-09-07 20:00","2001","09","07","20:00","19.4","","19.4","","100","","18","","24","","","M","97.49","","","","","","NA"
"2001-09-07 21:00","2001","09","07","21:00","18.8","","18.8","","100","","19","","33","","","M","97.52","","","","","","NA"
"2001-09-07 22:00","2001","09","07","22:00","18.9","","18.7","","99","","19","","30","","","M","97.50","","","","","","NA"
"2001-09-07 23:00","2001","09","07","23:00","18.8","","18.8","","100","","19","","30","","","M","97.49","","","","","","NA"
"2001-09-08 00:00","2001","09","08","00:00","18.3","","17.8","","97","","19","","24","","","M","97.49","","","","","","NA"
"2001-09-08 01:00","2001","09","08","01:00","19.1","","18.6","","97","","19","","24","","","M","97.44","","","","","","NA"
"2001-09-08 02:00","2001","09","08","02:00","19.6","","19.3","","98","","18","","28","","","M","97.44","","","","","","NA"
"2001-09-08 03:00","2001","09","08","03:00","18.2","","18.2","","100","","19","","24","","","M","97.47","","","","","","NA"
"2001-09-08 04:00","2001","09","08","04:00","18.2","","18.2","","100","","19","","22","","","M","97.42","","","","","","NA"
"2001-09-08 05:00","2001","09","08","05:00","18.1","","18.1","","100","","18","","26","","","M","97.43","","","","","","NA"
"2001-09-08 06:00","2001","09","08","06:00","17.0","","17.0","","100","","19","","28","","","M","97.50","","","","","","NA"
"2001-09-08 07:00","2001","09","08","07:00","16.4","","16.4","","100","","20","","32","","","M","97.60","","","","","","NA"
"2001-09-08 08:00","2001","09","08","08:00","16.8","","16.8","","100","","21","","26","","","M","97.64","","","","","","NA"
"2001-09-08 09:00","2001","09","08","09:00","18.0","","18.0","","100","","18","","11","","","M","97.50","","","","","","NA"
"2001-09-08 10:00","2001","09","08","10:00","19.5","","18.2","","92","","19","","19","","","M","97.55","","","","","","NA"
"2001-09-08 11:00","2001","09","08","11:00","17.7","","17.7","","100","","20","","26","","","M","97.63","","","","","","NA"
"2001-09-08 12:00","2001","09","08","12:00","18.9","","18.4","","97","","16","","20","","","M","97.54","","","","","","NA"
"2001-09-08 13:00","2001","09","08","13:00","18.1","","18.1","","100","","19","","24","","","M","97.47","","","","","","NA"
"2001-09-08 14:00","2001","09","08","14:00","18.9","","18.9","","100","","19","","37","","","M","97.40","","","","","","NA"
"2001-09-08 15:00","2001","09","08","15:00","18.5","","18.5","","100","","20","","26","","","M","97.42","","","","","","NA"
"2001-09-08 16:00","2001","09","08","16:00","16.7","","16.7","","100","","26","","9","","","M","97.45","","","","","","NA"
"2001-09-08 17:00","2001","09","08","17:00","14.7","","14.2","","97","","36","","15","","","M","97.56","","","","","","NA"
"2001-09-08 18:00","2001","09","08","18:00","13.5","","13.0","","97","","33","","13","","","M","97.87","","","","","","NA"
"2001-09-08 19:00","2001","09","08","19:00","12.3","","11.7","","96","","35","","9","","","M","98.05","","","","","","NA"
"2001-09-08 20:00","2001","09","08","20:00","11.8","","11.7","","99","","2","","6","","","M","98.21","","","","","","NA"
"2001-09-08 21:00","2001","09","08","21:00","11.5","","11.4","","99","","1","","7","","","M","98.32","","","","","","NA"
"2001-09-08 22:00","2001","09","08","22:00","11.1","","11.0","","99","","3","","6","","","M","98.39","","","","","","NA"
"2001-09-08 23:00","2001","09","08","23:00","10.6","","10.3","","98","","8","","15","","","M","98.41","","","","","","NA"
"2001-09-09 00:00","2001","09","09","00:00","10.8","","10.5","","98","","13","","4","","","M","98.48","","","","","","NA"
"2001-09-09 01:00","2001","09","09","01:00","10.6","","10.5","","99","","8","","11","","","M","98.55","","","","","","NA"
"2001-09-09 02:00","2001","09","09","02:00","10.6","","10.5","","99","","7","","13","","","M","98.57","","","","","","NA"
"2001-09-09 03:00","2001","09","09","03:00","10.3","","10.3","","100","","5","","9","","","M","98.60","","","","","","NA"
"2001-09-09 04:00","2001","09","09","04:00","10.4","","10.4","","100","","7","","9","","","M","98.60","","","","","","NA"
"2001-09-09 05:00","2001","09","09","05:00","10.5","","10.5","","100","","7","","11","","","M","98.64","","","","","","NA"
"2001-09-09 06:00","2001","09","09","06:00","10.5","","10.5","","100","","7","","7","","","M","98.67","","","","","","NA"
"2001-09-09 07:00","2001","09","09","07:00","10.7","","10.7","","100","","8","","11","","","M","98.74","","","","","","NA"
"2001-09-09 08:00","2001","09","09","08:00","11.6","","11.6","","100","","8","","9","","","M","98.75","","","","","","NA"
"2001-09-09 09:00","2001","09","09","09:00","12.1","","11.8","","98","","6","","9","","","M","98.77","","","","","","NA"
"2001-09-09 10:00","2001","09","09","10:00","12.7","","12.2","","97","","9","","9","","","M","98.79","","","","","","NA"
"2001-09-09 11:00","2001","09","09","11:00","13.6","","12.5","","93","","8","","9","","","M","98.75","","","","","","NA"
"2001-09-09 12:00","2001","09","09","12:00","13.5","","12.9","","96","","11","","7","","","M","98.75","","","","","","NA"
"2001-09-09 13:00","2001","09","09","13:00","13.8","","13.0","","95","","9","","13","","","M","98.70","","","","","","NA"
"2001-09-09 14:00","2001","09","09","14:00","14.5","","13.6","","94","","9","","11","","","M","98.68","","","","","","NA"
"2001-09-09 15:00","2001","09","09","15:00","14.8","","13.7","","93","","10","","9","","","M","98.63","","","","","","NA"
"2001-09-09 16:00","2001","09","09","16:00","14.6","","14.0","","96","","6","","7","","","M","98.61","","","","","","NA"
"2001-09-09 17:00","2001","09","09","17:00","14.1","","14.1","","100","","9","","11","","","M","98.59","","","","","","NA"
"2001-09-09 18:00","2001","09","09","18:00","13.7","","13.7","","100","","4","","9","","","M","98.55","","","","","","NA"
"2001-09-09 19:00","2001","09","09","19:00","13.2","","13.1","","99","","4","","7","","","M","98.50","","","","","","NA"
"2001-09-09 20:00","2001","09","09","20:00","12.6","","12.6","","100","","5","","19","","","M","98.41","","","","","","NA"
"2001-09-09 21:00","2001","09","09","21:00","12.1","","12.1","","100","","5","","15","","","M","98.33","","","","","","NA"
"2001-09-09 22:00","2001","09","09","22:00","11.8","","11.8","","100","","35","","7","","","M","98.31","","","","","","NA"
"2001-09-09 23:00","2001","09","09","23:00","11.6","","11.6","","100","","1","","9","","","M","98.26","","","","","","NA"
"2001-09-10 00:00","2001","09","10","00:00","11.0","","11.0","","100","","1","","9","","","M","98.24","","","","","","NA"
"2001-09-10 01:00","2001","09","10","01:00","10.4","","10.4","","100","","34","","11","","","M","98.25","","","","","","NA"
"2001-09-10 02:00","2001","09","10","02:00","10.5","","10.5","","100","","34","","11","","","M","98.30","","","","","","NA"
"2001-09-10 03:00","2001","09","10","03:00","10.0","","10.0","","100","","33","","9","","","M","98.33","","","","","","NA"
"2001-09-10 04:00","2001","09","10","04:00","10.1","","10.1","","100","","34","","9","","","M","98.34","","","","","","NA"
"2001-09-10 05:00","2001","09","10","05:00","10.0","","10.0","","100","","36","","9","","","M","98.38","","","","","","NA"
"2001-09-10 06:00","2001","09","10","06:00","9.8","","9.7","","99","","34","","6","","","M","98.46","","","","","","NA"
"2001-09-10 07:00","2001","09","10","07:00","9.9","","9.6","","98","","34","","7","","","M","98.52","","","","","","NA"
"2001-09-10 08:00","2001","09","10","08:00","10.3","","9.9","","97","","35","","7","","","M","98.57","","","","","","NA"
"2001-09-10 09:00","2001","09","10","09:00","10.8","","9.4","","91","","34","","7","","","M","98.59","","","","","","NA"
"2001-09-10 10:00","2001","09","10","10:00","11.5","","9.4","","87","","33","","9","","","M","98.69","","","","","","NA"
"2001-09-10 11:00","2001","09","10","11:00","12.8","","9.1","","78","","30","","11","","","M","98.77","","","","","","NA"
"2001-09-10 12:00","2001","09","10","12:00","13.6","","9.1","","74","","31","","7","","","M","98.83","","","","","","NA"
"2001-09-10 13:00","2001","09","10","13:00","14.3","","9.1","","71","","28","","13","","","M","98.91","","","","","","NA"
"2001-09-10 14:00","2001","09","10","14:00","14.9","","10.3","","74","","27","","15","","","M","98.97","","","","","","NA"
"2001-09-10 15:00","2001","09","10","15:00","14.8","","10.6","","76","","27","","15","","","M","99.01","","","","","","NA"
"2001-09-10 16:00","2001","09","10","16:00","14.8","","10.4","","75","","27","","20","","","M","99.05","","","","","","NA"
"2001-09-10 17:00","2001","09","10","17:00","14.9","","10.5","","75","","28","","19","","","M","99.11","","","","","","NA"
"2001-09-10 18:00","2001","09","10","18:00","14.3","","11.3","","82","","27","","20","","","M","99.15","","","","","","NA"
"2001-09-10 19:00","2001","09","10","19:00","13.8","","11.5","","86","","27","","17","","","M","99.19","","","","","","NA"
"2001-09-10 20:00","2001","09","10","20:00","13.6","","11.7","","88","","27","","19","","","M","99.26","","","","","","NA"
"2001-09-10 21:00","2001","09","10","21:00","13.8","","12.7","","93","","28","","17","","","M","99.29","","","","","","NA"
"2001-09-10 22:00","2001","09","10","22:00","13.7","","12.8","","94","","27","","20","","","M","99.28","","","","","","NA"
"2001-09-10 23:00","2001","09","10","23:00","14.3","","13.2","","93","","26","","28","","","M","99.27","","","","","","NA"
"2001-09-11 00:00","2001","09","11","00:00","14.5","","13.6","","94","","25","","30","","","M","99.28","","","","","","NA"
"2001-09-11 01:00","2001","09","11","01:00","14.7","","14.4","","98","","26","","30","","","M","99.27","","","","","","NA"
"2001-09-11 02:00","2001","09","11","02:00","14.8","","13.7","","93","","29","","20","","","M","99.29","","","","","","NA"
"2001-09-11 03:00","2001","09","11","03:00","14.6","","12.8","","89","","29","","20","","","M","99.33","","","","","","NA"
"2001-09-11 04:00","2001","09","11","04:00","14.4","","12.4","","88","","29","","22","","","M","99.35","","","","","","NA"
"2001-09-11 05:00","2001","09","11","05:00","14.1","","12.0","","87","","30","","13","","","M","99.40","","","","","","NA"
"2001-09-11 06:00","2001","09","11","06:00","14.0","","11.7","","86","","29","","17","","","M","99.43","","","","","","NA"
"2001-09-11 07:00","2001","09","11","07:00","14.2","","12.1","","87","","30","","13","","","M","99.48","","","","","","NA"
"2001-09-11 08:00","2001","09","11","08:00","14.5","","12.2","","86","","29","","19","","","M","99.51","","","","","","NA"
"2001-09-11 09:00","2001","09","11","09:00","15.5","","11.7","","78","","28","","13","","","M","99.52","","","","","","NA"
"2001-09-11 10:00","2001","09","11","10:00","16.0","","11.6","","75","","29","","17","","","M","99.57","","","","","","NA"
"2001-09-11 11:00","2001","09","11","11:00","16.2","","12.0","","76","","30","","7","","","M","99.59","","","","","","NA"
"2001-09-11 12:00","2001","09","11","12:00","16.3","","12.1","","76","","27","","19","","","M","99.59","","","","","","NA"
"2001-09-11 13:00","2001","09","11","13:00","16.4","","12.8","","79","","26","","26","","","M","99.60","","","","","","NA"
"2001-09-11 14:00","2001","09","11","14:00","16.8","","12.8","","77","","27","","19","","","M","99.59","","","","","","NA"
"2001-09-11 15:00","2001","09","11","15:00","16.4","","12.6","","78","","27","","15","","","M","99.55","","","","","","NA"
"2001-09-11 16:00","2001","09","11","16:00","15.6","","13.1","","85","","26","","19","","","M","99.53","","","","","","NA"
"2001-09-11 17:00","2001","09","11","17:00","15.3","","13.5","","89","","25","","19","","","M","99.53","","","","","","NA"
"2001-09-11 18:00","2001","09","11","18:00","15.4","","12.5","","83","","26","","9","","","M","99.53","","","","","","NA"
"2001-09-11 19:00","2001","09","11","19:00","15.3","","11.5","","78","","24","","11","","","M","99.50","","","","","","NA"
"2001-09-11 20:00","2001","09","11","20:00","14.9","","13.8","","93","","27","","7","","","M","99.54","","","","","","NA"
"2001-09-11 21:00","2001","09","11","21:00","14.4","","13.5","","94","","27","","2","","","M","99.54","","","","","","NA"
"2001-09-11 22:00","2001","09","11","22:00","13.6","","13.6","","100","","11","","7","","","M","99.48","","","","","","NA"
"2001-09-11 23:00","2001","09","11","23:00","13.4","","13.4","","100","","13","","6","","","M","99.45","","","","","","NA"
"2001-09-12 00:00","2001","09","12","00:00","12.7","","12.7","","100","","6","","6","","","M","99.38","","","","","","NA"
"2001-09-12 01:00","2001","09","12","01:00","12.4","","12.4","","100","","3","","11","","","M","99.32","","","","","","NA"
"2001-09-12 02:00","2001","09","12","02:00","12.0","","12.0","","100","","2","","11","","","M","99.24","","","","","","NA"
"2001-09-12 03:00","2001","09","12","03:00","11.9","","11.9","","100","","2","","11","","","M","99.18","","","","","","NA"
"2001-09-12 04:00","2001","09","12","04:00","11.4","","11.4","","100","","4","","11","","","M","99.17","","","","","","NA"
"2001-09-12 05:00","2001","09","12","05:00","10.8","","10.8","","100","","8","","9","","","M","99.09","","","","","","NA"
"2001-09-12 06:00","2001","09","12","06:00","10.3","","10.3","","100","","3","","11","","","M","99.07","","","","","","NA"
"2001-09-12 07:00","2001","09","12","07:00","10.9","","10.9","","100","","2","","7","","","M","99.09","","","","","","NA"
"2001-09-12 08:00","2001","09","12","08:00","11.6","","11.6","","100","","3","","2","","","M","99.08","","","","","","NA"
"2001-09-12 09:00","2001","09","12","09:00","11.1","","11.1","","100","","35","","7","","","M","99.10","","","","","","NA"
"2001-09-12 10:00","2001","09","12","10:00","11.3","","11.0","","98","","35","","6","","","M","99.10","","","","","","NA"
"2001-09-12 11:00","2001","09","12","11:00","13.5","","10.3","","81","","32","","17","","","M","99.07","","","","","","NA"
"2001-09-12 12:00","2001","09","12","12:00","15.3","","10.1","","71","","32","","17","","","M","99.04","","","","","","NA"
"2001-09-12 13:00","2001","09","12","13:00","16.0","","8.7","","62","","34","","19","","","M","99.05","","","","","","NA"
"2001-09-12 14:00","2001","09","12","14:00","14.3","","7.1","","62","","35","","15","","","M","99.15","","","","","","NA"
"2001-09-12 15:00","2001","09","12","15:00","13.6","","5.8","","59","","1","","22","","","M","99.23","","","","","","NA"
"2001-09-12 16:00","2001","09","12","16:00","13.2","","6.3","","63","","3","","17","","","M","99.32","","","","","","NA"
"2001-09-12 17:00","2001","09","12","17:00","12.1","","5.7","","65","","2","","13","","","M","99.41","","","","","","NA"
"2001-09-12 18:00","2001","09","12","18:00","11.3","","6.2","","71","","2","","11","","","M","99.51","","","","","","NA"
"2001-09-12 19:00","2001","09","12","19:00","9.7","","6.2","","79","","3","","9","","","M","99.56","","","","","","NA"
"2001-09-12 20:00","2001","09","12","20:00","8.3","","6.1","","86","","4","","7","","","M","99.66","","","","","","NA"
"2001-09-12 21:00","2001","09","12","21:00","7.5","","6.0","","90","","5","","9","","","M","99.71","","","","","","NA"
"2001-09-12 22:00","2001","09","12","22:00","7.1","","6.1","","93","","3","","7","","","M","99.76","","","","","","NA"
"2001-09-12 23:00","2001","09","12","23:00","6.0","","5.6","","97","","3","","9","","","M","99.83","","","","","","NA"
"2001-09-13 00:00","2001","09","13","00:00","5.4","","5.4","","100","","4","","7","","","M","99.87","","","","","","NA"
"2001-09-13 01:00","2001","09","13","01:00","5.7","","5.7","","100","","4","","9","","","M","99.90","","","","","","NA"
"2001-09-13 02:00","2001","09","13","02:00","6.1","","6.0","","99","","6","","11","","","M","99.96","","","","","","NA"
"2001-09-13 03:00","2001","09","13","03:00","6.4","","6.0","","97","","3","","7","","","M","99.99","","","","","","NA"
"2001-09-13 04:00","2001","09","13","04:00","6.1","","6.0","","99","","2","","9","","","M","100.02","","","","","","NA"
"2001-09-13 05:00","2001","09","13","05:00","6.1","","6.0","","99","","4","","9","","","M","100.07","","","","","","NA"
"2001-09-13 06:00","2001","09","13","06:00","6.3","","5.6","","95","","5","","15","","","M","100.11","","","","","","NA"
"2001-09-13 07:00","2001","09","13","07:00","6.3","","5.0","","91","","4","","13","","","M","100.19","","","","","","NA"
"2001-09-13 08:00","2001","09","13","08:00","7.5","","4.6","","82","","4","","13","","","M","100.26","","","","","","NA"
"2001-09-13 09:00","2001","09","13","09:00","9.1","","4.7","","74","","4","","13","","","M","100.31","","","","","","NA"
"2001-09-13 10:00","2001","09","13","10:00","11.3","","3.6","","59","","3","","11","","","M","100.35","","","","","","NA"
"2001-09-13 11:00","2001","09","13","11:00","12.6","","2.2","","49","","1","","13","","","M","100.36","","","","","","NA"
"2001-09-13 12:00","2001","09","13","12:00","11.9","","3.2","","55","","33","","13","","","M","100.35","","","","","","NA"
"2001-09-13 13:00","2001","09","13","13:00","12.1","","2.3","","51","","32","","9","","","M","100.36","","","","","","NA"
"2001-09-13 14:00","2001","09","13","14:00","13.5","","-0.3","","39","","5","","9","","","M","100.35","","","","","","NA"
"2001-09-13 15:00","2001","09","13","15:00","13.0","","2.3","","48","","30","","17","","","M","100.32","","","","","","NA"
"2001-09-13 16:00","2001","09","13","16:00","12.6","","2.2","","49","","29","","9","","","M","100.33","","","","","","NA"
"2001-09-13 17:00","2001","09","13","17:00","12.9","","1.6","","46","","35","","11","","","M","100.34","","","","","","NA"
"2001-09-13 18:00","2001","09","13","18:00","13.4","","1.7","","45","","36","","11","","","M","100.37","","","","","","NA"
"2001-09-13 19:00","2001","09","13","19:00","11.1","","2.2","","54","","36","","9","","","M","100.39","","","","","","NA"
"2001-09-13 20:00","2001","09","13","20:00","9.9","","2.7","","61","","1","","7","","","M","100.43","","","","","","NA"
"2001-09-13 21:00","2001","09","13","21:00","7.0","","6.0","","93","","8","","7","","","M","100.46","","","","","","NA"
"2001-09-13 22:00","2001","09","13","22:00","5.8","","5.1","","95","","8","","7","","","M","100.47","","","","","","NA"
"2001-09-13 23:00","2001","09","13","23:00","5.3","","4.4","","94","","9","","7","","","M","100.47","","","","","","NA"
"2001-09-14 00:00","2001","09","14","00:00","4.3","","3.9","","97","","7","","9","","","M","100.48","","","","","","NA"
"2001-09-14 01:00","2001","09","14","01:00","4.0","","3.9","","99","","10","","9","","","M","100.51","","","","","","NA"
"2001-09-14 02:00","2001","09","14","02:00","3.5","","3.4","","99","","7","","13","","","M","100.53","","","","","","NA"
"2001-09-14 03:00","2001","09","14","03:00","3.3","","3.3","","100","","7","","15","","","M","100.54","","","","","","NA"
"2001-09-14 04:00","2001","09","14","04:00","3.0","","3.0","","100","","9","","11","","","M","100.54","","","","","","NA"
"2001-09-14 05:00","2001","09","14","05:00","2.9","","2.9","","100","","8","","11","","","M","100.58","","","","","","NA"
"2001-09-14 06:00","2001","09","14","06:00","2.4","","2.4","","100","","8","","9","","","M","100.58","","","","","","NA"
"2001-09-14 07:00","2001","09","14","07:00","2.9","","2.9","","100","","8","","11","","","M","100.60","","","","","","NA"
"2001-09-14 08:00","2001","09","14","08:00","6.4","","4.7","","89","","7","","11","","","M","100.61","","","","","","NA"
"2001-09-14 09:00","2001","09","14","09:00","11.2","","6.8","","74","","10","","2","","","M","100.61","","","","","","NA"
"2001-09-14 10:00","2001","09","14","10:00","12.8","","8.3","","74","","23","","6","","","M","100.61","","","","","","NA"
"2001-09-14 11:00","2001","09","14","11:00","14.2","","6.6","","60","","27","","11","","","M","100.59","","","","","","NA"
"2001-09-14 12:00","2001","09","14","12:00","14.7","","6.8","","59","","27","","13","","","M","100.54","","","","","","NA"
"2001-09-14 13:00","2001","09","14","13:00","15.3","","5.8","","53","","27","","15","","","M","100.51","","","","","","NA"
"2001-09-14 14:00","2001","09","14","14:00","15.1","","5.1","","51","","27","","20","","","M","100.45","","","","","","NA"
"2001-09-14 15:00","2001","09","14","15:00","15.3","","6.1","","54","","26","","17","","","M","100.37","","","","","","NA"
"2001-09-14 16:00","2001","09","14","16:00","14.5","","6.1","","57","","27","","15","","","M","100.32","","","","","","NA"
"2001-09-14 17:00","2001","09","14","17:00","13.7","","5.1","","56","","26","","19","","","M","100.29","","","","","","NA"
"2001-09-14 18:00","2001","09","14","18:00","13.2","","5.6","","60","","27","","17","","","M","100.22","","","","","","NA"
"2001-09-14 19:00","2001","09","14","19:00","12.8","","6.8","","67","","27","","15","","","M","100.18","","","","","","NA"
"2001-09-14 20:00","2001","09","14","20:00","12.6","","6.2","","65","","26","","17","","","M","100.15","","","","","","NA"
"2001-09-14 21:00","2001","09","14","21:00","12.7","","6.5","","66","","27","","17","","","M","100.15","","","","","","NA"
"2001-09-14 22:00","2001","09","14","22:00","12.6","","7.1","","69","","27","","20","","","M","100.11","","","","","","NA"
"2001-09-14 23:00","2001","09","14","23:00","12.7","","7.4","","70","","28","","22","","","M","100.11","","","","","","NA"
"2001-09-15 00:00","2001","09","15","00:00","13.0","","8.3","","73","","28","","19","","","M","100.08","","","","","","NA"
"2001-09-15 01:00","2001","09","15","01:00","13.0","","7.9","","71","","29","","20","","","M","100.04","","","","","","NA"
"2001-09-15 02:00","2001","09","15","02:00","12.7","","8.8","","77","","28","","19","","","M","100.02","","","","","","NA"
"2001-09-15 03:00","2001","09","15","03:00","12.5","","9.2","","80","","28","","19","","","M","99.98","","","","","","NA"
"2001-09-15 04:00","2001","09","15","04:00","12.6","","9.8","","83","","28","","19","","","M","99.94","","","","","","NA"
"2001-09-15 05:00","2001","09","15","05:00","12.5","","10.2","","86","","27","","19","","","M","99.90","","","","","","NA"
"2001-09-15 06:00","2001","09","15","06:00","12.8","","10.7","","87","","27","","22","","","M","99.89","","","","","","NA"
"2001-09-15 07:00","2001","09","15","07:00","12.8","","10.0","","83","","28","","19","","","M","99.90","","","","","","NA"
"2001-09-15 08:00","2001","09","15","08:00","13.2","","10.4","","83","","28","","19","","","M","99.88","","","","","","NA"
"2001-09-15 09:00","2001","09","15","09:00","13.6","","10.2","","80","","28","","19","","","M","99.86","","","","","","NA"
"2001-09-15 10:00","2001","09","15","10:00","14.4","","10.4","","77","","27","","19","","","M","99.85","","","","","","NA"
"2001-09-15 11:00","2001","09","15","11:00","14.7","","10.7","","77","","27","","19","","","M","99.84","","","","","","NA"
"2001-09-15 12:00","2001","09","15","12:00","15.2","","10.4","","73","","27","","20","","","M","99.81","","","","","","NA"
"2001-09-15 13:00","2001","09","15","13:00","15.0","","10.6","","75","","26","","26","","","M","99.73","","","","","","NA"
"2001-09-15 14:00","2001","09","15","14:00","15.1","","10.7","","75","","25","","26","","","M","99.68","","","","","","NA"
"2001-09-15 15:00","2001","09","15","15:00","15.0","","10.6","","75","","25","","30","","","M","99.61","","","","","","NA"
"2001-09-15 16:00","2001","09","15","16:00","14.8","","10.6","","76","","26","","33","","","M","99.56","","","","","","NA"
"2001-09-15 17:00","2001","09","15","17:00","15.2","","11.6","","79","","27","","26","","","M","99.51","","","","","","NA"
"2001-09-15 18:00","2001","09","15","18:00","14.6","","11.6","","82","","27","","32","","","M","99.48","","","","","","NA"
"2001-09-15 19:00","2001","09","15","19:00","14.2","","11.5","","84","","27","","35","","","M","99.44","","","","","","NA"
"2001-09-15 20:00","2001","09","15","20:00","14.1","","12.2","","88","","28","","20","","","M","99.46","","","","","","NA"
"2001-09-15 21:00","2001","09","15","21:00","14.1","","12.3","","89","","29","","20","","","M","99.46","","","","","","NA"
"2001-09-15 22:00","2001","09","15","22:00","14.0","","12.4","","90","","28","","13","","","M","99.46","","","","","","NA"
"2001-09-15 23:00","2001","09","15","23:00","14.1","","13.0","","93","","28","","11","","","M","99.44","","","","","","NA"
"2001-09-16 00:00","2001","09","16","00:00","14.1","","13.0","","93","","29","","7","","","M","99.41","","","","","","NA"
"2001-09-16 01:00","2001","09","16","01:00","13.8","","13.3","","97","","27","","9","","","M","99.37","","","","","","NA"
"2001-09-16 02:00","2001","09","16","02:00","14.2","","13.1","","93","","29","","9","","","M","99.35","","","","","","NA"
"2001-09-16 03:00","2001","09","16","03:00","14.3","","12.4","","88","","29","","7","","","M","99.31","","","","","","NA"
"2001-09-16 04:00","2001","09","16","04:00","14.2","","12.3","","88","","29","","13","","","M","99.30","","","","","","NA"
"2001-09-16 05:00","2001","09","16","05:00","14.2","","11.7","","85","","29","","15","","","M","99.30","","","","","","NA"
"2001-09-16 06:00","2001","09","16","06:00","14.0","","11.2","","83","","30","","17","","","M","99.31","","","","","","NA"
"2001-09-16 07:00","2001","09","16","07:00","14.0","","11.2","","83","","30","","15","","","M","99.32","","","","","","NA"
"2001-09-16 08:00","2001","09","16","08:00","14.5","","10.9","","79","","29","","15","","","M","99.32","","","","","","NA"
"2001-09-16 09:00","2001","09","16","09:00","15.0","","11.0","","77","","29","","15","","","M","99.31","","","","","","NA"
"2001-09-16 10:00","2001","09","16","10:00","15.7","","11.1","","74","","27","","9","","","M","99.31","","","","","","NA"
"2001-09-16 11:00","2001","09","16","11:00","15.8","","12.0","","78","","26","","17","","","M","99.32","","","","","","NA"
"2001-09-16 12:00","2001","09","16","12:00","15.9","","12.5","","80","","24","","19","","","M","99.31","","","","","","NA"
"2001-09-16 13:00","2001","09","16","13:00","15.9","","12.5","","80","","26","","24","","","M","99.30","","","","","","NA"
"2001-09-16 14:00","2001","09","16","14:00","15.8","","12.2","","79","","25","","35","","","M","99.27","","","","","","NA"
"2001-09-16 15:00","2001","09","16","15:00","15.7","","12.5","","81","","26","","30","","","M","99.23","","","","","","NA"
"2001-09-16 16:00","2001","09","16","16:00","16.1","","12.1","","77","","25","","32","","","M","99.18","","","","","","NA"
"2001-09-16 17:00","2001","09","16","17:00","15.3","","11.7","","79","","25","","30","","","M","99.14","","","","","","NA"
"2001-09-16 18:00","2001","09","16","18:00","15.1","","13.3","","89","","24","","28","","","M","99.09","","","","","","NA"
"2001-09-16 19:00","2001","09","16","19:00","14.8","","13.4","","91","","25","","30","","","M","99.06","","","","","","NA"
"2001-09-16 20:00","2001","09","16","20:00","14.9","","13.1","","89","","25","","32","","","M","99.03","","","","","","NA"
"2001-09-16 21:00","2001","09","16","21:00","14.8","","13.5","","92","","25","","30","","","M","99.02","","","","","","NA"
"2001-09-16 22:00","2001","09","16","22:00","14.7","","13.8","","94","","26","","28","","","M","98.98","","","","","","NA"
"2001-09-16 23:00","2001","09","16","23:00","14.8","","13.5","","92","","27","","26","","","M","98.98","","","","","","NA"
"2001-09-17 00:00","2001","09","17","00:00","14.8","","13.9","","94","","28","","26","","","M","98.99","","","","","","NA"
"2001-09-17 01:00","2001","09","17","01:00","15.1","","13.1","","88","","28","","26","","","M","98.98","","","","","","NA"
"2001-09-17 02:00","2001","09","17","02:00","14.9","","13.6","","92","","27","","22","","","M","98.96","","","","","","NA"
"2001-09-17 03:00","2001","09","17","03:00","14.6","","13.8","","95","","27","","24","","","M","98.96","","","","","","NA"
"2001-09-17 04:00","2001","09","17","04:00","14.7","","14.1","","96","","28","","24","","","M","98.96","","","","","","NA"
"2001-09-17 05:00","2001","09","17","05:00","14.8","","14.2","","96","","28","","15","","","M","98.96","","","","","","NA"
"2001-09-17 06:00","2001","09","17","06:00","14.8","","14.3","","97","","29","","11","","","M","98.97","","","","","","NA"
"2001-09-17 07:00","2001","09","17","07:00","15.0","","13.7","","92","","29","","11","","","M","99.00","","","","","","NA"
"2001-09-17 08:00","2001","09","17","08:00","15.1","","13.7","","91","","29","","11","","","M","99.04","","","","","","NA"
"2001-09-17 09:00","2001","09","17","09:00","15.4","","14.3","","93","","27","","9","","","M","99.06","","","","","","NA"
"2001-09-17 10:00","2001","09","17","10:00","15.5","","13.9","","90","","28","","9","","","M","99.09","","","","","","NA"
"2001-09-17 11:00","2001","09","17","11:00","17.1","","13.0","","77","","30","","9","","","M","99.13","","","","","","NA"
"2001-09-17 12:00","2001","09","17","12:00","17.0","","13.0","","77","","29","","13","","","M","99.14","","","","","","NA"
"2001-09-17 13:00","2001","09","17","13:00","16.8","","12.2","","74","","29","","19","","","M","99.13","","","","","","NA"
"2001-09-17 14:00","2001","09","17","14:00","16.8","","12.4","","75","","28","","13","","","M","99.14","","","","","","NA"
"2001-09-17 15:00","2001","09","17","15:00","15.6","","13.1","","85","","30","","9","","","M","99.17","","","","","","NA"
"2001-09-17 16:00","2001","09","17","16:00","15.6","","13.1","","85","","36","","6","","","M","99.19","","","","","","NA"
"2001-09-17 17:00","2001","09","17","17:00","14.6","","11.2","","80","","7","","13","","","M","99.22","","","","","","NA"
"2001-09-17 18:00","2001","09","17","18:00","13.3","","11.2","","87","","5","","15","","","M","99.28","","","","","","NA"
"2001-09-17 19:00","2001","09","17","19:00","12.7","","10.4","","86","","2","","26","","","M","99.32","","","","","","NA"
"2001-09-17 20:00","2001","09","17","20:00","12.4","","10.0","","85","","3","","13","","","M","99.40","","","","","","NA"
"2001-09-17 21:00","2001","09","17","21:00","11.9","","9.3","","84","","3","","13","","","M","99.47","","","","","","NA"
"2001-09-17 22:00","2001","09","17","22:00","11.6","","9.2","","85","","8","","15","","","M","99.48","","","","","","NA"
"2001-09-17 23:00","2001","09","17","23:00","11.3","","9.1","","86","","7","","17","","","M","99.48","","","","","","NA"
"2001-09-18 00:00","2001","09","18","00:00","11.2","","9.5","","89","","9","","15","","","M","99.47","","","","","","NA"
"2001-09-18 01:00","2001","09","18","01:00","11.2","","9.1","","87","","9","","17","","","M","99.47","","","","","","NA"
"2001-09-18 02:00","2001","09","18","02:00","10.9","","7.8","","81","","6","","11","","","M","99.48","","","","","","NA"
"2001-09-18 03:00","2001","09","18","03:00","10.6","","7.8","","83","","7","","13","","","M","99.47","","","","","","NA"
"2001-09-18 04:00","2001","09","18","04:00","10.1","","7.9","","86","","8","","13","","","M","99.49","","","","","","NA"
"2001-09-18 05:00","2001","09","18","05:00","9.7","","7.7","","87","","5","","15","","","M","99.52","","","","","","NA"
"2001-09-18 06:00","2001","09","18","06:00","9.4","","7.5","","88","","6","","13","","","M","99.53","","","","","","NA"
"2001-09-18 07:00","2001","09","18","07:00","9.2","","7.7","","90","","5","","15","","","M","99.55","","","","","","NA"
"2001-09-18 08:00","2001","09","18","08:00","9.2","","7.5","","89","","7","","19","","","M","99.56","","","","","","NA"
"2001-09-18 09:00","2001","09","18","09:00","9.6","","7.2","","85","","8","","17","","","M","99.56","","","","","","NA"
"2001-09-18 10:00","2001","09","18","10:00","11.1","","7.2","","77","","10","","19","","","M","99.54","","","","","","NA"
"2001-09-18 11:00","2001","09","18","11:00","12.4","","7.7","","73","","12","","15","","","M","99.51","","","","","","NA"
"2001-09-18 12:00","2001","09","18","12:00","15.3","","8.3","","63","","13","","11","","","M","99.47","","","","","","NA"
"2001-09-18 13:00","2001","09","18","13:00","16.8","","9.0","","60","","11","","13","","","M","99.42","","","","","","NA"
"2001-09-18 14:00","2001","09","18","14:00","17.0","","7.9","","55","","14","","6","","","M","99.41","","","","","","NA"
"2001-09-18 15:00","2001","09","18","15:00","15.4","","9.8","","69","","23","","9","","","M","99.38","","","","","","NA"
"2001-09-18 16:00","2001","09","18","16:00","15.0","","10.0","","72","","25","","6","","","M","99.33","","","","","","NA"
"2001-09-18 17:00","2001","09","18","17:00","14.9","","10.1","","73","","23","","9","","","M","99.35","","","","","","NA"
"2001-09-18 18:00","2001","09","18","18:00","15.0","","10.4","","74","","23","","7","","","M","99.36","","","","","","NA"
"2001-09-18 19:00","2001","09","18","19:00","14.1","","11.1","","82","","30","","9","","","M","99.37","","","","","","NA"
"2001-09-18 20:00","2001","09","18","20:00","12.5","","11.1","","91","","3","","2","","","M","99.36","","","","","","NA"
"2001-09-18 21:00","2001","09","18","21:00","10.4","","10.1","","98","","9","","9","","","M","99.34","","","","","","NA"
"2001-09-18 22:00","2001","09","18","22:00","9.8","","9.8","","100","","10","","7","","","M","99.31","","","","","","NA"
"2001-09-18 23:00","2001","09","18","23:00","9.0","","9.0","","100","","6","","9","","","M","99.30","","","","","","NA"
"2001-09-19 00:00","2001","09","19","00:00","8.3","","8.3","","100","","5","","11","","","M","99.28","","","","","","NA"
"2001-09-19 01:00","2001","09","19","01:00","7.9","","7.9","","100","","7","","13","","","M","99.25","","","","","","NA"
"2001-09-19 02:00","2001","09","19","02:00","8.6","","8.6","","100","","3","","11","","","M","99.25","","","","","","NA"
"2001-09-19 03:00","2001","09","19","03:00","8.5","","8.5","","100","","3","","13","","","M","99.20","","","","","","NA"
"2001-09-19 04:00","2001","09","19","04:00","8.5","","8.5","","100","","3","","13","","","M","99.18","","","","","","NA"
"2001-09-19 05:00","2001","09","19","05:00","8.1","","8.1","","100","","3","","11","","","M","99.20","","","","","","NA"
"2001-09-19 06:00","2001","09","19","06:00","7.9","","7.9","","100","","3","","11","","","M","99.12","","","","","","NA"
"2001-09-19 07:00","2001","09","19","07:00","7.9","","7.9","","100","","3","","11","","","M","99.12","","","","","","NA"
"2001-09-19 08:00","2001","09","19","08:00","11.5","","10.1","","91","","8","","9","","","M","99.11","","","","","","NA"
"2001-09-19 09:00","2001","09","19","09:00","13.3","","9.9","","80","","5","","9","","","M","99.05","","","","","","NA"
"2001-09-19 10:00","2001","09","19","10:00","16.2","","10.1","","67","","9","","9","","","M","99.05","","","","","","NA"
"2001-09-19 11:00","2001","09","19","11:00","17.4","","8.8","","57","","10","","15","","","M","98.98","","","","","","NA"
"2001-09-19 12:00","2001","09","19","12:00","18.4","","8.7","","53","","4","","9","","","M","98.89","","","","","","NA"
"2001-09-19 13:00","2001","09","19","13:00","19.2","","9.1","","52","","9","","7","","","M","98.83","","","","","","NA"
"2001-09-19 14:00","2001","09","19","14:00","19.5","","7.3","","45","","2","","13","","","M","98.73","","","","","","NA"
"2001-09-19 15:00","2001","09","19","15:00","19.7","","8.7","","49","","7","","4","","","M","98.68","","","","","","NA"
"2001-09-19 16:00","2001","09","19","16:00","19.0","","8.7","","51","","9","","17","","","M","98.64","","","","","","NA"
"2001-09-19 17:00","2001","09","19","17:00","18.4","","9.5","","56","","10","","9","","","M","98.63","","","","","","NA"
"2001-09-19 18:00","2001","09","19","18:00","17.3","","9.7","","61","","8","","13","","","M","98.61","","","","","","NA"
"2001-09-19 19:00","2001","09","19","19:00","16.2","","10.5","","69","","7","","13","","","M","98.56","","","","","","NA"
"2001-09-19 20:00","2001","09","19","20:00","15.7","","10.5","","71","","8","","9","","","M","98.55","","","","","","NA"
"2001-09-19 21:00","2001","09","19","21:00","15.2","","10.6","","74","","6","","17","","","M","98.52","","","","","","NA"
"2001-09-19 22:00","2001","09","19","22:00","13.8","","10.6","","81","","2","","11","","","M","98.52","","","","","","NA"
"2001-09-19 23:00","2001","09","19","23:00","13.5","","10.9","","84","","5","","15","","","M","98.46","","","","","","NA"
"2001-09-20 00:00","2001","09","20","00:00","13.0","","10.7","","86","","3","","20","","","M","98.42","","","","","","NA"
"2001-09-20 01:00","2001","09","20","01:00","13.1","","11.0","","87","","4","","13","","","M","98.37","","","","","","NA"
"2001-09-20 02:00","2001","09","20","02:00","13.4","","11.3","","87","","5","","15","","","M","98.35","","","","","","NA"
"2001-09-20 03:00","2001","09","20","03:00","13.3","","11.4","","88","","4","","22","","","M","98.31","","","","","","NA"
"2001-09-20 04:00","2001","09","20","04:00","13.5","","11.6","","88","","5","","19","","","M","98.30","","","","","","NA"
"2001-09-20 05:00","2001","09","20","05:00","13.7","","11.6","","87","","6","","26","","","M","98.32","","","","","","NA"
"2001-09-20 06:00","2001","09","20","06:00","13.7","","11.4","","86","","6","","19","","","M","98.34","","","","","","NA"
"2001-09-20 07:00","2001","09","20","07:00","13.4","","11.1","","86","","4","","17","","","M","98.38","","","","","","NA"
"2001-09-20 08:00","2001","09","20","08:00","13.5","","10.7","","83","","5","","17","","","M","98.40","","","","","","NA"
"2001-09-20 09:00","2001","09","20","09:00","14.5","","9.9","","74","","6","","28","","","M","98.38","","","","","","NA"
"2001-09-20 10:00","2001","09","20","10:00","15.3","","9.9","","70","","4","","22","","","M","98.45","","","","","","NA"
"2001-09-20 11:00","2001","09","20","11:00","15.1","","9.9","","71","","4","","11","","","M","98.49","","","","","","NA"
"2001-09-20 12:00","2001","09","20","12:00","15.3","","9.7","","69","","5","","19","","","M","98.49","","","","","","NA"
"2001-09-20 13:00","2001","09","20","13:00","15.5","","9.2","","66","","5","","37","","","M","98.48","","","","","","NA"
"2001-09-20 14:00","2001","09","20","14:00","15.0","","9.4","","69","","6","","24","","","M","98.49","","","","","","NA"
"2001-09-20 15:00","2001","09","20","15:00","13.9","","9.0","","72","","6","","26","","","M","98.56","","","","","","NA"
"2001-09-20 16:00","2001","09","20","16:00","13.9","","9.2","","73","","4","","19","","","M","98.56","","","","","","NA"
"2001-09-20 17:00","2001","09","20","17:00","13.7","","9.0","","73","","4","","22","","","M","98.58","","","","","","NA"
"2001-09-20 18:00","2001","09","20","18:00","13.8","","9.1","","73","","5","","24","","","M","98.60","","","","","","NA"
"2001-09-20 19:00","2001","09","20","19:00","13.7","","9.2","","74","","5","","19","","","M","98.60","","","","","","NA"
"2001-09-20 20:00","2001","09","20","20:00","13.8","","8.9","","72","","4","","13","","","M","98.62","","","","","","NA"
"2001-09-20 21:00","2001","09","20","21:00","13.2","","8.9","","75","","6","","19","","","M","98.63","","","","","","NA"
"2001-09-20 22:00","2001","09","20","22:00","12.1","","8.6","","79","","6","","19","","","M","98.61","","","","","","NA"
"2001-09-20 23:00","2001","09","20","23:00","12.2","","7.9","","75","","7","","22","","","M","98.57","","","","","","NA"
"2001-09-21 00:00","2001","09","21","00:00","11.4","","7.1","","75","","5","","24","","","M","98.53","","","","","","NA"
"2001-09-21 01:00","2001","09","21","01:00","10.5","","7.0","","79","","5","","22","","","M","98.50","","","","","","NA"
"2001-09-21 02:00","2001","09","21","02:00","10.4","","6.9","","79","","5","","17","","","M","98.50","","","","","","NA"
"2001-09-21 03:00","2001","09","21","03:00","10.2","","7.3","","82","","5","","11","","","M","98.54","","","","","","NA"
"2001-09-21 04:00","2001","09","21","04:00","8.5","","7.6","","94","","4","","13","","","M","98.55","","","","","","NA"
"2001-09-21 05:00","2001","09","21","05:00","7.8","","7.4","","97","","4","","9","","","M","98.55","","","","","","NA"
"2001-09-21 06:00","2001","09","21","06:00","7.7","","7.1","","96","","3","","11","","","M","98.57","","","","","","NA"
"2001-09-21 07:00","2001","09","21","07:00","7.3","","7.3","","100","","4","","9","","","M","98.55","","","","","","NA"
"2001-09-21 08:00","2001","09","21","08:00","7.5","","7.5","","100","","4","","13","","","M","98.55","","","","","","NA"
"2001-09-21 09:00","2001","09","21","09:00","8.1","","8.0","","99","","6","","7","","","M","98.51","","","","","","NA"
"2001-09-21 10:00","2001","09","21","10:00","9.4","","8.8","","96","","8","","6","","","M","98.52","","","","","","NA"
"2001-09-21 11:00","2001","09","21","11:00","10.5","","8.8","","89","","6","","9","","","M","98.52","","","","","","NA"
"2001-09-21 12:00","2001","09","21","12:00","12.1","","9.5","","84","","7","","6","","","M","98.47","","","","","","NA"
"2001-09-21 13:00","2001","09","21","13:00","13.9","","9.6","","75","","7","","11","","","M","98.49","","","","","","NA"
"2001-09-21 14:00","2001","09","21","14:00","14.1","","9.9","","76","","27","","13","","","M","98.47","","","","","","NA"
"2001-09-21 15:00","2001","09","21","15:00","13.9","","9.4","","74","","27","","15","","","M","98.49","","","","","","NA"
"2001-09-21 16:00","2001","09","21","16:00","14.8","","10.4","","75","","25","","9","","","M","98.47","","","","","","NA"
"2001-09-21 17:00","2001","09","21","17:00","13.9","","11.6","","86","","25","","15","","","M","98.48","","","","","","NA"
"2001-09-21 18:00","2001","09","21","18:00","14.8","","12.1","","84","","27","","9","","","M","98.52","","","","","","NA"
"2001-09-21 19:00","2001","09","21","19:00","13.7","","11.9","","89","","28","","15","","","M","98.53","","","","","","NA"
"2001-09-21 20:00","2001","09","21","20:00","13.4","","12.6","","95","","28","","11","","","M","98.56","","","","","","NA"
"2001-09-21 21:00","2001","09","21","21:00","13.4","","12.9","","97","","29","","11","","","M","98.58","","","","","","NA"
"2001-09-21 22:00","2001","09","21","22:00","10.9","","10.6","","98","","11","","4","","","M","98.55","","","","","","NA"
"2001-09-21 23:00","2001","09","21","23:00","10.0","","9.9","","99","","16","","2","","","M","98.55","","","","","","NA"
"2001-09-22 00:00","2001","09","22","00:00","11.2","","11.2","","100","","17","","7","","","M","98.57","","","","","","NA"
"2001-09-22 01:00","2001","09","22","01:00","11.5","","11.5","","100","","17","","11","","","M","98.58","","","","","","NA"
"2001-09-22 02:00","2001","09","22","02:00","11.4","","11.4","","100","","17","","6","","","M","98.62","","","","","","NA"
"2001-09-22 03:00","2001","09","22","03:00","11.3","","11.3","","100","","13","","4","","","M","98.64","","","","","","NA"
"2001-09-22 04:00","2001","09","22","04:00","11.4","","11.4","","100","","14","","6","","","M","98.64","","","","","","NA"
"2001-09-22 05:00","2001","09","22","05:00","12.8","","12.8","","100","","20","","13","","","M","98.66","","","","","","NA"
"2001-09-22 06:00","2001","09","22","06:00","11.7","","11.7","","100","","5","","6","","","M","98.74","","","","","","NA"
"2001-09-22 07:00","2001","09","22","07:00","11.5","","11.1","","97","","3","","9","","","M","98.82","","","","","","NA"
"2001-09-22 08:00","2001","09","22","08:00","11.3","","10.1","","92","","4","","9","","","M","98.85","","","","","","NA"
"2001-09-22 09:00","2001","09","22","09:00","11.5","","11.1","","97","","2","","4","","","M","98.90","","","","","","NA"
"2001-09-22 10:00","2001","09","22","10:00","12.2","","11.0","","92","","7","","6","","","M","98.93","","","","","","NA"
"2001-09-22 11:00","2001","09","22","11:00","13.8","","11.3","","85","","5","","4","","","M","98.96","","","","","","NA"
"2001-09-22 12:00","2001","09","22","12:00","14.4","","10.6","","78","","26","","11","","","M","98.98","","","","","","NA"
"2001-09-22 13:00","2001","09","22","13:00","15.6","","10.8","","73","","26","","9","","","M","98.98","","","","","","NA"
"2001-09-22 14:00","2001","09","22","14:00","16.4","","10.9","","70","","27","","11","","","M","98.98","","","","","","NA"
"2001-09-22 15:00","2001","09","22","15:00","16.2","","11.6","","74","","27","","15","","","M","99.00","","","","","","NA"
"2001-09-22 16:00","2001","09","22","16:00","15.4","","10.4","","72","","29","","19","","","M","99.04","","","","","","NA"
"2001-09-22 17:00","2001","09","22","17:00","14.9","","10.7","","76","","29","","9","","","M","99.04","","","","","","NA"
"2001-09-22 18:00","2001","09","22","18:00","14.2","","11.4","","83","","30","","4","","","M","99.08","","","","","","NA"
"2001-09-22 19:00","2001","09","22","19:00","12.6","","11.3","","92","","14","","4","","","M","99.09","","","","","","NA"
"2001-09-22 20:00","2001","09","22","20:00","11.2","","10.8","","97","","8","","7","","","M","99.15","","","","","","NA"
"2001-09-22 21:00","2001","09","22","21:00","11.3","","10.2","","93","","3","","7","","","M","99.16","","","","","","NA"
"2001-09-22 22:00","2001","09","22","22:00","11.8","","8.8","","82","","1","","7","","","M","99.21","","","","","","NA"
"2001-09-22 23:00","2001","09","22","23:00","11.7","","3.2","","56","","5","","22","","","M","99.28","","","","","","NA"
"2001-09-23 00:00","2001","09","23","00:00","8.5","","5.6","","82","","3","","11","","","M","99.47","","","","","","NA"
"2001-09-23 01:00","2001","09","23","01:00","8.0","","4.0","","76","","6","","20","","","M","99.50","","","","","","NA"
"2001-09-23 02:00","2001","09","23","02:00","6.9","","3.3","","78","","7","","22","","","M","99.48","","","","","","NA"
"2001-09-23 03:00","2001","09","23","03:00","6.7","","3.2","","78","","5","","17","","","M","99.46","","","","","","NA"
"2001-09-23 04:00","2001","09","23","04:00","6.8","","1.9","","71","","7","","26","","","M","99.49","","","","","","NA"
"2001-09-23 05:00","2001","09","23","05:00","6.5","","2.4","","75","","6","","17","","","M","99.55","","","","","","NA"
"2001-09-23 06:00","2001","09","23","06:00","5.8","","2.1","","77","","6","","24","","","M","99.60","","","","","","NA"
"2001-09-23 07:00","2001","09","23","07:00","5.2","","2.2","","81","","6","","13","","","M","99.72","","","","","","NA"
"2001-09-23 08:00","2001","09","23","08:00","5.4","","2.2","","80","","5","","19","","","M","99.75","","","","","","NA"
"2001-09-23 09:00","2001","09","23","09:00","6.2","","2.5","","77","","6","","17","","","M","99.77","","","","","","NA"
"2001-09-23 10:00","2001","09","23","10:00","7.2","","3.1","","75","","6","","26","","","M","99.78","","","","","","NA"
"2001-09-23 11:00","2001","09","23","11:00","8.2","","3.7","","73","","5","","17","","","M","99.77","","","","","","NA"
"2001-09-23 12:00","2001","09","23","12:00","9.4","","3.4","","66","","7","","17","","","M","99.77","","","","","","NA"
"2001-09-23 13:00","2001","09","23","13:00","10.1","","2.9","","61","","6","","24","","","M","99.79","","","","","","NA"
"2001-09-23 14:00","2001","09","23","14:00","10.2","","3.0","","61","","4","","19","","","M","99.76","","","","","","NA"
"2001-09-23 15:00","2001","09","23","15:00","10.1","","2.5","","59","","4","","22","","","M","99.78","","","","","","NA"
"2001-09-23 16:00","2001","09","23","16:00","10.3","","1.4","","54","","6","","24","","","M","99.79","","","","","","NA"
"2001-09-23 17:00","2001","09","23","17:00","10.1","","-0.5","","48","","7","","26","","","M","99.81","","","","","","NA"
"2001-09-23 18:00","2001","09","23","18:00","8.9","","-0.2","","53","","5","","24","","","M","99.90","","","","","","NA"
"2001-09-23 19:00","2001","09","23","19:00","7.2","","-0.1","","60","","5","","20","","","M","99.95","","","","","","NA"
"2001-09-23 20:00","2001","09","23","20:00","6.0","","0.8","","69","","4","","17","","","M","100.03","","","","","","NA"
"2001-09-23 21:00","2001","09","23","21:00","5.2","","1.0","","74","","4","","13","","","M","100.07","","","","","","NA"
"2001-09-23 22:00","2001","09","23","22:00","5.0","","0.8","","74","","5","","19","","","M","100.07","","","","","","NA"
"2001-09-23 23:00","2001","09","23","23:00","4.1","","0.8","","79","","5","","15","","","M","100.08","","","","","","NA"
"2001-09-24 00:00","2001","09","24","00:00","3.4","","0.5","","81","","3","","9","","","M","100.10","","","","","","NA"
"2001-09-24 01:00","2001","09","24","01:00","2.8","","0.2","","83","","3","","11","","","M","100.08","","","","","","NA"
"2001-09-24 02:00","2001","09","24","02:00","2.4","","0.2","","85","","3","","13","","","M","100.10","","","","","","NA"
"2001-09-24 03:00","2001","09","24","03:00","2.0","","0.1","","87","","5","","13","","","M","100.11","","","","","","NA"
"2001-09-24 04:00","2001","09","24","04:00","1.7","","0.2","","90","","5","","19","","","M","100.14","","","","","","NA"
"2001-09-24 05:00","2001","09","24","05:00","1.5","","0.5","","93","","5","","15","","","M","100.19","","","","","","NA"
"2001-09-24 06:00","2001","09","24","06:00","1.3","","0.5","","94","","4","","19","","","M","100.25","","","","","","NA"
"2001-09-24 07:00","2001","09","24","07:00","1.8","","0.3","","90","","5","","17","","","M","100.30","","","","","","NA"
"2001-09-24 08:00","2001","09","24","08:00","2.9","","-0.1","","81","","5","","13","","","M","100.34","","","","","","NA"
"2001-09-24 09:00","2001","09","24","09:00","4.2","","-1.1","","68","","3","","19","","","M","100.36","","","","","","NA"
"2001-09-24 10:00","2001","09","24","10:00","4.9","","-1.2","","65","","6","","17","","","M","100.40","","","","","","NA"
"2001-09-24 11:00","2001","09","24","11:00","6.6","","-1.4","","57","","4","","17","","","M","100.39","","","","","","NA"
"2001-09-24 12:00","2001","09","24","12:00","7.9","","-2.0","","50","","4","","15","","","M","100.35","","","","","","NA"
"2001-09-24 13:00","2001","09","24","13:00","8.7","","-2.4","","46","","4","","15","","","M","100.32","","","","","","NA"
"2001-09-24 14:00","2001","09","24","14:00","9.6","","-3.1","","41","","6","","19","","","M","100.24","","","","","","NA"
"2001-09-24 15:00","2001","09","24","15:00","10.0","","-4.1","","37","","3","","20","","","M","100.19","","","","","","NA"
"2001-09-24 16:00","2001","09","24","16:00","10.5","","-4.0","","36","","2","","20","","","M","100.13","","","","","","NA"
"2001-09-24 17:00","2001","09","24","17:00","10.4","","-4.1","","36","","2","","15","","","M","100.14","","","","","","NA"
"2001-09-24 18:00","2001","09","24","18:00","9.3","","-3.7","","40","","3","","13","","","M","100.16","","","","","","NA"
"2001-09-24 19:00","2001","09","24","19:00","7.2","","-2.6","","50","","6","","9","","","M","100.21","","","","","","NA"
"2001-09-24 20:00","2001","09","24","20:00","5.7","","-2.2","","57","","4","","9","","","M","100.26","","","","","","NA"
"2001-09-24 21:00","2001","09","24","21:00","4.5","","-1.8","","64","","3","","13","","","M","100.24","","","","","","NA"
"2001-09-24 22:00","2001","09","24","22:00","3.4","","-1.8","","69","","4","","11","","","M","100.24","","","","","","NA"
"2001-09-24 23:00","2001","09","24","23:00","2.8","","-1.8","","72","","4","","13","","","M","100.24","","","","","","NA"
"2001-09-25 00:00","2001","09","25","00:00","1.5","","-1.7","","79","","7","","4","","","M","100.23","","","","","","NA"
"2001-09-25 01:00","2001","09","25","01:00","0.9","","-1.3","","85","","6","","7","","","M","100.20","","","","","","NA"
"2001-09-25 02:00","2001","09","25","02:00","0.3","","-2.2","","83","","3","","9","","","M","100.17","","","","","","NA"
"2001-09-25 03:00","2001","09","25","03:00","0.9","","-1.7","","83","","6","","13","","","M","100.16","","","","","","NA"
"2001-09-25 04:00","2001","09","25","04:00","0.1","","-1.9","","86","","5","","9","","","M","100.16","","","","","","NA"
"2001-09-25 05:00","2001","09","25","05:00","0.5","","-1.5","","86","","5","","7","","","M","100.18","","","","","","NA"
"2001-09-25 06:00","2001","09","25","06:00","0.4","","-1.3","","88","","4","","6","","","M","100.20","","","","","","NA"
"2001-09-25 07:00","2001","09","25","07:00","0.3","","-1.4","","88","","4","","9","","","M","100.19","","","","","","NA"
"2001-09-25 08:00","2001","09","25","08:00","2.6","","-0.9","","78","","3","","9","","","M","100.19","","","","","","NA"
"2001-09-25 09:00","2001","09","25","09:00","5.4","","-0.3","","67","","4","","11","","","M","100.11","","","","","","NA"
"2001-09-25 10:00","2001","09","25","10:00","7.7","","-0.6","","56","","5","","15","","","M","100.01","","","","","","NA"
"2001-09-25 11:00","2001","09","25","11:00","10.4","","-3.4","","38","","2","","17","","","M","99.87","","","","","","NA"
"2001-09-25 12:00","2001","09","25","12:00","12.8","","-5.8","","27","","3","","19","","","M","99.73","","","","","","NA"
"2001-09-25 13:00","2001","09","25","13:00","13.9","","-8.1","","21","","4","","19","","","M","99.63","","","","","","NA"
"2001-09-25 14:00","2001","09","25","14:00","14.2","","-5.1","","26","","2","","15","","","M","99.54","","","","","","NA"
"2001-09-25 15:00","2001","09","25","15:00","14.5","","-4.9","","26","","4","","20","","","M","99.44","","","","","","NA"
"2001-09-25 16:00","2001","09","25","16:00","14.6","","-3.3","","29","","3","","13","","","M","99.32","","","","","","NA"
"2001-09-25 17:00","2001","09","25","17:00","14.8","","-1.8","","32","","2","","7","","","M","99.24","","","","","","NA"
"2001-09-25 18:00","2001","09","25","18:00","14.1","","-1.2","","35","","35","","7","","","M","99.17","","","","","","NA"
"2001-09-25 19:00","2001","09","25","19:00","12.6","","2.5","","50","","7","","6","","","M","99.14","","","","","","NA"
"2001-09-25 20:00","2001","09","25","20:00","11.2","","0.6","","48","","1","","7","","","M","99.12","","","","","","NA"
"2001-09-25 21:00","2001","09","25","21:00","10.9","","0.0","","47","","2","","6","","","M","99.06","","","","","","NA"
"2001-09-25 22:00","2001","09","25","22:00","9.7","","0.6","","53","","2","","9","","","M","99.03","","","","","","NA"
"2001-09-25 23:00","2001","09","25","23:00","9.4","","0.6","","54","","4","","9","","","M","98.99","","","","","","NA"
"2001-09-26 00:00","2001","09","26","00:00","9.7","","0.3","","52","","3","","9","","","M","98.96","","","","","","NA"
"2001-09-26 01:00","2001","09","26","01:00","9.6","","0.5","","53","","4","","9","","","M","98.88","","","","","","NA"
"2001-09-26 02:00","2001","09","26","02:00","9.6","","0.8","","54","","2","","11","","","M","98.84","","","","","","NA"
"2001-09-26 03:00","2001","09","26","03:00","9.8","","0.2","","51","","4","","17","","","M","98.83","","","","","","NA"
"2001-09-26 04:00","2001","09","26","04:00","9.6","","-0.1","","51","","4","","17","","","M","98.82","","","","","","NA"
"2001-09-26 05:00","2001","09","26","05:00","9.2","","0.4","","54","","2","","11","","","M","98.84","","","","","","NA"
"2001-09-26 06:00","2001","09","26","06:00","9.0","","-0.9","","50","","3","","19","","","M","98.89","","","","","","NA"
"2001-09-26 07:00","2001","09","26","07:00","8.5","","-1.1","","51","","2","","19","","","M","98.88","","","","","","NA"
"2001-09-26 08:00","2001","09","26","08:00","8.5","","-1.7","","49","","5","","19","","","M","98.95","","","","","","NA"
"2001-09-26 09:00","2001","09","26","09:00","9.6","","-1.8","","45","","4","","15","","","M","98.97","","","","","","NA"
"2001-09-26 10:00","2001","09","26","10:00","10.2","","-1.9","","43","","5","","15","","","M","98.97","","","","","","NA"
"2001-09-26 11:00","2001","09","26","11:00","11.3","","-2.6","","38","","5","","20","","","M","98.95","","","","","","NA"
"2001-09-26 12:00","2001","09","26","12:00","12.6","","-1.1","","39","","4","","24","","","M","98.93","","","","","","NA"
"2001-09-26 13:00","2001","09","26","13:00","13.5","","-4.3","","29","","5","","30","","","M","98.94","","","","","","NA"
"2001-09-26 14:00","2001","09","26","14:00","13.7","","-3.6","","30","","5","","32","","","M","98.97","","","","","","NA"
"2001-09-26 15:00","2001","09","26","15:00","13.2","","-0.5","","39","","8","","24","","","M","99.01","","","","","","NA"
"2001-09-26 16:00","2001","09","26","16:00","11.3","","2.9","","56","","4","","22","","","M","99.05","","","","","","NA"
"2001-09-26 17:00","2001","09","26","17:00","10.6","","4.1","","64","","6","","19","","","M","99.13","","","","","","NA"
"2001-09-26 18:00","2001","09","26","18:00","10.1","","4.7","","69","","3","","19","","","M","99.19","","","","","","NA"
"2001-09-26 19:00","2001","09","26","19:00","9.5","","4.9","","73","","4","","13","","","M","99.24","","","","","","NA"
"2001-09-26 20:00","2001","09","26","20:00","9.2","","4.4","","72","","5","","11","","","M","99.29","","","","","","NA"
"2001-09-26 21:00","2001","09","26","21:00","8.9","","4.5","","74","","3","","11","","","M","99.32","","","","","","NA"
"2001-09-26 22:00","2001","09","26","22:00","8.0","","4.6","","79","","4","","9","","","M","99.32","","","","","","NA"
"2001-09-26 23:00","2001","09","26","23:00","7.2","","4.5","","83","","3","","11","","","M","99.30","","","","","","NA"
"2001-09-27 00:00","2001","09","27","00:00","6.8","","4.3","","84","","3","","11","","","M","99.33","","","","","","NA"
"2001-09-27 01:00","2001","09","27","01:00","6.1","","3.6","","84","","4","","9","","","M","99.34","","","","","","NA"
"2001-09-27 02:00","2001","09","27","02:00","6.7","","3.3","","79","","4","","17","","","M","99.36","","","","","","NA"
"2001-09-27 03:00","2001","09","27","03:00","6.6","","2.9","","77","","4","","13","","","M","99.38","","","","","","NA"
"2001-09-27 04:00","2001","09","27","04:00","6.1","","2.4","","77","","6","","15","","","M","99.40","","","","","","NA"
"2001-09-27 05:00","2001","09","27","05:00","5.7","","2.4","","79","","5","","15","","","M","99.47","","","","","","NA"
"2001-09-27 06:00","2001","09","27","06:00","5.5","","2.3","","80","","7","","19","","","M","99.52","","","","","","NA"
"2001-09-27 07:00","2001","09","27","07:00","5.5","","2.7","","82","","5","","9","","","M","99.60","","","","","","NA"
"2001-09-27 08:00","2001","09","27","08:00","5.2","","2.7","","84","","6","","17","","","M","99.65","","","","","","NA"
"2001-09-27 09:00","2001","09","27","09:00","5.3","","2.8","","84","","5","","17","","","M","99.68","","","","","","NA"
"2001-09-27 10:00","2001","09","27","10:00","5.5","","2.7","","82","","6","","15","","","M","99.76","","","","","","NA"
"2001-09-27 11:00","2001","09","27","11:00","6.3","","2.9","","79","","7","","19","","","M","99.78","","","","","","NA"
"2001-09-27 12:00","2001","09","27","12:00","7.6","","2.5","","70","","7","","17","","","M","99.77","","","","","","NA"
"2001-09-27 13:00","2001","09","27","13:00","9.9","","3.0","","62","","6","","17","","","M","99.76","","","","","","NA"
"2001-09-27 14:00","2001","09","27","14:00","10.9","","3.0","","58","","3","","15","","","M","99.73","","","","","","NA"
"2001-09-27 15:00","2001","09","27","15:00","11.9","","3.2","","55","","8","","11","","","M","99.73","","","","","","NA"
"2001-09-27 16:00","2001","09","27","16:00","12.1","","2.8","","53","","1","","9","","","M","99.72","","","","","","NA"
"2001-09-27 17:00","2001","09","27","17:00","11.5","","2.5","","54","","5","","19","","","M","99.74","","","","","","NA"
"2001-09-27 18:00","2001","09","27","18:00","9.8","","2.9","","62","","5","","11","","","M","99.80","","","","","","NA"
"2001-09-27 19:00","2001","09","27","19:00","7.4","","2.9","","73","","6","","11","","","M","99.87","","","","","","NA"
"2001-09-27 20:00","2001","09","27","20:00","6.8","","2.9","","76","","8","","11","","","M","99.92","","","","","","NA"
"2001-09-27 21:00","2001","09","27","21:00","6.2","","2.7","","78","","7","","7","","","M","99.96","","","","","","NA"
"2001-09-27 22:00","2001","09","27","22:00","5.1","","3.1","","87","","5","","7","","","M","99.99","","","","","","NA"
"2001-09-27 23:00","2001","09","27","23:00","3.8","","2.8","","93","","11","","2","","","M","100.03","","","","","","NA"
"2001-09-28 00:00","2001","09","28","00:00","3.0","","2.3","","95","","33","","4","","","M","100.06","","","","","","NA"
"2001-09-28 01:00","2001","09","28","01:00","1.6","","1.6","","100","","7","","7","","","M","100.06","","","","","","NA"
"2001-09-28 02:00","2001","09","28","02:00","1.9","","1.9","","100","","6","","9","","","M","100.08","","","","","","NA"
"2001-09-28 03:00","2001","09","28","03:00"
"2001-09-28 04:00","2001","09","28","04:00","3.3","","2.4","","94","","8","","15","","","M","100.09","","","","","","NA"
"2001-09-28 05:00","2001","09","28","05:00","2.8","","2.4","","97","","8","","17","","","M","100.14","","","","","","NA"
"2001-09-28 06:00","2001","09","28","06:00","1.9","","1.6","","98","","8","","13","","","M","100.18","","","","","","NA"
"2001-09-28 07:00","2001","09","28","07:00","1.9","","1.9","","100","","10","","13","","","M","100.23","","","","","","NA"
"2001-09-28 08:00","2001","09","28","08:00","3.2","","1.4","","88","","9","","13","","","M","100.31","","","","","","NA"
"2001-09-28 09:00","2001","09","28","09:00","5.0","","2.2","","82","","3","","2","","","M","100.31","","","","","","NA"
"2001-09-28 10:00","2001","09","28","10:00","9.5","","4.1","","69","","11","","15","","","M","100.30","","","","","","NA"
"2001-09-28 11:00","2001","09","28","11:00","11.4","","3.9","","60","","10","","11","","","M","100.29","","","","","","NA"
"2001-09-28 12:00","2001","09","28","12:00","13.4","","4.3","","54","","12","","7","","","M","100.24","","","","","","NA"
"2001-09-28 13:00","2001","09","28","13:00","13.6","","3.9","","52","","27","","9","","","M","100.19","","","","","","NA"
"2001-09-28 14:00","2001","09","28","14:00","12.0","","4.7","","61","","31","","13","","","M","100.15","","","","","","NA"
"2001-09-28 15:00","2001","09","28","15:00","12.9","","5.6","","61","","29","","11","","","M","100.16","","","","","","NA"
"2001-09-28 16:00","2001","09","28","16:00","10.9","","6.1","","72","","26","","6","","","M","100.14","","","","","","NA"
"2001-09-28 17:00","2001","09","28","17:00","11.7","","6.6","","71","","22","","4","","","M","100.15","","","","","","NA"
"2001-09-28 18:00","2001","09","28","18:00","9.9","","6.3","","78","","21","","6","","","M","100.15","","","","","","NA"
"2001-09-28 19:00","2001","09","28","19:00","8.3","","6.8","","90","","13","","4","","","M","100.15","","","","","","NA"
"2001-09-28 20:00","2001","09","28","20:00","7.0","","6.3","","95","","13","","6","","","M","100.16","","","","","","NA"
"2001-09-28 21:00","2001","09","28","21:00","6.0","","5.7","","98","","9","","7","","","M","100.17","","","","","","NA"
"2001-09-28 22:00","2001","09","28","22:00","5.3","","5.2","","99","","10","","9","","","M","100.18","","","","","","NA"
"2001-09-28 23:00","2001","09","28","23:00","4.9","","4.9","","100","","10","","11","","","M","100.18","","","","","","NA"
"2001-09-29 00:00","2001","09","29","00:00","4.2","","4.2","","100","","9","","11","","","M","100.16","","","","","","NA"
"2001-09-29 01:00","2001","09","29","01:00","3.9","","3.9","","100","","10","","13","","","M","100.14","","","","","","NA"
"2001-09-29 02:00","2001","09","29","02:00","3.2","","3.2","","100","","9","","13","","","M","100.17","","","","","","NA"
"2001-09-29 03:00","2001","09","29","03:00","2.8","","2.8","","100","","8","","11","","","M","100.20","","","","","","NA"
"2001-09-29 04:00","2001","09","29","04:00","3.0","","3.0","","100","","10","","11","","","M","100.23","","","","","","NA"
"2001-09-29 05:00","2001","09","29","05:00","2.3","","2.3","","100","","9","","9","","","M","100.26","","","","","","NA"
"2001-09-29 06:00","2001","09","29","06:00","2.3","","2.3","","100","","10","","11","","","M","100.30","","","","","","NA"
"2001-09-29 07:00","2001","09","29","07:00","2.1","","2.1","","100","","13","","7","","","M","100.32","","","","","","NA"
"2001-09-29 08:00","2001","09","29","08:00","4.4","","3.8","","96","","11","","7","","","M","100.34","","","","","","NA"
"2001-09-29 09:00","2001","09","29","09:00","9.4","","7.2","","86","","19","","11","","","M","100.33","","","","","","NA"
"2001-09-29 10:00","2001","09","29","10:00","10.9","","7.4","","79","","20","","17","","","M","100.34","","","","","","NA"
"2001-09-29 11:00","2001","09","29","11:00","11.4","","7.7","","78","","20","","13","","","M","100.36","","","","","","NA"
"2001-09-29 12:00","2001","09","29","12:00","11.5","","8.0","","79","","21","","15","","","M","100.34","","","","","","NA"
"2001-09-29 13:00","2001","09","29","13:00","13.2","","7.9","","70","","21","","11","","","M","100.28","","","","","","NA"
"2001-09-29 14:00","2001","09","29","14:00","12.5","","7.8","","73","","21","","13","","","M","100.23","","","","","","NA"
"2001-09-29 15:00","2001","09","29","15:00","12.3","","7.6","","73","","21","","17","","","M","100.19","","","","","","NA"
"2001-09-29 16:00","2001","09","29","16:00","11.7","","7.4","","75","","20","","17","","","M","100.15","","","","","","NA"
"2001-09-29 17:00","2001","09","29","17:00","9.2","","8.8","","97","","18","","13","","","M","100.15","","","","","","NA"
"2001-09-29 18:00","2001","09","29","18:00","8.4","","8.4","","100","","19","","17","","","M","100.11","","","","","","NA"
"2001-09-29 19:00","2001","09","29","19:00","7.6","","7.6","","100","","19","","15","","","M","100.10","","","","","","NA"
"2001-09-29 20:00","2001","09","29","20:00","8.1","","8.1","","100","","18","","7","","","M","100.05","","","","","","NA"
"2001-09-29 21:00","2001","09","29","21:00","7.6","","7.6","","100","","18","","7","","","M","100.00","","","","","","NA"
"2001-09-29 22:00","2001","09","29","22:00","7.7","","7.7","","100","","20","","6","","","M","99.94","","","","","","NA"
"2001-09-29 23:00","2001","09","29","23:00","8.1","","8.1","","100","","18","","11","","","M","99.88","","","","","","NA"
"2001-09-30 00:00","2001","09","30","00:00","8.4","","8.3","","99","","19","","22","","","M","99.80","","","","","","NA"
"2001-09-30 01:00","2001","09","30","01:00","8.7","","8.4","","98","","19","","22","","","M","99.75","","","","","","NA"
"2001-09-30 02:00","2001","09","30","02:00","9.7","","8.8","","94","","19","","26","","","M","99.75","","","","","","NA"
"2001-09-30 03:00","2001","09","30","03:00","10.0","","9.2","","95","","20","","28","","","M","99.72","","","","","","NA"
"2001-09-30 04:00","2001","09","30","04:00","8.8","","8.7","","99","","20","","20","","","M","99.71","","","","","","NA"
"2001-09-30 05:00","2001","09","30","05:00","8.6","","8.6","","100","","19","","20","","","M","99.70","","","","","","NA"
"2001-09-30 06:00","2001","09","30","06:00","8.7","","8.7","","100","","20","","19","","","M","99.71","","","","","","NA"
"2001-09-30 07:00","2001","09","30","07:00","8.7","","8.7","","100","","19","","22","","","M","99.69","","","","","","NA"
"2001-09-30 08:00","2001","09","30","08:00","9.2","","9.2","","100","","19","","22","","","M","99.69","","","","","","NA"
"2001-09-30 09:00","2001","09","30","09:00","9.6","","9.5","","99","","19","","24","","","M","99.64","","","","","","NA"
"2001-09-30 10:00","2001","09","30","10:00","9.8","","9.7","","99","","20","","28","","","M","99.64","","","","","","NA"
"2001-09-30 11:00","2001","09","30","11:00","9.4","","9.0","","97","","20","","22","","","M","99.66","","","","","","NA"
"2001-09-30 12:00","2001","09","30","12:00","9.6","","9.3","","98","","20","","24","","","M","99.61","","","","","","NA"
"2001-09-30 13:00","2001","09","30","13:00","9.9","","9.5","","97","","19","","24","","","M","99.54","","","","","","NA"
"2001-09-30 14:00","2001","09","30","14:00","9.9","","9.5","","97","","20","","22","","","M","99.51","","","","","","NA"
"2001-09-30 15:00","2001","09","30","15:00","9.9","","9.5","","97","","20","","22","","","M","99.51","","","","","","NA"
"2001-09-30 16:00","2001","09","30","16:00","10.0","","9.6","","97","","19","","19","","","M","99.45","","","","","","NA"
"2001-09-30 17:00","2001","09","30","17:00","10.2","","9.9","","98","","19","","19","","","M","99.40","","","","","","NA"
"2001-09-30 18:00","2001","09","30","18:00","10.2","","10.1","","99","","19","","17","","","M","99.40","","","","","","NA"
"2001-09-30 19:00","2001","09","30","19:00","10.3","","10.3","","100","","18","","15","","","M","99.42","","","","","","NA"
"2001-09-30 20:00","2001","09","30","20:00","10.4","","10.4","","100","","18","","9","","","M","99.38","","","","","","NA"
"2001-09-30 21:00","2001","09","30","21:00","10.6","","10.6","","100","","18","","9","","","M","99.36","","","","","","NA"
"2001-09-30 22:00","2001","09","30","22:00","10.7","","10.7","","100","","20","","4","","","M","99.36","","","","","","NA"
"2001-09-30 23:00","2001","09","30","23:00","10.4","","10.4","","100","","18","","7","","","M","99.30","","","","","","NA"
