"Station Name","PUKASKWA (AUT)"
"Province","ONTARIO"
"Latitude","48.59"
"Longitude","-86.29"
"Elevation","207.60"
"Climate Identifier","6046767"
"WMO Identifier","71750"
"TC Identifier","WCJ"
"All times are specified in Local Standard Time (LST). Add 1 hour to adjust for Daylight Saving Time where and when it is observed."

"Legend"
"E","Estimated"
"M","Missing"
"NA","Not Available"

"Date/Time","Year","Month","Day","Time","Temp (°C)","Temp Flag","Dew Point Temp (°C)","Dew Point Temp Flag","Rel Hum (%)","Rel Hum Flag","Wind Dir (10s deg)","Wind Dir Flag","Wind Spd (km/h)","Wind Spd Flag","Visibility (km)","Visibility Flag","Stn Press (kPa)","Stn Press Flag","Hmdx","Hmdx Flag","Wind Chill","Wind Chill Flag","Weather"
"2009-11-01 00:00","2009","11","01","00:00","0.3","","-0.4","","95","","35","","4","","","","98.68","","","","","","NA"
"2009-11-01 01:00","2009","11","01","01:00","0.7","","-0.3","","93","","","","0","","","","98.84","","","","","","NA"
"2009-11-01 02:00","2009","11","01","02:00","-0.9","","-0.9","","100","","36","","2","","","","98.88","","","","-2","","NA"
"2009-11-01 03:00","2009","11","01","03:00","-1.7","","-1.7","","100","","","","0","","","","99.00","","","","","","NA"
"2009-11-01 04:00","2009","11","01","04:00","-1.5","","-1.5","","100","","","","0","","","","99.05","","","","","","NA"
"2009-11-01 05:00","2009","11","01","05:00","-2.0","","-2.0","","100","","5","","2","","","","99.14","","","","-3","","NA"
"2009-11-01 06:00","2009","11","01","06:00","-2.3","","-2.3","","100","","4","","4","","","","99.25","","","","-4","","NA"
"2009-11-01 07:00","2009","11","01","07:00","-2.5","","-2.5","","100","","7","","6","","","","99.31","","","","-5","","NA"
"2009-11-01 08:00","2009","11","01","08:00","-2.6","","-2.6","","100","","7","","7","","","","99.34","","","","-5","","NA"
"2009-11-01 09:00","2009","11","01","09:00","-1.3","","-1.4","","99","","","","0","","","","99.42","","","","","","NA"
"2009-11-01 10:00","2009","11","01","10:00","0.1","","-0.5","","96","","","","0","","","","99.49","","","","","","NA"
"2009-11-01 11:00","2009","11","01","11:00","3.8","","0.3","","78","","11","","7","","","","99.51","","","","","","NA"
"2009-11-01 12:00","2009","11","01","12:00","4.2","","-0.3","","72","","20","","6","","","","99.50","","","","","","NA"
"2009-11-01 13:00","2009","11","01","13:00","4.1","","-0.2","","74","","23","","9","","","","99.50","","","","","","NA"
"2009-11-01 14:00","2009","11","01","14:00","5.6","","1.3","","74","","20","","13","","","","99.51","","","","","","NA"
"2009-11-01 15:00","2009","11","01","15:00","4.4","","1.9","","84","","19","","9","","","","99.48","","","","","","NA"
"2009-11-01 16:00","2009","11","01","16:00","4.6","","2.0","","83","","17","","15","","","","99.44","","","","","","NA"
"2009-11-01 17:00","2009","11","01","17:00","4.3","","2.0","","85","","18","","17","","","","99.38","","","","","","NA"
"2009-11-01 18:00","2009","11","01","18:00","4.4","","2.4","","87","","15","","19","","","","99.35","","","","","","NA"
"2009-11-01 19:00","2009","11","01","19:00","3.7","","1.6","","86","","10","","6","","","","99.31","","","","","","NA"
"2009-11-01 20:00","2009","11","01","20:00","3.6","","1.6","","87","","13","","11","","","","99.27","","","","","","NA"
"2009-11-01 21:00","2009","11","01","21:00","3.4","","2.1","","91","","11","","7","","","","99.19","","","","","","NA"
"2009-11-01 22:00","2009","11","01","22:00","3.3","","3.3","","100","","14","","17","","","","99.12","","","","","","NA"
"2009-11-01 23:00","2009","11","01","23:00","3.8","","3.8","","100","","19","","44","","","","99.10","","","","","","NA"
"2009-11-02 00:00","2009","11","02","00:00","4.5","","4.5","","100","","19","","44","","","","98.99","","","","","","NA"
"2009-11-02 01:00","2009","11","02","01:00","4.9","","4.9","","100","","20","","46","","","","98.92","","","","","","NA"
"2009-11-02 02:00","2009","11","02","02:00","5.0","","5.0","","100","","19","","39","","","","98.86","","","","","","NA"
"2009-11-02 03:00","2009","11","02","03:00","5.2","","5.2","","100","","19","","35","","","","98.78","","","","","","NA"
"2009-11-02 04:00","2009","11","02","04:00","5.7","","5.7","","100","","20","","33","","","","98.72","","","","","","NA"
"2009-11-02 05:00","2009","11","02","05:00","5.8","","5.8","","100","","20","","35","","","","98.71","","","","","","NA"
"2009-11-02 06:00","2009","11","02","06:00","5.8","","5.8","","100","","21","","24","","","","98.68","","","","","","NA"
"2009-11-02 07:00","2009","11","02","07:00","5.3","","5.3","","100","","24","","26","","","","98.67","","","","","","NA"
"2009-11-02 08:00","2009","11","02","08:00","5.4","","5.4","","100","","26","","19","","","","98.69","","","","","","NA"
"2009-11-02 09:00","2009","11","02","09:00","5.5","","5.5","","100","","26","","15","","","","98.69","","","","","","NA"
"2009-11-02 10:00","2009","11","02","10:00","5.3","","5.3","","100","","28","","17","","","","98.69","","","","","","NA"
"2009-11-02 11:00","2009","11","02","11:00","5.5","","5.5","","100","","28","","20","","","","98.71","","","","","","NA"
"2009-11-02 12:00","2009","11","02","12:00","5.3","","3.9","","91","","29","","20","","","","98.73","","","","","","NA"
"2009-11-02 13:00","2009","11","02","13:00","5.7","","4.0","","89","","28","","22","","","","98.73","","","","","","NA"
"2009-11-02 14:00","2009","11","02","14:00","5.7","","3.5","","86","","28","","26","","","","98.74","","","","","","NA"
"2009-11-02 15:00","2009","11","02","15:00","5.7","","3.4","","85","","28","","28","","","","98.78","","","","","","NA"
"2009-11-02 16:00","2009","11","02","16:00","4.9","","1.4","","78","","29","","26","","","","98.84","","","","","","NA"
"2009-11-02 17:00","2009","11","02","17:00","4.5","","1.5","","81","","28","","20","","","","98.84","","","","","","NA"
"2009-11-02 18:00","2009","11","02","18:00","4.4","","1.0","","79","","29","","26","","","","98.86","","","","","","NA"
"2009-11-02 19:00","2009","11","02","19:00","4.3","","0.8","","78","","30","","17","","","","98.92","","","","","","NA"
"2009-11-02 20:00","2009","11","02","20:00","3.9","","1.6","","85","","30","","19","","","","98.92","","","","","","NA"
"2009-11-02 21:00","2009","11","02","21:00","3.4","","1.5","","87","","31","","17","","","","98.95","","","","","","NA"
"2009-11-02 22:00","2009","11","02","22:00","3.2","","1.4","","88","","30","","15","","","","99.01","","","","","","NA"
"2009-11-02 23:00","2009","11","02","23:00","2.7","","1.1","","89","","32","","17","","","","99.04","","","","","","NA"
"2009-11-03 00:00","2009","11","03","00:00","2.4","","1.0","","90","","33","","17","","","","99.05","","","","","","NA"
"2009-11-03 01:00","2009","11","03","01:00","2.1","","1.5","","96","","33","","11","","","","99.10","","","","","","NA"
"2009-11-03 02:00","2009","11","03","02:00","1.5","","1.2","","98","","35","","7","","","","99.14","","","","","","NA"
"2009-11-03 03:00","2009","11","03","03:00","0.7","","0.4","","98","","35","","9","","","","99.22","","","","","","NA"
"2009-11-03 04:00","2009","11","03","04:00","0.3","","-0.1","","97","","34","","7","","","","99.29","","","","","","NA"
"2009-11-03 05:00","2009","11","03","05:00","0.1","","-1.3","","90","","34","","13","","","","99.34","","","","","","NA"
"2009-11-03 06:00","2009","11","03","06:00","-0.9","","-1.8","","94","","35","","7","","","","99.40","","","","-3","","NA"
"2009-11-03 07:00","2009","11","03","07:00","-1.1","","-2.1","","93","","35","","6","","","","99.46","","","","-3","","NA"
"2009-11-03 08:00","2009","11","03","08:00","-0.1","","-2.0","","87","","33","","13","","","","99.55","","","","-4","","NA"
"2009-11-03 09:00","2009","11","03","09:00","0.4","","-2.9","","78","","35","","9","","","","99.62","","","","","","NA"
"2009-11-03 10:00","2009","11","03","10:00","0.6","","-3.4","","75","","33","","13","","","","99.64","","","","","","NA"
"2009-11-03 11:00","2009","11","03","11:00","0.7","","-4.0","","71","","36","","13","","","","99.66","","","","","","NA"
"2009-11-03 12:00","2009","11","03","12:00","1.2","","-3.9","","69","","34","","9","","","","99.68","","","","","","NA"
"2009-11-03 13:00","2009","11","03","13:00","1.0","","-3.0","","75","","32","","13","","","","99.68","","","","","","NA"
"2009-11-03 14:00","2009","11","03","14:00","0.5","","-0.9","","90","","34","","7","","","","99.68","","","","","","NA"
"2009-11-03 15:00","2009","11","03","15:00","0.9","","-3.6","","72","","29","","15","","","","99.67","","","","","","NA"
"2009-11-03 16:00","2009","11","03","16:00","0.7","","-3.8","","72","","34","","11","","","","99.67","","","","","","NA"
"2009-11-03 17:00","2009","11","03","17:00","-0.1","","-4.2","","74","","34","","9","","","","99.69","","","","-3","","NA"
"2009-11-03 18:00","2009","11","03","18:00","-0.6","","-4.2","","77","","3","","6","","","","99.71","","","","-3","","NA"
"2009-11-03 19:00","2009","11","03","19:00","-0.9","","-4.5","","77","","2","","7","","","","99.72","","","","-3","","NA"
"2009-11-03 20:00","2009","11","03","20:00","-1.0","","-4.6","","77","","3","","4","","","","99.74","","","","-2","","NA"
"2009-11-03 21:00","2009","11","03","21:00","-1.0","","-4.5","","77","","5","","4","","","","99.75","","","","-2","","NA"
"2009-11-03 22:00","2009","11","03","22:00","-1.2","","-3.7","","83","","6","","4","","","","99.77","","","","-3","","NA"
"2009-11-03 23:00","2009","11","03","23:00","-1.1","","-3.8","","82","","8","","4","","","","99.75","","","","-2","","NA"
"2009-11-04 00:00","2009","11","04","00:00","-1.2","","-3.3","","86","","9","","4","","","","99.76","","","","-3","","NA"
"2009-11-04 01:00","2009","11","04","01:00","-1.3","","-2.8","","90","","10","","6","","","","99.76","","","","-4","","NA"
"2009-11-04 02:00","2009","11","04","02:00","-2.0","","-2.0","","100","","9","","9","","","","99.71","","","","-5","","NA"
"2009-11-04 03:00","2009","11","04","03:00","-2.1","","-2.1","","100","","9","","13","","","","99.65","","","","-7","","NA"
"2009-11-04 04:00","2009","11","04","04:00","-2.0","","-2.0","","100","","9","","9","","","","99.61","","","","-5","","NA"
"2009-11-04 05:00","2009","11","04","05:00","-1.6","","-1.6","","100","","8","","9","","","","99.59","","","","-5","","NA"
"2009-11-04 06:00","2009","11","04","06:00","-1.6","","-1.6","","100","","8","","11","","","","99.55","","","","-5","","NA"
"2009-11-04 07:00","2009","11","04","07:00","-1.2","","-1.2","","100","","8","","7","","","","99.55","","","","-4","","NA"
"2009-11-04 08:00","2009","11","04","08:00","-1.2","","-1.2","","100","","7","","9","","","","99.54","","","","-4","","NA"
"2009-11-04 09:00","2009","11","04","09:00","-0.9","","-0.9","","100","","6","","7","","","","99.52","","","","-3","","NA"
"2009-11-04 10:00","2009","11","04","10:00","-0.3","","-0.3","","100","","5","","6","","","","99.48","","","","-2","","NA"
"2009-11-04 11:00","2009","11","04","11:00","0.3","","0.3","","100","","34","","9","","","","99.46","","","","","","NA"
"2009-11-04 12:00","2009","11","04","12:00","1.1","","1.1","","100","","4","","2","","","","99.43","","","","","","NA"
"2009-11-04 13:00","2009","11","04","13:00","2.8","","2.8","","100","","27","","7","","","","99.38","","","","","","NA"
"2009-11-04 14:00","2009","11","04","14:00","3.6","","3.6","","100","","24","","19","","","","99.32","","","","","","NA"
"2009-11-04 15:00","2009","11","04","15:00","2.8","","2.8","","100","","24","","20","","","","99.28","","","","","","NA"
"2009-11-04 16:00","2009","11","04","16:00","3.7","","3.7","","100","","20","","20","","","","99.18","","","","","","NA"
"2009-11-04 17:00","2009","11","04","17:00","4.1","","4.1","","100","","20","","28","","","","99.14","","","","","","NA"
"2009-11-04 18:00","2009","11","04","18:00","4.8","","4.8","","100","","22","","32","","","","99.11","","","","","","NA"
"2009-11-04 19:00","2009","11","04","19:00","5.1","","4.9","","99","","22","","35","","","","99.07","","","","","","NA"
"2009-11-04 20:00","2009","11","04","20:00","4.8","","4.5","","98","","22","","35","","","","98.98","","","","","","NA"
"2009-11-04 21:00","2009","11","04","21:00","3.2","","3.2","","100","","23","","43","","","","98.90","","","","","","NA"
"2009-11-04 22:00","2009","11","04","22:00","2.7","","2.7","","100","","27","","24","","","","98.86","","","","","","NA"
"2009-11-04 23:00","2009","11","04","23:00","3.2","","2.8","","97","","31","","19","","","","98.84","","","","","","NA"
"2009-11-05 00:00","2009","11","05","00:00","2.7","","2.1","","96","","32","","20","","","","98.88","","","","","","NA"
"2009-11-05 01:00","2009","11","05","01:00","1.9","","1.2","","95","","32","","20","","","","98.97","","","","","","NA"
"2009-11-05 02:00","2009","11","05","02:00","1.9","","1.2","","95","","32","","17","","","","98.99","","","","","","NA"
"2009-11-05 03:00","2009","11","05","03:00","1.1","","0.4","","95","","34","","7","","","","99.00","","","","","","NA"
"2009-11-05 04:00","2009","11","05","04:00","2.0","","-0.6","","83","","30","","19","","","","99.02","","","","","","NA"
"2009-11-05 05:00","2009","11","05","05:00","1.6","","-1.1","","82","","32","","20","","","","99.08","","","","","","NA"
"2009-11-05 06:00","2009","11","05","06:00","0.5","","-2.8","","78","","35","","9","","","","99.12","","","","","","NA"
"2009-11-05 07:00","2009","11","05","07:00","0.4","","-3.1","","77","","34","","17","","","","99.15","","","","","","NA"
"2009-11-05 08:00","2009","11","05","08:00","-0.1","","-2.9","","81","","34","","17","","","","99.25","","","","-5","","NA"
"2009-11-05 09:00","2009","11","05","09:00","-0.2","","-3.4","","79","","34","","17","","","","99.34","","","","-5","","NA"
"2009-11-05 10:00","2009","11","05","10:00","-0.4","","-3.4","","80","","34","","13","","","","99.42","","","","-5","","NA"
"2009-11-05 11:00","2009","11","05","11:00","0.8","","-3.1","","75","","34","","11","","","","99.52","","","","","","NA"
"2009-11-05 12:00","2009","11","05","12:00","0.3","","-4.7","","69","","34","","15","","","","99.60","","","","","","NA"
"2009-11-05 13:00","2009","11","05","13:00","0.5","","-4.4","","70","","33","","15","","","","99.67","","","","","","NA"
"2009-11-05 14:00","2009","11","05","14:00","0.0","","-3.7","","76","","32","","17","","","","99.71","","","","-5","","NA"
"2009-11-05 15:00","2009","11","05","15:00","-0.3","","-3.8","","77","","33","","17","","","","99.81","","","","-5","","NA"
"2009-11-05 16:00","2009","11","05","16:00","-1.0","","-4.5","","77","","34","","9","","","","99.88","","","","-4","","NA"
"2009-11-05 17:00","2009","11","05","17:00","-1.1","","-5.1","","74","","36","","7","","","","99.92","","","","-4","","NA"
"2009-11-05 18:00","2009","11","05","18:00","-1.7","","-4.7","","80","","1","","2","","","","99.99","","","","-2","","NA"
"2009-11-05 19:00","2009","11","05","19:00","-2.2","","-5.7","","77","","2","","4","","","","100.03","","","","-4","","NA"
"2009-11-05 20:00","2009","11","05","20:00","-2.4","","-5.0","","82","","5","","4","","","","100.05","","","","-4","","NA"
"2009-11-05 21:00","2009","11","05","21:00","-2.8","","-5.5","","82","","5","","4","","","","100.04","","","","-4","","NA"
"2009-11-05 22:00","2009","11","05","22:00","-2.9","","-5.0","","85","","9","","9","","","","100.03","","","","-6","","NA"
"2009-11-05 23:00","2009","11","05","23:00","-3.0","","-4.4","","90","","11","","6","","","","100.01","","","","-5","","NA"
"2009-11-06 00:00","2009","11","06","00:00","-3.0","","-4.3","","91","","9","","7","","","","100.01","","","","-6","","NA"
"2009-11-06 01:00","2009","11","06","01:00","-3.0","","-3.9","","93","","10","","11","","","","99.95","","","","-7","","NA"
"2009-11-06 02:00","2009","11","06","02:00","-3.0","","-3.9","","93","","10","","9","","","","99.93","","","","-7","","NA"
"2009-11-06 03:00","2009","11","06","03:00","-2.8","","-3.3","","96","","10","","13","","","","99.88","","","","-7","","NA"
"2009-11-06 04:00","2009","11","06","04:00","-2.8","","-3.3","","96","","9","","13","","","","99.81","","","","-7","","NA"
"2009-11-06 05:00","2009","11","06","05:00","-2.9","","-3.1","","99","","10","","11","","","","99.77","","","","-7","","NA"
"2009-11-06 06:00","2009","11","06","06:00","-1.8","","-2.0","","99","","12","","13","","","","99.66","","","","-6","","NA"
"2009-11-06 07:00","2009","11","06","07:00","-0.3","","-0.7","","97","","13","","13","","","","99.56","","","","-4","","NA"
"2009-11-06 08:00","2009","11","06","08:00","1.4","","0.4","","93","","15","","20","","","","99.47","","","","","","NA"
"2009-11-06 09:00","2009","11","06","09:00","3.1","","1.7","","91","","17","","35","","","","99.39","","","","","","NA"
"2009-11-06 10:00","2009","11","06","10:00","3.4","","1.5","","87","","18","","43","","","","99.32","","","","","","NA"
"2009-11-06 11:00","2009","11","06","11:00","3.8","","2.9","","94","","17","","44","","","","99.18","","","","","","NA"
"2009-11-06 12:00","2009","11","06","12:00","4.1","","3.7","","97","","17","","48","","","","99.03","","","","","","NA"
"2009-11-06 13:00","2009","11","06","13:00","4.4","","3.6","","95","","17","","43","","","","98.86","","","","","","NA"
"2009-11-06 14:00","2009","11","06","14:00","4.8","","3.4","","91","","17","","46","","","","98.65","","","","","","NA"
"2009-11-06 15:00","2009","11","06","15:00","5.0","","2.8","","86","","17","","50","","","","98.49","","","","","","NA"
"2009-11-06 16:00","2009","11","06","16:00","5.5","","2.4","","80","","16","","50","","","","98.32","","","","","","NA"
"2009-11-06 17:00","2009","11","06","17:00","5.5","","2.3","","80","","17","","44","","","","98.26","","","","","","NA"
"2009-11-06 18:00","2009","11","06","18:00","5.5","","2.3","","80","","17","","41","","","","98.20","","","","","","NA"
"2009-11-06 19:00","2009","11","06","19:00","5.6","","2.9","","83","","17","","44","","","","98.16","","","","","","NA"
"2009-11-06 20:00","2009","11","06","20:00","6.1","","3.6","","84","","17","","43","","","","98.13","","","","","","NA"
"2009-11-06 21:00","2009","11","06","21:00","6.2","","3.6","","83","","17","","41","","","","98.05","","","","","","NA"
"2009-11-06 22:00","2009","11","06","22:00","6.5","","4.0","","84","","17","","44","","","","97.98","","","","","","NA"
"2009-11-06 23:00","2009","11","06","23:00","7.0","","4.5","","84","","17","","44","","","","97.89","","","","","","NA"
"2009-11-07 00:00","2009","11","07","00:00","7.1","","5.2","","88","","16","","46","","","","97.77","","","","","","NA"
"2009-11-07 01:00","2009","11","07","01:00","7.5","","5.6","","88","","17","","44","","","","97.68","","","","","","NA"
"2009-11-07 02:00","2009","11","07","02:00","7.6","","6.0","","90","","17","","41","","","","97.58","","","","","","NA"
"2009-11-07 03:00","2009","11","07","03:00","7.6","","6.5","","93","","17","","39","","","","97.48","","","","","","NA"
"2009-11-07 04:00","2009","11","07","04:00","8.0","","7.2","","95","","17","","33","","","","97.42","","","","","","NA"
"2009-11-07 05:00","2009","11","07","05:00","8.0","","7.6","","97","","16","","35","","","","97.34","","","","","","NA"
"2009-11-07 06:00","2009","11","07","06:00","7.9","","7.7","","99","","16","","33","","","","97.24","","","","","","NA"
"2009-11-07 07:00","2009","11","07","07:00","7.7","","7.7","","100","","17","","28","","","","97.26","","","","","","NA"
"2009-11-07 08:00","2009","11","07","08:00","7.4","","7.4","","100","","17","","30","","","","97.27","","","","","","NA"
"2009-11-07 09:00","2009","11","07","09:00","7.4","","7.4","","100","","17","","30","","","","97.26","","","","","","NA"
"2009-11-07 10:00","2009","11","07","10:00","7.6","","7.6","","100","","18","","26","","","","97.29","","","","","","NA"
"2009-11-07 11:00","2009","11","07","11:00","8.4","","8.4","","100","","18","","22","","","","97.25","","","","","","NA"
"2009-11-07 12:00","2009","11","07","12:00","7.7","","7.7","","100","","21","","20","","","","97.30","","","","","","NA"
"2009-11-07 13:00","2009","11","07","13:00","8.9","","8.7","","99","","20","","13","","","","97.35","","","","","","NA"
"2009-11-07 14:00","2009","11","07","14:00","9.7","","8.7","","93","","17","","9","","","","97.46","","","","","","NA"
"2009-11-07 15:00","2009","11","07","15:00","9.3","","7.3","","87","","25","","9","","","","97.55","","","","","","NA"
"2009-11-07 16:00","2009","11","07","16:00","8.9","","7.0","","88","","25","","20","","","","97.62","","","","","","NA"
"2009-11-07 17:00","2009","11","07","17:00","7.8","","6.8","","93","","25","","22","","","","97.71","","","","","","NA"
"2009-11-07 18:00","2009","11","07","18:00","7.6","","6.7","","94","","28","","7","","","","97.87","","","","","","NA"
"2009-11-07 19:00","2009","11","07","19:00","6.4","","6.0","","97","","","","0","","","","98.02","","","","","","NA"
"2009-11-07 20:00","2009","11","07","20:00","7.6","","6.1","","90","","26","","20","","","","98.09","","","","","","NA"
"2009-11-07 21:00","2009","11","07","21:00","7.8","","5.8","","87","","26","","26","","","","98.19","","","","","","NA"
"2009-11-07 22:00","2009","11","07","22:00","6.9","","6.1","","95","","26","","13","","","","98.31","","","","","","NA"
"2009-11-07 23:00","2009","11","07","23:00","7.7","","5.1","","84","","27","","19","","","","98.39","","","","","","NA"
"2009-11-08 00:00","2009","11","08","00:00","7.2","","5.8","","91","","27","","17","","","","98.48","","","","","","NA"
"2009-11-08 01:00","2009","11","08","01:00","7.5","","5.4","","87","","28","","17","","","","98.57","","","","","","NA"
"2009-11-08 02:00","2009","11","08","02:00","6.8","","5.7","","93","","24","","6","","","","98.70","","","","","","NA"
"2009-11-08 03:00","2009","11","08","03:00","6.7","","5.2","","90","","28","","2","","","","98.81","","","","","","NA"
"2009-11-08 04:00","2009","11","08","04:00","5.8","","5.8","","100","","","","0","","","","98.89","","","","","","NA"
"2009-11-08 05:00","2009","11","08","05:00","5.4","","5.4","","100","","","","0","","","","98.98","","","","","","NA"
"2009-11-08 06:00","2009","11","08","06:00","5.6","","5.6","","100","","","","0","","","","99.04","","","","","","NA"
"2009-11-08 07:00","2009","11","08","07:00","5.9","","5.9","","100","","18","","13","","","","99.12","","","","","","NA"
"2009-11-08 08:00","2009","11","08","08:00","6.4","","6.0","","97","","19","","19","","","","99.19","","","","","","NA"
"2009-11-08 09:00","2009","11","08","09:00","7.4","","6.5","","94","","18","","11","","","","99.22","","","","","","NA"
"2009-11-08 10:00","2009","11","08","10:00","8.1","","7.1","","93","","18","","17","","","","99.27","","","","","","NA"
"2009-11-08 11:00","2009","11","08","11:00","8.3","","7.1","","92","","18","","19","","","","99.33","","","","","","NA"
"2009-11-08 12:00","2009","11","08","12:00","9.2","","7.4","","88","","17","","9","","","","99.37","","","","","","NA"
"2009-11-08 13:00","2009","11","08","13:00","8.4","","6.5","","88","","19","","11","","","","99.39","","","","","","NA"
"2009-11-08 14:00","2009","11","08","14:00","7.6","","6.6","","93","","18","","13","","","","99.40","","","","","","NA"
"2009-11-08 15:00","2009","11","08","15:00","7.7","","6.2","","90","","17","","13","","","","99.39","","","","","","NA"
"2009-11-08 16:00","2009","11","08","16:00","7.3","","6.5","","95","","16","","9","","","","99.38","","","","","","NA"
"2009-11-08 17:00","2009","11","08","17:00","6.7","","6.6","","99","","15","","6","","","","99.35","","","","","","NA"
"2009-11-08 18:00","2009","11","08","18:00","6.7","","6.7","","100","","","","0","","","","99.34","","","","","","NA"
"2009-11-08 19:00","2009","11","08","19:00","7.1","","5.2","","88","","14","","6","","","","99.33","","","","","","NA"
"2009-11-08 20:00","2009","11","08","20:00","6.8","","4.1","","83","","3","","6","","","","99.30","","","","","","NA"
"2009-11-08 21:00","2009","11","08","21:00","7.1","","3.5","","78","","8","","6","","","","99.18","","","","","","NA"
"2009-11-08 22:00","2009","11","08","22:00","7.5","","3.1","","74","","8","","4","","","","99.14","","","","","","NA"
"2009-11-08 23:00","2009","11","08","23:00","6.3","","3.8","","84","","1","","9","","","","99.17","","","","","","NA"
"2009-11-09 00:00","2009","11","09","00:00","6.5","","3.9","","83","","3","","7","","","","99.14","","","","","","NA"
"2009-11-09 01:00","2009","11","09","01:00","6.9","","3.1","","77","","3","","4","","","","99.06","","","","","","NA"
"2009-11-09 02:00","2009","11","09","02:00","7.5","","3.6","","76","","4","","15","","","","98.82","","","","","","NA"
"2009-11-09 03:00","2009","11","09","03:00","7.7","","3.9","","77","","4","","19","","","","98.77","","","","","","NA"
"2009-11-09 04:00","2009","11","09","04:00","6.0","","5.5","","97","","1","","9","","","","98.83","","","","","","NA"
"2009-11-09 05:00","2009","11","09","05:00","6.3","","6.0","","98","","3","","20","","","","98.81","","","","","","NA"
"2009-11-09 06:00","2009","11","09","06:00","6.4","","6.1","","98","","2","","15","","","","98.91","","","","","","NA"
"2009-11-09 07:00","2009","11","09","07:00","7.0","","6.1","","94","","3","","13","","","","98.99","","","","","","NA"
"2009-11-09 08:00","2009","11","09","08:00","6.4","","6.1","","98","","2","","2","","","","99.11","","","","","","NA"
"2009-11-09 09:00","2009","11","09","09:00","6.6","","6.3","","98","","","","0","","","","99.24","","","","","","NA"
"2009-11-09 10:00","2009","11","09","10:00","6.6","","6.6","","100","","","","0","","","","99.32","","","","","","NA"
"2009-11-09 11:00","2009","11","09","11:00","7.0","","6.9","","99","","","","0","","","","99.38","","","","","","NA"
"2009-11-09 12:00","2009","11","09","12:00","8.1","","7.4","","95","","20","","2","","","","99.43","","","","","","NA"
"2009-11-09 13:00","2009","11","09","13:00","7.8","","7.6","","99","","24","","13","","","","99.45","","","","","","NA"
"2009-11-09 14:00","2009","11","09","14:00","8.8","","7.3","","90","","20","","13","","","","99.50","","","","","","NA"
"2009-11-09 15:00","2009","11","09","15:00","7.5","","7.2","","98","","18","","13","","","","99.56","","","","","","NA"
"2009-11-09 16:00","2009","11","09","16:00","7.5","","7.4","","99","","21","","9","","","","99.60","","","","","","NA"
"2009-11-09 17:00","2009","11","09","17:00","7.9","","7.5","","97","","18","","2","","","","99.62","","","","","","NA"
"2009-11-09 18:00","2009","11","09","18:00","6.2","","6.2","","100","","13","","6","","","","99.67","","","","","","NA"
"2009-11-09 19:00","2009","11","09","19:00","6.6","","6.6","","100","","26","","6","","","","99.76","","","","","","NA"
"2009-11-09 20:00","2009","11","09","20:00","6.2","","6.2","","100","","26","","2","","","","99.80","","","","","","NA"
"2009-11-09 21:00","2009","11","09","21:00","6.0","","6.0","","100","","","","0","","","","99.86","","","","","","NA"
"2009-11-09 22:00","2009","11","09","22:00","6.5","","6.2","","98","","28","","15","","","","99.93","","","","","","NA"
"2009-11-09 23:00","2009","11","09","23:00","5.2","","5.2","","100","","","","0","","","","99.99","","","","","","NA"
"2009-11-10 00:00","2009","11","10","00:00","5.5","","5.5","","100","","","","0","","","","100.04","","","","","","NA"
"2009-11-10 01:00","2009","11","10","01:00","5.7","","5.1","","96","","30","","7","","","","100.09","","","","","","NA"
"2009-11-10 02:00","2009","11","10","02:00","3.5","","3.5","","100","","","","0","","","","100.14","","","","","","NA"
"2009-11-10 03:00","2009","11","10","03:00","1.3","","1.3","","100","","","","0","","","","100.17","","","","","","NA"
"2009-11-10 04:00","2009","11","10","04:00","0.7","","0.7","","100","","","","0","","","","100.23","","","","","","NA"
"2009-11-10 05:00","2009","11","10","05:00","0.7","","0.7","","100","","","","0","","","","100.28","","","","","","NA"
"2009-11-10 06:00","2009","11","10","06:00","0.1","","0.1","","100","","","","0","","","","100.31","","","","","","NA"
"2009-11-10 07:00","2009","11","10","07:00","-0.4","","-0.4","","100","","","","0","","","","100.38","","","","","","NA"
"2009-11-10 08:00","2009","11","10","08:00","-1.0","","-1.0","","100","","","","0","","","","100.44","","","","","","NA"
"2009-11-10 09:00","2009","11","10","09:00","0.6","","0.6","","100","","","","0","","","","100.51","","","","","","NA"
"2009-11-10 10:00","2009","11","10","10:00","3.7","","3.5","","99","","","","0","","","","100.56","","","","","","NA"
"2009-11-10 11:00","2009","11","10","11:00","6.0","","3.7","","85","","","","0","","","","100.62","","","","","","NA"
"2009-11-10 12:00","2009","11","10","12:00","5.8","","4.1","","89","","","","0","","","","100.64","","","","","","NA"
"2009-11-10 13:00","2009","11","10","13:00","6.4","","4.2","","86","","22","","2","","","","100.62","","","","","","NA"
"2009-11-10 14:00","2009","11","10","14:00","6.8","","3.7","","81","","23","","6","","","","100.62","","","","","","NA"
"2009-11-10 15:00","2009","11","10","15:00","7.2","","5.1","","86","","24","","7","","","","100.65","","","","","","NA"
"2009-11-10 16:00","2009","11","10","16:00","7.1","","4.0","","81","","","","0","","","","100.64","","","","","","NA"
"2009-11-10 17:00","2009","11","10","17:00","5.8","","4.8","","93","","","","0","","","","100.65","","","","","","NA"
"2009-11-10 18:00","2009","11","10","18:00","3.6","","3.5","","99","","","","0","","","","100.66","","","","","","NA"
"2009-11-10 19:00","2009","11","10","19:00","2.1","","2.1","","100","","","","0","","","","100.69","","","","","","NA"
"2009-11-10 20:00","2009","11","10","20:00","2.6","","2.6","","100","","","","0","","","","100.70","","","","","","NA"
"2009-11-10 21:00","2009","11","10","21:00","2.4","","2.4","","100","","","","0","","","","100.69","","","","","","NA"
"2009-11-10 22:00","2009","11","10","22:00","1.9","","1.9","","100","","13","","2","","","","100.65","","","","","","NA"
"2009-11-10 23:00","2009","11","10","23:00","1.9","","1.9","","100","","15","","2","","","","100.60","","","","","","NA"
"2009-11-11 00:00","2009","11","11","00:00","2.3","","2.3","","100","","15","","4","","","","100.55","","","","","","NA"
"2009-11-11 01:00","2009","11","11","01:00","3.1","","3.1","","100","","16","","9","","","","100.51","","","","","","NA"
"2009-11-11 02:00","2009","11","11","02:00","4.1","","3.9","","99","","17","","17","","","","100.49","","","","","","NA"
"2009-11-11 03:00","2009","11","11","03:00","5.0","","5.0","","100","","19","","24","","","","100.45","","","","","","NA"
"2009-11-11 04:00","2009","11","11","04:00","4.9","","4.9","","100","","16","","24","","","","100.40","","","","","","NA"
"2009-11-11 05:00","2009","11","11","05:00","5.3","","4.1","","92","","17","","32","","","","100.37","","","","","","NA"
"2009-11-11 06:00","2009","11","11","06:00","5.4","","4.4","","93","","17","","32","","","","100.35","","","","","","NA"
"2009-11-11 07:00","2009","11","11","07:00","5.7","","4.8","","94","","17","","32","","","","100.29","","","","","","NA"
"2009-11-11 08:00","2009","11","11","08:00","5.9","","5.3","","96","","17","","35","","","","100.28","","","","","","NA"
"2009-11-11 09:00","2009","11","11","09:00","6.1","","5.8","","98","","17","","35","","","","100.23","","","","","","NA"
"2009-11-11 10:00","2009","11","11","10:00","6.7","","5.9","","95","","17","","32","","","","100.25","","","","","","NA"
"2009-11-11 11:00","2009","11","11","11:00","7.4","","5.9","","90","","18","","28","","","","100.21","","","","","","NA"
"2009-11-11 12:00","2009","11","11","12:00","7.7","","5.3","","85","","18","","30","","","","100.14","","","","","","NA"
"2009-11-11 13:00","2009","11","11","13:00","7.7","","5.4","","85","","19","","28","","","","100.07","","","","","","NA"
"2009-11-11 14:00","2009","11","11","14:00","7.3","","4.9","","85","","19","","32","","","","100.01","","","","","","NA"
"2009-11-11 15:00","2009","11","11","15:00","7.0","","5.0","","87","","18","","33","","","","99.90","","","","","","NA"
"2009-11-11 16:00","2009","11","11","16:00","6.6","","5.1","","90","","18","","33","","","","99.84","","","","","","NA"
"2009-11-11 17:00","2009","11","11","17:00","6.5","","5.1","","91","","18","","33","","","","99.79","","","","","","NA"
"2009-11-11 18:00","2009","11","11","18:00","6.7","","5.5","","92","","18","","35","","","","99.78","","","","","","NA"
"2009-11-11 19:00","2009","11","11","19:00","6.9","","5.7","","92","","19","","35","","","","99.75","","","","","","NA"
"2009-11-11 20:00","2009","11","11","20:00","7.1","","5.6","","90","","19","","32","","","","99.74","","","","","","NA"
"2009-11-11 21:00","2009","11","11","21:00","7.0","","5.7","","91","","19","","30","","","","99.72","","","","","","NA"
"2009-11-11 22:00","2009","11","11","22:00","6.7","","5.9","","95","","19","","26","","","","99.72","","","","","","NA"
"2009-11-11 23:00","2009","11","11","23:00","6.9","","5.7","","92","","18","","24","","","","99.68","","","","","","NA"
"2009-11-12 00:00","2009","11","12","00:00","6.8","","6.3","","97","","17","","24","","","","99.64","","","","","","NA"
"2009-11-12 01:00","2009","11","12","01:00","6.8","","5.9","","94","","18","","24","","","","99.63","","","","","","NA"
"2009-11-12 02:00","2009","11","12","02:00","6.7","","6.2","","97","","18","","19","","","","99.58","","","","","","NA"
"2009-11-12 03:00","2009","11","12","03:00","6.6","","6.3","","98","","17","","19","","","","99.56","","","","","","NA"
"2009-11-12 04:00","2009","11","12","04:00","6.5","","6.3","","99","","17","","19","","","","99.52","","","","","","NA"
"2009-11-12 05:00","2009","11","12","05:00","6.5","","6.2","","98","","16","","20","","","","99.48","","","","","","NA"
"2009-11-12 06:00","2009","11","12","06:00","6.5","","6.0","","97","","17","","22","","","","99.44","","","","","","NA"
"2009-11-12 07:00","2009","11","12","07:00","6.5","","6.0","","97","","17","","24","","","","99.39","","","","","","NA"
"2009-11-12 08:00","2009","11","12","08:00","6.3","","5.8","","97","","16","","28","","","","99.35","","","","","","NA"
"2009-11-12 09:00","2009","11","12","09:00","6.3","","5.5","","95","","16","","28","","","","99.32","","","","","","NA"
"2009-11-12 10:00","2009","11","12","10:00","6.4","","5.3","","93","","16","","33","","","","99.26","","","","","","NA"
"2009-11-12 11:00","2009","11","12","11:00","6.5","","5.3","","92","","17","","39","","","","99.21","","","","","","NA"
"2009-11-12 12:00","2009","11","12","12:00","6.3","","6.0","","98","","17","","39","","","","99.16","","","","","","NA"
"2009-11-12 13:00","2009","11","12","13:00","6.5","","6.1","","97","","17","","39","","","","99.02","","","","","","NA"
"2009-11-12 14:00","2009","11","12","14:00","6.9","","6.0","","94","","17","","43","","","","98.89","","","","","","NA"
"2009-11-12 15:00","2009","11","12","15:00","7.0","","5.8","","92","","17","","44","","","","98.79","","","","","","NA"
"2009-11-12 16:00","2009","11","12","16:00","7.2","","5.4","","88","","17","","46","","","","98.75","","","","","","NA"
"2009-11-12 17:00","2009","11","12","17:00","7.4","","4.3","","81","","16","","44","","","","98.70","","","","","","NA"
"2009-11-12 18:00","2009","11","12","18:00","7.7","","3.3","","74","","17","","48","","","","98.63","","","","","","NA"
"2009-11-12 19:00","2009","11","12","19:00","7.7","","2.8","","71","","17","","48","","","","98.60","","","","","","NA"
"2009-11-12 20:00","2009","11","12","20:00","7.3","","3.3","","76","","17","","43","","","","98.59","","","","","","NA"
"2009-11-12 21:00","2009","11","12","21:00","6.6","","3.1","","78","","16","","44","","","","98.56","","","","","","NA"
"2009-11-12 22:00","2009","11","12","22:00","7.6","","2.6","","71","","17","","46","","","","98.49","","","","","","NA"
"2009-11-12 23:00","2009","11","12","23:00","8.1","","3.0","","70","","16","","52","","","","98.38","","","","","","NA"
"2009-11-13 00:00","2009","11","13","00:00","8.1","","3.3","","72","","17","","54","","","","98.38","","","","","","NA"
"2009-11-13 01:00","2009","11","13","01:00","7.8","","4.3","","79","","17","","50","","","","98.29","","","","","","NA"
"2009-11-13 02:00","2009","11","13","02:00","7.7","","5.4","","85","","17","","44","","","","98.29","","","","","","NA"
"2009-11-13 03:00","2009","11","13","03:00","8.1","","5.2","","82","","16","","50","","","","98.30","","","","","","NA"
"2009-11-13 04:00","2009","11","13","04:00","8.0","","5.4","","84","","18","","46","","","","98.24","","","","","","NA"
"2009-11-13 05:00","2009","11","13","05:00","7.8","","5.6","","86","","17","","39","","","","98.25","","","","","","NA"
"2009-11-13 06:00","2009","11","13","06:00","7.9","","5.7","","86","","17","","44","","","","98.18","","","","","","NA"
"2009-11-13 07:00","2009","11","13","07:00","7.7","","5.8","","88","","17","","43","","","","98.23","","","","","","NA"
"2009-11-13 08:00","2009","11","13","08:00","7.5","","6.0","","90","","17","","43","","","","98.21","","","","","","NA"
"2009-11-13 09:00","2009","11","13","09:00","7.4","","6.3","","93","","17","","41","","","","98.21","","","","","","NA"
"2009-11-13 10:00","2009","11","13","10:00","7.3","","6.5","","95","","17","","41","","","","98.16","","","","","","NA"
"2009-11-13 11:00","2009","11","13","11:00","7.4","","6.7","","95","","17","","41","","","","98.18","","","","","","NA"
"2009-11-13 12:00","2009","11","13","12:00","7.6","","6.7","","94","","17","","43","","","","98.10","","","","","","NA"
"2009-11-13 13:00","2009","11","13","13:00","7.5","","6.4","","93","","16","","43","","","","98.05","","","","","","NA"
"2009-11-13 14:00","2009","11","13","14:00","7.6","","6.2","","91","","16","","44","","","","97.97","","","","","","NA"
"2009-11-13 15:00","2009","11","13","15:00","8.1","","5.9","","86","","17","","41","","","","98.00","","","","","","NA"
"2009-11-13 16:00","2009","11","13","16:00","6.9","","6.8","","99","","17","","37","","","","98.05","","","","","","NA"
"2009-11-13 17:00","2009","11","13","17:00","6.5","","6.5","","100","","18","","33","","","","98.09","","","","","","NA"
"2009-11-13 18:00","2009","11","13","18:00","6.4","","6.4","","100","","17","","35","","","","98.07","","","","","","NA"
"2009-11-13 19:00","2009","11","13","19:00","6.6","","6.6","","100","","17","","30","","","","98.08","","","","","","NA"
"2009-11-13 20:00","2009","11","13","20:00","6.1","","6.1","","100","","16","","32","","","","98.11","","","","","","NA"
"2009-11-13 21:00","2009","11","13","21:00","6.2","","6.2","","100","","17","","32","","","","98.13","","","","","","NA"
"2009-11-13 22:00","2009","11","13","22:00","6.1","","6.1","","100","","16","","32","","","","98.10","","","","","","NA"
"2009-11-13 23:00","2009","11","13","23:00","6.1","","6.1","","100","","17","","28","","","","98.09","","","","","","NA"
"2009-11-14 00:00","2009","11","14","00:00","6.2","","6.2","","100","","16","","30","","","","98.05","","","","","","NA"
"2009-11-14 01:00","2009","11","14","01:00","6.3","","6.3","","100","","17","","20","","","","98.08","","","","","","NA"
"2009-11-14 02:00","2009","11","14","02:00","6.6","","6.6","","100","","16","","26","","","","98.00","","","","","","NA"
"2009-11-14 03:00","2009","11","14","03:00","6.6","","6.6","","100","","17","","22","","","","98.06","","","","","","NA"
"2009-11-14 04:00","2009","11","14","04:00","6.5","","6.5","","100","","16","","22","","","","98.01","","","","","","NA"
"2009-11-14 05:00","2009","11","14","05:00","6.5","","6.5","","100","","17","","15","","","","98.03","","","","","","NA"
"2009-11-14 06:00","2009","11","14","06:00","6.5","","6.5","","100","","16","","9","","","","98.02","","","","","","NA"
"2009-11-14 07:00","2009","11","14","07:00","6.4","","6.4","","100","","","","0","","","","98.04","","","","","","NA"
"2009-11-14 08:00","2009","11","14","08:00","6.2","","6.2","","100","","","","0","","","","98.07","","","","","","NA"
"2009-11-14 09:00","2009","11","14","09:00","6.0","","6.0","","100","","","","0","","","","98.11","","","","","","NA"
"2009-11-14 10:00","2009","11","14","10:00","5.3","","5.3","","100","","5","","6","","","","98.18","","","","","","NA"
"2009-11-14 11:00","2009","11","14","11:00","5.2","","5.2","","100","","5","","7","","","","98.19","","","","","","NA"
"2009-11-14 12:00","2009","11","14","12:00","5.3","","5.3","","100","","6","","6","","","","98.18","","","","","","NA"
"2009-11-14 13:00","2009","11","14","13:00","5.4","","5.4","","100","","4","","6","","","","98.17","","","","","","NA"
"2009-11-14 14:00","2009","11","14","14:00","5.5","","5.5","","100","","5","","4","","","","98.17","","","","","","NA"
"2009-11-14 15:00","2009","11","14","15:00","5.4","","5.4","","100","","5","","4","","","","98.16","","","","","","NA"
"2009-11-14 16:00","2009","11","14","16:00","5.0","","5.0","","100","","6","","7","","","","98.18","","","","","","NA"
"2009-11-14 17:00","2009","11","14","17:00","4.8","","4.8","","100","","6","","9","","","","98.19","","","","","","NA"
"2009-11-14 18:00","2009","11","14","18:00","4.8","","4.8","","100","","6","","4","","","","98.21","","","","","","NA"
"2009-11-14 19:00","2009","11","14","19:00","4.9","","4.9","","100","","6","","6","","","","98.15","","","","","","NA"
"2009-11-14 20:00","2009","11","14","20:00","5.2","","5.2","","100","","7","","7","","","","98.12","","","","","","NA"
"2009-11-14 21:00","2009","11","14","21:00","5.1","","5.1","","100","","","","0","","","","98.11","","","","","","NA"
"2009-11-14 22:00","2009","11","14","22:00","5.7","","5.7","","100","","","","0","","","","98.05","","","","","","NA"
"2009-11-14 23:00","2009","11","14","23:00","6.1","","6.1","","100","","24","","33","","","","98.04","","","","","","NA"
"2009-11-15 00:00","2009","11","15","00:00","5.5","","5.5","","100","","24","","26","","","","98.06","","","","","","NA"
"2009-11-15 01:00","2009","11","15","01:00","5.5","","5.5","","100","","23","","37","","","","98.04","","","","","","NA"
"2009-11-15 02:00","2009","11","15","02:00","5.3","","5.3","","100","","25","","48","","","","98.01","","","","","","NA"
"2009-11-15 03:00","2009","11","15","03:00","4.7","","4.7","","100","","25","","37","","","","98.07","","","","","","NA"
"2009-11-15 04:00","2009","11","15","04:00","3.5","","3.5","","100","","26","","35","","","","98.12","","","","","","NA"
"2009-11-15 05:00","2009","11","15","05:00","3.2","","3.2","","100","","27","","22","","","","98.20","","","","","","NA"
"2009-11-15 06:00","2009","11","15","06:00","2.9","","2.8","","99","","27","","35","","","","98.26","","","","","","NA"
"2009-11-15 07:00","2009","11","15","07:00","2.8","","2.5","","98","","28","","33","","","","98.31","","","","","","NA"
"2009-11-15 08:00","2009","11","15","08:00","2.7","","1.6","","92","","30","","22","","","","98.44","","","","","","NA"
"2009-11-15 09:00","2009","11","15","09:00","1.9","","0.2","","88","","32","","24","","","","98.63","","","","","","NA"
"2009-11-15 10:00","2009","11","15","10:00","1.8","","0.2","","89","","33","","17","","","","98.78","","","","","","NA"
"2009-11-15 11:00","2009","11","15","11:00","1.8","","-0.3","","86","","32","","19","","","","98.93","","","","","","NA"
"2009-11-15 12:00","2009","11","15","12:00","2.4","","0.0","","84","","33","","15","","","","99.00","","","","","","NA"
"2009-11-15 13:00","2009","11","15","13:00","3.2","","0.3","","81","","","M","","M","","","99.08","","","","","","NA"
"2009-11-15 14:00","2009","11","15","14:00","4.0","","1.2","","82","","","M","","M","","","99.18","","","","","","NA"
"2009-11-15 15:00","2009","11","15","15:00","4.3","","1.8","","84","","","M","","M","","","99.23","","","","","","NA"
"2009-11-15 16:00","2009","11","15","16:00","4.1","","1.8","","85","","","M","","M","","","99.27","","","","","","NA"
"2009-11-15 17:00","2009","11","15","17:00","3.8","","0.9","","81","","","M","","M","","","99.32","","","","","","NA"
"2009-11-15 18:00","2009","11","15","18:00","3.7","","1.8","","87","","","M","","M","","","99.38","","","","","","NA"
"2009-11-15 19:00","2009","11","15","19:00","3.7","","0.8","","81","","","M","","M","","","99.38","","","","","","NA"
"2009-11-15 20:00","2009","11","15","20:00","3.7","","0.4","","79","","","M","","M","","","99.45","","","","","","NA"
"2009-11-15 21:00","2009","11","15","21:00","4.0","","1.4","","83","","","M","","M","","","99.51","","","","","","NA"
"2009-11-15 22:00","2009","11","15","22:00","4.2","","2.4","","88","","","M","","M","","","99.52","","","","","","NA"
"2009-11-15 23:00","2009","11","15","23:00","4.8","","4.5","","98","","","M","","M","","","99.52","","","","","","NA"
"2009-11-16 00:00","2009","11","16","00:00","5.1","","4.8","","98","","","M","","M","","","99.54","","","","","","NA"
"2009-11-16 01:00","2009","11","16","01:00","4.3","","2.9","","91","","","M","","M","","","99.53","","","","","","NA"
"2009-11-16 02:00","2009","11","16","02:00","3.9","","2.6","","91","","","M","","M","","","99.53","","","","","","NA"
"2009-11-16 03:00","2009","11","16","03:00","3.4","","2.6","","94","","","M","","M","","","99.56","","","","","","NA"
"2009-11-16 04:00","2009","11","16","04:00","2.4","","1.6","","94","","","M","","M","","","99.63","","","","","","NA"
"2009-11-16 05:00","2009","11","16","05:00","0.2","","0.2","","100","","","M","","M","","","99.71","","","","","","NA"
"2009-11-16 06:00","2009","11","16","06:00","-0.6","","-0.6","","100","","","M","","M","","","99.75","","","","","","NA"
"2009-11-16 07:00","2009","11","16","07:00","-1.0","","-1.0","","100","","","M","","M","","","99.82","","","","","","NA"
"2009-11-16 08:00","2009","11","16","08:00","-1.7","","-1.7","","100","","","M","","M","","","99.88","","","","","","NA"
"2009-11-16 09:00","2009","11","16","09:00","-0.7","","-0.7","","100","","","M","","M","","","99.90","","","","","","NA"
"2009-11-16 10:00","2009","11","16","10:00","2.4","","1.2","","92","","","M","","M","","","99.92","","","","","","NA"
"2009-11-16 11:00","2009","11","16","11:00","3.9","","1.8","","86","","","M","","M","","","99.98","","","","","","NA"
"2009-11-16 12:00","2009","11","16","12:00","4.9","","1.8","","80","","","M","","M","","","99.99","","","","","","NA"
"2009-11-16 13:00","2009","11","16","13:00","4.9","","2.3","","83","","","M","","M","","","100.00","","","","","","NA"
"2009-11-16 14:00","2009","11","16","14:00","4.5","","2.3","","86","","","M","","M","","","99.99","","","","","","NA"
"2009-11-16 15:00","2009","11","16","15:00","4.2","","2.9","","91","","","M","","M","","","100.02","","","","","","NA"
"2009-11-16 16:00","2009","11","16","16:00","4.2","","2.8","","91","","","M","","M","","","100.05","","","","","","NA"
"2009-11-16 17:00","2009","11","16","17:00","3.5","","2.8","","95","","","M","","M","","","100.08","","","","","","NA"
"2009-11-16 18:00","2009","11","16","18:00","3.3","","3.0","","98","","","M","","M","","","100.09","","","","","","NA"
"2009-11-16 19:00","2009","11","16","19:00","2.0","","1.7","","98","","","M","","M","","","100.10","","","","","","NA"
"2009-11-16 20:00","2009","11","16","20:00","-0.7","","-0.7","","100","","","M","","M","","","100.07","","","","","","NA"
"2009-11-16 21:00","2009","11","16","21:00","-1.0","","-1.0","","100","","","M","","M","","","100.05","","","","","","NA"
"2009-11-16 22:00","2009","11","16","22:00","-1.1","","-1.1","","100","","","M","","M","","","100.10","","","","","","NA"
"2009-11-16 23:00","2009","11","16","23:00","-1.1","","-1.1","","100","","","M","","M","","","100.09","","","","","","NA"
"2009-11-17 00:00","2009","11","17","00:00","-1.3","","-1.3","","100","","","M","","M","","","100.13","","","","","","NA"
"2009-11-17 01:00","2009","11","17","01:00","-0.9","","-0.9","","100","","","M","","M","","","100.14","","","","","","NA"
"2009-11-17 02:00","2009","11","17","02:00","-0.2","","-0.2","","100","","","M","","M","","","100.15","","","","","","NA"
"2009-11-17 03:00","2009","11","17","03:00","0.5","","0.5","","100","","","M","","M","","","100.17","","","","","","NA"
"2009-11-17 04:00","2009","11","17","04:00","1.2","","1.2","","100","","","M","","M","","","100.18","","","","","","NA"
"2009-11-17 05:00","2009","11","17","05:00","1.8","","1.8","","100","","","M","","M","","","100.19","","","","","","NA"
"2009-11-17 06:00","2009","11","17","06:00","4.2","","4.2","","100","","","M","","M","","","100.19","","","","","","NA"
"2009-11-17 07:00","2009","11","17","07:00","4.5","","4.3","","99","","","M","","M","","","100.22","","","","","","NA"
"2009-11-17 08:00","2009","11","17","08:00","4.5","","4.4","","99","","","M","","M","","","100.22","","","","","","NA"
"2009-11-17 09:00","2009","11","17","09:00","4.9","","4.5","","97","","","M","","M","","","100.21","","","","","","NA"
"2009-11-17 10:00","2009","11","17","10:00","5.8","","5.1","","95","","","M","","M","","","100.22","","","","","","NA"
"2009-11-17 11:00","2009","11","17","11:00","6.0","","5.6","","97","","","M","","M","","","100.23","","","","","","NA"
"2009-11-17 12:00","2009","11","17","12:00","7.0","","6.0","","93","","","M","","M","","","100.19","","","","","","NA"
"2009-11-17 13:00","2009","11","17","13:00","7.2","","5.3","","88","","","M","","M","","","100.14","","","","","","NA"
"2009-11-17 14:00","2009","11","17","14:00","7.3","","4.7","","84","","","M","","M","","","100.11","","","","","","NA"
"2009-11-17 15:00","2009","11","17","15:00","7.0","","4.7","","85","","","M","","M","","","100.08","","","","","","NA"
"2009-11-17 16:00","2009","11","17","16:00","6.4","","3.7","","83","","","M","","M","","","100.07","","","","","","NA"
"2009-11-17 17:00","2009","11","17","17:00","5.2","","4.7","","97","","","M","","M","","","100.08","","","","","","NA"
"2009-11-17 18:00","2009","11","17","18:00","4.7","","4.4","","98","","","M","","M","","","100.05","","","","","","NA"
"2009-11-17 19:00","2009","11","17","19:00","4.8","","4.1","","95","","","M","","M","","","100.05","","","","","","NA"
"2009-11-17 20:00","2009","11","17","20:00","4.7","","3.0","","89","","","M","","M","","","100.02","","","","","","NA"
"2009-11-17 21:00","2009","11","17","21:00","4.5","","3.8","","95","","","M","","M","","","99.94","","","","","","NA"
"2009-11-17 22:00","2009","11","17","22:00","4.3","","4.1","","99","","","M","","M","","","99.92","","","","","","NA"
"2009-11-17 23:00","2009","11","17","23:00","4.5","","1.8","","83","","","M","","M","","","99.90","","","","","","NA"
"2009-11-18 00:00","2009","11","18","00:00","4.7","","0.7","","75","","","M","","M","","","99.92","","","","","","NA"
"2009-11-18 01:00","2009","11","18","01:00","4.9","","2.6","","85","","","M","","M","","","99.94","","","","","","NA"
"2009-11-18 02:00","2009","11","18","02:00","4.9","","3.2","","89","","","M","","M","","","99.92","","","","","","NA"
"2009-11-18 03:00","2009","11","18","03:00","5.0","","3.3","","89","","","M","","M","","","99.90","","","","","","NA"
"2009-11-18 04:00","2009","11","18","04:00","5.1","","2.7","","84","","","M","","M","","","99.90","","","","","","NA"
"2009-11-18 05:00","2009","11","18","05:00","4.3","","2.2","","86","","","M","","M","","","99.89","","","","","","NA"
"2009-11-18 06:00","2009","11","18","06:00","4.7","","2.0","","83","","","M","","M","","","99.88","","","","","","NA"
"2009-11-18 07:00","2009","11","18","07:00","5.3","","1.9","","79","","","M","","M","","","99.83","","","","","","NA"
"2009-11-18 08:00","2009","11","18","08:00","5.4","","2.7","","83","","","M","","M","","","99.82","","","","","","NA"
"2009-11-18 09:00","2009","11","18","09:00","5.6","","2.4","","80","","","M","","M","","","99.86","","","","","","NA"
"2009-11-18 10:00","2009","11","18","10:00","7.0","","2.8","","75","","","M","","M","","","99.85","","","","","","NA"
"2009-11-18 11:00","2009","11","18","11:00","7.3","","3.4","","76","","","M","","M","","","99.87","","","","","","NA"
"2009-11-18 12:00","2009","11","18","12:00","8.2","","3.4","","72","","","M","","M","","","99.84","","","","","","NA"
"2009-11-18 13:00","2009","11","18","13:00","8.1","","3.7","","74","","","M","","M","","","99.80","","","","","","NA"
"2009-11-18 14:00","2009","11","18","14:00","8.2","","4.1","","75","","","M","","M","","","99.73","","","","","","NA"
"2009-11-18 15:00","2009","11","18","15:00","7.5","","4.3","","80","","","M","","M","","","99.70","","","","","","NA"
"2009-11-18 16:00","2009","11","18","16:00","7.5","","3.9","","78","","","M","","M","","","99.65","","","","","","NA"
"2009-11-18 17:00","2009","11","18","17:00","5.9","","4.0","","88","","","M","","M","","","99.62","","","","","","NA"
"2009-11-18 18:00","2009","11","18","18:00","2.2","","2.1","","99","","","M","","M","","","99.61","","","","","","NA"
"2009-11-18 19:00","2009","11","18","19:00","0.6","","0.6","","100","","","M","","M","","","99.59","","","","","","NA"
"2009-11-18 20:00","2009","11","18","20:00","-0.2","","-0.2","","100","","","M","","M","","","99.59","","","","","","NA"
"2009-11-18 21:00","2009","11","18","21:00","-0.3","","-0.3","","100","","","M","","M","","","99.57","","","","","","NA"
"2009-11-18 22:00","2009","11","18","22:00","0.0","","0.0","","100","","","M","","M","","","99.54","","","","","","NA"
"2009-11-18 23:00","2009","11","18","23:00","0.1","","0.1","","100","","","M","","M","","","99.49","","","","","","NA"
"2009-11-19 00:00","2009","11","19","00:00","-0.1","","-0.3","","99","","","M","","M","","","99.51","","","","","","NA"
"2009-11-19 01:00","2009","11","19","01:00","-0.5","","-0.6","","99","","","M","","M","","","99.46","","","","","","NA"
"2009-11-19 02:00","2009","11","19","02:00","-0.1","","-0.4","","98","","","M","","M","","","99.45","","","","","","NA"
"2009-11-19 03:00","2009","11","19","03:00","0.2","","0.2","","100","","","M","","M","","","99.40","","","","","","NA"
"2009-11-19 04:00","2009","11","19","04:00","-0.1","","-0.1","","100","","","M","","M","","","99.34","","","","","","NA"
"2009-11-19 05:00","2009","11","19","05:00","0.6","","0.6","","100","","","M","","M","","","99.34","","","","","","NA"
"2009-11-19 06:00","2009","11","19","06:00","0.7","","0.7","","100","","","M","","M","","","99.27","","","","","","NA"
"2009-11-19 07:00","2009","11","19","07:00","0.3","","0.3","","100","","","M","","M","","","99.24","","","","","","NA"
"2009-11-19 08:00","2009","11","19","08:00","1.0","","1.0","","100","","","M","","M","","","99.21","","","","","","NA"
"2009-11-19 09:00","2009","11","19","09:00","0.9","","0.8","","99","","","M","","M","","","99.20","","","","","","NA"
"2009-11-19 10:00","2009","11","19","10:00","1.4","","1.4","","100","","","M","","M","","","99.18","","","","","","NA"
"2009-11-19 11:00","2009","11","19","11:00","3.2","","2.8","","97","","","M","","M","","","99.17","","","","","","NA"
"2009-11-19 12:00","2009","11","19","12:00","3.7","","3.6","","99","","","M","","M","","","99.10","","","","","","NA"
"2009-11-19 13:00","2009","11","19","13:00","4.2","","3.9","","98","","","M","","M","","","99.04","","","","","","NA"
"2009-11-19 14:00","2009","11","19","14:00","5.7","","4.8","","94","","","M","","M","","","98.98","","","","","","NA"
"2009-11-19 15:00","2009","11","19","15:00","5.8","","5.8","","100","","","M","","M","","","98.93","","","","","","NA"
"2009-11-19 16:00","2009","11","19","16:00","6.0","","5.9","","99","","","M","","M","","","98.89","","","","","","NA"
"2009-11-19 17:00","2009","11","19","17:00","6.0","","5.9","","99","","","M","","M","","","98.86","","","","","","NA"
"2009-11-19 18:00","2009","11","19","18:00","6.7","","6.7","","100","","","M","","M","","","98.86","","","","","","NA"
"2009-11-19 19:00","2009","11","19","19:00","6.2","","6.2","","100","","","M","","M","","","98.84","","","","","","NA"
"2009-11-19 20:00","2009","11","19","20:00","5.8","","5.8","","100","","","M","","M","","","98.80","","","","","","NA"
"2009-11-19 21:00","2009","11","19","21:00","5.6","","5.6","","100","","","M","","M","","","98.83","","","","","","NA"
"2009-11-19 22:00","2009","11","19","22:00","5.7","","5.7","","100","","","M","","M","","","98.84","","","","","","NA"
"2009-11-19 23:00","2009","11","19","23:00","5.8","","5.8","","100","","","M","","M","","","98.82","","","","","","NA"
"2009-11-20 00:00","2009","11","20","00:00","5.6","","5.6","","100","","","M","","M","","","98.81","","","","","","NA"
"2009-11-20 01:00","2009","11","20","01:00","5.5","","5.5","","100","","","M","","M","","","98.79","","","","","","NA"
"2009-11-20 02:00","2009","11","20","02:00","5.6","","5.6","","100","","","M","","M","","","98.78","","","","","","NA"
"2009-11-20 03:00","2009","11","20","03:00","5.3","","5.3","","100","","","M","","M","","","98.77","","","","","","NA"
"2009-11-20 04:00","2009","11","20","04:00","5.5","","5.5","","100","","","M","","M","","","98.75","","","","","","NA"
"2009-11-20 05:00","2009","11","20","05:00","5.7","","5.7","","100","","","M","","M","","","98.76","","","","","","NA"
"2009-11-20 06:00","2009","11","20","06:00","5.1","","5.1","","100","","","M","","M","","","98.80","","","","","","NA"
"2009-11-20 07:00","2009","11","20","07:00","5.2","","5.2","","100","","","M","","M","","","98.81","","","","","","NA"
"2009-11-20 08:00","2009","11","20","08:00","5.3","","5.3","","100","","","M","","M","","","98.83","","","","","","NA"
"2009-11-20 09:00","2009","11","20","09:00","5.0","","5.0","","100","","","M","","M","","","98.84","","","","","","NA"
"2009-11-20 10:00","2009","11","20","10:00","5.8","","5.8","","100","","","M","","M","","","98.84","","","","","","NA"
"2009-11-20 11:00","2009","11","20","11:00","6.2","","6.2","","100","","","M","","M","","","98.87","","","","","","NA"
"2009-11-20 12:00","2009","11","20","12:00","6.9","","5.9","","93","","","M","","M","","","98.83","","","","","","NA"
"2009-11-20 13:00","2009","11","20","13:00","6.9","","6.2","","95","","","M","","M","","","98.83","","","","","","NA"
"2009-11-20 14:00","2009","11","20","14:00","6.8","","6.3","","97","","","M","","M","","","98.82","","","","","","NA"
"2009-11-20 15:00","2009","11","20","15:00","6.3","","6.0","","98","","","M","","M","","","98.81","","","","","","NA"
"2009-11-20 16:00","2009","11","20","16:00","5.8","","5.8","","100","","","M","","M","","","98.83","","","","","","NA"
"2009-11-20 17:00","2009","11","20","17:00","5.3","","5.3","","100","","","M","","M","","","98.88","","","","","","NA"
"2009-11-20 18:00","2009","11","20","18:00","4.8","","4.8","","100","","","M","","M","","","98.92","","","","","","NA"
"2009-11-20 19:00","2009","11","20","19:00","2.8","","2.8","","100","","","M","","M","","","98.97","","","","","","NA"
"2009-11-20 20:00","2009","11","20","20:00","2.2","","2.2","","100","","","M","","M","","","98.99","","","","","","NA"
"2009-11-20 21:00","2009","11","20","21:00","1.2","","1.2","","100","","","M","","M","","","99.00","","","","","","NA"
"2009-11-20 22:00","2009","11","20","22:00","0.5","","0.5","","100","","","M","","M","","","99.00","","","","","","NA"
"2009-11-20 23:00","2009","11","20","23:00","1.1","","1.1","","100","","","M","","M","","","98.99","","","","","","NA"
"2009-11-21 00:00","2009","11","21","00:00","0.1","","0.1","","100","","","M","","M","","","99.04","","","","","","NA"
"2009-11-21 01:00","2009","11","21","01:00","0.5","","0.5","","100","","","M","","M","","","99.06","","","","","","NA"
"2009-11-21 02:00","2009","11","21","02:00","-0.1","","-0.1","","100","","","M","","M","","","99.10","","","","","","NA"
"2009-11-21 03:00","2009","11","21","03:00","-0.5","","-0.5","","100","","","M","","M","","","99.10","","","","","","NA"
"2009-11-21 04:00","2009","11","21","04:00","-1.0","","-1.0","","100","","","M","","M","","","99.12","","","","","","NA"
"2009-11-21 05:00","2009","11","21","05:00","-1.6","","-1.6","","100","","","M","","M","","","99.13","","","","","","NA"
"2009-11-21 06:00","2009","11","21","06:00","-1.7","","-1.7","","100","","","M","","M","","","99.16","","","","","","NA"
"2009-11-21 07:00","2009","11","21","07:00","-2.1","","-2.1","","100","","","M","","M","","","99.19","","","","","","NA"
"2009-11-21 08:00","2009","11","21","08:00","-2.0","","-2.0","","100","","","M","","M","","","99.25","","","","","","NA"
"2009-11-21 09:00","2009","11","21","09:00","-1.1","","-1.1","","100","","","M","","M","","","99.26","","","","","","NA"
"2009-11-21 10:00","2009","11","21","10:00","-0.5","","-0.5","","100","","","M","","M","","","99.33","","","","","","NA"
"2009-11-21 11:00","2009","11","21","11:00","1.5","","1.5","","100","","","M","","M","","","99.32","","","","","","NA"
"2009-11-21 12:00","2009","11","21","12:00","4.1","","4.1","","100","","","M","","M","","","99.34","","","","","","NA"
"2009-11-21 13:00","2009","11","21","13:00","4.7","","4.7","","100","","","M","","M","","","99.34","","","","","","NA"
"2009-11-21 14:00","2009","11","21","14:00","5.9","","5.6","","98","","","M","","M","","","99.34","","","","","","NA"
"2009-11-21 15:00","2009","11","21","15:00","6.3","","4.7","","89","","","M","","M","","","99.35","","","","","","NA"
"2009-11-21 16:00","2009","11","21","16:00","4.0","","4.0","","100","","","M","","M","","","99.38","","","","","","NA"
"2009-11-21 17:00","2009","11","21","17:00","4.0","","3.9","","99","","","M","","M","","","99.41","","","","","","NA"
"2009-11-21 18:00","2009","11","21","18:00","4.2","","4.2","","100","","","M","","M","","","99.40","","","","","","NA"
"2009-11-21 19:00","2009","11","21","19:00","3.8","","3.8","","100","","","M","","M","","","99.39","","","","","","NA"
"2009-11-21 20:00","2009","11","21","20:00","3.0","","3.0","","100","","","M","","M","","","99.42","","","","","","NA"
"2009-11-21 21:00","2009","11","21","21:00","1.9","","1.8","","99","","","M","","M","","","99.40","","","","","","NA"
"2009-11-21 22:00","2009","11","21","22:00","0.1","","0.1","","100","","","M","","M","","","99.38","","","","","","NA"
"2009-11-21 23:00","2009","11","21","23:00","0.9","","0.9","","100","","","M","","M","","","99.35","","","","","","NA"
"2009-11-22 00:00","2009","11","22","00:00","2.1","","2.1","","100","","","M","","M","","","99.35","","","","","","NA"
"2009-11-22 01:00","2009","11","22","01:00","3.0","","3.0","","100","","","M","","M","","","99.32","","","","","","NA"
"2009-11-22 02:00","2009","11","22","02:00","5.3","","5.3","","100","","","M","","M","","","99.36","","","","","","NA"
"2009-11-22 03:00","2009","11","22","03:00","5.9","","5.9","","100","","","M","","M","","","99.40","","","","","","NA"
"2009-11-22 04:00","2009","11","22","04:00","5.8","","5.8","","100","","","M","","M","","","99.37","","","","","","NA"
"2009-11-22 05:00","2009","11","22","05:00","5.7","","5.7","","100","","","M","","M","","","99.40","","","","","","NA"
"2009-11-22 06:00","2009","11","22","06:00","5.7","","5.7","","100","","","M","","M","","","99.35","","","","","","NA"
"2009-11-22 07:00","2009","11","22","07:00","6.0","","6.0","","100","","","M","","M","","","99.33","","","","","","NA"
"2009-11-22 08:00","2009","11","22","08:00","6.1","","6.1","","100","","","M","","M","","","99.33","","","","","","NA"
"2009-11-22 09:00","2009","11","22","09:00","6.2","","6.2","","100","","","M","","M","","","99.30","","","","","","NA"
"2009-11-22 10:00","2009","11","22","10:00","6.1","","6.1","","100","","","M","","M","","","99.28","","","","","","NA"
"2009-11-22 11:00","2009","11","22","11:00","6.4","","6.4","","100","","","M","","M","","","99.31","","","","","","NA"
"2009-11-22 12:00","2009","11","22","12:00","6.7","","6.7","","100","","","M","","M","","","99.25","","","","","","NA"
"2009-11-22 13:00","2009","11","22","13:00","7.1","","7.1","","100","","","M","","M","","","99.18","","","","","","NA"
"2009-11-22 14:00","2009","11","22","14:00","7.2","","7.2","","100","","","M","","M","","","99.14","","","","","","NA"
"2009-11-22 15:00","2009","11","22","15:00","6.9","","6.9","","100","","","M","","M","","","99.20","","","","","","NA"
"2009-11-22 16:00","2009","11","22","16:00","6.9","","6.9","","100","","","M","","M","","","99.22","","","","","","NA"
"2009-11-22 17:00","2009","11","22","17:00","7.0","","7.0","","100","","","M","","M","","","99.25","","","","","","NA"
"2009-11-22 18:00","2009","11","22","18:00","7.2","","7.2","","100","","","M","","M","","","99.28","","","","","","NA"
"2009-11-22 19:00","2009","11","22","19:00","7.7","","7.7","","100","","","M","","M","","","99.30","","","","","","NA"
"2009-11-22 20:00","2009","11","22","20:00","7.9","","7.9","","100","","","M","","M","","","99.30","","","","","","NA"
"2009-11-22 21:00","2009","11","22","21:00","7.7","","7.7","","100","","","M","","M","","","99.32","","","","","","NA"
"2009-11-22 22:00","2009","11","22","22:00","8.0","","8.0","","100","","","M","","M","","","99.34","","","","","","NA"
"2009-11-22 23:00","2009","11","22","23:00","7.6","","7.6","","100","","","M","","M","","","99.37","","","","","","NA"
"2009-11-23 00:00","2009","11","23","00:00","7.8","","7.8","","100","","","M","","M","","","99.41","","","","","","NA"
"2009-11-23 01:00","2009","11","23","01:00","7.6","","7.6","","100","","","M","","M","","","99.40","","","","","","NA"
"2009-11-23 02:00","2009","11","23","02:00","7.8","","7.8","","100","","","M","","M","","","99.45","","","","","","NA"
"2009-11-23 03:00","2009","11","23","03:00","7.8","","7.7","","99","","","M","","M","","","99.51","","","","","","NA"
"2009-11-23 04:00","2009","11","23","04:00","7.6","","7.6","","100","","","M","","M","","","99.53","","","","","","NA"
"2009-11-23 05:00","2009","11","23","05:00","7.5","","7.5","","100","","","M","","M","","","99.57","","","","","","NA"
"2009-11-23 06:00","2009","11","23","06:00","7.0","","7.0","","100","","","M","","M","","","99.61","","","","","","NA"
"2009-11-23 07:00","2009","11","23","07:00","6.9","","6.9","","100","","","M","","M","","","99.66","","","","","","NA"
"2009-11-23 08:00","2009","11","23","08:00","7.0","","7.0","","100","","","M","","M","","","99.71","","","","","","NA"
"2009-11-23 09:00","2009","11","23","09:00","7.0","","7.0","","100","","","M","","M","","","99.73","","","","","","NA"
"2009-11-23 10:00","2009","11","23","10:00","6.7","","6.7","","100","","","M","","M","","","99.73","","","","","","NA"
"2009-11-23 11:00","2009","11","23","11:00","6.6","","6.6","","100","","","M","","M","","","99.75","","","","","","NA"
"2009-11-23 12:00","2009","11","23","12:00","6.5","","6.5","","100","","","M","","M","","","99.72","","","","","","NA"
"2009-11-23 13:00","2009","11","23","13:00","6.3","","6.3","","100","","","M","","M","","","99.71","","","","","","NA"
"2009-11-23 14:00","2009","11","23","14:00","6.2","","6.2","","100","","","M","","M","","","99.67","","","","","","NA"
"2009-11-23 15:00","2009","11","23","15:00","6.2","","6.2","","100","","","M","","M","","","99.64","","","","","","NA"
"2009-11-23 16:00","2009","11","23","16:00","6.4","","6.4","","100","","","M","","M","","","99.66","","","","","","NA"
"2009-11-23 17:00","2009","11","23","17:00","6.4","","6.4","","100","","","M","","M","","","99.67","","","","","","NA"
"2009-11-23 18:00","2009","11","23","18:00","6.4","","6.4","","100","","","M","","M","","","99.69","","","","","","NA"
"2009-11-23 19:00","2009","11","23","19:00","6.2","","6.2","","100","","","M","","M","","","99.67","","","","","","NA"
"2009-11-23 20:00","2009","11","23","20:00","5.2","","5.2","","100","","","M","","M","","","99.67","","","","","","NA"
"2009-11-23 21:00","2009","11","23","21:00","4.2","","4.2","","100","","","M","","M","","","99.67","","","","","","NA"
"2009-11-23 22:00","2009","11","23","22:00","5.3","","5.3","","100","","","M","","M","","","99.66","","","","","","NA"
"2009-11-23 23:00","2009","11","23","23:00","5.9","","5.9","","100","","","M","","M","","","99.63","","","","","","NA"
"2009-11-24 00:00","2009","11","24","00:00","5.9","","5.9","","100","","","M","","M","","","99.62","","","","","","NA"
"2009-11-24 01:00","2009","11","24","01:00","6.2","","6.2","","100","","","M","","M","","","99.60","","","","","","NA"
"2009-11-24 02:00","2009","11","24","02:00","6.1","","5.9","","99","","","M","","M","","","99.59","","","","","","NA"
"2009-11-24 03:00","2009","11","24","03:00","6.0","","6.0","","100","","","M","","M","","","99.58","","","","","","NA"
"2009-11-24 04:00","2009","11","24","04:00","5.9","","5.9","","100","","","M","","M","","","99.54","","","","","","NA"
"2009-11-24 05:00","2009","11","24","05:00","5.8","","5.8","","100","","","M","","M","","","99.48","","","","","","NA"
"2009-11-24 06:00","2009","11","24","06:00","5.7","","5.7","","100","","","M","","M","","","99.45","","","","","","NA"
"2009-11-24 07:00","2009","11","24","07:00","5.5","","5.5","","100","","","M","","M","","","99.41","","","","","","NA"
"2009-11-24 08:00","2009","11","24","08:00","5.5","","5.5","","100","","","M","","M","","","99.39","","","","","","NA"
"2009-11-24 09:00","2009","11","24","09:00","5.6","","5.6","","100","","","M","","M","","","99.38","","","","","","NA"
"2009-11-24 10:00","2009","11","24","10:00","5.9","","5.8","","99","","","M","","M","","","99.35","","","","","","NA"
"2009-11-24 11:00","2009","11","24","11:00","6.1","","6.1","","100","","","M","","M","","","99.31","","","","","","NA"
"2009-11-24 12:00","2009","11","24","12:00","6.1","","6.1","","100","","","M","","M","","","99.26","","","","","","NA"
"2009-11-24 13:00","2009","11","24","13:00","6.1","","6.1","","100","","","M","","M","","","99.20","","","","","","NA"
"2009-11-24 14:00","2009","11","24","14:00","6.2","","6.2","","100","","","M","","M","","","99.13","","","","","","NA"
"2009-11-24 15:00","2009","11","24","15:00","6.2","","6.2","","100","","","M","","M","","","99.09","","","","","","NA"
"2009-11-24 16:00","2009","11","24","16:00","6.1","","6.1","","100","","","M","","M","","","99.05","","","","","","NA"
"2009-11-24 17:00","2009","11","24","17:00","6.2","","6.2","","100","","","M","","M","","","98.98","","","","","","NA"
"2009-11-24 18:00","2009","11","24","18:00","6.3","","6.3","","100","","","M","","M","","","98.98","","","","","","NA"
"2009-11-24 19:00","2009","11","24","19:00","6.3","","6.3","","100","","","M","","M","","","98.93","","","","","","NA"
"2009-11-24 20:00","2009","11","24","20:00","6.4","","6.4","","100","","","M","","M","","","98.91","","","","","","NA"
"2009-11-24 21:00","2009","11","24","21:00","6.4","","6.4","","100","","","M","","M","","","98.86","","","","","","NA"
"2009-11-24 22:00","2009","11","24","22:00","6.6","","6.6","","100","","","M","","M","","","98.79","","","","","","NA"
"2009-11-24 23:00","2009","11","24","23:00","6.6","","6.6","","100","","","M","","M","","","98.75","","","","","","NA"
"2009-11-25 00:00","2009","11","25","00:00","6.6","","6.6","","100","","","M","","M","","","98.72","","","","","","NA"
"2009-11-25 01:00","2009","11","25","01:00","6.6","","6.6","","100","","","M","","M","","","98.67","","","","","","NA"
"2009-11-25 02:00","2009","11","25","02:00","6.5","","6.5","","100","","","M","","M","","","98.62","","","","","","NA"
"2009-11-25 03:00","2009","11","25","03:00","6.5","","6.5","","100","","","M","","M","","","98.57","","","","","","NA"
"2009-11-25 04:00","2009","11","25","04:00","6.3","","6.3","","100","","","M","","M","","","98.50","","","","","","NA"
"2009-11-25 05:00","2009","11","25","05:00","6.0","","6.0","","100","","","M","","M","","","98.42","","","","","","NA"
"2009-11-25 06:00","2009","11","25","06:00","6.0","","6.0","","100","","","M","","M","","","98.37","","","","","","NA"
"2009-11-25 07:00","2009","11","25","07:00","6.0","","6.0","","100","","","M","","M","","","98.33","","","","","","NA"
"2009-11-25 08:00","2009","11","25","08:00","5.5","","5.5","","100","","","M","","M","","","98.28","","","","","","NA"
"2009-11-25 09:00","2009","11","25","09:00","5.5","","5.5","","100","","","M","","M","","","98.26","","","","","","NA"
"2009-11-25 10:00","2009","11","25","10:00","5.5","","5.5","","100","","","M","","M","","","98.22","","","","","","NA"
"2009-11-25 11:00","2009","11","25","11:00","5.6","","5.6","","100","","","M","","M","","","98.17","","","","","","NA"
"2009-11-25 12:00","2009","11","25","12:00","5.8","","5.8","","100","","","M","","M","","","98.09","","","","","","NA"
"2009-11-25 13:00","2009","11","25","13:00","6.0","","6.0","","100","","","M","","M","","","98.03","","","","","","NA"
"2009-11-25 14:00","2009","11","25","14:00","6.4","","6.4","","100","","","M","","M","","","97.99","","","","","","NA"
"2009-11-25 15:00","2009","11","25","15:00","6.0","","6.0","","100","","","M","","M","","","97.97","","","","","","NA"
"2009-11-25 16:00","2009","11","25","16:00","5.5","","5.5","","100","","","M","","M","","","98.00","","","","","","NA"
"2009-11-25 17:00","2009","11","25","17:00","5.1","","5.1","","100","","","M","","M","","","98.01","","","","","","NA"
"2009-11-25 18:00","2009","11","25","18:00","4.7","","4.7","","100","","","M","","M","","","98.02","","","","","","NA"
"2009-11-25 19:00","2009","11","25","19:00","4.4","","4.4","","100","","","M","","M","","","98.00","","","","","","NA"
"2009-11-25 20:00","2009","11","25","20:00","4.3","","4.3","","100","","","M","","M","","","98.02","","","","","","NA"
"2009-11-25 21:00","2009","11","25","21:00","4.3","","4.3","","100","","","M","","M","","","98.03","","","","","","NA"
"2009-11-25 22:00","2009","11","25","22:00","4.5","","4.5","","100","","","M","","M","","","98.04","","","","","","NA"
"2009-11-25 23:00","2009","11","25","23:00","4.3","","4.3","","100","","","M","","M","","","98.04","","","","","","NA"
"2009-11-26 00:00","2009","11","26","00:00"
"2009-11-26 01:00","2009","11","26","01:00"
"2009-11-26 02:00","2009","11","26","02:00"
"2009-11-26 03:00","2009","11","26","03:00"
"2009-11-26 04:00","2009","11","26","04:00"
"2009-11-26 05:00","2009","11","26","05:00"
"2009-11-26 06:00","2009","11","26","06:00"
"2009-11-26 07:00","2009","11","26","07:00"
"2009-11-26 08:00","2009","11","26","08:00"
"2009-11-26 09:00","2009","11","26","09:00"
"2009-11-26 10:00","2009","11","26","10:00"
"2009-11-26 11:00","2009","11","26","11:00"
"2009-11-26 12:00","2009","11","26","12:00"
"2009-11-26 13:00","2009","11","26","13:00"
"2009-11-26 14:00","2009","11","26","14:00"
"2009-11-26 15:00","2009","11","26","15:00"
"2009-11-26 16:00","2009","11","26","16:00"
"2009-11-26 17:00","2009","11","26","17:00"
"2009-11-26 18:00","2009","11","26","18:00"
"2009-11-26 19:00","2009","11","26","19:00"
"2009-11-26 20:00","2009","11","26","20:00"
"2009-11-26 21:00","2009","11","26","21:00"
"2009-11-26 22:00","2009","11","26","22:00"
"2009-11-26 23:00","2009","11","26","23:00"
"2009-11-27 00:00","2009","11","27","00:00"
"2009-11-27 01:00","2009","11","27","01:00"
"2009-11-27 02:00","2009","11","27","02:00"
"2009-11-27 03:00","2009","11","27","03:00"
"2009-11-27 04:00","2009","11","27","04:00"
"2009-11-27 05:00","2009","11","27","05:00"
"2009-11-27 06:00","2009","11","27","06:00"
"2009-11-27 07:00","2009","11","27","07:00"
"2009-11-27 08:00","2009","11","27","08:00"
"2009-11-27 09:00","2009","11","27","09:00"
"2009-11-27 10:00","2009","11","27","10:00"
"2009-11-27 11:00","2009","11","27","11:00"
"2009-11-27 12:00","2009","11","27","12:00"
"2009-11-27 13:00","2009","11","27","13:00"
"2009-11-27 14:00","2009","11","27","14:00"
"2009-11-27 15:00","2009","11","27","15:00"
"2009-11-27 16:00","2009","11","27","16:00"
"2009-11-27 17:00","2009","11","27","17:00"
"2009-11-27 18:00","2009","11","27","18:00"
"2009-11-27 19:00","2009","11","27","19:00"
"2009-11-27 20:00","2009","11","27","20:00"
"2009-11-27 21:00","2009","11","27","21:00"
"2009-11-27 22:00","2009","11","27","22:00"
"2009-11-27 23:00","2009","11","27","23:00"
"2009-11-28 00:00","2009","11","28","00:00"
"2009-11-28 01:00","2009","11","28","01:00"
"2009-11-28 02:00","2009","11","28","02:00"
"2009-11-28 03:00","2009","11","28","03:00"
"2009-11-28 04:00","2009","11","28","04:00"
"2009-11-28 05:00","2009","11","28","05:00"
"2009-11-28 06:00","2009","11","28","06:00"
"2009-11-28 07:00","2009","11","28","07:00"
"2009-11-28 08:00","2009","11","28","08:00"
"2009-11-28 09:00","2009","11","28","09:00"
"2009-11-28 10:00","2009","11","28","10:00"
"2009-11-28 11:00","2009","11","28","11:00"
"2009-11-28 12:00","2009","11","28","12:00"
"2009-11-28 13:00","2009","11","28","13:00"
"2009-11-28 14:00","2009","11","28","14:00"
"2009-11-28 15:00","2009","11","28","15:00"
"2009-11-28 16:00","2009","11","28","16:00"
"2009-11-28 17:00","2009","11","28","17:00"
"2009-11-28 18:00","2009","11","28","18:00"
"2009-11-28 19:00","2009","11","28","19:00"
"2009-11-28 20:00","2009","11","28","20:00"
"2009-11-28 21:00","2009","11","28","21:00"
"2009-11-28 22:00","2009","11","28","22:00"
"2009-11-28 23:00","2009","11","28","23:00"
"2009-11-29 00:00","2009","11","29","00:00"
"2009-11-29 01:00","2009","11","29","01:00"
"2009-11-29 02:00","2009","11","29","02:00"
"2009-11-29 03:00","2009","11","29","03:00"
"2009-11-29 04:00","2009","11","29","04:00"
"2009-11-29 05:00","2009","11","29","05:00"
"2009-11-29 06:00","2009","11","29","06:00"
"2009-11-29 07:00","2009","11","29","07:00"
"2009-11-29 08:00","2009","11","29","08:00"
"2009-11-29 09:00","2009","11","29","09:00"
"2009-11-29 10:00","2009","11","29","10:00"
"2009-11-29 11:00","2009","11","29","11:00"
"2009-11-29 12:00","2009","11","29","12:00"
"2009-11-29 13:00","2009","11","29","13:00"
"2009-11-29 14:00","2009","11","29","14:00"
"2009-11-29 15:00","2009","11","29","15:00"
"2009-11-29 16:00","2009","11","29","16:00"
"2009-11-29 17:00","2009","11","29","17:00"
"2009-11-29 18:00","2009","11","29","18:00"
"2009-11-29 19:00","2009","11","29","19:00"
"2009-11-29 20:00","2009","11","29","20:00"
"2009-11-29 21:00","2009","11","29","21:00"
"2009-11-29 22:00","2009","11","29","22:00"
"2009-11-29 23:00","2009","11","29","23:00"
"2009-11-30 00:00","2009","11","30","00:00"
"2009-11-30 01:00","2009","11","30","01:00"
"2009-11-30 02:00","2009","11","30","02:00"
"2009-11-30 03:00","2009","11","30","03:00"
"2009-11-30 04:00","2009","11","30","04:00"
"2009-11-30 05:00","2009","11","30","05:00"
"2009-11-30 06:00","2009","11","30","06:00"
"2009-11-30 07:00","2009","11","30","07:00"
"2009-11-30 08:00","2009","11","30","08:00"
"2009-11-30 09:00","2009","11","30","09:00"
"2009-11-30 10:00","2009","11","30","10:00"
"2009-11-30 11:00","2009","11","30","11:00"
"2009-11-30 12:00","2009","11","30","12:00"
"2009-11-30 13:00","2009","11","30","13:00"
"2009-11-30 14:00","2009","11","30","14:00"
"2009-11-30 15:00","2009","11","30","15:00"
"2009-11-30 16:00","2009","11","30","16:00"
"2009-11-30 17:00","2009","11","30","17:00"
"2009-11-30 18:00","2009","11","30","18:00"
"2009-11-30 19:00","2009","11","30","19:00"
"2009-11-30 20:00","2009","11","30","20:00"
"2009-11-30 21:00","2009","11","30","21:00"
"2009-11-30 22:00","2009","11","30","22:00"
"2009-11-30 23:00","2009","11","30","23:00"
