"Station Name","PUKASKWA (AUT)"
"Province","ONTARIO"
"Latitude","48.59"
"Longitude","-86.29"
"Elevation","207.60"
"Climate Identifier","6046767"
"WMO Identifier","71750"
"TC Identifier","WCJ"
"All times are specified in Local Standard Time (LST). Add 1 hour to adjust for Daylight Saving Time where and when it is observed."

"Legend"
"E","Estimated"
"M","Missing"
"NA","Not Available"

"Date/Time","Year","Month","Day","Time","Temp (°C)","Temp Flag","Dew Point Temp (°C)","Dew Point Temp Flag","Rel Hum (%)","Rel Hum Flag","Wind Dir (10s deg)","Wind Dir Flag","Wind Spd (km/h)","Wind Spd Flag","Visibility (km)","Visibility Flag","Stn Press (kPa)","Stn Press Flag","Hmdx","Hmdx Flag","Wind Chill","Wind Chill Flag","Weather"
"2008-05-01 00:00","2008","05","01","00:00","-2.0","","-4.6","","82","","7","","15","","","","98.98","","","","-7","","NA"
"2008-05-01 01:00","2008","05","01","01:00","-2.0","","-4.3","","84","","8","","9","","","","99.01","","","","-5","","NA"
"2008-05-01 02:00","2008","05","01","02:00","-1.3","","-4.4","","79","","10","","7","","","","99.05","","","","-4","","NA"
"2008-05-01 03:00","2008","05","01","03:00","-2.6","","-4.1","","89","","6","","6","","","","99.07","","","","-5","","NA"
"2008-05-01 04:00","2008","05","01","04:00","-3.6","","-4.0","","97","","5","","11","","","","99.08","","","","-8","","NA"
"2008-05-01 05:00","2008","05","01","05:00","-3.9","","-4.3","","97","","5","","11","","","","99.04","","","","-8","","NA"
"2008-05-01 06:00","2008","05","01","06:00","-2.0","","-4.8","","81","","5","","13","","","","99.05","","","","-6","","NA"
"2008-05-01 07:00","2008","05","01","07:00","1.0","","-5.7","","61","","6","","17","","","","99.06","","","","","","NA"
"2008-05-01 08:00","2008","05","01","08:00","2.5","","-4.5","","60","","6","","7","","","","99.06","","","","","","NA"
"2008-05-01 09:00","2008","05","01","09:00","5.0","","-5.3","","47","","8","","9","","","","99.06","","","","","","NA"
"2008-05-01 10:00","2008","05","01","10:00","8.6","","-5.9","","35","","11","","6","","","","99.04","","","","","","NA"
"2008-05-01 11:00","2008","05","01","11:00","6.7","","-2.7","","51","","28","","9","","","","99.01","","","","","","NA"
"2008-05-01 12:00","2008","05","01","12:00","7.2","","-4.5","","43","","30","","17","","","","98.96","","","","","","NA"
"2008-05-01 13:00","2008","05","01","13:00","7.1","","-2.0","","52","","30","","13","","","","98.94","","","","","","NA"
"2008-05-01 14:00","2008","05","01","14:00","9.1","","-3.4","","41","","31","","15","","","","98.88","","","","","","NA"
"2008-05-01 15:00","2008","05","01","15:00","8.2","","-1.2","","51","","28","","17","","","","98.87","","","","","","NA"
"2008-05-01 16:00","2008","05","01","16:00","7.4","","-1.9","","52","","27","","7","","","","98.85","","","","","","NA"
"2008-05-01 17:00","2008","05","01","17:00","6.3","","-1.4","","58","","25","","6","","","","98.83","","","","","","NA"
"2008-05-01 18:00","2008","05","01","18:00","6.9","","-0.4","","60","","19","","7","","","","98.82","","","","","","NA"
"2008-05-01 19:00","2008","05","01","19:00","5.8","","-0.3","","65","","20","","6","","","","98.81","","","","","","NA"
"2008-05-01 20:00","2008","05","01","20:00","4.5","","-2.5","","60","","16","","6","","","","98.82","","","","","","NA"
"2008-05-01 21:00","2008","05","01","21:00","2.6","","-1.4","","75","","8","","9","","","","98.86","","","","","","NA"
"2008-05-01 22:00","2008","05","01","22:00","1.3","","-2.6","","75","","5","","11","","","","98.84","","","","","","NA"
"2008-05-01 23:00","2008","05","01","23:00","1.3","","-3.9","","68","","6","","11","","","","98.80","","","","","","NA"
"2008-05-02 00:00","2008","05","02","00:00","1.8","","-3.8","","66","","5","","11","","","","98.75","","","","","","NA"
"2008-05-02 01:00","2008","05","02","01:00","3.6","","-4.5","","55","","8","","22","","","","98.72","","","","","","NA"
"2008-05-02 02:00","2008","05","02","02:00","2.0","","-4.4","","63","","5","","13","","","","98.70","","","","","","NA"
"2008-05-02 03:00","2008","05","02","03:00"
"2008-05-02 04:00","2008","05","02","04:00","1.4","","-4.4","","65","","5","","17","","","","98.63","","","","","","NA"
"2008-05-02 05:00","2008","05","02","05:00","0.7","","-4.3","","69","","5","","19","","","","98.67","","","","","","NA"
"2008-05-02 06:00","2008","05","02","06:00","1.1","","-4.1","","68","","5","","19","","","","98.64","","","","","","NA"
"2008-05-02 07:00","2008","05","02","07:00","2.2","","-3.8","","64","","4","","17","","","","98.67","","","","","","NA"
"2008-05-02 08:00","2008","05","02","08:00","4.6","","-3.0","","58","","8","","7","","","","98.64","","","","","","NA"
"2008-05-02 09:00","2008","05","02","09:00","5.1","","-2.0","","60","","3","","11","","","","98.58","","","","","","NA"
"2008-05-02 10:00","2008","05","02","10:00","7.3","","-1.5","","54","","7","","19","","","","98.55","","","","","","NA"
"2008-05-02 11:00","2008","05","02","11:00","8.2","","-1.6","","50","","7","","19","","","","98.56","","","","","","NA"
"2008-05-02 12:00","2008","05","02","12:00","10.3","","-1.0","","45","","8","","15","","","","98.49","","","","","","NA"
"2008-05-02 13:00","2008","05","02","13:00","11.8","","-1.2","","40","","9","","15","","","","98.42","","","","","","NA"
"2008-05-02 14:00","2008","05","02","14:00","12.5","","-0.8","","40","","8","","15","","","","98.32","","","","","","NA"
"2008-05-02 15:00","2008","05","02","15:00","12.4","","-0.1","","42","","9","","19","","","","98.30","","","","","","NA"
"2008-05-02 16:00","2008","05","02","16:00","10.0","","6.3","","78","","7","","17","","","","98.20","","","","","","NA"
"2008-05-02 17:00","2008","05","02","17:00","9.4","","5.1","","74","","7","","20","","","","98.06","","","","","","NA"
"2008-05-02 18:00","2008","05","02","18:00","9.4","","5.0","","74","","7","","19","","","","98.00","","","","","","NA"
"2008-05-02 19:00","2008","05","02","19:00","8.2","","6.6","","90","","6","","24","","","","97.91","","","","","","NA"
"2008-05-02 20:00","2008","05","02","20:00","7.0","","7.0","","100","","6","","26","","","","97.83","","","","","","NA"
"2008-05-02 21:00","2008","05","02","21:00","6.8","","6.8","","100","","7","","26","","","","97.78","","","","","","NA"
"2008-05-02 22:00","2008","05","02","22:00","6.9","","6.9","","100","","7","","26","","","","97.62","","","","","","NA"
"2008-05-02 23:00","2008","05","02","23:00","7.0","","7.0","","100","","7","","26","","","","97.46","","","","","","NA"
"2008-05-03 00:00","2008","05","03","00:00","7.0","","7.0","","100","","6","","28","","","","97.26","","","","","","NA"
"2008-05-03 01:00","2008","05","03","01:00","6.9","","6.9","","100","","7","","24","","","","97.12","","","","","","NA"
"2008-05-03 02:00","2008","05","03","02:00","6.7","","6.7","","100","","6","","26","","","","96.98","","","","","","NA"
"2008-05-03 03:00","2008","05","03","03:00","6.5","","6.5","","100","","7","","20","","","","96.89","","","","","","NA"
"2008-05-03 04:00","2008","05","03","04:00","6.4","","6.4","","100","","8","","17","","","","96.84","","","","","","NA"
"2008-05-03 05:00","2008","05","03","05:00","6.5","","6.5","","100","","6","","15","","","","96.77","","","","","","NA"
"2008-05-03 06:00","2008","05","03","06:00","7.0","","7.0","","100","","14","","6","","","","96.82","","","","","","NA"
"2008-05-03 07:00","2008","05","03","07:00","6.4","","6.4","","100","","17","","26","","","","96.83","","","","","","NA"
"2008-05-03 08:00","2008","05","03","08:00","5.5","","5.5","","100","","17","","32","","","","96.86","","","","","","NA"
"2008-05-03 09:00","2008","05","03","09:00","5.6","","5.6","","100","","18","","28","","","","96.88","","","","","","NA"
"2008-05-03 10:00","2008","05","03","10:00","5.7","","5.7","","100","","17","","35","","","","96.93","","","","","","NA"
"2008-05-03 11:00","2008","05","03","11:00","5.6","","5.6","","100","","17","","35","","","","96.96","","","","","","NA"
"2008-05-03 12:00","2008","05","03","12:00","4.5","","4.5","","100","","19","","35","","","","97.05","","","","","","NA"
"2008-05-03 13:00","2008","05","03","13:00","3.9","","3.9","","100","","16","","22","","","","97.04","","","","","","NA"
"2008-05-03 14:00","2008","05","03","14:00","3.3","","3.3","","100","","23","","20","","","","97.09","","","","","","NA"
"2008-05-03 15:00","2008","05","03","15:00","2.9","","2.9","","100","","22","","15","","","","97.17","","","","","","NA"
"2008-05-03 16:00","2008","05","03","16:00","2.9","","2.9","","100","","30","","7","","","","97.23","","","","","","NA"
"2008-05-03 17:00","2008","05","03","17:00","2.4","","2.4","","100","","35","","13","","","","97.34","","","","","","NA"
"2008-05-03 18:00","2008","05","03","18:00","1.5","","1.5","","100","","32","","17","","","","97.53","","","","","","NA"
"2008-05-03 19:00","2008","05","03","19:00","1.6","","1.6","","100","","33","","19","","","","97.71","","","","","","NA"
"2008-05-03 20:00","2008","05","03","20:00","1.0","","1.0","","100","","35","","11","","","","97.88","","","","","","NA"
"2008-05-03 21:00","2008","05","03","21:00","0.6","","0.6","","100","","32","","15","","","","98.04","","","","","","NA"
"2008-05-03 22:00","2008","05","03","22:00","0.5","","0.2","","98","","32","","22","","","","98.12","","","","","","NA"
"2008-05-03 23:00","2008","05","03","23:00","0.2","","-0.3","","96","","32","","19","","","","98.19","","","","","","NA"
"2008-05-04 00:00","2008","05","04","00:00","-0.3","","-0.8","","96","","33","","11","","","","98.27","","","","-4","","NA"
"2008-05-04 01:00","2008","05","04","01:00","-0.7","","-1.2","","96","","32","","9","","","","98.34","","","","-4","","NA"
"2008-05-04 02:00","2008","05","04","02:00","-0.9","","-1.6","","95","","35","","7","","","","98.35","","","","-3","","NA"
"2008-05-04 03:00","2008","05","04","03:00","-1.2","","-1.4","","99","","29","","6","","","","98.40","","","","-3","","NA"
"2008-05-04 04:00","2008","05","04","04:00","-2.2","","-2.2","","100","","36","","4","","","","98.46","","","","-4","","NA"
"2008-05-04 05:00","2008","05","04","05:00","0.1","","-1.2","","91","","27","","19","","","","98.49","","","","","","NA"
"2008-05-04 06:00","2008","05","04","06:00","0.4","","-1.1","","90","","26","","20","","","","98.53","","","","","","NA"
"2008-05-04 07:00","2008","05","04","07:00","1.1","","-0.8","","87","","26","","19","","","","98.59","","","","","","NA"
"2008-05-04 08:00","2008","05","04","08:00","1.7","","-1.4","","80","","26","","15","","","","98.64","","","","","","NA"
"2008-05-04 09:00","2008","05","04","09:00","1.9","","-0.2","","86","","23","","20","","","","98.68","","","","","","NA"
"2008-05-04 10:00","2008","05","04","10:00","2.6","","1.2","","90","","21","","15","","","","98.68","","","","","","NA"
"2008-05-04 11:00","2008","05","04","11:00","4.6","","3.5","","93","","18","","17","","","","98.66","","","","","","NA"
"2008-05-04 12:00","2008","05","04","12:00","5.0","","1.2","","76","","19","","17","","","","98.64","","","","","","NA"
"2008-05-04 13:00","2008","05","04","13:00","4.7","","1.6","","80","","20","","24","","","","98.61","","","","","","NA"
"2008-05-04 14:00","2008","05","04","14:00","3.4","","2.0","","91","","22","","20","","","","98.60","","","","","","NA"
"2008-05-04 15:00","2008","05","04","15:00","4.4","","2.6","","88","","24","","17","","","","98.61","","","","","","NA"
"2008-05-04 16:00","2008","05","04","16:00","4.2","","2.5","","89","","24","","17","","","","98.60","","","","","","NA"
"2008-05-04 17:00","2008","05","04","17:00","3.3","","2.6","","95","","22","","11","","","","98.55","","","","","","NA"
"2008-05-04 18:00","2008","05","04","18:00","3.3","","2.8","","97","","17","","7","","","","98.50","","","","","","NA"
"2008-05-04 19:00","2008","05","04","19:00","3.3","","2.2","","92","","19","","6","","","","98.50","","","","","","NA"
"2008-05-04 20:00","2008","05","04","20:00","2.6","","2.1","","96","","35","","4","","","","98.51","","","","","","NA"
"2008-05-04 21:00","2008","05","04","21:00","2.7","","2.3","","97","","14","","4","","","","98.48","","","","","","NA"
"2008-05-04 22:00","2008","05","04","22:00","2.7","","1.9","","94","","32","","7","","","","98.49","","","","","","NA"
"2008-05-04 23:00","2008","05","04","23:00","2.8","","2.1","","95","","14","","6","","","","98.51","","","","","","NA"
"2008-05-05 00:00","2008","05","05","00:00","2.3","","1.4","","94","","35","","7","","","","98.42","","","","","","NA"
"2008-05-05 01:00","2008","05","05","01:00","2.2","","1.3","","94","","8","","6","","","","98.36","","","","","","NA"
"2008-05-05 02:00","2008","05","05","02:00","1.8","","1.6","","99","","34","","4","","","","98.39","","","","","","NA"
"2008-05-05 03:00","2008","05","05","03:00","1.6","","1.5","","99","","1","","6","","","","98.36","","","","","","NA"
"2008-05-05 04:00","2008","05","05","04:00","1.3","","1.3","","100","","35","","4","","","","98.38","","","","","","NA"
"2008-05-05 05:00","2008","05","05","05:00","0.7","","0.7","","100","","2","","7","","","","98.43","","","","","","NA"
"2008-05-05 06:00","2008","05","05","06:00","0.5","","0.5","","100","","35","","6","","","","98.48","","","","","","NA"
"2008-05-05 07:00","2008","05","05","07:00","1.1","","0.3","","94","","32","","7","","","","98.59","","","","","","NA"
"2008-05-05 08:00","2008","05","05","08:00","1.9","","0.5","","90","","28","","7","","","","98.67","","","","","","NA"
"2008-05-05 09:00","2008","05","05","09:00","2.6","","1.4","","92","","27","","9","","","","98.69","","","","","","NA"
"2008-05-05 10:00","2008","05","05","10:00","2.9","","0.9","","87","","26","","19","","","","98.70","","","","","","NA"
"2008-05-05 11:00","2008","05","05","11:00","2.7","","-0.4","","80","","25","","24","","","","98.74","","","","","","NA"
"2008-05-05 12:00","2008","05","05","12:00","2.9","","-0.2","","80","","24","","28","","","","98.76","","","","","","NA"
"2008-05-05 13:00","2008","05","05","13:00","3.1","","0.1","","81","","24","","28","","","","98.79","","","","","","NA"
"2008-05-05 14:00","2008","05","05","14:00","3.6","","0.4","","80","","25","","30","","","","98.83","","","","","","NA"
"2008-05-05 15:00","2008","05","05","15:00","3.7","","1.3","","84","","24","","32","","","","98.82","","","","","","NA"
"2008-05-05 16:00","2008","05","05","16:00","3.4","","1.0","","84","","24","","28","","","","98.83","","","","","","NA"
"2008-05-05 17:00","2008","05","05","17:00","2.9","","1.4","","90","","24","","30","","","","98.84","","","","","","NA"
"2008-05-05 18:00","2008","05","05","18:00","3.3","","2.2","","92","","24","","26","","","","98.84","","","","","","NA"
"2008-05-05 19:00","2008","05","05","19:00","3.2","","2.3","","94","","26","","13","","","","98.87","","","","","","NA"
"2008-05-05 20:00","2008","05","05","20:00","2.4","","1.8","","96","","30","","9","","","","98.91","","","","","","NA"
"2008-05-05 21:00","2008","05","05","21:00","2.3","","1.9","","97","","27","","6","","","","98.95","","","","","","NA"
"2008-05-05 22:00","2008","05","05","22:00","2.2","","2.1","","99","","22","","4","","","","98.99","","","","","","NA"
"2008-05-05 23:00","2008","05","05","23:00","1.7","","1.7","","100","","19","","7","","","","98.99","","","","","","NA"
"2008-05-06 00:00","2008","05","06","00:00","0.3","","0.3","","100","","10","","6","","","","98.98","","","","","","NA"
"2008-05-06 01:00","2008","05","06","01:00","-0.2","","-0.2","","100","","9","","7","","","","98.95","","","","-3","","NA"
"2008-05-06 02:00","2008","05","06","02:00","-0.1","","-0.1","","100","","9","","7","","","","98.92","","","","-3","","NA"
"2008-05-06 03:00","2008","05","06","03:00","-0.3","","-0.3","","100","","9","","9","","","","98.90","","","","-3","","NA"
"2008-05-06 04:00","2008","05","06","04:00","-0.3","","-0.4","","99","","10","","7","","","","98.89","","","","-3","","NA"
"2008-05-06 05:00","2008","05","06","05:00","1.2","","1.0","","99","","16","","17","","","","98.89","","","","","","NA"
"2008-05-06 06:00","2008","05","06","06:00","2.3","","0.8","","90","","17","","15","","","","98.91","","","","","","NA"
"2008-05-06 07:00","2008","05","06","07:00","3.8","","0.6","","80","","17","","20","","","","98.95","","","","","","NA"
"2008-05-06 08:00","2008","05","06","08:00","4.1","","1.1","","81","","17","","24","","","","98.99","","","","","","NA"
"2008-05-06 09:00","2008","05","06","09:00","4.1","","0.5","","77","","17","","28","","","","98.96","","","","","","NA"
"2008-05-06 10:00","2008","05","06","10:00","5.5","","0.8","","72","","17","","32","","","","98.90","","","","","","NA"
"2008-05-06 11:00","2008","05","06","11:00","5.6","","1.0","","72","","18","","28","","","","98.90","","","","","","NA"
"2008-05-06 12:00","2008","05","06","12:00","6.0","","0.9","","70","","18","","28","","","","98.83","","","","","","NA"
"2008-05-06 13:00","2008","05","06","13:00","6.3","","0.9","","68","","18","","28","","","","98.76","","","","","","NA"
"2008-05-06 14:00","2008","05","06","14:00","7.1","","0.4","","62","","19","","30","","","","98.74","","","","","","NA"
"2008-05-06 15:00","2008","05","06","15:00","7.5","","1.6","","66","","19","","17","","","","98.72","","","","","","NA"
"2008-05-06 16:00","2008","05","06","16:00","7.6","","1.2","","64","","18","","15","","","","98.69","","","","","","NA"
"2008-05-06 17:00","2008","05","06","17:00","6.7","","0.7","","66","","17","","17","","","","98.62","","","","","","NA"
"2008-05-06 18:00","2008","05","06","18:00","6.9","","1.4","","68","","17","","17","","","","98.58","","","","","","NA"
"2008-05-06 19:00","2008","05","06","19:00","7.8","","0.9","","62","","17","","17","","","","98.51","","","","","","NA"
"2008-05-06 20:00","2008","05","06","20:00","7.6","","1.2","","64","","16","","11","","","","98.48","","","","","","NA"
"2008-05-06 21:00","2008","05","06","21:00","7.0","","1.7","","69","","3","","7","","","","98.43","","","","","","NA"
"2008-05-06 22:00","2008","05","06","22:00","6.8","","2.3","","73","","5","","13","","","","98.36","","","","","","NA"
"2008-05-06 23:00","2008","05","06","23:00","6.5","","2.6","","76","","8","","11","","","","98.32","","","","","","NA"
"2008-05-07 00:00","2008","05","07","00:00","5.2","","1.6","","78","","5","","9","","","","98.24","","","","","","NA"
"2008-05-07 01:00","2008","05","07","01:00","5.8","","2.4","","79","","6","","13","","","","98.11","","","","","","NA"
"2008-05-07 02:00","2008","05","07","02:00","6.1","","3.0","","80","","8","","11","","","","98.12","","","","","","NA"
"2008-05-07 03:00","2008","05","07","03:00","5.3","","3.1","","86","","4","","15","","","","97.98","","","","","","NA"
"2008-05-07 04:00","2008","05","07","04:00","4.4","","4.0","","97","","3","","15","","","","97.93","","","","","","NA"
"2008-05-07 05:00","2008","05","07","05:00","3.7","","3.7","","100","","6","","11","","","","97.84","","","","","","NA"
"2008-05-07 06:00","2008","05","07","06:00","3.9","","3.9","","100","","4","","9","","","","97.72","","","","","","NA"
"2008-05-07 07:00","2008","05","07","07:00","4.3","","4.3","","100","","2","","11","","","","97.62","","","","","","NA"
"2008-05-07 08:00","2008","05","07","08:00","4.8","","4.8","","100","","3","","24","","","","97.52","","","","","","NA"
"2008-05-07 09:00","2008","05","07","09:00","5.5","","5.5","","100","","5","","22","","","","97.48","","","","","","NA"
"2008-05-07 10:00","2008","05","07","10:00","5.6","","5.6","","100","","3","","26","","","","97.41","","","","","","NA"
"2008-05-07 11:00","2008","05","07","11:00","5.5","","5.5","","100","","3","","20","","","","97.40","","","","","","NA"
"2008-05-07 12:00","2008","05","07","12:00","6.4","","6.4","","100","","3","","20","","","","97.39","","","","","","NA"
"2008-05-07 13:00","2008","05","07","13:00","6.3","","6.3","","100","","1","","20","","","","97.48","","","","","","NA"
"2008-05-07 14:00","2008","05","07","14:00","6.2","","6.2","","100","","1","","20","","","","97.58","","","","","","NA"
"2008-05-07 15:00","2008","05","07","15:00","5.7","","5.7","","100","","1","","26","","","","97.66","","","","","","NA"
"2008-05-07 16:00","2008","05","07","16:00","5.4","","5.1","","98","","1","","26","","","","97.81","","","","","","NA"
"2008-05-07 17:00","2008","05","07","17:00","6.2","","4.9","","91","","1","","24","","","","97.93","","","","","","NA"
"2008-05-07 18:00","2008","05","07","18:00","6.6","","4.6","","87","","1","","19","","","","98.02","","","","","","NA"
"2008-05-07 19:00","2008","05","07","19:00","6.7","","4.2","","84","","3","","11","","","","98.05","","","","","","NA"
"2008-05-07 20:00","2008","05","07","20:00","5.2","","3.9","","91","","2","","9","","","","98.14","","","","","","NA"
"2008-05-07 21:00","2008","05","07","21:00","4.0","","3.6","","97","","1","","7","","","","98.21","","","","","","NA"
"2008-05-07 22:00","2008","05","07","22:00","3.9","","3.7","","99","","5","","13","","","","98.24","","","","","","NA"
"2008-05-07 23:00","2008","05","07","23:00","3.9","","3.9","","100","","6","","13","","","","98.32","","","","","","NA"
"2008-05-08 00:00","2008","05","08","00:00","3.4","","3.4","","100","","2","","7","","","","98.39","","","","","","NA"
"2008-05-08 01:00","2008","05","08","01:00","3.2","","3.2","","100","","35","","6","","","","98.41","","","","","","NA"
"2008-05-08 02:00","2008","05","08","02:00","2.9","","2.9","","100","","7","","4","","","","98.41","","","","","","NA"
"2008-05-08 03:00","2008","05","08","03:00","3.0","","3.0","","100","","","","0","","","","98.48","","","","","","NA"
"2008-05-08 04:00","2008","05","08","04:00","2.8","","2.8","","100","","5","","4","","","","98.51","","","","","","NA"
"2008-05-08 05:00","2008","05","08","05:00","2.0","","2.0","","100","","7","","4","","","","98.56","","","","","","NA"
"2008-05-08 06:00","2008","05","08","06:00","1.4","","1.4","","100","","7","","6","","","","98.61","","","","","","NA"
"2008-05-08 07:00","2008","05","08","07:00","3.5","","3.5","","100","","2","","6","","","","98.66","","","","","","NA"
"2008-05-08 08:00","2008","05","08","08:00","5.3","","2.4","","82","","3","","9","","","","98.72","","","","","","NA"
"2008-05-08 09:00","2008","05","08","09:00","7.3","","1.7","","68","","6","","4","","","","98.74","","","","","","NA"
"2008-05-08 10:00","2008","05","08","10:00","5.7","","1.8","","76","","30","","11","","","","98.72","","","","","","NA"
"2008-05-08 11:00","2008","05","08","11:00","6.3","","0.9","","68","","28","","15","","","","98.75","","","","","","NA"
"2008-05-08 12:00","2008","05","08","12:00","6.3","","1.3","","70","","26","","20","","","","98.72","","","","","","NA"
"2008-05-08 13:00","2008","05","08","13:00","5.5","","1.8","","77","","26","","17","","","","98.69","","","","","","NA"
"2008-05-08 14:00","2008","05","08","14:00","6.2","","2.5","","77","","25","","13","","","","98.71","","","","","","NA"
"2008-05-08 15:00","2008","05","08","15:00","6.0","","0.7","","69","","26","","19","","","","98.71","","","","","","NA"
"2008-05-08 16:00","2008","05","08","16:00","5.5","","1.8","","77","","26","","15","","","","98.71","","","","","","NA"
"2008-05-08 17:00","2008","05","08","17:00","6.3","","0.0","","64","","26","","9","","","","98.67","","","","","","NA"
"2008-05-08 18:00","2008","05","08","18:00","5.7","","0.5","","69","","25","","6","","","","98.66","","","","","","NA"
"2008-05-08 19:00","2008","05","08","19:00","4.5","","0.2","","74","","24","","2","","","","98.66","","","","","","NA"
"2008-05-08 20:00","2008","05","08","20:00","4.1","","0.6","","78","","20","","2","","","","98.68","","","","","","NA"
"2008-05-08 21:00","2008","05","08","21:00","2.2","","0.9","","91","","24","","2","","","","98.72","","","","","","NA"
"2008-05-08 22:00","2008","05","08","22:00","0.9","","0.9","","100","","9","","2","","","","98.74","","","","","","NA"
"2008-05-08 23:00","2008","05","08","23:00","-0.1","","-0.1","","100","","8","","6","","","","98.73","","","","-2","","NA"
"2008-05-09 00:00","2008","05","09","00:00","-0.5","","-0.5","","100","","7","","6","","","","98.74","","","","-3","","NA"
"2008-05-09 01:00","2008","05","09","01:00","-0.7","","-0.7","","100","","8","","9","","","","98.71","","","","-4","","NA"
"2008-05-09 02:00","2008","05","09","02:00","-0.8","","-0.8","","100","","7","","7","","","","98.71","","","","-3","","NA"
"2008-05-09 03:00","2008","05","09","03:00","-0.9","","-0.9","","100","","7","","9","","","","98.69","","","","-4","","NA"
"2008-05-09 04:00","2008","05","09","04:00","-0.8","","-0.8","","100","","7","","9","","","","98.68","","","","-4","","NA"
"2008-05-09 05:00","2008","05","09","05:00","-1.4","","-1.4","","100","","6","","9","","","","98.65","","","","-5","","NA"
"2008-05-09 06:00","2008","05","09","06:00","-0.9","","-0.9","","100","","5","","7","","","","98.68","","","","-3","","NA"
"2008-05-09 07:00","2008","05","09","07:00","1.1","","1.1","","100","","7","","7","","","","98.71","","","","","","NA"
"2008-05-09 08:00","2008","05","09","08:00","4.6","","3.5","","93","","8","","6","","","","98.68","","","","","","NA"
"2008-05-09 09:00","2008","05","09","09:00","5.7","","3.0","","83","","31","","4","","","","98.68","","","","","","NA"
"2008-05-09 10:00","2008","05","09","10:00","3.1","","2.6","","97","","26","","13","","","","98.72","","","","","","NA"
"2008-05-09 11:00","2008","05","09","11:00","3.7","","2.5","","92","","26","","11","","","","98.76","","","","","","NA"
"2008-05-09 12:00","2008","05","09","12:00","3.5","","2.8","","95","","25","","9","","","","98.77","","","","","","NA"
"2008-05-09 13:00","2008","05","09","13:00","4.4","","3.4","","93","","22","","6","","","","98.74","","","","","","NA"
"2008-05-09 14:00","2008","05","09","14:00","4.9","","3.3","","89","","21","","7","","","","98.72","","","","","","NA"
"2008-05-09 15:00","2008","05","09","15:00","5.5","","3.5","","87","","21","","7","","","","98.68","","","","","","NA"
"2008-05-09 16:00","2008","05","09","16:00","5.1","","3.3","","88","","21","","7","","","","98.67","","","","","","NA"
"2008-05-09 17:00","2008","05","09","17:00","4.0","","3.3","","95","","23","","6","","","","98.67","","","","","","NA"
"2008-05-09 18:00","2008","05","09","18:00","4.6","","3.1","","90","","23","","4","","","","98.66","","","","","","NA"
"2008-05-09 19:00","2008","05","09","19:00","4.3","","2.5","","88","","22","","4","","","","98.67","","","","","","NA"
"2008-05-09 20:00","2008","05","09","20:00","3.4","","2.2","","92","","24","","6","","","","98.72","","","","","","NA"
"2008-05-09 21:00","2008","05","09","21:00","2.5","","2.0","","96","","16","","4","","","","98.75","","","","","","NA"
"2008-05-09 22:00","2008","05","09","22:00","1.0","","1.0","","100","","14","","4","","","","98.78","","","","","","NA"
"2008-05-09 23:00","2008","05","09","23:00","0.1","","0.1","","100","","8","","7","","","","98.80","","","","","","NA"
"2008-05-10 00:00","2008","05","10","00:00","-0.2","","-0.2","","100","","7","","9","","","","98.80","","","","-3","","NA"
"2008-05-10 01:00","2008","05","10","01:00","-0.6","","-0.6","","100","","7","","9","","","","98.78","","","","-4","","NA"
"2008-05-10 02:00","2008","05","10","02:00","-1.0","","-1.0","","100","","5","","4","","","","98.80","","","","-2","","NA"
"2008-05-10 03:00","2008","05","10","03:00","-1.1","","-1.1","","100","","8","","7","","","","98.78","","","","-4","","NA"
"2008-05-10 04:00","2008","05","10","04:00","-1.2","","-1.2","","100","","7","","9","","","","98.78","","","","-4","","NA"
"2008-05-10 05:00","2008","05","10","05:00","-1.0","","-1.6","","96","","5","","11","","","","98.80","","","","-5","","NA"
"2008-05-10 06:00","2008","05","10","06:00","-1.0","","-1.6","","96","","6","","9","","","","98.83","","","","-4","","NA"
"2008-05-10 07:00","2008","05","10","07:00","1.9","","-0.5","","84","","5","","6","","","","98.86","","","","","","NA"
"2008-05-10 08:00","2008","05","10","08:00","5.3","","0.0","","69","","9","","4","","","","98.88","","","","","","NA"
"2008-05-10 09:00","2008","05","10","09:00","4.9","","-0.9","","66","","23","","7","","","","98.87","","","","","","NA"
"2008-05-10 10:00","2008","05","10","10:00","4.9","","-1.9","","61","","23","","7","","","","98.88","","","","","","NA"
"2008-05-10 11:00","2008","05","10","11:00","5.5","","0.1","","68","","24","","7","","","","98.90","","","","","","NA"
"2008-05-10 12:00","2008","05","10","12:00","5.8","","0.6","","69","","22","","9","","","","98.89","","","","","","NA"
"2008-05-10 13:00","2008","05","10","13:00","7.7","","0.7","","61","","18","","15","","","","98.88","","","","","","NA"
"2008-05-10 14:00","2008","05","10","14:00","8.2","","-0.6","","54","","19","","7","","","","98.81","","","","","","NA"
"2008-05-10 15:00","2008","05","10","15:00","7.5","","-1.6","","52","","21","","9","","","","98.73","","","","","","NA"
"2008-05-10 16:00","2008","05","10","16:00","5.3","","-0.3","","67","","21","","19","","","","98.72","","","","","","NA"
"2008-05-10 17:00","2008","05","10","17:00","5.2","","-1.0","","64","","23","","9","","","","98.71","","","","","","NA"
"2008-05-10 18:00","2008","05","10","18:00","5.9","","-2.1","","56","","23","","6","","","","98.69","","","","","","NA"
"2008-05-10 19:00","2008","05","10","19:00","5.6","","-4.0","","50","","17","","4","","","","98.66","","","","","","NA"
"2008-05-10 20:00","2008","05","10","20:00","5.4","","-4.3","","50","","4","","2","","","","98.66","","","","","","NA"
"2008-05-10 21:00","2008","05","10","21:00","4.2","","0.5","","77","","7","","7","","","","98.62","","","","","","NA"
"2008-05-10 22:00","2008","05","10","22:00","3.6","","-0.4","","75","","7","","11","","","","98.56","","","","","","NA"
"2008-05-10 23:00","2008","05","10","23:00","4.2","","-1.3","","67","","7","","9","","","","98.54","","","","","","NA"
"2008-05-11 00:00","2008","05","11","00:00","4.6","","-1.4","","65","","1","","6","","","","98.46","","","","","","NA"
"2008-05-11 01:00","2008","05","11","01:00","4.2","","-1.0","","69","","8","","2","","","","98.42","","","","","","NA"
"2008-05-11 02:00","2008","05","11","02:00","3.8","","-1.2","","70","","4","","7","","","","98.28","","","","","","NA"
"2008-05-11 03:00","2008","05","11","03:00","4.0","","-1.0","","70","","4","","9","","","","98.25","","","","","","NA"
"2008-05-11 04:00","2008","05","11","04:00","4.3","","-0.7","","70","","5","","11","","","","98.22","","","","","","NA"
"2008-05-11 05:00","2008","05","11","05:00","4.6","","-0.3","","70","","6","","17","","","","98.24","","","","","","NA"
"2008-05-11 06:00","2008","05","11","06:00","4.6","","0.2","","73","","7","","15","","","","98.20","","","","","","NA"
"2008-05-11 07:00","2008","05","11","07:00","5.1","","0.8","","74","","7","","17","","","","98.20","","","","","","NA"
"2008-05-11 08:00","2008","05","11","08:00","6.0","","1.0","","70","","5","","20","","","","98.20","","","","","","NA"
"2008-05-11 09:00","2008","05","11","09:00","6.4","","1.7","","72","","5","","19","","","","98.20","","","","","","NA"
"2008-05-11 10:00","2008","05","11","10:00","6.3","","2.6","","77","","5","","19","","","","98.18","","","","","","NA"
"2008-05-11 11:00","2008","05","11","11:00","5.3","","4.4","","94","","4","","22","","","","98.14","","","","","","NA"
"2008-05-11 12:00","2008","05","11","12:00","4.6","","4.6","","100","","4","","20","","","","98.16","","","","","","NA"
"2008-05-11 13:00","2008","05","11","13:00","3.9","","3.9","","100","","3","","17","","","","98.20","","","","","","NA"
"2008-05-11 14:00","2008","05","11","14:00","4.1","","4.1","","100","","3","","15","","","","98.21","","","","","","NA"
"2008-05-11 15:00","2008","05","11","15:00","4.5","","4.5","","100","","3","","19","","","","98.21","","","","","","NA"
"2008-05-11 16:00","2008","05","11","16:00","4.3","","4.3","","100","","4","","15","","","","98.23","","","","","","NA"
"2008-05-11 17:00","2008","05","11","17:00","3.4","","3.4","","100","","4","","26","","","","98.25","","","","","","NA"
"2008-05-11 18:00","2008","05","11","18:00","2.3","","2.3","","100","","4","","26","","","","98.31","","","","","","NA"
"2008-05-11 19:00","2008","05","11","19:00","2.1","","2.1","","100","","4","","20","","","","98.37","","","","","","NA"
"2008-05-11 20:00","2008","05","11","20:00","2.2","","2.2","","100","","3","","20","","","","98.41","","","","","","NA"
"2008-05-11 21:00","2008","05","11","21:00","2.1","","2.1","","100","","4","","22","","","","98.47","","","","","","NA"
"2008-05-11 22:00","2008","05","11","22:00","2.3","","2.3","","100","","4","","19","","","","98.50","","","","","","NA"
"2008-05-11 23:00","2008","05","11","23:00","2.2","","2.2","","100","","3","","13","","","","98.55","","","","","","NA"
"2008-05-12 00:00","2008","05","12","00:00","2.1","","2.1","","100","","3","","15","","","","98.58","","","","","","NA"
"2008-05-12 01:00","2008","05","12","01:00","1.9","","1.9","","100","","1","","7","","","","98.60","","","","","","NA"
"2008-05-12 02:00","2008","05","12","02:00","1.9","","1.9","","100","","3","","15","","","","98.63","","","","","","NA"
"2008-05-12 03:00","2008","05","12","03:00","1.8","","1.8","","100","","5","","19","","","","98.66","","","","","","NA"
"2008-05-12 04:00","2008","05","12","04:00","1.6","","1.6","","100","","1","","6","","","","98.76","","","","","","NA"
"2008-05-12 05:00","2008","05","12","05:00","1.9","","1.9","","100","","4","","17","","","","98.73","","","","","","NA"
"2008-05-12 06:00","2008","05","12","06:00","1.9","","1.9","","100","","3","","9","","","","98.82","","","","","","NA"
"2008-05-12 07:00","2008","05","12","07:00","2.9","","2.8","","99","","4","","13","","","","98.93","","","","","","NA"
"2008-05-12 08:00","2008","05","12","08:00","4.1","","3.1","","93","","5","","19","","","","98.97","","","","","","NA"
"2008-05-12 09:00","2008","05","12","09:00","6.0","","2.6","","79","","6","","15","","","","98.99","","","","","","NA"
"2008-05-12 10:00","2008","05","12","10:00","7.2","","2.4","","72","","6","","20","","","","99.03","","","","","","NA"
"2008-05-12 11:00","2008","05","12","11:00","8.8","","2.7","","66","","6","","17","","","","98.99","","","","","","NA"
"2008-05-12 12:00","2008","05","12","12:00","8.6","","3.2","","69","","2","","9","","","","99.05","","","","","","NA"
"2008-05-12 13:00","2008","05","12","13:00","9.0","","3.0","","66","","1","","15","","","","99.05","","","","","","NA"
"2008-05-12 14:00","2008","05","12","14:00","9.9","","3.3","","63","","7","","17","","","","99.02","","","","","","NA"
"2008-05-12 15:00","2008","05","12","15:00","10.7","","2.7","","58","","10","","15","","","","99.00","","","","","","NA"
"2008-05-12 16:00","2008","05","12","16:00","11.1","","3.4","","59","","8","","11","","","","99.01","","","","","","NA"
"2008-05-12 17:00","2008","05","12","17:00","11.2","","3.4","","59","","8","","6","","","","99.04","","","","","","NA"
"2008-05-12 18:00","2008","05","12","18:00","10.0","","3.1","","62","","8","","11","","","","99.08","","","","","","NA"
"2008-05-12 19:00","2008","05","12","19:00","5.3","","3.0","","85","","31","","7","","","","99.15","","","","","","NA"
"2008-05-12 20:00","2008","05","12","20:00","6.6","","3.8","","82","","10","","6","","","","99.13","","","","","","NA"
"2008-05-12 21:00","2008","05","12","21:00","7.2","","3.7","","78","","9","","13","","","","99.17","","","","","","NA"
"2008-05-12 22:00","2008","05","12","22:00","6.4","","3.8","","83","","8","","15","","","","99.19","","","","","","NA"
"2008-05-12 23:00","2008","05","12","23:00","6.1","","3.8","","85","","9","","20","","","","99.17","","","","","","NA"
"2008-05-13 00:00","2008","05","13","00:00","6.0","","3.9","","86","","9","","22","","","","99.18","","","","","","NA"
"2008-05-13 01:00","2008","05","13","01:00","5.7","","4.0","","89","","8","","19","","","","99.20","","","","","","NA"
"2008-05-13 02:00","2008","05","13","02:00","5.5","","4.1","","91","","7","","13","","","","99.20","","","","","","NA"
"2008-05-13 03:00","2008","05","13","03:00","5.4","","4.0","","91","","6","","9","","","","99.24","","","","","","NA"
"2008-05-13 04:00","2008","05","13","04:00","5.0","","4.1","","94","","7","","11","","","","99.19","","","","","","NA"
"2008-05-13 05:00","2008","05","13","05:00","5.1","","4.1","","93","","7","","15","","","","99.16","","","","","","NA"
"2008-05-13 06:00","2008","05","13","06:00","5.6","","4.3","","91","","9","","19","","","","99.15","","","","","","NA"
"2008-05-13 07:00","2008","05","13","07:00","6.5","","4.7","","88","","9","","13","","","","99.14","","","","","","NA"
"2008-05-13 08:00","2008","05","13","08:00","8.4","","5.5","","82","","9","","11","","","","99.06","","","","","","NA"
"2008-05-13 09:00","2008","05","13","09:00","11.7","","6.1","","68","","15","","7","","","","98.97","","","","","","NA"
"2008-05-13 10:00","2008","05","13","10:00","10.6","","6.0","","73","","20","","13","","","","98.90","","","","","","NA"
"2008-05-13 11:00","2008","05","13","11:00","9.4","","6.4","","82","","18","","22","","","","98.80","","","","","","NA"
"2008-05-13 12:00","2008","05","13","12:00","10.4","","4.3","","66","","17","","35","","","","98.72","","","","","","NA"
"2008-05-13 13:00","2008","05","13","13:00","12.9","","6.2","","64","","16","","44","","","","98.56","","","","","","NA"
"2008-05-13 14:00","2008","05","13","14:00","12.5","","6.0","","65","","17","","41","","","","98.42","","","","","","NA"
"2008-05-13 15:00","2008","05","13","15:00","11.7","","5.9","","68","","17","","44","","","","98.34","","","","","","NA"
"2008-05-13 16:00","2008","05","13","16:00","12.5","","6.8","","68","","17","","52","","","","98.24","","","","","","NA"
"2008-05-13 17:00","2008","05","13","17:00","12.9","","6.0","","63","","17","","52","","","","98.09","","","","","","NA"
"2008-05-13 18:00","2008","05","13","18:00","10.6","","6.0","","73","","17","","43","","","","98.11","","","","","","NA"
"2008-05-13 19:00","2008","05","13","19:00","9.4","","7.0","","85","","17","","56","","","","98.09","","","","","","NA"
"2008-05-13 20:00","2008","05","13","20:00","12.5","","8.6","","77","","16","","28","","","","98.03","","","","","","NA"
"2008-05-13 21:00","2008","05","13","21:00","10.0","","7.0","","82","","17","","35","","","","98.06","","","","","","NA"
"2008-05-13 22:00","2008","05","13","22:00","8.5","","7.5","","93","","18","","43","","","","98.07","","","","","","NA"
"2008-05-13 23:00","2008","05","13","23:00","6.1","","6.1","","100","","16","","37","","","","98.00","","","","","","NA"
"2008-05-14 00:00","2008","05","14","00:00","6.0","","6.0","","100","","16","","32","","","","97.92","","","","","","NA"
"2008-05-14 01:00","2008","05","14","01:00","5.5","","5.5","","100","","17","","30","","","","97.87","","","","","","NA"
"2008-05-14 02:00","2008","05","14","02:00","4.8","","4.8","","100","","16","","22","","","","97.82","","","","","","NA"
"2008-05-14 03:00","2008","05","14","03:00","4.9","","4.9","","100","","19","","19","","","","97.80","","","","","","NA"
"2008-05-14 04:00","2008","05","14","04:00","4.2","","4.2","","100","","18","","17","","","","97.75","","","","","","NA"
"2008-05-14 05:00","2008","05","14","05:00","3.7","","3.7","","100","","17","","13","","","","97.76","","","","","","NA"
"2008-05-14 06:00","2008","05","14","06:00","3.4","","3.4","","100","","19","","9","","","","97.82","","","","","","NA"
"2008-05-14 07:00","2008","05","14","07:00","2.9","","2.9","","100","","21","","6","","","","97.89","","","","","","NA"
"2008-05-14 08:00","2008","05","14","08:00","3.4","","3.4","","100","","28","","4","","","","97.97","","","","","","NA"
"2008-05-14 09:00","2008","05","14","09:00","3.9","","3.9","","100","","32","","15","","","","98.03","","","","","","NA"
"2008-05-14 10:00","2008","05","14","10:00","4.3","","4.3","","100","","30","","13","","","","98.11","","","","","","NA"
"2008-05-14 11:00","2008","05","14","11:00","5.1","","4.5","","96","","32","","15","","","","98.18","","","","","","NA"
"2008-05-14 12:00","2008","05","14","12:00","6.4","","4.4","","87","","32","","17","","","","98.25","","","","","","NA"
"2008-05-14 13:00","2008","05","14","13:00","5.7","","4.1","","89","","27","","9","","","","98.29","","","","","","NA"
"2008-05-14 14:00","2008","05","14","14:00","5.6","","4.1","","90","","25","","11","","","","98.35","","","","","","NA"
"2008-05-14 15:00","2008","05","14","15:00","6.2","","3.6","","83","","26","","17","","","","98.40","","","","","","NA"
"2008-05-14 16:00","2008","05","14","16:00","6.6","","3.4","","80","","29","","13","","","","98.48","","","","","","NA"
"2008-05-14 17:00","2008","05","14","17:00","7.7","","3.2","","73","","30","","13","","","","98.55","","","","","","NA"
"2008-05-14 18:00","2008","05","14","18:00","7.5","","2.9","","73","","29","","15","","","","98.63","","","","","","NA"
"2008-05-14 19:00","2008","05","14","19:00","9.1","","3.4","","67","","33","","11","","","","98.71","","","","","","NA"
"2008-05-14 20:00","2008","05","14","20:00","8.7","","3.2","","68","","33","","13","","","","98.81","","","","","","NA"
"2008-05-14 21:00","2008","05","14","21:00","7.1","","2.8","","74","","34","","9","","","","98.92","","","","","","NA"
"2008-05-14 22:00","2008","05","14","22:00","4.9","","3.1","","88","","8","","2","","","","98.95","","","","","","NA"
"2008-05-14 23:00","2008","05","14","23:00","2.9","","2.5","","97","","12","","4","","","","98.97","","","","","","NA"
"2008-05-15 00:00","2008","05","15","00:00","2.0","","2.0","","100","","10","","4","","","","99.02","","","","","","NA"
"2008-05-15 01:00","2008","05","15","01:00","2.3","","2.3","","100","","13","","6","","","","99.05","","","","","","NA"
"2008-05-15 02:00","2008","05","15","02:00","2.1","","2.1","","100","","15","","9","","","","99.10","","","","","","NA"
"2008-05-15 03:00","2008","05","15","03:00","0.8","","0.8","","100","","10","","7","","","","99.12","","","","","","NA"
"2008-05-15 04:00","2008","05","15","04:00","0.2","","0.2","","100","","7","","9","","","","99.16","","","","","","NA"
"2008-05-15 05:00","2008","05","15","05:00","0.1","","0.1","","100","","7","","11","","","","99.20","","","","","","NA"
"2008-05-15 06:00","2008","05","15","06:00","1.4","","1.4","","100","","10","","6","","","","99.23","","","","","","NA"
"2008-05-15 07:00","2008","05","15","07:00","2.6","","1.9","","95","","23","","6","","","","99.32","","","","","","NA"
"2008-05-15 08:00","2008","05","15","08:00","5.2","","3.4","","88","","16","","15","","","","99.29","","","","","","NA"
"2008-05-15 09:00","2008","05","15","09:00","6.2","","3.5","","83","","17","","19","","","","99.29","","","","","","NA"
"2008-05-15 10:00","2008","05","15","10:00","7.1","","3.5","","78","","17","","17","","","","99.26","","","","","","NA"
"2008-05-15 11:00","2008","05","15","11:00","7.5","","3.0","","73","","18","","20","","","","99.23","","","","","","NA"
"2008-05-15 12:00","2008","05","15","12:00","8.1","","2.9","","70","","18","","17","","","","99.20","","","","","","NA"
"2008-05-15 13:00","2008","05","15","13:00","8.3","","1.9","","64","","18","","22","","","","99.14","","","","","","NA"
"2008-05-15 14:00","2008","05","15","14:00","8.9","","2.4","","64","","17","","19","","","","99.10","","","","","","NA"
"2008-05-15 15:00","2008","05","15","15:00","9.0","","3.0","","66","","17","","17","","","","99.04","","","","","","NA"
"2008-05-15 16:00","2008","05","15","16:00","8.4","","3.4","","71","","18","","22","","","","98.94","","","","","","NA"
"2008-05-15 17:00","2008","05","15","17:00","7.7","","3.0","","72","","18","","26","","","","98.85","","","","","","NA"
"2008-05-15 18:00","2008","05","15","18:00","7.8","","3.1","","72","","17","","30","","","","98.71","","","","","","NA"
"2008-05-15 19:00","2008","05","15","19:00","6.9","","2.7","","75","","17","","22","","","","98.65","","","","","","NA"
"2008-05-15 20:00","2008","05","15","20:00","6.5","","2.8","","77","","17","","30","","","","98.58","","","","","","NA"
"2008-05-15 21:00","2008","05","15","21:00","7.1","","3.2","","76","","17","","32","","","","98.55","","","","","","NA"
"2008-05-15 22:00","2008","05","15","22:00","6.8","","3.5","","79","","29","","13","","","","98.59","","","","","","NA"
"2008-05-15 23:00","2008","05","15","23:00","7.2","","4.6","","84","","8","","7","","","","98.52","","","","","","NA"
"2008-05-16 00:00","2008","05","16","00:00","7.0","","5.2","","88","","4","","6","","","","98.51","","","","","","NA"
"2008-05-16 01:00","2008","05","16","01:00","6.6","","6.5","","99","","7","","4","","","","98.47","","","","","","NA"
"2008-05-16 02:00","2008","05","16","02:00","4.0","","4.0","","100","","21","","4","","","","98.49","","","","","","NA"
"2008-05-16 03:00","2008","05","16","03:00","5.3","","5.3","","100","","4","","7","","","","98.41","","","","","","NA"
"2008-05-16 04:00","2008","05","16","04:00","4.3","","4.3","","100","","32","","6","","","","98.40","","","","","","NA"
"2008-05-16 05:00","2008","05","16","05:00","5.0","","5.0","","100","","4","","6","","","","98.41","","","","","","NA"
"2008-05-16 06:00","2008","05","16","06:00","5.6","","5.6","","100","","36","","9","","","","98.46","","","","","","NA"
"2008-05-16 07:00","2008","05","16","07:00","5.4","","5.4","","100","","3","","9","","","","98.44","","","","","","NA"
"2008-05-16 08:00","2008","05","16","08:00","6.7","","4.9","","88","","4","","13","","","","98.43","","","","","","NA"
"2008-05-16 09:00","2008","05","16","09:00","7.2","","4.0","","80","","6","","13","","","","98.40","","","","","","NA"
"2008-05-16 10:00","2008","05","16","10:00","8.7","","3.9","","72","","1","","6","","","","98.36","","","","","","NA"
"2008-05-16 11:00","2008","05","16","11:00","7.5","","2.9","","73","","26","","15","","","","98.33","","","","","","NA"
"2008-05-16 12:00","2008","05","16","12:00","5.2","","3.8","","91","","25","","19","","","","98.26","","","","","","NA"
"2008-05-16 13:00","2008","05","16","13:00","5.6","","3.5","","86","","26","","19","","","","98.18","","","","","","NA"
"2008-05-16 14:00","2008","05","16","14:00","6.0","","4.1","","88","","26","","19","","","","98.10","","","","","","NA"
"2008-05-16 15:00","2008","05","16","15:00","5.7","","2.7","","81","","25","","9","","","","98.01","","","","","","NA"
"2008-05-16 16:00","2008","05","16","16:00","5.6","","2.7","","82","","20","","6","","","","97.97","","","","","","NA"
"2008-05-16 17:00","2008","05","16","17:00","4.8","","2.5","","85","","20","","13","","","","97.89","","","","","","NA"
"2008-05-16 18:00","2008","05","16","18:00","5.3","","2.6","","83","","21","","7","","","","97.76","","","","","","NA"
"2008-05-16 19:00","2008","05","16","19:00","5.7","","5.4","","98","","13","","11","","","","97.58","","","","","","NA"
"2008-05-16 20:00","2008","05","16","20:00","5.2","","4.2","","93","","17","","13","","","","97.51","","","","","","NA"
"2008-05-16 21:00","2008","05","16","21:00","4.6","","4.3","","98","","16","","13","","","","97.43","","","","","","NA"
"2008-05-16 22:00","2008","05","16","22:00","5.1","","3.5","","89","","21","","15","","","","97.41","","","","","","NA"
"2008-05-16 23:00","2008","05","16","23:00","3.9","","3.7","","99","","27","","15","","","","97.39","","","","","","NA"
"2008-05-17 00:00","2008","05","17","00:00","3.3","","3.3","","100","","19","","7","","","","97.28","","","","","","NA"
"2008-05-17 01:00","2008","05","17","01:00","3.6","","3.6","","100","","20","","4","","","","97.18","","","","","","NA"
"2008-05-17 02:00","2008","05","17","02:00","3.4","","3.4","","100","","26","","7","","","","97.13","","","","","","NA"
"2008-05-17 03:00","2008","05","17","03:00","2.7","","2.7","","100","","29","","7","","","","97.12","","","","","","NA"
"2008-05-17 04:00","2008","05","17","04:00","2.2","","2.2","","100","","29","","11","","","","97.11","","","","","","NA"
"2008-05-17 05:00","2008","05","17","05:00","2.5","","2.5","","100","","31","","7","","","","97.11","","","","","","NA"
"2008-05-17 06:00","2008","05","17","06:00","2.9","","2.9","","100","","30","","6","","","","97.14","","","","","","NA"
"2008-05-17 07:00","2008","05","17","07:00","4.1","","4.1","","100","","29","","9","","","","97.10","","","","","","NA"
"2008-05-17 08:00","2008","05","17","08:00","4.1","","4.0","","99","","27","","7","","","","97.07","","","","","","NA"
"2008-05-17 09:00","2008","05","17","09:00","4.5","","4.4","","99","","24","","6","","","","97.01","","","","","","NA"
"2008-05-17 10:00","2008","05","17","10:00","5.8","","5.1","","95","","29","","4","","","","96.98","","","","","","NA"
"2008-05-17 11:00","2008","05","17","11:00","5.8","","4.5","","91","","28","","32","","","","96.94","","","","","","NA"
"2008-05-17 12:00","2008","05","17","12:00","7.1","","4.8","","85","","27","","19","","","","96.93","","","","","","NA"
"2008-05-17 13:00","2008","05","17","13:00","6.8","","5.2","","90","","26","","22","","","","96.94","","","","","","NA"
"2008-05-17 14:00","2008","05","17","14:00","6.6","","4.8","","88","","26","","32","","","","96.91","","","","","","NA"
"2008-05-17 15:00","2008","05","17","15:00","6.7","","4.5","","86","","28","","24","","","","96.94","","","","","","NA"
"2008-05-17 16:00","2008","05","17","16:00","7.1","","4.6","","84","","30","","13","","","","97.00","","","","","","NA"
"2008-05-17 17:00","2008","05","17","17:00","8.8","","4.5","","74","","32","","19","","","","97.05","","","","","","NA"
"2008-05-17 18:00","2008","05","17","18:00","8.4","","4.8","","78","","32","","19","","","","97.10","","","","","","NA"
"2008-05-17 19:00","2008","05","17","19:00","7.6","","4.4","","80","","32","","20","","","","97.16","","","","","","NA"
"2008-05-17 20:00","2008","05","17","20:00","6.9","","4.3","","83","","2","","20","","","","97.27","","","","","","NA"
"2008-05-17 21:00","2008","05","17","21:00","5.3","","3.4","","88","","2","","13","","","","97.36","","","","","","NA"
"2008-05-17 22:00","2008","05","17","22:00","4.9","","2.7","","86","","1","","15","","","","97.42","","","","","","NA"
"2008-05-17 23:00","2008","05","17","23:00","4.3","","1.9","","84","","2","","19","","","","97.42","","","","","","NA"
"2008-05-18 00:00","2008","05","18","00:00","4.0","","2.1","","87","","1","","17","","","","97.44","","","","","","NA"
"2008-05-18 01:00","2008","05","18","01:00","3.5","","1.5","","87","","1","","15","","","","97.45","","","","","","NA"
"2008-05-18 02:00","2008","05","18","02:00","3.0","","1.7","","91","","36","","11","","","","97.43","","","","","","NA"
"2008-05-18 03:00","2008","05","18","03:00","2.2","","2.2","","100","","36","","11","","","","97.43","","","","","","NA"
"2008-05-18 04:00","2008","05","18","04:00","1.9","","1.9","","100","","1","","15","","","","97.45","","","","","","NA"
"2008-05-18 05:00","2008","05","18","05:00","1.8","","1.8","","100","","36","","11","","","","97.48","","","","","","NA"
"2008-05-18 06:00","2008","05","18","06:00","1.6","","1.6","","100","","36","","7","","","","97.52","","","","","","NA"
"2008-05-18 07:00","2008","05","18","07:00","1.9","","0.9","","93","","35","","19","","","","97.55","","","","","","NA"
"2008-05-18 08:00","2008","05","18","08:00","1.8","","-1.1","","81","","1","","22","","","","97.57","","","","","","NA"
"2008-05-18 09:00","2008","05","18","09:00","2.9","","-0.9","","76","","36","","15","","","","97.56","","","","","","NA"
"2008-05-18 10:00","2008","05","18","10:00","3.8","","-0.9","","71","","34","","17","","","","97.53","","","","","","NA"
"2008-05-18 11:00","2008","05","18","11:00","5.1","","-0.9","","65","","35","","13","","","","97.53","","","","","","NA"
"2008-05-18 12:00","2008","05","18","12:00","4.3","","-1.0","","68","","36","","15","","","","97.54","","","","","","NA"
"2008-05-18 13:00","2008","05","18","13:00","5.8","","0.9","","71","","34","","13","","","","97.52","","","","","","NA"
"2008-05-18 14:00","2008","05","18","14:00","6.6","","0.6","","65","","36","","15","","","","97.50","","","","","","NA"
"2008-05-18 15:00","2008","05","18","15:00","4.0","","1.6","","84","","25","","20","","","","97.47","","","","","","NA"
"2008-05-18 16:00","2008","05","18","16:00","5.3","","2.1","","80","","36","","7","","","","97.52","","","","","","NA"
"2008-05-18 17:00","2008","05","18","17:00","8.3","","0.0","","56","","36","","11","","","","97.49","","","","","","NA"
"2008-05-18 18:00","2008","05","18","18:00","8.0","","-1.9","","50","","36","","19","","","","97.52","","","","","","NA"
"2008-05-18 19:00","2008","05","18","19:00","7.7","","-1.5","","52","","36","","19","","","","97.56","","","","","","NA"
"2008-05-18 20:00","2008","05","18","20:00","6.9","","-1.4","","55","","35","","19","","","","97.58","","","","","","NA"
"2008-05-18 21:00","2008","05","18","21:00","6.4","","-0.9","","60","","35","","15","","","","97.62","","","","","","NA"
"2008-05-18 22:00","2008","05","18","22:00","5.8","","-0.5","","64","","36","","9","","","","97.64","","","","","","NA"
"2008-05-18 23:00","2008","05","18","23:00","5.5","","-0.1","","67","","36","","17","","","","97.64","","","","","","NA"
"2008-05-19 00:00","2008","05","19","00:00","4.7","","0.4","","74","","1","","15","","","","97.65","","","","","","NA"
"2008-05-19 01:00","2008","05","19","01:00","4.4","","0.5","","76","","34","","15","","","","97.63","","","","","","NA"
"2008-05-19 02:00","2008","05","19","02:00","4.2","","0.1","","75","","34","","9","","","","97.57","","","","","","NA"
"2008-05-19 03:00","2008","05","19","03:00","3.8","","-0.4","","74","","34","","9","","","","97.55","","","","","","NA"
"2008-05-19 04:00","2008","05","19","04:00","3.0","","0.2","","82","","34","","7","","","","97.56","","","","","","NA"
"2008-05-19 05:00","2008","05","19","05:00","2.1","","0.3","","88","","35","","6","","","","97.58","","","","","","NA"
"2008-05-19 06:00","2008","05","19","06:00","3.4","","0.4","","81","","33","","13","","","","97.64","","","","","","NA"
"2008-05-19 07:00","2008","05","19","07:00","4.3","","0.3","","75","","33","","15","","","","97.66","","","","","","NA"
"2008-05-19 08:00","2008","05","19","08:00","6.3","","-1.4","","58","","34","","11","","","","97.68","","","","","","NA"
"2008-05-19 09:00","2008","05","19","09:00","6.5","","-0.9","","59","","31","","19","","","","97.66","","","","","","NA"
"2008-05-19 10:00","2008","05","19","10:00","8.8","","-1.1","","50","","32","","24","","","","97.62","","","","","","NA"
"2008-05-19 11:00","2008","05","19","11:00","9.2","","-0.6","","50","","30","","17","","","","97.58","","","","","","NA"
"2008-05-19 12:00","2008","05","19","12:00","7.5","","1.5","","66","","27","","17","","","","97.54","","","","","","NA"
"2008-05-19 13:00","2008","05","19","13:00","6.6","","2.8","","77","","27","","20","","","","97.52","","","","","","NA"
"2008-05-19 14:00","2008","05","19","14:00","5.9","","2.8","","80","","26","","22","","","","97.52","","","","","","NA"
"2008-05-19 15:00","2008","05","19","15:00","6.4","","2.6","","77","","26","","32","","","","97.50","","","","","","NA"
"2008-05-19 16:00","2008","05","19","16:00","6.5","","2.2","","74","","28","","19","","","","97.48","","","","","","NA"
"2008-05-19 17:00","2008","05","19","17:00","6.5","","1.9","","72","","28","","26","","","","97.49","","","","","","NA"
"2008-05-19 18:00","2008","05","19","18:00","5.5","","2.3","","80","","28","","32","","","","97.45","","","","","","NA"
"2008-05-19 19:00","2008","05","19","19:00","5.3","","2.7","","83","","29","","22","","","","97.47","","","","","","NA"
"2008-05-19 20:00","2008","05","19","20:00","5.0","","2.7","","85","","29","","6","","","","97.50","","","","","","NA"
"2008-05-19 21:00","2008","05","19","21:00","4.2","","2.8","","91","","28","","6","","","","97.51","","","","","","NA"
"2008-05-19 22:00","2008","05","19","22:00","3.5","","2.8","","95","","18","","6","","","","97.51","","","","","","NA"
"2008-05-19 23:00","2008","05","19","23:00","2.9","","2.6","","98","","9","","6","","","","97.50","","","","","","NA"
"2008-05-20 00:00","2008","05","20","00:00","3.3","","2.2","","92","","4","","13","","","","97.51","","","","","","NA"
"2008-05-20 01:00","2008","05","20","01:00","2.9","","2.5","","97","","27","","6","","","","97.51","","","","","","NA"
"2008-05-20 02:00","2008","05","20","02:00","2.5","","2.5","","100","","34","","2","","","","97.50","","","","","","NA"
"2008-05-20 03:00","2008","05","20","03:00","1.8","","1.3","","96","","34","","7","","","","97.48","","","","","","NA"
"2008-05-20 04:00","2008","05","20","04:00","4.0","","0.9","","80","","33","","15","","","","97.46","","","","","","NA"
"2008-05-20 05:00","2008","05","20","05:00","4.0","","0.5","","78","","33","","11","","","","97.45","","","","","","NA"
"2008-05-20 06:00","2008","05","20","06:00","3.8","","0.0","","76","","33","","15","","","","97.47","","","","","","NA"
"2008-05-20 07:00","2008","05","20","07:00","4.2","","0.6","","77","","32","","17","","","","97.49","","","","","","NA"
"2008-05-20 08:00","2008","05","20","08:00","4.7","","0.4","","74","","33","","17","","","","97.49","","","","","","NA"
"2008-05-20 09:00","2008","05","20","09:00","4.4","","0.9","","78","","36","","13","","","","97.52","","","","","","NA"
"2008-05-20 10:00","2008","05","20","10:00","4.1","","1.3","","82","","33","","17","","","","97.54","","","","","","NA"
"2008-05-20 11:00","2008","05","20","11:00","4.2","","1.1","","80","","34","","13","","","","97.59","","","","","","NA"
"2008-05-20 12:00","2008","05","20","12:00","5.5","","-0.1","","67","","33","","17","","","","97.57","","","","","","NA"
"2008-05-20 13:00","2008","05","20","13:00","5.6","","0.3","","69","","32","","26","","","","97.57","","","","","","NA"
"2008-05-20 14:00","2008","05","20","14:00","6.4","","0.4","","65","","33","","15","","","","97.60","","","","","","NA"
"2008-05-20 15:00","2008","05","20","15:00","6.1","","0.1","","65","","32","","24","","","","97.61","","","","","","NA"
"2008-05-20 16:00","2008","05","20","16:00","6.1","","0.8","","69","","33","","19","","","","97.65","","","","","","NA"
"2008-05-20 17:00","2008","05","20","17:00","5.2","","2.1","","80","","33","","20","","","","97.67","","","","","","NA"
"2008-05-20 18:00","2008","05","20","18:00","5.0","","2.2","","82","","36","","17","","","","97.73","","","","","","NA"
"2008-05-20 19:00","2008","05","20","19:00","4.7","","2.3","","84","","35","","17","","","","97.74","","","","","","NA"
"2008-05-20 20:00","2008","05","20","20:00","4.7","","2.9","","88","","34","","11","","","","97.73","","","","","","NA"
"2008-05-20 21:00","2008","05","20","21:00","4.7","","3.4","","91","","36","","15","","","","97.76","","","","","","NA"
"2008-05-20 22:00","2008","05","20","22:00","4.6","","4.0","","96","","35","","13","","","","97.77","","","","","","NA"
"2008-05-20 23:00","2008","05","20","23:00","4.7","","4.1","","96","","36","","17","","","","97.74","","","","","","NA"
"2008-05-21 00:00","2008","05","21","00:00","4.8","","4.0","","95","","35","","13","","","","97.71","","","","","","NA"
"2008-05-21 01:00","2008","05","21","01:00","4.9","","3.9","","93","","36","","11","","","","97.69","","","","","","NA"
"2008-05-21 02:00","2008","05","21","02:00","4.7","","3.9","","95","","36","","11","","","","97.67","","","","","","NA"
"2008-05-21 03:00","2008","05","21","03:00","4.6","","3.7","","94","","35","","11","","","","97.65","","","","","","NA"
"2008-05-21 04:00","2008","05","21","04:00","4.7","","4.0","","95","","35","","11","","","","97.59","","","","","","NA"
"2008-05-21 05:00","2008","05","21","05:00","4.7","","4.0","","95","","35","","15","","","","97.58","","","","","","NA"
"2008-05-21 06:00","2008","05","21","06:00","4.5","","3.7","","95","","34","","15","","","","97.58","","","","","","NA"
"2008-05-21 07:00","2008","05","21","07:00","4.9","","3.6","","91","","35","","19","","","","97.57","","","","","","NA"
"2008-05-21 08:00","2008","05","21","08:00","5.4","","3.9","","90","","34","","19","","","","97.58","","","","","","NA"
"2008-05-21 09:00","2008","05","21","09:00","6.0","","5.0","","93","","34","","15","","","","97.57","","","","","","NA"
"2008-05-21 10:00","2008","05","21","10:00","6.5","","5.2","","91","","34","","19","","","","97.54","","","","","","NA"
"2008-05-21 11:00","2008","05","21","11:00","7.3","","5.8","","90","","35","","19","","","","97.55","","","","","","NA"
"2008-05-21 12:00","2008","05","21","12:00","7.1","","5.8","","91","","35","","19","","","","97.59","","","","","","NA"
"2008-05-21 13:00","2008","05","21","13:00","7.6","","5.1","","84","","36","","17","","","","97.64","","","","","","NA"
"2008-05-21 14:00","2008","05","21","14:00","7.8","","4.7","","81","","36","","24","","","","97.69","","","","","","NA"
"2008-05-21 15:00","2008","05","21","15:00","7.6","","4.2","","79","","1","","26","","","","97.75","","","","","","NA"
"2008-05-21 16:00","2008","05","21","16:00","7.7","","4.5","","80","","35","","19","","","","97.80","","","","","","NA"
"2008-05-21 17:00","2008","05","21","17:00","7.5","","4.5","","81","","1","","24","","","","97.85","","","","","","NA"
"2008-05-21 18:00","2008","05","21","18:00","7.4","","4.7","","83","","36","","20","","","","97.92","","","","","","NA"
"2008-05-21 19:00","2008","05","21","19:00","6.9","","5.0","","88","","36","","19","","","","97.98","","","","","","NA"
"2008-05-21 20:00","2008","05","21","20:00","6.4","","5.4","","93","","1","","15","","","","98.05","","","","","","NA"
"2008-05-21 21:00","2008","05","21","21:00","6.1","","5.6","","97","","1","","17","","","","98.15","","","","","","NA"
"2008-05-21 22:00","2008","05","21","22:00","6.0","","5.4","","96","","2","","17","","","","98.21","","","","","","NA"
"2008-05-21 23:00","2008","05","21","23:00","5.9","","5.4","","97","","1","","13","","","","98.27","","","","","","NA"
"2008-05-22 00:00","2008","05","22","00:00","5.7","","5.7","","100","","36","","11","","","","98.32","","","","","","NA"
"2008-05-22 01:00","2008","05","22","01:00","5.4","","5.4","","100","","36","","11","","","","98.34","","","","","","NA"
"2008-05-22 02:00","2008","05","22","02:00","5.5","","5.5","","100","","35","","11","","","","98.39","","","","","","NA"
"2008-05-22 03:00","2008","05","22","03:00","5.7","","5.5","","99","","36","","17","","","","98.40","","","","","","NA"
"2008-05-22 04:00","2008","05","22","04:00","5.7","","5.6","","99","","34","","6","","","","98.46","","","","","","NA"
"2008-05-22 05:00","2008","05","22","05:00","5.7","","5.5","","99","","1","","13","","","","98.50","","","","","","NA"
"2008-05-22 06:00","2008","05","22","06:00","5.9","","5.7","","99","","35","","9","","","","98.55","","","","","","NA"
"2008-05-22 07:00","2008","05","22","07:00","6.2","","5.8","","97","","1","","9","","","","98.63","","","","","","NA"
"2008-05-22 08:00","2008","05","22","08:00","6.6","","5.9","","95","","1","","13","","","","98.69","","","","","","NA"
"2008-05-22 09:00","2008","05","22","09:00","7.6","","6.2","","91","","35","","7","","","","98.73","","","","","","NA"
"2008-05-22 10:00","2008","05","22","10:00","7.6","","5.9","","89","","33","","13","","","","98.78","","","","","","NA"
"2008-05-22 11:00","2008","05","22","11:00","7.1","","5.8","","91","","32","","13","","","","98.81","","","","","","NA"
"2008-05-22 12:00","2008","05","22","12:00","8.8","","6.4","","85","","1","","13","","","","98.82","","","","","","NA"
"2008-05-22 13:00","2008","05","22","13:00","9.0","","5.8","","80","","35","","15","","","","98.87","","","","","","NA"
"2008-05-22 14:00","2008","05","22","14:00","8.6","","6.3","","85","","32","","19","","","","98.94","","","","","","NA"
"2008-05-22 15:00","2008","05","22","15:00","8.2","","5.5","","83","","31","","13","","","","98.96","","","","","","NA"
"2008-05-22 16:00","2008","05","22","16:00","8.7","","6.1","","84","","32","","6","","","","99.01","","","","","","NA"
"2008-05-22 17:00","2008","05","22","17:00","10.5","","5.9","","73","","1","","15","","","","99.05","","","","","","NA"
"2008-05-22 18:00","2008","05","22","18:00","10.5","","6.1","","74","","1","","13","","","","99.09","","","","","","NA"
"2008-05-22 19:00","2008","05","22","19:00","9.9","","6.5","","79","","2","","13","","","","99.14","","","","","","NA"
"2008-05-22 20:00","2008","05","22","20:00","9.8","","6.7","","81","","1","","13","","","","99.17","","","","","","NA"
"2008-05-22 21:00","2008","05","22","21:00","9.5","","6.9","","84","","3","","7","","","","99.28","","","","","","NA"
"2008-05-22 22:00","2008","05","22","22:00","9.0","","6.5","","84","","3","","15","","","","99.32","","","","","","NA"
"2008-05-22 23:00","2008","05","22","23:00","8.6","","6.6","","87","","3","","9","","","","99.37","","","","","","NA"
"2008-05-23 00:00","2008","05","23","00:00","8.4","","6.7","","89","","1","","7","","","","99.38","","","","","","NA"
"2008-05-23 01:00","2008","05","23","01:00","7.3","","6.4","","94","","35","","7","","","","99.44","","","","","","NA"
"2008-05-23 02:00","2008","05","23","02:00","5.7","","5.7","","100","","4","","9","","","","99.50","","","","","","NA"
"2008-05-23 03:00","2008","05","23","03:00","6.5","","6.1","","97","","3","","6","","","","99.58","","","","","","NA"
"2008-05-23 04:00","2008","05","23","04:00","5.9","","5.9","","100","","24","","4","","","","99.61","","","","","","NA"
"2008-05-23 05:00","2008","05","23","05:00","6.8","","6.4","","97","","3","","6","","","","99.69","","","","","","NA"
"2008-05-23 06:00","2008","05","23","06:00","7.0","","6.4","","96","","3","","6","","","","99.78","","","","","","NA"
"2008-05-23 07:00","2008","05","23","07:00","7.3","","5.9","","91","","3","","13","","","","99.80","","","","","","NA"
"2008-05-23 08:00","2008","05","23","08:00","9.0","","5.8","","80","","7","","13","","","","99.84","","","","","","NA"
"2008-05-23 09:00","2008","05","23","09:00","10.3","","6.0","","75","","3","","15","","","","99.83","","","","","","NA"
"2008-05-23 10:00","2008","05","23","10:00","12.6","","6.8","","68","","7","","13","","","","99.83","","","","","","NA"
"2008-05-23 11:00","2008","05","23","11:00","14.9","","6.1","","56","","5","","9","","","","99.77","","","","","","NA"
"2008-05-23 12:00","2008","05","23","12:00","12.5","","6.5","","67","","31","","17","","","","99.72","","","","","","NA"
"2008-05-23 13:00","2008","05","23","13:00","9.8","","5.2","","73","","30","","15","","","","99.73","","","","","","NA"
"2008-05-23 14:00","2008","05","23","14:00","7.7","","5.5","","86","","31","","19","","","","99.78","","","","","","NA"
"2008-05-23 15:00","2008","05","23","15:00","8.7","","5.6","","81","","31","","20","","","","99.81","","","","","","NA"
"2008-05-23 16:00","2008","05","23","16:00","9.5","","5.4","","76","","30","","17","","","","99.82","","","","","","NA"
"2008-05-23 17:00","2008","05","23","17:00","10.0","","5.7","","75","","31","","17","","","","99.83","","","","","","NA"
"2008-05-23 18:00","2008","05","23","18:00","8.8","","5.6","","80","","31","","17","","","","99.82","","","","","","NA"
"2008-05-23 19:00","2008","05","23","19:00","7.2","","4.9","","85","","30","","11","","","","99.82","","","","","","NA"
"2008-05-23 20:00","2008","05","23","20:00","6.5","","4.7","","88","","30","","6","","","","99.88","","","","","","NA"
"2008-05-23 21:00","2008","05","23","21:00","5.9","","4.8","","93","","","","0","","","","99.93","","","","","","NA"
"2008-05-23 22:00","2008","05","23","22:00","5.7","","5.4","","98","","9","","6","","","","99.96","","","","","","NA"
"2008-05-23 23:00","2008","05","23","23:00","6.2","","5.9","","98","","8","","6","","","","99.97","","","","","","NA"
"2008-05-24 00:00","2008","05","24","00:00","5.6","","5.6","","100","","7","","7","","","","99.95","","","","","","NA"
"2008-05-24 01:00","2008","05","24","01:00","5.0","","5.0","","100","","6","","6","","","","99.96","","","","","","NA"
"2008-05-24 02:00","2008","05","24","02:00","4.8","","4.8","","100","","6","","7","","","","99.99","","","","","","NA"
"2008-05-24 03:00","2008","05","24","03:00","4.7","","4.7","","100","","6","","11","","","","99.98","","","","","","NA"
"2008-05-24 04:00","2008","05","24","04:00","3.3","","3.3","","100","","7","","11","","","","100.00","","","","","","NA"
"2008-05-24 05:00","2008","05","24","05:00","3.5","","3.5","","100","","5","","13","","","","100.02","","","","","","NA"
"2008-05-24 06:00","2008","05","24","06:00","4.6","","4.3","","98","","5","","11","","","","100.07","","","","","","NA"
"2008-05-24 07:00","2008","05","24","07:00","7.0","","5.6","","91","","7","","6","","","","100.12","","","","","","NA"
"2008-05-24 08:00","2008","05","24","08:00","8.6","","4.7","","76","","25","","4","","","","100.14","","","","","","NA"
"2008-05-24 09:00","2008","05","24","09:00","9.8","","5.7","","76","","25","","4","","","","100.06","","","","","","NA"
"2008-05-24 10:00","2008","05","24","10:00","10.4","","5.9","","74","","24","","7","","","","100.03","","","","","","NA"
"2008-05-24 11:00","2008","05","24","11:00","8.1","","5.1","","81","","24","","9","","","","99.98","","","","","","NA"
"2008-05-24 12:00","2008","05","24","12:00","7.6","","4.9","","83","","24","","7","","","","100.01","","","","","","NA"
"2008-05-24 13:00","2008","05","24","13:00","10.7","","5.9","","72","","29","","7","","","","99.95","","","","","","NA"
"2008-05-24 14:00","2008","05","24","14:00","10.1","","5.6","","74","","31","","9","","","","99.89","","","","","","NA"
"2008-05-24 15:00","2008","05","24","15:00","8.1","","4.9","","80","","23","","6","","","","99.82","","","","","","NA"
"2008-05-24 16:00","2008","05","24","16:00","10.0","","5.3","","73","","21","","6","","","","99.76","","","","","","NA"
"2008-05-24 17:00","2008","05","24","17:00","10.2","","5.4","","72","","19","","9","","","","99.73","","","","","","NA"
"2008-05-24 18:00","2008","05","24","18:00","10.3","","5.4","","72","","18","","6","","","","99.67","","","","","","NA"
"2008-05-24 19:00","2008","05","24","19:00","9.6","","5.0","","73","","19","","6","","","","99.61","","","","","","NA"
"2008-05-24 20:00","2008","05","24","20:00","8.0","","4.5","","79","","18","","7","","","","99.53","","","","","","NA"
"2008-05-24 21:00","2008","05","24","21:00","6.9","","4.4","","84","","15","","4","","","","99.49","","","","","","NA"
"2008-05-24 22:00","2008","05","24","22:00","6.1","","5.3","","95","","8","","9","","","","99.43","","","","","","NA"
"2008-05-24 23:00","2008","05","24","23:00","5.9","","4.7","","92","","7","","15","","","","99.30","","","","","","NA"
"2008-05-25 00:00","2008","05","25","00:00","6.3","","4.9","","91","","8","","7","","","","99.25","","","","","","NA"
"2008-05-25 01:00","2008","05","25","01:00","5.9","","4.5","","91","","8","","7","","","","99.18","","","","","","NA"
"2008-05-25 02:00","2008","05","25","02:00","3.9","","3.9","","100","","","","0","","","","99.14","","","","","","NA"
"2008-05-25 03:00","2008","05","25","03:00","4.9","","4.5","","97","","19","","9","","","","99.05","","","","","","NA"
"2008-05-25 04:00","2008","05","25","04:00","4.2","","4.0","","99","","21","","6","","","","99.05","","","","","","NA"
"2008-05-25 05:00","2008","05","25","05:00","5.4","","4.9","","97","","16","","6","","","","99.00","","","","","","NA"
"2008-05-25 06:00","2008","05","25","06:00","8.5","","5.2","","80","","16","","11","","","","98.99","","","","","","NA"
"2008-05-25 07:00","2008","05","25","07:00","9.1","","4.8","","74","","17","","19","","","","98.95","","","","","","NA"
"2008-05-25 08:00","2008","05","25","08:00","8.3","","4.8","","79","","17","","22","","","","98.88","","","","","","NA"
"2008-05-25 09:00","2008","05","25","09:00","7.4","","4.5","","82","","17","","22","","","","98.79","","","","","","NA"
"2008-05-25 10:00","2008","05","25","10:00","8.0","","4.8","","80","","17","","22","","","","98.71","","","","","","NA"
"2008-05-25 11:00","2008","05","25","11:00","8.1","","4.5","","78","","18","","28","","","","98.60","","","","","","NA"
"2008-05-25 12:00","2008","05","25","12:00","7.5","","5.2","","85","","17","","15","","","","98.66","","","","","","NA"
"2008-05-25 13:00","2008","05","25","13:00","8.5","","7.6","","94","","16","","19","","","","98.57","","","","","","NA"
"2008-05-25 14:00","2008","05","25","14:00","9.8","","7.8","","87","","18","","26","","","","98.48","","","","","","NA"
"2008-05-25 15:00","2008","05","25","15:00","9.6","","7.5","","87","","18","","20","","","","98.42","","","","","","NA"
"2008-05-25 16:00","2008","05","25","16:00","9.0","","7.5","","90","","18","","13","","","","98.38","","","","","","NA"
"2008-05-25 17:00","2008","05","25","17:00","7.6","","6.6","","93","","18","","11","","","","98.30","","","","","","NA"
"2008-05-25 18:00","2008","05","25","18:00","9.3","","7.7","","90","","16","","13","","","","98.18","","","","","","NA"
"2008-05-25 19:00","2008","05","25","19:00","12.1","","9.7","","85","","6","","9","","","","98.02","","","","","","NA"
"2008-05-25 20:00","2008","05","25","20:00","12.0","","9.6","","85","","5","","7","","","","98.04","","","","","","NA"
"2008-05-25 21:00","2008","05","25","21:00","11.9","","9.7","","86","","7","","11","","","","98.01","","","","","","NA"
"2008-05-25 22:00","2008","05","25","22:00","11.6","","10.0","","90","","6","","11","","","","97.99","","","","","","NA"
"2008-05-25 23:00","2008","05","25","23:00","11.8","","10.3","","91","","6","","9","","","","97.93","","","","","","NA"
"2008-05-26 00:00","2008","05","26","00:00","12.1","","10.9","","92","","7","","13","","","","97.87","","","","","","NA"
"2008-05-26 01:00","2008","05","26","01:00","12.0","","10.9","","93","","6","","22","","","","97.77","","","","","","NA"
"2008-05-26 02:00","2008","05","26","02:00","11.8","","10.9","","94","","9","","15","","","","97.76","","","","","","NA"
"2008-05-26 03:00","2008","05","26","03:00","11.8","","11.1","","95","","6","","20","","","","97.64","","","","","","NA"
"2008-05-26 04:00","2008","05","26","04:00","8.0","","8.0","","100","","8","","22","","","","97.65","","","","","","NA"
"2008-05-26 05:00","2008","05","26","05:00","6.2","","6.2","","100","","4","","30","","","","97.70","","","","","","NA"
"2008-05-26 06:00","2008","05","26","06:00","4.7","","4.7","","100","","5","","30","","","","97.73","","","","","","NA"
"2008-05-26 07:00","2008","05","26","07:00","3.1","","3.1","","100","","5","","32","","","","97.82","","","","","","NA"
"2008-05-26 08:00","2008","05","26","08:00","2.4","","2.4","","100","","5","","35","","","","97.90","","","","","","NA"
"2008-05-26 09:00","2008","05","26","09:00","2.3","","2.3","","100","","5","","32","","","","97.92","","","","","","NA"
"2008-05-26 10:00","2008","05","26","10:00","2.1","","2.1","","100","","5","","35","","","","97.96","","","","","","NA"
"2008-05-26 11:00","2008","05","26","11:00","1.9","","1.9","","100","","5","","33","","","","98.09","","","","","","NA"
"2008-05-26 12:00","2008","05","26","12:00","1.7","","1.4","","98","","5","","35","","","","98.18","","","","","","NA"
"2008-05-26 13:00","2008","05","26","13:00","2.5","","1.6","","94","","6","","30","","","","98.29","","","","","","NA"
"2008-05-26 14:00","2008","05","26","14:00","2.1","","1.6","","96","","4","","20","","","","98.53","","","","","","NA"
"2008-05-26 15:00","2008","05","26","15:00","1.9","","1.9","","100","","3","","19","","","","98.66","","","","","","NA"
"2008-05-26 16:00","2008","05","26","16:00","3.4","","2.7","","95","","4","","19","","","","98.79","","","","","","NA"
"2008-05-26 17:00","2008","05","26","17:00","3.5","","1.9","","89","","2","","19","","","","98.94","","","","","","NA"
"2008-05-26 18:00","2008","05","26","18:00","3.9","","1.9","","87","","2","","17","","","","99.01","","","","","","NA"
"2008-05-26 19:00","2008","05","26","19:00","4.4","","0.2","","74","","2","","19","","","","99.09","","","","","","NA"
"2008-05-26 20:00","2008","05","26","20:00","3.6","","1.1","","84","","1","","9","","","","99.18","","","","","","NA"
"2008-05-26 21:00","2008","05","26","21:00","2.9","","1.3","","89","","2","","6","","","","99.29","","","","","","NA"
"2008-05-26 22:00","2008","05","26","22:00","1.8","","1.5","","98","","36","","6","","","","99.36","","","","","","NA"
"2008-05-26 23:00","2008","05","26","23:00","0.8","","0.8","","100","","1","","9","","","","99.42","","","","","","NA"
"2008-05-27 00:00","2008","05","27","00:00","0.9","","0.9","","100","","4","","9","","","","99.48","","","","","","NA"
"2008-05-27 01:00","2008","05","27","01:00","1.4","","1.2","","99","","3","","7","","","","99.51","","","","","","NA"
"2008-05-27 02:00","2008","05","27","02:00","1.5","","1.2","","98","","2","","7","","","","99.56","","","","","","NA"
"2008-05-27 03:00","2008","05","27","03:00","1.6","","1.3","","98","","2","","6","","","","99.65","","","","","","NA"
"2008-05-27 04:00","2008","05","27","04:00","1.6","","1.1","","96","","4","","6","","","","99.73","","","","","","NA"
"2008-05-27 05:00","2008","05","27","05:00","1.6","","0.6","","93","","4","","7","","","","99.78","","","","","","NA"
"2008-05-27 06:00","2008","05","27","06:00","2.0","","0.2","","88","","4","","7","","","","99.83","","","","","","NA"
"2008-05-27 07:00","2008","05","27","07:00","2.7","","0.6","","86","","3","","11","","","","99.87","","","","","","NA"
"2008-05-27 08:00","2008","05","27","08:00","3.4","","0.2","","80","","4","","9","","","","99.97","","","","","","NA"
"2008-05-27 09:00","2008","05","27","09:00","4.2","","-0.9","","69","","2","","11","","","","100.01","","","","","","NA"
"2008-05-27 10:00","2008","05","27","10:00","4.4","","-0.1","","73","","29","","11","","","","100.04","","","","","","NA"
"2008-05-27 11:00","2008","05","27","11:00","4.9","","0.1","","71","","31","","15","","","","100.05","","","","","","NA"
"2008-05-27 12:00","2008","05","27","12:00","5.4","","-0.3","","67","","28","","13","","","","100.06","","","","","","NA"
"2008-05-27 13:00","2008","05","27","13:00","5.2","","1.4","","76","","25","","19","","","","100.07","","","","","","NA"
"2008-05-27 14:00","2008","05","27","14:00","5.0","","1.6","","79","","24","","24","","","","100.09","","","","","","NA"
"2008-05-27 15:00","2008","05","27","15:00","5.9","","2.1","","77","","25","","17","","","","100.08","","","","","","NA"
"2008-05-27 16:00","2008","05","27","16:00","4.9","","1.7","","80","","24","","22","","","","100.15","","","","","","NA"
"2008-05-27 17:00","2008","05","27","17:00","6.1","","2.1","","75","","19","","9","","","","100.14","","","","","","NA"
"2008-05-27 18:00","2008","05","27","18:00","4.8","","2.4","","84","","22","","7","","","","100.13","","","","","","NA"
"2008-05-27 19:00","2008","05","27","19:00","5.2","","1.9","","79","","20","","7","","","","100.13","","","","","","NA"
"2008-05-27 20:00","2008","05","27","20:00","4.2","","1.6","","83","","20","","13","","","","100.12","","","","","","NA"
"2008-05-27 21:00","2008","05","27","21:00","2.9","","1.8","","92","","19","","15","","","","100.14","","","","","","NA"
"2008-05-27 22:00","2008","05","27","22:00","2.8","","1.9","","94","","18","","17","","","","100.16","","","","","","NA"
"2008-05-27 23:00","2008","05","27","23:00","2.8","","2.1","","95","","18","","17","","","","100.15","","","","","","NA"
"2008-05-28 00:00","2008","05","28","00:00","2.8","","2.1","","95","","19","","15","","","","100.18","","","","","","NA"
"2008-05-28 01:00","2008","05","28","01:00","2.8","","2.3","","97","","19","","19","","","","100.18","","","","","","NA"
"2008-05-28 02:00","2008","05","28","02:00","2.5","","2.5","","100","","18","","17","","","","100.17","","","","","","NA"
"2008-05-28 03:00","2008","05","28","03:00","2.6","","2.3","","98","","18","","19","","","","100.16","","","","","","NA"
"2008-05-28 04:00","2008","05","28","04:00","3.0","","2.4","","96","","18","","20","","","","100.15","","","","","","NA"
"2008-05-28 05:00","2008","05","28","05:00","2.9","","2.6","","98","","18","","20","","","","100.14","","","","","","NA"
"2008-05-28 06:00","2008","05","28","06:00","3.6","","2.6","","93","","18","","20","","","","100.16","","","","","","NA"
"2008-05-28 07:00","2008","05","28","07:00","4.7","","2.4","","85","","18","","20","","","","100.20","","","","","","NA"
"2008-05-28 08:00","2008","05","28","08:00","6.0","","2.5","","78","","18","","15","","","","100.19","","","","","","NA"
"2008-05-28 09:00","2008","05","28","09:00","6.9","","2.9","","76","","19","","19","","","","100.15","","","","","","NA"
"2008-05-28 10:00","2008","05","28","10:00","7.6","","3.0","","73","","18","","17","","","","100.09","","","","","","NA"
"2008-05-28 11:00","2008","05","28","11:00","7.2","","3.0","","75","","18","","19","","","","100.04","","","","","","NA"
"2008-05-28 12:00","2008","05","28","12:00","7.5","","3.7","","77","","17","","20","","","","100.00","","","","","","NA"
"2008-05-28 13:00","2008","05","28","13:00","8.3","","3.7","","73","","17","","22","","","","99.94","","","","","","NA"
"2008-05-28 14:00","2008","05","28","14:00","9.0","","3.2","","67","","18","","19","","","","99.87","","","","","","NA"
"2008-05-28 15:00","2008","05","28","15:00","9.8","","3.0","","63","","18","","13","","","","99.80","","","","","","NA"
"2008-05-28 16:00","2008","05","28","16:00","10.2","","2.4","","58","","19","","11","","","","99.73","","","","","","NA"
"2008-05-28 17:00","2008","05","28","17:00","9.5","","2.2","","60","","17","","15","","","","99.65","","","","","","NA"
"2008-05-28 18:00","2008","05","28","18:00","8.7","","2.2","","64","","17","","19","","","","99.56","","","","","","NA"
"2008-05-28 19:00","2008","05","28","19:00","7.8","","2.3","","68","","17","","22","","","","99.50","","","","","","NA"
"2008-05-28 20:00","2008","05","28","20:00","7.1","","2.3","","71","","17","","20","","","","99.47","","","","","","NA"
"2008-05-28 21:00","2008","05","28","21:00","6.3","","2.6","","77","","18","","19","","","","99.43","","","","","","NA"
"2008-05-28 22:00","2008","05","28","22:00","6.0","","2.9","","80","","17","","17","","","","99.40","","","","","","NA"
"2008-05-28 23:00","2008","05","28","23:00","6.7","","2.6","","75","","17","","22","","","","99.33","","","","","","NA"
"2008-05-29 00:00","2008","05","29","00:00","6.1","","2.8","","79","","18","","22","","","","99.32","","","","","","NA"
"2008-05-29 01:00","2008","05","29","01:00","5.2","","2.9","","85","","17","","20","","","","99.27","","","","","","NA"
"2008-05-29 02:00","2008","05","29","02:00","4.6","","3.1","","90","","17","","19","","","","99.26","","","","","","NA"
"2008-05-29 03:00","2008","05","29","03:00","5.0","","3.1","","87","","17","","17","","","","99.25","","","","","","NA"
"2008-05-29 04:00","2008","05","29","04:00","4.8","","3.2","","89","","17","","15","","","","99.27","","","","","","NA"
"2008-05-29 05:00","2008","05","29","05:00","5.1","","3.0","","86","","18","","13","","","","99.28","","","","","","NA"
"2008-05-29 06:00","2008","05","29","06:00","6.3","","2.8","","78","","17","","7","","","","99.30","","","","","","NA"
"2008-05-29 07:00","2008","05","29","07:00","7.4","","2.6","","72","","18","","4","","","","99.29","","","","","","NA"
"2008-05-29 08:00","2008","05","29","08:00","7.6","","2.1","","68","","19","","9","","","","99.32","","","","","","NA"
"2008-05-29 09:00","2008","05","29","09:00","7.5","","3.0","","73","","20","","6","","","","99.33","","","","","","NA"
"2008-05-29 10:00","2008","05","29","10:00","7.8","","3.7","","75","","20","","9","","","","99.39","","","","","","NA"
"2008-05-29 11:00","2008","05","29","11:00","8.5","","4.1","","74","","18","","11","","","","99.42","","","","","","NA"
"2008-05-29 12:00","2008","05","29","12:00","8.9","","3.7","","70","","21","","6","","","","99.38","","","","","","NA"
"2008-05-29 13:00","2008","05","29","13:00","8.3","","4.3","","76","","21","","6","","","","99.37","","","","","","NA"
"2008-05-29 14:00","2008","05","29","14:00","10.9","","4.3","","64","","27","","4","","","","99.28","","","","","","NA"
"2008-05-29 15:00","2008","05","29","15:00","8.3","","4.5","","77","","21","","15","","","","99.27","","","","","","NA"
"2008-05-29 16:00","2008","05","29","16:00","8.1","","4.3","","77","","21","","7","","","","99.26","","","","","","NA"
"2008-05-29 17:00","2008","05","29","17:00","9.1","","4.5","","73","","18","","9","","","","99.24","","","","","","NA"
"2008-05-29 18:00","2008","05","29","18:00","8.6","","4.6","","76","","16","","7","","","","99.15","","","","","","NA"
"2008-05-29 19:00","2008","05","29","19:00","10.3","","3.6","","63","","21","","2","","","","99.08","","","","","","NA"
"2008-05-29 20:00","2008","05","29","20:00","10.0","","3.2","","63","","","","0","","","","99.08","","","","","","NA"
"2008-05-29 21:00","2008","05","29","21:00","10.4","","5.7","","73","","12","","2","","","","99.05","","","","","","NA"
"2008-05-29 22:00","2008","05","29","22:00","10.8","","7.0","","77","","8","","7","","","","99.04","","","","","","NA"
"2008-05-29 23:00","2008","05","29","23:00","6.1","","3.7","","85","","18","","9","","","","99.04","","","","","","NA"
"2008-05-30 00:00","2008","05","30","00:00","5.0","","4.0","","93","","4","","2","","","","98.96","","","","","","NA"
"2008-05-30 01:00","2008","05","30","01:00","7.5","","4.4","","81","","11","","4","","","","98.93","","","","","","NA"
"2008-05-30 02:00","2008","05","30","02:00","6.3","","4.3","","87","","5","","11","","","","98.82","","","","","","NA"
"2008-05-30 03:00","2008","05","30","03:00","7.2","","5.2","","87","","6","","13","","","","98.81","","","","","","NA"
"2008-05-30 04:00","2008","05","30","04:00","8.4","","5.1","","80","","6","","15","","","","98.72","","","","","","NA"
"2008-05-30 05:00","2008","05","30","05:00","9.3","","5.2","","76","","7","","17","","","","98.64","","","","","","NA"
"2008-05-30 06:00","2008","05","30","06:00","11.1","","5.2","","67","","9","","15","","","","98.58","","","","","","NA"
"2008-05-30 07:00","2008","05","30","07:00","12.8","","4.8","","58","","10","","17","","","","98.52","","","","","","NA"
"2008-05-30 08:00","2008","05","30","08:00","13.4","","5.4","","58","","13","","13","","","","98.50","","","","","","NA"
"2008-05-30 09:00","2008","05","30","09:00","7.9","","5.7","","86","","16","","17","","","","98.47","","","","","","NA"
"2008-05-30 10:00","2008","05","30","10:00","9.5","","9.3","","99","","11","","15","","","","98.38","","","","","","NA"
"2008-05-30 11:00","2008","05","30","11:00","9.5","","9.4","","99","","10","","19","","","","98.32","","","","","","NA"
"2008-05-30 12:00","2008","05","30","12:00","9.7","","9.7","","100","","9","","19","","","","98.20","","","","","","NA"
"2008-05-30 13:00","2008","05","30","13:00","10.1","","10.1","","100","","10","","15","","","","98.11","","","","","","NA"
"2008-05-30 14:00","2008","05","30","14:00","10.1","","10.1","","100","","9","","24","","","","97.95","","","","","","NA"
"2008-05-30 15:00","2008","05","30","15:00","10.4","","10.4","","100","","9","","24","","","","97.89","","","","","","NA"
"2008-05-30 16:00","2008","05","30","16:00","10.0","","10.0","","100","","10","","26","","","","97.81","","","","","","NA"
"2008-05-30 17:00","2008","05","30","17:00","10.2","","10.2","","100","","9","","19","","","","97.75","","","","","","NA"
"2008-05-30 18:00","2008","05","30","18:00","10.1","","10.1","","100","","9","","15","","","","97.65","","","","","","NA"
"2008-05-30 19:00","2008","05","30","19:00","10.2","","10.2","","100","","6","","9","","","","97.65","","","","","","NA"
"2008-05-30 20:00","2008","05","30","20:00","8.3","","8.3","","100","","22","","15","","","","97.64","","","","","","NA"
"2008-05-30 21:00","2008","05","30","21:00","6.2","","6.2","","100","","18","","13","","","","97.65","","","","","","NA"
"2008-05-30 22:00","2008","05","30","22:00","5.1","","5.1","","100","","17","","15","","","","97.66","","","","","","NA"
"2008-05-30 23:00","2008","05","30","23:00","4.9","","4.9","","100","","16","","11","","","","97.59","","","","","","NA"
"2008-05-31 00:00","2008","05","31","00:00","5.0","","5.0","","100","","16","","11","","","","97.55","","","","","","NA"
"2008-05-31 01:00","2008","05","31","01:00","5.3","","5.3","","100","","17","","13","","","","97.51","","","","","","NA"
"2008-05-31 02:00","2008","05","31","02:00","4.2","","4.2","","100","","21","","6","","","","97.49","","","","","","NA"
"2008-05-31 03:00","2008","05","31","03:00","4.4","","4.4","","100","","10","","2","","","","97.48","","","","","","NA"
"2008-05-31 04:00","2008","05","31","04:00","4.5","","4.5","","100","","17","","6","","","","97.47","","","","","","NA"
"2008-05-31 05:00","2008","05","31","05:00","4.5","","4.5","","100","","16","","7","","","","97.48","","","","","","NA"
"2008-05-31 06:00","2008","05","31","06:00","4.4","","4.4","","100","","17","","7","","","","97.51","","","","","","NA"
"2008-05-31 07:00","2008","05","31","07:00","4.3","","4.3","","100","","19","","4","","","","97.54","","","","","","NA"
"2008-05-31 08:00","2008","05","31","08:00","4.0","","4.0","","100","","19","","6","","","","97.56","","","","","","NA"
"2008-05-31 09:00","2008","05","31","09:00","4.2","","4.2","","100","","18","","2","","","","97.60","","","","","","NA"
"2008-05-31 10:00","2008","05","31","10:00","3.8","","3.8","","100","","20","","2","","","","97.63","","","","","","NA"
"2008-05-31 11:00","2008","05","31","11:00","4.3","","4.3","","100","","25","","4","","","","97.69","","","","","","NA"
"2008-05-31 12:00","2008","05","31","12:00","4.8","","4.8","","100","","31","","2","","","","97.76","","","","","","NA"
"2008-05-31 13:00","2008","05","31","13:00","9.7","","9.7","","100","","1","","20","","","","97.81","","","","","","NA"
"2008-05-31 14:00","2008","05","31","14:00","10.6","","10.6","","100","","2","","19","","","","97.85","","","","","","NA"
"2008-05-31 15:00","2008","05","31","15:00","11.9","","11.5","","97","","3","","17","","","","97.93","","","","","","NA"
"2008-05-31 16:00","2008","05","31","16:00","12.1","","12.0","","99","","1","","7","","","","98.00","","","","","","NA"
"2008-05-31 17:00","2008","05","31","17:00","13.2","","12.2","","94","","1","","11","","","","98.08","","","","","","NA"
"2008-05-31 18:00","2008","05","31","18:00","13.5","","11.7","","89","","1","","13","","","","98.17","","","","","","NA"
"2008-05-31 19:00","2008","05","31","19:00","13.5","","11.7","","89","","2","","6","","","","98.20","","","","","","NA"
"2008-05-31 20:00","2008","05","31","20:00","12.6","","11.4","","92","","29","","2","","","","98.23","","","","","","NA"
"2008-05-31 21:00","2008","05","31","21:00","7.8","","7.8","","100","","","","0","","","","98.28","","","","","","NA"
"2008-05-31 22:00","2008","05","31","22:00","7.7","","7.7","","100","","36","","6","","","","98.33","","","","","","NA"
"2008-05-31 23:00","2008","05","31","23:00","7.7","","7.7","","100","","9","","4","","","","98.36","","","","","","NA"
