"Station Name","PUKASKWA (AUT)"
"Province","ONTARIO"
"Latitude","48.59"
"Longitude","-86.29"
"Elevation","207.60"
"Climate Identifier","6046767"
"WMO Identifier","71750"
"TC Identifier","WCJ"
"All times are specified in Local Standard Time (LST). Add 1 hour to adjust for Daylight Saving Time where and when it is observed."

"Legend"
"E","Estimated"
"M","Missing"
"NA","Not Available"

"Date/Time","Year","Month","Day","Time","Temp (°C)","Temp Flag","Dew Point Temp (°C)","Dew Point Temp Flag","Rel Hum (%)","Rel Hum Flag","Wind Dir (10s deg)","Wind Dir Flag","Wind Spd (km/h)","Wind Spd Flag","Visibility (km)","Visibility Flag","Stn Press (kPa)","Stn Press Flag","Hmdx","Hmdx Flag","Wind Chill","Wind Chill Flag","Weather"
"2008-06-01 00:00","2008","06","01","00:00","6.7","","6.7","","100","","23","","6","","","","98.38","","","","","","NA"
"2008-06-01 01:00","2008","06","01","01:00","6.7","","6.7","","100","","10","","2","","","","98.36","","","","","","NA"
"2008-06-01 02:00","2008","06","01","02:00","6.3","","6.3","","100","","18","","4","","","","98.33","","","","","","NA"
"2008-06-01 03:00","2008","06","01","03:00","5.7","","5.7","","100","","17","","13","","","","98.35","","","","","","NA"
"2008-06-01 04:00","2008","06","01","04:00","6.1","","6.1","","100","","13","","7","","","","98.34","","","","","","NA"
"2008-06-01 05:00","2008","06","01","05:00","5.3","","5.3","","100","","14","","7","","","","98.36","","","","","","NA"
"2008-06-01 06:00","2008","06","01","06:00","6.2","","6.1","","99","","10","","6","","","","98.38","","","","","","NA"
"2008-06-01 07:00","2008","06","01","07:00","8.0","","7.2","","95","","16","","6","","","","98.41","","","","","","NA"
"2008-06-01 08:00","2008","06","01","08:00","7.6","","6.8","","95","","18","","11","","","","98.44","","","","","","NA"
"2008-06-01 09:00","2008","06","01","09:00","7.8","","6.5","","91","","17","","11","","","","98.46","","","","","","NA"
"2008-06-01 10:00","2008","06","01","10:00","7.5","","6.3","","92","","19","","9","","","","98.46","","","","","","NA"
"2008-06-01 11:00","2008","06","01","11:00","8.1","","6.3","","88","","20","","9","","","","98.49","","","","","","NA"
"2008-06-01 12:00","2008","06","01","12:00","9.1","","6.6","","84","","18","","20","","","","98.47","","","","","","NA"
"2008-06-01 13:00","2008","06","01","13:00","9.3","","6.6","","83","","18","","19","","","","98.48","","","","","","NA"
"2008-06-01 14:00","2008","06","01","14:00","10.6","","6.9","","78","","18","","15","","","","98.48","","","","","","NA"
"2008-06-01 15:00","2008","06","01","15:00","10.8","","6.9","","77","","18","","19","","","","98.43","","","","","","NA"
"2008-06-01 16:00","2008","06","01","16:00","11.8","","7.2","","73","","18","","17","","","","98.40","","","","","","NA"
"2008-06-01 17:00","2008","06","01","17:00","11.7","","7.1","","73","","17","","13","","","","98.37","","","","","","NA"
"2008-06-01 18:00","2008","06","01","18:00","9.9","","6.6","","80","","18","","20","","","","98.36","","","","","","NA"
"2008-06-01 19:00","2008","06","01","19:00","8.5","","6.5","","87","","18","","19","","","","98.36","","","","","","NA"
"2008-06-01 20:00","2008","06","01","20:00","9.0","","7.5","","90","","17","","20","","","","98.32","","","","","","NA"
"2008-06-01 21:00","2008","06","01","21:00","8.1","","7.2","","94","","18","","22","","","","98.34","","","","","","NA"
"2008-06-01 22:00","2008","06","01","22:00","6.3","","6.2","","99","","17","","19","","","","98.39","","","","","","NA"
"2008-06-01 23:00","2008","06","01","23:00","6.4","","6.4","","100","","28","","6","","","","98.47","","","","","","NA"
"2008-06-02 00:00","2008","06","02","00:00","7.5","","7.1","","97","","12","","7","","","","98.39","","","","","","NA"
"2008-06-02 01:00","2008","06","02","01:00","6.5","","6.5","","100","","34","","2","","","","98.44","","","","","","NA"
"2008-06-02 02:00","2008","06","02","02:00","6.8","","6.8","","100","","7","","4","","","","98.50","","","","","","NA"
"2008-06-02 03:00","2008","06","02","03:00","6.1","","6.1","","100","","8","","4","","","","98.54","","","","","","NA"
"2008-06-02 04:00","2008","06","02","04:00","5.6","","5.6","","100","","4","","6","","","","98.57","","","","","","NA"
"2008-06-02 05:00","2008","06","02","05:00","5.3","","5.3","","100","","1","","4","","","","98.62","","","","","","NA"
"2008-06-02 06:00","2008","06","02","06:00","6.1","","6.1","","100","","6","","7","","","","98.67","","","","","","NA"
"2008-06-02 07:00","2008","06","02","07:00","10.9","","9.7","","92","","5","","6","","","","98.72","","","","","","NA"
"2008-06-02 08:00","2008","06","02","08:00","12.2","","9.5","","84","","31","","6","","","","98.76","","","","","","NA"
"2008-06-02 09:00","2008","06","02","09:00","9.9","","8.5","","91","","31","","15","","","","98.79","","","","","","NA"
"2008-06-02 10:00","2008","06","02","10:00","12.3","","9.3","","82","","30","","13","","","","98.79","","","","","","NA"
"2008-06-02 11:00","2008","06","02","11:00","12.5","","8.4","","76","","28","","19","","","","98.79","","","","","","NA"
"2008-06-02 12:00","2008","06","02","12:00","9.5","","7.0","","84","","26","","24","","","","98.78","","","","","","NA"
"2008-06-02 13:00","2008","06","02","13:00","10.1","","4.3","","67","","27","","19","","","","98.75","","","","","","NA"
"2008-06-02 14:00","2008","06","02","14:00","10.7","","3.9","","63","","27","","17","","","","98.76","","","","","","NA"
"2008-06-02 15:00","2008","06","02","15:00","8.9","","2.9","","66","","26","","24","","","","98.76","","","","","","NA"
"2008-06-02 16:00","2008","06","02","16:00","10.4","","3.0","","60","","27","","17","","","","98.76","","","","","","NA"
"2008-06-02 17:00","2008","06","02","17:00","12.0","","1.6","","49","","30","","13","","","","98.75","","","","","","NA"
"2008-06-02 18:00","2008","06","02","18:00","9.7","","1.9","","58","","26","","6","","","","98.75","","","","","","NA"
"2008-06-02 19:00","2008","06","02","19:00","10.2","","1.6","","55","","21","","6","","","","98.79","","","","","","NA"
"2008-06-02 20:00","2008","06","02","20:00","8.5","","1.6","","62","","27","","7","","","","98.82","","","","","","NA"
"2008-06-02 21:00","2008","06","02","21:00","6.8","","2.5","","74","","15","","6","","","","98.85","","","","","","NA"
"2008-06-02 22:00","2008","06","02","22:00","6.7","","3.4","","79","","8","","4","","","","98.91","","","","","","NA"
"2008-06-02 23:00","2008","06","02","23:00","5.9","","3.8","","86","","7","","4","","","","98.98","","","","","","NA"
"2008-06-03 00:00","2008","06","03","00:00","8.0","","2.8","","70","","4","","13","","","","99.02","","","","","","NA"
"2008-06-03 01:00","2008","06","03","01:00","7.2","","2.1","","70","","3","","11","","","","99.02","","","","","","NA"
"2008-06-03 02:00","2008","06","03","02:00","6.2","","2.7","","78","","7","","7","","","","98.98","","","","","","NA"
"2008-06-03 03:00","2008","06","03","03:00","4.7","","1.8","","81","","4","","11","","","","98.99","","","","","","NA"
"2008-06-03 04:00","2008","06","03","04:00","3.7","","1.7","","87","","4","","13","","","","99.03","","","","","","NA"
"2008-06-03 05:00","2008","06","03","05:00","3.5","","1.9","","89","","5","","11","","","","99.01","","","","","","NA"
"2008-06-03 06:00","2008","06","03","06:00","4.9","","1.8","","80","","4","","13","","","","99.05","","","","","","NA"
"2008-06-03 07:00","2008","06","03","07:00","8.7","","2.5","","65","","5","","11","","","","99.08","","","","","","NA"
"2008-06-03 08:00","2008","06","03","08:00","11.3","","3.3","","58","","3","","9","","","","99.08","","","","","","NA"
"2008-06-03 09:00","2008","06","03","09:00","14.2","","-0.1","","37","","6","","11","","","","99.03","","","","","","NA"
"2008-06-03 10:00","2008","06","03","10:00","15.6","","-0.9","","32","","7","","11","","","","98.97","","","","","","NA"
"2008-06-03 11:00","2008","06","03","11:00","13.7","","1.1","","42","","29","","13","","","","98.95","","","","","","NA"
"2008-06-03 12:00","2008","06","03","12:00","14.9","","0.3","","37","","27","","11","","","","98.94","","","","","","NA"
"2008-06-03 13:00","2008","06","03","13:00","12.2","","1.9","","49","","29","","15","","","","98.89","","","","","","NA"
"2008-06-03 14:00","2008","06","03","14:00","11.4","","2.7","","55","","32","","19","","","","98.82","","","","","","NA"
"2008-06-03 15:00","2008","06","03","15:00","12.5","","1.7","","48","","30","","19","","","","98.70","","","","","","NA"
"2008-06-03 16:00","2008","06","03","16:00","16.2","","1.6","","37","","30","","7","","","","98.59","","","","","","NA"
"2008-06-03 17:00","2008","06","03","17:00","17.8","","2.3","","35","","11","","17","","","","98.55","","","","","","NA"
"2008-06-03 18:00","2008","06","03","18:00","7.9","","3.1","","72","","19","","17","","","","98.57","","","","","","NA"
"2008-06-03 19:00","2008","06","03","19:00","8.3","","3.0","","69","","17","","7","","","","98.57","","","","","","NA"
"2008-06-03 20:00","2008","06","03","20:00","7.7","","2.8","","71","","21","","6","","","","98.63","","","","","","NA"
"2008-06-03 21:00","2008","06","03","21:00","6.3","","2.9","","79","","17","","6","","","","98.64","","","","","","NA"
"2008-06-03 22:00","2008","06","03","22:00","6.9","","4.2","","83","","7","","7","","","","98.63","","","","","","NA"
"2008-06-03 23:00","2008","06","03","23:00","6.9","","3.9","","81","","7","","7","","","","98.56","","","","","","NA"
"2008-06-04 00:00","2008","06","04","00:00","9.2","","1.8","","60","","8","","15","","","","98.52","","","","","","NA"
"2008-06-04 01:00","2008","06","04","01:00","11.8","","0.6","","46","","10","","20","","","","98.48","","","","","","NA"
"2008-06-04 02:00","2008","06","04","02:00","12.6","","0.1","","42","","10","","28","","","","98.44","","","","","","NA"
"2008-06-04 03:00","2008","06","04","03:00","12.7","","-0.3","","41","","9","","30","","","","98.42","","","","","","NA"
"2008-06-04 04:00","2008","06","04","04:00","11.9","","0.3","","45","","10","","30","","","","98.41","","","","","","NA"
"2008-06-04 05:00","2008","06","04","05:00","12.1","","0.3","","44","","9","","35","","","","98.43","","","","","","NA"
"2008-06-04 06:00","2008","06","04","06:00","13.0","","0.0","","41","","10","","33","","","","98.39","","","","","","NA"
"2008-06-04 07:00","2008","06","04","07:00","13.9","","1.2","","42","","10","","28","","","","98.44","","","","","","NA"
"2008-06-04 08:00","2008","06","04","08:00","14.9","","2.0","","42","","10","","32","","","","98.39","","","","","","NA"
"2008-06-04 09:00","2008","06","04","09:00","15.9","","3.1","","42","","9","","19","","","","98.42","","","","","","NA"
"2008-06-04 10:00","2008","06","04","10:00","18.4","","4.1","","39","","11","","15","","","","98.39","","","","","","NA"
"2008-06-04 11:00","2008","06","04","11:00","19.9","","4.8","","37","","11","","17","","","","98.32","","","","","","NA"
"2008-06-04 12:00","2008","06","04","12:00","15.6","","3.4","","44","","23","","17","","","","98.32","","","","","","NA"
"2008-06-04 13:00","2008","06","04","13:00","15.2","","4.2","","48","","25","","4","","","","98.34","","","","","","NA"
"2008-06-04 14:00","2008","06","04","14:00","16.3","","4.9","","47","","21","","2","","","","98.30","","","","","","NA"
"2008-06-04 15:00","2008","06","04","15:00","15.3","","4.3","","48","","22","","6","","","","98.25","","","","","","NA"
"2008-06-04 16:00","2008","06","04","16:00","14.4","","6.0","","57","","34","","6","","","","98.17","","","","","","NA"
"2008-06-04 17:00","2008","06","04","17:00","14.4","","5.8","","56","","28","","7","","","","98.18","","","","","","NA"
"2008-06-04 18:00","2008","06","04","18:00","13.8","","6.3","","61","","22","","6","","","","98.19","","","","","","NA"
"2008-06-04 19:00","2008","06","04","19:00","12.6","","10.6","","88","","15","","9","","","","98.24","","","","","","NA"
"2008-06-04 20:00","2008","06","04","20:00","12.1","","12.1","","100","","7","","9","","","","98.28","","","","","","NA"
"2008-06-04 21:00","2008","06","04","21:00","13.3","","13.3","","100","","14","","17","","","","98.23","","","","","","NA"
"2008-06-04 22:00","2008","06","04","22:00","14.3","","14.3","","100","","10","","13","","","","98.23","","","","","","NA"
"2008-06-04 23:00","2008","06","04","23:00","14.5","","14.5","","100","","13","","13","","","","98.15","","","","","","NA"
"2008-06-05 00:00","2008","06","05","00:00","14.7","","14.5","","99","","14","","9","","","","98.11","","","","","","NA"
"2008-06-05 01:00","2008","06","05","01:00","11.5","","11.4","","99","","18","","26","","","","98.13","","","","","","NA"
"2008-06-05 02:00","2008","06","05","02:00","11.0","","11.0","","100","","17","","24","","","","98.06","","","","","","NA"
"2008-06-05 03:00","2008","06","05","03:00","11.0","","11.0","","100","","18","","24","","","","98.05","","","","","","NA"
"2008-06-05 04:00","2008","06","05","04:00","9.2","","9.2","","100","","17","","26","","","","98.03","","","","","","NA"
"2008-06-05 05:00","2008","06","05","05:00","9.9","","9.9","","100","","16","","24","","","","98.09","","","","","","NA"
"2008-06-05 06:00","2008","06","05","06:00","8.2","","8.2","","100","","17","","19","","","","98.16","","","","","","NA"
"2008-06-05 07:00","2008","06","05","07:00","8.6","","8.6","","100","","17","","20","","","","98.19","","","","","","NA"
"2008-06-05 08:00","2008","06","05","08:00","7.3","","7.3","","100","","18","","17","","","","98.27","","","","","","NA"
"2008-06-05 09:00","2008","06","05","09:00","6.3","","6.3","","100","","22","","4","","","","98.34","","","","","","NA"
"2008-06-05 10:00","2008","06","05","10:00","6.5","","6.5","","100","","20","","4","","","","98.36","","","","","","NA"
"2008-06-05 11:00","2008","06","05","11:00","6.9","","6.9","","100","","20","","6","","","","98.35","","","","","","NA"
"2008-06-05 12:00","2008","06","05","12:00","6.1","","6.1","","100","","24","","7","","","","98.39","","","","","","NA"
"2008-06-05 13:00","2008","06","05","13:00","9.7","","9.7","","100","","33","","4","","","","98.34","","","","","","NA"
"2008-06-05 14:00","2008","06","05","14:00","6.5","","6.5","","100","","27","","7","","","","98.43","","","","","","NA"
"2008-06-05 15:00","2008","06","05","15:00","9.0","","8.5","","97","","28","","6","","","","98.46","","","","","","NA"
"2008-06-05 16:00","2008","06","05","16:00","8.4","","8.4","","100","","27","","2","","","","98.50","","","","","","NA"
"2008-06-05 17:00","2008","06","05","17:00","8.3","","8.3","","100","","29","","2","","","","98.63","","","","","","NA"
"2008-06-05 18:00","2008","06","05","18:00","10.2","","10.2","","100","","","","0","","","","98.59","","","","","","NA"
"2008-06-05 19:00","2008","06","05","19:00","9.0","","9.0","","100","","23","","2","","","","98.56","","","","","","NA"
"2008-06-05 20:00","2008","06","05","20:00","8.7","","8.7","","100","","2","","4","","","","98.61","","","","","","NA"
"2008-06-05 21:00","2008","06","05","21:00","9.5","","9.5","","100","","32","","2","","","","98.64","","","","","","NA"
"2008-06-05 22:00","2008","06","05","22:00","13.7","","13.3","","97","","4","","13","","","","98.70","","","","","","NA"
"2008-06-05 23:00","2008","06","05","23:00","14.0","","12.5","","91","","6","","19","","","","98.65","","","","","","NA"
"2008-06-06 00:00","2008","06","06","00:00","13.9","","12.4","","91","","6","","20","","","","98.74","","","","","","NA"
"2008-06-06 01:00","2008","06","06","01:00","13.2","","13.0","","99","","8","","20","","","","98.63","","","","","","NA"
"2008-06-06 02:00","2008","06","06","02:00","12.6","","12.6","","100","","8","","22","","","","98.57","","","","","","NA"
"2008-06-06 03:00","2008","06","06","03:00","12.4","","12.4","","100","","6","","20","","","","98.45","","","","","","NA"
"2008-06-06 04:00","2008","06","06","04:00","12.4","","12.2","","99","","7","","19","","","","98.49","","","","","","NA"
"2008-06-06 05:00","2008","06","06","05:00","12.7","","12.3","","97","","8","","28","","","","98.43","","","","","","NA"
"2008-06-06 06:00","2008","06","06","06:00","13.0","","12.4","","96","","7","","30","","","","98.37","","","","","","NA"
"2008-06-06 07:00","2008","06","06","07:00","13.4","","12.7","","96","","8","","37","","","","98.28","","","","","","NA"
"2008-06-06 08:00","2008","06","06","08:00","13.1","","13.1","","100","","9","","35","","","","98.19","","","","","","NA"
"2008-06-06 09:00","2008","06","06","09:00","13.8","","13.8","","100","","8","","35","","","","98.05","","","","","","NA"
"2008-06-06 10:00","2008","06","06","10:00","15.0","","15.0","","100","","9","","39","","","","97.89","","","","","","NA"
"2008-06-06 11:00","2008","06","06","11:00","16.2","","16.2","","100","","10","","39","","","","97.75","","","","","","NA"
"2008-06-06 12:00","2008","06","06","12:00","17.5","","17.5","","100","","10","","37","","","","97.62","","","","","","NA"
"2008-06-06 13:00","2008","06","06","13:00","18.5","","18.5","","100","","15","","26","","","","97.54","","","","","","NA"
"2008-06-06 14:00","2008","06","06","14:00","21.0","","18.7","","87","","17","","48","","","","97.46","","28","","","","NA"
"2008-06-06 15:00","2008","06","06","15:00","19.8","","17.1","","84","","17","","54","","","","97.36","","","","","","NA"
"2008-06-06 16:00","2008","06","06","16:00","20.5","","17.5","","83","","17","","50","","","","97.27","","26","","","","NA"
"2008-06-06 17:00","2008","06","06","17:00","19.4","","18.2","","93","","17","","50","","","","97.21","","","","","","NA"
"2008-06-06 18:00","2008","06","06","18:00","19.1","","17.7","","92","","17","","48","","","","97.12","","","","","","NA"
"2008-06-06 19:00","2008","06","06","19:00","15.6","","15.3","","98","","17","","41","","","","97.17","","","","","","NA"
"2008-06-06 20:00","2008","06","06","20:00","13.3","","13.3","","100","","18","","32","","","","97.17","","","","","","NA"
"2008-06-06 21:00","2008","06","06","21:00","8.6","","8.6","","100","","17","","30","","","","97.37","","","","","","NA"
"2008-06-06 22:00","2008","06","06","22:00","9.8","","9.8","","100","","18","","28","","","","97.39","","","","","","NA"
"2008-06-06 23:00","2008","06","06","23:00","11.0","","9.4","","90","","18","","30","","","","97.47","","","","","","NA"
"2008-06-07 00:00","2008","06","07","00:00","10.5","","8.5","","87","","20","","32","","","","97.51","","","","","","NA"
"2008-06-07 01:00","2008","06","07","01:00","7.8","","7.2","","96","","21","","22","","","","97.57","","","","","","NA"
"2008-06-07 02:00","2008","06","07","02:00","8.2","","7.6","","96","","23","","37","","","","97.60","","","","","","NA"
"2008-06-07 03:00","2008","06","07","03:00","8.7","","8.1","","96","","17","","32","","","","97.62","","","","","","NA"
"2008-06-07 04:00","2008","06","07","04:00","10.2","","8.4","","89","","18","","39","","","","97.67","","","","","","NA"
"2008-06-07 05:00","2008","06","07","05:00","8.3","","7.6","","95","","17","","39","","","","97.70","","","","","","NA"
"2008-06-07 06:00","2008","06","07","06:00","8.3","","7.4","","94","","17","","39","","","","97.75","","","","","","NA"
"2008-06-07 07:00","2008","06","07","07:00","9.3","","7.9","","91","","18","","43","","","","97.77","","","","","","NA"
"2008-06-07 08:00","2008","06","07","08:00","9.9","","8.5","","91","","17","","37","","","","97.75","","","","","","NA"
"2008-06-07 09:00","2008","06","07","09:00","9.3","","9.1","","99","","17","","41","","","","97.69","","","","","","NA"
"2008-06-07 10:00","2008","06","07","10:00","9.0","","9.0","","100","","17","","39","","","","97.70","","","","","","NA"
"2008-06-07 11:00","2008","06","07","11:00","9.1","","9.1","","100","","17","","39","","","","97.70","","","","","","NA"
"2008-06-07 12:00","2008","06","07","12:00","9.6","","9.6","","100","","17","","44","","","","97.72","","","","","","NA"
"2008-06-07 13:00","2008","06","07","13:00","9.6","","9.3","","98","","18","","41","","","","97.69","","","","","","NA"
"2008-06-07 14:00","2008","06","07","14:00","10.3","","10.0","","98","","18","","33","","","","97.68","","","","","","NA"
"2008-06-07 15:00","2008","06","07","15:00","12.1","","9.9","","86","","21","","7","","","","97.73","","","","","","NA"
"2008-06-07 16:00","2008","06","07","16:00","14.1","","10.7","","80","","16","","15","","","","97.76","","","","","","NA"
"2008-06-07 17:00","2008","06","07","17:00","13.8","","11.4","","85","","18","","19","","","","97.81","","","","","","NA"
"2008-06-07 18:00","2008","06","07","18:00","13.9","","11.2","","84","","19","","19","","","","97.81","","","","","","NA"
"2008-06-07 19:00","2008","06","07","19:00","14.2","","11.5","","84","","19","","22","","","","97.80","","","","","","NA"
"2008-06-07 20:00","2008","06","07","20:00","13.0","","11.3","","89","","20","","19","","","","97.83","","","","","","NA"
"2008-06-07 21:00","2008","06","07","21:00","10.6","","9.8","","95","","18","","19","","","","97.84","","","","","","NA"
"2008-06-07 22:00","2008","06","07","22:00","10.4","","9.9","","97","","17","","19","","","","97.85","","","","","","NA"
"2008-06-07 23:00","2008","06","07","23:00","10.2","","10.0","","99","","17","","9","","","","97.90","","","","","","NA"
"2008-06-08 00:00","2008","06","08","00:00","10.7","","10.2","","97","","20","","7","","","","97.94","","","","","","NA"
"2008-06-08 01:00","2008","06","08","01:00","9.1","","9.1","","100","","20","","4","","","","98.01","","","","","","NA"
"2008-06-08 02:00","2008","06","08","02:00","9.1","","9.1","","100","","15","","6","","","","98.02","","","","","","NA"
"2008-06-08 03:00","2008","06","08","03:00","9.3","","9.1","","99","","17","","6","","","","98.09","","","","","","NA"
"2008-06-08 04:00","2008","06","08","04:00","8.4","","8.4","","100","","7","","6","","","","98.09","","","","","","NA"
"2008-06-08 05:00","2008","06","08","05:00","7.8","","7.8","","100","","3","","6","","","","98.14","","","","","","NA"
"2008-06-08 06:00","2008","06","08","06:00","8.8","","8.8","","100","","7","","6","","","","98.20","","","","","","NA"
"2008-06-08 07:00","2008","06","08","07:00","11.5","","9.9","","90","","10","","2","","","","98.23","","","","","","NA"
"2008-06-08 08:00","2008","06","08","08:00","11.0","","8.8","","86","","22","","6","","","","98.30","","","","","","NA"
"2008-06-08 09:00","2008","06","08","09:00","12.1","","10.6","","91","","25","","4","","","","98.36","","","","","","NA"
"2008-06-08 10:00","2008","06","08","10:00","11.7","","10.4","","92","","23","","6","","","","98.37","","","","","","NA"
"2008-06-08 11:00","2008","06","08","11:00","14.0","","11.4","","84","","24","","6","","","","98.35","","","","","","NA"
"2008-06-08 12:00","2008","06","08","12:00","13.2","","11.0","","87","","25","","6","","","","98.34","","","","","","NA"
"2008-06-08 13:00","2008","06","08","13:00","11.5","","9.9","","90","","25","","9","","","","98.36","","","","","","NA"
"2008-06-08 14:00","2008","06","08","14:00","13.2","","10.4","","83","","27","","6","","","","98.38","","","","","","NA"
"2008-06-08 15:00","2008","06","08","15:00","12.6","","10.1","","85","","27","","4","","","","98.33","","","","","","NA"
"2008-06-08 16:00","2008","06","08","16:00","13.6","","10.3","","80","","32","","6","","","","98.33","","","","","","NA"
"2008-06-08 17:00","2008","06","08","17:00","14.0","","11.3","","84","","33","","4","","","","98.31","","","","","","NA"
"2008-06-08 18:00","2008","06","08","18:00","11.0","","8.0","","82","","25","","6","","","","98.31","","","","","","NA"
"2008-06-08 19:00","2008","06","08","19:00","10.5","","8.3","","86","","19","","4","","","","98.33","","","","","","NA"
"2008-06-08 20:00","2008","06","08","20:00","10.0","","8.4","","90","","20","","4","","","","98.29","","","","","","NA"
"2008-06-08 21:00","2008","06","08","21:00","11.7","","10.5","","92","","5","","6","","","","98.28","","","","","","NA"
"2008-06-08 22:00","2008","06","08","22:00","13.1","","11.4","","89","","8","","6","","","","98.32","","","","","","NA"
"2008-06-08 23:00","2008","06","08","23:00","18.6","","11.5","","63","","7","","20","","","","98.24","","","","","","NA"
"2008-06-09 00:00","2008","06","09","00:00","18.0","","11.3","","65","","7","","24","","","","98.15","","","","","","NA"
"2008-06-09 01:00","2008","06","09","01:00","17.3","","11.3","","68","","9","","20","","","","98.08","","","","","","NA"
"2008-06-09 02:00","2008","06","09","02:00","16.8","","11.6","","71","","8","","22","","","","98.01","","","","","","NA"
"2008-06-09 03:00","2008","06","09","03:00","16.2","","12.0","","76","","8","","20","","","","97.96","","","","","","NA"
"2008-06-09 04:00","2008","06","09","04:00","16.0","","12.2","","78","","8","","24","","","","97.84","","","","","","NA"
"2008-06-09 05:00","2008","06","09","05:00","15.2","","12.5","","84","","9","","28","","","","97.76","","","","","","NA"
"2008-06-09 06:00","2008","06","09","06:00","14.4","","14.1","","98","","8","","17","","","","97.73","","","","","","NA"
"2008-06-09 07:00","2008","06","09","07:00","13.5","","13.5","","100","","9","","19","","","","97.68","","","","","","NA"
"2008-06-09 08:00","2008","06","09","08:00","13.8","","13.8","","100","","9","","22","","","","97.57","","","","","","NA"
"2008-06-09 09:00","2008","06","09","09:00","14.1","","14.1","","100","","16","","17","","","","97.52","","","","","","NA"
"2008-06-09 10:00","2008","06","09","10:00","9.3","","9.3","","100","","20","","39","","","","97.61","","","","","","NA"
"2008-06-09 11:00","2008","06","09","11:00","8.1","","8.1","","100","","18","","20","","","","97.63","","","","","","NA"
"2008-06-09 12:00","2008","06","09","12:00","7.0","","7.0","","100","","18","","22","","","","97.72","","","","","","NA"
"2008-06-09 13:00","2008","06","09","13:00","6.3","","6.3","","100","","18","","20","","","","97.78","","","","","","NA"
"2008-06-09 14:00","2008","06","09","14:00","6.2","","6.2","","100","","18","","19","","","","97.81","","","","","","NA"
"2008-06-09 15:00","2008","06","09","15:00","6.1","","6.1","","100","","18","","19","","","","97.91","","","","","","NA"
"2008-06-09 16:00","2008","06","09","16:00","6.3","","6.3","","100","","18","","13","","","","98.02","","","","","","NA"
"2008-06-09 17:00","2008","06","09","17:00","5.9","","5.9","","100","","18","","9","","","","98.08","","","","","","NA"
"2008-06-09 18:00","2008","06","09","18:00","6.0","","6.0","","100","","17","","11","","","","98.09","","","","","","NA"
"2008-06-09 19:00","2008","06","09","19:00","6.2","","6.2","","100","","10","","2","","","","98.15","","","","","","NA"
"2008-06-09 20:00","2008","06","09","20:00","7.9","","7.9","","100","","3","","9","","","","98.11","","","","","","NA"
"2008-06-09 21:00","2008","06","09","21:00","8.7","","8.7","","100","","3","","13","","","","98.17","","","","","","NA"
"2008-06-09 22:00","2008","06","09","22:00","7.6","","7.6","","100","","4","","15","","","","98.22","","","","","","NA"
"2008-06-09 23:00","2008","06","09","23:00","6.7","","6.7","","100","","6","","19","","","","98.22","","","","","","NA"
"2008-06-10 00:00","2008","06","10","00:00","6.1","","6.1","","100","","5","","15","","","","98.27","","","","","","NA"
"2008-06-10 01:00","2008","06","10","01:00","6.0","","6.0","","100","","6","","11","","","","98.28","","","","","","NA"
"2008-06-10 02:00","2008","06","10","02:00","5.9","","5.9","","100","","5","","13","","","","98.33","","","","","","NA"
"2008-06-10 03:00","2008","06","10","03:00","6.0","","6.0","","100","","8","","11","","","","98.25","","","","","","NA"
"2008-06-10 04:00","2008","06","10","04:00","5.7","","5.7","","100","","7","","19","","","","98.17","","","","","","NA"
"2008-06-10 05:00","2008","06","10","05:00","5.3","","5.3","","100","","5","","22","","","","98.16","","","","","","NA"
"2008-06-10 06:00","2008","06","10","06:00","5.7","","5.7","","100","","5","","22","","","","98.24","","","","","","NA"
"2008-06-10 07:00","2008","06","10","07:00","6.1","","6.1","","100","","6","","19","","","","98.27","","","","","","NA"
"2008-06-10 08:00","2008","06","10","08:00","6.3","","6.3","","100","","6","","22","","","","98.28","","","","","","NA"
"2008-06-10 09:00","2008","06","10","09:00","7.1","","6.9","","99","","6","","24","","","","98.26","","","","","","NA"
"2008-06-10 10:00","2008","06","10","10:00","9.2","","7.6","","90","","6","","26","","","","98.27","","","","","","NA"
"2008-06-10 11:00","2008","06","10","11:00","9.3","","7.3","","87","","7","","17","","","","98.30","","","","","","NA"
"2008-06-10 12:00","2008","06","10","12:00","9.9","","7.9","","87","","6","","15","","","","98.32","","","","","","NA"
"2008-06-10 13:00","2008","06","10","13:00","10.9","","7.9","","82","","5","","20","","","","98.29","","","","","","NA"
"2008-06-10 14:00","2008","06","10","14:00","10.4","","8.5","","88","","4","","15","","","","98.31","","","","","","NA"
"2008-06-10 15:00","2008","06","10","15:00","10.7","","8.3","","85","","5","","20","","","","98.36","","","","","","NA"
"2008-06-10 16:00","2008","06","10","16:00","10.6","","8.2","","85","","2","","17","","","","98.43","","","","","","NA"
"2008-06-10 17:00","2008","06","10","17:00","10.2","","8.3","","88","","3","","17","","","","98.45","","","","","","NA"
"2008-06-10 18:00","2008","06","10","18:00","10.2","","8.0","","86","","4","","13","","","","98.55","","","","","","NA"
"2008-06-10 19:00","2008","06","10","19:00","9.7","","8.1","","90","","4","","9","","","","98.61","","","","","","NA"
"2008-06-10 20:00","2008","06","10","20:00","9.4","","8.3","","93","","3","","7","","","","98.67","","","","","","NA"
"2008-06-10 21:00","2008","06","10","21:00","8.0","","8.0","","100","","1","","11","","","","98.75","","","","","","NA"
"2008-06-10 22:00","2008","06","10","22:00","7.6","","7.6","","100","","36","","9","","","","98.84","","","","","","NA"
"2008-06-10 23:00","2008","06","10","23:00","7.4","","7.4","","100","","2","","7","","","","98.90","","","","","","NA"
"2008-06-11 00:00","2008","06","11","00:00","7.2","","7.2","","100","","1","","9","","","","98.98","","","","","","NA"
"2008-06-11 01:00","2008","06","11","01:00","7.0","","7.0","","100","","1","","9","","","","99.03","","","","","","NA"
"2008-06-11 02:00","2008","06","11","02:00","6.6","","6.6","","100","","1","","7","","","","99.07","","","","","","NA"
"2008-06-11 03:00","2008","06","11","03:00","6.1","","6.1","","100","","3","","9","","","","99.13","","","","","","NA"
"2008-06-11 04:00","2008","06","11","04:00","5.8","","5.7","","99","","4","","13","","","","99.21","","","","","","NA"
"2008-06-11 05:00","2008","06","11","05:00","5.1","","5.1","","100","","7","","2","","","","99.30","","","","","","NA"
"2008-06-11 06:00","2008","06","11","06:00","5.8","","5.5","","98","","34","","7","","","","99.50","","","","","","NA"
"2008-06-11 07:00","2008","06","11","07:00","7.9","","6.2","","89","","4","","7","","","","99.47","","","","","","NA"
"2008-06-11 08:00","2008","06","11","08:00","10.2","","6.5","","78","","3","","7","","","","99.43","","","","","","NA"
"2008-06-11 09:00","2008","06","11","09:00","11.7","","5.5","","66","","4","","11","","","","99.51","","","","","","NA"
"2008-06-11 10:00","2008","06","11","10:00","6.4","","5.3","","93","","26","","13","","","","99.52","","","","","","NA"
"2008-06-11 11:00","2008","06","11","11:00","8.0","","5.4","","84","","28","","15","","","","99.58","","","","","","NA"
"2008-06-11 12:00","2008","06","11","12:00","10.1","","5.5","","73","","28","","11","","","","99.64","","","","","","NA"
"2008-06-11 13:00","2008","06","11","13:00","9.2","","5.4","","77","","26","","11","","","","99.68","","","","","","NA"
"2008-06-11 14:00","2008","06","11","14:00","9.1","","5.4","","78","","30","","17","","","","99.70","","","","","","NA"
"2008-06-11 15:00","2008","06","11","15:00","11.4","","6.5","","72","","30","","11","","","","99.64","","","","","","NA"
"2008-06-11 16:00","2008","06","11","16:00","11.2","","6.0","","70","","29","","11","","","","99.53","","","","","","NA"
"2008-06-11 17:00","2008","06","11","17:00","8.1","","5.3","","82","","21","","11","","","","99.53","","","","","","NA"
"2008-06-11 18:00","2008","06","11","18:00","10.5","","6.0","","74","","14","","2","","","","99.54","","","","","","NA"
"2008-06-11 19:00","2008","06","11","19:00","7.2","","5.1","","86","","20","","4","","","","99.56","","","","","","NA"
"2008-06-11 20:00","2008","06","11","20:00","7.6","","5.9","","89","","8","","2","","","","99.58","","","","","","NA"
"2008-06-11 21:00","2008","06","11","21:00","5.6","","4.9","","95","","23","","6","","","","99.69","","","","","","NA"
"2008-06-11 22:00","2008","06","11","22:00","6.1","","5.5","","96","","5","","9","","","","99.66","","","","","","NA"
"2008-06-11 23:00","2008","06","11","23:00","8.0","","6.1","","88","","6","","13","","","","99.61","","","","","","NA"
"2008-06-12 00:00","2008","06","12","00:00","7.4","","5.8","","90","","9","","6","","","","99.57","","","","","","NA"
"2008-06-12 01:00","2008","06","12","01:00","10.7","","6.9","","77","","9","","20","","","","99.53","","","","","","NA"
"2008-06-12 02:00","2008","06","12","02:00","12.8","","6.7","","66","","9","","19","","","","99.63","","","","","","NA"
"2008-06-12 03:00","2008","06","12","03:00","10.1","","8.8","","92","","14","","7","","","","99.67","","","","","","NA"
"2008-06-12 04:00","2008","06","12","04:00","10.6","","10.5","","99","","8","","15","","","","99.57","","","","","","NA"
"2008-06-12 05:00","2008","06","12","05:00","11.4","","10.4","","94","","8","","9","","","","99.52","","","","","","NA"
"2008-06-12 06:00","2008","06","12","06:00","11.8","","11.2","","96","","9","","20","","","","99.46","","","","","","NA"
"2008-06-12 07:00","2008","06","12","07:00","12.0","","11.6","","97","","10","","13","","","","99.34","","","","","","NA"
"2008-06-12 08:00","2008","06","12","08:00","12.5","","11.3","","92","","12","","15","","","","99.28","","","","","","NA"
"2008-06-12 09:00","2008","06","12","09:00","14.1","","11.7","","85","","10","","19","","","","99.19","","","","","","NA"
"2008-06-12 10:00","2008","06","12","10:00","16.8","","12.2","","74","","11","","26","","","","99.04","","","","","","NA"
"2008-06-12 11:00","2008","06","12","11:00","10.9","","8.7","","86","","28","","20","","","","99.25","","","","","","NA"
"2008-06-12 12:00","2008","06","12","12:00","13.6","","13.6","","100","","11","","20","","","","99.09","","","","","","NA"
"2008-06-12 13:00","2008","06","12","13:00","13.8","","13.8","","100","","13","","26","","","","99.01","","","","","","NA"
"2008-06-12 14:00","2008","06","12","14:00","14.6","","14.4","","99","","14","","30","","","","98.96","","","","","","NA"
"2008-06-12 15:00","2008","06","12","15:00","14.8","","14.0","","95","","14","","32","","","","98.85","","","","","","NA"
"2008-06-12 16:00","2008","06","12","16:00","16.0","","14.4","","90","","14","","33","","","","98.81","","","","","","NA"
"2008-06-12 17:00","2008","06","12","17:00","16.8","","14.8","","88","","14","","24","","","","98.70","","","","","","NA"
"2008-06-12 18:00","2008","06","12","18:00","17.2","","14.9","","86","","14","","28","","","","98.67","","","","","","NA"
"2008-06-12 19:00","2008","06","12","19:00","15.8","","13.0","","83","","16","","20","","","","98.69","","","","","","NA"
"2008-06-12 20:00","2008","06","12","20:00","15.1","","15.1","","100","","13","","19","","","","98.53","","","","","","NA"
"2008-06-12 21:00","2008","06","12","21:00","13.7","","13.7","","100","","16","","20","","","","98.55","","","","","","NA"
"2008-06-12 22:00","2008","06","12","22:00","13.2","","13.2","","100","","16","","9","","","","98.50","","","","","","NA"
"2008-06-12 23:00","2008","06","12","23:00","16.3","","16.3","","100","","14","","24","","","","98.38","","","","","","NA"
"2008-06-13 00:00","2008","06","13","00:00","17.7","","17.7","","100","","15","","37","","","","98.31","","","","","","NA"
"2008-06-13 01:00","2008","06","13","01:00","14.5","","14.5","","100","","17","","41","","","","98.30","","","","","","NA"
"2008-06-13 02:00","2008","06","13","02:00","15.9","","15.9","","100","","17","","37","","","","98.25","","","","","","NA"
"2008-06-13 03:00","2008","06","13","03:00","15.1","","15.1","","100","","17","","24","","","","98.26","","","","","","NA"
"2008-06-13 04:00","2008","06","13","04:00","16.3","","16.3","","100","","15","","19","","","","98.12","","","","","","NA"
"2008-06-13 05:00","2008","06","13","05:00","15.2","","15.2","","100","","17","","33","","","","98.11","","","","","","NA"
"2008-06-13 06:00","2008","06","13","06:00","15.4","","15.4","","100","","17","","32","","","","98.07","","","","","","NA"
"2008-06-13 07:00","2008","06","13","07:00","13.5","","13.5","","100","","17","","30","","","","98.05","","","","","","NA"
"2008-06-13 08:00","2008","06","13","08:00","11.5","","11.5","","100","","17","","30","","","","98.03","","","","","","NA"
"2008-06-13 09:00","2008","06","13","09:00","10.0","","10.0","","100","","17","","26","","","","98.05","","","","","","NA"
"2008-06-13 10:00","2008","06","13","10:00","10.4","","10.4","","100","","17","","30","","","","98.05","","","","","","NA"
"2008-06-13 11:00","2008","06","13","11:00","12.0","","12.0","","100","","17","","33","","","","98.03","","","","","","NA"
"2008-06-13 12:00","2008","06","13","12:00","10.5","","10.5","","100","","17","","32","","","","98.05","","","","","","NA"
"2008-06-13 13:00","2008","06","13","13:00","11.5","","11.5","","100","","19","","35","","","","98.17","","","","","","NA"
"2008-06-13 14:00","2008","06","13","14:00","9.8","","9.8","","100","","18","","24","","","","98.19","","","","","","NA"
"2008-06-13 15:00","2008","06","13","15:00","10.6","","10.6","","100","","17","","30","","","","98.17","","","","","","NA"
"2008-06-13 16:00","2008","06","13","16:00","11.8","","11.8","","100","","18","","30","","","","98.12","","","","","","NA"
"2008-06-13 17:00","2008","06","13","17:00","12.2","","11.1","","93","","20","","11","","","","98.17","","","","","","NA"
"2008-06-13 18:00","2008","06","13","18:00","13.3","","11.4","","88","","18","","17","","","","98.14","","","","","","NA"
"2008-06-13 19:00","2008","06","13","19:00","10.7","","10.4","","98","","17","","26","","","","98.16","","","","","","NA"
"2008-06-13 20:00","2008","06","13","20:00","9.3","","9.3","","100","","18","","24","","","","98.15","","","","","","NA"
"2008-06-13 21:00","2008","06","13","21:00","9.8","","8.9","","94","","17","","20","","","","98.19","","","","","","NA"
"2008-06-13 22:00","2008","06","13","22:00","10.3","","8.0","","86","","18","","19","","","","98.20","","","","","","NA"
"2008-06-13 23:00","2008","06","13","23:00","9.5","","7.9","","90","","17","","24","","","","98.20","","","","","","NA"
"2008-06-14 00:00","2008","06","14","00:00","8.6","","7.5","","93","","17","","22","","","","98.18","","","","","","NA"
"2008-06-14 01:00","2008","06","14","01:00","9.3","","7.3","","87","","22","","2","","","","98.18","","","","","","NA"
"2008-06-14 02:00","2008","06","14","02:00","9.5","","8.2","","92","","14","","6","","","","98.16","","","","","","NA"
"2008-06-14 03:00","2008","06","14","03:00","8.9","","8.0","","94","","17","","13","","","","98.16","","","","","","NA"
"2008-06-14 04:00","2008","06","14","04:00","7.6","","7.2","","97","","20","","13","","","","98.16","","","","","","NA"
"2008-06-14 05:00","2008","06","14","05:00","8.1","","7.8","","98","","16","","28","","","","98.16","","","","","","NA"
"2008-06-14 06:00","2008","06","14","06:00","9.4","","8.4","","93","","17","","28","","","","98.15","","","","","","NA"
"2008-06-14 07:00","2008","06","14","07:00","8.7","","7.9","","95","","17","","24","","","","98.20","","","","","","NA"
"2008-06-14 08:00","2008","06","14","08:00","10.0","","7.9","","87","","18","","20","","","","98.21","","","","","","NA"
"2008-06-14 09:00","2008","06","14","09:00","10.0","","7.7","","86","","18","","20","","","","98.23","","","","","","NA"
"2008-06-14 10:00","2008","06","14","10:00","10.8","","8.2","","84","","18","","22","","","","98.21","","","","","","NA"
"2008-06-14 11:00","2008","06","14","11:00","12.4","","9.0","","80","","20","","13","","","","98.23","","","","","","NA"
"2008-06-14 12:00","2008","06","14","12:00","10.9","","7.7","","81","","18","","19","","","","98.22","","","","","","NA"
"2008-06-14 13:00","2008","06","14","13:00","11.7","","8.7","","82","","18","","19","","","","98.22","","","","","","NA"
"2008-06-14 14:00","2008","06","14","14:00","9.8","","7.9","","88","","18","","22","","","","98.24","","","","","","NA"
"2008-06-14 15:00","2008","06","14","15:00","11.1","","8.9","","86","","19","","22","","","","98.25","","","","","","NA"
"2008-06-14 16:00","2008","06","14","16:00","12.0","","9.3","","84","","18","","17","","","","98.25","","","","","","NA"
"2008-06-14 17:00","2008","06","14","17:00","9.6","","8.1","","90","","17","","17","","","","98.21","","","","","","NA"
"2008-06-14 18:00","2008","06","14","18:00","10.0","","8.6","","91","","20","","11","","","","98.19","","","","","","NA"
"2008-06-14 19:00","2008","06","14","19:00","9.6","","8.4","","92","","17","","11","","","","98.20","","","","","","NA"
"2008-06-14 20:00","2008","06","14","20:00","6.8","","6.5","","98","","24","","7","","","","98.22","","","","","","NA"
"2008-06-14 21:00","2008","06","14","21:00","6.6","","6.6","","100","","16","","11","","","","98.23","","","","","","NA"
"2008-06-14 22:00","2008","06","14","22:00","6.5","","6.5","","100","","17","","22","","","","98.23","","","","","","NA"
"2008-06-14 23:00","2008","06","14","23:00","6.2","","6.2","","100","","18","","11","","","","98.24","","","","","","NA"
"2008-06-15 00:00","2008","06","15","00:00","6.9","","6.9","","100","","18","","15","","","","98.21","","","","","","NA"
"2008-06-15 01:00","2008","06","15","01:00","6.7","","6.7","","100","","17","","2","","","","98.15","","","","","","NA"
"2008-06-15 02:00","2008","06","15","02:00","7.4","","7.4","","100","","32","","6","","","","98.13","","","","","","NA"
"2008-06-15 03:00","2008","06","15","03:00","8.7","","8.7","","100","","15","","9","","","","98.09","","","","","","NA"
"2008-06-15 04:00","2008","06","15","04:00","11.0","","10.5","","97","","16","","17","","","","98.03","","","","","","NA"
"2008-06-15 05:00","2008","06","15","05:00","10.2","","9.9","","98","","16","","26","","","","97.98","","","","","","NA"
"2008-06-15 06:00","2008","06","15","06:00","10.0","","9.4","","96","","16","","20","","","","97.92","","","","","","NA"
"2008-06-15 07:00","2008","06","15","07:00","10.6","","9.9","","95","","20","","28","","","","97.97","","","","","","NA"
"2008-06-15 08:00","2008","06","15","08:00","10.2","","10.1","","99","","19","","22","","","","97.97","","","","","","NA"
"2008-06-15 09:00","2008","06","15","09:00","9.5","","9.5","","100","","16","","19","","","","97.99","","","","","","NA"
"2008-06-15 10:00","2008","06","15","10:00","8.2","","8.2","","100","","17","","22","","","","97.93","","","","","","NA"
"2008-06-15 11:00","2008","06","15","11:00","6.8","","6.8","","100","","23","","6","","","","97.94","","","","","","NA"
"2008-06-15 12:00","2008","06","15","12:00","7.3","","7.3","","100","","23","","6","","","","97.94","","","","","","NA"
"2008-06-15 13:00","2008","06","15","13:00","7.9","","7.9","","100","","17","","19","","","","97.90","","","","","","NA"
"2008-06-15 14:00","2008","06","15","14:00","6.8","","6.8","","100","","17","","15","","","","97.95","","","","","","NA"
"2008-06-15 15:00","2008","06","15","15:00","7.9","","7.9","","100","","17","","19","","","","97.96","","","","","","NA"
"2008-06-15 16:00","2008","06","15","16:00","6.5","","6.5","","100","","19","","17","","","","97.99","","","","","","NA"
"2008-06-15 17:00","2008","06","15","17:00","8.5","","8.5","","100","","20","","9","","","","97.98","","","","","","NA"
"2008-06-15 18:00","2008","06","15","18:00","6.4","","6.4","","100","","19","","13","","","","97.97","","","","","","NA"
"2008-06-15 19:00","2008","06","15","19:00","5.5","","5.5","","100","","17","","9","","","","98.03","","","","","","NA"
"2008-06-15 20:00","2008","06","15","20:00","5.7","","5.7","","100","","16","","7","","","","98.08","","","","","","NA"
"2008-06-15 21:00","2008","06","15","21:00","5.6","","5.6","","100","","15","","4","","","","98.10","","","","","","NA"
"2008-06-15 22:00","2008","06","15","22:00","5.7","","5.7","","100","","16","","4","","","","98.12","","","","","","NA"
"2008-06-15 23:00","2008","06","15","23:00","4.8","","4.8","","100","","1","","2","","","","98.11","","","","","","NA"
"2008-06-16 00:00","2008","06","16","00:00","4.8","","4.8","","100","","23","","4","","","","98.15","","","","","","NA"
"2008-06-16 01:00","2008","06","16","01:00","5.6","","5.6","","100","","3","","4","","","","98.12","","","","","","NA"
"2008-06-16 02:00","2008","06","16","02:00","5.5","","5.5","","100","","26","","4","","","","98.13","","","","","","NA"
"2008-06-16 03:00","2008","06","16","03:00","6.1","","6.1","","100","","","","0","","","","98.14","","","","","","NA"
"2008-06-16 04:00","2008","06","16","04:00","6.0","","6.0","","100","","4","","2","","","","98.17","","","","","","NA"
"2008-06-16 05:00","2008","06","16","05:00","7.7","","7.7","","100","","3","","7","","","","98.20","","","","","","NA"
"2008-06-16 06:00","2008","06","16","06:00","8.7","","8.7","","100","","36","","4","","","","98.23","","","","","","NA"
"2008-06-16 07:00","2008","06","16","07:00","8.7","","8.7","","100","","31","","6","","","","98.26","","","","","","NA"
"2008-06-16 08:00","2008","06","16","08:00","9.2","","9.2","","100","","32","","9","","","","98.28","","","","","","NA"
"2008-06-16 09:00","2008","06","16","09:00","10.1","","9.7","","97","","32","","7","","","","98.28","","","","","","NA"
"2008-06-16 10:00","2008","06","16","10:00","10.2","","8.8","","91","","29","","9","","","","98.30","","","","","","NA"
"2008-06-16 11:00","2008","06","16","11:00","8.6","","7.8","","95","","28","","13","","","","98.31","","","","","","NA"
"2008-06-16 12:00","2008","06","16","12:00","8.4","","7.0","","91","","25","","11","","","","98.33","","","","","","NA"
"2008-06-16 13:00","2008","06","16","13:00","7.6","","7.0","","96","","24","","4","","","","98.35","","","","","","NA"
"2008-06-16 14:00","2008","06","16","14:00","8.9","","7.5","","91","","26","","6","","","","98.36","","","","","","NA"
"2008-06-16 15:00","2008","06","16","15:00","8.0","","7.4","","96","","23","","6","","","","98.37","","","","","","NA"
"2008-06-16 16:00","2008","06","16","16:00","7.5","","6.3","","92","","21","","9","","","","98.38","","","","","","NA"
"2008-06-16 17:00","2008","06","16","17:00","7.4","","6.6","","95","","23","","7","","","","98.40","","","","","","NA"
"2008-06-16 18:00","2008","06","16","18:00","8.9","","7.9","","93","","28","","6","","","","98.39","","","","","","NA"
"2008-06-16 19:00","2008","06","16","19:00","11.2","","8.5","","83","","31","","11","","","","98.43","","","","","","NA"
"2008-06-16 20:00","2008","06","16","20:00","10.4","","8.5","","88","","32","","13","","","","98.47","","","","","","NA"
"2008-06-16 21:00","2008","06","16","21:00","10.2","","7.9","","86","","34","","11","","","","98.50","","","","","","NA"
"2008-06-16 22:00","2008","06","16","22:00","9.3","","8.0","","92","","32","","17","","","","98.51","","","","","","NA"
"2008-06-16 23:00","2008","06","16","23:00","8.8","","8.2","","96","","33","","13","","","","98.51","","","","","","NA"
"2008-06-17 00:00","2008","06","17","00:00","8.4","","8.1","","98","","32","","7","","","","98.49","","","","","","NA"
"2008-06-17 01:00","2008","06","17","01:00","7.2","","7.2","","100","","31","","9","","","","98.46","","","","","","NA"
"2008-06-17 02:00","2008","06","17","02:00","6.7","","6.7","","100","","31","","6","","","","98.43","","","","","","NA"
"2008-06-17 03:00","2008","06","17","03:00","6.7","","6.7","","100","","32","","9","","","","98.43","","","","","","NA"
"2008-06-17 04:00","2008","06","17","04:00","6.6","","6.6","","100","","33","","7","","","","98.42","","","","","","NA"
"2008-06-17 05:00","2008","06","17","05:00","6.9","","6.9","","100","","33","","7","","","","98.44","","","","","","NA"
"2008-06-17 06:00","2008","06","17","06:00","6.8","","6.8","","100","","32","","11","","","","98.43","","","","","","NA"
"2008-06-17 07:00","2008","06","17","07:00","6.5","","6.5","","100","","32","","4","","","","98.44","","","","","","NA"
"2008-06-17 08:00","2008","06","17","08:00","6.5","","6.5","","100","","27","","7","","","","98.45","","","","","","NA"
"2008-06-17 09:00","2008","06","17","09:00","6.2","","6.2","","100","","28","","13","","","","98.45","","","","","","NA"
"2008-06-17 10:00","2008","06","17","10:00","6.5","","6.5","","100","","30","","7","","","","98.43","","","","","","NA"
"2008-06-17 11:00","2008","06","17","11:00","6.7","","6.7","","100","","31","","11","","","","98.41","","","","","","NA"
"2008-06-17 12:00","2008","06","17","12:00","8.1","","8.1","","100","","30","","7","","","","98.40","","","","","","NA"
"2008-06-17 13:00","2008","06","17","13:00","9.8","","9.8","","100","","30","","7","","","","98.43","","","","","","NA"
"2008-06-17 14:00","2008","06","17","14:00","11.8","","11.6","","99","","35","","9","","","","98.44","","","","","","NA"
"2008-06-17 15:00","2008","06","17","15:00","11.9","","11.3","","96","","36","","13","","","","98.48","","","","","","NA"
"2008-06-17 16:00","2008","06","17","16:00","12.5","","10.8","","89","","3","","9","","","","98.54","","","","","","NA"
"2008-06-17 17:00","2008","06","17","17:00","12.1","","10.0","","87","","36","","13","","","","98.58","","","","","","NA"
"2008-06-17 18:00","2008","06","17","18:00","11.4","","9.6","","89","","2","","9","","","","98.61","","","","","","NA"
"2008-06-17 19:00","2008","06","17","19:00","10.2","","10.2","","100","","32","","7","","","","98.62","","","","","","NA"
"2008-06-17 20:00","2008","06","17","20:00","9.7","","9.7","","100","","4","","6","","","","98.62","","","","","","NA"
"2008-06-17 21:00","2008","06","17","21:00","9.5","","9.5","","100","","2","","6","","","","98.65","","","","","","NA"
"2008-06-17 22:00","2008","06","17","22:00","9.1","","9.1","","100","","4","","9","","","","98.69","","","","","","NA"
"2008-06-17 23:00","2008","06","17","23:00","8.6","","8.6","","100","","5","","7","","","","98.69","","","","","","NA"
"2008-06-18 00:00","2008","06","18","00:00","8.3","","8.3","","100","","1","","7","","","","98.72","","","","","","NA"
"2008-06-18 01:00","2008","06","18","01:00","8.2","","8.2","","100","","1","","6","","","","98.70","","","","","","NA"
"2008-06-18 02:00","2008","06","18","02:00","7.8","","7.8","","100","","1","","9","","","","98.70","","","","","","NA"
"2008-06-18 03:00","2008","06","18","03:00","7.6","","7.6","","100","","1","","7","","","","98.69","","","","","","NA"
"2008-06-18 04:00","2008","06","18","04:00","7.5","","7.5","","100","","36","","4","","","","98.73","","","","","","NA"
"2008-06-18 05:00","2008","06","18","05:00","7.4","","7.4","","100","","1","","9","","","","98.72","","","","","","NA"
"2008-06-18 06:00","2008","06","18","06:00","7.6","","7.6","","100","","2","","4","","","","98.72","","","","","","NA"
"2008-06-18 07:00","2008","06","18","07:00","8.0","","8.0","","100","","33","","4","","","","98.75","","","","","","NA"
"2008-06-18 08:00","2008","06","18","08:00","8.1","","8.1","","100","","28","","6","","","","98.76","","","","","","NA"
"2008-06-18 09:00","2008","06","18","09:00","8.0","","8.0","","100","","29","","7","","","","98.75","","","","","","NA"
"2008-06-18 10:00","2008","06","18","10:00","7.6","","7.6","","100","","30","","7","","","","98.76","","","","","","NA"
"2008-06-18 11:00","2008","06","18","11:00","7.6","","7.6","","100","","31","","6","","","","98.78","","","","","","NA"
"2008-06-18 12:00","2008","06","18","12:00","7.2","","7.2","","100","","21","","4","","","","98.77","","","","","","NA"
"2008-06-18 13:00","2008","06","18","13:00","7.1","","7.1","","100","","24","","6","","","","98.75","","","","","","NA"
"2008-06-18 14:00","2008","06","18","14:00","8.6","","8.6","","100","","22","","2","","","","98.72","","","","","","NA"
"2008-06-18 15:00","2008","06","18","15:00","8.2","","8.2","","100","","23","","4","","","","98.70","","","","","","NA"
"2008-06-18 16:00","2008","06","18","16:00","8.6","","8.6","","100","","25","","4","","","","98.68","","","","","","NA"
"2008-06-18 17:00","2008","06","18","17:00","7.8","","7.6","","99","","23","","11","","","","98.68","","","","","","NA"
"2008-06-18 18:00","2008","06","18","18:00","7.8","","7.8","","100","","24","","4","","","","98.66","","","","","","NA"
"2008-06-18 19:00","2008","06","18","19:00","7.2","","7.2","","100","","22","","2","","","","98.64","","","","","","NA"
"2008-06-18 20:00","2008","06","18","20:00","7.1","","7.1","","100","","27","","2","","","","98.62","","","","","","NA"
"2008-06-18 21:00","2008","06","18","21:00","8.1","","8.1","","100","","27","","2","","","","98.63","","","","","","NA"
"2008-06-18 22:00","2008","06","18","22:00","7.8","","7.8","","100","","31","","2","","","","98.65","","","","","","NA"
"2008-06-18 23:00","2008","06","18","23:00","6.8","","6.8","","100","","","","0","","","","98.62","","","","","","NA"
"2008-06-19 00:00","2008","06","19","00:00","7.2","","7.2","","100","","","","0","","","","98.61","","","","","","NA"
"2008-06-19 01:00","2008","06","19","01:00","7.8","","7.8","","100","","7","","2","","","","98.57","","","","","","NA"
"2008-06-19 02:00","2008","06","19","02:00","8.1","","8.1","","100","","","","0","","","","98.56","","","","","","NA"
"2008-06-19 03:00","2008","06","19","03:00","8.0","","8.0","","100","","27","","4","","","","98.54","","","","","","NA"
"2008-06-19 04:00","2008","06","19","04:00","8.0","","8.0","","100","","32","","2","","","","98.55","","","","","","NA"
"2008-06-19 05:00","2008","06","19","05:00","9.1","","9.1","","100","","33","","2","","","","98.56","","","","","","NA"
"2008-06-19 06:00","2008","06","19","06:00","9.1","","9.1","","100","","7","","6","","","","98.55","","","","","","NA"
"2008-06-19 07:00","2008","06","19","07:00","9.4","","9.4","","100","","27","","4","","","","98.59","","","","","","NA"
"2008-06-19 08:00","2008","06","19","08:00","10.9","","10.9","","100","","31","","6","","","","98.64","","","","","","NA"
"2008-06-19 09:00","2008","06","19","09:00","10.3","","10.3","","100","","32","","7","","","","98.66","","","","","","NA"
"2008-06-19 10:00","2008","06","19","10:00","10.9","","10.9","","100","","31","","9","","","","98.68","","","","","","NA"
"2008-06-19 11:00","2008","06","19","11:00","12.6","","12.2","","97","","29","","6","","","","98.64","","","","","","NA"
"2008-06-19 12:00","2008","06","19","12:00","11.3","","11.1","","99","","24","","7","","","","98.61","","","","","","NA"
"2008-06-19 13:00","2008","06","19","13:00","12.4","","11.4","","94","","25","","9","","","","98.63","","","","","","NA"
"2008-06-19 14:00","2008","06","19","14:00","11.5","","11.4","","99","","23","","6","","","","98.60","","","","","","NA"
"2008-06-19 15:00","2008","06","19","15:00","11.1","","10.8","","98","","30","","6","","","","98.62","","","","","","NA"
"2008-06-19 16:00","2008","06","19","16:00","10.7","","10.0","","95","","24","","7","","","","98.58","","","","","","NA"
"2008-06-19 17:00","2008","06","19","17:00","11.0","","9.6","","91","","24","","6","","","","98.61","","","","","","NA"
"2008-06-19 18:00","2008","06","19","18:00","9.9","","9.9","","100","","26","","4","","","","98.61","","","","","","NA"
"2008-06-19 19:00","2008","06","19","19:00","10.8","","10.5","","98","","21","","4","","","","98.62","","","","","","NA"
"2008-06-19 20:00","2008","06","19","20:00","10.4","","10.4","","100","","21","","6","","","","98.60","","","","","","NA"
"2008-06-19 21:00","2008","06","19","21:00","9.8","","9.8","","100","","16","","6","","","","98.60","","","","","","NA"
"2008-06-19 22:00","2008","06","19","22:00","9.1","","9.1","","100","","16","","6","","","","98.61","","","","","","NA"
"2008-06-19 23:00","2008","06","19","23:00","9.4","","9.4","","100","","28","","4","","","","98.59","","","","","","NA"
"2008-06-20 00:00","2008","06","20","00:00","8.6","","8.6","","100","","22","","6","","","","98.61","","","","","","NA"
"2008-06-20 01:00","2008","06","20","01:00","7.4","","7.4","","100","","18","","7","","","","98.64","","","","","","NA"
"2008-06-20 02:00","2008","06","20","02:00","6.8","","6.8","","100","","17","","17","","","","98.64","","","","","","NA"
"2008-06-20 03:00","2008","06","20","03:00","7.0","","7.0","","100","","19","","13","","","","98.65","","","","","","NA"
"2008-06-20 04:00","2008","06","20","04:00","6.0","","6.0","","100","","23","","6","","","","98.64","","","","","","NA"
"2008-06-20 05:00","2008","06","20","05:00","6.4","","6.4","","100","","15","","6","","","","98.63","","","","","","NA"
"2008-06-20 06:00","2008","06","20","06:00","6.9","","6.9","","100","","4","","4","","","","98.63","","","","","","NA"
"2008-06-20 07:00","2008","06","20","07:00","9.7","","9.7","","100","","5","","6","","","","98.61","","","","","","NA"
"2008-06-20 08:00","2008","06","20","08:00","12.6","","12.5","","99","","36","","4","","","","98.59","","","","","","NA"
"2008-06-20 09:00","2008","06","20","09:00","12.8","","11.8","","94","","23","","6","","","","98.62","","","","","","NA"
"2008-06-20 10:00","2008","06","20","10:00","12.0","","10.5","","91","","24","","9","","","","98.65","","","","","","NA"
"2008-06-20 11:00","2008","06","20","11:00","10.9","","9.1","","89","","26","","9","","","","98.70","","","","","","NA"
"2008-06-20 12:00","2008","06","20","12:00","9.8","","8.5","","92","","25","","7","","","","98.68","","","","","","NA"
"2008-06-20 13:00","2008","06","20","13:00","10.3","","9.1","","92","","20","","6","","","","98.65","","","","","","NA"
"2008-06-20 14:00","2008","06","20","14:00","9.0","","8.4","","96","","24","","9","","","","98.67","","","","","","NA"
"2008-06-20 15:00","2008","06","20","15:00","9.5","","8.2","","92","","21","","11","","","","98.63","","","","","","NA"
"2008-06-20 16:00","2008","06","20","16:00","10.4","","8.3","","87","","18","","11","","","","98.61","","","","","","NA"
"2008-06-20 17:00","2008","06","20","17:00","9.7","","8.0","","89","","19","","7","","","","98.59","","","","","","NA"
"2008-06-20 18:00","2008","06","20","18:00","9.2","","8.0","","92","","17","","11","","","","98.58","","","","","","NA"
"2008-06-20 19:00","2008","06","20","19:00","8.6","","7.6","","93","","18","","7","","","","98.53","","","","","","NA"
"2008-06-20 20:00","2008","06","20","20:00","7.7","","7.4","","98","","16","","6","","","","98.51","","","","","","NA"
"2008-06-20 21:00","2008","06","20","21:00","7.2","","7.2","","100","","16","","7","","","","98.58","","","","","","NA"
"2008-06-20 22:00","2008","06","20","22:00","7.1","","7.1","","100","","17","","19","","","","98.59","","","","","","NA"
"2008-06-20 23:00","2008","06","20","23:00","6.8","","6.8","","100","","16","","19","","","","98.59","","","","","","NA"
"2008-06-21 00:00","2008","06","21","00:00","7.1","","7.1","","100","","18","","2","","","","98.54","","","","","","NA"
"2008-06-21 01:00","2008","06","21","01:00","7.9","","7.9","","100","","12","","4","","","","98.51","","","","","","NA"
"2008-06-21 02:00","2008","06","21","02:00","8.2","","8.2","","100","","10","","4","","","","98.53","","","","","","NA"
"2008-06-21 03:00","2008","06","21","03:00","9.8","","9.8","","100","","15","","9","","","","98.45","","","","","","NA"
"2008-06-21 04:00","2008","06","21","04:00","6.6","","6.6","","100","","21","","9","","","","98.46","","","","","","NA"
"2008-06-21 05:00","2008","06","21","05:00","7.2","","7.2","","100","","18","","7","","","","98.51","","","","","","NA"
"2008-06-21 06:00","2008","06","21","06:00","7.7","","7.7","","100","","17","","6","","","","98.49","","","","","","NA"
"2008-06-21 07:00","2008","06","21","07:00","8.3","","8.3","","100","","25","","9","","","","98.49","","","","","","NA"
"2008-06-21 08:00","2008","06","21","08:00","9.3","","8.7","","96","","16","","9","","","","98.48","","","","","","NA"
"2008-06-21 09:00","2008","06","21","09:00","7.8","","7.4","","97","","23","","6","","","","98.52","","","","","","NA"
"2008-06-21 10:00","2008","06","21","10:00","11.8","","9.6","","86","","18","","17","","","","98.52","","","","","","NA"
"2008-06-21 11:00","2008","06","21","11:00","12.4","","9.9","","85","","18","","15","","","","98.55","","","","","","NA"
"2008-06-21 12:00","2008","06","21","12:00","10.2","","7.4","","83","","19","","11","","","","98.56","","","","","","NA"
"2008-06-21 13:00","2008","06","21","13:00","8.0","","6.5","","90","","21","","13","","","","98.55","","","","","","NA"
"2008-06-21 14:00","2008","06","21","14:00","7.2","","6.4","","95","","19","","11","","","","98.53","","","","","","NA"
"2008-06-21 15:00","2008","06","21","15:00","10.1","","7.6","","84","","19","","11","","","","98.55","","","","","","NA"
"2008-06-21 16:00","2008","06","21","16:00","10.3","","7.4","","82","","19","","9","","","","98.54","","","","","","NA"
"2008-06-21 17:00","2008","06","21","17:00","9.7","","8.1","","90","","21","","11","","","","98.51","","","","","","NA"
"2008-06-21 18:00","2008","06","21","18:00","11.6","","9.3","","86","","19","","11","","","","98.45","","","","","","NA"
"2008-06-21 19:00","2008","06","21","19:00","10.9","","9.2","","89","","18","","11","","","","98.45","","","","","","NA"
"2008-06-21 20:00","2008","06","21","20:00","8.6","","8.0","","96","","19","","11","","","","98.42","","","","","","NA"
"2008-06-21 21:00","2008","06","21","21:00","7.9","","7.9","","100","","15","","7","","","","98.44","","","","","","NA"
"2008-06-21 22:00","2008","06","21","22:00","7.7","","7.7","","100","","","","0","","","","98.46","","","","","","NA"
"2008-06-21 23:00","2008","06","21","23:00","7.1","","7.1","","100","","24","","2","","","","98.43","","","","","","NA"
"2008-06-22 00:00","2008","06","22","00:00","6.5","","6.5","","100","","18","","11","","","","98.48","","","","","","NA"
"2008-06-22 01:00","2008","06","22","01:00","6.6","","6.6","","100","","12","","6","","","","98.41","","","","","","NA"
"2008-06-22 02:00","2008","06","22","02:00","7.4","","7.4","","100","","8","","7","","","","98.39","","","","","","NA"
"2008-06-22 03:00","2008","06","22","03:00","6.7","","6.7","","100","","4","","4","","","","98.40","","","","","","NA"
"2008-06-22 04:00","2008","06","22","04:00","6.4","","6.4","","100","","33","","4","","","","98.47","","","","","","NA"
"2008-06-22 05:00","2008","06","22","05:00","5.9","","5.9","","100","","6","","4","","","","98.48","","","","","","NA"
"2008-06-22 06:00","2008","06","22","06:00","6.2","","6.2","","100","","6","","4","","","","98.48","","","","","","NA"
"2008-06-22 07:00","2008","06","22","07:00","8.7","","8.6","","99","","34","","2","","","","98.51","","","","","","NA"
"2008-06-22 08:00","2008","06","22","08:00","9.3","","9.3","","100","","32","","6","","","","98.54","","","","","","NA"
"2008-06-22 09:00","2008","06","22","09:00","10.8","","10.7","","99","","31","","7","","","","98.53","","","","","","NA"
"2008-06-22 10:00","2008","06","22","10:00","12.4","","11.4","","94","","31","","11","","","","98.53","","","","","","NA"
"2008-06-22 11:00","2008","06","22","11:00","14.0","","12.0","","88","","31","","13","","","","98.52","","","","","","NA"
"2008-06-22 12:00","2008","06","22","12:00","17.6","","12.3","","71","","35","","11","","","","98.51","","","","","","NA"
"2008-06-22 13:00","2008","06","22","13:00","13.7","","11.4","","86","","31","","9","","","","98.48","","","","","","NA"
"2008-06-22 14:00","2008","06","22","14:00","11.6","","11.6","","100","","31","","15","","","","98.53","","","","","","NA"
"2008-06-22 15:00","2008","06","22","15:00","12.3","","12.3","","100","","31","","15","","","","98.57","","","","","","NA"
"2008-06-22 16:00","2008","06","22","16:00","10.8","","10.8","","100","","19","","9","","","","98.58","","","","","","NA"
"2008-06-22 17:00","2008","06","22","17:00","12.1","","12.1","","100","","27","","4","","","","98.62","","","","","","NA"
"2008-06-22 18:00","2008","06","22","18:00","12.5","","12.5","","100","","32","","7","","","","98.63","","","","","","NA"
"2008-06-22 19:00","2008","06","22","19:00","13.7","","13.7","","100","","33","","7","","","","98.66","","","","","","NA"
"2008-06-22 20:00","2008","06","22","20:00","15.8","","15.8","","100","","3","","6","","","","98.66","","","","","","NA"
"2008-06-22 21:00","2008","06","22","21:00","15.1","","15.1","","100","","4","","9","","","","98.71","","","","","","NA"
"2008-06-22 22:00","2008","06","22","22:00","14.5","","14.5","","100","","3","","13","","","","98.76","","","","","","NA"
"2008-06-22 23:00","2008","06","22","23:00","14.0","","14.0","","100","","3","","13","","","","98.77","","","","","","NA"
"2008-06-23 00:00","2008","06","23","00:00","13.6","","13.6","","100","","5","","13","","","","98.82","","","","","","NA"
"2008-06-23 01:00","2008","06","23","01:00","13.4","","13.4","","100","","4","","15","","","","98.86","","","","","","NA"
"2008-06-23 02:00","2008","06","23","02:00","13.2","","13.2","","100","","3","","17","","","","98.88","","","","","","NA"
"2008-06-23 03:00","2008","06","23","03:00","12.7","","12.7","","100","","4","","13","","","","98.93","","","","","","NA"
"2008-06-23 04:00","2008","06","23","04:00","12.5","","12.5","","100","","5","","19","","","","98.97","","","","","","NA"
"2008-06-23 05:00","2008","06","23","05:00","12.5","","12.5","","100","","4","","15","","","","98.99","","","","","","NA"
"2008-06-23 06:00","2008","06","23","06:00","12.7","","12.7","","100","","33","","4","","","","99.03","","","","","","NA"
"2008-06-23 07:00","2008","06","23","07:00","13.7","","13.7","","100","","36","","6","","","","99.09","","","","","","NA"
"2008-06-23 08:00","2008","06","23","08:00","14.1","","14.1","","100","","2","","9","","","","99.16","","","","","","NA"
"2008-06-23 09:00","2008","06","23","09:00","14.9","","14.2","","96","","5","","11","","","","99.17","","","","","","NA"
"2008-06-23 10:00","2008","06","23","10:00","15.9","","14.9","","94","","1","","7","","","","99.19","","","","","","NA"
"2008-06-23 11:00","2008","06","23","11:00","15.5","","13.9","","90","","30","","7","","","","99.21","","","","","","NA"
"2008-06-23 12:00","2008","06","23","12:00","14.3","","13.2","","93","","31","","9","","","","99.18","","","","","","NA"
"2008-06-23 13:00","2008","06","23","13:00","16.0","","13.6","","86","","29","","15","","","","99.19","","","","","","NA"
"2008-06-23 14:00","2008","06","23","14:00","13.0","","12.5","","97","","31","","19","","","","99.22","","","","","","NA"
"2008-06-23 15:00","2008","06","23","15:00","13.4","","12.1","","92","","31","","19","","","","99.23","","","","","","NA"
"2008-06-23 16:00","2008","06","23","16:00","13.4","","11.9","","91","","31","","13","","","","99.25","","","","","","NA"
"2008-06-23 17:00","2008","06","23","17:00","13.3","","11.9","","91","","31","","13","","","","99.27","","","","","","NA"
"2008-06-23 18:00","2008","06","23","18:00","13.2","","11.4","","89","","31","","11","","","","99.28","","","","","","NA"
"2008-06-23 19:00","2008","06","23","19:00","12.6","","11.2","","91","","30","","4","","","","99.29","","","","","","NA"
"2008-06-23 20:00","2008","06","23","20:00","11.2","","10.7","","97","","31","","6","","","","99.29","","","","","","NA"
"2008-06-23 21:00","2008","06","23","21:00","8.4","","8.4","","100","","23","","6","","","","99.34","","","","","","NA"
"2008-06-23 22:00","2008","06","23","22:00","8.4","","8.4","","100","","10","","2","","","","99.35","","","","","","NA"
"2008-06-23 23:00","2008","06","23","23:00","8.4","","8.4","","100","","11","","6","","","","99.35","","","","","","NA"
"2008-06-24 00:00","2008","06","24","00:00","8.9","","8.9","","100","","8","","9","","","","99.34","","","","","","NA"
"2008-06-24 01:00","2008","06","24","01:00","8.2","","8.2","","100","","9","","6","","","","99.36","","","","","","NA"
"2008-06-24 02:00","2008","06","24","02:00","8.7","","8.7","","100","","7","","9","","","","99.37","","","","","","NA"
"2008-06-24 03:00","2008","06","24","03:00","8.7","","8.7","","100","","7","","9","","","","99.36","","","","","","NA"
"2008-06-24 04:00","2008","06","24","04:00","8.8","","8.8","","100","","8","","9","","","","99.36","","","","","","NA"
"2008-06-24 05:00","2008","06","24","05:00","9.9","","9.9","","100","","8","","11","","","","99.32","","","","","","NA"
"2008-06-24 06:00","2008","06","24","06:00","6.3","","6.3","","100","","28","","11","","","","99.39","","","","","","NA"
"2008-06-24 07:00","2008","06","24","07:00","7.1","","7.1","","100","","23","","6","","","","99.43","","","","","","NA"
"2008-06-24 08:00","2008","06","24","08:00","7.2","","7.2","","100","","18","","13","","","","99.44","","","","","","NA"
"2008-06-24 09:00","2008","06","24","09:00","8.2","","8.2","","100","","17","","20","","","","99.43","","","","","","NA"
"2008-06-24 10:00","2008","06","24","10:00","9.8","","9.1","","95","","18","","17","","","","99.37","","","","","","NA"
"2008-06-24 11:00","2008","06","24","11:00","11.1","","10.4","","95","","17","","24","","","","99.32","","","","","","NA"
"2008-06-24 12:00","2008","06","24","12:00","10.0","","10.0","","100","","23","","7","","","","99.36","","","","","","NA"
"2008-06-24 13:00","2008","06","24","13:00","12.4","","11.4","","94","","19","","11","","","","99.23","","","","","","NA"
"2008-06-24 14:00","2008","06","24","14:00","11.1","","9.8","","92","","17","","20","","","","99.15","","","","","","NA"
"2008-06-24 15:00","2008","06","24","15:00","13.0","","10.6","","85","","17","","22","","","","99.11","","","","","","NA"
"2008-06-24 16:00","2008","06","24","16:00","12.0","","11.5","","97","","18","","17","","","","99.16","","","","","","NA"
"2008-06-24 17:00","2008","06","24","17:00","14.9","","14.9","","100","","14","","13","","","","98.97","","","","","","NA"
"2008-06-24 18:00","2008","06","24","18:00","15.3","","13.8","","91","","16","","24","","","","98.83","","","","","","NA"
"2008-06-24 19:00","2008","06","24","19:00","17.6","","14.4","","82","","15","","22","","","","98.72","","","","","","NA"
"2008-06-24 20:00","2008","06","24","20:00","17.4","","17.0","","97","","6","","33","","","","98.68","","","","","","NA"
"2008-06-24 21:00","2008","06","24","21:00","13.0","","12.5","","97","","25","","6","","","","98.87","","","","","","NA"
"2008-06-24 22:00","2008","06","24","22:00","12.3","","12.3","","100","","12","","15","","","","98.77","","","","","","NA"
"2008-06-24 23:00","2008","06","24","23:00","12.3","","12.3","","100","","11","","9","","","","98.74","","","","","","NA"
"2008-06-25 00:00","2008","06","25","00:00","12.4","","12.4","","100","","13","","4","","","","98.74","","","","","","NA"
"2008-06-25 01:00","2008","06","25","01:00","10.7","","10.7","","100","","16","","6","","","","98.74","","","","","","NA"
"2008-06-25 02:00","2008","06","25","02:00","8.8","","8.8","","100","","17","","9","","","","98.74","","","","","","NA"
"2008-06-25 03:00","2008","06","25","03:00","8.6","","8.6","","100","","23","","2","","","","98.76","","","","","","NA"
"2008-06-25 04:00","2008","06","25","04:00","8.3","","8.3","","100","","20","","2","","","","98.78","","","","","","NA"
"2008-06-25 05:00","2008","06","25","05:00","8.3","","8.3","","100","","24","","2","","","","98.78","","","","","","NA"
"2008-06-25 06:00","2008","06","25","06:00","9.6","","9.6","","100","","6","","4","","","","98.77","","","","","","NA"
"2008-06-25 07:00","2008","06","25","07:00","10.8","","10.7","","99","","20","","4","","","","98.78","","","","","","NA"
"2008-06-25 08:00","2008","06","25","08:00","12.0","","11.4","","96","","26","","4","","","","98.81","","","","","","NA"
"2008-06-25 09:00","2008","06","25","09:00","11.4","","10.3","","93","","25","","4","","","","98.75","","","","","","NA"
"2008-06-25 10:00","2008","06","25","10:00","12.6","","12.0","","96","","25","","4","","","","98.70","","","","","","NA"
"2008-06-25 11:00","2008","06","25","11:00","11.9","","10.6","","92","","18","","13","","","","98.70","","","","","","NA"
"2008-06-25 12:00","2008","06","25","12:00","11.3","","10.5","","95","","22","","11","","","","98.69","","","","","","NA"
"2008-06-25 13:00","2008","06","25","13:00","10.6","","10.6","","100","","31","","9","","","","98.81","","","","","","NA"
"2008-06-25 14:00","2008","06","25","14:00","11.1","","11.1","","100","","9","","7","","","","98.72","","","","","","NA"
"2008-06-25 15:00","2008","06","25","15:00","15.0","","15.0","","100","","10","","19","","","","98.48","","","","","","NA"
"2008-06-25 16:00","2008","06","25","16:00","18.4","","17.6","","95","","12","","6","","","","98.44","","","","","","NA"
"2008-06-25 17:00","2008","06","25","17:00","11.2","","11.2","","100","","17","","22","","","","98.39","","","","","","NA"
"2008-06-25 18:00","2008","06","25","18:00","13.7","","13.7","","100","","35","","6","","","","98.36","","","","","","NA"
"2008-06-25 19:00","2008","06","25","19:00","14.7","","14.7","","100","","35","","6","","","","98.31","","","","","","NA"
"2008-06-25 20:00","2008","06","25","20:00","10.8","","10.8","","100","","20","","6","","","","98.33","","","","","","NA"
"2008-06-25 21:00","2008","06","25","21:00","11.3","","11.3","","100","","4","","4","","","","98.32","","","","","","NA"
"2008-06-25 22:00","2008","06","25","22:00","16.6","","16.6","","100","","7","","15","","","","98.26","","","","","","NA"
"2008-06-25 23:00","2008","06","25","23:00","16.5","","16.5","","100","","5","","11","","","","98.23","","","","","","NA"
"2008-06-26 00:00","2008","06","26","00:00","16.7","","16.7","","100","","6","","11","","","","98.21","","","","","","NA"
"2008-06-26 01:00","2008","06","26","01:00","15.9","","15.9","","100","","5","","11","","","","98.18","","","","","","NA"
"2008-06-26 02:00","2008","06","26","02:00","15.9","","15.9","","100","","6","","11","","","","98.21","","","","","","NA"
"2008-06-26 03:00","2008","06","26","03:00","15.7","","15.7","","100","","2","","9","","","","98.23","","","","","","NA"
"2008-06-26 04:00","2008","06","26","04:00","15.2","","15.2","","100","","5","","6","","","","98.23","","","","","","NA"
"2008-06-26 05:00","2008","06","26","05:00","15.2","","15.2","","100","","5","","9","","","","98.29","","","","","","NA"
"2008-06-26 06:00","2008","06","26","06:00","15.5","","15.5","","100","","6","","4","","","","98.35","","","","","","NA"
"2008-06-26 07:00","2008","06","26","07:00","16.1","","16.1","","100","","2","","4","","","","98.37","","","","","","NA"
"2008-06-26 08:00","2008","06","26","08:00","16.4","","16.4","","100","","35","","7","","","","98.38","","","","","","NA"
"2008-06-26 09:00","2008","06","26","09:00","17.5","","17.0","","97","","26","","6","","","","98.40","","","","","","NA"
"2008-06-26 10:00","2008","06","26","10:00","14.9","","14.9","","100","","30","","15","","","","98.38","","","","","","NA"
"2008-06-26 11:00","2008","06","26","11:00","16.4","","13.2","","81","","29","","9","","","","98.35","","","","","","NA"
"2008-06-26 12:00","2008","06","26","12:00","13.0","","11.8","","92","","23","","11","","","","98.38","","","","","","NA"
"2008-06-26 13:00","2008","06","26","13:00","13.1","","12.7","","97","","23","","7","","","","98.48","","","","","","NA"
"2008-06-26 14:00","2008","06","26","14:00","11.8","","11.7","","99","","23","","9","","","","98.55","","","","","","NA"
"2008-06-26 15:00","2008","06","26","15:00","12.0","","11.7","","98","","27","","6","","","","98.51","","","","","","NA"
"2008-06-26 16:00","2008","06","26","16:00","10.3","","10.3","","100","","22","","6","","","","98.50","","","","","","NA"
"2008-06-26 17:00","2008","06","26","17:00","10.3","","10.3","","100","","23","","6","","","","98.51","","","","","","NA"
"2008-06-26 18:00","2008","06","26","18:00","9.9","","9.9","","100","","21","","4","","","","98.47","","","","","","NA"
"2008-06-26 19:00","2008","06","26","19:00","10.7","","10.7","","100","","16","","2","","","","98.45","","","","","","NA"
"2008-06-26 20:00","2008","06","26","20:00","11.1","","11.1","","100","","20","","6","","","","98.41","","","","","","NA"
"2008-06-26 21:00","2008","06","26","21:00","10.2","","10.2","","100","","24","","9","","","","98.46","","","","","","NA"
"2008-06-26 22:00","2008","06","26","22:00","10.0","","10.0","","100","","21","","2","","","","98.48","","","","","","NA"
"2008-06-26 23:00","2008","06","26","23:00","9.7","","9.7","","100","","29","","7","","","","98.45","","","","","","NA"
"2008-06-27 00:00","2008","06","27","00:00","7.8","","7.8","","100","","21","","7","","","","98.47","","","","","","NA"
"2008-06-27 01:00","2008","06","27","01:00","7.5","","7.5","","100","","19","","7","","","","98.42","","","","","","NA"
"2008-06-27 02:00","2008","06","27","02:00","6.7","","6.7","","100","","20","","9","","","","98.47","","","","","","NA"
"2008-06-27 03:00","2008","06","27","03:00","6.7","","6.7","","100","","16","","9","","","","98.53","","","","","","NA"
"2008-06-27 04:00","2008","06","27","04:00","6.8","","6.8","","100","","17","","6","","","","98.47","","","","","","NA"
"2008-06-27 05:00","2008","06","27","05:00","7.2","","7.2","","100","","24","","4","","","","98.50","","","","","","NA"
"2008-06-27 06:00","2008","06","27","06:00","7.2","","7.2","","100","","25","","6","","","","98.55","","","","","","NA"
"2008-06-27 07:00","2008","06","27","07:00","8.5","","8.5","","100","","12","","4","","","","98.53","","","","","","NA"
"2008-06-27 08:00","2008","06","27","08:00","10.0","","10.0","","100","","9","","2","","","","98.45","","","","","","NA"
"2008-06-27 09:00","2008","06","27","09:00","14.1","","14.1","","100","","29","","2","","","","98.42","","","","","","NA"
"2008-06-27 10:00","2008","06","27","10:00","15.9","","14.9","","94","","26","","2","","","","98.38","","","","","","NA"
"2008-06-27 11:00","2008","06","27","11:00","16.0","","14.9","","93","","19","","6","","","","98.40","","","","","","NA"
"2008-06-27 12:00","2008","06","27","12:00","16.3","","14.6","","90","","24","","6","","","","98.37","","","","","","NA"
"2008-06-27 13:00","2008","06","27","13:00","17.5","","14.8","","84","","24","","6","","","","98.35","","","","","","NA"
"2008-06-27 14:00","2008","06","27","14:00","17.3","","15.1","","87","","25","","6","","","","98.27","","","","","","NA"
"2008-06-27 15:00","2008","06","27","15:00","17.7","","15.0","","84","","22","","7","","","","98.25","","","","","","NA"
"2008-06-27 16:00","2008","06","27","16:00","15.4","","14.0","","91","","25","","6","","","","98.18","","","","","","NA"
"2008-06-27 17:00","2008","06","27","17:00","18.0","","15.5","","85","","22","","2","","","","98.09","","","","","","NA"
"2008-06-27 18:00","2008","06","27","18:00","18.3","","15.9","","86","","31","","2","","","","98.07","","","","","","NA"
"2008-06-27 19:00","2008","06","27","19:00","18.5","","15.4","","82","","10","","4","","","","98.01","","","","","","NA"
"2008-06-27 20:00","2008","06","27","20:00","18.7","","15.9","","84","","5","","9","","","","97.94","","","","","","NA"
"2008-06-27 21:00","2008","06","27","21:00","19.1","","17.3","","89","","6","","9","","","","97.92","","","","","","NA"
"2008-06-27 22:00","2008","06","27","22:00","19.6","","17.2","","86","","8","","11","","","","97.88","","","","","","NA"
"2008-06-27 23:00","2008","06","27","23:00","19.6","","15.3","","76","","9","","13","","","","97.84","","","","","","NA"
"2008-06-28 00:00","2008","06","28","00:00","18.9","","15.4","","80","","10","","13","","","","97.77","","","","","","NA"
"2008-06-28 01:00","2008","06","28","01:00","18.6","","16.6","","88","","10","","19","","","","97.70","","","","","","NA"
"2008-06-28 02:00","2008","06","28","02:00","18.4","","17.1","","92","","10","","24","","","","97.60","","","","","","NA"
"2008-06-28 03:00","2008","06","28","03:00","17.4","","17.4","","100","","10","","17","","","","97.52","","","","","","NA"
"2008-06-28 04:00","2008","06","28","04:00","17.5","","17.5","","100","","9","","17","","","","97.49","","","","","","NA"
"2008-06-28 05:00","2008","06","28","05:00","17.2","","17.2","","100","","8","","17","","","","97.38","","","","","","NA"
"2008-06-28 06:00","2008","06","28","06:00","17.4","","17.4","","100","","9","","26","","","","97.25","","","","","","NA"
"2008-06-28 07:00","2008","06","28","07:00","16.9","","16.9","","100","","11","","26","","","","97.23","","","","","","NA"
"2008-06-28 08:00","2008","06","28","08:00","16.8","","16.8","","100","","9","","17","","","","97.25","","","","","","NA"
"2008-06-28 09:00","2008","06","28","09:00","14.9","","14.9","","100","","3","","2","","","","97.26","","","","","","NA"
"2008-06-28 10:00","2008","06","28","10:00","10.7","","10.7","","100","","20","","7","","","","97.27","","","","","","NA"
"2008-06-28 11:00","2008","06","28","11:00","11.4","","11.4","","100","","17","","6","","","","97.29","","","","","","NA"
"2008-06-28 12:00","2008","06","28","12:00","9.0","","9.0","","100","","24","","6","","","","97.32","","","","","","NA"
"2008-06-28 13:00","2008","06","28","13:00","8.5","","8.5","","100","","17","","19","","","","97.35","","","","","","NA"
"2008-06-28 14:00","2008","06","28","14:00","7.6","","7.6","","100","","18","","19","","","","97.41","","","","","","NA"
"2008-06-28 15:00","2008","06","28","15:00","7.4","","7.4","","100","","18","","17","","","","97.42","","","","","","NA"
"2008-06-28 16:00","2008","06","28","16:00","7.2","","7.2","","100","","18","","15","","","","97.46","","","","","","NA"
"2008-06-28 17:00","2008","06","28","17:00","7.7","","7.7","","100","","17","","15","","","","97.49","","","","","","NA"
"2008-06-28 18:00","2008","06","28","18:00","7.5","","7.5","","100","","17","","22","","","","97.50","","","","","","NA"
"2008-06-28 19:00","2008","06","28","19:00","8.3","","8.3","","100","","17","","22","","","","97.50","","","","","","NA"
"2008-06-28 20:00","2008","06","28","20:00","8.0","","8.0","","100","","18","","22","","","","97.49","","","","","","NA"
"2008-06-28 21:00","2008","06","28","21:00","7.3","","7.3","","100","","17","","20","","","","97.50","","","","","","NA"
"2008-06-28 22:00","2008","06","28","22:00","7.6","","7.6","","100","","20","","19","","","","97.56","","","","","","NA"
"2008-06-28 23:00","2008","06","28","23:00","8.0","","8.0","","100","","17","","9","","","","97.59","","","","","","NA"
"2008-06-29 00:00","2008","06","29","00:00","9.1","","9.1","","100","","19","","11","","","","97.53","","","","","","NA"
"2008-06-29 01:00","2008","06","29","01:00","9.7","","9.7","","100","","19","","15","","","","97.54","","","","","","NA"
"2008-06-29 02:00","2008","06","29","02:00","9.3","","9.3","","100","","2","","6","","","","97.62","","","","","","NA"
"2008-06-29 03:00","2008","06","29","03:00","9.9","","9.9","","100","","1","","7","","","","97.61","","","","","","NA"
"2008-06-29 04:00","2008","06","29","04:00","10.1","","10.1","","100","","2","","6","","","","97.60","","","","","","NA"
"2008-06-29 05:00","2008","06","29","05:00","10.2","","10.2","","100","","34","","4","","","","97.61","","","","","","NA"
"2008-06-29 06:00","2008","06","29","06:00","11.4","","11.4","","100","","36","","7","","","","97.64","","","","","","NA"
"2008-06-29 07:00","2008","06","29","07:00","12.6","","12.6","","100","","2","","11","","","","97.69","","","","","","NA"
"2008-06-29 08:00","2008","06","29","08:00","13.0","","13.0","","100","","1","","19","","","","97.72","","","","","","NA"
"2008-06-29 09:00","2008","06","29","09:00","14.1","","14.1","","100","","2","","17","","","","97.75","","","","","","NA"
"2008-06-29 10:00","2008","06","29","10:00","15.9","","15.5","","97","","3","","26","","","","97.80","","","","","","NA"
"2008-06-29 11:00","2008","06","29","11:00","16.5","","15.0","","91","","2","","22","","","","97.96","","","","","","NA"
"2008-06-29 12:00","2008","06","29","12:00","16.1","","14.7","","91","","36","","17","","","","98.10","","","","","","NA"
"2008-06-29 13:00","2008","06","29","13:00","17.8","","14.2","","79","","2","","26","","","","98.12","","","","","","NA"
"2008-06-29 14:00","2008","06","29","14:00","19.6","","14.3","","71","","1","","26","","","","98.09","","","","","","NA"
"2008-06-29 15:00","2008","06","29","15:00","20.5","","13.4","","64","","1","","30","","","","98.12","","","","","","NA"
"2008-06-29 16:00","2008","06","29","16:00","21.6","","11.3","","52","","3","","35","","","","98.18","","","","","","NA"
"2008-06-29 17:00","2008","06","29","17:00","22.4","","12.6","","54","","2","","19","","","","98.27","","25","","","","NA"
"2008-06-29 18:00","2008","06","29","18:00","22.8","","12.7","","53","","3","","19","","","","98.30","","25","","","","NA"
"2008-06-29 19:00","2008","06","29","19:00","22.9","","13.1","","54","","1","","11","","","","98.33","","26","","","","NA"
"2008-06-29 20:00","2008","06","29","20:00","12.3","","9.5","","83","","31","","15","","","","98.40","","","","","","NA"
"2008-06-29 21:00","2008","06","29","21:00","14.3","","10.4","","77","","32","","4","","","","98.45","","","","","","NA"
"2008-06-29 22:00","2008","06","29","22:00","13.8","","11.6","","87","","3","","6","","","","98.51","","","","","","NA"
"2008-06-29 23:00","2008","06","29","23:00","15.0","","12.4","","84","","2","","9","","","","98.54","","","","","","NA"
"2008-06-30 00:00","2008","06","30","00:00","15.1","","10.9","","76","","3","","11","","","","98.58","","","","","","NA"
"2008-06-30 01:00","2008","06","30","01:00","14.4","","10.2","","76","","3","","13","","","","98.62","","","","","","NA"
"2008-06-30 02:00","2008","06","30","02:00","13.8","","9.2","","74","","4","","17","","","","98.63","","","","","","NA"
"2008-06-30 03:00","2008","06","30","03:00","13.5","","8.8","","73","","4","","15","","","","98.66","","","","","","NA"
"2008-06-30 04:00","2008","06","30","04:00","12.9","","8.5","","75","","4","","15","","","","98.72","","","","","","NA"
"2008-06-30 05:00","2008","06","30","05:00","11.3","","8.4","","82","","1","","9","","","","98.81","","","","","","NA"
"2008-06-30 06:00","2008","06","30","06:00","11.9","","8.3","","79","","2","","11","","","","98.88","","","","","","NA"
"2008-06-30 07:00","2008","06","30","07:00","13.2","","8.4","","73","","36","","9","","","","98.89","","","","","","NA"
"2008-06-30 08:00","2008","06","30","08:00","12.8","","7.4","","70","","31","","7","","","","98.93","","","","","","NA"
"2008-06-30 09:00","2008","06","30","09:00","13.6","","7.3","","66","","30","","11","","","","98.93","","","","","","NA"
"2008-06-30 10:00","2008","06","30","10:00","12.4","","7.4","","72","","30","","13","","","","98.94","","","","","","NA"
"2008-06-30 11:00","2008","06","30","11:00","12.0","","6.4","","69","","27","","6","","","","98.94","","","","","","NA"
"2008-06-30 12:00","2008","06","30","12:00","13.4","","6.6","","63","","27","","6","","","","98.92","","","","","","NA"
"2008-06-30 13:00","2008","06","30","13:00","12.9","","6.5","","65","","27","","9","","","","98.89","","","","","","NA"
"2008-06-30 14:00","2008","06","30","14:00","13.8","","7.2","","64","","24","","6","","","","98.84","","","","","","NA"
"2008-06-30 15:00","2008","06","30","15:00","13.9","","7.2","","64","","24","","7","","","","98.83","","","","","","NA"
"2008-06-30 16:00","2008","06","30","16:00","14.1","","6.7","","61","","21","","7","","","","98.82","","","","","","NA"
"2008-06-30 17:00","2008","06","30","17:00","12.4","","5.2","","61","","26","","13","","","","98.81","","","","","","NA"
"2008-06-30 18:00","2008","06","30","18:00","11.1","","5.7","","69","","23","","9","","","","98.81","","","","","","NA"
"2008-06-30 19:00","2008","06","30","19:00","11.5","","6.0","","69","","20","","7","","","","98.80","","","","","","NA"
"2008-06-30 20:00","2008","06","30","20:00","11.3","","5.8","","69","","18","","2","","","","98.73","","","","","","NA"
"2008-06-30 21:00","2008","06","30","21:00","10.9","","7.0","","77","","9","","4","","","","98.70","","","","","","NA"
"2008-06-30 22:00","2008","06","30","22:00","10.4","","8.1","","86","","11","","4","","","","98.68","","","","","","NA"
"2008-06-30 23:00","2008","06","30","23:00","11.1","","7.6","","79","","16","","6","","","","98.61","","","","","","NA"
