"Station Name","PUKASKWA (AUT)"
"Province","ONTARIO"
"Latitude","48.59"
"Longitude","-86.29"
"Elevation","207.60"
"Climate Identifier","6046767"
"WMO Identifier","71750"
"TC Identifier","WCJ"
"All times are specified in Local Standard Time (LST). Add 1 hour to adjust for Daylight Saving Time where and when it is observed."

"Legend"
"E","Estimated"
"M","Missing"
"NA","Not Available"

"Date/Time","Year","Month","Day","Time","Temp (°C)","Temp Flag","Dew Point Temp (°C)","Dew Point Temp Flag","Rel Hum (%)","Rel Hum Flag","Wind Dir (10s deg)","Wind Dir Flag","Wind Spd (km/h)","Wind Spd Flag","Visibility (km)","Visibility Flag","Stn Press (kPa)","Stn Press Flag","Hmdx","Hmdx Flag","Wind Chill","Wind Chill Flag","Weather"
"2004-10-01 00:00","2004","10","01","00:00","13.4","","11.5","","88","","19","","28","","","M","98.57","","","","","","NA"
"2004-10-01 01:00","2004","10","01","01:00","13.5","","11.6","","88","","18","","26","","","M","98.54","","","","","","NA"
"2004-10-01 02:00","2004","10","01","02:00","13.8","","11.5","","86","","17","","32","","","M","98.54","","","","","","NA"
"2004-10-01 03:00","2004","10","01","03:00","13.9","","11.8","","87","","17","","33","","","M","98.49","","","","","","NA"
"2004-10-01 04:00","2004","10","01","04:00","13.8","","11.9","","88","","17","","33","","","M","98.48","","","","","","NA"
"2004-10-01 05:00","2004","10","01","05:00","13.5","","11.8","","89","","17","","33","","","M","98.47","","","","","","NA"
"2004-10-01 06:00","2004","10","01","06:00","12.7","","12.2","","97","","17","","32","","","M","98.42","","","","","","NA"
"2004-10-01 07:00","2004","10","01","07:00","12.8","","12.0","","95","","18","","26","","","M","98.37","","","","","","NA"
"2004-10-01 08:00","2004","10","01","08:00","12.9","","12.5","","97","","16","","22","","","M","98.35","","","","","","NA"
"2004-10-01 09:00","2004","10","01","09:00","13.3","","12.5","","95","","17","","24","","","M","98.30","","","","","","NA"
"2004-10-01 10:00","2004","10","01","10:00","14.8","","12.0","","83","","17","","41","","","M","98.14","","","","","","NA"
"2004-10-01 11:00","2004","10","01","11:00","14.6","","12.1","","85","","17","","46","","","M","98.03","","","","","","NA"
"2004-10-01 12:00","2004","10","01","12:00","13.7","","12.0","","89","","18","","39","","","M","98.04","","","","","","NA"
"2004-10-01 13:00","2004","10","01","13:00","14.0","","12.2","","89","","19","","46","","","M","98.00","","","","","","NA"
"2004-10-01 14:00","2004","10","01","14:00","13.9","","12.6","","92","","18","","39","","","M","97.90","","","","","","NA"
"2004-10-01 15:00","2004","10","01","15:00","13.3","","12.3","","94","","19","","33","","","M","97.91","","","","","","NA"
"2004-10-01 16:00","2004","10","01","16:00","12.2","","12.2","","100","","18","","39","","","M","97.83","","","","","","NA"
"2004-10-01 17:00","2004","10","01","17:00","12.3","","12.3","","100","","19","","39","","","M","97.78","","","","","","NA"
"2004-10-01 18:00","2004","10","01","18:00","11.0","","11.0","","100","","26","","19","","","M","97.80","","","","","","NA"
"2004-10-01 19:00","2004","10","01","19:00","7.7","","7.7","","100","","33","","28","","","M","98.02","","","","","","NA"
"2004-10-01 20:00","2004","10","01","20:00","5.9","","5.9","","100","","33","","20","","","M","98.19","","","","","","NA"
"2004-10-01 21:00","2004","10","01","21:00","3.4","","3.4","","100","","2","","11","","","M","98.26","","","","","","NA"
"2004-10-01 22:00","2004","10","01","22:00","2.9","","2.9","","100","","4","","7","","","M","98.32","","","","","","NA"
"2004-10-01 23:00","2004","10","01","23:00","2.7","","2.7","","100","","5","","7","","","M","98.34","","","","","","NA"
"2004-10-02 00:00","2004","10","02","00:00","2.8","","2.8","","100","","36","","7","","","M","98.34","","","","","","NA"
"2004-10-02 01:00","2004","10","02","01:00","4.2","","4.1","","99","","31","","13","","","M","98.37","","","","","","NA"
"2004-10-02 02:00","2004","10","02","02:00","5.6","","-0.9","","63","","29","","32","","","M","98.39","","","","","","NA"
"2004-10-02 03:00","2004","10","02","03:00","6.5","","1.4","","70","","27","","30","","","M","98.32","","","","","","NA"
"2004-10-02 04:00","2004","10","02","04:00","5.6","","-1.3","","61","","28","","32","","","M","98.33","","","","","","NA"
"2004-10-02 05:00","2004","10","02","05:00","6.1","","-1.2","","59","","26","","44","","","M","98.40","","","","","","NA"
"2004-10-02 06:00","2004","10","02","06:00","6.1","","-2.5","","54","","27","","43","","","M","98.39","","","","","","NA"
"2004-10-02 07:00","2004","10","02","07:00","5.9","","-1.4","","59","","27","","43","","","M","98.40","","","","","","NA"
"2004-10-02 08:00","2004","10","02","08:00","6.0","","0.2","","66","","27","","43","","","M","98.39","","","","","","NA"
"2004-10-02 09:00","2004","10","02","09:00","6.3","","1.3","","70","","27","","39","","","M","98.39","","","","","","NA"
"2004-10-02 10:00","2004","10","02","10:00","7.0","","1.7","","69","","28","","39","","","M","98.41","","","","","","NA"
"2004-10-02 11:00","2004","10","02","11:00","7.8","","3.2","","73","","27","","43","","","M","98.45","","","","","","NA"
"2004-10-02 12:00","2004","10","02","12:00","7.5","","2.3","","70","","27","","43","","","M","98.54","","","","","","NA"
"2004-10-02 13:00","2004","10","02","13:00","7.9","","3.6","","74","","27","","44","","","M","98.57","","","","","","NA"
"2004-10-02 14:00","2004","10","02","14:00","8.5","","3.9","","73","","26","","44","","","M","98.60","","","","","","NA"
"2004-10-02 15:00","2004","10","02","15:00","8.6","","5.3","","80","","25","","52","","","M","98.63","","","","","","NA"
"2004-10-02 16:00","2004","10","02","16:00","9.4","","6.0","","79","","25","","52","","","M","98.64","","","","","","NA"
"2004-10-02 17:00","2004","10","02","17:00","9.7","","6.3","","79","","25","","52","","","M","98.65","","","","","","NA"
"2004-10-02 18:00","2004","10","02","18:00","9.5","","7.0","","84","","25","","50","","","M","98.70","","","","","","NA"
"2004-10-02 19:00","2004","10","02","19:00","9.6","","7.0","","84","","25","","46","","","M","98.72","","","","","","NA"
"2004-10-02 20:00","2004","10","02","20:00","9.9","","6.8","","81","","26","","44","","","M","98.76","","","","","","NA"
"2004-10-02 21:00","2004","10","02","21:00","10.2","","6.9","","80","","26","","48","","","M","98.78","","","","","","NA"
"2004-10-02 22:00","2004","10","02","22:00","10.4","","6.7","","78","","26","","37","","","M","98.81","","","","","","NA"
"2004-10-02 23:00","2004","10","02","23:00","10.6","","5.1","","69","","27","","35","","","M","98.78","","","","","","NA"
"2004-10-03 00:00","2004","10","03","00:00","10.1","","6.5","","78","","25","","30","","","M","98.75","","","","","","NA"
"2004-10-03 01:00","2004","10","03","01:00","10.3","","6.3","","76","","24","","35","","","M","98.72","","","","","","NA"
"2004-10-03 02:00","2004","10","03","02:00","10.0","","7.0","","82","","24","","43","","","M","98.65","","","","","","NA"
"2004-10-03 03:00","2004","10","03","03:00","10.2","","7.6","","84","","24","","44","","","M","98.57","","","","","","NA"
"2004-10-03 04:00","2004","10","03","04:00","10.3","","6.5","","77","","24","","46","","","M","98.53","","","","","","NA"
"2004-10-03 05:00","2004","10","03","05:00","10.0","","6.8","","80","","24","","44","","","M","98.45","","","","","","NA"
"2004-10-03 06:00","2004","10","03","06:00","10.0","","5.9","","76","","24","","50","","","M","98.39","","","","","","NA"
"2004-10-03 07:00","2004","10","03","07:00","10.4","","6.6","","77","","24","","48","","","M","98.32","","","","","","NA"
"2004-10-03 08:00","2004","10","03","08:00","10.3","","6.4","","77","","24","","46","","","M","98.30","","","","","","NA"
"2004-10-03 09:00","2004","10","03","09:00","10.1","","7.0","","81","","23","","46","","","M","98.22","","","","","","NA"
"2004-10-03 10:00","2004","10","03","10:00","10.3","","7.5","","83","","23","","46","","","M","98.17","","","","","","NA"
"2004-10-03 11:00","2004","10","03","11:00","10.0","","7.6","","85","","21","","39","","","M","98.10","","","","","","NA"
"2004-10-03 12:00","2004","10","03","12:00","10.0","","6.7","","80","","23","","48","","","M","97.99","","","","","","NA"
"2004-10-03 13:00","2004","10","03","13:00","9.9","","7.6","","86","","22","","48","","","M","97.87","","","","","","NA"
"2004-10-03 14:00","2004","10","03","14:00","9.5","","8.6","","94","","25","","37","","","M","97.83","","","","","","NA"
"2004-10-03 15:00","2004","10","03","15:00","10.0","","8.8","","92","","25","","35","","","M","97.80","","","","","","NA"
"2004-10-03 16:00","2004","10","03","16:00","8.7","","8.2","","97","","29","","26","","","M","97.84","","","","","","NA"
"2004-10-03 17:00","2004","10","03","17:00","7.2","","6.2","","93","","34","","11","","","M","97.98","","","","","","NA"
"2004-10-03 18:00","2004","10","03","18:00","8.2","","4.0","","75","","29","","13","","","M","98.00","","","","","","NA"
"2004-10-03 19:00","2004","10","03","19:00","8.4","","5.2","","80","","29","","22","","","M","98.08","","","","","","NA"
"2004-10-03 20:00","2004","10","03","20:00","5.8","","2.5","","79","","36","","20","","","M","98.24","","","","","","NA"
"2004-10-03 21:00","2004","10","03","21:00","4.3","","3.2","","93","","2","","9","","","M","98.30","","","","","","NA"
"2004-10-03 22:00","2004","10","03","22:00","4.6","","2.8","","88","","35","","13","","","M","98.36","","","","","","NA"
"2004-10-03 23:00","2004","10","03","23:00","3.8","","2.0","","88","","1","","9","","","M","98.46","","","","","","NA"
"2004-10-04 00:00","2004","10","04","00:00","3.1","","1.8","","91","","36","","6","","","M","98.54","","","","","","NA"
"2004-10-04 01:00","2004","10","04","01:00","2.2","","1.1","","92","","1","","11","","","M","98.64","","","","","","NA"
"2004-10-04 02:00","2004","10","04","02:00","1.6","","0.7","","94","","36","","11","","","M","98.78","","","","","","NA"
"2004-10-04 03:00","2004","10","04","03:00","0.6","","-0.1","","95","","1","","11","","","M","98.86","","","","","","NA"
"2004-10-04 04:00","2004","10","04","04:00","0.6","","-1.0","","89","","1","","11","","","M","98.97","","","","","","NA"
"2004-10-04 05:00","2004","10","04","05:00","0.6","","-1.9","","83","","36","","11","","","M","99.08","","","","","","NA"
"2004-10-04 06:00","2004","10","04","06:00","0.7","","-2.1","","81","","36","","11","","","M","99.17","","","","","","NA"
"2004-10-04 07:00","2004","10","04","07:00","0.1","","-2.9","","80","","36","","11","","","M","99.29","","","","","","NA"
"2004-10-04 08:00","2004","10","04","08:00","0.6","","-5.0","","66","","35","","17","","","M","99.40","","","","","","NA"
"2004-10-04 09:00","2004","10","04","09:00","1.0","","-5.4","","62","","35","","11","","","M","99.48","","","","","","NA"
"2004-10-04 10:00","2004","10","04","10:00","1.4","","-6.4","","56","","34","","11","","","M","99.52","","","","","","NA"
"2004-10-04 11:00","2004","10","04","11:00","1.9","","-5.5","","58","","32","","7","","","M","99.55","","","","","","NA"
"2004-10-04 12:00","2004","10","04","12:00","2.4","","-4.3","","61","","28","","15","","","M","99.55","","","","","","NA"
"2004-10-04 13:00","2004","10","04","13:00","3.0","","-4.7","","57","","28","","22","","","M","99.57","","","","","","NA"
"2004-10-04 14:00","2004","10","04","14:00","3.1","","-3.6","","61","","29","","17","","","M","99.55","","","","","","NA"
"2004-10-04 15:00","2004","10","04","15:00","2.9","","-3.7","","62","","28","","24","","","M","99.61","","","","","","NA"
"2004-10-04 16:00","2004","10","04","16:00","3.0","","-3.6","","62","","29","","24","","","M","99.60","","","","","","NA"
"2004-10-04 17:00","2004","10","04","17:00","3.9","","-3.1","","60","","28","","24","","","M","99.60","","","","","","NA"
"2004-10-04 18:00","2004","10","04","18:00","4.5","","-2.7","","59","","28","","26","","","M","99.59","","","","","","NA"
"2004-10-04 19:00","2004","10","04","19:00","5.4","","-1.9","","59","","26","","24","","","M","99.58","","","","","","NA"
"2004-10-04 20:00","2004","10","04","20:00","5.9","","-2.8","","54","","28","","32","","","M","99.62","","","","","","NA"
"2004-10-04 21:00","2004","10","04","21:00","5.9","","-2.7","","54","","29","","30","","","M","99.65","","","","","","NA"
"2004-10-04 22:00","2004","10","04","22:00","6.1","","-3.1","","52","","28","","32","","","M","99.66","","","","","","NA"
"2004-10-04 23:00","2004","10","04","23:00","6.2","","-2.8","","52","","29","","30","","","M","99.65","","","","","","NA"
"2004-10-05 00:00","2004","10","05","00:00","6.8","","-0.8","","58","","29","","26","","","M","99.66","","","","","","NA"
"2004-10-05 01:00","2004","10","05","01:00","7.0","","-1.7","","54","","28","","28","","","M","99.66","","","","","","NA"
"2004-10-05 02:00","2004","10","05","02:00","6.8","","-1.7","","55","","28","","26","","","M","99.65","","","","","","NA"
"2004-10-05 03:00","2004","10","05","03:00","6.8","","-1.5","","55","","28","","28","","","M","99.61","","","","","","NA"
"2004-10-05 04:00","2004","10","05","04:00","7.0","","0.2","","62","","26","","28","","","M","99.58","","","","","","NA"
"2004-10-05 05:00","2004","10","05","05:00","7.1","","0.5","","63","","26","","28","","","M","99.55","","","","","","NA"
"2004-10-05 06:00","2004","10","05","06:00","7.6","","1.1","","63","","24","","33","","","M","99.52","","","","","","NA"
"2004-10-05 07:00","2004","10","05","07:00","7.9","","1.8","","65","","24","","39","","","M","99.48","","","","","","NA"
"2004-10-05 08:00","2004","10","05","08:00","8.2","","4.4","","77","","23","","48","","","M","99.43","","","","","","NA"
"2004-10-05 09:00","2004","10","05","09:00","8.0","","4.9","","81","","23","","50","","","M","99.40","","","","","","NA"
"2004-10-05 10:00","2004","10","05","10:00","8.0","","5.6","","85","","21","","50","","","M","99.33","","","","","","NA"
"2004-10-05 11:00","2004","10","05","11:00","8.3","","5.1","","80","","21","","46","","","M","99.30","","","","","","NA"
"2004-10-05 12:00","2004","10","05","12:00","8.9","","4.4","","73","","21","","46","","","M","99.24","","","","","","NA"
"2004-10-05 13:00","2004","10","05","13:00","9.1","","3.4","","67","","21","","48","","","M","99.18","","","","","","NA"
"2004-10-05 14:00","2004","10","05","14:00","9.4","","4.1","","69","","20","","48","","","M","99.06","","","","","","NA"
"2004-10-05 15:00","2004","10","05","15:00","9.2","","5.7","","79","","19","","50","","","M","98.95","","","","","","NA"
"2004-10-05 16:00","2004","10","05","16:00","9.7","","5.2","","74","","20","","52","","","M","98.88","","","","","","NA"
"2004-10-05 17:00","2004","10","05","17:00","10.4","","5.5","","72","","19","","37","","","M","98.89","","","","","","NA"
"2004-10-05 18:00","2004","10","05","18:00","10.7","","6.5","","75","","19","","33","","","M","98.82","","","","","","NA"
"2004-10-05 19:00","2004","10","05","19:00","11.0","","6.9","","76","","19","","32","","","M","98.80","","","","","","NA"
"2004-10-05 20:00","2004","10","05","20:00","10.9","","7.9","","82","","19","","30","","","M","98.81","","","","","","NA"
"2004-10-05 21:00","2004","10","05","21:00","11.1","","7.9","","81","","19","","30","","","M","98.79","","","","","","NA"
"2004-10-05 22:00","2004","10","05","22:00","11.2","","7.9","","80","","20","","28","","","M","98.80","","","","","","NA"
"2004-10-05 23:00","2004","10","05","23:00","10.8","","8.3","","85","","18","","19","","","M","98.79","","","","","","NA"
"2004-10-06 00:00","2004","10","06","00:00","10.8","","8.7","","87","","20","","24","","","M","98.76","","","","","","NA"
"2004-10-06 01:00","2004","10","06","01:00","10.7","","8.9","","89","","19","","13","","","M","98.76","","","","","","NA"
"2004-10-06 02:00","2004","10","06","02:00","10.5","","9.2","","92","","20","","11","","","M","98.78","","","","","","NA"
"2004-10-06 03:00","2004","10","06","03:00","10.4","","9.8","","96","","25","","15","","","M","98.78","","","","","","NA"
"2004-10-06 04:00","2004","10","06","04:00","10.1","","10.1","","100","","25","","7","","","M","98.84","","","","","","NA"
"2004-10-06 05:00","2004","10","06","05:00","7.4","","7.4","","100","","8","","7","","","M","98.89","","","","","","NA"
"2004-10-06 06:00","2004","10","06","06:00","7.0","","7.0","","100","","8","","9","","","M","98.94","","","","","","NA"
"2004-10-06 07:00","2004","10","06","07:00","6.3","","6.3","","100","","8","","11","","","M","99.01","","","","","","NA"
"2004-10-06 08:00","2004","10","06","08:00","7.1","","7.1","","100","","8","","7","","","M","99.10","","","","","","NA"
"2004-10-06 09:00","2004","10","06","09:00","11.1","","9.9","","92","","15","","9","","","M","99.16","","","","","","NA"
"2004-10-06 10:00","2004","10","06","10:00","12.6","","9.9","","84","","18","","9","","","M","99.20","","","","","","NA"
"2004-10-06 11:00","2004","10","06","11:00","13.1","","10.2","","83","","20","","9","","","M","99.24","","","","","","NA"
"2004-10-06 12:00","2004","10","06","12:00","14.0","","10.5","","79","","18","","9","","","M","99.28","","","","","","NA"
"2004-10-06 13:00","2004","10","06","13:00","13.2","","10.0","","81","","21","","11","","","M","99.31","","","","","","NA"
"2004-10-06 14:00","2004","10","06","14:00","13.8","","10.1","","78","","20","","17","","","M","99.29","","","","","","NA"
"2004-10-06 15:00","2004","10","06","15:00","13.5","","9.7","","78","","19","","19","","","M","99.31","","","","","","NA"
"2004-10-06 16:00","2004","10","06","16:00","12.8","","9.8","","82","","19","","22","","","M","99.32","","","","","","NA"
"2004-10-06 17:00","2004","10","06","17:00","12.4","","9.9","","85","","18","","20","","","M","99.32","","","","","","NA"
"2004-10-06 18:00","2004","10","06","18:00","11.1","","10.4","","95","","18","","17","","","M","99.33","","","","","","NA"
"2004-10-06 19:00","2004","10","06","19:00","10.6","","10.5","","99","","18","","17","","","M","99.35","","","","","","NA"
"2004-10-06 20:00","2004","10","06","20:00","10.4","","10.4","","100","","17","","11","","","M","99.37","","","","","","NA"
"2004-10-06 21:00","2004","10","06","21:00","9.8","","9.8","","100","","15","","7","","","M","99.37","","","","","","NA"
"2004-10-06 22:00","2004","10","06","22:00","9.3","","9.3","","100","","18","","6","","","M","99.37","","","","","","NA"
"2004-10-06 23:00","2004","10","06","23:00","11.1","","10.6","","97","","19","","22","","","M","99.37","","","","","","NA"
"2004-10-07 00:00","2004","10","07","00:00","12.0","","10.0","","88","","19","","15","","","M","99.35","","","","","","NA"
"2004-10-07 01:00","2004","10","07","01:00","11.2","","10.5","","95","","17","","13","","","M","99.33","","","","","","NA"
"2004-10-07 02:00","2004","10","07","02:00","12.9","","10.5","","85","","18","","22","","","M","99.34","","","","","","NA"
"2004-10-07 03:00","2004","10","07","03:00","12.7","","10.9","","89","","17","","24","","","M","99.36","","","","","","NA"
"2004-10-07 04:00","2004","10","07","04:00","13.0","","11.3","","89","","18","","20","","","M","99.37","","","","","","NA"
"2004-10-07 05:00","2004","10","07","05:00","13.4","","11.5","","88","","18","","20","","","M","99.38","","","","","","NA"
"2004-10-07 06:00","2004","10","07","06:00","13.2","","10.9","","86","","20","","19","","","M","99.40","","","","","","NA"
"2004-10-07 07:00","2004","10","07","07:00","12.6","","10.6","","88","","18","","15","","","M","99.43","","","","","","NA"
"2004-10-07 08:00","2004","10","07","08:00","13.5","","10.2","","80","","18","","15","","","M","99.48","","","","","","NA"
"2004-10-07 09:00","2004","10","07","09:00","14.4","","10.0","","75","","19","","15","","","M","99.50","","","","","","NA"
"2004-10-07 10:00","2004","10","07","10:00","15.4","","9.7","","69","","18","","17","","","M","99.51","","","","","","NA"
"2004-10-07 11:00","2004","10","07","11:00","16.3","","9.6","","64","","17","","19","","","M","99.49","","","","","","NA"
"2004-10-07 12:00","2004","10","07","12:00","16.8","","9.7","","63","","18","","19","","","M","99.48","","","","","","NA"
"2004-10-07 13:00","2004","10","07","13:00","15.7","","10.8","","73","","17","","20","","","M","99.43","","","","","","NA"
"2004-10-07 14:00","2004","10","07","14:00","15.0","","9.8","","71","","17","","30","","","M","99.34","","","","","","NA"
"2004-10-07 15:00","2004","10","07","15:00","15.1","","9.2","","68","","18","","28","","","M","99.29","","","","","","NA"
"2004-10-07 16:00","2004","10","07","16:00","15.1","","10.0","","72","","17","","28","","","M","99.19","","","","","","NA"
"2004-10-07 17:00","2004","10","07","17:00","15.8","","8.7","","63","","18","","30","","","M","99.16","","","","","","NA"
"2004-10-07 18:00","2004","10","07","18:00","15.4","","8.6","","64","","17","","39","","","M","99.11","","","","","","NA"
"2004-10-07 19:00","2004","10","07","19:00","15.5","","7.7","","60","","17","","41","","","M","99.10","","","","","","NA"
"2004-10-07 20:00","2004","10","07","20:00","15.3","","8.1","","62","","17","","43","","","M","99.04","","","","","","NA"
"2004-10-07 21:00","2004","10","07","21:00","14.3","","9.0","","70","","17","","43","","","M","99.00","","","","","","NA"
"2004-10-07 22:00","2004","10","07","22:00","14.2","","9.7","","74","","17","","44","","","M","98.99","","","","","","NA"
"2004-10-07 23:00","2004","10","07","23:00","14.2","","9.8","","75","","18","","41","","","M","98.94","","","","","","NA"
"2004-10-08 00:00","2004","10","08","00:00","12.1","","11.5","","96","","17","","43","","","M","98.95","","","","","","NA"
"2004-10-08 01:00","2004","10","08","01:00","11.8","","11.8","","100","","18","","32","","","M","98.99","","","","","","NA"
"2004-10-08 02:00","2004","10","08","02:00","11.6","","11.6","","100","","18","","24","","","M","98.91","","","","","","NA"
"2004-10-08 03:00","2004","10","08","03:00","11.8","","11.8","","100","","17","","32","","","M","98.78","","","","","","NA"
"2004-10-08 04:00","2004","10","08","04:00","11.9","","11.9","","100","","17","","35","","","M","98.67","","","","","","NA"
"2004-10-08 05:00","2004","10","08","05:00","11.8","","11.8","","100","","17","","33","","","M","98.63","","","","","","NA"
"2004-10-08 06:00","2004","10","08","06:00","11.7","","11.7","","100","","17","","28","","","M","98.60","","","","","","NA"
"2004-10-08 07:00","2004","10","08","07:00","11.7","","11.7","","100","","18","","30","","","M","98.54","","","","","","NA"
"2004-10-08 08:00","2004","10","08","08:00","11.7","","11.7","","100","","17","","30","","","M","98.51","","","","","","NA"
"2004-10-08 09:00","2004","10","08","09:00","11.9","","11.9","","100","","17","","24","","","M","98.45","","","","","","NA"
"2004-10-08 10:00","2004","10","08","10:00","11.8","","11.8","","100","","17","","26","","","M","98.39","","","","","","NA"
"2004-10-08 11:00","2004","10","08","11:00","11.7","","11.7","","100","","17","","22","","","M","98.33","","","","","","NA"
"2004-10-08 12:00","2004","10","08","12:00","11.6","","11.6","","100","","17","","22","","","M","98.26","","","","","","NA"
"2004-10-08 13:00","2004","10","08","13:00","11.7","","11.7","","100","","18","","17","","","M","98.20","","","","","","NA"
"2004-10-08 14:00","2004","10","08","14:00","11.8","","11.8","","100","","17","","20","","","M","98.13","","","","","","NA"
"2004-10-08 15:00","2004","10","08","15:00","11.9","","11.9","","100","","17","","20","","","M","98.06","","","","","","NA"
"2004-10-08 16:00","2004","10","08","16:00","12.0","","12.0","","100","","16","","19","","","M","98.00","","","","","","NA"
"2004-10-08 17:00","2004","10","08","17:00","12.1","","12.1","","100","","16","","20","","","M","97.94","","","","","","NA"
"2004-10-08 18:00","2004","10","08","18:00","12.3","","12.3","","100","","16","","20","","","M","97.89","","","","","","NA"
"2004-10-08 19:00","2004","10","08","19:00","12.6","","12.6","","100","","17","","19","","","M","97.84","","","","","","NA"
"2004-10-08 20:00","2004","10","08","20:00","12.9","","12.9","","100","","18","","15","","","M","97.77","","","","","","NA"
"2004-10-08 21:00","2004","10","08","21:00","11.2","","11.2","","100","","20","","15","","","M","97.77","","","","","","NA"
"2004-10-08 22:00","2004","10","08","22:00","10.8","","10.8","","100","","18","","19","","","M","97.65","","","","","","NA"
"2004-10-08 23:00","2004","10","08","23:00","9.8","","9.8","","100","","19","","24","","","M","97.62","","","","","","NA"
"2004-10-09 00:00","2004","10","09","00:00","10.0","","10.0","","100","","18","","17","","","M","97.53","","","","","","NA"
"2004-10-09 01:00","2004","10","09","01:00","10.1","","10.1","","100","","18","","15","","","M","97.45","","","","","","NA"
"2004-10-09 02:00","2004","10","09","02:00","10.1","","10.1","","100","","36","","11","","","M","97.47","","","","","","NA"
"2004-10-09 03:00","2004","10","09","03:00","8.8","","8.8","","100","","35","","19","","","M","97.58","","","","","","NA"
"2004-10-09 04:00","2004","10","09","04:00","7.8","","7.8","","100","","34","","22","","","M","97.77","","","","","","NA"
"2004-10-09 05:00","2004","10","09","05:00","6.7","","6.7","","100","","35","","19","","","M","97.95","","","","","","NA"
"2004-10-09 06:00","2004","10","09","06:00","6.1","","6.1","","100","","34","","22","","","M","98.13","","","","","","NA"
"2004-10-09 07:00","2004","10","09","07:00","5.9","","5.9","","100","","34","","20","","","M","98.26","","","","","","NA"
"2004-10-09 08:00","2004","10","09","08:00","6.0","","6.0","","100","","35","","19","","","M","98.39","","","","","","NA"
"2004-10-09 09:00","2004","10","09","09:00","6.8","","6.8","","100","","34","","17","","","M","98.48","","","","","","NA"
"2004-10-09 10:00","2004","10","09","10:00","7.1","","7.1","","100","","34","","20","","","M","98.60","","","","","","NA"
"2004-10-09 11:00","2004","10","09","11:00","7.4","","7.2","","99","","34","","19","","","M","98.74","","","","","","NA"
"2004-10-09 12:00","2004","10","09","12:00","6.8","","5.9","","94","","34","","22","","","M","98.87","","","","","","NA"
"2004-10-09 13:00","2004","10","09","13:00","7.6","","5.4","","86","","35","","19","","","M","98.98","","","","","","NA"
"2004-10-09 14:00","2004","10","09","14:00","7.8","","5.4","","85","","36","","11","","","M","99.06","","","","","","NA"
"2004-10-09 15:00","2004","10","09","15:00","9.3","","5.2","","76","","34","","15","","","M","99.17","","","","","","NA"
"2004-10-09 16:00","2004","10","09","16:00","9.4","","4.3","","70","","3","","11","","","M","99.22","","","","","","NA"
"2004-10-09 17:00","2004","10","09","17:00","9.0","","4.1","","71","","3","","11","","","M","99.30","","","","","","NA"
"2004-10-09 18:00","2004","10","09","18:00","7.4","","4.5","","82","","5","","13","","","M","99.38","","","","","","NA"
"2004-10-09 19:00","2004","10","09","19:00","5.5","","4.7","","95","","7","","7","","","M","99.47","","","","","","NA"
"2004-10-09 20:00","2004","10","09","20:00","4.8","","4.0","","95","","7","","15","","","M","99.57","","","","","","NA"
"2004-10-09 21:00","2004","10","09","21:00","3.8","","3.4","","97","","8","","9","","","M","99.66","","","","","","NA"
"2004-10-09 22:00","2004","10","09","22:00","3.3","","3.0","","98","","6","","13","","","M","99.70","","","","","","NA"
"2004-10-09 23:00","2004","10","09","23:00","2.8","","2.5","","98","","4","","9","","","M","99.75","","","","","","NA"
"2004-10-10 00:00","2004","10","10","00:00","1.3","","1.3","","100","","9","","4","","","M","99.76","","","","","","NA"
"2004-10-10 01:00","2004","10","10","01:00","0.7","","0.7","","100","","2","","6","","","M","99.83","","","","","","NA"
"2004-10-10 02:00","2004","10","10","02:00","0.4","","0.4","","100","","5","","7","","","M","99.91","","","","","","NA"
"2004-10-10 03:00","2004","10","10","03:00","0.2","","0.2","","100","","7","","7","","","M","99.93","","","","","","NA"
"2004-10-10 04:00","2004","10","10","04:00","-0.2","","-0.2","","100","","4","","9","","","M","99.99","","","","-3","","NA"
"2004-10-10 05:00","2004","10","10","05:00","-0.2","","-0.2","","100","","6","","11","","","M","100.02","","","","-4","","NA"
"2004-10-10 06:00","2004","10","10","06:00","0.2","","0.2","","100","","7","","11","","","M","100.07","","","","","","NA"
"2004-10-10 07:00","2004","10","10","07:00","0.3","","0.3","","100","","7","","11","","","M","100.08","","","","","","NA"
"2004-10-10 08:00","2004","10","10","08:00","1.1","","1.1","","100","","7","","9","","","M","100.11","","","","","","NA"
"2004-10-10 09:00","2004","10","10","09:00","2.9","","2.6","","98","","7","","15","","","M","100.14","","","","","","NA"
"2004-10-10 10:00","2004","10","10","10:00","3.7","","3.2","","97","","7","","17","","","M","100.16","","","","","","NA"
"2004-10-10 11:00","2004","10","10","11:00","7.1","","4.1","","81","","14","","6","","","M","100.16","","","","","","NA"
"2004-10-10 12:00","2004","10","10","12:00","8.2","","5.0","","80","","23","","6","","","M","100.15","","","","","","NA"
"2004-10-10 13:00","2004","10","10","13:00","8.2","","5.0","","80","","27","","11","","","M","100.11","","","","","","NA"
"2004-10-10 14:00","2004","10","10","14:00","9.0","","5.2","","77","","25","","7","","","M","100.08","","","","","","NA"
"2004-10-10 15:00","2004","10","10","15:00","9.5","","4.8","","72","","25","","9","","","M","100.05","","","","","","NA"
"2004-10-10 16:00","2004","10","10","16:00","9.7","","5.3","","74","","26","","7","","","M","100.01","","","","","","NA"
"2004-10-10 17:00","2004","10","10","17:00","9.2","","5.8","","79","","26","","7","","","M","99.98","","","","","","NA"
"2004-10-10 18:00","2004","10","10","18:00","7.7","","6.5","","92","","25","","6","","","M","99.97","","","","","","NA"
"2004-10-10 19:00","2004","10","10","19:00","7.4","","6.9","","97","","21","","9","","","M","99.98","","","","","","NA"
"2004-10-10 20:00","2004","10","10","20:00","6.8","","6.8","","100","","17","","4","","","M","99.98","","","","","","NA"
"2004-10-10 21:00","2004","10","10","21:00","4.7","","4.7","","100","","8","","6","","","M","99.98","","","","","","NA"
"2004-10-10 22:00","2004","10","10","22:00","4.1","","4.1","","100","","9","","7","","","M","99.96","","","","","","NA"
"2004-10-10 23:00","2004","10","10","23:00","3.7","","3.7","","100","","8","","11","","","M","99.92","","","","","","NA"
"2004-10-11 00:00","2004","10","11","00:00","3.2","","3.2","","100","","9","","9","","","M","99.90","","","","","","NA"
"2004-10-11 01:00","2004","10","11","01:00","2.9","","2.9","","100","","8","","9","","","M","99.96","","","","","","NA"
"2004-10-11 02:00","2004","10","11","02:00","2.7","","2.7","","100","","8","","9","","","M","99.94","","","","","","NA"
"2004-10-11 03:00","2004","10","11","03:00","2.9","","2.9","","100","","10","","9","","","M","99.94","","","","","","NA"
"2004-10-11 04:00","2004","10","11","04:00","3.7","","3.7","","100","","11","","9","","","M","99.93","","","","","","NA"
"2004-10-11 05:00","2004","10","11","05:00","2.0","","2.0","","100","","8","","9","","","M","99.92","","","","","","NA"
"2004-10-11 06:00","2004","10","11","06:00","4.1","","4.1","","100","","11","","7","","","M","99.93","","","","","","NA"
"2004-10-11 07:00","2004","10","11","07:00","6.2","","6.2","","100","","14","","7","","","M","99.91","","","","","","NA"
"2004-10-11 08:00","2004","10","11","08:00","8.5","","8.5","","100","","17","","11","","","M","99.92","","","","","","NA"
"2004-10-11 09:00","2004","10","11","09:00","9.9","","9.0","","94","","19","","22","","","M","99.92","","","","","","NA"
"2004-10-11 10:00","2004","10","11","10:00","10.8","","9.0","","89","","19","","20","","","M","99.88","","","","","","NA"
"2004-10-11 11:00","2004","10","11","11:00","11.7","","9.6","","87","","19","","20","","","M","99.88","","","","","","NA"
"2004-10-11 12:00","2004","10","11","12:00","12.2","","8.8","","80","","20","","28","","","M","99.86","","","","","","NA"
"2004-10-11 13:00","2004","10","11","13:00","12.6","","9.4","","81","","19","","26","","","M","99.82","","","","","","NA"
"2004-10-11 14:00","2004","10","11","14:00","12.7","","9.4","","80","","19","","24","","","M","99.78","","","","","","NA"
"2004-10-11 15:00","2004","10","11","15:00","12.5","","8.3","","76","","20","","24","","","M","99.74","","","","","","NA"
"2004-10-11 16:00","2004","10","11","16:00","12.5","","8.6","","77","","20","","20","","","M","99.70","","","","","","NA"
"2004-10-11 17:00","2004","10","11","17:00","11.1","","9.2","","88","","19","","20","","","M","99.66","","","","","","NA"
"2004-10-11 18:00","2004","10","11","18:00","10.7","","10.0","","95","","20","","22","","","M","99.63","","","","","","NA"
"2004-10-11 19:00","2004","10","11","19:00","10.5","","10.0","","97","","20","","24","","","M","99.61","","","","","","NA"
"2004-10-11 20:00","2004","10","11","20:00","10.4","","10.1","","98","","20","","26","","","M","99.60","","","","","","NA"
"2004-10-11 21:00","2004","10","11","21:00","10.3","","10.0","","98","","20","","24","","","M","99.58","","","","","","NA"
"2004-10-11 22:00","2004","10","11","22:00","10.4","","9.9","","97","","20","","24","","","M","99.55","","","","","","NA"
"2004-10-11 23:00","2004","10","11","23:00","10.4","","10.4","","100","","20","","20","","","M","99.51","","","","","","NA"
"2004-10-12 00:00","2004","10","12","00:00","10.6","","10.3","","98","","21","","19","","","M","99.46","","","","","","NA"
"2004-10-12 01:00","2004","10","12","01:00","10.3","","10.3","","100","","20","","17","","","M","99.42","","","","","","NA"
"2004-10-12 02:00","2004","10","12","02:00","10.4","","10.4","","100","","20","","15","","","M","99.38","","","","","","NA"
"2004-10-12 03:00","2004","10","12","03:00","8.3","","8.3","","100","","12","","6","","","M","99.33","","","","","","NA"
"2004-10-12 04:00","2004","10","12","04:00","8.1","","8.1","","100","","15","","6","","","M","99.31","","","","","","NA"
"2004-10-12 05:00","2004","10","12","05:00","9.2","","9.2","","100","","17","","9","","","M","99.24","","","","","","NA"
"2004-10-12 06:00","2004","10","12","06:00","7.9","","7.8","","99","","12","","6","","","M","99.19","","","","","","NA"
"2004-10-12 07:00","2004","10","12","07:00","7.7","","7.7","","100","","9","","6","","","M","99.16","","","","","","NA"
"2004-10-12 08:00","2004","10","12","08:00","7.8","","7.6","","99","","8","","7","","","M","99.13","","","","","","NA"
"2004-10-12 09:00","2004","10","12","09:00","10.3","","7.6","","83","","10","","4","","","M","99.08","","","","","","NA"
"2004-10-12 10:00","2004","10","12","10:00","12.9","","9.2","","78","","21","","11","","","M","99.04","","","","","","NA"
"2004-10-12 11:00","2004","10","12","11:00","13.1","","9.8","","80","","20","","20","","","M","98.98","","","","","","NA"
"2004-10-12 12:00","2004","10","12","12:00","14.0","","9.9","","76","","19","","20","","","M","98.95","","","","","","NA"
"2004-10-12 13:00","2004","10","12","13:00","13.9","","11.0","","83","","18","","20","","","M","98.88","","","","","","NA"
"2004-10-12 14:00","2004","10","12","14:00","13.1","","10.5","","84","","19","","19","","","M","98.81","","","","","","NA"
"2004-10-12 15:00","2004","10","12","15:00","13.0","","11.2","","89","","22","","20","","","M","98.74","","","","","","NA"
"2004-10-12 16:00","2004","10","12","16:00","10.4","","10.3","","99","","24","","15","","","M","98.68","","","","","","NA"
"2004-10-12 17:00","2004","10","12","17:00","10.4","","10.4","","100","","22","","13","","","M","98.65","","","","","","NA"
"2004-10-12 18:00","2004","10","12","18:00","9.8","","9.8","","100","","15","","11","","","M","98.60","","","","","","NA"
"2004-10-12 19:00","2004","10","12","19:00","9.4","","9.4","","100","","22","","4","","","M","98.59","","","","","","NA"
"2004-10-12 20:00","2004","10","12","20:00","9.1","","9.1","","100","","11","","6","","","M","98.50","","","","","","NA"
"2004-10-12 21:00","2004","10","12","21:00","8.6","","8.6","","100","","9","","9","","","M","98.45","","","","","","NA"
"2004-10-12 22:00","2004","10","12","22:00","8.7","","8.7","","100","","9","","11","","","M","98.36","","","","","","NA"
"2004-10-12 23:00","2004","10","12","23:00","7.6","","7.6","","100","","6","","6","","","M","98.32","","","","","","NA"
"2004-10-13 00:00","2004","10","13","00:00","7.0","","7.0","","100","","7","","7","","","M","98.29","","","","","","NA"
"2004-10-13 01:00","2004","10","13","01:00","7.0","","7.0","","100","","8","","6","","","M","98.25","","","","","","NA"
"2004-10-13 02:00","2004","10","13","02:00","6.5","","6.5","","100","","7","","4","","","M","98.24","","","","","","NA"
"2004-10-13 03:00","2004","10","13","03:00","6.7","","6.7","","100","","9","","7","","","M","98.17","","","","","","NA"
"2004-10-13 04:00","2004","10","13","04:00","6.3","","6.3","","100","","7","","9","","","M","98.13","","","","","","NA"
"2004-10-13 05:00","2004","10","13","05:00","5.2","","5.2","","100","","7","","9","","","M","98.10","","","","","","NA"
"2004-10-13 06:00","2004","10","13","06:00","4.5","","4.5","","100","","6","","11","","","M","98.09","","","","","","NA"
"2004-10-13 07:00","2004","10","13","07:00","4.2","","4.2","","100","","7","","9","","","M","98.08","","","","","","NA"
"2004-10-13 08:00","2004","10","13","08:00","4.2","","4.2","","100","","3","","13","","","M","98.11","","","","","","NA"
"2004-10-13 09:00","2004","10","13","09:00","6.9","","6.9","","100","","5","","9","","","M","98.14","","","","","","NA"
"2004-10-13 10:00","2004","10","13","10:00","10.2","","9.1","","93","","3","","7","","","M","98.16","","","","","","NA"
"2004-10-13 11:00","2004","10","13","11:00","11.4","","9.1","","86","","9","","11","","","M","98.17","","","","","","NA"
"2004-10-13 12:00","2004","10","13","12:00","12.4","","8.9","","79","","4","","15","","","M","98.17","","","","","","NA"
"2004-10-13 13:00","2004","10","13","13:00","12.2","","9.2","","82","","5","","11","","","M","98.19","","","","","","NA"
"2004-10-13 14:00","2004","10","13","14:00","11.8","","8.9","","82","","3","","15","","","M","98.18","","","","","","NA"
"2004-10-13 15:00","2004","10","13","15:00","8.0","","6.4","","90","","2","","22","","","M","98.31","","","","","","NA"
"2004-10-13 16:00","2004","10","13","16:00","6.6","","3.5","","81","","3","","22","","","M","98.38","","","","","","NA"
"2004-10-13 17:00","2004","10","13","17:00","5.0","","2.4","","83","","4","","30","","","M","98.46","","","","","","NA"
"2004-10-13 18:00","2004","10","13","18:00","3.5","","2.1","","91","","3","","20","","","M","98.57","","","","","","NA"
"2004-10-13 19:00","2004","10","13","19:00","3.2","","1.0","","85","","5","","33","","","M","98.60","","","","","","NA"
"2004-10-13 20:00","2004","10","13","20:00","3.0","","0.7","","85","","5","","30","","","M","98.65","","","","","","NA"
"2004-10-13 21:00","2004","10","13","21:00","2.9","","0.3","","83","","5","","20","","","M","98.71","","","","","","NA"
"2004-10-13 22:00","2004","10","13","22:00","2.7","","0.1","","83","","5","","22","","","M","98.69","","","","","","NA"
"2004-10-13 23:00","2004","10","13","23:00","2.4","","-0.1","","84","","5","","22","","","M","98.69","","","","","","NA"
"2004-10-14 00:00","2004","10","14","00:00","2.0","","-0.4","","84","","5","","19","","","M","98.69","","","","","","NA"
"2004-10-14 01:00","2004","10","14","01:00","1.6","","-0.2","","88","","5","","20","","","M","98.67","","","","","","NA"
"2004-10-14 02:00","2004","10","14","02:00","1.1","","-0.7","","88","","5","","22","","","M","98.65","","","","","","NA"
"2004-10-14 03:00","2004","10","14","03:00","0.6","","-1.2","","88","","5","","24","","","M","98.64","","","","","","NA"
"2004-10-14 04:00","2004","10","14","04:00","0.6","","-1.2","","88","","5","","20","","","M","98.62","","","","","","NA"
"2004-10-14 05:00","2004","10","14","05:00","0.2","","-1.1","","91","","5","","19","","","M","98.58","","","","","","NA"
"2004-10-14 06:00","2004","10","14","06:00","-0.1","","-1.1","","93","","4","","17","","","M","98.56","","","","-5","","NA"
"2004-10-14 07:00","2004","10","14","07:00","0.0","","-1.4","","90","","5","","17","","","M","98.54","","","","-5","","NA"
"2004-10-14 08:00","2004","10","14","08:00","0.3","","-1.4","","88","","5","","17","","","M","98.56","","","","","","NA"
"2004-10-14 09:00","2004","10","14","09:00","1.7","","-1.1","","82","","6","","17","","","M","98.51","","","","","","NA"
"2004-10-14 10:00","2004","10","14","10:00","3.1","","-1.0","","74","","6","","19","","","M","98.43","","","","","","NA"
"2004-10-14 11:00","2004","10","14","11:00","4.4","","-1.0","","68","","6","","26","","","M","98.35","","","","","","NA"
"2004-10-14 12:00","2004","10","14","12:00","5.4","","-0.8","","64","","6","","20","","","M","98.27","","","","","","NA"
"2004-10-14 13:00","2004","10","14","13:00","5.2","","-1.0","","64","","6","","26","","","M","98.16","","","","","","NA"
"2004-10-14 14:00","2004","10","14","14:00","5.0","","-0.2","","69","","7","","24","","","M","98.08","","","","","","NA"
"2004-10-14 15:00","2004","10","14","15:00","5.8","","0.8","","70","","8","","20","","","M","98.03","","","","","","NA"
"2004-10-14 16:00","2004","10","14","16:00","4.5","","0.3","","74","","7","","20","","","M","97.98","","","","","","NA"
"2004-10-14 17:00","2004","10","14","17:00","4.1","","0.2","","76","","6","","19","","","M","97.98","","","","","","NA"
"2004-10-14 18:00","2004","10","14","18:00","3.8","","0.5","","79","","6","","11","","","M","97.93","","","","","","NA"
"2004-10-14 19:00","2004","10","14","19:00","4.0","","0.6","","78","","9","","19","","","M","97.86","","","","","","NA"
"2004-10-14 20:00","2004","10","14","20:00","3.6","","1.1","","84","","8","","15","","","M","97.85","","","","","","NA"
"2004-10-14 21:00","2004","10","14","21:00","3.3","","0.8","","84","","7","","15","","","M","97.81","","","","","","NA"
"2004-10-14 22:00","2004","10","14","22:00","3.2","","0.9","","85","","6","","15","","","M","97.74","","","","","","NA"
"2004-10-14 23:00","2004","10","14","23:00","3.4","","1.2","","85","","7","","13","","","M","97.71","","","","","","NA"
"2004-10-15 00:00","2004","10","15","00:00","3.1","","1.2","","87","","6","","13","","","M","97.64","","","","","","NA"
"2004-10-15 01:00","2004","10","15","01:00","2.7","","2.4","","98","","6","","15","","","M","97.58","","","","","","NA"
"2004-10-15 02:00","2004","10","15","02:00","2.2","","2.2","","100","","6","","15","","","M","97.52","","","","","","NA"
"2004-10-15 03:00","2004","10","15","03:00","2.2","","2.2","","100","","6","","13","","","M","97.41","","","","","","NA"
"2004-10-15 04:00","2004","10","15","04:00","2.1","","2.1","","100","","6","","15","","","M","97.35","","","","","","NA"
"2004-10-15 05:00","2004","10","15","05:00","2.2","","2.2","","100","","5","","19","","","M","97.28","","","","","","NA"
"2004-10-15 06:00","2004","10","15","06:00","2.2","","2.2","","100","","5","","17","","","M","97.22","","","","","","NA"
"2004-10-15 07:00","2004","10","15","07:00","2.3","","2.3","","100","","6","","15","","","M","97.18","","","","","","NA"
"2004-10-15 08:00","2004","10","15","08:00","2.4","","2.4","","100","","6","","15","","","M","97.15","","","","","","NA"
"2004-10-15 09:00","2004","10","15","09:00","2.6","","2.6","","100","","5","","11","","","M","97.12","","","","","","NA"
"2004-10-15 10:00","2004","10","15","10:00","3.0","","3.0","","100","","5","","13","","","M","97.06","","","","","","NA"
"2004-10-15 11:00","2004","10","15","11:00","3.5","","3.5","","100","","5","","13","","","M","97.00","","","","","","NA"
"2004-10-15 12:00","2004","10","15","12:00","4.0","","4.0","","100","","6","","11","","","M","96.97","","","","","","NA"
"2004-10-15 13:00","2004","10","15","13:00","4.7","","4.7","","100","","5","","11","","","M","96.91","","","","","","NA"
"2004-10-15 14:00","2004","10","15","14:00","4.9","","4.9","","100","","3","","9","","","M","96.86","","","","","","NA"
"2004-10-15 15:00","2004","10","15","15:00","5.0","","5.0","","100","","6","","15","","","M","96.82","","","","","","NA"
"2004-10-15 16:00","2004","10","15","16:00","4.7","","4.7","","100","","5","","11","","","M","96.81","","","","","","NA"
"2004-10-15 17:00","2004","10","15","17:00","4.4","","4.4","","100","","4","","13","","","M","96.77","","","","","","NA"
"2004-10-15 18:00","2004","10","15","18:00","4.4","","4.4","","100","","5","","13","","","M","96.73","","","","","","NA"
"2004-10-15 19:00","2004","10","15","19:00","4.2","","4.2","","100","","5","","9","","","M","96.73","","","","","","NA"
"2004-10-15 20:00","2004","10","15","20:00","4.0","","4.0","","100","","3","","11","","","M","96.69","","","","","","NA"
"2004-10-15 21:00","2004","10","15","21:00","4.0","","4.0","","100","","4","","13","","","M","96.65","","","","","","NA"
"2004-10-15 22:00","2004","10","15","22:00","3.8","","3.8","","100","","3","","11","","","M","96.59","","","","","","NA"
"2004-10-15 23:00","2004","10","15","23:00","3.6","","3.6","","100","","2","","11","","","M","96.52","","","","","","NA"
"2004-10-16 00:00","2004","10","16","00:00","3.5","","3.5","","100","","1","","7","","","M","96.42","","","","","","NA"
"2004-10-16 01:00","2004","10","16","01:00","3.2","","3.2","","100","","36","","9","","","M","96.35","","","","","","NA"
"2004-10-16 02:00","2004","10","16","02:00","2.9","","2.9","","100","","1","","15","","","M","96.29","","","","","","NA"
"2004-10-16 03:00","2004","10","16","03:00","2.4","","2.4","","100","","1","","13","","","M","96.23","","","","","","NA"
"2004-10-16 04:00","2004","10","16","04:00","1.6","","1.6","","100","","36","","11","","","M","96.12","","","","","","NA"
"2004-10-16 05:00","2004","10","16","05:00","1.5","","1.5","","100","","34","","9","","","M","96.01","","","","","","NA"
"2004-10-16 06:00","2004","10","16","06:00","1.3","","1.3","","100","","36","","11","","","M","95.95","","","","","","NA"
"2004-10-16 07:00","2004","10","16","07:00","1.3","","1.3","","100","","35","","7","","","M","95.87","","","","","","NA"
"2004-10-16 08:00","2004","10","16","08:00","1.4","","1.4","","100","","36","","11","","","M","95.84","","","","","","NA"
"2004-10-16 09:00","2004","10","16","09:00","1.3","","1.3","","100","","36","","9","","","M","95.81","","","","","","NA"
"2004-10-16 10:00","2004","10","16","10:00","0.8","","0.8","","100","","35","","9","","","M","95.77","","","","","","NA"
"2004-10-16 11:00","2004","10","16","11:00","0.6","","0.6","","100","","33","","6","","","M","95.78","","","","","","NA"
"2004-10-16 12:00","2004","10","16","12:00","0.6","","0.6","","100","","34","","6","","","M","95.79","","","","","","NA"
"2004-10-16 13:00","2004","10","16","13:00","0.6","","0.6","","100","","34","","6","","","M","95.79","","","","","","NA"
"2004-10-16 14:00","2004","10","16","14:00","0.8","","0.8","","100","","36","","4","","","M","95.83","","","","","","NA"
"2004-10-16 15:00","2004","10","16","15:00","0.6","","0.6","","100","","34","","9","","","M","95.88","","","","","","NA"
"2004-10-16 16:00","2004","10","16","16:00","0.6","","0.6","","100","","34","","11","","","M","95.94","","","","","","NA"
"2004-10-16 17:00","2004","10","16","17:00","0.7","","0.7","","100","","34","","15","","","M","96.00","","","","","","NA"
"2004-10-16 18:00","2004","10","16","18:00","0.8","","0.8","","100","","34","","17","","","M","96.06","","","","","","NA"
"2004-10-16 19:00","2004","10","16","19:00","1.1","","1.1","","100","","34","","17","","","M","96.12","","","","","","NA"
"2004-10-16 20:00","2004","10","16","20:00","1.5","","1.5","","100","","33","","22","","","M","96.18","","","","","","NA"
"2004-10-16 21:00","2004","10","16","21:00","1.4","","1.4","","100","","33","","26","","","M","96.25","","","","","","NA"
"2004-10-16 22:00","2004","10","16","22:00","1.2","","1.1","","99","","33","","24","","","M","96.32","","","","","","NA"
"2004-10-16 23:00","2004","10","16","23:00","1.0","","0.8","","99","","34","","24","","","M","96.40","","","","","","NA"
"2004-10-17 00:00","2004","10","17","00:00","0.8","","0.8","","100","","33","","22","","","M","96.47","","","","","","NA"
"2004-10-17 01:00","2004","10","17","01:00","0.6","","0.5","","99","","34","","22","","","M","96.57","","","","","","NA"
"2004-10-17 02:00","2004","10","17","02:00","0.6","","0.4","","99","","34","","24","","","M","96.70","","","","","","NA"
"2004-10-17 03:00","2004","10","17","03:00","0.2","","0.1","","99","","33","","32","","","M","96.80","","","","","","NA"
"2004-10-17 04:00","2004","10","17","04:00","-0.1","","-0.1","","100","","34","","30","","","M","96.96","","","","-7","","NA"
"2004-10-17 05:00","2004","10","17","05:00","-0.1","","-0.6","","96","","33","","28","","","M","97.10","","","","-6","","NA"
"2004-10-17 06:00","2004","10","17","06:00","-0.6","","-0.6","","100","","33","","26","","","M","97.27","","","","-7","","NA"
"2004-10-17 07:00","2004","10","17","07:00","-1.0","","-2.3","","91","","35","","22","","","M","97.40","","","","-7","","NA"
"2004-10-17 08:00","2004","10","17","08:00","-1.4","","-2.8","","90","","34","","24","","","M","97.51","","","","-8","","NA"
"2004-10-17 09:00","2004","10","17","09:00","-1.3","","-2.9","","89","","34","","28","","","M","97.64","","","","-8","","NA"
"2004-10-17 10:00","2004","10","17","10:00","-1.2","","-3.5","","84","","34","","30","","","M","97.77","","","","-8","","NA"
"2004-10-17 11:00","2004","10","17","11:00","-0.7","","-3.0","","84","","34","","20","","","M","97.88","","","","-6","","NA"
"2004-10-17 12:00","2004","10","17","12:00","-0.6","","-3.2","","83","","34","","24","","","M","97.98","","","","-7","","NA"
"2004-10-17 13:00","2004","10","17","13:00","0.0","","-2.8","","81","","35","","13","","","M","98.08","","","","-4","","NA"
"2004-10-17 14:00","2004","10","17","14:00","0.3","","-3.4","","76","","33","","15","","","M","98.21","","","","","","NA"
"2004-10-17 15:00","2004","10","17","15:00","0.3","","-3.0","","78","","34","","17","","","M","98.30","","","","","","NA"
"2004-10-17 16:00","2004","10","17","16:00","0.2","","-2.8","","80","","34","","15","","","M","98.40","","","","","","NA"
"2004-10-17 17:00","2004","10","17","17:00","-0.3","","-2.2","","87","","36","","11","","","M","98.45","","","","-4","","NA"
"2004-10-17 18:00","2004","10","17","18:00","-1.2","","-3.1","","87","","1","","9","","","M","98.52","","","","-4","","NA"
"2004-10-17 19:00","2004","10","17","19:00","-1.2","","-3.2","","86","","1","","11","","","M","98.62","","","","-5","","NA"
"2004-10-17 20:00","2004","10","17","20:00","-1.4","","-2.5","","92","","1","","7","","","M","98.70","","","","-4","","NA"
"2004-10-17 21:00","2004","10","17","21:00","-1.7","","-3.1","","90","","2","","7","","","M","98.77","","","","-4","","NA"
"2004-10-17 22:00","2004","10","17","22:00","-2.2","","-4.0","","87","","1","","13","","","M","98.82","","","","-7","","NA"
"2004-10-17 23:00","2004","10","17","23:00","-2.4","","-3.1","","95","","2","","11","","","M","98.89","","","","-6","","NA"
"2004-10-18 00:00","2004","10","18","00:00","-2.7","","-4.3","","89","","1","","13","","","M","98.98","","","","-7","","NA"
"2004-10-18 01:00","2004","10","18","01:00","-3.1","","-4.9","","87","","2","","13","","","M","98.99","","","","-8","","NA"
"2004-10-18 02:00","2004","10","18","02:00","-3.7","","-4.4","","95","","4","","6","","","M","99.04","","","","-6","","NA"
"2004-10-18 03:00","2004","10","18","03:00","-4.0","","-4.3","","98","","5","","7","","","M","99.10","","","","-7","","NA"
"2004-10-18 04:00","2004","10","18","04:00","-4.3","","-4.3","","100","","36","","6","","","M","99.19","","","","-7","","NA"
"2004-10-18 05:00","2004","10","18","05:00","-3.8","","-4.8","","93","","1","","9","","","M","99.24","","","","-8","","NA"
"2004-10-18 06:00","2004","10","18","06:00","-3.7","","-4.4","","95","","7","","7","","","M","99.30","","","","-7","","NA"
"2004-10-18 07:00","2004","10","18","07:00","-3.8","","-4.4","","96","","7","","9","","","M","99.35","","","","-8","","NA"
"2004-10-18 08:00","2004","10","18","08:00","-3.8","","-4.5","","95","","6","","6","","","M","99.39","","","","-6","","NA"
"2004-10-18 09:00","2004","10","18","09:00","-3.7","","-4.5","","94","","5","","7","","","M","99.37","","","","-7","","NA"
"2004-10-18 10:00","2004","10","18","10:00","-3.3","","-4.4","","92","","9","","13","","","M","99.44","","","","-8","","NA"
"2004-10-18 11:00","2004","10","18","11:00","-3.1","","-4.3","","91","","8","","11","","","M","99.57","","","","-7","","NA"
"2004-10-18 12:00","2004","10","18","12:00","-2.8","","-4.5","","88","","4","","9","","","M","99.60","","","","-6","","NA"
"2004-10-18 13:00","2004","10","18","13:00","-2.4","","-4.0","","89","","4","","11","","","M","99.59","","","","-6","","NA"
"2004-10-18 14:00","2004","10","18","14:00","-1.8","","-3.8","","86","","6","","13","","","M","99.57","","","","-6","","NA"
"2004-10-18 15:00","2004","10","18","15:00","-1.4","","-4.0","","82","","8","","9","","","M","99.56","","","","-5","","NA"
"2004-10-18 16:00","2004","10","18","16:00","-1.5","","-3.2","","88","","6","","13","","","M","99.61","","","","-6","","NA"
"2004-10-18 17:00","2004","10","18","17:00","-1.8","","-3.2","","90","","6","","17","","","M","99.56","","","","-7","","NA"
"2004-10-18 18:00","2004","10","18","18:00","-1.9","","-3.1","","91","","9","","17","","","M","99.63","","","","-7","","NA"
"2004-10-18 19:00","2004","10","18","19:00","-1.9","","-3.0","","92","","10","","15","","","M","99.68","","","","-7","","NA"
"2004-10-18 20:00","2004","10","18","20:00","-1.9","","-3.4","","89","","9","","19","","","M","99.73","","","","-7","","NA"
"2004-10-18 21:00","2004","10","18","21:00","-2.0","","-3.2","","91","","11","","17","","","M","99.77","","","","-7","","NA"
"2004-10-18 22:00","2004","10","18","22:00","-2.3","","-3.1","","94","","9","","17","","","M","99.77","","","","-8","","NA"
"2004-10-18 23:00","2004","10","18","23:00","-2.5","","-3.2","","95","","9","","24","","","M","99.74","","","","-9","","NA"
"2004-10-19 00:00","2004","10","19","00:00","-2.7","","-2.9","","99","","9","","15","","","M","99.73","","","","-8","","NA"
"2004-10-19 01:00","2004","10","19","01:00","-2.4","","-3.0","","96","","9","","20","","","M","99.73","","","","-8","","NA"
"2004-10-19 02:00","2004","10","19","02:00","-2.8","","-3.6","","94","","10","","24","","","M","99.77","","","","-9","","NA"
"2004-10-19 03:00","2004","10","19","03:00","-2.9","","-3.2","","98","","9","","17","","","M","99.75","","","","-8","","NA"
"2004-10-19 04:00","2004","10","19","04:00","-2.9","","-3.3","","97","","8","","17","","","M","99.77","","","","-8","","NA"
"2004-10-19 05:00","2004","10","19","05:00","-2.4","","-2.6","","99","","8","","13","","","M","99.78","","","","-7","","NA"
"2004-10-19 06:00","2004","10","19","06:00","-2.4","","-2.5","","99","","9","","11","","","M","99.83","","","","-6","","NA"
"2004-10-19 07:00","2004","10","19","07:00","-2.0","","-2.3","","98","","10","","19","","","M","99.82","","","","-8","","NA"
"2004-10-19 08:00","2004","10","19","08:00","-1.7","","-2.0","","98","","9","","19","","","M","99.85","","","","-7","","NA"
"2004-10-19 09:00","2004","10","19","09:00","-0.7","","-1.8","","92","","8","","15","","","M","99.86","","","","-5","","NA"
"2004-10-19 10:00","2004","10","19","10:00","-0.4","","-2.0","","89","","9","","19","","","M","99.83","","","","-6","","NA"
"2004-10-19 11:00","2004","10","19","11:00","-0.2","","-2.0","","88","","8","","15","","","M","99.78","","","","-5","","NA"
"2004-10-19 12:00","2004","10","19","12:00","1.4","","-1.8","","79","","7","","17","","","M","99.75","","","","","","NA"
"2004-10-19 13:00","2004","10","19","13:00","2.4","","-1.2","","77","","8","","15","","","M","99.73","","","","","","NA"
"2004-10-19 14:00","2004","10","19","14:00","2.3","","-0.6","","81","","8","","13","","","M","99.71","","","","","","NA"
"2004-10-19 15:00","2004","10","19","15:00","2.8","","-0.5","","79","","7","","17","","","M","99.64","","","","","","NA"
"2004-10-19 16:00","2004","10","19","16:00","3.1","","0.2","","81","","8","","13","","","M","99.59","","","","","","NA"
"2004-10-19 17:00","2004","10","19","17:00","2.2","","1.0","","92","","7","","11","","","M","99.58","","","","","","NA"
"2004-10-19 18:00","2004","10","19","18:00","2.0","","1.1","","94","","8","","17","","","M","99.59","","","","","","NA"
"2004-10-19 19:00","2004","10","19","19:00","1.6","","1.1","","96","","8","","24","","","M","99.50","","","","","","NA"
"2004-10-19 20:00","2004","10","19","20:00","1.5","","1.2","","98","","8","","20","","","M","99.51","","","","","","NA"
"2004-10-19 21:00","2004","10","19","21:00","1.4","","1.1","","98","","8","","13","","","M","99.56","","","","","","NA"
"2004-10-19 22:00","2004","10","19","22:00","1.7","","1.0","","95","","9","","15","","","M","99.59","","","","","","NA"
"2004-10-19 23:00","2004","10","19","23:00","1.8","","0.5","","91","","9","","20","","","M","99.55","","","","","","NA"
"2004-10-20 00:00","2004","10","20","00:00","1.7","","0.5","","92","","10","","19","","","M","99.50","","","","","","NA"
"2004-10-20 01:00","2004","10","20","01:00","1.7","","0.7","","93","","10","","19","","","M","99.48","","","","","","NA"
"2004-10-20 02:00","2004","10","20","02:00","2.2","","1.3","","94","","10","","20","","","M","99.45","","","","","","NA"
"2004-10-20 03:00","2004","10","20","03:00","2.3","","1.4","","94","","10","","19","","","M","99.45","","","","","","NA"
"2004-10-20 04:00","2004","10","20","04:00","2.6","","1.8","","94","","10","","20","","","M","99.43","","","","","","NA"
"2004-10-20 05:00","2004","10","20","05:00","2.8","","2.0","","94","","9","","19","","","M","99.43","","","","","","NA"
"2004-10-20 06:00","2004","10","20","06:00","3.1","","2.4","","95","","9","","15","","","M","99.43","","","","","","NA"
"2004-10-20 07:00","2004","10","20","07:00","3.3","","2.7","","96","","10","","17","","","M","99.44","","","","","","NA"
"2004-10-20 08:00","2004","10","20","08:00","3.8","","3.3","","97","","11","","20","","","M","99.43","","","","","","NA"
"2004-10-20 09:00","2004","10","20","09:00","5.3","","4.4","","94","","14","","17","","","M","99.44","","","","","","NA"
"2004-10-20 10:00","2004","10","20","10:00","6.0","","5.0","","93","","13","","11","","","M","99.47","","","","","","NA"
"2004-10-20 11:00","2004","10","20","11:00","7.8","","6.5","","91","","18","","26","","","M","99.45","","","","","","NA"
"2004-10-20 12:00","2004","10","20","12:00","7.9","","6.8","","93","","18","","26","","","M","99.46","","","","","","NA"
"2004-10-20 13:00","2004","10","20","13:00","7.9","","7.0","","94","","19","","24","","","M","99.46","","","","","","NA"
"2004-10-20 14:00","2004","10","20","14:00","8.1","","7.4","","95","","20","","26","","","M","99.42","","","","","","NA"
"2004-10-20 15:00","2004","10","20","15:00","8.3","","7.3","","93","","18","","19","","","M","99.39","","","","","","NA"
"2004-10-20 16:00","2004","10","20","16:00","8.2","","7.4","","95","","19","","20","","","M","99.39","","","","","","NA"
"2004-10-20 17:00","2004","10","20","17:00","8.2","","7.3","","94","","20","","24","","","M","99.42","","","","","","NA"
"2004-10-20 18:00","2004","10","20","18:00","8.3","","7.2","","93","","20","","20","","","M","99.47","","","","","","NA"
"2004-10-20 19:00","2004","10","20","19:00","8.4","","7.6","","95","","21","","20","","","M","99.52","","","","","","NA"
"2004-10-20 20:00","2004","10","20","20:00","8.3","","7.6","","95","","20","","17","","","M","99.54","","","","","","NA"
"2004-10-20 21:00","2004","10","20","21:00","8.1","","7.2","","94","","17","","11","","","M","99.53","","","","","","NA"
"2004-10-20 22:00","2004","10","20","22:00","7.5","","7.1","","97","","11","","11","","","M","99.57","","","","","","NA"
"2004-10-20 23:00","2004","10","20","23:00","6.2","","6.2","","100","","7","","7","","","M","99.57","","","","","","NA"
"2004-10-21 00:00","2004","10","21","00:00","6.9","","6.8","","99","","10","","6","","","M","99.56","","","","","","NA"
"2004-10-21 01:00","2004","10","21","01:00","6.8","","6.7","","99","","6","","9","","","M","99.57","","","","","","NA"
"2004-10-21 02:00","2004","10","21","02:00","7.0","","6.9","","99","","12","","11","","","M","99.59","","","","","","NA"
"2004-10-21 03:00","2004","10","21","03:00","6.9","","6.7","","99","","11","","11","","","M","99.61","","","","","","NA"
"2004-10-21 04:00","2004","10","21","04:00","6.5","","6.3","","99","","10","","9","","","M","99.62","","","","","","NA"
"2004-10-21 05:00","2004","10","21","05:00","6.1","","5.9","","99","","10","","9","","","M","99.66","","","","","","NA"
"2004-10-21 06:00","2004","10","21","06:00","5.5","","5.5","","100","","9","","11","","","M","99.68","","","","","","NA"
"2004-10-21 07:00","2004","10","21","07:00","5.0","","5.0","","100","","8","","6","","","M","99.75","","","","","","NA"
"2004-10-21 08:00","2004","10","21","08:00","5.8","","5.8","","100","","11","","15","","","M","99.73","","","","","","NA"
"2004-10-21 09:00","2004","10","21","09:00","7.6","","6.1","","90","","11","","7","","","M","99.80","","","","","","NA"
"2004-10-21 10:00","2004","10","21","10:00","10.5","","7.5","","82","","13","","13","","","M","99.80","","","","","","NA"
"2004-10-21 11:00","2004","10","21","11:00","12.1","","7.7","","74","","17","","19","","","M","99.78","","","","","","NA"
"2004-10-21 12:00","2004","10","21","12:00","11.0","","7.9","","81","","20","","28","","","M","99.82","","","","","","NA"
"2004-10-21 13:00","2004","10","21","13:00","10.5","","8.3","","86","","18","","22","","","M","99.75","","","","","","NA"
"2004-10-21 14:00","2004","10","21","14:00","11.8","","8.2","","79","","19","","22","","","M","99.68","","","","","","NA"
"2004-10-21 15:00","2004","10","21","15:00","11.3","","8.1","","81","","19","","24","","","M","99.69","","","","","","NA"
"2004-10-21 16:00","2004","10","21","16:00","11.2","","7.6","","78","","18","","22","","","M","99.66","","","","","","NA"
"2004-10-21 17:00","2004","10","21","17:00","10.2","","8.1","","87","","18","","24","","","M","99.62","","","","","","NA"
"2004-10-21 18:00","2004","10","21","18:00","9.7","","7.9","","89","","17","","20","","","M","99.63","","","","","","NA"
"2004-10-21 19:00","2004","10","21","19:00","8.8","","6.8","","87","","13","","9","","","M","99.67","","","","","","NA"
"2004-10-21 20:00","2004","10","21","20:00","7.7","","6.2","","90","","10","","19","","","M","99.62","","","","","","NA"
"2004-10-21 21:00","2004","10","21","21:00","7.0","","5.4","","90","","10","","22","","","M","99.58","","","","","","NA"
"2004-10-21 22:00","2004","10","21","22:00","6.5","","4.7","","88","","10","","20","","","M","99.57","","","","","","NA"
"2004-10-21 23:00","2004","10","21","23:00","6.5","","4.5","","87","","10","","19","","","M","99.55","","","","","","NA"
"2004-10-22 00:00","2004","10","22","00:00","6.2","","4.1","","86","","11","","11","","","M","99.53","","","","","","NA"
"2004-10-22 01:00","2004","10","22","01:00","8.0","","5.6","","85","","15","","17","","","M","99.53","","","","","","NA"
"2004-10-22 02:00","2004","10","22","02:00","8.5","","6.6","","88","","16","","20","","","M","99.53","","","","","","NA"
"2004-10-22 03:00","2004","10","22","03:00","8.8","","6.4","","85","","17","","30","","","M","99.46","","","","","","NA"
"2004-10-22 04:00","2004","10","22","04:00","8.6","","7.2","","91","","17","","35","","","M","99.44","","","","","","NA"
"2004-10-22 05:00","2004","10","22","05:00","8.7","","7.1","","90","","17","","32","","","M","99.42","","","","","","NA"
"2004-10-22 06:00","2004","10","22","06:00","8.7","","7.5","","92","","17","","28","","","M","99.38","","","","","","NA"
"2004-10-22 07:00","2004","10","22","07:00","9.2","","8.8","","97","","17","","33","","","M","99.38","","","","","","NA"
"2004-10-22 08:00","2004","10","22","08:00","9.3","","9.2","","99","","17","","35","","","M","99.41","","","","","","NA"
"2004-10-22 09:00","2004","10","22","09:00","9.5","","8.9","","96","","17","","39","","","M","99.36","","","","","","NA"
"2004-10-22 10:00","2004","10","22","10:00","10.3","","7.7","","84","","17","","48","","","M","99.32","","","","","","NA"
"2004-10-22 11:00","2004","10","22","11:00","11.1","","7.2","","77","","17","","37","","","M","99.30","","","","","","NA"
"2004-10-22 12:00","2004","10","22","12:00","11.2","","6.4","","72","","17","","39","","","M","99.24","","","","","","NA"
"2004-10-22 13:00","2004","10","22","13:00","11.7","","6.0","","68","","16","","33","","","M","99.16","","","","","","NA"
"2004-10-22 14:00","2004","10","22","14:00","10.8","","7.2","","78","","18","","39","","","M","99.10","","","","","","NA"
"2004-10-22 15:00","2004","10","22","15:00","11.0","","7.4","","78","","19","","39","","","M","99.09","","","","","","NA"
"2004-10-22 16:00","2004","10","22","16:00","10.2","","6.9","","80","","18","","39","","","M","99.07","","","","","","NA"
"2004-10-22 17:00","2004","10","22","17:00","9.9","","7.3","","84","","17","","37","","","M","99.06","","","","","","NA"
"2004-10-22 18:00","2004","10","22","18:00","9.1","","7.6","","90","","15","","24","","","M","98.97","","","","","","NA"
"2004-10-22 19:00","2004","10","22","19:00","9.1","","8.1","","93","","14","","15","","","M","99.00","","","","","","NA"
"2004-10-22 20:00","2004","10","22","20:00","8.7","","8.3","","97","","14","","30","","","M","98.87","","","","","","NA"
"2004-10-22 21:00","2004","10","22","21:00","8.6","","8.0","","96","","13","","15","","","M","98.95","","","","","","NA"
"2004-10-22 22:00","2004","10","22","22:00","8.3","","8.3","","100","","11","","13","","","M","98.86","","","","","","NA"
"2004-10-22 23:00","2004","10","22","23:00","8.4","","8.4","","100","","11","","17","","","M","98.69","","","","","","NA"
"2004-10-23 00:00","2004","10","23","00:00","9.0","","9.0","","100","","13","","19","","","M","98.65","","","","","","NA"
"2004-10-23 01:00","2004","10","23","01:00","9.4","","9.2","","99","","14","","24","","","M","98.57","","","","","","NA"
"2004-10-23 02:00","2004","10","23","02:00","9.5","","9.4","","99","","15","","32","","","M","98.49","","","","","","NA"
"2004-10-23 03:00","2004","10","23","03:00","9.7","","9.3","","97","","15","","32","","","M","98.42","","","","","","NA"
"2004-10-23 04:00","2004","10","23","04:00","10.0","","9.3","","95","","14","","30","","","M","98.26","","","","","","NA"
"2004-10-23 05:00","2004","10","23","05:00","10.4","","9.3","","93","","14","","33","","","M","98.16","","","","","","NA"
"2004-10-23 06:00","2004","10","23","06:00","10.2","","9.3","","94","","15","","39","","","M","98.04","","","","","","NA"
"2004-10-23 07:00","2004","10","23","07:00","10.4","","9.4","","94","","14","","35","","","M","97.96","","","","","","NA"
"2004-10-23 08:00","2004","10","23","08:00","10.3","","10.1","","99","","15","","39","","","M","97.92","","","","","","NA"
"2004-10-23 09:00","2004","10","23","09:00","10.1","","10.1","","100","","14","","41","","","M","97.82","","","","","","NA"
"2004-10-23 10:00","2004","10","23","10:00","10.5","","10.5","","100","","15","","33","","","M","97.74","","","","","","NA"
"2004-10-23 11:00","2004","10","23","11:00","10.4","","10.4","","100","","15","","41","","","M","97.70","","","","","","NA"
"2004-10-23 12:00","2004","10","23","12:00","10.5","","10.5","","100","","15","","59","","","M","97.62","","","","","","NA"
"2004-10-23 13:00","2004","10","23","13:00","10.6","","10.5","","99","","15","","44","","","M","97.53","","","","","","NA"
"2004-10-23 14:00","2004","10","23","14:00","11.1","","10.5","","96","","15","","43","","","M","97.46","","","","","","NA"
"2004-10-23 15:00","2004","10","23","15:00","10.5","","10.4","","99","","15","","35","","","M","97.37","","","","","","NA"
"2004-10-23 16:00","2004","10","23","16:00","10.5","","10.5","","100","","13","","33","","","M","97.29","","","","","","NA"
"2004-10-23 17:00","2004","10","23","17:00","10.7","","10.7","","100","","14","","33","","","M","97.25","","","","","","NA"
"2004-10-23 18:00","2004","10","23","18:00","10.8","","10.8","","100","","15","","37","","","M","97.21","","","","","","NA"
"2004-10-23 19:00","2004","10","23","19:00","11.2","","11.0","","99","","15","","33","","","M","97.21","","","","","","NA"
"2004-10-23 20:00","2004","10","23","20:00","10.8","","10.8","","100","","15","","26","","","M","97.24","","","","","","NA"
"2004-10-23 21:00","2004","10","23","21:00","10.7","","10.7","","100","","14","","24","","","M","97.20","","","","","","NA"
"2004-10-23 22:00","2004","10","23","22:00","11.1","","11.1","","100","","14","","20","","","M","97.18","","","","","","NA"
"2004-10-23 23:00","2004","10","23","23:00","11.7","","11.7","","100","","14","","20","","","M","97.19","","","","","","NA"
"2004-10-24 00:00","2004","10","24","00:00","11.9","","11.9","","100","","13","","11","","","M","97.19","","","","","","NA"
"2004-10-24 01:00","2004","10","24","01:00","11.9","","11.9","","100","","14","","13","","","M","97.23","","","","","","NA"
"2004-10-24 02:00","2004","10","24","02:00","11.9","","11.9","","100","","14","","9","","","M","97.27","","","","","","NA"
"2004-10-24 03:00","2004","10","24","03:00","11.7","","11.7","","100","","11","","17","","","M","97.26","","","","","","NA"
"2004-10-24 04:00","2004","10","24","04:00","11.5","","11.5","","100","","26","","6","","","M","97.39","","","","","","NA"
"2004-10-24 05:00","2004","10","24","05:00","10.1","","10.1","","100","","17","","17","","","M","97.46","","","","","","NA"
"2004-10-24 06:00","2004","10","24","06:00","10.1","","10.1","","100","","18","","15","","","M","97.52","","","","","","NA"
"2004-10-24 07:00","2004","10","24","07:00","9.7","","9.7","","100","","23","","19","","","M","97.66","","","","","","NA"
"2004-10-24 08:00","2004","10","24","08:00","9.7","","9.7","","100","","","","0","","","M","97.76","","","","","","NA"
"2004-10-24 09:00","2004","10","24","09:00","9.7","","9.7","","100","","8","","9","","","M","97.81","","","","","","NA"
"2004-10-24 10:00","2004","10","24","10:00","10.1","","10.1","","100","","4","","2","","","M","97.90","","","","","","NA"
"2004-10-24 11:00","2004","10","24","11:00","10.0","","10.0","","100","","23","","7","","","M","97.98","","","","","","NA"
"2004-10-24 12:00","2004","10","24","12:00","10.1","","10.1","","100","","25","","2","","","M","98.02","","","","","","NA"
"2004-10-24 13:00","2004","10","24","13:00","10.2","","10.2","","100","","25","","11","","","M","98.10","","","","","","NA"
"2004-10-24 14:00","2004","10","24","14:00","10.6","","10.6","","100","","31","","7","","","M","98.15","","","","","","NA"
"2004-10-24 15:00","2004","10","24","15:00","10.4","","10.4","","100","","29","","13","","","M","98.22","","","","","","NA"
"2004-10-24 16:00","2004","10","24","16:00","10.0","","10.0","","100","","29","","11","","","M","98.26","","","","","","NA"
"2004-10-24 17:00","2004","10","24","17:00","10.1","","10.1","","100","","36","","2","","","M","98.28","","","","","","NA"
"2004-10-24 18:00","2004","10","24","18:00","10.0","","10.0","","100","","30","","4","","","M","98.37","","","","","","NA"
"2004-10-24 19:00","2004","10","24","19:00","9.3","","9.3","","100","","25","","22","","","M","98.44","","","","","","NA"
"2004-10-24 20:00","2004","10","24","20:00","8.3","","8.3","","100","","28","","20","","","M","98.51","","","","","","NA"
"2004-10-24 21:00","2004","10","24","21:00","8.3","","8.3","","100","","28","","15","","","M","98.55","","","","","","NA"
"2004-10-24 22:00","2004","10","24","22:00","8.3","","8.1","","99","","28","","11","","","M","98.55","","","","","","NA"
"2004-10-24 23:00","2004","10","24","23:00","8.4","","8.3","","99","","25","","15","","","M","98.60","","","","","","NA"
"2004-10-25 00:00","2004","10","25","00:00","8.6","","8.0","","96","","21","","19","","","M","98.56","","","","","","NA"
"2004-10-25 01:00","2004","10","25","01:00","8.4","","8.3","","99","","21","","26","","","M","98.60","","","","","","NA"
"2004-10-25 02:00","2004","10","25","02:00","8.5","","8.0","","97","","20","","22","","","M","98.61","","","","","","NA"
"2004-10-25 03:00","2004","10","25","03:00","8.7","","8.3","","97","","19","","20","","","M","98.60","","","","","","NA"
"2004-10-25 04:00","2004","10","25","04:00","8.7","","8.0","","95","","19","","30","","","M","98.59","","","","","","NA"
"2004-10-25 05:00","2004","10","25","05:00","8.5","","8.3","","99","","16","","22","","","M","98.51","","","","","","NA"
"2004-10-25 06:00","2004","10","25","06:00","9.4","","9.3","","99","","17","","24","","","M","98.48","","","","","","NA"
"2004-10-25 07:00","2004","10","25","07:00","9.9","","9.0","","94","","16","","30","","","M","98.35","","","","","","NA"
"2004-10-25 08:00","2004","10","25","08:00","10.1","","9.5","","96","","18","","41","","","M","98.46","","","","","","NA"
"2004-10-25 09:00","2004","10","25","09:00","9.8","","9.7","","99","","19","","41","","","M","98.52","","","","","","NA"
"2004-10-25 10:00","2004","10","25","10:00","9.6","","9.6","","100","","20","","43","","","M","98.59","","","","","","NA"
"2004-10-25 11:00","2004","10","25","11:00","9.3","","9.3","","100","","24","","28","","","M","98.63","","","","","","NA"
"2004-10-25 12:00","2004","10","25","12:00","9.5","","9.4","","99","","29","","24","","","M","98.71","","","","","","NA"
"2004-10-25 13:00","2004","10","25","13:00","10.4","","7.8","","84","","31","","20","","","M","98.80","","","","","","NA"
"2004-10-25 14:00","2004","10","25","14:00","9.8","","6.2","","78","","31","","20","","","M","98.90","","","","","","NA"
"2004-10-25 15:00","2004","10","25","15:00","10.1","","5.0","","71","","31","","17","","","M","98.97","","","","","","NA"
"2004-10-25 16:00","2004","10","25","16:00","10.5","","3.8","","63","","32","","15","","","M","99.10","","","","","","NA"
"2004-10-25 17:00","2004","10","25","17:00","9.7","","4.6","","70","","31","","11","","","M","99.20","","","","","","NA"
"2004-10-25 18:00","2004","10","25","18:00","7.9","","2.6","","69","","34","","15","","","M","99.30","","","","","","NA"
"2004-10-25 19:00","2004","10","25","19:00","6.3","","2.4","","76","","34","","15","","","M","99.43","","","","","","NA"
"2004-10-25 20:00","2004","10","25","20:00","5.4","","1.9","","78","","36","","9","","","M","99.53","","","","","","NA"
"2004-10-25 21:00","2004","10","25","21:00","4.3","","1.6","","83","","35","","9","","","M","99.61","","","","","","NA"
"2004-10-25 22:00","2004","10","25","22:00","3.0","","2.1","","94","","4","","9","","","M","99.65","","","","","","NA"
"2004-10-25 23:00","2004","10","25","23:00","1.0","","1.0","","100","","3","","7","","","M","99.73","","","","","","NA"
"2004-10-26 00:00","2004","10","26","00:00","0.3","","0.3","","100","","7","","6","","","M","99.79","","","","","","NA"
"2004-10-26 01:00","2004","10","26","01:00","1.2","","1.2","","100","","3","","13","","","M","99.80","","","","","","NA"
"2004-10-26 02:00","2004","10","26","02:00","0.3","","0.3","","100","","6","","7","","","M","99.85","","","","","","NA"
"2004-10-26 03:00","2004","10","26","03:00","0.6","","0.6","","100","","8","","9","","","M","99.89","","","","","","NA"
"2004-10-26 04:00","2004","10","26","04:00","-0.1","","-0.1","","100","","8","","13","","","M","99.94","","","","-4","","NA"
"2004-10-26 05:00","2004","10","26","05:00","-0.3","","-0.3","","100","","6","","9","","","M","100.01","","","","-3","","NA"
"2004-10-26 06:00","2004","10","26","06:00","-0.8","","-0.8","","100","","6","","11","","","M","100.00","","","","-5","","NA"
"2004-10-26 07:00","2004","10","26","07:00","-0.9","","-0.9","","100","","6","","11","","","M","100.03","","","","-5","","NA"
"2004-10-26 08:00","2004","10","26","08:00","-0.1","","-0.1","","100","","6","","17","","","M","100.08","","","","-5","","NA"
"2004-10-26 09:00","2004","10","26","09:00","2.0","","1.5","","96","","7","","13","","","M","100.11","","","","","","NA"
"2004-10-26 10:00","2004","10","26","10:00","5.8","","3.0","","82","","10","","13","","","M","100.11","","","","","","NA"
"2004-10-26 11:00","2004","10","26","11:00","8.2","","2.2","","66","","17","","7","","","M","100.11","","","","","","NA"
"2004-10-26 12:00","2004","10","26","12:00","7.4","","3.2","","75","","25","","9","","","M","100.13","","","","","","NA"
"2004-10-26 13:00","2004","10","26","13:00","8.0","","3.6","","74","","22","","9","","","M","100.07","","","","","","NA"
"2004-10-26 14:00","2004","10","26","14:00","8.1","","2.9","","70","","23","","13","","","M","100.05","","","","","","NA"
"2004-10-26 15:00","2004","10","26","15:00","7.2","","4.5","","83","","24","","15","","","M","100.06","","","","","","NA"
"2004-10-26 16:00","2004","10","26","16:00","7.3","","4.5","","82","","25","","11","","","M","100.06","","","","","","NA"
"2004-10-26 17:00","2004","10","26","17:00","7.1","","4.3","","82","","25","","9","","","M","100.06","","","","","","NA"
"2004-10-26 18:00","2004","10","26","18:00","6.8","","3.8","","81","","24","","11","","","M","100.07","","","","","","NA"
"2004-10-26 19:00","2004","10","26","19:00","6.7","","4.2","","84","","27","","9","","","M","100.11","","","","","","NA"
"2004-10-26 20:00","2004","10","26","20:00","6.7","","4.1","","83","","28","","9","","","M","100.14","","","","","","NA"
"2004-10-26 21:00","2004","10","26","21:00","4.2","","3.3","","94","","5","","6","","","M","100.17","","","","","","NA"
"2004-10-26 22:00","2004","10","26","22:00","2.8","","2.8","","100","","7","","7","","","M","100.19","","","","","","NA"
"2004-10-26 23:00","2004","10","26","23:00","1.8","","1.8","","100","","8","","7","","","M","100.20","","","","","","NA"
"2004-10-27 00:00","2004","10","27","00:00","1.1","","1.1","","100","","5","","13","","","M","100.17","","","","","","NA"
"2004-10-27 01:00","2004","10","27","01:00","0.5","","0.5","","100","","5","","11","","","M","100.18","","","","","","NA"
"2004-10-27 02:00","2004","10","27","02:00","0.1","","0.1","","100","","4","","7","","","M","100.21","","","","","","NA"
"2004-10-27 03:00","2004","10","27","03:00","2.8","","2.7","","99","","5","","19","","","M","100.24","","","","","","NA"
"2004-10-27 04:00","2004","10","27","04:00","2.3","","2.1","","99","","6","","15","","","M","100.26","","","","","","NA"
"2004-10-27 05:00","2004","10","27","05:00","1.4","","1.4","","100","","7","","11","","","M","100.34","","","","","","NA"
"2004-10-27 06:00","2004","10","27","06:00","1.5","","1.5","","100","","6","","19","","","M","100.40","","","","","","NA"
"2004-10-27 07:00","2004","10","27","07:00","1.5","","1.5","","100","","6","","15","","","M","100.49","","","","","","NA"
"2004-10-27 08:00","2004","10","27","08:00","1.8","","1.8","","100","","7","","19","","","M","100.48","","","","","","NA"
"2004-10-27 09:00","2004","10","27","09:00","2.1","","1.8","","98","","8","","20","","","M","100.49","","","","","","NA"
"2004-10-27 10:00","2004","10","27","10:00","2.3","","1.2","","92","","6","","20","","","M","100.54","","","","","","NA"
"2004-10-27 11:00","2004","10","27","11:00","2.8","","1.1","","89","","7","","17","","","M","100.60","","","","","","NA"
"2004-10-27 12:00","2004","10","27","12:00","3.2","","1.0","","85","","5","","13","","","M","100.59","","","","","","NA"
"2004-10-27 13:00","2004","10","27","13:00","4.9","","1.3","","77","","8","","13","","","M","100.54","","","","","","NA"
"2004-10-27 14:00","2004","10","27","14:00","5.3","","1.0","","74","","5","","17","","","M","100.47","","","","","","NA"
"2004-10-27 15:00","2004","10","27","15:00","5.9","","1.2","","72","","6","","17","","","M","100.44","","","","","","NA"
"2004-10-27 16:00","2004","10","27","16:00","5.8","","1.2","","72","","7","","15","","","M","100.40","","","","","","NA"
"2004-10-27 17:00","2004","10","27","17:00","4.4","","1.3","","80","","6","","11","","","M","100.38","","","","","","NA"
"2004-10-27 18:00","2004","10","27","18:00","2.8","","0.9","","87","","5","","13","","","M","100.36","","","","","","NA"
"2004-10-27 19:00","2004","10","27","19:00","1.8","","0.5","","91","","5","","11","","","M","100.37","","","","","","NA"
"2004-10-27 20:00","2004","10","27","20:00","1.4","","0.5","","94","","6","","17","","","M","100.33","","","","","","NA"
"2004-10-27 21:00","2004","10","27","21:00","0.9","","0.4","","96","","6","","19","","","M","100.26","","","","","","NA"
"2004-10-27 22:00","2004","10","27","22:00","1.0","","0.4","","96","","6","","17","","","M","100.25","","","","","","NA"
"2004-10-27 23:00","2004","10","27","23:00","1.2","","0.6","","96","","6","","15","","","M","100.23","","","","","","NA"
"2004-10-28 00:00","2004","10","28","00:00","1.8","","0.6","","92","","8","","19","","","M","100.17","","","","","","NA"
"2004-10-28 01:00","2004","10","28","01:00","1.9","","0.8","","92","","8","","15","","","M","100.12","","","","","","NA"
"2004-10-28 02:00","2004","10","28","02:00","1.4","","0.7","","95","","8","","11","","","M","100.12","","","","","","NA"
"2004-10-28 03:00","2004","10","28","03:00","1.4","","1.0","","97","","8","","11","","","M","100.07","","","","","","NA"
"2004-10-28 04:00","2004","10","28","04:00","1.6","","1.2","","97","","9","","13","","","M","100.00","","","","","","NA"
"2004-10-28 05:00","2004","10","28","05:00","1.2","","0.9","","98","","8","","11","","","M","99.98","","","","","","NA"
"2004-10-28 06:00","2004","10","28","06:00","3.4","","2.7","","95","","9","","13","","","M","99.90","","","","","","NA"
"2004-10-28 07:00","2004","10","28","07:00","4.2","","3.2","","93","","10","","11","","","M","99.81","","","","","","NA"
"2004-10-28 08:00","2004","10","28","08:00","7.3","","6.6","","95","","16","","20","","","M","99.76","","","","","","NA"
"2004-10-28 09:00","2004","10","28","09:00","8.0","","6.9","","93","","17","","28","","","M","99.77","","","","","","NA"
"2004-10-28 10:00","2004","10","28","10:00","8.3","","7.3","","93","","18","","30","","","M","99.74","","","","","","NA"
"2004-10-28 11:00","2004","10","28","11:00","8.3","","7.7","","96","","17","","32","","","M","99.63","","","","","","NA"
"2004-10-28 12:00","2004","10","28","12:00","8.5","","7.8","","95","","17","","30","","","M","99.54","","","","","","NA"
"2004-10-28 13:00","2004","10","28","13:00","8.6","","8.0","","96","","17","","30","","","M","99.47","","","","","","NA"
"2004-10-28 14:00","2004","10","28","14:00","9.0","","8.2","","95","","17","","26","","","M","99.39","","","","","","NA"
"2004-10-28 15:00","2004","10","28","15:00","9.1","","8.3","","95","","17","","26","","","M","99.31","","","","","","NA"
"2004-10-28 16:00","2004","10","28","16:00","9.4","","8.4","","93","","17","","26","","","M","99.24","","","","","","NA"
"2004-10-28 17:00","2004","10","28","17:00","9.9","","7.9","","87","","17","","17","","","M","99.17","","","","","","NA"
"2004-10-28 18:00","2004","10","28","18:00","9.5","","7.7","","89","","14","","15","","","M","99.09","","","","","","NA"
"2004-10-28 19:00","2004","10","28","19:00","9.0","","7.8","","92","","13","","15","","","M","99.05","","","","","","NA"
"2004-10-28 20:00","2004","10","28","20:00","9.2","","7.7","","90","","13","","17","","","M","98.96","","","","","","NA"
"2004-10-28 21:00","2004","10","28","21:00","9.7","","8.3","","91","","17","","20","","","M","98.90","","","","","","NA"
"2004-10-28 22:00","2004","10","28","22:00","9.8","","8.8","","93","","17","","30","","","M","98.85","","","","","","NA"
"2004-10-28 23:00","2004","10","28","23:00","9.7","","9.4","","98","","17","","30","","","M","98.82","","","","","","NA"
"2004-10-29 00:00","2004","10","29","00:00","10.3","","9.6","","95","","17","","26","","","M","98.73","","","","","","NA"
"2004-10-29 01:00","2004","10","29","01:00","10.6","","9.5","","93","","17","","26","","","M","98.63","","","","","","NA"
"2004-10-29 02:00","2004","10","29","02:00","10.8","","9.2","","90","","17","","30","","","M","98.55","","","","","","NA"
"2004-10-29 03:00","2004","10","29","03:00","10.3","","9.7","","96","","15","","20","","","M","98.46","","","","","","NA"
"2004-10-29 04:00","2004","10","29","04:00","9.6","","9.5","","99","","13","","17","","","M","98.33","","","","","","NA"
"2004-10-29 05:00","2004","10","29","05:00","9.9","","9.7","","99","","14","","20","","","M","98.25","","","","","","NA"
"2004-10-29 06:00","2004","10","29","06:00","9.8","","9.8","","100","","15","","20","","","M","98.18","","","","","","NA"
"2004-10-29 07:00","2004","10","29","07:00","10.3","","10.3","","100","","17","","24","","","M","98.12","","","","","","NA"
"2004-10-29 08:00","2004","10","29","08:00","10.2","","10.2","","100","","17","","26","","","M","98.10","","","","","","NA"
"2004-10-29 09:00","2004","10","29","09:00","10.2","","10.2","","100","","17","","32","","","M","98.04","","","","","","NA"
"2004-10-29 10:00","2004","10","29","10:00","10.4","","10.4","","100","","17","","28","","","M","97.96","","","","","","NA"
"2004-10-29 11:00","2004","10","29","11:00","10.5","","10.5","","100","","17","","28","","","M","97.94","","","","","","NA"
"2004-10-29 12:00","2004","10","29","12:00","10.3","","10.3","","100","","17","","28","","","M","97.90","","","","","","NA"
"2004-10-29 13:00","2004","10","29","13:00","10.2","","10.2","","100","","17","","28","","","M","97.84","","","","","","NA"
"2004-10-29 14:00","2004","10","29","14:00","10.3","","10.3","","100","","17","","24","","","M","97.78","","","","","","NA"
"2004-10-29 15:00","2004","10","29","15:00","10.4","","10.4","","100","","16","","13","","","M","97.71","","","","","","NA"
"2004-10-29 16:00","2004","10","29","16:00","10.6","","10.6","","100","","12","","7","","","M","97.68","","","","","","NA"
"2004-10-29 17:00","2004","10","29","17:00","10.5","","10.5","","100","","11","","6","","","M","97.66","","","","","","NA"
"2004-10-29 18:00","2004","10","29","18:00","10.4","","10.4","","100","","10","","9","","","M","97.62","","","","","","NA"
"2004-10-29 19:00","2004","10","29","19:00","10.4","","10.4","","100","","13","","7","","","M","97.56","","","","","","NA"
"2004-10-29 20:00","2004","10","29","20:00","10.5","","10.5","","100","","7","","11","","","M","97.48","","","","","","NA"
"2004-10-29 21:00","2004","10","29","21:00","10.6","","10.6","","100","","5","","7","","","M","97.41","","","","","","NA"
"2004-10-29 22:00","2004","10","29","22:00","10.9","","10.9","","100","","8","","19","","","M","97.27","","","","","","NA"
"2004-10-29 23:00","2004","10","29","23:00","10.7","","10.7","","100","","9","","13","","","M","97.26","","","","","","NA"
"2004-10-30 00:00","2004","10","30","00:00","11.2","","11.2","","100","","9","","11","","","M","97.08","","","","","","NA"
"2004-10-30 01:00","2004","10","30","01:00","11.4","","11.4","","100","","8","","17","","","M","96.94","","","","","","NA"
"2004-10-30 02:00","2004","10","30","02:00","11.8","","11.8","","100","","9","","19","","","M","96.83","","","","","","NA"
"2004-10-30 03:00","2004","10","30","03:00","12.3","","12.3","","100","","9","","22","","","M","96.61","","","","","","NA"
"2004-10-30 04:00","2004","10","30","04:00","13.1","","13.1","","100","","8","","28","","","M","96.37","","","","","","NA"
"2004-10-30 05:00","2004","10","30","05:00","13.1","","13.1","","100","","8","","20","","","M","96.30","","","","","","NA"
"2004-10-30 06:00","2004","10","30","06:00","13.6","","13.6","","100","","7","","17","","","M","96.14","","","","","","NA"
"2004-10-30 07:00","2004","10","30","07:00","13.8","","13.8","","100","","8","","15","","","M","96.15","","","","","","NA"
"2004-10-30 08:00","2004","10","30","08:00","14.4","","14.4","","100","","9","","22","","","M","96.01","","","","","","NA"
"2004-10-30 09:00","2004","10","30","09:00","12.0","","12.0","","100","","17","","32","","","M","96.05","","","","","","NA"
"2004-10-30 10:00","2004","10","30","10:00","11.7","","11.7","","100","","17","","32","","","M","96.01","","","","","","NA"
"2004-10-30 11:00","2004","10","30","11:00","11.3","","11.3","","100","","18","","26","","","M","95.98","","","","","","NA"
"2004-10-30 12:00","2004","10","30","12:00","11.6","","11.6","","100","","16","","22","","","M","95.99","","","","","","NA"
"2004-10-30 13:00","2004","10","30","13:00","10.2","","10.2","","100","","20","","9","","","M","95.98","","","","","","NA"
"2004-10-30 14:00","2004","10","30","14:00","10.3","","10.3","","100","","33","","7","","","M","95.95","","","","","","NA"
"2004-10-30 15:00","2004","10","30","15:00","9.7","","9.7","","100","","5","","19","","","M","95.98","","","","","","NA"
"2004-10-30 16:00","2004","10","30","16:00","8.1","","8.1","","100","","4","","32","","","M","96.03","","","","","","NA"
"2004-10-30 17:00","2004","10","30","17:00","6.5","","6.5","","100","","5","","33","","","M","96.20","","","","","","NA"
"2004-10-30 18:00","2004","10","30","18:00","4.9","","4.9","","100","","4","","32","","","M","96.41","","","","","","NA"
"2004-10-30 19:00","2004","10","30","19:00","3.8","","3.8","","100","","4","","26","","","M","96.59","","","","","","NA"
"2004-10-30 20:00","2004","10","30","20:00","2.2","","2.2","","100","","4","","26","","","M","96.78","","","","","","NA"
"2004-10-30 21:00","2004","10","30","21:00","1.7","","1.6","","99","","3","","30","","","M","96.94","","","","","","NA"
"2004-10-30 22:00","2004","10","30","22:00","1.4","","1.2","","99","","4","","28","","","M","97.06","","","","","","NA"
"2004-10-30 23:00","2004","10","30","23:00","1.3","","0.8","","96","","3","","20","","","M","97.23","","","","","","NA"
"2004-10-31 00:00","2004","10","31","00:00","1.0","","0.1","","94","","3","","22","","","M","97.37","","","","","","NA"
"2004-10-31 01:00","2004","10","31","01:00","0.6","","-0.1","","95","","3","","19","","","M","97.48","","","","","","NA"
"2004-10-31 02:00","2004","10","31","02:00","0.5","","-0.5","","93","","4","","20","","","M","97.63","","","","","","NA"
"2004-10-31 03:00","2004","10","31","03:00","0.5","","-0.9","","90","","1","","17","","","M","97.80","","","","","","NA"
"2004-10-31 04:00","2004","10","31","04:00","0.3","","-1.0","","91","","2","","15","","","M","97.89","","","","","","NA"
"2004-10-31 05:00","2004","10","31","05:00","0.2","","-1.0","","92","","2","","19","","","M","98.00","","","","","","NA"
"2004-10-31 06:00","2004","10","31","06:00","0.1","","-1.3","","90","","2","","19","","","M","98.13","","","","","","NA"
"2004-10-31 07:00","2004","10","31","07:00","0.0","","-1.5","","90","","2","","19","","","M","98.23","","","","-5","","NA"
"2004-10-31 08:00","2004","10","31","08:00","-0.3","","-0.7","","97","","3","","13","","","M","98.32","","","","-4","","NA"
"2004-10-31 09:00","2004","10","31","09:00","0.0","","-2.0","","86","","4","","13","","","M","98.46","","","","-4","","NA"
"2004-10-31 10:00","2004","10","31","10:00","-0.1","","-2.5","","84","","2","","19","","","M","98.56","","","","-5","","NA"
"2004-10-31 11:00","2004","10","31","11:00","0.2","","-2.5","","82","","1","","13","","","M","98.63","","","","","","NA"
"2004-10-31 12:00","2004","10","31","12:00","1.1","","-2.1","","79","","2","","11","","","M","98.70","","","","","","NA"
"2004-10-31 13:00","2004","10","31","13:00","0.9","","-1.7","","83","","3","","11","","","M","98.75","","","","","","NA"
"2004-10-31 14:00","2004","10","31","14:00","1.9","","-2.6","","72","","4","","13","","","M","98.77","","","","","","NA"
"2004-10-31 15:00","2004","10","31","15:00","1.9","","-1.9","","76","","1","","7","","","M","98.85","","","","","","NA"
"2004-10-31 16:00","2004","10","31","16:00","1.1","","-1.7","","82","","3","","9","","","M","98.94","","","","","","NA"
"2004-10-31 17:00","2004","10","31","17:00","0.2","","-2.3","","83","","36","","9","","","M","99.02","","","","","","NA"
"2004-10-31 18:00","2004","10","31","18:00","-0.5","","-2.5","","86","","3","","7","","","M","99.07","","","","-3","","NA"
"2004-10-31 19:00","2004","10","31","19:00","-0.9","","-2.9","","86","","5","","9","","","M","99.16","","","","-4","","NA"
"2004-10-31 20:00","2004","10","31","20:00","-1.3","","-2.9","","89","","4","","9","","","M","99.24","","","","-5","","NA"
"2004-10-31 21:00","2004","10","31","21:00","-1.4","","-2.9","","89","","4","","9","","","M","99.28","","","","-5","","NA"
"2004-10-31 22:00","2004","10","31","22:00","-1.3","","-2.4","","92","","6","","11","","","M","99.35","","","","-5","","NA"
"2004-10-31 23:00","2004","10","31","23:00","-1.1","","-1.9","","94","","8","","11","","","M","99.33","","","","-5","","NA"
