"Station Name","PUKASKWA (AUT)"
"Province","ONTARIO"
"Latitude","48.61"
"Longitude","-86.29"
"Elevation","191.50"
"Climate Identifier","6046768"
"WMO Identifier","71750"
"TC Identifier","WCJ"
"All times are specified in Local Standard Time (LST). Add 1 hour to adjust for Daylight Saving Time where and when it is observed."

"Legend"
"E","Estimated"
"M","Missing"
"NA","Not Available"

"Date/Time","Year","Month","Day","Time","Temp (°C)","Temp Flag","Dew Point Temp (°C)","Dew Point Temp Flag","Rel Hum (%)","Rel Hum Flag","Wind Dir (10s deg)","Wind Dir Flag","Wind Spd (km/h)","Wind Spd Flag","Visibility (km)","Visibility Flag","Stn Press (kPa)","Stn Press Flag","Hmdx","Hmdx Flag","Wind Chill","Wind Chill Flag","Weather"
"2016-01-01 00:00","2016","01","01","00:00","-6.3","","-8.5","","85","","36","","3","","","","98.71","","","","-8","","NA"
"2016-01-01 01:00","2016","01","01","01:00","-6.4","","-8.7","","84","","33","","5","","","","98.69","","","","-9","","NA"
"2016-01-01 02:00","2016","01","01","02:00","-6.4","","-8.9","","82","","31","","4","","","","98.63","","","","-8","","NA"
"2016-01-01 03:00","2016","01","01","03:00","-6.3","","-9.2","","80","","32","","4","","","","98.64","","","","-8","","NA"
"2016-01-01 04:00","2016","01","01","04:00","-6.3","","-10.0","","75","","34","","3","","","","98.62","","","","-8","","NA"
"2016-01-01 05:00","2016","01","01","05:00","-6.2","","-10.3","","72","","30","","6","","","","98.58","","","","-9","","NA"
"2016-01-01 06:00","2016","01","01","06:00","-6.1","","-9.5","","77","","31","","4","","","","98.58","","","","-8","","NA"
"2016-01-01 07:00","2016","01","01","07:00","-6.4","","-9.5","","78","","30","","7","","","","98.58","","","","-10","","NA"
"2016-01-01 08:00","2016","01","01","08:00","-6.2","","-8.4","","85","","30","","4","","","","98.63","","","","-8","","NA"
"2016-01-01 09:00","2016","01","01","09:00","-5.7","","-7.6","","87","","27","","6","","","","98.62","","","","-9","","NA"
"2016-01-01 10:00","2016","01","01","10:00","-4.9","","-7.1","","85","","26","","12","","","","98.67","","","","-10","","NA"
"2016-01-01 11:00","2016","01","01","11:00","-4.9","","-8.5","","76","","28","","10","","","","98.70","","","","-9","","NA"
"2016-01-01 12:00","2016","01","01","12:00","-3.4","","-6.9","","77","","26","","11","","","","98.64","","","","-8","","NA"
"2016-01-01 13:00","2016","01","01","13:00","-2.8","","-6.3","","77","","26","","14","","","","98.58","","","","-8","","NA"
"2016-01-01 14:00","2016","01","01","14:00","-1.8","","-5.2","","78","","24","","13","","","","98.56","","","","-6","","NA"
"2016-01-01 15:00","2016","01","01","15:00","-1.1","","-5.9","","70","","24","","16","","","","98.56","","","","-6","","NA"
"2016-01-01 16:00","2016","01","01","16:00","-0.7","","-3.9","","79","","26","","16","","","","98.56","","","","-5","","NA"
"2016-01-01 17:00","2016","01","01","17:00","-0.7","","-3.4","","82","","25","","18","","","","98.57","","","","-6","","NA"
"2016-01-01 18:00","2016","01","01","18:00","-0.7","","-3.5","","82","","26","","16","","","","98.62","","","","-5","","NA"
"2016-01-01 19:00","2016","01","01","19:00","-1.6","","-4.3","","82","","25","","17","","","","98.65","","","","-7","","NA"
"2016-01-01 20:00","2016","01","01","20:00","-2.0","","-4.8","","81","","26","","13","","","","98.66","","","","-6","","NA"
"2016-01-01 21:00","2016","01","01","21:00","-3.1","","-6.0","","80","","28","","14","","","","98.70","","","","-8","","NA"
"2016-01-01 22:00","2016","01","01","22:00","-4.1","","-6.8","","82","","29","","8","","","","98.69","","","","-8","","NA"
"2016-01-01 23:00","2016","01","01","23:00","-5.0","","-7.8","","81","","29","","6","","","","98.72","","","","-8","","NA"
"2016-01-02 00:00","2016","01","02","00:00","-5.8","","-9.3","","76","","34","","6","","","","98.72","","","","-9","","NA"
"2016-01-02 01:00","2016","01","02","01:00","-5.4","","-8.5","","78","","29","","4","","","","98.69","","","","-7","","NA"
"2016-01-02 02:00","2016","01","02","02:00","-5.2","","-8.2","","79","","29","","7","","","","98.66","","","","-8","","NA"
"2016-01-02 03:00","2016","01","02","03:00","-5.1","","-7.9","","81","","30","","6","","","","98.66","","","","-8","","NA"
"2016-01-02 04:00","2016","01","02","04:00","-5.0","","-7.7","","81","","29","","6","","","","98.64","","","","-8","","NA"
"2016-01-02 05:00","2016","01","02","05:00","-4.7","","-7.2","","83","","27","","11","","","","98.58","","","","-9","","NA"
"2016-01-02 06:00","2016","01","02","06:00","-4.6","","-6.8","","85","","27","","7","","","","98.54","","","","-8","","NA"
"2016-01-02 07:00","2016","01","02","07:00","-4.5","","-6.5","","86","","29","","5","","","","98.52","","","","-7","","NA"
"2016-01-02 08:00","2016","01","02","08:00","-4.2","","-6.0","","88","","27","","4","","","","98.44","","","","-6","","NA"
"2016-01-02 09:00","2016","01","02","09:00","-3.4","","-5.3","","87","","26","","12","","","","98.37","","","","-8","","NA"
"2016-01-02 10:00","2016","01","02","10:00","-2.8","","-4.6","","87","","23","","10","","","","98.31","","","","-7","","NA"
"2016-01-02 11:00","2016","01","02","11:00","-2.0","","-4.0","","86","","23","","13","","","","98.20","","","","-6","","NA"
"2016-01-02 12:00","2016","01","02","12:00","-1.1","","-3.4","","84","","23","","14","","","","98.10","","","","-6","","NA"
"2016-01-02 13:00","2016","01","02","13:00","0.0","","-2.6","","83","","25","","14","","","","97.94","","","","-4","","NA"
"2016-01-02 14:00","2016","01","02","14:00","0.7","","-1.8","","84","","24","","12","","","","97.72","","","","","","NA"
"2016-01-02 15:00","2016","01","02","15:00","1.4","","-2.2","","77","","26","","18","","","","97.72","","","","","","NA"
"2016-01-02 16:00","2016","01","02","16:00","0.1","","-2.6","","82","","31","","5","","","","97.77","","","","","","NA"
"2016-01-02 17:00","2016","01","02","17:00","-3.0","","-6.2","","79","","2","","16","","","","97.88","","","","-8","","NA"
"2016-01-02 18:00","2016","01","02","18:00","-4.2","","-6.6","","83","","1","","14","","","","98.02","","","","-9","","NA"
"2016-01-02 19:00","2016","01","02","19:00","-4.3","","-7.0","","82","","1","","10","","","","98.18","","","","-8","","NA"
"2016-01-02 20:00","2016","01","02","20:00","-4.8","","-8.2","","78","","1","","13","","","","98.29","","","","-10","","NA"
"2016-01-02 21:00","2016","01","02","21:00","-5.2","","-9.3","","73","","1","","12","","","","98.39","","","","-10","","NA"
"2016-01-02 22:00","2016","01","02","22:00","-5.5","","-9.4","","74","","1","","8","","","","98.50","","","","-9","","NA"
"2016-01-02 23:00","2016","01","02","23:00","-5.7","","-9.2","","76","","1","","11","","","","98.60","","","","-10","","NA"
"2016-01-03 00:00","2016","01","03","00:00","-6.6","","-11.2","","69","","36","","12","","","","98.76","","","","-12","","NA"
"2016-01-03 01:00","2016","01","03","01:00","-7.3","","-10.9","","75","","3","","8","","","","98.85","","","","-11","","NA"
"2016-01-03 02:00","2016","01","03","02:00","-7.5","","-11.3","","74","","1","","10","","","","98.94","","","","-12","","NA"
"2016-01-03 03:00","2016","01","03","03:00","-8.2","","-11.8","","75","","36","","10","","","","99.07","","","","-13","","NA"
"2016-01-03 04:00","2016","01","03","04:00","-9.2","","-13.1","","73","","36","","8","","","","99.16","","","","-14","","NA"
"2016-01-03 05:00","2016","01","03","05:00","-9.9","","-13.7","","74","","36","","7","","","","99.23","","","","-14","","NA"
"2016-01-03 06:00","2016","01","03","06:00","-10.7","","-14.5","","73","","34","","6","","","","99.38","","","","-14","","NA"
"2016-01-03 07:00","2016","01","03","07:00","-11.5","","-15.2","","74","","4","","5","","","","99.47","","","","-15","","NA"
"2016-01-03 08:00","2016","01","03","08:00","-12.0","","-15.3","","76","","4","","10","","","","99.53","","","","-18","","NA"
"2016-01-03 09:00","2016","01","03","09:00","-12.8","","-16.1","","76","","4","","9","","","","99.57","","","","-18","","NA"
"2016-01-03 10:00","2016","01","03","10:00","-12.8","","-16.0","","77","","5","","10","","","","99.60","","","","-19","","NA"
"2016-01-03 11:00","2016","01","03","11:00","-11.7","","-15.0","","76","","4","","8","","","","99.63","","","","-16","","NA"
"2016-01-03 12:00","2016","01","03","12:00","-11.9","","-15.1","","77","","5","","6","","","","99.61","","","","-16","","NA"
"2016-01-03 13:00","2016","01","03","13:00","-11.4","","-14.9","","76","","2","","6","","","","99.62","","","","-15","","NA"
"2016-01-03 14:00","2016","01","03","14:00","-11.2","","-15.0","","73","","4","","7","","","","99.62","","","","-15","","NA"
"2016-01-03 15:00","2016","01","03","15:00","-11.1","","-15.1","","72","","4","","6","","","","99.66","","","","-15","","NA"
"2016-01-03 16:00","2016","01","03","16:00","-11.3","","-15.1","","73","","7","","3","","","","99.71","","","","-13","","NA"
"2016-01-03 17:00","2016","01","03","17:00","-12.2","","-15.4","","77","","5","","8","","","","99.80","","","","-17","","NA"
"2016-01-03 18:00","2016","01","03","18:00","-12.6","","-15.9","","77","","5","","12","","","","99.87","","","","-19","","NA"
"2016-01-03 19:00","2016","01","03","19:00","-12.8","","-15.7","","79","","5","","10","","","","99.98","","","","-19","","NA"
"2016-01-03 20:00","2016","01","03","20:00","-13.1","","-16.4","","77","","5","","8","","","","100.10","","","","-18","","NA"
"2016-01-03 21:00","2016","01","03","21:00","-13.6","","-18.1","","69","","3","","11","","","","100.20","","","","-20","","NA"
"2016-01-03 22:00","2016","01","03","22:00","-14.8","","-19.2","","69","","4","","14","","","","100.30","","","","-22","","NA"
"2016-01-03 23:00","2016","01","03","23:00","-15.6","","-19.3","","73","","3","","10","","","","100.37","","","","-22","","NA"
"2016-01-04 00:00","2016","01","04","00:00","-16.0","","-20.0","","71","","4","","10","","","","100.45","","","","-22","","NA"
"2016-01-04 01:00","2016","01","04","01:00","-17.1","","-21.0","","72","","5","","12","","","","100.58","","","","-25","","NA"
"2016-01-04 02:00","2016","01","04","02:00","-18.2","","-21.6","","75","","4","","11","","","","100.65","","","","-25","","NA"
"2016-01-04 03:00","2016","01","04","03:00","-19.1","","-22.0","","78","","4","","8","","","","100.74","","","","-25","","NA"
"2016-01-04 04:00","2016","01","04","04:00","-19.9","","-22.5","","80","","4","","7","","","","100.81","","","","-26","","NA"
"2016-01-04 05:00","2016","01","04","05:00","-20.6","","-23.0","","81","","4","","7","","","","100.86","","","","-26","","NA"
"2016-01-04 06:00","2016","01","04","06:00","-21.5","","-23.9","","81","","5","","2","","","","100.96","","","","-23","","NA"
"2016-01-04 07:00","2016","01","04","07:00","-22.2","","-24.6","","81","","5","","7","","","","101.04","","","","-28","","NA"
"2016-01-04 08:00","2016","01","04","08:00","-22.7","","-25.0","","81","","4","","7","","","","101.05","","","","-29","","NA"
"2016-01-04 09:00","2016","01","04","09:00","-22.7","","-25.1","","80","","4","","8","","","","101.03","","","","-29","","NA"
"2016-01-04 10:00","2016","01","04","10:00","-21.5","","-24.3","","78","","4","","10","","","","101.05","","","","-29","","NA"
"2016-01-04 11:00","2016","01","04","11:00","-19.1","","-22.5","","74","","3","","8","","","","101.09","","","","-25","","NA"
"2016-01-04 12:00","2016","01","04","12:00","-16.8","","-20.3","","75","","3","","6","","","","101.01","","","","-21","","NA"
"2016-01-04 13:00","2016","01","04","13:00","-15.0","","-17.7","","80","","3","","5","","","","100.93","","","","-19","","NA"
"2016-01-04 14:00","2016","01","04","14:00","-12.7","","-14.6","","86","","4","","3","","","","100.84","","","","-15","","NA"
"2016-01-04 15:00","2016","01","04","15:00","-8.6","","-11.4","","80","","23","","13","","","","100.79","","","","-15","","NA"
"2016-01-04 16:00","2016","01","04","16:00","-7.8","","-10.5","","81","","23","","12","","","","100.75","","","","-13","","NA"
"2016-01-04 17:00","2016","01","04","17:00","-7.1","","-9.6","","82","","24","","14","","","","100.70","","","","-13","","NA"
"2016-01-04 18:00","2016","01","04","18:00","-6.4","","-9.3","","80","","22","","13","","","","100.64","","","","-12","","NA"
"2016-01-04 19:00","2016","01","04","19:00","-5.7","","-9.5","","75","","22","","17","","","","100.58","","","","-12","","NA"
"2016-01-04 20:00","2016","01","04","20:00","-4.9","","-8.7","","75","","22","","16","","","","100.57","","","","-11","","NA"
"2016-01-04 21:00","2016","01","04","21:00","-4.5","","-8.5","","74","","22","","17","","","","100.47","","","","-10","","NA"
"2016-01-04 22:00","2016","01","04","22:00","-3.8","","-7.8","","74","","21","","18","","","","100.36","","","","-10","","NA"
"2016-01-04 23:00","2016","01","04","23:00","-3.2","","-7.5","","72","","21","","17","","","","100.25","","","","-9","","NA"
"2016-01-05 00:00","2016","01","05","00:00","-2.7","","-6.7","","74","","22","","19","","","","100.20","","","","-8","","NA"
"2016-01-05 01:00","2016","01","05","01:00","-2.3","","-6.3","","74","","22","","18","","","","100.10","","","","-8","","NA"
"2016-01-05 02:00","2016","01","05","02:00","-1.9","","-6.3","","72","","22","","20","","","","100.04","","","","-8","","NA"
"2016-01-05 03:00","2016","01","05","03:00","-1.7","","-6.6","","69","","22","","19","","","","100.01","","","","-7","","NA"
"2016-01-05 04:00","2016","01","05","04:00","-1.6","","-6.1","","72","","21","","20","","","","99.95","","","","-7","","NA"
"2016-01-05 05:00","2016","01","05","05:00","-1.9","","-5.7","","76","","22","","19","","","","99.87","","","","-7","","NA"
"2016-01-05 06:00","2016","01","05","06:00","-1.4","","-5.1","","76","","21","","19","","","","99.85","","","","-7","","NA"
"2016-01-05 07:00","2016","01","05","07:00","-1.4","","-5.1","","76","","22","","21","","","","99.79","","","","-7","","NA"
"2016-01-05 08:00","2016","01","05","08:00","-1.4","","-5.3","","75","","22","","20","","","","99.69","","","","-7","","NA"
"2016-01-05 09:00","2016","01","05","09:00","-1.5","","-5.8","","72","","21","","23","","","","99.61","","","","-8","","NA"
"2016-01-05 10:00","2016","01","05","10:00","-0.9","","-5.0","","74","","21","","20","","","","99.52","","","","-6","","NA"
"2016-01-05 11:00","2016","01","05","11:00","-0.4","","-4.9","","72","","22","","20","","","","99.54","","","","-6","","NA"
"2016-01-05 12:00","2016","01","05","12:00","-0.4","","-5.2","","70","","23","","24","","","","99.49","","","","-6","","NA"
"2016-01-05 13:00","2016","01","05","13:00","-0.9","","-4.4","","77","","21","","22","","","","99.37","","","","-7","","NA"
"2016-01-05 14:00","2016","01","05","14:00","-0.3","","-3.4","","79","","23","","23","","","","99.34","","","","-6","","NA"
"2016-01-05 15:00","2016","01","05","15:00","-0.2","","-2.8","","83","","23","","23","","","","99.29","","","","-6","","NA"
"2016-01-05 16:00","2016","01","05","16:00","-0.2","","-2.7","","83","","23","","20","","","","99.30","","","","-5","","NA"
"2016-01-05 17:00","2016","01","05","17:00","-0.1","","-2.8","","82","","23","","22","","","","99.30","","","","-6","","NA"
"2016-01-05 18:00","2016","01","05","18:00","0.3","","-2.7","","80","","22","","20","","","","99.31","","","","","","NA"
"2016-01-05 19:00","2016","01","05","19:00","0.7","","-2.6","","79","","23","","20","","","","99.32","","","","","","NA"
"2016-01-05 20:00","2016","01","05","20:00","1.2","","-2.5","","76","","24","","21","","","","99.33","","","","","","NA"
"2016-01-05 21:00","2016","01","05","21:00","1.5","","-2.3","","76","","24","","20","","","","99.32","","","","","","NA"
"2016-01-05 22:00","2016","01","05","22:00","1.4","","-2.3","","76","","24","","18","","","","99.29","","","","","","NA"
"2016-01-05 23:00","2016","01","05","23:00","1.5","","-2.1","","77","","25","","18","","","","99.27","","","","","","NA"
"2016-01-06 00:00","2016","01","06","00:00","1.0","","-2.2","","79","","26","","14","","","","99.33","","","","","","NA"
"2016-01-06 01:00","2016","01","06","01:00","1.1","","-2.4","","77","","26","","15","","","","99.31","","","","","","NA"
"2016-01-06 02:00","2016","01","06","02:00","0.8","","-2.4","","79","","26","","13","","","","99.31","","","","","","NA"
"2016-01-06 03:00","2016","01","06","03:00","0.6","","-2.4","","80","","25","","12","","","","99.35","","","","","","NA"
"2016-01-06 04:00","2016","01","06","04:00","0.6","","-2.4","","80","","26","","12","","","","99.36","","","","","","NA"
"2016-01-06 05:00","2016","01","06","05:00","0.7","","-2.5","","79","","26","","9","","","","99.34","","","","","","NA"
"2016-01-06 06:00","2016","01","06","06:00","0.6","","-2.4","","81","","25","","9","","","","99.34","","","","","","NA"
"2016-01-06 07:00","2016","01","06","07:00","0.7","","-2.3","","81","","25","","10","","","","99.36","","","","","","NA"
"2016-01-06 08:00","2016","01","06","08:00","-0.1","","-2.8","","82","","30","","4","","","","99.39","","","","-1","","NA"
"2016-01-06 09:00","2016","01","06","09:00","-0.4","","-3.1","","82","","29","","2","","","","99.42","","","","-1","","NA"
"2016-01-06 10:00","2016","01","06","10:00","-0.4","","-3.0","","82","","31","","2","","","","99.46","","","","-1","","NA"
"2016-01-06 11:00","2016","01","06","11:00","-0.3","","-3.5","","79","","31","","3","","","","99.50","","","","-1","","NA"
"2016-01-06 12:00","2016","01","06","12:00","-0.2","","-3.8","","77","","30","","5","","","","99.49","","","","-2","","NA"
"2016-01-06 13:00","2016","01","06","13:00","-0.1","","-3.7","","77","","29","","4","","","","99.46","","","","-1","","NA"
"2016-01-06 14:00","2016","01","06","14:00","-0.3","","-3.9","","77","","30","","4","","","","99.46","","","","-2","","NA"
"2016-01-06 15:00","2016","01","06","15:00","-0.3","","-3.8","","78","","30","","5","","","","99.47","","","","-2","","NA"
"2016-01-06 16:00","2016","01","06","16:00","-0.4","","-3.2","","81","","29","","5","","","","99.51","","","","-2","","NA"
"2016-01-06 17:00","2016","01","06","17:00","-0.7","","-3.5","","81","","28","","2","","","","99.55","","","","-1","","NA"
"2016-01-06 18:00","2016","01","06","18:00","-1.7","","-5.1","","78","","4","","6","","","","99.59","","","","-4","","NA"
"2016-01-06 19:00","2016","01","06","19:00","-2.0","","-5.1","","79","","3","","7","","","","99.62","","","","-5","","NA"
"2016-01-06 20:00","2016","01","06","20:00","-2.4","","-5.6","","79","","3","","10","","","","99.66","","","","-6","","NA"
"2016-01-06 21:00","2016","01","06","21:00","-2.7","","-5.8","","79","","4","","10","","","","99.70","","","","-7","","NA"
"2016-01-06 22:00","2016","01","06","22:00","-3.0","","-6.1","","79","","4","","10","","","","99.71","","","","-7","","NA"
"2016-01-06 23:00","2016","01","06","23:00","-3.1","","-6.1","","80","","4","","10","","","","99.70","","","","-7","","NA"
"2016-01-07 00:00","2016","01","07","00:00","-3.3","","-6.2","","81","","4","","11","","","","99.72","","","","-8","","NA"
"2016-01-07 01:00","2016","01","07","01:00","-3.4","","-6.2","","81","","4","","11","","","","99.69","","","","-8","","NA"
"2016-01-07 02:00","2016","01","07","02:00","-3.7","","-6.2","","83","","4","","11","","","","99.69","","","","-8","","NA"
"2016-01-07 03:00","2016","01","07","03:00","-3.8","","-5.9","","85","","4","","11","","","","99.71","","","","-8","","NA"
"2016-01-07 04:00","2016","01","07","04:00","-3.9","","-5.8","","87","","4","","11","","","","99.72","","","","-8","","NA"
"2016-01-07 05:00","2016","01","07","05:00","-4.0","","-5.4","","89","","3","","9","","","","99.69","","","","-8","","NA"
"2016-01-07 06:00","2016","01","07","06:00","-4.0","","-5.3","","90","","3","","9","","","","99.68","","","","-8","","NA"
"2016-01-07 07:00","2016","01","07","07:00","-4.0","","-5.4","","90","","4","","9","","","","99.69","","","","-8","","NA"
"2016-01-07 08:00","2016","01","07","08:00","-4.0","","-5.5","","89","","4","","12","","","","99.70","","","","-9","","NA"
"2016-01-07 09:00","2016","01","07","09:00","-3.9","","-5.5","","89","","4","","10","","","","99.68","","","","-8","","NA"
"2016-01-07 10:00","2016","01","07","10:00","-3.7","","-5.4","","88","","4","","10","","","","99.68","","","","-8","","NA"
"2016-01-07 11:00","2016","01","07","11:00","-3.3","","-5.2","","87","","4","","12","","","","99.66","","","","-8","","NA"
"2016-01-07 12:00","2016","01","07","12:00","-3.0","","-5.0","","86","","4","","9","","","","99.64","","","","-7","","NA"
"2016-01-07 13:00","2016","01","07","13:00","-2.7","","-4.6","","87","","4","","10","","","","99.60","","","","-7","","NA"
"2016-01-07 14:00","2016","01","07","14:00","-2.6","","-4.4","","87","","4","","10","","","","99.54","","","","-6","","NA"
"2016-01-07 15:00","2016","01","07","15:00","-2.5","","-4.0","","90","","4","","10","","","","99.49","","","","-6","","NA"
"2016-01-07 16:00","2016","01","07","16:00","-2.6","","-3.7","","92","","4","","11","","","","99.49","","","","-7","","NA"
"2016-01-07 17:00","2016","01","07","17:00","-2.7","","-3.7","","93","","4","","11","","","","99.48","","","","-7","","NA"
"2016-01-07 18:00","2016","01","07","18:00","-2.6","","-3.7","","92","","4","","12","","","","99.50","","","","-7","","NA"
"2016-01-07 19:00","2016","01","07","19:00","-2.5","","-3.6","","92","","4","","9","","","","99.50","","","","-6","","NA"
"2016-01-07 20:00","2016","01","07","20:00","-2.4","","-3.5","","92","","3","","9","","","","99.47","","","","-6","","NA"
"2016-01-07 21:00","2016","01","07","21:00","-2.3","","-3.3","","93","","3","","7","","","","99.44","","","","-5","","NA"
"2016-01-07 22:00","2016","01","07","22:00","-2.2","","-3.1","","94","","3","","9","","","","99.37","","","","-6","","NA"
"2016-01-07 23:00","2016","01","07","23:00","-2.2","","-3.2","","93","","3","","11","","","","99.32","","","","-6","","NA"
"2016-01-08 00:00","2016","01","08","00:00","-2.1","","-3.1","","93","","3","","11","","","","99.25","","","","-6","","NA"
"2016-01-08 01:00","2016","01","08","01:00","-1.9","","-2.7","","94","","3","","9","","","","99.19","","","","-5","","NA"
"2016-01-08 02:00","2016","01","08","02:00","-1.8","","-2.5","","95","","4","","6","","","","99.14","","","","-4","","NA"
"2016-01-08 03:00","2016","01","08","03:00","-1.4","","-1.9","","96","","5","","6","","","","99.11","","","","-4","","NA"
"2016-01-08 04:00","2016","01","08","04:00","-0.8","","-1.3","","97","","20","","4","","","","99.07","","","","-2","","NA"
"2016-01-08 05:00","2016","01","08","05:00","0.3","","-0.1","","97","","17","","5","","","","98.99","","","","","","NA"
"2016-01-08 06:00","2016","01","08","06:00","1.2","","0.7","","97","","17","","6","","","","98.95","","","","","","NA"
"2016-01-08 07:00","2016","01","08","07:00","1.4","","0.8","","96","","18","","8","","","","98.90","","","","","","NA"
"2016-01-08 08:00","2016","01","08","08:00","1.0","","0.4","","96","","16","","8","","","","98.84","","","","","","NA"
"2016-01-08 09:00","2016","01","08","09:00","0.9","","0.4","","96","","16","","7","","","","98.79","","","","","","NA"
"2016-01-08 10:00","2016","01","08","10:00","1.0","","0.3","","95","","16","","7","","","","98.76","","","","","","NA"
"2016-01-08 11:00","2016","01","08","11:00","0.9","","0.2","","96","","17","","6","","","","98.75","","","","","","NA"
"2016-01-08 12:00","2016","01","08","12:00","0.7","","0.1","","96","","18","","8","","","","98.70","","","","","","NA"
"2016-01-08 13:00","2016","01","08","13:00","1.3","","0.9","","97","","20","","12","","","","98.62","","","","","","NA"
"2016-01-08 14:00","2016","01","08","14:00","1.1","","0.6","","96","","19","","13","","","","98.54","","","","","","NA"
"2016-01-08 15:00","2016","01","08","15:00","1.0","","0.6","","97","","19","","9","","","","98.49","","","","","","NA"
"2016-01-08 16:00","2016","01","08","16:00","1.5","","1.0","","97","","20","","9","","","","98.45","","","","","","NA"
"2016-01-08 17:00","2016","01","08","17:00","1.8","","1.3","","96","","19","","10","","","","98.42","","","","","","NA"
"2016-01-08 18:00","2016","01","08","18:00","1.3","","0.7","","96","","15","","5","","","","98.43","","","","","","NA"
"2016-01-08 19:00","2016","01","08","19:00","1.3","","0.7","","96","","16","","6","","","","98.41","","","","","","NA"
"2016-01-08 20:00","2016","01","08","20:00","1.3","","0.7","","96","","16","","8","","","","98.38","","","","","","NA"
"2016-01-08 21:00","2016","01","08","21:00","1.7","","1.2","","96","","18","","9","","","","98.35","","","","","","NA"
"2016-01-08 22:00","2016","01","08","22:00","1.7","","1.1","","96","","17","","8","","","","98.31","","","","","","NA"
"2016-01-08 23:00","2016","01","08","23:00","1.5","","1.0","","96","","17","","9","","","","98.26","","","","","","NA"
"2016-01-09 00:00","2016","01","09","00:00","1.5","","1.0","","97","","17","","8","","","","98.26","","","","","","NA"
"2016-01-09 01:00","2016","01","09","01:00","1.3","","0.8","","97","","19","","6","","","","98.23","","","","","","NA"
"2016-01-09 02:00","2016","01","09","02:00","1.0","","0.5","","97","","11","","1","","","","98.20","","","","","","NA"
"2016-01-09 03:00","2016","01","09","03:00","-0.1","","-0.5","","97","","3","","11","","","","98.21","","","","-4","","NA"
"2016-01-09 04:00","2016","01","09","04:00","-2.1","","-2.9","","94","","3","","14","","","","98.26","","","","-7","","NA"
"2016-01-09 05:00","2016","01","09","05:00","-4.8","","-6.0","","91","","3","","16","","","","98.31","","","","-11","","NA"
"2016-01-09 06:00","2016","01","09","06:00","-6.0","","-7.4","","90","","2","","14","","","","98.35","","","","-12","","NA"
"2016-01-09 07:00","2016","01","09","07:00","-6.5","","-8.0","","89","","4","","16","","","","98.40","","","","-13","","NA"
"2016-01-09 08:00","2016","01","09","08:00","-7.6","","-9.2","","88","","2","","11","","","","98.46","","","","-13","","NA"
"2016-01-09 09:00","2016","01","09","09:00","-8.5","","-10.4","","86","","3","","14","","","","98.50","","","","-15","","NA"
"2016-01-09 10:00","2016","01","09","10:00","-8.7","","-10.8","","85","","1","","11","","","","98.59","","","","-14","","NA"
"2016-01-09 11:00","2016","01","09","11:00","-9.4","","-11.4","","86","","1","","10","","","","98.69","","","","-15","","NA"
"2016-01-09 12:00","2016","01","09","12:00","-9.5","","-11.7","","84","","1","","9","","","","98.71","","","","-14","","NA"
"2016-01-09 13:00","2016","01","09","13:00","-9.6","","-11.9","","83","","2","","10","","","","98.69","","","","-15","","NA"
"2016-01-09 14:00","2016","01","09","14:00","-9.9","","-12.3","","83","","36","","8","","","","98.67","","","","-14","","NA"
"2016-01-09 15:00","2016","01","09","15:00","-10.5","","-13.1","","82","","3","","11","","","","98.72","","","","-16","","NA"
"2016-01-09 16:00","2016","01","09","16:00","-10.7","","-12.9","","84","","2","","8","","","","98.77","","","","-15","","NA"
"2016-01-09 17:00","2016","01","09","17:00","-11.4","","-13.8","","82","","1","","8","","","","98.87","","","","-16","","NA"
"2016-01-09 18:00","2016","01","09","18:00","-12.1","","-14.4","","83","","2","","8","","","","99.00","","","","-17","","NA"
"2016-01-09 19:00","2016","01","09","19:00","-12.9","","-15.6","","81","","2","","12","","","","99.03","","","","-19","","NA"
"2016-01-09 20:00","2016","01","09","20:00","-13.3","","-15.4","","85","","2","","7","","","","99.04","","","","-18","","NA"
"2016-01-09 21:00","2016","01","09","21:00","-13.8","","-16.1","","83","","3","","9","","","","99.05","","","","-19","","NA"
"2016-01-09 22:00","2016","01","09","22:00","-14.3","","-16.6","","83","","3","","12","","","","99.03","","","","-21","","NA"
"2016-01-09 23:00","2016","01","09","23:00","-14.7","","-17.3","","81","","2","","13","","","","99.06","","","","-22","","NA"
"2016-01-10 00:00","2016","01","10","00:00","-15.1","","-17.8","","80","","2","","11","","","","99.10","","","","-22","","NA"
"2016-01-10 01:00","2016","01","10","01:00","-16.1","","-18.9","","79","","2","","16","","","","99.05","","","","-25","","NA"
"2016-01-10 02:00","2016","01","10","02:00","-16.6","","-19.4","","79","","2","","14","","","","99.04","","","","-25","","NA"
"2016-01-10 03:00","2016","01","10","03:00","-17.0","","-19.5","","81","","3","","9","","","","99.06","","","","-23","","NA"
"2016-01-10 04:00","2016","01","10","04:00","-17.5","","-20.0","","81","","3","","10","","","","99.04","","","","-24","","NA"
"2016-01-10 05:00","2016","01","10","05:00","-18.0","","-20.7","","79","","3","","14","","","","99.03","","","","-26","","NA"
"2016-01-10 06:00","2016","01","10","06:00","-18.5","","-21.0","","81","","3","","10","","","","99.00","","","","-25","","NA"
"2016-01-10 07:00","2016","01","10","07:00","-19.0","","-21.6","","80","","3","","12","","","","98.96","","","","-27","","NA"
"2016-01-10 08:00","2016","01","10","08:00","-19.3","","-21.8","","81","","2","","12","","","","98.94","","","","-27","","NA"
"2016-01-10 09:00","2016","01","10","09:00","-19.4","","-21.8","","82","","2","","10","","","","98.94","","","","-26","","NA"
"2016-01-10 10:00","2016","01","10","10:00","-19.0","","-21.7","","79","","2","","11","","","","98.94","","","","-26","","NA"
"2016-01-10 11:00","2016","01","10","11:00","-18.5","","-21.5","","77","","2","","13","","","","98.87","","","","-27","","NA"
"2016-01-10 12:00","2016","01","10","12:00","-17.5","","-20.5","","78","","3","","11","","","","98.76","","","","-25","","NA"
"2016-01-10 13:00","2016","01","10","13:00","-16.7","","-20.3","","74","","2","","13","","","","98.66","","","","-24","","NA"
"2016-01-10 14:00","2016","01","10","14:00","-16.5","","-19.7","","76","","2","","11","","","","98.62","","","","-23","","NA"
"2016-01-10 15:00","2016","01","10","15:00","-16.3","","-19.9","","74","","2","","13","","","","98.58","","","","-24","","NA"
"2016-01-10 16:00","2016","01","10","16:00","-16.1","","-19.4","","76","","3","","12","","","","98.58","","","","-23","","NA"
"2016-01-10 17:00","2016","01","10","17:00","-16.2","","-19.2","","78","","36","","8","","","","98.60","","","","-22","","NA"
"2016-01-10 18:00","2016","01","10","18:00","-16.9","","-19.8","","79","","1","","9","","","","98.61","","","","-23","","NA"
"2016-01-10 19:00","2016","01","10","19:00","-18.0","","-20.9","","77","","1","","9","","","","98.62","","","","-24","","NA"
"2016-01-10 20:00","2016","01","10","20:00","-18.9","","-21.8","","77","","2","","14","","","","98.61","","","","-27","","NA"
"2016-01-10 21:00","2016","01","10","21:00","-19.1","","-21.8","","79","","2","","8","","","","98.60","","","","-25","","NA"
"2016-01-10 22:00","2016","01","10","22:00","-19.4","","-22.4","","77","","1","","9","","","","98.60","","","","-26","","NA"
"2016-01-10 23:00","2016","01","10","23:00","-19.8","","-22.9","","76","","1","","8","","","","98.60","","","","-26","","NA"
"2016-01-11 00:00","2016","01","11","00:00","-19.4","","-22.5","","77","","3","","12","","","","98.59","","","","-27","","NA"
"2016-01-11 01:00","2016","01","11","01:00","-19.2","","-22.4","","76","","1","","10","","","","98.59","","","","-26","","NA"
"2016-01-11 02:00","2016","01","11","02:00","-19.3","","-22.7","","75","","2","","6","","","","98.64","","","","-24","","NA"
"2016-01-11 03:00","2016","01","11","03:00","-19.6","","-22.6","","77","","4","","5","","","","98.68","","","","-24","","NA"
"2016-01-11 04:00","2016","01","11","04:00","-20.0","","-22.8","","78","","3","","9","","","","98.71","","","","-27","","NA"
"2016-01-11 05:00","2016","01","11","05:00","-20.4","","-23.3","","77","","3","","10","","","","98.73","","","","-28","","NA"
"2016-01-11 06:00","2016","01","11","06:00","-21.8","","-24.7","","78","","35","","2","","","","98.77","","","","-24","","NA"
"2016-01-11 07:00","2016","01","11","07:00","-22.4","","-24.6","","82","","5","","4","","","","98.80","","","","-26","","NA"
"2016-01-11 08:00","2016","01","11","08:00","-21.6","","-24.2","","79","","6","","7","","","","98.81","","","","-28","","NA"
"2016-01-11 09:00","2016","01","11","09:00","-20.6","","-22.9","","82","","5","","5","","","","98.79","","","","-25","","NA"
"2016-01-11 10:00","2016","01","11","10:00","-19.5","","-21.9","","82","","5","","5","","","","98.76","","","","-24","","NA"
"2016-01-11 11:00","2016","01","11","11:00","-17.9","","-20.6","","79","","4","","6","","","","98.78","","","","-23","","NA"
"2016-01-11 12:00","2016","01","11","12:00","-15.9","","-19.2","","76","","5","","5","","","","98.68","","","","-20","","NA"
"2016-01-11 13:00","2016","01","11","13:00","-13.8","","-17.5","","73","","31","","4","","","","98.63","","","","-17","","NA"
"2016-01-11 14:00","2016","01","11","14:00","-13.6","","-17.2","","74","","30","","5","","","","98.56","","","","-17","","NA"
"2016-01-11 15:00","2016","01","11","15:00","-12.5","","-16.3","","74","","28","","12","","","","98.51","","","","-19","","NA"
"2016-01-11 16:00","2016","01","11","16:00","-12.2","","-15.2","","78","","29","","10","","","","98.49","","","","-18","","NA"
"2016-01-11 17:00","2016","01","11","17:00","-11.8","","-15.4","","75","","26","","13","","","","98.45","","","","-18","","NA"
"2016-01-11 18:00","2016","01","11","18:00","-11.6","","-13.2","","87","","28","","4","","","","98.39","","","","-14","","NA"
"2016-01-11 19:00","2016","01","11","19:00","-13.1","","-14.9","","87","","4","","7","","","","98.38","","","","-18","","NA"
"2016-01-11 20:00","2016","01","11","20:00","-13.6","","-15.3","","87","","4","","8","","","","98.38","","","","-19","","NA"
"2016-01-11 21:00","2016","01","11","21:00","-14.2","","-16.0","","86","","3","","7","","","","98.37","","","","-19","","NA"
"2016-01-11 22:00","2016","01","11","22:00","-15.4","","-18.3","","79","","4","","12","","","","98.37","","","","-22","","NA"
"2016-01-11 23:00","2016","01","11","23:00","-16.4","","-18.8","","82","","3","","12","","","","98.35","","","","-24","","NA"
"2016-01-12 00:00","2016","01","12","00:00","-16.9","","-19.6","","80","","3","","12","","","","98.33","","","","-24","","NA"
"2016-01-12 01:00","2016","01","12","01:00","-17.5","","-20.2","","80","","4","","14","","","","98.30","","","","-26","","NA"
"2016-01-12 02:00","2016","01","12","02:00","-18.0","","-20.7","","80","","4","","15","","","","98.29","","","","-27","","NA"
"2016-01-12 03:00","2016","01","12","03:00","-18.8","","-21.5","","79","","4","","15","","","","98.32","","","","-28","","NA"
"2016-01-12 04:00","2016","01","12","04:00","-19.4","","-22.2","","79","","4","","15","","","","98.36","","","","-28","","NA"
"2016-01-12 05:00","2016","01","12","05:00","-19.8","","-22.7","","78","","5","","14","","","","98.38","","","","-29","","NA"
"2016-01-12 06:00","2016","01","12","06:00","-20.3","","-23.2","","77","","4","","14","","","","98.44","","","","-29","","NA"
"2016-01-12 07:00","2016","01","12","07:00","-20.5","","-23.5","","77","","3","","16","","","","98.49","","","","-30","","NA"
"2016-01-12 08:00","2016","01","12","08:00","-20.7","","-23.8","","77","","4","","15","","","","98.51","","","","-30","","NA"
"2016-01-12 09:00","2016","01","12","09:00","-20.7","","-23.8","","77","","3","","10","","","","98.60","","","","-28","","NA"
"2016-01-12 10:00","2016","01","12","10:00","-20.5","","-24.0","","74","","2","","10","","","","98.69","","","","-28","","NA"
"2016-01-12 11:00","2016","01","12","11:00","-20.6","","-24.7","","70","","2","","11","","","","98.75","","","","-28","","NA"
"2016-01-12 12:00","2016","01","12","12:00","-19.6","","-24.8","","64","","3","","12","","","","98.73","","","","-28","","NA"
"2016-01-12 13:00","2016","01","12","13:00","-18.7","","-23.7","","65","","36","","7","","","","98.73","","","","-24","","NA"
"2016-01-12 14:00","2016","01","12","14:00","-18.5","","-23.7","","63","","1","","11","","","","98.75","","","","-26","","NA"
"2016-01-12 15:00","2016","01","12","15:00","-18.4","","-23.2","","66","","2","","6","","","","98.76","","","","-23","","NA"
"2016-01-12 16:00","2016","01","12","16:00","-18.2","","-22.1","","71","","3","","5","","","","98.79","","","","-22","","NA"
"2016-01-12 17:00","2016","01","12","17:00","-18.5","","-21.9","","75","","2","","6","","","","98.86","","","","-23","","NA"
"2016-01-12 18:00","2016","01","12","18:00","-19.1","","-22.2","","77","","3","","7","","","","98.92","","","","-25","","NA"
"2016-01-12 19:00","2016","01","12","19:00","-20.5","","-22.9","","81","","4","","7","","","","98.97","","","","-26","","NA"
"2016-01-12 20:00","2016","01","12","20:00","-21.5","","-23.8","","81","","4","","6","","","","99.01","","","","-27","","NA"
"2016-01-12 21:00","2016","01","12","21:00","-23.0","","-25.5","","80","","3","","7","","","","99.03","","","","-29","","NA"
"2016-01-12 22:00","2016","01","12","22:00","-24.1","","-26.7","","79","","4","","6","","","","99.02","","","","-30","","NA"
"2016-01-12 23:00","2016","01","12","23:00","-24.7","","-27.2","","79","","7","","7","","","","99.02","","","","-31","","NA"
"2016-01-13 00:00","2016","01","13","00:00","-25.4","","-28.1","","78","","5","","7","","","","99.04","","","","-32","","NA"
"2016-01-13 01:00","2016","01","13","01:00","-26.2","","-28.9","","78","","5","","6","","","","99.05","","","","-32","","NA"
"2016-01-13 02:00","2016","01","13","02:00","-27.0","","-29.8","","77","","4","","7","","","","99.04","","","","-34","","NA"
"2016-01-13 03:00","2016","01","13","03:00","-27.7","","-30.6","","76","","5","","11","","","","99.02","","","","-37","","NA"
"2016-01-13 04:00","2016","01","13","04:00","-28.0","","-30.9","","76","","5","","11","","","","98.96","","","","-37","","NA"
"2016-01-13 05:00","2016","01","13","05:00","-28.1","","-31.1","","76","","4","","10","","","","98.86","","","","-37","","NA"
"2016-01-13 06:00","2016","01","13","06:00","-27.4","","-30.2","","77","","4","","7","","","","98.81","","","","-34","","NA"
"2016-01-13 07:00","2016","01","13","07:00","-26.8","","-29.6","","77","","4","","9","","","","98.79","","","","-35","","NA"
"2016-01-13 08:00","2016","01","13","08:00","-25.7","","-28.4","","78","","4","","11","","","","98.75","","","","-34","","NA"
"2016-01-13 09:00","2016","01","13","09:00","-24.8","","-27.4","","79","","4","","8","","","","98.74","","","","-32","","NA"
"2016-01-13 10:00","2016","01","13","10:00","-23.5","","-26.0","","80","","3","","10","","","","98.69","","","","-31","","NA"
"2016-01-13 11:00","2016","01","13","11:00","-21.7","","-24.1","","81","","3","","9","","","","98.65","","","","-29","","NA"
"2016-01-13 12:00","2016","01","13","12:00","-20.1","","-22.8","","79","","3","","10","","","","98.58","","","","-27","","NA"
"2016-01-13 13:00","2016","01","13","13:00","-19.0","","-22.0","","77","","3","","12","","","","98.45","","","","-27","","NA"
"2016-01-13 14:00","2016","01","13","14:00","-18.3","","-21.8","","74","","6","","8","","","","98.39","","","","-24","","NA"
"2016-01-13 15:00","2016","01","13","15:00","-18.2","","-22.0","","72","","4","","9","","","","98.33","","","","-25","","NA"
"2016-01-13 16:00","2016","01","13","16:00","-18.4","","-22.0","","73","","5","","8","","","","98.31","","","","-24","","NA"
"2016-01-13 17:00","2016","01","13","17:00","-18.8","","-22.2","","75","","5","","7","","","","98.35","","","","-24","","NA"
"2016-01-13 18:00","2016","01","13","18:00","-19.1","","-22.4","","76","","4","","9","","","","98.39","","","","-26","","NA"
"2016-01-13 19:00","2016","01","13","19:00","-19.3","","-22.5","","76","","4","","9","","","","98.41","","","","-26","","NA"
"2016-01-13 20:00","2016","01","13","20:00","-20.6","","-23.2","","80","","4","","7","","","","98.43","","","","-26","","NA"
"2016-01-13 21:00","2016","01","13","21:00","-22.0","","-24.4","","81","","4","","7","","","","98.45","","","","-28","","NA"
"2016-01-13 22:00","2016","01","13","22:00","-23.3","","-25.6","","81","","6","","6","","","","98.45","","","","-29","","NA"
"2016-01-13 23:00","2016","01","13","23:00","-24.5","","-27.1","","79","","6","","6","","","","98.46","","","","-30","","NA"
"2016-01-14 00:00","2016","01","14","00:00","-25.5","","-28.2","","78","","4","","8","","","","98.49","","","","-33","","NA"
"2016-01-14 01:00","2016","01","14","01:00","-26.5","","-29.2","","78","","5","","7","","","","98.49","","","","-33","","NA"
"2016-01-14 02:00","2016","01","14","02:00","-27.0","","-29.8","","77","","5","","10","","","","98.47","","","","-36","","NA"
"2016-01-14 03:00","2016","01","14","03:00","-27.5","","-30.4","","76","","5","","10","","","","98.51","","","","-36","","NA"
"2016-01-14 04:00","2016","01","14","04:00","-27.8","","-30.7","","76","","4","","9","","","","98.53","","","","-36","","NA"
"2016-01-14 05:00","2016","01","14","05:00","-28.4","","-31.4","","75","","4","","7","","","","98.59","","","","-35","","NA"
"2016-01-14 06:00","2016","01","14","06:00","-28.8","","-31.9","","75","","4","","10","","","","98.65","","","","-38","","NA"
"2016-01-14 07:00","2016","01","14","07:00","-29.2","","-32.4","","74","","4","","12","","","","98.66","","","","-39","","NA"
"2016-01-14 08:00","2016","01","14","08:00","-29.6","","-32.8","","74","","4","","11","","","","98.71","","","","-39","","NA"
"2016-01-14 09:00","2016","01","14","09:00","-29.5","","-32.6","","74","","5","","13","","","","98.69","","","","-40","","NA"
"2016-01-14 10:00","2016","01","14","10:00","-27.5","","-30.5","","76","","4","","10","","","","98.73","","","","-36","","NA"
"2016-01-14 11:00","2016","01","14","11:00","-23.7","","-26.4","","78","","4","","9","","","","98.76","","","","-31","","NA"
"2016-01-14 12:00","2016","01","14","12:00","-19.1","","-22.9","","72","","3","","10","","","","98.72","","","","-26","","NA"
"2016-01-14 13:00","2016","01","14","13:00","-16.5","","-21.3","","67","","3","","10","","","","98.69","","","","-23","","NA"
"2016-01-14 14:00","2016","01","14","14:00","-14.9","","-19.5","","68","","6","","7","","","","98.66","","","","-20","","NA"
"2016-01-14 15:00","2016","01","14","15:00","-13.9","","-17.9","","72","","4","","8","","","","98.58","","","","-19","","NA"
"2016-01-14 16:00","2016","01","14","16:00","-14.1","","-18.3","","71","","6","","10","","","","98.62","","","","-20","","NA"
"2016-01-14 17:00","2016","01","14","17:00","-15.1","","-18.5","","75","","4","","10","","","","98.68","","","","-21","","NA"
"2016-01-14 18:00","2016","01","14","18:00","-16.4","","-19.2","","79","","4","","9","","","","98.73","","","","-22","","NA"
"2016-01-14 19:00","2016","01","14","19:00","-16.5","","-19.3","","79","","5","","11","","","","98.72","","","","-23","","NA"
"2016-01-14 20:00","2016","01","14","20:00","-16.6","","-19.3","","79","","4","","8","","","","98.73","","","","-22","","NA"
"2016-01-14 21:00","2016","01","14","21:00","-16.4","","-19.2","","79","","4","","10","","","","98.77","","","","-23","","NA"
"2016-01-14 22:00","2016","01","14","22:00","-16.5","","-19.5","","78","","5","","13","","","","98.75","","","","-24","","NA"
"2016-01-14 23:00","2016","01","14","23:00","-16.4","","-19.3","","79","","5","","13","","","","98.69","","","","-24","","NA"
"2016-01-15 00:00","2016","01","15","00:00","-15.9","","-18.9","","78","","4","","8","","","","98.69","","","","-21","","NA"
"2016-01-15 01:00","2016","01","15","01:00","-15.5","","-18.6","","77","","5","","15","","","","98.63","","","","-24","","NA"
"2016-01-15 02:00","2016","01","15","02:00","-15.5","","-18.4","","78","","4","","12","","","","98.60","","","","-23","","NA"
"2016-01-15 03:00","2016","01","15","03:00","-15.4","","-18.5","","77","","4","","16","","","","98.58","","","","-24","","NA"
"2016-01-15 04:00","2016","01","15","04:00","-15.4","","-18.5","","77","","5","","14","","","","98.53","","","","-23","","NA"
"2016-01-15 05:00","2016","01","15","05:00","-15.1","","-18.2","","77","","6","","11","","","","98.47","","","","-22","","NA"
"2016-01-15 06:00","2016","01","15","06:00","-14.9","","-18.2","","76","","5","","12","","","","98.46","","","","-22","","NA"
"2016-01-15 07:00","2016","01","15","07:00","-14.8","","-18.0","","77","","5","","15","","","","98.44","","","","-23","","NA"
"2016-01-15 08:00","2016","01","15","08:00","-14.7","","-17.7","","78","","4","","13","","","","98.38","","","","-22","","NA"
"2016-01-15 09:00","2016","01","15","09:00","-15.2","","-18.0","","79","","5","","17","","","","98.39","","","","-24","","NA"
"2016-01-15 10:00","2016","01","15","10:00","-15.3","","-18.1","","79","","4","","14","","","","98.43","","","","-23","","NA"
"2016-01-15 11:00","2016","01","15","11:00","-15.2","","-17.8","","80","","4","","16","","","","98.43","","","","-23","","NA"
"2016-01-15 12:00","2016","01","15","12:00","-15.0","","-17.5","","81","","4","","17","","","","98.30","","","","-23","","NA"
"2016-01-15 13:00","2016","01","15","13:00","-14.5","","-17.1","","80","","5","","17","","","","98.23","","","","-23","","NA"
"2016-01-15 14:00","2016","01","15","14:00","-13.8","","-16.7","","78","","5","","21","","","","98.16","","","","-23","","NA"
"2016-01-15 15:00","2016","01","15","15:00","-13.5","","-16.9","","76","","5","","16","","","","98.14","","","","-21","","NA"
"2016-01-15 16:00","2016","01","15","16:00","-13.4","","-16.6","","77","","5","","18","","","","98.13","","","","-22","","NA"
"2016-01-15 17:00","2016","01","15","17:00","-14.3","","-17.4","","78","","4","","17","","","","98.14","","","","-23","","NA"
"2016-01-15 18:00","2016","01","15","18:00","-15.2","","-18.2","","78","","4","","15","","","","98.20","","","","-23","","NA"
"2016-01-15 19:00","2016","01","15","19:00","-16.0","","-19.0","","78","","4","","16","","","","98.21","","","","-24","","NA"
"2016-01-15 20:00","2016","01","15","20:00","-16.4","","-19.4","","78","","4","","12","","","","98.25","","","","-24","","NA"
"2016-01-15 21:00","2016","01","15","21:00","-17.3","","-20.2","","78","","4","","17","","","","98.26","","","","-26","","NA"
"2016-01-15 22:00","2016","01","15","22:00","-18.1","","-21.0","","78","","4","","17","","","","98.23","","","","-27","","NA"
"2016-01-15 23:00","2016","01","15","23:00","-18.8","","-21.7","","78","","4","","16","","","","98.23","","","","-28","","NA"
"2016-01-16 00:00","2016","01","16","00:00","-19.3","","-22.1","","78","","4","","15","","","","98.23","","","","-28","","NA"
"2016-01-16 01:00","2016","01","16","01:00","-19.4","","-22.2","","78","","3","","17","","","","98.22","","","","-29","","NA"
"2016-01-16 02:00","2016","01","16","02:00","-19.5","","-22.3","","78","","4","","17","","","","98.20","","","","-29","","NA"
"2016-01-16 03:00","2016","01","16","03:00","-19.2","","-22.2","","77","","3","","13","","","","98.26","","","","-27","","NA"
"2016-01-16 04:00","2016","01","16","04:00","-19.0","","-21.9","","78","","4","","16","","","","98.20","","","","-28","","NA"
"2016-01-16 05:00","2016","01","16","05:00","-18.9","","-21.9","","77","","3","","14","","","","98.25","","","","-27","","NA"
"2016-01-16 06:00","2016","01","16","06:00","-19.0","","-22.0","","77","","3","","15","","","","98.27","","","","-28","","NA"
"2016-01-16 07:00","2016","01","16","07:00","-18.9","","-21.9","","78","","4","","13","","","","98.31","","","","-27","","NA"
"2016-01-16 08:00","2016","01","16","08:00","-19.1","","-21.9","","79","","1","","6","","","","98.39","","","","-24","","NA"
"2016-01-16 09:00","2016","01","16","09:00","-19.6","","-22.2","","80","","4","","11","","","","98.38","","","","-27","","NA"
"2016-01-16 10:00","2016","01","16","10:00","-19.0","","-22.3","","75","","3","","13","","","","98.40","","","","-27","","NA"
"2016-01-16 11:00","2016","01","16","11:00","-18.0","","-22.0","","71","","3","","11","","","","98.41","","","","-25","","NA"
"2016-01-16 12:00","2016","01","16","12:00","-16.2","","-20.8","","67","","1","","7","","","","98.42","","","","-21","","NA"
"2016-01-16 13:00","2016","01","16","13:00","-15.2","","-20.1","","66","","2","","9","","","","98.38","","","","-21","","NA"
"2016-01-16 14:00","2016","01","16","14:00","-14.2","","-19.0","","67","","3","","9","","","","98.35","","","","-20","","NA"
"2016-01-16 15:00","2016","01","16","15:00","-14.2","","-18.4","","70","","2","","7","","","","98.35","","","","-19","","NA"
"2016-01-16 16:00","2016","01","16","16:00","-14.5","","-18.6","","71","","3","","10","","","","98.40","","","","-21","","NA"
"2016-01-16 17:00","2016","01","16","17:00","-15.1","","-18.7","","74","","4","","9","","","","98.44","","","","-21","","NA"
"2016-01-16 18:00","2016","01","16","18:00","-15.6","","-18.9","","76","","3","","10","","","","98.52","","","","-22","","NA"
"2016-01-16 19:00","2016","01","16","19:00","-16.0","","-19.1","","77","","4","","12","","","","98.51","","","","-23","","NA"
"2016-01-16 20:00","2016","01","16","20:00","-16.4","","-19.5","","77","","4","","10","","","","98.53","","","","-23","","NA"
"2016-01-16 21:00","2016","01","16","21:00","-16.7","","-20.0","","76","","3","","12","","","","98.52","","","","-24","","NA"
"2016-01-16 22:00","2016","01","16","22:00","-17.0","","-20.3","","75","","3","","12","","","","98.57","","","","-24","","NA"
"2016-01-16 23:00","2016","01","16","23:00","-17.3","","-20.5","","76","","3","","12","","","","98.60","","","","-25","","NA"
"2016-01-17 00:00","2016","01","17","00:00","-17.7","","-20.7","","78","","4","","10","","","","98.61","","","","-24","","NA"
"2016-01-17 01:00","2016","01","17","01:00","-18.3","","-21.5","","76","","4","","12","","","","98.62","","","","-26","","NA"
"2016-01-17 02:00","2016","01","17","02:00","-18.7","","-21.8","","76","","3","","12","","","","98.64","","","","-26","","NA"
"2016-01-17 03:00","2016","01","17","03:00","-19.0","","-22.1","","77","","3","","7","","","","98.70","","","","-24","","NA"
"2016-01-17 04:00","2016","01","17","04:00","-19.2","","-21.8","","80","","2","","5","","","","98.70","","","","-23","","NA"
"2016-01-17 05:00","2016","01","17","05:00","-19.8","","-22.2","","81","","1","","4","","","","98.73","","","","-23","","NA"
"2016-01-17 06:00","2016","01","17","06:00","-20.3","","-23.0","","79","","1","","5","","","","98.78","","","","-25","","NA"
"2016-01-17 07:00","2016","01","17","07:00","-20.6","","-23.3","","79","","3","","6","","","","98.82","","","","-26","","NA"
"2016-01-17 08:00","2016","01","17","08:00","-21.1","","-23.9","","79","","3","","7","","","","98.84","","","","-27","","NA"
"2016-01-17 09:00","2016","01","17","09:00","-20.4","","-23.0","","80","","2","","7","","","","98.87","","","","-26","","NA"
"2016-01-17 10:00","2016","01","17","10:00","-19.5","","-22.7","","76","","2","","8","","","","98.92","","","","-26","","NA"
"2016-01-17 11:00","2016","01","17","11:00","-19.2","","-22.6","","74","","1","","6","","","","98.96","","","","-24","","NA"
"2016-01-17 12:00","2016","01","17","12:00","-18.4","","-22.4","","70","","36","","8","","","","98.93","","","","-24","","NA"
"2016-01-17 13:00","2016","01","17","13:00","-17.9","","-22.3","","69","","2","","7","","","","98.89","","","","-23","","NA"
"2016-01-17 14:00","2016","01","17","14:00","-17.6","","-22.5","","66","","35","","7","","","","98.87","","","","-23","","NA"
"2016-01-17 15:00","2016","01","17","15:00","-16.9","","-21.4","","68","","3","","7","","","","98.87","","","","-22","","NA"
"2016-01-17 16:00","2016","01","17","16:00","-16.8","","-21.0","","70","","1","","9","","","","98.92","","","","-23","","NA"
"2016-01-17 17:00","2016","01","17","17:00","-17.3","","-21.0","","73","","1","","7","","","","98.99","","","","-23","","NA"
"2016-01-17 18:00","2016","01","17","18:00","-17.8","","-20.9","","77","","36","","4","","","","99.03","","","","-21","","NA"
"2016-01-17 19:00","2016","01","17","19:00","-17.9","","-20.6","","79","","36","","5","","","","99.05","","","","-22","","NA"
"2016-01-17 20:00","2016","01","17","20:00","-17.9","","-21.4","","75","","35","","7","","","","99.06","","","","-23","","NA"
"2016-01-17 21:00","2016","01","17","21:00","-18.1","","-21.6","","74","","35","","6","","","","99.07","","","","-23","","NA"
"2016-01-17 22:00","2016","01","17","22:00","-18.4","","-22.0","","74","","36","","7","","","","99.06","","","","-24","","NA"
"2016-01-17 23:00","2016","01","17","23:00","-18.5","","-21.9","","74","","35","","5","","","","99.05","","","","-23","","NA"
"2016-01-18 00:00","2016","01","18","00:00","-18.5","","-22.3","","72","","36","","6","","","","99.06","","","","-23","","NA"
"2016-01-18 01:00","2016","01","18","01:00","-18.7","","-22.1","","74","","35","","6","","","","99.04","","","","-24","","NA"
"2016-01-18 02:00","2016","01","18","02:00","-18.8","","-22.8","","71","","36","","7","","","","99.06","","","","-24","","NA"
"2016-01-18 03:00","2016","01","18","03:00","-19.1","","-22.8","","72","","1","","9","","","","99.12","","","","-26","","NA"
"2016-01-18 04:00","2016","01","18","04:00","-19.3","","-22.7","","74","","36","","6","","","","99.10","","","","-24","","NA"
"2016-01-18 05:00","2016","01","18","05:00","-19.4","","-23.1","","73","","36","","5","","","","99.12","","","","-24","","NA"
"2016-01-18 06:00","2016","01","18","06:00","-19.2","","-22.7","","74","","34","","6","","","","99.09","","","","-24","","NA"
"2016-01-18 07:00","2016","01","18","07:00","-18.9","","-22.2","","76","","35","","6","","","","99.12","","","","-24","","NA"
"2016-01-18 08:00","2016","01","18","08:00","-19.1","","-22.7","","73","","36","","6","","","","99.15","","","","-24","","NA"
"2016-01-18 09:00","2016","01","18","09:00","-19.6","","-22.8","","76","","35","","4","","","","99.17","","","","-23","","NA"
"2016-01-18 10:00","2016","01","18","10:00","-18.8","","-22.6","","72","","1","","6","","","","99.19","","","","-24","","NA"
"2016-01-18 11:00","2016","01","18","11:00","-17.7","","-22.0","","69","","2","","9","","","","99.23","","","","-24","","NA"
"2016-01-18 12:00","2016","01","18","12:00","-16.8","","-21.2","","69","","1","","9","","","","99.24","","","","-23","","NA"
"2016-01-18 13:00","2016","01","18","13:00","-16.1","","-20.6","","68","","36","","7","","","","99.23","","","","-21","","NA"
"2016-01-18 14:00","2016","01","18","14:00","-15.3","","-20.4","","65","","36","","5","","","","99.25","","","","-19","","NA"
"2016-01-18 15:00","2016","01","18","15:00","-15.0","","-20.1","","65","","1","","9","","","","99.31","","","","-21","","NA"
"2016-01-18 16:00","2016","01","18","16:00","-15.3","","-20.1","","67","","36","","7","","","","99.42","","","","-20","","NA"
"2016-01-18 17:00","2016","01","18","17:00","-14.9","","-19.5","","68","","1","","9","","","","99.49","","","","-21","","NA"
"2016-01-18 18:00","2016","01","18","18:00","-15.0","","-18.7","","73","","35","","4","","","","99.63","","","","-18","","NA"
"2016-01-18 19:00","2016","01","18","19:00","-14.9","","-18.7","","73","","35","","6","","","","99.72","","","","-19","","NA"
"2016-01-18 20:00","2016","01","18","20:00","-14.9","","-18.5","","74","","34","","5","","","","99.76","","","","-18","","NA"
"2016-01-18 21:00","2016","01","18","21:00","-14.9","","-18.1","","76","","35","","3","","","","99.80","","","","-17","","NA"
"2016-01-18 22:00","2016","01","18","22:00","-14.5","","-18.1","","75","","35","","7","","","","99.87","","","","-19","","NA"
"2016-01-18 23:00","2016","01","18","23:00","-14.6","","-17.7","","78","","34","","2","","","","99.88","","","","-16","","NA"
"2016-01-19 00:00","2016","01","19","00:00","-14.2","","-17.8","","74","","34","","5","","","","99.95","","","","-18","","NA"
"2016-01-19 01:00","2016","01","19","01:00","-14.2","","-18.0","","73","","33","","5","","","","99.99","","","","-18","","NA"
"2016-01-19 02:00","2016","01","19","02:00","-14.5","","-17.8","","75","","34","","4","","","","100.02","","","","-17","","NA"
"2016-01-19 03:00","2016","01","19","03:00","-15.4","","-18.2","","79","","36","","4","","","","100.06","","","","-18","","NA"
"2016-01-19 04:00","2016","01","19","04:00","-17.7","","-19.6","","85","","34","","2","","","","100.12","","","","-19","","NA"
"2016-01-19 05:00","2016","01","19","05:00","-18.4","","-20.3","","85","","2","","3","","","","100.20","","","","-21","","NA"
"2016-01-19 06:00","2016","01","19","06:00","-19.7","","-21.5","","85","","7","","5","","","","100.25","","","","-24","","NA"
"2016-01-19 07:00","2016","01","19","07:00","-18.0","","-19.9","","85","","5","","5","","","","100.26","","","","-22","","NA"
"2016-01-19 08:00","2016","01","19","08:00","-19.2","","-21.3","","84","","4","","5","","","","100.31","","","","-23","","NA"
"2016-01-19 09:00","2016","01","19","09:00","-20.1","","-22.1","","84","","4","","6","","","","100.37","","","","-25","","NA"
"2016-01-19 10:00","2016","01","19","10:00","-17.4","","-19.9","","81","","4","","6","","","","100.40","","","","-22","","NA"
"2016-01-19 11:00","2016","01","19","11:00","-15.2","","-18.2","","77","","6","","4","","","","100.41","","","","-18","","NA"
"2016-01-19 12:00","2016","01","19","12:00","-12.2","","-15.9","","74","","36","","1","","","","100.40","","","","-13","","NA"
"2016-01-19 13:00","2016","01","19","13:00","-10.8","","-14.2","","76","","23","","6","","","","100.37","","","","-14","","NA"
"2016-01-19 14:00","2016","01","19","14:00","-10.5","","-13.6","","78","","25","","7","","","","100.35","","","","-15","","NA"
"2016-01-19 15:00","2016","01","19","15:00","-10.0","","-13.0","","79","","28","","5","","","","100.30","","","","-13","","NA"
"2016-01-19 16:00","2016","01","19","16:00","-9.6","","-12.9","","77","","32","","3","","","","100.30","","","","-11","","NA"
"2016-01-19 17:00","2016","01","19","17:00","-9.8","","-12.2","","82","","4","","5","","","","100.27","","","","-13","","NA"
"2016-01-19 18:00","2016","01","19","18:00","-10.4","","-12.8","","82","","3","","4","","","","100.29","","","","-13","","NA"
"2016-01-19 19:00","2016","01","19","19:00","-10.6","","-12.7","","85","","4","","5","","","","100.28","","","","-14","","NA"
"2016-01-19 20:00","2016","01","19","20:00","-10.8","","-12.8","","85","","3","","5","","","","100.28","","","","-14","","NA"
"2016-01-19 21:00","2016","01","19","21:00","-10.9","","-12.7","","87","","3","","4","","","","100.25","","","","-13","","NA"
"2016-01-19 22:00","2016","01","19","22:00","-11.0","","-12.6","","88","","4","","6","","","","100.20","","","","-15","","NA"
"2016-01-19 23:00","2016","01","19","23:00","-10.8","","-12.5","","87","","4","","9","","","","100.14","","","","-16","","NA"
"2016-01-20 00:00","2016","01","20","00:00","-10.8","","-12.6","","87","","3","","10","","","","100.10","","","","-16","","NA"
"2016-01-20 01:00","2016","01","20","01:00","-10.9","","-12.8","","86","","4","","6","","","","100.07","","","","-15","","NA"
"2016-01-20 02:00","2016","01","20","02:00","-10.9","","-12.7","","86","","4","","5","","","","100.04","","","","-14","","NA"
"2016-01-20 03:00","2016","01","20","03:00","-10.8","","-12.6","","87","","5","","5","","","","100.01","","","","-14","","NA"
"2016-01-20 04:00","2016","01","20","04:00","-11.0","","-12.6","","88","","5","","7","","","","99.96","","","","-15","","NA"
"2016-01-20 05:00","2016","01","20","05:00","-11.0","","-12.6","","88","","5","","8","","","","99.92","","","","-16","","NA"
"2016-01-20 06:00","2016","01","20","06:00","-11.0","","-12.6","","88","","3","","11","","","","99.88","","","","-17","","NA"
"2016-01-20 07:00","2016","01","20","07:00","-11.1","","-12.7","","88","","3","","9","","","","99.88","","","","-16","","NA"
"2016-01-20 08:00","2016","01","20","08:00","-11.0","","-12.5","","88","","3","","10","","","","99.86","","","","-16","","NA"
"2016-01-20 09:00","2016","01","20","09:00","-10.5","","-12.2","","88","","3","","10","","","","99.84","","","","-16","","NA"
"2016-01-20 10:00","2016","01","20","10:00","-10.0","","-11.8","","87","","4","","10","","","","99.81","","","","-15","","NA"
"2016-01-20 11:00","2016","01","20","11:00","-9.0","","-11.2","","83","","4","","8","","","","99.80","","","","-13","","NA"
"2016-01-20 12:00","2016","01","20","12:00","-7.5","","-10.3","","80","","4","","9","","","","99.77","","","","-12","","NA"
"2016-01-20 13:00","2016","01","20","13:00","-6.7","","-10.0","","78","","5","","6","","","","99.72","","","","-10","","NA"
"2016-01-20 14:00","2016","01","20","14:00","-5.8","","-9.2","","77","","4","","4","","","","99.67","","","","-8","","NA"
"2016-01-20 15:00","2016","01","20","15:00","-5.6","","-8.9","","78","","5","","4","","","","99.62","","","","-7","","NA"
"2016-01-20 16:00","2016","01","20","16:00","-5.8","","-8.2","","83","","4","","6","","","","99.65","","","","-9","","NA"
"2016-01-20 17:00","2016","01","20","17:00","-6.0","","-8.1","","85","","5","","6","","","","99.66","","","","-9","","NA"
"2016-01-20 18:00","2016","01","20","18:00","-6.6","","-8.3","","88","","4","","7","","","","99.69","","","","-10","","NA"
"2016-01-20 19:00","2016","01","20","19:00","-6.8","","-8.5","","88","","4","","7","","","","99.70","","","","-10","","NA"
"2016-01-20 20:00","2016","01","20","20:00","-7.0","","-8.6","","88","","3","","7","","","","99.71","","","","-11","","NA"
"2016-01-20 21:00","2016","01","20","21:00","-7.2","","-8.7","","89","","5","","6","","","","99.75","","","","-10","","NA"
"2016-01-20 22:00","2016","01","20","22:00","-7.5","","-8.9","","90","","6","","6","","","","99.75","","","","-11","","NA"
"2016-01-20 23:00","2016","01","20","23:00","-7.5","","-9.0","","89","","5","","6","","","","99.78","","","","-11","","NA"
"2016-01-21 00:00","2016","01","21","00:00","-7.5","","-9.1","","88","","4","","8","","","","99.82","","","","-12","","NA"
"2016-01-21 01:00","2016","01","21","01:00","-7.8","","-9.2","","90","","4","","5","","","","99.84","","","","-10","","NA"
"2016-01-21 02:00","2016","01","21","02:00","-8.0","","-9.3","","90","","6","","6","","","","99.85","","","","-11","","NA"
"2016-01-21 03:00","2016","01","21","03:00","-8.4","","-9.4","","92","","2","","4","","","","99.86","","","","-11","","NA"
"2016-01-21 04:00","2016","01","21","04:00","-8.4","","-9.5","","91","","6","","6","","","","99.89","","","","-12","","NA"
"2016-01-21 05:00","2016","01","21","05:00","-8.3","","-9.6","","90","","4","","6","","","","99.92","","","","-12","","NA"
"2016-01-21 06:00","2016","01","21","06:00","-8.1","","-10.1","","86","","4","","7","","","","99.90","","","","-12","","NA"
"2016-01-21 07:00","2016","01","21","07:00","-8.0","","-10.5","","82","","5","","6","","","","99.92","","","","-11","","NA"
"2016-01-21 08:00","2016","01","21","08:00","-8.3","","-10.9","","82","","4","","6","","","","99.95","","","","-12","","NA"
"2016-01-21 09:00","2016","01","21","09:00","-8.0","","-10.9","","79","","3","","7","","","","99.99","","","","-12","","NA"
"2016-01-21 10:00","2016","01","21","10:00","-7.8","","-10.4","","81","","4","","7","","","","100.03","","","","-11","","NA"
"2016-01-21 11:00","2016","01","21","11:00","-6.8","","-10.6","","74","","4","","8","","","","100.04","","","","-11","","NA"
"2016-01-21 12:00","2016","01","21","12:00","-5.9","","-10.6","","69","","4","","6","","","","100.03","","","","-9","","NA"
"2016-01-21 13:00","2016","01","21","13:00","-5.5","","-10.6","","67","","4","","9","","","","100.01","","","","-10","","NA"
"2016-01-21 14:00","2016","01","21","14:00","-4.9","","-10.5","","65","","7","","8","","","","99.98","","","","-8","","NA"
"2016-01-21 15:00","2016","01","21","15:00","-5.2","","-10.1","","68","","6","","6","","","","100.01","","","","-8","","NA"
"2016-01-21 16:00","2016","01","21","16:00","-5.2","","-9.8","","70","","4","","6","","","","100.05","","","","-8","","NA"
"2016-01-21 17:00","2016","01","21","17:00","-5.5","","-9.7","","73","","4","","5","","","","100.09","","","","-8","","NA"
"2016-01-21 18:00","2016","01","21","18:00","-6.1","","-9.8","","75","","2","","3","","","","100.15","","","","-8","","NA"
"2016-01-21 19:00","2016","01","21","19:00","-7.5","","-9.6","","85","","1","","2","","","","100.24","","","","-9","","NA"
"2016-01-21 20:00","2016","01","21","20:00","-9.4","","-11.3","","86","","","","0","","","","100.29","","","","","","NA"
"2016-01-21 21:00","2016","01","21","21:00","-9.7","","-11.4","","88","","6","","2","","","","100.31","","","","-11","","NA"
"2016-01-21 22:00","2016","01","21","22:00","-9.0","","-10.6","","88","","4","","3","","","","100.31","","","","-11","","NA"
"2016-01-21 23:00","2016","01","21","23:00","-8.9","","-10.5","","88","","3","","6","","","","100.34","","","","-12","","NA"
"2016-01-22 00:00","2016","01","22","00:00","-8.7","","-10.4","","87","","2","","3","","","","100.38","","","","-10","","NA"
"2016-01-22 01:00","2016","01","22","01:00","-8.3","","-10.4","","85","","3","","5","","","","100.40","","","","-11","","NA"
"2016-01-22 02:00","2016","01","22","02:00","-8.5","","-10.5","","85","","4","","6","","","","100.41","","","","-12","","NA"
"2016-01-22 03:00","2016","01","22","03:00","-8.5","","-10.6","","85","","4","","5","","","","100.44","","","","-11","","NA"
"2016-01-22 04:00","2016","01","22","04:00","-9.3","","-10.9","","88","","3","","5","","","","100.48","","","","-12","","NA"
"2016-01-22 05:00","2016","01","22","05:00","-9.3","","-11.1","","87","","6","","7","","","","100.51","","","","-13","","NA"
"2016-01-22 06:00","2016","01","22","06:00","-9.8","","-11.5","","87","","5","","7","","","","100.54","","","","-14","","NA"
"2016-01-22 07:00","2016","01","22","07:00","-10.3","","-11.9","","88","","5","","5","","","","100.57","","","","-13","","NA"
"2016-01-22 08:00","2016","01","22","08:00","-10.1","","-11.9","","87","","5","","7","","","","100.62","","","","-14","","NA"
"2016-01-22 09:00","2016","01","22","09:00","-10.0","","-12.1","","84","","5","","8","","","","100.62","","","","-14","","NA"
"2016-01-22 10:00","2016","01","22","10:00","-9.7","","-12.7","","79","","4","","10","","","","100.66","","","","-15","","NA"
"2016-01-22 11:00","2016","01","22","11:00","-9.2","","-12.6","","76","","4","","8","","","","100.70","","","","-14","","NA"
"2016-01-22 12:00","2016","01","22","12:00","-8.8","","-12.3","","75","","3","","9","","","","100.71","","","","-13","","NA"
"2016-01-22 13:00","2016","01","22","13:00","-8.3","","-12.4","","72","","3","","5","","","","100.64","","","","-11","","NA"
"2016-01-22 14:00","2016","01","22","14:00","-7.7","","-12.3","","70","","33","","4","","","","100.57","","","","-10","","NA"
"2016-01-22 15:00","2016","01","22","15:00","-7.4","","-12.1","","69","","2","","8","","","","100.50","","","","-11","","NA"
"2016-01-22 16:00","2016","01","22","16:00","-7.6","","-12.0","","71","","7","","2","","","","100.46","","","","-9","","NA"
"2016-01-22 17:00","2016","01","22","17:00","-8.1","","-11.7","","75","","2","","2","","","","100.44","","","","-9","","NA"
"2016-01-22 18:00","2016","01","22","18:00","-8.4","","-11.5","","79","","13","","2","","","","100.42","","","","-9","","NA"
"2016-01-22 19:00","2016","01","22","19:00","-8.5","","-11.1","","81","","2","","2","","","","100.45","","","","-10","","NA"
"2016-01-22 20:00","2016","01","22","20:00","-8.4","","-11.0","","82","","12","","2","","","","100.44","","","","-9","","NA"
"2016-01-22 21:00","2016","01","22","21:00","-8.1","","-10.3","","84","","12","","3","","","","100.36","","","","-10","","NA"
"2016-01-22 22:00","2016","01","22","22:00","-8.0","","-10.2","","84","","11","","4","","","","100.31","","","","-10","","NA"
"2016-01-22 23:00","2016","01","22","23:00","-8.0","","-10.0","","85","","4","","3","","","","100.24","","","","-10","","NA"
"2016-01-23 00:00","2016","01","23","00:00","-5.7","","-7.5","","87","","24","","9","","","","100.17","","","","-10","","NA"
"2016-01-23 01:00","2016","01","23","01:00","-5.2","","-7.3","","85","","25","","10","","","","100.11","","","","-10","","NA"
"2016-01-23 02:00","2016","01","23","02:00","-5.0","","-7.2","","85","","25","","13","","","","100.06","","","","-10","","NA"
"2016-01-23 03:00","2016","01","23","03:00","-4.1","","-6.0","","87","","23","","11","","","","99.98","","","","-9","","NA"
"2016-01-23 04:00","2016","01","23","04:00","-3.7","","-5.8","","85","","24","","11","","","","99.93","","","","-8","","NA"
"2016-01-23 05:00","2016","01","23","05:00","-3.0","","-5.2","","84","","23","","11","","","","99.80","","","","-7","","NA"
"2016-01-23 06:00","2016","01","23","06:00","-2.8","","-5.1","","84","","23","","13","","","","99.74","","","","-7","","NA"
"2016-01-23 07:00","2016","01","23","07:00","-2.5","","-5.1","","82","","23","","13","","","","99.71","","","","-7","","NA"
"2016-01-23 08:00","2016","01","23","08:00","-2.8","","-5.1","","84","","22","","14","","","","99.67","","","","-8","","NA"
"2016-01-23 09:00","2016","01","23","09:00","-3.5","","-5.7","","84","","22","","14","","","","99.62","","","","-9","","NA"
"2016-01-23 10:00","2016","01","23","10:00","-3.8","","-5.8","","86","","21","","12","","","","99.55","","","","-8","","NA"
"2016-01-23 11:00","2016","01","23","11:00","-3.0","","-5.6","","82","","22","","13","","","","99.50","","","","-8","","NA"
"2016-01-23 12:00","2016","01","23","12:00","-2.5","","-5.7","","79","","22","","15","","","","99.43","","","","-7","","NA"
"2016-01-23 13:00","2016","01","23","13:00","-1.7","","-5.9","","73","","22","","16","","","","99.34","","","","-7","","NA"
"2016-01-23 14:00","2016","01","23","14:00","-1.6","","-6.0","","72","","21","","14","","","","99.17","","","","-6","","NA"
"2016-01-23 15:00","2016","01","23","15:00","-1.5","","-5.0","","77","","22","","15","","","","99.04","","","","-6","","NA"
"2016-01-23 16:00","2016","01","23","16:00","-1.4","","-5.0","","76","","22","","14","","","","98.96","","","","-6","","NA"
"2016-01-23 17:00","2016","01","23","17:00","-1.4","","-5.2","","75","","21","","16","","","","98.86","","","","-6","","NA"
"2016-01-23 18:00","2016","01","23","18:00","-1.2","","-4.9","","76","","21","","18","","","","98.80","","","","-6","","NA"
"2016-01-23 19:00","2016","01","23","19:00","-1.5","","-2.8","","91","","21","","17","","","","98.72","","","","-7","","NA"
"2016-01-23 20:00","2016","01","23","20:00","-1.2","","-2.1","","94","","21","","16","","","","98.62","","","","-6","","NA"
"2016-01-23 21:00","2016","01","23","21:00","-0.7","","-1.7","","93","","21","","17","","","","98.53","","","","-6","","NA"
"2016-01-23 22:00","2016","01","23","22:00","-0.1","","-2.1","","86","","21","","18","","","","98.52","","","","-5","","NA"
"2016-01-23 23:00","2016","01","23","23:00","0.3","","-3.1","","78","","23","","17","","","","98.46","","","","","","NA"
"2016-01-24 00:00","2016","01","24","00:00","0.0","","-3.8","","76","","24","","15","","","","98.40","","","","-4","","NA"
"2016-01-24 01:00","2016","01","24","01:00","-0.1","","-3.4","","78","","23","","12","","","","98.37","","","","-4","","NA"
"2016-01-24 02:00","2016","01","24","02:00","0.1","","-2.7","","82","","23","","14","","","","98.35","","","","","","NA"
"2016-01-24 03:00","2016","01","24","03:00","-0.9","","-2.6","","88","","30","","7","","","","98.38","","","","-3","","NA"
"2016-01-24 04:00","2016","01","24","04:00","-1.6","","-2.7","","92","","33","","3","","","","98.40","","","","-3","","NA"
"2016-01-24 05:00","2016","01","24","05:00","-1.9","","-2.8","","94","","3","","4","","","","98.41","","","","-3","","NA"
"2016-01-24 06:00","2016","01","24","06:00","-2.3","","-3.0","","95","","4","","3","","","","98.45","","","","-3","","NA"
"2016-01-24 07:00","2016","01","24","07:00","-2.4","","-3.2","","95","","3","","3","","","","98.46","","","","-4","","NA"
"2016-01-24 08:00","2016","01","24","08:00","-2.5","","-3.2","","95","","3","","4","","","","98.52","","","","-4","","NA"
"2016-01-24 09:00","2016","01","24","09:00","-2.4","","-3.2","","95","","4","","4","","","","98.56","","","","-4","","NA"
"2016-01-24 10:00","2016","01","24","10:00","-2.1","","-2.9","","94","","3","","4","","","","98.61","","","","-4","","NA"
"2016-01-24 11:00","2016","01","24","11:00","-2.5","","-3.6","","92","","3","","15","","","","98.70","","","","-7","","NA"
"2016-01-24 12:00","2016","01","24","12:00","-3.6","","-4.7","","93","","3","","15","","","","98.75","","","","-9","","NA"
"2016-01-24 13:00","2016","01","24","13:00","-4.2","","-5.8","","89","","4","","17","","","","98.77","","","","-10","","NA"
"2016-01-24 14:00","2016","01","24","14:00","-4.5","","-6.3","","87","","4","","14","","","","98.80","","","","-10","","NA"
"2016-01-24 15:00","2016","01","24","15:00","-4.9","","-6.9","","86","","4","","17","","","","98.83","","","","-11","","NA"
"2016-01-24 16:00","2016","01","24","16:00","-5.1","","-7.0","","86","","4","","15","","","","98.90","","","","-11","","NA"
"2016-01-24 17:00","2016","01","24","17:00","-5.4","","-7.3","","87","","4","","13","","","","99.05","","","","-11","","NA"
"2016-01-24 18:00","2016","01","24","18:00","-5.9","","-7.5","","89","","4","","16","","","","99.07","","","","-12","","NA"
"2016-01-24 19:00","2016","01","24","19:00","-6.4","","-8.1","","88","","4","","16","","","","99.10","","","","-13","","NA"
"2016-01-24 20:00","2016","01","24","20:00","-6.4","","-8.0","","88","","5","","12","","","","99.14","","","","-12","","NA"
"2016-01-24 21:00","2016","01","24","21:00","-6.5","","-8.1","","88","","5","","12","","","","99.14","","","","-12","","NA"
"2016-01-24 22:00","2016","01","24","22:00","-6.6","","-8.2","","89","","5","","14","","","","99.11","","","","-12","","NA"
"2016-01-24 23:00","2016","01","24","23:00","-6.5","","-8.1","","89","","4","","12","","","","99.12","","","","-12","","NA"
"2016-01-25 00:00","2016","01","25","00:00","-6.5","","-7.9","","90","","4","","10","","","","99.11","","","","-11","","NA"
"2016-01-25 01:00","2016","01","25","01:00","-6.4","","-7.8","","89","","5","","11","","","","99.11","","","","-11","","NA"
"2016-01-25 02:00","2016","01","25","02:00","-6.3","","-7.8","","89","","4","","12","","","","99.12","","","","-11","","NA"
"2016-01-25 03:00","2016","01","25","03:00","-6.2","","-7.7","","89","","5","","13","","","","99.07","","","","-12","","NA"
"2016-01-25 04:00","2016","01","25","04:00","-6.0","","-7.5","","89","","4","","11","","","","99.07","","","","-11","","NA"
"2016-01-25 05:00","2016","01","25","05:00","-5.9","","-7.1","","91","","4","","11","","","","99.01","","","","-11","","NA"
"2016-01-25 06:00","2016","01","25","06:00","-5.8","","-6.8","","93","","4","","10","","","","98.96","","","","-10","","NA"
"2016-01-25 07:00","2016","01","25","07:00","-5.8","","-6.6","","94","","4","","8","","","","98.94","","","","-10","","NA"
"2016-01-25 08:00","2016","01","25","08:00","-5.8","","-6.7","","94","","4","","11","","","","98.89","","","","-11","","NA"
"2016-01-25 09:00","2016","01","25","09:00","-5.7","","-6.6","","93","","4","","11","","","","98.84","","","","-10","","NA"
"2016-01-25 10:00","2016","01","25","10:00","-5.7","","-6.7","","93","","4","","10","","","","98.82","","","","-10","","NA"
"2016-01-25 11:00","2016","01","25","11:00","-5.7","","-6.6","","93","","4","","8","","","","98.81","","","","-9","","NA"
"2016-01-25 12:00","2016","01","25","12:00","-5.6","","-6.5","","94","","4","","10","","","","98.74","","","","-10","","NA"
"2016-01-25 13:00","2016","01","25","13:00","-5.4","","-6.2","","94","","4","","10","","","","98.66","","","","-10","","NA"
"2016-01-25 14:00","2016","01","25","14:00","-5.0","","-5.8","","94","","4","","8","","","","98.60","","","","-9","","NA"
"2016-01-25 15:00","2016","01","25","15:00","-4.6","","-5.4","","94","","4","","9","","","","98.52","","","","-8","","NA"
"2016-01-25 16:00","2016","01","25","16:00","-4.1","","-4.9","","94","","4","","7","","","","98.49","","","","-7","","NA"
"2016-01-25 17:00","2016","01","25","17:00","-4.0","","-4.7","","95","","4","","7","","","","98.47","","","","-7","","NA"
"2016-01-25 18:00","2016","01","25","18:00","-4.1","","-4.8","","95","","4","","8","","","","98.46","","","","-8","","NA"
"2016-01-25 19:00","2016","01","25","19:00","-4.2","","-4.9","","95","","3","","7","","","","98.44","","","","-7","","NA"
"2016-01-25 20:00","2016","01","25","20:00","-4.2","","-4.9","","95","","4","","7","","","","98.39","","","","-7","","NA"
"2016-01-25 21:00","2016","01","25","21:00","-4.5","","-5.2","","95","","3","","8","","","","98.32","","","","-8","","NA"
"2016-01-25 22:00","2016","01","25","22:00","-4.9","","-5.6","","95","","4","","9","","","","98.28","","","","-9","","NA"
"2016-01-25 23:00","2016","01","25","23:00","-4.8","","-5.6","","95","","4","","9","","","","98.26","","","","-9","","NA"
"2016-01-26 00:00","2016","01","26","00:00","-4.4","","-5.2","","95","","4","","11","","","","98.22","","","","-9","","NA"
"2016-01-26 01:00","2016","01","26","01:00","-4.6","","-5.8","","92","","3","","14","","","","98.23","","","","-10","","NA"
"2016-01-26 02:00","2016","01","26","02:00","-5.3","","-6.6","","91","","4","","14","","","","98.23","","","","-11","","NA"
"2016-01-26 03:00","2016","01","26","03:00","-5.9","","-7.3","","90","","4","","15","","","","98.26","","","","-12","","NA"
"2016-01-26 04:00","2016","01","26","04:00","-6.3","","-7.8","","89","","4","","15","","","","98.27","","","","-12","","NA"
"2016-01-26 05:00","2016","01","26","05:00","-6.7","","-8.3","","89","","4","","13","","","","98.27","","","","-12","","NA"
"2016-01-26 06:00","2016","01","26","06:00","-7.3","","-8.8","","89","","3","","12","","","","98.31","","","","-13","","NA"
"2016-01-26 07:00","2016","01","26","07:00","-7.6","","-9.1","","89","","3","","11","","","","98.38","","","","-13","","NA"
"2016-01-26 08:00","2016","01","26","08:00","-8.0","","-9.5","","89","","1","","7","","","","98.46","","","","-12","","NA"
"2016-01-26 09:00","2016","01","26","09:00","-8.3","","-10.0","","88","","2","","7","","","","98.57","","","","-12","","NA"
"2016-01-26 10:00","2016","01","26","10:00","-7.8","","-9.5","","87","","1","","7","","","","98.65","","","","-11","","NA"
"2016-01-26 11:00","2016","01","26","11:00","-7.5","","-10.4","","80","","4","","13","","","","98.73","","","","-13","","NA"
"2016-01-26 12:00","2016","01","26","12:00","-7.4","","-10.4","","79","","2","","12","","","","98.81","","","","-13","","NA"
"2016-01-26 13:00","2016","01","26","13:00","-7.1","","-10.3","","78","","35","","7","","","","98.86","","","","-11","","NA"
"2016-01-26 14:00","2016","01","26","14:00","-7.1","","-10.1","","79","","2","","9","","","","98.90","","","","-11","","NA"
"2016-01-26 15:00","2016","01","26","15:00","-7.3","","-10.7","","76","","1","","9","","","","98.95","","","","-12","","NA"
"2016-01-26 16:00","2016","01","26","16:00","-7.4","","-10.3","","80","","2","","9","","","","99.02","","","","-12","","NA"
"2016-01-26 17:00","2016","01","26","17:00","-7.5","","-9.7","","84","","2","","7","","","","99.10","","","","-11","","NA"
"2016-01-26 18:00","2016","01","26","18:00","-8.1","","-10.5","","83","","3","","7","","","","99.16","","","","-12","","NA"
"2016-01-26 19:00","2016","01","26","19:00","-8.4","","-11.0","","82","","4","","9","","","","99.24","","","","-13","","NA"
"2016-01-26 20:00","2016","01","26","20:00","-9.0","","-11.0","","85","","4","","7","","","","99.28","","","","-13","","NA"
"2016-01-26 21:00","2016","01","26","21:00","-9.6","","-11.3","","87","","4","","4","","","","99.33","","","","-12","","NA"
"2016-01-26 22:00","2016","01","26","22:00","-10.4","","-12.0","","87","","3","","7","","","","99.31","","","","-14","","NA"
"2016-01-26 23:00","2016","01","26","23:00","-12.7","","-14.0","","90","","6","","2","","","","99.28","","","","-14","","NA"
"2016-01-27 00:00","2016","01","27","00:00","-14.1","","-15.7","","88","","6","","3","","","","99.28","","","","-16","","NA"
"2016-01-27 01:00","2016","01","27","01:00","-15.1","","-16.4","","90","","5","","6","","","","99.27","","","","-19","","NA"
"2016-01-27 02:00","2016","01","27","02:00","-14.8","","-16.4","","88","","4","","6","","","","99.25","","","","-19","","NA"
"2016-01-27 03:00","2016","01","27","03:00","-14.9","","-16.5","","88","","5","","8","","","","99.25","","","","-20","","NA"
"2016-01-27 04:00","2016","01","27","04:00","-14.4","","-15.9","","88","","5","","6","","","","99.20","","","","-19","","NA"
"2016-01-27 05:00","2016","01","27","05:00","-13.5","","-15.0","","89","","4","","3","","","","99.06","","","","-16","","NA"
"2016-01-27 06:00","2016","01","27","06:00","","M","-6.7","","85","","24","","15","","","","98.96","","","","","","NA"
"2016-01-27 07:00","2016","01","27","07:00","","M","-6.3","","80","","25","","21","","","","98.94","","","","","","NA"
"2016-01-27 08:00","2016","01","27","08:00","-2.6","","-5.7","","79","","25","","18","","","","98.84","","","","-8","","NA"
"2016-01-27 09:00","2016","01","27","09:00","-2.0","","-5.1","","80","","25","","20","","","","98.73","","","","-8","","NA"
"2016-01-27 10:00","2016","01","27","10:00","-1.8","","-5.1","","78","","23","","21","","","","98.67","","","","-8","","NA"
"2016-01-27 11:00","2016","01","27","11:00","-1.9","","-4.9","","80","","23","","19","","","","98.60","","","","-7","","NA"
"2016-01-27 12:00","2016","01","27","12:00","-1.7","","-5.1","","77","","23","","20","","","","98.49","","","","-7","","NA"
"2016-01-27 13:00","2016","01","27","13:00","-2.0","","-4.8","","81","","21","","17","","","","98.38","","","","-7","","NA"
"2016-01-27 14:00","2016","01","27","14:00","-2.2","","-5.5","","78","","21","","16","","","","98.28","","","","-7","","NA"
"2016-01-27 15:00","2016","01","27","15:00","-2.4","","-5.8","","78","","21","","16","","","","98.14","","","","-8","","NA"
"2016-01-27 16:00","2016","01","27","16:00","-2.2","","-5.2","","80","","21","","13","","","","97.94","","","","-7","","NA"
"2016-01-27 17:00","2016","01","27","17:00","-2.6","","-4.0","","90","","18","","15","","","","97.76","","","","-8","","NA"
"2016-01-27 18:00","2016","01","27","18:00","-2.2","","-3.5","","91","","17","","17","","","","97.56","","","","-8","","NA"
"2016-01-27 19:00","2016","01","27","19:00","-2.2","","-3.1","","94","","17","","14","","","","97.44","","","","-7","","NA"
"2016-01-27 20:00","2016","01","27","20:00","-1.7","","-2.4","","95","","18","","16","","","","97.31","","","","-7","","NA"
"2016-01-27 21:00","2016","01","27","21:00","-1.4","","-2.0","","96","","19","","21","","","","97.15","","","","-7","","NA"
"2016-01-27 22:00","2016","01","27","22:00","-1.3","","-2.1","","95","","19","","16","","","","97.04","","","","-6","","NA"
"2016-01-27 23:00","2016","01","27","23:00","-0.9","","-1.4","","96","","18","","14","","","","96.91","","","","-5","","NA"
"2016-01-28 00:00","2016","01","28","00:00","-0.6","","-1.2","","96","","18","","11","","","","96.82","","","","-4","","NA"
"2016-01-28 01:00","2016","01","28","01:00","-0.2","","-0.8","","96","","18","","5","","","","96.73","","","","-2","","NA"
"2016-01-28 02:00","2016","01","28","02:00","-1.9","","-2.5","","96","","4","","8","","","","96.68","","","","-5","","NA"
"2016-01-28 03:00","2016","01","28","03:00","-2.5","","-3.2","","95","","4","","10","","","","96.71","","","","-6","","NA"
"2016-01-28 04:00","2016","01","28","04:00","-2.5","","-3.3","","94","","3","","9","","","","96.72","","","","-6","","NA"
"2016-01-28 05:00","2016","01","28","05:00","-2.9","","-3.9","","93","","2","","11","","","","96.82","","","","-7","","NA"
"2016-01-28 06:00","2016","01","28","06:00","-3.3","","-4.5","","91","","3","","15","","","","96.95","","","","-8","","NA"
"2016-01-28 07:00","2016","01","28","07:00","-4.4","","-5.9","","90","","2","","16","","","","97.13","","","","-10","","NA"
"2016-01-28 08:00","2016","01","28","08:00","-9.0","","-11.0","","85","","2","","18","","","","97.35","","","","-16","","NA"
"2016-01-28 09:00","2016","01","28","09:00","-12.0","","-14.3","","83","","2","","21","","","","97.53","","","","-21","","NA"
"2016-01-28 10:00","2016","01","28","10:00","-13.9","","-16.6","","80","","4","","23","","","","97.66","","","","-23","","NA"
"2016-01-28 11:00","2016","01","28","11:00","-13.9","","-17.0","","78","","4","","26","","","","97.78","","","","-24","","NA"
"2016-01-28 12:00","2016","01","28","12:00","-12.8","","-16.0","","77","","3","","22","","","","97.92","","","","-22","","NA"
"2016-01-28 13:00","2016","01","28","13:00","-13.2","","-16.6","","76","","3","","18","","","","98.04","","","","-21","","NA"
"2016-01-28 14:00","2016","01","28","14:00","-13.7","","-17.4","","74","","3","","23","","","","98.14","","","","-23","","NA"
"2016-01-28 15:00","2016","01","28","15:00","-13.6","","-17.5","","72","","3","","18","","","","98.29","","","","-22","","NA"
"2016-01-28 16:00","2016","01","28","16:00","-14.2","","-17.7","","74","","3","","17","","","","98.41","","","","-22","","NA"
"2016-01-28 17:00","2016","01","28","17:00","-15.1","","-19.3","","71","","1","","14","","","","98.52","","","","-23","","NA"
"2016-01-28 18:00","2016","01","28","18:00","-16.5","","-20.1","","73","","2","","10","","","","98.68","","","","-23","","NA"
"2016-01-28 19:00","2016","01","28","19:00","-17.5","","-21.2","","73","","2","","11","","","","98.81","","","","-25","","NA"
"2016-01-28 20:00","2016","01","28","20:00","-18.7","","-22.1","","74","","3","","12","","","","98.92","","","","-26","","NA"
"2016-01-28 21:00","2016","01","28","21:00","-19.5","","-22.8","","75","","3","","12","","","","98.95","","","","-27","","NA"
"2016-01-28 22:00","2016","01","28","22:00","-20.6","","-24.0","","74","","3","","14","","","","98.97","","","","-29","","NA"
"2016-01-28 23:00","2016","01","28","23:00","-21.8","","-24.8","","76","","3","","5","","","","99.05","","","","-26","","NA"
"2016-01-29 00:00","2016","01","29","00:00","-22.7","","-26.2","","73","","3","","10","","","","99.09","","","","-30","","NA"
"2016-01-29 01:00","2016","01","29","01:00","-23.7","","-27.1","","73","","2","","8","","","","99.07","","","","-31","","NA"
"2016-01-29 02:00","2016","01","29","02:00","-24.6","","-27.9","","74","","4","","8","","","","99.08","","","","-32","","NA"
"2016-01-29 03:00","2016","01","29","03:00","-25.5","","-28.8","","74","","3","","6","","","","99.12","","","","-31","","NA"
"2016-01-29 04:00","2016","01","29","04:00","-26.6","","-29.5","","76","","3","","5","","","","99.12","","","","-32","","NA"
"2016-01-29 05:00","2016","01","29","05:00","-26.9","","-30.0","","75","","4","","8","","","","99.16","","","","-34","","NA"
"2016-01-29 06:00","2016","01","29","06:00","-27.1","","-30.3","","74","","5","","8","","","","99.19","","","","-35","","NA"
"2016-01-29 07:00","2016","01","29","07:00","-27.8","","-31.0","","74","","5","","5","","","","99.21","","","","-33","","NA"
"2016-01-29 08:00","2016","01","29","08:00","-28.6","","-31.8","","74","","3","","7","","","","99.25","","","","-36","","NA"
"2016-01-29 09:00","2016","01","29","09:00","-28.8","","-31.8","","75","","4","","6","","","","99.27","","","","-35","","NA"
"2016-01-29 10:00","2016","01","29","10:00","-26.1","","-29.6","","72","","4","","15","","","","99.12","","","","-37","","NA"
"2016-01-29 11:00","2016","01","29","11:00","-22.9","","-26.8","","70","","3","","11","","","","99.07","","","","-31","","NA"
"2016-01-29 12:00","2016","01","29","12:00","-18.9","","-22.4","","74","","3","","9","","","","98.98","","","","-25","","NA"
"2016-01-29 13:00","2016","01","29","13:00","-14.1","","-17.4","","76","","3","","4","","","","98.87","","","","-17","","NA"
"2016-01-29 14:00","2016","01","29","14:00","-11.1","","-13.7","","81","","15","","7","","","","98.70","","","","-15","","NA"
"2016-01-29 15:00","2016","01","29","15:00","-10.5","","-13.5","","78","","17","","8","","","","98.61","","","","-15","","NA"
"2016-01-29 16:00","2016","01","29","16:00","-10.3","","-14.3","","72","","16","","6","","","","98.52","","","","-14","","NA"
"2016-01-29 17:00","2016","01","29","17:00","-10.2","","-13.7","","76","","16","","12","","","","98.41","","","","-16","","NA"
"2016-01-29 18:00","2016","01","29","18:00","-9.9","","-12.2","","83","","15","","11","","","","98.31","","","","-15","","NA"
"2016-01-29 19:00","2016","01","29","19:00","-9.5","","-11.3","","87","","14","","8","","","","98.11","","","","-14","","NA"
"2016-01-29 20:00","2016","01","29","20:00","-7.5","","-8.9","","89","","16","","11","","","","97.99","","","","-13","","NA"
"2016-01-29 21:00","2016","01","29","21:00","-5.9","","-7.1","","91","","16","","12","","","","97.80","","","","-11","","NA"
"2016-01-29 22:00","2016","01","29","22:00","-4.2","","-5.9","","88","","17","","17","","","","97.62","","","","-10","","NA"
"2016-01-29 23:00","2016","01","29","23:00","-2.8","","-5.3","","83","","19","","23","","","","97.49","","","","-9","","NA"
"2016-01-30 00:00","2016","01","30","00:00","-2.6","","-3.8","","91","","20","","27","","","","97.40","","","","-10","","NA"
"2016-01-30 01:00","2016","01","30","01:00","-2.7","","-3.5","","94","","21","","27","","","","97.26","","","","-10","","NA"
"2016-01-30 02:00","2016","01","30","02:00","-2.5","","-3.2","","95","","22","","22","","","","97.18","","","","-9","","NA"
"2016-01-30 03:00","2016","01","30","03:00","-2.3","","-3.1","","94","","20","","20","","","","97.09","","","","-8","","NA"
"2016-01-30 04:00","2016","01","30","04:00","-2.3","","-3.2","","94","","21","","20","","","","97.00","","","","-8","","NA"
"2016-01-30 05:00","2016","01","30","05:00","-2.0","","-3.2","","91","","22","","17","","","","96.93","","","","-7","","NA"
"2016-01-30 06:00","2016","01","30","06:00","-1.4","","-2.3","","94","","21","","17","","","","96.90","","","","-7","","NA"
"2016-01-30 07:00","2016","01","30","07:00","-0.8","","-1.7","","94","","22","","15","","","","96.83","","","","-5","","NA"
"2016-01-30 08:00","2016","01","30","08:00","0.3","","-0.3","","96","","21","","16","","","","96.82","","","","","","NA"
"2016-01-30 09:00","2016","01","30","09:00","0.6","","0.0","","95","","24","","14","","","","96.84","","","","","","NA"
"2016-01-30 10:00","2016","01","30","10:00","0.9","","0.0","","94","","24","","12","","","","96.84","","","","","","NA"
"2016-01-30 11:00","2016","01","30","11:00","1.2","","0.3","","94","","22","","11","","","","96.83","","","","","","NA"
"2016-01-30 12:00","2016","01","30","12:00","1.9","","0.8","","92","","23","","16","","","","96.85","","","","","","NA"
"2016-01-30 13:00","2016","01","30","13:00","1.9","","0.8","","93","","22","","16","","","","96.80","","","","","","NA"
"2016-01-30 14:00","2016","01","30","14:00","1.9","","0.9","","93","","24","","20","","","","96.80","","","","","","NA"
"2016-01-30 15:00","2016","01","30","15:00","2.0","","0.8","","92","","23","","14","","","","96.82","","","","","","NA"
"2016-01-30 16:00","2016","01","30","16:00","2.1","","0.8","","91","","23","","15","","","","96.89","","","","","","NA"
"2016-01-30 17:00","2016","01","30","17:00","2.2","","0.8","","91","","24","","15","","","","96.95","","","","","","NA"
"2016-01-30 18:00","2016","01","30","18:00","2.0","","0.7","","91","","24","","11","","","","97.01","","","","","","NA"
"2016-01-30 19:00","2016","01","30","19:00","1.7","","0.8","","93","","25","","9","","","","97.09","","","","","","NA"
"2016-01-30 20:00","2016","01","30","20:00","2.3","","1.1","","91","","25","","12","","","","97.14","","","","","","NA"
"2016-01-30 21:00","2016","01","30","21:00","2.3","","1.3","","93","","25","","9","","","","97.15","","","","","","NA"
"2016-01-30 22:00","2016","01","30","22:00","2.3","","0.9","","90","","26","","10","","","","97.20","","","","","","NA"
"2016-01-30 23:00","2016","01","30","23:00","2.0","","0.3","","89","","26","","11","","","","97.24","","","","","","NA"
"2016-01-31 00:00","2016","01","31","00:00","1.8","","0.7","","92","","24","","10","","","","97.30","","","","","","NA"
"2016-01-31 01:00","2016","01","31","01:00","2.2","","0.5","","88","","25","","11","","","","97.36","","","","","","NA"
"2016-01-31 02:00","2016","01","31","02:00","2.1","","0.5","","90","","25","","9","","","","97.39","","","","","","NA"
"2016-01-31 03:00","2016","01","31","03:00","2.0","","0.3","","89","","25","","10","","","","97.43","","","","","","NA"
"2016-01-31 04:00","2016","01","31","04:00","2.1","","-0.4","","84","","28","","10","","","","97.49","","","","","","NA"
"2016-01-31 05:00","2016","01","31","05:00","1.8","","-0.8","","83","","27","","11","","","","97.51","","","","","","NA"
"2016-01-31 06:00","2016","01","31","06:00","0.5","","-1.7","","85","","29","","7","","","","97.53","","","","","","NA"
"2016-01-31 07:00","2016","01","31","07:00","-0.2","","-2.3","","86","","29","","5","","","","97.56","","","","-2","","NA"
"2016-01-31 08:00","2016","01","31","08:00","1.3","","-2.5","","76","","28","","11","","","","97.64","","","","","","NA"
"2016-01-31 09:00","2016","01","31","09:00","-0.8","","-3.5","","82","","28","","6","","","","97.64","","","","-3","","NA"
"2016-01-31 10:00","2016","01","31","10:00","1.3","","-3.1","","73","","27","","7","","","","97.68","","","","","","NA"
"2016-01-31 11:00","2016","01","31","11:00","1.9","","-2.8","","71","","28","","6","","","","97.67","","","","","","NA"
"2016-01-31 12:00","2016","01","31","12:00","1.7","","-1.4","","80","","30","","5","","","","97.69","","","","","","NA"
"2016-01-31 13:00","2016","01","31","13:00","1.8","","-1.3","","80","","25","","6","","","","97.69","","","","","","NA"
"2016-01-31 14:00","2016","01","31","14:00","1.2","","-0.7","","88","","30","","4","","","","97.66","","","","","","NA"
"2016-01-31 15:00","2016","01","31","15:00","1.0","","-0.4","","91","","23","","3","","","","97.65","","","","","","NA"
"2016-01-31 16:00","2016","01","31","16:00","1.1","","-0.5","","89","","0","","1","","","","97.65","","","","","","NA"
"2016-01-31 17:00","2016","01","31","17:00","0.6","","-0.4","","93","","22","","2","","","","97.66","","","","","","NA"
"2016-01-31 18:00","2016","01","31","18:00","-0.1","","-0.8","","95","","5","","4","","","","97.68","","","","-1","","NA"
"2016-01-31 19:00","2016","01","31","19:00","-0.8","","-1.4","","96","","4","","7","","","","97.73","","","","-3","","NA"
"2016-01-31 20:00","2016","01","31","20:00","-1.4","","-2.7","","91","","3","","9","","","","97.82","","","","-5","","NA"
"2016-01-31 21:00","2016","01","31","21:00","-2.5","","-4.1","","89","","3","","13","","","","97.91","","","","-7","","NA"
"2016-01-31 22:00","2016","01","31","22:00","-3.9","","-6.0","","86","","3","","13","","","","97.99","","","","-9","","NA"
"2016-01-31 23:00","2016","01","31","23:00","-5.0","","-7.1","","85","","3","","11","","","","98.08","","","","-10","","NA"
