"Station Name","PUKASKWA (AUT)"
"Province","ONTARIO"
"Latitude","48.59"
"Longitude","-86.29"
"Elevation","207.60"
"Climate Identifier","6046767"
"WMO Identifier","71750"
"TC Identifier","WCJ"
"All times are specified in Local Standard Time (LST). Add 1 hour to adjust for Daylight Saving Time where and when it is observed."

"Legend"
"E","Estimated"
"M","Missing"
"NA","Not Available"

"Date/Time","Year","Month","Day","Time","Temp (°C)","Temp Flag","Dew Point Temp (°C)","Dew Point Temp Flag","Rel Hum (%)","Rel Hum Flag","Wind Dir (10s deg)","Wind Dir Flag","Wind Spd (km/h)","Wind Spd Flag","Visibility (km)","Visibility Flag","Stn Press (kPa)","Stn Press Flag","Hmdx","Hmdx Flag","Wind Chill","Wind Chill Flag","Weather"
"2005-11-01 00:00","2005","11","01","00:00","7.8","","7.8","","100","","31","","9","","","","98.19","","","","","","NA"
"2005-11-01 01:00","2005","11","01","01:00","5.4","","5.4","","100","","2","","15","","","","98.16","","","","","","NA"
"2005-11-01 02:00","2005","11","01","02:00","4.5","","4.5","","100","","36","","15","","","","98.19","","","","","","NA"
"2005-11-01 03:00","2005","11","01","03:00","3.9","","3.9","","100","","34","","11","","","","98.24","","","","","","NA"
"2005-11-01 04:00","2005","11","01","04:00","3.2","","3.2","","100","","1","","7","","","","98.23","","","","","","NA"
"2005-11-01 05:00","2005","11","01","05:00","2.7","","2.7","","100","","1","","4","","","","98.28","","","","","","NA"
"2005-11-01 06:00","2005","11","01","06:00","2.5","","2.5","","100","","36","","6","","","","98.28","","","","","","NA"
"2005-11-01 07:00","2005","11","01","07:00","2.0","","2.0","","100","","36","","9","","","","98.36","","","","","","NA"
"2005-11-01 08:00","2005","11","01","08:00","1.7","","1.7","","100","","1","","7","","","","98.42","","","","","","NA"
"2005-11-01 09:00","2005","11","01","09:00","2.4","","2.3","","99","","3","","2","","","","98.46","","","","","","NA"
"2005-11-01 10:00","2005","11","01","10:00","3.5","","2.4","","92","","1","","7","","","","98.45","","","","","","NA"
"2005-11-01 11:00","2005","11","01","11:00","3.8","","2.1","","89","","4","","9","","","","98.48","","","","","","NA"
"2005-11-01 12:00","2005","11","01","12:00","3.9","","2.1","","88","","35","","6","","","","98.48","","","","","","NA"
"2005-11-01 13:00","2005","11","01","13:00","4.5","","2.2","","85","","34","","4","","","","98.49","","","","","","NA"
"2005-11-01 14:00","2005","11","01","14:00","4.6","","2.1","","84","","32","","7","","","","98.50","","","","","","NA"
"2005-11-01 15:00","2005","11","01","15:00","5.0","","2.3","","83","","32","","7","","","","98.54","","","","","","NA"
"2005-11-01 16:00","2005","11","01","16:00","5.5","","2.0","","78","","31","","6","","","","98.56","","","","","","NA"
"2005-11-01 17:00","2005","11","01","17:00","5.1","","2.1","","81","","15","","2","","","","98.59","","","","","","NA"
"2005-11-01 18:00","2005","11","01","18:00","4.4","","3.7","","95","","10","","6","","","","98.64","","","","","","NA"
"2005-11-01 19:00","2005","11","01","19:00","3.7","","3.7","","100","","11","","4","","","","98.69","","","","","","NA"
"2005-11-01 20:00","2005","11","01","20:00","2.8","","2.8","","100","","8","","11","","","","98.69","","","","","","NA"
"2005-11-01 21:00","2005","11","01","21:00","2.4","","2.4","","100","","8","","9","","","","98.73","","","","","","NA"
"2005-11-01 22:00","2005","11","01","22:00","1.5","","1.5","","100","","7","","11","","","","98.73","","","","","","NA"
"2005-11-01 23:00","2005","11","01","23:00","1.3","","1.3","","100","","7","","11","","","","98.70","","","","","","NA"
"2005-11-02 00:00","2005","11","02","00:00","6.8","","5.5","","91","","22","","24","","","","98.68","","","","","","NA"
"2005-11-02 01:00","2005","11","02","01:00","7.3","","6.5","","95","","23","","30","","","","98.70","","","","","","NA"
"2005-11-02 02:00","2005","11","02","02:00","7.6","","7.0","","96","","24","","26","","","","98.74","","","","","","NA"
"2005-11-02 03:00","2005","11","02","03:00","7.9","","7.1","","95","","25","","26","","","","98.75","","","","","","NA"
"2005-11-02 04:00","2005","11","02","04:00","7.8","","7.2","","96","","24","","26","","","","98.73","","","","","","NA"
"2005-11-02 05:00","2005","11","02","05:00","6.8","","3.3","","78","","24","","22","","","","98.78","","","","","","NA"
"2005-11-02 06:00","2005","11","02","06:00","5.1","","4.0","","93","","28","","13","","","","98.87","","","","","","NA"
"2005-11-02 07:00","2005","11","02","07:00","4.3","","4.3","","100","","7","","7","","","","98.83","","","","","","NA"
"2005-11-02 08:00","2005","11","02","08:00","6.6","","4.7","","88","","23","","22","","","","98.86","","","","","","NA"
"2005-11-02 09:00","2005","11","02","09:00","5.1","","4.9","","99","","8","","9","","","","98.83","","","","","","NA"
"2005-11-02 10:00","2005","11","02","10:00","5.9","","5.0","","94","","9","","11","","","","98.83","","","","","","NA"
"2005-11-02 11:00","2005","11","02","11:00","9.4","","6.6","","83","","15","","7","","","","98.84","","","","","","NA"
"2005-11-02 12:00","2005","11","02","12:00","10.1","","6.1","","76","","18","","13","","","","98.84","","","","","","NA"
"2005-11-02 13:00","2005","11","02","13:00","8.5","","6.3","","86","","18","","17","","","","98.75","","","","","","NA"
"2005-11-02 14:00","2005","11","02","14:00","8.7","","4.8","","76","","18","","24","","","","98.59","","","","","","NA"
"2005-11-02 15:00","2005","11","02","15:00","8.7","","7.4","","92","","19","","28","","","","98.49","","","","","","NA"
"2005-11-02 16:00","2005","11","02","16:00","8.0","","7.7","","98","","17","","30","","","","98.41","","","","","","NA"
"2005-11-02 17:00","2005","11","02","17:00","7.6","","7.6","","100","","18","","24","","","","98.29","","","","","","NA"
"2005-11-02 18:00","2005","11","02","18:00","7.0","","7.0","","100","","17","","28","","","","98.13","","","","","","NA"
"2005-11-02 19:00","2005","11","02","19:00","6.4","","6.4","","100","","9","","15","","","","98.09","","","","","","NA"
"2005-11-02 20:00","2005","11","02","20:00","6.5","","6.5","","100","","9","","19","","","","97.96","","","","","","NA"
"2005-11-02 21:00","2005","11","02","21:00","6.9","","6.9","","100","","11","","13","","","","97.75","","","","","","NA"
"2005-11-02 22:00","2005","11","02","22:00","9.0","","9.0","","100","","17","","39","","","","97.52","","","","","","NA"
"2005-11-02 23:00","2005","11","02","23:00","9.9","","8.7","","92","","19","","44","","","","97.40","","","","","","NA"
"2005-11-03 00:00","2005","11","03","00:00","10.0","","8.6","","91","","19","","35","","","","97.31","","","","","","NA"
"2005-11-03 01:00","2005","11","03","01:00","9.8","","8.9","","94","","19","","32","","","","97.28","","","","","","NA"
"2005-11-03 02:00","2005","11","03","02:00","9.4","","8.8","","96","","25","","22","","","","97.26","","","","","","NA"
"2005-11-03 03:00","2005","11","03","03:00","9.6","","8.9","","95","","29","","22","","","","97.34","","","","","","NA"
"2005-11-03 04:00","2005","11","03","04:00","9.3","","8.5","","95","","31","","15","","","","97.39","","","","","","NA"
"2005-11-03 05:00","2005","11","03","05:00","7.5","","6.8","","95","","34","","13","","","","97.49","","","","","","NA"
"2005-11-03 06:00","2005","11","03","06:00","4.3","","4.1","","99","","1","","17","","","","97.70","","","","","","NA"
"2005-11-03 07:00","2005","11","03","07:00","2.5","","2.2","","98","","2","","13","","","","97.88","","","","","","NA"
"2005-11-03 08:00","2005","11","03","08:00","2.1","","1.5","","96","","5","","13","","","","98.11","","","","","","NA"
"2005-11-03 09:00","2005","11","03","09:00","2.3","","1.4","","94","","5","","11","","","","98.33","","","","","","NA"
"2005-11-03 10:00","2005","11","03","10:00","2.8","","1.2","","89","","4","","19","","","","98.50","","","","","","NA"
"2005-11-03 11:00","2005","11","03","11:00","3.0","","1.3","","89","","3","","19","","","","98.64","","","","","","NA"
"2005-11-03 12:00","2005","11","03","12:00","3.1","","0.7","","84","","4","","15","","","","98.74","","","","","","NA"
"2005-11-03 13:00","2005","11","03","13:00","3.7","","0.9","","82","","5","","15","","","","98.80","","","","","","NA"
"2005-11-03 14:00","2005","11","03","14:00","4.5","","0.7","","76","","5","","19","","","","98.88","","","","","","NA"
"2005-11-03 15:00","2005","11","03","15:00","4.3","","0.7","","77","","5","","13","","","","98.95","","","","","","NA"
"2005-11-03 16:00","2005","11","03","16:00","3.2","","-0.2","","78","","6","","20","","","","99.00","","","","","","NA"
"2005-11-03 17:00","2005","11","03","17:00","1.7","","-0.1","","88","","5","","19","","","","99.00","","","","","","NA"
"2005-11-03 18:00","2005","11","03","18:00","0.9","","-0.1","","93","","4","","17","","","","99.04","","","","","","NA"
"2005-11-03 19:00","2005","11","03","19:00","0.7","","-0.4","","92","","5","","17","","","","99.05","","","","","","NA"
"2005-11-03 20:00","2005","11","03","20:00","0.8","","-0.8","","89","","5","","22","","","","99.03","","","","","","NA"
"2005-11-03 21:00","2005","11","03","21:00","0.9","","-0.7","","89","","5","","17","","","","98.98","","","","","","NA"
"2005-11-03 22:00","2005","11","03","22:00","1.2","","-0.8","","86","","7","","22","","","","98.94","","","","","","NA"
"2005-11-03 23:00","2005","11","03","23:00","1.3","","-0.4","","88","","8","","13","","","","98.95","","","","","","NA"
"2005-11-04 00:00","2005","11","04","00:00","1.4","","-0.6","","87","","8","","13","","","","98.91","","","","","","NA"
"2005-11-04 01:00","2005","11","04","01:00","1.5","","-0.6","","86","","8","","24","","","","98.76","","","","","","NA"
"2005-11-04 02:00","2005","11","04","02:00","1.2","","-0.5","","88","","7","","24","","","","98.59","","","","","","NA"
"2005-11-04 03:00","2005","11","04","03:00","0.9","","-0.4","","91","","7","","22","","","","98.54","","","","","","NA"
"2005-11-04 04:00","2005","11","04","04:00","0.9","","0.3","","96","","8","","22","","","","98.42","","","","","","NA"
"2005-11-04 05:00","2005","11","04","05:00","1.0","","-0.2","","92","","8","","28","","","","98.32","","","","","","NA"
"2005-11-04 06:00","2005","11","04","06:00","1.1","","-0.2","","91","","9","","32","","","","98.29","","","","","","NA"
"2005-11-04 07:00","2005","11","04","07:00","0.7","","0.6","","99","","8","","22","","","","98.25","","","","","","NA"
"2005-11-04 08:00","2005","11","04","08:00","0.1","","0.1","","100","","6","","22","","","","98.26","","","","","","NA"
"2005-11-04 09:00","2005","11","04","09:00","0.1","","0.1","","100","","7","","28","","","","98.20","","","","","","NA"
"2005-11-04 10:00","2005","11","04","10:00","0.2","","0.2","","100","","6","","26","","","","98.17","","","","","","NA"
"2005-11-04 11:00","2005","11","04","11:00","0.2","","0.2","","100","","6","","28","","","","98.17","","","","","","NA"
"2005-11-04 12:00","2005","11","04","12:00","0.4","","0.4","","100","","6","","13","","","","98.23","","","","","","NA"
"2005-11-04 13:00","2005","11","04","13:00","0.7","","0.7","","100","","6","","13","","","","98.24","","","","","","NA"
"2005-11-04 14:00","2005","11","04","14:00","0.9","","0.3","","96","","7","","22","","","","98.27","","","","","","NA"
"2005-11-04 15:00","2005","11","04","15:00","0.6","","0.1","","96","","5","","11","","","","98.36","","","","","","NA"
"2005-11-04 16:00","2005","11","04","16:00","0.3","","0.0","","98","","5","","17","","","","98.42","","","","","","NA"
"2005-11-04 17:00","2005","11","04","17:00","0.0","","-0.2","","99","","5","","22","","","","98.50","","","","-6","","NA"
"2005-11-04 18:00","2005","11","04","18:00","0.0","","0.0","","100","","5","","15","","","","98.57","","","","-4","","NA"
"2005-11-04 19:00","2005","11","04","19:00","0.0","","-0.1","","99","","6","","15","","","","98.63","","","","-4","","NA"
"2005-11-04 20:00","2005","11","04","20:00","-0.2","","-0.3","","99","","4","","15","","","","98.67","","","","-5","","NA"
"2005-11-04 21:00","2005","11","04","21:00","-0.3","","-0.6","","98","","6","","11","","","","98.74","","","","-4","","NA"
"2005-11-04 22:00","2005","11","04","22:00","-0.4","","-0.9","","96","","5","","9","","","","98.81","","","","-4","","NA"
"2005-11-04 23:00","2005","11","04","23:00","-0.4","","-1.3","","94","","6","","11","","","","98.90","","","","-4","","NA"
"2005-11-05 00:00","2005","11","05","00:00","-0.9","","-1.1","","99","","3","","11","","","","98.92","","","","-5","","NA"
"2005-11-05 01:00","2005","11","05","01:00","-1.2","","-1.7","","96","","5","","19","","","","98.91","","","","-7","","NA"
"2005-11-05 02:00","2005","11","05","02:00","-1.4","","-2.2","","94","","6","","13","","","","98.95","","","","-6","","NA"
"2005-11-05 03:00","2005","11","05","03:00","-1.5","","-2.1","","96","","6","","11","","","","98.99","","","","-5","","NA"
"2005-11-05 04:00","2005","11","05","04:00","-1.6","","-1.8","","99","","5","","13","","","","98.96","","","","-6","","NA"
"2005-11-05 05:00","2005","11","05","05:00","-1.6","","-1.7","","99","","6","","13","","","","99.03","","","","-6","","NA"
"2005-11-05 06:00","2005","11","05","06:00","-1.5","","-1.7","","99","","5","","17","","","","99.02","","","","-7","","NA"
"2005-11-05 07:00","2005","11","05","07:00","-1.4","","-1.6","","99","","6","","19","","","","99.05","","","","-7","","NA"
"2005-11-05 08:00","2005","11","05","08:00","-1.2","","-1.4","","99","","6","","13","","","","99.10","","","","-5","","NA"
"2005-11-05 09:00","2005","11","05","09:00","-0.4","","-1.5","","92","","9","","17","","","","99.15","","","","-5","","NA"
"2005-11-05 10:00","2005","11","05","10:00","-0.1","","-1.6","","90","","9","","15","","","","99.18","","","","-5","","NA"
"2005-11-05 11:00","2005","11","05","11:00","-0.2","","-1.5","","91","","8","","15","","","","99.16","","","","-5","","NA"
"2005-11-05 12:00","2005","11","05","12:00","0.1","","-1.7","","88","","9","","17","","","","99.25","","","","","","NA"
"2005-11-05 13:00","2005","11","05","13:00","0.8","","-1.2","","86","","7","","15","","","","99.22","","","","","","NA"
"2005-11-05 14:00","2005","11","05","14:00","0.9","","-1.3","","85","","9","","13","","","","99.22","","","","","","NA"
"2005-11-05 15:00","2005","11","05","15:00","0.8","","-1.6","","84","","9","","15","","","","99.24","","","","","","NA"
"2005-11-05 16:00","2005","11","05","16:00","0.6","","-1.6","","85","","7","","11","","","","99.29","","","","","","NA"
"2005-11-05 17:00","2005","11","05","17:00","0.5","","-0.7","","92","","9","","11","","","","99.28","","","","","","NA"
"2005-11-05 18:00","2005","11","05","18:00","-0.2","","-0.2","","100","","7","","9","","","","99.31","","","","-3","","NA"
"2005-11-05 19:00","2005","11","05","19:00","-0.4","","-1.1","","95","","5","","11","","","","99.27","","","","-4","","NA"
"2005-11-05 20:00","2005","11","05","20:00","-0.6","","-1.6","","93","","6","","15","","","","99.17","","","","-5","","NA"
"2005-11-05 21:00","2005","11","05","21:00","-0.6","","-1.9","","91","","7","","13","","","","99.22","","","","-5","","NA"
"2005-11-05 22:00","2005","11","05","22:00","-0.6","","-1.8","","92","","10","","15","","","","99.25","","","","-5","","NA"
"2005-11-05 23:00","2005","11","05","23:00","-0.8","","-2.2","","90","","9","","17","","","","99.15","","","","-6","","NA"
"2005-11-06 00:00","2005","11","06","00:00","-0.9","","-2.0","","92","","8","","11","","","","99.14","","","","-5","","NA"
"2005-11-06 01:00","2005","11","06","01:00","-1.2","","-2.3","","92","","5","","9","","","","99.07","","","","-4","","NA"
"2005-11-06 02:00","2005","11","06","02:00","-1.3","","-2.4","","92","","7","","17","","","","98.98","","","","-6","","NA"
"2005-11-06 03:00","2005","11","06","03:00","-1.4","","-2.5","","92","","5","","15","","","","98.86","","","","-6","","NA"
"2005-11-06 04:00","2005","11","06","04:00","-1.8","","-2.7","","94","","5","","15","","","","98.78","","","","-7","","NA"
"2005-11-06 05:00","2005","11","06","05:00","-2.0","","-2.9","","94","","5","","20","","","","98.64","","","","-8","","NA"
"2005-11-06 06:00","2005","11","06","06:00","-2.1","","-3.0","","94","","5","","19","","","","98.59","","","","-8","","NA"
"2005-11-06 07:00","2005","11","06","07:00","-2.2","","-3.1","","94","","5","","20","","","","98.50","","","","-8","","NA"
"2005-11-06 08:00","2005","11","06","08:00","-2.1","","-3.1","","93","","5","","20","","","","98.45","","","","-8","","NA"
"2005-11-06 09:00","2005","11","06","09:00","-2.0","","-2.8","","94","","5","","20","","","","98.35","","","","-8","","NA"
"2005-11-06 10:00","2005","11","06","10:00","-1.8","","-3.0","","91","","4","","19","","","","98.19","","","","-7","","NA"
"2005-11-06 11:00","2005","11","06","11:00","-1.5","","-3.3","","88","","5","","20","","","","98.12","","","","-7","","NA"
"2005-11-06 12:00","2005","11","06","12:00","-1.1","","-3.2","","86","","5","","30","","","","98.01","","","","-8","","NA"
"2005-11-06 13:00","2005","11","06","13:00","-1.0","","-3.2","","85","","2","","20","","","","97.98","","","","-7","","NA"
"2005-11-06 14:00","2005","11","06","14:00","-1.0","","-2.9","","87","","2","","20","","","","98.00","","","","-7","","NA"
"2005-11-06 15:00","2005","11","06","15:00","-0.9","","-2.9","","86","","1","","17","","","","98.05","","","","-6","","NA"
"2005-11-06 16:00","2005","11","06","16:00","-0.6","","-2.7","","86","","34","","17","","","","98.14","","","","-6","","NA"
"2005-11-06 17:00","2005","11","06","17:00","-1.0","","-3.0","","86","","35","","20","","","","98.21","","","","-7","","NA"
"2005-11-06 18:00","2005","11","06","18:00","-1.5","","-3.3","","88","","1","","20","","","","98.29","","","","-7","","NA"
"2005-11-06 19:00","2005","11","06","19:00","-1.7","","-3.1","","90","","36","","11","","","","98.41","","","","-6","","NA"
"2005-11-06 20:00","2005","11","06","20:00","-2.0","","-3.4","","90","","1","","13","","","","98.47","","","","-6","","NA"
"2005-11-06 21:00","2005","11","06","21:00","-2.1","","-3.3","","91","","35","","9","","","","98.60","","","","-6","","NA"
"2005-11-06 22:00","2005","11","06","22:00","-2.4","","-3.6","","91","","2","","11","","","","98.60","","","","-6","","NA"
"2005-11-06 23:00","2005","11","06","23:00","-2.5","","-3.6","","92","","34","","11","","","","98.67","","","","-7","","NA"
"2005-11-07 00:00","2005","11","07","00:00","-2.4","","-3.6","","91","","2","","11","","","","98.74","","","","-6","","NA"
"2005-11-07 01:00","2005","11","07","01:00","-2.5","","-3.8","","91","","4","","6","","","","98.81","","","","-5","","NA"
"2005-11-07 02:00","2005","11","07","02:00","-2.4","","-3.7","","91","","4","","7","","","","98.86","","","","-5","","NA"
"2005-11-07 03:00","2005","11","07","03:00","-2.4","","-3.6","","91","","4","","2","","","","98.93","","","","-3","","NA"
"2005-11-07 04:00","2005","11","07","04:00","-1.8","","-2.8","","93","","1","","6","","","","98.93","","","","-4","","NA"
"2005-11-07 05:00","2005","11","07","05:00","-1.9","","-2.8","","94","","7","","6","","","","98.95","","","","-4","","NA"
"2005-11-07 06:00","2005","11","07","06:00","-2.1","","-3.1","","93","","4","","6","","","","98.98","","","","-4","","NA"
"2005-11-07 07:00","2005","11","07","07:00","-2.3","","-3.3","","93","","2","","7","","","","98.99","","","","-5","","NA"
"2005-11-07 08:00","2005","11","07","08:00","-2.4","","-3.0","","96","","5","","11","","","","99.01","","","","-6","","NA"
"2005-11-07 09:00","2005","11","07","09:00","-2.1","","-2.6","","96","","7","","9","","","","99.03","","","","-6","","NA"
"2005-11-07 10:00","2005","11","07","10:00","-0.6","","-1.6","","93","","8","","9","","","","98.99","","","","-4","","NA"
"2005-11-07 11:00","2005","11","07","11:00","0.7","","-1.1","","88","","7","","9","","","","98.99","","","","","","NA"
"2005-11-07 12:00","2005","11","07","12:00","0.8","","-1.2","","86","","3","","7","","","","98.98","","","","","","NA"
"2005-11-07 13:00","2005","11","07","13:00","2.4","","0.9","","90","","11","","11","","","","98.86","","","","","","NA"
"2005-11-07 14:00","2005","11","07","14:00","2.8","","0.8","","87","","6","","7","","","","98.85","","","","","","NA"
"2005-11-07 15:00","2005","11","07","15:00","2.8","","0.7","","86","","4","","9","","","","98.82","","","","","","NA"
"2005-11-07 16:00","2005","11","07","16:00","2.5","","0.6","","87","","3","","15","","","","98.84","","","","","","NA"
"2005-11-07 17:00","2005","11","07","17:00","2.3","","1.0","","91","","5","","13","","","","98.88","","","","","","NA"
"2005-11-07 18:00","2005","11","07","18:00","1.9","","1.3","","96","","7","","13","","","","98.91","","","","","","NA"
"2005-11-07 19:00","2005","11","07","19:00","1.7","","1.1","","96","","7","","13","","","","98.93","","","","","","NA"
"2005-11-07 20:00","2005","11","07","20:00","2.0","","1.6","","97","","9","","19","","","","98.93","","","","","","NA"
"2005-11-07 21:00","2005","11","07","21:00","1.0","","0.8","","99","","7","","11","","","","99.02","","","","","","NA"
"2005-11-07 22:00","2005","11","07","22:00","1.7","","1.6","","99","","7","","13","","","","99.05","","","","","","NA"
"2005-11-07 23:00","2005","11","07","23:00","1.8","","1.8","","100","","6","","13","","","","99.09","","","","","","NA"
"2005-11-08 00:00","2005","11","08","00:00","2.1","","2.1","","100","","7","","13","","","","99.14","","","","","","NA"
"2005-11-08 01:00","2005","11","08","01:00","2.2","","2.2","","100","","7","","11","","","","99.18","","","","","","NA"
"2005-11-08 02:00","2005","11","08","02:00","2.3","","2.3","","100","","7","","11","","","","99.21","","","","","","NA"
"2005-11-08 03:00","2005","11","08","03:00","1.3","","1.3","","100","","5","","11","","","","99.23","","","","","","NA"
"2005-11-08 04:00","2005","11","08","04:00","1.2","","1.2","","100","","9","","11","","","","99.30","","","","","","NA"
"2005-11-08 05:00","2005","11","08","05:00","1.7","","1.7","","100","","5","","17","","","","99.34","","","","","","NA"
"2005-11-08 06:00","2005","11","08","06:00","1.6","","1.6","","100","","8","","13","","","","99.40","","","","","","NA"
"2005-11-08 07:00","2005","11","08","07:00","1.0","","1.0","","100","","5","","20","","","","99.45","","","","","","NA"
"2005-11-08 08:00","2005","11","08","08:00","0.8","","0.8","","100","","7","","20","","","","99.54","","","","","","NA"
"2005-11-08 09:00","2005","11","08","09:00","0.9","","0.2","","95","","6","","15","","","","99.59","","","","","","NA"
"2005-11-08 10:00","2005","11","08","10:00","2.2","","-1.6","","76","","7","","24","","","","99.58","","","","","","NA"
"2005-11-08 11:00","2005","11","08","11:00","3.1","","-2.7","","66","","8","","22","","","","99.62","","","","","","NA"
"2005-11-08 12:00","2005","11","08","12:00","4.2","","-2.8","","60","","9","","26","","","","99.56","","","","","","NA"
"2005-11-08 13:00","2005","11","08","13:00","5.5","","-3.0","","54","","9","","17","","","","99.54","","","","","","NA"
"2005-11-08 14:00","2005","11","08","14:00","6.7","","-2.6","","51","","12","","15","","","","99.53","","","","","","NA"
"2005-11-08 15:00","2005","11","08","15:00","5.3","","-2.2","","58","","8","","11","","","","99.51","","","","","","NA"
"2005-11-08 16:00","2005","11","08","16:00","4.9","","-1.7","","62","","8","","13","","","","99.50","","","","","","NA"
"2005-11-08 17:00","2005","11","08","17:00","4.4","","-1.4","","66","","9","","17","","","","99.42","","","","","","NA"
"2005-11-08 18:00","2005","11","08","18:00","3.7","","-1.1","","71","","9","","22","","","","99.34","","","","","","NA"
"2005-11-08 19:00","2005","11","08","19:00","3.1","","-1.1","","74","","9","","30","","","","99.20","","","","","","NA"
"2005-11-08 20:00","2005","11","08","20:00","2.8","","-0.7","","78","","9","","24","","","","99.10","","","","","","NA"
"2005-11-08 21:00","2005","11","08","21:00","2.8","","-0.3","","80","","10","","26","","","","98.98","","","","","","NA"
"2005-11-08 22:00","2005","11","08","22:00","3.0","","0.9","","86","","10","","22","","","","98.85","","","","","","NA"
"2005-11-08 23:00","2005","11","08","23:00","2.8","","2.6","","99","","10","","22","","","","98.69","","","","","","NA"
"2005-11-09 00:00","2005","11","09","00:00","3.2","","3.2","","100","","10","","17","","","","98.58","","","","","","NA"
"2005-11-09 01:00","2005","11","09","01:00","3.4","","3.4","","100","","10","","26","","","","98.47","","","","","","NA"
"2005-11-09 02:00","2005","11","09","02:00","2.8","","2.8","","100","","9","","24","","","","98.04","","","","","","NA"
"2005-11-09 03:00","2005","11","09","03:00","2.8","","2.8","","100","","10","","28","","","","97.71","","","","","","NA"
"2005-11-09 04:00","2005","11","09","04:00","3.6","","3.6","","100","","10","","30","","","","97.50","","","","","","NA"
"2005-11-09 05:00","2005","11","09","05:00","3.4","","3.4","","100","","10","","39","","","","97.05","","","","","","NA"
"2005-11-09 06:00","2005","11","09","06:00","3.8","","3.8","","100","","11","","22","","","","96.90","","","","","","NA"
"2005-11-09 07:00","2005","11","09","07:00","5.4","","5.4","","100","","14","","32","","","","96.63","","","","","","NA"
"2005-11-09 08:00","2005","11","09","08:00","6.3","","6.3","","100","","16","","37","","","","96.45","","","","","","NA"
"2005-11-09 09:00","2005","11","09","09:00","6.0","","5.7","","98","","26","","39","","","","96.47","","","","","","NA"
"2005-11-09 10:00","2005","11","09","10:00","6.2","","4.0","","86","","25","","44","","","","96.40","","","","","","NA"
"2005-11-09 11:00","2005","11","09","11:00","5.7","","3.0","","83","","24","","43","","","","96.33","","","","","","NA"
"2005-11-09 12:00","2005","11","09","12:00","5.9","","4.5","","91","","24","","35","","","","96.25","","","","","","NA"
"2005-11-09 13:00","2005","11","09","13:00","4.7","","4.4","","98","","26","","30","","","","96.22","","","","","","NA"
"2005-11-09 14:00","2005","11","09","14:00","4.1","","3.9","","99","","29","","30","","","","96.20","","","","","","NA"
"2005-11-09 15:00","2005","11","09","15:00","4.8","","2.4","","84","","29","","48","","","","96.21","","","","","","NA"
"2005-11-09 16:00","2005","11","09","16:00","2.6","","0.7","","87","","32","","41","","","","96.42","","","","","","NA"
"2005-11-09 17:00","2005","11","09","17:00","0.7","","-2.4","","80","","34","","35","","","","96.78","","","","","","NA"
"2005-11-09 18:00","2005","11","09","18:00","0.0","","-2.0","","86","","34","","24","","","","97.10","","","","-6","","NA"
"2005-11-09 19:00","2005","11","09","19:00","-0.1","","-3.4","","78","","35","","26","","","","97.45","","","","-6","","NA"
"2005-11-09 20:00","2005","11","09","20:00","0.1","","-4.3","","72","","34","","30","","","","97.69","","","","","","NA"
"2005-11-09 21:00","2005","11","09","21:00","0.2","","-3.7","","75","","34","","24","","","","97.86","","","","","","NA"
"2005-11-09 22:00","2005","11","09","22:00","0.2","","-3.0","","79","","34","","28","","","","98.02","","","","","","NA"
"2005-11-09 23:00","2005","11","09","23:00","0.2","","-3.5","","76","","34","","20","","","","98.17","","","","","","NA"
"2005-11-10 00:00","2005","11","10","00:00","0.0","","-3.7","","76","","35","","20","","","","98.27","","","","-5","","NA"
"2005-11-10 01:00","2005","11","10","01:00","-0.2","","-4.1","","75","","34","","28","","","","98.38","","","","-7","","NA"
"2005-11-10 02:00","2005","11","10","02:00","-0.5","","-4.7","","73","","34","","28","","","","98.55","","","","-7","","NA"
"2005-11-10 03:00","2005","11","10","03:00","-1.2","","-3.5","","84","","34","","24","","","","98.68","","","","-7","","NA"
"2005-11-10 04:00","2005","11","10","04:00","-1.6","","-5.7","","74","","34","","26","","","","98.79","","","","-8","","NA"
"2005-11-10 05:00","2005","11","10","05:00","-2.0","","-6.3","","72","","34","","20","","","","98.86","","","","-8","","NA"
"2005-11-10 06:00","2005","11","10","06:00","-2.1","","-6.1","","74","","35","","19","","","","98.88","","","","-8","","NA"
"2005-11-10 07:00","2005","11","10","07:00","-2.4","","-5.5","","79","","35","","19","","","","98.95","","","","-8","","NA"
"2005-11-10 08:00","2005","11","10","08:00","-2.3","","-6.1","","75","","36","","13","","","","99.00","","","","-7","","NA"
"2005-11-10 09:00","2005","11","10","09:00","-2.1","","-6.3","","73","","36","","15","","","","99.06","","","","-7","","NA"
"2005-11-10 10:00","2005","11","10","10:00","-1.3","","-5.7","","72","","36","","9","","","","99.09","","","","-5","","NA"
"2005-11-10 11:00","2005","11","10","11:00","-0.2","","-4.3","","74","","33","","13","","","","99.07","","","","-4","","NA"
"2005-11-10 12:00","2005","11","10","12:00","0.2","","-3.8","","74","","33","","15","","","","99.03","","","","","","NA"
"2005-11-10 13:00","2005","11","10","13:00","0.3","","-4.0","","73","","33","","13","","","","98.98","","","","","","NA"
"2005-11-10 14:00","2005","11","10","14:00"
"2005-11-10 15:00","2005","11","10","15:00"
"2005-11-10 16:00","2005","11","10","16:00"
"2005-11-10 17:00","2005","11","10","17:00"
"2005-11-10 18:00","2005","11","10","18:00"
"2005-11-10 19:00","2005","11","10","19:00"
"2005-11-10 20:00","2005","11","10","20:00"
"2005-11-10 21:00","2005","11","10","21:00"
"2005-11-10 22:00","2005","11","10","22:00"
"2005-11-10 23:00","2005","11","10","23:00"
"2005-11-11 00:00","2005","11","11","00:00"
"2005-11-11 01:00","2005","11","11","01:00"
"2005-11-11 02:00","2005","11","11","02:00"
"2005-11-11 03:00","2005","11","11","03:00"
"2005-11-11 04:00","2005","11","11","04:00"
"2005-11-11 05:00","2005","11","11","05:00"
"2005-11-11 06:00","2005","11","11","06:00"
"2005-11-11 07:00","2005","11","11","07:00"
"2005-11-11 08:00","2005","11","11","08:00"
"2005-11-11 09:00","2005","11","11","09:00"
"2005-11-11 10:00","2005","11","11","10:00"
"2005-11-11 11:00","2005","11","11","11:00"
"2005-11-11 12:00","2005","11","11","12:00"
"2005-11-11 13:00","2005","11","11","13:00"
"2005-11-11 14:00","2005","11","11","14:00"
"2005-11-11 15:00","2005","11","11","15:00"
"2005-11-11 16:00","2005","11","11","16:00"
"2005-11-11 17:00","2005","11","11","17:00"
"2005-11-11 18:00","2005","11","11","18:00"
"2005-11-11 19:00","2005","11","11","19:00"
"2005-11-11 20:00","2005","11","11","20:00"
"2005-11-11 21:00","2005","11","11","21:00"
"2005-11-11 22:00","2005","11","11","22:00"
"2005-11-11 23:00","2005","11","11","23:00"
"2005-11-12 00:00","2005","11","12","00:00"
"2005-11-12 01:00","2005","11","12","01:00"
"2005-11-12 02:00","2005","11","12","02:00"
"2005-11-12 03:00","2005","11","12","03:00"
"2005-11-12 04:00","2005","11","12","04:00"
"2005-11-12 05:00","2005","11","12","05:00"
"2005-11-12 06:00","2005","11","12","06:00"
"2005-11-12 07:00","2005","11","12","07:00"
"2005-11-12 08:00","2005","11","12","08:00"
"2005-11-12 09:00","2005","11","12","09:00"
"2005-11-12 10:00","2005","11","12","10:00"
"2005-11-12 11:00","2005","11","12","11:00"
"2005-11-12 12:00","2005","11","12","12:00"
"2005-11-12 13:00","2005","11","12","13:00"
"2005-11-12 14:00","2005","11","12","14:00"
"2005-11-12 15:00","2005","11","12","15:00"
"2005-11-12 16:00","2005","11","12","16:00"
"2005-11-12 17:00","2005","11","12","17:00"
"2005-11-12 18:00","2005","11","12","18:00"
"2005-11-12 19:00","2005","11","12","19:00"
"2005-11-12 20:00","2005","11","12","20:00"
"2005-11-12 21:00","2005","11","12","21:00"
"2005-11-12 22:00","2005","11","12","22:00"
"2005-11-12 23:00","2005","11","12","23:00"
"2005-11-13 00:00","2005","11","13","00:00"
"2005-11-13 01:00","2005","11","13","01:00"
"2005-11-13 02:00","2005","11","13","02:00"
"2005-11-13 03:00","2005","11","13","03:00"
"2005-11-13 04:00","2005","11","13","04:00"
"2005-11-13 05:00","2005","11","13","05:00"
"2005-11-13 06:00","2005","11","13","06:00"
"2005-11-13 07:00","2005","11","13","07:00"
"2005-11-13 08:00","2005","11","13","08:00"
"2005-11-13 09:00","2005","11","13","09:00"
"2005-11-13 10:00","2005","11","13","10:00"
"2005-11-13 11:00","2005","11","13","11:00"
"2005-11-13 12:00","2005","11","13","12:00"
"2005-11-13 13:00","2005","11","13","13:00"
"2005-11-13 14:00","2005","11","13","14:00"
"2005-11-13 15:00","2005","11","13","15:00"
"2005-11-13 16:00","2005","11","13","16:00"
"2005-11-13 17:00","2005","11","13","17:00"
"2005-11-13 18:00","2005","11","13","18:00"
"2005-11-13 19:00","2005","11","13","19:00"
"2005-11-13 20:00","2005","11","13","20:00"
"2005-11-13 21:00","2005","11","13","21:00"
"2005-11-13 22:00","2005","11","13","22:00"
"2005-11-13 23:00","2005","11","13","23:00"
"2005-11-14 00:00","2005","11","14","00:00"
"2005-11-14 01:00","2005","11","14","01:00"
"2005-11-14 02:00","2005","11","14","02:00"
"2005-11-14 03:00","2005","11","14","03:00"
"2005-11-14 04:00","2005","11","14","04:00"
"2005-11-14 05:00","2005","11","14","05:00"
"2005-11-14 06:00","2005","11","14","06:00"
"2005-11-14 07:00","2005","11","14","07:00"
"2005-11-14 08:00","2005","11","14","08:00"
"2005-11-14 09:00","2005","11","14","09:00"
"2005-11-14 10:00","2005","11","14","10:00"
"2005-11-14 11:00","2005","11","14","11:00"
"2005-11-14 12:00","2005","11","14","12:00"
"2005-11-14 13:00","2005","11","14","13:00"
"2005-11-14 14:00","2005","11","14","14:00"
"2005-11-14 15:00","2005","11","14","15:00"
"2005-11-14 16:00","2005","11","14","16:00"
"2005-11-14 17:00","2005","11","14","17:00"
"2005-11-14 18:00","2005","11","14","18:00"
"2005-11-14 19:00","2005","11","14","19:00"
"2005-11-14 20:00","2005","11","14","20:00"
"2005-11-14 21:00","2005","11","14","21:00"
"2005-11-14 22:00","2005","11","14","22:00"
"2005-11-14 23:00","2005","11","14","23:00"
"2005-11-15 00:00","2005","11","15","00:00"
"2005-11-15 01:00","2005","11","15","01:00"
"2005-11-15 02:00","2005","11","15","02:00"
"2005-11-15 03:00","2005","11","15","03:00"
"2005-11-15 04:00","2005","11","15","04:00"
"2005-11-15 05:00","2005","11","15","05:00"
"2005-11-15 06:00","2005","11","15","06:00"
"2005-11-15 07:00","2005","11","15","07:00"
"2005-11-15 08:00","2005","11","15","08:00"
"2005-11-15 09:00","2005","11","15","09:00"
"2005-11-15 10:00","2005","11","15","10:00"
"2005-11-15 11:00","2005","11","15","11:00"
"2005-11-15 12:00","2005","11","15","12:00"
"2005-11-15 13:00","2005","11","15","13:00"
"2005-11-15 14:00","2005","11","15","14:00"
"2005-11-15 15:00","2005","11","15","15:00","0.4","","-1.5","","87","","6","","20","","","","99.31","","","","","","NA"
"2005-11-15 16:00","2005","11","15","16:00","0.1","","-1.1","","92","","7","","20","","","","99.18","","","","","","NA"
"2005-11-15 17:00","2005","11","15","17:00","-0.3","","-1.2","","94","","8","","24","","","","99.05","","","","-6","","NA"
"2005-11-15 18:00","2005","11","15","18:00","-0.8","","-1.5","","95","","8","","30","","","","98.91","","","","-8","","NA"
"2005-11-15 19:00","2005","11","15","19:00","-1.4","","-2.0","","96","","8","","24","","","","98.79","","","","-8","","NA"
"2005-11-15 20:00","2005","11","15","20:00","-1.9","","-2.3","","97","","8","","28","","","","98.61","","","","-9","","NA"
"2005-11-15 21:00","2005","11","15","21:00","-2.2","","-2.6","","97","","8","","24","","","","98.39","","","","-9","","NA"
"2005-11-15 22:00","2005","11","15","22:00","-2.3","","-2.9","","96","","8","","30","","","","98.11","","","","-9","","NA"
"2005-11-15 23:00","2005","11","15","23:00","-2.8","","-3.2","","97","","6","","28","","","","97.75","","","","-10","","NA"
"2005-11-16 00:00","2005","11","16","00:00","-3.2","","-3.2","","100","","5","","35","","","","","M","","","-11","","NA"
"2005-11-16 01:00","2005","11","16","01:00","-3.5","","-3.5","","100","","5","","32","","","","","M","","","-11","","NA"
"2005-11-16 02:00","2005","11","16","02:00","-3.9","","-3.9","","100","","5","","15","","","","96.91","","","","-9","","NA"
"2005-11-16 03:00","2005","11","16","03:00","-4.0","","-4.0","","100","","5","","32","","","","96.60","","","","-12","","NA"
"2005-11-16 04:00","2005","11","16","04:00","-4.7","","-4.7","","100","","4","","24","","","","96.22","","","","-12","","NA"
"2005-11-16 05:00","2005","11","16","05:00","-5.3","","-5.3","","100","","3","","19","","","","96.09","","","","-12","","NA"
"2005-11-16 06:00","2005","11","16","06:00","-6.0","","-6.0","","100","","1","","20","","","","96.05","","","","-13","","NA"
"2005-11-16 07:00","2005","11","16","07:00","-6.7","","-6.7","","100","","1","","22","","","","96.08","","","","-14","","NA"
"2005-11-16 08:00","2005","11","16","08:00","-6.7","","-6.7","","100","","1","","26","","","","96.23","","","","-15","","NA"
"2005-11-16 09:00","2005","11","16","09:00","-6.3","","-6.3","","100","","35","","22","","","","96.40","","","","-14","","NA"
"2005-11-16 10:00","2005","11","16","10:00","-5.9","","-5.9","","100","","35","","19","","","","96.64","","","","-13","","NA"
"2005-11-16 11:00","2005","11","16","11:00","-5.3","","-5.3","","100","","33","","26","","","","96.98","","","","-13","","NA"
"2005-11-16 12:00","2005","11","16","12:00","-5.4","","-5.7","","98","","34","","30","","","","97.24","","","","-14","","NA"
"2005-11-16 13:00","2005","11","16","13:00","-4.9","","-5.4","","96","","33","","26","","","","97.46","","","","-12","","NA"
"2005-11-16 14:00","2005","11","16","14:00","-4.8","","-5.7","","93","","33","","30","","","","97.63","","","","-13","","NA"
"2005-11-16 15:00","2005","11","16","15:00","-5.1","","-6.1","","93","","33","","26","","","","97.85","","","","-13","","NA"
"2005-11-16 16:00","2005","11","16","16:00","-5.6","","-6.6","","93","","34","","19","","","","98.07","","","","-12","","NA"
"2005-11-16 17:00","2005","11","16","17:00","-6.4","","-7.4","","93","","36","","15","","","","98.24","","","","-12","","NA"
"2005-11-16 18:00","2005","11","16","18:00","-7.6","","-9.2","","88","","35","","20","","","","98.45","","","","-15","","NA"
"2005-11-16 19:00","2005","11","16","19:00","-9.3","","-10.9","","88","","1","","17","","","","98.62","","","","-16","","NA"
"2005-11-16 20:00","2005","11","16","20:00","-9.8","","-11.2","","89","","35","","15","","","","98.74","","","","-16","","NA"
"2005-11-16 21:00","2005","11","16","21:00","-10.9","","-12.3","","89","","34","","13","","","","98.87","","","","-17","","NA"
"2005-11-16 22:00","2005","11","16","22:00","-11.5","","-12.9","","89","","35","","13","","","","98.96","","","","-18","","NA"
"2005-11-16 23:00","2005","11","16","23:00","-12.1","","-13.5","","89","","1","","11","","","","99.03","","","","-18","","NA"
"2005-11-17 00:00","2005","11","17","00:00","-12.5","","-13.7","","91","","36","","9","","","","99.14","","","","-18","","NA"
"2005-11-17 01:00","2005","11","17","01:00","-12.5","","-13.7","","91","","36","","6","","","","99.22","","","","-16","","NA"
"2005-11-17 02:00","2005","11","17","02:00","-12.9","","-14.1","","91","","2","","9","","","","99.32","","","","-18","","NA"
"2005-11-17 03:00","2005","11","17","03:00","-13.6","","-14.9","","90","","35","","13","","","","99.42","","","","-21","","NA"
"2005-11-17 04:00","2005","11","17","04:00","-14.1","","-15.4","","90","","36","","11","","","","99.50","","","","-21","","NA"
"2005-11-17 05:00","2005","11","17","05:00","-14.7","","-16.1","","89","","36","","9","","","","99.60","","","","-20","","NA"
"2005-11-17 06:00","2005","11","17","06:00","-15.6","","-17.0","","89","","36","","9","","","","99.71","","","","-22","","NA"
"2005-11-17 07:00","2005","11","17","07:00","-16.6","","-18.8","","83","","36","","9","","","","99.82","","","","-23","","NA"
"2005-11-17 08:00","2005","11","17","08:00","-17.6","","-19.8","","83","","4","","9","","","","99.90","","","","-24","","NA"
"2005-11-17 09:00","2005","11","17","09:00","-17.0","","-19.7","","80","","3","","9","","","","100.00","","","","-23","","NA"
"2005-11-17 10:00","2005","11","17","10:00","-15.4","","-18.3","","78","","5","","7","","","","100.03","","","","-20","","NA"
"2005-11-17 11:00","2005","11","17","11:00","-13.6","","-16.7","","77","","3","","7","","","","100.05","","","","-18","","NA"
"2005-11-17 12:00","2005","11","17","12:00","-11.6","","-15.1","","75","","1","","6","","","","100.03","","","","-15","","NA"
"2005-11-17 13:00","2005","11","17","13:00","-11.2","","-14.2","","78","","2","","6","","","","99.98","","","","-15","","NA"
"2005-11-17 14:00","2005","11","17","14:00","-9.9","","-12.7","","80","","32","","9","","","","99.97","","","","-15","","NA"
"2005-11-17 15:00","2005","11","17","15:00","-10.1","","-12.3","","84","","32","","7","","","","99.93","","","","-14","","NA"
"2005-11-17 16:00","2005","11","17","16:00","-9.3","","-11.5","","84","","33","","9","","","","99.92","","","","-14","","NA"
"2005-11-17 17:00","2005","11","17","17:00","-9.1","","-11.4","","83","","30","","6","","","","99.92","","","","-12","","NA"
"2005-11-17 18:00","2005","11","17","18:00","-8.3","","-11.7","","76","","29","","15","","","","99.89","","","","-15","","NA"
"2005-11-17 19:00","2005","11","17","19:00","-10.8","","-12.6","","87","","4","","7","","","","99.88","","","","-15","","NA"
"2005-11-17 20:00","2005","11","17","20:00","-11.0","","-12.3","","90","","5","","7","","","","99.85","","","","-15","","NA"
"2005-11-17 21:00","2005","11","17","21:00","-10.8","","-11.8","","92","","5","","7","","","","99.80","","","","-15","","NA"
"2005-11-17 22:00","2005","11","17","22:00","-10.8","","-11.3","","96","","7","","9","","","","99.74","","","","-16","","NA"
"2005-11-17 23:00","2005","11","17","23:00","-10.9","","-11.2","","98","","9","","11","","","","99.72","","","","-17","","NA"
"2005-11-18 00:00","2005","11","18","00:00","-10.8","","-11.0","","98","","9","","13","","","","99.64","","","","-17","","NA"
"2005-11-18 01:00","2005","11","18","01:00","-10.7","","-10.9","","98","","8","","17","","","","99.57","","","","-18","","NA"
"2005-11-18 02:00","2005","11","18","02:00","-10.5","","-10.7","","98","","7","","17","","","","99.46","","","","-18","","NA"
"2005-11-18 03:00","2005","11","18","03:00","-10.7","","-10.9","","98","","7","","13","","","","99.38","","","","-17","","NA"
"2005-11-18 04:00","2005","11","18","04:00","-10.8","","-11.1","","98","","5","","11","","","","99.30","","","","-17","","NA"
"2005-11-18 05:00","2005","11","18","05:00","-11.3","","-11.6","","98","","6","","15","","","","99.19","","","","-18","","NA"
"2005-11-18 06:00","2005","11","18","06:00","-11.4","","-11.7","","98","","6","","17","","","","99.12","","","","-19","","NA"
"2005-11-18 07:00","2005","11","18","07:00","-12.2","","-12.8","","95","","5","","15","","","","99.05","","","","-19","","NA"
"2005-11-18 08:00","2005","11","18","08:00","-10.7","","-10.8","","99","","6","","19","","","","98.95","","","","-19","","NA"
"2005-11-18 09:00","2005","11","18","09:00","-12.4","","-12.7","","98","","2","","15","","","","98.93","","","","-20","","NA"
"2005-11-18 10:00","2005","11","18","10:00","-10.4","","-10.4","","100","","4","","11","","","","98.85","","","","-16","","NA"
"2005-11-18 11:00","2005","11","18","11:00","-1.4","","-2.9","","89","","21","","37","","","","98.79","","","","-9","","NA"
"2005-11-18 12:00","2005","11","18","12:00","-1.3","","-3.3","","86","","22","","39","","","","98.72","","","","-9","","NA"
"2005-11-18 13:00","2005","11","18","13:00","-1.2","","-1.3","","99","","22","","41","","","","98.63","","","","-9","","NA"
"2005-11-18 14:00","2005","11","18","14:00","-1.1","","-2.1","","93","","24","","32","","","","98.57","","","","-8","","NA"
"2005-11-18 15:00","2005","11","18","15:00","-0.7","","-1.4","","95","","21","","48","","","","98.52","","","","-9","","NA"
"2005-11-18 16:00","2005","11","18","16:00","-0.3","","-1.3","","93","","22","","46","","","","98.50","","","","-8","","NA"
"2005-11-18 17:00","2005","11","18","17:00","0.1","","-1.3","","90","","23","","39","","","","98.45","","","","","","NA"
"2005-11-18 18:00","2005","11","18","18:00","0.4","","0.1","","98","","24","","32","","","","98.37","","","","","","NA"
"2005-11-18 19:00","2005","11","18","19:00","0.9","","-1.0","","87","","22","","43","","","","98.37","","","","","","NA"
"2005-11-18 20:00","2005","11","18","20:00","0.9","","-0.7","","89","","22","","41","","","","98.36","","","","","","NA"
"2005-11-18 21:00","2005","11","18","21:00","0.8","","-0.5","","91","","20","","44","","","","98.31","","","","","","NA"
"2005-11-18 22:00","2005","11","18","22:00","0.9","","-0.9","","88","","21","","41","","","","98.31","","","","","","NA"
"2005-11-18 23:00","2005","11","18","23:00","1.0","","-0.4","","90","","20","","43","","","","98.29","","","","","","NA"
"2005-11-19 00:00","2005","11","19","00:00","0.8","","-0.1","","94","","19","","37","","","","98.25","","","","","","NA"
"2005-11-19 01:00","2005","11","19","01:00","0.7","","0.7","","100","","19","","37","","","","98.20","","","","","","NA"
"2005-11-19 02:00","2005","11","19","02:00","1.3","","1.3","","100","","19","","32","","","","98.16","","","","","","NA"
"2005-11-19 03:00","2005","11","19","03:00","1.6","","1.6","","100","","19","","32","","","","98.13","","","","","","NA"
"2005-11-19 04:00","2005","11","19","04:00","1.7","","1.7","","100","","19","","33","","","","98.04","","","","","","NA"
"2005-11-19 05:00","2005","11","19","05:00","2.2","","2.2","","100","","20","","35","","","","98.03","","","","","","NA"
"2005-11-19 06:00","2005","11","19","06:00","2.5","","2.5","","100","","19","","26","","","","97.94","","","","","","NA"
"2005-11-19 07:00","2005","11","19","07:00","2.6","","2.6","","100","","20","","37","","","","97.95","","","","","","NA"
"2005-11-19 08:00","2005","11","19","08:00","3.0","","3.0","","100","","22","","37","","","","98.00","","","","","","NA"
"2005-11-19 09:00","2005","11","19","09:00","3.2","","3.2","","100","","21","","33","","","","98.03","","","","","","NA"
"2005-11-19 10:00","2005","11","19","10:00","3.5","","3.5","","100","","23","","26","","","","98.06","","","","","","NA"
"2005-11-19 11:00","2005","11","19","11:00","3.5","","3.5","","100","","24","","19","","","","98.09","","","","","","NA"
"2005-11-19 12:00","2005","11","19","12:00","4.3","","4.3","","100","","23","","20","","","","98.10","","","","","","NA"
"2005-11-19 13:00","2005","11","19","13:00","4.2","","4.2","","100","","26","","13","","","","98.12","","","","","","NA"
"2005-11-19 14:00","2005","11","19","14:00","4.3","","3.9","","97","","28","","11","","","","98.17","","","","","","NA"
"2005-11-19 15:00","2005","11","19","15:00","2.9","","2.9","","100","","7","","9","","","","98.21","","","","","","NA"
"2005-11-19 16:00","2005","11","19","16:00","1.6","","1.6","","100","","3","","15","","","","98.39","","","","","","NA"
"2005-11-19 17:00","2005","11","19","17:00","1.2","","1.2","","100","","4","","20","","","","98.56","","","","","","NA"
"2005-11-19 18:00","2005","11","19","18:00","0.6","","0.6","","100","","4","","17","","","","98.69","","","","","","NA"
"2005-11-19 19:00","2005","11","19","19:00","0.0","","0.0","","100","","4","","17","","","","98.78","","","","-5","","NA"
"2005-11-19 20:00","2005","11","19","20:00","-0.5","","-0.5","","100","","3","","17","","","","98.92","","","","-5","","NA"
"2005-11-19 21:00","2005","11","19","21:00","-0.7","","-0.8","","99","","3","","13","","","","98.99","","","","-5","","NA"
"2005-11-19 22:00","2005","11","19","22:00","-1.3","","-1.3","","100","","2","","15","","","","99.07","","","","-6","","NA"
"2005-11-19 23:00","2005","11","19","23:00","-2.3","","-2.3","","100","","4","","13","","","","99.08","","","","-7","","NA"
"2005-11-20 00:00","2005","11","20","00:00","-2.6","","-2.6","","100","","1","","7","","","","99.12","","","","-5","","NA"
"2005-11-20 01:00","2005","11","20","01:00","-2.7","","-2.8","","99","","4","","6","","","","99.12","","","","-5","","NA"
"2005-11-20 02:00","2005","11","20","02:00","-2.8","","-2.8","","100","","1","","6","","","","99.10","","","","-5","","NA"
"2005-11-20 03:00","2005","11","20","03:00","-2.8","","-2.8","","100","","3","","6","","","","99.08","","","","-5","","NA"
"2005-11-20 04:00","2005","11","20","04:00","-1.5","","-1.5","","100","","28","","15","","","","99.09","","","","-6","","NA"
"2005-11-20 05:00","2005","11","20","05:00","-0.9","","-1.0","","99","","26","","15","","","","99.02","","","","-6","","NA"
"2005-11-20 06:00","2005","11","20","06:00","-0.2","","-0.2","","100","","26","","24","","","","98.93","","","","-6","","NA"
"2005-11-20 07:00","2005","11","20","07:00","0.0","","-0.2","","99","","26","","30","","","","98.88","","","","-6","","NA"
"2005-11-20 08:00","2005","11","20","08:00","0.8","","0.4","","97","","25","","30","","","","98.84","","","","","","NA"
"2005-11-20 09:00","2005","11","20","09:00","1.0","","0.1","","94","","26","","33","","","","98.78","","","","","","NA"
"2005-11-20 10:00","2005","11","20","10:00","2.3","","1.6","","95","","24","","39","","","","98.72","","","","","","NA"
"2005-11-20 11:00","2005","11","20","11:00","3.0","","2.2","","94","","25","","39","","","","98.66","","","","","","NA"
"2005-11-20 12:00","2005","11","20","12:00","3.1","","2.3","","94","","24","","39","","","","98.58","","","","","","NA"
"2005-11-20 13:00","2005","11","20","13:00","3.3","","2.4","","94","","23","","48","","","","98.47","","","","","","NA"
"2005-11-20 14:00","2005","11","20","14:00","3.5","","2.4","","92","","25","","41","","","","98.41","","","","","","NA"
"2005-11-20 15:00","2005","11","20","15:00","3.7","","3.1","","96","","25","","44","","","","98.27","","","","","","NA"
"2005-11-20 16:00","2005","11","20","16:00","3.7","","3.1","","96","","23","","52","","","","98.25","","","","","","NA"
"2005-11-20 17:00","2005","11","20","17:00","3.5","","2.9","","96","","24","","52","","","","98.25","","","","","","NA"
"2005-11-20 18:00","2005","11","20","18:00","4.1","","4.0","","99","","24","","52","","","","98.19","","","","","","NA"
"2005-11-20 19:00","2005","11","20","19:00","3.9","","2.9","","93","","25","","46","","","","98.09","","","","","","NA"
"2005-11-20 20:00","2005","11","20","20:00","4.1","","3.4","","95","","25","","41","","","","98.02","","","","","","NA"
"2005-11-20 21:00","2005","11","20","21:00","4.1","","3.3","","95","","25","","41","","","","97.98","","","","","","NA"
"2005-11-20 22:00","2005","11","20","22:00","4.3","","3.8","","97","","26","","39","","","","97.93","","","","","","NA"
"2005-11-20 23:00","2005","11","20","23:00","4.2","","3.5","","95","","26","","39","","","","97.86","","","","","","NA"
"2005-11-21 00:00","2005","11","21","00:00","3.8","","3.3","","97","","27","","33","","","","97.83","","","","","","NA"
"2005-11-21 01:00","2005","11","21","01:00","4.3","","3.4","","94","","27","","32","","","","97.77","","","","","","NA"
"2005-11-21 02:00","2005","11","21","02:00","4.9","","4.0","","94","","28","","26","","","","97.71","","","","","","NA"
"2005-11-21 03:00","2005","11","21","03:00","4.8","","3.5","","91","","29","","32","","","","97.70","","","","","","NA"
"2005-11-21 04:00","2005","11","21","04:00","4.6","","3.6","","93","","28","","28","","","","97.63","","","","","","NA"
"2005-11-21 05:00","2005","11","21","05:00","4.7","","3.4","","91","","29","","32","","","","97.63","","","","","","NA"
"2005-11-21 06:00","2005","11","21","06:00","4.1","","3.7","","97","","30","","17","","","","97.66","","","","","","NA"
"2005-11-21 07:00","2005","11","21","07:00","3.3","","2.5","","94","","34","","15","","","","97.72","","","","","","NA"
"2005-11-21 08:00","2005","11","21","08:00","2.7","","2.0","","95","","35","","11","","","","97.82","","","","","","NA"
"2005-11-21 09:00","2005","11","21","09:00","2.4","","1.6","","94","","36","","7","","","","97.90","","","","","","NA"
"2005-11-21 10:00","2005","11","21","10:00","2.8","","1.4","","90","","36","","15","","","","97.99","","","","","","NA"
"2005-11-21 11:00","2005","11","21","11:00","2.9","","1.1","","88","","2","","15","","","","98.08","","","","","","NA"
"2005-11-21 12:00","2005","11","21","12:00","3.4","","0.6","","82","","2","","15","","","","98.12","","","","","","NA"
"2005-11-21 13:00","2005","11","21","13:00","4.3","","0.4","","76","","36","","11","","","","98.15","","","","","","NA"
"2005-11-21 14:00","2005","11","21","14:00","0.2","","0.2","","100","","1","","20","","","","98.26","","","","","","NA"
"2005-11-21 15:00","2005","11","21","15:00","0.2","","-0.3","","96","","2","","19","","","","98.33","","","","","","NA"
"2005-11-21 16:00","2005","11","21","16:00","-2.1","","-4.2","","86","","1","","24","","","","98.47","","","","-8","","NA"
"2005-11-21 17:00","2005","11","21","17:00","-4.4","","-8.2","","75","","1","","20","","","","98.67","","","","-11","","NA"
"2005-11-21 18:00","2005","11","21","18:00","-5.7","","-9.6","","74","","1","","22","","","","98.76","","","","-13","","NA"
"2005-11-21 19:00","2005","11","21","19:00","-8.8","","-12.1","","77","","1","","20","","","","98.89","","","","-16","","NA"
"2005-11-21 20:00","2005","11","21","20:00","-9.6","","-13.2","","75","","2","","22","","","","98.96","","","","-18","","NA"
"2005-11-21 21:00","2005","11","21","21:00","-10.2","","-14.2","","72","","3","","22","","","","99.03","","","","-18","","NA"
"2005-11-21 22:00","2005","11","21","22:00","-10.5","","-14.5","","72","","3","","22","","","","99.03","","","","-19","","NA"
"2005-11-21 23:00","2005","11","21","23:00","-11.2","","-15.1","","73","","2","","17","","","","99.03","","","","-19","","NA"
"2005-11-22 00:00","2005","11","22","00:00","-11.5","","-15.2","","74","","3","","17","","","","99.02","","","","-19","","NA"
"2005-11-22 01:00","2005","11","22","01:00","-12.2","","-15.9","","74","","2","","19","","","","99.04","","","","-20","","NA"
"2005-11-22 02:00","2005","11","22","02:00","-13.1","","-15.8","","80","","3","","11","","","","99.05","","","","-19","","NA"
"2005-11-22 03:00","2005","11","22","03:00","-13.8","","-16.1","","83","","4","","13","","","","99.09","","","","-21","","NA"
"2005-11-22 04:00","2005","11","22","04:00","-14.6","","-16.1","","88","","3","","6","","","","99.11","","","","-19","","NA"
"2005-11-22 05:00","2005","11","22","05:00","-15.2","","-16.5","","90","","3","","7","","","","99.09","","","","-20","","NA"
"2005-11-22 06:00","2005","11","22","06:00","-15.6","","-17.9","","82","","5","","13","","","","99.07","","","","-23","","NA"
"2005-11-22 07:00","2005","11","22","07:00","-16.2","","-19.0","","79","","5","","7","","","","99.05","","","","-21","","NA"
"2005-11-22 08:00","2005","11","22","08:00","-16.9","","-18.8","","85","","3","","7","","","","99.07","","","","-22","","NA"
"2005-11-22 09:00","2005","11","22","09:00","-15.8","","-18.9","","77","","6","","11","","","","99.07","","","","-23","","NA"
"2005-11-22 10:00","2005","11","22","10:00","-14.1","","-18.6","","69","","7","","9","","","","99.05","","","","-20","","NA"
"2005-11-22 11:00","2005","11","22","11:00","-12.9","","-19.1","","60","","1","","6","","","","99.02","","","","-17","","NA"
"2005-11-22 12:00","2005","11","22","12:00","-11.4","","-20.2","","48","","36","","6","","","","98.95","","","","-15","","NA"
"2005-11-22 13:00","2005","11","22","13:00","-10.1","","-20.7","","42","","6","","9","","","","98.85","","","","-15","","NA"
"2005-11-22 14:00","2005","11","22","14:00","-9.0","","-20.9","","37","","1","","7","","","","98.74","","","","-13","","NA"
"2005-11-22 15:00","2005","11","22","15:00","-8.5","","-21.8","","33","","1","","4","","","","98.63","","","","-11","","NA"
"2005-11-22 16:00","2005","11","22","16:00","-7.7","","-20.8","","34","","35","","2","","","","98.58","","","","-9","","NA"
"2005-11-22 17:00","2005","11","22","17:00","-10.0","","-21.1","","40","","7","","7","","","","98.51","","","","-14","","NA"
"2005-11-22 18:00","2005","11","22","18:00","-11.7","","-16.8","","66","","6","","11","","","","98.46","","","","-18","","NA"
"2005-11-22 19:00","2005","11","22","19:00","-12.2","","-17.7","","64","","7","","17","","","","98.39","","","","-20","","NA"
"2005-11-22 20:00","2005","11","22","20:00","-12.4","","-16.8","","70","","7","","15","","","","98.32","","","","-20","","NA"
"2005-11-22 21:00","2005","11","22","21:00","-12.7","","-17.7","","66","","7","","15","","","","98.21","","","","-20","","NA"
"2005-11-22 22:00","2005","11","22","22:00","-12.5","","-16.9","","70","","8","","15","","","","98.08","","","","-20","","NA"
"2005-11-22 23:00","2005","11","22","23:00","-13.3","","-16.3","","78","","6","","15","","","","97.93","","","","-21","","NA"
"2005-11-23 00:00","2005","11","23","00:00","-13.4","","-15.7","","83","","6","","17","","","","97.79","","","","-21","","NA"
"2005-11-23 01:00","2005","11","23","01:00","-12.2","","-13.8","","88","","7","","17","","","","97.64","","","","-20","","NA"
"2005-11-23 02:00","2005","11","23","02:00","-10.4","","-11.8","","89","","8","","17","","","","97.52","","","","-18","","NA"
"2005-11-23 03:00","2005","11","23","03:00","-8.8","","-10.3","","89","","9","","17","","","","97.42","","","","-16","","NA"
"2005-11-23 04:00","2005","11","23","04:00","-6.9","","-6.9","","100","","10","","17","","","","97.21","","","","-13","","NA"
"2005-11-23 05:00","2005","11","23","05:00","-1.9","","-2.0","","99","","20","","32","","","","97.09","","","","-9","","NA"
"2005-11-23 06:00","2005","11","23","06:00","-1.8","","-2.8","","93","","18","","24","","","","96.95","","","","-8","","NA"
"2005-11-23 07:00","2005","11","23","07:00","-4.0","","-4.0","","100","","11","","19","","","","96.82","","","","-10","","NA"
"2005-11-23 08:00","2005","11","23","08:00","-1.8","","-2.4","","96","","17","","26","","","","96.69","","","","-8","","NA"
"2005-11-23 09:00","2005","11","23","09:00","-0.6","","-0.6","","100","","19","","43","","","","96.59","","","","-8","","NA"
"2005-11-23 10:00","2005","11","23","10:00","-0.3","","-0.3","","100","","18","","39","","","","96.48","","","","-8","","NA"
"2005-11-23 11:00","2005","11","23","11:00","0.1","","0.1","","100","","20","","48","","","","96.38","","","","","","NA"
"2005-11-23 12:00","2005","11","23","12:00","0.3","","0.3","","100","","20","","52","","","","96.25","","","","","","NA"
"2005-11-23 13:00","2005","11","23","13:00","0.5","","0.5","","100","","19","","48","","","","96.07","","","","","","NA"
"2005-11-23 14:00","2005","11","23","14:00","1.3","","1.3","","100","","21","","50","","","","95.95","","","","","","NA"
"2005-11-23 15:00","2005","11","23","15:00","1.6","","1.6","","100","","23","","39","","","","95.89","","","","","","NA"
"2005-11-23 16:00","2005","11","23","16:00","-1.4","","-1.4","","100","","34","","28","","","","95.90","","","","-8","","NA"
"2005-11-23 17:00","2005","11","23","17:00","-4.1","","-4.1","","100","","34","","26","","","","96.05","","","","-11","","NA"
"2005-11-23 18:00","2005","11","23","18:00","-8.0","","-8.1","","99","","36","","24","","","","96.32","","","","-16","","NA"
"2005-11-23 19:00","2005","11","23","19:00","-10.1","","-10.7","","95","","36","","17","","","","96.48","","","","-17","","NA"
"2005-11-23 20:00","2005","11","23","20:00","-12.1","","-13.7","","88","","1","","26","","","","96.58","","","","-22","","NA"
"2005-11-23 21:00","2005","11","23","21:00","-13.6","","-14.9","","90","","1","","26","","","","96.67","","","","-24","","NA"
"2005-11-23 22:00","2005","11","23","22:00","-15.2","","-16.9","","87","","35","","22","","","","96.79","","","","-25","","NA"
"2005-11-23 23:00","2005","11","23","23:00","-17.1","","-19.1","","84","","34","","26","","","","96.85","","","","-28","","NA"
"2005-11-24 00:00","2005","11","24","00:00","-18.6","","-21.1","","81","","35","","30","","","","96.98","","","","-31","","NA"
"2005-11-24 01:00","2005","11","24","01:00","-19.5","","-21.6","","83","","35","","20","","","","97.05","","","","-30","","NA"
"2005-11-24 02:00","2005","11","24","02:00","-20.0","","-22.3","","82","","35","","20","","","","97.14","","","","-30","","NA"
"2005-11-24 03:00","2005","11","24","03:00","-20.1","","-22.7","","80","","35","","24","","","","97.15","","","","-32","","NA"
"2005-11-24 04:00","2005","11","24","04:00","-20.1","","-22.4","","82","","35","","19","","","","97.14","","","","-30","","NA"
"2005-11-24 05:00","2005","11","24","05:00","-19.9","","-22.1","","83","","35","","15","","","","97.16","","","","-29","","NA"
"2005-11-24 06:00","2005","11","24","06:00","-19.8","","-22.3","","80","","35","","20","","","","97.19","","","","-30","","NA"
"2005-11-24 07:00","2005","11","24","07:00","-19.7","","-22.3","","80","","35","","19","","","","97.23","","","","-30","","NA"
"2005-11-24 08:00","2005","11","24","08:00","-19.5","","-21.9","","81","","35","","20","","","","97.28","","","","-30","","NA"
"2005-11-24 09:00","2005","11","24","09:00","-18.5","","-20.6","","83","","35","","17","","","","97.31","","","","-28","","NA"
"2005-11-24 10:00","2005","11","24","10:00","-17.3","","-19.4","","84","","36","","15","","","","97.33","","","","-26","","NA"
"2005-11-24 11:00","2005","11","24","11:00","-16.4","","-18.6","","83","","36","","17","","","","97.38","","","","-25","","NA"
"2005-11-24 12:00","2005","11","24","12:00","-15.4","","-17.8","","82","","1","","19","","","","97.43","","","","-24","","NA"
"2005-11-24 13:00","2005","11","24","13:00","-14.0","","-16.5","","81","","1","","19","","","","97.48","","","","-23","","NA"
"2005-11-24 14:00","2005","11","24","14:00","-13.2","","-15.3","","84","","1","","22","","","","97.58","","","","-22","","NA"
"2005-11-24 15:00","2005","11","24","15:00","-11.8","","-13.8","","85","","1","","17","","","","97.68","","","","-19","","NA"
"2005-11-24 16:00","2005","11","24","16:00","-11.0","","-12.5","","89","","1","","19","","","","97.77","","","","-19","","NA"
"2005-11-24 17:00","2005","11","24","17:00","-10.5","","-11.7","","91","","1","","19","","","","97.93","","","","-18","","NA"
"2005-11-24 18:00","2005","11","24","18:00","-9.8","","-10.9","","92","","1","","15","","","","98.10","","","","-16","","NA"
"2005-11-24 19:00","2005","11","24","19:00","-9.4","","-10.3","","93","","1","","13","","","","98.20","","","","-15","","NA"
"2005-11-24 20:00","2005","11","24","20:00","-9.1","","-10.0","","93","","35","","11","","","","98.28","","","","-15","","NA"
"2005-11-24 21:00","2005","11","24","21:00","-9.0","","-10.3","","90","","36","","15","","","","98.34","","","","-16","","NA"
"2005-11-24 22:00","2005","11","24","22:00","-9.5","","-10.9","","90","","35","","13","","","","98.40","","","","-16","","NA"
"2005-11-24 23:00","2005","11","24","23:00","-9.7","","-10.0","","98","","4","","6","","","","98.44","","","","-13","","NA"
"2005-11-25 00:00","2005","11","25","00:00","-9.2","","-9.7","","96","","36","","7","","","","98.50","","","","-13","","NA"
"2005-11-25 01:00","2005","11","25","01:00","-8.7","","-10.3","","88","","35","","13","","","","98.55","","","","-15","","NA"
"2005-11-25 02:00","2005","11","25","02:00","-8.9","","-10.9","","85","","35","","9","","","","98.60","","","","-14","","NA"
"2005-11-25 03:00","2005","11","25","03:00","-9.2","","-11.1","","86","","34","","13","","","","98.64","","","","-15","","NA"
"2005-11-25 04:00","2005","11","25","04:00","-9.4","","-11.3","","86","","36","","9","","","","98.70","","","","-14","","NA"
"2005-11-25 05:00","2005","11","25","05:00","-9.6","","-11.2","","88","","35","","9","","","","98.74","","","","-14","","NA"
"2005-11-25 06:00","2005","11","25","06:00","-9.5","","-11.3","","87","","35","","13","","","","98.81","","","","-16","","NA"
"2005-11-25 07:00","2005","11","25","07:00","-9.7","","-11.2","","89","","34","","13","","","","98.85","","","","-16","","NA"
"2005-11-25 08:00","2005","11","25","08:00","-9.8","","-11.6","","87","","34","","13","","","","98.89","","","","-16","","NA"
"2005-11-25 09:00","2005","11","25","09:00","-9.6","","-11.8","","84","","35","","11","","","","98.91","","","","-15","","NA"
"2005-11-25 10:00","2005","11","25","10:00","-9.2","","-11.2","","85","","36","","7","","","","98.94","","","","-13","","NA"
"2005-11-25 11:00","2005","11","25","11:00","-8.9","","-11.4","","82","","35","","7","","","","99.03","","","","-13","","NA"
"2005-11-25 12:00","2005","11","25","12:00","-8.4","","-11.1","","81","","4","","6","","","","99.05","","","","-12","","NA"
"2005-11-25 13:00","2005","11","25","13:00","-8.2","","-11.2","","79","","7","","6","","","","99.04","","","","-11","","NA"
"2005-11-25 14:00","2005","11","25","14:00","-8.0","","-11.9","","73","","5","","6","","","","99.06","","","","-11","","NA"
"2005-11-25 15:00","2005","11","25","15:00","-8.1","","-12.9","","68","","5","","9","","","","99.06","","","","-13","","NA"
"2005-11-25 16:00","2005","11","25","16:00","-8.4","","-11.7","","77","","5","","9","","","","99.09","","","","-13","","NA"
"2005-11-25 17:00","2005","11","25","17:00","-8.7","","-11.5","","80","","5","","11","","","","99.11","","","","-14","","NA"
"2005-11-25 18:00","2005","11","25","18:00","-8.9","","-11.3","","83","","4","","11","","","","99.14","","","","-14","","NA"
"2005-11-25 19:00","2005","11","25","19:00","-9.0","","-12.4","","76","","5","","11","","","","99.18","","","","-14","","NA"
"2005-11-25 20:00","2005","11","25","20:00","-9.0","","-13.6","","69","","4","","13","","","","99.19","","","","-15","","NA"
"2005-11-25 21:00","2005","11","25","21:00","-9.2","","-12.7","","76","","7","","7","","","","99.22","","","","-13","","NA"
"2005-11-25 22:00","2005","11","25","22:00","-9.3","","-12.6","","77","","7","","9","","","","99.24","","","","-14","","NA"
"2005-11-25 23:00","2005","11","25","23:00","-9.8","","-12.7","","79","","8","","17","","","","99.22","","","","-17","","NA"
"2005-11-26 00:00","2005","11","26","00:00","-10.7","","-13.0","","83","","7","","11","","","","99.22","","","","-16","","NA"
"2005-11-26 01:00","2005","11","26","01:00","-10.7","","-13.1","","82","","7","","13","","","","99.19","","","","-17","","NA"
"2005-11-26 02:00","2005","11","26","02:00","-11.4","","-13.5","","84","","7","","13","","","","99.20","","","","-18","","NA"
"2005-11-26 03:00","2005","11","26","03:00","-12.4","","-14.2","","86","","7","","15","","","","99.22","","","","-20","","NA"
"2005-11-26 04:00","2005","11","26","04:00","-13.4","","-14.8","","89","","5","","15","","","","99.20","","","","-21","","NA"
"2005-11-26 05:00","2005","11","26","05:00","-14.1","","-15.1","","92","","4","","11","","","","99.20","","","","-21","","NA"
"2005-11-26 06:00","2005","11","26","06:00","-13.6","","-14.7","","91","","5","","11","","","","99.19","","","","-20","","NA"
"2005-11-26 07:00","2005","11","26","07:00","-13.1","","-14.2","","91","","6","","13","","","","99.18","","","","-20","","NA"
"2005-11-26 08:00","2005","11","26","08:00","-14.0","","-15.1","","91","","6","","13","","","","99.21","","","","-21","","NA"
"2005-11-26 09:00","2005","11","26","09:00","-12.7","","-14.0","","90","","7","","13","","","","99.26","","","","-20","","NA"
"2005-11-26 10:00","2005","11","26","10:00"
"2005-11-26 11:00","2005","11","26","11:00"
"2005-11-26 12:00","2005","11","26","12:00"
"2005-11-26 13:00","2005","11","26","13:00"
"2005-11-26 14:00","2005","11","26","14:00"
"2005-11-26 15:00","2005","11","26","15:00"
"2005-11-26 16:00","2005","11","26","16:00"
"2005-11-26 17:00","2005","11","26","17:00"
"2005-11-26 18:00","2005","11","26","18:00"
"2005-11-26 19:00","2005","11","26","19:00"
"2005-11-26 20:00","2005","11","26","20:00"
"2005-11-26 21:00","2005","11","26","21:00"
"2005-11-26 22:00","2005","11","26","22:00"
"2005-11-26 23:00","2005","11","26","23:00"
"2005-11-27 00:00","2005","11","27","00:00"
"2005-11-27 01:00","2005","11","27","01:00"
"2005-11-27 02:00","2005","11","27","02:00"
"2005-11-27 03:00","2005","11","27","03:00"
"2005-11-27 04:00","2005","11","27","04:00"
"2005-11-27 05:00","2005","11","27","05:00"
"2005-11-27 06:00","2005","11","27","06:00"
"2005-11-27 07:00","2005","11","27","07:00"
"2005-11-27 08:00","2005","11","27","08:00"
"2005-11-27 09:00","2005","11","27","09:00"
"2005-11-27 10:00","2005","11","27","10:00"
"2005-11-27 11:00","2005","11","27","11:00"
"2005-11-27 12:00","2005","11","27","12:00"
"2005-11-27 13:00","2005","11","27","13:00"
"2005-11-27 14:00","2005","11","27","14:00"
"2005-11-27 15:00","2005","11","27","15:00"
"2005-11-27 16:00","2005","11","27","16:00"
"2005-11-27 17:00","2005","11","27","17:00"
"2005-11-27 18:00","2005","11","27","18:00"
"2005-11-27 19:00","2005","11","27","19:00"
"2005-11-27 20:00","2005","11","27","20:00"
"2005-11-27 21:00","2005","11","27","21:00"
"2005-11-27 22:00","2005","11","27","22:00"
"2005-11-27 23:00","2005","11","27","23:00"
"2005-11-28 00:00","2005","11","28","00:00"
"2005-11-28 01:00","2005","11","28","01:00"
"2005-11-28 02:00","2005","11","28","02:00"
"2005-11-28 03:00","2005","11","28","03:00"
"2005-11-28 04:00","2005","11","28","04:00"
"2005-11-28 05:00","2005","11","28","05:00"
"2005-11-28 06:00","2005","11","28","06:00"
"2005-11-28 07:00","2005","11","28","07:00"
"2005-11-28 08:00","2005","11","28","08:00"
"2005-11-28 09:00","2005","11","28","09:00"
"2005-11-28 10:00","2005","11","28","10:00"
"2005-11-28 11:00","2005","11","28","11:00"
"2005-11-28 12:00","2005","11","28","12:00"
"2005-11-28 13:00","2005","11","28","13:00"
"2005-11-28 14:00","2005","11","28","14:00"
"2005-11-28 15:00","2005","11","28","15:00"
"2005-11-28 16:00","2005","11","28","16:00"
"2005-11-28 17:00","2005","11","28","17:00"
"2005-11-28 18:00","2005","11","28","18:00"
"2005-11-28 19:00","2005","11","28","19:00"
"2005-11-28 20:00","2005","11","28","20:00"
"2005-11-28 21:00","2005","11","28","21:00"
"2005-11-28 22:00","2005","11","28","22:00"
"2005-11-28 23:00","2005","11","28","23:00"
"2005-11-29 00:00","2005","11","29","00:00"
"2005-11-29 01:00","2005","11","29","01:00"
"2005-11-29 02:00","2005","11","29","02:00"
"2005-11-29 03:00","2005","11","29","03:00"
"2005-11-29 04:00","2005","11","29","04:00"
"2005-11-29 05:00","2005","11","29","05:00"
"2005-11-29 06:00","2005","11","29","06:00"
"2005-11-29 07:00","2005","11","29","07:00"
"2005-11-29 08:00","2005","11","29","08:00"
"2005-11-29 09:00","2005","11","29","09:00"
"2005-11-29 10:00","2005","11","29","10:00"
"2005-11-29 11:00","2005","11","29","11:00"
"2005-11-29 12:00","2005","11","29","12:00"
"2005-11-29 13:00","2005","11","29","13:00"
"2005-11-29 14:00","2005","11","29","14:00"
"2005-11-29 15:00","2005","11","29","15:00"
"2005-11-29 16:00","2005","11","29","16:00"
"2005-11-29 17:00","2005","11","29","17:00"
"2005-11-29 18:00","2005","11","29","18:00"
"2005-11-29 19:00","2005","11","29","19:00"
"2005-11-29 20:00","2005","11","29","20:00"
"2005-11-29 21:00","2005","11","29","21:00"
"2005-11-29 22:00","2005","11","29","22:00"
"2005-11-29 23:00","2005","11","29","23:00"
"2005-11-30 00:00","2005","11","30","00:00"
"2005-11-30 01:00","2005","11","30","01:00"
"2005-11-30 02:00","2005","11","30","02:00"
"2005-11-30 03:00","2005","11","30","03:00"
"2005-11-30 04:00","2005","11","30","04:00"
"2005-11-30 05:00","2005","11","30","05:00"
"2005-11-30 06:00","2005","11","30","06:00"
"2005-11-30 07:00","2005","11","30","07:00"
"2005-11-30 08:00","2005","11","30","08:00"
"2005-11-30 09:00","2005","11","30","09:00"
"2005-11-30 10:00","2005","11","30","10:00"
"2005-11-30 11:00","2005","11","30","11:00"
"2005-11-30 12:00","2005","11","30","12:00"
"2005-11-30 13:00","2005","11","30","13:00"
"2005-11-30 14:00","2005","11","30","14:00"
"2005-11-30 15:00","2005","11","30","15:00"
"2005-11-30 16:00","2005","11","30","16:00"
"2005-11-30 17:00","2005","11","30","17:00"
"2005-11-30 18:00","2005","11","30","18:00"
"2005-11-30 19:00","2005","11","30","19:00"
"2005-11-30 20:00","2005","11","30","20:00"
"2005-11-30 21:00","2005","11","30","21:00"
"2005-11-30 22:00","2005","11","30","22:00"
"2005-11-30 23:00","2005","11","30","23:00"
