"Station Name","PUKASKWA (AUT)"
"Province","ONTARIO"
"Latitude","48.59"
"Longitude","-86.29"
"Elevation","207.60"
"Climate Identifier","6046767"
"WMO Identifier","71750"
"TC Identifier","WCJ"
"All times are specified in Local Standard Time (LST). Add 1 hour to adjust for Daylight Saving Time where and when it is observed."

"Legend"
"E","Estimated"
"M","Missing"
"NA","Not Available"

"Date/Time","Year","Month","Day","Time","Temp (°C)","Temp Flag","Dew Point Temp (°C)","Dew Point Temp Flag","Rel Hum (%)","Rel Hum Flag","Wind Dir (10s deg)","Wind Dir Flag","Wind Spd (km/h)","Wind Spd Flag","Visibility (km)","Visibility Flag","Stn Press (kPa)","Stn Press Flag","Hmdx","Hmdx Flag","Wind Chill","Wind Chill Flag","Weather"
"2005-09-01 00:00","2005","09","01","00:00","14.0","","14.0","","100","","7","","11","","","","98.38","","","","","","NA"
"2005-09-01 01:00","2005","09","01","01:00","14.2","","14.2","","100","","8","","11","","","","98.32","","","","","","NA"
"2005-09-01 02:00","2005","09","01","02:00","13.8","","13.8","","100","","8","","11","","","","98.27","","","","","","NA"
"2005-09-01 03:00","2005","09","01","03:00","13.6","","13.6","","100","","6","","4","","","","98.28","","","","","","NA"
"2005-09-01 04:00","2005","09","01","04:00","14.0","","14.0","","100","","9","","7","","","","98.23","","","","","","NA"
"2005-09-01 05:00","2005","09","01","05:00","14.5","","14.5","","100","","7","","6","","","","98.18","","","","","","NA"
"2005-09-01 06:00","2005","09","01","06:00","14.6","","14.6","","100","","7","","6","","","","98.17","","","","","","NA"
"2005-09-01 07:00","2005","09","01","07:00","14.7","","14.7","","100","","35","","6","","","","98.16","","","","","","NA"
"2005-09-01 08:00","2005","09","01","08:00","15.4","","15.4","","100","","7","","9","","","","98.14","","","","","","NA"
"2005-09-01 09:00","2005","09","01","09:00","17.9","","17.8","","99","","17","","4","","","","98.13","","","","","","NA"
"2005-09-01 10:00","2005","09","01","10:00","18.0","","17.5","","97","","21","","20","","","","98.07","","","","","","NA"
"2005-09-01 11:00","2005","09","01","11:00","19.2","","17.8","","92","","18","","20","","","","98.00","","","","","","NA"
"2005-09-01 12:00","2005","09","01","12:00","19.1","","17.0","","88","","20","","35","","","","97.95","","","","","","NA"
"2005-09-01 13:00","2005","09","01","13:00","19.7","","17.2","","85","","20","","43","","","","97.93","","","","","","NA"
"2005-09-01 14:00","2005","09","01","14:00","18.4","","14.3","","77","","23","","50","","","","97.94","","","","","","NA"
"2005-09-01 15:00","2005","09","01","15:00","17.8","","14.1","","79","","25","","44","","","","97.93","","","","","","NA"
"2005-09-01 16:00","2005","09","01","16:00","17.2","","14.1","","82","","25","","35","","","","97.91","","","","","","NA"
"2005-09-01 17:00","2005","09","01","17:00","17.1","","14.4","","84","","25","","35","","","","97.93","","","","","","NA"
"2005-09-01 18:00","2005","09","01","18:00","17.0","","14.7","","86","","26","","35","","","","97.93","","","","","","NA"
"2005-09-01 19:00","2005","09","01","19:00","17.0","","14.2","","84","","26","","35","","","","97.93","","","","","","NA"
"2005-09-01 20:00","2005","09","01","20:00","16.7","","13.5","","81","","27","","37","","","","97.94","","","","","","NA"
"2005-09-01 21:00","2005","09","01","21:00","15.8","","14.1","","90","","27","","32","","","","97.94","","","","","","NA"
"2005-09-01 22:00","2005","09","01","22:00","16.0","","13.3","","84","","27","","33","","","","97.90","","","","","","NA"
"2005-09-01 23:00","2005","09","01","23:00","15.7","","13.5","","87","","27","","33","","","","97.88","","","","","","NA"
"2005-09-02 00:00","2005","09","02","00:00","15.6","","13.5","","87","","28","","32","","","","97.87","","","","","","NA"
"2005-09-02 01:00","2005","09","02","01:00","15.1","","12.8","","86","","30","","30","","","","97.91","","","","","","NA"
"2005-09-02 02:00","2005","09","02","02:00","14.4","","13.0","","91","","29","","28","","","","97.95","","","","","","NA"
"2005-09-02 03:00","2005","09","02","03:00","14.6","","12.9","","90","","29","","28","","","","98.03","","","","","","NA"
"2005-09-02 04:00","2005","09","02","04:00","14.6","","13.0","","90","","30","","22","","","","98.09","","","","","","NA"
"2005-09-02 05:00","2005","09","02","05:00","14.6","","12.9","","90","","30","","17","","","","98.18","","","","","","NA"
"2005-09-02 06:00","2005","09","02","06:00","14.4","","13.1","","92","","31","","13","","","","98.27","","","","","","NA"
"2005-09-02 07:00","2005","09","02","07:00","14.7","","12.9","","89","","30","","17","","","","98.38","","","","","","NA"
"2005-09-02 08:00","2005","09","02","08:00","15.0","","12.9","","87","","30","","24","","","","98.45","","","","","","NA"
"2005-09-02 09:00","2005","09","02","09:00","15.8","","13.4","","86","","30","","17","","","","98.51","","","","","","NA"
"2005-09-02 10:00","2005","09","02","10:00","16.2","","13.7","","85","","29","","19","","","","98.58","","","","","","NA"
"2005-09-02 11:00","2005","09","02","11:00","16.3","","14.3","","88","","31","","9","","","","98.66","","","","","","NA"
"2005-09-02 12:00","2005","09","02","12:00","18.5","","15.2","","81","","26","","7","","","","98.70","","","","","","NA"
"2005-09-02 13:00","2005","09","02","13:00","18.7","","15.9","","84","","26","","9","","","","98.76","","","","","","NA"
"2005-09-02 14:00","2005","09","02","14:00","18.3","","16.6","","90","","28","","15","","","","98.79","","","","","","NA"
"2005-09-02 15:00","2005","09","02","15:00","16.8","","16.7","","99","","30","","15","","","","98.83","","","","","","NA"
"2005-09-02 16:00","2005","09","02","16:00","18.4","","16.9","","91","","29","","7","","","","98.85","","","","","","NA"
"2005-09-02 17:00","2005","09","02","17:00","20.0","","15.9","","77","","31","","19","","","","98.88","","25","","","","NA"
"2005-09-02 18:00","2005","09","02","18:00","18.9","","15.9","","83","","29","","24","","","","98.94","","","","","","NA"
"2005-09-02 19:00","2005","09","02","19:00","18.9","","14.9","","78","","33","","15","","","","98.99","","","","","","NA"
"2005-09-02 20:00","2005","09","02","20:00","18.2","","13.4","","74","","34","","19","","","","99.06","","","","","","NA"
"2005-09-02 21:00","2005","09","02","21:00","16.9","","13.1","","78","","36","","6","","","","99.14","","","","","","NA"
"2005-09-02 22:00","2005","09","02","22:00","16.6","","13.7","","83","","33","","7","","","","99.22","","","","","","NA"
"2005-09-02 23:00","2005","09","02","23:00","16.7","","13.4","","81","","34","","11","","","","99.27","","","","","","NA"
"2005-09-03 00:00","2005","09","03","00:00","16.3","","13.0","","81","","34","","11","","","","99.33","","","","","","NA"
"2005-09-03 01:00","2005","09","03","01:00","15.3","","12.5","","83","","36","","9","","","","99.40","","","","","","NA"
"2005-09-03 02:00","2005","09","03","02:00","14.7","","12.3","","86","","34","","9","","","","99.45","","","","","","NA"
"2005-09-03 03:00","2005","09","03","03:00","13.3","","12.3","","94","","2","","7","","","","99.46","","","","","","NA"
"2005-09-03 04:00","2005","09","03","04:00","12.5","","12.3","","99","","4","","9","","","","99.51","","","","","","NA"
"2005-09-03 05:00","2005","09","03","05:00","12.2","","12.1","","99","","1","","9","","","","99.58","","","","","","NA"
"2005-09-03 06:00","2005","09","03","06:00","12.4","","12.4","","100","","1","","6","","","","99.67","","","","","","NA"
"2005-09-03 07:00","2005","09","03","07:00","12.5","","11.3","","92","","36","","6","","","","99.73","","","","","","NA"
"2005-09-03 08:00","2005","09","03","08:00","13.2","","10.7","","85","","36","","7","","","","99.77","","","","","","NA"
"2005-09-03 09:00","2005","09","03","09:00","13.6","","10.1","","79","","2","","13","","","","99.81","","","","","","NA"
"2005-09-03 10:00","2005","09","03","10:00","14.0","","9.9","","76","","1","","13","","","","99.84","","","","","","NA"
"2005-09-03 11:00","2005","09","03","11:00","15.9","","9.5","","66","","3","","13","","","","99.83","","","","","","NA"
"2005-09-03 12:00","2005","09","03","12:00","16.2","","9.6","","65","","35","","6","","","","99.86","","","","","","NA"
"2005-09-03 13:00","2005","09","03","13:00","16.3","","10.0","","66","","28","","7","","","","99.88","","","","","","NA"
"2005-09-03 14:00","2005","09","03","14:00","17.3","","10.1","","63","","3","","6","","","","99.83","","","","","","NA"
"2005-09-03 15:00","2005","09","03","15:00","17.2","","9.7","","61","","3","","7","","","","99.83","","","","","","NA"
"2005-09-03 16:00","2005","09","03","16:00","17.5","","9.7","","60","","3","","7","","","","99.83","","","","","","NA"
"2005-09-03 17:00","2005","09","03","17:00","17.0","","10.0","","63","","6","","13","","","","99.82","","","","","","NA"
"2005-09-03 18:00","2005","09","03","18:00","16.3","","10.0","","66","","7","","11","","","","99.84","","","","","","NA"
"2005-09-03 19:00","2005","09","03","19:00","15.1","","9.8","","71","","7","","11","","","","99.83","","","","","","NA"
"2005-09-03 20:00","2005","09","03","20:00","13.1","","9.4","","78","","6","","15","","","","99.89","","","","","","NA"
"2005-09-03 21:00","2005","09","03","21:00","12.6","","9.4","","81","","7","","9","","","","99.92","","","","","","NA"
"2005-09-03 22:00","2005","09","03","22:00","12.1","","9.7","","85","","7","","11","","","","99.92","","","","","","NA"
"2005-09-03 23:00","2005","09","03","23:00","11.0","","9.1","","88","","7","","11","","","","99.95","","","","","","NA"
"2005-09-04 00:00","2005","09","04","00:00","10.0","","8.9","","93","","6","","13","","","","99.97","","","","","","NA"
"2005-09-04 01:00","2005","09","04","01:00","9.8","","8.8","","93","","5","","15","","","","99.97","","","","","","NA"
"2005-09-04 02:00","2005","09","04","02:00","9.1","","9.1","","100","","7","","19","","","","99.96","","","","","","NA"
"2005-09-04 03:00","2005","09","04","03:00","8.7","","8.7","","100","","7","","19","","","","99.98","","","","","","NA"
"2005-09-04 04:00","2005","09","04","04:00","8.9","","8.9","","100","","7","","17","","","","100.01","","","","","","NA"
"2005-09-04 05:00","2005","09","04","05:00","8.9","","8.8","","99","","9","","11","","","","100.04","","","","","","NA"
"2005-09-04 06:00","2005","09","04","06:00","6.8","","6.8","","100","","5","","9","","","","100.07","","","","","","NA"
"2005-09-04 07:00","2005","09","04","07:00","8.9","","8.1","","95","","8","","11","","","","100.10","","","","","","NA"
"2005-09-04 08:00","2005","09","04","08:00","11.6","","9.1","","85","","7","","9","","","","100.12","","","","","","NA"
"2005-09-04 09:00","2005","09","04","09:00","14.4","","9.7","","73","","16","","6","","","","100.12","","","","","","NA"
"2005-09-04 10:00","2005","09","04","10:00","16.4","","11.0","","70","","17","","9","","","","100.11","","","","","","NA"
"2005-09-04 11:00","2005","09","04","11:00","17.6","","13.0","","74","","19","","17","","","","100.13","","","","","","NA"
"2005-09-04 12:00","2005","09","04","12:00","18.0","","13.7","","76","","18","","22","","","","100.10","","","","","","NA"
"2005-09-04 13:00","2005","09","04","13:00","18.2","","14.2","","77","","20","","26","","","","100.04","","","","","","NA"
"2005-09-04 14:00","2005","09","04","14:00","18.5","","14.3","","77","","20","","26","","","","100.01","","","","","","NA"
"2005-09-04 15:00","2005","09","04","15:00","18.5","","14.3","","77","","20","","22","","","","99.95","","","","","","NA"
"2005-09-04 16:00","2005","09","04","16:00","18.2","","14.2","","77","","20","","22","","","","99.90","","","","","","NA"
"2005-09-04 17:00","2005","09","04","17:00","17.6","","14.9","","84","","18","","20","","","","99.87","","","","","","NA"
"2005-09-04 18:00","2005","09","04","18:00","17.4","","15.1","","86","","18","","20","","","","99.87","","","","","","NA"
"2005-09-04 19:00","2005","09","04","19:00","16.7","","14.3","","86","","17","","22","","","","99.84","","","","","","NA"
"2005-09-04 20:00","2005","09","04","20:00","16.4","","13.6","","84","","11","","15","","","","99.81","","","","","","NA"
"2005-09-04 21:00","2005","09","04","21:00","15.9","","12.4","","80","","11","","11","","","","99.78","","","","","","NA"
"2005-09-04 22:00","2005","09","04","22:00","15.3","","12.1","","81","","14","","7","","","","99.83","","","","","","NA"
"2005-09-04 23:00","2005","09","04","23:00","17.4","","14.5","","83","","17","","32","","","","99.82","","","","","","NA"
"2005-09-05 00:00","2005","09","05","00:00","17.5","","15.6","","89","","17","","33","","","","99.78","","","","","","NA"
"2005-09-05 01:00","2005","09","05","01:00","17.2","","15.6","","90","","17","","37","","","","99.77","","","","","","NA"
"2005-09-05 02:00","2005","09","05","02:00","17.1","","15.0","","87","","18","","35","","","","99.74","","","","","","NA"
"2005-09-05 03:00","2005","09","05","03:00","16.7","","15.4","","92","","18","","37","","","","99.74","","","","","","NA"
"2005-09-05 04:00","2005","09","05","04:00","16.7","","15.1","","90","","18","","32","","","","99.71","","","","","","NA"
"2005-09-05 05:00","2005","09","05","05:00","16.6","","15.4","","93","","18","","33","","","","99.74","","","","","","NA"
"2005-09-05 06:00","2005","09","05","06:00","16.7","","15.4","","92","","17","","35","","","","99.65","","","","","","NA"
"2005-09-05 07:00","2005","09","05","07:00","17.4","","15.4","","88","","18","","32","","","","99.73","","","","","","NA"
"2005-09-05 08:00","2005","09","05","08:00","17.9","","16.4","","91","","18","","32","","","","99.77","","","","","","NA"
"2005-09-05 09:00","2005","09","05","09:00","18.5","","17.1","","92","","18","","35","","","","99.73","","","","","","NA"
"2005-09-05 10:00","2005","09","05","10:00","19.3","","17.1","","87","","17","","33","","","","99.79","","","","","","NA"
"2005-09-05 11:00","2005","09","05","11:00","20.0","","17.1","","83","","17","","35","","","","99.79","","25","","","","NA"
"2005-09-05 12:00","2005","09","05","12:00","20.1","","16.6","","80","","18","","35","","","","99.76","","25","","","","NA"
"2005-09-05 13:00","2005","09","05","13:00","20.3","","16.4","","78","","17","","33","","","","99.69","","25","","","","NA"
"2005-09-05 14:00","2005","09","05","14:00","20.8","","15.6","","72","","17","","30","","","","99.66","","25","","","","NA"
"2005-09-05 15:00","2005","09","05","15:00","21.6","","15.2","","67","","18","","33","","","","99.62","","26","","","","NA"
"2005-09-05 16:00","2005","09","05","16:00","22.2","","15.6","","66","","17","","28","","","","99.58","","27","","","","NA"
"2005-09-05 17:00","2005","09","05","17:00","22.2","","15.8","","67","","17","","35","","","","99.50","","27","","","","NA"
"2005-09-05 18:00","2005","09","05","18:00","23.2","","15.4","","62","","16","","37","","","","99.49","","27","","","","NA"
"2005-09-05 19:00","2005","09","05","19:00","21.6","","16.2","","71","","17","","35","","","","99.49","","26","","","","NA"
"2005-09-05 20:00","2005","09","05","20:00","21.8","","15.4","","67","","17","","43","","","","99.44","","26","","","","NA"
"2005-09-05 21:00","2005","09","05","21:00","21.2","","15.2","","69","","17","","41","","","","99.45","","25","","","","NA"
"2005-09-05 22:00","2005","09","05","22:00","20.7","","15.5","","72","","17","","39","","","","99.45","","25","","","","NA"
"2005-09-05 23:00","2005","09","05","23:00","20.5","","15.8","","74","","17","","39","","","","99.40","","25","","","","NA"
"2005-09-06 00:00","2005","09","06","00:00","20.5","","16.0","","75","","17","","41","","","","99.41","","25","","","","NA"
"2005-09-06 01:00","2005","09","06","01:00","19.7","","16.7","","83","","17","","41","","","","99.37","","","","","","NA"
"2005-09-06 02:00","2005","09","06","02:00","19.5","","16.9","","85","","17","","44","","","","99.30","","","","","","NA"
"2005-09-06 03:00","2005","09","06","03:00","19.3","","17.2","","88","","17","","39","","","","99.25","","","","","","NA"
"2005-09-06 04:00","2005","09","06","04:00","19.4","","17.3","","88","","17","","44","","","","99.24","","","","","","NA"
"2005-09-06 05:00","2005","09","06","05:00","19.5","","17.3","","87","","17","","43","","","","99.20","","","","","","NA"
"2005-09-06 06:00","2005","09","06","06:00","19.7","","17.4","","87","","17","","43","","","","99.16","","","","","","NA"
"2005-09-06 07:00","2005","09","06","07:00","19.4","","17.5","","89","","17","","44","","","","99.15","","","","","","NA"
"2005-09-06 08:00","2005","09","06","08:00","19.2","","17.7","","91","","17","","39","","","","99.15","","","","","","NA"
"2005-09-06 09:00","2005","09","06","09:00","19.2","","17.9","","92","","17","","41","","","","99.15","","","","","","NA"
"2005-09-06 10:00","2005","09","06","10:00","18.9","","17.7","","93","","18","","37","","","","99.21","","","","","","NA"
"2005-09-06 11:00","2005","09","06","11:00","18.5","","17.8","","96","","18","","30","","","","99.27","","","","","","NA"
"2005-09-06 12:00","2005","09","06","12:00","17.9","","17.9","","100","","18","","28","","","","99.29","","","","","","NA"
"2005-09-06 13:00","2005","09","06","13:00","17.5","","17.5","","100","","17","","26","","","","99.28","","","","","","NA"
"2005-09-06 14:00","2005","09","06","14:00","18.9","","18.8","","99","","17","","28","","","","99.23","","","","","","NA"
"2005-09-06 15:00","2005","09","06","15:00","18.8","","18.6","","99","","18","","32","","","","99.25","","","","","","NA"
"2005-09-06 16:00","2005","09","06","16:00","18.4","","18.2","","99","","18","","24","","","","99.26","","","","","","NA"
"2005-09-06 17:00","2005","09","06","17:00","18.4","","18.3","","99","","17","","28","","","","99.23","","","","","","NA"
"2005-09-06 18:00","2005","09","06","18:00","19.1","","18.4","","96","","17","","28","","","","99.22","","","","","","NA"
"2005-09-06 19:00","2005","09","06","19:00","18.6","","18.1","","97","","18","","24","","","","99.21","","","","","","NA"
"2005-09-06 20:00","2005","09","06","20:00","18.2","","17.9","","98","","18","","28","","","","99.21","","","","","","NA"
"2005-09-06 21:00","2005","09","06","21:00","18.0","","17.9","","99","","18","","17","","","","99.26","","","","","","NA"
"2005-09-06 22:00","2005","09","06","22:00","18.5","","17.9","","96","","18","","26","","","","99.25","","","","","","NA"
"2005-09-06 23:00","2005","09","06","23:00","17.3","","17.3","","100","","20","","13","","","","99.27","","","","","","NA"
"2005-09-07 00:00","2005","09","07","00:00","16.5","","16.5","","100","","19","","6","","","","99.28","","","","","","NA"
"2005-09-07 01:00","2005","09","07","01:00","16.1","","16.1","","100","","30","","7","","","","99.37","","","","","","NA"
"2005-09-07 02:00","2005","09","07","02:00","15.7","","13.0","","84","","31","","9","","","","99.41","","","","","","NA"
"2005-09-07 03:00","2005","09","07","03:00","15.9","","12.4","","80","","31","","6","","","","99.44","","","","","","NA"
"2005-09-07 04:00","2005","09","07","04:00","16.2","","10.3","","68","","30","","13","","","","99.49","","","","","","NA"
"2005-09-07 05:00","2005","09","07","05:00","15.5","","9.7","","68","","30","","9","","","","99.54","","","","","","NA"
"2005-09-07 06:00","2005","09","07","06:00","15.3","","9.8","","70","","30","","15","","","","99.60","","","","","","NA"
"2005-09-07 07:00","2005","09","07","07:00","15.4","","10.0","","70","","29","","13","","","","99.63","","","","","","NA"
"2005-09-07 08:00","2005","09","07","08:00","16.0","","9.8","","67","","28","","19","","","","99.66","","","","","","NA"
"2005-09-07 09:00","2005","09","07","09:00","16.6","","10.6","","68","","27","","19","","","","99.69","","","","","","NA"
"2005-09-07 10:00","2005","09","07","10:00","16.9","","11.8","","72","","26","","22","","","","99.71","","","","","","NA"
"2005-09-07 11:00","2005","09","07","11:00","17.4","","12.1","","71","","26","","20","","","","99.72","","","","","","NA"
"2005-09-07 12:00","2005","09","07","12:00","17.8","","12.8","","73","","25","","22","","","","99.73","","","","","","NA"
"2005-09-07 13:00","2005","09","07","13:00","17.4","","13.4","","77","","25","","32","","","","99.72","","","","","","NA"
"2005-09-07 14:00","2005","09","07","14:00","18.2","","13.1","","72","","25","","24","","","","99.67","","","","","","NA"
"2005-09-07 15:00","2005","09","07","15:00","18.5","","13.3","","72","","25","","24","","","","99.63","","","","","","NA"
"2005-09-07 16:00","2005","09","07","16:00","18.6","","13.9","","74","","25","","20","","","","99.56","","","","","","NA"
"2005-09-07 17:00","2005","09","07","17:00","18.3","","14.2","","77","","25","","17","","","","99.54","","","","","","NA"
"2005-09-07 18:00","2005","09","07","18:00","17.4","","13.4","","77","","26","","22","","","","99.55","","","","","","NA"
"2005-09-07 19:00","2005","09","07","19:00","16.8","","13.3","","80","","28","","13","","","","99.55","","","","","","NA"
"2005-09-07 20:00","2005","09","07","20:00","15.6","","13.4","","87","","33","","2","","","","99.60","","","","","","NA"
"2005-09-07 21:00","2005","09","07","21:00","15.5","","13.9","","90","","19","","7","","","","99.59","","","","","","NA"
"2005-09-07 22:00","2005","09","07","22:00","16.2","","13.6","","85","","23","","15","","","","99.59","","","","","","NA"
"2005-09-07 23:00","2005","09","07","23:00","16.0","","14.0","","88","","23","","13","","","","99.55","","","","","","NA"
"2005-09-08 00:00","2005","09","08","00:00","15.9","","14.3","","90","","23","","11","","","","99.54","","","","","","NA"
"2005-09-08 01:00","2005","09","08","01:00","11.8","","11.8","","100","","8","","7","","","","99.53","","","","","","NA"
"2005-09-08 02:00","2005","09","08","02:00","11.2","","11.2","","100","","8","","11","","","","99.53","","","","","","NA"
"2005-09-08 03:00","2005","09","08","03:00","10.6","","10.6","","100","","4","","11","","","","99.52","","","","","","NA"
"2005-09-08 04:00","2005","09","08","04:00","10.1","","10.1","","100","","5","","9","","","","99.54","","","","","","NA"
"2005-09-08 05:00","2005","09","08","05:00","8.8","","8.8","","100","","8","","7","","","","99.53","","","","","","NA"
"2005-09-08 06:00","2005","09","08","06:00","6.9","","6.9","","100","","6","","2","","","","99.57","","","","","","NA"
"2005-09-08 07:00","2005","09","08","07:00","8.4","","8.4","","100","","6","","4","","","","99.61","","","","","","NA"
"2005-09-08 08:00","2005","09","08","08:00","9.7","","9.1","","96","","3","","7","","","","99.62","","","","","","NA"
"2005-09-08 09:00","2005","09","08","09:00","15.1","","11.3","","78","","8","","7","","","","99.62","","","","","","NA"
"2005-09-08 10:00","2005","09","08","10:00","17.2","","10.8","","66","","16","","4","","","","99.63","","","","","","NA"
"2005-09-08 11:00","2005","09","08","11:00","18.5","","9.2","","55","","34","","7","","","","99.61","","","","","","NA"
"2005-09-08 12:00","2005","09","08","12:00","18.3","","11.2","","63","","28","","11","","","","99.57","","","","","","NA"
"2005-09-08 13:00","2005","09","08","13:00","19.6","","11.6","","60","","27","","9","","","","99.51","","","","","","NA"
"2005-09-08 14:00","2005","09","08","14:00","18.7","","12.0","","65","","24","","15","","","","99.48","","","","","","NA"
"2005-09-08 15:00","2005","09","08","15:00","18.9","","11.2","","61","","24","","19","","","","99.45","","","","","","NA"
"2005-09-08 16:00","2005","09","08","16:00","18.9","","10.6","","59","","24","","17","","","","99.43","","","","","","NA"
"2005-09-08 17:00","2005","09","08","17:00","18.4","","10.6","","60","","23","","15","","","","99.44","","","","","","NA"
"2005-09-08 18:00","2005","09","08","18:00","18.1","","10.4","","61","","26","","7","","","","99.42","","","","","","NA"
"2005-09-08 19:00","2005","09","08","19:00","16.7","","10.8","","68","","29","","6","","","","99.43","","","","","","NA"
"2005-09-08 20:00","2005","09","08","20:00","13.5","","11.8","","89","","8","","4","","","","99.44","","","","","","NA"
"2005-09-08 21:00","2005","09","08","21:00","12.0","","11.2","","95","","8","","9","","","","99.45","","","","","","NA"
"2005-09-08 22:00","2005","09","08","22:00","11.2","","10.9","","98","","7","","9","","","","99.45","","","","","","NA"
"2005-09-08 23:00","2005","09","08","23:00","10.0","","9.9","","99","","6","","11","","","","99.45","","","","","","NA"
"2005-09-09 00:00","2005","09","09","00:00","9.3","","9.3","","100","","6","","15","","","","99.45","","","","","","NA"
"2005-09-09 01:00","2005","09","09","01:00","10.2","","9.8","","97","","8","","17","","","","99.46","","","","","","NA"
"2005-09-09 02:00","2005","09","09","02:00","9.3","","8.5","","95","","6","","15","","","","99.51","","","","","","NA"
"2005-09-09 03:00","2005","09","09","03:00","9.1","","8.5","","96","","7","","15","","","","99.54","","","","","","NA"
"2005-09-09 04:00","2005","09","09","04:00","8.2","","7.8","","97","","6","","15","","","","99.54","","","","","","NA"
"2005-09-09 05:00","2005","09","09","05:00","7.7","","7.6","","99","","6","","15","","","","99.55","","","","","","NA"
"2005-09-09 06:00","2005","09","09","06:00","7.0","","6.9","","99","","6","","17","","","","99.57","","","","","","NA"
"2005-09-09 07:00","2005","09","09","07:00","7.7","","7.3","","97","","6","","17","","","","99.57","","","","","","NA"
"2005-09-09 08:00","2005","09","09","08:00","9.9","","7.7","","86","","5","","11","","","","99.59","","","","","","NA"
"2005-09-09 09:00","2005","09","09","09:00","14.6","","10.1","","74","","5","","6","","","","99.59","","","","","","NA"
"2005-09-09 10:00","2005","09","09","10:00","17.8","","10.6","","63","","22","","4","","","","99.58","","","","","","NA"
"2005-09-09 11:00","2005","09","09","11:00","17.7","","12.5","","72","","21","","13","","","","99.59","","","","","","NA"
"2005-09-09 12:00","2005","09","09","12:00","20.9","","14.0","","65","","18","","15","","","","99.54","","","","","","NA"
"2005-09-09 13:00","2005","09","09","13:00","20.3","","15.6","","74","","18","","22","","","","99.49","","25","","","","NA"
"2005-09-09 14:00","2005","09","09","14:00","19.3","","16.2","","82","","20","","33","","","","99.47","","","","","","NA"
"2005-09-09 15:00","2005","09","09","15:00","19.6","","16.6","","83","","20","","26","","","","99.47","","","","","","NA"
"2005-09-09 16:00","2005","09","09","16:00","20.2","","15.0","","72","","18","","20","","","","99.45","","","","","","NA"
"2005-09-09 17:00","2005","09","09","17:00","20.0","","13.4","","66","","17","","17","","","","99.41","","","","","","NA"
"2005-09-09 18:00","2005","09","09","18:00","19.1","","13.6","","70","","16","","17","","","","99.41","","","","","","NA"
"2005-09-09 19:00","2005","09","09","19:00","18.4","","12.3","","68","","12","","7","","","","99.34","","","","","","NA"
"2005-09-09 20:00","2005","09","09","20:00","18.3","","10.2","","59","","11","","15","","","","99.36","","","","","","NA"
"2005-09-09 21:00","2005","09","09","21:00","17.6","","10.2","","62","","10","","13","","","","99.38","","","","","","NA"
"2005-09-09 22:00","2005","09","09","22:00","17.1","","10.4","","65","","11","","13","","","","99.36","","","","","","NA"
"2005-09-09 23:00","2005","09","09","23:00","17.4","","10.4","","63","","11","","15","","","","99.31","","","","","","NA"
"2005-09-10 00:00","2005","09","10","00:00","18.5","","11.1","","62","","15","","20","","","","99.30","","","","","","NA"
"2005-09-10 01:00","2005","09","10","01:00","18.4","","11.7","","65","","14","","17","","","","99.32","","","","","","NA"
"2005-09-10 02:00","2005","09","10","02:00","17.9","","11.9","","68","","14","","11","","","","99.35","","","","","","NA"
"2005-09-10 03:00","2005","09","10","03:00","18.6","","14.1","","75","","17","","30","","","","99.33","","","","","","NA"
"2005-09-10 04:00","2005","09","10","04:00","18.6","","15.1","","80","","17","","32","","","","99.30","","","","","","NA"
"2005-09-10 05:00","2005","09","10","05:00","18.6","","14.4","","77","","16","","22","","","","99.28","","","","","","NA"
"2005-09-10 06:00","2005","09","10","06:00","18.4","","14.9","","80","","15","","20","","","","99.25","","","","","","NA"
"2005-09-10 07:00","2005","09","10","07:00","18.9","","15.6","","81","","17","","32","","","","99.28","","","","","","NA"
"2005-09-10 08:00","2005","09","10","08:00","18.3","","16.7","","90","","17","","33","","","","99.33","","","","","","NA"
"2005-09-10 09:00","2005","09","10","09:00","17.7","","17.7","","100","","18","","20","","","","99.46","","","","","","NA"
"2005-09-10 10:00","2005","09","10","10:00","17.7","","17.7","","100","","17","","24","","","","99.40","","","","","","NA"
"2005-09-10 11:00","2005","09","10","11:00","17.6","","17.6","","100","","17","","24","","","","99.33","","","","","","NA"
"2005-09-10 12:00","2005","09","10","12:00","18.1","","18.1","","100","","19","","28","","","","99.26","","","","","","NA"
"2005-09-10 13:00","2005","09","10","13:00","19.2","","18.9","","98","","17","","28","","","","99.27","","","","","","NA"
"2005-09-10 14:00","2005","09","10","14:00","20.3","","18.6","","90","","18","","24","","","","99.27","","27","","","","NA"
"2005-09-10 15:00","2005","09","10","15:00","20.5","","18.3","","87","","17","","24","","","","99.25","","27","","","","NA"
"2005-09-10 16:00","2005","09","10","16:00","21.4","","18.0","","81","","17","","26","","","","99.19","","27","","","","NA"
"2005-09-10 17:00","2005","09","10","17:00","20.8","","18.1","","85","","17","","30","","","","99.13","","27","","","","NA"
"2005-09-10 18:00","2005","09","10","18:00","20.3","","18.4","","89","","17","","32","","","","99.05","","27","","","","NA"
"2005-09-10 19:00","2005","09","10","19:00","20.5","","18.8","","90","","17","","33","","","","99.05","","27","","","","NA"
"2005-09-10 20:00","2005","09","10","20:00","20.7","","19.2","","91","","16","","41","","","","99.01","","28","","","","NA"
"2005-09-10 21:00","2005","09","10","21:00","20.6","","19.4","","93","","17","","39","","","","98.99","","28","","","","NA"
"2005-09-10 22:00","2005","09","10","22:00","20.5","","19.2","","92","","17","","39","","","","98.95","","27","","","","NA"
"2005-09-10 23:00","2005","09","10","23:00","20.4","","19.0","","92","","17","","43","","","","98.93","","27","","","","NA"
"2005-09-11 00:00","2005","09","11","00:00","20.0","","19.1","","95","","17","","39","","","","98.93","","27","","","","NA"
"2005-09-11 01:00","2005","09","11","01:00","19.9","","19.0","","95","","18","","35","","","","98.91","","","","","","NA"
"2005-09-11 02:00","2005","09","11","02:00","19.5","","18.9","","96","","17","","33","","","","98.90","","","","","","NA"
"2005-09-11 03:00","2005","09","11","03:00","19.5","","18.9","","96","","18","","35","","","","98.86","","","","","","NA"
"2005-09-11 04:00","2005","09","11","04:00","19.8","","18.6","","93","","18","","33","","","","98.83","","","","","","NA"
"2005-09-11 05:00","2005","09","11","05:00","21.1","","18.5","","85","","19","","50","","","","98.82","","27","","","","NA"
"2005-09-11 06:00","2005","09","11","06:00","20.5","","18.3","","87","","19","","43","","","","98.81","","27","","","","NA"
"2005-09-11 07:00","2005","09","11","07:00","20.0","","18.3","","90","","18","","41","","","","98.79","","26","","","","NA"
"2005-09-11 08:00","2005","09","11","08:00","21.0","","18.5","","86","","19","","41","","","","98.76","","27","","","","NA"
"2005-09-11 09:00","2005","09","11","09:00","20.3","","18.4","","89","","19","","35","","","","98.78","","27","","","","NA"
"2005-09-11 10:00","2005","09","11","10:00","20.4","","18.4","","88","","18","","33","","","","98.78","","27","","","","NA"
"2005-09-11 11:00","2005","09","11","11:00","19.8","","18.3","","91","","18","","24","","","","98.81","","","","","","NA"
"2005-09-11 12:00","2005","09","11","12:00","21.3","","18.7","","85","","17","","30","","","","98.80","","28","","","","NA"
"2005-09-11 13:00","2005","09","11","13:00","22.8","","18.5","","77","","17","","24","","","","98.83","","29","","","","NA"
"2005-09-11 14:00","2005","09","11","14:00","22.9","","18.4","","76","","18","","19","","","","98.84","","29","","","","NA"
"2005-09-11 15:00","2005","09","11","15:00","23.0","","18.1","","74","","20","","19","","","","98.83","","29","","","","NA"
"2005-09-11 16:00","2005","09","11","16:00","23.2","","18.1","","73","","19","","15","","","","98.85","","29","","","","NA"
"2005-09-11 17:00","2005","09","11","17:00","22.9","","18.1","","74","","19","","13","","","","98.85","","29","","","","NA"
"2005-09-11 18:00","2005","09","11","18:00","21.4","","18.1","","81","","18","","11","","","","98.84","","27","","","","NA"
"2005-09-11 19:00","2005","09","11","19:00","20.1","","18.2","","89","","18","","15","","","","98.88","","26","","","","NA"
"2005-09-11 20:00","2005","09","11","20:00","19.9","","18.4","","91","","19","","17","","","","98.90","","","","","","NA"
"2005-09-11 21:00","2005","09","11","21:00","18.8","","18.5","","98","","18","","7","","","","98.94","","","","","","NA"
"2005-09-11 22:00","2005","09","11","22:00","19.1","","18.7","","98","","18","","13","","","","98.93","","","","","","NA"
"2005-09-11 23:00","2005","09","11","23:00","19.1","","18.6","","97","","17","","17","","","","98.94","","","","","","NA"
"2005-09-12 00:00","2005","09","12","00:00","19.2","","18.7","","97","","17","","17","","","","98.95","","","","","","NA"
"2005-09-12 01:00","2005","09","12","01:00","19.3","","18.7","","96","","17","","19","","","","98.96","","","","","","NA"
"2005-09-12 02:00","2005","09","12","02:00","20.4","","18.7","","90","","16","","13","","","","98.93","","27","","","","NA"
"2005-09-12 03:00","2005","09","12","03:00","20.2","","17.9","","87","","8","","6","","","","98.89","","26","","","","NA"
"2005-09-12 04:00","2005","09","12","04:00","20.3","","18.4","","89","","20","","6","","","","98.89","","27","","","","NA"
"2005-09-12 05:00","2005","09","12","05:00","20.0","","18.9","","93","","17","","24","","","","98.84","","27","","","","NA"
"2005-09-12 06:00","2005","09","12","06:00","20.1","","19.0","","93","","18","","15","","","","98.88","","27","","","","NA"
"2005-09-12 07:00","2005","09","12","07:00","21.2","","19.1","","88","","18","","17","","","","98.85","","28","","","","NA"
"2005-09-12 08:00","2005","09","12","08:00","21.6","","18.9","","85","","17","","19","","","","98.81","","28","","","","NA"
"2005-09-12 09:00","2005","09","12","09:00","20.9","","19.1","","89","","17","","20","","","","98.79","","28","","","","NA"
"2005-09-12 10:00","2005","09","12","10:00","21.6","","18.8","","84","","17","","22","","","","98.72","","28","","","","NA"
"2005-09-12 11:00","2005","09","12","11:00","22.0","","18.7","","82","","18","","20","","","","98.71","","29","","","","NA"
"2005-09-12 12:00","2005","09","12","12:00","22.1","","18.6","","81","","17","","24","","","","98.68","","29","","","","NA"
"2005-09-12 13:00","2005","09","12","13:00","21.2","","18.5","","85","","18","","26","","","","98.63","","28","","","","NA"
"2005-09-12 14:00","2005","09","12","14:00","22.3","","18.8","","81","","17","","24","","","","98.54","","29","","","","NA"
"2005-09-12 15:00","2005","09","12","15:00","19.2","","19.2","","100","","16","","24","","","","98.49","","","","","","NA"
"2005-09-12 16:00","2005","09","12","16:00","18.1","","18.1","","100","","31","","9","","","","98.62","","","","","","NA"
"2005-09-12 17:00","2005","09","12","17:00","18.4","","18.4","","100","","35","","6","","","","98.48","","","","","","NA"
"2005-09-12 18:00","2005","09","12","18:00","18.6","","18.6","","100","","10","","9","","","","98.38","","","","","","NA"
"2005-09-12 19:00","2005","09","12","19:00","18.7","","18.7","","100","","11","","9","","","","98.45","","","","","","NA"
"2005-09-12 20:00","2005","09","12","20:00","18.1","","18.1","","100","","34","","7","","","","98.39","","","","","","NA"
"2005-09-12 21:00","2005","09","12","21:00","17.7","","17.7","","100","","8","","9","","","","98.34","","","","","","NA"
"2005-09-12 22:00","2005","09","12","22:00","17.8","","17.8","","100","","13","","13","","","","98.34","","","","","","NA"
"2005-09-12 23:00","2005","09","12","23:00","17.7","","17.7","","100","","4","","11","","","","98.28","","","","","","NA"
"2005-09-13 00:00","2005","09","13","00:00","17.9","","17.9","","100","","6","","9","","","","98.22","","","","","","NA"
"2005-09-13 01:00","2005","09","13","01:00","17.9","","17.9","","100","","5","","6","","","","98.17","","","","","","NA"
"2005-09-13 02:00","2005","09","13","02:00","17.7","","17.7","","100","","5","","6","","","","98.14","","","","","","NA"
"2005-09-13 03:00","2005","09","13","03:00","17.8","","17.8","","100","","2","","4","","","","98.14","","","","","","NA"
"2005-09-13 04:00","2005","09","13","04:00","17.6","","17.6","","100","","3","","6","","","","98.07","","","","","","NA"
"2005-09-13 05:00","2005","09","13","05:00","17.5","","17.5","","100","","7","","6","","","","98.00","","","","","","NA"
"2005-09-13 06:00","2005","09","13","06:00","17.4","","17.4","","100","","9","","13","","","","97.80","","","","","","NA"
"2005-09-13 07:00","2005","09","13","07:00","18.3","","18.3","","100","","9","","20","","","","97.65","","","","","","NA"
"2005-09-13 08:00","2005","09","13","08:00","18.0","","18.0","","100","","9","","24","","","","97.57","","","","","","NA"
"2005-09-13 09:00","2005","09","13","09:00","18.9","","18.9","","100","","9","","17","","","","97.53","","","","","","NA"
"2005-09-13 10:00","2005","09","13","10:00","18.6","","18.6","","100","","25","","19","","","","97.52","","","","","","NA"
"2005-09-13 11:00","2005","09","13","11:00","18.3","","18.3","","100","","1","","11","","","","97.58","","","","","","NA"
"2005-09-13 12:00","2005","09","13","12:00","18.4","","18.3","","99","","36","","9","","","","97.82","","","","","","NA"
"2005-09-13 13:00","2005","09","13","13:00","19.7","","18.2","","91","","9","","4","","","","97.92","","","","","","NA"
"2005-09-13 14:00","2005","09","13","14:00","20.1","","17.9","","87","","23","","9","","","","97.96","","26","","","","NA"
"2005-09-13 15:00","2005","09","13","15:00","19.1","","18.0","","93","","23","","15","","","","98.01","","","","","","NA"
"2005-09-13 16:00","2005","09","13","16:00","17.8","","17.8","","100","","23","","20","","","","98.02","","","","","","NA"
"2005-09-13 17:00","2005","09","13","17:00","16.2","","16.2","","100","","27","","20","","","","98.07","","","","","","NA"
"2005-09-13 18:00","2005","09","13","18:00","16.2","","16.2","","100","","24","","9","","","","97.99","","","","","","NA"
"2005-09-13 19:00","2005","09","13","19:00","16.3","","16.3","","100","","15","","7","","","","97.97","","","","","","NA"
"2005-09-13 20:00","2005","09","13","20:00","16.3","","16.3","","100","","23","","13","","","","98.02","","","","","","NA"
"2005-09-13 21:00","2005","09","13","21:00","16.2","","16.2","","100","","24","","11","","","","97.92","","","","","","NA"
"2005-09-13 22:00","2005","09","13","22:00","16.3","","16.3","","100","","23","","17","","","","97.97","","","","","","NA"
"2005-09-13 23:00","2005","09","13","23:00","16.5","","16.5","","100","","23","","24","","","","97.99","","","","","","NA"
"2005-09-14 00:00","2005","09","14","00:00","16.3","","16.3","","100","","27","","17","","","","97.93","","","","","","NA"
"2005-09-14 01:00","2005","09","14","01:00","16.2","","16.2","","100","","28","","19","","","","97.91","","","","","","NA"
"2005-09-14 02:00","2005","09","14","02:00","16.1","","16.1","","100","","28","","19","","","","97.90","","","","","","NA"
"2005-09-14 03:00","2005","09","14","03:00","15.7","","13.4","","86","","33","","22","","","","97.92","","","","","","NA"
"2005-09-14 04:00","2005","09","14","04:00","14.9","","13.0","","88","","32","","20","","","","98.00","","","","","","NA"
"2005-09-14 05:00","2005","09","14","05:00","14.2","","11.7","","85","","33","","13","","","","98.05","","","","","","NA"
"2005-09-14 06:00","2005","09","14","06:00","13.3","","11.3","","88","","34","","11","","","","98.15","","","","","","NA"
"2005-09-14 07:00","2005","09","14","07:00","12.5","","11.6","","94","","36","","4","","","","98.24","","","","","","NA"
"2005-09-14 08:00","2005","09","14","08:00","14.5","","11.4","","82","","29","","22","","","","98.28","","","","","","NA"
"2005-09-14 09:00","2005","09","14","09:00","15.1","","11.4","","79","","29","","20","","","","98.36","","","","","","NA"
"2005-09-14 10:00","2005","09","14","10:00","15.3","","10.9","","75","","29","","24","","","","98.41","","","","","","NA"
"2005-09-14 11:00","2005","09","14","11:00","16.3","","11.0","","71","","28","","22","","","","98.45","","","","","","NA"
"2005-09-14 12:00","2005","09","14","12:00","16.1","","11.0","","72","","28","","22","","","","98.48","","","","","","NA"
"2005-09-14 13:00","2005","09","14","13:00","16.6","","10.5","","67","","27","","26","","","","98.53","","","","","","NA"
"2005-09-14 14:00","2005","09","14","14:00","17.0","","9.8","","63","","27","","26","","","","98.56","","","","","","NA"
"2005-09-14 15:00","2005","09","14","15:00","17.0","","11.1","","68","","27","","28","","","","98.62","","","","","","NA"
"2005-09-14 16:00","2005","09","14","16:00","17.0","","12.6","","75","","25","","30","","","","98.69","","","","","","NA"
"2005-09-14 17:00","2005","09","14","17:00","16.6","","11.9","","74","","26","","32","","","","98.73","","","","","","NA"
"2005-09-14 18:00","2005","09","14","18:00","16.4","","10.8","","69","","26","","32","","","","98.80","","","","","","NA"
"2005-09-14 19:00","2005","09","14","19:00","16.1","","11.5","","74","","26","","33","","","","98.87","","","","","","NA"
"2005-09-14 20:00","2005","09","14","20:00","16.2","","12.0","","76","","27","","30","","","","98.96","","","","","","NA"
"2005-09-14 21:00","2005","09","14","21:00","15.6","","7.2","","57","","34","","11","","","","99.05","","","","","","NA"
"2005-09-14 22:00","2005","09","14","22:00","12.9","","9.2","","78","","3","","7","","","","99.12","","","","","","NA"
"2005-09-14 23:00","2005","09","14","23:00","11.1","","8.6","","85","","8","","7","","","","99.18","","","","","","NA"
"2005-09-15 00:00","2005","09","15","00:00","9.1","","8.6","","97","","7","","9","","","","99.20","","","","","","NA"
"2005-09-15 01:00","2005","09","15","01:00","8.0","","7.4","","96","","6","","11","","","","99.25","","","","","","NA"
"2005-09-15 02:00","2005","09","15","02:00","6.8","","6.6","","99","","4","","7","","","","99.34","","","","","","NA"
"2005-09-15 03:00","2005","09","15","03:00","8.7","","6.0","","83","","6","","11","","","","99.43","","","","","","NA"
"2005-09-15 04:00","2005","09","15","04:00","7.8","","5.8","","87","","5","","13","","","","99.46","","","","","","NA"
"2005-09-15 05:00","2005","09","15","05:00","7.5","","5.6","","88","","6","","13","","","","99.51","","","","","","NA"
"2005-09-15 06:00","2005","09","15","06:00","6.2","","5.3","","94","","5","","15","","","","99.61","","","","","","NA"
"2005-09-15 07:00","2005","09","15","07:00","5.8","","4.9","","94","","4","","15","","","","99.66","","","","","","NA"
"2005-09-15 08:00","2005","09","15","08:00","7.7","","5.7","","87","","3","","13","","","","99.65","","","","","","NA"
"2005-09-15 09:00","2005","09","15","09:00","12.6","","7.2","","70","","7","","19","","","","99.65","","","","","","NA"
"2005-09-15 10:00","2005","09","15","10:00","16.1","","7.7","","57","","11","","9","","","","99.71","","","","","","NA"
"2005-09-15 11:00","2005","09","15","11:00","16.6","","8.1","","57","","21","","7","","","","99.76","","","","","","NA"
"2005-09-15 12:00","2005","09","15","12:00","17.1","","9.0","","59","","22","","9","","","","99.75","","","","","","NA"
"2005-09-15 13:00","2005","09","15","13:00","17.5","","9.3","","59","","21","","19","","","","99.75","","","","","","NA"
"2005-09-15 14:00","2005","09","15","14:00","18.2","","9.5","","57","","21","","19","","","","99.71","","","","","","NA"
"2005-09-15 15:00","2005","09","15","15:00","16.9","","10.0","","64","","22","","15","","","","99.66","","","","","","NA"
"2005-09-15 16:00","2005","09","15","16:00","17.0","","9.9","","63","","19","","17","","","","99.57","","","","","","NA"
"2005-09-15 17:00","2005","09","15","17:00","17.9","","9.6","","58","","19","","19","","","","99.50","","","","","","NA"
"2005-09-15 18:00","2005","09","15","18:00","16.5","","8.8","","60","","20","","24","","","","99.49","","","","","","NA"
"2005-09-15 19:00","2005","09","15","19:00","16.5","","7.8","","56","","19","","24","","","","99.48","","","","","","NA"
"2005-09-15 20:00","2005","09","15","20:00","16.4","","9.3","","63","","16","","28","","","","99.48","","","","","","NA"
"2005-09-15 21:00","2005","09","15","21:00","14.6","","9.1","","70","","13","","13","","","","99.48","","","","","","NA"
"2005-09-15 22:00","2005","09","15","22:00","13.9","","8.8","","71","","11","","15","","","","99.46","","","","","","NA"
"2005-09-15 23:00","2005","09","15","23:00","14.6","","8.8","","68","","13","","13","","","","99.47","","","","","","NA"
"2005-09-16 00:00","2005","09","16","00:00","16.0","","10.9","","72","","17","","26","","","","99.44","","","","","","NA"
"2005-09-16 01:00","2005","09","16","01:00","16.9","","12.5","","75","","17","","32","","","","99.41","","","","","","NA"
"2005-09-16 02:00","2005","09","16","02:00","17.1","","14.0","","82","","18","","32","","","","99.40","","","","","","NA"
"2005-09-16 03:00","2005","09","16","03:00","17.1","","14.1","","83","","18","","37","","","","99.35","","","","","","NA"
"2005-09-16 04:00","2005","09","16","04:00","17.0","","14.5","","85","","18","","30","","","","99.37","","","","","","NA"
"2005-09-16 05:00","2005","09","16","05:00","17.0","","14.6","","86","","19","","28","","","","99.36","","","","","","NA"
"2005-09-16 06:00","2005","09","16","06:00","16.8","","15.1","","90","","18","","26","","","","99.41","","","","","","NA"
"2005-09-16 07:00","2005","09","16","07:00","17.0","","14.9","","87","","18","","30","","","","99.46","","","","","","NA"
"2005-09-16 08:00","2005","09","16","08:00","17.8","","15.2","","85","","19","","28","","","","99.48","","","","","","NA"
"2005-09-16 09:00","2005","09","16","09:00","18.1","","14.8","","81","","19","","30","","","","99.49","","","","","","NA"
"2005-09-16 10:00","2005","09","16","10:00","18.7","","14.5","","77","","20","","35","","","","99.48","","","","","","NA"
"2005-09-16 11:00","2005","09","16","11:00","19.3","","15.0","","76","","20","","28","","","","99.47","","","","","","NA"
"2005-09-16 12:00","2005","09","16","12:00","19.8","","15.4","","76","","20","","28","","","","99.45","","","","","","NA"
"2005-09-16 13:00","2005","09","16","13:00","18.6","","15.8","","84","","22","","24","","","","99.43","","","","","","NA"
"2005-09-16 14:00","2005","09","16","14:00","18.8","","15.9","","83","","22","","24","","","","99.40","","","","","","NA"
"2005-09-16 15:00","2005","09","16","15:00","20.1","","15.8","","76","","20","","26","","","","99.37","","25","","","","NA"
"2005-09-16 16:00","2005","09","16","16:00","19.8","","15.9","","78","","20","","26","","","","99.38","","","","","","NA"
"2005-09-16 17:00","2005","09","16","17:00","19.2","","16.3","","83","","20","","22","","","","99.37","","","","","","NA"
"2005-09-16 18:00","2005","09","16","18:00","17.9","","16.6","","92","","20","","20","","","","99.37","","","","","","NA"
"2005-09-16 19:00","2005","09","16","19:00","17.3","","16.6","","96","","19","","19","","","","99.33","","","","","","NA"
"2005-09-16 20:00","2005","09","16","20:00","17.0","","16.4","","96","","19","","17","","","","99.34","","","","","","NA"
"2005-09-16 21:00","2005","09","16","21:00","16.9","","16.5","","97","","18","","15","","","","99.34","","","","","","NA"
"2005-09-16 22:00","2005","09","16","22:00","16.7","","16.5","","99","","18","","13","","","","99.35","","","","","","NA"
"2005-09-16 23:00","2005","09","16","23:00","15.7","","15.2","","97","","15","","7","","","","99.36","","","","","","NA"
"2005-09-17 00:00","2005","09","17","00:00","13.9","","13.7","","99","","11","","6","","","","99.34","","","","","","NA"
"2005-09-17 01:00","2005","09","17","01:00","12.6","","12.6","","100","","9","","6","","","","99.35","","","","","","NA"
"2005-09-17 02:00","2005","09","17","02:00","11.4","","11.4","","100","","7","","13","","","","99.32","","","","","","NA"
"2005-09-17 03:00","2005","09","17","03:00","10.6","","10.6","","100","","5","","15","","","","99.31","","","","","","NA"
"2005-09-17 04:00","2005","09","17","04:00","10.4","","10.4","","100","","6","","17","","","","99.29","","","","","","NA"
"2005-09-17 05:00","2005","09","17","05:00","10.3","","10.2","","99","","6","","15","","","","99.27","","","","","","NA"
"2005-09-17 06:00","2005","09","17","06:00","10.3","","10.3","","100","","7","","15","","","","99.24","","","","","","NA"
"2005-09-17 07:00","2005","09","17","07:00","10.7","","10.5","","99","","7","","13","","","","99.26","","","","","","NA"
"2005-09-17 08:00","2005","09","17","08:00","13.9","","11.7","","87","","9","","9","","","","99.26","","","","","","NA"
"2005-09-17 09:00","2005","09","17","09:00","18.8","","15.4","","81","","17","","19","","","","99.27","","","","","","NA"
"2005-09-17 10:00","2005","09","17","10:00","19.6","","16.3","","81","","17","","26","","","","99.24","","","","","","NA"
"2005-09-17 11:00","2005","09","17","11:00","19.9","","16.2","","79","","18","","30","","","","99.20","","","","","","NA"
"2005-09-17 12:00","2005","09","17","12:00","20.1","","16.3","","79","","18","","30","","","","99.18","","25","","","","NA"
"2005-09-17 13:00","2005","09","17","13:00","20.1","","16.9","","82","","20","","35","","","","99.14","","25","","","","NA"
"2005-09-17 14:00","2005","09","17","14:00","19.9","","17.3","","85","","19","","28","","","","99.10","","","","","","NA"
"2005-09-17 15:00","2005","09","17","15:00","20.3","","17.1","","82","","18","","19","","","","99.07","","26","","","","NA"
"2005-09-17 16:00","2005","09","17","16:00","20.3","","16.4","","78","","20","","22","","","","99.00","","25","","","","NA"
"2005-09-17 17:00","2005","09","17","17:00","18.7","","16.4","","86","","18","","22","","","","98.96","","","","","","NA"
"2005-09-17 18:00","2005","09","17","18:00","18.7","","15.8","","83","","17","","24","","","","98.93","","","","","","NA"
"2005-09-17 19:00","2005","09","17","19:00","19.1","","15.8","","81","","17","","22","","","","98.84","","","","","","NA"
"2005-09-17 20:00","2005","09","17","20:00","19.7","","15.0","","74","","17","","30","","","","98.80","","","","","","NA"
"2005-09-17 21:00","2005","09","17","21:00","19.7","","15.2","","75","","18","","32","","","","98.77","","","","","","NA"
"2005-09-17 22:00","2005","09","17","22:00","19.7","","14.8","","73","","18","","37","","","","98.74","","","","","","NA"
"2005-09-17 23:00","2005","09","17","23:00","19.5","","15.7","","79","","18","","37","","","","98.73","","","","","","NA"
"2005-09-18 00:00","2005","09","18","00:00","18.8","","17.0","","89","","18","","32","","","","98.74","","","","","","NA"
"2005-09-18 01:00","2005","09","18","01:00","18.3","","17.5","","95","","21","","26","","","","98.78","","","","","","NA"
"2005-09-18 02:00","2005","09","18","02:00","18.2","","16.8","","92","","24","","19","","","","98.75","","","","","","NA"
"2005-09-18 03:00","2005","09","18","03:00","18.2","","16.0","","87","","24","","26","","","","98.73","","","","","","NA"
"2005-09-18 04:00","2005","09","18","04:00","18.1","","16.5","","90","","19","","22","","","","98.68","","","","","","NA"
"2005-09-18 05:00","2005","09","18","05:00","18.3","","16.3","","88","","20","","24","","","","98.66","","","","","","NA"
"2005-09-18 06:00","2005","09","18","06:00","17.9","","16.9","","94","","21","","28","","","","98.65","","","","","","NA"
"2005-09-18 07:00","2005","09","18","07:00","17.7","","15.8","","89","","26","","22","","","","98.68","","","","","","NA"
"2005-09-18 08:00","2005","09","18","08:00","16.3","","16.3","","100","","29","","24","","","","98.70","","","","","","NA"
"2005-09-18 09:00","2005","09","18","09:00","16.1","","16.1","","100","","24","","19","","","","98.75","","","","","","NA"
"2005-09-18 10:00","2005","09","18","10:00","16.0","","16.0","","100","","26","","20","","","","98.80","","","","","","NA"
"2005-09-18 11:00","2005","09","18","11:00","16.9","","16.6","","98","","27","","17","","","","98.81","","","","","","NA"
"2005-09-18 12:00","2005","09","18","12:00","17.8","","16.3","","91","","29","","15","","","","98.85","","","","","","NA"
"2005-09-18 13:00","2005","09","18","13:00","18.7","","14.4","","76","","31","","11","","","","98.90","","","","","","NA"
"2005-09-18 14:00","2005","09","18","14:00","19.6","","14.6","","73","","28","","13","","","","98.93","","","","","","NA"
"2005-09-18 15:00","2005","09","18","15:00","20.0","","13.6","","67","","35","","11","","","","98.95","","","","","","NA"
"2005-09-18 16:00","2005","09","18","16:00","18.6","","12.2","","66","","1","","15","","","","99.02","","","","","","NA"
"2005-09-18 17:00","2005","09","18","17:00","17.0","","11.7","","71","","3","","15","","","","99.08","","","","","","NA"
"2005-09-18 18:00","2005","09","18","18:00","16.0","","10.9","","72","","36","","13","","","","99.14","","","","","","NA"
"2005-09-18 19:00","2005","09","18","19:00","13.6","","10.5","","82","","3","","11","","","","99.22","","","","","","NA"
"2005-09-18 20:00","2005","09","18","20:00","12.3","","10.1","","86","","5","","13","","","","99.32","","","","","","NA"
"2005-09-18 21:00","2005","09","18","21:00","11.2","","9.1","","87","","5","","13","","","","99.36","","","","","","NA"
"2005-09-18 22:00","2005","09","18","22:00","10.0","","8.8","","92","","5","","9","","","","99.44","","","","","","NA"
"2005-09-18 23:00","2005","09","18","23:00","9.9","","8.6","","92","","5","","17","","","","99.46","","","","","","NA"
"2005-09-19 00:00","2005","09","19","00:00","9.7","","8.5","","92","","6","","13","","","","99.49","","","","","","NA"
"2005-09-19 01:00","2005","09","19","01:00","9.2","","8.6","","96","","5","","13","","","","99.47","","","","","","NA"
"2005-09-19 02:00","2005","09","19","02:00","9.0","","8.9","","99","","6","","13","","","","99.47","","","","","","NA"
"2005-09-19 03:00","2005","09","19","03:00","8.7","","8.7","","100","","7","","11","","","","99.43","","","","","","NA"
"2005-09-19 04:00","2005","09","19","04:00","8.0","","8.0","","100","","5","","13","","","","99.38","","","","","","NA"
"2005-09-19 05:00","2005","09","19","05:00","7.8","","7.8","","100","","5","","11","","","","99.36","","","","","","NA"
"2005-09-19 06:00","2005","09","19","06:00","8.0","","8.0","","100","","6","","13","","","","99.38","","","","","","NA"
"2005-09-19 07:00","2005","09","19","07:00","8.4","","8.4","","100","","5","","9","","","","99.37","","","","","","NA"
"2005-09-19 08:00","2005","09","19","08:00","9.2","","9.2","","100","","6","","13","","","","99.31","","","","","","NA"
"2005-09-19 09:00","2005","09","19","09:00","10.2","","10.2","","100","","8","","13","","","","99.32","","","","","","NA"
"2005-09-19 10:00","2005","09","19","10:00","10.7","","10.7","","100","","5","","6","","","","99.32","","","","","","NA"
"2005-09-19 11:00","2005","09","19","11:00","10.6","","10.6","","100","","5","","9","","","","99.23","","","","","","NA"
"2005-09-19 12:00","2005","09","19","12:00","11.1","","11.1","","100","","5","","9","","","","99.11","","","","","","NA"
"2005-09-19 13:00","2005","09","19","13:00","11.6","","11.6","","100","","7","","15","","","","98.94","","","","","","NA"
"2005-09-19 14:00","2005","09","19","14:00","11.7","","11.7","","100","","7","","19","","","","98.79","","","","","","NA"
"2005-09-19 15:00","2005","09","19","15:00","11.4","","11.4","","100","","4","","17","","","","98.73","","","","","","NA"
"2005-09-19 16:00","2005","09","19","16:00","11.2","","11.2","","100","","5","","28","","","","98.59","","","","","","NA"
"2005-09-19 17:00","2005","09","19","17:00","11.3","","11.3","","100","","5","","26","","","","98.55","","","","","","NA"
"2005-09-19 18:00","2005","09","19","18:00","11.2","","11.2","","100","","5","","26","","","","98.51","","","","","","NA"
"2005-09-19 19:00","2005","09","19","19:00","11.0","","11.0","","100","","5","","24","","","","98.47","","","","","","NA"
"2005-09-19 20:00","2005","09","19","20:00","10.9","","10.9","","100","","6","","19","","","","98.48","","","","","","NA"
"2005-09-19 21:00","2005","09","19","21:00","10.5","","10.5","","100","","1","","9","","","","98.59","","","","","","NA"
"2005-09-19 22:00","2005","09","19","22:00","10.0","","10.0","","100","","4","","20","","","","98.51","","","","","","NA"
"2005-09-19 23:00","2005","09","19","23:00","10.1","","10.1","","100","","5","","17","","","","98.58","","","","","","NA"
"2005-09-20 00:00","2005","09","20","00:00","9.2","","9.2","","100","","35","","11","","","","98.66","","","","","","NA"
"2005-09-20 01:00","2005","09","20","01:00","9.2","","9.2","","100","","4","","9","","","","98.73","","","","","","NA"
"2005-09-20 02:00","2005","09","20","02:00","8.9","","8.9","","100","","33","","11","","","","98.78","","","","","","NA"
"2005-09-20 03:00","2005","09","20","03:00","8.3","","8.3","","100","","35","","9","","","","98.83","","","","","","NA"
"2005-09-20 04:00","2005","09","20","04:00","8.2","","8.2","","100","","36","","11","","","","98.91","","","","","","NA"
"2005-09-20 05:00","2005","09","20","05:00","8.2","","8.2","","100","","3","","6","","","","98.95","","","","","","NA"
"2005-09-20 06:00","2005","09","20","06:00","8.0","","8.0","","100","","4","","9","","","","98.96","","","","","","NA"
"2005-09-20 07:00","2005","09","20","07:00","8.0","","8.0","","100","","6","","6","","","","99.00","","","","","","NA"
"2005-09-20 08:00","2005","09","20","08:00","8.6","","8.6","","100","","9","","4","","","","99.02","","","","","","NA"
"2005-09-20 09:00","2005","09","20","09:00","9.3","","9.1","","99","","9","","7","","","","99.02","","","","","","NA"
"2005-09-20 10:00","2005","09","20","10:00","10.5","","9.7","","95","","10","","7","","","","99.00","","","","","","NA"
"2005-09-20 11:00","2005","09","20","11:00","12.8","","10.5","","86","","15","","13","","","","98.99","","","","","","NA"
"2005-09-20 12:00","2005","09","20","12:00","14.3","","12.3","","88","","20","","15","","","","98.96","","","","","","NA"
"2005-09-20 13:00","2005","09","20","13:00","15.6","","13.4","","87","","20","","20","","","","98.88","","","","","","NA"
"2005-09-20 14:00","2005","09","20","14:00","16.8","","14.3","","85","","19","","24","","","","98.81","","","","","","NA"
"2005-09-20 15:00","2005","09","20","15:00","16.3","","14.7","","90","","19","","26","","","","98.78","","","","","","NA"
"2005-09-20 16:00","2005","09","20","16:00","17.4","","15.6","","89","","18","","28","","","","98.71","","","","","","NA"
"2005-09-20 17:00","2005","09","20","17:00","17.4","","15.4","","88","","20","","33","","","","98.70","","","","","","NA"
"2005-09-20 18:00","2005","09","20","18:00","16.7","","16.0","","96","","19","","28","","","","98.67","","","","","","NA"
"2005-09-20 19:00","2005","09","20","19:00","16.7","","16.3","","97","","19","","28","","","","98.62","","","","","","NA"
"2005-09-20 20:00","2005","09","20","20:00","16.6","","16.2","","97","","20","","22","","","","98.61","","","","","","NA"
"2005-09-20 21:00","2005","09","20","21:00","16.8","","16.3","","97","","20","","19","","","","98.62","","","","","","NA"
"2005-09-20 22:00","2005","09","20","22:00","16.5","","15.7","","95","","29","","9","","","","98.68","","","","","","NA"
"2005-09-20 23:00","2005","09","20","23:00","15.1","","15.1","","100","","","","0","","","","98.73","","","","","","NA"
"2005-09-21 00:00","2005","09","21","00:00","15.4","","15.4","","100","","32","","7","","","","98.76","","","","","","NA"
"2005-09-21 01:00","2005","09","21","01:00","15.5","","11.1","","75","","33","","13","","","","98.81","","","","","","NA"
"2005-09-21 02:00","2005","09","21","02:00","11.1","","11.1","","100","","7","","11","","","","98.90","","","","","","NA"
"2005-09-21 03:00","2005","09","21","03:00","10.9","","10.3","","96","","3","","7","","","","98.93","","","","","","NA"
"2005-09-21 04:00","2005","09","21","04:00","9.3","","9.3","","100","","7","","7","","","","98.96","","","","","","NA"
"2005-09-21 05:00","2005","09","21","05:00","8.7","","8.6","","99","","7","","11","","","","98.99","","","","","","NA"
"2005-09-21 06:00","2005","09","21","06:00","8.4","","8.4","","100","","7","","11","","","","99.00","","","","","","NA"
"2005-09-21 07:00","2005","09","21","07:00","8.3","","8.3","","100","","8","","13","","","","98.99","","","","","","NA"
"2005-09-21 08:00","2005","09","21","08:00","10.8","","9.6","","92","","7","","11","","","","98.98","","","","","","NA"
"2005-09-21 09:00","2005","09","21","09:00","14.8","","11.8","","82","","10","","4","","","","99.00","","","","","","NA"
"2005-09-21 10:00","2005","09","21","10:00","17.8","","13.4","","75","","19","","7","","","","99.00","","","","","","NA"
"2005-09-21 11:00","2005","09","21","11:00","18.6","","13.2","","71","","20","","13","","","","98.99","","","","","","NA"
"2005-09-21 12:00","2005","09","21","12:00","19.3","","13.8","","70","","20","","19","","","","98.95","","","","","","NA"
"2005-09-21 13:00","2005","09","21","13:00","19.1","","13.7","","71","","20","","19","","","","98.83","","","","","","NA"
"2005-09-21 14:00","2005","09","21","14:00","17.6","","11.3","","67","","20","","20","","","","98.83","","","","","","NA"
"2005-09-21 15:00","2005","09","21","15:00","18.1","","12.3","","69","","20","","9","","","","98.73","","","","","","NA"
"2005-09-21 16:00","2005","09","21","16:00","18.1","","12.5","","70","","19","","4","","","","98.68","","","","","","NA"
"2005-09-21 17:00","2005","09","21","17:00","18.4","","11.2","","63","","12","","4","","","","98.60","","","","","","NA"
"2005-09-21 18:00","2005","09","21","18:00","17.0","","12.4","","74","","9","","6","","","","98.48","","","","","","NA"
"2005-09-21 19:00","2005","09","21","19:00","15.4","","11.1","","76","","4","","11","","","","98.45","","","","","","NA"
"2005-09-21 20:00","2005","09","21","20:00","15.0","","11.5","","80","","6","","11","","","","98.40","","","","","","NA"
"2005-09-21 21:00","2005","09","21","21:00","14.9","","11.4","","80","","5","","13","","","","98.34","","","","","","NA"
"2005-09-21 22:00","2005","09","21","22:00","14.6","","11.4","","81","","5","","7","","","","98.38","","","","","","NA"
"2005-09-21 23:00","2005","09","21","23:00","14.6","","10.7","","77","","6","","11","","","","98.34","","","","","","NA"
"2005-09-22 00:00","2005","09","22","00:00","14.4","","10.0","","75","","6","","19","","","","98.27","","","","","","NA"
"2005-09-22 01:00","2005","09","22","01:00","14.6","","9.6","","72","","7","","20","","","","98.25","","","","","","NA"
"2005-09-22 02:00","2005","09","22","02:00","13.8","","9.9","","77","","6","","19","","","","98.27","","","","","","NA"
"2005-09-22 03:00","2005","09","22","03:00","13.5","","10.0","","79","","3","","19","","","","98.30","","","","","","NA"
"2005-09-22 04:00","2005","09","22","04:00","12.3","","10.1","","86","","5","","7","","","","98.34","","","","","","NA"
"2005-09-22 05:00","2005","09","22","05:00","11.7","","10.3","","91","","3","","19","","","","98.30","","","","","","NA"
"2005-09-22 06:00","2005","09","22","06:00","11.9","","10.1","","89","","5","","15","","","","98.42","","","","","","NA"
"2005-09-22 07:00","2005","09","22","07:00","11.7","","10.5","","92","","9","","6","","","","98.53","","","","","","NA"
"2005-09-22 08:00","2005","09","22","08:00","11.4","","10.4","","94","","1","","11","","","","98.56","","","","","","NA"
"2005-09-22 09:00","2005","09","22","09:00","12.5","","10.8","","89","","2","","13","","","","98.62","","","","","","NA"
"2005-09-22 10:00","2005","09","22","10:00","14.2","","10.6","","79","","2","","13","","","","98.64","","","","","","NA"
"2005-09-22 11:00","2005","09","22","11:00","15.1","","9.7","","70","","36","","11","","","","98.66","","","","","","NA"
"2005-09-22 12:00","2005","09","22","12:00","16.5","","8.1","","58","","34","","15","","","","98.67","","","","","","NA"
"2005-09-22 13:00","2005","09","22","13:00","16.7","","8.2","","57","","34","","15","","","","98.73","","","","","","NA"
"2005-09-22 14:00","2005","09","22","14:00","16.7","","7.1","","53","","31","","22","","","","98.74","","","","","","NA"
"2005-09-22 15:00","2005","09","22","15:00","16.7","","7.0","","53","","32","","19","","","","98.78","","","","","","NA"
"2005-09-22 16:00","2005","09","22","16:00","16.3","","5.2","","48","","32","","20","","","","98.82","","","","","","NA"
"2005-09-22 17:00","2005","09","22","17:00","15.7","","4.8","","48","","33","","17","","","","98.90","","","","","","NA"
"2005-09-22 18:00","2005","09","22","18:00","14.4","","4.4","","51","","34","","13","","","","98.99","","","","","","NA"
"2005-09-22 19:00","2005","09","22","19:00","12.7","","4.4","","57","","36","","11","","","","99.04","","","","","","NA"
"2005-09-22 20:00","2005","09","22","20:00","11.7","","4.8","","63","","1","","11","","","","99.14","","","","","","NA"
"2005-09-22 21:00","2005","09","22","21:00","11.3","","4.4","","62","","36","","9","","","","99.22","","","","","","NA"
"2005-09-22 22:00","2005","09","22","22:00","10.0","","3.0","","62","","36","","11","","","","99.31","","","","","","NA"
"2005-09-22 23:00","2005","09","22","23:00","9.0","","2.5","","64","","35","","9","","","","99.37","","","","","","NA"
"2005-09-23 00:00","2005","09","23","00:00","6.5","","3.0","","78","","2","","9","","","","99.46","","","","","","NA"
"2005-09-23 01:00","2005","09","23","01:00","5.5","","2.7","","82","","4","","9","","","","99.57","","","","","","NA"
"2005-09-23 02:00","2005","09","23","02:00","4.3","","2.4","","87","","2","","9","","","","99.66","","","","","","NA"
"2005-09-23 03:00","2005","09","23","03:00","3.8","","1.9","","87","","5","","9","","","","99.73","","","","","","NA"
"2005-09-23 04:00","2005","09","23","04:00","2.7","","1.5","","92","","2","","9","","","","99.79","","","","","","NA"
"2005-09-23 05:00","2005","09","23","05:00","3.3","","0.7","","83","","2","","9","","","","99.87","","","","","","NA"
"2005-09-23 06:00","2005","09","23","06:00","1.5","","1.5","","100","","5","","6","","","","99.95","","","","","","NA"
"2005-09-23 07:00","2005","09","23","07:00","1.1","","1.1","","100","","6","","7","","","","100.00","","","","","","NA"
"2005-09-23 08:00","2005","09","23","08:00","4.3","","0.7","","77","","4","","6","","","","100.06","","","","","","NA"
"2005-09-23 09:00","2005","09","23","09:00","5.7","","0.1","","67","","2","","9","","","","100.13","","","","","","NA"
"2005-09-23 10:00","2005","09","23","10:00","7.0","","0.3","","62","","36","","9","","","","100.15","","","","","","NA"
"2005-09-23 11:00","2005","09","23","11:00","9.2","","0.7","","55","","24","","6","","","","100.18","","","","","","NA"
"2005-09-23 12:00","2005","09","23","12:00","9.5","","1.8","","59","","29","","11","","","","100.15","","","","","","NA"
"2005-09-23 13:00","2005","09","23","13:00","10.2","","2.9","","60","","24","","13","","","","100.18","","","","","","NA"
"2005-09-23 14:00","2005","09","23","14:00","11.4","","2.5","","54","","26","","9","","","","100.15","","","","","","NA"
"2005-09-23 15:00","2005","09","23","15:00","12.0","","3.5","","56","","28","","7","","","","100.09","","","","","","NA"
"2005-09-23 16:00","2005","09","23","16:00","12.1","","3.9","","57","","27","","9","","","","100.08","","","","","","NA"
"2005-09-23 17:00","2005","09","23","17:00","11.6","","4.3","","61","","29","","7","","","","100.11","","","","","","NA"
"2005-09-23 18:00","2005","09","23","18:00","11.5","","4.4","","62","","33","","4","","","","100.07","","","","","","NA"
"2005-09-23 19:00","2005","09","23","19:00","8.6","","6.6","","87","","7","","6","","","","100.02","","","","","","NA"
"2005-09-23 20:00","2005","09","23","20:00","7.4","","6.4","","93","","7","","9","","","","100.03","","","","","","NA"
"2005-09-23 21:00","2005","09","23","21:00","6.4","","6.1","","98","","7","","9","","","","100.05","","","","","","NA"
"2005-09-23 22:00","2005","09","23","22:00","5.6","","5.3","","98","","8","","11","","","","100.02","","","","","","NA"
"2005-09-23 23:00","2005","09","23","23:00","4.9","","4.9","","100","","7","","17","","","","99.99","","","","","","NA"
"2005-09-24 00:00","2005","09","24","00:00","4.5","","4.5","","100","","7","","15","","","","99.96","","","","","","NA"
"2005-09-24 01:00","2005","09","24","01:00","4.9","","4.7","","99","","8","","15","","","","99.92","","","","","","NA"
"2005-09-24 02:00","2005","09","24","02:00","5.7","","4.3","","91","","9","","17","","","","99.91","","","","","","NA"
"2005-09-24 03:00","2005","09","24","03:00","7.8","","5.0","","82","","10","","15","","","","99.85","","","","","","NA"
"2005-09-24 04:00","2005","09","24","04:00","8.3","","6.2","","87","","10","","17","","","","99.79","","","","","","NA"
"2005-09-24 05:00","2005","09","24","05:00","8.5","","6.7","","88","","9","","13","","","","99.78","","","","","","NA"
"2005-09-24 06:00","2005","09","24","06:00","10.2","","8.5","","89","","13","","15","","","","99.70","","","","","","NA"
"2005-09-24 07:00","2005","09","24","07:00","11.0","","9.1","","88","","13","","17","","","","99.66","","","","","","NA"
"2005-09-24 08:00","2005","09","24","08:00","13.9","","10.7","","81","","15","","22","","","","99.55","","","","","","NA"
"2005-09-24 09:00","2005","09","24","09:00","14.7","","11.8","","83","","17","","35","","","","99.51","","","","","","NA"
"2005-09-24 10:00","2005","09","24","10:00","15.1","","11.9","","81","","18","","44","","","","99.41","","","","","","NA"
"2005-09-24 11:00","2005","09","24","11:00","15.1","","12.2","","83","","17","","44","","","","99.32","","","","","","NA"
"2005-09-24 12:00","2005","09","24","12:00","15.4","","11.7","","79","","18","","43","","","","99.30","","","","","","NA"
"2005-09-24 13:00","2005","09","24","13:00","15.4","","12.4","","82","","17","","43","","","","99.22","","","","","","NA"
"2005-09-24 14:00","2005","09","24","14:00","15.6","","13.1","","85","","17","","43","","","","99.09","","","","","","NA"
"2005-09-24 15:00","2005","09","24","15:00","15.6","","13.3","","86","","17","","41","","","","99.06","","","","","","NA"
"2005-09-24 16:00","2005","09","24","16:00","16.0","","13.1","","83","","19","","35","","","","99.00","","","","","","NA"
"2005-09-24 17:00","2005","09","24","17:00","15.7","","14.2","","91","","17","","33","","","","98.88","","","","","","NA"
"2005-09-24 18:00","2005","09","24","18:00","15.7","","13.2","","85","","17","","26","","","","98.83","","","","","","NA"
"2005-09-24 19:00","2005","09","24","19:00","14.9","","14.9","","100","","17","","20","","","","98.85","","","","","","NA"
"2005-09-24 20:00","2005","09","24","20:00","15.2","","15.2","","100","","18","","24","","","","98.82","","","","","","NA"
"2005-09-24 21:00","2005","09","24","21:00","15.1","","15.1","","100","","19","","39","","","","98.77","","","","","","NA"
"2005-09-24 22:00","2005","09","24","22:00","15.1","","15.1","","100","","17","","24","","","","98.69","","","","","","NA"
"2005-09-24 23:00","2005","09","24","23:00","15.9","","15.9","","100","","22","","32","","","","98.65","","","","","","NA"
"2005-09-25 00:00","2005","09","25","00:00","15.7","","15.7","","100","","26","","24","","","","98.63","","","","","","NA"
"2005-09-25 01:00","2005","09","25","01:00","15.5","","15.5","","100","","28","","17","","","","98.68","","","","","","NA"
"2005-09-25 02:00","2005","09","25","02:00","15.5","","15.5","","100","","35","","11","","","","98.65","","","","","","NA"
"2005-09-25 03:00","2005","09","25","03:00","13.0","","13.0","","100","","1","","17","","","","98.73","","","","","","NA"
"2005-09-25 04:00","2005","09","25","04:00","12.1","","11.8","","98","","4","","22","","","","98.75","","","","","","NA"
"2005-09-25 05:00","2005","09","25","05:00","11.7","","11.2","","97","","2","","13","","","","98.85","","","","","","NA"
"2005-09-25 06:00","2005","09","25","06:00","11.4","","11.1","","98","","1","","4","","","","98.92","","","","","","NA"
"2005-09-25 07:00","2005","09","25","07:00","10.6","","10.6","","100","","3","","6","","","","98.91","","","","","","NA"
"2005-09-25 08:00","2005","09","25","08:00","10.9","","10.9","","100","","33","","2","","","","98.97","","","","","","NA"
"2005-09-25 09:00","2005","09","25","09:00","11.7","","11.5","","99","","4","","6","","","","99.00","","","","","","NA"
"2005-09-25 10:00","2005","09","25","10:00","12.6","","11.3","","92","","4","","6","","","","99.02","","","","","","NA"
"2005-09-25 11:00","2005","09","25","11:00","13.3","","10.0","","80","","6","","13","","","","99.00","","","","","","NA"
"2005-09-25 12:00","2005","09","25","12:00","14.1","","10.1","","77","","6","","11","","","","99.00","","","","","","NA"
"2005-09-25 13:00","2005","09","25","13:00","15.0","","8.9","","67","","4","","6","","","","98.95","","","","","","NA"
"2005-09-25 14:00","2005","09","25","14:00","15.7","","8.3","","61","","3","","9","","","","98.85","","","","","","NA"
"2005-09-25 15:00","2005","09","25","15:00","15.9","","7.3","","57","","4","","7","","","","98.83","","","","","","NA"
"2005-09-25 16:00","2005","09","25","16:00","15.9","","7.4","","57","","2","","6","","","","98.80","","","","","","NA"
"2005-09-25 17:00","2005","09","25","17:00","15.8","","7.7","","59","","1","","6","","","","98.80","","","","","","NA"
"2005-09-25 18:00","2005","09","25","18:00","14.4","","8.1","","66","","5","","4","","","","98.76","","","","","","NA"
"2005-09-25 19:00","2005","09","25","19:00","12.5","","9.0","","79","","3","","9","","","","98.71","","","","","","NA"
"2005-09-25 20:00","2005","09","25","20:00","10.8","","9.5","","92","","7","","7","","","","98.72","","","","","","NA"
"2005-09-25 21:00","2005","09","25","21:00","9.9","","9.3","","96","","6","","7","","","","98.70","","","","","","NA"
"2005-09-25 22:00","2005","09","25","22:00","9.5","","8.8","","95","","5","","7","","","","98.72","","","","","","NA"
"2005-09-25 23:00","2005","09","25","23:00","9.5","","9.0","","97","","8","","6","","","","98.71","","","","","","NA"
"2005-09-26 00:00","2005","09","26","00:00","8.9","","7.9","","93","","5","","7","","","","98.67","","","","","","NA"
"2005-09-26 01:00","2005","09","26","01:00","8.8","","7.3","","90","","6","","7","","","","98.63","","","","","","NA"
"2005-09-26 02:00","2005","09","26","02:00","8.1","","7.2","","94","","6","","6","","","","98.62","","","","","","NA"
"2005-09-26 03:00","2005","09","26","03:00","7.2","","7.0","","99","","1","","9","","","","98.61","","","","","","NA"
"2005-09-26 04:00","2005","09","26","04:00","8.4","","7.2","","92","","5","","15","","","","98.63","","","","","","NA"
"2005-09-26 05:00","2005","09","26","05:00","8.4","","7.2","","92","","7","","11","","","","98.62","","","","","","NA"
"2005-09-26 06:00","2005","09","26","06:00","7.7","","6.7","","93","","5","","11","","","","98.61","","","","","","NA"
"2005-09-26 07:00","2005","09","26","07:00","6.6","","6.3","","98","","7","","9","","","","98.63","","","","","","NA"
"2005-09-26 08:00","2005","09","26","08:00","8.9","","6.0","","82","","5","","7","","","","98.66","","","","","","NA"
"2005-09-26 09:00","2005","09","26","09:00","12.4","","7.1","","70","","8","","9","","","","98.64","","","","","","NA"
"2005-09-26 10:00","2005","09","26","10:00","14.0","","7.5","","65","","21","","6","","","","98.64","","","","","","NA"
"2005-09-26 11:00","2005","09","26","11:00","13.8","","8.2","","69","","28","","11","","","","98.70","","","","","","NA"
"2005-09-26 12:00","2005","09","26","12:00","14.8","","7.2","","60","","26","","11","","","","98.71","","","","","","NA"
"2005-09-26 13:00","2005","09","26","13:00","15.5","","8.1","","61","","27","","15","","","","98.69","","","","","","NA"
"2005-09-26 14:00","2005","09","26","14:00","16.0","","9.0","","63","","27","","15","","","","98.65","","","","","","NA"
"2005-09-26 15:00","2005","09","26","15:00","16.0","","9.6","","66","","26","","20","","","","98.63","","","","","","NA"
"2005-09-26 16:00","2005","09","26","16:00","15.9","","9.9","","68","","25","","22","","","","98.64","","","","","","NA"
"2005-09-26 17:00","2005","09","26","17:00","15.5","","9.7","","68","","24","","22","","","","98.60","","","","","","NA"
"2005-09-26 18:00","2005","09","26","18:00","15.0","","10.3","","73","","25","","26","","","","98.60","","","","","","NA"
"2005-09-26 19:00","2005","09","26","19:00","14.9","","9.2","","69","","25","","26","","","","98.63","","","","","","NA"
"2005-09-26 20:00","2005","09","26","20:00","14.9","","11.6","","81","","25","","33","","","","98.65","","","","","","NA"
"2005-09-26 21:00","2005","09","26","21:00","14.9","","11.8","","82","","25","","32","","","","98.64","","","","","","NA"
"2005-09-26 22:00","2005","09","26","22:00","15.3","","12.5","","83","","27","","28","","","","98.65","","","","","","NA"
"2005-09-26 23:00","2005","09","26","23:00","15.6","","13.4","","87","","28","","26","","","","98.68","","","","","","NA"
"2005-09-27 00:00","2005","09","27","00:00","15.7","","14.2","","91","","29","","28","","","","98.65","","","","","","NA"
"2005-09-27 01:00","2005","09","27","01:00","15.8","","14.7","","93","","29","","26","","","","98.67","","","","","","NA"
"2005-09-27 02:00","2005","09","27","02:00","15.9","","13.8","","87","","29","","19","","","","98.69","","","","","","NA"
"2005-09-27 03:00","2005","09","27","03:00","15.7","","12.4","","81","","29","","17","","","","98.70","","","","","","NA"
"2005-09-27 04:00","2005","09","27","04:00","15.4","","12.1","","81","","29","","13","","","","98.71","","","","","","NA"
"2005-09-27 05:00","2005","09","27","05:00","13.8","","11.7","","87","","33","","6","","","","98.72","","","","","","NA"
"2005-09-27 06:00","2005","09","27","06:00","13.6","","11.1","","85","","32","","7","","","","98.76","","","","","","NA"
"2005-09-27 07:00","2005","09","27","07:00","10.2","","9.9","","98","","5","","4","","","","98.83","","","","","","NA"
"2005-09-27 08:00","2005","09","27","08:00","11.5","","10.4","","93","","6","","6","","","","98.85","","","","","","NA"
"2005-09-27 09:00","2005","09","27","09:00","15.3","","11.0","","76","","9","","4","","","","98.84","","","","","","NA"
"2005-09-27 10:00","2005","09","27","10:00","17.0","","11.0","","68","","26","","7","","","","98.86","","","","","","NA"
"2005-09-27 11:00","2005","09","27","11:00","16.9","","13.1","","78","","24","","15","","","","98.87","","","","","","NA"
"2005-09-27 12:00","2005","09","27","12:00","17.2","","13.1","","77","","22","","15","","","","98.85","","","","","","NA"
"2005-09-27 13:00","2005","09","27","13:00","17.8","","14.1","","79","","20","","22","","","","98.81","","","","","","NA"
"2005-09-27 14:00","2005","09","27","14:00","16.8","","14.2","","85","","20","","26","","","","98.78","","","","","","NA"
"2005-09-27 15:00","2005","09","27","15:00","17.6","","14.1","","80","","20","","30","","","","98.73","","","","","","NA"
"2005-09-27 16:00","2005","09","27","16:00","17.4","","13.5","","78","","20","","32","","","","98.69","","","","","","NA"
"2005-09-27 17:00","2005","09","27","17:00","17.1","","13.2","","78","","19","","32","","","","98.60","","","","","","NA"
"2005-09-27 18:00","2005","09","27","18:00","16.4","","14.4","","88","","18","","30","","","","98.56","","","","","","NA"
"2005-09-27 19:00","2005","09","27","19:00","16.2","","13.9","","86","","16","","26","","","","98.53","","","","","","NA"
"2005-09-27 20:00","2005","09","27","20:00","16.4","","13.4","","82","","17","","26","","","","98.50","","","","","","NA"
"2005-09-27 21:00","2005","09","27","21:00","17.0","","13.9","","82","","18","","33","","","","98.43","","","","","","NA"
"2005-09-27 22:00","2005","09","27","22:00","16.9","","14.2","","84","","17","","39","","","","98.38","","","","","","NA"
"2005-09-27 23:00","2005","09","27","23:00","16.8","","15.8","","94","","18","","32","","","","98.33","","","","","","NA"
"2005-09-28 00:00","2005","09","28","00:00","17.0","","15.7","","92","","19","","32","","","","98.26","","","","","","NA"
"2005-09-28 01:00","2005","09","28","01:00","17.1","","15.4","","90","","20","","43","","","","98.20","","","","","","NA"
"2005-09-28 02:00","2005","09","28","02:00","17.1","","14.7","","86","","20","","41","","","","98.11","","","","","","NA"
"2005-09-28 03:00","2005","09","28","03:00","16.9","","15.1","","89","","20","","39","","","","98.03","","","","","","NA"
"2005-09-28 04:00","2005","09","28","04:00","16.8","","15.2","","90","","19","","35","","","","97.96","","","","","","NA"
"2005-09-28 05:00","2005","09","28","05:00","15.8","","15.8","","100","","19","","41","","","","97.91","","","","","","NA"
"2005-09-28 06:00","2005","09","28","06:00","15.7","","15.7","","100","","17","","33","","","","97.82","","","","","","NA"
"2005-09-28 07:00","2005","09","28","07:00","15.5","","15.5","","100","","19","","39","","","","97.81","","","","","","NA"
"2005-09-28 08:00","2005","09","28","08:00","15.6","","15.6","","100","","24","","33","","","","97.81","","","","","","NA"
"2005-09-28 09:00","2005","09","28","09:00","14.9","","14.9","","100","","28","","9","","","","97.75","","","","","","NA"
"2005-09-28 10:00","2005","09","28","10:00","13.2","","13.2","","100","","35","","19","","","","97.81","","","","","","NA"
"2005-09-28 11:00","2005","09","28","11:00","10.3","","10.3","","100","","2","","22","","","","97.83","","","","","","NA"
"2005-09-28 12:00","2005","09","28","12:00","10.0","","10.0","","100","","1","","15","","","","97.95","","","","","","NA"
"2005-09-28 13:00","2005","09","28","13:00","9.2","","9.1","","99","","36","","15","","","","98.00","","","","","","NA"
"2005-09-28 14:00","2005","09","28","14:00","8.6","","8.6","","100","","36","","13","","","","98.03","","","","","","NA"
"2005-09-28 15:00","2005","09","28","15:00","8.2","","8.1","","99","","36","","13","","","","98.06","","","","","","NA"
"2005-09-28 16:00","2005","09","28","16:00","8.1","","7.4","","95","","36","","11","","","","98.11","","","","","","NA"
"2005-09-28 17:00","2005","09","28","17:00","8.1","","7.7","","97","","1","","6","","","","98.16","","","","","","NA"
"2005-09-28 18:00","2005","09","28","18:00","8.0","","7.6","","97","","36","","6","","","","98.22","","","","","","NA"
"2005-09-28 19:00","2005","09","28","19:00","6.9","","4.4","","84","","35","","17","","","","98.30","","","","","","NA"
"2005-09-28 20:00","2005","09","28","20:00","6.1","","4.3","","88","","1","","7","","","","98.36","","","","","","NA"
"2005-09-28 21:00","2005","09","28","21:00","5.3","","3.7","","89","","36","","6","","","","98.37","","","","","","NA"
"2005-09-28 22:00","2005","09","28","22:00","5.4","","2.9","","84","","35","","13","","","","98.40","","","","","","NA"
"2005-09-28 23:00","2005","09","28","23:00","5.0","","0.7","","74","","36","","13","","","","98.43","","","","","","NA"
"2005-09-29 00:00","2005","09","29","00:00","3.2","","1.0","","85","","4","","9","","","","98.47","","","","","","NA"
"2005-09-29 01:00","2005","09","29","01:00","2.6","","-0.5","","80","","1","","9","","","","98.48","","","","","","NA"
"2005-09-29 02:00","2005","09","29","02:00","1.4","","-0.7","","86","","3","","9","","","","98.48","","","","","","NA"
"2005-09-29 03:00","2005","09","29","03:00","0.7","","-0.5","","92","","3","","9","","","","98.49","","","","","","NA"
"2005-09-29 04:00","2005","09","29","04:00","1.0","","-1.0","","86","","3","","9","","","","98.50","","","","","","NA"
"2005-09-29 05:00","2005","09","29","05:00","0.5","","-0.8","","91","","2","","9","","","","98.55","","","","","","NA"
"2005-09-29 06:00","2005","09","29","06:00","2.2","","-1.0","","79","","35","","15","","","","98.61","","","","","","NA"
"2005-09-29 07:00","2005","09","29","07:00","2.7","","-1.7","","73","","34","","19","","","","98.66","","","","","","NA"
"2005-09-29 08:00","2005","09","29","08:00","3.1","","-2.7","","66","","35","","15","","","","98.69","","","","","","NA"
"2005-09-29 09:00","2005","09","29","09:00","5.2","","-0.7","","66","","33","","20","","","","98.77","","","","","","NA"
"2005-09-29 10:00","2005","09","29","10:00","5.5","","-0.8","","64","","32","","22","","","","98.78","","","","","","NA"
"2005-09-29 11:00","2005","09","29","11:00","6.3","","-0.2","","63","","33","","9","","","","98.76","","","","","","NA"
"2005-09-29 12:00","2005","09","29","12:00","8.1","","0.8","","60","","30","","13","","","","98.79","","","","","","NA"
"2005-09-29 13:00","2005","09","29","13:00","7.9","","1.5","","64","","28","","19","","","","98.80","","","","","","NA"
"2005-09-29 14:00","2005","09","29","14:00","9.3","","0.9","","56","","27","","20","","","","98.77","","","","","","NA"
"2005-09-29 15:00","2005","09","29","15:00","9.0","","1.4","","59","","27","","28","","","","98.73","","","","","","NA"
"2005-09-29 16:00","2005","09","29","16:00","9.3","","2.9","","64","","28","","28","","","","98.72","","","","","","NA"
"2005-09-29 17:00","2005","09","29","17:00","9.3","","5.2","","76","","27","","20","","","","98.65","","","","","","NA"
"2005-09-29 18:00","2005","09","29","18:00","10.1","","6.0","","76","","25","","28","","","","98.60","","","","","","NA"
"2005-09-29 19:00","2005","09","29","19:00","10.8","","7.8","","82","","22","","24","","","","98.51","","","","","","NA"
"2005-09-29 20:00","2005","09","29","20:00","11.5","","6.3","","70","","23","","32","","","","98.50","","","","","","NA"
"2005-09-29 21:00","2005","09","29","21:00","12.2","","5.4","","63","","23","","35","","","","98.47","","","","","","NA"
"2005-09-29 22:00","2005","09","29","22:00","12.6","","6.5","","66","","22","","37","","","","98.42","","","","","","NA"
"2005-09-29 23:00","2005","09","29","23:00","13.1","","8.5","","74","","20","","44","","","","98.31","","","","","","NA"
"2005-09-30 00:00","2005","09","30","00:00","13.7","","7.1","","64","","20","","48","","","","98.16","","","","","","NA"
"2005-09-30 01:00","2005","09","30","01:00","13.8","","7.7","","67","","22","","50","","","","98.14","","","","","","NA"
"2005-09-30 02:00","2005","09","30","02:00","13.8","","8.9","","72","","22","","48","","","","98.02","","","","","","NA"
"2005-09-30 03:00","2005","09","30","03:00","13.7","","9.0","","73","","22","","48","","","","97.98","","","","","","NA"
"2005-09-30 04:00","2005","09","30","04:00","13.7","","9.6","","76","","21","","44","","","","97.93","","","","","","NA"
"2005-09-30 05:00","2005","09","30","05:00","13.8","","8.6","","71","","22","","44","","","","97.89","","","","","","NA"
"2005-09-30 06:00","2005","09","30","06:00","13.7","","9.1","","74","","22","","41","","","","97.84","","","","","","NA"
"2005-09-30 07:00","2005","09","30","07:00","13.6","","10.0","","79","","23","","37","","","","97.89","","","","","","NA"
"2005-09-30 08:00","2005","09","30","08:00","13.8","","9.9","","77","","24","","39","","","","97.92","","","","","","NA"
"2005-09-30 09:00","2005","09","30","09:00","13.7","","10.4","","80","","23","","35","","","","97.96","","","","","","NA"
"2005-09-30 10:00","2005","09","30","10:00","13.8","","10.9","","83","","23","","39","","","","97.99","","","","","","NA"
"2005-09-30 11:00","2005","09","30","11:00","14.0","","11.5","","85","","22","","32","","","","98.03","","","","","","NA"
"2005-09-30 12:00","2005","09","30","12:00","13.8","","11.4","","85","","23","","32","","","","98.04","","","","","","NA"
"2005-09-30 13:00","2005","09","30","13:00","14.0","","11.8","","87","","21","","28","","","","98.05","","","","","","NA"
"2005-09-30 14:00","2005","09","30","14:00","14.5","","11.7","","83","","21","","30","","","","98.07","","","","","","NA"
"2005-09-30 15:00","2005","09","30","15:00","14.4","","11.3","","82","","20","","28","","","","98.08","","","","","","NA"
"2005-09-30 16:00","2005","09","30","16:00","14.4","","11.2","","81","","20","","30","","","","98.09","","","","","","NA"
"2005-09-30 17:00","2005","09","30","17:00","14.2","","10.2","","77","","20","","32","","","","98.05","","","","","","NA"
"2005-09-30 18:00","2005","09","30","18:00","14.1","","11.8","","86","","17","","28","","","","97.97","","","","","","NA"
"2005-09-30 19:00","2005","09","30","19:00","13.8","","11.1","","84","","17","","22","","","","97.93","","","","","","NA"
"2005-09-30 20:00","2005","09","30","20:00","14.3","","11.3","","82","","17","","33","","","","97.83","","","","","","NA"
"2005-09-30 21:00","2005","09","30","21:00","15.4","","12.8","","84","","17","","39","","","","97.79","","","","","","NA"
"2005-09-30 22:00","2005","09","30","22:00","16.1","","13.4","","84","","18","","41","","","","97.80","","","","","","NA"
"2005-09-30 23:00","2005","09","30","23:00","16.0","","14.2","","89","","18","","33","","","","97.78","","","","","","NA"
