"Station Name","PUKASKWA (AUT)"
"Province","ONTARIO"
"Latitude","48.59"
"Longitude","-86.29"
"Elevation","207.60"
"Climate Identifier","6046767"
"WMO Identifier","71750"
"TC Identifier","WCJ"
"All times are specified in Local Standard Time (LST). Add 1 hour to adjust for Daylight Saving Time where and when it is observed."

"Legend"
"E","Estimated"
"M","Missing"
"NA","Not Available"

"Date/Time","Year","Month","Day","Time","Temp (°C)","Temp Flag","Dew Point Temp (°C)","Dew Point Temp Flag","Rel Hum (%)","Rel Hum Flag","Wind Dir (10s deg)","Wind Dir Flag","Wind Spd (km/h)","Wind Spd Flag","Visibility (km)","Visibility Flag","Stn Press (kPa)","Stn Press Flag","Hmdx","Hmdx Flag","Wind Chill","Wind Chill Flag","Weather"
"2003-12-01 00:00","2003","12","01","00:00","-3.5","","-7.7","","73","","32","","22","","","M","98.00","","","","-10","","NA"
"2003-12-01 01:00","2003","12","01","01:00","-3.7","","-10.4","","60","","32","","32","","","M","98.08","","","","-12","","NA"
"2003-12-01 02:00","2003","12","01","02:00","-4.1","","-10.2","","62","","31","","32","","","M","98.12","","","","-12","","NA"
"2003-12-01 03:00","2003","12","01","03:00","-4.2","","-10.1","","63","","31","","32","","","M","98.21","","","","-12","","NA"
"2003-12-01 04:00","2003","12","01","04:00","-3.6","","-8.7","","68","","30","","30","","","M","98.20","","","","-11","","NA"
"2003-12-01 05:00","2003","12","01","05:00","-3.4","","-8.9","","66","","30","","33","","","M","98.19","","","","-11","","NA"
"2003-12-01 06:00","2003","12","01","06:00","-3.6","","-9.3","","65","","29","","43","","","M","98.21","","","","-12","","NA"
"2003-12-01 07:00","2003","12","01","07:00","-3.7","","-9.8","","63","","31","","33","","","M","98.24","","","","-12","","NA"
"2003-12-01 08:00","2003","12","01","08:00","-3.6","","-7.6","","74","","30","","30","","","M","98.29","","","","-11","","NA"
"2003-12-01 09:00","2003","12","01","09:00","-3.6","","-9.3","","65","","30","","30","","","M","98.32","","","","-11","","NA"
"2003-12-01 10:00","2003","12","01","10:00","-4.1","","-9.8","","64","","30","","37","","","M","98.40","","","","-13","","NA"
"2003-12-01 11:00","2003","12","01","11:00","-4.1","","-10.4","","61","","30","","43","","","M","98.50","","","","-13","","NA"
"2003-12-01 12:00","2003","12","01","12:00","-4.2","","-9.3","","68","","30","","35","","","M","98.59","","","","-13","","NA"
"2003-12-01 13:00","2003","12","01","13:00","-6.0","","-6.6","","96","","32","","28","","","M","98.65","","","","-14","","NA"
"2003-12-01 14:00","2003","12","01","14:00","-5.5","","-9.5","","73","","33","","28","","","M","98.79","","","","-13","","NA"
"2003-12-01 15:00","2003","12","01","15:00","-4.6","","-10.5","","63","","32","","33","","","M","98.91","","","","-13","","NA"
"2003-12-01 16:00","2003","12","01","16:00","-5.5","","-11.1","","65","","32","","35","","","M","99.01","","","","-14","","NA"
"2003-12-01 17:00","2003","12","01","17:00","-5.7","","-10.2","","71","","32","","35","","","M","99.15","","","","-14","","NA"
"2003-12-01 18:00","2003","12","01","18:00","-6.0","","-10.0","","73","","33","","24","","","M","99.22","","","","-13","","NA"
"2003-12-01 19:00","2003","12","01","19:00","-5.8","","-7.0","","91","","33","","17","","","M","99.29","","","","-12","","NA"
"2003-12-01 20:00","2003","12","01","20:00","-5.3","","-8.6","","78","","32","","30","","","M","99.34","","","","-13","","NA"
"2003-12-01 21:00","2003","12","01","21:00","-6.5","","-9.3","","80","","35","","20","","","M","99.46","","","","-13","","NA"
"2003-12-01 22:00","2003","12","01","22:00","-7.2","","-11.8","","70","","34","","19","","","M","99.54","","","","-14","","NA"
"2003-12-01 23:00","2003","12","01","23:00","-7.4","","-12.7","","66","","35","","15","","","M","99.64","","","","-14","","NA"
"2003-12-02 00:00","2003","12","02","00:00","-7.4","","-10.8","","77","","35","","17","","","M","99.71","","","","-14","","NA"
"2003-12-02 01:00","2003","12","02","01:00","-6.7","","-10.0","","77","","32","","32","","","M","99.78","","","","-15","","NA"
"2003-12-02 02:00","2003","12","02","02:00","-6.9","","-9.9","","79","","33","","20","","","M","99.88","","","","-14","","NA"
"2003-12-02 03:00","2003","12","02","03:00","-7.7","","-11.3","","75","","35","","17","","","M","99.98","","","","-14","","NA"
"2003-12-02 04:00","2003","12","02","04:00","-8.5","","-12.4","","73","","36","","15","","","M","100.08","","","","-15","","NA"
"2003-12-02 05:00","2003","12","02","05:00","-9.6","","-14.3","","69","","34","","22","","","M","100.17","","","","-18","","NA"
"2003-12-02 06:00","2003","12","02","06:00","-10.1","","-14.4","","71","","35","","17","","","M","100.21","","","","-17","","NA"
"2003-12-02 07:00","2003","12","02","07:00","-10.8","","-14.6","","74","","36","","7","","","M","100.33","","","","-15","","NA"
"2003-12-02 08:00","2003","12","02","08:00","-11.0","","-14.2","","77","","5","","7","","","M","100.37","","","","-15","","NA"
"2003-12-02 09:00","2003","12","02","09:00","-9.9","","-13.4","","76","","4","","9","","","M","100.46","","","","-15","","NA"
"2003-12-02 10:00","2003","12","02","10:00","-8.4","","-13.3","","68","","2","","7","","","M","100.52","","","","-12","","NA"
"2003-12-02 11:00","2003","12","02","11:00","-7.8","","-14.1","","61","","36","","9","","","M","100.52","","","","-12","","NA"
"2003-12-02 12:00","2003","12","02","12:00","-6.5","","-13.9","","56","","4","","6","","","M","100.50","","","","-9","","NA"
"2003-12-02 13:00","2003","12","02","13:00","-5.3","","-10.2","","68","","28","","7","","","M","100.51","","","","-9","","NA"
"2003-12-02 14:00","2003","12","02","14:00","-3.8","","-10.5","","60","","25","","7","","","M","100.49","","","","-7","","NA"
"2003-12-02 15:00","2003","12","02","15:00","-3.7","","-9.6","","64","","30","","4","","","M","100.49","","","","-5","","NA"
"2003-12-02 16:00","2003","12","02","16:00","-2.8","","-9.6","","59","","27","","6","","","M","100.49","","","","-5","","NA"
"2003-12-02 17:00","2003","12","02","17:00","-3.8","","-8.6","","69","","24","","7","","","M","100.48","","","","-7","","NA"
"2003-12-02 18:00","2003","12","02","18:00","-6.4","","-9.7","","77","","7","","7","","","M","100.44","","","","-10","","NA"
"2003-12-02 19:00","2003","12","02","19:00","-6.4","","-9.1","","81","","7","","13","","","M","100.44","","","","-12","","NA"
"2003-12-02 20:00","2003","12","02","20:00","-6.2","","-8.5","","84","","7","","11","","","M","100.47","","","","-11","","NA"
"2003-12-02 21:00","2003","12","02","21:00","-6.0","","-8.5","","82","","8","","9","","","M","100.42","","","","-10","","NA"
"2003-12-02 22:00","2003","12","02","22:00","-5.9","","-8.9","","79","","5","","4","","","M","100.45","","","","-8","","NA"
"2003-12-02 23:00","2003","12","02","23:00","-2.4","","-8.4","","63","","28","","20","","","M","100.42","","","","-8","","NA"
"2003-12-03 00:00","2003","12","03","00:00","-1.9","","-6.7","","70","","29","","17","","","M","100.38","","","","-7","","NA"
"2003-12-03 01:00","2003","12","03","01:00","-0.6","","-5.9","","67","","27","","20","","","M","100.33","","","","-6","","NA"
"2003-12-03 02:00","2003","12","03","02:00","0.2","","-5.5","","65","","27","","20","","","M","100.34","","","","","","NA"
"2003-12-03 03:00","2003","12","03","03:00","0.5","","-3.1","","77","","28","","22","","","M","100.34","","","","","","NA"
"2003-12-03 04:00","2003","12","03","04:00","0.9","","-2.2","","80","","28","","24","","","M","100.34","","","","","","NA"
"2003-12-03 05:00","2003","12","03","05:00","0.4","","-2.6","","80","","29","","19","","","M","100.35","","","","","","NA"
"2003-12-03 06:00","2003","12","03","06:00","0.9","","-6.3","","59","","27","","22","","","M","100.31","","","","","","NA"
"2003-12-03 07:00","2003","12","03","07:00","1.2","","-7.7","","51","","26","","24","","","M","100.30","","","","","","NA"
"2003-12-03 08:00","2003","12","03","08:00","1.3","","-7.6","","51","","27","","24","","","M","100.30","","","","","","NA"
"2003-12-03 09:00","2003","12","03","09:00","1.3","","-5.9","","59","","28","","22","","","M","100.31","","","","","","NA"
"2003-12-03 10:00","2003","12","03","10:00","1.5","","-6.2","","57","","28","","22","","","M","100.34","","","","","","NA"
"2003-12-03 11:00","2003","12","03","11:00","1.6","","-5.2","","61","","29","","17","","","M","100.35","","","","","","NA"
"2003-12-03 12:00","2003","12","03","12:00","1.9","","-4.9","","61","","29","","20","","","M","100.33","","","","","","NA"
"2003-12-03 13:00","2003","12","03","13:00","2.4","","-4.0","","63","","28","","17","","","M","100.29","","","","","","NA"
"2003-12-03 14:00","2003","12","03","14:00","2.4","","-3.4","","65","","28","","11","","","M","100.22","","","","","","NA"
"2003-12-03 15:00","2003","12","03","15:00","3.3","","-5.2","","54","","28","","15","","","M","100.17","","","","","","NA"
"2003-12-03 16:00","2003","12","03","16:00","3.1","","-3.3","","63","","28","","15","","","M","100.15","","","","","","NA"
"2003-12-03 17:00","2003","12","03","17:00","2.4","","-2.0","","73","","27","","20","","","M","100.16","","","","","","NA"
"2003-12-03 18:00","2003","12","03","18:00","2.5","","-1.6","","74","","26","","20","","","M","100.15","","","","","","NA"
"2003-12-03 19:00","2003","12","03","19:00","2.6","","-1.8","","73","","27","","19","","","M","100.14","","","","","","NA"
"2003-12-03 20:00","2003","12","03","20:00","2.7","","-1.6","","73","","27","","17","","","M","100.13","","","","","","NA"
"2003-12-03 21:00","2003","12","03","21:00","2.7","","-2.5","","69","","26","","17","","","M","100.11","","","","","","NA"
"2003-12-03 22:00","2003","12","03","22:00","2.6","","-1.1","","77","","25","","17","","","M","100.10","","","","","","NA"
"2003-12-03 23:00","2003","12","03","23:00","2.4","","-1.0","","78","","25","","15","","","M","100.11","","","","","","NA"
"2003-12-04 00:00","2003","12","04","00:00","2.6","","-0.2","","82","","24","","19","","","M","100.08","","","","","","NA"
"2003-12-04 01:00","2003","12","04","01:00","2.6","","-0.2","","82","","24","","17","","","M","100.08","","","","","","NA"
"2003-12-04 02:00","2003","12","04","02:00","2.3","","-0.9","","79","","26","","17","","","M","100.09","","","","","","NA"
"2003-12-04 03:00","2003","12","04","03:00","2.3","","-2.1","","73","","26","","15","","","M","100.08","","","","","","NA"
"2003-12-04 04:00","2003","12","04","04:00","2.5","","-2.1","","72","","26","","17","","","M","100.06","","","","","","NA"
"2003-12-04 05:00","2003","12","04","05:00","-2.2","","-4.5","","84","","4","","4","","","M","100.05","","","","-4","","NA"
"2003-12-04 06:00","2003","12","04","06:00","-4.3","","-5.2","","93","","7","","11","","","M","100.04","","","","-9","","NA"
"2003-12-04 07:00","2003","12","04","07:00","-4.1","","-4.9","","94","","7","","15","","","M","100.05","","","","-9","","NA"
"2003-12-04 08:00","2003","12","04","08:00","-3.7","","-4.8","","92","","7","","13","","","M","100.04","","","","-9","","NA"
"2003-12-04 09:00","2003","12","04","09:00","-3.2","","-4.3","","92","","6","","15","","","M","100.03","","","","-8","","NA"
"2003-12-04 10:00","2003","12","04","10:00","-3.0","","-4.2","","91","","7","","13","","","M","100.06","","","","-8","","NA"
"2003-12-04 11:00","2003","12","04","11:00","-1.1","","-2.6","","90","","9","","15","","","M","100.03","","","","-6","","NA"
"2003-12-04 12:00","2003","12","04","12:00","0.3","","-1.9","","85","","7","","9","","","M","100.00","","","","","","NA"
"2003-12-04 13:00","2003","12","04","13:00","2.8","","0.9","","87","","18","","9","","","M","99.96","","","","","","NA"
"2003-12-04 14:00","2003","12","04","14:00","3.1","","-1.2","","73","","21","","20","","","M","99.93","","","","","","NA"
"2003-12-04 15:00","2003","12","04","15:00","3.2","","-0.5","","77","","21","","15","","","M","99.87","","","","","","NA"
"2003-12-04 16:00","2003","12","04","16:00","2.9","","0.5","","84","","17","","17","","","M","99.85","","","","","","NA"
"2003-12-04 17:00","2003","12","04","17:00","2.8","","-0.2","","81","","18","","15","","","M","99.84","","","","","","NA"
"2003-12-04 18:00","2003","12","04","18:00","2.0","","-0.3","","85","","13","","9","","","M","99.83","","","","","","NA"
"2003-12-04 19:00","2003","12","04","19:00","1.6","","-0.1","","88","","14","","11","","","M","99.80","","","","","","NA"
"2003-12-04 20:00","2003","12","04","20:00","1.7","","0.1","","89","","13","","11","","","M","99.80","","","","","","NA"
"2003-12-04 21:00","2003","12","04","21:00","1.6","","-0.1","","88","","13","","9","","","M","99.77","","","","","","NA"
"2003-12-04 22:00","2003","12","04","22:00","1.9","","0.3","","89","","16","","11","","","M","99.75","","","","","","NA"
"2003-12-04 23:00","2003","12","04","23:00","2.1","","0.0","","86","","13","","7","","","M","99.76","","","","","","NA"
"2003-12-05 00:00","2003","12","05","00:00","3.1","","1.2","","87","","19","","22","","","M","99.73","","","","","","NA"
"2003-12-05 01:00","2003","12","05","01:00","3.2","","1.9","","91","","19","","20","","","M","99.70","","","","","","NA"
"2003-12-05 02:00","2003","12","05","02:00","3.5","","1.4","","86","","20","","28","","","M","99.68","","","","","","NA"
"2003-12-05 03:00","2003","12","05","03:00","3.5","","-0.2","","77","","21","","28","","","M","99.68","","","","","","NA"
"2003-12-05 04:00","2003","12","05","04:00","3.5","","0.2","","79","","22","","24","","","M","99.67","","","","","","NA"
"2003-12-05 05:00","2003","12","05","05:00","3.4","","1.0","","84","","22","","22","","","M","99.65","","","","","","NA"
"2003-12-05 06:00","2003","12","05","06:00","3.4","","1.6","","88","","22","","20","","","M","99.63","","","","","","NA"
"2003-12-05 07:00","2003","12","05","07:00","3.4","","1.1","","85","","24","","19","","","M","99.66","","","","","","NA"
"2003-12-05 08:00","2003","12","05","08:00","3.5","","1.1","","84","","23","","19","","","M","99.66","","","","","","NA"
"2003-12-05 09:00","2003","12","05","09:00","1.6","","-0.7","","85","","32","","7","","","M","99.66","","","","","","NA"
"2003-12-05 10:00","2003","12","05","10:00","2.3","","0.5","","88","","28","","7","","","M","99.67","","","","","","NA"
"2003-12-05 11:00","2003","12","05","11:00","3.4","","1.3","","86","","28","","17","","","M","99.68","","","","","","NA"
"2003-12-05 12:00","2003","12","05","12:00","1.6","","1.2","","97","","32","","17","","","M","99.68","","","","","","NA"
"2003-12-05 13:00","2003","12","05","13:00","0.8","","0.8","","100","","32","","13","","","M","99.67","","","","","","NA"
"2003-12-05 14:00","2003","12","05","14:00","1.0","","0.9","","99","","32","","13","","","M","99.65","","","","","","NA"
"2003-12-05 15:00","2003","12","05","15:00","0.6","","0.0","","96","","35","","11","","","M","99.66","","","","","","NA"
"2003-12-05 16:00","2003","12","05","16:00","-0.8","","-3.1","","84","","33","","19","","","M","99.76","","","","-6","","NA"
"2003-12-05 17:00","2003","12","05","17:00","-1.8","","-4.2","","84","","35","","15","","","M","99.87","","","","-7","","NA"
"2003-12-05 18:00","2003","12","05","18:00","-4.1","","-7.3","","78","","33","","20","","","M","100.01","","","","-10","","NA"
"2003-12-05 19:00","2003","12","05","19:00","-6.2","","-9.2","","79","","36","","13","","","M","100.14","","","","-12","","NA"
"2003-12-05 20:00","2003","12","05","20:00","-8.4","","-12.5","","72","","1","","22","","","M","100.18","","","","-16","","NA"
"2003-12-05 21:00","2003","12","05","21:00","-9.4","","-13.3","","73","","2","","15","","","M","100.19","","","","-16","","NA"
"2003-12-05 22:00","2003","12","05","22:00","-10.1","","-14.3","","71","","1","","19","","","M","100.21","","","","-18","","NA"
"2003-12-05 23:00","2003","12","05","23:00","-10.7","","-13.9","","77","","1","","9","","","M","100.25","","","","-16","","NA"
"2003-12-06 00:00","2003","12","06","00:00","-11.2","","-15.0","","73","","36","","13","","","M","100.32","","","","-18","","NA"
"2003-12-06 01:00","2003","12","06","01:00","-13.6","","-17.0","","75","","1","","15","","","M","100.36","","","","-21","","NA"
"2003-12-06 02:00","2003","12","06","02:00","-14.7","","-18.1","","75","","1","","13","","","M","100.41","","","","-22","","NA"
"2003-12-06 03:00","2003","12","06","03:00","-15.3","","-19.0","","73","","3","","24","","","M","100.36","","","","-25","","NA"
"2003-12-06 04:00","2003","12","06","04:00","-16.0","","-19.0","","78","","3","","17","","","M","100.43","","","","-25","","NA"
"2003-12-06 05:00","2003","12","06","05:00","-16.6","","-19.8","","76","","3","","20","","","M","100.44","","","","-26","","NA"
"2003-12-06 06:00","2003","12","06","06:00","-17.3","","-20.3","","77","","4","","24","","","M","100.42","","","","-28","","NA"
"2003-12-06 07:00","2003","12","06","07:00","-17.7","","-20.7","","77","","4","","26","","","M","100.46","","","","-29","","NA"
"2003-12-06 08:00","2003","12","06","08:00","-18.2","","-21.0","","79","","5","","19","","","M","100.51","","","","-28","","NA"
"2003-12-06 09:00","2003","12","06","09:00","-17.7","","-20.7","","77","","5","","13","","","M","100.46","","","","-26","","NA"
"2003-12-06 10:00","2003","12","06","10:00","-16.8","","-20.1","","76","","6","","19","","","M","100.47","","","","-26","","NA"
"2003-12-06 11:00","2003","12","06","11:00","-14.7","","-18.9","","70","","5","","9","","","M","100.44","","","","-20","","NA"
"2003-12-06 12:00","2003","12","06","12:00","-13.6","","-18.3","","68","","7","","17","","","M","100.41","","","","-22","","NA"
"2003-12-06 13:00","2003","12","06","13:00","-11.6","","-16.8","","65","","8","","13","","","M","100.34","","","","-18","","NA"
"2003-12-06 14:00","2003","12","06","14:00","-10.6","","-16.6","","61","","5","","11","","","M","100.26","","","","-16","","NA"
"2003-12-06 15:00","2003","12","06","15:00","-9.7","","-16.3","","59","","4","","11","","","M","100.25","","","","-15","","NA"
"2003-12-06 16:00","2003","12","06","16:00","-9.5","","-14.8","","65","","8","","13","","","M","100.22","","","","-16","","NA"
"2003-12-06 17:00","2003","12","06","17:00","-11.0","","-15.3","","71","","9","","11","","","M","100.18","","","","-17","","NA"
"2003-12-06 18:00","2003","12","06","18:00","-12.1","","-16.0","","73","","7","","7","","","M","100.18","","","","-16","","NA"
"2003-12-06 19:00","2003","12","06","19:00","-12.7","","-16.1","","76","","8","","9","","","M","100.16","","","","-18","","NA"
"2003-12-06 20:00","2003","12","06","20:00","-13.1","","-15.8","","80","","9","","13","","","M","100.11","","","","-20","","NA"
"2003-12-06 21:00","2003","12","06","21:00","-13.9","","-16.2","","83","","7","","20","","","M","100.03","","","","-23","","NA"
"2003-12-06 22:00","2003","12","06","22:00","-12.9","","-15.3","","82","","9","","22","","","M","99.96","","","","-22","","NA"
"2003-12-06 23:00","2003","12","06","23:00","-13.1","","-15.8","","80","","9","","17","","","M","99.94","","","","-21","","NA"
"2003-12-07 00:00","2003","12","07","00:00","-12.9","","-15.1","","84","","9","","17","","","M","99.97","","","","-21","","NA"
"2003-12-07 01:00","2003","12","07","01:00","-12.2","","-14.0","","86","","10","","22","","","M","99.92","","","","-21","","NA"
"2003-12-07 02:00","2003","12","07","02:00","-10.7","","-12.4","","87","","10","","22","","","M","99.84","","","","-19","","NA"
"2003-12-07 03:00","2003","12","07","03:00","-9.8","","-11.4","","88","","10","","24","","","M","99.77","","","","-18","","NA"
"2003-12-07 04:00","2003","12","07","04:00","-8.6","","-10.2","","88","","10","","20","","","M","99.70","","","","-16","","NA"
"2003-12-07 05:00","2003","12","07","05:00","-6.8","","-8.0","","91","","11","","20","","","M","99.59","","","","-14","","NA"
"2003-12-07 06:00","2003","12","07","06:00","-4.0","","-5.8","","87","","15","","28","","","M","99.53","","","","-11","","NA"
"2003-12-07 07:00","2003","12","07","07:00","-3.3","","-5.2","","87","","15","","28","","","M","99.50","","","","-11","","NA"
"2003-12-07 08:00","2003","12","07","08:00","-3.0","","-4.6","","89","","16","","26","","","M","99.47","","","","-10","","NA"
"2003-12-07 09:00","2003","12","07","09:00","-1.5","","-3.8","","84","","18","","41","","","M","99.40","","","","-9","","NA"
"2003-12-07 10:00","2003","12","07","10:00","-1.0","","-3.1","","86","","17","","44","","","M","99.38","","","","-9","","NA"
"2003-12-07 11:00","2003","12","07","11:00","-0.7","","-2.8","","86","","18","","44","","","M","99.40","","","","-9","","NA"
"2003-12-07 12:00","2003","12","07","12:00","-0.6","","-2.7","","86","","19","","41","","","M","99.37","","","","-8","","NA"
"2003-12-07 13:00","2003","12","07","13:00","-0.4","","-3.2","","81","","18","","43","","","M","99.26","","","","-8","","NA"
"2003-12-07 14:00","2003","12","07","14:00","-0.1","","-2.9","","81","","17","","46","","","M","99.18","","","","-8","","NA"
"2003-12-07 15:00","2003","12","07","15:00","0.0","","-2.3","","84","","17","","33","","","M","99.16","","","","-7","","NA"
"2003-12-07 16:00","2003","12","07","16:00","-0.2","","-2.3","","86","","16","","33","","","M","99.12","","","","-7","","NA"
"2003-12-07 17:00","2003","12","07","17:00","-0.4","","-2.7","","84","","15","","32","","","M","99.09","","","","-7","","NA"
"2003-12-07 18:00","2003","12","07","18:00","-0.5","","-2.8","","84","","15","","26","","","M","99.05","","","","-7","","NA"
"2003-12-07 19:00","2003","12","07","19:00","-0.4","","-2.5","","86","","15","","26","","","M","99.03","","","","-7","","NA"
"2003-12-07 20:00","2003","12","07","20:00","-0.3","","-2.6","","84","","15","","30","","","M","99.00","","","","-7","","NA"
"2003-12-07 21:00","2003","12","07","21:00","0.1","","-2.1","","85","","15","","30","","","M","98.98","","","","","","NA"
"2003-12-07 22:00","2003","12","07","22:00","0.3","","-1.7","","86","","15","","28","","","M","98.98","","","","","","NA"
"2003-12-07 23:00","2003","12","07","23:00","0.7","","-1.1","","88","","16","","28","","","M","98.97","","","","","","NA"
"2003-12-08 00:00","2003","12","08","00:00","1.3","","-0.4","","88","","17","","37","","","M","98.95","","","","","","NA"
"2003-12-08 01:00","2003","12","08","01:00","1.0","","-0.5","","90","","17","","35","","","M","98.95","","","","","","NA"
"2003-12-08 02:00","2003","12","08","02:00","0.9","","-0.8","","88","","15","","26","","","M","98.92","","","","","","NA"
"2003-12-08 03:00","2003","12","08","03:00","0.9","","-0.8","","88","","15","","33","","","M","98.90","","","","","","NA"
"2003-12-08 04:00","2003","12","08","04:00","1.1","","-0.4","","90","","15","","28","","","M","98.86","","","","","","NA"
"2003-12-08 05:00","2003","12","08","05:00","1.3","","0.2","","92","","17","","28","","","M","98.84","","","","","","NA"
"2003-12-08 06:00","2003","12","08","06:00","1.0","","0.4","","96","","15","","26","","","M","98.78","","","","","","NA"
"2003-12-08 07:00","2003","12","08","07:00","1.4","","0.8","","96","","16","","24","","","M","98.74","","","","","","NA"
"2003-12-08 08:00","2003","12","08","08:00","2.5","","1.5","","93","","17","","37","","","M","98.73","","","","","","NA"
"2003-12-08 09:00","2003","12","08","09:00","2.6","","1.7","","94","","18","","33","","","M","98.71","","","","","","NA"
"2003-12-08 10:00","2003","12","08","10:00","2.7","","1.7","","93","","18","","32","","","M","98.72","","","","","","NA"
"2003-12-08 11:00","2003","12","08","11:00","2.7","","2.1","","96","","18","","37","","","M","98.70","","","","","","NA"
"2003-12-08 12:00","2003","12","08","12:00","2.9","","2.5","","97","","18","","35","","","M","98.66","","","","","","NA"
"2003-12-08 13:00","2003","12","08","13:00","3.0","","2.6","","97","","18","","35","","","M","98.60","","","","","","NA"
"2003-12-08 14:00","2003","12","08","14:00","3.3","","2.9","","97","","18","","33","","","M","98.57","","","","","","NA"
"2003-12-08 15:00","2003","12","08","15:00","3.4","","3.0","","97","","18","","35","","","M","98.58","","","","","","NA"
"2003-12-08 16:00","2003","12","08","16:00","3.8","","3.7","","99","","18","","33","","","M","98.59","","","","","","NA"
"2003-12-08 17:00","2003","12","08","17:00","3.8","","3.7","","99","","18","","41","","","M","98.59","","","","","","NA"
"2003-12-08 18:00","2003","12","08","18:00","3.8","","3.5","","98","","18","","37","","","M","98.60","","","","","","NA"
"2003-12-08 19:00","2003","12","08","19:00","3.8","","3.4","","97","","18","","39","","","M","98.62","","","","","","NA"
"2003-12-08 20:00","2003","12","08","20:00","4.2","","3.9","","98","","19","","37","","","M","98.61","","","","","","NA"
"2003-12-08 21:00","2003","12","08","21:00","4.1","","3.7","","97","","19","","37","","","M","98.62","","","","","","NA"
"2003-12-08 22:00","2003","12","08","22:00","4.0","","3.9","","99","","19","","37","","","M","98.61","","","","","","NA"
"2003-12-08 23:00","2003","12","08","23:00","4.0","","4.0","","100","","19","","35","","","M","98.65","","","","","","NA"
"2003-12-09 00:00","2003","12","09","00:00","4.1","","4.1","","100","","21","","35","","","M","98.70","","","","","","NA"
"2003-12-09 01:00","2003","12","09","01:00","3.9","","3.9","","100","","22","","33","","","M","98.71","","","","","","NA"
"2003-12-09 02:00","2003","12","09","02:00","2.9","","2.9","","100","","29","","17","","","M","98.75","","","","","","NA"
"2003-12-09 03:00","2003","12","09","03:00","2.6","","2.6","","100","","26","","17","","","M","98.79","","","","","","NA"
"2003-12-09 04:00","2003","12","09","04:00","2.4","","2.4","","100","","25","","15","","","M","98.82","","","","","","NA"
"2003-12-09 05:00","2003","12","09","05:00","2.1","","2.1","","100","","24","","11","","","M","98.83","","","","","","NA"
"2003-12-09 06:00","2003","12","09","06:00","2.2","","2.2","","100","","27","","6","","","M","98.87","","","","","","NA"
"2003-12-09 07:00","2003","12","09","07:00","1.4","","1.4","","100","","7","","7","","","M","98.90","","","","","","NA"
"2003-12-09 08:00","2003","12","09","08:00","1.1","","1.1","","100","","5","","6","","","M","98.93","","","","","","NA"
"2003-12-09 09:00","2003","12","09","09:00","1.0","","1.0","","100","","2","","6","","","M","99.00","","","","","","NA"
"2003-12-09 10:00","2003","12","09","10:00","0.8","","0.8","","100","","1","","9","","","M","99.09","","","","","","NA"
"2003-12-09 11:00","2003","12","09","11:00","0.8","","0.8","","100","","2","","11","","","M","99.09","","","","","","NA"
"2003-12-09 12:00","2003","12","09","12:00","0.9","","0.9","","100","","2","","7","","","M","99.07","","","","","","NA"
"2003-12-09 13:00","2003","12","09","13:00","0.8","","0.8","","100","","4","","9","","","M","99.07","","","","","","NA"
"2003-12-09 14:00","2003","12","09","14:00","0.8","","0.8","","100","","5","","13","","","M","99.04","","","","","","NA"
"2003-12-09 15:00","2003","12","09","15:00","0.8","","0.8","","100","","5","","13","","","M","99.02","","","","","","NA"
"2003-12-09 16:00","2003","12","09","16:00","0.6","","0.6","","100","","4","","13","","","M","99.11","","","","","","NA"
"2003-12-09 17:00","2003","12","09","17:00","0.0","","0.0","","100","","3","","11","","","M","99.16","","","","-4","","NA"
"2003-12-09 18:00","2003","12","09","18:00","-0.4","","-0.5","","99","","5","","17","","","M","99.14","","","","-5","","NA"
"2003-12-09 19:00","2003","12","09","19:00","-1.0","","-1.1","","99","","4","","15","","","M","99.16","","","","-6","","NA"
"2003-12-09 20:00","2003","12","09","20:00","-1.6","","-1.7","","99","","5","","19","","","M","99.16","","","","-7","","NA"
"2003-12-09 21:00","2003","12","09","21:00","-2.2","","-2.3","","99","","5","","24","","","M","99.10","","","","-9","","NA"
"2003-12-09 22:00","2003","12","09","22:00","-2.9","","-3.0","","99","","5","","24","","","M","99.04","","","","-10","","NA"
"2003-12-09 23:00","2003","12","09","23:00","-3.4","","-3.5","","99","","5","","28","","","M","99.01","","","","-11","","NA"
"2003-12-10 00:00","2003","12","10","00:00","-3.8","","-3.9","","99","","5","","30","","","M","99.00","","","","-11","","NA"
"2003-12-10 01:00","2003","12","10","01:00","-4.2","","-4.3","","99","","6","","24","","","M","98.97","","","","-11","","NA"
"2003-12-10 02:00","2003","12","10","02:00","-5.2","","-5.4","","98","","5","","32","","","M","98.90","","","","-13","","NA"
"2003-12-10 03:00","2003","12","10","03:00","-5.7","","-5.9","","98","","6","","28","","","M","98.88","","","","-14","","NA"
"2003-12-10 04:00","2003","12","10","04:00","-6.4","","-6.8","","97","","6","","28","","","M","98.81","","","","-15","","NA"
"2003-12-10 05:00","2003","12","10","05:00","-7.1","","-7.6","","96","","6","","28","","","M","98.75","","","","-15","","NA"
"2003-12-10 06:00","2003","12","10","06:00","-7.6","","-8.2","","95","","6","","30","","","M","98.68","","","","-16","","NA"
"2003-12-10 07:00","2003","12","10","07:00","-8.2","","-8.9","","95","","5","","33","","","M","98.64","","","","-18","","NA"
"2003-12-10 08:00","2003","12","10","08:00","-8.6","","-9.3","","95","","6","","33","","","M","98.56","","","","-18","","NA"
"2003-12-10 09:00","2003","12","10","09:00","-9.0","","-9.9","","93","","6","","35","","","M","98.56","","","","-19","","NA"
"2003-12-10 10:00","2003","12","10","10:00","-9.3","","-10.2","","93","","5","","33","","","M","98.51","","","","-19","","NA"
"2003-12-10 11:00","2003","12","10","11:00","-9.4","","-10.3","","93","","5","","28","","","M","98.46","","","","-18","","NA"
"2003-12-10 12:00","2003","12","10","12:00","-9.6","","-10.6","","92","","4","","26","","","M","98.41","","","","-18","","NA"
"2003-12-10 13:00","2003","12","10","13:00","-9.5","","-10.2","","95","","4","","17","","","M","98.34","","","","-17","","NA"
"2003-12-10 14:00","2003","12","10","14:00","-10.0","","-10.9","","93","","3","","22","","","M","98.24","","","","-18","","NA"
"2003-12-10 15:00","2003","12","10","15:00","-10.2","","-11.5","","90","","3","","26","","","M","98.17","","","","-19","","NA"
"2003-12-10 16:00","2003","12","10","16:00","-10.5","","-11.5","","92","","3","","19","","","M","98.20","","","","-18","","NA"
"2003-12-10 17:00","2003","12","10","17:00","-11.0","","-12.1","","92","","3","","22","","","M","98.18","","","","-20","","NA"
"2003-12-10 18:00","2003","12","10","18:00","-11.3","","-12.4","","92","","3","","24","","","M","98.16","","","","-20","","NA"
"2003-12-10 19:00","2003","12","10","19:00","-11.9","","-13.2","","90","","2","","28","","","M","98.18","","","","-22","","NA"
"2003-12-10 20:00","2003","12","10","20:00","-12.2","","-13.7","","89","","3","","28","","","M","98.10","","","","-22","","NA"
"2003-12-10 21:00","2003","12","10","21:00","-12.8","","-13.9","","91","","3","","20","","","M","98.12","","","","-21","","NA"
"2003-12-10 22:00","2003","12","10","22:00","-13.2","","-14.3","","91","","4","","24","","","M","98.08","","","","-23","","NA"
"2003-12-10 23:00","2003","12","10","23:00","-13.6","","-14.7","","91","","4","","24","","","M","98.09","","","","-23","","NA"
"2003-12-11 00:00","2003","12","11","00:00","-13.8","","-15.0","","91","","3","","20","","","M","98.08","","","","-23","","NA"
"2003-12-11 01:00","2003","12","11","01:00","-14.1","","-15.2","","91","","3","","22","","","M","98.04","","","","-23","","NA"
"2003-12-11 02:00","2003","12","11","02:00","-14.3","","-15.7","","89","","3","","28","","","M","98.08","","","","-25","","NA"
"2003-12-11 03:00","2003","12","11","03:00","-14.5","","-15.7","","91","","3","","19","","","M","98.13","","","","-23","","NA"
"2003-12-11 04:00","2003","12","11","04:00","-14.3","","-15.5","","91","","3","","19","","","M","98.15","","","","-23","","NA"
"2003-12-11 05:00","2003","12","11","05:00"
"2003-12-11 06:00","2003","12","11","06:00","-14.5","","-15.9","","89","","3","","15","","","M","98.25","","","","-22","","NA"
"2003-12-11 07:00","2003","12","11","07:00","-14.3","","-15.8","","88","","2","","15","","","M","98.31","","","","-22","","NA"
"2003-12-11 08:00","2003","12","11","08:00","-14.4","","-15.8","","89","","1","","11","","","M","98.35","","","","-21","","NA"
"2003-12-11 09:00","2003","12","11","09:00","-13.8","","-15.2","","89","","35","","9","","","M","98.41","","","","-19","","NA"
"2003-12-11 10:00","2003","12","11","10:00","-12.9","","-14.4","","88","","1","","15","","","M","98.45","","","","-20","","NA"
"2003-12-11 11:00","2003","12","11","11:00","-11.6","","-13.3","","87","","1","","13","","","M","98.50","","","","-18","","NA"
"2003-12-11 12:00","2003","12","11","12:00","-10.9","","-13.2","","83","","36","","19","","","M","98.54","","","","-19","","NA"
"2003-12-11 13:00","2003","12","11","13:00","-11.1","","-13.5","","82","","2","","22","","","M","98.56","","","","-20","","NA"
"2003-12-11 14:00","2003","12","11","14:00","-10.7","","-13.6","","79","","1","","15","","","M","98.59","","","","-18","","NA"
"2003-12-11 15:00","2003","12","11","15:00","-10.7","","-14.2","","75","","2","","20","","","M","98.64","","","","-19","","NA"
"2003-12-11 16:00","2003","12","11","16:00","-12.0","","-14.7","","80","","1","","19","","","M","98.74","","","","-20","","NA"
"2003-12-11 17:00","2003","12","11","17:00","-12.6","","-15.4","","80","","2","","15","","","M","98.85","","","","-20","","NA"
"2003-12-11 18:00","2003","12","11","18:00","-13.2","","-16.0","","79","","2","","17","","","M","98.95","","","","-21","","NA"
"2003-12-11 19:00","2003","12","11","19:00","-13.6","","-16.0","","82","","36","","9","","","M","99.04","","","","-19","","NA"
"2003-12-11 20:00","2003","12","11","20:00","-14.1","","-16.7","","81","","1","","13","","","M","99.08","","","","-21","","NA"
"2003-12-11 21:00","2003","12","11","21:00","-14.7","","-17.3","","81","","36","","15","","","M","99.12","","","","-23","","NA"
"2003-12-11 22:00","2003","12","11","22:00","-15.2","","-17.7","","81","","36","","13","","","M","99.16","","","","-23","","NA"
"2003-12-11 23:00","2003","12","11","23:00","-15.7","","-18.4","","80","","1","","13","","","M","99.19","","","","-23","","NA"
"2003-12-12 00:00","2003","12","12","00:00","-16.7","","-19.6","","78","","2","","13","","","M","99.25","","","","-24","","NA"
"2003-12-12 01:00","2003","12","12","01:00","-17.8","","-20.1","","82","","1","","11","","","M","99.27","","","","-25","","NA"
"2003-12-12 02:00","2003","12","12","02:00","-18.9","","-20.7","","86","","3","","11","","","M","99.30","","","","-26","","NA"
"2003-12-12 03:00","2003","12","12","03:00","-19.6","","-21.7","","83","","3","","11","","","M","99.36","","","","-27","","NA"
"2003-12-12 04:00","2003","12","12","04:00","-20.5","","-22.6","","83","","1","","11","","","M","99.41","","","","-28","","NA"
"2003-12-12 05:00","2003","12","12","05:00","-21.4","","-23.5","","83","","3","","9","","","M","99.43","","","","-28","","NA"
"2003-12-12 06:00","2003","12","12","06:00","-22.2","","-24.4","","82","","7","","6","","","M","99.47","","","","-28","","NA"
"2003-12-12 07:00","2003","12","12","07:00","-23.1","","-25.3","","82","","6","","6","","","M","99.52","","","","-29","","NA"
"2003-12-12 08:00","2003","12","12","08:00","-23.1","","-25.1","","84","","3","","15","","","M","99.55","","","","-33","","NA"
"2003-12-12 09:00","2003","12","12","09:00","-23.6","","-25.6","","84","","7","","9","","","M","99.57","","","","-31","","NA"
"2003-12-12 10:00","2003","12","12","10:00","-21.9","","-25.1","","75","","2","","11","","","M","99.60","","","","-30","","NA"
"2003-12-12 11:00","2003","12","12","11:00","-19.7","","-24.4","","66","","2","","6","","","M","99.62","","","","-25","","NA"
"2003-12-12 12:00","2003","12","12","12:00","-17.9","","-23.5","","62","","5","","13","","","M","99.62","","","","-26","","NA"
"2003-12-12 13:00","2003","12","12","13:00","-16.0","","-22.1","","59","","6","","6","","","M","99.58","","","","-20","","NA"
"2003-12-12 14:00","2003","12","12","14:00","-16.0","","-20.3","","69","","36","","11","","","M","99.55","","","","-23","","NA"
"2003-12-12 15:00","2003","12","12","15:00","-15.5","","-19.3","","73","","2","","9","","","M","99.55","","","","-21","","NA"
"2003-12-12 16:00","2003","12","12","16:00","-16.1","","-20.2","","71","","4","","9","","","M","99.58","","","","-22","","NA"
"2003-12-12 17:00","2003","12","12","17:00","-16.5","","-20.8","","69","","4","","11","","","M","99.63","","","","-23","","NA"
"2003-12-12 18:00","2003","12","12","18:00","-17.7","","-21.0","","75","","7","","11","","","M","99.64","","","","-25","","NA"
"2003-12-12 19:00","2003","12","12","19:00","-18.5","","-21.0","","81","","7","","13","","","M","99.68","","","","-27","","NA"
"2003-12-12 20:00","2003","12","12","20:00","-19.5","","-21.6","","83","","7","","9","","","M","99.71","","","","-26","","NA"
"2003-12-12 21:00","2003","12","12","21:00","-20.7","","-22.9","","82","","4","","17","","","M","99.73","","","","-31","","NA"
"2003-12-12 22:00","2003","12","12","22:00","-20.4","","-22.6","","83","","6","","11","","","M","99.73","","","","-28","","NA"
"2003-12-12 23:00","2003","12","12","23:00","-20.9","","-23.0","","83","","7","","13","","","M","99.74","","","","-30","","NA"
"2003-12-13 00:00","2003","12","13","00:00","-22.3","","-24.2","","84","","7","","19","","","M","99.73","","","","-33","","NA"
"2003-12-13 01:00","2003","12","13","01:00","-22.3","","-24.4","","83","","6","","19","","","M","99.71","","","","-33","","NA"
"2003-12-13 02:00","2003","12","13","02:00","-22.4","","-24.5","","83","","7","","22","","","M","99.72","","","","-34","","NA"
"2003-12-13 03:00","2003","12","13","03:00","-22.4","","-24.6","","82","","6","","19","","","M","99.79","","","","-33","","NA"
"2003-12-13 04:00","2003","12","13","04:00","-22.3","","-24.2","","84","","7","","20","","","M","99.80","","","","-33","","NA"
"2003-12-13 05:00","2003","12","13","05:00","-22.0","","-23.8","","85","","7","","20","","","M","99.77","","","","-33","","NA"
"2003-12-13 06:00","2003","12","13","06:00","-21.0","","-22.5","","88","","7","","22","","","M","99.74","","","","-32","","NA"
"2003-12-13 07:00","2003","12","13","07:00","-18.3","","-19.5","","90","","7","","20","","","M","99.69","","","","-28","","NA"
"2003-12-13 08:00","2003","12","13","08:00","-15.5","","-16.3","","94","","8","","19","","","M","99.64","","","","-25","","NA"
"2003-12-13 09:00","2003","12","13","09:00","-10.8","","-11.0","","98","","9","","19","","","M","99.58","","","","-19","","NA"
"2003-12-13 10:00","2003","12","13","10:00","-2.2","","-5.8","","76","","21","","46","","","M","99.60","","","","-11","","NA"
"2003-12-13 11:00","2003","12","13","11:00","-2.9","","-7.0","","73","","22","","44","","","M","99.63","","","","-12","","NA"
"2003-12-13 12:00","2003","12","13","12:00","-2.6","","-6.0","","77","","21","","46","","","M","99.55","","","","-11","","NA"
"2003-12-13 13:00","2003","12","13","13:00","-2.5","","-6.1","","76","","21","","46","","","M","99.44","","","","-11","","NA"
"2003-12-13 14:00","2003","12","13","14:00","-2.8","","-5.7","","80","","21","","46","","","M","99.40","","","","-12","","NA"
"2003-12-13 15:00","2003","12","13","15:00","-2.1","","-5.7","","76","","21","","48","","","M","99.32","","","","-11","","NA"
"2003-12-13 16:00","2003","12","13","16:00","-1.8","","-6.6","","70","","20","","52","","","M","99.33","","","","-11","","NA"
"2003-12-13 17:00","2003","12","13","17:00","-1.3","","-5.2","","75","","21","","54","","","M","99.29","","","","-10","","NA"
"2003-12-13 18:00","2003","12","13","18:00","-0.6","","-4.9","","73","","21","","56","","","M","99.26","","","","-9","","NA"
"2003-12-13 19:00","2003","12","13","19:00","-0.4","","-5.1","","71","","21","","54","","","M","99.23","","","","-9","","NA"
"2003-12-13 20:00","2003","12","13","20:00","0.0","","-4.5","","72","","21","","52","","","M","99.18","","","","-8","","NA"
"2003-12-13 21:00","2003","12","13","21:00","0.0","","-4.5","","72","","21","","54","","","M","99.14","","","","-8","","NA"
"2003-12-13 22:00","2003","12","13","22:00","-0.1","","-4.3","","73","","21","","56","","","M","99.06","","","","-9","","NA"
"2003-12-13 23:00","2003","12","13","23:00","0.1","","-3.9","","74","","20","","54","","","M","99.05","","","","","","NA"
"2003-12-14 00:00","2003","12","14","00:00","0.1","","-4.4","","72","","20","","56","","","M","99.03","","","","","","NA"
"2003-12-14 01:00","2003","12","14","01:00","0.3","","-4.4","","71","","20","","54","","","M","98.98","","","","","","NA"
"2003-12-14 02:00","2003","12","14","02:00","0.7","","-3.9","","71","","21","","52","","","M","98.96","","","","","","NA"
"2003-12-14 03:00","2003","12","14","03:00","0.7","","-4.8","","67","","21","","50","","","M","98.98","","","","","","NA"
"2003-12-14 04:00","2003","12","14","04:00","0.1","","-2.5","","83","","20","","46","","","M","98.97","","","","","","NA"
"2003-12-14 05:00","2003","12","14","05:00","0.1","","-2.5","","83","","21","","46","","","M","98.93","","","","","","NA"
"2003-12-14 06:00","2003","12","14","06:00","0.2","","-4.0","","73","","20","","48","","","M","98.88","","","","","","NA"
"2003-12-14 07:00","2003","12","14","07:00","0.0","","-2.1","","86","","21","","46","","","M","98.84","","","","-8","","NA"
"2003-12-14 08:00","2003","12","14","08:00","0.8","","-2.0","","82","","20","","50","","","M","98.79","","","","","","NA"
"2003-12-14 09:00","2003","12","14","09:00","0.7","","-2.4","","80","","20","","50","","","M","98.79","","","","","","NA"
"2003-12-14 10:00","2003","12","14","10:00","1.0","","-2.7","","76","","20","","50","","","M","98.79","","","","","","NA"
"2003-12-14 11:00","2003","12","14","11:00","1.1","","-2.7","","76","","20","","46","","","M","98.73","","","","","","NA"
"2003-12-14 12:00","2003","12","14","12:00","1.0","","-2.7","","76","","21","","48","","","M","98.66","","","","","","NA"
"2003-12-14 13:00","2003","12","14","13:00","1.0","","-2.3","","79","","20","","43","","","M","98.58","","","","","","NA"
"2003-12-14 14:00","2003","12","14","14:00","0.5","","-3.0","","77","","20","","43","","","M","98.50","","","","","","NA"
"2003-12-14 15:00","2003","12","14","15:00","0.3","","-2.8","","80","","19","","33","","","M","98.45","","","","","","NA"
"2003-12-14 16:00","2003","12","14","16:00","0.4","","-3.1","","77","","20","","43","","","M","98.45","","","","","","NA"
"2003-12-14 17:00","2003","12","14","17:00","0.3","","-5.0","","68","","20","","39","","","M","98.44","","","","","","NA"
"2003-12-14 18:00","2003","12","14","18:00","0.2","","-4.2","","72","","20","","33","","","M","98.45","","","","","","NA"
"2003-12-14 19:00","2003","12","14","19:00","0.4","","-4.0","","72","","20","","33","","","M","98.42","","","","","","NA"
"2003-12-14 20:00","2003","12","14","20:00","0.7","","-3.3","","75","","20","","39","","","M","98.38","","","","","","NA"
"2003-12-14 21:00","2003","12","14","21:00","0.7","","-2.8","","77","","21","","33","","","M","98.33","","","","","","NA"
"2003-12-14 22:00","2003","12","14","22:00","0.7","","-3.0","","76","","20","","37","","","M","98.34","","","","","","NA"
"2003-12-14 23:00","2003","12","14","23:00","0.8","","-3.0","","76","","22","","33","","","M","98.32","","","","","","NA"
"2003-12-15 00:00","2003","12","15","00:00","0.8","","-2.2","","80","","21","","35","","","M","98.32","","","","","","NA"
"2003-12-15 01:00","2003","12","15","01:00","0.7","","-2.3","","80","","22","","32","","","M","98.29","","","","","","NA"
"2003-12-15 02:00","2003","12","15","02:00","0.6","","-2.2","","81","","21","","33","","","M","98.26","","","","","","NA"
"2003-12-15 03:00","2003","12","15","03:00","0.7","","-2.6","","79","","21","","30","","","M","98.34","","","","","","NA"
"2003-12-15 04:00","2003","12","15","04:00","0.6","","-2.2","","81","","22","","24","","","M","98.34","","","","","","NA"
"2003-12-15 05:00","2003","12","15","05:00","0.5","","-2.5","","80","","21","","24","","","M","98.34","","","","","","NA"
"2003-12-15 06:00","2003","12","15","06:00","0.4","","-1.6","","86","","19","","19","","","M","98.34","","","","","","NA"
"2003-12-15 07:00","2003","12","15","07:00","0.3","","-2.3","","83","","20","","20","","","M","98.35","","","","","","NA"
"2003-12-15 08:00","2003","12","15","08:00","0.4","","-1.8","","85","","19","","24","","","M","98.34","","","","","","NA"
"2003-12-15 09:00","2003","12","15","09:00","0.4","","-1.9","","85","","19","","30","","","M","98.41","","","","","","NA"
"2003-12-15 10:00","2003","12","15","10:00","0.4","","-1.8","","85","","17","","30","","","M","98.44","","","","","","NA"
"2003-12-15 11:00","2003","12","15","11:00","0.1","","-1.9","","86","","15","","20","","","M","98.46","","","","","","NA"
"2003-12-15 12:00","2003","12","15","12:00","0.7","","-1.3","","86","","18","","33","","","M","98.42","","","","","","NA"
"2003-12-15 13:00","2003","12","15","13:00","1.0","","-0.9","","87","","18","","32","","","M","98.37","","","","","","NA"
"2003-12-15 14:00","2003","12","15","14:00","1.6","","-0.7","","85","","19","","33","","","M","98.36","","","","","","NA"
"2003-12-15 15:00","2003","12","15","15:00","1.5","","-0.8","","85","","14","","17","","","M","98.25","","","","","","NA"
"2003-12-15 16:00","2003","12","15","16:00","1.7","","-0.6","","85","","15","","24","","","M","98.27","","","","","","NA"
"2003-12-15 17:00","2003","12","15","17:00","1.6","","-0.6","","85","","14","","20","","","M","98.29","","","","","","NA"
"2003-12-15 18:00","2003","12","15","18:00","1.1","","0.1","","93","","14","","17","","","M","98.26","","","","","","NA"
"2003-12-15 19:00","2003","12","15","19:00","0.5","","0.5","","100","","13","","13","","","M","98.24","","","","","","NA"
"2003-12-15 20:00","2003","12","15","20:00","0.7","","0.7","","100","","14","","20","","","M","98.20","","","","","","NA"
"2003-12-15 21:00","2003","12","15","21:00","0.7","","0.7","","100","","14","","26","","","M","98.16","","","","","","NA"
"2003-12-15 22:00","2003","12","15","22:00","0.7","","0.6","","99","","14","","19","","","M","98.10","","","","","","NA"
"2003-12-15 23:00","2003","12","15","23:00","1.0","","0.3","","95","","15","","24","","","M","98.11","","","","","","NA"
"2003-12-16 00:00","2003","12","16","00:00","1.1","","-0.1","","92","","14","","26","","","M","98.03","","","","","","NA"
"2003-12-16 01:00","2003","12","16","01:00","1.0","","0.2","","94","","13","","15","","","M","97.94","","","","","","NA"
"2003-12-16 02:00","2003","12","16","02:00","1.1","","0.1","","93","","13","","17","","","M","97.86","","","","","","NA"
"2003-12-16 03:00","2003","12","16","03:00","-0.2","","-1.0","","94","","9","","19","","","M","97.82","","","","-5","","NA"
"2003-12-16 04:00","2003","12","16","04:00","-0.5","","-0.6","","99","","9","","13","","","M","97.71","","","","-5","","NA"
"2003-12-16 05:00","2003","12","16","05:00","-0.2","","-0.3","","99","","9","","9","","","M","97.62","","","","-3","","NA"
"2003-12-16 06:00","2003","12","16","06:00","0.0","","0.0","","100","","10","","9","","","M","97.53","","","","-3","","NA"
"2003-12-16 07:00","2003","12","16","07:00","0.1","","0.1","","100","","9","","7","","","M","97.46","","","","","","NA"
"2003-12-16 08:00","2003","12","16","08:00","0.1","","0.1","","100","","9","","6","","","M","97.49","","","","","","NA"
"2003-12-16 09:00","2003","12","16","09:00","0.0","","0.0","","100","","7","","4","","","M","97.42","","","","-1","","NA"
"2003-12-16 10:00","2003","12","16","10:00","0.0","","0.0","","100","","8","","6","","","M","97.40","","","","-2","","NA"
"2003-12-16 11:00","2003","12","16","11:00","0.0","","0.0","","100","","6","","4","","","M","97.36","","","","-1","","NA"
"2003-12-16 12:00","2003","12","16","12:00","0.2","","0.2","","100","","6","","4","","","M","97.26","","","","","","NA"
"2003-12-16 13:00","2003","12","16","13:00","0.2","","0.2","","100","","6","","4","","","M","97.16","","","","","","NA"
"2003-12-16 14:00","2003","12","16","14:00","0.3","","0.3","","100","","6","","6","","","M","97.12","","","","","","NA"
"2003-12-16 15:00","2003","12","16","15:00","0.4","","0.4","","100","","3","","11","","","M","97.12","","","","","","NA"
"2003-12-16 16:00","2003","12","16","16:00","0.2","","0.2","","100","","1","","11","","","M","97.13","","","","","","NA"
"2003-12-16 17:00","2003","12","16","17:00","-0.5","","-0.6","","99","","2","","17","","","M","97.20","","","","-5","","NA"
"2003-12-16 18:00","2003","12","16","18:00","-1.5","","-1.6","","99","","2","","20","","","M","97.26","","","","-7","","NA"
"2003-12-16 19:00","2003","12","16","19:00","-2.3","","-2.4","","99","","1","","24","","","M","97.35","","","","-9","","NA"
"2003-12-16 20:00","2003","12","16","20:00","-3.1","","-3.5","","97","","2","","19","","","M","97.40","","","","-9","","NA"
"2003-12-16 21:00","2003","12","16","21:00","-3.9","","-4.1","","99","","1","","13","","","M","97.50","","","","-9","","NA"
"2003-12-16 22:00","2003","12","16","22:00","-4.7","","-5.5","","94","","1","","15","","","M","97.56","","","","-10","","NA"
"2003-12-16 23:00","2003","12","16","23:00","-5.2","","-5.7","","96","","36","","11","","","M","97.63","","","","-10","","NA"
"2003-12-17 00:00","2003","12","17","00:00","-5.9","","-7.1","","91","","36","","17","","","M","97.68","","","","-12","","NA"
"2003-12-17 01:00","2003","12","17","01:00","-6.8","","-8.1","","90","","35","","17","","","M","97.77","","","","-13","","NA"
"2003-12-17 02:00","2003","12","17","02:00","-7.5","","-8.9","","90","","35","","11","","","M","97.84","","","","-13","","NA"
"2003-12-17 03:00","2003","12","17","03:00","-8.1","","-9.3","","91","","35","","9","","","M","97.97","","","","-13","","NA"
"2003-12-17 04:00","2003","12","17","04:00","-8.8","","-10.4","","88","","36","","13","","","M","98.03","","","","-15","","NA"
"2003-12-17 05:00","2003","12","17","05:00","-9.6","","-11.3","","87","","1","","15","","","M","98.02","","","","-16","","NA"
"2003-12-17 06:00","2003","12","17","06:00","-10.5","","-12.0","","89","","2","","11","","","M","98.06","","","","-16","","NA"
"2003-12-17 07:00","2003","12","17","07:00","-10.8","","-12.3","","89","","1","","11","","","M","98.15","","","","-17","","NA"
"2003-12-17 08:00","2003","12","17","08:00","-10.9","","-12.4","","89","","36","","13","","","M","98.20","","","","-17","","NA"
"2003-12-17 09:00","2003","12","17","09:00","-11.2","","-12.7","","89","","1","","9","","","M","98.28","","","","-16","","NA"
"2003-12-17 10:00","2003","12","17","10:00","-11.1","","-12.9","","87","","36","","11","","","M","98.31","","","","-17","","NA"
"2003-12-17 11:00","2003","12","17","11:00","-11.0","","-13.1","","84","","3","","11","","","M","98.29","","","","-17","","NA"
"2003-12-17 12:00","2003","12","17","12:00","-9.8","","-12.2","","83","","1","","9","","","M","98.22","","","","-15","","NA"
"2003-12-17 13:00","2003","12","17","13:00","-8.7","","-11.3","","81","","36","","11","","","M","98.21","","","","-14","","NA"
"2003-12-17 14:00","2003","12","17","14:00","-8.4","","-11.0","","81","","36","","11","","","M","98.19","","","","-14","","NA"
"2003-12-17 15:00","2003","12","17","15:00","-8.4","","-10.1","","88","","3","","11","","","M","98.20","","","","-14","","NA"
"2003-12-17 16:00","2003","12","17","16:00","-8.0","","-9.7","","88","","2","","6","","","M","98.26","","","","-11","","NA"
"2003-12-17 17:00","2003","12","17","17:00","-7.9","","-9.1","","91","","36","","6","","","M","98.34","","","","-11","","NA"
"2003-12-17 18:00","2003","12","17","18:00","-7.7","","-8.6","","93","","36","","7","","","M","98.38","","","","-11","","NA"
"2003-12-17 19:00","2003","12","17","19:00","-7.5","","-8.4","","93","","1","","7","","","M","98.40","","","","-11","","NA"
"2003-12-17 20:00","2003","12","17","20:00","-7.5","","-8.7","","91","","35","","7","","","M","98.40","","","","-11","","NA"
"2003-12-17 21:00","2003","12","17","21:00","-8.1","","-9.3","","91","","35","","11","","","M","98.37","","","","-13","","NA"
"2003-12-17 22:00","2003","12","17","22:00","-8.2","","-9.2","","92","","35","","11","","","M","98.37","","","","-13","","NA"
"2003-12-17 23:00","2003","12","17","23:00","-8.6","","-9.3","","95","","3","","7","","","M","98.37","","","","-12","","NA"
"2003-12-18 00:00","2003","12","18","00:00","-8.8","","-9.7","","93","","36","","9","","","M","98.34","","","","-13","","NA"
"2003-12-18 01:00","2003","12","18","01:00","-9.2","","-9.9","","95","","3","","9","","","M","98.33","","","","-14","","NA"
"2003-12-18 02:00","2003","12","18","02:00","-10.2","","-11.2","","92","","3","","7","","","M","98.34","","","","-14","","NA"
"2003-12-18 03:00","2003","12","18","03:00","-11.7","","-12.6","","93","","3","","7","","","M","98.36","","","","-16","","NA"
"2003-12-18 04:00","2003","12","18","04:00","-12.0","","-13.1","","91","","3","","15","","","M","98.35","","","","-19","","NA"
"2003-12-18 05:00","2003","12","18","05:00","-12.0","","-13.4","","89","","6","","11","","","M","98.29","","","","-18","","NA"
"2003-12-18 06:00","2003","12","18","06:00","-13.4","","-14.6","","91","","8","","11","","","M","98.22","","","","-20","","NA"
"2003-12-18 07:00","2003","12","18","07:00","-15.3","","-16.7","","89","","6","","13","","","M","98.20","","","","-23","","NA"
"2003-12-18 08:00","2003","12","18","08:00","-15.2","","-16.6","","89","","7","","11","","","M","98.21","","","","-22","","NA"
"2003-12-18 09:00","2003","12","18","09:00","-15.2","","-16.6","","89","","8","","13","","","M","98.16","","","","-23","","NA"
"2003-12-18 10:00","2003","12","18","10:00","-12.5","","-14.4","","86","","7","","13","","","M","98.12","","","","-19","","NA"
"2003-12-18 11:00","2003","12","18","11:00","-10.5","","-12.8","","83","","6","","11","","","M","98.07","","","","-16","","NA"
"2003-12-18 12:00","2003","12","18","12:00","-8.4","","-10.6","","84","","8","","9","","","M","97.97","","","","-13","","NA"
"2003-12-18 13:00","2003","12","18","13:00","-4.2","","-5.0","","94","","27","","11","","","M","97.88","","","","-9","","NA"
"2003-12-18 14:00","2003","12","18","14:00","-3.3","","-5.4","","85","","28","","22","","","M","97.84","","","","-10","","NA"
"2003-12-18 15:00","2003","12","18","15:00","-4.7","","-6.0","","91","","29","","20","","","M","97.87","","","","-11","","NA"
"2003-12-18 16:00","2003","12","18","16:00","-4.4","","-4.9","","96","","28","","22","","","M","97.86","","","","-11","","NA"
"2003-12-18 17:00","2003","12","18","17:00","-6.9","","-8.2","","90","","34","","15","","","M","97.94","","","","-13","","NA"
"2003-12-18 18:00","2003","12","18","18:00","-8.0","","-9.9","","86","","34","","15","","","M","98.02","","","","-14","","NA"
"2003-12-18 19:00","2003","12","18","19:00","-8.8","","-10.2","","90","","36","","9","","","M","98.08","","","","-13","","NA"
"2003-12-18 20:00","2003","12","18","20:00","-8.9","","-10.2","","90","","3","","6","","","M","98.10","","","","-12","","NA"
"2003-12-18 21:00","2003","12","18","21:00","-9.0","","-10.4","","90","","5","","4","","","M","98.11","","","","-11","","NA"
"2003-12-18 22:00","2003","12","18","22:00","-8.7","","-9.9","","91","","7","","4","","","M","98.10","","","","-11","","NA"
"2003-12-18 23:00","2003","12","18","23:00","-8.5","","-9.5","","92","","4","","6","","","M","98.15","","","","-12","","NA"
"2003-12-19 00:00","2003","12","19","00:00","-7.8","","-9.0","","91","","36","","7","","","M","98.17","","","","-11","","NA"
"2003-12-19 01:00","2003","12","19","01:00","-7.1","","-8.5","","90","","35","","11","","","M","98.16","","","","-12","","NA"
"2003-12-19 02:00","2003","12","19","02:00","-7.2","","-9.4","","84","","35","","11","","","M","98.18","","","","-12","","NA"
"2003-12-19 03:00","2003","12","19","03:00","-7.5","","-9.8","","84","","34","","15","","","M","98.24","","","","-14","","NA"
"2003-12-19 04:00","2003","12","19","04:00","-8.0","","-10.3","","83","","34","","17","","","M","98.26","","","","-15","","NA"
"2003-12-19 05:00","2003","12","19","05:00","-9.0","","-11.4","","83","","35","","15","","","M","98.31","","","","-16","","NA"
"2003-12-19 06:00","2003","12","19","06:00","-9.7","","-12.1","","83","","35","","11","","","M","98.39","","","","-15","","NA"
"2003-12-19 07:00","2003","12","19","07:00","-10.2","","-12.3","","85","","1","","9","","","M","98.45","","","","-15","","NA"
"2003-12-19 08:00","2003","12","19","08:00","-11.2","","-13.7","","82","","2","","15","","","M","98.52","","","","-18","","NA"
"2003-12-19 09:00","2003","12","19","09:00","-11.7","","-13.9","","84","","3","","9","","","M","98.60","","","","-17","","NA"
"2003-12-19 10:00","2003","12","19","10:00","-11.4","","-13.8","","82","","35","","9","","","M","98.68","","","","-17","","NA"
"2003-12-19 11:00","2003","12","19","11:00","-11.2","","-14.2","","78","","35","","13","","","M","98.74","","","","-18","","NA"
"2003-12-19 12:00","2003","12","19","12:00","-9.9","","-14.1","","71","","1","","9","","","M","98.73","","","","-15","","NA"
"2003-12-19 13:00","2003","12","19","13:00","-10.2","","-14.5","","71","","2","","15","","","M","98.71","","","","-17","","NA"
"2003-12-19 14:00","2003","12","19","14:00","-9.6","","-14.5","","67","","34","","11","","","M","98.74","","","","-15","","NA"
"2003-12-19 15:00","2003","12","19","15:00","-9.9","","-15.0","","66","","1","","11","","","M","98.80","","","","-15","","NA"
"2003-12-19 16:00","2003","12","19","16:00","-11.6","","-15.6","","72","","36","","9","","","M","98.89","","","","-17","","NA"
"2003-12-19 17:00","2003","12","19","17:00","-13.3","","-16.4","","77","","35","","9","","","M","99.00","","","","-19","","NA"
"2003-12-19 18:00","2003","12","19","18:00","-14.5","","-17.6","","77","","36","","7","","","M","99.09","","","","-19","","NA"
"2003-12-19 19:00","2003","12","19","19:00","-15.2","","-17.4","","83","","3","","7","","","M","99.14","","","","-20","","NA"
"2003-12-19 20:00","2003","12","19","20:00","-14.7","","-17.2","","81","","7","","7","","","M","99.16","","","","-19","","NA"
"2003-12-19 21:00","2003","12","19","21:00","-14.3","","-16.8","","81","","7","","7","","","M","99.14","","","","-19","","NA"
"2003-12-19 22:00","2003","12","19","22:00","-13.5","","-16.6","","77","","8","","7","","","M","99.12","","","","-18","","NA"
"2003-12-19 23:00","2003","12","19","23:00","-12.9","","-16.8","","73","","4","","11","","","M","99.10","","","","-19","","NA"
"2003-12-20 00:00","2003","12","20","00:00","-11.9","","-14.9","","78","","6","","9","","","M","99.07","","","","-17","","NA"
"2003-12-20 01:00","2003","12","20","01:00","-11.3","","-13.8","","82","","5","","7","","","M","99.04","","","","-16","","NA"
"2003-12-20 02:00","2003","12","20","02:00","-10.1","","-13.0","","79","","3","","7","","","M","99.05","","","","-14","","NA"
"2003-12-20 03:00","2003","12","20","03:00","-10.0","","-12.4","","83","","2","","9","","","M","99.08","","","","-15","","NA"
"2003-12-20 04:00","2003","12","20","04:00","-10.0","","-12.3","","83","","4","","9","","","M","99.03","","","","-15","","NA"
"2003-12-20 05:00","2003","12","20","05:00","-10.2","","-12.0","","87","","4","","7","","","M","98.99","","","","-14","","NA"
"2003-12-20 06:00","2003","12","20","06:00","-10.2","","-11.9","","87","","4","","7","","","M","98.98","","","","-14","","NA"
"2003-12-20 07:00","2003","12","20","07:00","-9.9","","-11.2","","90","","6","","7","","","M","98.99","","","","-14","","NA"
"2003-12-20 08:00","2003","12","20","08:00","-10.3","","-11.2","","93","","8","","7","","","M","98.95","","","","-14","","NA"
"2003-12-20 09:00","2003","12","20","09:00","-9.2","","-9.7","","96","","9","","6","","","M","98.92","","","","-13","","NA"
"2003-12-20 10:00","2003","12","20","10:00","-5.0","","-8.0","","79","","25","","24","","","M","98.91","","","","-12","","NA"
"2003-12-20 11:00","2003","12","20","11:00","-3.3","","-6.8","","77","","24","","24","","","M","98.82","","","","-10","","NA"
"2003-12-20 12:00","2003","12","20","12:00","-1.8","","-5.2","","78","","23","","33","","","M","98.67","","","","-9","","NA"
"2003-12-20 13:00","2003","12","20","13:00","-0.5","","-3.3","","81","","23","","35","","","M","98.57","","","","-8","","NA"
"2003-12-20 14:00","2003","12","20","14:00","-0.1","","-0.2","","99","","24","","46","","","M","98.44","","","","-8","","NA"
"2003-12-20 15:00","2003","12","20","15:00","0.3","","-0.6","","94","","24","","44","","","M","98.37","","","","","","NA"
"2003-12-20 16:00","2003","12","20","16:00","0.3","","0.3","","100","","23","","41","","","M","98.33","","","","","","NA"
"2003-12-20 17:00","2003","12","20","17:00","1.2","","-1.1","","85","","24","","39","","","M","98.27","","","","","","NA"
"2003-12-20 18:00","2003","12","20","18:00","0.8","","0.2","","96","","24","","35","","","M","98.23","","","","","","NA"
"2003-12-20 19:00","2003","12","20","19:00","1.7","","-0.3","","87","","23","","39","","","M","98.20","","","","","","NA"
"2003-12-20 20:00","2003","12","20","20:00","1.1","","-1.1","","85","","21","","37","","","M","98.13","","","","","","NA"
"2003-12-20 21:00","2003","12","20","21:00","1.4","","-1.8","","79","","21","","37","","","M","98.05","","","","","","NA"
"2003-12-20 22:00","2003","12","20","22:00","1.6","","-2.4","","75","","22","","33","","","M","98.04","","","","","","NA"
"2003-12-20 23:00","2003","12","20","23:00"
"2003-12-21 00:00","2003","12","21","00:00"
"2003-12-21 01:00","2003","12","21","01:00"
"2003-12-21 02:00","2003","12","21","02:00"
"2003-12-21 03:00","2003","12","21","03:00","2.3","","-1.4","","77","","26","","22","","","M","97.86","","","","","","NA"
"2003-12-21 04:00","2003","12","21","04:00","2.4","","-0.4","","82","","24","","26","","","M","97.83","","","","","","NA"
"2003-12-21 05:00","2003","12","21","05:00","2.3","","-0.9","","79","","24","","20","","","M","97.81","","","","","","NA"
"2003-12-21 06:00","2003","12","21","06:00","2.2","","-1.1","","79","","24","","15","","","M","97.81","","","","","","NA"
"2003-12-21 07:00","2003","12","21","07:00","2.2","","-0.3","","84","","22","","22","","","M","97.81","","","","","","NA"
"2003-12-21 08:00","2003","12","21","08:00","2.2","","-0.5","","82","","22","","20","","","M","97.82","","","","","","NA"
"2003-12-21 09:00","2003","12","21","09:00","1.8","","0.2","","89","","20","","32","","","M","97.82","","","","","","NA"
"2003-12-21 10:00","2003","12","21","10:00","1.8","","0.0","","88","","21","","28","","","M","97.82","","","","","","NA"
"2003-12-21 11:00","2003","12","21","11:00","1.8","","-0.4","","85","","20","","28","","","M","97.80","","","","","","NA"
"2003-12-21 12:00","2003","12","21","12:00","1.6","","-0.6","","85","","19","","32","","","M","97.71","","","","","","NA"
"2003-12-21 13:00","2003","12","21","13:00","1.4","","-0.8","","85","","19","","32","","","M","97.62","","","","","","NA"
"2003-12-21 14:00","2003","12","21","14:00","1.3","","-0.9","","85","","18","","24","","","M","97.59","","","","","","NA"
"2003-12-21 15:00","2003","12","21","15:00","1.2","","-0.8","","86","","18","","28","","","M","97.57","","","","","","NA"
"2003-12-21 16:00","2003","12","21","16:00","1.2","","-1.0","","85","","20","","32","","","M","97.59","","","","","","NA"
"2003-12-21 17:00","2003","12","21","17:00","1.2","","-0.3","","90","","18","","30","","","M","97.50","","","","","","NA"
"2003-12-21 18:00","2003","12","21","18:00","1.0","","-0.9","","87","","18","","30","","","M","97.51","","","","","","NA"
"2003-12-21 19:00","2003","12","21","19:00","1.1","","-0.6","","88","","19","","30","","","M","97.48","","","","","","NA"
"2003-12-21 20:00","2003","12","21","20:00","1.3","","-0.1","","90","","21","","32","","","M","97.48","","","","","","NA"
"2003-12-21 21:00","2003","12","21","21:00","1.6","","-0.1","","88","","23","","30","","","M","97.51","","","","","","NA"
"2003-12-21 22:00","2003","12","21","22:00","1.6","","0.3","","91","","24","","26","","","M","97.47","","","","","","NA"
"2003-12-21 23:00","2003","12","21","23:00","1.7","","-0.3","","87","","25","","20","","","M","97.38","","","","","","NA"
"2003-12-22 00:00","2003","12","22","00:00","2.1","","1.2","","94","","26","","24","","","M","97.44","","","","","","NA"
"2003-12-22 01:00","2003","12","22","01:00","2.3","","0.5","","88","","27","","28","","","M","97.45","","","","","","NA"
"2003-12-22 02:00","2003","12","22","02:00","1.5","","-0.8","","85","","29","","24","","","M","97.52","","","","","","NA"
"2003-12-22 03:00","2003","12","22","03:00","1.2","","-1.3","","83","","30","","20","","","M","97.62","","","","","","NA"
"2003-12-22 04:00","2003","12","22","04:00","0.7","","-1.6","","85","","32","","20","","","M","97.68","","","","","","NA"
"2003-12-22 05:00","2003","12","22","05:00","0.7","","-1.5","","85","","32","","15","","","M","97.77","","","","","","NA"
"2003-12-22 06:00","2003","12","22","06:00","0.9","","-1.4","","85","","29","","15","","","M","97.76","","","","","","NA"
"2003-12-22 07:00","2003","12","22","07:00","1.2","","-1.1","","85","","28","","19","","","M","97.84","","","","","","NA"
"2003-12-22 08:00","2003","12","22","08:00","1.3","","-0.4","","88","","27","","20","","","M","97.85","","","","","","NA"
"2003-12-22 09:00","2003","12","22","09:00","1.1","","-0.3","","90","","27","","22","","","M","97.91","","","","","","NA"
"2003-12-22 10:00","2003","12","22","10:00","1.2","","-0.7","","87","","28","","24","","","M","97.94","","","","","","NA"
"2003-12-22 11:00","2003","12","22","11:00","1.4","","-0.6","","87","","29","","24","","","M","97.97","","","","","","NA"
"2003-12-22 12:00","2003","12","22","12:00","1.0","","-1.0","","86","","29","","26","","","M","97.97","","","","","","NA"
"2003-12-22 13:00","2003","12","22","13:00","0.9","","-1.4","","85","","29","","20","","","M","97.98","","","","","","NA"
"2003-12-22 14:00","2003","12","22","14:00","1.9","","-1.8","","76","","28","","20","","","M","97.96","","","","","","NA"
"2003-12-22 15:00","2003","12","22","15:00","2.3","","-1.1","","78","","27","","20","","","M","97.99","","","","","","NA"
"2003-12-22 16:00","2003","12","22","16:00","1.9","","-0.4","","85","","27","","19","","","M","98.03","","","","","","NA"
"2003-12-22 17:00","2003","12","22","17:00","2.2","","-0.6","","82","","28","","19","","","M","98.08","","","","","","NA"
"2003-12-22 18:00","2003","12","22","18:00","2.5","","-0.9","","78","","28","","19","","","M","98.12","","","","","","NA"
"2003-12-22 19:00","2003","12","22","19:00","2.6","","0.0","","83","","28","","22","","","M","98.14","","","","","","NA"
"2003-12-22 20:00","2003","12","22","20:00","2.6","","-0.2","","82","","29","","15","","","M","98.16","","","","","","NA"
"2003-12-22 21:00","2003","12","22","21:00","2.0","","0.5","","90","","29","","9","","","M","98.17","","","","","","NA"
"2003-12-22 22:00","2003","12","22","22:00","1.6","","1.2","","97","","29","","11","","","M","98.15","","","","","","NA"
"2003-12-22 23:00","2003","12","22","23:00","-0.4","","-0.8","","97","","2","","13","","","M","98.18","","","","-5","","NA"
"2003-12-23 00:00","2003","12","23","00:00","-2.0","","-3.5","","89","","4","","22","","","M","98.21","","","","-8","","NA"
"2003-12-23 01:00","2003","12","23","01:00","-4.4","","-6.9","","83","","4","","30","","","M","98.27","","","","-12","","NA"
"2003-12-23 02:00","2003","12","23","02:00","-6.0","","-9.1","","79","","5","","26","","","M","98.38","","","","-14","","NA"
"2003-12-23 03:00","2003","12","23","03:00","-6.4","","-8.7","","84","","5","","19","","","M","98.48","","","","-13","","NA"
"2003-12-23 04:00","2003","12","23","04:00","-6.7","","-7.9","","91","","5","","17","","","M","98.50","","","","-13","","NA"
"2003-12-23 05:00","2003","12","23","05:00","-7.9","","-9.3","","90","","5","","24","","","M","98.51","","","","-16","","NA"
"2003-12-23 06:00","2003","12","23","06:00","-8.6","","-9.6","","92","","5","","17","","","M","98.59","","","","-15","","NA"
"2003-12-23 07:00","2003","12","23","07:00","-9.4","","-11.1","","87","","5","","20","","","M","98.66","","","","-17","","NA"
"2003-12-23 08:00","2003","12","23","08:00","-10.1","","-11.9","","87","","4","","15","","","M","98.72","","","","-17","","NA"
"2003-12-23 09:00","2003","12","23","09:00","-10.8","","-14.1","","77","","5","","22","","","M","98.81","","","","-19","","NA"
"2003-12-23 10:00","2003","12","23","10:00","-10.9","","-14.1","","77","","4","","15","","","M","98.88","","","","-18","","NA"
"2003-12-23 11:00","2003","12","23","11:00","-10.6","","-15.3","","68","","4","","19","","","M","98.90","","","","-18","","NA"
"2003-12-23 12:00","2003","12","23","12:00","-10.8","","-15.6","","68","","5","","15","","","M","98.90","","","","-18","","NA"
"2003-12-23 13:00","2003","12","23","13:00","-10.8","","-15.5","","68","","6","","19","","","M","98.85","","","","-19","","NA"
"2003-12-23 14:00","2003","12","23","14:00","-10.0","","-15.6","","64","","5","","17","","","M","98.84","","","","-17","","NA"
"2003-12-23 15:00","2003","12","23","15:00","-10.6","","-15.4","","68","","5","","20","","","M","98.84","","","","-19","","NA"
"2003-12-23 16:00","2003","12","23","16:00","-11.0","","-15.1","","72","","5","","15","","","M","98.91","","","","-18","","NA"
"2003-12-23 17:00","2003","12","23","17:00","-11.9","","-15.2","","76","","3","","13","","","M","99.03","","","","-19","","NA"
"2003-12-23 18:00","2003","12","23","18:00","-12.7","","-15.5","","80","","4","","15","","","M","99.10","","","","-20","","NA"
"2003-12-23 19:00","2003","12","23","19:00","-13.1","","-15.6","","81","","4","","11","","","M","99.12","","","","-19","","NA"
"2003-12-23 20:00","2003","12","23","20:00","-13.0","","-15.5","","81","","4","","13","","","M","99.17","","","","-20","","NA"
"2003-12-23 21:00","2003","12","23","21:00","-13.0","","-15.5","","81","","4","","11","","","M","99.16","","","","-19","","NA"
"2003-12-23 22:00","2003","12","23","22:00","-12.7","","-15.4","","80","","3","","13","","","M","99.15","","","","-20","","NA"
"2003-12-23 23:00","2003","12","23","23:00","-12.4","","-15.1","","80","","4","","17","","","M","99.17","","","","-20","","NA"
"2003-12-24 00:00","2003","12","24","00:00","-12.4","","-15.1","","80","","3","","15","","","M","99.20","","","","-20","","NA"
"2003-12-24 01:00","2003","12","24","01:00","-12.3","","-14.8","","82","","5","","15","","","M","99.19","","","","-20","","NA"
"2003-12-24 02:00","2003","12","24","02:00","-12.2","","-14.7","","82","","5","","15","","","M","99.23","","","","-19","","NA"
"2003-12-24 03:00","2003","12","24","03:00","-12.4","","-14.8","","82","","5","","17","","","M","99.23","","","","-20","","NA"
"2003-12-24 04:00","2003","12","24","04:00","-13.2","","-15.1","","86","","4","","11","","","M","99.19","","","","-19","","NA"
"2003-12-24 05:00","2003","12","24","05:00","-14.5","","-16.3","","86","","3","","15","","","M","99.22","","","","-22","","NA"
"2003-12-24 06:00","2003","12","24","06:00","-15.0","","-16.6","","88","","3","","7","","","M","99.30","","","","-20","","NA"
"2003-12-24 07:00","2003","12","24","07:00","-15.0","","-16.8","","86","","4","","11","","","M","99.34","","","","-22","","NA"
"2003-12-24 08:00","2003","12","24","08:00","-15.5","","-17.1","","88","","3","","9","","","M","99.36","","","","-21","","NA"
"2003-12-24 09:00","2003","12","24","09:00","-16.0","","-17.6","","87","","3","","6","","","M","99.38","","","","-20","","NA"
"2003-12-24 10:00","2003","12","24","10:00","-13.8","","-16.9","","77","","6","","9","","","M","99.37","","","","-19","","NA"
"2003-12-24 11:00","2003","12","24","11:00","-12.5","","-16.9","","70","","5","","13","","","M","99.38","","","","-19","","NA"
"2003-12-24 12:00","2003","12","24","12:00","-11.1","","-15.9","","68","","5","","19","","","M","99.27","","","","-19","","NA"
"2003-12-24 13:00","2003","12","24","13:00","-9.3","","-14.6","","65","","5","","13","","","M","99.21","","","","-15","","NA"
"2003-12-24 14:00","2003","12","24","14:00","-8.0","","-14.3","","60","","5","","15","","","M","99.19","","","","-14","","NA"
"2003-12-24 15:00","2003","12","24","15:00","-7.3","","-13.6","","61","","6","","13","","","M","99.21","","","","-13","","NA"
"2003-12-24 16:00","2003","12","24","16:00","-7.7","","-13.8","","62","","5","","15","","","M","99.23","","","","-14","","NA"
"2003-12-24 17:00","2003","12","24","17:00","-9.2","","-13.7","","70","","3","","11","","","M","99.21","","","","-15","","NA"
"2003-12-24 18:00","2003","12","24","18:00","-10.2","","-13.9","","74","","4","","9","","","M","99.23","","","","-15","","NA"
"2003-12-24 19:00","2003","12","24","19:00","-11.9","","-14.7","","80","","36","","9","","","M","99.27","","","","-17","","NA"
"2003-12-24 20:00","2003","12","24","20:00","-12.2","","-14.6","","82","","7","","6","","","M","99.28","","","","-16","","NA"
"2003-12-24 21:00","2003","12","24","21:00","-13.3","","-15.4","","84","","5","","6","","","M","99.24","","","","-17","","NA"
"2003-12-24 22:00","2003","12","24","22:00","-13.7","","-16.2","","81","","1","","6","","","M","99.22","","","","-18","","NA"
"2003-12-24 23:00","2003","12","24","23:00","-14.9","","-16.9","","85","","1","","6","","","M","99.18","","","","-19","","NA"
"2003-12-25 00:00","2003","12","25","00:00","-15.7","","-17.5","","86","","1","","9","","","M","99.11","","","","-22","","NA"
"2003-12-25 01:00","2003","12","25","01:00","-15.6","","-17.5","","85","","4","","11","","","M","99.06","","","","-22","","NA"
"2003-12-25 02:00","2003","12","25","02:00","-16.4","","-18.1","","87","","7","","13","","","M","99.14","","","","-24","","NA"
"2003-12-25 03:00","2003","12","25","03:00","-15.8","","-18.4","","80","","6","","15","","","M","99.15","","","","-24","","NA"
"2003-12-25 04:00","2003","12","25","04:00","-15.7","","-19.0","","76","","6","","9","","","M","99.14","","","","-22","","NA"
"2003-12-25 05:00","2003","12","25","05:00","-17.2","","-20.2","","77","","5","","9","","","M","99.12","","","","-23","","NA"
"2003-12-25 06:00","2003","12","25","06:00","-18.8","","-21.3","","81","","3","","7","","","M","99.14","","","","-24","","NA"
"2003-12-25 07:00","2003","12","25","07:00","-19.1","","-21.6","","81","","1","","7","","","M","99.20","","","","-25","","NA"
"2003-12-25 08:00","2003","12","25","08:00","-19.3","","-21.7","","81","","2","","6","","","M","99.21","","","","-24","","NA"
"2003-12-25 09:00","2003","12","25","09:00","-18.1","","-21.7","","73","","4","","15","","","M","99.23","","","","-27","","NA"
"2003-12-25 10:00","2003","12","25","10:00","-15.6","","-20.4","","67","","5","","11","","","M","99.24","","","","-22","","NA"
"2003-12-25 11:00","2003","12","25","11:00","-9.8","","-16.0","","61","","6","","9","","","M","99.21","","","","-15","","NA"
"2003-12-25 12:00","2003","12","25","12:00","-9.1","","-15.5","","60","","1","","9","","","M","99.16","","","","-14","","NA"
"2003-12-25 13:00","2003","12","25","13:00","-6.0","","-13.4","","56","","1","","7","","","M","99.11","","","","-9","","NA"
"2003-12-25 14:00","2003","12","25","14:00","-3.7","","-12.9","","49","","35","","6","","","M","99.12","","","","-6","","NA"
"2003-12-25 15:00","2003","12","25","15:00","-2.2","","-12.6","","45","","1","","7","","","M","99.17","","","","-5","","NA"
"2003-12-25 16:00","2003","12","25","16:00","-1.2","","-12.6","","42","","34","","4","","","M","99.18","","","","-3","","NA"
"2003-12-25 17:00","2003","12","25","17:00","-2.4","","-9.2","","60","","29","","4","","","M","99.22","","","","-4","","NA"
"2003-12-25 18:00","2003","12","25","18:00","-5.8","","-9.9","","73","","7","","7","","","M","99.26","","","","-9","","NA"
"2003-12-25 19:00","2003","12","25","19:00","-6.7","","-9.8","","79","","8","","9","","","M","99.28","","","","-11","","NA"
"2003-12-25 20:00","2003","12","25","20:00","-8.5","","-10.4","","86","","7","","11","","","M","99.30","","","","-14","","NA"
"2003-12-25 21:00","2003","12","25","21:00","-8.7","","-10.3","","88","","8","","13","","","M","99.33","","","","-15","","NA"
"2003-12-25 22:00","2003","12","25","22:00","-9.9","","-11.5","","88","","7","","13","","","M","99.35","","","","-16","","NA"
"2003-12-25 23:00","2003","12","25","23:00","-10.5","","-11.4","","93","","8","","15","","","M","99.35","","","","-17","","NA"
"2003-12-26 00:00","2003","12","26","00:00","-9.7","","-9.9","","98","","8","","13","","","M","99.34","","","","-16","","NA"
"2003-12-26 01:00","2003","12","26","01:00","-9.5","","-9.7","","98","","6","","13","","","M","99.36","","","","-16","","NA"
"2003-12-26 02:00","2003","12","26","02:00","-10.3","","-10.5","","98","","8","","13","","","M","99.41","","","","-17","","NA"
"2003-12-26 03:00","2003","12","26","03:00","-9.9","","-10.0","","99","","8","","13","","","M","99.50","","","","-16","","NA"
"2003-12-26 04:00","2003","12","26","04:00","-10.5","","-10.8","","98","","7","","13","","","M","99.55","","","","-17","","NA"
"2003-12-26 05:00","2003","12","26","05:00","-9.7","","-9.8","","99","","8","","13","","","M","99.53","","","","-16","","NA"
"2003-12-26 06:00","2003","12","26","06:00","-11.0","","-11.5","","96","","7","","15","","","M","99.55","","","","-18","","NA"
"2003-12-26 07:00","2003","12","26","07:00","-10.9","","-11.2","","98","","7","","15","","","M","99.56","","","","-18","","NA"
"2003-12-26 08:00","2003","12","26","08:00","-9.7","","-9.9","","98","","7","","13","","","M","99.63","","","","-16","","NA"
"2003-12-26 09:00","2003","12","26","09:00","-10.6","","-11.1","","96","","7","","15","","","M","99.69","","","","-17","","NA"
"2003-12-26 10:00","2003","12","26","10:00","-8.0","","-8.1","","99","","6","","11","","","M","99.72","","","","-13","","NA"
"2003-12-26 11:00","2003","12","26","11:00","-5.4","","-5.5","","99","","8","","13","","","M","99.75","","","","-11","","NA"
"2003-12-26 12:00","2003","12","26","12:00","0.4","","-2.9","","78","","11","","4","","","M","99.73","","","","","","NA"
"2003-12-26 13:00","2003","12","26","13:00","4.1","","0.6","","78","","18","","7","","","M","99.69","","","","","","NA"
"2003-12-26 14:00","2003","12","26","14:00","4.8","","0.8","","75","","17","","13","","","M","99.66","","","","","","NA"
"2003-12-26 15:00","2003","12","26","15:00","4.5","","1.0","","78","","21","","11","","","M","99.69","","","","","","NA"
"2003-12-26 16:00","2003","12","26","16:00","3.4","","1.5","","87","","20","","9","","","M","99.72","","","","","","NA"
"2003-12-26 17:00","2003","12","26","17:00","2.4","","2.3","","99","","20","","9","","","M","99.73","","","","","","NA"
"2003-12-26 18:00","2003","12","26","18:00","0.2","","0.2","","100","","14","","7","","","M","99.72","","","","","","NA"
"2003-12-26 19:00","2003","12","26","19:00","-0.5","","-0.6","","99","","12","","7","","","M","99.73","","","","-3","","NA"
"2003-12-26 20:00","2003","12","26","20:00","0.6","","0.6","","100","","13","","11","","","M","99.70","","","","","","NA"
"2003-12-26 21:00","2003","12","26","21:00","-1.9","","-2.0","","99","","11","","4","","","M","99.71","","","","-3","","NA"
"2003-12-26 22:00","2003","12","26","22:00","-0.8","","-0.9","","99","","11","","9","","","M","99.65","","","","-4","","NA"
"2003-12-26 23:00","2003","12","26","23:00","1.5","","-3.7","","68","","13","","19","","","M","99.57","","","","","","NA"
"2003-12-27 00:00","2003","12","27","00:00","1.8","","-5.0","","61","","12","","13","","","M","99.55","","","","","","NA"
"2003-12-27 01:00","2003","12","27","01:00","2.1","","-4.9","","60","","13","","13","","","M","99.55","","","","","","NA"
"2003-12-27 02:00","2003","12","27","02:00","3.6","","-0.5","","75","","17","","28","","","M","99.53","","","","","","NA"
"2003-12-27 03:00","2003","12","27","03:00","3.8","","-0.1","","76","","17","","24","","","M","99.56","","","","","","NA"
"2003-12-27 04:00","2003","12","27","04:00","3.9","","0.1","","76","","17","","35","","","M","99.52","","","","","","NA"
"2003-12-27 05:00","2003","12","27","05:00","3.9","","-0.6","","72","","16","","35","","","M","99.42","","","","","","NA"
"2003-12-27 06:00","2003","12","27","06:00","4.2","","0.2","","75","","17","","39","","","M","99.38","","","","","","NA"
"2003-12-27 07:00","2003","12","27","07:00","4.1","","0.8","","79","","17","","39","","","M","99.36","","","","","","NA"
"2003-12-27 08:00","2003","12","27","08:00","4.4","","0.7","","77","","17","","37","","","M","99.36","","","","","","NA"
"2003-12-27 09:00","2003","12","27","09:00","4.6","","1.1","","78","","17","","35","","","M","99.37","","","","","","NA"
"2003-12-27 10:00","2003","12","27","10:00","5.0","","1.3","","77","","17","","39","","","M","99.29","","","","","","NA"
"2003-12-27 11:00","2003","12","27","11:00","5.1","","1.2","","76","","17","","41","","","M","99.23","","","","","","NA"
"2003-12-27 12:00","2003","12","27","12:00","5.9","","1.1","","71","","17","","41","","","M","99.11","","","","","","NA"
"2003-12-27 13:00","2003","12","27","13:00","6.5","","0.6","","66","","17","","43","","","M","98.99","","","","","","NA"
"2003-12-27 14:00","2003","12","27","14:00","6.5","","0.4","","65","","17","","39","","","M","98.98","","","","","","NA"
"2003-12-27 15:00","2003","12","27","15:00","6.3","","0.6","","67","","17","","43","","","M","98.91","","","","","","NA"
"2003-12-27 16:00","2003","12","27","16:00","6.0","","0.1","","66","","17","","46","","","M","98.92","","","","","","NA"
"2003-12-27 17:00","2003","12","27","17:00","6.5","","-1.7","","56","","16","","39","","","M","98.74","","","","","","NA"
"2003-12-27 18:00","2003","12","27","18:00","6.5","","-1.7","","56","","17","","41","","","M","98.71","","","","","","NA"
"2003-12-27 19:00","2003","12","27","19:00","6.6","","-1.6","","56","","18","","44","","","M","98.69","","","","","","NA"
"2003-12-27 20:00","2003","12","27","20:00","7.1","","-2.7","","50","","17","","50","","","M","98.55","","","","","","NA"
"2003-12-27 21:00","2003","12","27","21:00","5.0","","0.2","","71","","17","","52","","","M","98.52","","","","","","NA"
"2003-12-27 22:00","2003","12","27","22:00","4.5","","0.8","","77","","17","","41","","","M","98.59","","","","","","NA"
"2003-12-27 23:00","2003","12","27","23:00","5.5","","0.5","","70","","18","","39","","","M","98.57","","","","","","NA"
"2003-12-28 00:00","2003","12","28","00:00","5.7","","-0.2","","66","","17","","44","","","M","98.48","","","","","","NA"
"2003-12-28 01:00","2003","12","28","01:00","5.4","","0.6","","71","","17","","46","","","M","98.39","","","","","","NA"
"2003-12-28 02:00","2003","12","28","02:00","4.4","","1.6","","82","","17","","48","","","M","98.33","","","","","","NA"
"2003-12-28 03:00","2003","12","28","03:00","3.1","","2.8","","98","","16","","39","","","M","98.21","","","","","","NA"
"2003-12-28 04:00","2003","12","28","04:00","2.8","","2.8","","100","","16","","39","","","M","98.09","","","","","","NA"
"2003-12-28 05:00","2003","12","28","05:00","2.8","","2.7","","99","","16","","32","","","M","98.01","","","","","","NA"
"2003-12-28 06:00","2003","12","28","06:00","2.8","","2.8","","100","","16","","37","","","M","97.89","","","","","","NA"
"2003-12-28 07:00","2003","12","28","07:00","3.1","","3.1","","100","","15","","39","","","M","97.80","","","","","","NA"
"2003-12-28 08:00","2003","12","28","08:00","3.8","","3.7","","99","","17","","46","","","M","97.69","","","","","","NA"
"2003-12-28 09:00","2003","12","28","09:00","3.8","","3.8","","100","","17","","50","","","M","97.71","","","","","","NA"
"2003-12-28 10:00","2003","12","28","10:00","3.8","","3.8","","100","","17","","46","","","M","97.72","","","","","","NA"
"2003-12-28 11:00","2003","12","28","11:00","4.2","","4.2","","100","","18","","37","","","M","97.75","","","","","","NA"
"2003-12-28 12:00","2003","12","28","12:00","4.2","","4.2","","100","","18","","37","","","M","97.70","","","","","","NA"
"2003-12-28 13:00","2003","12","28","13:00","4.4","","4.4","","100","","18","","33","","","M","97.64","","","","","","NA"
"2003-12-28 14:00","2003","12","28","14:00","4.3","","4.3","","100","","17","","32","","","M","97.62","","","","","","NA"
"2003-12-28 15:00","2003","12","28","15:00","4.3","","4.3","","100","","17","","28","","","M","97.59","","","","","","NA"
"2003-12-28 16:00","2003","12","28","16:00","4.5","","4.5","","100","","17","","28","","","M","97.61","","","","","","NA"
"2003-12-28 17:00","2003","12","28","17:00","4.3","","4.3","","100","","17","","32","","","M","97.58","","","","","","NA"
"2003-12-28 18:00","2003","12","28","18:00","4.6","","4.6","","100","","17","","39","","","M","97.55","","","","","","NA"
"2003-12-28 19:00","2003","12","28","19:00","4.4","","4.4","","100","","18","","33","","","M","97.57","","","","","","NA"
"2003-12-28 20:00","2003","12","28","20:00","4.4","","4.4","","100","","21","","37","","","M","97.63","","","","","","NA"
"2003-12-28 21:00","2003","12","28","21:00","4.4","","2.9","","90","","23","","32","","","M","97.68","","","","","","NA"
"2003-12-28 22:00","2003","12","28","22:00","4.2","","1.6","","83","","23","","30","","","M","97.70","","","","","","NA"
"2003-12-28 23:00","2003","12","28","23:00","3.8","","1.8","","87","","25","","26","","","M","97.73","","","","","","NA"
"2003-12-29 00:00","2003","12","29","00:00","2.8","","1.0","","88","","26","","26","","","M","97.78","","","","","","NA"
"2003-12-29 01:00","2003","12","29","01:00","2.6","","0.5","","86","","24","","35","","","M","97.81","","","","","","NA"
"2003-12-29 02:00","2003","12","29","02:00","1.1","","1.0","","99","","25","","33","","","M","97.86","","","","","","NA"
"2003-12-29 03:00","2003","12","29","03:00","1.2","","1.2","","100","","25","","26","","","M","97.88","","","","","","NA"
"2003-12-29 04:00","2003","12","29","04:00","2.1","","1.4","","95","","24","","33","","","M","97.91","","","","","","NA"
"2003-12-29 05:00","2003","12","29","05:00","2.4","","1.1","","91","","24","","37","","","M","97.89","","","","","","NA"
"2003-12-29 06:00","2003","12","29","06:00","2.3","","1.0","","91","","25","","33","","","M","97.87","","","","","","NA"
"2003-12-29 07:00","2003","12","29","07:00","2.3","","0.8","","90","","26","","30","","","M","97.91","","","","","","NA"
"2003-12-29 08:00","2003","12","29","08:00","2.4","","1.1","","91","","25","","28","","","M","97.96","","","","","","NA"
"2003-12-29 09:00","2003","12","29","09:00","1.9","","0.6","","91","","27","","17","","","M","98.01","","","","","","NA"
"2003-12-29 10:00","2003","12","29","10:00","1.4","","1.3","","99","","32","","7","","","M","98.06","","","","","","NA"
"2003-12-29 11:00","2003","12","29","11:00","0.9","","0.9","","100","","2","","4","","","M","98.08","","","","","","NA"
"2003-12-29 12:00","2003","12","29","12:00","0.7","","0.7","","100","","15","","6","","","M","98.06","","","","","","NA"
"2003-12-29 13:00","2003","12","29","13:00","1.0","","1.0","","100","","9","","4","","","M","98.03","","","","","","NA"
"2003-12-29 14:00","2003","12","29","14:00","1.9","","1.5","","97","","11","","4","","","M","98.05","","","","","","NA"
"2003-12-29 15:00","2003","12","29","15:00","1.6","","0.6","","93","","1","","4","","","M","98.03","","","","","","NA"
"2003-12-29 16:00","2003","12","29","16:00","1.3","","0.7","","96","","6","","7","","","M","98.02","","","","","","NA"
"2003-12-29 17:00","2003","12","29","17:00","0.2","","0.1","","99","","3","","13","","","M","98.04","","","","","","NA"
"2003-12-29 18:00","2003","12","29","18:00","-0.9","","-1.4","","96","","5","","19","","","M","98.09","","","","-6","","NA"
"2003-12-29 19:00","2003","12","29","19:00","-1.7","","-2.5","","94","","5","","19","","","M","98.10","","","","-7","","NA"
"2003-12-29 20:00","2003","12","29","20:00","-2.5","","-3.7","","91","","6","","22","","","M","98.13","","","","-9","","NA"
"2003-12-29 21:00","2003","12","29","21:00","-3.1","","-4.4","","91","","6","","22","","","M","98.13","","","","-9","","NA"
"2003-12-29 22:00","2003","12","29","22:00","-3.6","","-4.8","","91","","7","","19","","","M","98.10","","","","-10","","NA"
"2003-12-29 23:00","2003","12","29","23:00","-4.1","","-5.7","","89","","5","","28","","","M","98.04","","","","-12","","NA"
"2003-12-30 00:00","2003","12","30","00:00","-4.5","","-6.0","","89","","7","","19","","","M","98.03","","","","-11","","NA"
"2003-12-30 01:00","2003","12","30","01:00","-5.0","","-6.5","","89","","5","","13","","","M","98.04","","","","-10","","NA"
"2003-12-30 02:00","2003","12","30","02:00","-5.7","","-7.5","","87","","4","","11","","","M","98.12","","","","-10","","NA"
"2003-12-30 03:00","2003","12","30","03:00","-6.5","","-8.1","","88","","4","","15","","","M","98.18","","","","-12","","NA"
"2003-12-30 04:00","2003","12","30","04:00","-7.2","","-8.6","","90","","4","","13","","","M","98.21","","","","-13","","NA"
"2003-12-30 05:00","2003","12","30","05:00","-7.8","","-8.7","","93","","4","","13","","","M","98.21","","","","-14","","NA"
"2003-12-30 06:00","2003","12","30","06:00","-8.9","","-10.8","","86","","4","","15","","","M","98.29","","","","-15","","NA"
"2003-12-30 07:00","2003","12","30","07:00","-9.5","","-11.8","","83","","5","","15","","","M","98.35","","","","-16","","NA"
"2003-12-30 08:00","2003","12","30","08:00","-10.2","","-12.5","","83","","6","","15","","","M","98.46","","","","-17","","NA"
"2003-12-30 09:00","2003","12","30","09:00","-10.5","","-13.1","","81","","5","","19","","","M","98.57","","","","-18","","NA"
"2003-12-30 10:00","2003","12","30","10:00","-10.0","","-13.4","","76","","5","","15","","","M","98.68","","","","-17","","NA"
"2003-12-30 11:00","2003","12","30","11:00","-9.2","","-13.4","","71","","5","","17","","","M","98.77","","","","-16","","NA"
"2003-12-30 12:00","2003","12","30","12:00","-8.3","","-12.7","","71","","5","","13","","","M","98.78","","","","-14","","NA"
"2003-12-30 13:00","2003","12","30","13:00","-7.9","","-11.6","","75","","7","","9","","","M","98.77","","","","-12","","NA"
"2003-12-30 14:00","2003","12","30","14:00","-6.4","","-11.8","","65","","9","","6","","","M","98.81","","","","-9","","NA"
"2003-12-30 15:00","2003","12","30","15:00","-5.9","","-11.1","","67","","7","","9","","","M","98.84","","","","-10","","NA"
"2003-12-30 16:00","2003","12","30","16:00","-6.1","","-10.9","","69","","8","","7","","","M","98.92","","","","-9","","NA"
"2003-12-30 17:00","2003","12","30","17:00","-7.5","","-10.6","","78","","5","","9","","","M","98.98","","","","-12","","NA"
"2003-12-30 18:00","2003","12","30","18:00","-8.6","","-10.6","","85","","7","","9","","","M","99.02","","","","-13","","NA"
"2003-12-30 19:00","2003","12","30","19:00","-9.2","","-10.8","","88","","4","","11","","","M","99.03","","","","-15","","NA"
"2003-12-30 20:00","2003","12","30","20:00","-8.6","","-10.5","","86","","7","","11","","","M","98.95","","","","-14","","NA"
"2003-12-30 21:00","2003","12","30","21:00","-7.9","","-9.8","","86","","7","","13","","","M","98.90","","","","-14","","NA"
"2003-12-30 22:00","2003","12","30","22:00","-7.8","","-9.5","","88","","4","","11","","","M","98.84","","","","-13","","NA"
"2003-12-30 23:00","2003","12","30","23:00","-6.9","","-8.2","","90","","7","","19","","","M","98.74","","","","-14","","NA"
"2003-12-31 00:00","2003","12","31","00:00","-5.9","","-6.8","","93","","8","","19","","","M","98.58","","","","-13","","NA"
"2003-12-31 01:00","2003","12","31","01:00","-5.1","","-5.3","","98","","7","","15","","","M","98.40","","","","-11","","NA"
"2003-12-31 02:00","2003","12","31","02:00","-4.3","","-4.4","","99","","9","","26","","","M","98.16","","","","-12","","NA"
"2003-12-31 03:00","2003","12","31","03:00","-3.7","","-3.8","","99","","9","","24","","","M","98.00","","","","-11","","NA"
"2003-12-31 04:00","2003","12","31","04:00","-3.5","","-3.6","","99","","8","","22","","","M","97.80","","","","-10","","NA"
"2003-12-31 05:00","2003","12","31","05:00","-3.3","","-3.4","","99","","8","","22","","","M","97.58","","","","-10","","NA"
"2003-12-31 06:00","2003","12","31","06:00","-2.5","","-2.6","","99","","8","","22","","","M","97.41","","","","-9","","NA"
"2003-12-31 07:00","2003","12","31","07:00","-2.1","","-2.2","","99","","8","","20","","","M","97.27","","","","-8","","NA"
"2003-12-31 08:00","2003","12","31","08:00","-1.7","","-1.8","","99","","28","","6","","","M","97.28","","","","-4","","NA"
"2003-12-31 09:00","2003","12","31","09:00","-2.9","","-3.0","","99","","3","","9","","","M","97.39","","","","-6","","NA"
"2003-12-31 10:00","2003","12","31","10:00","-4.1","","-4.2","","99","","4","","20","","","M","97.52","","","","-10","","NA"
"2003-12-31 11:00","2003","12","31","11:00","-6.9","","-7.3","","97","","1","","22","","","M","97.73","","","","-14","","NA"
"2003-12-31 12:00","2003","12","31","12:00","-9.0","","-9.7","","95","","1","","19","","","M","97.92","","","","-16","","NA"
"2003-12-31 13:00","2003","12","31","13:00","-9.4","","-10.5","","92","","35","","17","","","M","98.25","","","","-16","","NA"
"2003-12-31 14:00","2003","12","31","14:00","-9.6","","-11.2","","88","","36","","19","","","M","98.48","","","","-17","","NA"
"2003-12-31 15:00","2003","12","31","15:00","-10.3","","-11.9","","88","","1","","20","","","M","98.69","","","","-18","","NA"
"2003-12-31 16:00","2003","12","31","16:00","-10.5","","-12.0","","89","","1","","15","","","M","98.92","","","","-17","","NA"
"2003-12-31 17:00","2003","12","31","17:00","-11.3","","-12.6","","90","","1","","13","","","M","99.15","","","","-18","","NA"
"2003-12-31 18:00","2003","12","31","18:00","-12.0","","-13.0","","92","","6","","6","","","M","99.35","","","","-16","","NA"
"2003-12-31 19:00","2003","12","31","19:00","-12.7","","-13.7","","92","","35","","7","","","M","99.48","","","","-17","","NA"
"2003-12-31 20:00","2003","12","31","20:00","-12.2","","-13.2","","92","","34","","7","","","M","99.66","","","","-17","","NA"
"2003-12-31 21:00","2003","12","31","21:00","-12.1","","-12.7","","95","","8","","11","","","M","99.72","","","","-18","","NA"
"2003-12-31 22:00","2003","12","31","22:00","-12.4","","-13.4","","92","","2","","9","","","M","99.81","","","","-18","","NA"
"2003-12-31 23:00","2003","12","31","23:00","-12.2","","-13.2","","92","","6","","9","","","M","99.83","","","","-17","","NA"
