"Station Name","PUKASKWA (AUT)"
"Province","ONTARIO"
"Latitude","48.59"
"Longitude","-86.29"
"Elevation","207.60"
"Climate Identifier","6046767"
"WMO Identifier","71750"
"TC Identifier","WCJ"
"All times are specified in Local Standard Time (LST). Add 1 hour to adjust for Daylight Saving Time where and when it is observed."

"Legend"
"E","Estimated"
"M","Missing"
"NA","Not Available"

"Date/Time","Year","Month","Day","Time","Temp (°C)","Temp Flag","Dew Point Temp (°C)","Dew Point Temp Flag","Rel Hum (%)","Rel Hum Flag","Wind Dir (10s deg)","Wind Dir Flag","Wind Spd (km/h)","Wind Spd Flag","Visibility (km)","Visibility Flag","Stn Press (kPa)","Stn Press Flag","Hmdx","Hmdx Flag","Wind Chill","Wind Chill Flag","Weather"
"2012-04-01 00:00","2012","04","01","00:00","1.0","","0.6","","97","","17","","6","","","","98.37","","","","","","NA"
"2012-04-01 01:00","2012","04","01","01:00","1.3","","0.8","","96","","19","","9","","","","98.34","","","","","","NA"
"2012-04-01 02:00","2012","04","01","02:00","1.6","","1.2","","97","","19","","9","","","","98.31","","","","","","NA"
"2012-04-01 03:00","2012","04","01","03:00","2.1","","1.7","","97","","20","","4","","","","98.30","","","","","","NA"
"2012-04-01 04:00","2012","04","01","04:00","1.7","","1.4","","98","","20","","4","","","","98.25","","","","","","NA"
"2012-04-01 05:00","2012","04","01","05:00","1.7","","1.4","","98","","21","","4","","","","98.28","","","","","","NA"
"2012-04-01 06:00","2012","04","01","06:00","1.4","","1.2","","99","","5","","2","","","","98.30","","","","","","NA"
"2012-04-01 07:00","2012","04","01","07:00","1.5","","1.3","","99","","6","","4","","","","98.34","","","","","","NA"
"2012-04-01 08:00","2012","04","01","08:00","1.8","","1.6","","99","","7","","2","","","","98.39","","","","","","NA"
"2012-04-01 09:00","2012","04","01","09:00","2.6","","2.3","","98","","2","","7","","","","98.46","","","","","","NA"
"2012-04-01 10:00","2012","04","01","10:00","3.7","","2.3","","91","","3","","6","","","","98.49","","","","","","NA"
"2012-04-01 11:00","2012","04","01","11:00","4.2","","2.4","","88","","4","","9","","","","98.51","","","","","","NA"
"2012-04-01 12:00","2012","04","01","12:00","4.1","","1.7","","84","","5","","7","","","","98.57","","","","","","NA"
"2012-04-01 13:00","2012","04","01","13:00","4.1","","1.4","","83","","4","","7","","","","98.59","","","","","","NA"
"2012-04-01 14:00","2012","04","01","14:00","4.6","","1.4","","80","","5","","7","","","","98.66","","","","","","NA"
"2012-04-01 15:00","2012","04","01","15:00","4.6","","1.2","","79","","4","","7","","","","98.75","","","","","","NA"
"2012-04-01 16:00","2012","04","01","16:00","5.6","","1.1","","73","","5","","9","","","","98.77","","","","","","NA"
"2012-04-01 17:00","2012","04","01","17:00","5.8","","1.3","","73","","4","","6","","","","98.79","","","","","","NA"
"2012-04-01 18:00","2012","04","01","18:00","5.5","","0.5","","70","","7","","7","","","","98.86","","","","","","NA"
"2012-04-01 19:00","2012","04","01","19:00","3.5","","0.7","","82","","8","","4","","","","98.95","","","","","","NA"
"2012-04-01 20:00","2012","04","01","20:00","1.1","","-0.6","","88","","3","","4","","","","99.04","","","","","","NA"
"2012-04-01 21:00","2012","04","01","21:00","-0.1","","-1.1","","93","","4","","6","","","","99.11","","","","-2","","NA"
"2012-04-01 22:00","2012","04","01","22:00","-0.3","","-1.1","","94","","5","","9","","","","99.16","","","","-3","","NA"
"2012-04-01 23:00","2012","04","01","23:00","-0.8","","-1.4","","96","","5","","9","","","","99.21","","","","-4","","NA"
"2012-04-02 00:00","2012","04","02","00:00","-1.0","","-1.6","","96","","5","","9","","","","99.22","","","","-4","","NA"
"2012-04-02 01:00","2012","04","02","01:00","-1.4","","-2.0","","96","","6","","6","","","","99.27","","","","-4","","NA"
"2012-04-02 02:00","2012","04","02","02:00","-1.7","","-2.2","","96","","7","","6","","","","99.35","","","","-4","","NA"
"2012-04-02 03:00","2012","04","02","03:00","-1.9","","-2.3","","97","","5","","9","","","","99.35","","","","-5","","NA"
"2012-04-02 04:00","2012","04","02","04:00","-2.0","","-2.5","","96","","5","","9","","","","99.42","","","","-5","","NA"
"2012-04-02 05:00","2012","04","02","05:00","-2.4","","-2.8","","97","","5","","9","","","","99.48","","","","-6","","NA"
"2012-04-02 06:00","2012","04","02","06:00","-2.4","","-2.8","","97","","5","","7","","","","99.52","","","","-5","","NA"
"2012-04-02 07:00","2012","04","02","07:00","-2.3","","-2.9","","96","","5","","7","","","","99.62","","","","-5","","NA"
"2012-04-02 08:00","2012","04","02","08:00","-1.0","","-2.2","","92","","5","","9","","","","99.64","","","","-4","","NA"
"2012-04-02 09:00","2012","04","02","09:00","2.2","","-0.6","","82","","7","","6","","","","99.63","","","","","","NA"
"2012-04-02 10:00","2012","04","02","10:00","6.5","","-4.8","","44","","14","","11","","","","99.64","","","","","","NA"
"2012-04-02 11:00","2012","04","02","11:00","8.3","","-6.3","","35","","15","","6","","","","99.61","","","","","","NA"
"2012-04-02 12:00","2012","04","02","12:00","8.8","","-5.5","","36","","25","","11","","","","99.61","","","","","","NA"
"2012-04-02 13:00","2012","04","02","13:00","7.3","","-1.8","","52","","25","","11","","","","99.69","","","","","","NA"
"2012-04-02 14:00","2012","04","02","14:00","7.0","","-2.3","","52","","25","","9","","","","99.65","","","","","","NA"
"2012-04-02 15:00","2012","04","02","15:00","6.6","","-3.5","","48","","26","","9","","","","99.55","","","","","","NA"
"2012-04-02 16:00","2012","04","02","16:00","6.5","","-3.3","","50","","26","","9","","","","99.47","","","","","","NA"
"2012-04-02 17:00","2012","04","02","17:00","5.9","","-5.0","","45","","25","","7","","","","99.44","","","","","","NA"
"2012-04-02 18:00","2012","04","02","18:00","5.8","","-4.4","","48","","25","","4","","","","99.41","","","","","","NA"
"2012-04-02 19:00","2012","04","02","19:00","4.3","","-4.8","","52","","20","","2","","","","99.35","","","","","","NA"
"2012-04-02 20:00","2012","04","02","20:00","2.0","","-4.2","","63","","8","","2","","","","99.27","","","","","","NA"
"2012-04-02 21:00","2012","04","02","21:00","2.5","","-3.2","","66","","4","","7","","","","99.20","","","","","","NA"
"2012-04-02 22:00","2012","04","02","22:00","3.5","","-4.1","","57","","7","","6","","","","99.14","","","","","","NA"
"2012-04-02 23:00","2012","04","02","23:00","3.7","","-4.2","","56","","8","","6","","","","99.31","","","","","","NA"
"2012-04-03 00:00","2012","04","03","00:00","3.1","","-2.9","","65","","4","","6","","","","99.17","","","","","","NA"
"2012-04-03 01:00","2012","04","03","01:00","2.8","","-1.9","","71","","7","","7","","","","99.27","","","","","","NA"
"2012-04-03 02:00","2012","04","03","02:00","4.2","","0.2","","75","","4","","6","","","","99.05","","","","","","NA"
"2012-04-03 03:00","2012","04","03","03:00","2.8","","0.9","","87","","5","","6","","","","99.05","","","","","","NA"
"2012-04-03 04:00","2012","04","03","04:00","2.8","","1.1","","89","","6","","6","","","","99.03","","","","","","NA"
"2012-04-03 05:00","2012","04","03","05:00","2.8","","1.1","","89","","5","","6","","","","99.02","","","","","","NA"
"2012-04-03 06:00","2012","04","03","06:00","2.6","","1.1","","90","","6","","6","","","","98.99","","","","","","NA"
"2012-04-03 07:00","2012","04","03","07:00","2.5","","1.3","","92","","36","","2","","","","99.04","","","","","","NA"
"2012-04-03 08:00","2012","04","03","08:00","3.0","","1.2","","88","","7","","4","","","","99.03","","","","","","NA"
"2012-04-03 09:00","2012","04","03","09:00","3.0","","1.4","","89","","5","","4","","","","99.05","","","","","","NA"
"2012-04-03 10:00","2012","04","03","10:00","4.6","","1.8","","82","","10","","4","","","","99.06","","","","","","NA"
"2012-04-03 11:00","2012","04","03","11:00","7.7","","1.4","","64","","25","","9","","","","99.04","","","","","","NA"
"2012-04-03 12:00","2012","04","03","12:00","6.9","","0.5","","64","","24","","13","","","","99.05","","","","","","NA"
"2012-04-03 13:00","2012","04","03","13:00","9.0","","2.2","","62","","26","","11","","","","99.05","","","","","","NA"
"2012-04-03 14:00","2012","04","03","14:00","8.3","","2.9","","69","","25","","9","","","","99.01","","","","","","NA"
"2012-04-03 15:00","2012","04","03","15:00","8.7","","2.7","","66","","26","","9","","","","98.99","","","","","","NA"
"2012-04-03 16:00","2012","04","03","16:00","8.2","","2.0","","65","","26","","17","","","","98.98","","","","","","NA"
"2012-04-03 17:00","2012","04","03","17:00","7.6","","1.1","","63","","24","","9","","","","98.97","","","","","","NA"
"2012-04-03 18:00","2012","04","03","18:00","7.2","","0.6","","63","","29","","11","","","","98.99","","","","","","NA"
"2012-04-03 19:00","2012","04","03","19:00","5.3","","0.9","","73","","21","","4","","","","98.98","","","","","","NA"
"2012-04-03 20:00","2012","04","03","20:00","2.7","","0.1","","83","","20","","4","","","","99.02","","","","","","NA"
"2012-04-03 21:00","2012","04","03","21:00","0.8","","-0.8","","89","","18","","2","","","","99.05","","","","","","NA"
"2012-04-03 22:00","2012","04","03","22:00","2.3","","-0.7","","81","","32","","6","","","","99.07","","","","","","NA"
"2012-04-03 23:00","2012","04","03","23:00","4.5","","-1.7","","64","","4","","11","","","","99.13","","","","","","NA"
"2012-04-04 00:00","2012","04","04","00:00","3.4","","-2.1","","67","","3","","7","","","","99.20","","","","","","NA"
"2012-04-04 01:00","2012","04","04","01:00","2.2","","-2.8","","69","","2","","4","","","","99.22","","","","","","NA"
"2012-04-04 02:00","2012","04","04","02:00","-1.2","","-4.3","","79","","20","","2","","","","99.20","","","","-2","","NA"
"2012-04-04 03:00","2012","04","04","03:00","-2.4","","-4.3","","87","","21","","4","","","","99.23","","","","-4","","NA"
"2012-04-04 04:00","2012","04","04","04:00","-2.7","","-4.4","","88","","","","0","","","","99.23","","","","","","NA"
"2012-04-04 05:00","2012","04","04","05:00","-2.4","","-3.7","","91","","29","","6","","","","99.27","","","","-5","","NA"
"2012-04-04 06:00","2012","04","04","06:00","-1.5","","-3.3","","88","","5","","7","","","","99.30","","","","-4","","NA"
"2012-04-04 07:00","2012","04","04","07:00","-1.3","","-3.4","","86","","1","","6","","","","99.40","","","","-4","","NA"
"2012-04-04 08:00","2012","04","04","08:00","1.7","","-3.4","","69","","3","","13","","","","99.42","","","","","","NA"
"2012-04-04 09:00","2012","04","04","09:00","2.9","","-3.2","","64","","1","","17","","","","99.46","","","","","","NA"
"2012-04-04 10:00","2012","04","04","10:00","3.9","","-3.7","","58","","2","","13","","","","99.49","","","","","","NA"
"2012-04-04 11:00","2012","04","04","11:00","4.5","","-3.7","","55","","2","","13","","","","99.55","","","","","","NA"
"2012-04-04 12:00","2012","04","04","12:00","4.3","","-3.6","","56","","2","","11","","","","99.59","","","","","","NA"
"2012-04-04 13:00","2012","04","04","13:00","4.6","","-3.2","","57","","2","","11","","","","99.58","","","","","","NA"
"2012-04-04 14:00","2012","04","04","14:00","4.4","","-4.2","","54","","2","","13","","","","99.57","","","","","","NA"
"2012-04-04 15:00","2012","04","04","15:00","5.9","","-4.1","","49","","3","","15","","","","99.54","","","","","","NA"
"2012-04-04 16:00","2012","04","04","16:00","6.6","","-5.3","","42","","2","","11","","","","99.53","","","","","","NA"
"2012-04-04 17:00","2012","04","04","17:00","5.2","","-5.7","","45","","3","","15","","","","99.55","","","","","","NA"
"2012-04-04 18:00","2012","04","04","18:00","4.2","","-5.8","","48","","2","","11","","","","99.60","","","","","","NA"
"2012-04-04 19:00","2012","04","04","19:00","2.0","","-6.7","","52","","5","","13","","","","99.69","","","","","","NA"
"2012-04-04 20:00","2012","04","04","20:00","0.1","","-6.3","","62","","4","","4","","","","99.75","","","","","","NA"
"2012-04-04 21:00","2012","04","04","21:00","-2.3","","-6.9","","71","","","","0","","","","99.80","","","","","","NA"
"2012-04-04 22:00","2012","04","04","22:00","-3.0","","-6.8","","75","","4","","2","","","","99.85","","","","-4","","NA"
"2012-04-04 23:00","2012","04","04","23:00","-3.4","","-6.5","","79","","5","","6","","","","99.85","","","","-6","","NA"
"2012-04-05 00:00","2012","04","05","00:00","-4.0","","-6.4","","83","","6","","4","","","","99.88","","","","-6","","NA"
"2012-04-05 01:00","2012","04","05","01:00","-3.5","","-7.2","","75","","4","","6","","","","99.89","","","","-6","","NA"
"2012-04-05 02:00","2012","04","05","02:00","-5.2","","-7.4","","84","","2","","4","","","","99.90","","","","-7","","NA"
"2012-04-05 03:00","2012","04","05","03:00","-4.5","","-7.7","","78","","3","","6","","","","99.90","","","","-7","","NA"
"2012-04-05 04:00","2012","04","05","04:00","-5.4","","-8.4","","79","","5","","6","","","","99.91","","","","-8","","NA"
"2012-04-05 05:00","2012","04","05","05:00","-5.9","","-8.6","","81","","5","","6","","","","99.96","","","","-9","","NA"
"2012-04-05 06:00","2012","04","05","06:00","-6.7","","-8.8","","85","","4","","6","","","","100.06","","","","-10","","NA"
"2012-04-05 07:00","2012","04","05","07:00","-6.2","","-8.5","","84","","5","","6","","","","100.13","","","","-9","","NA"
"2012-04-05 08:00","2012","04","05","08:00"
"2012-04-05 09:00","2012","04","05","09:00"
"2012-04-05 10:00","2012","04","05","10:00"
"2012-04-05 11:00","2012","04","05","11:00"
"2012-04-05 12:00","2012","04","05","12:00","4.0","","-9.7","","36","","2","","9","","","","100.12","","","","","","NA"
"2012-04-05 13:00","2012","04","05","13:00","6.8","","-8.7","","32","","5","","7","","","","100.06","","","","","","NA"
"2012-04-05 14:00","2012","04","05","14:00","6.9","","-5.9","","40","","30","","7","","","","100.03","","","","","","NA"
"2012-04-05 15:00","2012","04","05","15:00","6.9","","-5.0","","42","","30","","9","","","","99.99","","","","","","NA"
"2012-04-05 16:00","2012","04","05","16:00","4.9","","-4.3","","51","","28","","11","","","","100.02","","","","","","NA"
"2012-04-05 17:00","2012","04","05","17:00","5.2","","-3.5","","53","","29","","6","","","","100.03","","","","","","NA"
"2012-04-05 18:00","2012","04","05","18:00","5.1","","-3.8","","53","","27","","6","","","","100.06","","","","","","NA"
"2012-04-05 19:00","2012","04","05","19:00","3.1","","-3.6","","61","","24","","2","","","","100.08","","","","","","NA"
"2012-04-05 20:00","2012","04","05","20:00","-0.3","","-4.7","","72","","6","","2","","","","100.14","","","","-1","","NA"
"2012-04-05 21:00","2012","04","05","21:00","-2.0","","-5.4","","78","","4","","4","","","","100.16","","","","-3","","NA"
"2012-04-05 22:00","2012","04","05","22:00","-2.0","","-5.3","","78","","7","","7","","","","100.20","","","","-5","","NA"
"2012-04-05 23:00","2012","04","05","23:00","-2.3","","-5.9","","76","","7","","6","","","","100.20","","","","-5","","NA"
"2012-04-06 00:00","2012","04","06","00:00","-2.9","","-6.2","","78","","4","","4","","","","100.25","","","","-4","","NA"
"2012-04-06 01:00","2012","04","06","01:00","-2.8","","-6.0","","79","","6","","7","","","","100.31","","","","-6","","NA"
"2012-04-06 02:00","2012","04","06","02:00","-3.0","","-6.4","","77","","5","","9","","","","100.33","","","","-7","","NA"
"2012-04-06 03:00","2012","04","06","03:00","-3.6","","-6.8","","78","","6","","6","","","","100.36","","","","-6","","NA"
"2012-04-06 04:00","2012","04","06","04:00","-4.7","","-7.0","","84","","5","","4","","","","100.35","","","","-6","","NA"
"2012-04-06 05:00","2012","04","06","05:00","-4.2","","-7.0","","81","","4","","7","","","","100.37","","","","-7","","NA"
"2012-04-06 06:00","2012","04","06","06:00","-5.1","","-7.0","","86","","5","","9","","","","100.40","","","","-9","","NA"
"2012-04-06 07:00","2012","04","06","07:00","-5.2","","-7.0","","87","","6","","7","","","","100.45","","","","-8","","NA"
"2012-04-06 08:00","2012","04","06","08:00","-2.9","","-5.6","","82","","5","","7","","","","100.51","","","","-6","","NA"
"2012-04-06 09:00","2012","04","06","09:00","1.4","","-5.3","","61","","4","","7","","","","100.53","","","","","","NA"
"2012-04-06 10:00","2012","04","06","10:00","4.8","","-5.1","","49","","25","","6","","","","100.48","","","","","","NA"
"2012-04-06 11:00","2012","04","06","11:00","4.8","","-6.2","","45","","24","","11","","","","100.47","","","","","","NA"
"2012-04-06 12:00","2012","04","06","12:00","5.1","","-3.4","","54","","25","","9","","","","100.42","","","","","","NA"
"2012-04-06 13:00","2012","04","06","13:00","6.1","","-3.2","","51","","25","","7","","","","100.39","","","","","","NA"
"2012-04-06 14:00","2012","04","06","14:00","5.4","","-2.4","","57","","23","","11","","","","100.36","","","","","","NA"
"2012-04-06 15:00","2012","04","06","15:00","5.2","","-3.8","","52","","24","","9","","","","100.29","","","","","","NA"
"2012-04-06 16:00","2012","04","06","16:00","5.0","","-2.5","","58","","24","","9","","","","100.26","","","","","","NA"
"2012-04-06 17:00","2012","04","06","17:00","4.3","","-1.5","","66","","24","","7","","","","100.18","","","","","","NA"
"2012-04-06 18:00","2012","04","06","18:00","3.7","","-0.9","","72","","26","","7","","","","100.16","","","","","","NA"
"2012-04-06 19:00","2012","04","06","19:00","2.3","","-1.5","","76","","23","","4","","","","100.11","","","","","","NA"
"2012-04-06 20:00","2012","04","06","20:00","-0.4","","-2.6","","85","","18","","2","","","","100.11","","","","-1","","NA"
"2012-04-06 21:00","2012","04","06","21:00","-2.1","","-3.7","","89","","","","0","","","","100.09","","","","","","NA"
"2012-04-06 22:00","2012","04","06","22:00","-2.8","","-4.0","","91","","3","","2","","","","100.10","","","","-4","","NA"
"2012-04-06 23:00","2012","04","06","23:00","-3.1","","-4.2","","92","","6","","6","","","","100.09","","","","-6","","NA"
"2012-04-07 00:00","2012","04","07","00:00","-3.2","","-4.3","","92","","7","","6","","","","100.05","","","","-6","","NA"
"2012-04-07 01:00","2012","04","07","01:00","-3.6","","-4.6","","93","","6","","7","","","","100.08","","","","-7","","NA"
"2012-04-07 02:00","2012","04","07","02:00","-3.8","","-4.8","","93","","6","","7","","","","100.09","","","","-7","","NA"
"2012-04-07 03:00","2012","04","07","03:00","-4.2","","-5.1","","93","","6","","6","","","","100.13","","","","-7","","NA"
"2012-04-07 04:00","2012","04","07","04:00","-4.6","","-5.5","","93","","5","","7","","","","100.14","","","","-8","","NA"
"2012-04-07 05:00","2012","04","07","05:00","-5.1","","-6.0","","93","","6","","9","","","","100.12","","","","-9","","NA"
"2012-04-07 06:00","2012","04","07","06:00","-5.3","","-6.2","","93","","6","","9","","","","100.13","","","","-9","","NA"
"2012-04-07 07:00","2012","04","07","07:00","-4.8","","-5.8","","93","","6","","9","","","","100.13","","","","-9","","NA"
"2012-04-07 08:00","2012","04","07","08:00","-2.3","","-4.2","","87","","5","","7","","","","100.09","","","","-5","","NA"
"2012-04-07 09:00","2012","04","07","09:00","2.8","","-2.7","","67","","3","","4","","","","100.08","","","","","","NA"
"2012-04-07 10:00","2012","04","07","10:00","7.5","","-4.8","","41","","20","","9","","","","100.04","","","","","","NA"
"2012-04-07 11:00","2012","04","07","11:00","9.1","","-3.6","","41","","19","","9","","","","99.99","","","","","","NA"
"2012-04-07 12:00","2012","04","07","12:00","9.3","","-3.6","","40","","20","","11","","","","99.97","","","","","","NA"
"2012-04-07 13:00","2012","04","07","13:00","10.0","","-2.7","","41","","20","","11","","","","99.91","","","","","","NA"
"2012-04-07 14:00","2012","04","07","14:00","9.3","","-2.7","","43","","19","","13","","","","99.84","","","","","","NA"
"2012-04-07 15:00","2012","04","07","15:00","9.3","","-3.3","","41","","19","","11","","","","99.79","","","","","","NA"
"2012-04-07 16:00","2012","04","07","16:00","9.6","","-4.0","","38","","20","","13","","","","99.72","","","","","","NA"
"2012-04-07 17:00","2012","04","07","17:00","9.3","","-4.7","","37","","20","","9","","","","99.61","","","","","","NA"
"2012-04-07 18:00","2012","04","07","18:00","9.0","","-3.5","","41","","20","","7","","","","99.45","","","","","","NA"
"2012-04-07 19:00","2012","04","07","19:00","6.6","","-2.2","","53","","30","","2","","","","99.35","","","","","","NA"
"2012-04-07 20:00","2012","04","07","20:00","3.4","","-3.5","","61","","12","","2","","","","99.28","","","","","","NA"
"2012-04-07 21:00","2012","04","07","21:00","3.5","","-4.1","","57","","16","","4","","","","99.24","","","","","","NA"
"2012-04-07 22:00","2012","04","07","22:00","4.8","","-6.5","","44","","16","","6","","","","99.20","","","","","","NA"
"2012-04-07 23:00","2012","04","07","23:00","8.4","","-6.2","","35","","19","","13","","","","99.14","","","","","","NA"
"2012-04-08 00:00","2012","04","08","00:00","7.1","","-2.4","","51","","19","","15","","","","99.14","","","","","","NA"
"2012-04-08 01:00","2012","04","08","01:00","6.2","","-0.5","","62","","18","","15","","","","99.11","","","","","","NA"
"2012-04-08 02:00","2012","04","08","02:00","6.2","","0.3","","66","","18","","13","","","","99.04","","","","","","NA"
"2012-04-08 03:00","2012","04","08","03:00","4.1","","2.6","","90","","18","","13","","","","99.00","","","","","","NA"
"2012-04-08 04:00","2012","04","08","04:00","3.7","","3.1","","96","","19","","11","","","","98.99","","","","","","NA"
"2012-04-08 05:00","2012","04","08","05:00","3.6","","3.1","","97","","24","","7","","","","98.99","","","","","","NA"
"2012-04-08 06:00","2012","04","08","06:00","3.4","","2.8","","96","","28","","7","","","","99.02","","","","","","NA"
"2012-04-08 07:00","2012","04","08","07:00","3.4","","2.8","","96","","1","","2","","","","99.01","","","","","","NA"
"2012-04-08 08:00","2012","04","08","08:00","3.7","","3.1","","96","","23","","4","","","","99.03","","","","","","NA"
"2012-04-08 09:00","2012","04","08","09:00","3.6","","3.0","","96","","21","","6","","","","99.03","","","","","","NA"
"2012-04-08 10:00","2012","04","08","10:00","3.7","","2.9","","94","","20","","9","","","","99.03","","","","","","NA"
"2012-04-08 11:00","2012","04","08","11:00","3.9","","2.7","","92","","21","","6","","","","99.03","","","","","","NA"
"2012-04-08 12:00","2012","04","08","12:00","4.0","","2.0","","87","","27","","6","","","","99.04","","","","","","NA"
"2012-04-08 13:00","2012","04","08","13:00","5.0","","2.7","","85","","27","","11","","","","99.04","","","","","","NA"
"2012-04-08 14:00","2012","04","08","14:00","4.6","","2.0","","83","","26","","11","","","","99.06","","","","","","NA"
"2012-04-08 15:00","2012","04","08","15:00","4.7","","1.5","","80","","27","","11","","","","99.07","","","","","","NA"
"2012-04-08 16:00","2012","04","08","16:00","4.2","","1.0","","80","","28","","15","","","","99.09","","","","","","NA"
"2012-04-08 17:00","2012","04","08","17:00","4.1","","0.7","","78","","28","","11","","","","99.13","","","","","","NA"
"2012-04-08 18:00","2012","04","08","18:00","3.7","","0.5","","80","","30","","6","","","","99.13","","","","","","NA"
"2012-04-08 19:00","2012","04","08","19:00","3.5","","0.0","","78","","33","","4","","","","99.14","","","","","","NA"
"2012-04-08 20:00","2012","04","08","20:00","1.6","","-0.7","","85","","1","","4","","","","99.18","","","","","","NA"
"2012-04-08 21:00","2012","04","08","21:00","-0.5","","-1.8","","91","","34","","2","","","","99.18","","","","-1","","NA"
"2012-04-08 22:00","2012","04","08","22:00","-1.9","","-2.9","","93","","","","0","","","","99.14","","","","","","NA"
"2012-04-08 23:00","2012","04","08","23:00","-2.6","","-3.4","","94","","","","0","","","","99.11","","","","","","NA"
"2012-04-09 00:00","2012","04","09","00:00","-2.8","","-3.4","","96","","4","","4","","","","99.08","","","","-4","","NA"
"2012-04-09 01:00","2012","04","09","01:00","-3.0","","-3.5","","96","","7","","6","","","","99.04","","","","-5","","NA"
"2012-04-09 02:00","2012","04","09","02:00","-3.2","","-3.8","","96","","8","","4","","","","99.02","","","","-5","","NA"
"2012-04-09 03:00","2012","04","09","03:00","-4.0","","-4.5","","96","","5","","4","","","","98.99","","","","-6","","NA"
"2012-04-09 04:00","2012","04","09","04:00","-4.5","","-5.0","","96","","5","","4","","","","98.96","","","","-6","","NA"
"2012-04-09 05:00","2012","04","09","05:00","-4.7","","-5.2","","96","","6","","6","","","","98.93","","","","-7","","NA"
"2012-04-09 06:00","2012","04","09","06:00","-4.9","","-5.5","","96","","6","","7","","","","98.91","","","","-8","","NA"
"2012-04-09 07:00","2012","04","09","07:00","-4.6","","-5.2","","96","","6","","9","","","","98.90","","","","-8","","NA"
"2012-04-09 08:00","2012","04","09","08:00","-2.4","","-3.2","","94","","5","","7","","","","98.88","","","","-5","","NA"
"2012-04-09 09:00","2012","04","09","09:00","2.6","","-1.0","","77","","4","","9","","","","98.82","","","","","","NA"
"2012-04-09 10:00","2012","04","09","10:00","5.5","","-4.8","","47","","3","","7","","","","98.81","","","","","","NA"
"2012-04-09 11:00","2012","04","09","11:00","7.8","","-5.3","","39","","2","","9","","","","98.78","","","","","","NA"
"2012-04-09 12:00","2012","04","09","12:00","8.7","","-4.0","","40","","33","","6","","","","98.76","","","","","","NA"
"2012-04-09 13:00","2012","04","09","13:00","8.8","","-2.6","","45","","27","","9","","","","98.74","","","","","","NA"
"2012-04-09 14:00","2012","04","09","14:00","7.3","","-4.2","","44","","28","","17","","","","98.76","","","","","","NA"
"2012-04-09 15:00","2012","04","09","15:00","7.4","","-1.9","","52","","28","","17","","","","98.78","","","","","","NA"
"2012-04-09 16:00","2012","04","09","16:00","7.4","","-1.8","","52","","29","","13","","","","98.77","","","","","","NA"
"2012-04-09 17:00","2012","04","09","17:00","7.7","","-1.4","","52","","29","","9","","","","98.75","","","","","","NA"
"2012-04-09 18:00","2012","04","09","18:00","8.3","","-6.0","","36","","34","","9","","","","98.76","","","","","","NA"
"2012-04-09 19:00","2012","04","09","19:00","6.3","","-5.1","","44","","36","","6","","","","98.80","","","","","","NA"
"2012-04-09 20:00","2012","04","09","20:00","4.2","","-5.1","","51","","35","","7","","","","98.86","","","","","","NA"
"2012-04-09 21:00","2012","04","09","21:00","3.7","","-6.1","","49","","36","","11","","","","98.90","","","","","","NA"
"2012-04-09 22:00","2012","04","09","22:00","2.1","","-6.8","","52","","35","","7","","","","98.95","","","","","","NA"
"2012-04-09 23:00","2012","04","09","23:00","0.9","","-7.0","","55","","36","","7","","","","98.95","","","","","","NA"
"2012-04-10 00:00","2012","04","10","00:00","0.3","","-7.0","","58","","36","","7","","","","98.95","","","","","","NA"
"2012-04-10 01:00","2012","04","10","01:00","0.7","","-6.6","","58","","36","","11","","","","98.93","","","","","","NA"
"2012-04-10 02:00","2012","04","10","02:00","0.7","","-6.1","","60","","35","","7","","","","98.91","","","","","","NA"
"2012-04-10 03:00","2012","04","10","03:00","0.4","","-5.5","","65","","34","","6","","","","98.88","","","","","","NA"
"2012-04-10 04:00","2012","04","10","04:00","0.4","","-5.2","","66","","35","","6","","","","98.87","","","","","","NA"
"2012-04-10 05:00","2012","04","10","05:00","0.0","","-4.6","","71","","34","","6","","","","98.86","","","","-2","","NA"
"2012-04-10 06:00","2012","04","10","06:00","-0.1","","-4.0","","75","","34","","7","","","","98.88","","","","-3","","NA"
"2012-04-10 07:00","2012","04","10","07:00","-0.1","","-3.4","","78","","35","","7","","","","98.92","","","","-3","","NA"
"2012-04-10 08:00","2012","04","10","08:00","0.6","","-3.6","","73","","36","","7","","","","98.92","","","","","","NA"
"2012-04-10 09:00","2012","04","10","09:00","1.1","","-3.6","","71","","35","","11","","","","98.95","","","","","","NA"
"2012-04-10 10:00","2012","04","10","10:00","2.4","","-3.8","","64","","36","","7","","","","98.96","","","","","","NA"
"2012-04-10 11:00","2012","04","10","11:00","4.3","","-4.2","","54","","35","","6","","","","98.95","","","","","","NA"
"2012-04-10 12:00","2012","04","10","12:00","5.5","","-6.5","","42","","1","","15","","","","98.93","","","","","","NA"
"2012-04-10 13:00","2012","04","10","13:00","6.2","","-5.9","","42","","1","","11","","","","98.95","","","","","","NA"
"2012-04-10 14:00","2012","04","10","14:00","8.4","","-5.5","","37","","36","","11","","","","98.93","","","","","","NA"
"2012-04-10 15:00","2012","04","10","15:00","8.7","","-7.1","","32","","36","","13","","","","98.94","","","","","","NA"
"2012-04-10 16:00","2012","04","10","16:00","10.3","","-5.6","","32","","36","","13","","","","98.97","","","","","","NA"
"2012-04-10 17:00","2012","04","10","17:00","9.2","","-5.5","","35","","1","","15","","","","99.03","","","","","","NA"
"2012-04-10 18:00","2012","04","10","18:00","8.9","","-4.4","","39","","1","","11","","","","99.10","","","","","","NA"
"2012-04-10 19:00","2012","04","10","19:00","8.2","","-3.8","","42","","36","","9","","","","99.20","","","","","","NA"
"2012-04-10 20:00","2012","04","10","20:00","7.8","","-4.5","","41","","1","","7","","","","99.30","","","","","","NA"
"2012-04-10 21:00","2012","04","10","21:00","6.4","","-4.4","","46","","4","","11","","","","99.44","","","","","","NA"
"2012-04-10 22:00","2012","04","10","22:00","4.4","","-3.7","","56","","4","","11","","","","99.54","","","","","","NA"
"2012-04-10 23:00","2012","04","10","23:00","3.1","","-4.2","","59","","4","","13","","","","99.64","","","","","","NA"
"2012-04-11 00:00","2012","04","11","00:00","1.4","","-4.0","","67","","3","","4","","","","99.70","","","","","","NA"
"2012-04-11 01:00","2012","04","11","01:00","0.7","","-4.0","","71","","2","","6","","","","99.76","","","","","","NA"
"2012-04-11 02:00","2012","04","11","02:00","1.9","","-4.4","","63","","2","","7","","","","99.82","","","","","","NA"
"2012-04-11 03:00","2012","04","11","03:00","0.7","","-4.4","","69","","3","","7","","","","99.87","","","","","","NA"
"2012-04-11 04:00","2012","04","11","04:00","0.9","","-4.7","","66","","5","","11","","","","99.94","","","","","","NA"
"2012-04-11 05:00","2012","04","11","05:00","0.5","","-4.7","","68","","4","","11","","","","100.02","","","","","","NA"
"2012-04-11 06:00","2012","04","11","06:00","-0.7","","-5.2","","72","","5","","11","","","","100.07","","","","-4","","NA"
"2012-04-11 07:00","2012","04","11","07:00","-0.1","","-4.5","","72","","3","","9","","","","100.14","","","","-3","","NA"
"2012-04-11 08:00","2012","04","11","08:00","0.3","","-4.7","","69","","2","","9","","","","100.20","","","","","","NA"
"2012-04-11 09:00","2012","04","11","09:00","0.6","","-5.4","","64","","4","","11","","","","100.27","","","","","","NA"
"2012-04-11 10:00","2012","04","11","10:00","2.3","","-5.9","","55","","2","","9","","","","100.30","","","","","","NA"
"2012-04-11 11:00","2012","04","11","11:00","4.4","","-5.6","","48","","7","","7","","","","100.27","","","","","","NA"
"2012-04-11 12:00","2012","04","11","12:00","4.7","","-4.1","","53","","26","","9","","","","100.24","","","","","","NA"
"2012-04-11 13:00","2012","04","11","13:00","5.0","","-3.1","","56","","25","","13","","","","100.20","","","","","","NA"
"2012-04-11 14:00","2012","04","11","14:00","5.5","","-2.5","","56","","24","","11","","","","100.20","","","","","","NA"
"2012-04-11 15:00","2012","04","11","15:00","6.3","","-1.6","","57","","26","","11","","","","100.14","","","","","","NA"
"2012-04-11 16:00","2012","04","11","16:00","4.5","","-2.2","","62","","27","","11","","","","100.16","","","","","","NA"
"2012-04-11 17:00","2012","04","11","17:00","4.8","","-1.3","","65","","27","","9","","","","100.14","","","","","","NA"
"2012-04-11 18:00","2012","04","11","18:00","4.0","","-1.5","","67","","27","","7","","","","100.14","","","","","","NA"
"2012-04-11 19:00","2012","04","11","19:00","2.7","","-1.4","","74","","27","","6","","","","100.12","","","","","","NA"
"2012-04-11 20:00","2012","04","11","20:00","1.0","","-1.5","","83","","25","","4","","","","100.10","","","","","","NA"
"2012-04-11 21:00","2012","04","11","21:00","-0.6","","-2.5","","87","","23","","2","","","","100.09","","","","-1","","NA"
"2012-04-11 22:00","2012","04","11","22:00","-1.5","","-2.7","","92","","18","","6","","","","100.08","","","","-4","","NA"
"2012-04-11 23:00","2012","04","11","23:00","-2.1","","-3.5","","90","","3","","2","","","","100.07","","","","-3","","NA"
"2012-04-12 00:00","2012","04","12","00:00","-2.2","","-3.4","","91","","5","","4","","","","100.07","","","","-4","","NA"
"2012-04-12 01:00","2012","04","12","01:00","-2.0","","-3.3","","91","","4","","4","","","","100.05","","","","-3","","NA"
"2012-04-12 02:00","2012","04","12","02:00","-2.1","","-3.3","","91","","7","","6","","","","100.04","","","","-4","","NA"
"2012-04-12 03:00","2012","04","12","03:00","-2.2","","-3.3","","92","","7","","6","","","","100.03","","","","-5","","NA"
"2012-04-12 04:00","2012","04","12","04:00","-1.9","","-3.2","","91","","6","","6","","","","100.04","","","","-4","","NA"
"2012-04-12 05:00","2012","04","12","05:00","-1.5","","-2.9","","90","","6","","6","","","","100.08","","","","-4","","NA"
"2012-04-12 06:00","2012","04","12","06:00","-1.4","","-2.7","","91","","6","","4","","","","100.09","","","","-3","","NA"
"2012-04-12 07:00","2012","04","12","07:00","-0.6","","-2.1","","90","","6","","2","","","","100.11","","","","-1","","NA"
"2012-04-12 08:00","2012","04","12","08:00","0.5","","-1.4","","87","","2","","2","","","","100.12","","","","","","NA"
"2012-04-12 09:00","2012","04","12","09:00","2.8","","-0.3","","80","","25","","4","","","","100.15","","","","","","NA"
"2012-04-12 10:00","2012","04","12","10:00","2.8","","-0.8","","77","","26","","6","","","","100.17","","","","","","NA"
"2012-04-12 11:00","2012","04","12","11:00","4.5","","-0.4","","70","","27","","9","","","","100.13","","","","","","NA"
"2012-04-12 12:00","2012","04","12","12:00","4.7","","-0.4","","69","","25","","9","","","","100.11","","","","","","NA"
"2012-04-12 13:00","2012","04","12","13:00","4.9","","0.0","","71","","25","","9","","","","100.08","","","","","","NA"
"2012-04-12 14:00","2012","04","12","14:00","4.8","","0.0","","71","","25","","11","","","","100.05","","","","","","NA"
"2012-04-12 15:00","2012","04","12","15:00","5.9","","0.2","","67","","24","","7","","","","100.02","","","","","","NA"
"2012-04-12 16:00","2012","04","12","16:00","5.1","","0.4","","72","","24","","9","","","","100.00","","","","","","NA"
"2012-04-12 17:00","2012","04","12","17:00","4.7","","0.9","","76","","24","","6","","","","99.99","","","","","","NA"
"2012-04-12 18:00","2012","04","12","18:00","3.8","","0.9","","81","","23","","6","","","","99.99","","","","","","NA"
"2012-04-12 19:00","2012","04","12","19:00","2.8","","0.7","","86","","23","","6","","","","99.95","","","","","","NA"
"2012-04-12 20:00","2012","04","12","20:00","0.8","","-0.5","","91","","18","","4","","","","99.96","","","","","","NA"
"2012-04-12 21:00","2012","04","12","21:00","-0.7","","-1.5","","94","","19","","6","","","","99.97","","","","-3","","NA"
"2012-04-12 22:00","2012","04","12","22:00","-1.5","","-2.1","","96","","19","","2","","","","99.99","","","","-2","","NA"
"2012-04-12 23:00","2012","04","12","23:00","-2.2","","-2.7","","96","","","","0","","","","100.03","","","","","","NA"
"2012-04-13 00:00","2012","04","13","00:00","-2.8","","-3.4","","96","","4","","2","","","","100.03","","","","-4","","NA"
"2012-04-13 01:00","2012","04","13","01:00","-3.1","","-3.6","","96","","5","","4","","","","99.99","","","","-5","","NA"
"2012-04-13 02:00","2012","04","13","02:00","-3.3","","-3.8","","96","","6","","6","","","","99.94","","","","-6","","NA"
"2012-04-13 03:00","2012","04","13","03:00","-3.7","","-4.3","","96","","6","","6","","","","99.92","","","","-6","","NA"
"2012-04-13 04:00","2012","04","13","04:00","-4.2","","-4.8","","96","","7","","4","","","","99.94","","","","-6","","NA"
"2012-04-13 05:00","2012","04","13","05:00","-4.8","","-5.4","","96","","5","","6","","","","99.95","","","","-8","","NA"
"2012-04-13 06:00","2012","04","13","06:00","-4.8","","-5.4","","96","","7","","6","","","","99.93","","","","-8","","NA"
"2012-04-13 07:00","2012","04","13","07:00","-4.1","","-4.8","","95","","6","","6","","","","99.96","","","","-7","","NA"
"2012-04-13 08:00","2012","04","13","08:00","-2.2","","-2.9","","95","","6","","2","","","","99.95","","","","-3","","NA"
"2012-04-13 09:00","2012","04","13","09:00","3.8","","-0.3","","75","","24","","6","","","","99.97","","","","","","NA"
"2012-04-13 10:00","2012","04","13","10:00","6.7","","-1.6","","55","","20","","11","","","","99.91","","","","","","NA"
"2012-04-13 11:00","2012","04","13","11:00","7.7","","-1.6","","52","","20","","11","","","","99.93","","","","","","NA"
"2012-04-13 12:00","2012","04","13","12:00","8.5","","-1.8","","48","","19","","9","","","","99.92","","","","","","NA"
"2012-04-13 13:00","2012","04","13","13:00","8.9","","-1.9","","47","","18","","11","","","","99.86","","","","","","NA"
"2012-04-13 14:00","2012","04","13","14:00","8.6","","-2.6","","45","","19","","13","","","","99.81","","","","","","NA"
"2012-04-13 15:00","2012","04","13","15:00","9.4","","-3.1","","41","","21","","11","","","","99.73","","","","","","NA"
"2012-04-13 16:00","2012","04","13","16:00","8.4","","-3.3","","43","","20","","11","","","","99.65","","","","","","NA"
"2012-04-13 17:00","2012","04","13","17:00","9.1","","-2.8","","43","","20","","9","","","","99.62","","","","","","NA"
"2012-04-13 18:00","2012","04","13","18:00","8.9","","-3.4","","42","","18","","6","","","","99.52","","","","","","NA"
"2012-04-13 19:00","2012","04","13","19:00","6.9","","-2.3","","52","","26","","2","","","","99.41","","","","","","NA"
"2012-04-13 20:00","2012","04","13","20:00","3.1","","-3.3","","63","","4","","4","","","","99.31","","","","","","NA"
"2012-04-13 21:00","2012","04","13","21:00","3.4","","-4.2","","57","","6","","7","","","","99.28","","","","","","NA"
"2012-04-13 22:00","2012","04","13","22:00","2.0","","-4.0","","64","","4","","4","","","","99.24","","","","","","NA"
"2012-04-13 23:00","2012","04","13","23:00","1.5","","-3.8","","68","","4","","6","","","","99.20","","","","","","NA"
"2012-04-14 00:00","2012","04","14","00:00","2.0","","-3.2","","68","","4","","4","","","","99.11","","","","","","NA"
"2012-04-14 01:00","2012","04","14","01:00","7.4","","-2.5","","49","","19","","13","","","","99.07","","","","","","NA"
"2012-04-14 02:00","2012","04","14","02:00","6.6","","0.2","","64","","18","","15","","","","99.00","","","","","","NA"
"2012-04-14 03:00","2012","04","14","03:00","7.4","","4.5","","82","","15","","7","","","","98.85","","","","","","NA"
"2012-04-14 04:00","2012","04","14","04:00","8.2","","4.1","","75","","14","","6","","","","98.73","","","","","","NA"
"2012-04-14 05:00","2012","04","14","05:00","8.6","","3.1","","68","","14","","7","","","","98.64","","","","","","NA"
"2012-04-14 06:00","2012","04","14","06:00","9.0","","2.4","","63","","17","","9","","","","98.57","","","","","","NA"
"2012-04-14 07:00","2012","04","14","07:00","8.9","","2.5","","64","","15","","7","","","","98.54","","","","","","NA"
"2012-04-14 08:00","2012","04","14","08:00","7.4","","2.3","","70","","19","","15","","","","98.55","","","","","","NA"
"2012-04-14 09:00","2012","04","14","09:00","7.6","","3.8","","77","","18","","11","","","","98.45","","","","","","NA"
"2012-04-14 10:00","2012","04","14","10:00","8.3","","5.2","","81","","18","","11","","","","98.36","","","","","","NA"
"2012-04-14 11:00","2012","04","14","11:00","8.4","","4.8","","78","","18","","11","","","","98.33","","","","","","NA"
"2012-04-14 12:00","2012","04","14","12:00","8.4","","4.4","","76","","18","","11","","","","98.31","","","","","","NA"
"2012-04-14 13:00","2012","04","14","13:00","6.6","","5.7","","94","","18","","11","","","","98.27","","","","","","NA"
"2012-04-14 14:00","2012","04","14","14:00","9.0","","8.0","","93","","19","","11","","","","98.16","","","","","","NA"
"2012-04-14 15:00","2012","04","14","15:00","9.6","","6.6","","82","","19","","17","","","","98.09","","","","","","NA"
"2012-04-14 16:00","2012","04","14","16:00","9.0","","5.4","","78","","20","","17","","","","98.06","","","","","","NA"
"2012-04-14 17:00","2012","04","14","17:00","6.1","","5.1","","93","","18","","7","","","","98.14","","","","","","NA"
"2012-04-14 18:00","2012","04","14","18:00","6.6","","5.5","","93","","19","","7","","","","98.15","","","","","","NA"
"2012-04-14 19:00","2012","04","14","19:00","6.0","","4.7","","91","","21","","7","","","","98.18","","","","","","NA"
"2012-04-14 20:00","2012","04","14","20:00","5.5","","4.3","","92","","21","","7","","","","98.22","","","","","","NA"
"2012-04-14 21:00","2012","04","14","21:00","5.4","","4.1","","91","","22","","6","","","","98.28","","","","","","NA"
"2012-04-14 22:00","2012","04","14","22:00","5.0","","3.8","","92","","20","","6","","","","98.28","","","","","","NA"
"2012-04-14 23:00","2012","04","14","23:00","5.1","","3.8","","91","","22","","4","","","","98.26","","","","","","NA"
"2012-04-15 00:00","2012","04","15","00:00","5.0","","3.7","","91","","19","","4","","","","98.28","","","","","","NA"
"2012-04-15 01:00","2012","04","15","01:00","4.7","","3.7","","93","","22","","4","","","","98.25","","","","","","NA"
"2012-04-15 02:00","2012","04","15","02:00","2.7","","1.9","","94","","28","","2","","","","98.24","","","","","","NA"
"2012-04-15 03:00","2012","04","15","03:00","4.3","","3.6","","95","","24","","4","","","","98.29","","","","","","NA"
"2012-04-15 04:00","2012","04","15","04:00","4.6","","3.6","","93","","18","","6","","","","98.30","","","","","","NA"
"2012-04-15 05:00","2012","04","15","05:00","4.7","","3.7","","93","","20","","6","","","","98.34","","","","","","NA"
"2012-04-15 06:00","2012","04","15","06:00","5.0","","3.8","","92","","20","","6","","","","98.35","","","","","","NA"
"2012-04-15 07:00","2012","04","15","07:00","5.4","","3.9","","90","","23","","2","","","","98.38","","","","","","NA"
"2012-04-15 08:00","2012","04","15","08:00","5.6","","4.0","","89","","20","","4","","","","98.40","","","","","","NA"
"2012-04-15 09:00","2012","04","15","09:00","6.1","","4.2","","88","","","","0","","","","98.34","","","","","","NA"
"2012-04-15 10:00","2012","04","15","10:00","6.9","","4.5","","85","","22","","4","","","","98.40","","","","","","NA"
"2012-04-15 11:00","2012","04","15","11:00","7.0","","4.5","","84","","35","","2","","","","98.42","","","","","","NA"
"2012-04-15 12:00","2012","04","15","12:00","9.4","","6.1","","80","","3","","7","","","","98.37","","","","","","NA"
"2012-04-15 13:00","2012","04","15","13:00","9.9","","5.9","","76","","8","","2","","","","98.47","","","","","","NA"
"2012-04-15 14:00","2012","04","15","14:00","11.1","","5.8","","70","","4","","6","","","","98.40","","","","","","NA"
"2012-04-15 15:00","2012","04","15","15:00","11.3","","5.4","","67","","6","","7","","","","98.34","","","","","","NA"
"2012-04-15 16:00","2012","04","15","16:00","11.2","","6.0","","70","","5","","7","","","","98.34","","","","","","NA"
"2012-04-15 17:00","2012","04","15","17:00","10.4","","5.9","","74","","5","","13","","","","98.25","","","","","","NA"
"2012-04-15 18:00","2012","04","15","18:00","9.1","","6.4","","83","","6","","15","","","","98.16","","","","","","NA"
"2012-04-15 19:00","2012","04","15","19:00","7.4","","6.4","","93","","4","","11","","","","98.30","","","","","","NA"
"2012-04-15 20:00","2012","04","15","20:00","6.0","","4.9","","93","","5","","15","","","","98.34","","","","","","NA"
"2012-04-15 21:00","2012","04","15","21:00","3.8","","2.7","","93","","5","","19","","","","98.25","","","","","","NA"
"2012-04-15 22:00","2012","04","15","22:00","2.1","","1.1","","93","","6","","22","","","","98.11","","","","","","NA"
"2012-04-15 23:00","2012","04","15","23:00","1.4","","0.6","","94","","5","","26","","","","98.10","","","","","","NA"
"2012-04-16 00:00","2012","04","16","00:00","0.8","","0.1","","95","","6","","28","","","","98.05","","","","","","NA"
"2012-04-16 01:00","2012","04","16","01:00","0.4","","-0.4","","94","","6","","24","","","","97.92","","","","","","NA"
"2012-04-16 02:00","2012","04","16","02:00","0.3","","-0.5","","94","","6","","30","","","","97.75","","","","","","NA"
"2012-04-16 03:00","2012","04","16","03:00","-0.2","","-1.2","","93","","6","","30","","","","97.70","","","","-7","","NA"
"2012-04-16 04:00","2012","04","16","04:00","-1.0","","-2.0","","93","","7","","20","","","","97.54","","","","-7","","NA"
"2012-04-16 05:00","2012","04","16","05:00","-2.6","","-3.4","","94","","6","","24","","","","97.44","","","","-9","","NA"
"2012-04-16 06:00","2012","04","16","06:00","-3.8","","-4.8","","93","","6","","22","","","","97.54","","","","-10","","NA"
"2012-04-16 07:00","2012","04","16","07:00","-4.5","","-5.7","","91","","6","","26","","","","97.49","","","","-12","","NA"
"2012-04-16 08:00","2012","04","16","08:00","-5.2","","-7.0","","87","","6","","28","","","","97.44","","","","-13","","NA"
"2012-04-16 09:00","2012","04","16","09:00","-5.8","","-7.9","","85","","6","","24","","","","97.60","","","","-13","","NA"
"2012-04-16 10:00","2012","04","16","10:00","-6.4","","-8.3","","86","","5","","22","","","","97.72","","","","-14","","NA"
"2012-04-16 11:00","2012","04","16","11:00","-7.1","","-9.1","","86","","5","","22","","","","97.70","","","","-15","","NA"
"2012-04-16 12:00","2012","04","16","12:00","-7.5","","-9.4","","86","","5","","24","","","","97.74","","","","-15","","NA"
"2012-04-16 13:00","2012","04","16","13:00","-8.3","","-10.2","","86","","5","","26","","","","97.84","","","","-17","","NA"
"2012-04-16 14:00","2012","04","16","14:00","-8.4","","-11.2","","80","","5","","32","","","","97.94","","","","-18","","NA"
"2012-04-16 15:00","2012","04","16","15:00","-8.5","","-10.6","","85","","4","","26","","","","98.07","","","","-17","","NA"
"2012-04-16 16:00","2012","04","16","16:00","-8.9","","-10.9","","85","","5","","24","","","","98.30","","","","-17","","NA"
"2012-04-16 17:00","2012","04","16","17:00","-8.4","","-10.0","","88","","4","","15","","","","98.48","","","","-15","","NA"
"2012-04-16 18:00","2012","04","16","18:00","-8.8","","-11.2","","83","","4","","20","","","","98.70","","","","-16","","NA"
"2012-04-16 19:00","2012","04","16","19:00","-8.5","","-10.3","","87","","3","","13","","","","98.92","","","","-14","","NA"
"2012-04-16 20:00","2012","04","16","20:00","-8.4","","-10.5","","85","","2","","9","","","","99.14","","","","-13","","NA"
"2012-04-16 21:00","2012","04","16","21:00","-8.5","","-10.5","","85","","2","","7","","","","99.32","","","","-12","","NA"
"2012-04-16 22:00","2012","04","16","22:00","-8.5","","-10.3","","87","","3","","7","","","","99.48","","","","-12","","NA"
"2012-04-16 23:00","2012","04","16","23:00","-8.3","","-10.5","","84","","2","","11","","","","99.60","","","","-14","","NA"
"2012-04-17 00:00","2012","04","17","00:00","-8.4","","-10.7","","83","","3","","9","","","","99.71","","","","-13","","NA"
"2012-04-17 01:00","2012","04","17","01:00","-8.8","","-11.1","","83","","2","","6","","","","99.84","","","","-12","","NA"
"2012-04-17 02:00","2012","04","17","02:00","-9.9","","-11.5","","88","","1","","4","","","","99.95","","","","-12","","NA"
"2012-04-17 03:00","2012","04","17","03:00","-10.9","","-12.2","","90","","6","","4","","","","100.02","","","","-13","","NA"
"2012-04-17 04:00","2012","04","17","04:00","-12.0","","-13.3","","90","","4","","4","","","","100.09","","","","-15","","NA"
"2012-04-17 05:00","2012","04","17","05:00","-13.1","","-14.4","","90","","4","","2","","","","100.18","","","","-14","","NA"
"2012-04-17 06:00","2012","04","17","06:00","-14.0","","-15.3","","90","","7","","2","","","","100.26","","","","-15","","NA"
"2012-04-17 07:00","2012","04","17","07:00","-12.6","","-14.0","","89","","9","","2","","","","100.37","","","","-14","","NA"
"2012-04-17 08:00","2012","04","17","08:00","-9.1","","-11.6","","82","","6","","4","","","","100.41","","","","-11","","NA"
"2012-04-17 09:00","2012","04","17","09:00","-6.4","","-11.3","","68","","3","","4","","","","100.44","","","","-8","","NA"
"2012-04-17 10:00","2012","04","17","10:00","-4.7","","-10.2","","65","","24","","6","","","","100.48","","","","-7","","NA"
"2012-04-17 11:00","2012","04","17","11:00","-4.6","","-13.2","","51","","25","","11","","","","100.54","","","","-9","","NA"
"2012-04-17 12:00","2012","04","17","12:00","-3.8","","-10.1","","62","","26","","11","","","","100.57","","","","-8","","NA"
"2012-04-17 13:00","2012","04","17","13:00","-3.5","","-9.9","","61","","24","","9","","","","100.53","","","","-7","","NA"
"2012-04-17 14:00","2012","04","17","14:00","-2.2","","-7.7","","66","","25","","9","","","","100.48","","","","-6","","NA"
"2012-04-17 15:00","2012","04","17","15:00","-1.9","","-8.0","","63","","23","","9","","","","100.44","","","","-5","","NA"
"2012-04-17 16:00","2012","04","17","16:00","-1.0","","-7.6","","61","","23","","9","","","","100.44","","","","-4","","NA"
"2012-04-17 17:00","2012","04","17","17:00","-1.5","","-7.7","","63","","23","","9","","","","100.42","","","","-5","","NA"
"2012-04-17 18:00","2012","04","17","18:00","-1.8","","-6.7","","69","","22","","7","","","","100.39","","","","-4","","NA"
"2012-04-17 19:00","2012","04","17","19:00","-1.9","","-5.9","","74","","21","","7","","","","100.34","","","","-5","","NA"
"2012-04-17 20:00","2012","04","17","20:00","-2.3","","-5.3","","80","","19","","7","","","","100.32","","","","-5","","NA"
"2012-04-17 21:00","2012","04","17","21:00","-3.0","","-5.4","","83","","15","","4","","","","100.26","","","","-5","","NA"
"2012-04-17 22:00","2012","04","17","22:00","-3.3","","-5.2","","87","","15","","2","","","","100.28","","","","-4","","NA"
"2012-04-17 23:00","2012","04","17","23:00","-3.5","","-5.0","","89","","12","","2","","","","100.30","","","","-4","","NA"
"2012-04-18 00:00","2012","04","18","00:00","-3.4","","-4.7","","91","","9","","2","","","","100.29","","","","-4","","NA"
"2012-04-18 01:00","2012","04","18","01:00","-3.1","","-4.7","","89","","4","","2","","","","100.23","","","","-4","","NA"
"2012-04-18 02:00","2012","04","18","02:00","-3.0","","-4.7","","88","","4","","4","","","","100.13","","","","-5","","NA"
"2012-04-18 03:00","2012","04","18","03:00","-3.9","","-5.2","","91","","6","","6","","","","100.04","","","","-7","","NA"
"2012-04-18 04:00","2012","04","18","04:00","-4.9","","-6.0","","92","","6","","6","","","","99.94","","","","-8","","NA"
"2012-04-18 05:00","2012","04","18","05:00","-4.9","","-5.8","","93","","6","","9","","","","99.89","","","","-9","","NA"
"2012-04-18 06:00","2012","04","18","06:00","-4.1","","-5.2","","92","","5","","9","","","","99.77","","","","-8","","NA"
"2012-04-18 07:00","2012","04","18","07:00","-3.2","","-4.5","","91","","5","","9","","","","99.68","","","","-7","","NA"
"2012-04-18 08:00","2012","04","18","08:00","-1.8","","-3.5","","88","","4","","9","","","","99.59","","","","-5","","NA"
"2012-04-18 09:00","2012","04","18","09:00","0.2","","-2.3","","83","","6","","4","","","","99.46","","","","","","NA"
"2012-04-18 10:00","2012","04","18","10:00","2.8","","-1.0","","76","","15","","7","","","","99.32","","","","","","NA"
"2012-04-18 11:00","2012","04","18","11:00","0.9","","0.0","","94","","15","","6","","","","99.22","","","","","","NA"
"2012-04-18 12:00","2012","04","18","12:00","0.7","","0.0","","95","","13","","4","","","","99.12","","","","","","NA"
"2012-04-18 13:00","2012","04","18","13:00","0.8","","0.1","","95","","12","","9","","","","98.88","","","","","","NA"
"2012-04-18 14:00","2012","04","18","14:00","0.9","","0.2","","95","","12","","9","","","","98.65","","","","","","NA"
"2012-04-18 15:00","2012","04","18","15:00","1.1","","0.3","","94","","12","","7","","","","98.52","","","","","","NA"
"2012-04-18 16:00","2012","04","18","16:00","1.7","","1.0","","95","","10","","6","","","","98.36","","","","","","NA"
"2012-04-18 17:00","2012","04","18","17:00","1.2","","0.6","","96","","6","","11","","","","98.27","","","","","","NA"
"2012-04-18 18:00","2012","04","18","18:00","0.5","","0.1","","97","","5","","11","","","","98.24","","","","","","NA"
"2012-04-18 19:00","2012","04","18","19:00","0.4","","0.0","","97","","5","","11","","","","98.24","","","","","","NA"
"2012-04-18 20:00","2012","04","18","20:00","0.7","","0.3","","97","","4","","11","","","","98.37","","","","","","NA"
"2012-04-18 21:00","2012","04","18","21:00","0.5","","0.0","","96","","3","","6","","","","98.51","","","","","","NA"
"2012-04-18 22:00","2012","04","18","22:00","1.0","","0.5","","96","","34","","6","","","","98.64","","","","","","NA"
"2012-04-18 23:00","2012","04","18","23:00","1.1","","0.6","","96","","33","","4","","","","98.75","","","","","","NA"
"2012-04-19 00:00","2012","04","19","00:00","0.7","","0.3","","97","","36","","6","","","","98.81","","","","","","NA"
"2012-04-19 01:00","2012","04","19","01:00","0.7","","0.1","","96","","35","","2","","","","98.92","","","","","","NA"
"2012-04-19 02:00","2012","04","19","02:00","0.5","","-0.1","","96","","34","","4","","","","99.03","","","","","","NA"
"2012-04-19 03:00","2012","04","19","03:00","0.2","","-0.2","","97","","2","","4","","","","99.08","","","","","","NA"
"2012-04-19 04:00","2012","04","19","04:00","0.1","","-0.2","","98","","2","","4","","","","99.13","","","","","","NA"
"2012-04-19 05:00","2012","04","19","05:00","0.5","","0.2","","98","","36","","6","","","","99.20","","","","","","NA"
"2012-04-19 06:00","2012","04","19","06:00","0.4","","-0.2","","96","","1","","6","","","","99.26","","","","","","NA"
"2012-04-19 07:00","2012","04","19","07:00","0.7","","-0.2","","94","","4","","7","","","","99.33","","","","","","NA"
"2012-04-19 08:00","2012","04","19","08:00","1.2","","0.1","","92","","4","","6","","","","99.42","","","","","","NA"
"2012-04-19 09:00","2012","04","19","09:00","1.9","","-0.2","","86","","4","","7","","","","99.50","","","","","","NA"
"2012-04-19 10:00","2012","04","19","10:00","1.5","","-0.5","","87","","1","","7","","","","99.55","","","","","","NA"
"2012-04-19 11:00","2012","04","19","11:00","2.7","","-0.6","","79","","4","","9","","","","99.59","","","","","","NA"
"2012-04-19 12:00","2012","04","19","12:00","3.4","","-1.7","","69","","3","","11","","","","99.61","","","","","","NA"
"2012-04-19 13:00","2012","04","19","13:00","3.1","","-1.0","","74","","1","","7","","","","99.63","","","","","","NA"
"2012-04-19 14:00","2012","04","19","14:00","3.6","","-1.6","","69","","4","","9","","","","99.63","","","","","","NA"
"2012-04-19 15:00","2012","04","19","15:00","4.5","","-1.2","","66","","3","","7","","","","99.60","","","","","","NA"
"2012-04-19 16:00","2012","04","19","16:00","5.1","","-1.6","","62","","4","","11","","","","99.57","","","","","","NA"
"2012-04-19 17:00","2012","04","19","17:00","4.6","","-2.0","","62","","3","","9","","","","99.59","","","","","","NA"
"2012-04-19 18:00","2012","04","19","18:00","4.2","","-2.0","","64","","4","","9","","","","99.58","","","","","","NA"
"2012-04-19 19:00","2012","04","19","19:00","2.8","","-2.3","","69","","4","","11","","","","99.57","","","","","","NA"
"2012-04-19 20:00","2012","04","19","20:00","0.8","","-2.0","","82","","4","","7","","","","99.60","","","","","","NA"
"2012-04-19 21:00","2012","04","19","21:00","-0.7","","-2.1","","90","","3","","7","","","","99.58","","","","-3","","NA"
"2012-04-19 22:00","2012","04","19","22:00","-0.8","","-2.5","","88","","4","","9","","","","99.57","","","","-4","","NA"
"2012-04-19 23:00","2012","04","19","23:00","-0.9","","-2.4","","90","","5","","7","","","","99.56","","","","-3","","NA"
"2012-04-20 00:00","2012","04","20","00:00","-1.3","","-2.4","","92","","5","","7","","","","99.57","","","","-4","","NA"
"2012-04-20 01:00","2012","04","20","01:00","-1.7","","-2.7","","93","","5","","9","","","","99.51","","","","-5","","NA"
"2012-04-20 02:00","2012","04","20","02:00","-2.2","","-3.0","","94","","6","","9","","","","99.45","","","","-6","","NA"
"2012-04-20 03:00","2012","04","20","03:00","-2.4","","-3.1","","95","","5","","11","","","","99.43","","","","-6","","NA"
"2012-04-20 04:00","2012","04","20","04:00","-2.5","","-3.2","","95","","5","","11","","","","99.45","","","","-7","","NA"
"2012-04-20 05:00","2012","04","20","05:00","-2.8","","-3.4","","96","","4","","9","","","","99.44","","","","-6","","NA"
"2012-04-20 06:00","2012","04","20","06:00","-3.1","","-3.7","","96","","5","","9","","","","99.46","","","","-7","","NA"
"2012-04-20 07:00","2012","04","20","07:00","-2.7","","-3.4","","95","","5","","7","","","","99.51","","","","-6","","NA"
"2012-04-20 08:00","2012","04","20","08:00","-0.8","","-2.3","","90","","5","","7","","","","99.57","","","","-3","","NA"
"2012-04-20 09:00","2012","04","20","09:00","2.1","","-1.1","","79","","5","","7","","","","99.56","","","","","","NA"
"2012-04-20 10:00","2012","04","20","10:00","4.1","","-3.6","","57","","5","","11","","","","99.53","","","","","","NA"
"2012-04-20 11:00","2012","04","20","11:00","5.4","","-4.2","","50","","4","","11","","","","99.55","","","","","","NA"
"2012-04-20 12:00","2012","04","20","12:00","5.6","","-3.7","","51","","4","","13","","","","99.51","","","","","","NA"
"2012-04-20 13:00","2012","04","20","13:00","6.0","","-1.6","","58","","2","","11","","","","99.52","","","","","","NA"
"2012-04-20 14:00","2012","04","20","14:00","6.8","","-2.3","","52","","4","","13","","","","99.51","","","","","","NA"
"2012-04-20 15:00","2012","04","20","15:00","6.5","","-2.0","","55","","4","","15","","","","99.52","","","","","","NA"
"2012-04-20 16:00","2012","04","20","16:00","6.1","","-3.4","","51","","2","","13","","","","99.52","","","","","","NA"
"2012-04-20 17:00","2012","04","20","17:00","6.3","","-4.0","","48","","5","","13","","","","99.53","","","","","","NA"
"2012-04-20 18:00","2012","04","20","18:00","5.2","","-4.9","","48","","2","","11","","","","99.54","","","","","","NA"
"2012-04-20 19:00","2012","04","20","19:00","4.0","","-5.0","","52","","5","","6","","","","99.56","","","","","","NA"
"2012-04-20 20:00","2012","04","20","20:00","1.5","","-4.7","","63","","4","","4","","","","99.61","","","","","","NA"
"2012-04-20 21:00","2012","04","20","21:00","-1.5","","-5.5","","74","","6","","4","","","","99.67","","","","-3","","NA"
"2012-04-20 22:00","2012","04","20","22:00","-2.2","","-5.4","","79","","8","","6","","","","99.66","","","","-5","","NA"
"2012-04-20 23:00","2012","04","20","23:00","-2.8","","-5.4","","82","","6","","6","","","","99.68","","","","-5","","NA"
"2012-04-21 00:00","2012","04","21","00:00","-3.0","","-5.7","","82","","5","","4","","","","99.70","","","","-5","","NA"
"2012-04-21 01:00","2012","04","21","01:00","-3.7","","-6.3","","82","","5","","6","","","","99.73","","","","-6","","NA"
"2012-04-21 02:00","2012","04","21","02:00","-4.2","","-6.8","","82","","6","","6","","","","99.70","","","","-7","","NA"
"2012-04-21 03:00","2012","04","21","03:00","-4.8","","-7.2","","83","","6","","7","","","","99.69","","","","-8","","NA"
"2012-04-21 04:00","2012","04","21","04:00","-5.3","","-7.3","","86","","5","","6","","","","99.73","","","","-8","","NA"
"2012-04-21 05:00","2012","04","21","05:00","-5.8","","-7.5","","88","","5","","6","","","","99.74","","","","-9","","NA"
"2012-04-21 06:00","2012","04","21","06:00","-5.5","","-7.7","","84","","6","","11","","","","99.76","","","","-10","","NA"
"2012-04-21 07:00","2012","04","21","07:00","-4.7","","-7.2","","83","","5","","7","","","","99.80","","","","-8","","NA"
"2012-04-21 08:00","2012","04","21","08:00","-1.7","","-6.2","","71","","6","","6","","","","99.85","","","","-4","","NA"
"2012-04-21 09:00","2012","04","21","09:00","1.2","","-7.0","","54","","5","","9","","","","99.82","","","","","","NA"
"2012-04-21 10:00","2012","04","21","10:00","2.8","","-8.4","","43","","4","","9","","","","99.82","","","","","","NA"
"2012-04-21 11:00","2012","04","21","11:00","4.5","","-11.8","","29","","11","","11","","","","99.79","","","","","","NA"
"2012-04-21 12:00","2012","04","21","12:00","5.9","","-11.2","","28","","8","","11","","","","99.71","","","","","","NA"
"2012-04-21 13:00","2012","04","21","13:00","7.1","","-11.0","","26","","7","","7","","","","99.67","","","","","","NA"
"2012-04-21 14:00","2012","04","21","14:00","8.3","","-11.1","","24","","6","","7","","","","99.63","","","","","","NA"
"2012-04-21 15:00","2012","04","21","15:00","8.6","","-7.5","","31","","33","","6","","","","99.58","","","","","","NA"
"2012-04-21 16:00","2012","04","21","16:00","8.6","","-8.5","","29","","31","","4","","","","99.55","","","","","","NA"
"2012-04-21 17:00","2012","04","21","17:00","6.0","","-3.1","","52","","23","","9","","","","99.62","","","","","","NA"
"2012-04-21 18:00","2012","04","21","18:00","3.7","","-2.0","","66","","22","","11","","","","99.69","","","","","","NA"
"2012-04-21 19:00","2012","04","21","19:00","2.5","","-2.1","","72","","24","","7","","","","99.71","","","","","","NA"
"2012-04-21 20:00","2012","04","21","20:00","-0.1","","-3.5","","78","","","","0","","","","99.73","","","","","","NA"
"2012-04-21 21:00","2012","04","21","21:00","-2.1","","-4.3","","85","","4","","2","","","","99.80","","","","-3","","NA"
"2012-04-21 22:00","2012","04","21","22:00","-2.2","","-4.1","","87","","5","","6","","","","99.81","","","","-5","","NA"
"2012-04-21 23:00","2012","04","21","23:00","-2.6","","-4.5","","87","","5","","9","","","","99.81","","","","-6","","NA"
"2012-04-22 00:00","2012","04","22","00:00","-2.7","","-4.4","","88","","5","","13","","","","99.84","","","","-7","","NA"
"2012-04-22 01:00","2012","04","22","01:00","-2.9","","-4.5","","89","","4","","13","","","","99.84","","","","-8","","NA"
"2012-04-22 02:00","2012","04","22","02:00","-3.0","","-5.0","","86","","4","","13","","","","99.84","","","","-8","","NA"
"2012-04-22 03:00","2012","04","22","03:00","-3.1","","-5.9","","81","","5","","11","","","","99.87","","","","-7","","NA"
"2012-04-22 04:00","2012","04","22","04:00","-3.3","","-6.8","","77","","5","","11","","","","99.92","","","","-8","","NA"
"2012-04-22 05:00","2012","04","22","05:00","-3.6","","-7.3","","75","","4","","11","","","","99.93","","","","-8","","NA"
"2012-04-22 06:00","2012","04","22","06:00","-3.9","","-7.5","","76","","5","","7","","","","99.98","","","","-7","","NA"
"2012-04-22 07:00","2012","04","22","07:00","-2.8","","-6.7","","74","","4","","9","","","","100.06","","","","-6","","NA"
"2012-04-22 08:00","2012","04","22","08:00","0.8","","-5.7","","62","","4","","9","","","","100.07","","","","","","NA"
"2012-04-22 09:00","2012","04","22","09:00","5.5","","-4.9","","47","","3","","7","","","","100.08","","","","","","NA"
"2012-04-22 10:00","2012","04","22","10:00","8.5","","-11.1","","24","","3","","6","","","","100.09","","","","","","NA"
"2012-04-22 11:00","2012","04","22","11:00","9.6","","-7.4","","29","","30","","7","","","","100.07","","","","","","NA"
"2012-04-22 12:00","2012","04","22","12:00","9.8","","-7.0","","30","","26","","9","","","","100.05","","","","","","NA"
"2012-04-22 13:00","2012","04","22","13:00","9.7","","-9.1","","26","","27","","15","","","","100.02","","","","","","NA"
"2012-04-22 14:00","2012","04","22","14:00","9.6","","-8.7","","27","","28","","13","","","","99.99","","","","","","NA"
"2012-04-22 15:00","2012","04","22","15:00","10.3","","-6.8","","29","","30","","13","","","","99.95","","","","","","NA"
"2012-04-22 16:00","2012","04","22","16:00","9.0","","-7.1","","31","","29","","11","","","","99.93","","","","","","NA"
"2012-04-22 17:00","2012","04","22","17:00","8.3","","-6.5","","34","","29","","11","","","","99.90","","","","","","NA"
"2012-04-22 18:00","2012","04","22","18:00","7.1","","-5.4","","41","","29","","7","","","","99.88","","","","","","NA"
"2012-04-22 19:00","2012","04","22","19:00","5.8","","-6.1","","42","","31","","6","","","","99.87","","","","","","NA"
"2012-04-22 20:00","2012","04","22","20:00","3.0","","-7.1","","47","","15","","4","","","","99.89","","","","","","NA"
"2012-04-22 21:00","2012","04","22","21:00","0.5","","-7.6","","55","","12","","4","","","","99.91","","","","","","NA"
"2012-04-22 22:00","2012","04","22","22:00","-1.4","","-7.4","","64","","5","","4","","","","99.91","","","","-3","","NA"
"2012-04-22 23:00","2012","04","22","23:00","-1.4","","-6.3","","69","","5","","4","","","","99.90","","","","-3","","NA"
"2012-04-23 00:00","2012","04","23","00:00","-1.7","","-6.1","","72","","6","","9","","","","99.84","","","","-5","","NA"
"2012-04-23 01:00","2012","04","23","01:00","-2.5","","-5.9","","77","","6","","11","","","","99.82","","","","-7","","NA"
"2012-04-23 02:00","2012","04","23","02:00","-2.7","","-5.8","","79","","6","","13","","","","99.77","","","","-7","","NA"
"2012-04-23 03:00","2012","04","23","03:00","-3.1","","-5.8","","82","","6","","13","","","","99.75","","","","-8","","NA"
"2012-04-23 04:00","2012","04","23","04:00","-3.5","","-5.9","","83","","6","","13","","","","99.72","","","","-8","","NA"
"2012-04-23 05:00","2012","04","23","05:00","-3.8","","-6.1","","84","","5","","13","","","","99.71","","","","-9","","NA"
"2012-04-23 06:00","2012","04","23","06:00","-4.2","","-6.4","","85","","5","","11","","","","99.71","","","","-9","","NA"
"2012-04-23 07:00","2012","04","23","07:00","-3.3","","-5.9","","82","","5","","11","","","","99.70","","","","-8","","NA"
"2012-04-23 08:00","2012","04","23","08:00","0.8","","-5.5","","63","","5","","11","","","","99.65","","","","","","NA"
"2012-04-23 09:00","2012","04","23","09:00","6.4","","-6.5","","39","","4","","9","","","","99.59","","","","","","NA"
"2012-04-23 10:00","2012","04","23","10:00","9.8","","-11.0","","22","","6","","7","","","","99.51","","","","","","NA"
"2012-04-23 11:00","2012","04","23","11:00","11.4","","-12.7","","17","","3","","9","","","","99.45","","","","","","NA"
"2012-04-23 12:00","2012","04","23","12:00","12.7","","-11.7","","17","","1","","7","","","","99.33","","","","","","NA"
"2012-04-23 13:00","2012","04","23","13:00","13.0","","-13.0","","15","","3","","11","","","","99.22","","","","","","NA"
"2012-04-23 14:00","2012","04","23","14:00","14.2","","-9.7","","18","","35","","9","","","","99.14","","","","","","NA"
"2012-04-23 15:00","2012","04","23","15:00","12.1","","-5.4","","29","","30","","11","","","","99.05","","","","","","NA"
"2012-04-23 16:00","2012","04","23","16:00","10.2","","-3.8","","37","","29","","13","","","","98.97","","","","","","NA"
"2012-04-23 17:00","2012","04","23","17:00","11.5","","-4.1","","33","","31","","6","","","","98.91","","","","","","NA"
"2012-04-23 18:00","2012","04","23","18:00","13.7","","-12.0","","16","","3","","13","","","","98.82","","","","","","NA"
"2012-04-23 19:00","2012","04","23","19:00","12.6","","-11.2","","18","","4","","11","","","","98.78","","","","","","NA"
"2012-04-23 20:00","2012","04","23","20:00","8.8","","-9.1","","27","","4","","6","","","","98.77","","","","","","NA"
"2012-04-23 21:00","2012","04","23","21:00","3.4","","-6.5","","48","","","","0","","","","98.75","","","","","","NA"
"2012-04-23 22:00","2012","04","23","22:00","0.5","","-8.4","","51","","5","","4","","","","98.69","","","","","","NA"
"2012-04-23 23:00","2012","04","23","23:00","-0.3","","-7.9","","56","","6","","7","","","","98.64","","","","-3","","NA"
"2012-04-24 00:00","2012","04","24","00:00","-0.4","","-5.8","","67","","6","","7","","","","98.59","","","","-3","","NA"
"2012-04-24 01:00","2012","04","24","01:00","-0.3","","-7.0","","61","","6","","7","","","","98.55","","","","-3","","NA"
"2012-04-24 02:00","2012","04","24","02:00","-0.4","","-6.6","","63","","6","","7","","","","98.49","","","","-3","","NA"
"2012-04-24 03:00","2012","04","24","03:00","-0.9","","-6.4","","66","","7","","7","","","","98.41","","","","-3","","NA"
"2012-04-24 04:00","2012","04","24","04:00","-1.3","","-6.0","","70","","7","","7","","","","98.35","","","","-4","","NA"
"2012-04-24 05:00","2012","04","24","05:00","-1.3","","-6.1","","70","","6","","9","","","","98.32","","","","-5","","NA"
"2012-04-24 06:00","2012","04","24","06:00","-1.9","","-6.1","","73","","5","","7","","","","98.32","","","","-5","","NA"
"2012-04-24 07:00","2012","04","24","07:00","-0.2","","-5.6","","67","","5","","7","","","","98.31","","","","-3","","NA"
"2012-04-24 08:00","2012","04","24","08:00","2.9","","-3.7","","62","","4","","6","","","","98.25","","","","","","NA"
"2012-04-24 09:00","2012","04","24","09:00","8.3","","-6.6","","34","","36","","6","","","","98.22","","","","","","NA"
"2012-04-24 10:00","2012","04","24","10:00","10.8","","-6.6","","29","","35","","13","","","","98.16","","","","","","NA"
"2012-04-24 11:00","2012","04","24","11:00","12.1","","-7.4","","25","","36","","13","","","","98.10","","","","","","NA"
"2012-04-24 12:00","2012","04","24","12:00","12.9","","-6.9","","25","","3","","15","","","","98.05","","","","","","NA"
"2012-04-24 13:00","2012","04","24","13:00","13.7","","-6.1","","25","","36","","17","","","","98.01","","","","","","NA"
"2012-04-24 14:00","2012","04","24","14:00","13.4","","-5.7","","26","","1","","17","","","","98.00","","","","","","NA"
"2012-04-24 15:00","2012","04","24","15:00","13.3","","-6.3","","25","","35","","13","","","","98.00","","","","","","NA"
"2012-04-24 16:00","2012","04","24","16:00","12.5","","-7.1","","25","","3","","13","","","","97.98","","","","","","NA"
"2012-04-24 17:00","2012","04","24","17:00","11.9","","-6.9","","26","","3","","15","","","","97.98","","","","","","NA"
"2012-04-24 18:00","2012","04","24","18:00","11.6","","-6.1","","28","","36","","11","","","","98.04","","","","","","NA"
"2012-04-24 19:00","2012","04","24","19:00","10.1","","-5.3","","33","","1","","7","","","","98.04","","","","","","NA"
"2012-04-24 20:00","2012","04","24","20:00","7.4","","-3.7","","45","","34","","6","","","","98.09","","","","","","NA"
"2012-04-24 21:00","2012","04","24","21:00","6.8","","-6.6","","38","","1","","9","","","","98.18","","","","","","NA"
"2012-04-24 22:00","2012","04","24","22:00","2.7","","-6.2","","52","","","","0","","","","98.21","","","","","","NA"
"2012-04-24 23:00","2012","04","24","23:00","-0.4","","-7.1","","61","","3","","6","","","","98.20","","","","-2","","NA"
"2012-04-25 00:00","2012","04","25","00:00","-1.6","","-6.4","","70","","4","","4","","","","98.26","","","","-3","","NA"
"2012-04-25 01:00","2012","04","25","01:00","-2.0","","-6.0","","74","","5","","6","","","","98.27","","","","-4","","NA"
"2012-04-25 02:00","2012","04","25","02:00","-1.9","","-5.8","","75","","8","","6","","","","98.26","","","","-4","","NA"
"2012-04-25 03:00","2012","04","25","03:00","-2.7","","-5.9","","79","","5","","6","","","","98.29","","","","-5","","NA"
"2012-04-25 04:00","2012","04","25","04:00","-2.9","","-5.6","","82","","6","","6","","","","98.31","","","","-5","","NA"
"2012-04-25 05:00","2012","04","25","05:00","-3.5","","-6.1","","82","","4","","4","","","","98.38","","","","-5","","NA"
"2012-04-25 06:00","2012","04","25","06:00","-4.0","","-6.1","","85","","9","","4","","","","98.41","","","","-6","","NA"
"2012-04-25 07:00","2012","04","25","07:00","-2.9","","-5.2","","84","","8","","2","","","","98.46","","","","-4","","NA"
"2012-04-25 08:00","2012","04","25","08:00","2.5","","-4.6","","59","","27","","2","","","","98.49","","","","","","NA"
"2012-04-25 09:00","2012","04","25","09:00","3.9","","-4.1","","56","","26","","7","","","","98.52","","","","","","NA"
"2012-04-25 10:00","2012","04","25","10:00","4.8","","-4.1","","52","","24","","7","","","","98.53","","","","","","NA"
"2012-04-25 11:00","2012","04","25","11:00","5.7","","-5.5","","44","","25","","7","","","","98.50","","","","","","NA"
"2012-04-25 12:00","2012","04","25","12:00","5.7","","-5.9","","43","","24","","11","","","","98.48","","","","","","NA"
"2012-04-25 13:00","2012","04","25","13:00","6.4","","-4.9","","44","","23","","9","","","","98.50","","","","","","NA"
"2012-04-25 14:00","2012","04","25","14:00","6.8","","-3.7","","47","","24","","7","","","","98.47","","","","","","NA"
"2012-04-25 15:00","2012","04","25","15:00","5.4","","-4.0","","51","","24","","11","","","","98.49","","","","","","NA"
"2012-04-25 16:00","2012","04","25","16:00","5.8","","-4.1","","49","","24","","7","","","","98.47","","","","","","NA"
"2012-04-25 17:00","2012","04","25","17:00","4.9","","-2.1","","60","","24","","7","","","","98.47","","","","","","NA"
"2012-04-25 18:00","2012","04","25","18:00","4.1","","-1.3","","68","","21","","7","","","","98.46","","","","","","NA"
"2012-04-25 19:00","2012","04","25","19:00","3.7","","-0.4","","75","","21","","7","","","","98.47","","","","","","NA"
"2012-04-25 20:00","2012","04","25","20:00","3.2","","-0.7","","76","","18","","6","","","","98.43","","","","","","NA"
"2012-04-25 21:00","2012","04","25","21:00","3.1","","-0.7","","76","","19","","6","","","","98.45","","","","","","NA"
"2012-04-25 22:00","2012","04","25","22:00","3.5","","-0.8","","73","","21","","6","","","","98.45","","","","","","NA"
"2012-04-25 23:00","2012","04","25","23:00","3.3","","0.3","","81","","19","","7","","","","98.42","","","","","","NA"
"2012-04-26 00:00","2012","04","26","00:00","3.1","","0.2","","81","","23","","6","","","","98.46","","","","","","NA"
"2012-04-26 01:00","2012","04","26","01:00","3.4","","1.2","","85","","21","","4","","","","98.45","","","","","","NA"
"2012-04-26 02:00","2012","04","26","02:00","3.2","","2.1","","92","","28","","4","","","","98.44","","","","","","NA"
"2012-04-26 03:00","2012","04","26","03:00","1.1","","0.1","","93","","1","","11","","","","98.53","","","","","","NA"
"2012-04-26 04:00","2012","04","26","04:00","0.0","","-0.9","","94","","2","","17","","","","98.66","","","","-5","","NA"
"2012-04-26 05:00","2012","04","26","05:00","-1.1","","-2.1","","93","","4","","15","","","","98.76","","","","-6","","NA"
"2012-04-26 06:00","2012","04","26","06:00","-1.8","","-3.5","","88","","3","","15","","","","98.90","","","","-7","","NA"
"2012-04-26 07:00","2012","04","26","07:00","-2.6","","-4.5","","87","","3","","9","","","","99.04","","","","-6","","NA"
"2012-04-26 08:00","2012","04","26","08:00","-2.6","","-5.3","","82","","1","","11","","","","99.15","","","","-7","","NA"
"2012-04-26 09:00","2012","04","26","09:00","-2.2","","-4.8","","82","","1","","9","","","","99.22","","","","-6","","NA"
"2012-04-26 10:00","2012","04","26","10:00","-1.2","","-5.2","","74","","1","","13","","","","99.25","","","","-5","","NA"
"2012-04-26 11:00","2012","04","26","11:00","0.4","","-4.3","","71","","34","","9","","","","99.28","","","","","","NA"
"2012-04-26 12:00","2012","04","26","12:00","1.6","","-6.8","","54","","2","","15","","","","99.28","","","","","","NA"
"2012-04-26 13:00","2012","04","26","13:00","2.8","","-6.8","","49","","2","","11","","","","99.31","","","","","","NA"
"2012-04-26 14:00","2012","04","26","14:00","3.4","","-6.9","","47","","35","","11","","","","99.35","","","","","","NA"
"2012-04-26 15:00","2012","04","26","15:00","5.3","","-7.2","","40","","35","","7","","","","99.35","","","","","","NA"
"2012-04-26 16:00","2012","04","26","16:00","6.7","","-8.0","","34","","33","","9","","","","99.35","","","","","","NA"
"2012-04-26 17:00","2012","04","26","17:00","6.8","","-10.8","","27","","36","","15","","","","99.36","","","","","","NA"
"2012-04-26 18:00","2012","04","26","18:00","6.8","","-11.2","","26","","36","","9","","","","99.39","","","","","","NA"
"2012-04-26 19:00","2012","04","26","19:00","5.6","","-11.7","","28","","36","","13","","","","99.41","","","","","","NA"
"2012-04-26 20:00","2012","04","26","20:00","3.6","","-10.0","","36","","36","","7","","","","99.46","","","","","","NA"
"2012-04-26 21:00","2012","04","26","21:00","2.4","","-10.2","","39","","36","","7","","","","99.54","","","","","","NA"
"2012-04-26 22:00","2012","04","26","22:00","-0.1","","-8.2","","54","","4","","6","","","","99.60","","","","-2","","NA"
"2012-04-26 23:00","2012","04","26","23:00","-2.0","","-9.2","","58","","3","","6","","","","99.68","","","","-4","","NA"
"2012-04-27 00:00","2012","04","27","00:00","-3.0","","-9.0","","63","","4","","4","","","","99.74","","","","-5","","NA"
"2012-04-27 01:00","2012","04","27","01:00","-3.6","","-8.8","","67","","4","","2","","","","99.80","","","","-4","","NA"
"2012-04-27 02:00","2012","04","27","02:00","-4.3","","-8.5","","72","","6","","6","","","","","M","","","-7","","NA"
"2012-04-27 03:00","2012","04","27","03:00","-4.4","","-8.6","","72","","7","","6","","","","99.89","","","","-7","","NA"
"2012-04-27 04:00","2012","04","27","04:00","-4.9","","-8.3","","77","","7","","6","","","","99.99","","","","-8","","NA"
"2012-04-27 05:00","2012","04","27","05:00","-5.4","","-8.6","","78","","5","","6","","","","100.00","","","","-8","","NA"
"2012-04-27 06:00","2012","04","27","06:00","-5.7","","-8.4","","81","","6","","6","","","","100.06","","","","-9","","NA"
"2012-04-27 07:00","2012","04","27","07:00","-3.8","","-7.7","","74","","4","","6","","","","100.14","","","","-6","","NA"
"2012-04-27 08:00","2012","04","27","08:00","-0.9","","-8.7","","55","","5","","9","","","","100.15","","","","-4","","NA"
"2012-04-27 09:00","2012","04","27","09:00","0.8","","-11.0","","41","","1","","11","","","","100.19","","","","","","NA"
"2012-04-27 10:00","2012","04","27","10:00","1.7","","-12.0","","35","","2","","7","","","","100.20","","","","","","NA"
"2012-04-27 11:00","2012","04","27","11:00","2.7","","-13.1","","30","","1","","9","","","","100.23","","","","","","NA"
"2012-04-27 12:00","2012","04","27","12:00","3.6","","-14.5","","25","","3","","9","","","","100.25","","","","","","NA"
"2012-04-27 13:00","2012","04","27","13:00","6.4","","-12.0","","25","","35","","6","","","","100.21","","","","","","NA"
"2012-04-27 14:00","2012","04","27","14:00","6.4","","-9.4","","31","","30","","6","","","","100.19","","","","","","NA"
"2012-04-27 15:00","2012","04","27","15:00","5.6","","-9.1","","34","","29","","15","","","","100.19","","","","","","NA"
"2012-04-27 16:00","2012","04","27","16:00","4.7","","-7.6","","40","","31","","9","","","","100.18","","","","","","NA"
"2012-04-27 17:00","2012","04","27","17:00","4.8","","-6.6","","43","","29","","7","","","","100.18","","","","","","NA"
"2012-04-27 18:00","2012","04","27","18:00","3.9","","-5.6","","50","","27","","9","","","","100.20","","","","","","NA"
"2012-04-27 19:00","2012","04","27","19:00","2.6","","-4.3","","60","","27","","6","","","","100.23","","","","","","NA"
"2012-04-27 20:00","2012","04","27","20:00","1.3","","-4.4","","66","","26","","2","","","","100.26","","","","","","NA"
"2012-04-27 21:00","2012","04","27","21:00","-1.3","","-5.6","","73","","6","","6","","","","100.24","","","","-4","","NA"
"2012-04-27 22:00","2012","04","27","22:00","-2.2","","-5.5","","78","","5","","7","","","","100.27","","","","-5","","NA"
"2012-04-27 23:00","2012","04","27","23:00","-2.6","","-5.3","","82","","7","","7","","","","100.32","","","","-5","","NA"
"2012-04-28 00:00","2012","04","28","00:00","-3.2","","-5.5","","84","","6","","7","","","","100.37","","","","-6","","NA"
"2012-04-28 01:00","2012","04","28","01:00","-3.9","","-6.1","","85","","6","","7","","","","100.40","","","","-7","","NA"
"2012-04-28 02:00","2012","04","28","02:00","-4.4","","-6.9","","83","","5","","9","","","","100.36","","","","-8","","NA"
"2012-04-28 03:00","2012","04","28","03:00","-5.1","","-7.5","","83","","5","","11","","","","100.37","","","","-10","","NA"
"2012-04-28 04:00","2012","04","28","04:00","-5.6","","-7.9","","84","","5","","7","","","","100.37","","","","-9","","NA"
"2012-04-28 05:00","2012","04","28","05:00","-5.9","","-8.1","","84","","5","","9","","","","100.38","","","","-10","","NA"
"2012-04-28 06:00","2012","04","28","06:00","-6.4","","-8.2","","87","","5","","11","","","","100.36","","","","-11","","NA"
"2012-04-28 07:00","2012","04","28","07:00","-4.7","","-7.6","","80","","5","","7","","","","100.40","","","","-8","","NA"
"2012-04-28 08:00","2012","04","28","08:00","-0.9","","-6.3","","67","","4","","7","","","","100.49","","","","-3","","NA"
"2012-04-28 09:00","2012","04","28","09:00","3.7","","-9.6","","37","","2","","6","","","","100.46","","","","","","NA"
"2012-04-28 10:00","2012","04","28","10:00","5.8","","-11.6","","27","","7","","7","","","","100.43","","","","","","NA"
"2012-04-28 11:00","2012","04","28","11:00","6.3","","-10.0","","30","","27","","9","","","","100.41","","","","","","NA"
"2012-04-28 12:00","2012","04","28","12:00","6.6","","-8.9","","32","","26","","11","","","","100.36","","","","","","NA"
"2012-04-28 13:00","2012","04","28","13:00","7.4","","-5.8","","39","","26","","11","","","","100.31","","","","","","NA"
"2012-04-28 14:00","2012","04","28","14:00","7.6","","-3.7","","45","","26","","9","","","","100.29","","","","","","NA"
"2012-04-28 15:00","2012","04","28","15:00","6.4","","-6.3","","40","","25","","13","","","","100.33","","","","","","NA"
"2012-04-28 16:00","2012","04","28","16:00","7.0","","-5.4","","41","","25","","9","","","","100.29","","","","","","NA"
"2012-04-28 17:00","2012","04","28","17:00","6.0","","-4.5","","47","","24","","9","","","","100.25","","","","","","NA"
"2012-04-28 18:00","2012","04","28","18:00","5.4","","-4.2","","50","","24","","7","","","","100.26","","","","","","NA"
"2012-04-28 19:00","2012","04","28","19:00","4.1","","-4.6","","53","","27","","6","","","","100.23","","","","","","NA"
"2012-04-28 20:00","2012","04","28","20:00","2.0","","-5.9","","56","","25","","4","","","","100.22","","","","","","NA"
"2012-04-28 21:00","2012","04","28","21:00","-0.6","","-5.4","","70","","18","","4","","","","100.24","","","","-2","","NA"
"2012-04-28 22:00","2012","04","28","22:00","-2.2","","-5.8","","76","","3","","2","","","","100.24","","","","-3","","NA"
"2012-04-28 23:00","2012","04","28","23:00","-2.5","","-5.8","","78","","6","","6","","","","100.19","","","","-5","","NA"
"2012-04-29 00:00","2012","04","29","00:00","-2.8","","-6.0","","79","","6","","6","","","","100.18","","","","-5","","NA"
"2012-04-29 01:00","2012","04","29","01:00","-3.0","","-6.1","","79","","5","","6","","","","100.22","","","","-5","","NA"
"2012-04-29 02:00","2012","04","29","02:00","-3.5","","-6.1","","82","","6","","6","","","","100.22","","","","-6","","NA"
"2012-04-29 03:00","2012","04","29","03:00","-4.2","","-6.4","","85","","6","","6","","","","100.28","","","","-7","","NA"
"2012-04-29 04:00","2012","04","29","04:00","-4.6","","-6.5","","87","","5","","6","","","","100.34","","","","-7","","NA"
"2012-04-29 05:00","2012","04","29","05:00","-5.2","","-6.7","","89","","5","","7","","","","100.37","","","","-8","","NA"
"2012-04-29 06:00","2012","04","29","06:00","-5.2","","-6.6","","90","","6","","7","","","","100.41","","","","-8","","NA"
"2012-04-29 07:00","2012","04","29","07:00","-3.6","","-5.8","","85","","5","","6","","","","100.43","","","","-6","","NA"
"2012-04-29 08:00","2012","04","29","08:00","0.5","","-3.7","","73","","5","","6","","","","100.41","","","","","","NA"
"2012-04-29 09:00","2012","04","29","09:00","6.4","","-4.1","","47","","3","","7","","","","100.39","","","","","","NA"
"2012-04-29 10:00","2012","04","29","10:00","6.9","","0.3","","63","","26","","7","","","","100.40","","","","","","NA"
"2012-04-29 11:00","2012","04","29","11:00","7.4","","0.3","","61","","25","","9","","","","100.34","","","","","","NA"
"2012-04-29 12:00","2012","04","29","12:00","7.6","","-0.5","","56","","25","","7","","","","100.38","","","","","","NA"
"2012-04-29 13:00","2012","04","29","13:00","8.1","","-3.9","","42","","24","","9","","","","100.32","","","","","","NA"
"2012-04-29 14:00","2012","04","29","14:00","8.7","","-2.9","","44","","24","","11","","","","100.21","","","","","","NA"
"2012-04-29 15:00","2012","04","29","15:00","6.5","","-1.0","","59","","24","","9","","","","100.33","","","","","","NA"
"2012-04-29 16:00","2012","04","29","16:00","7.1","","-5.4","","41","","26","","9","","","","100.27","","","","","","NA"
"2012-04-29 17:00","2012","04","29","17:00","7.3","","-6.5","","37","","25","","7","","","","100.18","","","","","","NA"
"2012-04-29 18:00","2012","04","29","18:00","6.7","","-5.6","","41","","23","","2","","","","100.12","","","","","","NA"
"2012-04-29 19:00","2012","04","29","19:00","5.1","","-5.1","","48","","25","","4","","","","100.08","","","","","","NA"
"2012-04-29 20:00","2012","04","29","20:00","2.2","","-5.2","","58","","10","","4","","","","100.02","","","","","","NA"
"2012-04-29 21:00","2012","04","29","21:00","0.2","","-6.0","","63","","4","","6","","","","99.96","","","","","","NA"
"2012-04-29 22:00","2012","04","29","22:00","0.6","","-5.8","","62","","5","","9","","","","99.90","","","","","","NA"
"2012-04-29 23:00","2012","04","29","23:00","-0.4","","-6.1","","65","","6","","11","","","","99.81","","","","-4","","NA"
"2012-04-30 00:00","2012","04","30","00:00","-0.5","","-6.1","","66","","7","","9","","","","99.83","","","","-4","","NA"
"2012-04-30 01:00","2012","04","30","01:00","-0.7","","-6.0","","67","","6","","9","","","","99.78","","","","-4","","NA"
"2012-04-30 02:00","2012","04","30","02:00","-0.7","","-5.5","","70","","6","","7","","","","99.65","","","","-3","","NA"
"2012-04-30 03:00","2012","04","30","03:00","-0.3","","-5.6","","67","","6","","9","","","","99.56","","","","-3","","NA"
"2012-04-30 04:00","2012","04","30","04:00","0.1","","-5.3","","67","","7","","9","","","","99.53","","","","","","NA"
"2012-04-30 05:00","2012","04","30","05:00","-0.1","","-4.9","","70","","7","","9","","","","99.48","","","","-3","","NA"
"2012-04-30 06:00","2012","04","30","06:00","0.1","","-4.6","","71","","6","","6","","","","99.42","","","","","","NA"
"2012-04-30 07:00","2012","04","30","07:00","6.9","","-4.4","","44","","19","","9","","","","99.40","","","","","","NA"
"2012-04-30 08:00","2012","04","30","08:00","9.4","","-5.4","","35","","19","","13","","","","99.38","","","","","","NA"
"2012-04-30 09:00","2012","04","30","09:00","8.0","","-3.4","","44","","20","","11","","","","99.40","","","","","","NA"
"2012-04-30 10:00","2012","04","30","10:00","7.9","","-2.8","","47","","20","","13","","","","99.39","","","","","","NA"
"2012-04-30 11:00","2012","04","30","11:00","7.8","","-3.2","","46","","19","","11","","","","99.32","","","","","","NA"
"2012-04-30 12:00","2012","04","30","12:00","7.9","","-2.0","","50","","19","","15","","","","99.25","","","","","","NA"
"2012-04-30 13:00","2012","04","30","13:00","8.6","","-1.5","","49","","20","","13","","","","99.15","","","","","","NA"
"2012-04-30 14:00","2012","04","30","14:00","8.1","","0.7","","60","","22","","11","","","","99.10","","","","","","NA"
"2012-04-30 15:00","2012","04","30","15:00","7.5","","0.2","","60","","20","","19","","","","99.02","","","","","","NA"
"2012-04-30 16:00","2012","04","30","16:00","6.6","","0.3","","64","","19","","13","","","","98.98","","","","","","NA"
"2012-04-30 17:00","2012","04","30","17:00","7.2","","0.0","","60","","20","","9","","","","98.98","","","","","","NA"
"2012-04-30 18:00","2012","04","30","18:00","6.4","","0.3","","65","","21","","9","","","","98.99","","","","","","NA"
"2012-04-30 19:00","2012","04","30","19:00","5.5","","0.6","","71","","21","","9","","","","98.97","","","","","","NA"
"2012-04-30 20:00","2012","04","30","20:00","4.6","","1.0","","77","","19","","6","","","","98.95","","","","","","NA"
"2012-04-30 21:00","2012","04","30","21:00","3.7","","0.6","","80","","19","","6","","","","98.91","","","","","","NA"
"2012-04-30 22:00","2012","04","30","22:00","4.4","","1.6","","82","","20","","6","","","","98.92","","","","","","NA"
"2012-04-30 23:00","2012","04","30","23:00","4.2","","1.9","","85","","19","","6","","","","98.90","","","","","","NA"
