"Station Name","PUKASKWA (AUT)"
"Province","ONTARIO"
"Latitude","48.59"
"Longitude","-86.29"
"Elevation","207.60"
"Climate Identifier","6046767"
"WMO Identifier","71750"
"TC Identifier","WCJ"
"All times are specified in Local Standard Time (LST). Add 1 hour to adjust for Daylight Saving Time where and when it is observed."

"Legend"
"E","Estimated"
"M","Missing"
"NA","Not Available"

"Date/Time","Year","Month","Day","Time","Temp (°C)","Temp Flag","Dew Point Temp (°C)","Dew Point Temp Flag","Rel Hum (%)","Rel Hum Flag","Wind Dir (10s deg)","Wind Dir Flag","Wind Spd (km/h)","Wind Spd Flag","Visibility (km)","Visibility Flag","Stn Press (kPa)","Stn Press Flag","Hmdx","Hmdx Flag","Wind Chill","Wind Chill Flag","Weather"
"2005-08-01 00:00","2005","08","01","00:00","15.3","","15.3","","100","","22","","4","","","","99.05","","","","","","NA"
"2005-08-01 01:00","2005","08","01","01:00","15.2","","15.2","","100","","21","","6","","","","99.10","","","","","","NA"
"2005-08-01 02:00","2005","08","01","02:00","14.8","","14.8","","100","","17","","2","","","","99.14","","","","","","NA"
"2005-08-01 03:00","2005","08","01","03:00","14.8","","14.8","","100","","19","","7","","","","99.15","","","","","","NA"
"2005-08-01 04:00","2005","08","01","04:00","15.3","","15.3","","100","","7","","2","","","","99.15","","","","","","NA"
"2005-08-01 05:00","2005","08","01","05:00","15.2","","15.2","","100","","11","","2","","","","99.16","","","","","","NA"
"2005-08-01 06:00","2005","08","01","06:00","14.4","","14.4","","100","","4","","6","","","","99.16","","","","","","NA"
"2005-08-01 07:00","2005","08","01","07:00","15.8","","15.8","","100","","12","","6","","","","99.22","","","","","","NA"
"2005-08-01 08:00","2005","08","01","08:00","15.4","","15.4","","100","","21","","4","","","","99.26","","","","","","NA"
"2005-08-01 09:00","2005","08","01","09:00","16.9","","16.3","","96","","25","","4","","","","99.26","","","","","","NA"
"2005-08-01 10:00","2005","08","01","10:00","16.6","","15.8","","95","","24","","6","","","","99.26","","","","","","NA"
"2005-08-01 11:00","2005","08","01","11:00","16.8","","16.0","","95","","24","","6","","","","99.23","","","","","","NA"
"2005-08-01 12:00","2005","08","01","12:00","17.2","","16.0","","93","","24","","6","","","","99.21","","","","","","NA"
"2005-08-01 13:00","2005","08","01","13:00","19.2","","16.8","","86","","24","","9","","","","99.20","","","","","","NA"
"2005-08-01 14:00","2005","08","01","14:00","19.9","","17.1","","84","","23","","9","","","","99.19","","","","","","NA"
"2005-08-01 15:00","2005","08","01","15:00","20.1","","17.2","","83","","22","","11","","","","99.20","","26","","","","NA"
"2005-08-01 16:00","2005","08","01","16:00","21.4","","17.0","","76","","19","","4","","","","99.15","","27","","","","NA"
"2005-08-01 17:00","2005","08","01","17:00","21.7","","17.2","","76","","20","","9","","","","99.14","","27","","","","NA"
"2005-08-01 18:00","2005","08","01","18:00","20.2","","17.3","","83","","20","","13","","","","99.14","","26","","","","NA"
"2005-08-01 19:00","2005","08","01","19:00","19.5","","17.2","","87","","18","","9","","","","99.12","","","","","","NA"
"2005-08-01 20:00","2005","08","01","20:00","18.8","","17.2","","90","","18","","7","","","","99.11","","","","","","NA"
"2005-08-01 21:00","2005","08","01","21:00","17.8","","17.6","","99","","20","","6","","","","99.14","","","","","","NA"
"2005-08-01 22:00","2005","08","01","22:00","17.3","","17.0","","98","","13","","4","","","","99.12","","","","","","NA"
"2005-08-01 23:00","2005","08","01","23:00","16.0","","16.0","","100","","7","","7","","","","99.08","","","","","","NA"
"2005-08-02 00:00","2005","08","02","00:00","15.6","","15.6","","100","","9","","6","","","","99.11","","","","","","NA"
"2005-08-02 01:00","2005","08","02","01:00","15.4","","15.4","","100","","11","","6","","","","99.08","","","","","","NA"
"2005-08-02 02:00","2005","08","02","02:00","16.6","","16.5","","99","","15","","6","","","","99.06","","","","","","NA"
"2005-08-02 03:00","2005","08","02","03:00","16.9","","16.9","","100","","17","","15","","","","99.06","","","","","","NA"
"2005-08-02 04:00","2005","08","02","04:00","16.7","","16.7","","100","","17","","13","","","","99.07","","","","","","NA"
"2005-08-02 05:00","2005","08","02","05:00","16.5","","16.5","","100","","17","","11","","","","99.11","","","","","","NA"
"2005-08-02 06:00","2005","08","02","06:00","17.3","","16.9","","97","","17","","9","","","","99.12","","","","","","NA"
"2005-08-02 07:00","2005","08","02","07:00","18.5","","16.8","","90","","16","","9","","","","99.13","","","","","","NA"
"2005-08-02 08:00","2005","08","02","08:00","20.2","","16.7","","80","","17","","13","","","","99.14","","25","","","","NA"
"2005-08-02 09:00","2005","08","02","09:00","21.0","","16.7","","76","","19","","11","","","","99.12","","26","","","","NA"
"2005-08-02 10:00","2005","08","02","10:00","19.6","","16.8","","84","","22","","9","","","","99.09","","","","","","NA"
"2005-08-02 11:00","2005","08","02","11:00","20.9","","16.8","","77","","22","","9","","","","99.08","","26","","","","NA"
"2005-08-02 12:00","2005","08","02","12:00","21.2","","16.9","","76","","23","","7","","","","99.08","","26","","","","NA"
"2005-08-02 13:00","2005","08","02","13:00","20.7","","17.1","","80","","22","","7","","","","99.08","","26","","","","NA"
"2005-08-02 14:00","2005","08","02","14:00","20.9","","17.0","","78","","24","","6","","","","99.05","","26","","","","NA"
"2005-08-02 15:00","2005","08","02","15:00","21.3","","17.5","","79","","23","","7","","","","99.01","","27","","","","NA"
"2005-08-02 16:00","2005","08","02","16:00","21.9","","17.9","","78","","24","","7","","","","98.97","","28","","","","NA"
"2005-08-02 17:00","2005","08","02","17:00","22.2","","18.7","","81","","21","","6","","","","98.93","","29","","","","NA"
"2005-08-02 18:00","2005","08","02","18:00","22.1","","18.9","","82","","21","","7","","","","98.89","","29","","","","NA"
"2005-08-02 19:00","2005","08","02","19:00","21.0","","18.8","","87","","23","","4","","","","98.87","","28","","","","NA"
"2005-08-02 20:00","2005","08","02","20:00","20.8","","19.2","","91","","","","0","","","","98.85","","28","","","","NA"
"2005-08-02 21:00","2005","08","02","21:00","19.7","","19.3","","98","","","","0","","","","98.85","","","","","","NA"
"2005-08-02 22:00","2005","08","02","22:00","18.7","","18.7","","100","","8","","7","","","","98.82","","","","","","NA"
"2005-08-02 23:00","2005","08","02","23:00","19.6","","19.5","","99","","19","","7","","","","98.81","","","","","","NA"
"2005-08-03 00:00","2005","08","03","00:00","18.3","","18.3","","100","","5","","9","","","","98.80","","","","","","NA"
"2005-08-03 01:00","2005","08","03","01:00","19.0","","19.0","","100","","8","","11","","","","98.74","","","","","","NA"
"2005-08-03 02:00","2005","08","03","02:00","19.2","","19.2","","100","","8","","9","","","","98.70","","","","","","NA"
"2005-08-03 03:00","2005","08","03","03:00","19.4","","19.4","","100","","8","","7","","","","98.67","","","","","","NA"
"2005-08-03 04:00","2005","08","03","04:00","20.9","","20.1","","95","","16","","11","","","","98.69","","29","","","","NA"
"2005-08-03 05:00","2005","08","03","05:00","20.1","","19.6","","97","","17","","15","","","","98.66","","27","","","","NA"
"2005-08-03 06:00","2005","08","03","06:00","19.7","","19.4","","98","","17","","13","","","","98.68","","","","","","NA"
"2005-08-03 07:00","2005","08","03","07:00","20.4","","19.4","","94","","17","","20","","","","98.64","","27","","","","NA"
"2005-08-03 08:00","2005","08","03","08:00","22.2","","19.9","","87","","18","","22","","","","98.69","","30","","","","NA"
"2005-08-03 09:00","2005","08","03","09:00","21.2","","20.0","","93","","16","","20","","","","98.66","","29","","","","NA"
"2005-08-03 10:00","2005","08","03","10:00","25.8","","21.2","","76","","14","","13","","","","98.56","","34","","","","NA"
"2005-08-03 11:00","2005","08","03","11:00","24.9","","19.5","","72","","17","","15","","","","98.51","","32","","","","NA"
"2005-08-03 12:00","2005","08","03","12:00","22.8","","19.2","","80","","18","","13","","","","98.50","","30","","","","NA"
"2005-08-03 13:00","2005","08","03","13:00","22.2","","19.2","","83","","18","","19","","","","98.45","","29","","","","NA"
"2005-08-03 14:00","2005","08","03","14:00","24.2","","19.3","","74","","17","","17","","","","98.37","","31","","","","NA"
"2005-08-03 15:00","2005","08","03","15:00","24.5","","19.6","","74","","17","","20","","","","98.33","","32","","","","NA"
"2005-08-03 16:00","2005","08","03","16:00","23.3","","19.8","","81","","18","","15","","","","98.30","","31","","","","NA"
"2005-08-03 17:00","2005","08","03","17:00","23.6","","20.3","","82","","17","","20","","","","98.22","","31","","","","NA"
"2005-08-03 18:00","2005","08","03","18:00","25.5","","20.4","","73","","17","","30","","","","98.16","","33","","","","NA"
"2005-08-03 19:00","2005","08","03","19:00","23.9","","19.7","","77","","18","","35","","","","98.13","","31","","","","NA"
"2005-08-03 20:00","2005","08","03","20:00","21.9","","19.0","","84","","19","","26","","","","98.18","","29","","","","NA"
"2005-08-03 21:00","2005","08","03","21:00","20.5","","18.9","","91","","19","","24","","","","98.20","","27","","","","NA"
"2005-08-03 22:00","2005","08","03","22:00","20.0","","19.0","","94","","17","","19","","","","98.19","","27","","","","NA"
"2005-08-03 23:00","2005","08","03","23:00","20.0","","19.4","","96","","18","","19","","","","98.16","","27","","","","NA"
"2005-08-04 00:00","2005","08","04","00:00","19.7","","19.3","","98","","20","","11","","","","98.13","","","","","","NA"
"2005-08-04 01:00","2005","08","04","01:00","18.7","","18.7","","100","","24","","7","","","","98.17","","","","","","NA"
"2005-08-04 02:00","2005","08","04","02:00","18.5","","18.5","","100","","18","","6","","","","98.13","","","","","","NA"
"2005-08-04 03:00","2005","08","04","03:00","18.5","","18.5","","100","","15","","7","","","","98.07","","","","","","NA"
"2005-08-04 04:00","2005","08","04","04:00","18.9","","18.9","","100","","17","","13","","","","98.03","","","","","","NA"
"2005-08-04 05:00","2005","08","04","05:00","18.3","","18.3","","100","","21","","7","","","","98.09","","","","","","NA"
"2005-08-04 06:00","2005","08","04","06:00","17.5","","17.5","","100","","20","","7","","","","98.08","","","","","","NA"
"2005-08-04 07:00","2005","08","04","07:00","16.9","","16.9","","100","","21","","11","","","","98.13","","","","","","NA"
"2005-08-04 08:00","2005","08","04","08:00","17.0","","17.0","","100","","18","","6","","","","98.18","","","","","","NA"
"2005-08-04 09:00","2005","08","04","09:00","16.9","","16.9","","100","","22","","11","","","","98.24","","","","","","NA"
"2005-08-04 10:00","2005","08","04","10:00","17.1","","17.1","","100","","34","","13","","","","98.33","","","","","","NA"
"2005-08-04 11:00","2005","08","04","11:00","19.1","","19.1","","100","","31","","2","","","","98.37","","","","","","NA"
"2005-08-04 12:00","2005","08","04","12:00","18.9","","18.2","","96","","26","","22","","","","98.42","","","","","","NA"
"2005-08-04 13:00","2005","08","04","13:00","19.7","","17.8","","89","","24","","15","","","","98.40","","","","","","NA"
"2005-08-04 14:00","2005","08","04","14:00","20.3","","17.6","","84","","23","","19","","","","98.40","","26","","","","NA"
"2005-08-04 15:00","2005","08","04","15:00","20.3","","17.0","","81","","23","","22","","","","98.39","","26","","","","NA"
"2005-08-04 16:00","2005","08","04","16:00","19.7","","16.4","","81","","25","","33","","","","98.39","","","","","","NA"
"2005-08-04 17:00","2005","08","04","17:00","19.6","","15.8","","79","","25","","33","","","","98.43","","","","","","NA"
"2005-08-04 18:00","2005","08","04","18:00","18.8","","16.1","","84","","25","","33","","","","98.46","","","","","","NA"
"2005-08-04 19:00","2005","08","04","19:00","19.1","","15.1","","78","","28","","26","","","","98.50","","","","","","NA"
"2005-08-04 20:00","2005","08","04","20:00","20.0","","12.4","","62","","29","","35","","","","98.57","","","","","","NA"
"2005-08-04 21:00","2005","08","04","21:00","18.9","","13.7","","72","","29","","28","","","","98.69","","","","","","NA"
"2005-08-04 22:00","2005","08","04","22:00","18.1","","14.2","","78","","29","","22","","","","98.75","","","","","","NA"
"2005-08-04 23:00","2005","08","04","23:00","18.2","","13.8","","75","","28","","26","","","","98.77","","","","","","NA"
"2005-08-05 00:00","2005","08","05","00:00","17.5","","14.7","","84","","28","","24","","","","98.86","","","","","","NA"
"2005-08-05 01:00","2005","08","05","01:00","18.1","","12.8","","71","","31","","22","","","","98.94","","","","","","NA"
"2005-08-05 02:00","2005","08","05","02:00","17.5","","12.2","","71","","33","","15","","","","99.01","","","","","","NA"
"2005-08-05 03:00","2005","08","05","03:00","16.8","","13.9","","83","","31","","7","","","","99.07","","","","","","NA"
"2005-08-05 04:00","2005","08","05","04:00","17.1","","14.0","","82","","28","","19","","","","99.10","","","","","","NA"
"2005-08-05 05:00","2005","08","05","05:00","16.4","","15.1","","92","","27","","22","","","","99.16","","","","","","NA"
"2005-08-05 06:00","2005","08","05","06:00","17.0","","12.8","","76","","30","","20","","","","99.26","","","","","","NA"
"2005-08-05 07:00","2005","08","05","07:00","16.8","","10.7","","67","","32","","22","","","","99.34","","","","","","NA"
"2005-08-05 08:00","2005","08","05","08:00","17.5","","11.5","","68","","30","","13","","","","99.45","","","","","","NA"
"2005-08-05 09:00","2005","08","05","09:00","17.5","","12.3","","72","","29","","20","","","","99.49","","","","","","NA"
"2005-08-05 10:00","2005","08","05","10:00","18.2","","14.0","","76","","27","","19","","","","99.51","","","","","","NA"
"2005-08-05 11:00","2005","08","05","11:00","18.3","","14.0","","76","","27","","26","","","","99.53","","","","","","NA"
"2005-08-05 12:00","2005","08","05","12:00","18.5","","13.9","","75","","27","","26","","","","99.54","","","","","","NA"
"2005-08-05 13:00","2005","08","05","13:00","19.8","","13.9","","69","","26","","20","","","","99.53","","","","","","NA"
"2005-08-05 14:00","2005","08","05","14:00","19.5","","13.5","","68","","25","","24","","","","99.53","","","","","","NA"
"2005-08-05 15:00","2005","08","05","15:00","19.2","","14.7","","75","","22","","24","","","","99.53","","","","","","NA"
"2005-08-05 16:00","2005","08","05","16:00","19.3","","15.0","","76","","23","","28","","","","99.50","","","","","","NA"
"2005-08-05 17:00","2005","08","05","17:00","18.5","","14.5","","78","","22","","24","","","","99.49","","","","","","NA"
"2005-08-05 18:00","2005","08","05","18:00","19.4","","14.3","","72","","16","","15","","","","99.49","","","","","","NA"
"2005-08-05 19:00","2005","08","05","19:00","18.3","","14.2","","77","","20","","19","","","","99.46","","","","","","NA"
"2005-08-05 20:00","2005","08","05","20:00","17.5","","14.4","","82","","26","","17","","","","99.44","","","","","","NA"
"2005-08-05 21:00","2005","08","05","21:00","16.9","","14.7","","87","","25","","7","","","","99.45","","","","","","NA"
"2005-08-05 22:00","2005","08","05","22:00","16.8","","14.9","","89","","18","","13","","","","99.44","","","","","","NA"
"2005-08-05 23:00","2005","08","05","23:00","16.9","","14.9","","88","","17","","19","","","","99.43","","","","","","NA"
"2005-08-06 00:00","2005","08","06","00:00","17.3","","14.4","","83","","19","","19","","","","99.40","","","","","","NA"
"2005-08-06 01:00","2005","08","06","01:00","16.9","","14.4","","85","","17","","15","","","","99.40","","","","","","NA"
"2005-08-06 02:00","2005","08","06","02:00","16.4","","14.3","","87","","16","","11","","","","99.38","","","","","","NA"
"2005-08-06 03:00","2005","08","06","03:00","16.7","","14.7","","88","","17","","20","","","","99.36","","","","","","NA"
"2005-08-06 04:00","2005","08","06","04:00","16.8","","14.2","","85","","17","","22","","","","99.35","","","","","","NA"
"2005-08-06 05:00","2005","08","06","05:00","17.0","","14.1","","83","","17","","22","","","","99.34","","","","","","NA"
"2005-08-06 06:00","2005","08","06","06:00","17.7","","14.1","","79","","17","","26","","","","99.34","","","","","","NA"
"2005-08-06 07:00","2005","08","06","07:00","17.6","","14.8","","84","","18","","20","","","","99.34","","","","","","NA"
"2005-08-06 08:00","2005","08","06","08:00","18.8","","15.1","","79","","17","","20","","","","99.31","","","","","","NA"
"2005-08-06 09:00","2005","08","06","09:00","18.7","","15.2","","80","","18","","20","","","","99.31","","","","","","NA"
"2005-08-06 10:00","2005","08","06","10:00","19.1","","15.4","","79","","19","","24","","","","99.29","","","","","","NA"
"2005-08-06 11:00","2005","08","06","11:00","20.2","","15.8","","76","","18","","22","","","","99.27","","25","","","","NA"
"2005-08-06 12:00","2005","08","06","12:00","20.6","","15.7","","73","","18","","24","","","","99.22","","25","","","","NA"
"2005-08-06 13:00","2005","08","06","13:00","21.2","","15.9","","72","","18","","20","","","","99.20","","26","","","","NA"
"2005-08-06 14:00","2005","08","06","14:00","20.8","","15.5","","72","","18","","26","","","","99.16","","25","","","","NA"
"2005-08-06 15:00","2005","08","06","15:00","20.8","","15.6","","72","","18","","24","","","","99.13","","25","","","","NA"
"2005-08-06 16:00","2005","08","06","16:00","20.9","","15.5","","71","","18","","26","","","","99.04","","25","","","","NA"
"2005-08-06 17:00","2005","08","06","17:00","19.8","","15.6","","77","","18","","35","","","","98.96","","","","","","NA"
"2005-08-06 18:00","2005","08","06","18:00","19.8","","15.2","","75","","18","","28","","","","98.91","","","","","","NA"
"2005-08-06 19:00","2005","08","06","19:00","19.7","","15.0","","74","","18","","26","","","","98.83","","","","","","NA"
"2005-08-06 20:00","2005","08","06","20:00","19.5","","14.7","","74","","18","","32","","","","98.78","","","","","","NA"
"2005-08-06 21:00","2005","08","06","21:00","19.4","","14.5","","73","","18","","30","","","","98.79","","","","","","NA"
"2005-08-06 22:00","2005","08","06","22:00","19.1","","14.8","","76","","17","","30","","","","98.76","","","","","","NA"
"2005-08-06 23:00","2005","08","06","23:00","19.6","","14.1","","71","","18","","32","","","","98.72","","","","","","NA"
"2005-08-07 00:00","2005","08","07","00:00","19.9","","14.2","","70","","18","","28","","","","98.72","","","","","","NA"
"2005-08-07 01:00","2005","08","07","01:00","19.5","","15.1","","76","","18","","22","","","","98.71","","","","","","NA"
"2005-08-07 02:00","2005","08","07","02:00","19.2","","15.3","","78","","19","","15","","","","98.70","","","","","","NA"
"2005-08-07 03:00","2005","08","07","03:00","18.4","","15.3","","82","","19","","15","","","","98.68","","","","","","NA"
"2005-08-07 04:00","2005","08","07","04:00","17.9","","15.6","","86","","18","","13","","","","98.69","","","","","","NA"
"2005-08-07 05:00","2005","08","07","05:00","17.6","","15.7","","89","","18","","15","","","","98.72","","","","","","NA"
"2005-08-07 06:00","2005","08","07","06:00","17.8","","16.2","","90","","18","","19","","","","98.72","","","","","","NA"
"2005-08-07 07:00","2005","08","07","07:00","18.3","","16.1","","87","","19","","20","","","","98.78","","","","","","NA"
"2005-08-07 08:00","2005","08","07","08:00","18.6","","16.4","","87","","19","","17","","","","98.84","","","","","","NA"
"2005-08-07 09:00","2005","08","07","09:00","19.2","","16.6","","85","","19","","11","","","","98.89","","","","","","NA"
"2005-08-07 10:00","2005","08","07","10:00","20.2","","16.7","","80","","18","","13","","","","98.91","","25","","","","NA"
"2005-08-07 11:00","2005","08","07","11:00","21.2","","16.8","","76","","20","","13","","","","98.93","","26","","","","NA"
"2005-08-07 12:00","2005","08","07","12:00","20.2","","16.7","","80","","21","","15","","","","98.96","","25","","","","NA"
"2005-08-07 13:00","2005","08","07","13:00","19.9","","17.1","","84","","21","","13","","","","98.98","","","","","","NA"
"2005-08-07 14:00","2005","08","07","14:00","20.7","","17.4","","81","","24","","9","","","","99.00","","26","","","","NA"
"2005-08-07 15:00","2005","08","07","15:00","19.7","","16.9","","84","","22","","7","","","","99.01","","","","","","NA"
"2005-08-07 16:00","2005","08","07","16:00","20.8","","17.5","","81","","21","","6","","","","99.01","","26","","","","NA"
"2005-08-07 17:00","2005","08","07","17:00","21.7","","17.3","","76","","18","","9","","","","99.02","","27","","","","NA"
"2005-08-07 18:00","2005","08","07","18:00","20.2","","17.4","","84","","17","","17","","","","99.00","","26","","","","NA"
"2005-08-07 19:00","2005","08","07","19:00","18.9","","17.0","","89","","17","","19","","","","99.02","","","","","","NA"
"2005-08-07 20:00","2005","08","07","20:00","18.4","","17.6","","95","","17","","13","","","","99.02","","","","","","NA"
"2005-08-07 21:00","2005","08","07","21:00","17.6","","17.5","","99","","15","","4","","","","99.07","","","","","","NA"
"2005-08-07 22:00","2005","08","07","22:00","16.9","","16.8","","99","","6","","6","","","","99.09","","","","","","NA"
"2005-08-07 23:00","2005","08","07","23:00","16.2","","16.2","","100","","7","","9","","","","99.10","","","","","","NA"
"2005-08-08 00:00","2005","08","08","00:00","15.9","","15.9","","100","","12","","4","","","","99.09","","","","","","NA"
"2005-08-08 01:00","2005","08","08","01:00","15.6","","15.6","","100","","11","","2","","","","99.10","","","","","","NA"
"2005-08-08 02:00","2005","08","08","02:00","15.0","","15.0","","100","","8","","9","","","","99.07","","","","","","NA"
"2005-08-08 03:00","2005","08","08","03:00","14.8","","14.8","","100","","7","","13","","","","99.01","","","","","","NA"
"2005-08-08 04:00","2005","08","08","04:00","14.7","","14.7","","100","","6","","13","","","","98.96","","","","","","NA"
"2005-08-08 05:00","2005","08","08","05:00","15.0","","15.0","","100","","8","","13","","","","98.94","","","","","","NA"
"2005-08-08 06:00","2005","08","08","06:00","15.0","","15.0","","100","","7","","11","","","","98.88","","","","","","NA"
"2005-08-08 07:00","2005","08","08","07:00","16.1","","15.6","","97","","7","","9","","","","98.82","","","","","","NA"
"2005-08-08 08:00","2005","08","08","08:00","20.3","","17.1","","82","","18","","7","","","","98.83","","26","","","","NA"
"2005-08-08 09:00","2005","08","08","09:00","20.8","","17.7","","82","","18","","22","","","","98.76","","27","","","","NA"
"2005-08-08 10:00","2005","08","08","10:00","21.9","","18.0","","79","","18","","19","","","","98.80","","28","","","","NA"
"2005-08-08 11:00","2005","08","08","11:00","22.3","","18.0","","77","","16","","26","","","","98.68","","28","","","","NA"
"2005-08-08 12:00","2005","08","08","12:00","22.0","","18.0","","78","","18","","24","","","","98.68","","28","","","","NA"
"2005-08-08 13:00","2005","08","08","13:00","21.9","","17.9","","78","","18","","30","","","","98.64","","28","","","","NA"
"2005-08-08 14:00","2005","08","08","14:00","22.0","","18.2","","79","","18","","32","","","","98.59","","28","","","","NA"
"2005-08-08 15:00","2005","08","08","15:00","22.2","","18.7","","81","","17","","32","","","","98.55","","29","","","","NA"
"2005-08-08 16:00","2005","08","08","16:00","23.0","","18.5","","76","","18","","33","","","","98.44","","29","","","","NA"
"2005-08-08 17:00","2005","08","08","17:00","23.1","","18.4","","75","","17","","41","","","","98.23","","29","","","","NA"
"2005-08-08 18:00","2005","08","08","18:00","23.7","","18.6","","73","","17","","35","","","","98.20","","30","","","","NA"
"2005-08-08 19:00","2005","08","08","19:00","23.0","","18.3","","75","","17","","32","","","","98.23","","29","","","","NA"
"2005-08-08 20:00","2005","08","08","20:00","20.7","","20.1","","96","","18","","35","","","","98.25","","28","","","","NA"
"2005-08-08 21:00","2005","08","08","21:00","21.9","","19.2","","85","","16","","39","","","","98.26","","29","","","","NA"
"2005-08-08 22:00","2005","08","08","22:00","20.7","","18.7","","88","","17","","30","","","","98.27","","27","","","","NA"
"2005-08-08 23:00","2005","08","08","23:00","20.3","","18.8","","91","","18","","32","","","","98.26","","27","","","","NA"
"2005-08-09 00:00","2005","08","09","00:00","19.4","","19.0","","98","","16","","13","","","","98.36","","","","","","NA"
"2005-08-09 01:00","2005","08","09","01:00","19.4","","19.2","","99","","16","","17","","","","98.38","","","","","","NA"
"2005-08-09 02:00","2005","08","09","02:00","19.8","","19.1","","96","","13","","7","","","","98.38","","","","","","NA"
"2005-08-09 03:00","2005","08","09","03:00","19.1","","19.0","","99","","31","","11","","","","98.42","","","","","","NA"
"2005-08-09 04:00","2005","08","09","04:00","18.4","","18.2","","99","","","","0","","","","98.34","","","","","","NA"
"2005-08-09 05:00","2005","08","09","05:00","17.2","","17.2","","100","","7","","6","","","","98.34","","","","","","NA"
"2005-08-09 06:00","2005","08","09","06:00","17.3","","17.3","","100","","6","","6","","","","98.48","","","","","","NA"
"2005-08-09 07:00","2005","08","09","07:00","18.2","","18.2","","100","","4","","4","","","","98.56","","","","","","NA"
"2005-08-09 08:00","2005","08","09","08:00","19.4","","18.5","","95","","2","","7","","","","98.59","","","","","","NA"
"2005-08-09 09:00","2005","08","09","09:00","20.8","","19.0","","89","","2","","6","","","","98.61","","28","","","","NA"
"2005-08-09 10:00","2005","08","09","10:00","21.5","","18.8","","85","","7","","7","","","","98.67","","28","","","","NA"
"2005-08-09 11:00","2005","08","09","11:00","21.8","","19.4","","86","","6","","6","","","","98.73","","29","","","","NA"
"2005-08-09 12:00","2005","08","09","12:00","20.8","","19.3","","91","","17","","6","","","","98.72","","28","","","","NA"
"2005-08-09 13:00","2005","08","09","13:00","19.3","","18.7","","96","","18","","11","","","","98.69","","","","","","NA"
"2005-08-09 14:00","2005","08","09","14:00","19.9","","18.6","","92","","17","","9","","","","98.63","","","","","","NA"
"2005-08-09 15:00","2005","08","09","15:00","21.7","","18.5","","82","","18","","11","","","","98.60","","28","","","","NA"
"2005-08-09 16:00","2005","08","09","16:00","20.1","","18.2","","89","","21","","11","","","","98.67","","26","","","","NA"
"2005-08-09 17:00","2005","08","09","17:00","19.8","","17.2","","85","","21","","9","","","","98.70","","","","","","NA"
"2005-08-09 18:00","2005","08","09","18:00","19.7","","17.0","","84","","18","","15","","","","98.65","","","","","","NA"
"2005-08-09 19:00","2005","08","09","19:00","18.0","","16.8","","93","","18","","24","","","","98.69","","","","","","NA"
"2005-08-09 20:00","2005","08","09","20:00","17.2","","16.9","","98","","18","","11","","","","98.72","","","","","","NA"
"2005-08-09 21:00","2005","08","09","21:00","16.9","","16.9","","100","","18","","15","","","","98.77","","","","","","NA"
"2005-08-09 22:00","2005","08","09","22:00","16.9","","16.9","","100","","19","","13","","","","98.76","","","","","","NA"
"2005-08-09 23:00","2005","08","09","23:00","16.7","","16.7","","100","","18","","9","","","","98.75","","","","","","NA"
"2005-08-10 00:00","2005","08","10","00:00","16.6","","16.6","","100","","20","","11","","","","98.74","","","","","","NA"
"2005-08-10 01:00","2005","08","10","01:00","16.4","","16.4","","100","","19","","11","","","","98.72","","","","","","NA"
"2005-08-10 02:00","2005","08","10","02:00","16.3","","16.3","","100","","19","","7","","","","98.70","","","","","","NA"
"2005-08-10 03:00","2005","08","10","03:00","15.4","","15.4","","100","","16","","6","","","","98.71","","","","","","NA"
"2005-08-10 04:00","2005","08","10","04:00","14.4","","14.4","","100","","5","","4","","","","98.72","","","","","","NA"
"2005-08-10 05:00","2005","08","10","05:00","14.5","","14.5","","100","","8","","6","","","","98.75","","","","","","NA"
"2005-08-10 06:00","2005","08","10","06:00","14.7","","14.7","","100","","3","","6","","","","98.83","","","","","","NA"
"2005-08-10 07:00","2005","08","10","07:00","15.3","","15.3","","100","","7","","4","","","","98.80","","","","","","NA"
"2005-08-10 08:00","2005","08","10","08:00","17.0","","15.9","","93","","2","","4","","","","98.82","","","","","","NA"
"2005-08-10 09:00","2005","08","10","09:00","18.4","","15.5","","83","","5","","6","","","","98.86","","","","","","NA"
"2005-08-10 10:00","2005","08","10","10:00","19.2","","16.1","","82","","25","","9","","","","98.86","","","","","","NA"
"2005-08-10 11:00","2005","08","10","11:00","19.7","","15.9","","79","","26","","13","","","","98.88","","","","","","NA"
"2005-08-10 12:00","2005","08","10","12:00","21.2","","16.1","","73","","25","","13","","","","98.85","","26","","","","NA"
"2005-08-10 13:00","2005","08","10","13:00","20.2","","15.0","","72","","24","","15","","","","98.88","","","","","","NA"
"2005-08-10 14:00","2005","08","10","14:00","20.1","","14.7","","71","","27","","22","","","","98.86","","","","","","NA"
"2005-08-10 15:00","2005","08","10","15:00","20.1","","14.7","","71","","26","","28","","","","98.86","","","","","","NA"
"2005-08-10 16:00","2005","08","10","16:00","20.6","","15.5","","73","","27","","19","","","","98.84","","25","","","","NA"
"2005-08-10 17:00","2005","08","10","17:00","19.9","","14.3","","70","","28","","26","","","","98.85","","","","","","NA"
"2005-08-10 18:00","2005","08","10","18:00","20.5","","12.2","","59","","32","","20","","","","98.91","","","","","","NA"
"2005-08-10 19:00","2005","08","10","19:00","19.6","","10.9","","57","","29","","19","","","","98.93","","","","","","NA"
"2005-08-10 20:00","2005","08","10","20:00","18.7","","13.3","","71","","28","","17","","","","98.96","","","","","","NA"
"2005-08-10 21:00","2005","08","10","21:00","17.1","","16.3","","95","","28","","11","","","","99.03","","","","","","NA"
"2005-08-10 22:00","2005","08","10","22:00","16.8","","14.6","","87","","33","","7","","","","99.07","","","","","","NA"
"2005-08-10 23:00","2005","08","10","23:00","14.6","","13.8","","95","","7","","6","","","","99.10","","","","","","NA"
"2005-08-11 00:00","2005","08","11","00:00","13.7","","10.9","","83","","8","","9","","","","99.15","","","","","","NA"
"2005-08-11 01:00","2005","08","11","01:00","13.1","","10.5","","84","","8","","11","","","","99.15","","","","","","NA"
"2005-08-11 02:00","2005","08","11","02:00","12.7","","10.3","","85","","8","","11","","","","99.15","","","","","","NA"
"2005-08-11 03:00","2005","08","11","03:00","11.2","","9.8","","91","","8","","7","","","","99.19","","","","","","NA"
"2005-08-11 04:00","2005","08","11","04:00","10.1","","9.8","","98","","9","","9","","","","99.20","","","","","","NA"
"2005-08-11 05:00","2005","08","11","05:00","9.1","","9.1","","100","","7","","9","","","","99.25","","","","","","NA"
"2005-08-11 06:00","2005","08","11","06:00","10.4","","9.7","","95","","7","","13","","","","99.24","","","","","","NA"
"2005-08-11 07:00","2005","08","11","07:00","11.6","","9.9","","89","","7","","11","","","","99.28","","","","","","NA"
"2005-08-11 08:00","2005","08","11","08:00","17.3","","11.0","","66","","14","","9","","","","99.20","","","","","","NA"
"2005-08-11 09:00","2005","08","11","09:00","18.5","","11.2","","62","","18","","11","","","","99.23","","","","","","NA"
"2005-08-11 10:00","2005","08","11","10:00","19.5","","14.1","","71","","18","","20","","","","99.24","","","","","","NA"
"2005-08-11 11:00","2005","08","11","11:00","19.7","","15.3","","76","","19","","20","","","","99.24","","","","","","NA"
"2005-08-11 12:00","2005","08","11","12:00","19.7","","15.4","","76","","18","","19","","","","99.21","","","","","","NA"
"2005-08-11 13:00","2005","08","11","13:00","20.5","","14.7","","69","","18","","19","","","","99.18","","","","","","NA"
"2005-08-11 14:00","2005","08","11","14:00","21.1","","15.1","","69","","18","","19","","","","99.15","","25","","","","NA"
"2005-08-11 15:00","2005","08","11","15:00","20.2","","14.9","","72","","18","","22","","","","99.06","","","","","","NA"
"2005-08-11 16:00","2005","08","11","16:00","19.1","","15.2","","78","","18","","22","","","","99.05","","","","","","NA"
"2005-08-11 17:00","2005","08","11","17:00","20.0","","15.3","","74","","18","","17","","","","99.00","","","","","","NA"
"2005-08-11 18:00","2005","08","11","18:00","18.9","","15.5","","81","","17","","19","","","","98.95","","","","","","NA"
"2005-08-11 19:00","2005","08","11","19:00","18.8","","12.8","","68","","17","","20","","","","98.86","","","","","","NA"
"2005-08-11 20:00","2005","08","11","20:00","18.4","","14.5","","78","","16","","17","","","","98.84","","","","","","NA"
"2005-08-11 21:00","2005","08","11","21:00","18.7","","11.5","","63","","16","","9","","","","98.81","","","","","","NA"
"2005-08-11 22:00","2005","08","11","22:00","18.3","","9.7","","57","","11","","11","","","","98.73","","","","","","NA"
"2005-08-11 23:00","2005","08","11","23:00","18.2","","9.4","","56","","11","","11","","","","98.67","","","","","","NA"
"2005-08-12 00:00","2005","08","12","00:00","19.4","","13.2","","67","","17","","24","","","","98.61","","","","","","NA"
"2005-08-12 01:00","2005","08","12","01:00","18.7","","15.5","","82","","18","","22","","","","98.56","","","","","","NA"
"2005-08-12 02:00","2005","08","12","02:00","18.2","","16.7","","91","","18","","26","","","","98.47","","","","","","NA"
"2005-08-12 03:00","2005","08","12","03:00","17.8","","17.6","","99","","18","","26","","","","98.40","","","","","","NA"
"2005-08-12 04:00","2005","08","12","04:00","17.3","","17.3","","100","","19","","20","","","","98.36","","","","","","NA"
"2005-08-12 05:00","2005","08","12","05:00","17.4","","17.4","","100","","19","","22","","","","98.31","","","","","","NA"
"2005-08-12 06:00","2005","08","12","06:00","17.3","","17.3","","100","","19","","22","","","","98.26","","","","","","NA"
"2005-08-12 07:00","2005","08","12","07:00","17.4","","17.4","","100","","20","","30","","","","98.20","","","","","","NA"
"2005-08-12 08:00","2005","08","12","08:00","17.3","","17.3","","100","","19","","28","","","","98.15","","","","","","NA"
"2005-08-12 09:00","2005","08","12","09:00","17.4","","17.4","","100","","20","","24","","","","98.12","","","","","","NA"
"2005-08-12 10:00","2005","08","12","10:00","17.4","","17.4","","100","","21","","24","","","","98.08","","","","","","NA"
"2005-08-12 11:00","2005","08","12","11:00","17.7","","17.7","","100","","23","","30","","","","98.10","","","","","","NA"
"2005-08-12 12:00","2005","08","12","12:00","18.1","","18.1","","100","","24","","22","","","","98.09","","","","","","NA"
"2005-08-12 13:00","2005","08","12","13:00","18.8","","18.6","","99","","25","","22","","","","98.07","","","","","","NA"
"2005-08-12 14:00","2005","08","12","14:00","20.7","","18.6","","88","","26","","15","","","","98.05","","27","","","","NA"
"2005-08-12 15:00","2005","08","12","15:00","20.4","","16.4","","78","","26","","28","","","","98.06","","25","","","","NA"
"2005-08-12 16:00","2005","08","12","16:00","20.5","","16.7","","79","","26","","28","","","","98.06","","26","","","","NA"
"2005-08-12 17:00","2005","08","12","17:00","19.4","","16.2","","82","","24","","30","","","","98.11","","","","","","NA"
"2005-08-12 18:00","2005","08","12","18:00","18.4","","16.8","","90","","24","","37","","","","98.13","","","","","","NA"
"2005-08-12 19:00","2005","08","12","19:00","18.1","","16.7","","92","","25","","37","","","","98.13","","","","","","NA"
"2005-08-12 20:00","2005","08","12","20:00","17.6","","16.9","","96","","25","","30","","","","98.13","","","","","","NA"
"2005-08-12 21:00","2005","08","12","21:00","17.6","","17.1","","97","","26","","24","","","","98.18","","","","","","NA"
"2005-08-12 22:00","2005","08","12","22:00","17.0","","17.0","","100","","30","","7","","","","98.26","","","","","","NA"
"2005-08-12 23:00","2005","08","12","23:00","17.2","","17.1","","99","","29","","13","","","","98.27","","","","","","NA"
"2005-08-13 00:00","2005","08","13","00:00","16.6","","15.7","","94","","34","","9","","","","98.33","","","","","","NA"
"2005-08-13 01:00","2005","08","13","01:00","17.0","","12.5","","75","","30","","7","","","","98.34","","","","","","NA"
"2005-08-13 02:00","2005","08","13","02:00","17.4","","12.2","","72","","30","","13","","","","98.38","","","","","","NA"
"2005-08-13 03:00","2005","08","13","03:00","17.1","","12.0","","72","","29","","19","","","","98.43","","","","","","NA"
"2005-08-13 04:00","2005","08","13","04:00","16.8","","11.0","","69","","29","","20","","","","98.43","","","","","","NA"
"2005-08-13 05:00","2005","08","13","05:00","16.6","","10.6","","68","","28","","26","","","","98.52","","","","","","NA"
"2005-08-13 06:00","2005","08","13","06:00","16.6","","11.1","","70","","29","","22","","","","98.58","","","","","","NA"
"2005-08-13 07:00","2005","08","13","07:00","16.7","","11.4","","71","","30","","22","","","","98.68","","","","","","NA"
"2005-08-13 08:00","2005","08","13","08:00","16.8","","11.3","","70","","29","","22","","","","98.68","","","","","","NA"
"2005-08-13 09:00","2005","08","13","09:00","17.1","","11.6","","70","","29","","15","","","","98.72","","","","","","NA"
"2005-08-13 10:00","2005","08","13","10:00","17.6","","11.3","","67","","28","","17","","","","98.76","","","","","","NA"
"2005-08-13 11:00","2005","08","13","11:00","19.0","","11.7","","63","","28","","13","","","","98.74","","","","","","NA"
"2005-08-13 12:00","2005","08","13","12:00","18.8","","12.7","","68","","26","","19","","","","98.76","","","","","","NA"
"2005-08-13 13:00","2005","08","13","13:00","19.2","","13.4","","69","","25","","22","","","","98.85","","","","","","NA"
"2005-08-13 14:00","2005","08","13","14:00","18.9","","12.7","","67","","27","","20","","","","98.86","","","","","","NA"
"2005-08-13 15:00","2005","08","13","15:00","18.0","","13.1","","73","","28","","19","","","","98.87","","","","","","NA"
"2005-08-13 16:00","2005","08","13","16:00","18.8","","14.2","","75","","27","","20","","","","98.86","","","","","","NA"
"2005-08-13 17:00","2005","08","13","17:00","18.2","","13.8","","75","","28","","20","","","","98.88","","","","","","NA"
"2005-08-13 18:00","2005","08","13","18:00","18.5","","13.7","","74","","28","","19","","","","98.87","","","","","","NA"
"2005-08-13 19:00","2005","08","13","19:00","17.7","","13.9","","78","","28","","19","","","","98.86","","","","","","NA"
"2005-08-13 20:00","2005","08","13","20:00","16.7","","14.3","","86","","28","","15","","","","98.88","","","","","","NA"
"2005-08-13 21:00","2005","08","13","21:00","16.6","","14.4","","87","","29","","13","","","","98.95","","","","","","NA"
"2005-08-13 22:00","2005","08","13","22:00","16.7","","14.0","","84","","30","","7","","","","98.98","","","","","","NA"
"2005-08-13 23:00","2005","08","13","23:00","14.3","","13.8","","97","","7","","4","","","","99.01","","","","","","NA"
"2005-08-14 00:00","2005","08","14","00:00","13.8","","13.8","","100","","7","","6","","","","99.04","","","","","","NA"
"2005-08-14 01:00","2005","08","14","01:00","14.3","","14.1","","99","","8","","7","","","","99.00","","","","","","NA"
"2005-08-14 02:00","2005","08","14","02:00","14.3","","14.3","","100","","8","","7","","","","99.02","","","","","","NA"
"2005-08-14 03:00","2005","08","14","03:00","14.1","","14.1","","100","","8","","6","","","","99.04","","","","","","NA"
"2005-08-14 04:00","2005","08","14","04:00","14.0","","14.0","","100","","7","","6","","","","99.07","","","","","","NA"
"2005-08-14 05:00","2005","08","14","05:00","13.9","","13.2","","96","","6","","6","","","","99.11","","","","","","NA"
"2005-08-14 06:00","2005","08","14","06:00","13.2","","12.8","","97","","5","","11","","","","99.07","","","","","","NA"
"2005-08-14 07:00","2005","08","14","07:00","13.9","","12.0","","88","","5","","7","","","","99.13","","","","","","NA"
"2005-08-14 08:00","2005","08","14","08:00","17.1","","12.9","","76","","9","","4","","","","99.17","","","","","","NA"
"2005-08-14 09:00","2005","08","14","09:00","19.4","","11.7","","61","","17","","6","","","","99.19","","","","","","NA"
"2005-08-14 10:00","2005","08","14","10:00","18.7","","14.1","","75","","25","","9","","","","99.19","","","","","","NA"
"2005-08-14 11:00","2005","08","14","11:00","19.1","","13.6","","70","","24","","15","","","","99.20","","","","","","NA"
"2005-08-14 12:00","2005","08","14","12:00","19.6","","15.2","","76","","23","","17","","","","99.21","","","","","","NA"
"2005-08-14 13:00","2005","08","14","13:00","19.6","","14.4","","72","","24","","19","","","","99.21","","","","","","NA"
"2005-08-14 14:00","2005","08","14","14:00","19.8","","12.7","","64","","24","","22","","","","99.21","","","","","","NA"
"2005-08-14 15:00","2005","08","14","15:00","19.8","","13.7","","68","","25","","19","","","","99.21","","","","","","NA"
"2005-08-14 16:00","2005","08","14","16:00","19.9","","13.6","","67","","26","","17","","","","99.21","","","","","","NA"
"2005-08-14 17:00","2005","08","14","17:00","18.9","","15.5","","81","","23","","24","","","","99.23","","","","","","NA"
"2005-08-14 18:00","2005","08","14","18:00","18.3","","15.5","","84","","24","","24","","","","99.25","","","","","","NA"
"2005-08-14 19:00","2005","08","14","19:00","17.6","","15.8","","89","","24","","22","","","","99.27","","","","","","NA"
"2005-08-14 20:00","2005","08","14","20:00","16.9","","16.0","","94","","23","","17","","","","99.29","","","","","","NA"
"2005-08-14 21:00","2005","08","14","21:00","16.8","","15.8","","94","","22","","13","","","","99.34","","","","","","NA"
"2005-08-14 22:00","2005","08","14","22:00","16.7","","15.8","","94","","23","","15","","","","99.34","","","","","","NA"
"2005-08-14 23:00","2005","08","14","23:00","16.8","","15.6","","93","","21","","17","","","","99.32","","","","","","NA"
"2005-08-15 00:00","2005","08","15","00:00","16.6","","15.3","","92","","20","","15","","","","99.31","","","","","","NA"
"2005-08-15 01:00","2005","08","15","01:00","16.9","","15.5","","91","","20","","19","","","","99.31","","","","","","NA"
"2005-08-15 02:00","2005","08","15","02:00","16.8","","15.3","","91","","19","","24","","","","99.30","","","","","","NA"
"2005-08-15 03:00","2005","08","15","03:00","16.8","","15.7","","93","","19","","22","","","","99.31","","","","","","NA"
"2005-08-15 04:00","2005","08","15","04:00","17.0","","15.7","","92","","19","","22","","","","99.32","","","","","","NA"
"2005-08-15 05:00","2005","08","15","05:00","17.2","","16.0","","93","","19","","24","","","","99.32","","","","","","NA"
"2005-08-15 06:00","2005","08","15","06:00","17.5","","14.9","","85","","19","","30","","","","99.32","","","","","","NA"
"2005-08-15 07:00","2005","08","15","07:00","17.9","","16.0","","89","","19","","22","","","","99.34","","","","","","NA"
"2005-08-15 08:00","2005","08","15","08:00","18.4","","15.7","","84","","19","","22","","","","99.36","","","","","","NA"
"2005-08-15 09:00","2005","08","15","09:00","18.6","","16.1","","85","","19","","20","","","","99.39","","","","","","NA"
"2005-08-15 10:00","2005","08","15","10:00","19.5","","16.2","","81","","17","","19","","","","99.39","","","","","","NA"
"2005-08-15 11:00","2005","08","15","11:00","20.0","","16.1","","78","","17","","19","","","","99.39","","25","","","","NA"
"2005-08-15 12:00","2005","08","15","12:00","21.6","","16.4","","72","","17","","19","","","","99.37","","26","","","","NA"
"2005-08-15 13:00","2005","08","15","13:00"
"2005-08-15 14:00","2005","08","15","14:00","19.2","","15.6","","80","","20","","19","","","","99.31","","","","","","NA"
"2005-08-15 15:00","2005","08","15","15:00","18.4","","15.7","","84","","21","","32","","","","99.25","","","","","","NA"
"2005-08-15 16:00","2005","08","15","16:00","18.7","","15.8","","83","","19","","24","","","","99.23","","","","","","NA"
"2005-08-15 17:00","2005","08","15","17:00","19.0","","16.4","","85","","20","","13","","","","99.25","","","","","","NA"
"2005-08-15 18:00","2005","08","15","18:00","18.6","","16.8","","89","","19","","15","","","","99.21","","","","","","NA"
"2005-08-15 19:00","2005","08","15","19:00","18.3","","16.8","","91","","18","","19","","","","99.15","","","","","","NA"
"2005-08-15 20:00","2005","08","15","20:00","18.3","","15.9","","86","","18","","20","","","","99.11","","","","","","NA"
"2005-08-15 21:00","2005","08","15","21:00","18.2","","16.2","","88","","18","","15","","","","99.12","","","","","","NA"
"2005-08-15 22:00","2005","08","15","22:00","18.5","","16.1","","86","","22","","22","","","","99.08","","","","","","NA"
"2005-08-15 23:00","2005","08","15","23:00","18.5","","16.1","","86","","23","","20","","","","99.03","","","","","","NA"
"2005-08-16 00:00","2005","08","16","00:00","18.4","","16.3","","88","","22","","30","","","","98.96","","","","","","NA"
"2005-08-16 01:00","2005","08","16","01:00","17.3","","17.2","","99","","23","","20","","","","98.95","","","","","","NA"
"2005-08-16 02:00","2005","08","16","02:00","17.9","","17.3","","96","","24","","28","","","","98.91","","","","","","NA"
"2005-08-16 03:00","2005","08","16","03:00","17.7","","17.4","","98","","26","","30","","","","98.97","","","","","","NA"
"2005-08-16 04:00","2005","08","16","04:00","17.3","","16.5","","95","","28","","20","","","","98.94","","","","","","NA"
"2005-08-16 05:00","2005","08","16","05:00","17.5","","16.9","","96","","29","","15","","","","98.96","","","","","","NA"
"2005-08-16 06:00","2005","08","16","06:00","17.3","","16.8","","97","","32","","6","","","","99.00","","","","","","NA"
"2005-08-16 07:00","2005","08","16","07:00","17.6","","16.6","","94","","30","","7","","","","99.07","","","","","","NA"
"2005-08-16 08:00","2005","08","16","08:00","17.5","","10.4","","63","","33","","15","","","","99.11","","","","","","NA"
"2005-08-16 09:00","2005","08","16","09:00","17.8","","9.8","","59","","32","","17","","","","99.15","","","","","","NA"
"2005-08-16 10:00","2005","08","16","10:00","18.3","","8.9","","54","","30","","13","","","","99.17","","","","","","NA"
"2005-08-16 11:00","2005","08","16","11:00","18.8","","10.0","","57","","27","","15","","","","99.20","","","","","","NA"
"2005-08-16 12:00","2005","08","16","12:00","18.8","","11.1","","61","","26","","24","","","","99.21","","","","","","NA"
"2005-08-16 13:00","2005","08","16","13:00","19.3","","12.6","","65","","26","","24","","","","99.20","","","","","","NA"
"2005-08-16 14:00","2005","08","16","14:00","19.5","","13.7","","69","","26","","30","","","","99.19","","","","","","NA"
"2005-08-16 15:00","2005","08","16","15:00","19.8","","13.7","","68","","27","","26","","","","99.18","","","","","","NA"
"2005-08-16 16:00","2005","08","16","16:00","20.5","","11.8","","57","","27","","22","","","","99.19","","","","","","NA"
"2005-08-16 17:00","2005","08","16","17:00","19.7","","12.3","","62","","28","","28","","","","99.21","","","","","","NA"
"2005-08-16 18:00","2005","08","16","18:00","20.1","","11.6","","58","","28","","20","","","","99.25","","","","","","NA"
"2005-08-16 19:00","2005","08","16","19:00","20.6","","6.1","","39","","34","","15","","","","99.30","","","","","","NA"
"2005-08-16 20:00","2005","08","16","20:00","18.0","","5.8","","45","","35","","9","","","","99.36","","","","","","NA"
"2005-08-16 21:00","2005","08","16","21:00","15.1","","8.5","","65","","6","","7","","","","99.43","","","","","","NA"
"2005-08-16 22:00","2005","08","16","22:00","13.3","","9.1","","76","","5","","7","","","","99.47","","","","","","NA"
"2005-08-16 23:00","2005","08","16","23:00","12.9","","7.7","","71","","3","","11","","","","99.48","","","","","","NA"
"2005-08-17 00:00","2005","08","17","00:00","13.7","","7.5","","66","","4","","15","","","","99.50","","","","","","NA"
"2005-08-17 01:00","2005","08","17","01:00","12.3","","7.5","","72","","4","","9","","","","99.53","","","","","","NA"
"2005-08-17 02:00","2005","08","17","02:00","12.4","","7.4","","72","","5","","13","","","","99.53","","","","","","NA"
"2005-08-17 03:00","2005","08","17","03:00","8.9","","7.0","","88","","3","","9","","","","99.56","","","","","","NA"
"2005-08-17 04:00","2005","08","17","04:00","8.4","","6.9","","90","","5","","6","","","","99.56","","","","","","NA"
"2005-08-17 05:00","2005","08","17","05:00","8.9","","7.7","","92","","7","","7","","","","99.57","","","","","","NA"
"2005-08-17 06:00","2005","08","17","06:00","8.9","","7.3","","90","","6","","13","","","","99.60","","","","","","NA"
"2005-08-17 07:00","2005","08","17","07:00","10.3","","7.0","","80","","4","","7","","","","99.64","","","","","","NA"
"2005-08-17 08:00","2005","08","17","08:00","13.6","","9.0","","74","","7","","9","","","","99.59","","","","","","NA"
"2005-08-17 09:00","2005","08","17","09:00","15.9","","9.5","","66","","7","","7","","","","99.61","","","","","","NA"
"2005-08-17 10:00","2005","08","17","10:00","18.2","","8.1","","52","","8","","6","","","","99.57","","","","","","NA"
"2005-08-17 11:00","2005","08","17","11:00","18.8","","10.3","","58","","25","","9","","","","99.54","","","","","","NA"
"2005-08-17 12:00","2005","08","17","12:00","18.7","","10.5","","59","","26","","15","","","","99.52","","","","","","NA"
"2005-08-17 13:00","2005","08","17","13:00","18.8","","9.3","","54","","26","","15","","","","99.49","","","","","","NA"
"2005-08-17 14:00","2005","08","17","14:00","19.6","","9.5","","52","","25","","13","","","","99.47","","","","","","NA"
"2005-08-17 15:00","2005","08","17","15:00","18.2","","10.1","","59","","25","","11","","","","99.42","","","","","","NA"
"2005-08-17 16:00","2005","08","17","16:00","18.1","","9.8","","58","","24","","6","","","","99.34","","","","","","NA"
"2005-08-17 17:00","2005","08","17","17:00","17.7","","10.1","","61","","23","","7","","","","99.35","","","","","","NA"
"2005-08-17 18:00","2005","08","17","18:00","17.2","","11.3","","68","","21","","6","","","","99.32","","","","","","NA"
"2005-08-17 19:00","2005","08","17","19:00","16.6","","11.8","","73","","23","","9","","","","99.29","","","","","","NA"
"2005-08-17 20:00","2005","08","17","20:00","16.1","","11.4","","74","","5","","6","","","","99.23","","","","","","NA"
"2005-08-17 21:00","2005","08","17","21:00","15.5","","12.8","","84","","7","","6","","","","99.22","","","","","","NA"
"2005-08-17 22:00","2005","08","17","22:00","15.2","","11.9","","81","","6","","9","","","","99.18","","","","","","NA"
"2005-08-17 23:00","2005","08","17","23:00","14.9","","11.8","","82","","8","","2","","","","99.18","","","","","","NA"
"2005-08-18 00:00","2005","08","18","00:00","14.8","","11.6","","81","","7","","6","","","","99.18","","","","","","NA"
"2005-08-18 01:00","2005","08","18","01:00","13.4","","13.0","","97","","6","","11","","","","99.15","","","","","","NA"
"2005-08-18 02:00","2005","08","18","02:00","12.8","","12.8","","100","","4","","11","","","","99.15","","","","","","NA"
"2005-08-18 03:00","2005","08","18","03:00","13.2","","13.2","","100","","10","","15","","","","99.12","","","","","","NA"
"2005-08-18 04:00","2005","08","18","04:00","13.1","","13.1","","100","","8","","17","","","","99.09","","","","","","NA"
"2005-08-18 05:00","2005","08","18","05:00","13.0","","13.0","","100","","8","","13","","","","99.03","","","","","","NA"
"2005-08-18 06:00","2005","08","18","06:00","13.0","","13.0","","100","","8","","19","","","","99.01","","","","","","NA"
"2005-08-18 07:00","2005","08","18","07:00","13.3","","13.3","","100","","9","","19","","","","98.99","","","","","","NA"
"2005-08-18 08:00","2005","08","18","08:00","13.3","","13.3","","100","","8","","22","","","","98.98","","","","","","NA"
"2005-08-18 09:00","2005","08","18","09:00","14.0","","13.9","","99","","9","","26","","","","98.91","","","","","","NA"
"2005-08-18 10:00","2005","08","18","10:00","15.3","","13.9","","91","","9","","26","","","","98.91","","","","","","NA"
"2005-08-18 11:00","2005","08","18","11:00","16.2","","14.5","","90","","9","","20","","","","98.96","","","","","","NA"
"2005-08-18 12:00","2005","08","18","12:00","18.1","","14.5","","79","","8","","17","","","","98.91","","","","","","NA"
"2005-08-18 13:00","2005","08","18","13:00","20.6","","15.3","","72","","9","","15","","","","98.85","","25","","","","NA"
"2005-08-18 14:00","2005","08","18","14:00","22.7","","15.7","","65","","8","","9","","","","98.82","","27","","","","NA"
"2005-08-18 15:00","2005","08","18","15:00","21.8","","17.2","","75","","20","","15","","","","98.78","","27","","","","NA"
"2005-08-18 16:00","2005","08","18","16:00","19.8","","16.9","","83","","21","","9","","","","98.78","","","","","","NA"
"2005-08-18 17:00","2005","08","18","17:00","21.4","","16.5","","74","","29","","4","","","","98.74","","26","","","","NA"
"2005-08-18 18:00","2005","08","18","18:00","20.8","","16.5","","76","","8","","13","","","","98.75","","26","","","","NA"
"2005-08-18 19:00","2005","08","18","19:00","20.1","","16.4","","79","","9","","15","","","","98.71","","25","","","","NA"
"2005-08-18 20:00","2005","08","18","20:00","18.6","","16.0","","85","","7","","13","","","","98.77","","","","","","NA"
"2005-08-18 21:00","2005","08","18","21:00","18.4","","15.9","","85","","9","","22","","","","98.78","","","","","","NA"
"2005-08-18 22:00","2005","08","18","22:00","18.2","","15.7","","85","","9","","22","","","","98.78","","","","","","NA"
"2005-08-18 23:00","2005","08","18","23:00","17.8","","15.6","","87","","9","","22","","","","98.75","","","","","","NA"
"2005-08-19 00:00","2005","08","19","00:00","17.5","","15.6","","89","","9","","20","","","","98.74","","","","","","NA"
"2005-08-19 01:00","2005","08","19","01:00","17.2","","15.5","","90","","8","","19","","","","98.71","","","","","","NA"
"2005-08-19 02:00","2005","08","19","02:00","16.2","","15.2","","94","","4","","13","","","","98.70","","","","","","NA"
"2005-08-19 03:00","2005","08","19","03:00","15.4","","15.0","","97","","5","","13","","","","98.68","","","","","","NA"
"2005-08-19 04:00","2005","08","19","04:00","14.9","","14.8","","99","","5","","17","","","","98.70","","","","","","NA"
"2005-08-19 05:00","2005","08","19","05:00","14.7","","14.6","","99","","5","","9","","","","98.72","","","","","","NA"
"2005-08-19 06:00","2005","08","19","06:00","14.2","","14.2","","100","","6","","9","","","","98.71","","","","","","NA"
"2005-08-19 07:00","2005","08","19","07:00","15.0","","14.8","","99","","6","","15","","","","98.69","","","","","","NA"
"2005-08-19 08:00","2005","08","19","08:00","16.4","","15.2","","93","","7","","15","","","","98.70","","","","","","NA"
"2005-08-19 09:00","2005","08","19","09:00","19.4","","15.9","","80","","8","","11","","","","98.68","","","","","","NA"
"2005-08-19 10:00","2005","08","19","10:00","22.4","","16.1","","68","","9","","13","","","","98.66","","27","","","","NA"
"2005-08-19 11:00","2005","08","19","11:00","23.9","","16.1","","62","","10","","7","","","","98.65","","29","","","","NA"
"2005-08-19 12:00","2005","08","19","12:00","24.4","","16.5","","61","","26","","6","","","","98.62","","29","","","","NA"
"2005-08-19 13:00","2005","08","19","13:00","23.6","","17.0","","67","","26","","13","","","","98.60","","29","","","","NA"
"2005-08-19 14:00","2005","08","19","14:00","23.0","","16.9","","69","","26","","17","","","","98.60","","28","","","","NA"
"2005-08-19 15:00","2005","08","19","15:00","22.7","","16.1","","66","","29","","15","","","","98.59","","27","","","","NA"
"2005-08-19 16:00","2005","08","19","16:00"
"2005-08-19 17:00","2005","08","19","17:00","21.0","","17.8","","82","","22","","6","","","","98.57","","27","","","","NA"
"2005-08-19 18:00","2005","08","19","18:00","20.5","","16.7","","79","","23","","6","","","","98.54","","26","","","","NA"
"2005-08-19 19:00","2005","08","19","19:00","19.9","","17.3","","85","","20","","7","","","","98.53","","","","","","NA"
"2005-08-19 20:00","2005","08","19","20:00","19.2","","18.0","","93","","18","","9","","","","98.55","","","","","","NA"
"2005-08-19 21:00","2005","08","19","21:00","18.8","","18.7","","99","","21","","7","","","","98.54","","","","","","NA"
"2005-08-19 22:00","2005","08","19","22:00","18.6","","18.1","","97","","18","","7","","","","98.51","","","","","","NA"
"2005-08-19 23:00","2005","08","19","23:00","18.0","","17.4","","96","","14","","9","","","","98.46","","","","","","NA"
"2005-08-20 00:00","2005","08","20","00:00","17.9","","17.0","","94","","17","","11","","","","98.48","","","","","","NA"
"2005-08-20 01:00","2005","08","20","01:00","18.4","","18.0","","98","","17","","20","","","","98.47","","","","","","NA"
"2005-08-20 02:00","2005","08","20","02:00","18.3","","17.8","","97","","19","","24","","","","98.44","","","","","","NA"
"2005-08-20 03:00","2005","08","20","03:00","18.7","","17.6","","93","","19","","24","","","","98.40","","","","","","NA"
"2005-08-20 04:00","2005","08","20","04:00","18.7","","18.1","","96","","19","","26","","","","98.38","","","","","","NA"
"2005-08-20 05:00","2005","08","20","05:00","18.4","","18.4","","100","","21","","22","","","","98.38","","","","","","NA"
"2005-08-20 06:00","2005","08","20","06:00","18.1","","18.1","","100","","26","","19","","","","98.39","","","","","","NA"
"2005-08-20 07:00","2005","08","20","07:00","17.5","","17.5","","100","","28","","11","","","","98.40","","","","","","NA"
"2005-08-20 08:00","2005","08","20","08:00","17.8","","17.7","","99","","32","","11","","","","98.35","","","","","","NA"
"2005-08-20 09:00","2005","08","20","09:00","16.9","","16.9","","100","","31","","9","","","","98.32","","","","","","NA"
"2005-08-20 10:00","2005","08","20","10:00","18.2","","17.4","","95","","23","","6","","","","98.34","","","","","","NA"
"2005-08-20 11:00","2005","08","20","11:00","18.2","","16.8","","92","","26","","15","","","","98.35","","","","","","NA"
"2005-08-20 12:00","2005","08","20","12:00","20.0","","15.8","","77","","26","","15","","","","98.36","","","","","","NA"
"2005-08-20 13:00","2005","08","20","13:00","19.9","","15.7","","77","","26","","19","","","","98.37","","","","","","NA"
"2005-08-20 14:00","2005","08","20","14:00","20.2","","16.0","","77","","20","","20","","","","98.30","","25","","","","NA"
"2005-08-20 15:00","2005","08","20","15:00","18.8","","16.5","","86","","22","","26","","","","98.27","","","","","","NA"
"2005-08-20 16:00","2005","08","20","16:00","19.5","","16.9","","85","","25","","32","","","","98.25","","","","","","NA"
"2005-08-20 17:00","2005","08","20","17:00","18.7","","16.5","","87","","24","","35","","","","98.24","","","","","","NA"
"2005-08-20 18:00","2005","08","20","18:00","19.1","","16.0","","82","","25","","32","","","","98.21","","","","","","NA"
"2005-08-20 19:00","2005","08","20","19:00","18.5","","15.5","","83","","26","","33","","","","98.23","","","","","","NA"
"2005-08-20 20:00","2005","08","20","20:00","18.0","","14.9","","82","","27","","26","","","","98.25","","","","","","NA"
"2005-08-20 21:00","2005","08","20","21:00","17.9","","14.8","","82","","27","","20","","","","98.27","","","","","","NA"
"2005-08-20 22:00","2005","08","20","22:00","17.6","","15.4","","87","","25","","20","","","","98.27","","","","","","NA"
"2005-08-20 23:00","2005","08","20","23:00","18.0","","14.5","","80","","27","","32","","","","98.27","","","","","","NA"
"2005-08-21 00:00","2005","08","21","00:00","17.8","","13.6","","76","","26","","37","","","","98.23","","","","","","NA"
"2005-08-21 01:00","2005","08","21","01:00","17.6","","12.9","","74","","27","","35","","","","98.19","","","","","","NA"
"2005-08-21 02:00","2005","08","21","02:00","15.6","","13.6","","88","","30","","15","","","","98.21","","","","","","NA"
"2005-08-21 03:00","2005","08","21","03:00","15.4","","12.6","","83","","29","","33","","","","98.23","","","","","","NA"
"2005-08-21 04:00","2005","08","21","04:00","15.1","","11.6","","80","","32","","19","","","","98.23","","","","","","NA"
"2005-08-21 05:00","2005","08","21","05:00","14.2","","11.2","","82","","33","","13","","","","98.27","","","","","","NA"
"2005-08-21 06:00","2005","08","21","06:00","13.8","","11.0","","83","","33","","13","","","","98.33","","","","","","NA"
"2005-08-21 07:00","2005","08","21","07:00","13.9","","11.3","","84","","32","","20","","","","98.38","","","","","","NA"
"2005-08-21 08:00","2005","08","21","08:00","14.5","","11.2","","81","","32","","19","","","","98.41","","","","","","NA"
"2005-08-21 09:00","2005","08","21","09:00","15.3","","11.6","","79","","31","","15","","","","98.47","","","","","","NA"
"2005-08-21 10:00","2005","08","21","10:00","16.5","","11.4","","72","","31","","17","","","","98.50","","","","","","NA"
"2005-08-21 11:00","2005","08","21","11:00","15.9","","10.3","","69","","32","","20","","","","98.59","","","","","","NA"
"2005-08-21 12:00","2005","08","21","12:00","16.8","","9.5","","62","","30","","15","","","","98.62","","","","","","NA"
"2005-08-21 13:00","2005","08","21","13:00","16.4","","9.6","","64","","30","","15","","","","98.66","","","","","","NA"
"2005-08-21 14:00","2005","08","21","14:00","16.3","","9.2","","63","","33","","20","","","","98.71","","","","","","NA"
"2005-08-21 15:00","2005","08","21","15:00","16.3","","9.1","","62","","32","","20","","","","98.74","","","","","","NA"
"2005-08-21 16:00","2005","08","21","16:00","16.0","","9.5","","65","","32","","20","","","","98.77","","","","","","NA"
"2005-08-21 17:00","2005","08","21","17:00","15.5","","9.1","","66","","33","","22","","","","98.82","","","","","","NA"
"2005-08-21 18:00","2005","08","21","18:00","14.9","","8.9","","67","","35","","15","","","","98.89","","","","","","NA"
"2005-08-21 19:00","2005","08","21","19:00","13.9","","9.7","","76","","34","","15","","","","98.91","","","","","","NA"
"2005-08-21 20:00","2005","08","21","20:00","13.4","","10.0","","80","","36","","17","","","","98.98","","","","","","NA"
"2005-08-21 21:00","2005","08","21","21:00","12.8","","10.9","","88","","33","","15","","","","99.05","","","","","","NA"
"2005-08-21 22:00","2005","08","21","22:00","12.7","","10.5","","86","","36","","15","","","","99.09","","","","","","NA"
"2005-08-21 23:00","2005","08","21","23:00","12.6","","10.0","","84","","1","","13","","","","99.10","","","","","","NA"
"2005-08-22 00:00","2005","08","22","00:00","11.8","","10.0","","89","","36","","7","","","","99.13","","","","","","NA"
"2005-08-22 01:00","2005","08","22","01:00","11.6","","10.2","","91","","35","","9","","","","99.11","","","","","","NA"
"2005-08-22 02:00","2005","08","22","02:00","11.4","","9.5","","88","","1","","11","","","","99.11","","","","","","NA"
"2005-08-22 03:00","2005","08","22","03:00","10.6","","8.9","","89","","1","","11","","","","99.12","","","","","","NA"
"2005-08-22 04:00","2005","08","22","04:00","10.3","","8.1","","86","","1","","6","","","","99.13","","","","","","NA"
"2005-08-22 05:00","2005","08","22","05:00","9.4","","8.0","","91","","2","","13","","","","99.18","","","","","","NA"
"2005-08-22 06:00","2005","08","22","06:00","9.4","","7.6","","89","","2","","13","","","","99.23","","","","","","NA"
"2005-08-22 07:00","2005","08","22","07:00","9.9","","7.1","","83","","1","","13","","","","99.31","","","","","","NA"
"2005-08-22 08:00","2005","08","22","08:00","10.7","","7.4","","80","","1","","11","","","","99.36","","","","","","NA"
"2005-08-22 09:00","2005","08","22","09:00","11.5","","7.7","","77","","1","","13","","","","99.41","","","","","","NA"
"2005-08-22 10:00","2005","08","22","10:00","12.8","","7.9","","72","","4","","15","","","","99.42","","","","","","NA"
"2005-08-22 11:00","2005","08","22","11:00","16.0","","9.0","","63","","3","","19","","","","99.43","","","","","","NA"
"2005-08-22 12:00","2005","08","22","12:00","16.7","","9.4","","62","","36","","15","","","","99.42","","","","","","NA"
"2005-08-22 13:00","2005","08","22","13:00","19.1","","10.2","","56","","3","","13","","","","99.42","","","","","","NA"
"2005-08-22 14:00","2005","08","22","14:00","20.4","","10.2","","52","","3","","11","","","","99.40","","","","","","NA"
"2005-08-22 15:00","2005","08","22","15:00","20.5","","10.2","","52","","3","","19","","","","99.39","","","","","","NA"
"2005-08-22 16:00","2005","08","22","16:00","21.1","","9.9","","49","","4","","13","","","","99.41","","","","","","NA"
"2005-08-22 17:00","2005","08","22","17:00","21.4","","9.1","","45","","3","","11","","","","99.39","","","","","","NA"
"2005-08-22 18:00","2005","08","22","18:00","21.2","","8.7","","45","","1","","11","","","","99.36","","","","","","NA"
"2005-08-22 19:00","2005","08","22","19:00","20.2","","7.9","","45","","3","","11","","","","99.39","","","","","","NA"
"2005-08-22 20:00","2005","08","22","20:00","18.0","","8.4","","53","","2","","9","","","","99.43","","","","","","NA"
"2005-08-22 21:00","2005","08","22","21:00","15.1","","9.8","","71","","4","","7","","","","99.48","","","","","","NA"
"2005-08-22 22:00","2005","08","22","22:00","13.1","","9.7","","80","","7","","7","","","","99.51","","","","","","NA"
"2005-08-22 23:00","2005","08","22","23:00","11.7","","8.7","","82","","6","","9","","","","99.54","","","","","","NA"
"2005-08-23 00:00","2005","08","23","00:00","10.6","","8.2","","85","","5","","9","","","","99.59","","","","","","NA"
"2005-08-23 01:00","2005","08","23","01:00","10.6","","8.5","","87","","6","","11","","","","99.60","","","","","","NA"
"2005-08-23 02:00","2005","08","23","02:00","10.4","","7.5","","82","","6","","13","","","","99.62","","","","","","NA"
"2005-08-23 03:00","2005","08","23","03:00","9.3","","6.9","","85","","5","","13","","","","99.63","","","","","","NA"
"2005-08-23 04:00","2005","08","23","04:00","8.2","","6.5","","89","","6","","13","","","","99.66","","","","","","NA"
"2005-08-23 05:00","2005","08","23","05:00","7.9","","6.7","","92","","5","","15","","","","99.70","","","","","","NA"
"2005-08-23 06:00","2005","08","23","06:00","8.0","","6.6","","91","","6","","13","","","","99.75","","","","","","NA"
"2005-08-23 07:00","2005","08","23","07:00","9.6","","6.9","","83","","6","","13","","","","99.80","","","","","","NA"
"2005-08-23 08:00","2005","08","23","08:00","12.9","","7.7","","71","","5","","6","","","","99.82","","","","","","NA"
"2005-08-23 09:00","2005","08","23","09:00","16.1","","9.3","","64","","27","","4","","","","99.85","","","","","","NA"
"2005-08-23 10:00","2005","08","23","10:00","17.2","","9.2","","59","","31","","6","","","","99.85","","","","","","NA"
"2005-08-23 11:00","2005","08","23","11:00","17.9","","10.0","","60","","26","","11","","","","99.82","","","","","","NA"
"2005-08-23 12:00","2005","08","23","12:00","18.6","","10.8","","60","","26","","15","","","","99.80","","","","","","NA"
"2005-08-23 13:00","2005","08","23","13:00","20.4","","9.8","","51","","28","","11","","","","99.77","","","","","","NA"
"2005-08-23 14:00","2005","08","23","14:00","19.5","","12.1","","62","","26","","17","","","","99.75","","","","","","NA"
"2005-08-23 15:00","2005","08","23","15:00","19.7","","11.9","","61","","28","","13","","","","99.73","","","","","","NA"
"2005-08-23 16:00","2005","08","23","16:00","18.9","","13.1","","69","","29","","19","","","","99.70","","","","","","NA"
"2005-08-23 17:00","2005","08","23","17:00","18.9","","12.9","","68","","28","","15","","","","99.71","","","","","","NA"
"2005-08-23 18:00","2005","08","23","18:00","18.7","","12.6","","68","","28","","13","","","","99.70","","","","","","NA"
"2005-08-23 19:00","2005","08","23","19:00","18.3","","13.1","","72","","29","","7","","","","99.69","","","","","","NA"
"2005-08-23 20:00","2005","08","23","20:00","15.7","","13.3","","86","","19","","4","","","","99.69","","","","","","NA"
"2005-08-23 21:00","2005","08","23","21:00","14.3","","13.2","","93","","14","","6","","","","99.70","","","","","","NA"
"2005-08-23 22:00","2005","08","23","22:00","13.2","","12.7","","97","","11","","6","","","","99.71","","","","","","NA"
"2005-08-23 23:00","2005","08","23","23:00","12.1","","12.0","","99","","10","","6","","","","99.74","","","","","","NA"
"2005-08-24 00:00","2005","08","24","00:00","11.2","","11.2","","100","","8","","11","","","","99.74","","","","","","NA"
"2005-08-24 01:00","2005","08","24","01:00","11.0","","11.0","","100","","8","","13","","","","99.78","","","","","","NA"
"2005-08-24 02:00","2005","08","24","02:00","10.0","","10.0","","100","","7","","11","","","","99.77","","","","","","NA"
"2005-08-24 03:00","2005","08","24","03:00","9.4","","9.4","","100","","7","","13","","","","99.80","","","","","","NA"
"2005-08-24 04:00","2005","08","24","04:00","9.0","","9.0","","100","","7","","15","","","","99.81","","","","","","NA"
"2005-08-24 05:00","2005","08","24","05:00","8.1","","8.1","","100","","6","","15","","","","99.84","","","","","","NA"
"2005-08-24 06:00","2005","08","24","06:00","7.5","","7.5","","100","","6","","13","","","","99.90","","","","","","NA"
"2005-08-24 07:00","2005","08","24","07:00","9.0","","8.0","","93","","6","","13","","","","99.93","","","","","","NA"
"2005-08-24 08:00","2005","08","24","08:00","13.5","","10.0","","79","","6","","7","","","","99.96","","","","","","NA"
"2005-08-24 09:00","2005","08","24","09:00","17.0","","9.4","","61","","18","","7","","","","100.00","","","","","","NA"
"2005-08-24 10:00","2005","08","24","10:00","18.2","","11.1","","63","","19","","11","","","","100.02","","","","","","NA"
"2005-08-24 11:00","2005","08","24","11:00","18.8","","12.3","","66","","20","","9","","","","100.01","","","","","","NA"
"2005-08-24 12:00","2005","08","24","12:00","19.7","","14.6","","72","","20","","9","","","","99.99","","","","","","NA"
"2005-08-24 13:00","2005","08","24","13:00","20.9","","15.1","","69","","17","","11","","","","99.95","","25","","","","NA"
"2005-08-24 14:00","2005","08","24","14:00","20.4","","15.4","","73","","18","","11","","","","99.90","","25","","","","NA"
"2005-08-24 15:00","2005","08","24","15:00","20.9","","15.6","","72","","20","","11","","","","99.87","","25","","","","NA"
"2005-08-24 16:00","2005","08","24","16:00","19.6","","15.1","","75","","22","","9","","","","99.85","","","","","","NA"
"2005-08-24 17:00","2005","08","24","17:00","19.1","","14.2","","73","","21","","9","","","","99.84","","","","","","NA"
"2005-08-24 18:00","2005","08","24","18:00","19.2","","14.8","","76","","18","","7","","","","99.82","","","","","","NA"
"2005-08-24 19:00","2005","08","24","19:00","17.9","","14.0","","78","","15","","7","","","","99.78","","","","","","NA"
"2005-08-24 20:00","2005","08","24","20:00","16.6","","10.7","","68","","14","","6","","","","99.77","","","","","","NA"
"2005-08-24 21:00","2005","08","24","21:00","14.1","","11.2","","83","","9","","7","","","","99.77","","","","","","NA"
"2005-08-24 22:00","2005","08","24","22:00","13.7","","10.3","","80","","9","","11","","","","99.75","","","","","","NA"
"2005-08-24 23:00","2005","08","24","23:00","12.5","","10.7","","89","","8","","11","","","","99.76","","","","","","NA"
"2005-08-25 00:00","2005","08","25","00:00","11.9","","10.3","","90","","8","","13","","","","99.75","","","","","","NA"
"2005-08-25 01:00","2005","08","25","01:00","16.9","","9.2","","60","","14","","11","","","","99.75","","","","","","NA"
"2005-08-25 02:00","2005","08","25","02:00","17.0","","10.8","","67","","17","","15","","","","99.72","","","","","","NA"
"2005-08-25 03:00","2005","08","25","03:00","16.6","","13.0","","79","","17","","17","","","","99.73","","","","","","NA"
"2005-08-25 04:00","2005","08","25","04:00","16.7","","13.0","","79","","17","","17","","","","99.75","","","","","","NA"
"2005-08-25 05:00","2005","08","25","05:00","16.3","","13.6","","84","","16","","15","","","","99.74","","","","","","NA"
"2005-08-25 06:00","2005","08","25","06:00","15.6","","13.1","","85","","16","","9","","","","99.77","","","","","","NA"
"2005-08-25 07:00","2005","08","25","07:00","16.8","","13.6","","81","","17","","19","","","","99.77","","","","","","NA"
"2005-08-25 08:00","2005","08","25","08:00","17.7","","13.5","","76","","17","","17","","","","99.77","","","","","","NA"
"2005-08-25 09:00","2005","08","25","09:00","18.1","","14.6","","80","","18","","20","","","","99.76","","","","","","NA"
"2005-08-25 10:00","2005","08","25","10:00","19.5","","15.4","","77","","17","","22","","","","99.80","","","","","","NA"
"2005-08-25 11:00","2005","08","25","11:00","19.7","","15.7","","78","","17","","22","","","","99.78","","","","","","NA"
"2005-08-25 12:00","2005","08","25","12:00","20.7","","15.9","","74","","17","","19","","","","99.74","","25","","","","NA"
"2005-08-25 13:00","2005","08","25","13:00","20.9","","16.1","","74","","18","","17","","","","99.72","","26","","","","NA"
"2005-08-25 14:00","2005","08","25","14:00","20.5","","16.9","","80","","18","","19","","","","99.66","","26","","","","NA"
"2005-08-25 15:00","2005","08","25","15:00","20.5","","17.1","","81","","18","","20","","","","99.59","","26","","","","NA"
"2005-08-25 16:00","2005","08","25","16:00","20.7","","17.4","","81","","18","","19","","","","99.53","","26","","","","NA"
"2005-08-25 17:00","2005","08","25","17:00","20.4","","17.5","","83","","18","","9","","","","99.49","","26","","","","NA"
"2005-08-25 18:00","2005","08","25","18:00","19.8","","17.4","","86","","18","","7","","","","99.45","","","","","","NA"
"2005-08-25 19:00","2005","08","25","19:00","18.8","","17.3","","91","","20","","9","","","","99.46","","","","","","NA"
"2005-08-25 20:00","2005","08","25","20:00","17.6","","17.3","","98","","14","","6","","","","99.44","","","","","","NA"
"2005-08-25 21:00","2005","08","25","21:00","18.0","","16.6","","92","","14","","6","","","","99.42","","","","","","NA"
"2005-08-25 22:00","2005","08","25","22:00","17.4","","15.2","","87","","10","","11","","","","99.33","","","","","","NA"
"2005-08-25 23:00","2005","08","25","23:00","16.8","","14.4","","86","","9","","7","","","","99.31","","","","","","NA"
"2005-08-26 00:00","2005","08","26","00:00","17.6","","14.1","","80","","12","","9","","","","99.25","","","","","","NA"
"2005-08-26 01:00","2005","08","26","01:00","18.8","","16.0","","84","","16","","19","","","","99.21","","","","","","NA"
"2005-08-26 02:00","2005","08","26","02:00","18.6","","16.8","","89","","16","","24","","","","99.20","","","","","","NA"
"2005-08-26 03:00","2005","08","26","03:00","18.1","","16.9","","93","","16","","24","","","","99.16","","","","","","NA"
"2005-08-26 04:00","2005","08","26","04:00","18.1","","16.9","","93","","16","","26","","","","99.09","","","","","","NA"
"2005-08-26 05:00","2005","08","26","05:00","17.8","","16.8","","94","","17","","24","","","","99.09","","","","","","NA"
"2005-08-26 06:00","2005","08","26","06:00","17.9","","16.6","","92","","17","","20","","","","99.08","","","","","","NA"
"2005-08-26 07:00","2005","08","26","07:00","18.2","","16.5","","90","","17","","20","","","","99.05","","","","","","NA"
"2005-08-26 08:00","2005","08","26","08:00","18.5","","16.1","","86","","17","","24","","","","99.06","","","","","","NA"
"2005-08-26 09:00","2005","08","26","09:00","19.5","","16.3","","82","","17","","24","","","","99.04","","","","","","NA"
"2005-08-26 10:00","2005","08","26","10:00","20.1","","16.3","","79","","17","","26","","","","99.00","","25","","","","NA"
"2005-08-26 11:00","2005","08","26","11:00","21.0","","16.6","","76","","17","","28","","","","98.93","","26","","","","NA"
"2005-08-26 12:00","2005","08","26","12:00","21.4","","16.3","","73","","18","","20","","","","98.90","","26","","","","NA"
"2005-08-26 13:00","2005","08","26","13:00","21.6","","16.5","","73","","18","","20","","","","98.85","","27","","","","NA"
"2005-08-26 14:00","2005","08","26","14:00","21.0","","15.9","","73","","17","","24","","","","98.78","","26","","","","NA"
"2005-08-26 15:00","2005","08","26","15:00","20.6","","16.2","","76","","20","","30","","","","98.72","","25","","","","NA"
"2005-08-26 16:00","2005","08","26","16:00","20.7","","15.9","","74","","16","","20","","","","98.61","","25","","","","NA"
"2005-08-26 17:00","2005","08","26","17:00","21.1","","16.9","","77","","17","","17","","","","98.54","","26","","","","NA"
"2005-08-26 18:00","2005","08","26","18:00","21.0","","16.6","","76","","16","","17","","","","98.45","","26","","","","NA"
"2005-08-26 19:00","2005","08","26","19:00","22.3","","15.9","","67","","14","","15","","","","98.39","","27","","","","NA"
"2005-08-26 20:00","2005","08","26","20:00","21.7","","15.6","","68","","12","","13","","","","98.34","","26","","","","NA"
"2005-08-26 21:00","2005","08","26","21:00","22.2","","15.6","","66","","14","","19","","","","98.29","","27","","","","NA"
"2005-08-26 22:00","2005","08","26","22:00","20.5","","16.5","","78","","17","","30","","","","98.25","","25","","","","NA"
"2005-08-26 23:00","2005","08","26","23:00","20.0","","16.9","","82","","18","","30","","","","98.25","","25","","","","NA"
"2005-08-27 00:00","2005","08","27","00:00","17.5","","17.5","","100","","17","","32","","","","98.20","","","","","","NA"
"2005-08-27 01:00","2005","08","27","01:00","17.8","","17.8","","100","","17","","32","","","","98.12","","","","","","NA"
"2005-08-27 02:00","2005","08","27","02:00","17.5","","17.5","","100","","16","","32","","","","98.03","","","","","","NA"
"2005-08-27 03:00","2005","08","27","03:00","17.3","","17.3","","100","","17","","33","","","","97.99","","","","","","NA"
"2005-08-27 04:00","2005","08","27","04:00","17.3","","17.3","","100","","20","","32","","","","97.95","","","","","","NA"
"2005-08-27 05:00","2005","08","27","05:00","17.1","","17.1","","100","","23","","22","","","","97.94","","","","","","NA"
"2005-08-27 06:00","2005","08","27","06:00","16.9","","16.9","","100","","26","","19","","","","97.95","","","","","","NA"
"2005-08-27 07:00","2005","08","27","07:00","16.9","","16.9","","100","","27","","11","","","","97.99","","","","","","NA"
"2005-08-27 08:00","2005","08","27","08:00","16.7","","16.7","","100","","22","","11","","","","97.99","","","","","","NA"
"2005-08-27 09:00","2005","08","27","09:00","16.3","","16.3","","100","","24","","20","","","","98.01","","","","","","NA"
"2005-08-27 10:00","2005","08","27","10:00","16.3","","16.3","","100","","22","","17","","","","98.01","","","","","","NA"
"2005-08-27 11:00","2005","08","27","11:00","17.4","","17.0","","97","","24","","15","","","","97.99","","","","","","NA"
"2005-08-27 12:00","2005","08","27","12:00","17.5","","17.1","","98","","22","","22","","","","97.99","","","","","","NA"
"2005-08-27 13:00","2005","08","27","13:00","17.6","","16.8","","95","","22","","19","","","","97.98","","","","","","NA"
"2005-08-27 14:00","2005","08","27","14:00","18.0","","16.2","","89","","21","","20","","","","97.97","","","","","","NA"
"2005-08-27 15:00","2005","08","27","15:00","18.9","","16.0","","83","","20","","19","","","","97.92","","","","","","NA"
"2005-08-27 16:00","2005","08","27","16:00","19.1","","16.2","","83","","20","","17","","","","97.86","","","","","","NA"
"2005-08-27 17:00","2005","08","27","17:00","18.4","","16.2","","87","","20","","15","","","","97.85","","","","","","NA"
"2005-08-27 18:00","2005","08","27","18:00","17.8","","16.5","","92","","20","","13","","","","97.85","","","","","","NA"
"2005-08-27 19:00","2005","08","27","19:00","16.9","","16.8","","99","","20","","15","","","","97.87","","","","","","NA"
"2005-08-27 20:00","2005","08","27","20:00","17.0","","17.0","","100","","21","","19","","","","97.87","","","","","","NA"
"2005-08-27 21:00","2005","08","27","21:00","17.3","","17.3","","100","","22","","26","","","","97.87","","","","","","NA"
"2005-08-27 22:00","2005","08","27","22:00","16.8","","16.8","","100","","18","","11","","","","97.76","","","","","","NA"
"2005-08-27 23:00","2005","08","27","23:00","16.7","","16.7","","100","","19","","17","","","","97.74","","","","","","NA"
"2005-08-28 00:00","2005","08","28","00:00","17.0","","16.8","","99","","21","","20","","","","97.78","","","","","","NA"
"2005-08-28 01:00","2005","08","28","01:00","16.9","","16.8","","99","","22","","20","","","","97.78","","","","","","NA"
"2005-08-28 02:00","2005","08","28","02:00","16.8","","16.6","","99","","24","","17","","","","97.77","","","","","","NA"
"2005-08-28 03:00","2005","08","28","03:00","16.7","","16.6","","99","","26","","11","","","","97.74","","","","","","NA"
"2005-08-28 04:00","2005","08","28","04:00","16.5","","16.5","","100","","28","","11","","","","97.74","","","","","","NA"
"2005-08-28 05:00","2005","08","28","05:00","16.2","","16.2","","100","","27","","13","","","","97.76","","","","","","NA"
"2005-08-28 06:00","2005","08","28","06:00","15.6","","15.1","","97","","28","","13","","","","97.78","","","","","","NA"
"2005-08-28 07:00","2005","08","28","07:00","16.0","","15.6","","97","","26","","20","","","","97.84","","","","","","NA"
"2005-08-28 08:00","2005","08","28","08:00","16.5","","15.5","","94","","26","","22","","","","97.87","","","","","","NA"
"2005-08-28 09:00","2005","08","28","09:00","17.0","","16.1","","94","","26","","20","","","","97.93","","","","","","NA"
"2005-08-28 10:00","2005","08","28","10:00","17.3","","15.1","","87","","28","","20","","","","97.97","","","","","","NA"
"2005-08-28 11:00","2005","08","28","11:00","17.7","","15.4","","86","","27","","20","","","","97.98","","","","","","NA"
"2005-08-28 12:00","2005","08","28","12:00","19.0","","15.2","","79","","26","","19","","","","98.01","","","","","","NA"
"2005-08-28 13:00","2005","08","28","13:00","18.8","","15.5","","81","","25","","22","","","","98.03","","","","","","NA"
"2005-08-28 14:00","2005","08","28","14:00","18.5","","15.7","","84","","25","","26","","","","98.09","","","","","","NA"
"2005-08-28 15:00","2005","08","28","15:00","18.6","","16.0","","85","","24","","30","","","","98.11","","","","","","NA"
"2005-08-28 16:00","2005","08","28","16:00","18.2","","15.6","","85","","24","","30","","","","98.16","","","","","","NA"
"2005-08-28 17:00","2005","08","28","17:00","17.7","","16.2","","91","","23","","28","","","","98.20","","","","","","NA"
"2005-08-28 18:00","2005","08","28","18:00","18.0","","16.6","","92","","23","","26","","","","98.23","","","","","","NA"
"2005-08-28 19:00","2005","08","28","19:00","17.5","","16.7","","95","","25","","26","","","","98.25","","","","","","NA"
"2005-08-28 20:00","2005","08","28","20:00","17.4","","17.0","","97","","25","","26","","","","98.25","","","","","","NA"
"2005-08-28 21:00","2005","08","28","21:00","17.4","","17.2","","99","","25","","19","","","","98.27","","","","","","NA"
"2005-08-28 22:00","2005","08","28","22:00","17.2","","17.0","","99","","26","","20","","","","98.26","","","","","","NA"
"2005-08-28 23:00","2005","08","28","23:00","17.2","","17.0","","99","","28","","15","","","","98.26","","","","","","NA"
"2005-08-29 00:00","2005","08","29","00:00","16.8","","16.5","","98","","33","","9","","","","98.24","","","","","","NA"
"2005-08-29 01:00","2005","08","29","01:00","16.7","","15.9","","95","","32","","4","","","","98.29","","","","","","NA"
"2005-08-29 02:00","2005","08","29","02:00","16.3","","15.2","","93","","29","","7","","","","98.32","","","","","","NA"
"2005-08-29 03:00","2005","08","29","03:00","15.6","","15.6","","100","","9","","2","","","","98.35","","","","","","NA"
"2005-08-29 04:00","2005","08","29","04:00","15.3","","15.3","","100","","12","","2","","","","98.36","","","","","","NA"
"2005-08-29 05:00","2005","08","29","05:00","16.2","","16.2","","100","","21","","24","","","","98.36","","","","","","NA"
"2005-08-29 06:00","2005","08","29","06:00","16.3","","16.1","","99","","22","","22","","","","98.37","","","","","","NA"
"2005-08-29 07:00","2005","08","29","07:00","16.4","","16.0","","97","","24","","19","","","","98.37","","","","","","NA"
"2005-08-29 08:00","2005","08","29","08:00","15.1","","15.0","","99","","30","","17","","","","98.41","","","","","","NA"
"2005-08-29 09:00","2005","08","29","09:00","15.3","","15.3","","100","","29","","7","","","","98.42","","","","","","NA"
"2005-08-29 10:00","2005","08","29","10:00","15.2","","15.2","","100","","24","","6","","","","98.46","","","","","","NA"
"2005-08-29 11:00","2005","08","29","11:00","15.3","","15.3","","100","","23","","2","","","","98.47","","","","","","NA"
"2005-08-29 12:00","2005","08","29","12:00","15.7","","15.7","","100","","10","","2","","","","98.47","","","","","","NA"
"2005-08-29 13:00","2005","08","29","13:00","15.7","","15.7","","100","","16","","2","","","","98.47","","","","","","NA"
"2005-08-29 14:00","2005","08","29","14:00","16.5","","16.5","","100","","17","","9","","","","98.47","","","","","","NA"
"2005-08-29 15:00","2005","08","29","15:00","16.1","","16.1","","100","","22","","15","","","","98.47","","","","","","NA"
"2005-08-29 16:00","2005","08","29","16:00","16.6","","16.4","","99","","24","","7","","","","98.47","","","","","","NA"
"2005-08-29 17:00","2005","08","29","17:00","16.4","","16.2","","99","","23","","6","","","","98.47","","","","","","NA"
"2005-08-29 18:00","2005","08","29","18:00","16.7","","16.3","","97","","22","","6","","","","98.49","","","","","","NA"
"2005-08-29 19:00","2005","08","29","19:00","16.6","","16.3","","98","","27","","4","","","","98.51","","","","","","NA"
"2005-08-29 20:00","2005","08","29","20:00","15.7","","15.7","","100","","30","","7","","","","98.55","","","","","","NA"
"2005-08-29 21:00","2005","08","29","21:00","15.2","","15.2","","100","","36","","4","","","","98.58","","","","","","NA"
"2005-08-29 22:00","2005","08","29","22:00","14.9","","14.9","","100","","1","","4","","","","98.59","","","","","","NA"
"2005-08-29 23:00","2005","08","29","23:00","13.8","","13.8","","100","","7","","6","","","","98.60","","","","","","NA"
"2005-08-30 00:00","2005","08","30","00:00","13.5","","13.5","","100","","7","","6","","","","98.61","","","","","","NA"
"2005-08-30 01:00","2005","08","30","01:00","13.4","","13.4","","100","","3","","11","","","","98.63","","","","","","NA"
"2005-08-30 02:00","2005","08","30","02:00","12.8","","12.8","","100","","2","","7","","","","98.64","","","","","","NA"
"2005-08-30 03:00","2005","08","30","03:00","11.8","","11.8","","100","","3","","4","","","","98.63","","","","","","NA"
"2005-08-30 04:00","2005","08","30","04:00","11.8","","11.8","","100","","5","","7","","","","98.62","","","","","","NA"
"2005-08-30 05:00","2005","08","30","05:00","11.8","","11.8","","100","","7","","7","","","","98.64","","","","","","NA"
"2005-08-30 06:00","2005","08","30","06:00","11.8","","11.8","","100","","4","","9","","","","98.69","","","","","","NA"
"2005-08-30 07:00","2005","08","30","07:00","12.4","","12.4","","100","","1","","6","","","","98.75","","","","","","NA"
"2005-08-30 08:00","2005","08","30","08:00","13.4","","13.4","","100","","8","","4","","","","98.77","","","","","","NA"
"2005-08-30 09:00","2005","08","30","09:00","14.5","","14.5","","100","","9","","2","","","","98.79","","","","","","NA"
"2005-08-30 10:00","2005","08","30","10:00","15.4","","15.4","","100","","3","","9","","","","98.77","","","","","","NA"
"2005-08-30 11:00","2005","08","30","11:00","16.8","","15.9","","94","","5","","7","","","","98.76","","","","","","NA"
"2005-08-30 12:00","2005","08","30","12:00","18.6","","15.6","","83","","3","","9","","","","98.76","","","","","","NA"
"2005-08-30 13:00","2005","08","30","13:00","18.2","","15.8","","86","","8","","15","","","","98.74","","","","","","NA"
"2005-08-30 14:00","2005","08","30","14:00","21.6","","15.5","","68","","10","","6","","","","98.71","","26","","","","NA"
"2005-08-30 15:00","2005","08","30","15:00","20.5","","15.9","","75","","11","","7","","","","98.70","","25","","","","NA"
"2005-08-30 16:00","2005","08","30","16:00","19.0","","16.5","","85","","30","","19","","","","98.66","","","","","","NA"
"2005-08-30 17:00","2005","08","30","17:00","19.8","","16.8","","83","","30","","11","","","","98.64","","","","","","NA"
"2005-08-30 18:00","2005","08","30","18:00","19.0","","17.0","","88","","32","","13","","","","98.63","","","","","","NA"
"2005-08-30 19:00","2005","08","30","19:00","19.1","","16.6","","85","","32","","9","","","","98.64","","","","","","NA"
"2005-08-30 20:00","2005","08","30","20:00","17.7","","16.1","","90","","35","","7","","","","98.67","","","","","","NA"
"2005-08-30 21:00","2005","08","30","21:00","15.8","","15.7","","99","","5","","7","","","","98.68","","","","","","NA"
"2005-08-30 22:00","2005","08","30","22:00","16.5","","15.6","","94","","3","","11","","","","98.68","","","","","","NA"
"2005-08-30 23:00","2005","08","30","23:00","15.8","","15.3","","97","","3","","11","","","","98.69","","","","","","NA"
"2005-08-31 00:00","2005","08","31","00:00","14.6","","14.5","","99","","4","","9","","","","98.67","","","","","","NA"
"2005-08-31 01:00","2005","08","31","01:00","13.8","","13.8","","100","","5","","4","","","","98.67","","","","","","NA"
"2005-08-31 02:00","2005","08","31","02:00","13.1","","13.1","","100","","3","","4","","","","98.65","","","","","","NA"
"2005-08-31 03:00","2005","08","31","03:00","12.8","","12.8","","100","","4","","7","","","","98.64","","","","","","NA"
"2005-08-31 04:00","2005","08","31","04:00","12.6","","12.6","","100","","5","","7","","","","98.64","","","","","","NA"
"2005-08-31 05:00","2005","08","31","05:00","12.7","","12.7","","100","","5","","9","","","","98.65","","","","","","NA"
"2005-08-31 06:00","2005","08","31","06:00","12.1","","12.1","","100","","6","","11","","","","98.68","","","","","","NA"
"2005-08-31 07:00","2005","08","31","07:00","13.3","","13.3","","100","","7","","7","","","","98.69","","","","","","NA"
"2005-08-31 08:00","2005","08","31","08:00","13.5","","13.5","","100","","10","","7","","","","98.72","","","","","","NA"
"2005-08-31 09:00","2005","08","31","09:00","14.2","","14.2","","100","","2","","13","","","","98.75","","","","","","NA"
"2005-08-31 10:00","2005","08","31","10:00","16.1","","15.4","","96","","6","","11","","","","98.73","","","","","","NA"
"2005-08-31 11:00","2005","08","31","11:00","18.7","","15.3","","81","","8","","6","","","","98.71","","","","","","NA"
"2005-08-31 12:00","2005","08","31","12:00","20.2","","15.8","","76","","32","","6","","","","98.64","","25","","","","NA"
"2005-08-31 13:00","2005","08","31","13:00","20.3","","15.3","","73","","5","","11","","","","98.60","","","","","","NA"
"2005-08-31 14:00","2005","08","31","14:00"
"2005-08-31 15:00","2005","08","31","15:00"
"2005-08-31 16:00","2005","08","31","16:00"
"2005-08-31 17:00","2005","08","31","17:00","21.0","","15.9","","73","","28","","9","","","","98.44","","26","","","","NA"
"2005-08-31 18:00","2005","08","31","18:00","20.0","","17.7","","87","","26","","9","","","","98.45","","26","","","","NA"
"2005-08-31 19:00","2005","08","31","19:00","18.7","","17.2","","91","","30","","11","","","","98.48","","","","","","NA"
"2005-08-31 20:00","2005","08","31","20:00","17.7","","17.3","","98","","31","","6","","","","98.47","","","","","","NA"
"2005-08-31 21:00","2005","08","31","21:00","17.4","","17.4","","100","","29","","11","","","","98.50","","","","","","NA"
"2005-08-31 22:00","2005","08","31","22:00","16.8","","16.8","","100","","31","","4","","","","98.45","","","","","","NA"
"2005-08-31 23:00","2005","08","31","23:00","14.9","","14.9","","100","","7","","4","","","","98.43","","","","","","NA"
