"Station Name","PUKASKWA (AUT)"
"Province","ONTARIO"
"Latitude","48.61"
"Longitude","-86.29"
"Elevation","191.50"
"Climate Identifier","6046768"
"WMO Identifier","71750"
"TC Identifier","WCJ"
"All times are specified in Local Standard Time (LST). Add 1 hour to adjust for Daylight Saving Time where and when it is observed."

"Legend"
"E","Estimated"
"M","Missing"
"NA","Not Available"

"Date/Time","Year","Month","Day","Time","Temp (°C)","Temp Flag","Dew Point Temp (°C)","Dew Point Temp Flag","Rel Hum (%)","Rel Hum Flag","Wind Dir (10s deg)","Wind Dir Flag","Wind Spd (km/h)","Wind Spd Flag","Visibility (km)","Visibility Flag","Stn Press (kPa)","Stn Press Flag","Hmdx","Hmdx Flag","Wind Chill","Wind Chill Flag","Weather"
"2018-03-01 00:00","2018","03","01","00:00","-5.3","","-8.2","","80","","4","","8","","","","99.53","","","","-9","","NA"
"2018-03-01 01:00","2018","03","01","01:00","-5.6","","-8.5","","80","","5","","7","","","","99.54","","","","-9","","NA"
"2018-03-01 02:00","2018","03","01","02:00","-5.8","","-8.8","","79","","6","","5","","","","99.56","","","","-8","","NA"
"2018-03-01 03:00","2018","03","01","03:00","-5.9","","-8.8","","80","","6","","5","","","","99.60","","","","-8","","NA"
"2018-03-01 04:00","2018","03","01","04:00","-6.0","","-8.8","","81","","7","","5","","","","99.53","","","","-8","","NA"
"2018-03-01 05:00","2018","03","01","05:00","-6.2","","-9.0","","81","","7","","5","","","","99.53","","","","-9","","NA"
"2018-03-01 06:00","2018","03","01","06:00","-6.8","","-9.7","","80","","5","","6","","","","99.49","","","","-10","","NA"
"2018-03-01 07:00","2018","03","01","07:00","-8.5","","-10.5","","85","","4","","5","","","","99.53","","","","-11","","NA"
"2018-03-01 08:00","2018","03","01","08:00","-8.9","","-10.6","","88","","3","","5","","","","99.59","","","","-12","","NA"
"2018-03-01 09:00","2018","03","01","09:00","-7.2","","-9.5","","83","","5","","8","","","","99.65","","","","-11","","NA"
"2018-03-01 10:00","2018","03","01","10:00","-5.1","","-10.5","","66","","6","","7","","","","99.63","","","","-8","","NA"
"2018-03-01 11:00","2018","03","01","11:00","-3.6","","-11.4","","55","","3","","8","","","","99.61","","","","-7","","NA"
"2018-03-01 12:00","2018","03","01","12:00","-2.0","","-11.1","","50","","2","","8","","","","99.57","","","","-5","","NA"
"2018-03-01 13:00","2018","03","01","13:00","-0.3","","-11.4","","43","","2","","6","","","","99.53","","","","-2","","NA"
"2018-03-01 14:00","2018","03","01","14:00","0.4","","-11.2","","41","","2","","8","","","","99.50","","","","","","NA"
"2018-03-01 15:00","2018","03","01","15:00","1.6","","-11.9","","36","","1","","8","","","","99.50","","","","","","NA"
"2018-03-01 16:00","2018","03","01","16:00","2.0","","-11.0","","37","","1","","7","","","","99.51","","","","","","NA"
"2018-03-01 17:00","2018","03","01","17:00","0.9","","-9.8","","44","","3","","6","","","","99.56","","","","","","NA"
"2018-03-01 18:00","2018","03","01","18:00","-1.6","","-5.8","","73","","31","","5","","","","99.65","","","","-3","","NA"
"2018-03-01 19:00","2018","03","01","19:00","-3.4","","-5.9","","82","","32","","3","","","","99.74","","","","-5","","NA"
"2018-03-01 20:00","2018","03","01","20:00","-4.6","","-6.7","","85","","5","","4","","","","99.79","","","","-6","","NA"
"2018-03-01 21:00","2018","03","01","21:00","-5.6","","-7.7","","85","","5","","5","","","","99.84","","","","-8","","NA"
"2018-03-01 22:00","2018","03","01","22:00","-6.7","","-9.0","","84","","5","","7","","","","99.89","","","","-10","","NA"
"2018-03-01 23:00","2018","03","01","23:00","-6.5","","-10.6","","73","","5","","9","","","","99.95","","","","-11","","NA"
"2018-03-02 00:00","2018","03","02","00:00","-7.4","","-11.6","","72","","5","","9","","","","100.02","","","","-12","","NA"
"2018-03-02 01:00","2018","03","02","01:00","-8.6","","-12.5","","74","","5","","10","","","","100.09","","","","-14","","NA"
"2018-03-02 02:00","2018","03","02","02:00","-9.9","","-13.3","","77","","5","","11","","","","100.17","","","","-15","","NA"
"2018-03-02 03:00","2018","03","02","03:00","-11.0","","-13.9","","79","","5","","12","","","","100.24","","","","-17","","NA"
"2018-03-02 04:00","2018","03","02","04:00","-12.1","","-14.6","","82","","5","","13","","","","100.28","","","","-19","","NA"
"2018-03-02 05:00","2018","03","02","05:00","-13.2","","-15.4","","83","","6","","8","","","","100.34","","","","-18","","NA"
"2018-03-02 06:00","2018","03","02","06:00","-14.3","","-16.2","","86","","4","","10","","","","100.42","","","","-20","","NA"
"2018-03-02 07:00","2018","03","02","07:00","-14.9","","-16.9","","85","","5","","14","","","","100.47","","","","-22","","NA"
"2018-03-02 08:00","2018","03","02","08:00","-15.9","","-17.7","","86","","5","","8","","","","100.59","","","","-21","","NA"
"2018-03-02 09:00","2018","03","02","09:00","-14.1","","-16.8","","80","","4","","6","","","","100.64","","","","-18","","NA"
"2018-03-02 10:00","2018","03","02","10:00","-10.2","","-15.2","","67","","3","","11","","","","100.69","","","","-16","","NA"
"2018-03-02 11:00","2018","03","02","11:00","-6.5","","-14.7","","52","","5","","11","","","","100.71","","","","-11","","NA"
"2018-03-02 12:00","2018","03","02","12:00","-4.1","","-15.1","","42","","3","","7","","","","100.75","","","","-7","","NA"
"2018-03-02 13:00","2018","03","02","13:00","-2.5","","-16.6","","33","","2","","6","","","","100.76","","","","-5","","NA"
"2018-03-02 14:00","2018","03","02","14:00","-0.9","","-17.1","","28","","2","","8","","","","100.74","","","","-4","","NA"
"2018-03-02 15:00","2018","03","02","15:00","0.3","","-16.5","","27","","32","","3","","","","100.75","","","","","","NA"
"2018-03-02 16:00","2018","03","02","16:00","-0.2","","-11.6","","42","","27","","8","","","","100.77","","","","-3","","NA"
"2018-03-02 17:00","2018","03","02","17:00","-1.3","","-10.8","","48","","26","","6","","","","100.79","","","","-4","","NA"
"2018-03-02 18:00","2018","03","02","18:00","-3.4","","-9.6","","62","","29","","2","","","","100.84","","","","-4","","NA"
"2018-03-02 19:00","2018","03","02","19:00","-4.9","","-9.8","","69","","","","0","","","","100.84","","","","","","NA"
"2018-03-02 20:00","2018","03","02","20:00","-7.3","","-11.0","","75","","12","","2","","","","100.90","","","","-8","","NA"
"2018-03-02 21:00","2018","03","02","21:00","-9.8","","-12.7","","79","","5","","3","","","","100.92","","","","-12","","NA"
"2018-03-02 22:00","2018","03","02","22:00","-10.1","","-11.9","","86","","6","","8","","","","100.96","","","","-15","","NA"
"2018-03-02 23:00","2018","03","02","23:00","-9.8","","-12.7","","80","","6","","9","","","","101.00","","","","-15","","NA"
"2018-03-03 00:00","2018","03","03","00:00","-10.7","","-13.9","","77","","6","","8","","","","101.06","","","","-15","","NA"
"2018-03-03 01:00","2018","03","03","01:00","-12.1","","-15.0","","79","","5","","11","","","","101.08","","","","-18","","NA"
"2018-03-03 02:00","2018","03","03","02:00","-12.6","","-15.8","","77","","5","","10","","","","101.11","","","","-18","","NA"
"2018-03-03 03:00","2018","03","03","03:00","-13.5","","-16.7","","77","","5","","10","","","","101.14","","","","-19","","NA"
"2018-03-03 04:00","2018","03","03","04:00","-14.4","","-17.5","","77","","6","","8","","","","101.14","","","","-20","","NA"
"2018-03-03 05:00","2018","03","03","05:00","-14.3","","-17.3","","78","","5","","9","","","","101.14","","","","-20","","NA"
"2018-03-03 06:00","2018","03","03","06:00","-14.6","","-17.4","","79","","6","","8","","","","101.20","","","","-20","","NA"
"2018-03-03 07:00","2018","03","03","07:00","-15.2","","-18.0","","79","","7","","9","","","","101.23","","","","-21","","NA"
"2018-03-03 08:00","2018","03","03","08:00","-15.8","","-18.4","","81","","6","","7","","","","101.30","","","","-21","","NA"
"2018-03-03 09:00","2018","03","03","09:00","-13.4","","-17.1","","73","","4","","10","","","","101.30","","","","-19","","NA"
"2018-03-03 10:00","2018","03","03","10:00","-8.6","","-15.4","","58","","4","","8","","","","101.31","","","","-13","","NA"
"2018-03-03 11:00","2018","03","03","11:00","-3.7","","-15.4","","40","","3","","7","","","","101.33","","","","-7","","NA"
"2018-03-03 12:00","2018","03","03","12:00","-0.8","","-13.6","","37","","27","","5","","","","101.32","","","","-2","","NA"
"2018-03-03 13:00","2018","03","03","13:00","-0.9","","-10.5","","48","","24","","8","","","","101.29","","","","-4","","NA"
"2018-03-03 14:00","2018","03","03","14:00","-0.7","","-11.6","","43","","25","","8","","","","101.24","","","","-4","","NA"
"2018-03-03 15:00","2018","03","03","15:00","-0.7","","-10.0","","49","","25","","8","","","","101.22","","","","-4","","NA"
"2018-03-03 16:00","2018","03","03","16:00","-0.8","","-10.1","","49","","24","","6","","","","101.19","","","","-3","","NA"
"2018-03-03 17:00","2018","03","03","17:00","-1.0","","-7.3","","63","","23","","5","","","","101.21","","","","-3","","NA"
"2018-03-03 18:00","2018","03","03","18:00","-1.9","","-6.5","","71","","26","","3","","","","101.20","","","","-3","","NA"
"2018-03-03 19:00","2018","03","03","19:00","-3.8","","-7.5","","75","","","","0","","","","101.21","","","","","","NA"
"2018-03-03 20:00","2018","03","03","20:00","-5.2","","-7.9","","82","","6","","2","","","","101.19","","","","-6","","NA"
"2018-03-03 21:00","2018","03","03","21:00","-5.9","","-8.4","","82","","4","","5","","","","101.20","","","","-8","","NA"
"2018-03-03 22:00","2018","03","03","22:00","-6.0","","-8.5","","83","","4","","9","","","","101.18","","","","-10","","NA"
"2018-03-03 23:00","2018","03","03","23:00","-6.6","","-10.0","","77","","4","","10","","","","101.19","","","","-11","","NA"
"2018-03-04 00:00","2018","03","04","00:00","-6.6","","-11.4","","69","","4","","12","","","","101.24","","","","-12","","NA"
"2018-03-04 01:00","2018","03","04","01:00","-7.5","","-12.4","","68","","5","","10","","","","101.27","","","","-12","","NA"
"2018-03-04 02:00","2018","03","04","02:00","-7.8","","-13.4","","65","","4","","8","","","","101.31","","","","-12","","NA"
"2018-03-04 03:00","2018","03","04","03:00","-8.5","","-13.8","","66","","4","","13","","","","101.32","","","","-14","","NA"
"2018-03-04 04:00","2018","03","04","04:00","-9.3","","-14.1","","68","","4","","12","","","","101.30","","","","-15","","NA"
"2018-03-04 05:00","2018","03","04","05:00","-9.3","","-14.3","","67","","4","","9","","","","101.30","","","","-14","","NA"
"2018-03-04 06:00","2018","03","04","06:00","-9.6","","-14.7","","66","","4","","12","","","","101.30","","","","-15","","NA"
"2018-03-04 07:00","2018","03","04","07:00","-10.0","","-14.9","","68","","4","","11","","","","101.31","","","","-16","","NA"
"2018-03-04 08:00","2018","03","04","08:00","-10.0","","-15.0","","67","","5","","12","","","","101.29","","","","-16","","NA"
"2018-03-04 09:00","2018","03","04","09:00","-8.8","","-14.8","","62","","5","","9","","","","101.30","","","","-13","","NA"
"2018-03-04 10:00","2018","03","04","10:00","-6.7","","-14.3","","55","","4","","10","","","","101.30","","","","-11","","NA"
"2018-03-04 11:00","2018","03","04","11:00","-4.2","","-14.1","","46","","3","","7","","","","101.27","","","","-7","","NA"
"2018-03-04 12:00","2018","03","04","12:00","-1.3","","-15.0","","35","","3","","9","","","","101.22","","","","-5","","NA"
"2018-03-04 13:00","2018","03","04","13:00","1.3","","-14.9","","29","","4","","8","","","","101.17","","","","","","NA"
"2018-03-04 14:00","2018","03","04","14:00","2.8","","-14.0","","28","","6","","7","","","","101.12","","","","","","NA"
"2018-03-04 15:00","2018","03","04","15:00","3.2","","-13.5","","28","","5","","4","","","","101.06","","","","","","NA"
"2018-03-04 16:00","2018","03","04","16:00","0.8","","-7.9","","52","","23","","10","","","","101.07","","","","","","NA"
"2018-03-04 17:00","2018","03","04","17:00","-0.8","","-7.9","","59","","24","","8","","","","101.05","","","","-4","","NA"
"2018-03-04 18:00","2018","03","04","18:00","-2.4","","-7.4","","69","","28","","3","","","","101.05","","","","-4","","NA"
"2018-03-04 19:00","2018","03","04","19:00","-4.2","","-8.4","","73","","0","","1","","","","101.07","","","","-5","","NA"
"2018-03-04 20:00","2018","03","04","20:00","-5.3","","-8.4","","79","","5","","6","","","","101.07","","","","-8","","NA"
"2018-03-04 21:00","2018","03","04","21:00","-6.1","","-9.3","","78","","4","","7","","","","101.05","","","","-9","","NA"
"2018-03-04 22:00","2018","03","04","22:00","-5.4","","-12.7","","56","","4","","10","","","","101.07","","","","-10","","NA"
"2018-03-04 23:00","2018","03","04","23:00","-6.6","","-14.2","","55","","4","","7","","","","101.05","","","","-10","","NA"
"2018-03-05 00:00","2018","03","05","00:00","-6.9","","-15.6","","50","","3","","8","","","","101.00","","","","-11","","NA"
"2018-03-05 01:00","2018","03","05","01:00","-7.3","","-15.7","","51","","4","","10","","","","101.03","","","","-12","","NA"
"2018-03-05 02:00","2018","03","05","02:00","-9.1","","-15.3","","61","","5","","13","","","","101.02","","","","-15","","NA"
"2018-03-05 03:00","2018","03","05","03:00","-10.0","","-15.9","","62","","5","","13","","","","101.00","","","","-16","","NA"
"2018-03-05 04:00","2018","03","05","04:00","-11.2","","-16.5","","65","","5","","7","","","","100.97","","","","-15","","NA"
"2018-03-05 05:00","2018","03","05","05:00","-12.0","","-16.5","","69","","5","","12","","","","100.95","","","","-18","","NA"
"2018-03-05 06:00","2018","03","05","06:00","-12.9","","-17.0","","71","","5","","13","","","","100.93","","","","-20","","NA"
"2018-03-05 07:00","2018","03","05","07:00","-13.3","","-17.4","","71","","5","","15","","","","100.87","","","","-21","","NA"
"2018-03-05 08:00","2018","03","05","08:00","-13.9","","-17.8","","73","","4","","11","","","","100.84","","","","-20","","NA"
"2018-03-05 09:00","2018","03","05","09:00","-11.9","","-17.2","","64","","5","","12","","","","100.82","","","","-18","","NA"
"2018-03-05 10:00","2018","03","05","10:00","-8.5","","-17.7","","47","","6","","15","","","","100.80","","","","-15","","NA"
"2018-03-05 11:00","2018","03","05","11:00","-5.7","","-19.3","","33","","7","","9","","","","100.80","","","","-10","","NA"
"2018-03-05 12:00","2018","03","05","12:00","-3.6","","-19.1","","29","","3","","10","","","","100.79","","","","-8","","NA"
"2018-03-05 13:00","2018","03","05","13:00","-1.6","","-21.4","","20","","8","","11","","","","100.72","","","","-5","","NA"
"2018-03-05 14:00","2018","03","05","14:00","-0.8","","-18.9","","24","","6","","11","","","","100.56","","","","-5","","NA"
"2018-03-05 15:00","2018","03","05","15:00","-0.4","","-17.6","","26","","6","","14","","","","100.46","","","","-5","","NA"
"2018-03-05 16:00","2018","03","05","16:00","0.2","","-16.2","","28","","5","","9","","","","100.36","","","","","","NA"
"2018-03-05 17:00","2018","03","05","17:00","-0.9","","-16.3","","30","","5","","11","","","","100.25","","","","-5","","NA"
"2018-03-05 18:00","2018","03","05","18:00","-1.9","","-16.3","","33","","6","","12","","","","100.18","","","","-6","","NA"
"2018-03-05 19:00","2018","03","05","19:00","-3.1","","-15.6","","37","","5","","8","","","","100.16","","","","-6","","NA"
"2018-03-05 20:00","2018","03","05","20:00","-4.2","","-15.6","","40","","6","","11","","","","100.10","","","","-9","","NA"
"2018-03-05 21:00","2018","03","05","21:00","-5.6","","-16.0","","44","","5","","10","","","","100.11","","","","-10","","NA"
"2018-03-05 22:00","2018","03","05","22:00","-7.2","","-16.1","","49","","5","","11","","","","100.08","","","","-12","","NA"
"2018-03-05 23:00","2018","03","05","23:00","-8.6","","-16.1","","54","","5","","16","","","","100.02","","","","-15","","NA"
"2018-03-06 00:00","2018","03","06","00:00","-9.9","","-16.5","","58","","4","","12","","","","100.03","","","","-16","","NA"
"2018-03-06 01:00","2018","03","06","01:00","-11.0","","-16.6","","63","","5","","17","","","","99.99","","","","-18","","NA"
"2018-03-06 02:00","2018","03","06","02:00","-12.1","","-17.1","","66","","5","","13","","","","99.99","","","","-19","","NA"
"2018-03-06 03:00","2018","03","06","03:00","-13.3","","-17.6","","70","","5","","16","","","","99.92","","","","-21","","NA"
"2018-03-06 04:00","2018","03","06","04:00","-14.3","","-18.2","","73","","5","","15","","","","99.83","","","","-22","","NA"
"2018-03-06 05:00","2018","03","06","05:00","-15.1","","-18.4","","76","","5","","17","","","","99.78","","","","-24","","NA"
"2018-03-06 06:00","2018","03","06","06:00","-15.7","","-18.6","","79","","4","","15","","","","99.77","","","","-24","","NA"
"2018-03-06 07:00","2018","03","06","07:00","-16.0","","-18.7","","80","","4","","16","","","","99.74","","","","-24","","NA"
"2018-03-06 08:00","2018","03","06","08:00","-15.2","","-18.1","","79","","4","","15","","","","99.70","","","","-23","","NA"
"2018-03-06 09:00","2018","03","06","09:00","-14.1","","-17.6","","75","","4","","19","","","","99.64","","","","-23","","NA"
"2018-03-06 10:00","2018","03","06","10:00","-13.3","","-17.7","","69","","4","","23","","","","99.61","","","","-23","","NA"
"2018-03-06 11:00","2018","03","06","11:00","-12.3","","-16.8","","69","","4","","22","","","","99.57","","","","-21","","NA"
"2018-03-06 12:00","2018","03","06","12:00","-11.0","","-16.0","","67","","4","","18","","","","99.50","","","","-19","","NA"
"2018-03-06 13:00","2018","03","06","13:00","-10.5","","-14.0","","75","","4","","20","","","","99.42","","","","-18","","NA"
"2018-03-06 14:00","2018","03","06","14:00","-9.6","","-14.6","","67","","5","","21","","","","99.33","","","","-18","","NA"
"2018-03-06 15:00","2018","03","06","15:00","-9.1","","-14.4","","65","","5","","19","","","","99.28","","","","-17","","NA"
"2018-03-06 16:00","2018","03","06","16:00","-8.8","","-14.0","","66","","5","","20","","","","99.26","","","","-16","","NA"
"2018-03-06 17:00","2018","03","06","17:00","-8.8","","-13.6","","68","","5","","18","","","","99.25","","","","-16","","NA"
"2018-03-06 18:00","2018","03","06","18:00","-9.3","","-13.4","","72","","4","","19","","","","99.29","","","","-17","","NA"
"2018-03-06 19:00","2018","03","06","19:00","-9.6","","-13.1","","76","","4","","18","","","","99.32","","","","-17","","NA"
"2018-03-06 20:00","2018","03","06","20:00","-9.8","","-12.9","","78","","4","","17","","","","99.32","","","","-17","","NA"
"2018-03-06 21:00","2018","03","06","21:00","-9.7","","-12.8","","78","","4","","16","","","","99.32","","","","-17","","NA"
"2018-03-06 22:00","2018","03","06","22:00","-9.9","","-12.8","","79","","5","","18","","","","99.32","","","","-17","","NA"
"2018-03-06 23:00","2018","03","06","23:00","-10.5","","-12.7","","84","","4","","15","","","","99.30","","","","-17","","NA"
"2018-03-07 00:00","2018","03","07","00:00","-10.9","","-13.4","","82","","4","","15","","","","99.25","","","","-18","","NA"
"2018-03-07 01:00","2018","03","07","01:00","-11.5","","-14.0","","82","","4","","17","","","","99.19","","","","-19","","NA"
"2018-03-07 02:00","2018","03","07","02:00","-11.8","","-14.1","","83","","4","","14","","","","99.17","","","","-19","","NA"
"2018-03-07 03:00","2018","03","07","03:00","-12.3","","-14.9","","81","","4","","17","","","","99.14","","","","-20","","NA"
"2018-03-07 04:00","2018","03","07","04:00","-12.5","","-15.3","","79","","4","","18","","","","99.09","","","","-21","","NA"
"2018-03-07 05:00","2018","03","07","05:00","-12.9","","-15.8","","79","","4","","14","","","","99.08","","","","-20","","NA"
"2018-03-07 06:00","2018","03","07","06:00","-13.0","","-15.9","","79","","5","","18","","","","99.07","","","","-21","","NA"
"2018-03-07 07:00","2018","03","07","07:00","-12.9","","-15.8","","78","","4","","16","","","","99.08","","","","-21","","NA"
"2018-03-07 08:00","2018","03","07","08:00"
"2018-03-07 09:00","2018","03","07","09:00","-12.0","","-14.7","","80","","4","","14","","","","99.04","","","","-19","","NA"
"2018-03-07 10:00","2018","03","07","10:00","-9.9","","-14.1","","71","","3","","13","","","","99.01","","","","-16","","NA"
"2018-03-07 11:00","2018","03","07","11:00","-8.5","","-13.0","","70","","4","","11","","","","99.01","","","","-14","","NA"
"2018-03-07 12:00","2018","03","07","12:00","-6.9","","-11.9","","68","","3","","11","","","","98.95","","","","-12","","NA"
"2018-03-07 13:00","2018","03","07","13:00","-5.0","","-11.4","","61","","3","","10","","","","98.94","","","","-9","","NA"
"2018-03-07 14:00","2018","03","07","14:00","-3.6","","-10.0","","61","","4","","12","","","","98.90","","","","-8","","NA"
"2018-03-07 15:00","2018","03","07","15:00","-2.8","","-9.6","","59","","4","","12","","","","98.92","","","","-7","","NA"
"2018-03-07 16:00","2018","03","07","16:00","-3.1","","-8.9","","64","","4","","10","","","","98.94","","","","-7","","NA"
"2018-03-07 17:00","2018","03","07","17:00","-3.1","","-8.6","","65","","5","","11","","","","98.97","","","","-7","","NA"
"2018-03-07 18:00","2018","03","07","18:00","-3.3","","-8.0","","70","","5","","10","","","","99.06","","","","-7","","NA"
"2018-03-07 19:00","2018","03","07","19:00","-3.9","","-7.8","","74","","4","","8","","","","99.08","","","","-7","","NA"
"2018-03-07 20:00","2018","03","07","20:00","-5.2","","-8.1","","80","","2","","5","","","","99.07","","","","-7","","NA"
"2018-03-07 21:00","2018","03","07","21:00","-4.5","","-7.3","","81","","4","","13","","","","99.09","","","","-10","","NA"
"2018-03-07 22:00","2018","03","07","22:00","-4.8","","-7.6","","81","","4","","11","","","","99.11","","","","-9","","NA"
"2018-03-07 23:00","2018","03","07","23:00","-4.9","","-7.5","","82","","3","","7","","","","99.12","","","","-8","","NA"
"2018-03-08 00:00","2018","03","08","00:00","-4.8","","-7.1","","84","","4","","6","","","","99.11","","","","-8","","NA"
"2018-03-08 01:00","2018","03","08","01:00","-4.9","","-6.9","","86","","1","","5","","","","99.06","","","","-7","","NA"
"2018-03-08 02:00","2018","03","08","02:00","-5.0","","-6.9","","86","","2","","5","","","","99.05","","","","-7","","NA"
"2018-03-08 03:00","2018","03","08","03:00","-5.1","","-6.7","","88","","2","","9","","","","99.02","","","","-9","","NA"
"2018-03-08 04:00","2018","03","08","04:00","-5.4","","-7.1","","88","","3","","7","","","","99.00","","","","-9","","NA"
"2018-03-08 05:00","2018","03","08","05:00","-5.5","","-7.3","","87","","3","","6","","","","99.00","","","","-8","","NA"
"2018-03-08 06:00","2018","03","08","06:00","-5.7","","-7.5","","87","","1","","6","","","","99.01","","","","-9","","NA"
"2018-03-08 07:00","2018","03","08","07:00","-5.7","","-7.5","","87","","2","","8","","","","99.03","","","","-9","","NA"
"2018-03-08 08:00","2018","03","08","08:00","-5.6","","-7.8","","85","","3","","7","","","","99.05","","","","-9","","NA"
"2018-03-08 09:00","2018","03","08","09:00","-5.0","","-8.1","","79","","2","","8","","","","99.03","","","","-9","","NA"
"2018-03-08 10:00","2018","03","08","10:00","-4.1","","-8.7","","70","","3","","10","","","","99.03","","","","-8","","NA"
"2018-03-08 11:00","2018","03","08","11:00","-3.0","","-8.7","","65","","2","","9","","","","99.01","","","","-7","","NA"
"2018-03-08 12:00","2018","03","08","12:00","-1.7","","-8.6","","59","","2","","11","","","","98.98","","","","-6","","NA"
"2018-03-08 13:00","2018","03","08","13:00","-1.1","","-8.5","","57","","2","","10","","","","98.94","","","","-5","","NA"
"2018-03-08 14:00","2018","03","08","14:00","-0.4","","-8.2","","55","","3","","10","","","","98.91","","","","-4","","NA"
"2018-03-08 15:00","2018","03","08","15:00","0.1","","-7.6","","56","","4","","9","","","","98.89","","","","","","NA"
"2018-03-08 16:00","2018","03","08","16:00","0.2","","-7.6","","56","","3","","9","","","","98.89","","","","","","NA"
"2018-03-08 17:00","2018","03","08","17:00","-0.6","","-7.2","","61","","5","","8","","","","98.94","","","","-3","","NA"
"2018-03-08 18:00","2018","03","08","18:00","-1.4","","-5.9","","72","","36","","6","","","","98.98","","","","-4","","NA"
"2018-03-08 19:00","2018","03","08","19:00","-2.0","","-6.6","","71","","1","","5","","","","99.02","","","","-4","","NA"
"2018-03-08 20:00","2018","03","08","20:00","-3.5","","-7.2","","75","","2","","3","","","","99.07","","","","-5","","NA"
"2018-03-08 21:00","2018","03","08","21:00","-5.3","","-8.3","","79","","2","","4","","","","99.06","","","","-7","","NA"
"2018-03-08 22:00","2018","03","08","22:00","-4.8","","-7.3","","82","","3","","6","","","","99.05","","","","-8","","NA"
"2018-03-08 23:00","2018","03","08","23:00","-5.1","","-7.5","","84","","2","","4","","","","99.04","","","","-7","","NA"
"2018-03-09 00:00","2018","03","09","00:00","-5.6","","-8.0","","83","","4","","4","","","","99.00","","","","-7","","NA"
"2018-03-09 01:00","2018","03","09","01:00","-6.8","","-9.3","","82","","35","","2","","","","99.00","","","","-8","","NA"
"2018-03-09 02:00","2018","03","09","02:00","-6.7","","-8.7","","85","","","","0","","","","99.00","","","","","","NA"
"2018-03-09 03:00","2018","03","09","03:00","-9.3","","-10.9","","88","","2","","3","","","","99.00","","","","-11","","NA"
"2018-03-09 04:00","2018","03","09","04:00","-10.8","","-12.0","","91","","4","","7","","","","99.02","","","","-15","","NA"
"2018-03-09 05:00","2018","03","09","05:00","-9.4","","-10.6","","90","","4","","10","","","","99.03","","","","-15","","NA"
"2018-03-09 06:00","2018","03","09","06:00","-9.3","","-10.8","","89","","4","","8","","","","99.05","","","","-14","","NA"
"2018-03-09 07:00","2018","03","09","07:00","-8.5","","-10.0","","89","","4","","9","","","","99.07","","","","-13","","NA"
"2018-03-09 08:00","2018","03","09","08:00","-8.8","","-10.5","","87","","3","","5","","","","99.09","","","","-12","","NA"
"2018-03-09 09:00","2018","03","09","09:00","-7.3","","-9.7","","83","","3","","6","","","","99.09","","","","-10","","NA"
"2018-03-09 10:00","2018","03","09","10:00","-5.5","","-9.9","","71","","2","","7","","","","99.08","","","","-9","","NA"
"2018-03-09 11:00","2018","03","09","11:00","-3.7","","-10.8","","58","","3","","10","","","","99.09","","","","-8","","NA"
"2018-03-09 12:00","2018","03","09","12:00","-2.8","","-11.2","","52","","34","","8","","","","99.07","","","","-6","","NA"
"2018-03-09 13:00","2018","03","09","13:00","-2.0","","-12.6","","44","","2","","10","","","","99.04","","","","-6","","NA"
"2018-03-09 14:00","2018","03","09","14:00","-1.8","","-12.3","","45","","2","","6","","","","99.03","","","","-4","","NA"
"2018-03-09 15:00","2018","03","09","15:00","-1.7","","-12.1","","45","","1","","8","","","","99.03","","","","-5","","NA"
"2018-03-09 16:00","2018","03","09","16:00","-1.8","","-12.1","","45","","36","","5","","","","99.05","","","","-4","","NA"
"2018-03-09 17:00","2018","03","09","17:00","-2.4","","-12.1","","48","","36","","8","","","","99.10","","","","-6","","NA"
"2018-03-09 18:00","2018","03","09","18:00","-2.8","","-11.4","","52","","1","","8","","","","99.15","","","","-6","","NA"
"2018-03-09 19:00","2018","03","09","19:00","-3.7","","-10.8","","58","","36","","4","","","","99.18","","","","-5","","NA"
"2018-03-09 20:00","2018","03","09","20:00","-4.0","","-9.2","","67","","1","","4","","","","99.23","","","","-6","","NA"
"2018-03-09 21:00","2018","03","09","21:00","-4.4","","-9.3","","68","","2","","3","","","","99.27","","","","-6","","NA"
"2018-03-09 22:00","2018","03","09","22:00","-5.0","","-9.1","","73","","1","","3","","","","99.28","","","","-6","","NA"
"2018-03-09 23:00","2018","03","09","23:00","-5.3","","-9.3","","73","","2","","2","","","","99.29","","","","-6","","NA"
"2018-03-10 00:00","2018","03","10","00:00","-5.1","","-9.3","","72","","3","","6","","","","99.30","","","","-8","","NA"
"2018-03-10 01:00","2018","03","10","01:00","-5.5","","-9.5","","73","","4","","7","","","","99.34","","","","-9","","NA"
"2018-03-10 02:00","2018","03","10","02:00","-5.8","","-10.0","","72","","5","","5","","","","99.38","","","","-8","","NA"
"2018-03-10 03:00","2018","03","10","03:00","-6.3","","-10.0","","75","","8","","3","","","","99.41","","","","-8","","NA"
"2018-03-10 04:00","2018","03","10","04:00","-6.7","","-10.3","","76","","8","","3","","","","99.42","","","","-8","","NA"
"2018-03-10 05:00","2018","03","10","05:00","-6.9","","-10.5","","75","","5","","5","","","","99.46","","","","-9","","NA"
"2018-03-10 06:00","2018","03","10","06:00","-7.1","","-10.5","","76","","5","","3","","","","99.51","","","","-9","","NA"
"2018-03-10 07:00","2018","03","10","07:00","-7.4","","-10.6","","78","","5","","4","","","","99.54","","","","-9","","NA"
"2018-03-10 08:00","2018","03","10","08:00","-7.3","","-10.5","","78","","","","0","","","","99.60","","","","","","NA"
"2018-03-10 09:00","2018","03","10","09:00","-6.7","","-10.8","","73","","1","","3","","","","99.63","","","","-8","","NA"
"2018-03-10 10:00","2018","03","10","10:00","-5.4","","-11.3","","63","","4","","7","","","","99.65","","","","-9","","NA"
"2018-03-10 11:00","2018","03","10","11:00","-4.4","","-12.3","","54","","10","","3","","","","99.65","","","","-6","","NA"
"2018-03-10 12:00","2018","03","10","12:00","-4.2","","-12.5","","52","","31","","6","","","","99.67","","","","-7","","NA"
"2018-03-10 13:00","2018","03","10","13:00","-3.5","","-12.8","","48","","31","","6","","","","99.65","","","","-6","","NA"
"2018-03-10 14:00","2018","03","10","14:00","-3.0","","-12.3","","49","","27","","10","","","","99.63","","","","-7","","NA"
"2018-03-10 15:00","2018","03","10","15:00","-1.9","","-11.6","","47","","24","","9","","","","99.62","","","","-5","","NA"
"2018-03-10 16:00","2018","03","10","16:00","-2.1","","-11.4","","49","","25","","7","","","","99.66","","","","-5","","NA"
"2018-03-10 17:00","2018","03","10","17:00","-2.5","","-10.4","","55","","26","","7","","","","99.68","","","","-5","","NA"
"2018-03-10 18:00","2018","03","10","18:00","-3.5","","-9.5","","63","","27","","5","","","","99.72","","","","-6","","NA"
"2018-03-10 19:00","2018","03","10","19:00","-4.6","","-9.4","","69","","27","","2","","","","99.77","","","","-5","","NA"
"2018-03-10 20:00","2018","03","10","20:00","-5.5","","-9.7","","72","","4","","1","","","","99.80","","","","-6","","NA"
"2018-03-10 21:00","2018","03","10","21:00","-4.8","","-11.1","","62","","5","","7","","","","99.86","","","","-8","","NA"
"2018-03-10 22:00","2018","03","10","22:00","-6.4","","-12.4","","63","","6","","4","","","","99.87","","","","-8","","NA"
"2018-03-10 23:00","2018","03","10","23:00","-8.2","","-12.9","","69","","4","","5","","","","99.90","","","","-11","","NA"
"2018-03-11 00:00","2018","03","11","00:00","-10.2","","-13.6","","76","","4","","3","","","","99.91","","","","-12","","NA"
"2018-03-11 01:00","2018","03","11","01:00","-11.5","","-14.6","","78","","5","","9","","","","99.94","","","","-17","","NA"
"2018-03-11 02:00","2018","03","11","02:00","-13.4","","-16.0","","81","","5","","10","","","","99.96","","","","-19","","NA"
"2018-03-11 03:00","2018","03","11","03:00","-14.4","","-16.7","","83","","4","","10","","","","99.95","","","","-21","","NA"
"2018-03-11 04:00","2018","03","11","04:00","-15.8","","-17.8","","84","","5","","11","","","","99.93","","","","-23","","NA"
"2018-03-11 05:00","2018","03","11","05:00","-16.8","","-18.6","","85","","5","","12","","","","99.93","","","","-24","","NA"
"2018-03-11 06:00","2018","03","11","06:00","-17.8","","-19.7","","85","","6","","11","","","","99.96","","","","-25","","NA"
"2018-03-11 07:00","2018","03","11","07:00","-18.5","","-20.4","","85","","5","","11","","","","100.00","","","","-26","","NA"
"2018-03-11 08:00","2018","03","11","08:00","-18.5","","-20.6","","84","","5","","11","","","","100.01","","","","-26","","NA"
"2018-03-11 09:00","2018","03","11","09:00","-15.4","","-18.5","","77","","5","","8","","","","100.02","","","","-21","","NA"
"2018-03-11 10:00","2018","03","11","10:00","-9.0","","-15.8","","58","","4","","6","","","","99.97","","","","-12","","NA"
"2018-03-11 11:00","2018","03","11","11:00","-2.9","","-15.4","","38","","28","","3","","","","99.93","","","","-4","","NA"
"2018-03-11 12:00","2018","03","11","12:00","-2.1","","-13.1","","43","","25","","9","","","","99.92","","","","-6","","NA"
"2018-03-11 13:00","2018","03","11","13:00","-1.5","","-12.2","","44","","25","","8","","","","99.89","","","","-5","","NA"
"2018-03-11 14:00","2018","03","11","14:00","-0.9","","-10.9","","47","","24","","8","","","","99.82","","","","-4","","NA"
"2018-03-11 15:00","2018","03","11","15:00","-0.8","","-9.0","","54","","24","","13","","","","99.76","","","","-5","","NA"
"2018-03-11 16:00","2018","03","11","16:00","-1.2","","-7.1","","64","","23","","9","","","","99.69","","","","-4","","NA"
"2018-03-11 17:00","2018","03","11","17:00","-1.6","","-5.9","","73","","24","","9","","","","99.66","","","","-5","","NA"
"2018-03-11 18:00","2018","03","11","18:00","-2.1","","-6.2","","74","","23","","8","","","","99.63","","","","-5","","NA"
"2018-03-11 19:00","2018","03","11","19:00","-2.4","","-6.7","","72","","23","","5","","","","99.58","","","","-4","","NA"
"2018-03-11 20:00","2018","03","11","20:00","-2.5","","-6.0","","77","","23","","5","","","","99.54","","","","-4","","NA"
"2018-03-11 21:00","2018","03","11","21:00","-2.8","","-3.6","","94","","20","","3","","","","99.49","","","","-4","","NA"
"2018-03-11 22:00","2018","03","11","22:00","-2.6","","-2.9","","98","","20","","3","","","","99.42","","","","-4","","NA"
"2018-03-11 23:00","2018","03","11","23:00","-2.6","","-2.7","","99","","18","","5","","","","99.36","","","","-5","","NA"
"2018-03-12 00:00","2018","03","12","00:00","-2.4","","-2.4","","100","","19","","4","","","","99.30","","","","-4","","NA"
"2018-03-12 01:00","2018","03","12","01:00","-2.4","","-2.4","","100","","20","","3","","","","99.28","","","","-4","","NA"
"2018-03-12 02:00","2018","03","12","02:00","-2.8","","-2.8","","100","","21","","1","","","","99.27","","","","-3","","NA"
"2018-03-12 03:00","2018","03","12","03:00","-2.8","","-2.8","","100","","","","0","","","","99.25","","","","","","NA"
"2018-03-12 04:00","2018","03","12","04:00","-3.4","","-3.4","","100","","","","0","","","","99.22","","","","","","NA"
"2018-03-12 05:00","2018","03","12","05:00","-3.9","","-3.9","","100","","7","","2","","","","99.23","","","","-5","","NA"
"2018-03-12 06:00","2018","03","12","06:00","-5.3","","-5.3","","100","","6","","5","","","","99.29","","","","-8","","NA"
"2018-03-12 07:00","2018","03","12","07:00","-6.7","","-6.8","","99","","5","","6","","","","99.30","","","","-10","","NA"
"2018-03-12 08:00","2018","03","12","08:00","-7.7","","-8.0","","98","","5","","7","","","","99.33","","","","-11","","NA"
"2018-03-12 09:00","2018","03","12","09:00","-6.3","","-6.7","","97","","4","","6","","","","99.37","","","","-9","","NA"
"2018-03-12 10:00","2018","03","12","10:00","-3.7","","-6.2","","83","","4","","6","","","","99.38","","","","-6","","NA"
"2018-03-12 11:00","2018","03","12","11:00","-1.8","","-6.5","","70","","36","","7","","","","99.41","","","","-4","","NA"
"2018-03-12 12:00","2018","03","12","12:00","0.0","","-6.1","","64","","2","","8","","","","99.43","","","","-3","","NA"
"2018-03-12 13:00","2018","03","12","13:00","-0.2","","-6.2","","64","","1","","8","","","","99.46","","","","-3","","NA"
"2018-03-12 14:00","2018","03","12","14:00","0.3","","-7.0","","58","","2","","9","","","","99.47","","","","","","NA"
"2018-03-12 15:00","2018","03","12","15:00","0.3","","-7.2","","57","","1","","9","","","","99.48","","","","","","NA"
"2018-03-12 16:00","2018","03","12","16:00","-0.5","","-6.7","","63","","1","","7","","","","99.53","","","","-3","","NA"
"2018-03-12 17:00","2018","03","12","17:00","-1.3","","-7.3","","64","","35","","9","","","","99.59","","","","-5","","NA"
"2018-03-12 18:00","2018","03","12","18:00","-1.8","","-7.4","","66","","1","","8","","","","99.65","","","","-5","","NA"
"2018-03-12 19:00","2018","03","12","19:00","-3.3","","-7.8","","71","","36","","6","","","","99.70","","","","-6","","NA"
"2018-03-12 20:00","2018","03","12","20:00","-3.6","","-6.2","","83","","36","","10","","","","99.77","","","","-8","","NA"
"2018-03-12 21:00","2018","03","12","21:00","-4.8","","-8.3","","76","","36","","13","","","","99.83","","","","-10","","NA"
"2018-03-12 22:00","2018","03","12","22:00","-5.7","","-9.0","","78","","2","","12","","","","99.85","","","","-11","","NA"
"2018-03-12 23:00","2018","03","12","23:00","-7.2","","-10.5","","78","","1","","10","","","","99.90","","","","-12","","NA"
"2018-03-13 00:00","2018","03","13","00:00","-8.2","","-11.7","","76","","2","","10","","","","99.90","","","","-13","","NA"
"2018-03-13 01:00","2018","03","13","01:00","-9.3","","-12.5","","78","","2","","8","","","","99.92","","","","-14","","NA"
"2018-03-13 02:00","2018","03","13","02:00","-9.8","","-12.4","","81","","2","","7","","","","99.96","","","","-14","","NA"
"2018-03-13 03:00","2018","03","13","03:00","-9.7","","-12.6","","80","","2","","8","","","","99.95","","","","-14","","NA"
"2018-03-13 04:00","2018","03","13","04:00","-10.0","","-13.2","","77","","3","","9","","","","99.94","","","","-15","","NA"
"2018-03-13 05:00","2018","03","13","05:00","-10.8","","-13.5","","81","","2","","10","","","","99.97","","","","-16","","NA"
"2018-03-13 06:00","2018","03","13","06:00","-11.5","","-14.2","","80","","2","","10","","","","100.04","","","","-17","","NA"
"2018-03-13 07:00","2018","03","13","07:00","-12.2","","-14.5","","83","","3","","9","","","","100.09","","","","-17","","NA"
"2018-03-13 08:00","2018","03","13","08:00","-11.9","","-14.7","","80","","4","","11","","","","100.12","","","","-18","","NA"
"2018-03-13 09:00","2018","03","13","09:00","-10.8","","-14.8","","72","","3","","11","","","","100.17","","","","-17","","NA"
"2018-03-13 10:00","2018","03","13","10:00","-9.2","","-15.3","","62","","4","","12","","","","100.22","","","","-15","","NA"
"2018-03-13 11:00","2018","03","13","11:00","-7.5","","-14.8","","56","","4","","13","","","","100.21","","","","-13","","NA"
"2018-03-13 12:00","2018","03","13","12:00","-6.0","","-14.9","","49","","4","","12","","","","100.19","","","","-11","","NA"
"2018-03-13 13:00","2018","03","13","13:00","-5.8","","-14.8","","49","","4","","14","","","","100.14","","","","-11","","NA"
"2018-03-13 14:00","2018","03","13","14:00","-4.4","","-14.9","","44","","2","","10","","","","100.05","","","","-9","","NA"
"2018-03-13 15:00","2018","03","13","15:00","-3.2","","-15.7","","37","","2","","9","","","","99.99","","","","-7","","NA"
"2018-03-13 16:00","2018","03","13","16:00","-2.3","","-15.2","","36","","36","","5","","","","99.92","","","","-4","","NA"
"2018-03-13 17:00","2018","03","13","17:00","-2.9","","-15.1","","38","","1","","5","","","","99.90","","","","-5","","NA"
"2018-03-13 18:00","2018","03","13","18:00","-4.2","","-11.7","","56","","30","","5","","","","99.87","","","","-6","","NA"
"2018-03-13 19:00","2018","03","13","19:00","-5.8","","-10.9","","67","","30","","4","","","","99.86","","","","-8","","NA"
"2018-03-13 20:00","2018","03","13","20:00","-8.1","","-11.9","","74","","31","","2","","","","99.82","","","","-9","","NA"
"2018-03-13 21:00","2018","03","13","21:00","-10.0","","-13.8","","73","","","","0","","","","99.77","","","","","","NA"
"2018-03-13 22:00","2018","03","13","22:00","-12.7","","-15.9","","77","","0","","1","","","","99.69","","","","-13","","NA"
"2018-03-13 23:00","2018","03","13","23:00","-14.7","","-17.1","","82","","4","","3","","","","99.59","","","","-17","","NA"
"2018-03-14 00:00","2018","03","14","00:00","-14.5","","-16.2","","87","","5","","5","","","","99.49","","","","-18","","NA"
"2018-03-14 01:00","2018","03","14","01:00","-15.0","","-16.9","","86","","6","","6","","","","99.40","","","","-19","","NA"
"2018-03-14 02:00","2018","03","14","02:00","-15.0","","-17.0","","85","","5","","4","","","","99.34","","","","-18","","NA"
"2018-03-14 03:00","2018","03","14","03:00","-15.1","","-17.4","","82","","5","","3","","","","99.22","","","","-17","","NA"
"2018-03-14 04:00","2018","03","14","04:00","-14.6","","-17.1","","81","","4","","3","","","","99.09","","","","-17","","NA"
"2018-03-14 05:00","2018","03","14","05:00","-13.0","","-15.5","","82","","24","","4","","","","98.98","","","","-16","","NA"
"2018-03-14 06:00","2018","03","14","06:00","-4.3","","-6.1","","87","","22","","12","","","","98.88","","","","-9","","NA"
"2018-03-14 07:00","2018","03","14","07:00","-4.7","","-6.9","","84","","21","","9","","","","98.80","","","","-9","","NA"
"2018-03-14 08:00","2018","03","14","08:00","-3.8","","-7.4","","76","","20","","11","","","","98.70","","","","-8","","NA"
"2018-03-14 09:00","2018","03","14","09:00","-2.7","","-6.6","","75","","20","","12","","","","98.60","","","","-7","","NA"
"2018-03-14 10:00","2018","03","14","10:00","-1.2","","-5.9","","70","","20","","13","","","","98.55","","","","-5","","NA"
"2018-03-14 11:00","2018","03","14","11:00","-0.5","","-6.0","","66","","21","","13","","","","98.48","","","","-5","","NA"
"2018-03-14 12:00","2018","03","14","12:00","-0.6","","-5.5","","69","","21","","11","","","","98.45","","","","-4","","NA"
"2018-03-14 13:00","2018","03","14","13:00","0.1","","-6.5","","61","","20","","9","","","","98.40","","","","","","NA"
"2018-03-14 14:00","2018","03","14","14:00","0.9","","-7.2","","54","","23","","8","","","","98.35","","","","","","NA"
"2018-03-14 15:00","2018","03","14","15:00","0.0","","-6.5","","62","","25","","8","","","","98.33","","","","-3","","NA"
"2018-03-14 16:00","2018","03","14","16:00","0.7","","-6.6","","58","","24","","8","","","","98.34","","","","","","NA"
"2018-03-14 17:00","2018","03","14","17:00","-0.7","","-4.4","","76","","28","","6","","","","98.38","","","","-3","","NA"
"2018-03-14 18:00","2018","03","14","18:00","-1.2","","-3.3","","86","","33","","3","","","","98.43","","","","-2","","NA"
"2018-03-14 19:00","2018","03","14","19:00","-1.6","","-5.6","","74","","1","","8","","","","98.46","","","","-5","","NA"
"2018-03-14 20:00","2018","03","14","20:00","-3.5","","-5.7","","85","","1","","1","","","","98.52","","","","-4","","NA"
"2018-03-14 21:00","2018","03","14","21:00","-1.7","","-5.8","","74","","1","","6","","","","98.56","","","","-4","","NA"
"2018-03-14 22:00","2018","03","14","22:00","-3.0","","-6.9","","74","","1","","11","","","","98.61","","","","-7","","NA"
"2018-03-14 23:00","2018","03","14","23:00","-4.5","","-9.0","","71","","1","","13","","","","98.68","","","","-10","","NA"
"2018-03-15 00:00","2018","03","15","00:00","-5.9","","-10.3","","71","","2","","10","","","","98.69","","","","-10","","NA"
"2018-03-15 01:00","2018","03","15","01:00","-6.9","","-11.0","","72","","1","","13","","","","98.68","","","","-12","","NA"
"2018-03-15 02:00","2018","03","15","02:00","-8.2","","-12.9","","69","","3","","10","","","","98.75","","","","-13","","NA"
"2018-03-15 03:00","2018","03","15","03:00","-9.2","","-13.5","","71","","2","","11","","","","98.74","","","","-15","","NA"
"2018-03-15 04:00","2018","03","15","04:00","-9.6","","-12.8","","78","","2","","7","","","","98.76","","","","-14","","NA"
"2018-03-15 05:00","2018","03","15","05:00","-10.2","","-14.2","","72","","2","","10","","","","98.79","","","","-15","","NA"
"2018-03-15 06:00","2018","03","15","06:00","-10.8","","-15.7","","67","","2","","9","","","","98.84","","","","-16","","NA"
"2018-03-15 07:00","2018","03","15","07:00","-11.2","","-15.9","","68","","1","","10","","","","98.90","","","","-17","","NA"
"2018-03-15 08:00","2018","03","15","08:00","-11.6","","-16.8","","65","","1","","9","","","","98.95","","","","-17","","NA"
"2018-03-15 09:00","2018","03","15","09:00","-11.4","","-17.2","","62","","1","","11","","","","98.98","","","","-17","","NA"
"2018-03-15 10:00","2018","03","15","10:00","-10.7","","-17.7","","56","","3","","14","","","","99.01","","","","-17","","NA"
"2018-03-15 11:00","2018","03","15","11:00","-9.8","","-17.6","","53","","36","","10","","","","99.01","","","","-15","","NA"
"2018-03-15 12:00","2018","03","15","12:00","-8.6","","-17.9","","47","","1","","10","","","","99.04","","","","-14","","NA"
"2018-03-15 13:00","2018","03","15","13:00","-8.0","","-18.2","","44","","36","","11","","","","99.04","","","","-13","","NA"
"2018-03-15 14:00","2018","03","15","14:00","-7.6","","-18.5","","41","","3","","12","","","","99.05","","","","-13","","NA"
"2018-03-15 15:00","2018","03","15","15:00","-7.0","","-18.3","","40","","1","","13","","","","99.07","","","","-13","","NA"
"2018-03-15 16:00","2018","03","15","16:00","-6.5","","-18.4","","38","","36","","12","","","","99.12","","","","-12","","NA"
"2018-03-15 17:00","2018","03","15","17:00","-6.7","","-18.0","","40","","2","","9","","","","99.17","","","","-11","","NA"
"2018-03-15 18:00","2018","03","15","18:00","-7.9","","-17.1","","48","","35","","9","","","","99.25","","","","-12","","NA"
"2018-03-15 19:00","2018","03","15","19:00","-9.3","","-17.1","","53","","36","","7","","","","99.35","","","","-13","","NA"
"2018-03-15 20:00","2018","03","15","20:00","-10.3","","-17.3","","57","","1","","7","","","","99.44","","","","-14","","NA"
"2018-03-15 21:00","2018","03","15","21:00","-12.6","","-17.9","","64","","1","","3","","","","99.50","","","","-15","","NA"
"2018-03-15 22:00","2018","03","15","22:00","-14.9","","-19.8","","66","","","","0","","","","99.55","","","","","","NA"
"2018-03-15 23:00","2018","03","15","23:00","-17.0","","-20.7","","73","","2","","3","","","","99.59","","","","-19","","NA"
"2018-03-16 00:00","2018","03","16","00:00","-18.7","","-21.9","","76","","4","","6","","","","99.63","","","","-24","","NA"
"2018-03-16 01:00","2018","03","16","01:00","-20.0","","-22.9","","77","","4","","6","","","","99.65","","","","-25","","NA"
"2018-03-16 02:00","2018","03","16","02:00","-18.8","","-21.1","","83","","5","","8","","","","99.70","","","","-25","","NA"
"2018-03-16 03:00","2018","03","16","03:00","-19.5","","-22.3","","78","","7","","6","","","","99.72","","","","-24","","NA"
"2018-03-16 04:00","2018","03","16","04:00","-22.2","","-24.9","","79","","5","","4","","","","99.78","","","","-26","","NA"
"2018-03-16 05:00","2018","03","16","05:00","-22.5","","-24.8","","82","","4","","5","","","","99.79","","","","-27","","NA"
"2018-03-16 06:00","2018","03","16","06:00","-22.4","","-24.7","","82","","5","","7","","","","99.82","","","","-28","","NA"
"2018-03-16 07:00","2018","03","16","07:00","-22.5","","-24.9","","81","","6","","7","","","","99.85","","","","-29","","NA"
"2018-03-16 08:00","2018","03","16","08:00","-21.4","","-24.0","","79","","6","","6","","","","99.84","","","","-27","","NA"
"2018-03-16 09:00","2018","03","16","09:00","-18.3","","-22.1","","72","","6","","2","","","","99.80","","","","-20","","NA"
"2018-03-16 10:00","2018","03","16","10:00","-8.6","","-15.8","","56","","24","","5","","","","99.74","","","","-11","","NA"
"2018-03-16 11:00","2018","03","16","11:00","-5.6","","-17.4","","39","","25","","8","","","","99.69","","","","-9","","NA"
"2018-03-16 12:00","2018","03","16","12:00","-4.2","","-18.5","","32","","25","","12","","","","99.64","","","","-9","","NA"
"2018-03-16 13:00","2018","03","16","13:00","-2.4","","-15.4","","36","","26","","11","","","","99.57","","","","-6","","NA"
"2018-03-16 14:00","2018","03","16","14:00","-1.7","","-13.4","","40","","26","","14","","","","99.51","","","","-6","","NA"
"2018-03-16 15:00","2018","03","16","15:00","-1.1","","-12.3","","42","","26","","15","","","","99.46","","","","-6","","NA"
"2018-03-16 16:00","2018","03","16","16:00","-0.7","","-10.3","","48","","27","","18","","","","99.41","","","","-6","","NA"
"2018-03-16 17:00","2018","03","16","17:00","-0.7","","-8.2","","57","","27","","15","","","","99.36","","","","-5","","NA"
"2018-03-16 18:00","2018","03","16","18:00","-1.3","","-6.8","","66","","30","","8","","","","99.32","","","","-4","","NA"
"2018-03-16 19:00","2018","03","16","19:00","-1.6","","-6.2","","71","","29","","13","","","","99.31","","","","-6","","NA"
"2018-03-16 20:00","2018","03","16","20:00","-3.5","","-7.3","","75","","31","","3","","","","99.30","","","","-5","","NA"
"2018-03-16 21:00","2018","03","16","21:00","-5.0","","-7.7","","82","","28","","4","","","","99.26","","","","-7","","NA"
"2018-03-16 22:00","2018","03","16","22:00","-6.8","","-9.0","","84","","0","","1","","","","99.23","","","","-7","","NA"
"2018-03-16 23:00","2018","03","16","23:00","-8.6","","-10.2","","88","","","","0","","","","99.21","","","","","","NA"
"2018-03-17 00:00","2018","03","17","00:00","-11.1","","-12.5","","90","","4","","3","","","","99.19","","","","-13","","NA"
"2018-03-17 01:00","2018","03","17","01:00","-13.1","","-14.5","","89","","3","","4","","","","99.18","","","","-16","","NA"
"2018-03-17 02:00","2018","03","17","02:00","-13.6","","-14.3","","94","","6","","7","","","","99.21","","","","-18","","NA"
"2018-03-17 03:00","2018","03","17","03:00","-12.1","","-14.0","","85","","5","","10","","","","99.21","","","","-18","","NA"
"2018-03-17 04:00","2018","03","17","04:00","-12.7","","-14.6","","85","","7","","9","","","","99.21","","","","-18","","NA"
"2018-03-17 05:00","2018","03","17","05:00","-12.7","","-16.9","","71","","5","","12","","","","99.27","","","","-19","","NA"
"2018-03-17 06:00","2018","03","17","06:00","-12.9","","-17.4","","69","","5","","12","","","","99.29","","","","-19","","NA"
"2018-03-17 07:00","2018","03","17","07:00","-13.3","","-18.6","","65","","5","","11","","","","99.29","","","","-20","","NA"
"2018-03-17 08:00","2018","03","17","08:00","-12.6","","-19.2","","58","","5","","8","","","","99.30","","","","-18","","NA"
"2018-03-17 09:00","2018","03","17","09:00","-10.1","","-19.2","","47","","5","","5","","","","99.33","","","","-13","","NA"
"2018-03-17 10:00","2018","03","17","10:00","-7.7","","-21.5","","32","","3","","8","","","","99.31","","","","-12","","NA"
"2018-03-17 11:00","2018","03","17","11:00","-6.5","","-19.8","","34","","4","","9","","","","99.27","","","","-11","","NA"
"2018-03-17 12:00","2018","03","17","12:00","-5.6","","-21.9","","26","","2","","6","","","","99.29","","","","-8","","NA"
"2018-03-17 13:00","2018","03","17","13:00","-3.8","","-20.0","","27","","36","","5","","","","99.24","","","","-6","","NA"
"2018-03-17 14:00","2018","03","17","14:00","-2.6","","-15.9","","35","","25","","7","","","","99.19","","","","-5","","NA"
"2018-03-17 15:00","2018","03","17","15:00","-3.0","","-13.2","","45","","25","","8","","","","99.10","","","","-6","","NA"
"2018-03-17 16:00","2018","03","17","16:00","-3.3","","-11.7","","52","","20","","6","","","","99.03","","","","-6","","NA"
"2018-03-17 17:00","2018","03","17","17:00","-2.9","","-10.5","","56","","20","","7","","","","98.98","","","","-6","","NA"
"2018-03-17 18:00","2018","03","17","18:00","-2.5","","-7.4","","69","","20","","7","","","","98.97","","","","-5","","NA"
"2018-03-17 19:00","2018","03","17","19:00","-2.4","","-5.5","","79","","20","","7","","","","98.92","","","","-5","","NA"
"2018-03-17 20:00","2018","03","17","20:00","-2.4","","-5.4","","80","","18","","5","","","","98.96","","","","-4","","NA"
"2018-03-17 21:00","2018","03","17","21:00","-2.7","","-6.1","","78","","12","","2","","","","98.96","","","","-3","","NA"
"2018-03-17 22:00","2018","03","17","22:00","-3.0","","-6.3","","78","","0","","1","","","","98.91","","","","-3","","NA"
"2018-03-17 23:00","2018","03","17","23:00","-3.5","","-6.3","","81","","","","0","","","","98.90","","","","","","NA"
"2018-03-18 00:00","2018","03","18","00:00","-3.5","","-6.4","","80","","5","","5","","","","98.89","","","","-6","","NA"
"2018-03-18 01:00","2018","03","18","01:00","-3.6","","-6.6","","80","","5","","6","","","","98.94","","","","-6","","NA"
"2018-03-18 02:00","2018","03","18","02:00","-3.6","","-6.7","","79","","5","","6","","","","98.99","","","","-6","","NA"
"2018-03-18 03:00","2018","03","18","03:00","-4.0","","-7.5","","77","","5","","6","","","","99.00","","","","-7","","NA"
"2018-03-18 04:00","2018","03","18","04:00","-5.6","","-8.4","","81","","4","","8","","","","99.04","","","","-9","","NA"
"2018-03-18 05:00","2018","03","18","05:00","-7.3","","-14.0","","59","","5","","10","","","","99.12","","","","-12","","NA"
"2018-03-18 06:00","2018","03","18","06:00","-8.7","","-15.3","","59","","5","","10","","","","99.21","","","","-14","","NA"
"2018-03-18 07:00","2018","03","18","07:00","-9.7","","-15.6","","62","","5","","9","","","","99.30","","","","-15","","NA"
"2018-03-18 08:00","2018","03","18","08:00","-9.4","","-16.7","","55","","4","","11","","","","99.41","","","","-15","","NA"
"2018-03-18 09:00","2018","03","18","09:00","-9.1","","-20.7","","38","","4","","13","","","","99.51","","","","-15","","NA"
"2018-03-18 10:00","2018","03","18","10:00","-7.2","","-21.5","","31","","5","","12","","","","99.52","","","","-13","","NA"
"2018-03-18 11:00","2018","03","18","11:00","-6.3","","-23.2","","25","","3","","13","","","","99.58","","","","-12","","NA"
"2018-03-18 12:00","2018","03","18","12:00","-4.5","","-24.6","","19","","3","","12","","","","99.60","","","","-9","","NA"
"2018-03-18 13:00","2018","03","18","13:00","-3.5","","-24.4","","18","","4","","10","","","","99.59","","","","-7","","NA"
"2018-03-18 14:00","2018","03","18","14:00","-3.0","","-24.2","","18","","3","","13","","","","99.58","","","","-8","","NA"
"2018-03-18 15:00","2018","03","18","15:00","-2.5","","-22.0","","21","","3","","12","","","","99.57","","","","-7","","NA"
"2018-03-18 16:00","2018","03","18","16:00","-2.7","","-20.7","","24","","2","","11","","","","99.60","","","","-7","","NA"
"2018-03-18 17:00","2018","03","18","17:00","-3.3","","-22.5","","21","","3","","10","","","","99.63","","","","-7","","NA"
"2018-03-18 18:00","2018","03","18","18:00","-4.5","","-22.9","","22","","4","","9","","","","99.67","","","","-8","","NA"
"2018-03-18 19:00","2018","03","18","19:00","-6.1","","-24.1","","23","","4","","10","","","","99.72","","","","-11","","NA"
"2018-03-18 20:00","2018","03","18","20:00","-8.0","","-23.5","","28","","3","","7","","","","99.80","","","","-12","","NA"
"2018-03-18 21:00","2018","03","18","21:00","-9.6","","-23.7","","31","","3","","7","","","","99.86","","","","-14","","NA"
"2018-03-18 22:00","2018","03","18","22:00","-11.8","","-23.3","","38","","4","","3","","","","99.89","","","","-14","","NA"
"2018-03-18 23:00","2018","03","18","23:00","-13.4","","-23.6","","42","","7","","3","","","","99.92","","","","-15","","NA"
"2018-03-19 00:00","2018","03","19","00:00","-14.0","","-23.1","","46","","5","","5","","","","99.94","","","","-17","","NA"
"2018-03-19 01:00","2018","03","19","01:00","-15.1","","-23.2","","50","","3","","3","","","","99.96","","","","-17","","NA"
"2018-03-19 02:00","2018","03","19","02:00","-14.9","","-23.5","","48","","6","","6","","","","99.99","","","","-19","","NA"
"2018-03-19 03:00","2018","03","19","03:00","-15.7","","-24.3","","48","","3","","7","","","","100.02","","","","-21","","NA"
"2018-03-19 04:00","2018","03","19","04:00","-16.0","","-23.7","","52","","4","","9","","","","100.06","","","","-22","","NA"
"2018-03-19 05:00","2018","03","19","05:00","-16.7","","-23.7","","55","","4","","12","","","","100.08","","","","-24","","NA"
"2018-03-19 06:00","2018","03","19","06:00","-17.5","","-23.9","","58","","5","","8","","","","100.12","","","","-23","","NA"
"2018-03-19 07:00","2018","03","19","07:00","-18.3","","-24.1","","61","","5","","8","","","","100.20","","","","-24","","NA"
"2018-03-19 08:00","2018","03","19","08:00","-17.9","","-23.9","","59","","5","","4","","","","100.28","","","","-21","","NA"
"2018-03-19 09:00","2018","03","19","09:00","-13.9","","-22.5","","48","","3","","5","","","","100.27","","","","-17","","NA"
"2018-03-19 10:00","2018","03","19","10:00","-10.5","","-23.6","","33","","2","","6","","","","100.25","","","","-14","","NA"
"2018-03-19 11:00","2018","03","19","11:00","-8.1","","-23.7","","27","","3","","8","","","","100.22","","","","-12","","NA"
"2018-03-19 12:00","2018","03","19","12:00","-6.2","","-22.4","","27","","4","","9","","","","100.16","","","","-10","","NA"
"2018-03-19 13:00","2018","03","19","13:00","-5.0","","-20.3","","29","","1","","8","","","","100.11","","","","-9","","NA"
"2018-03-19 14:00","2018","03","19","14:00","-3.7","","-19.4","","28","","3","","12","","","","100.01","","","","-8","","NA"
"2018-03-19 15:00","2018","03","19","15:00","-3.3","","-20.4","","25","","2","","10","","","","99.96","","","","-7","","NA"
"2018-03-19 16:00","2018","03","19","16:00","-2.9","","-19.7","","26","","2","","10","","","","99.94","","","","-7","","NA"
"2018-03-19 17:00","2018","03","19","17:00","-3.3","","-19.7","","27","","3","","10","","","","99.92","","","","-7","","NA"
"2018-03-19 18:00","2018","03","19","18:00","-4.1","","-19.2","","30","","5","","10","","","","99.95","","","","-8","","NA"
"2018-03-19 19:00","2018","03","19","19:00","-5.9","","-19.3","","34","","4","","10","","","","99.98","","","","-10","","NA"
"2018-03-19 20:00","2018","03","19","20:00","-8.3","","-19.9","","39","","4","","5","","","","100.03","","","","-11","","NA"
"2018-03-19 21:00","2018","03","19","21:00","-10.5","","-20.0","","46","","5","","5","","","","100.06","","","","-14","","NA"
"2018-03-19 22:00","2018","03","19","22:00","-12.0","","-19.9","","52","","4","","5","","","","100.08","","","","-15","","NA"
"2018-03-19 23:00","2018","03","19","23:00","-12.3","","-21.3","","47","","5","","10","","","","100.08","","","","-18","","NA"
"2018-03-20 00:00","2018","03","20","00:00","-12.6","","-25.2","","34","","5","","4","","","","100.10","","","","-15","","NA"
"2018-03-20 01:00","2018","03","20","01:00","-14.0","","-24.7","","40","","5","","9","","","","100.11","","","","-20","","NA"
"2018-03-20 02:00","2018","03","20","02:00","-15.6","","-25.3","","43","","4","","9","","","","100.10","","","","-22","","NA"
"2018-03-20 03:00","2018","03","20","03:00","-16.7","","-25.9","","45","","5","","8","","","","100.11","","","","-22","","NA"
"2018-03-20 04:00","2018","03","20","04:00","-17.6","","-25.6","","50","","5","","12","","","","100.08","","","","-25","","NA"
"2018-03-20 05:00","2018","03","20","05:00","-18.5","","-26.1","","51","","4","","11","","","","100.10","","","","-26","","NA"
"2018-03-20 06:00","2018","03","20","06:00","-19.0","","-26.4","","52","","5","","13","","","","100.11","","","","-27","","NA"
"2018-03-20 07:00","2018","03","20","07:00","-20.6","","-27.3","","55","","3","","10","","","","100.15","","","","-28","","NA"
"2018-03-20 08:00","2018","03","20","08:00","-18.9","","-26.1","","53","","5","","11","","","","100.17","","","","-26","","NA"
"2018-03-20 09:00","2018","03","20","09:00","-15.5","","-25.4","","42","","6","","7","","","","100.15","","","","-20","","NA"
"2018-03-20 10:00","2018","03","20","10:00","-10.9","","-25.6","","29","","4","","9","","","","100.09","","","","-16","","NA"
"2018-03-20 11:00","2018","03","20","11:00","-8.5","","-26.6","","22","","5","","12","","","","100.03","","","","-14","","NA"
"2018-03-20 12:00","2018","03","20","12:00","-6.4","","-27.8","","17","","5","","10","","","","99.97","","","","-11","","NA"
"2018-03-20 13:00","2018","03","20","13:00","-4.4","","-28.8","","13","","7","","7","","","","99.93","","","","-8","","NA"
"2018-03-20 14:00","2018","03","20","14:00","-3.1","","-27.3","","14","","4","","8","","","","99.87","","","","-6","","NA"
"2018-03-20 15:00","2018","03","20","15:00","-2.3","","-27.4","","13","","6","","7","","","","99.83","","","","-5","","NA"
"2018-03-20 16:00","2018","03","20","16:00","-2.0","","-26.5","","13","","2","","9","","","","99.79","","","","-5","","NA"
"2018-03-20 17:00","2018","03","20","17:00","-2.2","","-27.0","","13","","1","","9","","","","99.77","","","","-6","","NA"
"2018-03-20 18:00","2018","03","20","18:00","-3.1","","-26.1","","15","","4","","8","","","","99.78","","","","-6","","NA"
"2018-03-20 19:00","2018","03","20","19:00","-4.7","","-24.8","","19","","4","","5","","","","99.80","","","","-7","","NA"
"2018-03-20 20:00","2018","03","20","20:00","-8.2","","-23.9","","27","","5","","4","","","","99.83","","","","-10","","NA"
"2018-03-20 21:00","2018","03","20","21:00","-10.3","","-20.4","","43","","4","","4","","","","99.86","","","","-13","","NA"
"2018-03-20 22:00","2018","03","20","22:00","-11.4","","-22.5","","39","","5","","6","","","","99.86","","","","-15","","NA"
"2018-03-20 23:00","2018","03","20","23:00","-12.5","","-22.9","","42","","5","","8","","","","99.86","","","","-17","","NA"
"2018-03-21 00:00","2018","03","21","00:00","-12.6","","-22.4","","44","","4","","9","","","","99.88","","","","-18","","NA"
"2018-03-21 01:00","2018","03","21","01:00","-13.5","","-22.4","","47","","3","","10","","","","99.91","","","","-19","","NA"
"2018-03-21 02:00","2018","03","21","02:00","-14.1","","-23.1","","46","","4","","14","","","","99.93","","","","-22","","NA"
"2018-03-21 03:00","2018","03","21","03:00","-14.4","","-24.2","","43","","5","","15","","","","99.92","","","","-22","","NA"
"2018-03-21 04:00","2018","03","21","04:00","-14.7","","-24.2","","44","","5","","15","","","","99.95","","","","-23","","NA"
"2018-03-21 05:00","2018","03","21","05:00","-15.1","","-24.7","","44","","4","","13","","","","99.99","","","","-22","","NA"
"2018-03-21 06:00","2018","03","21","06:00","-16.3","","-24.5","","49","","3","","15","","","","100.01","","","","-25","","NA"
"2018-03-21 07:00","2018","03","21","07:00","-16.7","","-25.0","","49","","3","","13","","","","100.05","","","","-24","","NA"
"2018-03-21 08:00","2018","03","21","08:00","-15.4","","-24.6","","45","","4","","13","","","","100.08","","","","-23","","NA"
"2018-03-21 09:00","2018","03","21","09:00","-12.6","","-23.5","","39","","5","","10","","","","100.10","","","","-18","","NA"
"2018-03-21 10:00","2018","03","21","10:00","-9.0","","-24.1","","28","","4","","8","","","","100.10","","","","-13","","NA"
"2018-03-21 11:00","2018","03","21","11:00","-5.9","","-24.5","","21","","5","","5","","","","100.10","","","","-8","","NA"
"2018-03-21 12:00","2018","03","21","12:00","-4.1","","-25.6","","17","","2","","7","","","","100.09","","","","-7","","NA"
"2018-03-21 13:00","2018","03","21","13:00","-2.0","","-25.6","","14","","3","","9","","","","100.05","","","","-5","","NA"
"2018-03-21 14:00","2018","03","21","14:00","-0.9","","-26.2","","13","","6","","8","","","","99.98","","","","-4","","NA"
"2018-03-21 15:00","2018","03","21","15:00","-0.5","","-25.3","","13","","2","","6","","","","99.96","","","","-3","","NA"
"2018-03-21 16:00","2018","03","21","16:00","0.2","","-22.5","","16","","2","","7","","","","99.93","","","","","","NA"
"2018-03-21 17:00","2018","03","21","17:00","0.1","","-22.5","","16","","1","","7","","","","99.95","","","","","","NA"
"2018-03-21 18:00","2018","03","21","18:00","-1.1","","-20.2","","22","","36","","6","","","","99.99","","","","-3","","NA"
"2018-03-21 19:00","2018","03","21","19:00","-2.9","","-17.7","","31","","36","","3","","","","100.06","","","","-4","","NA"
"2018-03-21 20:00","2018","03","21","20:00","-4.6","","-17.2","","36","","3","","4","","","","100.11","","","","-6","","NA"
"2018-03-21 21:00","2018","03","21","21:00","-5.1","","-17.4","","37","","5","","7","","","","100.14","","","","-8","","NA"
"2018-03-21 22:00","2018","03","21","22:00","-5.3","","-17.4","","38","","4","","7","","","","100.18","","","","-9","","NA"
"2018-03-21 23:00","2018","03","21","23:00","-6.8","","-16.5","","46","","4","","8","","","","100.19","","","","-11","","NA"
"2018-03-22 00:00","2018","03","22","00:00","-8.0","","-16.1","","52","","4","","8","","","","100.20","","","","-12","","NA"
"2018-03-22 01:00","2018","03","22","01:00","-9.0","","-16.9","","53","","5","","9","","","","100.23","","","","-14","","NA"
"2018-03-22 02:00","2018","03","22","02:00","-10.1","","-17.5","","55","","6","","6","","","","100.27","","","","-14","","NA"
"2018-03-22 03:00","2018","03","22","03:00","-11.7","","-17.3","","63","","5","","3","","","","100.30","","","","-14","","NA"
"2018-03-22 04:00","2018","03","22","04:00","-11.9","","-18.3","","59","","4","","7","","","","100.30","","","","-16","","NA"
"2018-03-22 05:00","2018","03","22","05:00","-12.3","","-18.2","","61","","4","","11","","","","100.32","","","","-18","","NA"
"2018-03-22 06:00","2018","03","22","06:00","-13.0","","-18.3","","65","","4","","11","","","","100.38","","","","-19","","NA"
"2018-03-22 07:00","2018","03","22","07:00","-13.6","","-18.5","","66","","4","","11","","","","100.42","","","","-20","","NA"
"2018-03-22 08:00","2018","03","22","08:00","-13.2","","-18.7","","63","","3","","9","","","","100.47","","","","-19","","NA"
"2018-03-22 09:00","2018","03","22","09:00","-10.3","","-17.8","","54","","3","","8","","","","100.47","","","","-15","","NA"
"2018-03-22 10:00","2018","03","22","10:00","-6.6","","-16.6","","45","","1","","6","","","","100.47","","","","-10","","NA"
"2018-03-22 11:00","2018","03","22","11:00","-3.9","","-16.8","","36","","36","","4","","","","100.46","","","","-6","","NA"
"2018-03-22 12:00","2018","03","22","12:00","-1.4","","-19.5","","24","","36","","6","","","","100.42","","","","-4","","NA"
"2018-03-22 13:00","2018","03","22","13:00","0.1","","-22.8","","16","","3","","11","","","","100.39","","","","","","NA"
"2018-03-22 14:00","2018","03","22","14:00","1.4","","-21.0","","17","","36","","8","","","","100.33","","","","","","NA"
"2018-03-22 15:00","2018","03","22","15:00","2.2","","-18.8","","19","","36","","11","","","","100.29","","","","","","NA"
"2018-03-22 16:00","2018","03","22","16:00","0.0","","-11.7","","41","","30","","8","","","","100.33","","","","-3","","NA"
"2018-03-22 17:00","2018","03","22","17:00","-0.2","","-10.9","","44","","29","","9","","","","100.32","","","","-3","","NA"
"2018-03-22 18:00","2018","03","22","18:00","-0.9","","-7.0","","63","","26","","3","","","","100.34","","","","-2","","NA"
"2018-03-22 19:00","2018","03","22","19:00","-2.2","","-7.6","","67","","19","","3","","","","100.36","","","","-3","","NA"
"2018-03-22 20:00","2018","03","22","20:00","-4.7","","-8.6","","74","","","","0","","","","100.40","","","","","","NA"
"2018-03-22 21:00","2018","03","22","21:00","-6.1","","-9.3","","78","","6","","5","","","","100.42","","","","-9","","NA"
"2018-03-22 22:00","2018","03","22","22:00","-6.3","","-10.0","","75","","7","","7","","","","100.45","","","","-10","","NA"
"2018-03-22 23:00","2018","03","22","23:00","-8.4","","-11.5","","78","","4","","6","","","","100.51","","","","-12","","NA"
"2018-03-23 00:00","2018","03","23","00:00","-9.3","","-12.9","","75","","6","","6","","","","100.52","","","","-13","","NA"
"2018-03-23 01:00","2018","03","23","01:00","-12.1","","-15.5","","76","","7","","5","","","","100.58","","","","-15","","NA"
"2018-03-23 02:00","2018","03","23","02:00","-11.1","","-15.5","","70","","5","","5","","","","100.64","","","","-14","","NA"
"2018-03-23 03:00","2018","03","23","03:00","-14.3","","-17.2","","79","","8","","4","","","","100.70","","","","-17","","NA"
"2018-03-23 04:00","2018","03","23","04:00","-11.8","","-17.1","","65","","6","","7","","","","100.75","","","","-16","","NA"
"2018-03-23 05:00","2018","03","23","05:00","-12.8","","-18.0","","65","","6","","6","","","","100.79","","","","-17","","NA"
"2018-03-23 06:00","2018","03","23","06:00","-13.9","","-18.5","","68","","5","","5","","","","100.82","","","","-17","","NA"
"2018-03-23 07:00","2018","03","23","07:00","-14.5","","-18.9","","69","","5","","4","","","","100.87","","","","-17","","NA"
"2018-03-23 08:00","2018","03","23","08:00","-12.4","","-18.4","","61","","5","","8","","","","100.92","","","","-17","","NA"
"2018-03-23 09:00","2018","03","23","09:00","-8.6","","-18.2","","46","","4","","10","","","","100.93","","","","-14","","NA"
"2018-03-23 10:00","2018","03","23","10:00","-6.2","","-18.9","","36","","4","","11","","","","100.94","","","","-11","","NA"
"2018-03-23 11:00","2018","03","23","11:00","-4.7","","-20.2","","29","","2","","13","","","","100.96","","","","-10","","NA"
"2018-03-23 12:00","2018","03","23","12:00","-3.0","","-20.2","","25","","3","","12","","","","100.97","","","","-7","","NA"
"2018-03-23 13:00","2018","03","23","13:00","-2.3","","-20.7","","23","","2","","14","","","","100.96","","","","-7","","NA"
"2018-03-23 14:00","2018","03","23","14:00","-1.7","","-19.4","","25","","3","","14","","","","100.93","","","","-6","","NA"
"2018-03-23 15:00","2018","03","23","15:00","-0.5","","-18.3","","25","","6","","12","","","","100.87","","","","-4","","NA"
"2018-03-23 16:00","2018","03","23","16:00","-0.2","","-18.0","","25","","4","","12","","","","100.87","","","","-4","","NA"
"2018-03-23 17:00","2018","03","23","17:00","-0.8","","-19.1","","23","","5","","12","","","","100.88","","","","-5","","NA"
"2018-03-23 18:00","2018","03","23","18:00","-1.9","","-17.9","","28","","4","","11","","","","100.90","","","","-6","","NA"
"2018-03-23 19:00","2018","03","23","19:00","-3.2","","-17.4","","32","","5","","12","","","","100.91","","","","-8","","NA"
"2018-03-23 20:00","2018","03","23","20:00","-4.4","","-17.3","","36","","4","","11","","","","100.99","","","","-9","","NA"
"2018-03-23 21:00","2018","03","23","21:00","-5.7","","-17.8","","38","","5","","11","","","","101.03","","","","-10","","NA"
"2018-03-23 22:00","2018","03","23","22:00","-6.7","","-17.2","","43","","5","","14","","","","101.02","","","","-12","","NA"
"2018-03-23 23:00","2018","03","23","23:00","-7.9","","-17.2","","47","","4","","12","","","","101.08","","","","-13","","NA"
"2018-03-24 00:00","2018","03","24","00:00","-9.5","","-17.2","","53","","6","","10","","","","101.11","","","","-15","","NA"
"2018-03-24 01:00","2018","03","24","01:00","-11.1","","-17.2","","60","","5","","12","","","","101.10","","","","-17","","NA"
"2018-03-24 02:00","2018","03","24","02:00","-12.2","","-17.4","","65","","6","","12","","","","101.15","","","","-19","","NA"
"2018-03-24 03:00","2018","03","24","03:00","-13.5","","-18.2","","68","","5","","8","","","","101.15","","","","-19","","NA"
"2018-03-24 04:00","2018","03","24","04:00","-14.5","","-18.6","","71","","5","","8","","","","101.18","","","","-20","","NA"
"2018-03-24 05:00","2018","03","24","05:00","-15.6","","-19.3","","73","","4","","6","","","","101.25","","","","-20","","NA"
"2018-03-24 06:00","2018","03","24","06:00","-16.8","","-20.0","","76","","5","","9","","","","101.28","","","","-23","","NA"
"2018-03-24 07:00","2018","03","24","07:00","-17.5","","-20.5","","77","","5","","8","","","","101.35","","","","-23","","NA"
"2018-03-24 08:00","2018","03","24","08:00","-15.5","","-19.9","","69","","4","","14","","","","101.27","","","","-23","","NA"
"2018-03-24 09:00","2018","03","24","09:00","-12.5","","-20.4","","52","","5","","11","","","","101.24","","","","-19","","NA"
"2018-03-24 10:00","2018","03","24","10:00"
"2018-03-24 11:00","2018","03","24","11:00"
"2018-03-24 12:00","2018","03","24","12:00","-3.2","","-22.9","","20","","5","","9","","","","101.16","","","","-7","","NA"
"2018-03-24 13:00","2018","03","24","13:00","-2.3","","-23.3","","18","","2","","9","","","","101.17","","","","-6","","NA"
"2018-03-24 14:00","2018","03","24","14:00","-0.1","","-24.4","","14","","5","","9","","","","101.07","","","","-3","","NA"
"2018-03-24 15:00","2018","03","24","15:00","1.0","","-23.9","","14","","4","","8","","","","100.98","","","","","","NA"
"2018-03-24 16:00","2018","03","24","16:00","1.1","","-23.8","","14","","6","","10","","","","100.89","","","","","","NA"
"2018-03-24 17:00","2018","03","24","17:00","0.8","","-23.9","","14","","7","","11","","","","100.83","","","","","","NA"
"2018-03-24 18:00","2018","03","24","18:00","0.5","","-22.0","","17","","6","","7","","","","100.86","","","","","","NA"
"2018-03-24 19:00","2018","03","24","19:00","-1.7","","-20.3","","23","","6","","7","","","","100.89","","","","-4","","NA"
"2018-03-24 20:00","2018","03","24","20:00","-3.3","","-19.9","","26","","6","","7","","","","100.90","","","","-6","","NA"
"2018-03-24 21:00","2018","03","24","21:00","-4.5","","-18.8","","32","","6","","7","","","","100.92","","","","-8","","NA"
"2018-03-24 22:00","2018","03","24","22:00","-6.0","","-19.5","","33","","4","","7","","","","100.94","","","","-9","","NA"
"2018-03-24 23:00","2018","03","24","23:00","-7.9","","-18.0","","44","","7","","8","","","","100.96","","","","-12","","NA"
"2018-03-25 00:00","2018","03","25","00:00","-8.8","","-17.1","","51","","8","","8","","","","100.97","","","","-13","","NA"
"2018-03-25 01:00","2018","03","25","01:00","-9.5","","-18.7","","47","","6","","6","","","","100.99","","","","-13","","NA"
"2018-03-25 02:00","2018","03","25","02:00","-10.1","","-20.1","","44","","6","","7","","","","101.02","","","","-14","","NA"
"2018-03-25 03:00","2018","03","25","03:00","-11.4","","-21.2","","44","","6","","9","","","","101.01","","","","-17","","NA"
"2018-03-25 04:00","2018","03","25","04:00","-12.6","","-21.0","","49","","6","","9","","","","101.03","","","","-18","","NA"
"2018-03-25 05:00","2018","03","25","05:00","-13.6","","-22.1","","49","","5","","9","","","","101.02","","","","-19","","NA"
"2018-03-25 06:00","2018","03","25","06:00","-14.6","","-22.0","","54","","6","","7","","","","101.05","","","","-19","","NA"
"2018-03-25 07:00","2018","03","25","07:00","-15.8","","-22.8","","55","","6","","7","","","","101.04","","","","-21","","NA"
"2018-03-25 08:00","2018","03","25","08:00","-14.6","","-22.1","","53","","5","","7","","","","101.04","","","","-19","","NA"
"2018-03-25 09:00","2018","03","25","09:00","-9.1","","-18.4","","47","","36","","2","","","","100.98","","","","-10","","NA"
"2018-03-25 10:00","2018","03","25","10:00","-2.4","","-12.3","","47","","19","","14","","","","100.99","","","","-7","","NA"
"2018-03-25 11:00","2018","03","25","11:00","-1.5","","-11.6","","46","","21","","14","","","","101.02","","","","-6","","NA"
"2018-03-25 12:00","2018","03","25","12:00","-1.4","","-12.9","","41","","20","","13","","","","101.00","","","","-6","","NA"
"2018-03-25 13:00","2018","03","25","13:00","-1.4","","-12.4","","43","","21","","15","","","","100.97","","","","-6","","NA"
"2018-03-25 14:00","2018","03","25","14:00","-0.6","","-12.5","","40","","21","","14","","","","100.91","","","","-5","","NA"
"2018-03-25 15:00","2018","03","25","15:00","-0.7","","-10.9","","46","","21","","11","","","","100.85","","","","-4","","NA"
"2018-03-25 16:00","2018","03","25","16:00","-0.7","","-10.5","","48","","21","","12","","","","100.80","","","","-5","","NA"
"2018-03-25 17:00","2018","03","25","17:00","-0.7","","-8.6","","55","","18","","10","","","","100.74","","","","-4","","NA"
"2018-03-25 18:00","2018","03","25","18:00","-0.8","","-8.1","","58","","19","","10","","","","100.73","","","","-4","","NA"
"2018-03-25 19:00","2018","03","25","19:00","-1.2","","-13.1","","40","","15","","9","","","","100.67","","","","-4","","NA"
"2018-03-25 20:00","2018","03","25","20:00","-2.4","","-14.7","","38","","17","","7","","","","100.62","","","","-5","","NA"
"2018-03-25 21:00","2018","03","25","21:00","-2.7","","-13.5","","43","","17","","7","","","","100.54","","","","-6","","NA"
"2018-03-25 22:00","2018","03","25","22:00","-3.1","","-13.4","","45","","18","","5","","","","100.49","","","","-5","","NA"
"2018-03-25 23:00","2018","03","25","23:00","-2.2","","-10.7","","52","","18","","10","","","","100.50","","","","-6","","NA"
"2018-03-26 00:00","2018","03","26","00:00","-2.0","","-7.1","","68","","18","","14","","","","100.54","","","","-7","","NA"
"2018-03-26 01:00","2018","03","26","01:00","-2.1","","-6.1","","74","","18","","13","","","","100.56","","","","-7","","NA"
"2018-03-26 02:00","2018","03","26","02:00","-2.3","","-6.4","","74","","18","","12","","","","100.55","","","","-7","","NA"
"2018-03-26 03:00","2018","03","26","03:00","-1.9","","-5.8","","75","","18","","12","","","","100.55","","","","-6","","NA"
"2018-03-26 04:00","2018","03","26","04:00","-1.8","","-5.2","","78","","19","","14","","","","100.56","","","","-6","","NA"
"2018-03-26 05:00","2018","03","26","05:00","-1.7","","-5.4","","76","","19","","11","","","","100.59","","","","-6","","NA"
"2018-03-26 06:00","2018","03","26","06:00","-1.3","","-5.5","","74","","19","","16","","","","100.62","","","","-6","","NA"
"2018-03-26 07:00","2018","03","26","07:00","-1.2","","-5.0","","75","","18","","16","","","","100.60","","","","-6","","NA"
"2018-03-26 08:00","2018","03","26","08:00","-0.6","","-4.7","","74","","19","","14","","","","100.63","","","","-5","","NA"
"2018-03-26 09:00","2018","03","26","09:00","-0.2","","-4.7","","72","","18","","14","","","","100.64","","","","-4","","NA"
"2018-03-26 10:00","2018","03","26","10:00","0.2","","-4.9","","69","","18","","16","","","","100.60","","","","","","NA"
"2018-03-26 11:00","2018","03","26","11:00","1.9","","-6.8","","53","","19","","10","","","","100.54","","","","","","NA"
"2018-03-26 12:00","2018","03","26","12:00","2.0","","-6.3","","54","","19","","13","","","","100.51","","","","","","NA"
"2018-03-26 13:00","2018","03","26","13:00","1.6","","-5.2","","60","","19","","11","","","","100.43","","","","","","NA"
"2018-03-26 14:00","2018","03","26","14:00","2.7","","-5.5","","55","","19","","9","","","","100.33","","","","","","NA"
"2018-03-26 15:00","2018","03","26","15:00","2.6","","-4.5","","60","","22","","8","","","","100.29","","","","","","NA"
"2018-03-26 16:00","2018","03","26","16:00","3.6","","-4.7","","54","","23","","7","","","","100.19","","","","","","NA"
"2018-03-26 17:00","2018","03","26","17:00","2.7","","-3.6","","63","","21","","7","","","","100.14","","","","","","NA"
"2018-03-26 18:00","2018","03","26","18:00","2.6","","-3.5","","64","","","","0","","","","100.08","","","","","","NA"
"2018-03-26 19:00","2018","03","26","19:00","1.3","","-3.5","","70","","2","","2","","","","100.04","","","","","","NA"
"2018-03-26 20:00","2018","03","26","20:00","2.3","","-3.2","","67","","0","","1","","","","99.95","","","","","","NA"
"2018-03-26 21:00","2018","03","26","21:00","2.4","","-3.9","","63","","13","","3","","","","99.88","","","","","","NA"
"2018-03-26 22:00","2018","03","26","22:00","2.9","","-4.8","","57","","16","","4","","","","99.76","","","","","","NA"
"2018-03-26 23:00","2018","03","26","23:00","3.9","","-5.1","","52","","17","","8","","","","99.60","","","","","","NA"
"2018-03-27 00:00","2018","03","27","00:00","3.1","","-3.3","","63","","20","","12","","","","99.58","","","","","","NA"
"2018-03-27 01:00","2018","03","27","01:00","1.3","","-0.5","","88","","19","","12","","","","99.50","","","","","","NA"
"2018-03-27 02:00","2018","03","27","02:00","0.7","","0.6","","99","","18","","9","","","","99.38","","","","","","NA"
"2018-03-27 03:00","2018","03","27","03:00","1.1","","1.1","","100","","18","","11","","","","99.22","","","","","","NA"
"2018-03-27 04:00","2018","03","27","04:00","1.3","","1.3","","100","","17","","12","","","","99.06","","","","","","NA"
"2018-03-27 05:00","2018","03","27","05:00","1.2","","1.2","","100","","17","","10","","","","98.94","","","","","","NA"
"2018-03-27 06:00","2018","03","27","06:00","1.3","","1.3","","100","","19","","10","","","","98.85","","","","","","NA"
"2018-03-27 07:00","2018","03","27","07:00","1.0","","1.0","","100","","19","","11","","","","98.80","","","","","","NA"
"2018-03-27 08:00","2018","03","27","08:00","0.7","","0.7","","100","","18","","8","","","","98.75","","","","","","NA"
"2018-03-27 09:00","2018","03","27","09:00","0.6","","0.6","","100","","19","","11","","","","98.74","","","","","","NA"
"2018-03-27 10:00","2018","03","27","10:00","0.4","","0.4","","100","","19","","13","","","","98.66","","","","","","NA"
"2018-03-27 11:00","2018","03","27","11:00","0.4","","0.4","","100","","19","","10","","","","98.60","","","","","","NA"
"2018-03-27 12:00","2018","03","27","12:00","0.8","","0.7","","99","","22","","7","","","","98.56","","","","","","NA"
"2018-03-27 13:00","2018","03","27","13:00","0.6","","0.6","","100","","26","","8","","","","98.60","","","","","","NA"
"2018-03-27 14:00","2018","03","27","14:00","0.8","","0.3","","96","","25","","9","","","","98.59","","","","","","NA"
"2018-03-27 15:00","2018","03","27","15:00","1.8","","-1.0","","82","","26","","13","","","","98.58","","","","","","NA"
"2018-03-27 16:00","2018","03","27","16:00","1.2","","0.4","","94","","27","","10","","","","98.66","","","","","","NA"
"2018-03-27 17:00","2018","03","27","17:00","0.9","","0.0","","94","","27","","9","","","","98.69","","","","","","NA"
"2018-03-27 18:00","2018","03","27","18:00","1.0","","0.1","","94","","25","","6","","","","98.78","","","","","","NA"
"2018-03-27 19:00","2018","03","27","19:00","0.5","","0.2","","98","","25","","5","","","","98.87","","","","","","NA"
"2018-03-27 20:00","2018","03","27","20:00","0.4","","0.4","","100","","26","","7","","","","98.99","","","","","","NA"
"2018-03-27 21:00","2018","03","27","21:00","-0.3","","-0.3","","100","","26","","4","","","","99.03","","","","-2","","NA"
"2018-03-27 22:00","2018","03","27","22:00","-0.7","","-0.7","","100","","17","","3","","","","99.11","","","","-2","","NA"
"2018-03-27 23:00","2018","03","27","23:00","-1.1","","-1.1","","100","","25","","1","","","","99.12","","","","-1","","NA"
"2018-03-28 00:00","2018","03","28","00:00","-0.5","","-0.5","","100","","18","","4","","","","99.14","","","","-2","","NA"
"2018-03-28 01:00","2018","03","28","01:00","-0.4","","-0.4","","100","","16","","5","","","","99.12","","","","-2","","NA"
"2018-03-28 02:00","2018","03","28","02:00","-0.3","","-0.3","","100","","17","","3","","","","99.10","","","","-1","","NA"
"2018-03-28 03:00","2018","03","28","03:00","-0.3","","-0.3","","100","","20","","3","","","","99.11","","","","-1","","NA"
"2018-03-28 04:00","2018","03","28","04:00","0.1","","0.1","","100","","18","","7","","","","99.11","","","","","","NA"
"2018-03-28 05:00","2018","03","28","05:00","-0.2","","-0.2","","100","","18","","9","","","","99.08","","","","-3","","NA"
"2018-03-28 06:00","2018","03","28","06:00","-0.1","","-0.1","","100","","18","","8","","","","99.12","","","","-3","","NA"
"2018-03-28 07:00","2018","03","28","07:00","-0.4","","-0.5","","99","","16","","5","","","","99.12","","","","-2","","NA"
"2018-03-28 08:00","2018","03","28","08:00","-0.2","","-0.5","","98","","17","","6","","","","99.08","","","","-2","","NA"
"2018-03-28 09:00","2018","03","28","09:00","1.6","","-1.0","","83","","19","","7","","","","99.05","","","","","","NA"
"2018-03-28 10:00","2018","03","28","10:00","3.0","","-1.4","","73","","18","","14","","","","98.97","","","","","","NA"
"2018-03-28 11:00","2018","03","28","11:00","2.8","","-1.5","","73","","19","","17","","","","98.95","","","","","","NA"
"2018-03-28 12:00","2018","03","28","12:00","3.7","","-1.9","","67","","18","","15","","","","98.89","","","","","","NA"
"2018-03-28 13:00","2018","03","28","13:00","4.0","","-1.8","","66","","18","","18","","","","98.82","","","","","","NA"
"2018-03-28 14:00","2018","03","28","14:00","3.6","","-2.0","","67","","17","","20","","","","98.72","","","","","","NA"
"2018-03-28 15:00","2018","03","28","15:00","3.3","","-1.8","","69","","18","","20","","","","98.62","","","","","","NA"
"2018-03-28 16:00","2018","03","28","16:00","4.3","","-1.9","","64","","18","","17","","","","98.55","","","","","","NA"
"2018-03-28 17:00","2018","03","28","17:00","3.6","","-1.6","","69","","18","","18","","","","98.50","","","","","","NA"
"2018-03-28 18:00","2018","03","28","18:00","3.8","","-1.2","","70","","17","","17","","","","98.44","","","","","","NA"
"2018-03-28 19:00","2018","03","28","19:00","3.9","","-0.9","","71","","18","","16","","","","98.41","","","","","","NA"
"2018-03-28 20:00","2018","03","28","20:00","3.4","","-0.6","","75","","19","","16","","","","98.42","","","","","","NA"
"2018-03-28 21:00","2018","03","28","21:00","3.3","","-0.6","","76","","19","","17","","","","98.45","","","","","","NA"
"2018-03-28 22:00","2018","03","28","22:00","2.6","","-0.6","","80","","19","","12","","","","98.44","","","","","","NA"
"2018-03-28 23:00","2018","03","28","23:00","2.0","","-0.4","","84","","19","","9","","","","98.50","","","","","","NA"
"2018-03-29 00:00","2018","03","29","00:00","1.6","","-0.4","","87","","19","","6","","","","98.55","","","","","","NA"
"2018-03-29 01:00","2018","03","29","01:00","1.0","","-0.6","","89","","17","","4","","","","98.60","","","","","","NA"
"2018-03-29 02:00","2018","03","29","02:00","1.1","","-1.7","","82","","36","","9","","","","98.68","","","","","","NA"
"2018-03-29 03:00","2018","03","29","03:00","-0.3","","-3.8","","77","","35","","6","","","","98.79","","","","-2","","NA"
"2018-03-29 04:00","2018","03","29","04:00","-1.4","","-6.1","","70","","1","","6","","","","98.88","","","","-4","","NA"
"2018-03-29 05:00","2018","03","29","05:00","-2.7","","-7.8","","68","","2","","10","","","","98.95","","","","-7","","NA"
"2018-03-29 06:00","2018","03","29","06:00","-4.7","","-10.4","","64","","36","","10","","","","99.03","","","","-9","","NA"
"2018-03-29 07:00","2018","03","29","07:00","-5.8","","-11.4","","64","","2","","10","","","","99.07","","","","-10","","NA"
"2018-03-29 08:00","2018","03","29","08:00","-6.6","","-12.0","","66","","2","","11","","","","99.15","","","","-12","","NA"
"2018-03-29 09:00","2018","03","29","09:00","-7.2","","-13.1","","63","","3","","12","","","","99.29","","","","-13","","NA"
"2018-03-29 10:00","2018","03","29","10:00","-6.6","","-13.9","","56","","4","","9","","","","99.35","","","","-11","","NA"
"2018-03-29 11:00","2018","03","29","11:00","-4.5","","-13.6","","49","","2","","7","","","","99.31","","","","-8","","NA"
"2018-03-29 12:00","2018","03","29","12:00","-2.5","","-15.2","","37","","36","","9","","","","99.30","","","","-6","","NA"
"2018-03-29 13:00","2018","03","29","13:00","-1.6","","-14.1","","38","","30","","8","","","","99.30","","","","-5","","NA"
"2018-03-29 14:00","2018","03","29","14:00","-1.6","","-13.6","","39","","27","","15","","","","99.24","","","","-6","","NA"
"2018-03-29 15:00","2018","03","29","15:00","-1.6","","-12.1","","44","","29","","15","","","","99.20","","","","-6","","NA"
"2018-03-29 16:00","2018","03","29","16:00","-1.2","","-10.5","","49","","28","","12","","","","99.15","","","","-5","","NA"
"2018-03-29 17:00","2018","03","29","17:00","-1.5","","-10.1","","52","","28","","12","","","","99.20","","","","-6","","NA"
"2018-03-29 18:00","2018","03","29","18:00","-1.9","","-8.8","","59","","27","","11","","","","99.29","","","","-6","","NA"
"2018-03-29 19:00","2018","03","29","19:00","-2.8","","-8.3","","66","","28","","11","","","","99.30","","","","-7","","NA"
"2018-03-29 20:00","2018","03","29","20:00","-3.2","","-7.8","","70","","31","","6","","","","99.31","","","","-6","","NA"
"2018-03-29 21:00","2018","03","29","21:00","-3.7","","-7.8","","73","","31","","3","","","","99.37","","","","-5","","NA"
"2018-03-29 22:00","2018","03","29","22:00","-3.5","","-7.0","","76","","30","","5","","","","99.40","","","","-6","","NA"
"2018-03-29 23:00","2018","03","29","23:00","-4.5","","-7.6","","79","","31","","3","","","","99.39","","","","-6","","NA"
"2018-03-30 00:00","2018","03","30","00:00","-6.3","","-8.7","","83","","28","","1","","","","99.36","","","","-7","","NA"
"2018-03-30 01:00","2018","03","30","01:00","-8.1","","-10.1","","86","","5","","2","","","","99.36","","","","-9","","NA"
"2018-03-30 02:00","2018","03","30","02:00","-5.9","","-10.2","","72","","36","","7","","","","99.42","","","","-9","","NA"
"2018-03-30 03:00","2018","03","30","03:00","-6.9","","-11.0","","73","","35","","6","","","","99.45","","","","-10","","NA"
"2018-03-30 04:00","2018","03","30","04:00","-8.4","","-11.6","","78","","36","","4","","","","99.49","","","","-11","","NA"
"2018-03-30 05:00","2018","03","30","05:00","-10.4","","-12.5","","85","","35","","3","","","","99.55","","","","-12","","NA"
"2018-03-30 06:00","2018","03","30","06:00","-11.1","","-13.0","","86","","1","","4","","","","99.59","","","","-14","","NA"
"2018-03-30 07:00","2018","03","30","07:00","-12.0","","-13.6","","88","","5","","4","","","","99.63","","","","-15","","NA"
"2018-03-30 08:00","2018","03","30","08:00","-10.1","","-14.9","","68","","2","","9","","","","99.72","","","","-15","","NA"
"2018-03-30 09:00","2018","03","30","09:00","-8.8","","-16.0","","56","","36","","7","","","","99.75","","","","-13","","NA"
"2018-03-30 10:00","2018","03","30","10:00","-7.0","","-18.0","","41","","35","","6","","","","99.77","","","","-10","","NA"
"2018-03-30 11:00","2018","03","30","11:00","-6.2","","-20.2","","32","","31","","7","","","","99.75","","","","-10","","NA"
"2018-03-30 12:00","2018","03","30","12:00","-6.2","","-18.3","","38","","27","","13","","","","99.75","","","","-12","","NA"
"2018-03-30 13:00","2018","03","30","13:00","-6.3","","-20.3","","32","","27","","12","","","","99.73","","","","-11","","NA"
"2018-03-30 14:00","2018","03","30","14:00","-5.2","","-17.2","","38","","26","","13","","","","99.69","","","","-10","","NA"
"2018-03-30 15:00","2018","03","30","15:00","-5.6","","-18.5","","36","","25","","13","","","","99.68","","","","-11","","NA"
"2018-03-30 16:00","2018","03","30","16:00","-5.2","","-16.0","","42","","25","","11","","","","99.67","","","","-10","","NA"
"2018-03-30 17:00","2018","03","30","17:00","-5.6","","-16.8","","41","","26","","10","","","","99.66","","","","-10","","NA"
"2018-03-30 18:00","2018","03","30","18:00","-6.8","","-16.1","","47","","26","","11","","","","99.66","","","","-12","","NA"
"2018-03-30 19:00","2018","03","30","19:00","-7.9","","-15.1","","56","","25","","6","","","","99.61","","","","-11","","NA"
"2018-03-30 20:00","2018","03","30","20:00","-10.3","","-15.4","","66","","","","0","","","","99.54","","","","","","NA"
"2018-03-30 21:00","2018","03","30","21:00","-11.9","","-16.3","","70","","0","","1","","","","99.56","","","","-13","","NA"
"2018-03-30 22:00","2018","03","30","22:00","-13.2","","-16.8","","74","","0","","1","","","","99.56","","","","-14","","NA"
"2018-03-30 23:00","2018","03","30","23:00","-14.1","","-17.2","","77","","4","","3","","","","99.58","","","","-16","","NA"
"2018-03-31 00:00","2018","03","31","00:00","-13.5","","-16.9","","76","","5","","9","","","","99.57","","","","-19","","NA"
"2018-03-31 01:00","2018","03","31","01:00","-13.3","","-16.7","","76","","6","","6","","","","99.53","","","","-17","","NA"
"2018-03-31 02:00","2018","03","31","02:00","-13.7","","-16.6","","78","","5","","7","","","","99.46","","","","-18","","NA"
"2018-03-31 03:00","2018","03","31","03:00","-13.6","","-16.5","","78","","5","","6","","","","99.41","","","","-18","","NA"
"2018-03-31 04:00","2018","03","31","04:00","-13.2","","-16.2","","79","","6","","6","","","","99.34","","","","-17","","NA"
"2018-03-31 05:00","2018","03","31","05:00","-12.9","","-15.9","","79","","5","","7","","","","99.29","","","","-17","","NA"
"2018-03-31 06:00","2018","03","31","06:00","-12.3","","-15.3","","78","","4","","4","","","","99.23","","","","-15","","NA"
"2018-03-31 07:00","2018","03","31","07:00","-11.7","","-14.7","","78","","5","","6","","","","99.18","","","","-15","","NA"
"2018-03-31 08:00","2018","03","31","08:00","-10.7","","-13.5","","80","","5","","7","","","","99.14","","","","-15","","NA"
"2018-03-31 09:00","2018","03","31","09:00","-9.3","","-11.6","","83","","5","","6","","","","99.10","","","","-13","","NA"
"2018-03-31 10:00","2018","03","31","10:00","-7.6","","-10.2","","82","","4","","5","","","","99.07","","","","-10","","NA"
"2018-03-31 11:00","2018","03","31","11:00","-6.1","","-10.9","","69","","3","","6","","","","98.99","","","","-9","","NA"
"2018-03-31 12:00","2018","03","31","12:00","-6.2","","-11.8","","65","","2","","7","","","","98.90","","","","-10","","NA"
"2018-03-31 13:00","2018","03","31","13:00","-4.8","","-15.3","","44","","27","","5","","","","98.80","","","","-7","","NA"
"2018-03-31 14:00","2018","03","31","14:00","-4.3","","-16.7","","37","","26","","7","","","","98.72","","","","-7","","NA"
"2018-03-31 15:00","2018","03","31","15:00","-2.7","","-17.0","","33","","24","","11","","","","98.65","","","","-7","","NA"
"2018-03-31 16:00","2018","03","31","16:00","-2.8","","-15.6","","36","","27","","14","","","","98.63","","","","-8","","NA"
"2018-03-31 17:00","2018","03","31","17:00","-2.3","","-15.3","","36","","26","","11","","","","98.60","","","","-6","","NA"
"2018-03-31 18:00","2018","03","31","18:00","-3.6","","-17.7","","33","","31","","9","","","","98.65","","","","-7","","NA"
"2018-03-31 19:00","2018","03","31","19:00","-5.8","","-18.7","","36","","32","","7","","","","98.75","","","","-9","","NA"
"2018-03-31 20:00","2018","03","31","20:00","-6.9","","-20.1","","34","","35","","9","","","","98.87","","","","-11","","NA"
"2018-03-31 21:00","2018","03","31","21:00","-8.1","","-20.1","","37","","1","","7","","","","98.98","","","","-12","","NA"
"2018-03-31 22:00","2018","03","31","22:00","-9.2","","-20.1","","41","","1","","6","","","","99.05","","","","-13","","NA"
"2018-03-31 23:00","2018","03","31","23:00","-10.3","","-19.2","","48","","36","","5","","","","99.09","","","","-13","","NA"
