"Station Name","PUKASKWA (AUT)"
"Province","ONTARIO"
"Latitude","48.59"
"Longitude","-86.29"
"Elevation","207.60"
"Climate Identifier","6046767"
"WMO Identifier","71750"
"TC Identifier","WCJ"
"All times are specified in Local Standard Time (LST). Add 1 hour to adjust for Daylight Saving Time where and when it is observed."

"Legend"
"E","Estimated"
"M","Missing"
"NA","Not Available"

"Date/Time","Year","Month","Day","Time","Temp (°C)","Temp Flag","Dew Point Temp (°C)","Dew Point Temp Flag","Rel Hum (%)","Rel Hum Flag","Wind Dir (10s deg)","Wind Dir Flag","Wind Spd (km/h)","Wind Spd Flag","Visibility (km)","Visibility Flag","Stn Press (kPa)","Stn Press Flag","Hmdx","Hmdx Flag","Wind Chill","Wind Chill Flag","Weather"
"2008-04-01 00:00","2008","04","01","00:00","-2.5","","-2.5","","100","","4","","26","","","","98.75","","","","-9","","NA"
"2008-04-01 01:00","2008","04","01","01:00","-3.2","","-3.2","","100","","3","","24","","","","98.67","","","","-10","","NA"
"2008-04-01 02:00","2008","04","01","02:00","-3.8","","-3.8","","100","","3","","24","","","","98.61","","","","-11","","NA"
"2008-04-01 03:00","2008","04","01","03:00","-4.5","","-4.5","","100","","3","","32","","","","98.49","","","","-13","","NA"
"2008-04-01 04:00","2008","04","01","04:00","-5.1","","-5.1","","100","","3","","26","","","","98.51","","","","-13","","NA"
"2008-04-01 05:00","2008","04","01","05:00","-5.5","","-5.5","","100","","3","","22","","","","98.44","","","","-13","","NA"
"2008-04-01 06:00","2008","04","01","06:00","-5.8","","-5.8","","100","","3","","30","","","","98.50","","","","-14","","NA"
"2008-04-01 07:00","2008","04","01","07:00","-6.1","","-6.1","","100","","4","","28","","","","98.53","","","","-14","","NA"
"2008-04-01 08:00","2008","04","01","08:00","-6.1","","-6.5","","97","","3","","26","","","","98.55","","","","-14","","NA"
"2008-04-01 09:00","2008","04","01","09:00","-6.2","","-7.9","","88","","4","","28","","","","98.62","","","","-14","","NA"
"2008-04-01 10:00","2008","04","01","10:00","-6.0","","-9.3","","77","","2","","28","","","","98.79","","","","-14","","NA"
"2008-04-01 11:00","2008","04","01","11:00","-5.5","","-11.1","","65","","2","","24","","","","98.89","","","","-13","","NA"
"2008-04-01 12:00","2008","04","01","12:00","-4.4","","-13.1","","51","","2","","22","","","","99.00","","","","-11","","NA"
"2008-04-01 13:00","2008","04","01","13:00","-3.1","","-14.6","","41","","36","","20","","","","99.05","","","","-9","","NA"
"2008-04-01 14:00","2008","04","01","14:00","-1.5","","-16.1","","32","","2","","24","","","","99.11","","","","-8","","NA"
"2008-04-01 15:00","2008","04","01","15:00","-0.2","","-15.1","","31","","36","","15","","","","99.16","","","","-5","","NA"
"2008-04-01 16:00","2008","04","01","16:00","0.4","","-16.7","","26","","1","","13","","","","99.23","","","","","","NA"
"2008-04-01 17:00","2008","04","01","17:00","0.8","","-14.5","","31","","34","","13","","","","99.30","","","","","","NA"
"2008-04-01 18:00","2008","04","01","18:00","-0.2","","-15.6","","30","","33","","19","","","","99.39","","","","-5","","NA"
"2008-04-01 19:00","2008","04","01","19:00","-1.4","","-17.6","","28","","34","","15","","","","99.51","","","","-6","","NA"
"2008-04-01 20:00","2008","04","01","20:00","-3.0","","-18.2","","30","","1","","7","","","","99.61","","","","-6","","NA"
"2008-04-01 21:00","2008","04","01","21:00","-5.2","","-14.9","","46","","2","","6","","","","99.71","","","","-8","","NA"
"2008-04-01 22:00","2008","04","01","22:00","-4.1","","-13.4","","48","","35","","11","","","","99.76","","","","-9","","NA"
"2008-04-01 23:00","2008","04","01","23:00","-5.5","","-15.4","","46","","1","","9","","","","99.82","","","","-10","","NA"
"2008-04-02 00:00","2008","04","02","00:00","-6.1","","-15.2","","49","","5","","6","","","","99.85","","","","-9","","NA"
"2008-04-02 01:00","2008","04","02","01:00","-10.2","","-14.0","","74","","8","","11","","","","99.88","","","","-16","","NA"
"2008-04-02 02:00","2008","04","02","02:00","-10.3","","-14.7","","70","","7","","11","","","","99.91","","","","-16","","NA"
"2008-04-02 03:00","2008","04","02","03:00","-10.5","","-14.4","","73","","8","","11","","","","99.90","","","","-16","","NA"
"2008-04-02 04:00","2008","04","02","04:00","-9.7","","-14.2","","70","","8","","15","","","","99.90","","","","-16","","NA"
"2008-04-02 05:00","2008","04","02","05:00","-9.0","","-13.9","","68","","9","","13","","","","99.94","","","","-15","","NA"
"2008-04-02 06:00","2008","04","02","06:00","-10.1","","-13.1","","79","","12","","11","","","","99.94","","","","-16","","NA"
"2008-04-02 07:00","2008","04","02","07:00","-8.9","","-12.7","","74","","11","","11","","","","99.95","","","","-14","","NA"
"2008-04-02 08:00","2008","04","02","08:00","-2.7","","-9.0","","62","","13","","11","","","","99.95","","","","-7","","NA"
"2008-04-02 09:00","2008","04","02","09:00","0.0","","-3.7","","76","","18","","26","","","","99.92","","","","-6","","NA"
"2008-04-02 10:00","2008","04","02","10:00","0.6","","-3.1","","76","","18","","30","","","","99.89","","","","","","NA"
"2008-04-02 11:00","2008","04","02","11:00","1.2","","-2.0","","79","","18","","30","","","","99.86","","","","","","NA"
"2008-04-02 12:00","2008","04","02","12:00","1.5","","-1.2","","82","","19","","30","","","","99.87","","","","","","NA"
"2008-04-02 13:00","2008","04","02","13:00","0.8","","0.0","","94","","19","","26","","","","99.86","","","","","","NA"
"2008-04-02 14:00","2008","04","02","14:00","2.3","","-0.8","","80","","20","","28","","","","99.79","","","","","","NA"
"2008-04-02 15:00","2008","04","02","15:00","2.5","","0.0","","84","","19","","28","","","","99.71","","","","","","NA"
"2008-04-02 16:00","2008","04","02","16:00","1.7","","-0.4","","86","","19","","28","","","","99.64","","","","","","NA"
"2008-04-02 17:00","2008","04","02","17:00","1.3","","-0.1","","90","","18","","26","","","","99.58","","","","","","NA"
"2008-04-02 18:00","2008","04","02","18:00","0.7","","0.1","","96","","18","","24","","","","99.53","","","","","","NA"
"2008-04-02 19:00","2008","04","02","19:00","0.5","","-1.3","","88","","17","","28","","","","99.44","","","","","","NA"
"2008-04-02 20:00","2008","04","02","20:00","0.6","","-1.4","","86","","17","","24","","","","99.40","","","","","","NA"
"2008-04-02 21:00","2008","04","02","21:00","1.4","","-1.2","","83","","17","","26","","","","99.39","","","","","","NA"
"2008-04-02 22:00","2008","04","02","22:00","1.5","","-0.1","","89","","18","","26","","","","99.37","","","","","","NA"
"2008-04-02 23:00","2008","04","02","23:00","2.0","","-0.9","","81","","19","","30","","","","99.36","","","","","","NA"
"2008-04-03 00:00","2008","04","03","00:00","1.8","","-0.3","","86","","20","","30","","","","99.36","","","","","","NA"
"2008-04-03 01:00","2008","04","03","01:00","1.7","","0.7","","93","","24","","32","","","","99.36","","","","","","NA"
"2008-04-03 02:00","2008","04","03","02:00","1.4","","1.1","","98","","22","","26","","","","99.31","","","","","","NA"
"2008-04-03 03:00","2008","04","03","03:00","1.4","","1.0","","97","","21","","28","","","","99.27","","","","","","NA"
"2008-04-03 04:00","2008","04","03","04:00","1.4","","1.1","","98","","21","","28","","","","99.24","","","","","","NA"
"2008-04-03 05:00","2008","04","03","05:00","1.4","","1.1","","98","","18","","22","","","","99.22","","","","","","NA"
"2008-04-03 06:00","2008","04","03","06:00","1.5","","0.8","","95","","19","","17","","","","99.19","","","","","","NA"
"2008-04-03 07:00","2008","04","03","07:00","1.4","","0.9","","96","","19","","24","","","","99.15","","","","","","NA"
"2008-04-03 08:00","2008","04","03","08:00","1.7","","1.1","","96","","20","","30","","","","99.14","","","","","","NA"
"2008-04-03 09:00","2008","04","03","09:00","2.0","","1.4","","96","","18","","19","","","","99.15","","","","","","NA"
"2008-04-03 10:00","2008","04","03","10:00","2.1","","1.4","","95","","18","","22","","","","99.12","","","","","","NA"
"2008-04-03 11:00","2008","04","03","11:00","1.9","","1.4","","96","","18","","20","","","","99.15","","","","","","NA"
"2008-04-03 12:00","2008","04","03","12:00","2.0","","1.6","","97","","18","","24","","","","99.09","","","","","","NA"
"2008-04-03 13:00","2008","04","03","13:00","2.6","","1.6","","93","","18","","26","","","","99.03","","","","","","NA"
"2008-04-03 14:00","2008","04","03","14:00","2.3","","1.4","","94","","18","","24","","","","98.98","","","","","","NA"
"2008-04-03 15:00","2008","04","03","15:00","3.6","","1.5","","86","","17","","24","","","","98.89","","","","","","NA"
"2008-04-03 16:00","2008","04","03","16:00","2.7","","1.3","","90","","18","","22","","","","98.84","","","","","","NA"
"2008-04-03 17:00","2008","04","03","17:00","3.3","","1.2","","86","","18","","20","","","","98.80","","","","","","NA"
"2008-04-03 18:00","2008","04","03","18:00","2.7","","1.3","","90","","18","","24","","","","98.77","","","","","","NA"
"2008-04-03 19:00","2008","04","03","19:00","2.3","","1.2","","92","","17","","17","","","","98.75","","","","","","NA"
"2008-04-03 20:00","2008","04","03","20:00","2.6","","1.0","","89","","17","","26","","","","98.73","","","","","","NA"
"2008-04-03 21:00","2008","04","03","21:00","2.6","","0.9","","89","","16","","20","","","","98.74","","","","","","NA"
"2008-04-03 22:00","2008","04","03","22:00","2.1","","0.9","","92","","18","","9","","","","98.77","","","","","","NA"
"2008-04-03 23:00","2008","04","03","23:00","2.4","","0.8","","89","","17","","15","","","","98.75","","","","","","NA"
"2008-04-04 00:00","2008","04","04","00:00","1.8","","1.1","","95","","17","","17","","","","98.74","","","","","","NA"
"2008-04-04 01:00","2008","04","04","01:00","1.7","","1.4","","98","","17","","15","","","","98.72","","","","","","NA"
"2008-04-04 02:00","2008","04","04","02:00","1.3","","1.1","","99","","16","","11","","","","98.70","","","","","","NA"
"2008-04-04 03:00","2008","04","04","03:00","0.5","","0.4","","99","","13","","7","","","","98.65","","","","","","NA"
"2008-04-04 04:00","2008","04","04","04:00","-1.9","","-1.9","","100","","9","","9","","","","98.60","","","","-5","","NA"
"2008-04-04 05:00","2008","04","04","05:00","-2.2","","-2.2","","100","","12","","7","","","","98.56","","","","-5","","NA"
"2008-04-04 06:00","2008","04","04","06:00","-2.4","","-2.4","","100","","7","","7","","","","98.59","","","","-5","","NA"
"2008-04-04 07:00","2008","04","04","07:00","-2.4","","-2.4","","100","","4","","6","","","","98.61","","","","-5","","NA"
"2008-04-04 08:00","2008","04","04","08:00","0.4","","-0.8","","92","","16","","2","","","","98.64","","","","","","NA"
"2008-04-04 09:00","2008","04","04","09:00","2.8","","0.4","","84","","17","","6","","","","98.60","","","","","","NA"
"2008-04-04 10:00","2008","04","04","10:00","2.2","","0.7","","90","","22","","6","","","","98.57","","","","","","NA"
"2008-04-04 11:00","2008","04","04","11:00","2.8","","0.8","","87","","22","","6","","","","98.52","","","","","","NA"
"2008-04-04 12:00","2008","04","04","12:00","3.3","","0.8","","84","","26","","6","","","","98.47","","","","","","NA"
"2008-04-04 13:00","2008","04","04","13:00","2.9","","0.3","","83","","23","","7","","","","98.40","","","","","","NA"
"2008-04-04 14:00","2008","04","04","14:00","4.9","","1.4","","78","","17","","15","","","","98.35","","","","","","NA"
"2008-04-04 15:00","2008","04","04","15:00","4.3","","1.6","","83","","17","","15","","","","98.26","","","","","","NA"
"2008-04-04 16:00","2008","04","04","16:00","3.5","","1.1","","84","","17","","15","","","","98.19","","","","","","NA"
"2008-04-04 17:00","2008","04","04","17:00","4.0","","1.0","","81","","18","","9","","","","98.12","","","","","","NA"
"2008-04-04 18:00","2008","04","04","18:00","2.5","","1.0","","90","","17","","17","","","","98.07","","","","","","NA"
"2008-04-04 19:00","2008","04","04","19:00","2.0","","0.9","","92","","17","","24","","","","98.00","","","","","","NA"
"2008-04-04 20:00","2008","04","04","20:00","1.3","","1.3","","100","","17","","19","","","","97.99","","","","","","NA"
"2008-04-04 21:00","2008","04","04","21:00","1.4","","1.2","","99","","16","","22","","","","98.00","","","","","","NA"
"2008-04-04 22:00","2008","04","04","22:00","2.6","","0.4","","85","","16","","28","","","","97.92","","","","","","NA"
"2008-04-04 23:00","2008","04","04","23:00","3.5","","0.3","","80","","17","","24","","","","97.88","","","","","","NA"
"2008-04-05 00:00","2008","04","05","00:00","4.2","","1.2","","81","","17","","33","","","","97.84","","","","","","NA"
"2008-04-05 01:00","2008","04","05","01:00","3.9","","1.4","","84","","17","","35","","","","97.75","","","","","","NA"
"2008-04-05 02:00","2008","04","05","02:00","3.3","","1.5","","88","","17","","33","","","","97.70","","","","","","NA"
"2008-04-05 03:00","2008","04","05","03:00","2.5","","1.6","","94","","19","","17","","","","97.77","","","","","","NA"
"2008-04-05 04:00","2008","04","05","04:00","2.0","","1.4","","96","","18","","19","","","","97.78","","","","","","NA"
"2008-04-05 05:00","2008","04","05","05:00","1.1","","1.0","","99","","16","","11","","","","97.88","","","","","","NA"
"2008-04-05 06:00","2008","04","05","06:00","0.4","","0.0","","97","","12","","6","","","","98.00","","","","","","NA"
"2008-04-05 07:00","2008","04","05","07:00","0.9","","0.8","","99","","17","","4","","","","98.15","","","","","","NA"
"2008-04-05 08:00","2008","04","05","08:00","1.7","","1.1","","96","","12","","2","","","","98.25","","","","","","NA"
"2008-04-05 09:00","2008","04","05","09:00","1.9","","1.1","","94","","24","","6","","","","98.35","","","","","","NA"
"2008-04-05 10:00","2008","04","05","10:00","2.4","","-0.7","","80","","27","","6","","","","98.41","","","","","","NA"
"2008-04-05 11:00","2008","04","05","11:00","2.2","","0.1","","86","","28","","19","","","","98.52","","","","","","NA"
"2008-04-05 12:00","2008","04","05","12:00","2.1","","-0.2","","85","","26","","13","","","","98.57","","","","","","NA"
"2008-04-05 13:00","2008","04","05","13:00","2.6","","-0.2","","82","","26","","11","","","","98.64","","","","","","NA"
"2008-04-05 14:00","2008","04","05","14:00","4.0","","0.5","","78","","21","","11","","","","98.67","","","","","","NA"
"2008-04-05 15:00","2008","04","05","15:00","4.6","","0.5","","75","","19","","15","","","","98.69","","","","","","NA"
"2008-04-05 16:00","2008","04","05","16:00","4.5","","0.0","","73","","20","","13","","","","98.71","","","","","","NA"
"2008-04-05 17:00","2008","04","05","17:00","3.6","","0.2","","78","","19","","7","","","","98.71","","","","","","NA"
"2008-04-05 18:00","2008","04","05","18:00","2.9","","0.0","","81","","18","","7","","","","98.71","","","","","","NA"
"2008-04-05 19:00","2008","04","05","19:00","1.6","","-0.4","","87","","19","","4","","","","98.76","","","","","","NA"
"2008-04-05 20:00","2008","04","05","20:00","-0.2","","-1.1","","94","","15","","6","","","","98.83","","","","-2","","NA"
"2008-04-05 21:00","2008","04","05","21:00","-1.7","","-2.0","","98","","9","","6","","","","98.90","","","","-4","","NA"
"2008-04-05 22:00","2008","04","05","22:00","-1.7","","-1.9","","99","","5","","6","","","","98.94","","","","-4","","NA"
"2008-04-05 23:00","2008","04","05","23:00","-0.8","","-1.3","","96","","6","","7","","","","98.94","","","","-3","","NA"
"2008-04-06 00:00","2008","04","06","00:00","-0.5","","-1.6","","92","","4","","9","","","","98.93","","","","-4","","NA"
"2008-04-06 01:00","2008","04","06","01:00","-0.3","","-1.9","","89","","8","","6","","","","98.92","","","","-2","","NA"
"2008-04-06 02:00","2008","04","06","02:00","1.3","","-2.7","","75","","5","","13","","","","98.93","","","","","","NA"
"2008-04-06 03:00","2008","04","06","03:00","1.4","","-3.9","","68","","2","","13","","","","99.13","","","","","","NA"
"2008-04-06 04:00","2008","04","06","04:00","1.1","","-4.7","","65","","4","","19","","","","99.09","","","","","","NA"
"2008-04-06 05:00","2008","04","06","05:00","-0.4","","-3.5","","80","","4","","19","","","","99.13","","","","-6","","NA"
"2008-04-06 06:00","2008","04","06","06:00","-0.9","","-3.2","","84","","6","","28","","","","99.06","","","","-7","","NA"
"2008-04-06 07:00","2008","04","06","07:00","-1.0","","-3.4","","84","","7","","33","","","","99.07","","","","-8","","NA"
"2008-04-06 08:00","2008","04","06","08:00","-0.5","","-3.6","","80","","7","","32","","","","99.04","","","","-7","","NA"
"2008-04-06 09:00","2008","04","06","09:00","0.8","","-3.8","","71","","7","","28","","","","99.04","","","","","","NA"
"2008-04-06 10:00","2008","04","06","10:00","2.5","","-3.2","","66","","8","","20","","","","99.02","","","","","","NA"
"2008-04-06 11:00","2008","04","06","11:00","6.0","","-3.7","","50","","7","","13","","","","99.05","","","","","","NA"
"2008-04-06 12:00","2008","04","06","12:00","9.1","","-3.5","","41","","2","","6","","","","99.03","","","","","","NA"
"2008-04-06 13:00","2008","04","06","13:00","9.0","","-1.2","","49","","25","","7","","","","99.03","","","","","","NA"
"2008-04-06 14:00","2008","04","06","14:00","8.4","","1.4","","61","","27","","7","","","","99.00","","","","","","NA"
"2008-04-06 15:00","2008","04","06","15:00","7.5","","1.2","","64","","30","","11","","","","98.99","","","","","","NA"
"2008-04-06 16:00","2008","04","06","16:00","8.7","","1.8","","62","","32","","9","","","","98.95","","","","","","NA"
"2008-04-06 17:00","2008","04","06","17:00","10.0","","2.2","","58","","31","","6","","","","98.91","","","","","","NA"
"2008-04-06 18:00","2008","04","06","18:00","7.6","","-0.7","","56","","4","","19","","","","98.96","","","","","","NA"
"2008-04-06 19:00","2008","04","06","19:00","4.8","","-0.9","","67","","4","","22","","","","98.97","","","","","","NA"
"2008-04-06 20:00","2008","04","06","20:00","2.9","","-1.1","","75","","7","","20","","","","99.00","","","","","","NA"
"2008-04-06 21:00","2008","04","06","21:00","1.8","","-0.1","","87","","7","","20","","","","99.08","","","","","","NA"
"2008-04-06 22:00","2008","04","06","22:00","1.1","","-0.4","","90","","8","","22","","","","99.06","","","","","","NA"
"2008-04-06 23:00","2008","04","06","23:00","0.8","","-0.6","","90","","8","","20","","","","99.03","","","","","","NA"
"2008-04-07 00:00","2008","04","07","00:00","1.1","","-0.5","","89","","7","","17","","","","99.04","","","","","","NA"
"2008-04-07 01:00","2008","04","07","01:00","1.2","","-0.3","","90","","9","","22","","","","98.99","","","","","","NA"
"2008-04-07 02:00","2008","04","07","02:00","1.1","","-0.6","","88","","8","","26","","","","98.91","","","","","","NA"
"2008-04-07 03:00","2008","04","07","03:00","0.7","","-0.7","","90","","8","","22","","","","98.85","","","","","","NA"
"2008-04-07 04:00","2008","04","07","04:00","0.5","","-0.9","","90","","7","","30","","","","98.78","","","","","","NA"
"2008-04-07 05:00","2008","04","07","05:00","0.5","","-1.0","","90","","7","","33","","","","98.67","","","","","","NA"
"2008-04-07 06:00","2008","04","07","06:00","0.5","","-1.1","","89","","7","","32","","","","98.63","","","","","","NA"
"2008-04-07 07:00","2008","04","07","07:00","0.5","","-1.0","","90","","7","","32","","","","98.59","","","","","","NA"
"2008-04-07 08:00","2008","04","07","08:00","1.9","","-0.8","","82","","8","","19","","","","98.60","","","","","","NA"
"2008-04-07 09:00","2008","04","07","09:00","2.7","","-0.5","","79","","7","","20","","","","98.53","","","","","","NA"
"2008-04-07 10:00","2008","04","07","10:00","4.2","","-0.4","","72","","6","","15","","","","98.51","","","","","","NA"
"2008-04-07 11:00","2008","04","07","11:00","6.9","","0.0","","61","","7","","17","","","","98.47","","","","","","NA"
"2008-04-07 12:00","2008","04","07","12:00","6.7","","0.5","","65","","7","","17","","","","98.41","","","","","","NA"
"2008-04-07 13:00","2008","04","07","13:00","5.6","","3.3","","85","","6","","13","","","","98.36","","","","","","NA"
"2008-04-07 14:00","2008","04","07","14:00","6.4","","1.6","","71","","7","","22","","","","98.31","","","","","","NA"
"2008-04-07 15:00","2008","04","07","15:00","6.4","","2.2","","74","","6","","20","","","","98.26","","","","","","NA"
"2008-04-07 16:00","2008","04","07","16:00","6.5","","3.3","","80","","8","","26","","","","98.30","","","","","","NA"
"2008-04-07 17:00","2008","04","07","17:00","5.7","","3.5","","86","","5","","19","","","","98.34","","","","","","NA"
"2008-04-07 18:00","2008","04","07","18:00","5.1","","3.7","","91","","5","","26","","","","98.34","","","","","","NA"
"2008-04-07 19:00","2008","04","07","19:00","3.6","","2.8","","94","","4","","26","","","","98.39","","","","","","NA"
"2008-04-07 20:00","2008","04","07","20:00","3.0","","2.7","","98","","4","","26","","","","98.40","","","","","","NA"
"2008-04-07 21:00","2008","04","07","21:00","2.3","","2.1","","99","","4","","28","","","","98.48","","","","","","NA"
"2008-04-07 22:00","2008","04","07","22:00","1.3","","1.1","","99","","3","","17","","","","98.57","","","","","","NA"
"2008-04-07 23:00","2008","04","07","23:00","0.2","","0.1","","99","","3","","19","","","","98.65","","","","","","NA"
"2008-04-08 00:00","2008","04","08","00:00","-0.2","","-0.2","","100","","3","","19","","","","98.74","","","","-5","","NA"
"2008-04-08 01:00","2008","04","08","01:00","-0.6","","-0.6","","100","","4","","13","","","","98.85","","","","-5","","NA"
"2008-04-08 02:00","2008","04","08","02:00","-0.8","","-0.8","","100","","2","","15","","","","98.95","","","","-5","","NA"
"2008-04-08 03:00","2008","04","08","03:00","-0.9","","-0.9","","100","","2","","6","","","","99.00","","","","-3","","NA"
"2008-04-08 04:00","2008","04","08","04:00","-1.0","","-1.0","","100","","1","","13","","","","99.08","","","","-5","","NA"
"2008-04-08 05:00","2008","04","08","05:00","-1.1","","-1.2","","99","","2","","9","","","","99.18","","","","-4","","NA"
"2008-04-08 06:00","2008","04","08","06:00","-1.4","","-1.7","","98","","36","","7","","","","99.24","","","","-4","","NA"
"2008-04-08 07:00","2008","04","08","07:00","-1.4","","-1.8","","97","","2","","9","","","","99.31","","","","-5","","NA"
"2008-04-08 08:00","2008","04","08","08:00","-1.5","","-2.1","","96","","4","","15","","","","99.19","","","","-6","","NA"
"2008-04-08 09:00","2008","04","08","09:00","-1.0","","-2.3","","91","","4","","6","","","","99.55","","","","-3","","NA"
"2008-04-08 10:00","2008","04","08","10:00","-0.6","","-2.2","","89","","35","","7","","","","99.64","","","","-3","","NA"
"2008-04-08 11:00","2008","04","08","11:00","0.2","","-2.0","","85","","2","","9","","","","99.59","","","","","","NA"
"2008-04-08 12:00","2008","04","08","12:00","2.2","","-1.8","","75","","6","","15","","","","99.45","","","","","","NA"
"2008-04-08 13:00","2008","04","08","13:00","3.9","","-1.3","","69","","8","","13","","","","99.49","","","","","","NA"
"2008-04-08 14:00","2008","04","08","14:00","4.9","","-1.3","","64","","4","","13","","","","99.49","","","","","","NA"
"2008-04-08 15:00","2008","04","08","15:00","5.3","","-0.8","","65","","6","","13","","","","99.49","","","","","","NA"
"2008-04-08 16:00","2008","04","08","16:00","5.5","","-0.5","","65","","7","","11","","","","99.47","","","","","","NA"
"2008-04-08 17:00","2008","04","08","17:00","5.0","","-0.2","","69","","6","","11","","","","99.48","","","","","","NA"
"2008-04-08 18:00","2008","04","08","18:00","4.1","","-0.1","","74","","7","","17","","","","99.47","","","","","","NA"
"2008-04-08 19:00","2008","04","08","19:00","3.3","","-0.2","","78","","8","","15","","","","99.49","","","","","","NA"
"2008-04-08 20:00","2008","04","08","20:00","2.6","","0.0","","83","","6","","15","","","","99.45","","","","","","NA"
"2008-04-08 21:00","2008","04","08","21:00","1.9","","-0.1","","87","","7","","11","","","","99.46","","","","","","NA"
"2008-04-08 22:00","2008","04","08","22:00","1.3","","-0.2","","90","","6","","20","","","","99.37","","","","","","NA"
"2008-04-08 23:00","2008","04","08","23:00","0.9","","-0.4","","91","","6","","24","","","","99.32","","","","","","NA"
"2008-04-09 00:00","2008","04","09","00:00","0.5","","0.1","","97","","7","","20","","","","99.31","","","","","","NA"
"2008-04-09 01:00","2008","04","09","01:00","-0.2","","-0.2","","100","","5","","24","","","","99.17","","","","-6","","NA"
"2008-04-09 02:00","2008","04","09","02:00","-0.5","","-0.5","","100","","6","","20","","","","99.13","","","","-6","","NA"
"2008-04-09 03:00","2008","04","09","03:00","-0.8","","-0.9","","99","","5","","30","","","","99.01","","","","-8","","NA"
"2008-04-09 04:00","2008","04","09","04:00","-1.2","","-1.5","","98","","5","","28","","","","98.94","","","","-8","","NA"
"2008-04-09 05:00","2008","04","09","05:00","-1.7","","-1.7","","100","","4","","24","","","","98.83","","","","-8","","NA"
"2008-04-09 06:00","2008","04","09","06:00","-2.1","","-2.1","","100","","4","","22","","","","98.83","","","","-8","","NA"
"2008-04-09 07:00","2008","04","09","07:00","-2.6","","-2.6","","100","","3","","28","","","","98.79","","","","-10","","NA"
"2008-04-09 08:00","2008","04","09","08:00","-2.8","","-2.8","","100","","3","","26","","","","98.86","","","","-10","","NA"
"2008-04-09 09:00","2008","04","09","09:00","-2.8","","-2.8","","100","","3","","26","","","","98.82","","","","-10","","NA"
"2008-04-09 10:00","2008","04","09","10:00","-2.3","","-2.3","","100","","3","","24","","","","98.81","","","","-9","","NA"
"2008-04-09 11:00","2008","04","09","11:00","-1.6","","-1.6","","100","","2","","20","","","","98.82","","","","-7","","NA"
"2008-04-09 12:00","2008","04","09","12:00","-0.8","","-1.2","","97","","1","","20","","","","98.88","","","","-6","","NA"
"2008-04-09 13:00","2008","04","09","13:00","0.0","","-1.1","","92","","2","","22","","","","98.96","","","","-6","","NA"
"2008-04-09 14:00","2008","04","09","14:00","0.6","","-1.1","","88","","1","","20","","","","99.10","","","","","","NA"
"2008-04-09 15:00","2008","04","09","15:00","1.4","","-0.8","","85","","36","","17","","","","99.21","","","","","","NA"
"2008-04-09 16:00","2008","04","09","16:00","1.6","","-0.8","","84","","1","","20","","","","99.31","","","","","","NA"
"2008-04-09 17:00","2008","04","09","17:00","1.9","","-0.7","","83","","1","","11","","","","99.41","","","","","","NA"
"2008-04-09 18:00","2008","04","09","18:00","2.8","","-1.1","","75","","1","","15","","","","99.45","","","","","","NA"
"2008-04-09 19:00","2008","04","09","19:00","2.2","","-1.6","","76","","2","","13","","","","99.53","","","","","","NA"
"2008-04-09 20:00","2008","04","09","20:00","1.6","","-1.6","","79","","35","","7","","","","99.64","","","","","","NA"
"2008-04-09 21:00","2008","04","09","21:00","0.7","","-2.0","","82","","32","","6","","","","99.85","","","","","","NA"
"2008-04-09 22:00","2008","04","09","22:00","-0.4","","-1.7","","91","","35","","7","","","","99.92","","","","-3","","NA"
"2008-04-09 23:00","2008","04","09","23:00","-0.2","","-0.7","","96","","32","","11","","","","99.96","","","","-4","","NA"
"2008-04-10 00:00","2008","04","10","00:00","-1.5","","-1.9","","97","","3","","7","","","","100.01","","","","-4","","NA"
"2008-04-10 01:00","2008","04","10","01:00","-2.4","","-2.9","","96","","2","","11","","","","99.96","","","","-6","","NA"
"2008-04-10 02:00","2008","04","10","02:00","-2.5","","-3.3","","94","","3","","9","","","","99.92","","","","-6","","NA"
"2008-04-10 03:00","2008","04","10","03:00","-2.9","","-3.8","","93","","6","","7","","","","99.96","","","","-6","","NA"
"2008-04-10 04:00","2008","04","10","04:00","-3.5","","-4.2","","95","","9","","6","","","","100.13","","","","-6","","NA"
"2008-04-10 05:00","2008","04","10","05:00","-4.8","","-5.3","","96","","5","","7","","","","100.14","","","","-8","","NA"
"2008-04-10 06:00","2008","04","10","06:00","-5.3","","-5.6","","98","","7","","7","","","","100.18","","","","-9","","NA"
"2008-04-10 07:00","2008","04","10","07:00","-4.8","","-6.8","","86","","6","","7","","","","100.22","","","","-8","","NA"
"2008-04-10 08:00","2008","04","10","08:00","-3.3","","-6.5","","78","","7","","13","","","","100.40","","","","-8","","NA"
"2008-04-10 09:00","2008","04","10","09:00","-1.5","","-6.1","","71","","8","","11","","","","100.43","","","","-5","","NA"
"2008-04-10 10:00","2008","04","10","10:00","0.7","","-5.2","","65","","7","","19","","","","100.26","","","","","","NA"
"2008-04-10 11:00","2008","04","10","11:00","2.7","","-5.4","","55","","8","","19","","","","100.29","","","","","","NA"
"2008-04-10 12:00","2008","04","10","12:00","4.1","","-5.7","","49","","5","","19","","","","100.29","","","","","","NA"
"2008-04-10 13:00","2008","04","10","13:00","5.2","","-5.2","","47","","9","","19","","","","100.23","","","","","","NA"
"2008-04-10 14:00","2008","04","10","14:00","6.4","","-6.7","","39","","8","","19","","","","100.16","","","","","","NA"
"2008-04-10 15:00","2008","04","10","15:00","6.7","","-6.5","","38","","7","","17","","","","100.06","","","","","","NA"
"2008-04-10 16:00","2008","04","10","16:00","6.9","","-6.6","","38","","7","","26","","","","99.99","","","","","","NA"
"2008-04-10 17:00","2008","04","10","17:00","6.7","","-5.8","","40","","7","","20","","","","99.95","","","","","","NA"
"2008-04-10 18:00","2008","04","10","18:00","5.5","","-5.7","","44","","7","","26","","","","99.92","","","","","","NA"
"2008-04-10 19:00","2008","04","10","19:00","4.5","","-5.7","","47","","7","","26","","","","99.86","","","","","","NA"
"2008-04-10 20:00","2008","04","10","20:00","3.8","","-5.5","","51","","6","","22","","","","99.81","","","","","","NA"
"2008-04-10 21:00","2008","04","10","21:00","3.1","","-4.5","","57","","7","","19","","","","99.84","","","","","","NA"
"2008-04-10 22:00","2008","04","10","22:00","2.5","","-4.1","","62","","7","","22","","","","99.74","","","","","","NA"
"2008-04-10 23:00","2008","04","10","23:00","1.9","","-5.1","","60","","7","","30","","","","99.66","","","","","","NA"
"2008-04-11 00:00","2008","04","11","00:00","1.2","","-5.5","","61","","7","","32","","","","99.46","","","","","","NA"
"2008-04-11 01:00","2008","04","11","01:00","0.4","","-5.6","","64","","7","","32","","","","99.36","","","","","","NA"
"2008-04-11 02:00","2008","04","11","02:00","-0.2","","-5.3","","68","","7","","37","","","","99.25","","","","-7","","NA"
"2008-04-11 03:00","2008","04","11","03:00","-0.8","","-4.6","","75","","7","","32","","","","99.18","","","","-8","","NA"
"2008-04-11 04:00","2008","04","11","04:00","-1.1","","-4.4","","78","","8","","32","","","","99.10","","","","-8","","NA"
"2008-04-11 05:00","2008","04","11","05:00","-1.4","","-4.9","","77","","7","","33","","","","99.00","","","","-9","","NA"
"2008-04-11 06:00","2008","04","11","06:00","-1.5","","-4.8","","78","","9","","30","","","","98.99","","","","-8","","NA"
"2008-04-11 07:00","2008","04","11","07:00","-1.9","","-5.5","","76","","6","","26","","","","98.88","","","","-8","","NA"
"2008-04-11 08:00","2008","04","11","08:00","-2.0","","-5.4","","78","","7","","20","","","","99.05","","","","-8","","NA"
"2008-04-11 09:00","2008","04","11","09:00","-3.6","","-3.6","","100","","5","","30","","","","98.93","","","","-11","","NA"
"2008-04-11 10:00","2008","04","11","10:00","-3.9","","-3.9","","100","","6","","26","","","","98.95","","","","-11","","NA"
"2008-04-11 11:00","2008","04","11","11:00","-3.9","","-3.9","","100","","5","","28","","","","98.87","","","","-11","","NA"
"2008-04-11 12:00","2008","04","11","12:00","-3.5","","-3.5","","100","","6","","32","","","","98.72","","","","-11","","NA"
"2008-04-11 13:00","2008","04","11","13:00","-3.2","","-3.5","","98","","6","","35","","","","98.64","","","","-11","","NA"
"2008-04-11 14:00","2008","04","11","14:00","-2.5","","-3.2","","95","","6","","43","","","","98.59","","","","-11","","NA"
"2008-04-11 15:00","2008","04","11","15:00","-2.0","","-2.7","","95","","6","","35","","","","98.51","","","","-10","","NA"
"2008-04-11 16:00","2008","04","11","16:00","-1.0","","-4.1","","79","","6","","37","","","","98.46","","","","-8","","NA"
"2008-04-11 17:00","2008","04","11","17:00","-0.5","","-5.7","","68","","6","","41","","","","98.38","","","","-8","","NA"
"2008-04-11 18:00","2008","04","11","18:00","-0.2","","-7.1","","60","","5","","44","","","","98.32","","","","-8","","NA"
"2008-04-11 19:00","2008","04","11","19:00","-1.0","","-8.6","","56","","5","","41","","","","98.36","","","","-9","","NA"
"2008-04-11 20:00","2008","04","11","20:00","-1.4","","-9.2","","55","","5","","33","","","","98.48","","","","-9","","NA"
"2008-04-11 21:00","2008","04","11","21:00","-1.4","","-7.6","","63","","5","","30","","","","98.52","","","","-8","","NA"
"2008-04-11 22:00","2008","04","11","22:00","-1.6","","-7.5","","64","","4","","35","","","","98.54","","","","-9","","NA"
"2008-04-11 23:00","2008","04","11","23:00","-1.9","","-6.9","","69","","5","","32","","","","98.49","","","","-9","","NA"
"2008-04-12 00:00","2008","04","12","00:00","-2.2","","-6.3","","73","","5","","32","","","","98.48","","","","-10","","NA"
"2008-04-12 01:00","2008","04","12","01:00","-2.6","","-6.2","","76","","5","","28","","","","98.52","","","","-10","","NA"
"2008-04-12 02:00","2008","04","12","02:00","-2.7","","-5.8","","79","","6","","33","","","","98.48","","","","-10","","NA"
"2008-04-12 03:00","2008","04","12","03:00","-2.5","","-6.5","","74","","5","","33","","","","98.50","","","","-10","","NA"
"2008-04-12 04:00","2008","04","12","04:00","-3.0","","-6.8","","75","","6","","28","","","","98.60","","","","-10","","NA"
"2008-04-12 05:00","2008","04","12","05:00","-4.5","","-8.3","","75","","5","","28","","","","98.69","","","","-12","","NA"
"2008-04-12 06:00","2008","04","12","06:00","-6.2","","-9.0","","81","","5","","20","","","","98.74","","","","-13","","NA"
"2008-04-12 07:00","2008","04","12","07:00","-6.4","","-9.2","","80","","4","","20","","","","98.79","","","","-13","","NA"
"2008-04-12 08:00","2008","04","12","08:00","-5.0","","-9.1","","73","","5","","24","","","","98.83","","","","-12","","NA"
"2008-04-12 09:00","2008","04","12","09:00","-3.0","","-9.2","","62","","5","","24","","","","98.84","","","","-10","","NA"
"2008-04-12 10:00","2008","04","12","10:00","-0.8","","-9.2","","53","","5","","24","","","","98.85","","","","-7","","NA"
"2008-04-12 11:00","2008","04","12","11:00","0.5","","-10.6","","43","","4","","32","","","","98.85","","","","","","NA"
"2008-04-12 12:00","2008","04","12","12:00","2.4","","-10.4","","38","","4","","28","","","","98.88","","","","","","NA"
"2008-04-12 13:00","2008","04","12","13:00","2.8","","-10.6","","37","","5","","37","","","","98.90","","","","","","NA"
"2008-04-12 14:00","2008","04","12","14:00","3.6","","-10.4","","35","","3","","32","","","","98.92","","","","","","NA"
"2008-04-12 15:00","2008","04","12","15:00","4.1","","-11.2","","32","","5","","35","","","","98.93","","","","","","NA"
"2008-04-12 16:00","2008","04","12","16:00","4.3","","-12.0","","29","","4","","32","","","","98.99","","","","","","NA"
"2008-04-12 17:00","2008","04","12","17:00","4.1","","-12.3","","29","","4","","28","","","","99.05","","","","","","NA"
"2008-04-12 18:00","2008","04","12","18:00","3.4","","-12.5","","30","","3","","30","","","","99.16","","","","","","NA"
"2008-04-12 19:00","2008","04","12","19:00","2.2","","-13.4","","30","","4","","28","","","","99.27","","","","","","NA"
"2008-04-12 20:00","2008","04","12","20:00","0.9","","-13.8","","32","","4","","19","","","","99.40","","","","","","NA"
"2008-04-12 21:00","2008","04","12","21:00","0.1","","-13.3","","36","","4","","24","","","","99.51","","","","","","NA"
"2008-04-12 22:00","2008","04","12","22:00","-0.8","","-12.7","","40","","3","","19","","","","99.56","","","","-6","","NA"
"2008-04-12 23:00","2008","04","12","23:00","-1.2","","-11.7","","45","","4","","19","","","","99.59","","","","-7","","NA"
"2008-04-13 00:00","2008","04","13","00:00","-1.8","","-11.4","","48","","3","","20","","","","99.62","","","","-8","","NA"
"2008-04-13 01:00","2008","04","13","01:00","-2.4","","-11.6","","49","","3","","20","","","","99.65","","","","-8","","NA"
"2008-04-13 02:00","2008","04","13","02:00","-3.1","","-11.7","","51","","4","","17","","","","99.64","","","","-9","","NA"
"2008-04-13 03:00","2008","04","13","03:00","-3.7","","-11.7","","54","","4","","19","","","","99.65","","","","-10","","NA"
"2008-04-13 04:00","2008","04","13","04:00","-4.3","","-11.7","","56","","4","","19","","","","99.67","","","","-10","","NA"
"2008-04-13 05:00","2008","04","13","05:00","-4.9","","-11.8","","58","","4","","22","","","","99.68","","","","-12","","NA"
"2008-04-13 06:00","2008","04","13","06:00","-5.4","","-11.7","","61","","4","","19","","","","99.71","","","","-12","","NA"
"2008-04-13 07:00","2008","04","13","07:00","-5.2","","-11.6","","61","","5","","20","","","","99.77","","","","-12","","NA"
"2008-04-13 08:00","2008","04","13","08:00","-4.2","","-11.6","","56","","5","","20","","","","99.79","","","","-11","","NA"
"2008-04-13 09:00","2008","04","13","09:00","-2.4","","-11.6","","49","","4","","19","","","","99.81","","","","-8","","NA"
"2008-04-13 10:00","2008","04","13","10:00","0.2","","-10.2","","45","","3","","13","","","","99.83","","","","","","NA"
"2008-04-13 11:00","2008","04","13","11:00","2.4","","-9.7","","40","","2","","11","","","","99.84","","","","","","NA"
"2008-04-13 12:00","2008","04","13","12:00","4.6","","-8.8","","37","","3","","9","","","","99.82","","","","","","NA"
"2008-04-13 13:00","2008","04","13","13:00","5.8","","-8.2","","36","","5","","11","","","","99.79","","","","","","NA"
"2008-04-13 14:00","2008","04","13","14:00","6.6","","-8.7","","33","","4","","13","","","","99.78","","","","","","NA"
"2008-04-13 15:00","2008","04","13","15:00","7.3","","-9.6","","29","","3","","13","","","","99.74","","","","","","NA"
"2008-04-13 16:00","2008","04","13","16:00","7.9","","-10.1","","27","","36","","9","","","","99.72","","","","","","NA"
"2008-04-13 17:00","2008","04","13","17:00","7.5","","-13.1","","22","","2","","11","","","","99.72","","","","","","NA"
"2008-04-13 18:00","2008","04","13","18:00","7.3","","-12.4","","23","","35","","9","","","","99.71","","","","","","NA"
"2008-04-13 19:00","2008","04","13","19:00","6.2","","-12.6","","25","","35","","11","","","","99.72","","","","","","NA"
"2008-04-13 20:00","2008","04","13","20:00","3.9","","-12.3","","30","","1","","9","","","","99.77","","","","","","NA"
"2008-04-13 21:00","2008","04","13","21:00","0.4","","-10.2","","45","","4","","11","","","","99.78","","","","","","NA"
"2008-04-13 22:00","2008","04","13","22:00","0.0","","-9.5","","49","","","","0","","","","99.78","","","","","","NA"
"2008-04-13 23:00","2008","04","13","23:00","-1.8","","-8.8","","59","","6","","9","","","","99.76","","","","-5","","NA"
"2008-04-14 00:00","2008","04","14","00:00","-2.6","","-9.2","","60","","5","","7","","","","99.78","","","","-5","","NA"
"2008-04-14 01:00","2008","04","14","01:00","-3.3","","-8.8","","66","","2","","9","","","","99.78","","","","-7","","NA"
"2008-04-14 02:00","2008","04","14","02:00","-3.8","","-8.8","","68","","5","","11","","","","99.78","","","","-8","","NA"
"2008-04-14 03:00","2008","04","14","03:00","-4.5","","-9.3","","69","","6","","13","","","","99.78","","","","-10","","NA"
"2008-04-14 04:00","2008","04","14","04:00","-5.4","","-9.2","","75","","5","","13","","","","99.78","","","","-11","","NA"
"2008-04-14 05:00","2008","04","14","05:00","-6.3","","-9.2","","80","","6","","17","","","","99.76","","","","-13","","NA"
"2008-04-14 06:00","2008","04","14","06:00","-6.9","","-9.4","","82","","6","","11","","","","99.81","","","","-12","","NA"
"2008-04-14 07:00","2008","04","14","07:00","-5.4","","-9.1","","75","","6","","11","","","","99.89","","","","-10","","NA"
"2008-04-14 08:00","2008","04","14","08:00","-1.0","","-6.9","","64","","9","","4","","","","99.89","","","","-2","","NA"
"2008-04-14 09:00","2008","04","14","09:00","2.0","","-4.2","","63","","18","","9","","","","99.92","","","","","","NA"
"2008-04-14 10:00","2008","04","14","10:00","3.1","","-2.3","","68","","17","","13","","","","99.92","","","","","","NA"
"2008-04-14 11:00","2008","04","14","11:00","3.3","","-2.0","","68","","20","","19","","","","99.87","","","","","","NA"
"2008-04-14 12:00","2008","04","14","12:00","3.7","","0.3","","78","","20","","20","","","","99.83","","","","","","NA"
"2008-04-14 13:00","2008","04","14","13:00","3.8","","1.8","","87","","20","","20","","","","99.83","","","","","","NA"
"2008-04-14 14:00","2008","04","14","14:00","3.9","","0.9","","81","","20","","15","","","","99.81","","","","","","NA"
"2008-04-14 15:00","2008","04","14","15:00","4.1","","1.3","","82","","20","","15","","","","99.74","","","","","","NA"
"2008-04-14 16:00","2008","04","14","16:00","4.3","","1.6","","83","","19","","13","","","","99.66","","","","","","NA"
"2008-04-14 17:00","2008","04","14","17:00","3.1","","1.5","","89","","18","","17","","","","99.61","","","","","","NA"
"2008-04-14 18:00","2008","04","14","18:00","1.8","","1.2","","96","","18","","19","","","","99.56","","","","","","NA"
"2008-04-14 19:00","2008","04","14","19:00","1.5","","-1.1","","83","","17","","22","","","","99.47","","","","","","NA"
"2008-04-14 20:00","2008","04","14","20:00","1.2","","-2.1","","79","","17","","24","","","","99.36","","","","","","NA"
"2008-04-14 21:00","2008","04","14","21:00","1.5","","-4.5","","64","","18","","26","","","","99.33","","","","","","NA"
"2008-04-14 22:00","2008","04","14","22:00","1.4","","-4.7","","64","","18","","33","","","","99.27","","","","","","NA"
"2008-04-14 23:00","2008","04","14","23:00","1.6","","-4.5","","64","","18","","32","","","","99.24","","","","","","NA"
"2008-04-15 00:00","2008","04","15","00:00","2.0","","-4.9","","60","","18","","35","","","","99.16","","","","","","NA"
"2008-04-15 01:00","2008","04","15","01:00","2.1","","-4.1","","63","","18","","39","","","","99.07","","","","","","NA"
"2008-04-15 02:00","2008","04","15","02:00","2.5","","-1.4","","75","","18","","39","","","","99.02","","","","","","NA"
"2008-04-15 03:00","2008","04","15","03:00","2.0","","0.2","","88","","18","","37","","","","98.97","","","","","","NA"
"2008-04-15 04:00","2008","04","15","04:00","2.5","","0.3","","85","","18","","30","","","","98.95","","","","","","NA"
"2008-04-15 05:00","2008","04","15","05:00","2.3","","0.8","","90","","18","","33","","","","98.93","","","","","","NA"
"2008-04-15 06:00","2008","04","15","06:00","2.4","","0.8","","89","","18","","30","","","","98.88","","","","","","NA"
"2008-04-15 07:00","2008","04","15","07:00","2.6","","0.6","","87","","18","","33","","","","98.85","","","","","","NA"
"2008-04-15 08:00","2008","04","15","08:00","2.8","","0.8","","87","","18","","37","","","","98.78","","","","","","NA"
"2008-04-15 09:00","2008","04","15","09:00","3.5","","0.4","","80","","18","","33","","","","98.72","","","","","","NA"
"2008-04-15 10:00","2008","04","15","10:00","4.0","","0.7","","79","","18","","39","","","","98.68","","","","","","NA"
"2008-04-15 11:00","2008","04","15","11:00","3.9","","0.8","","80","","18","","39","","","","98.59","","","","","","NA"
"2008-04-15 12:00","2008","04","15","12:00","4.3","","0.4","","76","","18","","41","","","","98.52","","","","","","NA"
"2008-04-15 13:00","2008","04","15","13:00","5.5","","0.4","","70","","17","","39","","","","98.42","","","","","","NA"
"2008-04-15 14:00","2008","04","15","14:00","6.1","","-0.1","","64","","17","","44","","","","98.33","","","","","","NA"
"2008-04-15 15:00","2008","04","15","15:00","6.0","","-0.1","","65","","17","","46","","","","98.23","","","","","","NA"
"2008-04-15 16:00","2008","04","15","16:00","7.2","","-0.8","","57","","17","","48","","","","98.13","","","","","","NA"
"2008-04-15 17:00","2008","04","15","17:00","7.0","","0.0","","61","","17","","52","","","","98.08","","","","","","NA"
"2008-04-15 18:00","2008","04","15","18:00","6.4","","0.4","","65","","17","","50","","","","98.03","","","","","","NA"
"2008-04-15 19:00","2008","04","15","19:00","6.3","","1.0","","69","","17","","48","","","","98.00","","","","","","NA"
"2008-04-15 20:00","2008","04","15","20:00","6.2","","1.0","","69","","17","","54","","","","97.93","","","","","","NA"
"2008-04-15 21:00","2008","04","15","21:00","6.0","","1.2","","71","","17","","48","","","","97.96","","","","","","NA"
"2008-04-15 22:00","2008","04","15","22:00","5.6","","1.2","","73","","17","","50","","","","97.95","","","","","","NA"
"2008-04-15 23:00","2008","04","15","23:00","5.6","","1.1","","73","","17","","52","","","","97.99","","","","","","NA"
"2008-04-16 00:00","2008","04","16","00:00","5.4","","1.4","","75","","18","","50","","","","97.98","","","","","","NA"
"2008-04-16 01:00","2008","04","16","01:00","4.9","","1.6","","79","","18","","44","","","","97.96","","","","","","NA"
"2008-04-16 02:00","2008","04","16","02:00","5.1","","1.7","","79","","17","","43","","","","97.93","","","","","","NA"
"2008-04-16 03:00","2008","04","16","03:00","4.8","","1.9","","81","","17","","43","","","","97.90","","","","","","NA"
"2008-04-16 04:00","2008","04","16","04:00","4.5","","2.1","","84","","17","","44","","","","97.89","","","","","","NA"
"2008-04-16 05:00","2008","04","16","05:00","4.4","","2.3","","86","","17","","43","","","","97.85","","","","","","NA"
"2008-04-16 06:00","2008","04","16","06:00","4.3","","2.4","","87","","17","","39","","","","97.83","","","","","","NA"
"2008-04-16 07:00","2008","04","16","07:00","4.5","","2.4","","86","","17","","43","","","","97.83","","","","","","NA"
"2008-04-16 08:00","2008","04","16","08:00","5.3","","2.5","","82","","17","","44","","","","97.80","","","","","","NA"
"2008-04-16 09:00","2008","04","16","09:00","6.1","","2.4","","77","","17","","44","","","","97.76","","","","","","NA"
"2008-04-16 10:00","2008","04","16","10:00","6.8","","2.7","","75","","17","","46","","","","97.70","","","","","","NA"
"2008-04-16 11:00","2008","04","16","11:00","6.9","","2.4","","73","","17","","44","","","","97.70","","","","","","NA"
"2008-04-16 12:00","2008","04","16","12:00","8.1","","2.6","","68","","17","","43","","","","97.59","","","","","","NA"
"2008-04-16 13:00","2008","04","16","13:00","8.1","","2.7","","69","","17","","39","","","","97.51","","","","","","NA"
"2008-04-16 14:00","2008","04","16","14:00","7.7","","2.6","","70","","18","","41","","","","97.51","","","","","","NA"
"2008-04-16 15:00","2008","04","16","15:00","7.5","","2.9","","73","","17","","41","","","","97.53","","","","","","NA"
"2008-04-16 16:00","2008","04","16","16:00","6.7","","3.0","","77","","17","","43","","","","97.51","","","","","","NA"
"2008-04-16 17:00","2008","04","16","17:00","5.8","","3.2","","83","","17","","43","","","","97.57","","","","","","NA"
"2008-04-16 18:00","2008","04","16","18:00","4.9","","3.3","","89","","17","","35","","","","97.64","","","","","","NA"
"2008-04-16 19:00","2008","04","16","19:00","4.5","","3.5","","93","","17","","32","","","","97.73","","","","","","NA"
"2008-04-16 20:00","2008","04","16","20:00","4.6","","3.7","","94","","17","","33","","","","97.80","","","","","","NA"
"2008-04-16 21:00","2008","04","16","21:00","5.4","","4.0","","91","","17","","32","","","","97.89","","","","","","NA"
"2008-04-16 22:00","2008","04","16","22:00","5.1","","3.9","","92","","17","","28","","","","97.94","","","","","","NA"
"2008-04-16 23:00","2008","04","16","23:00","4.3","","3.6","","95","","21","","9","","","","98.06","","","","","","NA"
"2008-04-17 00:00","2008","04","17","00:00","4.1","","3.6","","97","","22","","6","","","","98.11","","","","","","NA"
"2008-04-17 01:00","2008","04","17","01:00","3.9","","3.5","","97","","17","","4","","","","98.18","","","","","","NA"
"2008-04-17 02:00","2008","04","17","02:00","3.9","","3.6","","98","","17","","6","","","","98.26","","","","","","NA"
"2008-04-17 03:00","2008","04","17","03:00","3.2","","3.2","","100","","27","","4","","","","98.35","","","","","","NA"
"2008-04-17 04:00","2008","04","17","04:00","2.5","","2.5","","100","","28","","6","","","","98.47","","","","","","NA"
"2008-04-17 05:00","2008","04","17","05:00","2.6","","2.6","","100","","2","","4","","","","98.59","","","","","","NA"
"2008-04-17 06:00","2008","04","17","06:00","2.5","","2.5","","100","","35","","9","","","","98.70","","","","","","NA"
"2008-04-17 07:00","2008","04","17","07:00","3.8","","3.4","","97","","1","","6","","","","98.85","","","","","","NA"
"2008-04-17 08:00","2008","04","17","08:00","6.4","","3.7","","83","","9","","4","","","","98.87","","","","","","NA"
"2008-04-17 09:00","2008","04","17","09:00","9.0","","3.6","","69","","9","","7","","","","98.97","","","","","","NA"
"2008-04-17 10:00","2008","04","17","10:00","3.8","","2.7","","93","","30","","15","","","","99.10","","","","","","NA"
"2008-04-17 11:00","2008","04","17","11:00","5.8","","3.0","","82","","31","","15","","","","99.12","","","","","","NA"
"2008-04-17 12:00","2008","04","17","12:00","9.1","","3.4","","67","","31","","7","","","","99.13","","","","","","NA"
"2008-04-17 13:00","2008","04","17","13:00","4.8","","2.9","","87","","31","","19","","","","99.14","","","","","","NA"
"2008-04-17 14:00","2008","04","17","14:00","6.7","","2.8","","76","","30","","9","","","","99.21","","","","","","NA"
"2008-04-17 15:00","2008","04","17","15:00","4.6","","2.4","","86","","31","","11","","","","99.28","","","","","","NA"
"2008-04-17 16:00","2008","04","17","16:00","4.4","","2.8","","89","","22","","6","","","","99.21","","","","","","NA"
"2008-04-17 17:00","2008","04","17","17:00","5.9","","3.0","","82","","31","","4","","","","99.14","","","","","","NA"
"2008-04-17 18:00","2008","04","17","18:00","4.3","","2.7","","89","","20","","4","","","","99.21","","","","","","NA"
"2008-04-17 19:00","2008","04","17","19:00","3.9","","2.9","","93","","23","","2","","","","99.22","","","","","","NA"
"2008-04-17 20:00","2008","04","17","20:00","4.2","","2.7","","90","","8","","6","","","","99.22","","","","","","NA"
"2008-04-17 21:00","2008","04","17","21:00","4.2","","2.3","","87","","13","","2","","","","99.26","","","","","","NA"
"2008-04-17 22:00","2008","04","17","22:00","3.2","","2.2","","93","","32","","6","","","","99.25","","","","","","NA"
"2008-04-17 23:00","2008","04","17","23:00","3.3","","2.1","","92","","30","","4","","","","99.25","","","","","","NA"
"2008-04-18 00:00","2008","04","18","00:00","2.0","","1.1","","94","","8","","6","","","","99.26","","","","","","NA"
"2008-04-18 01:00","2008","04","18","01:00","2.1","","1.2","","94","","35","","4","","","","99.24","","","","","","NA"
"2008-04-18 02:00","2008","04","18","02:00","1.7","","0.9","","94","","4","","7","","","","99.22","","","","","","NA"
"2008-04-18 03:00","2008","04","18","03:00","2.0","","0.8","","92","","3","","11","","","","99.18","","","","","","NA"
"2008-04-18 04:00","2008","04","18","04:00","1.5","","0.8","","95","","8","","7","","","","99.12","","","","","","NA"
"2008-04-18 05:00","2008","04","18","05:00","0.3","","-0.2","","96","","2","","17","","","","99.06","","","","","","NA"
"2008-04-18 06:00","2008","04","18","06:00","0.5","","-0.2","","95","","3","","15","","","","99.11","","","","","","NA"
"2008-04-18 07:00","2008","04","18","07:00","1.0","","0.1","","94","","4","","13","","","","99.18","","","","","","NA"
"2008-04-18 08:00","2008","04","18","08:00","3.3","","0.8","","84","","4","","15","","","","99.21","","","","","","NA"
"2008-04-18 09:00","2008","04","18","09:00","7.1","","1.9","","69","","4","","9","","","","99.17","","","","","","NA"
"2008-04-18 10:00","2008","04","18","10:00","10.1","","1.8","","56","","6","","19","","","","99.10","","","","","","NA"
"2008-04-18 11:00","2008","04","18","11:00","11.9","","1.7","","50","","7","","11","","","","99.09","","","","","","NA"
"2008-04-18 12:00","2008","04","18","12:00","13.4","","4.8","","56","","9","","20","","","","99.03","","","","","","NA"
"2008-04-18 13:00","2008","04","18","13:00","13.1","","3.9","","54","","9","","19","","","","99.07","","","","","","NA"
"2008-04-18 14:00","2008","04","18","14:00","12.7","","3.7","","54","","9","","19","","","","99.07","","","","","","NA"
"2008-04-18 15:00","2008","04","18","15:00","12.6","","5.3","","61","","10","","15","","","","99.09","","","","","","NA"
"2008-04-18 16:00","2008","04","18","16:00","11.6","","4.9","","63","","9","","17","","","","99.03","","","","","","NA"
"2008-04-18 17:00","2008","04","18","17:00","10.4","","4.4","","66","","7","","19","","","","99.03","","","","","","NA"
"2008-04-18 18:00","2008","04","18","18:00","10.3","","3.9","","64","","7","","19","","","","98.97","","","","","","NA"
"2008-04-18 19:00","2008","04","18","19:00","9.3","","3.9","","69","","8","","22","","","","99.03","","","","","","NA"
"2008-04-18 20:00","2008","04","18","20:00","8.0","","3.9","","75","","7","","17","","","","99.09","","","","","","NA"
"2008-04-18 21:00","2008","04","18","21:00","6.1","","5.2","","94","","6","","17","","","","99.10","","","","","","NA"
"2008-04-18 22:00","2008","04","18","22:00","5.0","","5.0","","100","","5","","17","","","","99.07","","","","","","NA"
"2008-04-18 23:00","2008","04","18","23:00","4.5","","4.5","","100","","6","","17","","","","99.05","","","","","","NA"
"2008-04-19 00:00","2008","04","19","00:00","4.0","","4.0","","100","","7","","19","","","","98.99","","","","","","NA"
"2008-04-19 01:00","2008","04","19","01:00","3.9","","3.9","","100","","6","","17","","","","99.00","","","","","","NA"
"2008-04-19 02:00","2008","04","19","02:00","3.7","","3.7","","100","","6","","17","","","","98.93","","","","","","NA"
"2008-04-19 03:00","2008","04","19","03:00","3.7","","3.7","","100","","6","","11","","","","98.93","","","","","","NA"
"2008-04-19 04:00","2008","04","19","04:00","3.6","","3.6","","100","","6","","15","","","","98.91","","","","","","NA"
"2008-04-19 05:00","2008","04","19","05:00","3.6","","3.6","","100","","6","","15","","","","98.94","","","","","","NA"
"2008-04-19 06:00","2008","04","19","06:00","3.3","","3.3","","100","","6","","13","","","","98.96","","","","","","NA"
"2008-04-19 07:00","2008","04","19","07:00","3.2","","3.2","","100","","6","","17","","","","99.02","","","","","","NA"
"2008-04-19 08:00","2008","04","19","08:00","3.3","","3.3","","100","","7","","17","","","","99.03","","","","","","NA"
"2008-04-19 09:00","2008","04","19","09:00","3.7","","3.7","","100","","6","","13","","","","99.05","","","","","","NA"
"2008-04-19 10:00","2008","04","19","10:00","4.3","","4.3","","100","","7","","20","","","","99.07","","","","","","NA"
"2008-04-19 11:00","2008","04","19","11:00","4.8","","4.8","","100","","7","","19","","","","99.10","","","","","","NA"
"2008-04-19 12:00","2008","04","19","12:00","4.7","","4.7","","100","","6","","20","","","","99.08","","","","","","NA"
"2008-04-19 13:00","2008","04","19","13:00","5.3","","5.3","","100","","7","","22","","","","99.07","","","","","","NA"
"2008-04-19 14:00","2008","04","19","14:00","5.3","","5.3","","100","","7","","20","","","","99.10","","","","","","NA"
"2008-04-19 15:00","2008","04","19","15:00","5.5","","5.5","","100","","6","","20","","","","99.11","","","","","","NA"
"2008-04-19 16:00","2008","04","19","16:00","5.0","","5.0","","100","","7","","20","","","","99.11","","","","","","NA"
"2008-04-19 17:00","2008","04","19","17:00","4.5","","4.5","","100","","7","","19","","","","99.10","","","","","","NA"
"2008-04-19 18:00","2008","04","19","18:00","4.5","","4.5","","100","","7","","24","","","","99.11","","","","","","NA"
"2008-04-19 19:00","2008","04","19","19:00","4.4","","4.4","","100","","6","","24","","","","99.16","","","","","","NA"
"2008-04-19 20:00","2008","04","19","20:00","4.0","","4.0","","100","","6","","24","","","","99.23","","","","","","NA"
"2008-04-19 21:00","2008","04","19","21:00","3.9","","3.9","","100","","7","","20","","","","99.24","","","","","","NA"
"2008-04-19 22:00","2008","04","19","22:00","4.1","","4.1","","100","","6","","22","","","","99.25","","","","","","NA"
"2008-04-19 23:00","2008","04","19","23:00","4.1","","4.1","","100","","7","","19","","","","99.26","","","","","","NA"
"2008-04-20 00:00","2008","04","20","00:00","3.9","","3.9","","100","","6","","22","","","","99.26","","","","","","NA"
"2008-04-20 01:00","2008","04","20","01:00","3.6","","3.6","","100","","6","","20","","","","99.27","","","","","","NA"
"2008-04-20 02:00","2008","04","20","02:00","3.1","","3.1","","100","","6","","19","","","","99.30","","","","","","NA"
"2008-04-20 03:00","2008","04","20","03:00","2.9","","2.9","","100","","6","","19","","","","99.31","","","","","","NA"
"2008-04-20 04:00","2008","04","20","04:00","2.9","","2.9","","100","","7","","19","","","","99.33","","","","","","NA"
"2008-04-20 05:00","2008","04","20","05:00","2.8","","2.8","","100","","7","","20","","","","99.27","","","","","","NA"
"2008-04-20 06:00","2008","04","20","06:00","2.8","","2.8","","100","","7","","19","","","","99.34","","","","","","NA"
"2008-04-20 07:00","2008","04","20","07:00","2.9","","2.9","","100","","6","","11","","","","99.44","","","","","","NA"
"2008-04-20 08:00","2008","04","20","08:00","3.2","","3.1","","99","","6","","19","","","","99.46","","","","","","NA"
"2008-04-20 09:00","2008","04","20","09:00","5.0","","3.8","","92","","7","","20","","","","99.47","","","","","","NA"
"2008-04-20 10:00","2008","04","20","10:00","6.7","","4.5","","86","","7","","24","","","","99.48","","","","","","NA"
"2008-04-20 11:00","2008","04","20","11:00","8.4","","4.8","","78","","6","","20","","","","99.45","","","","","","NA"
"2008-04-20 12:00","2008","04","20","12:00","10.6","","5.2","","69","","6","","22","","","","99.43","","","","","","NA"
"2008-04-20 13:00","2008","04","20","13:00","11.0","","5.4","","68","","6","","28","","","","99.42","","","","","","NA"
"2008-04-20 14:00","2008","04","20","14:00","13.2","","6.1","","62","","6","","26","","","","99.44","","","","","","NA"
"2008-04-20 15:00","2008","04","20","15:00","13.9","","5.9","","58","","8","","26","","","","99.43","","","","","","NA"
"2008-04-20 16:00","2008","04","20","16:00","14.1","","5.6","","57","","8","","26","","","","99.41","","","","","","NA"
"2008-04-20 17:00","2008","04","20","17:00","13.4","","5.5","","59","","6","","28","","","","99.42","","","","","","NA"
"2008-04-20 18:00","2008","04","20","18:00","12.9","","5.6","","61","","6","","26","","","","99.42","","","","","","NA"
"2008-04-20 19:00","2008","04","20","19:00","11.5","","5.4","","66","","6","","22","","","","99.46","","","","","","NA"
"2008-04-20 20:00","2008","04","20","20:00","10.1","","5.3","","72","","6","","24","","","","99.48","","","","","","NA"
"2008-04-20 21:00","2008","04","20","21:00","8.8","","5.1","","78","","6","","24","","","","99.52","","","","","","NA"
"2008-04-20 22:00","2008","04","20","22:00","7.5","","4.6","","82","","6","","28","","","","99.52","","","","","","NA"
"2008-04-20 23:00","2008","04","20","23:00","6.5","","3.8","","83","","6","","30","","","","99.49","","","","","","NA"
"2008-04-21 00:00","2008","04","21","00:00","6.1","","3.4","","83","","6","","28","","","","99.49","","","","","","NA"
"2008-04-21 01:00","2008","04","21","01:00","5.8","","3.3","","84","","6","","26","","","","99.48","","","","","","NA"
"2008-04-21 02:00","2008","04","21","02:00","5.7","","3.3","","85","","7","","24","","","","99.46","","","","","","NA"
"2008-04-21 03:00","2008","04","21","03:00","5.5","","3.1","","85","","5","","11","","","","99.48","","","","","","NA"
"2008-04-21 04:00","2008","04","21","04:00","5.1","","3.0","","86","","5","","17","","","","99.45","","","","","","NA"
"2008-04-21 05:00","2008","04","21","05:00","4.5","","2.8","","89","","6","","20","","","","99.45","","","","","","NA"
"2008-04-21 06:00","2008","04","21","06:00","4.3","","2.7","","89","","6","","20","","","","99.47","","","","","","NA"
"2008-04-21 07:00","2008","04","21","07:00","5.3","","3.2","","86","","7","","17","","","","99.51","","","","","","NA"
"2008-04-21 08:00","2008","04","21","08:00","8.2","","4.2","","76","","7","","17","","","","99.50","","","","","","NA"
"2008-04-21 09:00","2008","04","21","09:00","11.5","","5.5","","67","","8","","15","","","","99.48","","","","","","NA"
"2008-04-21 10:00","2008","04","21","10:00","15.8","","6.9","","55","","7","","9","","","","99.45","","","","","","NA"
"2008-04-21 11:00","2008","04","21","11:00","17.2","","7.0","","51","","22","","6","","","","99.43","","","","","","NA"
"2008-04-21 12:00","2008","04","21","12:00","15.9","","7.0","","55","","21","","13","","","","99.40","","","","","","NA"
"2008-04-21 13:00","2008","04","21","13:00","12.9","","6.0","","63","","24","","9","","","","99.38","","","","","","NA"
"2008-04-21 14:00","2008","04","21","14:00","13.7","","6.7","","63","","20","","7","","","","99.35","","","","","","NA"
"2008-04-21 15:00","2008","04","21","15:00","13.3","","7.2","","67","","22","","7","","","","99.31","","","","","","NA"
"2008-04-21 16:00","2008","04","21","16:00","13.2","","7.4","","68","","25","","6","","","","99.27","","","","","","NA"
"2008-04-21 17:00","2008","04","21","17:00","14.3","","7.8","","65","","18","","2","","","","99.27","","","","","","NA"
"2008-04-21 18:00","2008","04","21","18:00","12.6","","7.4","","71","","17","","7","","","","99.27","","","","","","NA"
"2008-04-21 19:00","2008","04","21","19:00","12.1","","7.4","","73","","17","","9","","","","99.23","","","","","","NA"
"2008-04-21 20:00","2008","04","21","20:00","14.8","","9.4","","70","","14","","7","","","","99.21","","","","","","NA"
"2008-04-21 21:00","2008","04","21","21:00","15.6","","9.4","","67","","12","","13","","","","99.18","","","","","","NA"
"2008-04-21 22:00","2008","04","21","22:00","13.9","","9.0","","72","","10","","11","","","","99.16","","","","","","NA"
"2008-04-21 23:00","2008","04","21","23:00","13.0","","9.3","","78","","11","","17","","","","99.07","","","","","","NA"
"2008-04-22 00:00","2008","04","22","00:00","12.2","","9.1","","81","","11","","11","","","","99.09","","","","","","NA"
"2008-04-22 01:00","2008","04","22","01:00","12.3","","9.3","","82","","11","","9","","","","99.11","","","","","","NA"
"2008-04-22 02:00","2008","04","22","02:00","8.6","","7.5","","93","","15","","9","","","","99.05","","","","","","NA"
"2008-04-22 03:00","2008","04","22","03:00","11.2","","9.7","","90","","10","","17","","","","98.96","","","","","","NA"
"2008-04-22 04:00","2008","04","22","04:00","10.9","","9.8","","93","","10","","11","","","","98.97","","","","","","NA"
"2008-04-22 05:00","2008","04","22","05:00","10.8","","9.6","","92","","12","","13","","","","98.89","","","","","","NA"
"2008-04-22 06:00","2008","04","22","06:00","10.3","","9.0","","92","","13","","7","","","","98.87","","","","","","NA"
"2008-04-22 07:00","2008","04","22","07:00","11.8","","9.1","","84","","16","","22","","","","98.84","","","","","","NA"
"2008-04-22 08:00","2008","04","22","08:00","11.5","","8.7","","83","","18","","26","","","","98.88","","","","","","NA"
"2008-04-22 09:00","2008","04","22","09:00","9.2","","7.8","","91","","17","","20","","","","98.90","","","","","","NA"
"2008-04-22 10:00","2008","04","22","10:00","10.3","","8.3","","87","","17","","26","","","","98.84","","","","","","NA"
"2008-04-22 11:00","2008","04","22","11:00","10.6","","8.8","","89","","17","","28","","","","98.81","","","","","","NA"
"2008-04-22 12:00","2008","04","22","12:00","10.8","","9.6","","92","","16","","28","","","","98.68","","","","","","NA"
"2008-04-22 13:00","2008","04","22","13:00","11.8","","9.8","","88","","17","","32","","","","98.67","","","","","","NA"
"2008-04-22 14:00","2008","04","22","14:00","6.8","","6.2","","96","","20","","32","","","","98.73","","","","","","NA"
"2008-04-22 15:00","2008","04","22","15:00","7.5","","6.8","","95","","20","","13","","","","98.66","","","","","","NA"
"2008-04-22 16:00","2008","04","22","16:00","6.3","","6.3","","100","","24","","11","","","","98.66","","","","","","NA"
"2008-04-22 17:00","2008","04","22","17:00","6.0","","6.0","","100","","17","","7","","","","98.72","","","","","","NA"
"2008-04-22 18:00","2008","04","22","18:00","7.8","","7.8","","100","","12","","11","","","","98.67","","","","","","NA"
"2008-04-22 19:00","2008","04","22","19:00","7.7","","7.7","","100","","21","","13","","","","98.68","","","","","","NA"
"2008-04-22 20:00","2008","04","22","20:00","3.6","","3.6","","100","","21","","15","","","","98.76","","","","","","NA"
"2008-04-22 21:00","2008","04","22","21:00","3.0","","3.0","","100","","19","","11","","","","98.84","","","","","","NA"
"2008-04-22 22:00","2008","04","22","22:00","2.8","","2.8","","100","","18","","7","","","","98.93","","","","","","NA"
"2008-04-22 23:00","2008","04","22","23:00","2.6","","2.6","","100","","23","","2","","","","99.04","","","","","","NA"
"2008-04-23 00:00","2008","04","23","00:00","3.0","","3.0","","100","","17","","9","","","","99.09","","","","","","NA"
"2008-04-23 01:00","2008","04","23","01:00","2.4","","2.4","","100","","20","","20","","","","99.16","","","","","","NA"
"2008-04-23 02:00","2008","04","23","02:00","2.6","","2.6","","100","","24","","6","","","","99.16","","","","","","NA"
"2008-04-23 03:00","2008","04","23","03:00","2.8","","2.8","","100","","25","","6","","","","99.19","","","","","","NA"
"2008-04-23 04:00","2008","04","23","04:00","2.8","","2.8","","100","","27","","15","","","","99.25","","","","","","NA"
"2008-04-23 05:00","2008","04","23","05:00","1.5","","1.5","","100","","23","","9","","","","99.32","","","","","","NA"
"2008-04-23 06:00","2008","04","23","06:00","2.1","","2.1","","100","","17","","9","","","","99.42","","","","","","NA"
"2008-04-23 07:00","2008","04","23","07:00","1.1","","1.1","","100","","30","","2","","","","99.51","","","","","","NA"
"2008-04-23 08:00","2008","04","23","08:00","2.4","","2.4","","100","","17","","7","","","","99.57","","","","","","NA"
"2008-04-23 09:00","2008","04","23","09:00","3.3","","3.3","","100","","18","","4","","","","99.60","","","","","","NA"
"2008-04-23 10:00","2008","04","23","10:00","4.3","","4.3","","100","","17","","7","","","","99.63","","","","","","NA"
"2008-04-23 11:00","2008","04","23","11:00","4.7","","4.7","","100","","18","","17","","","","99.67","","","","","","NA"
"2008-04-23 12:00","2008","04","23","12:00","4.4","","4.4","","100","","20","","17","","","","99.60","","","","","","NA"
"2008-04-23 13:00","2008","04","23","13:00","4.2","","4.2","","100","","18","","17","","","","99.62","","","","","","NA"
"2008-04-23 14:00","2008","04","23","14:00","4.0","","3.9","","99","","19","","15","","","","99.62","","","","","","NA"
"2008-04-23 15:00","2008","04","23","15:00","3.3","","3.3","","100","","20","","17","","","","99.58","","","","","","NA"
"2008-04-23 16:00","2008","04","23","16:00","5.2","","4.5","","95","","21","","11","","","","99.51","","","","","","NA"
"2008-04-23 17:00","2008","04","23","17:00","5.3","","4.4","","94","","21","","13","","","","99.51","","","","","","NA"
"2008-04-23 18:00","2008","04","23","18:00","6.7","","4.2","","84","","23","","15","","","","99.50","","","","","","NA"
"2008-04-23 19:00","2008","04","23","19:00","4.1","","3.7","","97","","30","","9","","","","99.50","","","","","","NA"
"2008-04-23 20:00","2008","04","23","20:00","3.0","","3.0","","100","","33","","6","","","","99.54","","","","","","NA"
"2008-04-23 21:00","2008","04","23","21:00","2.9","","2.9","","100","","25","","2","","","","99.64","","","","","","NA"
"2008-04-23 22:00","2008","04","23","22:00","2.8","","2.8","","100","","33","","6","","","","99.73","","","","","","NA"
"2008-04-23 23:00","2008","04","23","23:00","1.4","","1.4","","100","","7","","7","","","","99.74","","","","","","NA"
"2008-04-24 00:00","2008","04","24","00:00","1.2","","1.2","","100","","6","","13","","","","99.75","","","","","","NA"
"2008-04-24 01:00","2008","04","24","01:00","1.5","","1.5","","100","","6","","15","","","","99.76","","","","","","NA"
"2008-04-24 02:00","2008","04","24","02:00","1.4","","1.4","","100","","5","","15","","","","99.81","","","","","","NA"
"2008-04-24 03:00","2008","04","24","03:00","0.5","","0.5","","100","","4","","13","","","","99.80","","","","","","NA"
"2008-04-24 04:00","2008","04","24","04:00","0.9","","0.6","","98","","6","","15","","","","99.82","","","","","","NA"
"2008-04-24 05:00","2008","04","24","05:00","4.1","","1.9","","86","","6","","15","","","","99.85","","","","","","NA"
"2008-04-24 06:00","2008","04","24","06:00","2.4","","1.0","","90","","4","","19","","","","99.82","","","","","","NA"
"2008-04-24 07:00","2008","04","24","07:00","5.1","","0.6","","73","","6","","22","","","","99.74","","","","","","NA"
"2008-04-24 08:00","2008","04","24","08:00","7.2","","0.0","","60","","8","","33","","","","99.72","","","","","","NA"
"2008-04-24 09:00","2008","04","24","09:00","10.7","","-0.7","","45","","9","","33","","","","99.61","","","","","","NA"
"2008-04-24 10:00","2008","04","24","10:00","13.8","","0.5","","40","","8","","15","","","","99.59","","","","","","NA"
"2008-04-24 11:00","2008","04","24","11:00","12.5","","-0.7","","40","","19","","13","","","","99.53","","","","","","NA"
"2008-04-24 12:00","2008","04","24","12:00","12.6","","-0.8","","40","","26","","7","","","","99.48","","","","","","NA"
"2008-04-24 13:00","2008","04","24","13:00","13.6","","-0.2","","39","","17","","13","","","","99.41","","","","","","NA"
"2008-04-24 14:00","2008","04","24","14:00","11.3","","2.4","","54","","17","","22","","","","99.30","","","","","","NA"
"2008-04-24 15:00","2008","04","24","15:00","11.9","","2.5","","53","","17","","30","","","","99.16","","","","","","NA"
"2008-04-24 16:00","2008","04","24","16:00","11.9","","1.8","","50","","18","","24","","","","99.07","","","","","","NA"
"2008-04-24 17:00","2008","04","24","17:00","14.0","","1.0","","41","","18","","26","","","","98.99","","","","","","NA"
"2008-04-24 18:00","2008","04","24","18:00","12.7","","1.6","","47","","17","","17","","","","98.96","","","","","","NA"
"2008-04-24 19:00","2008","04","24","19:00","9.7","","3.1","","63","","17","","24","","","","98.93","","","","","","NA"
"2008-04-24 20:00","2008","04","24","20:00","11.8","","4.0","","59","","17","","22","","","","98.84","","","","","","NA"
"2008-04-24 21:00","2008","04","24","21:00","8.5","","4.9","","78","","18","","7","","","","98.87","","","","","","NA"
"2008-04-24 22:00","2008","04","24","22:00","8.4","","4.0","","74","","16","","17","","","","98.88","","","","","","NA"
"2008-04-24 23:00","2008","04","24","23:00","14.1","","3.2","","48","","14","","30","","","","98.65","","","","","","NA"
"2008-04-25 00:00","2008","04","25","00:00","14.0","","2.5","","46","","15","","28","","","","98.59","","","","","","NA"
"2008-04-25 01:00","2008","04","25","01:00","12.1","","3.7","","56","","14","","28","","","","98.52","","","","","","NA"
"2008-04-25 02:00","2008","04","25","02:00","12.8","","2.5","","49","","15","","24","","","","98.47","","","","","","NA"
"2008-04-25 03:00","2008","04","25","03:00","11.0","","3.8","","61","","17","","37","","","","98.52","","","","","","NA"
"2008-04-25 04:00","2008","04","25","04:00","6.3","","5.0","","91","","20","","17","","","","98.53","","","","","","NA"
"2008-04-25 05:00","2008","04","25","05:00","7.6","","7.6","","100","","16","","24","","","","98.50","","","","","","NA"
"2008-04-25 06:00","2008","04","25","06:00","8.3","","8.2","","99","","15","","19","","","","98.43","","","","","","NA"
"2008-04-25 07:00","2008","04","25","07:00","7.9","","7.8","","99","","16","","30","","","","98.42","","","","","","NA"
"2008-04-25 08:00","2008","04","25","08:00","7.9","","7.5","","97","","15","","11","","","","98.37","","","","","","NA"
"2008-04-25 09:00","2008","04","25","09:00","8.8","","7.0","","88","","17","","15","","","","98.35","","","","","","NA"
"2008-04-25 10:00","2008","04","25","10:00","9.9","","7.7","","86","","20","","6","","","","98.32","","","","","","NA"
"2008-04-25 11:00","2008","04","25","11:00","9.3","","6.9","","85","","17","","4","","","","98.28","","","","","","NA"
"2008-04-25 12:00","2008","04","25","12:00","7.8","","5.8","","87","","25","","4","","","","98.19","","","","","","NA"
"2008-04-25 13:00","2008","04","25","13:00","6.9","","5.7","","92","","28","","11","","","","98.19","","","","","","NA"
"2008-04-25 14:00","2008","04","25","14:00","5.8","","5.5","","98","","30","","4","","","","98.25","","","","","","NA"
"2008-04-25 15:00","2008","04","25","15:00","8.2","","7.7","","97","","2","","6","","","","98.11","","","","","","NA"
"2008-04-25 16:00","2008","04","25","16:00","9.3","","8.2","","93","","2","","4","","","","98.04","","","","","","NA"
"2008-04-25 17:00","2008","04","25","17:00","10.2","","9.4","","95","","6","","7","","","","97.97","","","","","","NA"
"2008-04-25 18:00","2008","04","25","18:00","9.5","","9.5","","100","","7","","7","","","","97.95","","","","","","NA"
"2008-04-25 19:00","2008","04","25","19:00","9.4","","9.4","","100","","6","","6","","","","97.88","","","","","","NA"
"2008-04-25 20:00","2008","04","25","20:00","9.3","","9.3","","100","","5","","9","","","","97.86","","","","","","NA"
"2008-04-25 21:00","2008","04","25","21:00","9.4","","9.4","","100","","5","","22","","","","97.77","","","","","","NA"
"2008-04-25 22:00","2008","04","25","22:00","9.2","","9.2","","100","","5","","30","","","","97.61","","","","","","NA"
"2008-04-25 23:00","2008","04","25","23:00","8.6","","8.6","","100","","6","","22","","","","97.59","","","","","","NA"
"2008-04-26 00:00","2008","04","26","00:00","6.6","","6.6","","100","","7","","20","","","","97.54","","","","","","NA"
"2008-04-26 01:00","2008","04","26","01:00","5.2","","5.2","","100","","7","","19","","","","97.43","","","","","","NA"
"2008-04-26 02:00","2008","04","26","02:00","4.7","","4.7","","100","","9","","22","","","","97.40","","","","","","NA"
"2008-04-26 03:00","2008","04","26","03:00","4.5","","4.5","","100","","8","","20","","","","97.23","","","","","","NA"
"2008-04-26 04:00","2008","04","26","04:00","4.7","","4.7","","100","","5","","24","","","","97.13","","","","","","NA"
"2008-04-26 05:00","2008","04","26","05:00","5.8","","5.8","","100","","7","","30","","","","96.93","","","","","","NA"
"2008-04-26 06:00","2008","04","26","06:00","6.9","","6.9","","100","","8","","30","","","","96.81","","","","","","NA"
"2008-04-26 07:00","2008","04","26","07:00","3.4","","3.4","","100","","25","","24","","","","97.12","","","","","","NA"
"2008-04-26 08:00","2008","04","26","08:00","3.3","","3.3","","100","","17","","15","","","","97.28","","","","","","NA"
"2008-04-26 09:00","2008","04","26","09:00","3.0","","3.0","","100","","19","","20","","","","97.37","","","","","","NA"
"2008-04-26 10:00","2008","04","26","10:00","2.5","","2.5","","100","","19","","22","","","","97.42","","","","","","NA"
"2008-04-26 11:00","2008","04","26","11:00","2.8","","2.8","","100","","18","","22","","","","97.45","","","","","","NA"
"2008-04-26 12:00","2008","04","26","12:00","2.6","","2.6","","100","","17","","28","","","","97.46","","","","","","NA"
"2008-04-26 13:00","2008","04","26","13:00","2.5","","2.5","","100","","19","","41","","","","97.47","","","","","","NA"
"2008-04-26 14:00","2008","04","26","14:00","2.8","","2.8","","100","","19","","33","","","","97.50","","","","","","NA"
"2008-04-26 15:00","2008","04","26","15:00","2.6","","2.0","","96","","18","","35","","","","97.55","","","","","","NA"
"2008-04-26 16:00","2008","04","26","16:00","2.6","","1.9","","95","","18","","33","","","","97.60","","","","","","NA"
"2008-04-26 17:00","2008","04","26","17:00","2.4","","2.2","","99","","18","","32","","","","97.63","","","","","","NA"
"2008-04-26 18:00","2008","04","26","18:00","0.5","","0.5","","100","","24","","44","","","","97.75","","","","","","NA"
"2008-04-26 19:00","2008","04","26","19:00","0.6","","0.6","","100","","23","","48","","","","97.78","","","","","","NA"
"2008-04-26 20:00","2008","04","26","20:00","1.1","","-0.5","","89","","23","","52","","","","97.81","","","","","","NA"
"2008-04-26 21:00","2008","04","26","21:00","0.9","","-0.6","","90","","23","","56","","","","97.83","","","","","","NA"
"2008-04-26 22:00","2008","04","26","22:00","0.7","","-1.1","","88","","22","","57","","","","97.85","","","","","","NA"
"2008-04-26 23:00","2008","04","26","23:00","-0.3","","-0.3","","100","","22","","54","","","","97.82","","","","-9","","NA"
"2008-04-27 00:00","2008","04","27","00:00","-0.2","","-0.3","","99","","23","","54","","","","97.88","","","","-9","","NA"
"2008-04-27 01:00","2008","04","27","01:00","-0.3","","-1.1","","94","","24","","50","","","","97.94","","","","-9","","NA"
"2008-04-27 02:00","2008","04","27","02:00","-0.9","","-0.9","","100","","24","","52","","","","97.98","","","","-10","","NA"
"2008-04-27 03:00","2008","04","27","03:00","-1.3","","-2.3","","93","","25","","44","","","","98.04","","","","-9","","NA"
"2008-04-27 04:00","2008","04","27","04:00","-1.9","","-2.6","","95","","26","","43","","","","98.11","","","","-10","","NA"
"2008-04-27 05:00","2008","04","27","05:00","-2.6","","-3.2","","96","","27","","33","","","","98.19","","","","-10","","NA"
"2008-04-27 06:00","2008","04","27","06:00","-3.2","","-3.7","","96","","28","","32","","","","98.30","","","","-11","","NA"
"2008-04-27 07:00","2008","04","27","07:00","-3.6","","-5.8","","85","","27","","33","","","","98.43","","","","-12","","NA"
"2008-04-27 08:00","2008","04","27","08:00","-4.1","","-7.0","","80","","28","","32","","","","98.54","","","","-12","","NA"
"2008-04-27 09:00","2008","04","27","09:00","-4.1","","-7.6","","77","","27","","32","","","","98.66","","","","-12","","NA"
"2008-04-27 10:00","2008","04","27","10:00","-3.9","","-6.7","","81","","27","","28","","","","98.73","","","","-11","","NA"
"2008-04-27 11:00","2008","04","27","11:00","-3.5","","-8.6","","68","","29","","32","","","","98.79","","","","-11","","NA"
"2008-04-27 12:00","2008","04","27","12:00","-3.6","","-8.4","","69","","28","","32","","","","98.86","","","","-11","","NA"
"2008-04-27 13:00","2008","04","27","13:00","-2.9","","-6.9","","74","","28","","28","","","","98.93","","","","-10","","NA"
"2008-04-27 14:00","2008","04","27","14:00","-2.9","","-6.7","","75","","28","","28","","","","98.99","","","","-10","","NA"
"2008-04-27 15:00","2008","04","27","15:00","-2.3","","-7.8","","66","","28","","26","","","","99.05","","","","-9","","NA"
"2008-04-27 16:00","2008","04","27","16:00","-1.8","","-7.0","","68","","28","","26","","","","99.11","","","","-8","","NA"
"2008-04-27 17:00","2008","04","27","17:00","-1.7","","-7.1","","67","","27","","20","","","","99.17","","","","-7","","NA"
"2008-04-27 18:00","2008","04","27","18:00","-1.2","","-5.7","","71","","26","","22","","","","99.18","","","","-7","","NA"
"2008-04-27 19:00","2008","04","27","19:00","-1.0","","-6.2","","68","","27","","22","","","","99.21","","","","-7","","NA"
"2008-04-27 20:00","2008","04","27","20:00","-1.6","","-6.2","","71","","28","","19","","","","99.24","","","","-7","","NA"
"2008-04-27 21:00","2008","04","27","21:00","-1.6","","-6.1","","71","","29","","19","","","","99.30","","","","-7","","NA"
"2008-04-27 22:00","2008","04","27","22:00","-1.7","","-5.7","","74","","30","","17","","","","99.32","","","","-7","","NA"
"2008-04-27 23:00","2008","04","27","23:00","-2.6","","-6.7","","73","","34","","7","","","","99.33","","","","-5","","NA"
"2008-04-28 00:00","2008","04","28","00:00","-3.8","","-6.1","","84","","3","","6","","","","99.34","","","","-6","","NA"
"2008-04-28 01:00","2008","04","28","01:00","-3.9","","-5.4","","89","","2","","7","","","","99.34","","","","-7","","NA"
"2008-04-28 02:00","2008","04","28","02:00","-4.5","","-5.5","","93","","2","","9","","","","99.33","","","","-8","","NA"
"2008-04-28 03:00","2008","04","28","03:00","-4.6","","-5.7","","92","","2","","9","","","","99.34","","","","-8","","NA"
"2008-04-28 04:00","2008","04","28","04:00","-5.1","","-5.5","","97","","3","","7","","","","99.36","","","","-8","","NA"
"2008-04-28 05:00","2008","04","28","05:00","-4.8","","-5.8","","93","","5","","15","","","","99.37","","","","-10","","NA"
"2008-04-28 06:00","2008","04","28","06:00","-4.7","","-6.0","","91","","5","","17","","","","99.40","","","","-11","","NA"
"2008-04-28 07:00","2008","04","28","07:00","-3.8","","-5.8","","86","","3","","15","","","","99.46","","","","-9","","NA"
"2008-04-28 08:00","2008","04","28","08:00","-2.4","","-5.8","","77","","1","","13","","","","99.46","","","","-7","","NA"
"2008-04-28 09:00","2008","04","28","09:00","-2.1","","-7.3","","68","","2","","13","","","","99.44","","","","-7","","NA"
"2008-04-28 10:00","2008","04","28","10:00","-1.0","","-7.1","","63","","1","","9","","","","99.44","","","","-4","","NA"
"2008-04-28 11:00","2008","04","28","11:00","0.7","","-6.9","","57","","35","","9","","","","99.43","","","","","","NA"
"2008-04-28 12:00","2008","04","28","12:00","-0.1","","-5.5","","67","","31","","15","","","","99.39","","","","-5","","NA"
"2008-04-28 13:00","2008","04","28","13:00","0.5","","-6.1","","61","","30","","15","","","","99.36","","","","","","NA"
"2008-04-28 14:00","2008","04","28","14:00","1.0","","-5.4","","62","","28","","17","","","","99.33","","","","","","NA"
"2008-04-28 15:00","2008","04","28","15:00","0.9","","-3.6","","72","","28","","20","","","","99.30","","","","","","NA"
"2008-04-28 16:00","2008","04","28","16:00","0.7","","-3.6","","73","","27","","20","","","","99.27","","","","","","NA"
"2008-04-28 17:00","2008","04","28","17:00","1.5","","-2.8","","73","","26","","24","","","","99.25","","","","","","NA"
"2008-04-28 18:00","2008","04","28","18:00","1.3","","-3.6","","70","","28","","15","","","","99.24","","","","","","NA"
"2008-04-28 19:00","2008","04","28","19:00","1.3","","-2.9","","74","","28","","15","","","","99.22","","","","","","NA"
"2008-04-28 20:00","2008","04","28","20:00","0.7","","-8.2","","51","","35","","9","","","","99.24","","","","","","NA"
"2008-04-28 21:00","2008","04","28","21:00","-0.7","","-6.6","","64","","4","","7","","","","99.26","","","","-3","","NA"
"2008-04-28 22:00","2008","04","28","22:00","-1.8","","-4.4","","82","","4","","9","","","","99.26","","","","-5","","NA"
"2008-04-28 23:00","2008","04","28","23:00","-2.4","","-5.0","","82","","5","","6","","","","99.22","","","","-5","","NA"
"2008-04-29 00:00","2008","04","29","00:00","-3.2","","-5.0","","87","","2","","6","","","","99.22","","","","-6","","NA"
"2008-04-29 01:00","2008","04","29","01:00","-3.8","","-5.0","","91","","5","","6","","","","99.20","","","","-6","","NA"
"2008-04-29 02:00","2008","04","29","02:00","-4.2","","-5.8","","89","","","","0","","","","99.18","","","","","","NA"
"2008-04-29 03:00","2008","04","29","03:00","-5.1","","-5.8","","95","","7","","6","","","","99.17","","","","-8","","NA"
"2008-04-29 04:00","2008","04","29","04:00","-5.5","","-5.9","","97","","6","","9","","","","99.17","","","","-10","","NA"
"2008-04-29 05:00","2008","04","29","05:00","-4.3","","-6.2","","87","","8","","7","","","","99.17","","","","-7","","NA"
"2008-04-29 06:00","2008","04","29","06:00","-3.6","","-5.6","","86","","8","","7","","","","99.20","","","","-7","","NA"
"2008-04-29 07:00","2008","04","29","07:00","-2.4","","-5.5","","79","","9","","7","","","","99.19","","","","-5","","NA"
"2008-04-29 08:00","2008","04","29","08:00","0.5","","-2.3","","81","","17","","13","","","","99.19","","","","","","NA"
"2008-04-29 09:00","2008","04","29","09:00","1.4","","0.7","","95","","22","","15","","","","99.17","","","","","","NA"
"2008-04-29 10:00","2008","04","29","10:00","2.5","","0.5","","87","","24","","17","","","","99.13","","","","","","NA"
"2008-04-29 11:00","2008","04","29","11:00","2.6","","-0.3","","81","","27","","20","","","","99.12","","","","","","NA"
"2008-04-29 12:00","2008","04","29","12:00","2.9","","0.0","","81","","26","","19","","","","99.10","","","","","","NA"
"2008-04-29 13:00","2008","04","29","13:00","2.3","","0.6","","89","","23","","30","","","","99.08","","","","","","NA"
"2008-04-29 14:00","2008","04","29","14:00","1.5","","0.3","","92","","24","","22","","","","99.08","","","","","","NA"
"2008-04-29 15:00","2008","04","29","15:00","2.0","","1.1","","94","","24","","17","","","","99.05","","","","","","NA"
"2008-04-29 16:00","2008","04","29","16:00","1.9","","1.4","","96","","24","","11","","","","99.05","","","","","","NA"
"2008-04-29 17:00","2008","04","29","17:00","2.8","","1.0","","88","","24","","15","","","","99.01","","","","","","NA"
"2008-04-29 18:00","2008","04","29","18:00","2.7","","1.8","","94","","23","","11","","","","99.04","","","","","","NA"
"2008-04-29 19:00","2008","04","29","19:00","2.1","","1.2","","94","","21","","6","","","","99.02","","","","","","NA"
"2008-04-29 20:00","2008","04","29","20:00","1.1","","1.0","","99","","","","0","","","","99.03","","","","","","NA"
"2008-04-29 21:00","2008","04","29","21:00","0.2","","0.0","","99","","8","","7","","","","99.06","","","","","","NA"
"2008-04-29 22:00","2008","04","29","22:00","-0.9","","-0.9","","100","","7","","11","","","","99.05","","","","-5","","NA"
"2008-04-29 23:00","2008","04","29","23:00","-1.7","","-1.7","","100","","35","","4","","","","99.06","","","","-3","","NA"
"2008-04-30 00:00","2008","04","30","00:00","-2.0","","-2.0","","100","","7","","7","","","","99.06","","","","-5","","NA"
"2008-04-30 01:00","2008","04","30","01:00","-2.8","","-2.8","","100","","3","","6","","","","99.03","","","","-5","","NA"
"2008-04-30 02:00","2008","04","30","02:00","-3.2","","-3.2","","100","","","","0","","","","99.02","","","","","","NA"
"2008-04-30 03:00","2008","04","30","03:00","-3.7","","-3.7","","100","","6","","6","","","","99.01","","","","-6","","NA"
"2008-04-30 04:00","2008","04","30","04:00","-4.5","","-4.5","","100","","5","","9","","","","99.00","","","","-8","","NA"
"2008-04-30 05:00","2008","04","30","05:00","-4.5","","-4.5","","100","","5","","11","","","","99.00","","","","-9","","NA"
"2008-04-30 06:00","2008","04","30","06:00","-4.5","","-4.5","","100","","5","","7","","","","99.01","","","","-8","","NA"
"2008-04-30 07:00","2008","04","30","07:00","-1.5","","-2.5","","93","","9","","7","","","","99.05","","","","-4","","NA"
"2008-04-30 08:00","2008","04","30","08:00","1.2","","-2.2","","78","","8","","4","","","","99.06","","","","","","NA"
"2008-04-30 09:00","2008","04","30","09:00","0.8","","-2.4","","79","","25","","6","","","","99.07","","","","","","NA"
"2008-04-30 10:00","2008","04","30","10:00","1.9","","-1.8","","76","","29","","7","","","","99.06","","","","","","NA"
"2008-04-30 11:00","2008","04","30","11:00","2.6","","-2.1","","71","","25","","9","","","","99.06","","","","","","NA"
"2008-04-30 12:00","2008","04","30","12:00","3.8","","-2.4","","64","","27","","9","","","","99.03","","","","","","NA"
"2008-04-30 13:00","2008","04","30","13:00","3.9","","-2.3","","64","","26","","19","","","","99.00","","","","","","NA"
"2008-04-30 14:00","2008","04","30","14:00","3.9","","-2.2","","64","","26","","17","","","","99.00","","","","","","NA"
"2008-04-30 15:00","2008","04","30","15:00","4.3","","-0.9","","69","","26","","15","","","","98.97","","","","","","NA"
"2008-04-30 16:00","2008","04","30","16:00","3.3","","-1.2","","72","","25","","9","","","","98.95","","","","","","NA"
"2008-04-30 17:00","2008","04","30","17:00","3.8","","-0.9","","71","","25","","9","","","","98.96","","","","","","NA"
"2008-04-30 18:00","2008","04","30","18:00","2.6","","-0.4","","81","","24","","6","","","","98.95","","","","","","NA"
"2008-04-30 19:00","2008","04","30","19:00","2.9","","-0.8","","77","","22","","4","","","","98.93","","","","","","NA"
"2008-04-30 20:00","2008","04","30","20:00","1.7","","-2.7","","73","","8","","2","","","","98.94","","","","","","NA"
"2008-04-30 21:00","2008","04","30","21:00","-0.2","","-3.5","","78","","7","","6","","","","98.97","","","","-2","","NA"
"2008-04-30 22:00","2008","04","30","22:00","-1.3","","-3.8","","83","","7","","6","","","","99.00","","","","-4","","NA"
"2008-04-30 23:00","2008","04","30","23:00","-1.5","","-3.9","","84","","8","","11","","","","99.00","","","","-5","","NA"
