"Station Name","PUKASKWA (AUT)"
"Province","ONTARIO"
"Latitude","48.59"
"Longitude","-86.29"
"Elevation","207.60"
"Climate Identifier","6046767"
"WMO Identifier","71750"
"TC Identifier","WCJ"
"All times are specified in Local Standard Time (LST). Add 1 hour to adjust for Daylight Saving Time where and when it is observed."

"Legend"
"E","Estimated"
"M","Missing"
"NA","Not Available"

"Date/Time","Year","Month","Day","Time","Temp (°C)","Temp Flag","Dew Point Temp (°C)","Dew Point Temp Flag","Rel Hum (%)","Rel Hum Flag","Wind Dir (10s deg)","Wind Dir Flag","Wind Spd (km/h)","Wind Spd Flag","Visibility (km)","Visibility Flag","Stn Press (kPa)","Stn Press Flag","Hmdx","Hmdx Flag","Wind Chill","Wind Chill Flag","Weather"
"2001-08-01 00:00","2001","08","01","00:00","22.6","","20.9","","90","","19","","35","","","M","99.04","","31","","","","NA"
"2001-08-01 01:00","2001","08","01","01:00","22.9","","20.8","","88","","20","","43","","","M","98.93","","31","","","","NA"
"2001-08-01 02:00","2001","08","01","02:00","22.1","","20.4","","90","","20","","43","","","M","98.91","","30","","","","NA"
"2001-08-01 03:00","2001","08","01","03:00","22.0","","20.1","","89","","21","","41","","","M","98.92","","30","","","","NA"
"2001-08-01 04:00","2001","08","01","04:00","20.8","","19.5","","92","","20","","48","","","M","98.92","","28","","","","NA"
"2001-08-01 05:00","2001","08","01","05:00","21.0","","19.5","","91","","20","","41","","","M","98.84","","28","","","","NA"
"2001-08-01 06:00","2001","08","01","06:00","20.4","","19.1","","92","","21","","39","","","M","98.81","","27","","","","NA"
"2001-08-01 07:00","2001","08","01","07:00","19.4","","18.6","","95","","22","","41","","","M","98.91","","","","","","NA"
"2001-08-01 08:00","2001","08","01","08:00","18.7","","18.7","","100","","20","","32","","","M","98.88","","","","","","NA"
"2001-08-01 09:00","2001","08","01","09:00","17.2","","17.1","","99","","21","","22","","","M","98.93","","","","","","NA"
"2001-08-01 10:00","2001","08","01","10:00","17.5","","16.9","","96","","20","","28","","","M","99.00","","","","","","NA"
"2001-08-01 11:00","2001","08","01","11:00","20.2","","17.2","","83","","21","","17","","","M","99.02","","26","","","","NA"
"2001-08-01 12:00","2001","08","01","12:00","21.1","","16.7","","76","","22","","20","","","M","98.99","","26","","","","NA"
"2001-08-01 13:00","2001","08","01","13:00","20.0","","15.9","","77","","22","","28","","","M","99.04","","25","","","","NA"
"2001-08-01 14:00","2001","08","01","14:00","20.0","","17.4","","85","","22","","33","","","M","99.05","","26","","","","NA"
"2001-08-01 15:00","2001","08","01","15:00","19.1","","16.9","","87","","21","","28","","","M","99.07","","","","","","NA"
"2001-08-01 16:00","2001","08","01","16:00","19.5","","17.3","","87","","21","","26","","","M","99.07","","","","","","NA"
"2001-08-01 17:00","2001","08","01","17:00","19.0","","17.5","","91","","21","","28","","","M","99.03","","","","","","NA"
"2001-08-01 18:00","2001","08","01","18:00","19.7","","18.0","","90","","21","","28","","","M","98.99","","","","","","NA"
"2001-08-01 19:00","2001","08","01","19:00","18.8","","18.0","","95","","21","","28","","","M","99.02","","","","","","NA"
"2001-08-01 20:00","2001","08","01","20:00","17.6","","17.6","","100","","21","","26","","","M","99.04","","","","","","NA"
"2001-08-01 21:00","2001","08","01","21:00","17.3","","17.0","","98","","21","","17","","","M","99.13","","","","","","NA"
"2001-08-01 22:00","2001","08","01","22:00","18.1","","17.6","","97","","20","","11","","","M","99.11","","","","","","NA"
"2001-08-01 23:00","2001","08","01","23:00","17.8","","17.0","","95","","25","","15","","","M","99.16","","","","","","NA"
"2001-08-02 00:00","2001","08","02","00:00","15.4","","15.4","","100","","25","","7","","","M","99.17","","","","","","NA"
"2001-08-02 01:00","2001","08","02","01:00","15.3","","15.3","","100","","23","","6","","","M","99.19","","","","","","NA"
"2001-08-02 02:00","2001","08","02","02:00","14.5","","14.5","","100","","26","","4","","","M","99.21","","","","","","NA"
"2001-08-02 03:00","2001","08","02","03:00","13.7","","13.7","","100","","","","0","","","M","99.24","","","","","","NA"
"2001-08-02 04:00","2001","08","02","04:00","13.5","","13.5","","100","","24","","2","","","M","99.27","","","","","","NA"
"2001-08-02 05:00","2001","08","02","05:00","13.1","","13.1","","100","","23","","2","","","M","99.33","","","","","","NA"
"2001-08-02 06:00","2001","08","02","06:00","13.1","","13.1","","100","","","","0","","","M","99.35","","","","","","NA"
"2001-08-02 07:00","2001","08","02","07:00","13.3","","13.3","","100","","23","","2","","","M","99.42","","","","","","NA"
"2001-08-02 08:00","2001","08","02","08:00","13.5","","13.5","","100","","26","","6","","","M","99.49","","","","","","NA"
"2001-08-02 09:00","2001","08","02","09:00","14.5","","13.7","","95","","25","","7","","","M","99.50","","","","","","NA"
"2001-08-02 10:00","2001","08","02","10:00","15.5","","13.9","","90","","26","","6","","","M","99.50","","","","","","NA"
"2001-08-02 11:00","2001","08","02","11:00","15.6","","13.5","","87","","26","","6","","","M","99.56","","","","","","NA"
"2001-08-02 12:00","2001","08","02","12:00","16.7","","14.4","","86","","25","","7","","","M","99.54","","","","","","NA"
"2001-08-02 13:00","2001","08","02","13:00","18.1","","14.4","","79","","24","","7","","","M","99.57","","","","","","NA"
"2001-08-02 14:00","2001","08","02","14:00","19.9","","14.9","","73","","29","","7","","","M","99.52","","","","","","NA"
"2001-08-02 15:00","2001","08","02","15:00","20.2","","14.8","","71","","30","","4","","","M","99.51","","","","","","NA"
"2001-08-02 16:00","2001","08","02","16:00","18.9","","13.5","","71","","31","","6","","","M","99.52","","","","","","NA"
"2001-08-02 17:00","2001","08","02","17:00","19.9","","13.8","","68","","31","","11","","","M","99.49","","","","","","NA"
"2001-08-02 18:00","2001","08","02","18:00","20.1","","13.6","","66","","32","","9","","","M","99.49","","","","","","NA"
"2001-08-02 19:00","2001","08","02","19:00","18.4","","13.3","","72","","31","","9","","","M","99.47","","","","","","NA"
"2001-08-02 20:00","2001","08","02","20:00","17.2","","13.9","","81","","23","","9","","","M","99.48","","","","","","NA"
"2001-08-02 21:00","2001","08","02","21:00","16.1","","14.1","","88","","23","","7","","","M","99.54","","","","","","NA"
"2001-08-02 22:00","2001","08","02","22:00","15.5","","14.2","","92","","14","","6","","","M","99.54","","","","","","NA"
"2001-08-02 23:00","2001","08","02","23:00","15.0","","13.7","","92","","11","","4","","","M","99.55","","","","","","NA"
"2001-08-03 00:00","2001","08","03","00:00","14.5","","13.7","","95","","9","","7","","","M","99.57","","","","","","NA"
"2001-08-03 01:00","2001","08","03","01:00","13.8","","13.3","","97","","36","","4","","","M","99.57","","","","","","NA"
"2001-08-03 02:00","2001","08","03","02:00","13.7","","13.4","","98","","5","","9","","","M","99.53","","","","","","NA"
"2001-08-03 03:00","2001","08","03","03:00","13.4","","13.4","","100","","8","","11","","","M","99.51","","","","","","NA"
"2001-08-03 04:00","2001","08","03","04:00","13.3","","13.2","","99","","8","","11","","","M","99.48","","","","","","NA"
"2001-08-03 05:00","2001","08","03","05:00","13.2","","13.2","","100","","8","","7","","","M","99.50","","","","","","NA"
"2001-08-03 06:00","2001","08","03","06:00","13.2","","12.9","","98","","6","","9","","","M","99.52","","","","","","NA"
"2001-08-03 07:00","2001","08","03","07:00","15.4","","13.4","","88","","10","","7","","","M","99.54","","","","","","NA"
"2001-08-03 08:00","2001","08","03","08:00","18.6","","14.3","","76","","19","","2","","","M","99.54","","","","","","NA"
"2001-08-03 09:00","2001","08","03","09:00","18.6","","14.1","","75","","27","","4","","","M","99.55","","","","","","NA"
"2001-08-03 10:00","2001","08","03","10:00","18.2","","13.7","","75","","26","","6","","","M","99.53","","","","","","NA"
"2001-08-03 11:00","2001","08","03","11:00","18.5","","14.4","","77","","24","","7","","","M","99.55","","","","","","NA"
"2001-08-03 12:00","2001","08","03","12:00","19.6","","14.6","","73","","24","","7","","","M","99.52","","","","","","NA"
"2001-08-03 13:00","2001","08","03","13:00","19.0","","14.5","","75","","24","","9","","","M","99.47","","","","","","NA"
"2001-08-03 14:00","2001","08","03","14:00","20.8","","14.7","","68","","21","","7","","","M","99.41","","25","","","","NA"
"2001-08-03 15:00","2001","08","03","15:00","21.7","","14.6","","64","","22","","9","","","M","99.39","","25","","","","NA"
"2001-08-03 16:00","2001","08","03","16:00","21.6","","14.8","","65","","21","","13","","","M","99.34","","25","","","","NA"
"2001-08-03 17:00","2001","08","03","17:00","20.9","","15.2","","70","","20","","11","","","M","99.30","","25","","","","NA"
"2001-08-03 18:00","2001","08","03","18:00","19.8","","15.0","","74","","21","","6","","","M","99.25","","","","","","NA"
"2001-08-03 19:00","2001","08","03","19:00","17.6","","15.2","","86","","22","","6","","","M","99.21","","","","","","NA"
"2001-08-03 20:00","2001","08","03","20:00","17.4","","15.4","","88","","22","","7","","","M","99.15","","","","","","NA"
"2001-08-03 21:00","2001","08","03","21:00","16.2","","15.7","","97","","22","","7","","","M","99.13","","","","","","NA"
"2001-08-03 22:00","2001","08","03","22:00","16.0","","15.7","","98","","20","","6","","","M","99.13","","","","","","NA"
"2001-08-03 23:00","2001","08","03","23:00","15.0","","14.9","","99","","13","","4","","","M","99.12","","","","","","NA"
"2001-08-04 00:00","2001","08","04","00:00","14.3","","14.3","","100","","15","","4","","","M","99.09","","","","","","NA"
"2001-08-04 01:00","2001","08","04","01:00","14.2","","14.2","","100","","15","","4","","","M","99.07","","","","","","NA"
"2001-08-04 02:00","2001","08","04","02:00","14.2","","14.2","","100","","20","","4","","","M","99.06","","","","","","NA"
"2001-08-04 03:00","2001","08","04","03:00","15.1","","15.0","","99","","18","","4","","","M","99.05","","","","","","NA"
"2001-08-04 04:00","2001","08","04","04:00","15.6","","15.1","","97","","21","","4","","","M","99.06","","","","","","NA"
"2001-08-04 05:00","2001","08","04","05:00","15.8","","15.3","","97","","22","","6","","","M","99.06","","","","","","NA"
"2001-08-04 06:00","2001","08","04","06:00","16.1","","15.5","","96","","23","","11","","","M","99.06","","","","","","NA"
"2001-08-04 07:00","2001","08","04","07:00","17.3","","15.5","","89","","20","","11","","","M","99.09","","","","","","NA"
"2001-08-04 08:00","2001","08","04","08:00","18.6","","14.9","","79","","21","","15","","","M","99.09","","","","","","NA"
"2001-08-04 09:00","2001","08","04","09:00","19.4","","14.7","","74","","22","","19","","","M","99.09","","","","","","NA"
"2001-08-04 10:00","2001","08","04","10:00","20.2","","14.6","","70","","22","","17","","","M","99.10","","","","","","NA"
"2001-08-04 11:00","2001","08","04","11:00","20.0","","14.6","","71","","22","","20","","","M","99.13","","","","","","NA"
"2001-08-04 12:00","2001","08","04","12:00","20.3","","14.7","","70","","21","","17","","","M","99.12","","","","","","NA"
"2001-08-04 13:00","2001","08","04","13:00","20.4","","15.2","","72","","22","","15","","","M","99.10","","","","","","NA"
"2001-08-04 14:00","2001","08","04","14:00","20.2","","15.2","","73","","22","","13","","","M","99.13","","","","","","NA"
"2001-08-04 15:00","2001","08","04","15:00","20.4","","15.0","","71","","21","","17","","","M","99.08","","","","","","NA"
"2001-08-04 16:00","2001","08","04","16:00","20.5","","15.1","","71","","21","","15","","","M","99.08","","25","","","","NA"
"2001-08-04 17:00","2001","08","04","17:00","20.0","","15.2","","74","","22","","9","","","M","99.07","","","","","","NA"
"2001-08-04 18:00","2001","08","04","18:00","18.8","","15.3","","80","","22","","7","","","M","99.02","","","","","","NA"
"2001-08-04 19:00","2001","08","04","19:00","18.2","","16.0","","87","","22","","7","","","M","98.99","","","","","","NA"
"2001-08-04 20:00","2001","08","04","20:00","17.6","","16.3","","92","","21","","13","","","M","98.96","","","","","","NA"
"2001-08-04 21:00","2001","08","04","21:00","16.6","","16.5","","99","","20","","7","","","M","99.02","","","","","","NA"
"2001-08-04 22:00","2001","08","04","22:00","17.2","","16.6","","96","","22","","9","","","M","99.07","","","","","","NA"
"2001-08-04 23:00","2001","08","04","23:00","16.8","","16.7","","99","","20","","13","","","M","99.08","","","","","","NA"
"2001-08-05 00:00","2001","08","05","00:00","16.8","","16.5","","98","","21","","15","","","M","99.04","","","","","","NA"
"2001-08-05 01:00","2001","08","05","01:00","17.0","","16.7","","98","","22","","15","","","M","99.00","","","","","","NA"
"2001-08-05 02:00","2001","08","05","02:00","17.0","","16.9","","99","","21","","11","","","M","98.99","","","","","","NA"
"2001-08-05 03:00","2001","08","05","03:00","16.9","","16.8","","99","","34","","9","","","M","99.01","","","","","","NA"
"2001-08-05 04:00","2001","08","05","04:00","16.8","","16.8","","100","","8","","11","","","M","98.99","","","","","","NA"
"2001-08-05 05:00","2001","08","05","05:00","16.5","","16.5","","100","","6","","9","","","M","99.02","","","","","","NA"
"2001-08-05 06:00","2001","08","05","06:00","17.4","","17.4","","100","","","","0","","","M","99.02","","","","","","NA"
"2001-08-05 07:00","2001","08","05","07:00","20.0","","18.1","","89","","22","","19","","","M","99.06","","26","","","","NA"
"2001-08-05 08:00","2001","08","05","08:00","20.2","","17.4","","84","","21","","24","","","M","99.07","","26","","","","NA"
"2001-08-05 09:00","2001","08","05","09:00","20.4","","17.6","","84","","20","","19","","","M","99.01","","26","","","","NA"
"2001-08-05 10:00","2001","08","05","10:00","20.5","","17.7","","84","","20","","26","","","M","98.97","","26","","","","NA"
"2001-08-05 11:00","2001","08","05","11:00","20.6","","18.0","","85","","21","","24","","","M","99.02","","27","","","","NA"
"2001-08-05 12:00","2001","08","05","12:00","21.1","","17.9","","82","","20","","28","","","M","99.01","","27","","","","NA"
"2001-08-05 13:00","2001","08","05","13:00","20.0","","18.0","","88","","20","","28","","","M","99.03","","26","","","","NA"
"2001-08-05 14:00","2001","08","05","14:00","19.8","","18.6","","93","","20","","30","","","M","98.96","","","","","","NA"
"2001-08-05 15:00","2001","08","05","15:00","21.0","","19.1","","89","","20","","28","","","M","98.91","","28","","","","NA"
"2001-08-05 16:00","2001","08","05","16:00","21.4","","19.3","","88","","20","","28","","","M","98.83","","28","","","","NA"
"2001-08-05 17:00","2001","08","05","17:00","21.5","","19.4","","88","","20","","20","","","M","98.87","","29","","","","NA"
"2001-08-05 18:00","2001","08","05","18:00","21.7","","20.0","","90","","20","","33","","","M","98.78","","29","","","","NA"
"2001-08-05 19:00","2001","08","05","19:00","21.8","","20.1","","90","","20","","30","","","M","98.73","","29","","","","NA"
"2001-08-05 20:00","2001","08","05","20:00","21.8","","19.9","","89","","20","","37","","","M","98.67","","29","","","","NA"
"2001-08-05 21:00","2001","08","05","21:00","21.0","","18.9","","88","","20","","39","","","M","98.69","","28","","","","NA"
"2001-08-05 22:00","2001","08","05","22:00","20.7","","19.0","","90","","21","","37","","","M","98.67","","27","","","","NA"
"2001-08-05 23:00","2001","08","05","23:00","18.5","","18.5","","100","","22","","15","","","M","98.71","","","","","","NA"
"2001-08-06 00:00","2001","08","06","00:00","16.7","","16.7","","100","","19","","19","","","M","98.68","","","","","","NA"
"2001-08-06 01:00","2001","08","06","01:00","17.5","","17.5","","100","","20","","19","","","M","98.66","","","","","","NA"
"2001-08-06 02:00","2001","08","06","02:00","17.7","","17.7","","100","","19","","17","","","M","98.65","","","","","","NA"
"2001-08-06 03:00","2001","08","06","03:00","18.2","","18.2","","100","","18","","20","","","M","98.62","","","","","","NA"
"2001-08-06 04:00","2001","08","06","04:00","18.5","","18.5","","100","","19","","20","","","M","98.65","","","","","","NA"
"2001-08-06 05:00","2001","08","06","05:00","18.0","","18.0","","100","","20","","17","","","M","98.67","","","","","","NA"
"2001-08-06 06:00","2001","08","06","06:00","17.0","","17.0","","100","","20","","15","","","M","98.70","","","","","","NA"
"2001-08-06 07:00","2001","08","06","07:00","16.8","","16.8","","100","","19","","13","","","M","98.77","","","","","","NA"
"2001-08-06 08:00","2001","08","06","08:00","16.4","","16.4","","100","","19","","11","","","M","98.83","","","","","","NA"
"2001-08-06 09:00","2001","08","06","09:00","18.0","","18.0","","100","","20","","7","","","M","98.82","","","","","","NA"
"2001-08-06 10:00","2001","08","06","10:00","18.0","","17.7","","98","","22","","9","","","M","98.84","","","","","","NA"
"2001-08-06 11:00","2001","08","06","11:00","19.1","","18.3","","95","","20","","9","","","M","98.88","","","","","","NA"
"2001-08-06 12:00","2001","08","06","12:00","18.4","","17.4","","94","","21","","11","","","M","98.88","","","","","","NA"
"2001-08-06 13:00","2001","08","06","13:00","18.8","","18.6","","99","","21","","13","","","M","98.88","","","","","","NA"
"2001-08-06 14:00","2001","08","06","14:00","18.5","","18.2","","98","","20","","19","","","M","98.87","","","","","","NA"
"2001-08-06 15:00","2001","08","06","15:00","19.9","","18.7","","93","","20","","17","","","M","98.89","","","","","","NA"
"2001-08-06 16:00","2001","08","06","16:00","20.2","","19.2","","94","","20","","17","","","M","98.88","","27","","","","NA"
"2001-08-06 17:00","2001","08","06","17:00","20.3","","19.3","","94","","20","","13","","","M","98.88","","27","","","","NA"
"2001-08-06 18:00","2001","08","06","18:00","20.0","","19.0","","94","","20","","11","","","M","98.90","","27","","","","NA"
"2001-08-06 19:00","2001","08","06","19:00","20.2","","19.0","","93","","20","","9","","","M","98.92","","27","","","","NA"
"2001-08-06 20:00","2001","08","06","20:00","19.5","","19.0","","97","","19","","6","","","M","98.91","","","","","","NA"
"2001-08-06 21:00","2001","08","06","21:00","17.8","","17.8","","100","","19","","11","","","M","98.96","","","","","","NA"
"2001-08-06 22:00","2001","08","06","22:00","17.9","","17.9","","100","","19","","7","","","M","98.99","","","","","","NA"
"2001-08-06 23:00","2001","08","06","23:00","18.3","","18.3","","100","","16","","4","","","M","98.99","","","","","","NA"
"2001-08-07 00:00","2001","08","07","00:00","16.9","","16.9","","100","","25","","2","","","M","99.00","","","","","","NA"
"2001-08-07 01:00","2001","08","07","01:00","16.9","","16.9","","100","","9","","4","","","M","99.00","","","","","","NA"
"2001-08-07 02:00","2001","08","07","02:00","17.0","","17.0","","100","","13","","6","","","M","99.01","","","","","","NA"
"2001-08-07 03:00","2001","08","07","03:00","17.2","","17.2","","100","","9","","4","","","M","99.01","","","","","","NA"
"2001-08-07 04:00","2001","08","07","04:00","16.5","","16.5","","100","","10","","6","","","M","99.05","","","","","","NA"
"2001-08-07 05:00","2001","08","07","05:00","16.2","","16.2","","100","","9","","4","","","M","99.10","","","","","","NA"
"2001-08-07 06:00","2001","08","07","06:00","16.8","","16.8","","100","","7","","4","","","M","99.14","","","","","","NA"
"2001-08-07 07:00","2001","08","07","07:00","17.7","","17.2","","97","","8","","4","","","M","99.20","","","","","","NA"
"2001-08-07 08:00","2001","08","07","08:00","18.1","","17.0","","93","","18","","4","","","M","99.20","","","","","","NA"
"2001-08-07 09:00","2001","08","07","09:00","17.6","","16.3","","92","","21","","2","","","M","99.20","","","","","","NA"
"2001-08-07 10:00","2001","08","07","10:00","18.8","","17.0","","89","","26","","6","","","M","99.22","","","","","","NA"
"2001-08-07 11:00","2001","08","07","11:00","18.9","","17.6","","92","","24","","6","","","M","99.20","","","","","","NA"
"2001-08-07 12:00","2001","08","07","12:00","21.7","","17.7","","78","","22","","9","","","M","99.18","","27","","","","NA"
"2001-08-07 13:00","2001","08","07","13:00","19.0","","15.5","","80","","24","","19","","","M","99.22","","","","","","NA"
"2001-08-07 14:00","2001","08","07","14:00","22.5","","16.8","","70","","19","","11","","","M","99.12","","28","","","","NA"
"2001-08-07 15:00","2001","08","07","15:00","23.5","","16.6","","65","","20","","19","","","M","99.04","","29","","","","NA"
"2001-08-07 16:00","2001","08","07","16:00","23.1","","16.9","","68","","20","","20","","","M","98.98","","28","","","","NA"
"2001-08-07 17:00","2001","08","07","17:00","23.0","","16.3","","66","","20","","19","","","M","98.92","","28","","","","NA"
"2001-08-07 18:00","2001","08","07","18:00","22.3","","15.9","","67","","20","","17","","","M","98.87","","27","","","","NA"
"2001-08-07 19:00","2001","08","07","19:00","21.1","","15.6","","71","","20","","20","","","M","98.84","","25","","","","NA"
"2001-08-07 20:00","2001","08","07","20:00","19.4","","15.7","","79","","20","","20","","","M","98.82","","","","","","NA"
"2001-08-07 21:00","2001","08","07","21:00","18.9","","16.1","","84","","20","","19","","","M","98.81","","","","","","NA"
"2001-08-07 22:00","2001","08","07","22:00","18.3","","16.5","","89","","19","","19","","","M","98.76","","","","","","NA"
"2001-08-07 23:00","2001","08","07","23:00","18.2","","16.4","","89","","19","","15","","","M","98.76","","","","","","NA"
"2001-08-08 00:00","2001","08","08","00:00","18.0","","16.2","","89","","20","","13","","","M","98.77","","","","","","NA"
"2001-08-08 01:00","2001","08","08","01:00","17.5","","17.0","","97","","20","","11","","","M","98.73","","","","","","NA"
"2001-08-08 02:00","2001","08","08","02:00","17.3","","17.0","","98","","21","","9","","","M","98.72","","","","","","NA"
"2001-08-08 03:00","2001","08","08","03:00","17.0","","16.9","","99","","22","","11","","","M","98.71","","","","","","NA"
"2001-08-08 04:00","2001","08","08","04:00","17.0","","17.0","","100","","19","","7","","","M","98.70","","","","","","NA"
"2001-08-08 05:00","2001","08","08","05:00","17.1","","17.0","","99","","14","","6","","","M","98.71","","","","","","NA"
"2001-08-08 06:00","2001","08","08","06:00","17.0","","16.7","","98","","18","","6","","","M","98.69","","","","","","NA"
"2001-08-08 07:00","2001","08","08","07:00","17.0","","16.4","","96","","","","0","","","M","98.64","","","","","","NA"
"2001-08-08 08:00","2001","08","08","08:00","18.5","","16.8","","90","","18","","2","","","M","98.65","","","","","","NA"
"2001-08-08 09:00","2001","08","08","09:00","18.9","","16.9","","88","","20","","7","","","M","98.67","","","","","","NA"
"2001-08-08 10:00","2001","08","08","10:00","17.4","","16.4","","94","","16","","19","","","M","98.79","","","","","","NA"
"2001-08-08 11:00","2001","08","08","11:00","17.7","","16.1","","90","","21","","17","","","M","98.71","","","","","","NA"
"2001-08-08 12:00","2001","08","08","12:00","19.1","","16.2","","83","","12","","13","","","M","98.53","","","","","","NA"
"2001-08-08 13:00","2001","08","08","13:00","23.1","","17.3","","70","","10","","7","","","M","98.40","","29","","","","NA"
"2001-08-08 14:00","2001","08","08","14:00","20.3","","15.9","","76","","24","","11","","","M","98.49","","25","","","","NA"
"2001-08-08 15:00","2001","08","08","15:00","20.1","","15.8","","76","","20","","22","","","M","98.53","","25","","","","NA"
"2001-08-08 16:00","2001","08","08","16:00","18.2","","15.6","","85","","21","","20","","","M","98.55","","","","","","NA"
"2001-08-08 17:00","2001","08","08","17:00","17.4","","16.4","","94","","20","","32","","","M","98.35","","","","","","NA"
"2001-08-08 18:00","2001","08","08","18:00","18.2","","17.4","","95","","20","","17","","","M","98.41","","","","","","NA"
"2001-08-08 19:00","2001","08","08","19:00","18.7","","17.7","","94","","19","","11","","","M","98.29","","","","","","NA"
"2001-08-08 20:00","2001","08","08","20:00","18.0","","17.2","","95","","20","","13","","","M","98.25","","","","","","NA"
"2001-08-08 21:00","2001","08","08","21:00","17.6","","17.6","","100","","19","","13","","","M","98.23","","","","","","NA"
"2001-08-08 22:00","2001","08","08","22:00","17.9","","17.6","","98","","20","","22","","","M","98.32","","","","","","NA"
"2001-08-08 23:00","2001","08","08","23:00","18.3","","18.0","","98","","19","","28","","","M","98.25","","","","","","NA"
"2001-08-09 00:00","2001","08","09","00:00","19.5","","18.7","","95","","18","","17","","","M","98.06","","","","","","NA"
"2001-08-09 01:00","2001","08","09","01:00","18.7","","17.7","","94","","21","","24","","","M","98.08","","","","","","NA"
"2001-08-09 02:00","2001","08","09","02:00","17.4","","17.1","","98","","22","","13","","","M","98.08","","","","","","NA"
"2001-08-09 03:00","2001","08","09","03:00","17.1","","17.1","","100","","22","","15","","","M","97.98","","","","","","NA"
"2001-08-09 04:00","2001","08","09","04:00","18.2","","17.6","","96","","22","","22","","","M","97.93","","","","","","NA"
"2001-08-09 05:00","2001","08","09","05:00","17.4","","17.3","","99","","23","","11","","","M","97.88","","","","","","NA"
"2001-08-09 06:00","2001","08","09","06:00","17.5","","17.5","","100","","18","","20","","","M","97.67","","","","","","NA"
"2001-08-09 07:00","2001","08","09","07:00","16.9","","16.8","","99","","23","","30","","","M","97.74","","","","","","NA"
"2001-08-09 08:00","2001","08","09","08:00","16.0","","16.0","","100","","21","","6","","","M","97.75","","","","","","NA"
"2001-08-09 09:00","2001","08","09","09:00","17.1","","16.5","","96","","21","","24","","","M","97.68","","","","","","NA"
"2001-08-09 10:00","2001","08","09","10:00","15.7","","15.6","","99","","25","","17","","","M","97.82","","","","","","NA"
"2001-08-09 11:00","2001","08","09","11:00","16.5","","15.7","","95","","25","","4","","","M","97.80","","","","","","NA"
"2001-08-09 12:00","2001","08","09","12:00","17.2","","15.9","","92","","31","","13","","","M","97.82","","","","","","NA"
"2001-08-09 13:00","2001","08","09","13:00","18.3","","15.2","","82","","29","","15","","","M","97.83","","","","","","NA"
"2001-08-09 14:00","2001","08","09","14:00","18.6","","15.1","","80","","27","","26","","","M","97.80","","","","","","NA"
"2001-08-09 15:00","2001","08","09","15:00","18.7","","14.6","","77","","26","","22","","","M","97.80","","","","","","NA"
"2001-08-09 16:00","2001","08","09","16:00","18.9","","14.0","","73","","27","","22","","","M","97.81","","","","","","NA"
"2001-08-09 17:00","2001","08","09","17:00","17.9","","13.8","","77","","27","","24","","","M","97.87","","","","","","NA"
"2001-08-09 18:00","2001","08","09","18:00","17.5","","13.8","","79","","28","","30","","","M","97.87","","","","","","NA"
"2001-08-09 19:00","2001","08","09","19:00","17.7","","13.0","","74","","28","","24","","","M","97.88","","","","","","NA"
"2001-08-09 20:00","2001","08","09","20:00","17.7","","12.2","","70","","29","","28","","","M","97.95","","","","","","NA"
"2001-08-09 21:00","2001","08","09","21:00","17.5","","12.6","","73","","29","","26","","","M","98.00","","","","","","NA"
"2001-08-09 22:00","2001","08","09","22:00","17.6","","11.2","","66","","31","","20","","","M","98.07","","","","","","NA"
"2001-08-09 23:00","2001","08","09","23:00","17.0","","11.9","","72","","31","","15","","","M","98.16","","","","","","NA"
"2001-08-10 00:00","2001","08","10","00:00","16.6","","12.2","","75","","30","","24","","","M","98.21","","","","","","NA"
"2001-08-10 01:00","2001","08","10","01:00","16.5","","12.9","","79","","32","","19","","","M","98.28","","","","","","NA"
"2001-08-10 02:00","2001","08","10","02:00","15.9","","12.3","","79","","33","","19","","","M","98.35","","","","","","NA"
"2001-08-10 03:00","2001","08","10","03:00","15.4","","12.2","","81","","33","","11","","","M","98.53","","","","","","NA"
"2001-08-10 04:00","2001","08","10","04:00","14.7","","10.9","","78","","33","","15","","","M","98.64","","","","","","NA"
"2001-08-10 05:00","2001","08","10","05:00","13.9","","10.1","","78","","36","","7","","","M","98.73","","","","","","NA"
"2001-08-10 06:00","2001","08","10","06:00","13.4","","10.0","","80","","35","","19","","","M","98.81","","","","","","NA"
"2001-08-10 07:00","2001","08","10","07:00","13.9","","8.7","","71","","2","","4","","","M","98.91","","","","","","NA"
"2001-08-10 08:00","2001","08","10","08:00","15.0","","8.3","","64","","33","","11","","","M","98.99","","","","","","NA"
"2001-08-10 09:00","2001","08","10","09:00","15.6","","9.1","","65","","31","","13","","","M","99.04","","","","","","NA"
"2001-08-10 10:00","2001","08","10","10:00","16.7","","9.2","","61","","29","","11","","","M","99.04","","","","","","NA"
"2001-08-10 11:00","2001","08","10","11:00","16.8","","10.4","","66","","28","","17","","","M","99.06","","","","","","NA"
"2001-08-10 12:00","2001","08","10","12:00","17.1","","12.0","","72","","27","","20","","","M","99.09","","","","","","NA"
"2001-08-10 13:00","2001","08","10","13:00","16.6","","12.4","","76","","26","","22","","","M","99.12","","","","","","NA"
"2001-08-10 14:00","2001","08","10","14:00","15.7","","12.3","","80","","27","","22","","","M","99.13","","","","","","NA"
"2001-08-10 15:00","2001","08","10","15:00","17.7","","12.8","","73","","27","","15","","","M","99.14","","","","","","NA"
"2001-08-10 16:00","2001","08","10","16:00","16.7","","11.6","","72","","28","","20","","","M","99.15","","","","","","NA"
"2001-08-10 17:00","2001","08","10","17:00","17.1","","10.7","","66","","28","","22","","","M","99.17","","","","","","NA"
"2001-08-10 18:00","2001","08","10","18:00","16.2","","11.6","","74","","27","","22","","","M","99.22","","","","","","NA"
"2001-08-10 19:00","2001","08","10","19:00","15.4","","11.6","","78","","29","","13","","","M","99.24","","","","","","NA"
"2001-08-10 20:00","2001","08","10","20:00","14.5","","11.7","","83","","29","","9","","","M","99.23","","","","","","NA"
"2001-08-10 21:00","2001","08","10","21:00","14.3","","11.6","","84","","29","","7","","","M","99.25","","","","","","NA"
"2001-08-10 22:00","2001","08","10","22:00","14.4","","11.9","","85","","29","","7","","","M","99.24","","","","","","NA"
"2001-08-10 23:00","2001","08","10","23:00","14.4","","11.9","","85","","29","","9","","","M","99.23","","","","","","NA"
"2001-08-11 00:00","2001","08","11","00:00","14.2","","11.9","","86","","27","","7","","","M","99.24","","","","","","NA"
"2001-08-11 01:00","2001","08","11","01:00","12.3","","10.9","","91","","14","","4","","","M","99.23","","","","","","NA"
"2001-08-11 02:00","2001","08","11","02:00","12.9","","12.1","","95","","19","","6","","","M","99.21","","","","","","NA"
"2001-08-11 03:00","2001","08","11","03:00","11.7","","10.9","","95","","11","","7","","","M","99.22","","","","","","NA"
"2001-08-11 04:00","2001","08","11","04:00","13.2","","12.3","","94","","21","","15","","","M","99.24","","","","","","NA"
"2001-08-11 05:00","2001","08","11","05:00","14.1","","12.0","","87","","20","","13","","","M","99.24","","","","","","NA"
"2001-08-11 06:00","2001","08","11","06:00","14.5","","12.2","","86","","21","","15","","","M","99.25","","","","","","NA"
"2001-08-11 07:00","2001","08","11","07:00","15.1","","12.1","","82","","21","","22","","","M","99.26","","","","","","NA"
"2001-08-11 08:00","2001","08","11","08:00","16.1","","12.5","","79","","20","","20","","","M","99.25","","","","","","NA"
"2001-08-11 09:00","2001","08","11","09:00","16.4","","12.6","","78","","22","","26","","","M","99.24","","","","","","NA"
"2001-08-11 10:00","2001","08","11","10:00","17.0","","13.3","","79","","21","","26","","","M","99.24","","","","","","NA"
"2001-08-11 11:00","2001","08","11","11:00","18.0","","13.5","","75","","20","","22","","","M","99.22","","","","","","NA"
"2001-08-11 12:00","2001","08","11","12:00","18.0","","12.9","","72","","21","","26","","","M","99.19","","","","","","NA"
"2001-08-11 13:00","2001","08","11","13:00","18.4","","12.4","","68","","22","","26","","","M","99.15","","","","","","NA"
"2001-08-11 14:00","2001","08","11","14:00","18.5","","12.9","","70","","20","","24","","","M","99.12","","","","","","NA"
"2001-08-11 15:00","2001","08","11","15:00","17.9","","12.8","","72","","21","","30","","","M","99.10","","","","","","NA"
"2001-08-11 16:00","2001","08","11","16:00","18.6","","12.6","","68","","20","","19","","","M","99.05","","","","","","NA"
"2001-08-11 17:00","2001","08","11","17:00","18.3","","12.5","","69","","21","","20","","","M","99.04","","","","","","NA"
"2001-08-11 18:00","2001","08","11","18:00","17.7","","12.6","","72","","20","","22","","","M","98.99","","","","","","NA"
"2001-08-11 19:00","2001","08","11","19:00","17.2","","12.9","","76","","19","","24","","","M","98.93","","","","","","NA"
"2001-08-11 20:00","2001","08","11","20:00","16.7","","12.5","","76","","20","","22","","","M","98.92","","","","","","NA"
"2001-08-11 21:00","2001","08","11","21:00","16.7","","12.7","","77","","19","","22","","","M","98.89","","","","","","NA"
"2001-08-11 22:00","2001","08","11","22:00","16.5","","12.9","","79","","19","","22","","","M","98.86","","","","","","NA"
"2001-08-11 23:00","2001","08","11","23:00","16.6","","13.0","","79","","20","","30","","","M","98.83","","","","","","NA"
"2001-08-12 00:00","2001","08","12","00:00","16.8","","12.4","","75","","19","","30","","","M","98.81","","","","","","NA"
"2001-08-12 01:00","2001","08","12","01:00","17.6","","12.9","","74","","19","","33","","","M","98.75","","","","","","NA"
"2001-08-12 02:00","2001","08","12","02:00","17.0","","13.7","","81","","20","","24","","","M","98.79","","","","","","NA"
"2001-08-12 03:00","2001","08","12","03:00","15.7","","13.6","","87","","22","","20","","","M","98.80","","","","","","NA"
"2001-08-12 04:00","2001","08","12","04:00","14.8","","13.7","","93","","26","","11","","","M","98.83","","","","","","NA"
"2001-08-12 05:00","2001","08","12","05:00","14.7","","13.9","","95","","21","","9","","","M","98.79","","","","","","NA"
"2001-08-12 06:00","2001","08","12","06:00","14.9","","14.0","","94","","19","","9","","","M","98.81","","","","","","NA"
"2001-08-12 07:00","2001","08","12","07:00","14.9","","13.8","","93","","22","","13","","","M","98.86","","","","","","NA"
"2001-08-12 08:00","2001","08","12","08:00","15.3","","14.2","","93","","21","","4","","","M","98.89","","","","","","NA"
"2001-08-12 09:00","2001","08","12","09:00","15.9","","14.1","","89","","21","","9","","","M","98.94","","","","","","NA"
"2001-08-12 10:00","2001","08","12","10:00","15.6","","14.5","","93","","19","","4","","","M","98.99","","","","","","NA"
"2001-08-12 11:00","2001","08","12","11:00","15.6","","12.0","","79","","2","","9","","","M","99.05","","","","","","NA"
"2001-08-12 12:00","2001","08","12","12:00","15.4","","11.8","","79","","7","","4","","","M","99.08","","","","","","NA"
"2001-08-12 13:00","2001","08","12","13:00","17.9","","8.8","","55","","5","","15","","","M","99.09","","","","","","NA"
"2001-08-12 14:00","2001","08","12","14:00","20.0","","9.9","","52","","27","","9","","","M","99.10","","","","","","NA"
"2001-08-12 15:00","2001","08","12","15:00","19.9","","11.9","","60","","26","","13","","","M","99.10","","","","","","NA"
"2001-08-12 16:00","2001","08","12","16:00","17.4","","12.5","","73","","27","","24","","","M","99.12","","","","","","NA"
"2001-08-12 17:00","2001","08","12","17:00","17.4","","12.5","","73","","26","","17","","","M","99.16","","","","","","NA"
"2001-08-12 18:00","2001","08","12","18:00","17.4","","11.0","","66","","34","","6","","","M","99.15","","","","","","NA"
"2001-08-12 19:00","2001","08","12","19:00","18.2","","10.8","","62","","32","","9","","","M","99.19","","","","","","NA"
"2001-08-12 20:00","2001","08","12","20:00","17.2","","8.4","","56","","34","","9","","","M","99.26","","","","","","NA"
"2001-08-12 21:00","2001","08","12","21:00","15.8","","6.0","","52","","35","","7","","","M","99.35","","","","","","NA"
"2001-08-12 22:00","2001","08","12","22:00","14.0","","6.6","","61","","4","","7","","","M","99.40","","","","","","NA"
"2001-08-12 23:00","2001","08","12","23:00","12.2","","8.3","","77","","6","","6","","","M","99.43","","","","","","NA"
"2001-08-13 00:00","2001","08","13","00:00","10.5","","7.7","","83","","7","","9","","","M","99.45","","","","","","NA"
"2001-08-13 01:00","2001","08","13","01:00","10.4","","7.3","","81","","5","","11","","","M","99.47","","","","","","NA"
"2001-08-13 02:00","2001","08","13","02:00","9.5","","6.8","","83","","3","","13","","","M","99.48","","","","","","NA"
"2001-08-13 03:00","2001","08","13","03:00","9.2","","7.7","","90","","7","","6","","","M","99.49","","","","","","NA"
"2001-08-13 04:00","2001","08","13","04:00","8.0","","7.4","","96","","8","","7","","","M","99.54","","","","","","NA"
"2001-08-13 05:00","2001","08","13","05:00","8.0","","7.6","","97","","8","","7","","","M","99.57","","","","","","NA"
"2001-08-13 06:00","2001","08","13","06:00","7.7","","7.1","","96","","7","","6","","","M","99.63","","","","","","NA"
"2001-08-13 07:00","2001","08","13","07:00","10.3","","7.6","","83","","9","","7","","","M","99.65","","","","","","NA"
"2001-08-13 08:00","2001","08","13","08:00","13.1","","8.2","","72","","23","","4","","","M","99.68","","","","","","NA"
"2001-08-13 09:00","2001","08","13","09:00","15.4","","10.0","","70","","23","","7","","","M","99.71","","","","","","NA"
"2001-08-13 10:00","2001","08","13","10:00","16.6","","11.8","","73","","26","","13","","","M","99.71","","","","","","NA"
"2001-08-13 11:00","2001","08","13","11:00","17.6","","11.4","","67","","23","","11","","","M","99.69","","","","","","NA"
"2001-08-13 12:00","2001","08","13","12:00","17.4","","12.5","","73","","23","","13","","","M","99.66","","","","","","NA"
"2001-08-13 13:00","2001","08","13","13:00","17.2","","11.7","","70","","27","","19","","","M","99.65","","","","","","NA"
"2001-08-13 14:00","2001","08","13","14:00","18.6","","12.1","","66","","24","","13","","","M","99.63","","","","","","NA"
"2001-08-13 15:00","2001","08","13","15:00","17.8","","11.8","","68","","26","","24","","","M","99.58","","","","","","NA"
"2001-08-13 16:00","2001","08","13","16:00","17.2","","12.3","","73","","26","","26","","","M","99.56","","","","","","NA"
"2001-08-13 17:00","2001","08","13","17:00","17.2","","12.3","","73","","26","","20","","","M","99.52","","","","","","NA"
"2001-08-13 18:00","2001","08","13","18:00","16.5","","12.3","","76","","27","","19","","","M","99.49","","","","","","NA"
"2001-08-13 19:00","2001","08","13","19:00","16.4","","12.2","","76","","33","","7","","","M","99.51","","","","","","NA"
"2001-08-13 20:00","2001","08","13","20:00","15.4","","12.4","","82","","30","","13","","","M","99.49","","","","","","NA"
"2001-08-13 21:00","2001","08","13","21:00","15.5","","13.2","","86","","28","","11","","","M","99.51","","","","","","NA"
"2001-08-13 22:00","2001","08","13","22:00","15.6","","12.6","","82","","28","","6","","","M","99.50","","","","","","NA"
"2001-08-13 23:00","2001","08","13","23:00","14.4","","12.3","","87","","9","","2","","","M","99.48","","","","","","NA"
"2001-08-14 00:00","2001","08","14","00:00","15.2","","12.5","","84","","25","","13","","","M","99.45","","","","","","NA"
"2001-08-14 01:00","2001","08","14","01:00","13.8","","12.7","","93","","19","","7","","","M","99.42","","","","","","NA"
"2001-08-14 02:00","2001","08","14","02:00","12.4","","11.3","","93","","11","","6","","","M","99.39","","","","","","NA"
"2001-08-14 03:00","2001","08","14","03:00","12.0","","11.7","","98","","18","","7","","","M","99.37","","","","","","NA"
"2001-08-14 04:00","2001","08","14","04:00","10.4","","10.4","","100","","13","","6","","","M","99.36","","","","","","NA"
"2001-08-14 05:00","2001","08","14","05:00","11.4","","11.4","","100","","14","","6","","","M","99.36","","","","","","NA"
"2001-08-14 06:00","2001","08","14","06:00","12.1","","11.8","","98","","16","","7","","","M","99.35","","","","","","NA"
"2001-08-14 07:00","2001","08","14","07:00","15.2","","13.1","","87","","21","","20","","","M","99.35","","","","","","NA"
"2001-08-14 08:00","2001","08","14","08:00","15.3","","13.0","","86","","21","","19","","","M","99.32","","","","","","NA"
"2001-08-14 09:00","2001","08","14","09:00","16.3","","13.2","","82","","22","","20","","","M","99.29","","","","","","NA"
"2001-08-14 10:00","2001","08","14","10:00","17.5","","12.8","","74","","20","","17","","","M","99.23","","","","","","NA"
"2001-08-14 11:00","2001","08","14","11:00","17.8","","12.7","","72","","21","","24","","","M","99.21","","","","","","NA"
"2001-08-14 12:00","2001","08","14","12:00"
"2001-08-14 13:00","2001","08","14","13:00","18.2","","13.1","","72","","21","","28","","","M","99.09","","","","","","NA"
"2001-08-14 14:00","2001","08","14","14:00","19.3","","12.8","","66","","21","","24","","","M","99.04","","","","","","NA"
"2001-08-14 15:00","2001","08","14","15:00","18.9","","12.9","","68","","21","","24","","","M","98.97","","","","","","NA"
"2001-08-14 16:00","2001","08","14","16:00","19.1","","13.9","","72","","19","","22","","","M","98.90","","","","","","NA"
"2001-08-14 17:00","2001","08","14","17:00","18.4","","13.9","","75","","19","","26","","","M","98.80","","","","","","NA"
"2001-08-14 18:00","2001","08","14","18:00","17.8","","13.1","","74","","19","","24","","","M","98.74","","","","","","NA"
"2001-08-14 19:00","2001","08","14","19:00","17.2","","12.7","","75","","19","","22","","","M","98.66","","","","","","NA"
"2001-08-14 20:00","2001","08","14","20:00","17.6","","11.9","","69","","19","","30","","","M","98.51","","","","","","NA"
"2001-08-14 21:00","2001","08","14","21:00","18.4","","11.2","","63","","20","","33","","","M","98.44","","","","","","NA"
"2001-08-14 22:00","2001","08","14","22:00","19.0","","10.6","","58","","21","","32","","","M","98.46","","","","","","NA"
"2001-08-14 23:00","2001","08","14","23:00","17.0","","14.3","","84","","21","","24","","","M","98.46","","","","","","NA"
"2001-08-15 00:00","2001","08","15","00:00","16.8","","14.8","","88","","20","","22","","","M","98.44","","","","","","NA"
"2001-08-15 01:00","2001","08","15","01:00","15.6","","15.6","","100","","19","","11","","","M","98.40","","","","","","NA"
"2001-08-15 02:00","2001","08","15","02:00","16.0","","16.0","","100","","22","","20","","","M","98.36","","","","","","NA"
"2001-08-15 03:00","2001","08","15","03:00","16.1","","16.1","","100","","19","","17","","","M","98.30","","","","","","NA"
"2001-08-15 04:00","2001","08","15","04:00","16.1","","16.1","","100","","17","","19","","","M","98.25","","","","","","NA"
"2001-08-15 05:00","2001","08","15","05:00","16.1","","16.1","","100","","20","","15","","","M","98.31","","","","","","NA"
"2001-08-15 06:00","2001","08","15","06:00","15.9","","15.9","","100","","20","","22","","","M","98.35","","","","","","NA"
"2001-08-15 07:00","2001","08","15","07:00","15.9","","15.9","","100","","22","","28","","","M","98.36","","","","","","NA"
"2001-08-15 08:00","2001","08","15","08:00","16.0","","16.0","","100","","18","","22","","","M","98.31","","","","","","NA"
"2001-08-15 09:00","2001","08","15","09:00","16.4","","16.4","","100","","18","","26","","","M","98.32","","","","","","NA"
"2001-08-15 10:00","2001","08","15","10:00","16.5","","16.2","","98","","21","","26","","","M","98.36","","","","","","NA"
"2001-08-15 11:00","2001","08","15","11:00","16.3","","16.3","","100","","20","","26","","","M","98.34","","","","","","NA"
"2001-08-15 12:00","2001","08","15","12:00","16.3","","16.2","","99","","21","","24","","","M","98.33","","","","","","NA"
"2001-08-15 13:00","2001","08","15","13:00","16.3","","16.2","","99","","21","","28","","","M","98.31","","","","","","NA"
"2001-08-15 14:00","2001","08","15","14:00","15.7","","15.7","","100","","21","","22","","","M","98.33","","","","","","NA"
"2001-08-15 15:00","2001","08","15","15:00","15.8","","15.8","","100","","20","","17","","","M","98.30","","","","","","NA"
"2001-08-15 16:00","2001","08","15","16:00","16.0","","16.0","","100","","21","","22","","","M","98.26","","","","","","NA"
"2001-08-15 17:00","2001","08","15","17:00","15.6","","15.6","","100","","21","","19","","","M","98.28","","","","","","NA"
"2001-08-15 18:00","2001","08","15","18:00","15.6","","15.6","","100","","21","","17","","","M","98.30","","","","","","NA"
"2001-08-15 19:00","2001","08","15","19:00","15.7","","15.7","","100","","20","","19","","","M","98.31","","","","","","NA"
"2001-08-15 20:00","2001","08","15","20:00","16.0","","16.0","","100","","19","","15","","","M","98.31","","","","","","NA"
"2001-08-15 21:00","2001","08","15","21:00","16.2","","16.2","","100","","18","","19","","","M","98.34","","","","","","NA"
"2001-08-15 22:00","2001","08","15","22:00","16.3","","16.3","","100","","17","","9","","","M","98.31","","","","","","NA"
"2001-08-15 23:00","2001","08","15","23:00","16.0","","16.0","","100","","19","","24","","","M","98.28","","","","","","NA"
"2001-08-16 00:00","2001","08","16","00:00","15.7","","15.7","","100","","19","","22","","","M","98.30","","","","","","NA"
"2001-08-16 01:00","2001","08","16","01:00","15.4","","15.4","","100","","18","","22","","","M","98.32","","","","","","NA"
"2001-08-16 02:00","2001","08","16","02:00","15.5","","15.5","","100","","18","","19","","","M","98.32","","","","","","NA"
"2001-08-16 03:00","2001","08","16","03:00","15.5","","15.5","","100","","15","","7","","","M","98.30","","","","","","NA"
"2001-08-16 04:00","2001","08","16","04:00","15.7","","15.7","","100","","12","","6","","","M","98.30","","","","","","NA"
"2001-08-16 05:00","2001","08","16","05:00","15.8","","15.8","","100","","4","","7","","","M","98.27","","","","","","NA"
"2001-08-16 06:00","2001","08","16","06:00","15.9","","15.9","","100","","12","","9","","","M","98.32","","","","","","NA"
"2001-08-16 07:00","2001","08","16","07:00","15.9","","15.9","","100","","6","","4","","","M","98.35","","","","","","NA"
"2001-08-16 08:00","2001","08","16","08:00","16.2","","16.2","","100","","10","","13","","","M","98.36","","","","","","NA"
"2001-08-16 09:00","2001","08","16","09:00","16.4","","16.4","","100","","11","","13","","","M","98.37","","","","","","NA"
"2001-08-16 10:00","2001","08","16","10:00","16.9","","16.9","","100","","10","","13","","","M","98.38","","","","","","NA"
"2001-08-16 11:00","2001","08","16","11:00","16.9","","16.9","","100","","11","","9","","","M","98.41","","","","","","NA"
"2001-08-16 12:00","2001","08","16","12:00","16.9","","16.9","","100","","11","","11","","","M","98.41","","","","","","NA"
"2001-08-16 13:00","2001","08","16","13:00","16.8","","16.8","","100","","9","","11","","","M","98.43","","","","","","NA"
"2001-08-16 14:00","2001","08","16","14:00","17.2","","17.2","","100","","8","","6","","","M","98.44","","","","","","NA"
"2001-08-16 15:00","2001","08","16","15:00","16.9","","16.9","","100","","8","","15","","","M","98.43","","","","","","NA"
"2001-08-16 16:00","2001","08","16","16:00","16.5","","16.5","","100","","6","","13","","","M","98.43","","","","","","NA"
"2001-08-16 17:00","2001","08","16","17:00","15.8","","15.8","","100","","7","","17","","","M","98.44","","","","","","NA"
"2001-08-16 18:00","2001","08","16","18:00","15.6","","15.6","","100","","7","","15","","","M","98.46","","","","","","NA"
"2001-08-16 19:00","2001","08","16","19:00","15.1","","15.1","","100","","7","","15","","","M","98.45","","","","","","NA"
"2001-08-16 20:00","2001","08","16","20:00","14.9","","14.9","","100","","6","","15","","","M","98.46","","","","","","NA"
"2001-08-16 21:00","2001","08","16","21:00","14.7","","14.7","","100","","6","","13","","","M","98.47","","","","","","NA"
"2001-08-16 22:00","2001","08","16","22:00","14.6","","14.6","","100","","6","","17","","","M","98.47","","","","","","NA"
"2001-08-16 23:00","2001","08","16","23:00","14.6","","14.6","","100","","6","","15","","","M","98.44","","","","","","NA"
"2001-08-17 00:00","2001","08","17","00:00","14.5","","14.5","","100","","5","","11","","","M","98.42","","","","","","NA"
"2001-08-17 01:00","2001","08","17","01:00","14.4","","14.4","","100","","4","","13","","","M","98.43","","","","","","NA"
"2001-08-17 02:00","2001","08","17","02:00","14.6","","14.6","","100","","5","","9","","","M","98.39","","","","","","NA"
"2001-08-17 03:00","2001","08","17","03:00","14.5","","14.5","","100","","2","","6","","","M","98.41","","","","","","NA"
"2001-08-17 04:00","2001","08","17","04:00","14.5","","14.5","","100","","2","","9","","","M","98.43","","","","","","NA"
"2001-08-17 05:00","2001","08","17","05:00","14.2","","14.2","","100","","1","","7","","","M","98.43","","","","","","NA"
"2001-08-17 06:00","2001","08","17","06:00","13.9","","13.9","","100","","3","","9","","","M","98.47","","","","","","NA"
"2001-08-17 07:00","2001","08","17","07:00","13.8","","13.8","","100","","3","","15","","","M","98.52","","","","","","NA"
"2001-08-17 08:00","2001","08","17","08:00","14.4","","14.4","","100","","3","","13","","","M","98.55","","","","","","NA"
"2001-08-17 09:00","2001","08","17","09:00","16.4","","16.1","","98","","3","","6","","","M","98.59","","","","","","NA"
"2001-08-17 10:00","2001","08","17","10:00","17.9","","14.4","","80","","30","","9","","","M","98.61","","","","","","NA"
"2001-08-17 11:00","2001","08","17","11:00","18.7","","13.3","","71","","33","","7","","","M","98.62","","","","","","NA"
"2001-08-17 12:00","2001","08","17","12:00","18.7","","14.6","","77","","28","","9","","","M","98.60","","","","","","NA"
"2001-08-17 13:00","2001","08","17","13:00","19.9","","13.8","","68","","28","","11","","","M","98.60","","","","","","NA"
"2001-08-17 14:00","2001","08","17","14:00","18.5","","13.8","","74","","28","","20","","","M","98.62","","","","","","NA"
"2001-08-17 15:00","2001","08","17","15:00","19.3","","13.7","","70","","28","","13","","","M","98.63","","","","","","NA"
"2001-08-17 16:00","2001","08","17","16:00","18.0","","13.3","","74","","27","","19","","","M","98.64","","","","","","NA"
"2001-08-17 17:00","2001","08","17","17:00","17.8","","13.3","","75","","29","","13","","","M","98.70","","","","","","NA"
"2001-08-17 18:00","2001","08","17","18:00","17.8","","13.3","","75","","31","","9","","","M","98.70","","","","","","NA"
"2001-08-17 19:00","2001","08","17","19:00","17.0","","13.5","","80","","32","","2","","","M","98.72","","","","","","NA"
"2001-08-17 20:00","2001","08","17","20:00","15.2","","13.4","","89","","12","","4","","","M","98.72","","","","","","NA"
"2001-08-17 21:00","2001","08","17","21:00","13.7","","13.2","","97","","12","","6","","","M","98.74","","","","","","NA"
"2001-08-17 22:00","2001","08","17","22:00","13.2","","12.7","","97","","6","","9","","","M","98.72","","","","","","NA"
"2001-08-17 23:00","2001","08","17","23:00","12.4","","12.3","","99","","9","","9","","","M","98.77","","","","","","NA"
"2001-08-18 00:00","2001","08","18","00:00","12.0","","11.7","","98","","10","","9","","","M","98.79","","","","","","NA"
"2001-08-18 01:00","2001","08","18","01:00","11.6","","11.6","","100","","14","","4","","","M","98.84","","","","","","NA"
"2001-08-18 02:00","2001","08","18","02:00","10.9","","10.9","","100","","7","","11","","","M","98.82","","","","","","NA"
"2001-08-18 03:00","2001","08","18","03:00","10.4","","10.4","","100","","6","","9","","","M","98.85","","","","","","NA"
"2001-08-18 04:00","2001","08","18","04:00","10.6","","10.6","","100","","4","","11","","","M","98.87","","","","","","NA"
"2001-08-18 05:00","2001","08","18","05:00","9.7","","9.7","","100","","5","","11","","","M","98.92","","","","","","NA"
"2001-08-18 06:00","2001","08","18","06:00","9.7","","9.7","","100","","7","","11","","","M","98.95","","","","","","NA"
"2001-08-18 07:00","2001","08","18","07:00","11.3","","11.0","","98","","7","","13","","","M","98.96","","","","","","NA"
"2001-08-18 08:00","2001","08","18","08:00","14.3","","12.5","","89","","6","","7","","","M","99.00","","","","","","NA"
"2001-08-18 09:00","2001","08","18","09:00","18.8","","14.1","","74","","8","","4","","","M","99.03","","","","","","NA"
"2001-08-18 10:00","2001","08","18","10:00","19.4","","13.8","","70","","25","","7","","","M","99.06","","","","","","NA"
"2001-08-18 11:00","2001","08","18","11:00","21.0","","13.7","","63","","27","","9","","","M","99.08","","","","","","NA"
"2001-08-18 12:00","2001","08","18","12:00","19.6","","12.9","","65","","30","","9","","","M","99.06","","","","","","NA"
"2001-08-18 13:00","2001","08","18","13:00","19.6","","13.3","","67","","30","","11","","","M","99.05","","","","","","NA"
"2001-08-18 14:00","2001","08","18","14:00","19.0","","13.0","","68","","31","","15","","","M","99.05","","","","","","NA"
"2001-08-18 15:00","2001","08","18","15:00","20.8","","13.0","","61","","30","","11","","","M","99.02","","","","","","NA"
"2001-08-18 16:00","2001","08","18","16:00","20.7","","13.9","","65","","31","","13","","","M","98.98","","","","","","NA"
"2001-08-18 17:00","2001","08","18","17:00","21.2","","13.9","","63","","32","","15","","","M","98.97","","25","","","","NA"
"2001-08-18 18:00","2001","08","18","18:00","20.9","","14.1","","65","","31","","11","","","M","98.98","","","","","","NA"
"2001-08-18 19:00","2001","08","18","19:00","20.8","","15.1","","70","","1","","7","","","M","98.95","","25","","","","NA"
"2001-08-18 20:00","2001","08","18","20:00","19.8","","11.8","","60","","5","","9","","","M","98.99","","","","","","NA"
"2001-08-18 21:00","2001","08","18","21:00","17.4","","11.9","","70","","10","","6","","","M","99.04","","","","","","NA"
"2001-08-18 22:00","2001","08","18","22:00","17.1","","10.5","","65","","11","","11","","","M","99.09","","","","","","NA"
"2001-08-18 23:00","2001","08","18","23:00","17.1","","10.9","","67","","10","","13","","","M","99.10","","","","","","NA"
"2001-08-19 00:00","2001","08","19","00:00","15.4","","10.6","","73","","8","","9","","","M","99.13","","","","","","NA"
"2001-08-19 01:00","2001","08","19","01:00","14.1","","10.1","","77","","4","","13","","","M","99.14","","","","","","NA"
"2001-08-19 02:00","2001","08","19","02:00","13.6","","10.0","","79","","5","","9","","","M","99.13","","","","","","NA"
"2001-08-19 03:00","2001","08","19","03:00","12.6","","9.8","","83","","4","","9","","","M","99.15","","","","","","NA"
"2001-08-19 04:00","2001","08","19","04:00","12.0","","9.6","","85","","4","","17","","","M","99.16","","","","","","NA"
"2001-08-19 05:00","2001","08","19","05:00","11.5","","9.6","","88","","7","","13","","","M","99.18","","","","","","NA"
"2001-08-19 06:00","2001","08","19","06:00","11.1","","9.5","","90","","4","","15","","","M","99.23","","","","","","NA"
"2001-08-19 07:00","2001","08","19","07:00","13.2","","9.5","","78","","5","","13","","","M","99.26","","","","","","NA"
"2001-08-19 08:00","2001","08","19","08:00","16.0","","11.0","","72","","8","","7","","","M","99.26","","","","","","NA"
"2001-08-19 09:00","2001","08","19","09:00","18.5","","12.3","","67","","1","","9","","","M","99.27","","","","","","NA"
"2001-08-19 10:00","2001","08","19","10:00","22.3","","12.3","","53","","9","","7","","","M","99.25","","25","","","","NA"
"2001-08-19 11:00","2001","08","19","11:00","24.2","","10.1","","41","","7","","11","","","M","99.23","","26","","","","NA"
"2001-08-19 12:00","2001","08","19","12:00","25.0","","9.3","","37","","8","","17","","","M","99.18","","26","","","","NA"
"2001-08-19 13:00","2001","08","19","13:00","21.8","","12.4","","55","","30","","13","","","M","99.16","","","","","","NA"
"2001-08-19 14:00","2001","08","19","14:00","20.7","","12.4","","59","","33","","7","","","M","99.16","","","","","","NA"
"2001-08-19 15:00","2001","08","19","15:00","22.0","","13.9","","60","","30","","4","","","M","99.16","","25","","","","NA"
"2001-08-19 16:00","2001","08","19","16:00","20.1","","14.2","","69","","31","","9","","","M","99.15","","","","","","NA"
"2001-08-19 17:00","2001","08","19","17:00","20.0","","13.7","","67","","31","","11","","","M","99.14","","","","","","NA"
"2001-08-19 18:00","2001","08","19","18:00","20.0","","14.2","","69","","32","","7","","","M","99.14","","","","","","NA"
"2001-08-19 19:00","2001","08","19","19:00","20.8","","13.8","","64","","11","","4","","","M","99.15","","","","","","NA"
"2001-08-19 20:00","2001","08","19","20:00","18.5","","14.2","","76","","9","","6","","","M","99.15","","","","","","NA"
"2001-08-19 21:00","2001","08","19","21:00","16.9","","13.4","","80","","10","","6","","","M","99.19","","","","","","NA"
"2001-08-19 22:00","2001","08","19","22:00","16.1","","13.2","","83","","5","","4","","","M","99.19","","","","","","NA"
"2001-08-19 23:00","2001","08","19","23:00","15.5","","13.0","","85","","12","","4","","","M","99.20","","","","","","NA"
"2001-08-20 00:00","2001","08","20","00:00","14.1","","12.3","","89","","8","","4","","","M","99.23","","","","","","NA"
"2001-08-20 01:00","2001","08","20","01:00","13.7","","12.3","","91","","7","","13","","","M","99.24","","","","","","NA"
"2001-08-20 02:00","2001","08","20","02:00","13.9","","12.1","","89","","6","","13","","","M","99.23","","","","","","NA"
"2001-08-20 03:00","2001","08","20","03:00","13.5","","11.9","","90","","4","","13","","","M","99.22","","","","","","NA"
"2001-08-20 04:00","2001","08","20","04:00","13.0","","11.7","","92","","4","","11","","","M","99.22","","","","","","NA"
"2001-08-20 05:00","2001","08","20","05:00","12.5","","11.4","","93","","5","","9","","","M","99.22","","","","","","NA"
"2001-08-20 06:00","2001","08","20","06:00","11.7","","11.1","","96","","2","","9","","","M","99.24","","","","","","NA"
"2001-08-20 07:00","2001","08","20","07:00","13.8","","11.3","","85","","3","","7","","","M","99.27","","","","","","NA"
"2001-08-20 08:00","2001","08","20","08:00","14.9","","11.9","","82","","6","","9","","","M","99.30","","","","","","NA"
"2001-08-20 09:00","2001","08","20","09:00","19.6","","12.4","","63","","8","","4","","","M","99.30","","","","","","NA"
"2001-08-20 10:00","2001","08","20","10:00","19.0","","10.6","","58","","19","","7","","","M","99.27","","","","","","NA"
"2001-08-20 11:00","2001","08","20","11:00","20.5","","11.7","","57","","21","","6","","","M","99.25","","","","","","NA"
"2001-08-20 12:00","2001","08","20","12:00","19.4","","13.6","","69","","21","","7","","","M","99.22","","","","","","NA"
"2001-08-20 13:00","2001","08","20","13:00","21.1","","11.4","","54","","25","","11","","","M","99.17","","","","","","NA"
"2001-08-20 14:00","2001","08","20","14:00","21.0","","13.9","","64","","25","","11","","","M","99.15","","","","","","NA"
"2001-08-20 15:00","2001","08","20","15:00","20.1","","13.6","","66","","30","","7","","","M","99.14","","","","","","NA"
"2001-08-20 16:00","2001","08","20","16:00","20.5","","13.9","","66","","26","","7","","","M","99.12","","","","","","NA"
"2001-08-20 17:00","2001","08","20","17:00","20.2","","13.7","","66","","24","","7","","","M","99.09","","","","","","NA"
"2001-08-20 18:00","2001","08","20","18:00","18.1","","14.2","","78","","26","","7","","","M","99.08","","","","","","NA"
"2001-08-20 19:00","2001","08","20","19:00","18.6","","14.5","","77","","19","","7","","","M","99.04","","","","","","NA"
"2001-08-20 20:00","2001","08","20","20:00","16.7","","14.4","","86","","20","","7","","","M","99.06","","","","","","NA"
"2001-08-20 21:00","2001","08","20","21:00","16.6","","14.6","","88","","10","","7","","","M","99.07","","","","","","NA"
"2001-08-20 22:00","2001","08","20","22:00","15.9","","13.4","","85","","10","","7","","","M","99.06","","","","","","NA"
"2001-08-20 23:00","2001","08","20","23:00","15.3","","13.7","","90","","11","","7","","","M","99.06","","","","","","NA"
"2001-08-21 00:00","2001","08","21","00:00","15.5","","13.5","","88","","8","","4","","","M","99.05","","","","","","NA"
"2001-08-21 01:00","2001","08","21","01:00","14.5","","12.4","","87","","6","","7","","","M","99.02","","","","","","NA"
"2001-08-21 02:00","2001","08","21","02:00","14.0","","12.2","","89","","9","","6","","","M","99.02","","","","","","NA"
"2001-08-21 03:00","2001","08","21","03:00","13.8","","12.4","","91","","11","","6","","","M","99.04","","","","","","NA"
"2001-08-21 04:00","2001","08","21","04:00","15.0","","15.0","","100","","21","","15","","","M","99.08","","","","","","NA"
"2001-08-21 05:00","2001","08","21","05:00","15.0","","14.9","","99","","20","","11","","","M","99.07","","","","","","NA"
"2001-08-21 06:00","2001","08","21","06:00","14.6","","14.6","","100","","19","","7","","","M","99.06","","","","","","NA"
"2001-08-21 07:00","2001","08","21","07:00","15.3","","14.4","","94","","19","","7","","","M","99.07","","","","","","NA"
"2001-08-21 08:00","2001","08","21","08:00","17.6","","14.7","","83","","19","","13","","","M","99.09","","","","","","NA"
"2001-08-21 09:00","2001","08","21","09:00"
"2001-08-21 10:00","2001","08","21","10:00"
"2001-08-21 11:00","2001","08","21","11:00","20.6","","14.0","","66","","11","","20","","","M","99.04","","","","","","NA"
"2001-08-21 12:00","2001","08","21","12:00","21.0","","15.1","","69","","8","","22","","","M","99.03","","25","","","","NA"
"2001-08-21 13:00","2001","08","21","13:00","20.7","","15.5","","72","","8","","19","","","M","98.98","","25","","","","NA"
"2001-08-21 14:00","2001","08","21","14:00","20.7","","15.5","","72","","9","","19","","","M","98.97","","25","","","","NA"
"2001-08-21 15:00","2001","08","21","15:00","20.0","","15.7","","76","","10","","20","","","M","98.92","","","","","","NA"
"2001-08-21 16:00","2001","08","21","16:00","19.7","","15.6","","77","","9","","19","","","M","98.85","","","","","","NA"
"2001-08-21 17:00","2001","08","21","17:00","19.7","","15.8","","78","","8","","11","","","M","98.83","","","","","","NA"
"2001-08-21 18:00","2001","08","21","18:00","18.8","","16.1","","84","","8","","19","","","M","98.76","","","","","","NA"
"2001-08-21 19:00","2001","08","21","19:00","18.3","","16.1","","87","","7","","20","","","M","98.71","","","","","","NA"
"2001-08-21 20:00","2001","08","21","20:00","17.9","","15.9","","88","","10","","20","","","M","98.65","","","","","","NA"
"2001-08-21 21:00","2001","08","21","21:00","18.2","","16.0","","87","","10","","20","","","M","98.67","","","","","","NA"
"2001-08-21 22:00","2001","08","21","22:00","18.3","","13.4","","73","","6","","11","","","M","98.67","","","","","","NA"
"2001-08-21 23:00","2001","08","21","23:00","18.7","","13.8","","73","","8","","22","","","M","98.60","","","","","","NA"
"2001-08-22 00:00","2001","08","22","00:00","18.8","","16.4","","86","","9","","28","","","M","98.63","","","","","","NA"
"2001-08-22 01:00","2001","08","22","01:00","17.7","","16.4","","92","","8","","22","","","M","98.62","","","","","","NA"
"2001-08-22 02:00","2001","08","22","02:00","17.5","","16.4","","93","","8","","15","","","M","98.62","","","","","","NA"
"2001-08-22 03:00","2001","08","22","03:00","17.5","","16.0","","91","","8","","17","","","M","98.61","","","","","","NA"
"2001-08-22 04:00","2001","08","22","04:00","17.4","","16.1","","92","","8","","15","","","M","98.61","","","","","","NA"
"2001-08-22 05:00","2001","08","22","05:00","18.2","","16.2","","88","","9","","19","","","M","98.63","","","","","","NA"
"2001-08-22 06:00","2001","08","22","06:00","17.8","","16.3","","91","","8","","24","","","M","98.63","","","","","","NA"
"2001-08-22 07:00","2001","08","22","07:00","18.3","","16.3","","88","","8","","19","","","M","98.62","","","","","","NA"
"2001-08-22 08:00","2001","08","22","08:00","19.1","","16.2","","83","","8","","17","","","M","98.63","","","","","","NA"
"2001-08-22 09:00","2001","08","22","09:00","19.1","","16.2","","83","","8","","22","","","M","98.66","","","","","","NA"
"2001-08-22 10:00","2001","08","22","10:00","19.6","","16.5","","82","","9","","20","","","M","98.69","","","","","","NA"
"2001-08-22 11:00","2001","08","22","11:00","20.0","","16.5","","80","","11","","24","","","M","98.71","","25","","","","NA"
"2001-08-22 12:00","2001","08","22","12:00","18.9","","16.7","","87","","9","","26","","","M","98.72","","","","","","NA"
"2001-08-22 13:00","2001","08","22","13:00","20.2","","16.7","","80","","11","","15","","","M","98.73","","25","","","","NA"
"2001-08-22 14:00","2001","08","22","14:00","19.2","","16.6","","85","","13","","11","","","M","98.79","","","","","","NA"
"2001-08-22 15:00","2001","08","22","15:00","20.4","","16.6","","79","","10","","13","","","M","98.78","","25","","","","NA"
"2001-08-22 16:00","2001","08","22","16:00","19.7","","16.6","","82","","11","","17","","","M","98.77","","","","","","NA"
"2001-08-22 17:00","2001","08","22","17:00","20.7","","16.7","","78","","8","","20","","","M","98.74","","26","","","","NA"
"2001-08-22 18:00","2001","08","22","18:00","18.7","","16.9","","89","","14","","7","","","M","98.81","","","","","","NA"
"2001-08-22 19:00","2001","08","22","19:00","18.2","","17.1","","93","","11","","7","","","M","98.82","","","","","","NA"
"2001-08-22 20:00","2001","08","22","20:00","17.4","","17.1","","98","","8","","7","","","M","98.89","","","","","","NA"
"2001-08-22 21:00","2001","08","22","21:00","17.2","","17.2","","100","","19","","6","","","M","98.95","","","","","","NA"
"2001-08-22 22:00","2001","08","22","22:00","16.9","","16.9","","100","","5","","4","","","M","99.01","","","","","","NA"
"2001-08-22 23:00","2001","08","22","23:00","16.0","","16.0","","100","","1","","9","","","M","99.04","","","","","","NA"
"2001-08-23 00:00","2001","08","23","00:00","16.1","","15.3","","95","","4","","17","","","M","99.08","","","","","","NA"
"2001-08-23 01:00","2001","08","23","01:00","16.3","","13.0","","81","","5","","19","","","M","99.13","","","","","","NA"
"2001-08-23 02:00","2001","08","23","02:00","16.2","","12.0","","76","","7","","15","","","M","99.21","","","","","","NA"
"2001-08-23 03:00","2001","08","23","03:00","15.7","","11.7","","77","","7","","17","","","M","99.28","","","","","","NA"
"2001-08-23 04:00","2001","08","23","04:00","15.3","","11.3","","77","","7","","17","","","M","99.32","","","","","","NA"
"2001-08-23 05:00","2001","08","23","05:00","14.4","","11.2","","81","","7","","20","","","M","99.36","","","","","","NA"
"2001-08-23 06:00","2001","08","23","06:00","13.8","","10.8","","82","","3","","15","","","M","99.42","","","","","","NA"
"2001-08-23 07:00","2001","08","23","07:00","14.2","","10.4","","78","","2","","17","","","M","99.53","","","","","","NA"
"2001-08-23 08:00","2001","08","23","08:00","15.2","","10.0","","71","","7","","24","","","M","99.56","","","","","","NA"
"2001-08-23 09:00","2001","08","23","09:00","16.6","","10.5","","67","","9","","20","","","M","99.58","","","","","","NA"
"2001-08-23 10:00","2001","08","23","10:00","18.4","","11.2","","63","","8","","19","","","M","99.62","","","","","","NA"
"2001-08-23 11:00","2001","08","23","11:00","20.1","","10.8","","55","","10","","20","","","M","99.68","","","","","","NA"
"2001-08-23 12:00","2001","08","23","12:00","21.7","","10.2","","48","","5","","13","","","M","99.70","","","","","","NA"
"2001-08-23 13:00","2001","08","23","13:00","20.9","","10.1","","50","","7","","11","","","M","99.72","","","","","","NA"
"2001-08-23 14:00","2001","08","23","14:00","20.7","","9.9","","50","","11","","20","","","M","99.74","","","","","","NA"
"2001-08-23 15:00","2001","08","23","15:00","19.7","","9.9","","53","","9","","15","","","M","99.77","","","","","","NA"
"2001-08-23 16:00","2001","08","23","16:00","19.7","","9.9","","53","","9","","19","","","M","99.76","","","","","","NA"
"2001-08-23 17:00","2001","08","23","17:00","19.8","","9.1","","50","","6","","15","","","M","99.81","","","","","","NA"
"2001-08-23 18:00","2001","08","23","18:00","19.0","","8.9","","52","","5","","9","","","M","99.83","","","","","","NA"
"2001-08-23 19:00","2001","08","23","19:00","17.8","","8.7","","55","","7","","13","","","M","99.82","","","","","","NA"
"2001-08-23 20:00","2001","08","23","20:00","15.7","","8.7","","63","","9","","11","","","M","99.84","","","","","","NA"
"2001-08-23 21:00","2001","08","23","21:00","14.1","","8.9","","71","","10","","11","","","M","99.91","","","","","","NA"
"2001-08-23 22:00","2001","08","23","22:00","13.3","","8.8","","74","","11","","19","","","M","99.90","","","","","","NA"
"2001-08-23 23:00","2001","08","23","23:00","12.4","","8.7","","78","","11","","22","","","M","99.89","","","","","","NA"
"2001-08-24 00:00","2001","08","24","00:00","11.4","","8.4","","82","","6","","11","","","M","99.96","","","","","","NA"
"2001-08-24 01:00","2001","08","24","01:00","11.0","","8.8","","86","","6","","9","","","M","99.96","","","","","","NA"
"2001-08-24 02:00","2001","08","24","02:00","10.5","","9.1","","91","","7","","13","","","M","99.93","","","","","","NA"
"2001-08-24 03:00","2001","08","24","03:00","9.6","","9.2","","97","","9","","15","","","M","99.92","","","","","","NA"
"2001-08-24 04:00","2001","08","24","04:00","10.0","","8.9","","93","","8","","17","","","M","99.92","","","","","","NA"
"2001-08-24 05:00","2001","08","24","05:00","9.4","","8.5","","94","","10","","15","","","M","99.89","","","","","","NA"
"2001-08-24 06:00","2001","08","24","06:00","8.4","","7.5","","94","","6","","13","","","M","99.91","","","","","","NA"
"2001-08-24 07:00","2001","08","24","07:00","9.2","","7.0","","86","","5","","11","","","M","99.95","","","","","","NA"
"2001-08-24 08:00","2001","08","24","08:00","12.8","","8.3","","74","","8","","9","","","M","99.97","","","","","","NA"
"2001-08-24 09:00","2001","08","24","09:00","15.4","","8.6","","64","","15","","2","","","M","99.97","","","","","","NA"
"2001-08-24 10:00","2001","08","24","10:00","15.7","","9.8","","68","","26","","9","","","M","99.95","","","","","","NA"
"2001-08-24 11:00","2001","08","24","11:00","16.7","","10.3","","66","","26","","11","","","M","99.88","","","","","","NA"
"2001-08-24 12:00","2001","08","24","12:00","17.1","","11.2","","68","","25","","13","","","M","99.83","","","","","","NA"
"2001-08-24 13:00","2001","08","24","13:00","17.3","","12.4","","73","","25","","13","","","M","99.79","","","","","","NA"
"2001-08-24 14:00","2001","08","24","14:00","17.5","","12.8","","74","","24","","19","","","M","99.75","","","","","","NA"
"2001-08-24 15:00","2001","08","24","15:00","17.9","","13.0","","73","","24","","15","","","M","99.70","","","","","","NA"
"2001-08-24 16:00","2001","08","24","16:00","17.5","","13.2","","76","","24","","13","","","M","99.62","","","","","","NA"
"2001-08-24 17:00","2001","08","24","17:00","17.3","","13.0","","76","","25","","9","","","M","99.60","","","","","","NA"
"2001-08-24 18:00","2001","08","24","18:00","16.9","","12.5","","75","","24","","6","","","M","99.53","","","","","","NA"
"2001-08-24 19:00","2001","08","24","19:00","16.8","","13.2","","79","","20","","7","","","M","99.42","","","","","","NA"
"2001-08-24 20:00","2001","08","24","20:00","15.9","","13.2","","84","","20","","2","","","M","99.44","","","","","","NA"
"2001-08-24 21:00","2001","08","24","21:00","13.7","","12.6","","93","","8","","2","","","M","99.42","","","","","","NA"
"2001-08-24 22:00","2001","08","24","22:00","12.8","","12.8","","100","","7","","4","","","M","99.34","","","","","","NA"
"2001-08-24 23:00","2001","08","24","23:00","12.5","","11.7","","95","","4","","7","","","M","99.31","","","","","","NA"
"2001-08-25 00:00","2001","08","25","00:00","12.7","","11.6","","93","","4","","6","","","M","99.27","","","","","","NA"
"2001-08-25 01:00","2001","08","25","01:00","11.5","","11.4","","99","","4","","9","","","M","99.22","","","","","","NA"
"2001-08-25 02:00","2001","08","25","02:00","14.9","","14.3","","96","","10","","7","","","M","99.15","","","","","","NA"
"2001-08-25 03:00","2001","08","25","03:00","17.2","","15.9","","92","","11","","26","","","M","99.08","","","","","","NA"
"2001-08-25 04:00","2001","08","25","04:00","17.1","","16.5","","96","","11","","24","","","M","99.06","","","","","","NA"
"2001-08-25 05:00","2001","08","25","05:00","17.1","","16.5","","96","","10","","22","","","M","99.04","","","","","","NA"
"2001-08-25 06:00","2001","08","25","06:00","17.0","","16.2","","95","","10","","28","","","M","99.05","","","","","","NA"
"2001-08-25 07:00","2001","08","25","07:00","17.2","","16.1","","93","","10","","24","","","M","99.04","","","","","","NA"
"2001-08-25 08:00","2001","08","25","08:00","17.4","","16.1","","92","","10","","26","","","M","99.01","","","","","","NA"
"2001-08-25 09:00","2001","08","25","09:00","17.5","","16.0","","91","","10","","30","","","M","98.95","","","","","","NA"
"2001-08-25 10:00","2001","08","25","10:00","17.7","","16.4","","92","","10","","30","","","M","98.97","","","","","","NA"
"2001-08-25 11:00","2001","08","25","11:00","18.0","","16.9","","93","","10","","22","","","M","98.95","","","","","","NA"
"2001-08-25 12:00","2001","08","25","12:00","19.2","","17.0","","87","","19","","22","","","M","98.85","","","","","","NA"
"2001-08-25 13:00","2001","08","25","13:00","19.2","","16.6","","85","","21","","32","","","M","98.82","","","","","","NA"
"2001-08-25 14:00","2001","08","25","14:00","19.3","","16.7","","85","","20","","26","","","M","98.81","","","","","","NA"
"2001-08-25 15:00","2001","08","25","15:00","20.2","","16.8","","81","","13","","24","","","M","98.80","","25","","","","NA"
"2001-08-25 16:00","2001","08","25","16:00","18.6","","17.3","","92","","11","","24","","","M","98.72","","","","","","NA"
"2001-08-25 17:00","2001","08","25","17:00","18.8","","17.3","","91","","10","","20","","","M","98.68","","","","","","NA"
"2001-08-25 18:00","2001","08","25","18:00","17.8","","17.5","","98","","13","","17","","","M","98.65","","","","","","NA"
"2001-08-25 19:00","2001","08","25","19:00","17.7","","17.4","","98","","22","","20","","","M","98.63","","","","","","NA"
"2001-08-25 20:00","2001","08","25","20:00","17.5","","17.5","","100","","21","","17","","","M","98.59","","","","","","NA"
"2001-08-25 21:00","2001","08","25","21:00","17.6","","17.6","","100","","21","","19","","","M","98.66","","","","","","NA"
"2001-08-25 22:00","2001","08","25","22:00","17.5","","17.5","","100","","19","","17","","","M","98.62","","","","","","NA"
"2001-08-25 23:00","2001","08","25","23:00","17.6","","17.6","","100","","20","","17","","","M","98.62","","","","","","NA"
"2001-08-26 00:00","2001","08","26","00:00","17.4","","17.4","","100","","20","","19","","","M","98.60","","","","","","NA"
"2001-08-26 01:00","2001","08","26","01:00","16.8","","16.8","","100","","21","","13","","","M","98.58","","","","","","NA"
"2001-08-26 02:00","2001","08","26","02:00","16.9","","16.9","","100","","22","","11","","","M","98.52","","","","","","NA"
"2001-08-26 03:00","2001","08","26","03:00","16.7","","16.7","","100","","26","","9","","","M","98.51","","","","","","NA"
"2001-08-26 04:00","2001","08","26","04:00","16.1","","16.1","","100","","27","","7","","","M","98.54","","","","","","NA"
"2001-08-26 05:00","2001","08","26","05:00","16.0","","16.0","","100","","","","0","","","M","98.57","","","","","","NA"
"2001-08-26 06:00","2001","08","26","06:00","15.8","","15.8","","100","","2","","2","","","M","98.62","","","","","","NA"
"2001-08-26 07:00","2001","08","26","07:00","15.8","","15.8","","100","","9","","2","","","M","98.67","","","","","","NA"
"2001-08-26 08:00","2001","08","26","08:00","16.4","","15.9","","97","","1","","4","","","M","98.70","","","","","","NA"
"2001-08-26 09:00","2001","08","26","09:00","16.8","","15.2","","90","","30","","7","","","M","98.73","","","","","","NA"
"2001-08-26 10:00","2001","08","26","10:00","17.9","","15.0","","83","","29","","11","","","M","98.73","","","","","","NA"
"2001-08-26 11:00","2001","08","26","11:00","18.5","","15.6","","83","","29","","7","","","M","98.71","","","","","","NA"
"2001-08-26 12:00","2001","08","26","12:00","16.4","","14.9","","91","","27","","13","","","M","98.74","","","","","","NA"
"2001-08-26 13:00","2001","08","26","13:00","17.6","","15.2","","86","","25","","11","","","M","98.73","","","","","","NA"
"2001-08-26 14:00","2001","08","26","14:00","21.5","","15.1","","67","","21","","6","","","M","98.73","","26","","","","NA"
"2001-08-26 15:00","2001","08","26","15:00","20.7","","14.6","","68","","22","","15","","","M","98.71","","","","","","NA"
"2001-08-26 16:00","2001","08","26","16:00","20.7","","14.8","","69","","20","","6","","","M","98.69","","25","","","","NA"
"2001-08-26 17:00","2001","08","26","17:00","21.2","","13.1","","60","","23","","6","","","M","98.66","","","","","","NA"
"2001-08-26 18:00","2001","08","26","18:00","20.7","","11.4","","55","","31","","11","","","M","98.64","","","","","","NA"
"2001-08-26 19:00","2001","08","26","19:00","19.9","","12.2","","61","","26","","2","","","M","98.62","","","","","","NA"
"2001-08-26 20:00","2001","08","26","20:00","17.9","","11.9","","68","","29","","11","","","M","98.62","","","","","","NA"
"2001-08-26 21:00","2001","08","26","21:00","15.5","","12.3","","81","","20","","4","","","M","98.59","","","","","","NA"
"2001-08-26 22:00","2001","08","26","22:00","14.6","","11.9","","84","","17","","6","","","M","98.58","","","","","","NA"
"2001-08-26 23:00","2001","08","26","23:00","15.7","","12.6","","82","","16","","9","","","M","98.59","","","","","","NA"
"2001-08-27 00:00","2001","08","27","00:00","16.4","","12.6","","78","","16","","6","","","M","98.57","","","","","","NA"
"2001-08-27 01:00","2001","08","27","01:00","17.5","","13.6","","78","","20","","15","","","M","98.51","","","","","","NA"
"2001-08-27 02:00","2001","08","27","02:00","17.8","","14.1","","79","","20","","9","","","M","98.47","","","","","","NA"
"2001-08-27 03:00","2001","08","27","03:00","17.7","","14.2","","80","","21","","24","","","M","98.42","","","","","","NA"
"2001-08-27 04:00","2001","08","27","04:00","17.5","","15.0","","85","","20","","19","","","M","98.40","","","","","","NA"
"2001-08-27 05:00","2001","08","27","05:00","16.5","","16.0","","97","","19","","20","","","M","98.33","","","","","","NA"
"2001-08-27 06:00","2001","08","27","06:00","16.8","","15.7","","93","","18","","19","","","M","98.33","","","","","","NA"
"2001-08-27 07:00","2001","08","27","07:00","17.6","","14.7","","83","","20","","19","","","M","98.32","","","","","","NA"
"2001-08-27 08:00","2001","08","27","08:00","17.3","","15.1","","87","","21","","19","","","M","98.36","","","","","","NA"
"2001-08-27 09:00","2001","08","27","09:00","18.1","","15.2","","83","","22","","19","","","M","98.30","","","","","","NA"
"2001-08-27 10:00","2001","08","27","10:00","18.5","","15.4","","82","","20","","15","","","M","98.26","","","","","","NA"
"2001-08-27 11:00","2001","08","27","11:00","19.7","","15.6","","77","","22","","15","","","M","98.25","","","","","","NA"
"2001-08-27 12:00","2001","08","27","12:00","19.5","","16.2","","81","","22","","19","","","M","98.23","","","","","","NA"
"2001-08-27 13:00","2001","08","27","13:00","20.2","","15.8","","76","","22","","17","","","M","98.23","","25","","","","NA"
"2001-08-27 14:00","2001","08","27","14:00","21.1","","16.1","","73","","19","","15","","","M","98.24","","26","","","","NA"
"2001-08-27 15:00","2001","08","27","15:00","21.2","","16.4","","74","","20","","11","","","M","98.22","","26","","","","NA"
"2001-08-27 16:00","2001","08","27","16:00","21.2","","14.4","","65","","22","","4","","","M","98.22","","25","","","","NA"
"2001-08-27 17:00","2001","08","27","17:00","20.6","","13.3","","63","","33","","6","","","M","98.24","","","","","","NA"
"2001-08-27 18:00","2001","08","27","18:00","21.5","","12.1","","55","","31","","17","","","M","98.28","","","","","","NA"
"2001-08-27 19:00","2001","08","27","19:00","21.3","","7.9","","42","","35","","11","","","M","98.34","","","","","","NA"
"2001-08-27 20:00","2001","08","27","20:00","19.0","","7.8","","48","","35","","9","","","M","98.43","","","","","","NA"
"2001-08-27 21:00","2001","08","27","21:00","16.6","","8.6","","59","","5","","9","","","M","98.53","","","","","","NA"
"2001-08-27 22:00","2001","08","27","22:00","15.4","","8.9","","65","","4","","9","","","M","98.59","","","","","","NA"
"2001-08-27 23:00","2001","08","27","23:00","15.2","","8.5","","64","","5","","9","","","M","98.63","","","","","","NA"
"2001-08-28 00:00","2001","08","28","00:00","14.6","","9.0","","69","","4","","11","","","M","98.67","","","","","","NA"
"2001-08-28 01:00","2001","08","28","01:00","13.4","","9.3","","76","","5","","19","","","M","98.69","","","","","","NA"
"2001-08-28 02:00","2001","08","28","02:00","12.2","","9.6","","84","","7","","7","","","M","98.73","","","","","","NA"
"2001-08-28 03:00","2001","08","28","03:00","11.2","","9.6","","90","","5","","11","","","M","98.78","","","","","","NA"
"2001-08-28 04:00","2001","08","28","04:00","11.4","","10.2","","92","","6","","11","","","M","98.85","","","","","","NA"
"2001-08-28 05:00","2001","08","28","05:00","10.7","","9.9","","95","","14","","2","","","M","98.91","","","","","","NA"
"2001-08-28 06:00","2001","08","28","06:00","10.3","","9.5","","95","","5","","11","","","M","99.00","","","","","","NA"
"2001-08-28 07:00","2001","08","28","07:00","10.3","","9.5","","95","","6","","7","","","M","99.08","","","","","","NA"
"2001-08-28 08:00","2001","08","28","08:00","12.1","","9.8","","86","","12","","9","","","M","99.09","","","","","","NA"
"2001-08-28 09:00","2001","08","28","09:00","13.6","","9.9","","78","","9","","11","","","M","99.14","","","","","","NA"
"2001-08-28 10:00","2001","08","28","10:00","15.3","","9.4","","68","","11","","9","","","M","99.16","","","","","","NA"
"2001-08-28 11:00","2001","08","28","11:00","16.8","","10.4","","66","","13","","9","","","M","99.18","","","","","","NA"
"2001-08-28 12:00","2001","08","28","12:00","15.9","","9.8","","67","","3","","6","","","M","99.17","","","","","","NA"
"2001-08-28 13:00","2001","08","28","13:00","17.9","","10.0","","60","","16","","4","","","M","99.14","","","","","","NA"
"2001-08-28 14:00","2001","08","28","14:00","17.6","","10.5","","63","","25","","9","","","M","99.12","","","","","","NA"
"2001-08-28 15:00","2001","08","28","15:00","17.5","","11.3","","67","","26","","19","","","M","99.13","","","","","","NA"
"2001-08-28 16:00","2001","08","28","16:00","17.3","","10.7","","65","","27","","20","","","M","99.14","","","","","","NA"
"2001-08-28 17:00","2001","08","28","17:00","17.2","","11.7","","70","","27","","11","","","M","99.15","","","","","","NA"
"2001-08-28 18:00","2001","08","28","18:00","16.9","","12.0","","73","","27","","9","","","M","99.15","","","","","","NA"
"2001-08-28 19:00","2001","08","28","19:00","15.7","","11.7","","77","","28","","13","","","M","99.15","","","","","","NA"
"2001-08-28 20:00","2001","08","28","20:00","15.0","","12.0","","82","","27","","11","","","M","99.15","","","","","","NA"
"2001-08-28 21:00","2001","08","28","21:00","15.0","","12.9","","87","","26","","6","","","M","99.19","","","","","","NA"
"2001-08-28 22:00","2001","08","28","22:00","11.7","","11.4","","98","","9","","4","","","M","99.19","","","","","","NA"
"2001-08-28 23:00","2001","08","28","23:00","11.4","","11.3","","99","","9","","6","","","M","99.19","","","","","","NA"
"2001-08-29 00:00","2001","08","29","00:00","11.0","","11.0","","100","","10","","9","","","M","99.18","","","","","","NA"
"2001-08-29 01:00","2001","08","29","01:00","10.9","","10.8","","99","","10","","9","","","M","99.17","","","","","","NA"
"2001-08-29 02:00","2001","08","29","02:00","11.4","","11.4","","100","","12","","7","","","M","99.13","","","","","","NA"
"2001-08-29 03:00","2001","08","29","03:00","14.1","","14.0","","99","","14","","11","","","M","99.09","","","","","","NA"
"2001-08-29 04:00","2001","08","29","04:00","14.9","","14.8","","99","","19","","17","","","M","99.08","","","","","","NA"
"2001-08-29 05:00","2001","08","29","05:00","15.2","","15.1","","99","","20","","24","","","M","99.07","","","","","","NA"
"2001-08-29 06:00","2001","08","29","06:00","15.2","","14.9","","98","","19","","20","","","M","99.11","","","","","","NA"
"2001-08-29 07:00","2001","08","29","07:00","15.9","","14.4","","91","","19","","22","","","M","99.09","","","","","","NA"
"2001-08-29 08:00","2001","08","29","08:00","16.7","","14.4","","86","","19","","26","","","M","99.09","","","","","","NA"
"2001-08-29 09:00","2001","08","29","09:00","17.6","","13.9","","79","","19","","24","","","M","99.04","","","","","","NA"
"2001-08-29 10:00","2001","08","29","10:00","18.2","","12.7","","70","","19","","32","","","M","99.01","","","","","","NA"
"2001-08-29 11:00","2001","08","29","11:00","19.2","","13.6","","70","","20","","30","","","M","98.96","","","","","","NA"
"2001-08-29 12:00","2001","08","29","12:00","19.9","","13.4","","66","","19","","30","","","M","98.92","","","","","","NA"
"2001-08-29 13:00","2001","08","29","13:00","20.2","","13.4","","65","","19","","33","","","M","98.83","","","","","","NA"
"2001-08-29 14:00","2001","08","29","14:00","20.7","","13.9","","65","","20","","32","","","M","98.81","","","","","","NA"
"2001-08-29 15:00","2001","08","29","15:00","20.4","","14.3","","68","","19","","32","","","M","98.70","","","","","","NA"
"2001-08-29 16:00","2001","08","29","16:00","20.5","","14.2","","67","","21","","28","","","M","98.59","","","","","","NA"
"2001-08-29 17:00","2001","08","29","17:00","20.5","","14.4","","68","","20","","33","","","M","98.52","","","","","","NA"
"2001-08-29 18:00","2001","08","29","18:00","20.4","","16.0","","76","","19","","32","","","M","98.38","","25","","","","NA"
"2001-08-29 19:00","2001","08","29","19:00","20.3","","16.1","","77","","19","","32","","","M","98.30","","25","","","","NA"
"2001-08-29 20:00","2001","08","29","20:00","20.4","","16.6","","79","","20","","35","","","M","98.23","","25","","","","NA"
"2001-08-29 21:00","2001","08","29","21:00","20.1","","16.9","","82","","19","","32","","","M","98.14","","25","","","","NA"
"2001-08-29 22:00","2001","08","29","22:00","18.9","","16.9","","88","","20","","35","","","M","98.02","","","","","","NA"
"2001-08-29 23:00","2001","08","29","23:00","18.5","","16.8","","90","","20","","37","","","M","98.04","","","","","","NA"
"2001-08-30 00:00","2001","08","30","00:00","18.4","","16.6","","89","","19","","32","","","M","98.00","","","","","","NA"
"2001-08-30 01:00","2001","08","30","01:00","17.8","","16.7","","93","","19","","43","","","M","97.92","","","","","","NA"
"2001-08-30 02:00","2001","08","30","02:00","19.0","","15.9","","82","","20","","39","","","M","97.79","","","","","","NA"
"2001-08-30 03:00","2001","08","30","03:00","18.4","","15.7","","84","","19","","48","","","M","97.59","","","","","","NA"
"2001-08-30 04:00","2001","08","30","04:00","17.2","","15.9","","92","","20","","37","","","M","97.54","","","","","","NA"
"2001-08-30 05:00","2001","08","30","05:00","18.0","","15.8","","87","","19","","46","","","M","97.39","","","","","","NA"
"2001-08-30 06:00","2001","08","30","06:00","16.9","","16.6","","98","","20","","39","","","M","97.28","","","","","","NA"
"2001-08-30 07:00","2001","08","30","07:00","17.3","","17.3","","100","","25","","46","","","M","97.34","","","","","","NA"
"2001-08-30 08:00","2001","08","30","08:00","17.3","","17.3","","100","","25","","46","","","M","97.43","","","","","","NA"
"2001-08-30 09:00","2001","08","30","09:00","17.0","","17.0","","100","","24","","28","","","M","97.35","","","","","","NA"
"2001-08-30 10:00","2001","08","30","10:00","17.0","","17.0","","100","","23","","33","","","M","97.30","","","","","","NA"
"2001-08-30 11:00","2001","08","30","11:00","17.5","","17.4","","99","","26","","32","","","M","97.32","","","","","","NA"
"2001-08-30 12:00","2001","08","30","12:00","18.9","","17.2","","90","","27","","28","","","M","97.37","","","","","","NA"
"2001-08-30 13:00","2001","08","30","13:00","19.0","","16.8","","87","","27","","32","","","M","97.40","","","","","","NA"
"2001-08-30 14:00","2001","08","30","14:00","18.9","","16.7","","87","","25","","35","","","M","97.47","","","","","","NA"
"2001-08-30 15:00","2001","08","30","15:00","17.9","","16.6","","92","","24","","33","","","M","97.51","","","","","","NA"
"2001-08-30 16:00","2001","08","30","16:00","18.2","","16.2","","88","","25","","41","","","M","97.55","","","","","","NA"
"2001-08-30 17:00","2001","08","30","17:00","17.9","","16.1","","89","","26","","37","","","M","97.59","","","","","","NA"
"2001-08-30 18:00","2001","08","30","18:00","17.5","","16.2","","92","","27","","28","","","M","97.63","","","","","","NA"
"2001-08-30 19:00","2001","08","30","19:00","16.2","","16.2","","100","","29","","20","","","M","97.72","","","","","","NA"
"2001-08-30 20:00","2001","08","30","20:00","14.9","","14.1","","95","","35","","19","","","M","97.86","","","","","","NA"
"2001-08-30 21:00","2001","08","30","21:00","13.5","","12.7","","95","","1","","13","","","M","97.99","","","","","","NA"
"2001-08-30 22:00","2001","08","30","22:00","12.0","","11.2","","95","","1","","15","","","M","98.11","","","","","","NA"
"2001-08-30 23:00","2001","08","30","23:00","11.1","","10.3","","95","","2","","11","","","M","98.21","","","","","","NA"
"2001-08-31 00:00","2001","08","31","00:00","10.7","","9.3","","91","","2","","15","","","M","98.31","","","","","","NA"
"2001-08-31 01:00","2001","08","31","01:00","10.2","","9.0","","92","","1","","11","","","M","98.39","","","","","","NA"
"2001-08-31 02:00","2001","08","31","02:00","9.2","","8.1","","93","","1","","15","","","M","98.45","","","","","","NA"
"2001-08-31 03:00","2001","08","31","03:00","8.9","","7.7","","92","","4","","9","","","M","98.51","","","","","","NA"
"2001-08-31 04:00","2001","08","31","04:00","8.4","","6.9","","90","","3","","9","","","M","98.59","","","","","","NA"
"2001-08-31 05:00","2001","08","31","05:00","8.1","","6.7","","91","","4","","13","","","M","98.68","","","","","","NA"
"2001-08-31 06:00","2001","08","31","06:00","7.0","","6.7","","98","","2","","4","","","M","98.77","","","","","","NA"
"2001-08-31 07:00","2001","08","31","07:00","7.4","","6.0","","91","","36","","6","","","M","98.87","","","","","","NA"
"2001-08-31 08:00","2001","08","31","08:00","9.7","","6.4","","80","","6","","6","","","M","98.92","","","","","","NA"
"2001-08-31 09:00","2001","08","31","09:00","9.5","","4.7","","72","","1","","11","","","M","98.93","","","","","","NA"
"2001-08-31 10:00","2001","08","31","10:00","11.2","","4.2","","62","","3","","17","","","M","98.97","","","","","","NA"
"2001-08-31 11:00","2001","08","31","11:00","11.7","","4.9","","63","","2","","7","","","M","98.99","","","","","","NA"
"2001-08-31 12:00","2001","08","31","12:00","12.4","","4.6","","59","","36","","11","","","M","98.99","","","","","","NA"
"2001-08-31 13:00","2001","08","31","13:00","11.5","","4.0","","60","","34","","15","","","M","99.04","","","","","","NA"
"2001-08-31 14:00","2001","08","31","14:00","12.5","","4.2","","57","","5","","15","","","M","99.07","","","","","","NA"
"2001-08-31 15:00","2001","08","31","15:00","12.6","","4.6","","58","","2","","11","","","M","99.10","","","","","","NA"
"2001-08-31 16:00","2001","08","31","16:00","12.7","","4.7","","58","","35","","9","","","M","99.13","","","","","","NA"
"2001-08-31 17:00","2001","08","31","17:00","13.4","","5.1","","57","","3","","6","","","M","99.14","","","","","","NA"
"2001-08-31 18:00","2001","08","31","18:00","13.4","","4.6","","55","","29","","7","","","M","99.14","","","","","","NA"
"2001-08-31 19:00","2001","08","31","19:00","13.0","","4.4","","56","","35","","6","","","M","99.13","","","","","","NA"
"2001-08-31 20:00","2001","08","31","20:00","11.2","","4.9","","65","","35","","9","","","M","99.20","","","","","","NA"
"2001-08-31 21:00","2001","08","31","21:00","9.2","","5.4","","77","","6","","9","","","M","99.24","","","","","","NA"
"2001-08-31 22:00","2001","08","31","22:00","8.2","","5.3","","82","","7","","9","","","M","99.26","","","","","","NA"
"2001-08-31 23:00","2001","08","31","23:00","6.9","","5.9","","93","","7","","7","","","M","99.28","","","","","","NA"
