"Station Name","PUKASKWA (AUT)"
"Province","ONTARIO"
"Latitude","48.61"
"Longitude","-86.29"
"Elevation","191.50"
"Climate Identifier","6046768"
"WMO Identifier","71750"
"TC Identifier","WCJ"
"All times are specified in Local Standard Time (LST). Add 1 hour to adjust for Daylight Saving Time where and when it is observed."

"Legend"
"E","Estimated"
"M","Missing"
"NA","Not Available"

"Date/Time","Year","Month","Day","Time","Temp (°C)","Temp Flag","Dew Point Temp (°C)","Dew Point Temp Flag","Rel Hum (%)","Rel Hum Flag","Wind Dir (10s deg)","Wind Dir Flag","Wind Spd (km/h)","Wind Spd Flag","Visibility (km)","Visibility Flag","Stn Press (kPa)","Stn Press Flag","Hmdx","Hmdx Flag","Wind Chill","Wind Chill Flag","Weather"
"2014-10-01 00:00","2014","10","01","00:00","2.8","","1.6","","92","","6","","8","","","","99.51","","","","","","NA"
"2014-10-01 01:00","2014","10","01","01:00","2.6","","1.4","","92","","5","","11","","","","99.51","","","","","","NA"
"2014-10-01 02:00","2014","10","01","02:00","2.7","","1.4","","91","","5","","7","","","","99.50","","","","","","NA"
"2014-10-01 03:00","2014","10","01","03:00","2.8","","1.6","","92","","5","","8","","","","99.45","","","","","","NA"
"2014-10-01 04:00","2014","10","01","04:00","3.6","","2.4","","92","","4","","7","","","","99.39","","","","","","NA"
"2014-10-01 05:00","2014","10","01","05:00","4.5","","3.3","","92","","5","","7","","","","99.37","","","","","","NA"
"2014-10-01 06:00","2014","10","01","06:00","5.4","","4.2","","92","","5","","6","","","","99.39","","","","","","NA"
"2014-10-01 07:00","2014","10","01","07:00","6.3","","5.3","","94","","19","","4","","","","99.36","","","","","","NA"
"2014-10-01 08:00","2014","10","01","08:00","10.2","","8.7","","91","","19","","7","","","","99.38","","","","","","NA"
"2014-10-01 09:00","2014","10","01","09:00","10.6","","9.5","","93","","19","","10","","","","99.37","","","","","","NA"
"2014-10-01 10:00","2014","10","01","10:00","11.1","","9.7","","91","","19","","9","","","","99.37","","","","","","NA"
"2014-10-01 11:00","2014","10","01","11:00","11.8","","10.0","","89","","18","","11","","","","99.34","","","","","","NA"
"2014-10-01 12:00","2014","10","01","12:00","12.5","","10.4","","87","","19","","10","","","","99.29","","","","","","NA"
"2014-10-01 13:00","2014","10","01","13:00","12.9","","10.4","","85","","18","","13","","","","99.23","","","","","","NA"
"2014-10-01 14:00","2014","10","01","14:00","13.8","","10.3","","80","","19","","12","","","","99.16","","","","","","NA"
"2014-10-01 15:00","2014","10","01","15:00","13.4","","10.5","","83","","18","","9","","","","99.10","","","","","","NA"
"2014-10-01 16:00","2014","10","01","16:00","13.9","","10.4","","79","","18","","12","","","","99.04","","","","","","NA"
"2014-10-01 17:00","2014","10","01","17:00","13.7","","10.7","","82","","19","","12","","","","99.01","","","","","","NA"
"2014-10-01 18:00","2014","10","01","18:00","13.2","","10.9","","86","","18","","10","","","","99.01","","","","","","NA"
"2014-10-01 19:00","2014","10","01","19:00","13.6","","11.0","","85","","18","","13","","","","98.98","","","","","","NA"
"2014-10-01 20:00","2014","10","01","20:00","13.6","","10.8","","83","","17","","12","","","","98.94","","","","","","NA"
"2014-10-01 21:00","2014","10","01","21:00","13.6","","11.0","","84","","18","","15","","","","98.93","","","","","","NA"
"2014-10-01 22:00","2014","10","01","22:00","13.1","","10.9","","87","","19","","15","","","","98.88","","","","","","NA"
"2014-10-01 23:00","2014","10","01","23:00","12.5","","11.0","","91","","19","","16","","","","98.89","","","","","","NA"
"2014-10-02 00:00","2014","10","02","00:00","11.8","","11.0","","95","","19","","19","","","","98.89","","","","","","NA"
"2014-10-02 01:00","2014","10","02","01:00","11.6","","11.1","","96","","19","","16","","","","98.89","","","","","","NA"
"2014-10-02 02:00","2014","10","02","02:00","11.6","","11.1","","97","","18","","15","","","","98.89","","","","","","NA"
"2014-10-02 03:00","2014","10","02","03:00","11.6","","11.0","","97","","18","","13","","","","98.88","","","","","","NA"
"2014-10-02 04:00","2014","10","02","04:00","11.4","","10.7","","96","","18","","15","","","","98.87","","","","","","NA"
"2014-10-02 05:00","2014","10","02","05:00","11.2","","10.6","","96","","18","","10","","","","98.87","","","","","","NA"
"2014-10-02 06:00","2014","10","02","06:00","11.3","","10.6","","96","","18","","14","","","","98.87","","","","","","NA"
"2014-10-02 07:00","2014","10","02","07:00","11.5","","10.9","","96","","19","","13","","","","98.89","","","","","","NA"
"2014-10-02 08:00","2014","10","02","08:00","11.6","","11.0","","96","","18","","13","","","","98.89","","","","","","NA"
"2014-10-02 09:00","2014","10","02","09:00","11.2","","10.6","","96","","18","","12","","","","98.94","","","","","","NA"
"2014-10-02 10:00","2014","10","02","10:00","11.6","","11.0","","96","","18","","10","","","","98.88","","","","","","NA"
"2014-10-02 11:00","2014","10","02","11:00","12.1","","11.4","","95","","18","","10","","","","98.87","","","","","","NA"
"2014-10-02 12:00","2014","10","02","12:00","11.8","","11.2","","96","","19","","10","","","","98.85","","","","","","NA"
"2014-10-02 13:00","2014","10","02","13:00","12.3","","11.7","","97","","18","","11","","","","98.77","","","","","","NA"
"2014-10-02 14:00","2014","10","02","14:00","12.3","","11.8","","97","","18","","8","","","","98.71","","","","","","NA"
"2014-10-02 15:00","2014","10","02","15:00","12.1","","11.7","","97","","20","","8","","","","98.72","","","","","","NA"
"2014-10-02 16:00","2014","10","02","16:00","11.8","","11.3","","97","","19","","8","","","","98.69","","","","","","NA"
"2014-10-02 17:00","2014","10","02","17:00","12.2","","11.8","","97","","18","","8","","","","98.65","","","","","","NA"
"2014-10-02 18:00","2014","10","02","18:00","12.4","","12.0","","98","","18","","4","","","","98.61","","","","","","NA"
"2014-10-02 19:00","2014","10","02","19:00","12.6","","12.2","","98","","","","0","","","","98.58","","","","","","NA"
"2014-10-02 20:00","2014","10","02","20:00","12.5","","12.1","","98","","5","","4","","","","98.47","","","","","","NA"
"2014-10-02 21:00","2014","10","02","21:00","12.4","","12.1","","98","","6","","3","","","","98.45","","","","","","NA"
"2014-10-02 22:00","2014","10","02","22:00","12.4","","12.1","","98","","3","","3","","","","98.33","","","","","","NA"
"2014-10-02 23:00","2014","10","02","23:00","12.5","","12.1","","98","","7","","3","","","","98.19","","","","","","NA"
"2014-10-03 00:00","2014","10","03","00:00","12.6","","12.3","","98","","4","","5","","","","98.10","","","","","","NA"
"2014-10-03 01:00","2014","10","03","01:00","12.7","","12.4","","98","","3","","7","","","","97.92","","","","","","NA"
"2014-10-03 02:00","2014","10","03","02:00","12.8","","12.4","","98","","2","","4","","","","97.79","","","","","","NA"
"2014-10-03 03:00","2014","10","03","03:00","12.9","","12.6","","98","","3","","8","","","","97.57","","","","","","NA"
"2014-10-03 04:00","2014","10","03","04:00","13.0","","12.7","","98","","3","","10","","","","97.42","","","","","","NA"
"2014-10-03 05:00","2014","10","03","05:00","13.2","","12.8","","98","","4","","6","","","","97.27","","","","","","NA"
"2014-10-03 06:00","2014","10","03","06:00"
"2014-10-03 07:00","2014","10","03","07:00","12.1","","11.7","","98","","21","","11","","","","97.05","","","","","","NA"
"2014-10-03 08:00","2014","10","03","08:00","10.9","","10.5","","97","","18","","6","","","","96.95","","","","","","NA"
"2014-10-03 09:00","2014","10","03","09:00","10.1","","9.7","","97","","18","","5","","","","96.86","","","","","","NA"
"2014-10-03 10:00","2014","10","03","10:00","10.1","","9.7","","97","","19","","3","","","","96.71","","","","","","NA"
"2014-10-03 11:00","2014","10","03","11:00","10.3","","9.9","","97","","21","","4","","","","96.63","","","","","","NA"
"2014-10-03 12:00","2014","10","03","12:00","11.0","","10.6","","97","","25","","3","","","","96.59","","","","","","NA"
"2014-10-03 13:00","2014","10","03","13:00","10.9","","10.5","","97","","27","","15","","","","96.49","","","","","","NA"
"2014-10-03 14:00","2014","10","03","14:00","10.8","","10.4","","97","","27","","16","","","","96.46","","","","","","NA"
"2014-10-03 15:00","2014","10","03","15:00","10.6","","10.2","","97","","27","","14","","","","96.50","","","","","","NA"
"2014-10-03 16:00","2014","10","03","16:00","10.1","","9.6","","97","","26","","17","","","","96.58","","","","","","NA"
"2014-10-03 17:00","2014","10","03","17:00","10.2","","9.5","","96","","28","","13","","","","96.66","","","","","","NA"
"2014-10-03 18:00","2014","10","03","18:00","10.1","","9.5","","96","","27","","10","","","","96.83","","","","","","NA"
"2014-10-03 19:00","2014","10","03","19:00","9.3","","8.3","","93","","30","","7","","","","96.98","","","","","","NA"
"2014-10-03 20:00","2014","10","03","20:00","8.4","","7.0","","91","","31","","9","","","","97.07","","","","","","NA"
"2014-10-03 21:00","2014","10","03","21:00","7.2","","5.6","","90","","33","","6","","","","97.12","","","","","","NA"
"2014-10-03 22:00","2014","10","03","22:00","6.2","","4.7","","90","","31","","4","","","","97.24","","","","","","NA"
"2014-10-03 23:00","2014","10","03","23:00","5.1","","3.2","","88","","34","","5","","","","97.27","","","","","","NA"
"2014-10-04 00:00","2014","10","04","00:00","4.7","","2.6","","86","","33","","5","","","","97.30","","","","","","NA"
"2014-10-04 01:00","2014","10","04","01:00","3.7","","1.6","","86","","36","","5","","","","97.30","","","","","","NA"
"2014-10-04 02:00","2014","10","04","02:00","2.4","","1.3","","93","","33","","2","","","","97.34","","","","","","NA"
"2014-10-04 03:00","2014","10","04","03:00","2.1","","0.8","","91","","33","","3","","","","97.32","","","","","","NA"
"2014-10-04 04:00","2014","10","04","04:00","1.9","","1.0","","94","","4","","4","","","","97.41","","","","","","NA"
"2014-10-04 05:00","2014","10","04","05:00","0.2","","-0.4","","96","","4","","3","","","","97.42","","","","","","NA"
"2014-10-04 06:00","2014","10","04","06:00","-0.2","","-0.6","","97","","1","","2","","","","97.43","","","","-1","","NA"
"2014-10-04 07:00","2014","10","04","07:00","-0.6","","-0.9","","98","","36","","2","","","","97.45","","","","-1","","NA"
"2014-10-04 08:00","2014","10","04","08:00","1.1","","0.6","","97","","32","","3","","","","97.43","","","","","","NA"
"2014-10-04 09:00","2014","10","04","09:00","2.9","","-0.1","","80","","34","","5","","","","97.41","","","","","","NA"
"2014-10-04 10:00","2014","10","04","10:00","4.5","","0.7","","76","","30","","6","","","","97.39","","","","","","NA"
"2014-10-04 11:00","2014","10","04","11:00","4.5","","-0.4","","70","","31","","8","","","","97.37","","","","","","NA"
"2014-10-04 12:00","2014","10","04","12:00","5.3","","0.0","","69","","29","","4","","","","97.37","","","","","","NA"
"2014-10-04 13:00","2014","10","04","13:00","5.1","","-0.1","","69","","31","","6","","","","97.38","","","","","","NA"
"2014-10-04 14:00","2014","10","04","14:00","4.8","","1.0","","76","","27","","8","","","","97.38","","","","","","NA"
"2014-10-04 15:00","2014","10","04","15:00","4.3","","1.4","","82","","27","","9","","","","97.39","","","","","","NA"
"2014-10-04 16:00","2014","10","04","16:00","2.3","","1.4","","94","","27","","4","","","","97.40","","","","","","NA"
"2014-10-04 17:00","2014","10","04","17:00","2.7","","2.0","","95","","28","","6","","","","97.38","","","","","","NA"
"2014-10-04 18:00","2014","10","04","18:00","2.9","","1.8","","93","","28","","9","","","","97.38","","","","","","NA"
"2014-10-04 19:00","2014","10","04","19:00","2.7","","1.7","","93","","28","","8","","","","97.39","","","","","","NA"
"2014-10-04 20:00","2014","10","04","20:00","2.9","","1.7","","92","","29","","8","","","","97.36","","","","","","NA"
"2014-10-04 21:00","2014","10","04","21:00","2.8","","1.8","","93","","29","","9","","","","97.34","","","","","","NA"
"2014-10-04 22:00","2014","10","04","22:00","2.7","","1.7","","94","","30","","8","","","","97.31","","","","","","NA"
"2014-10-04 23:00","2014","10","04","23:00","2.6","","1.6","","93","","29","","8","","","","97.26","","","","","","NA"
"2014-10-05 00:00","2014","10","05","00:00","3.0","","2.2","","95","","28","","12","","","","97.20","","","","","","NA"
"2014-10-05 01:00","2014","10","05","01:00","2.9","","2.0","","94","","28","","10","","","","97.18","","","","","","NA"
"2014-10-05 02:00","2014","10","05","02:00","2.9","","2.1","","95","","29","","8","","","","97.17","","","","","","NA"
"2014-10-05 03:00","2014","10","05","03:00","3.0","","1.7","","91","","27","","13","","","","97.13","","","","","","NA"
"2014-10-05 04:00","2014","10","05","04:00","2.7","","1.5","","92","","30","","8","","","","97.11","","","","","","NA"
"2014-10-05 05:00","2014","10","05","05:00","3.2","","1.8","","90","","26","","11","","","","97.10","","","","","","NA"
"2014-10-05 06:00","2014","10","05","06:00","3.7","","1.2","","84","","28","","13","","","","97.10","","","","","","NA"
"2014-10-05 07:00","2014","10","05","07:00","4.0","","0.7","","79","","27","","15","","","","97.14","","","","","","NA"
"2014-10-05 08:00","2014","10","05","08:00","4.4","","0.7","","77","","26","","17","","","","97.16","","","","","","NA"
"2014-10-05 09:00","2014","10","05","09:00","4.5","","0.9","","77","","25","","17","","","","97.17","","","","","","NA"
"2014-10-05 10:00","2014","10","05","10:00","5.1","","0.7","","73","","25","","15","","","","97.18","","","","","","NA"
"2014-10-05 11:00","2014","10","05","11:00","5.3","","1.3","","75","","24","","13","","","","97.14","","","","","","NA"
"2014-10-05 12:00","2014","10","05","12:00","5.8","","0.9","","70","","24","","17","","","","97.17","","","","","","NA"
"2014-10-05 13:00","2014","10","05","13:00","7.0","","0.5","","63","","25","","16","","","","97.15","","","","","","NA"
"2014-10-05 14:00","2014","10","05","14:00","7.0","","-0.3","","60","","23","","15","","","","97.15","","","","","","NA"
"2014-10-05 15:00","2014","10","05","15:00","7.3","","-0.5","","58","","23","","16","","","","97.18","","","","","","NA"
"2014-10-05 16:00","2014","10","05","16:00","7.4","","0.7","","63","","23","","13","","","","97.20","","","","","","NA"
"2014-10-05 17:00","2014","10","05","17:00","5.9","","1.5","","74","","22","","12","","","","97.24","","","","","","NA"
"2014-10-05 18:00","2014","10","05","18:00","5.7","","1.3","","74","","22","","15","","","","97.25","","","","","","NA"
"2014-10-05 19:00","2014","10","05","19:00","5.8","","1.3","","73","","22","","14","","","","97.29","","","","","","NA"
"2014-10-05 20:00","2014","10","05","20:00","5.8","","2.1","","77","","21","","16","","","","97.30","","","","","","NA"
"2014-10-05 21:00","2014","10","05","21:00","5.9","","2.7","","80","","21","","14","","","","97.28","","","","","","NA"
"2014-10-05 22:00","2014","10","05","22:00","5.7","","2.2","","78","","20","","14","","","","97.22","","","","","","NA"
"2014-10-05 23:00","2014","10","05","23:00","5.6","","2.1","","78","","20","","17","","","","97.18","","","","","","NA"
"2014-10-06 00:00","2014","10","06","00:00","2.0","","1.0","","93","","23","","16","","","","97.22","","","","","","NA"
"2014-10-06 01:00","2014","10","06","01:00","3.2","","2.5","","95","","20","","10","","","","97.16","","","","","","NA"
"2014-10-06 02:00","2014","10","06","02:00","3.8","","3.2","","96","","20","","8","","","","97.10","","","","","","NA"
"2014-10-06 03:00","2014","10","06","03:00","5.3","","4.1","","92","","23","","13","","","","97.02","","","","","","NA"
"2014-10-06 04:00","2014","10","06","04:00","4.7","","2.9","","88","","21","","13","","","","97.01","","","","","","NA"
"2014-10-06 05:00","2014","10","06","05:00","5.4","","4.0","","91","","20","","14","","","","97.01","","","","","","NA"
"2014-10-06 06:00","2014","10","06","06:00","6.0","","4.5","","91","","20","","13","","","","96.98","","","","","","NA"
"2014-10-06 07:00","2014","10","06","07:00","6.0","","4.2","","88","","21","","16","","","","96.96","","","","","","NA"
"2014-10-06 08:00","2014","10","06","08:00","5.2","","3.1","","86","","25","","16","","","","97.00","","","","","","NA"
"2014-10-06 09:00","2014","10","06","09:00","5.2","","3.7","","90","","23","","11","","","","97.01","","","","","","NA"
"2014-10-06 10:00","2014","10","06","10:00","6.1","","3.8","","86","","21","","18","","","","97.04","","","","","","NA"
"2014-10-06 11:00","2014","10","06","11:00","6.3","","3.2","","81","","21","","17","","","","97.07","","","","","","NA"
"2014-10-06 12:00","2014","10","06","12:00","5.6","","4.1","","90","","21","","18","","","","97.08","","","","","","NA"
"2014-10-06 13:00","2014","10","06","13:00","5.8","","2.9","","82","","22","","17","","","","97.11","","","","","","NA"
"2014-10-06 14:00","2014","10","06","14:00","6.7","","3.7","","81","","20","","13","","","","97.11","","","","","","NA"
"2014-10-06 15:00","2014","10","06","15:00"
"2014-10-06 16:00","2014","10","06","16:00"
"2014-10-06 17:00","2014","10","06","17:00","7.6","","2.3","","69","","18","","15","","","","97.21","","","","","","NA"
"2014-10-06 18:00","2014","10","06","18:00","7.7","","2.7","","71","","20","","14","","","","97.25","","","","","","NA"
"2014-10-06 19:00","2014","10","06","19:00","7.6","","3.4","","75","","20","","10","","","","97.31","","","","","","NA"
"2014-10-06 20:00","2014","10","06","20:00","7.5","","3.7","","77","","20","","11","","","","97.37","","","","","","NA"
"2014-10-06 21:00","2014","10","06","21:00","6.9","","3.6","","79","","19","","6","","","","97.33","","","","","","NA"
"2014-10-06 22:00","2014","10","06","22:00","6.3","","3.5","","82","","15","","3","","","","97.29","","","","","","NA"
"2014-10-06 23:00","2014","10","06","23:00","6.3","","3.8","","84","","15","","6","","","","97.27","","","","","","NA"
"2014-10-07 00:00","2014","10","07","00:00","6.0","","3.7","","85","","14","","6","","","","97.22","","","","","","NA"
"2014-10-07 01:00","2014","10","07","01:00","5.0","","3.3","","89","","8","","1","","","","97.18","","","","","","NA"
"2014-10-07 02:00","2014","10","07","02:00","4.6","","3.3","","91","","36","","1","","","","97.16","","","","","","NA"
"2014-10-07 03:00","2014","10","07","03:00","4.2","","2.8","","90","","6","","5","","","","97.16","","","","","","NA"
"2014-10-07 04:00","2014","10","07","04:00","3.9","","2.7","","92","","5","","5","","","","97.15","","","","","","NA"
"2014-10-07 05:00","2014","10","07","05:00","4.1","","3.0","","93","","11","","2","","","","97.13","","","","","","NA"
"2014-10-07 06:00","2014","10","07","06:00","5.3","","3.8","","90","","16","","4","","","","97.12","","","","","","NA"
"2014-10-07 07:00","2014","10","07","07:00","6.2","","5.3","","94","","19","","8","","","","97.13","","","","","","NA"
"2014-10-07 08:00","2014","10","07","08:00","6.7","","5.8","","93","","21","","9","","","","97.16","","","","","","NA"
"2014-10-07 09:00","2014","10","07","09:00","7.0","","5.6","","91","","29","","5","","","","97.19","","","","","","NA"
"2014-10-07 10:00","2014","10","07","10:00","5.8","","4.1","","89","","1","","3","","","","97.29","","","","","","NA"
"2014-10-07 11:00","2014","10","07","11:00","6.2","","3.5","","83","","29","","5","","","","97.35","","","","","","NA"
"2014-10-07 12:00","2014","10","07","12:00","7.2","","2.7","","73","","25","","8","","","","97.40","","","","","","NA"
"2014-10-07 13:00","2014","10","07","13:00","7.6","","2.3","","69","","23","","11","","","","97.47","","","","","","NA"
"2014-10-07 14:00","2014","10","07","14:00","6.5","","1.9","","72","","23","","9","","","","97.55","","","","","","NA"
"2014-10-07 15:00","2014","10","07","15:00","6.6","","2.6","","76","","23","","10","","","","97.61","","","","","","NA"
"2014-10-07 16:00","2014","10","07","16:00","6.6","","2.6","","76","","23","","10","","","","97.68","","","","","","NA"
"2014-10-07 17:00","2014","10","07","17:00","6.1","","2.7","","79","","23","","13","","","","97.75","","","","","","NA"
"2014-10-07 18:00","2014","10","07","18:00","5.8","","3.1","","82","","22","","8","","","","97.82","","","","","","NA"
"2014-10-07 19:00","2014","10","07","19:00","6.1","","3.8","","85","","22","","7","","","","97.83","","","","","","NA"
"2014-10-07 20:00","2014","10","07","20:00","6.3","","4.1","","86","","24","","8","","","","97.85","","","","","","NA"
"2014-10-07 21:00","2014","10","07","21:00","6.4","","4.1","","85","","25","","9","","","","97.85","","","","","","NA"
"2014-10-07 22:00","2014","10","07","22:00","6.1","","3.8","","86","","29","","3","","","","97.85","","","","","","NA"
"2014-10-07 23:00","2014","10","07","23:00","5.5","","2.8","","83","","29","","5","","","","97.87","","","","","","NA"
"2014-10-08 00:00","2014","10","08","00:00","5.1","","2.5","","83","","31","","4","","","","97.90","","","","","","NA"
"2014-10-08 01:00","2014","10","08","01:00","4.8","","1.9","","82","","31","","4","","","","97.92","","","","","","NA"
"2014-10-08 02:00","2014","10","08","02:00","4.2","","2.0","","85","","31","","2","","","","97.96","","","","","","NA"
"2014-10-08 03:00","2014","10","08","03:00","3.5","","1.6","","87","","30","","5","","","","97.99","","","","","","NA"
"2014-10-08 04:00","2014","10","08","04:00","2.9","","0.9","","87","","36","","3","","","","98.02","","","","","","NA"
"2014-10-08 05:00","2014","10","08","05:00","1.3","","0.1","","92","","32","","2","","","","98.06","","","","","","NA"
"2014-10-08 06:00","2014","10","08","06:00","2.3","","0.8","","90","","32","","2","","","","98.08","","","","","","NA"
"2014-10-08 07:00","2014","10","08","07:00","2.4","","1.1","","91","","0","","1","","","","98.12","","","","","","NA"
"2014-10-08 08:00","2014","10","08","08:00","3.0","","0.8","","86","","28","","5","","","","98.18","","","","","","NA"
"2014-10-08 09:00","2014","10","08","09:00","3.7","","0.4","","79","","30","","7","","","","98.19","","","","","","NA"
"2014-10-08 10:00","2014","10","08","10:00","4.5","","-0.2","","72","","28","","13","","","","98.21","","","","","","NA"
"2014-10-08 11:00","2014","10","08","11:00","5.3","","-0.6","","65","","31","","8","","","","98.21","","","","","","NA"
"2014-10-08 12:00","2014","10","08","12:00","5.7","","-0.1","","66","","28","","13","","","","98.25","","","","","","NA"
"2014-10-08 13:00","2014","10","08","13:00","5.1","","1.2","","76","","26","","13","","","","98.24","","","","","","NA"
"2014-10-08 14:00","2014","10","08","14:00","5.3","","1.5","","76","","26","","15","","","","98.24","","","","","","NA"
"2014-10-08 15:00","2014","10","08","15:00","5.4","","2.6","","82","","27","","17","","","","98.27","","","","","","NA"
"2014-10-08 16:00","2014","10","08","16:00","5.8","","2.1","","77","","26","","14","","","","98.27","","","","","","NA"
"2014-10-08 17:00","2014","10","08","17:00","5.6","","1.5","","75","","26","","15","","","","98.30","","","","","","NA"
"2014-10-08 18:00","2014","10","08","18:00","4.0","","2.3","","89","","26","","10","","","","98.30","","","","","","NA"
"2014-10-08 19:00","2014","10","08","19:00","4.8","","1.0","","76","","27","","13","","","","98.30","","","","","","NA"
"2014-10-08 20:00","2014","10","08","20:00","4.5","","0.6","","76","","29","","12","","","","98.35","","","","","","NA"
"2014-10-08 21:00","2014","10","08","21:00","4.8","","1.1","","77","","27","","15","","","","98.34","","","","","","NA"
"2014-10-08 22:00","2014","10","08","22:00","4.9","","1.6","","79","","29","","11","","","","98.34","","","","","","NA"
"2014-10-08 23:00","2014","10","08","23:00","4.9","","1.7","","80","","29","","11","","","","98.36","","","","","","NA"
"2014-10-09 00:00","2014","10","09","00:00","4.1","","2.2","","88","","32","","6","","","","98.43","","","","","","NA"
"2014-10-09 01:00","2014","10","09","01:00","4.0","","2.0","","87","","31","","5","","","","98.48","","","","","","NA"
"2014-10-09 02:00","2014","10","09","02:00","4.2","","1.8","","84","","30","","8","","","","98.54","","","","","","NA"
"2014-10-09 03:00","2014","10","09","03:00","3.7","","1.1","","83","","31","","8","","","","98.60","","","","","","NA"
"2014-10-09 04:00","2014","10","09","04:00","3.7","","1.4","","85","","31","","7","","","","98.66","","","","","","NA"
"2014-10-09 05:00","2014","10","09","05:00","4.2","","1.6","","83","","30","","8","","","","98.72","","","","","","NA"
"2014-10-09 06:00","2014","10","09","06:00","4.6","","1.8","","82","","30","","7","","","","98.74","","","","","","NA"
"2014-10-09 07:00","2014","10","09","07:00","4.4","","1.9","","84","","30","","9","","","","98.79","","","","","","NA"
"2014-10-09 08:00","2014","10","09","08:00","4.6","","1.6","","81","","32","","6","","","","98.85","","","","","","NA"
"2014-10-09 09:00","2014","10","09","09:00","5.4","","2.0","","79","","31","","6","","","","98.90","","","","","","NA"
"2014-10-09 10:00","2014","10","09","10:00","5.7","","1.7","","75","","30","","8","","","","98.95","","","","","","NA"
"2014-10-09 11:00","2014","10","09","11:00","6.8","","1.6","","69","","30","","7","","","","98.98","","","","","","NA"
"2014-10-09 12:00","2014","10","09","12:00","7.2","","2.1","","70","","30","","9","","","","99.02","","","","","","NA"
"2014-10-09 13:00","2014","10","09","13:00","7.9","","2.4","","68","","29","","7","","","","99.07","","","","","","NA"
"2014-10-09 14:00","2014","10","09","14:00","8.5","","2.3","","65","","30","","7","","","","99.10","","","","","","NA"
"2014-10-09 15:00","2014","10","09","15:00","8.0","","3.4","","72","","29","","7","","","","99.14","","","","","","NA"
"2014-10-09 16:00","2014","10","09","16:00","8.1","","3.0","","70","","30","","7","","","","99.18","","","","","","NA"
"2014-10-09 17:00","2014","10","09","17:00","6.9","","3.3","","78","","33","","8","","","","99.21","","","","","","NA"
"2014-10-09 18:00","2014","10","09","18:00","6.9","","2.7","","75","","31","","7","","","","99.26","","","","","","NA"
"2014-10-09 19:00","2014","10","09","19:00","6.3","","2.1","","74","","31","","7","","","","99.31","","","","","","NA"
"2014-10-09 20:00","2014","10","09","20:00","6.0","","1.8","","74","","30","","8","","","","99.34","","","","","","NA"
"2014-10-09 21:00","2014","10","09","21:00","5.8","","1.9","","76","","31","","7","","","","99.35","","","","","","NA"
"2014-10-09 22:00","2014","10","09","22:00","5.5","","1.4","","75","","33","","6","","","","99.36","","","","","","NA"
"2014-10-09 23:00","2014","10","09","23:00","5.3","","1.7","","78","","31","","5","","","","99.37","","","","","","NA"
"2014-10-10 00:00","2014","10","10","00:00","5.1","","1.4","","77","","34","","3","","","","99.39","","","","","","NA"
"2014-10-10 01:00","2014","10","10","01:00","5.1","","1.3","","77","","30","","7","","","","99.39","","","","","","NA"
"2014-10-10 02:00","2014","10","10","02:00","5.0","","1.2","","76","","30","","7","","","","99.41","","","","","","NA"
"2014-10-10 03:00","2014","10","10","03:00","4.5","","1.1","","79","","33","","4","","","","99.44","","","","","","NA"
"2014-10-10 04:00","2014","10","10","04:00","4.1","","0.9","","80","","36","","1","","","","99.46","","","","","","NA"
"2014-10-10 05:00","2014","10","10","05:00","4.3","","1.1","","80","","31","","5","","","","99.51","","","","","","NA"
"2014-10-10 06:00","2014","10","10","06:00","4.0","","1.5","","83","","33","","3","","","","99.53","","","","","","NA"
"2014-10-10 07:00","2014","10","10","07:00","4.1","","1.4","","82","","32","","5","","","","99.55","","","","","","NA"
"2014-10-10 08:00","2014","10","10","08:00","4.3","","1.2","","81","","35","","4","","","","99.56","","","","","","NA"
"2014-10-10 09:00","2014","10","10","09:00","5.0","","1.2","","76","","33","","4","","","","99.59","","","","","","NA"
"2014-10-10 10:00","2014","10","10","10:00","5.6","","1.7","","76","","30","","4","","","","99.63","","","","","","NA"
"2014-10-10 11:00","2014","10","10","11:00","5.8","","1.1","","72","","29","","6","","","","99.66","","","","","","NA"
"2014-10-10 12:00","2014","10","10","12:00","6.9","","1.4","","68","","30","","5","","","","99.67","","","","","","NA"
"2014-10-10 13:00","2014","10","10","13:00","7.4","","1.2","","65","","29","","9","","","","99.67","","","","","","NA"
"2014-10-10 14:00","2014","10","10","14:00","8.4","","1.2","","61","","26","","9","","","","99.63","","","","","","NA"
"2014-10-10 15:00","2014","10","10","15:00","8.0","","2.8","","70","","26","","11","","","","99.65","","","","","","NA"
"2014-10-10 16:00","2014","10","10","16:00","6.9","","2.5","","74","","26","","8","","","","99.67","","","","","","NA"
"2014-10-10 17:00","2014","10","10","17:00","6.6","","2.4","","74","","27","","10","","","","99.65","","","","","","NA"
"2014-10-10 18:00","2014","10","10","18:00","4.5","","3.0","","90","","5","","5","","","","99.70","","","","","","NA"
"2014-10-10 19:00","2014","10","10","19:00","4.0","","3.1","","94","","3","","3","","","","99.73","","","","","","NA"
"2014-10-10 20:00","2014","10","10","20:00","3.6","","2.7","","94","","5","","1","","","","99.75","","","","","","NA"
"2014-10-10 21:00","2014","10","10","21:00","3.2","","2.4","","95","","0","","1","","","","99.78","","","","","","NA"
"2014-10-10 22:00","2014","10","10","22:00","3.1","","2.4","","95","","3","","4","","","","99.79","","","","","","NA"
"2014-10-10 23:00","2014","10","10","23:00","1.3","","0.4","","94","","5","","3","","","","99.80","","","","","","NA"
"2014-10-11 00:00","2014","10","11","00:00","-0.6","","-1.3","","95","","1","","1","","","","99.82","","","","-1","","NA"
"2014-10-11 01:00","2014","10","11","01:00","-1.6","","-2.2","","96","","4","","1","","","","99.79","","","","-2","","NA"
"2014-10-11 02:00","2014","10","11","02:00","-1.7","","-2.1","","97","","4","","5","","","","99.81","","","","-4","","NA"
"2014-10-11 03:00","2014","10","11","03:00","-1.9","","-2.3","","97","","4","","5","","","","99.82","","","","-4","","NA"
"2014-10-11 04:00","2014","10","11","04:00","-1.5","","-1.8","","98","","4","","4","","","","99.82","","","","-3","","NA"
"2014-10-11 05:00","2014","10","11","05:00","-1.6","","-1.9","","98","","3","","3","","","","99.81","","","","-3","","NA"
"2014-10-11 06:00","2014","10","11","06:00","-1.6","","-2.0","","97","","3","","4","","","","99.82","","","","-3","","NA"
"2014-10-11 07:00","2014","10","11","07:00","-1.3","","-1.7","","98","","3","","3","","","","99.82","","","","-2","","NA"
"2014-10-11 08:00","2014","10","11","08:00","-0.2","","-0.5","","98","","","","0","","","","99.86","","","","","","NA"
"2014-10-11 09:00","2014","10","11","09:00","1.5","","1.2","","98","","2","","3","","","","99.84","","","","","","NA"
"2014-10-11 10:00","2014","10","11","10:00","5.0","","3.6","","91","","23","","7","","","","99.84","","","","","","NA"
"2014-10-11 11:00","2014","10","11","11:00","4.1","","2.8","","91","","21","","10","","","","99.85","","","","","","NA"
"2014-10-11 12:00","2014","10","11","12:00","7.0","","4.8","","86","","23","","10","","","","99.79","","","","","","NA"
"2014-10-11 13:00","2014","10","11","13:00","8.0","","4.8","","81","","21","","12","","","","99.76","","","","","","NA"
"2014-10-11 14:00","2014","10","11","14:00","8.2","","4.4","","77","","23","","13","","","","99.72","","","","","","NA"
"2014-10-11 15:00","2014","10","11","15:00","8.2","","3.5","","72","","23","","15","","","","99.65","","","","","","NA"
"2014-10-11 16:00","2014","10","11","16:00","7.2","","3.0","","75","","22","","12","","","","99.61","","","","","","NA"
"2014-10-11 17:00","2014","10","11","17:00","6.6","","3.2","","79","","21","","13","","","","99.57","","","","","","NA"
"2014-10-11 18:00","2014","10","11","18:00","6.1","","3.4","","83","","21","","13","","","","99.52","","","","","","NA"
"2014-10-11 19:00","2014","10","11","19:00","5.8","","3.6","","86","","21","","12","","","","99.49","","","","","","NA"
"2014-10-11 20:00","2014","10","11","20:00","5.7","","3.8","","87","","20","","12","","","","99.46","","","","","","NA"
"2014-10-11 21:00","2014","10","11","21:00","5.6","","3.9","","89","","20","","12","","","","99.45","","","","","","NA"
"2014-10-11 22:00","2014","10","11","22:00","5.6","","3.1","","84","","20","","11","","","","99.43","","","","","","NA"
"2014-10-11 23:00","2014","10","11","23:00","5.7","","2.9","","82","","20","","11","","","","99.39","","","","","","NA"
"2014-10-12 00:00","2014","10","12","00:00","6.2","","3.9","","85","","18","","11","","","","99.34","","","","","","NA"
"2014-10-12 01:00","2014","10","12","01:00","6.5","","4.5","","87","","18","","13","","","","99.29","","","","","","NA"
"2014-10-12 02:00","2014","10","12","02:00","6.7","","4.7","","87","","19","","12","","","","99.25","","","","","","NA"
"2014-10-12 03:00","2014","10","12","03:00","6.5","","4.8","","89","","19","","12","","","","99.22","","","","","","NA"
"2014-10-12 04:00","2014","10","12","04:00","6.8","","4.4","","85","","20","","15","","","","99.19","","","","","","NA"
"2014-10-12 05:00","2014","10","12","05:00","6.9","","4.3","","83","","19","","13","","","","99.17","","","","","","NA"
"2014-10-12 06:00","2014","10","12","06:00","6.7","","4.1","","84","","21","","14","","","","99.18","","","","","","NA"
"2014-10-12 07:00","2014","10","12","07:00","6.6","","4.0","","84","","20","","15","","","","99.17","","","","","","NA"
"2014-10-12 08:00","2014","10","12","08:00","7.0","","3.9","","80","","19","","15","","","","99.16","","","","","","NA"
"2014-10-12 09:00","2014","10","12","09:00","7.9","","4.4","","79","","20","","14","","","","99.15","","","","","","NA"
"2014-10-12 10:00","2014","10","12","10:00","9.3","","4.8","","73","","19","","16","","","","99.15","","","","","","NA"
"2014-10-12 11:00","2014","10","12","11:00","10.1","","5.2","","72","","19","","14","","","","99.16","","","","","","NA"
"2014-10-12 12:00","2014","10","12","12:00","10.4","","5.1","","69","","20","","14","","","","99.15","","","","","","NA"
"2014-10-12 13:00","2014","10","12","13:00","10.7","","5.3","","69","","19","","14","","","","99.11","","","","","","NA"
"2014-10-12 14:00","2014","10","12","14:00","10.3","","5.2","","71","","19","","17","","","","99.09","","","","","","NA"
"2014-10-12 15:00","2014","10","12","15:00","10.2","","5.3","","72","","18","","13","","","","99.06","","","","","","NA"
"2014-10-12 16:00","2014","10","12","16:00","9.6","","5.2","","74","","19","","13","","","","99.04","","","","","","NA"
"2014-10-12 17:00","2014","10","12","17:00","9.2","","5.3","","77","","19","","12","","","","99.00","","","","","","NA"
"2014-10-12 18:00","2014","10","12","18:00","9.4","","4.3","","70","","19","","13","","","","98.96","","","","","","NA"
"2014-10-12 19:00","2014","10","12","19:00","10.0","","5.1","","71","","18","","11","","","","98.95","","","","","","NA"
"2014-10-12 20:00","2014","10","12","20:00","9.3","","5.8","","79","","19","","15","","","","98.96","","","","","","NA"
"2014-10-12 21:00","2014","10","12","21:00","8.9","","5.3","","79","","19","","15","","","","98.97","","","","","","NA"
"2014-10-12 22:00","2014","10","12","22:00","9.2","","3.6","","68","","18","","16","","","","98.94","","","","","","NA"
"2014-10-12 23:00","2014","10","12","23:00","9.6","","3.3","","65","","18","","19","","","","98.95","","","","","","NA"
"2014-10-13 00:00","2014","10","13","00:00","9.6","","3.6","","66","","19","","14","","","","98.95","","","","","","NA"
"2014-10-13 01:00","2014","10","13","01:00","9.5","","3.6","","67","","18","","14","","","","98.94","","","","","","NA"
"2014-10-13 02:00","2014","10","13","02:00","9.4","","3.9","","69","","18","","11","","","","98.91","","","","","","NA"
"2014-10-13 03:00","2014","10","13","03:00","9.3","","4.1","","70","","18","","11","","","","98.86","","","","","","NA"
"2014-10-13 04:00","2014","10","13","04:00","8.8","","4.5","","74","","18","","9","","","","98.83","","","","","","NA"
"2014-10-13 05:00","2014","10","13","05:00","8.9","","4.7","","75","","18","","9","","","","98.81","","","","","","NA"
"2014-10-13 06:00","2014","10","13","06:00","8.5","","4.8","","78","","18","","9","","","","98.81","","","","","","NA"
"2014-10-13 07:00","2014","10","13","07:00","8.5","","5.0","","78","","19","","7","","","","98.81","","","","","","NA"
"2014-10-13 08:00","2014","10","13","08:00","9.1","","5.5","","78","","17","","9","","","","98.83","","","","","","NA"
"2014-10-13 09:00","2014","10","13","09:00","10.0","","6.4","","79","","17","","10","","","","98.80","","","","","","NA"
"2014-10-13 10:00","2014","10","13","10:00","10.3","","6.6","","78","","18","","12","","","","98.82","","","","","","NA"
"2014-10-13 11:00","2014","10","13","11:00","10.7","","7.6","","81","","18","","10","","","","98.87","","","","","","NA"
"2014-10-13 12:00","2014","10","13","12:00","10.7","","7.6","","81","","18","","10","","","","98.89","","","","","","NA"
"2014-10-13 13:00","2014","10","13","13:00","10.7","","7.5","","81","","18","","10","","","","98.86","","","","","","NA"
"2014-10-13 14:00","2014","10","13","14:00","10.6","","7.7","","82","","17","","10","","","","98.80","","","","","","NA"
"2014-10-13 15:00","2014","10","13","15:00","10.5","","7.8","","83","","18","","10","","","","98.81","","","","","","NA"
"2014-10-13 16:00","2014","10","13","16:00","10.1","","7.6","","85","","18","","6","","","","98.84","","","","","","NA"
"2014-10-13 17:00","2014","10","13","17:00","9.3","","7.7","","90","","18","","4","","","","98.87","","","","","","NA"
"2014-10-13 18:00","2014","10","13","18:00","8.9","","7.6","","92","","23","","2","","","","98.88","","","","","","NA"
"2014-10-13 19:00","2014","10","13","19:00","8.5","","7.3","","92","","6","","1","","","","98.84","","","","","","NA"
"2014-10-13 20:00","2014","10","13","20:00","8.4","","7.2","","93","","8","","3","","","","98.85","","","","","","NA"
"2014-10-13 21:00","2014","10","13","21:00","8.3","","7.2","","93","","23","","2","","","","98.84","","","","","","NA"
"2014-10-13 22:00","2014","10","13","22:00","8.2","","7.2","","94","","","","0","","","","98.82","","","","","","NA"
"2014-10-13 23:00","2014","10","13","23:00","8.1","","7.4","","95","","4","","3","","","","98.85","","","","","","NA"
"2014-10-14 00:00","2014","10","14","00:00"
"2014-10-14 01:00","2014","10","14","01:00"
"2014-10-14 02:00","2014","10","14","02:00"
"2014-10-14 03:00","2014","10","14","03:00"
"2014-10-14 04:00","2014","10","14","04:00"
"2014-10-14 05:00","2014","10","14","05:00"
"2014-10-14 06:00","2014","10","14","06:00"
"2014-10-14 07:00","2014","10","14","07:00"
"2014-10-14 08:00","2014","10","14","08:00"
"2014-10-14 09:00","2014","10","14","09:00"
"2014-10-14 10:00","2014","10","14","10:00"
"2014-10-14 11:00","2014","10","14","11:00"
"2014-10-14 12:00","2014","10","14","12:00"
"2014-10-14 13:00","2014","10","14","13:00"
"2014-10-14 14:00","2014","10","14","14:00"
"2014-10-14 15:00","2014","10","14","15:00"
"2014-10-14 16:00","2014","10","14","16:00"
"2014-10-14 17:00","2014","10","14","17:00"
"2014-10-14 18:00","2014","10","14","18:00"
"2014-10-14 19:00","2014","10","14","19:00"
"2014-10-14 20:00","2014","10","14","20:00"
"2014-10-14 21:00","2014","10","14","21:00"
"2014-10-14 22:00","2014","10","14","22:00"
"2014-10-14 23:00","2014","10","14","23:00"
"2014-10-15 00:00","2014","10","15","00:00"
"2014-10-15 01:00","2014","10","15","01:00"
"2014-10-15 02:00","2014","10","15","02:00"
"2014-10-15 03:00","2014","10","15","03:00"
"2014-10-15 04:00","2014","10","15","04:00"
"2014-10-15 05:00","2014","10","15","05:00"
"2014-10-15 06:00","2014","10","15","06:00"
"2014-10-15 07:00","2014","10","15","07:00"
"2014-10-15 08:00","2014","10","15","08:00"
"2014-10-15 09:00","2014","10","15","09:00"
"2014-10-15 10:00","2014","10","15","10:00"
"2014-10-15 11:00","2014","10","15","11:00"
"2014-10-15 12:00","2014","10","15","12:00"
"2014-10-15 13:00","2014","10","15","13:00"
"2014-10-15 14:00","2014","10","15","14:00"
"2014-10-15 15:00","2014","10","15","15:00"
"2014-10-15 16:00","2014","10","15","16:00"
"2014-10-15 17:00","2014","10","15","17:00"
"2014-10-15 18:00","2014","10","15","18:00"
"2014-10-15 19:00","2014","10","15","19:00"
"2014-10-15 20:00","2014","10","15","20:00"
"2014-10-15 21:00","2014","10","15","21:00"
"2014-10-15 22:00","2014","10","15","22:00"
"2014-10-15 23:00","2014","10","15","23:00"
"2014-10-16 00:00","2014","10","16","00:00"
"2014-10-16 01:00","2014","10","16","01:00"
"2014-10-16 02:00","2014","10","16","02:00"
"2014-10-16 03:00","2014","10","16","03:00"
"2014-10-16 04:00","2014","10","16","04:00"
"2014-10-16 05:00","2014","10","16","05:00"
"2014-10-16 06:00","2014","10","16","06:00"
"2014-10-16 07:00","2014","10","16","07:00"
"2014-10-16 08:00","2014","10","16","08:00"
"2014-10-16 09:00","2014","10","16","09:00"
"2014-10-16 10:00","2014","10","16","10:00"
"2014-10-16 11:00","2014","10","16","11:00"
"2014-10-16 12:00","2014","10","16","12:00","9.5","","5.7","","77","","6","","7","","","","98.58","","","","","","NA"
"2014-10-16 13:00","2014","10","16","13:00","10.3","","6.3","","76","","8","","9","","","","98.54","","","","","","NA"
"2014-10-16 14:00","2014","10","16","14:00","11.0","","6.7","","75","","2","","5","","","","98.43","","","","","","NA"
"2014-10-16 15:00","2014","10","16","15:00","12.1","","7.3","","72","","5","","3","","","","98.33","","","","","","NA"
"2014-10-16 16:00","2014","10","16","16:00","11.3","","7.3","","76","","23","","5","","","","98.30","","","","","","NA"
"2014-10-16 17:00","2014","10","16","17:00","9.9","","6.9","","82","","22","","3","","","","98.21","","","","","","NA"
"2014-10-16 18:00","2014","10","16","18:00","8.0","","5.9","","87","","0","","1","","","","98.16","","","","","","NA"
"2014-10-16 19:00","2014","10","16","19:00","7.5","","6.1","","91","","21","","2","","","","98.20","","","","","","NA"
"2014-10-16 20:00","2014","10","16","20:00","7.9","","6.6","","92","","18","","3","","","","98.14","","","","","","NA"
"2014-10-16 21:00","2014","10","16","21:00","8.0","","6.7","","91","","15","","2","","","","98.07","","","","","","NA"
"2014-10-16 22:00","2014","10","16","22:00","8.0","","6.8","","93","","16","","2","","","","98.03","","","","","","NA"
"2014-10-16 23:00","2014","10","16","23:00","8.0","","6.8","","93","","4","","2","","","","97.95","","","","","","NA"
"2014-10-17 00:00","2014","10","17","00:00","8.0","","6.9","","93","","10","","3","","","","97.86","","","","","","NA"
"2014-10-17 01:00","2014","10","17","01:00","7.9","","7.0","","94","","26","","3","","","","97.81","","","","","","NA"
"2014-10-17 02:00","2014","10","17","02:00","7.8","","7.2","","96","","1","","1","","","","97.75","","","","","","NA"
"2014-10-17 03:00","2014","10","17","03:00","7.9","","7.4","","97","","4","","7","","","","97.74","","","","","","NA"
"2014-10-17 04:00","2014","10","17","04:00","7.5","","7.0","","96","","2","","6","","","","97.64","","","","","","NA"
"2014-10-17 05:00","2014","10","17","05:00","7.3","","6.6","","95","","36","","2","","","","97.63","","","","","","NA"
"2014-10-17 06:00","2014","10","17","06:00","7.2","","6.5","","95","","3","","9","","","","97.62","","","","","","NA"
"2014-10-17 07:00","2014","10","17","07:00","7.0","","6.3","","95","","3","","12","","","","97.64","","","","","","NA"
"2014-10-17 08:00","2014","10","17","08:00","6.4","","5.3","","93","","2","","14","","","","97.71","","","","","","NA"
"2014-10-17 09:00","2014","10","17","09:00","5.7","","4.7","","94","","1","","10","","","","97.71","","","","","","NA"
"2014-10-17 10:00","2014","10","17","10:00","5.7","","4.8","","94","","1","","10","","","","97.76","","","","","","NA"
"2014-10-17 11:00","2014","10","17","11:00","6.0","","4.8","","93","","2","","13","","","","97.80","","","","","","NA"
"2014-10-17 12:00","2014","10","17","12:00","5.7","","4.5","","92","","1","","14","","","","97.84","","","","","","NA"
"2014-10-17 13:00","2014","10","17","13:00","5.5","","4.4","","93","","36","","11","","","","97.86","","","","","","NA"
"2014-10-17 14:00","2014","10","17","14:00","5.5","","4.3","","92","","36","","9","","","","97.91","","","","","","NA"
"2014-10-17 15:00","2014","10","17","15:00","5.5","","4.2","","92","","35","","12","","","","98.00","","","","","","NA"
"2014-10-17 16:00","2014","10","17","16:00","5.3","","4.0","","91","","36","","12","","","","98.08","","","","","","NA"
"2014-10-17 17:00","2014","10","17","17:00","4.8","","3.4","","91","","35","","15","","","","98.18","","","","","","NA"
"2014-10-17 18:00","2014","10","17","18:00","4.4","","3.0","","91","","36","","12","","","","98.29","","","","","","NA"
"2014-10-17 19:00","2014","10","17","19:00","3.8","","2.2","","90","","1","","14","","","","98.37","","","","","","NA"
"2014-10-17 20:00","2014","10","17","20:00","3.8","","1.8","","86","","36","","17","","","","98.44","","","","","","NA"
"2014-10-17 21:00","2014","10","17","21:00","3.7","","1.6","","87","","36","","11","","","","98.58","","","","","","NA"
"2014-10-17 22:00","2014","10","17","22:00","3.1","","0.9","","86","","36","","14","","","","98.69","","","","","","NA"
"2014-10-17 23:00","2014","10","17","23:00","2.9","","0.2","","82","","36","","13","","","","98.78","","","","","","NA"
"2014-10-18 00:00","2014","10","18","00:00","2.6","","-0.7","","79","","1","","14","","","","98.87","","","","","","NA"
"2014-10-18 01:00","2014","10","18","01:00","2.1","","-2.1","","74","","1","","16","","","","98.99","","","","","","NA"
"2014-10-18 02:00","2014","10","18","02:00","1.5","","-2.3","","76","","2","","14","","","","99.10","","","","","","NA"
"2014-10-18 03:00","2014","10","18","03:00","1.3","","-2.1","","78","","1","","11","","","","99.18","","","","","","NA"
"2014-10-18 04:00","2014","10","18","04:00","1.2","","-2.6","","75","","1","","12","","","","99.26","","","","","","NA"
"2014-10-18 05:00","2014","10","18","05:00","0.9","","-2.6","","77","","36","","10","","","","99.34","","","","","","NA"
"2014-10-18 06:00","2014","10","18","06:00","0.4","","-2.7","","80","","1","","13","","","","99.43","","","","","","NA"
"2014-10-18 07:00","2014","10","18","07:00","0.1","","-2.9","","81","","1","","10","","","","99.51","","","","","","NA"
"2014-10-18 08:00","2014","10","18","08:00","0.4","","-2.9","","79","","36","","8","","","","99.63","","","","","","NA"
"2014-10-18 09:00","2014","10","18","09:00","0.6","","-3.3","","75","","1","","11","","","","99.68","","","","","","NA"
"2014-10-18 10:00","2014","10","18","10:00","0.9","","-3.9","","70","","2","","14","","","","99.73","","","","","","NA"
"2014-10-18 11:00","2014","10","18","11:00","1.9","","-3.7","","67","","36","","14","","","","99.74","","","","","","NA"
"2014-10-18 12:00","2014","10","18","12:00","2.6","","-3.7","","63","","36","","12","","","","99.75","","","","","","NA"
"2014-10-18 13:00","2014","10","18","13:00","3.7","","-3.5","","59","","4","","10","","","","99.74","","","","","","NA"
"2014-10-18 14:00","2014","10","18","14:00","3.9","","-4.0","","57","","4","","8","","","","99.73","","","","","","NA"
"2014-10-18 15:00","2014","10","18","15:00","4.3","","-3.6","","56","","36","","8","","","","99.74","","","","","","NA"
"2014-10-18 16:00","2014","10","18","16:00","4.3","","-4.0","","55","","3","","8","","","","99.73","","","","","","NA"
"2014-10-18 17:00","2014","10","18","17:00","3.4","","-3.0","","63","","35","","4","","","","99.75","","","","","","NA"
"2014-10-18 18:00","2014","10","18","18:00","1.7","","-2.0","","76","","0","","1","","","","99.77","","","","","","NA"
"2014-10-18 19:00","2014","10","18","19:00","-0.8","","-3.6","","81","","2","","4","","","","99.80","","","","-2","","NA"
"2014-10-18 20:00","2014","10","18","20:00","-2.0","","-4.0","","86","","3","","6","","","","99.78","","","","-4","","NA"
"2014-10-18 21:00","2014","10","18","21:00","-2.1","","-3.7","","89","","5","","7","","","","99.77","","","","-5","","NA"
"2014-10-18 22:00","2014","10","18","22:00","-2.6","","-3.8","","92","","6","","6","","","","99.76","","","","-5","","NA"
"2014-10-18 23:00","2014","10","18","23:00","-2.8","","-3.8","","93","","6","","5","","","","99.70","","","","-5","","NA"
"2014-10-19 00:00","2014","10","19","00:00","-3.1","","-4.0","","94","","4","","8","","","","99.68","","","","-6","","NA"
"2014-10-19 01:00","2014","10","19","01:00","-3.5","","-4.3","","94","","4","","7","","","","99.66","","","","-6","","NA"
"2014-10-19 02:00","2014","10","19","02:00","-3.8","","-4.5","","95","","5","","5","","","","99.64","","","","-6","","NA"
"2014-10-19 03:00","2014","10","19","03:00","-3.6","","-4.2","","95","","5","","7","","","","99.58","","","","-7","","NA"
"2014-10-19 04:00","2014","10","19","04:00","-3.1","","-3.9","","94","","3","","2","","","","99.52","","","","-4","","NA"
"2014-10-19 05:00","2014","10","19","05:00","-1.6","","-2.5","","94","","13","","4","","","","99.48","","","","-3","","NA"
"2014-10-19 06:00","2014","10","19","06:00","-0.1","","-1.8","","88","","15","","6","","","","99.41","","","","-2","","NA"
"2014-10-19 07:00","2014","10","19","07:00","0.1","","-1.4","","89","","14","","6","","","","99.34","","","","","","NA"
"2014-10-19 08:00","2014","10","19","08:00","0.4","","-1.1","","90","","18","","4","","","","99.34","","","","","","NA"
"2014-10-19 09:00","2014","10","19","09:00","2.6","","0.0","","83","","20","","10","","","","","","","","","","NA"
"2014-10-19 10:00","2014","10","19","10:00"
"2014-10-19 11:00","2014","10","19","11:00"
"2014-10-19 12:00","2014","10","19","12:00"
"2014-10-19 13:00","2014","10","19","13:00"
"2014-10-19 14:00","2014","10","19","14:00"
"2014-10-19 15:00","2014","10","19","15:00"
"2014-10-19 16:00","2014","10","19","16:00"
"2014-10-19 17:00","2014","10","19","17:00"
"2014-10-19 18:00","2014","10","19","18:00"
"2014-10-19 19:00","2014","10","19","19:00"
"2014-10-19 20:00","2014","10","19","20:00"
"2014-10-19 21:00","2014","10","19","21:00"
"2014-10-19 22:00","2014","10","19","22:00"
"2014-10-19 23:00","2014","10","19","23:00"
"2014-10-20 00:00","2014","10","20","00:00"
"2014-10-20 01:00","2014","10","20","01:00"
"2014-10-20 02:00","2014","10","20","02:00"
"2014-10-20 03:00","2014","10","20","03:00"
"2014-10-20 04:00","2014","10","20","04:00"
"2014-10-20 05:00","2014","10","20","05:00"
"2014-10-20 06:00","2014","10","20","06:00"
"2014-10-20 07:00","2014","10","20","07:00"
"2014-10-20 08:00","2014","10","20","08:00"
"2014-10-20 09:00","2014","10","20","09:00"
"2014-10-20 10:00","2014","10","20","10:00"
"2014-10-20 11:00","2014","10","20","11:00"
"2014-10-20 12:00","2014","10","20","12:00"
"2014-10-20 13:00","2014","10","20","13:00"
"2014-10-20 14:00","2014","10","20","14:00"
"2014-10-20 15:00","2014","10","20","15:00"
"2014-10-20 16:00","2014","10","20","16:00"
"2014-10-20 17:00","2014","10","20","17:00"
"2014-10-20 18:00","2014","10","20","18:00"
"2014-10-20 19:00","2014","10","20","19:00"
"2014-10-20 20:00","2014","10","20","20:00"
"2014-10-20 21:00","2014","10","20","21:00"
"2014-10-20 22:00","2014","10","20","22:00"
"2014-10-20 23:00","2014","10","20","23:00"
"2014-10-21 00:00","2014","10","21","00:00"
"2014-10-21 01:00","2014","10","21","01:00"
"2014-10-21 02:00","2014","10","21","02:00"
"2014-10-21 03:00","2014","10","21","03:00"
"2014-10-21 04:00","2014","10","21","04:00"
"2014-10-21 05:00","2014","10","21","05:00"
"2014-10-21 06:00","2014","10","21","06:00"
"2014-10-21 07:00","2014","10","21","07:00"
"2014-10-21 08:00","2014","10","21","08:00"
"2014-10-21 09:00","2014","10","21","09:00"
"2014-10-21 10:00","2014","10","21","10:00"
"2014-10-21 11:00","2014","10","21","11:00"
"2014-10-21 12:00","2014","10","21","12:00"
"2014-10-21 13:00","2014","10","21","13:00"
"2014-10-21 14:00","2014","10","21","14:00"
"2014-10-21 15:00","2014","10","21","15:00"
"2014-10-21 16:00","2014","10","21","16:00"
"2014-10-21 17:00","2014","10","21","17:00"
"2014-10-21 18:00","2014","10","21","18:00"
"2014-10-21 19:00","2014","10","21","19:00"
"2014-10-21 20:00","2014","10","21","20:00"
"2014-10-21 21:00","2014","10","21","21:00"
"2014-10-21 22:00","2014","10","21","22:00"
"2014-10-21 23:00","2014","10","21","23:00"
"2014-10-22 00:00","2014","10","22","00:00"
"2014-10-22 01:00","2014","10","22","01:00"
"2014-10-22 02:00","2014","10","22","02:00"
"2014-10-22 03:00","2014","10","22","03:00"
"2014-10-22 04:00","2014","10","22","04:00"
"2014-10-22 05:00","2014","10","22","05:00"
"2014-10-22 06:00","2014","10","22","06:00"
"2014-10-22 07:00","2014","10","22","07:00"
"2014-10-22 08:00","2014","10","22","08:00"
"2014-10-22 09:00","2014","10","22","09:00"
"2014-10-22 10:00","2014","10","22","10:00"
"2014-10-22 11:00","2014","10","22","11:00","5.5","","2.3","","80","","19","","11","","","","100.51","","","","","","NA"
"2014-10-22 12:00","2014","10","22","12:00","6.2","","2.6","","78","","19","","11","","","","100.48","","","","","","NA"
"2014-10-22 13:00","2014","10","22","13:00","7.2","","2.6","","73","","18","","13","","","","100.42","","","","","","NA"
"2014-10-22 14:00","2014","10","22","14:00"
"2014-10-22 15:00","2014","10","22","15:00","7.7","","2.6","","70","","18","","14","","","","100.27","","","","","","NA"
"2014-10-22 16:00","2014","10","22","16:00","6.9","","2.4","","73","","19","","13","","","","100.22","","","","","","NA"
"2014-10-22 17:00","2014","10","22","17:00","6.1","","2.6","","78","","20","","11","","","","100.16","","","","","","NA"
"2014-10-22 18:00","2014","10","22","18:00","5.1","","2.7","","85","","20","","8","","","","100.12","","","","","","NA"
"2014-10-22 19:00","2014","10","22","19:00","4.2","","2.1","","86","","18","","3","","","","100.08","","","","","","NA"
"2014-10-22 20:00","2014","10","22","20:00","1.4","","0.1","","91","","20","","1","","","","100.05","","","","","","NA"
"2014-10-22 21:00","2014","10","22","21:00","-0.9","","-2.0","","92","","3","","2","","","","100.00","","","","-2","","NA"
"2014-10-22 22:00","2014","10","22","22:00","-0.3","","-0.8","","97","","19","","5","","","","99.96","","","","-2","","NA"
"2014-10-22 23:00","2014","10","22","23:00","5.0","","1.6","","78","","19","","9","","","","99.91","","","","","","NA"
"2014-10-23 00:00","2014","10","23","00:00","5.5","","2.1","","79","","18","","11","","","","99.84","","","","","","NA"
"2014-10-23 01:00","2014","10","23","01:00","5.3","","0.9","","73","","19","","12","","","","99.82","","","","","","NA"
"2014-10-23 02:00","2014","10","23","02:00","5.5","","2.7","","82","","19","","14","","","","99.77","","","","","","NA"
"2014-10-23 03:00","2014","10","23","03:00","5.4","","3.2","","86","","19","","15","","","","99.76","","","","","","NA"
"2014-10-23 04:00","2014","10","23","04:00","5.5","","3.2","","85","","18","","15","","","","99.72","","","","","","NA"
"2014-10-23 05:00","2014","10","23","05:00","5.5","","3.4","","87","","18","","14","","","","99.70","","","","","","NA"
"2014-10-23 06:00","2014","10","23","06:00","5.7","","3.7","","87","","17","","12","","","","99.67","","","","","","NA"
"2014-10-23 07:00","2014","10","23","07:00","5.6","","3.7","","88","","18","","12","","","","99.64","","","","","","NA"
"2014-10-23 08:00","2014","10","23","08:00","6.0","","3.8","","86","","18","","12","","","","99.58","","","","","","NA"
"2014-10-23 09:00","2014","10","23","09:00","6.5","","4.1","","85","","18","","11","","","","99.56","","","","","","NA"
"2014-10-23 10:00","2014","10","23","10:00","7.6","","5.0","","84","","19","","14","","","","99.56","","","","","","NA"
"2014-10-23 11:00","2014","10","23","11:00","9.1","","5.3","","77","","19","","14","","","","99.53","","","","","","NA"
"2014-10-23 12:00","2014","10","23","12:00","8.9","","5.2","","78","","19","","13","","","","99.51","","","","","","NA"
"2014-10-23 13:00","2014","10","23","13:00","8.8","","5.1","","78","","18","","16","","","","99.43","","","","","","NA"
"2014-10-23 14:00","2014","10","23","14:00","8.9","","5.7","","81","","19","","14","","","","99.42","","","","","","NA"
"2014-10-23 15:00","2014","10","23","15:00","8.8","","5.5","","80","","19","","14","","","","99.35","","","","","","NA"
"2014-10-23 16:00","2014","10","23","16:00","9.2","","5.4","","77","","18","","13","","","","99.32","","","","","","NA"
"2014-10-23 17:00","2014","10","23","17:00","9.1","","5.8","","80","","19","","12","","","","99.28","","","","","","NA"
"2014-10-23 18:00","2014","10","23","18:00","9.0","","6.1","","82","","20","","13","","","","99.28","","","","","","NA"
"2014-10-23 19:00","2014","10","23","19:00","8.0","","6.9","","93","","20","","7","","","","99.28","","","","","","NA"
"2014-10-23 20:00","2014","10","23","20:00","8.1","","7.1","","94","","19","","13","","","","99.23","","","","","","NA"
"2014-10-23 21:00","2014","10","23","21:00","7.9","","7.2","","95","","19","","10","","","","99.21","","","","","","NA"
"2014-10-23 22:00","2014","10","23","22:00","7.6","","7.0","","96","","20","","11","","","","99.17","","","","","","NA"
"2014-10-23 23:00","2014","10","23","23:00","7.5","","7.0","","97","","20","","10","","","","99.14","","","","","","NA"
"2014-10-24 00:00","2014","10","24","00:00","7.4","","6.9","","97","","19","","9","","","","99.15","","","","","","NA"
"2014-10-24 01:00","2014","10","24","01:00","7.2","","6.8","","97","","20","","8","","","","99.13","","","","","","NA"
"2014-10-24 02:00","2014","10","24","02:00","7.1","","6.7","","97","","20","","8","","","","99.12","","","","","","NA"
"2014-10-24 03:00","2014","10","24","03:00","7.0","","6.7","","98","","20","","7","","","","99.11","","","","","","NA"
"2014-10-24 04:00","2014","10","24","04:00","7.1","","6.8","","98","","20","","8","","","","99.10","","","","","","NA"
"2014-10-24 05:00","2014","10","24","05:00","7.3","","7.0","","98","","20","","7","","","","99.09","","","","","","NA"
"2014-10-24 06:00","2014","10","24","06:00","7.6","","7.2","","98","","19","","7","","","","99.04","","","","","","NA"
"2014-10-24 07:00","2014","10","24","07:00","7.6","","7.3","","98","","20","","8","","","","99.06","","","","","","NA"
"2014-10-24 08:00","2014","10","24","08:00","7.7","","7.3","","98","","19","","8","","","","99.02","","","","","","NA"
"2014-10-24 09:00","2014","10","24","09:00","7.5","","7.2","","98","","20","","11","","","","99.02","","","","","","NA"
"2014-10-24 10:00","2014","10","24","10:00","7.7","","7.4","","98","","20","","9","","","","98.97","","","","","","NA"
"2014-10-24 11:00","2014","10","24","11:00","7.9","","7.5","","98","","21","","10","","","","98.94","","","","","","NA"
"2014-10-24 12:00","2014","10","24","12:00","7.3","","6.9","","97","","21","","9","","","","98.91","","","","","","NA"
"2014-10-24 13:00","2014","10","24","13:00","7.2","","6.8","","98","","22","","11","","","","98.84","","","","","","NA"
"2014-10-24 14:00","2014","10","24","14:00","7.4","","7.1","","98","","20","","12","","","","98.74","","","","","","NA"
"2014-10-24 15:00","2014","10","24","15:00","7.5","","7.1","","98","","18","","13","","","","98.63","","","","","","NA"
"2014-10-24 16:00","2014","10","24","16:00","7.6","","7.3","","98","","19","","13","","","","98.63","","","","","","NA"
"2014-10-24 17:00","2014","10","24","17:00","7.7","","7.3","","98","","18","","13","","","","98.53","","","","","","NA"
"2014-10-24 18:00","2014","10","24","18:00","8.0","","7.6","","98","","18","","11","","","","98.45","","","","","","NA"
"2014-10-24 19:00","2014","10","24","19:00","8.3","","7.7","","96","","18","","11","","","","98.34","","","","","","NA"
"2014-10-24 20:00","2014","10","24","20:00","9.5","","8.2","","91","","18","","13","","","","98.25","","","","","","NA"
"2014-10-24 21:00","2014","10","24","21:00","9.8","","8.1","","89","","17","","15","","","","98.15","","","","","","NA"
"2014-10-24 22:00","2014","10","24","22:00","9.6","","8.0","","90","","18","","19","","","","98.09","","","","","","NA"
"2014-10-24 23:00","2014","10","24","23:00","9.8","","8.1","","89","","18","","16","","","","98.00","","","","","","NA"
"2014-10-25 00:00","2014","10","25","00:00","8.7","","7.9","","95","","18","","15","","","","97.95","","","","","","NA"
"2014-10-25 01:00","2014","10","25","01:00","8.8","","8.2","","96","","17","","16","","","","97.79","","","","","","NA"
"2014-10-25 02:00","2014","10","25","02:00","9.2","","8.6","","96","","19","","12","","","","97.75","","","","","","NA"
"2014-10-25 03:00","2014","10","25","03:00","8.7","","8.2","","97","","21","","8","","","","97.75","","","","","","NA"
"2014-10-25 04:00","2014","10","25","04:00","8.0","","7.5","","97","","20","","7","","","","97.70","","","","","","NA"
"2014-10-25 05:00","2014","10","25","05:00","6.7","","6.2","","97","","20","","3","","","","97.71","","","","","","NA"
"2014-10-25 06:00","2014","10","25","06:00","5.7","","5.2","","97","","22","","2","","","","97.70","","","","","","NA"
"2014-10-25 07:00","2014","10","25","07:00","6.4","","5.7","","96","","31","","5","","","","97.73","","","","","","NA"
"2014-10-25 08:00","2014","10","25","08:00","7.1","","5.9","","92","","25","","11","","","","97.76","","","","","","NA"
"2014-10-25 09:00","2014","10","25","09:00","7.9","","4.7","","80","","29","","12","","","","97.83","","","","","","NA"
"2014-10-25 10:00","2014","10","25","10:00","7.6","","5.1","","84","","26","","10","","","","97.86","","","","","","NA"
"2014-10-25 11:00","2014","10","25","11:00"
"2014-10-25 12:00","2014","10","25","12:00"
"2014-10-25 13:00","2014","10","25","13:00"
"2014-10-25 14:00","2014","10","25","14:00"
"2014-10-25 15:00","2014","10","25","15:00"
"2014-10-25 16:00","2014","10","25","16:00"
"2014-10-25 17:00","2014","10","25","17:00"
"2014-10-25 18:00","2014","10","25","18:00"
"2014-10-25 19:00","2014","10","25","19:00"
"2014-10-25 20:00","2014","10","25","20:00"
"2014-10-25 21:00","2014","10","25","21:00"
"2014-10-25 22:00","2014","10","25","22:00"
"2014-10-25 23:00","2014","10","25","23:00"
"2014-10-26 00:00","2014","10","26","00:00"
"2014-10-26 01:00","2014","10","26","01:00"
"2014-10-26 02:00","2014","10","26","02:00"
"2014-10-26 03:00","2014","10","26","03:00"
"2014-10-26 04:00","2014","10","26","04:00"
"2014-10-26 05:00","2014","10","26","05:00"
"2014-10-26 06:00","2014","10","26","06:00"
"2014-10-26 07:00","2014","10","26","07:00"
"2014-10-26 08:00","2014","10","26","08:00"
"2014-10-26 09:00","2014","10","26","09:00"
"2014-10-26 10:00","2014","10","26","10:00"
"2014-10-26 11:00","2014","10","26","11:00"
"2014-10-26 12:00","2014","10","26","12:00"
"2014-10-26 13:00","2014","10","26","13:00"
"2014-10-26 14:00","2014","10","26","14:00"
"2014-10-26 15:00","2014","10","26","15:00"
"2014-10-26 16:00","2014","10","26","16:00"
"2014-10-26 17:00","2014","10","26","17:00"
"2014-10-26 18:00","2014","10","26","18:00"
"2014-10-26 19:00","2014","10","26","19:00"
"2014-10-26 20:00","2014","10","26","20:00","-0.5","","-2.0","","90","","3","","2","","","","98.92","","","","-1","","NA"
"2014-10-26 21:00","2014","10","26","21:00","-1.1","","-2.1","","93","","4","","4","","","","98.92","","","","-2","","NA"
"2014-10-26 22:00","2014","10","26","22:00","-1.6","","-2.3","","94","","4","","5","","","","98.95","","","","-3","","NA"
"2014-10-26 23:00","2014","10","26","23:00","-1.5","","-2.2","","95","","4","","6","","","","98.90","","","","-4","","NA"
"2014-10-27 00:00","2014","10","27","00:00","-1.0","","-1.8","","95","","4","","5","","","","98.83","","","","-3","","NA"
"2014-10-27 01:00","2014","10","27","01:00","-1.0","","-1.7","","95","","4","","7","","","","98.75","","","","-4","","NA"
"2014-10-27 02:00","2014","10","27","02:00","-0.7","","-1.3","","95","","5","","8","","","","98.93","","","","-4","","NA"
"2014-10-27 03:00","2014","10","27","03:00","-0.2","","-1.0","","94","","4","","9","","","","99.01","","","","-3","","NA"
"2014-10-27 04:00","2014","10","27","04:00","0.4","","-0.6","","93","","2","","7","","","","98.96","","","","","","NA"
"2014-10-27 05:00","2014","10","27","05:00","0.5","","-0.5","","93","","3","","7","","","","98.82","","","","","","NA"
"2014-10-27 06:00","2014","10","27","06:00","1.7","","0.5","","91","","7","","4","","","","98.76","","","","","","NA"
"2014-10-27 07:00","2014","10","27","07:00","1.7","","1.1","","96","","10","","6","","","","98.69","","","","","","NA"
"2014-10-27 08:00","2014","10","27","08:00","2.9","","2.1","","95","","11","","9","","","","98.70","","","","","","NA"
"2014-10-27 09:00","2014","10","27","09:00","4.0","","2.6","","90","","4","","6","","","","98.66","","","","","","NA"
"2014-10-27 10:00","2014","10","27","10:00","3.8","","2.8","","93","","5","","3","","","","98.58","","","","","","NA"
"2014-10-27 11:00","2014","10","27","11:00","4.7","","3.5","","92","","4","","3","","","","98.61","","","","","","NA"
"2014-10-27 12:00","2014","10","27","12:00","5.3","","4.0","","92","","6","","3","","","","98.58","","","","","","NA"
"2014-10-27 13:00","2014","10","27","13:00","5.4","","4.2","","92","","4","","6","","","","98.47","","","","","","NA"
"2014-10-27 14:00","2014","10","27","14:00","6.0","","4.0","","87","","7","","5","","","","98.44","","","","","","NA"
"2014-10-27 15:00","2014","10","27","15:00","6.1","","3.9","","86","","7","","5","","","","98.43","","","","","","NA"
"2014-10-27 16:00","2014","10","27","16:00","6.0","","4.0","","87","","4","","8","","","","98.43","","","","","","NA"
"2014-10-27 17:00","2014","10","27","17:00","5.8","","3.7","","86","","5","","8","","","","98.41","","","","","","NA"
"2014-10-27 18:00","2014","10","27","18:00","5.3","","2.8","","84","","7","","9","","","","98.40","","","","","","NA"
"2014-10-27 19:00","2014","10","27","19:00","4.6","","2.4","","86","","5","","9","","","","98.39","","","","","","NA"
"2014-10-27 20:00","2014","10","27","20:00","4.5","","2.4","","86","","4","","7","","","","98.44","","","","","","NA"
"2014-10-27 21:00","2014","10","27","21:00","4.5","","2.4","","86","","4","","9","","","","98.38","","","","","","NA"
"2014-10-27 22:00","2014","10","27","22:00","4.5","","2.5","","87","","3","","9","","","","98.37","","","","","","NA"
"2014-10-27 23:00","2014","10","27","23:00","4.5","","2.6","","87","","4","","12","","","","98.28","","","","","","NA"
"2014-10-28 00:00","2014","10","28","00:00","4.5","","2.8","","89","","3","","11","","","","98.24","","","","","","NA"
"2014-10-28 01:00","2014","10","28","01:00","4.1","","3.3","","94","","3","","11","","","","98.12","","","","","","NA"
"2014-10-28 02:00","2014","10","28","02:00","4.2","","3.1","","92","","2","","7","","","","98.08","","","","","","NA"
"2014-10-28 03:00","2014","10","28","03:00","4.3","","3.0","","91","","5","","11","","","","98.04","","","","","","NA"
"2014-10-28 04:00","2014","10","28","04:00","4.2","","2.9","","92","","4","","15","","","","97.85","","","","","","NA"
"2014-10-28 05:00","2014","10","28","05:00","4.0","","3.1","","94","","6","","9","","","","97.85","","","","","","NA"
"2014-10-28 06:00","2014","10","28","06:00","3.7","","3.1","","96","","4","","13","","","","97.69","","","","","","NA"
"2014-10-28 07:00","2014","10","28","07:00","3.8","","3.1","","96","","5","","8","","","","97.67","","","","","","NA"
"2014-10-28 08:00","2014","10","28","08:00","3.7","","3.2","","96","","2","","5","","","","97.61","","","","","","NA"
"2014-10-28 09:00","2014","10","28","09:00","3.7","","3.2","","97","","4","","10","","","","97.58","","","","","","NA"
"2014-10-28 10:00","2014","10","28","10:00","3.9","","3.4","","97","","4","","8","","","","97.50","","","","","","NA"
"2014-10-28 11:00","2014","10","28","11:00","4.3","","3.8","","97","","3","","6","","","","97.49","","","","","","NA"
"2014-10-28 12:00","2014","10","28","12:00","4.4","","4.0","","97","","4","","5","","","","97.46","","","","","","NA"
"2014-10-28 13:00","2014","10","28","13:00","4.5","","4.0","","97","","3","","3","","","","97.44","","","","","","NA"
"2014-10-28 14:00","2014","10","28","14:00","4.6","","4.1","","97","","29","","1","","","","97.47","","","","","","NA"
"2014-10-28 15:00","2014","10","28","15:00","5.0","","4.4","","96","","25","","6","","","","97.48","","","","","","NA"
"2014-10-28 16:00","2014","10","28","16:00","4.8","","4.3","","96","","24","","8","","","","97.54","","","","","","NA"
"2014-10-28 17:00","2014","10","28","17:00","4.6","","4.1","","97","","24","","7","","","","97.57","","","","","","NA"
"2014-10-28 18:00","2014","10","28","18:00","4.6","","4.1","","96","","24","","8","","","","97.60","","","","","","NA"
"2014-10-28 19:00","2014","10","28","19:00","4.8","","4.3","","97","","25","","8","","","","97.65","","","","","","NA"
"2014-10-28 20:00","2014","10","28","20:00","4.7","","4.2","","97","","27","","8","","","","97.63","","","","","","NA"
"2014-10-28 21:00","2014","10","28","21:00","4.4","","3.9","","97","","27","","7","","","","97.64","","","","","","NA"
"2014-10-28 22:00","2014","10","28","22:00","3.3","","2.6","","95","","29","","5","","","","97.71","","","","","","NA"
"2014-10-28 23:00","2014","10","28","23:00","2.5","","1.8","","95","","29","","6","","","","97.80","","","","","","NA"
"2014-10-29 00:00","2014","10","29","00:00","2.2","","1.6","","96","","31","","4","","","","97.84","","","","","","NA"
"2014-10-29 01:00","2014","10","29","01:00","2.1","","1.4","","95","","36","","4","","","","97.92","","","","","","NA"
"2014-10-29 02:00","2014","10","29","02:00","1.9","","1.2","","96","","34","","3","","","","98.00","","","","","","NA"
"2014-10-29 03:00","2014","10","29","03:00","1.5","","0.7","","95","","34","","6","","","","98.12","","","","","","NA"
"2014-10-29 04:00","2014","10","29","04:00","1.5","","0.9","","96","","33","","5","","","","98.23","","","","","","NA"
"2014-10-29 05:00","2014","10","29","05:00","1.5","","0.6","","94","","33","","5","","","","98.36","","","","","","NA"
"2014-10-29 06:00","2014","10","29","06:00","1.4","","0.4","","93","","32","","4","","","","98.46","","","","","","NA"
"2014-10-29 07:00","2014","10","29","07:00","1.4","","0.1","","91","","35","","4","","","","98.58","","","","","","NA"
"2014-10-29 08:00","2014","10","29","08:00","1.3","","0.4","","93","","35","","4","","","","98.71","","","","","","NA"
"2014-10-29 09:00","2014","10","29","09:00"
"2014-10-29 10:00","2014","10","29","10:00","2.6","","0.8","","88","","34","","6","","","","98.89","","","","","","NA"
"2014-10-29 11:00","2014","10","29","11:00","3.0","","-0.4","","79","","36","","14","","","","98.97","","","","","","NA"
"2014-10-29 12:00","2014","10","29","12:00","3.7","","-0.6","","73","","33","","9","","","","99.03","","","","","","NA"
"2014-10-29 13:00","2014","10","29","13:00","2.7","","1.0","","89","","35","","4","","","","99.08","","","","","","NA"
"2014-10-29 14:00","2014","10","29","14:00","2.5","","0.3","","85","","2","","10","","","","99.13","","","","","","NA"
"2014-10-29 15:00","2014","10","29","15:00","4.5","","0.5","","75","","30","","10","","","","99.19","","","","","","NA"
"2014-10-29 16:00","2014","10","29","16:00","3.4","","-0.7","","75","","30","","5","","","","99.22","","","","","","NA"
"2014-10-29 17:00","2014","10","29","17:00","1.7","","-0.3","","86","","33","","4","","","","99.28","","","","","","NA"
"2014-10-29 18:00","2014","10","29","18:00","0.1","","-1.0","","92","","36","","3","","","","99.31","","","","","","NA"
"2014-10-29 19:00","2014","10","29","19:00","-0.3","","-0.9","","95","","4","","5","","","","99.37","","","","-2","","NA"
"2014-10-29 20:00","2014","10","29","20:00","-0.6","","-1.2","","96","","2","","5","","","","99.40","","","","-2","","NA"
"2014-10-29 21:00","2014","10","29","21:00","-0.9","","-1.6","","95","","4","","2","","","","99.40","","","","-2","","NA"
"2014-10-29 22:00","2014","10","29","22:00","-1.5","","-1.9","","97","","7","","4","","","","99.41","","","","-3","","NA"
"2014-10-29 23:00","2014","10","29","23:00","-1.5","","-2.0","","97","","","","0","","","","99.45","","","","","","NA"
"2014-10-30 00:00","2014","10","30","00:00","-1.1","","-1.5","","98","","2","","2","","","","99.43","","","","-2","","NA"
"2014-10-30 01:00","2014","10","30","01:00","-1.1","","-1.5","","97","","36","","2","","","","99.44","","","","-2","","NA"
"2014-10-30 02:00","2014","10","30","02:00","-0.9","","-1.3","","97","","0","","1","","","","99.46","","","","-1","","NA"
"2014-10-30 03:00","2014","10","30","03:00","-0.8","","-1.1","","97","","6","","2","","","","99.43","","","","-1","","NA"
"2014-10-30 04:00","2014","10","30","04:00","-0.7","","-1.1","","97","","3","","3","","","","99.42","","","","-2","","NA"
"2014-10-30 05:00","2014","10","30","05:00","-0.7","","-1.1","","97","","6","","1","","","","99.41","","","","-1","","NA"
"2014-10-30 06:00","2014","10","30","06:00","-0.6","","-1.0","","97","","3","","3","","","","99.41","","","","-2","","NA"
"2014-10-30 07:00","2014","10","30","07:00","-0.5","","-0.9","","97","","4","","5","","","","99.42","","","","-2","","NA"
"2014-10-30 08:00","2014","10","30","08:00","-0.4","","-0.8","","97","","5","","3","","","","99.44","","","","-1","","NA"
"2014-10-30 09:00","2014","10","30","09:00","0.0","","-0.6","","96","","5","","3","","","","99.45","","","","-1","","NA"
"2014-10-30 10:00","2014","10","30","10:00","1.1","","-0.1","","92","","4","","5","","","","99.41","","","","","","NA"
"2014-10-30 11:00","2014","10","30","11:00","1.4","","0.3","","92","","4","","6","","","","99.39","","","","","","NA"
"2014-10-30 12:00","2014","10","30","12:00","1.4","","0.5","","94","","4","","4","","","","99.37","","","","","","NA"
"2014-10-30 13:00","2014","10","30","13:00","1.2","","0.6","","96","","3","","4","","","","99.33","","","","","","NA"
"2014-10-30 14:00","2014","10","30","14:00","1.4","","0.8","","96","","3","","7","","","","99.28","","","","","","NA"
"2014-10-30 15:00","2014","10","30","15:00","1.3","","0.7","","96","","4","","6","","","","99.26","","","","","","NA"
"2014-10-30 16:00","2014","10","30","16:00","1.2","","0.6","","96","","4","","7","","","","99.28","","","","","","NA"
"2014-10-30 17:00","2014","10","30","17:00","0.8","","0.2","","96","","4","","7","","","","99.31","","","","","","NA"
"2014-10-30 18:00","2014","10","30","18:00","0.6","","0.1","","97","","4","","5","","","","99.34","","","","","","NA"
"2014-10-30 19:00","2014","10","30","19:00","0.6","","0.2","","97","","3","","6","","","","99.39","","","","","","NA"
"2014-10-30 20:00","2014","10","30","20:00","0.6","","0.1","","96","","3","","10","","","","99.45","","","","","","NA"
"2014-10-30 21:00","2014","10","30","21:00","0.1","","-1.2","","91","","3","","13","","","","99.50","","","","","","NA"
"2014-10-30 22:00","2014","10","30","22:00","-0.4","","-2.2","","88","","3","","13","","","","99.61","","","","-5","","NA"
"2014-10-30 23:00","2014","10","30","23:00","-1.3","","-3.3","","86","","2","","15","","","","99.76","","","","-6","","NA"
"2014-10-31 00:00","2014","10","31","00:00","-1.9","","-4.2","","84","","2","","18","","","","99.84","","","","-7","","NA"
"2014-10-31 01:00","2014","10","31","01:00","-2.4","","-4.8","","84","","2","","18","","","","99.94","","","","-8","","NA"
"2014-10-31 02:00","2014","10","31","02:00","-2.3","","-4.7","","84","","2","","15","","","","100.03","","","","-7","","NA"
"2014-10-31 03:00","2014","10","31","03:00","-2.2","","-4.3","","86","","2","","14","","","","100.11","","","","-7","","NA"
"2014-10-31 04:00","2014","10","31","04:00","-2.2","","-5.4","","79","","3","","17","","","","100.17","","","","-8","","NA"
"2014-10-31 05:00","2014","10","31","05:00","-2.1","","-4.9","","81","","2","","12","","","","100.28","","","","-6","","NA"
"2014-10-31 06:00","2014","10","31","06:00","-1.9","","-5.3","","78","","2","","14","","","","100.36","","","","-7","","NA"
"2014-10-31 07:00","2014","10","31","07:00","-2.0","","-4.7","","82","","1","","9","","","","100.45","","","","-5","","NA"
"2014-10-31 08:00","2014","10","31","08:00","-2.3","","-5.5","","79","","1","","12","","","","100.52","","","","-7","","NA"
"2014-10-31 09:00","2014","10","31","09:00","-1.8","","-4.8","","80","","1","","9","","","","100.59","","","","-5","","NA"
"2014-10-31 10:00","2014","10","31","10:00","-1.2","","-4.8","","77","","1","","12","","","","100.63","","","","-5","","NA"
"2014-10-31 11:00","2014","10","31","11:00","-0.2","","-5.4","","68","","1","","12","","","","100.64","","","","-4","","NA"
"2014-10-31 12:00","2014","10","31","12:00","-1.1","","-3.6","","83","","36","","8","","","","100.70","","","","-4","","NA"
"2014-10-31 13:00","2014","10","31","13:00","0.2","","-4.8","","69","","35","","8","","","","100.66","","","","","","NA"
"2014-10-31 14:00","2014","10","31","14:00","0.5","","-6.9","","58","","36","","10","","","","100.64","","","","","","NA"
"2014-10-31 15:00","2014","10","31","15:00","-0.3","","-5.1","","70","","1","","8","","","","100.65","","","","-3","","NA"
"2014-10-31 16:00","2014","10","31","16:00","-0.4","","-5.9","","66","","1","","7","","","","100.66","","","","-3","","NA"
"2014-10-31 17:00","2014","10","31","17:00","-0.8","","-5.5","","70","","35","","5","","","","100.70","","","","-2","","NA"
"2014-10-31 18:00","2014","10","31","18:00","-1.1","","-5.6","","72","","34","","5","","","","100.75","","","","-3","","NA"
"2014-10-31 19:00","2014","10","31","19:00","-1.3","","-5.2","","75","","34","","4","","","","100.78","","","","-3","","NA"
"2014-10-31 20:00","2014","10","31","20:00","-1.7","","-6.5","","70","","34","","5","","","","100.79","","","","-4","","NA"
"2014-10-31 21:00","2014","10","31","21:00","-2.6","","-6.7","","73","","34","","5","","","","100.80","","","","-5","","NA"
"2014-10-31 22:00","2014","10","31","22:00","-3.1","","-6.5","","77","","5","","3","","","","100.80","","","","-4","","NA"
"2014-10-31 23:00","2014","10","31","23:00","-2.8","","-6.7","","75","","2","","4","","","","100.81","","","","-4","","NA"
