"Station Name","PUKASKWA (AUT)"
"Province","ONTARIO"
"Latitude","48.61"
"Longitude","-86.29"
"Elevation","191.50"
"Climate Identifier","6046768"
"WMO Identifier","71750"
"TC Identifier","WCJ"
"All times are specified in Local Standard Time (LST). Add 1 hour to adjust for Daylight Saving Time where and when it is observed."

"Legend"
"E","Estimated"
"M","Missing"
"NA","Not Available"

"Date/Time","Year","Month","Day","Time","Temp (°C)","Temp Flag","Dew Point Temp (°C)","Dew Point Temp Flag","Rel Hum (%)","Rel Hum Flag","Wind Dir (10s deg)","Wind Dir Flag","Wind Spd (km/h)","Wind Spd Flag","Visibility (km)","Visibility Flag","Stn Press (kPa)","Stn Press Flag","Hmdx","Hmdx Flag","Wind Chill","Wind Chill Flag","Weather"
"2012-11-01 00:00","2012","11","01","00:00","-0.3","","-2.9","","83","","33","","4","","","M","98.34","","","","-2","","NA"
"2012-11-01 01:00","2012","11","01","01:00","-0.5","","-3.0","","83","","33","","4","","","M","98.33","","","","-2","","NA"
"2012-11-01 02:00","2012","11","01","02:00","-0.9","","-3.3","","84","","36","","7","","","M","98.35","","","","-3","","NA"
"2012-11-01 03:00","2012","11","01","03:00","-1.3","","-3.5","","85","","1","","6","","","M","98.31","","","","-4","","NA"
"2012-11-01 04:00","2012","11","01","04:00","-1.6","","-3.9","","84","","36","","7","","","M","98.29","","","","-4","","NA"
"2012-11-01 05:00","2012","11","01","05:00","-1.7","","-3.9","","85","","34","","6","","","M","98.31","","","","-4","","NA"
"2012-11-01 06:00","2012","11","01","06:00","-1.7","","-3.7","","86","","34","","4","","","M","98.32","","","","-3","","NA"
"2012-11-01 07:00","2012","11","01","07:00","-1.9","","-3.9","","86","","35","","4","","","M","98.31","","","","-3","","NA"
"2012-11-01 08:00","2012","11","01","08:00","-1.9","","-4.2","","84","","36","","6","","","M","98.35","","","","-4","","NA"
"2012-11-01 09:00","2012","11","01","09:00","-1.6","","-4.3","","82","","36","","6","","","M","98.36","","","","-4","","NA"
"2012-11-01 10:00","2012","11","01","10:00","-0.8","","-4.3","","77","","3","","9","","","M","98.39","","","","-4","","NA"
"2012-11-01 11:00","2012","11","01","11:00","-0.4","","-4.1","","76","","1","","6","","","M","98.42","","","","-2","","NA"
"2012-11-01 12:00","2012","11","01","12:00","0.1","","-4.3","","72","","36","","11","","","M","98.43","","","","","","NA"
"2012-11-01 13:00","2012","11","01","13:00","0.5","","-4.4","","70","","36","","9","","","M","98.44","","","","","","NA"
"2012-11-01 14:00","2012","11","01","14:00","0.6","","-4.7","","68","","35","","11","","","M","98.46","","","","","","NA"
"2012-11-01 15:00","2012","11","01","15:00","0.3","","-5.1","","67","","1","","13","","","M","98.49","","","","","","NA"
"2012-11-01 16:00","2012","11","01","16:00","0.1","","-5.9","","64","","1","","11","","","M","98.55","","","","","","NA"
"2012-11-01 17:00","2012","11","01","17:00","-0.7","","-5.6","","69","","35","","9","","","M","98.65","","","","-4","","NA"
"2012-11-01 18:00","2012","11","01","18:00","-1.2","","-6.5","","67","","1","","9","","","M","98.73","","","","-4","","NA"
"2012-11-01 19:00","2012","11","01","19:00","-1.7","","-6.8","","68","","36","","13","","","M","98.79","","","","-6","","NA"
"2012-11-01 20:00","2012","11","01","20:00","-1.7","","-6.7","","69","","35","","6","","","M","98.84","","","","-4","","NA"
"2012-11-01 21:00","2012","11","01","21:00","-1.7","","-6.0","","72","","36","","7","","","M","98.87","","","","-4","","NA"
"2012-11-01 22:00","2012","11","01","22:00","-1.5","","-5.9","","72","","36","","9","","","M","98.88","","","","-5","","NA"
"2012-11-01 23:00","2012","11","01","23:00","-1.3","","-5.9","","71","","35","","11","","","M","98.91","","","","-5","","NA"
"2012-11-02 00:00","2012","11","02","00:00","-1.4","","-5.8","","72","","36","","11","","","M","98.96","","","","-5","","NA"
"2012-11-02 01:00","2012","11","02","01:00","-1.5","","-5.9","","72","","35","","9","","","M","99.01","","","","-5","","NA"
"2012-11-02 02:00","2012","11","02","02:00","-1.5","","-5.8","","72","","36","","13","","","M","99.07","","","","-6","","NA"
"2012-11-02 03:00","2012","11","02","03:00","-1.5","","-5.6","","74","","36","","9","","","M","99.11","","","","-5","","NA"
"2012-11-02 04:00","2012","11","02","04:00","-1.4","","-5.3","","75","","36","","11","","","M","99.16","","","","-5","","NA"
"2012-11-02 05:00","2012","11","02","05:00","-1.4","","-4.9","","77","","36","","9","","","M","99.20","","","","-5","","NA"
"2012-11-02 06:00","2012","11","02","06:00","-1.3","","-5.2","","75","","36","","9","","","M","99.24","","","","-5","","NA"
"2012-11-02 07:00","2012","11","02","07:00","-1.2","","-5.9","","70","","35","","7","","","M","99.30","","","","-4","","NA"
"2012-11-02 08:00","2012","11","02","08:00","-1.1","","-5.8","","70","","36","","7","","","M","99.34","","","","-4","","NA"
"2012-11-02 09:00","2012","11","02","09:00","-0.9","","-6.0","","68","","36","","7","","","M","99.42","","","","-3","","NA"
"2012-11-02 10:00","2012","11","02","10:00","-0.8","","-6.1","","67","","36","","13","","","M","99.47","","","","-5","","NA"
"2012-11-02 11:00","2012","11","02","11:00","-0.7","","-6.7","","64","","1","","15","","","M","99.53","","","","-5","","NA"
"2012-11-02 12:00","2012","11","02","12:00","0.9","","-6.4","","58","","3","","11","","","M","99.58","","","","","","NA"
"2012-11-02 13:00","2012","11","02","13:00","0.7","","-6.2","","60","","2","","11","","","M","99.58","","","","","","NA"
"2012-11-02 14:00","2012","11","02","14:00","-0.1","","-6.4","","62","","2","","11","","","M","99.65","","","","-4","","NA"
"2012-11-02 15:00","2012","11","02","15:00","-0.5","","-6.7","","63","","3","","11","","","M","99.70","","","","-4","","NA"
"2012-11-02 16:00","2012","11","02","16:00","-0.4","","-6.7","","62","","36","","13","","","M","99.74","","","","-5","","NA"
"2012-11-02 17:00","2012","11","02","17:00","-0.7","","-7.1","","62","","3","","7","","","M","99.77","","","","-3","","NA"
"2012-11-02 18:00","2012","11","02","18:00","-1.1","","-6.9","","65","","2","","9","","","M","99.81","","","","-4","","NA"
"2012-11-02 19:00","2012","11","02","19:00","-1.3","","-7.0","","65","","2","","9","","","M","99.89","","","","-5","","NA"
"2012-11-02 20:00","2012","11","02","20:00","-1.5","","-7.1","","66","","3","","11","","","M","99.90","","","","-5","","NA"
"2012-11-02 21:00","2012","11","02","21:00","-1.6","","-7.2","","66","","4","","9","","","M","99.92","","","","-5","","NA"
"2012-11-02 22:00","2012","11","02","22:00","-2.0","","-7.2","","68","","5","","9","","","M","99.96","","","","-5","","NA"
"2012-11-02 23:00","2012","11","02","23:00","-2.0","","-6.6","","71","","2","","6","","","M","100.02","","","","-4","","NA"
"2012-11-03 00:00","2012","11","03","00:00","-2.3","","-7.0","","70","","5","","9","","","M","100.04","","","","-6","","NA"
"2012-11-03 01:00","2012","11","03","01:00","-2.3","","-6.8","","71","","3","","7","","","M","100.07","","","","-5","","NA"
"2012-11-03 02:00","2012","11","03","02:00","-2.4","","-6.6","","73","","2","","9","","","M","100.09","","","","-6","","NA"
"2012-11-03 03:00","2012","11","03","03:00","-2.5","","-6.7","","73","","5","","11","","","M","100.09","","","","-7","","NA"
"2012-11-03 04:00","2012","11","03","04:00","-2.5","","-6.5","","74","","3","","9","","","M","100.10","","","","-6","","NA"
"2012-11-03 05:00","2012","11","03","05:00","-2.7","","-6.6","","74","","6","","6","","","M","100.11","","","","-5","","NA"
"2012-11-03 06:00","2012","11","03","06:00","-2.8","","-6.6","","75","","3","","7","","","M","100.16","","","","-6","","NA"
"2012-11-03 07:00","2012","11","03","07:00","-2.9","","-6.9","","74","","7","","6","","","M","100.18","","","","-5","","NA"
"2012-11-03 08:00","2012","11","03","08:00","-2.9","","-6.8","","74","","2","","4","","","M","100.20","","","","-4","","NA"
"2012-11-03 09:00","2012","11","03","09:00","-2.9","","-7.1","","73","","2","","7","","","M","100.22","","","","-6","","NA"
"2012-11-03 10:00","2012","11","03","10:00","-2.5","","-7.0","","71","","36","","6","","","M","100.23","","","","-5","","NA"
"2012-11-03 11:00","2012","11","03","11:00","-2.2","","-7.2","","69","","5","","6","","","M","100.22","","","","-5","","NA"
"2012-11-03 12:00","2012","11","03","12:00","-1.0","","-7.6","","61","","8","","9","","","M","100.19","","","","-4","","NA"
"2012-11-03 13:00","2012","11","03","13:00","0.1","","-7.1","","58","","4","","6","","","M","100.14","","","","","","NA"
"2012-11-03 14:00","2012","11","03","14:00","0.8","","-6.7","","57","","36","","4","","","M","100.12","","","","","","NA"
"2012-11-03 15:00","2012","11","03","15:00","1.0","","-7.4","","53","","2","","4","","","M","100.11","","","","","","NA"
"2012-11-03 16:00","2012","11","03","16:00","0.6","","-6.8","","58","","5","","4","","","M","100.13","","","","","","NA"
"2012-11-03 17:00","2012","11","03","17:00","-0.5","","-6.7","","63","","2","","6","","","M","100.16","","","","-3","","NA"
"2012-11-03 18:00","2012","11","03","18:00","-1.4","","-6.8","","67","","6","","6","","","M","100.17","","","","-4","","NA"
"2012-11-03 19:00","2012","11","03","19:00","-1.7","","-6.7","","69","","4","","4","","","M","100.18","","","","-3","","NA"
"2012-11-03 20:00","2012","11","03","20:00","-2.3","","-6.8","","71","","6","","4","","","M","100.18","","","","-4","","NA"
"2012-11-03 21:00","2012","11","03","21:00","-3.2","","-6.7","","77","","5","","4","","","M","100.18","","","","-5","","NA"
"2012-11-03 22:00","2012","11","03","22:00","-4.3","","-7.1","","81","","6","","6","","","M","100.18","","","","-7","","NA"
"2012-11-03 23:00","2012","11","03","23:00","-5.1","","-7.4","","84","","6","","6","","","M","100.17","","","","-8","","NA"
"2012-11-04 00:00","2012","11","04","00:00","-5.6","","-7.4","","87","","6","","6","","","M","100.16","","","","-8","","NA"
"2012-11-04 01:00","2012","11","04","01:00","-5.9","","-7.5","","88","","7","","4","","","M","100.17","","","","-8","","NA"
"2012-11-04 02:00","2012","11","04","02:00","-6.9","","-8.1","","91","","5","","6","","","M","100.18","","","","-10","","NA"
"2012-11-04 03:00","2012","11","04","03:00","-6.7","","-7.8","","92","","5","","6","","","M","100.20","","","","-10","","NA"
"2012-11-04 04:00","2012","11","04","04:00","-7.1","","-8.1","","93","","5","","6","","","M","100.21","","","","-10","","NA"
"2012-11-04 05:00","2012","11","04","05:00","-7.0","","-8.0","","93","","6","","2","","","M","100.23","","","","-8","","NA"
"2012-11-04 06:00","2012","11","04","06:00","-5.9","","-7.1","","91","","5","","6","","","M","100.24","","","","-9","","NA"
"2012-11-04 07:00","2012","11","04","07:00","-5.0","","-6.8","","87","","4","","6","","","M","100.24","","","","-8","","NA"
"2012-11-04 08:00","2012","11","04","08:00","-4.9","","-7.5","","82","","3","","7","","","M","100.28","","","","-8","","NA"
"2012-11-04 09:00","2012","11","04","09:00","-4.8","","-7.6","","81","","3","","6","","","M","100.30","","","","-8","","NA"
"2012-11-04 10:00","2012","11","04","10:00","-4.4","","-7.7","","78","","3","","6","","","M","100.32","","","","-7","","NA"
"2012-11-04 11:00","2012","11","04","11:00","-3.9","","-7.7","","75","","5","","11","","","M","100.32","","","","-8","","NA"
"2012-11-04 12:00","2012","11","04","12:00","-3.8","","-8.3","","71","","6","","9","","","M","100.29","","","","-8","","NA"
"2012-11-04 13:00","2012","11","04","13:00","-1.8","","-7.9","","63","","8","","9","","","M","100.24","","","","-5","","NA"
"2012-11-04 14:00","2012","11","04","14:00","-0.8","","-8.3","","57","","5","","9","","","M","100.21","","","","-4","","NA"
"2012-11-04 15:00","2012","11","04","15:00","0.2","","-8.7","","51","","6","","9","","","M","100.20","","","","","","NA"
"2012-11-04 16:00","2012","11","04","16:00","0.0","","-8.6","","52","","6","","9","","","M","100.18","","","","-3","","NA"
"2012-11-04 17:00","2012","11","04","17:00","-0.6","","-8.2","","56","","6","","9","","","M","100.21","","","","-4","","NA"
"2012-11-04 18:00","2012","11","04","18:00","-1.5","","-7.9","","62","","7","","7","","","M","100.25","","","","-4","","NA"
"2012-11-04 19:00","2012","11","04","19:00","-1.7","","-8.1","","62","","7","","11","","","M","100.30","","","","-6","","NA"
"2012-11-04 20:00","2012","11","04","20:00","-2.3","","-8.5","","62","","8","","9","","","M","100.34","","","","-6","","NA"
"2012-11-04 21:00","2012","11","04","21:00","-3.5","","-8.8","","67","","6","","4","","","M","100.34","","","","-5","","NA"
"2012-11-04 22:00","2012","11","04","22:00","-3.2","","-8.4","","67","","8","","6","","","M","100.38","","","","-6","","NA"
"2012-11-04 23:00","2012","11","04","23:00","-4.0","","-8.6","","70","","8","","2","","","M","100.37","","","","-5","","NA"
"2012-11-05 00:00","2012","11","05","00:00","-6.4","","-9.7","","77","","","","0","","","M","100.38","","","","","","NA"
"2012-11-05 01:00","2012","11","05","01:00","-8.0","","-10.3","","83","","","","0","","","M","100.39","","","","","","NA"
"2012-11-05 02:00","2012","11","05","02:00","-9.1","","-11.0","","86","","6","","4","","","M","100.40","","","","-11","","NA"
"2012-11-05 03:00","2012","11","05","03:00","-8.9","","-10.2","","90","","6","","7","","","M","100.40","","","","-13","","NA"
"2012-11-05 04:00","2012","11","05","04:00","-9.2","","-10.4","","91","","4","","7","","","M","100.39","","","","-13","","NA"
"2012-11-05 05:00","2012","11","05","05:00","-8.4","","-9.8","","90","","7","","7","","","M","100.42","","","","-12","","NA"
"2012-11-05 06:00","2012","11","05","06:00","-7.6","","-9.0","","90","","5","","7","","","M","100.41","","","","-11","","NA"
"2012-11-05 07:00","2012","11","05","07:00","-7.6","","-9.0","","90","","5","","6","","","M","100.38","","","","-11","","NA"
"2012-11-05 08:00","2012","11","05","08:00","-7.6","","-8.9","","90","","5","","7","","","M","100.38","","","","-11","","NA"
"2012-11-05 09:00","2012","11","05","09:00","-6.0","","-7.8","","87","","5","","6","","","M","100.39","","","","-9","","NA"
"2012-11-05 10:00","2012","11","05","10:00","-4.2","","-7.1","","80","","4","","6","","","M","100.33","","","","-7","","NA"
"2012-11-05 11:00","2012","11","05","11:00","-1.3","","-7.6","","62","","9","","6","","","M","100.27","","","","-4","","NA"
"2012-11-05 12:00","2012","11","05","12:00","-0.7","","-8.4","","56","","17","","6","","","M","100.25","","","","-3","","NA"
"2012-11-05 13:00","2012","11","05","13:00","-0.6","","-7.9","","58","","20","","4","","","M","100.16","","","","-2","","NA"
"2012-11-05 14:00","2012","11","05","14:00","-0.4","","-7.4","","59","","29","","2","","","M","100.09","","","","-1","","NA"
"2012-11-05 15:00","2012","11","05","15:00","-0.1","","-6.6","","62","","","","0","","","M","100.00","","","","","","NA"
"2012-11-05 16:00","2012","11","05","16:00","0.0","","-5.8","","65","","14","","2","","","M","99.93","","","","-1","","NA"
"2012-11-05 17:00","2012","11","05","17:00","-0.2","","-6.2","","64","","11","","2","","","M","99.87","","","","-1","","NA"
"2012-11-05 18:00","2012","11","05","18:00","-0.4","","-5.9","","66","","8","","4","","","M","99.82","","","","-2","","NA"
"2012-11-05 19:00","2012","11","05","19:00","0.6","","-4.8","","67","","20","","7","","","M","99.77","","","","","","NA"
"2012-11-05 20:00","2012","11","05","20:00","0.7","","-4.5","","68","","21","","7","","","M","99.72","","","","","","NA"
"2012-11-05 21:00","2012","11","05","21:00","1.1","","-4.1","","68","","21","","11","","","M","99.66","","","","","","NA"
"2012-11-05 22:00","2012","11","05","22:00","1.0","","-3.9","","70","","20","","11","","","M","99.60","","","","","","NA"
"2012-11-05 23:00","2012","11","05","23:00","1.1","","-4.2","","68","","22","","11","","","M","99.57","","","","","","NA"
"2012-11-06 00:00","2012","11","06","00:00","0.9","","-4.2","","69","","21","","9","","","M","99.46","","","","","","NA"
"2012-11-06 01:00","2012","11","06","01:00","1.1","","-3.9","","69","","22","","9","","","M","99.43","","","","","","NA"
"2012-11-06 02:00","2012","11","06","02:00","1.4","","-3.3","","71","","20","","9","","","M","99.35","","","","","","NA"
"2012-11-06 03:00","2012","11","06","03:00","1.8","","-3.0","","70","","20","","11","","","M","99.28","","","","","","NA"
"2012-11-06 04:00","2012","11","06","04:00","2.1","","-2.9","","69","","21","","9","","","M","99.21","","","","","","NA"
"2012-11-06 05:00","2012","11","06","05:00","2.3","","-2.6","","70","","20","","9","","","M","99.14","","","","","","NA"
"2012-11-06 06:00","2012","11","06","06:00","2.4","","-2.3","","71","","19","","13","","","M","99.10","","","","","","NA"
"2012-11-06 07:00","2012","11","06","07:00","2.2","","-2.2","","73","","18","","9","","","M","99.06","","","","","","NA"
"2012-11-06 08:00","2012","11","06","08:00","2.4","","-1.6","","75","","18","","11","","","M","99.05","","","","","","NA"
"2012-11-06 09:00","2012","11","06","09:00","3.3","","-1.0","","73","","19","","11","","","M","99.03","","","","","","NA"
"2012-11-06 10:00","2012","11","06","10:00","3.8","","-0.6","","73","","18","","11","","","M","99.00","","","","","","NA"
"2012-11-06 11:00","2012","11","06","11:00","4.2","","0.4","","76","","19","","11","","","M","99.00","","","","","","NA"
"2012-11-06 12:00","2012","11","06","12:00","5.0","","0.3","","72","","19","","17","","","M","98.96","","","","","","NA"
"2012-11-06 13:00","2012","11","06","13:00","4.7","","1.0","","77","","18","","13","","","M","98.94","","","","","","NA"
"2012-11-06 14:00","2012","11","06","14:00","4.3","","0.6","","77","","20","","13","","","M","98.94","","","","","","NA"
"2012-11-06 15:00","2012","11","06","15:00","4.5","","0.5","","75","","18","","13","","","M","98.97","","","","","","NA"
"2012-11-06 16:00","2012","11","06","16:00","4.4","","0.4","","75","","17","","7","","","M","98.98","","","","","","NA"
"2012-11-06 17:00","2012","11","06","17:00","3.9","","0.0","","76","","13","","6","","","M","99.04","","","","","","NA"
"2012-11-06 18:00","2012","11","06","18:00","3.2","","-0.2","","78","","12","","6","","","M","99.08","","","","","","NA"
"2012-11-06 19:00","2012","11","06","19:00","2.9","","0.1","","82","","13","","6","","","M","99.11","","","","","","NA"
"2012-11-06 20:00","2012","11","06","20:00","2.9","","0.2","","82","","13","","7","","","M","99.14","","","","","","NA"
"2012-11-06 21:00","2012","11","06","21:00","2.6","","1.1","","90","","12","","4","","","M","99.19","","","","","","NA"
"2012-11-06 22:00","2012","11","06","22:00","2.4","","1.3","","92","","12","","7","","","M","99.21","","","","","","NA"
"2012-11-06 23:00","2012","11","06","23:00","2.4","","1.3","","92","","12","","7","","","M","99.21","","","","","","NA"
"2012-11-07 00:00","2012","11","07","00:00","2.4","","1.3","","92","","12","","6","","","M","99.24","","","","","","NA"
"2012-11-07 01:00","2012","11","07","01:00","2.4","","1.1","","91","","13","","7","","","M","99.28","","","","","","NA"
"2012-11-07 02:00","2012","11","07","02:00","2.2","","0.8","","90","","12","","9","","","M","99.32","","","","","","NA"
"2012-11-07 03:00","2012","11","07","03:00","2.4","","0.5","","87","","13","","9","","","M","99.35","","","","","","NA"
"2012-11-07 04:00","2012","11","07","04:00","2.5","","0.5","","87","","13","","9","","","M","99.37","","","","","","NA"
"2012-11-07 05:00","2012","11","07","05:00","2.7","","0.5","","85","","13","","7","","","M","99.39","","","","","","NA"
"2012-11-07 06:00","2012","11","07","06:00","3.0","","0.5","","84","","14","","7","","","M","99.40","","","","","","NA"
"2012-11-07 07:00","2012","11","07","07:00","2.8","","0.4","","84","","15","","6","","","M","99.43","","","","","","NA"
"2012-11-07 08:00","2012","11","07","08:00","2.8","","0.5","","85","","14","","6","","","M","99.48","","","","","","NA"
"2012-11-07 09:00","2012","11","07","09:00","3.0","","0.7","","85","","13","","6","","","M","99.49","","","","","","NA"
"2012-11-07 10:00","2012","11","07","10:00","3.5","","1.0","","84","","15","","6","","","M","99.49","","","","","","NA"
"2012-11-07 11:00","2012","11","07","11:00","3.7","","2.0","","89","","17","","6","","","M","99.52","","","","","","NA"
"2012-11-07 12:00","2012","11","07","12:00","3.9","","2.8","","93","","15","","7","","","M","99.51","","","","","","NA"
"2012-11-07 13:00","2012","11","07","13:00","4.5","","3.6","","94","","19","","13","","","M","99.46","","","","","","NA"
"2012-11-07 14:00","2012","11","07","14:00","4.7","","3.7","","93","","19","","13","","","M","99.44","","","","","","NA"
"2012-11-07 15:00","2012","11","07","15:00","4.7","","3.5","","92","","19","","13","","","M","99.44","","","","","","NA"
"2012-11-07 16:00","2012","11","07","16:00","4.7","","3.6","","93","","20","","15","","","M","99.45","","","","","","NA"
"2012-11-07 17:00","2012","11","07","17:00","4.7","","3.8","","94","","20","","11","","","M","99.50","","","","","","NA"
"2012-11-07 18:00","2012","11","07","18:00","4.9","","3.7","","92","","19","","11","","","M","99.51","","","","","","NA"
"2012-11-07 19:00","2012","11","07","19:00","4.8","","4.2","","96","","19","","9","","","M","99.50","","","","","","NA"
"2012-11-07 20:00","2012","11","07","20:00","5.0","","4.2","","95","","19","","13","","","M","99.49","","","","","","NA"
"2012-11-07 21:00","2012","11","07","21:00","5.0","","4.5","","97","","20","","15","","","M","99.50","","","","","","NA"
"2012-11-07 22:00","2012","11","07","22:00","4.5","","4.0","","97","","18","","7","","","M","99.51","","","","","","NA"
"2012-11-07 23:00","2012","11","07","23:00","4.4","","3.9","","97","","20","","7","","","M","99.50","","","","","","NA"
"2012-11-08 00:00","2012","11","08","00:00","4.6","","4.0","","96","","22","","7","","","M","99.47","","","","","","NA"
"2012-11-08 01:00","2012","11","08","01:00","4.8","","4.1","","95","","21","","9","","","M","99.46","","","","","","NA"
"2012-11-08 02:00","2012","11","08","02:00","4.9","","4.1","","95","","20","","9","","","M","99.45","","","","","","NA"
"2012-11-08 03:00","2012","11","08","03:00","4.8","","4.0","","95","","21","","7","","","M","99.49","","","","","","NA"
"2012-11-08 04:00","2012","11","08","04:00","4.7","","3.7","","93","","22","","9","","","M","99.46","","","","","","NA"
"2012-11-08 05:00","2012","11","08","05:00","5.0","","3.9","","93","","22","","7","","","M","99.45","","","","","","NA"
"2012-11-08 06:00","2012","11","08","06:00","4.8","","4.0","","95","","21","","7","","","M","99.42","","","","","","NA"
"2012-11-08 07:00","2012","11","08","07:00","4.7","","3.2","","90","","20","","9","","","M","99.35","","","","","","NA"
"2012-11-08 08:00","2012","11","08","08:00","5.0","","3.6","","91","","21","","11","","","M","99.37","","","","","","NA"
"2012-11-08 09:00","2012","11","08","09:00","5.1","","3.7","","91","","20","","11","","","M","99.35","","","","","","NA"
"2012-11-08 10:00","2012","11","08","10:00","5.3","","3.7","","89","","21","","11","","","M","99.34","","","","","","NA"
"2012-11-08 11:00","2012","11","08","11:00","4.2","","3.1","","93","","22","","11","","","M","99.32","","","","","","NA"
"2012-11-08 12:00","2012","11","08","12:00","4.5","","3.3","","92","","21","","11","","","M","99.28","","","","","","NA"
"2012-11-08 13:00","2012","11","08","13:00","4.4","","2.9","","90","","22","","15","","","M","99.22","","","","","","NA"
"2012-11-08 14:00","2012","11","08","14:00","4.5","","3.0","","90","","21","","11","","","M","99.07","","","","","","NA"
"2012-11-08 15:00","2012","11","08","15:00","5.1","","2.1","","81","","21","","15","","","M","98.98","","","","","","NA"
"2012-11-08 16:00","2012","11","08","16:00","5.1","","2.3","","82","","20","","15","","","M","98.95","","","","","","NA"
"2012-11-08 17:00","2012","11","08","17:00","5.4","","2.6","","82","","21","","13","","","M","99.00","","","","","","NA"
"2012-11-08 18:00","2012","11","08","18:00","5.5","","2.8","","83","","22","","15","","","M","99.00","","","","","","NA"
"2012-11-08 19:00","2012","11","08","19:00","5.5","","3.7","","88","","22","","13","","","M","99.05","","","","","","NA"
"2012-11-08 20:00","2012","11","08","20:00","5.8","","3.1","","83","","25","","13","","","M","99.07","","","","","","NA"
"2012-11-08 21:00","2012","11","08","21:00","5.9","","3.7","","86","","25","","7","","","M","99.10","","","","","","NA"
"2012-11-08 22:00","2012","11","08","22:00","5.1","","4.2","","94","","31","","4","","","M","99.13","","","","","","NA"
"2012-11-08 23:00","2012","11","08","23:00","5.2","","3.4","","88","","36","","6","","","M","99.19","","","","","","NA"
"2012-11-09 00:00","2012","11","09","00:00","4.8","","2.6","","86","","35","","6","","","M","99.24","","","","","","NA"
"2012-11-09 01:00","2012","11","09","01:00","4.4","","1.5","","81","","36","","9","","","M","99.33","","","","","","NA"
"2012-11-09 02:00","2012","11","09","02:00","3.5","","0.7","","82","","3","","7","","","M","99.41","","","","","","NA"
"2012-11-09 03:00","2012","11","09","03:00","2.9","","0.2","","82","","1","","6","","","M","99.48","","","","","","NA"
"2012-11-09 04:00","2012","11","09","04:00","2.0","","-0.2","","85","","2","","4","","","M","99.54","","","","","","NA"
"2012-11-09 05:00","2012","11","09","05:00","0.9","","-0.5","","90","","1","","4","","","M","99.60","","","","","","NA"
"2012-11-09 06:00","2012","11","09","06:00","-0.4","","-1.2","","94","","1","","4","","","M","99.69","","","","-2","","NA"
"2012-11-09 07:00","2012","11","09","07:00","0.0","","-1.3","","91","","4","","6","","","M","99.72","","","","-2","","NA"
"2012-11-09 08:00","2012","11","09","08:00","-0.2","","-1.3","","92","","4","","2","","","M","99.79","","","","-1","","NA"
"2012-11-09 09:00","2012","11","09","09:00","0.1","","-1.5","","89","","36","","4","","","M","99.84","","","","","","NA"
"2012-11-09 10:00","2012","11","09","10:00","0.3","","-1.8","","86","","3","","6","","","M","99.90","","","","","","NA"
"2012-11-09 11:00","2012","11","09","11:00","0.5","","-3.4","","75","","4","","7","","","M","99.93","","","","","","NA"
"2012-11-09 12:00","2012","11","09","12:00","0.6","","-3.2","","76","","2","","7","","","M","99.93","","","","","","NA"
"2012-11-09 13:00","2012","11","09","13:00","0.3","","-3.5","","76","","4","","9","","","M","99.88","","","","","","NA"
"2012-11-09 14:00","2012","11","09","14:00","1.0","","-3.6","","71","","1","","9","","","M","99.86","","","","","","NA"
"2012-11-09 15:00","2012","11","09","15:00","-0.1","","-4.1","","74","","3","","7","","","M","99.93","","","","-3","","NA"
"2012-11-09 16:00","2012","11","09","16:00","-0.6","","-5.4","","70","","4","","7","","","M","100.00","","","","-3","","NA"
"2012-11-09 17:00","2012","11","09","17:00","-1.0","","-5.7","","70","","5","","7","","","M","100.00","","","","-4","","NA"
"2012-11-09 18:00","2012","11","09","18:00","-1.8","","-5.2","","78","","4","","4","","","M","100.04","","","","-3","","NA"
"2012-11-09 19:00","2012","11","09","19:00","-2.2","","-5.8","","76","","3","","7","","","M","100.09","","","","-5","","NA"
"2012-11-09 20:00","2012","11","09","20:00","-2.7","","-5.9","","79","","4","","9","","","M","100.14","","","","-6","","NA"
"2012-11-09 21:00","2012","11","09","21:00","-3.3","","-6.1","","81","","4","","7","","","M","100.16","","","","-6","","NA"
"2012-11-09 22:00","2012","11","09","22:00","-4.0","","-7.2","","78","","5","","9","","","M","100.18","","","","-8","","NA"
"2012-11-09 23:00","2012","11","09","23:00","-4.5","","-7.4","","80","","5","","9","","","M","100.21","","","","-8","","NA"
"2012-11-10 00:00","2012","11","10","00:00","-4.9","","-8.2","","78","","6","","11","","","M","100.20","","","","-9","","NA"
"2012-11-10 01:00","2012","11","10","01:00","-5.2","","-7.8","","82","","5","","9","","","M","100.23","","","","-9","","NA"
"2012-11-10 02:00","2012","11","10","02:00","-5.2","","-7.8","","82","","5","","9","","","M","100.25","","","","-9","","NA"
"2012-11-10 03:00","2012","11","10","03:00","-5.1","","-8.1","","79","","6","","11","","","M","100.24","","","","-10","","NA"
"2012-11-10 04:00","2012","11","10","04:00","-5.0","","-7.9","","80","","5","","13","","","M","100.17","","","","-10","","NA"
"2012-11-10 05:00","2012","11","10","05:00","-4.8","","-7.7","","80","","5","","13","","","M","100.16","","","","-10","","NA"
"2012-11-10 06:00","2012","11","10","06:00","-4.6","","","M","","M","","M","","M","","M","100.14","","","","","","NA"
"2012-11-10 07:00","2012","11","10","07:00","-4.8","","-8.0","","78","","5","","15","","","M","100.10","","","","-10","","NA"
"2012-11-10 08:00","2012","11","10","08:00","-5.1","","-8.8","","75","","5","","19","","","M","100.05","","","","-12","","NA"
"2012-11-10 09:00","2012","11","10","09:00","-4.9","","-8.8","","74","","6","","15","","","M","100.06","","","","-10","","NA"
"2012-11-10 10:00","2012","11","10","10:00","-4.4","","-8.6","","72","","5","","20","","","M","99.96","","","","-11","","NA"
"2012-11-10 11:00","2012","11","10","11:00","-3.4","","-8.6","","67","","5","","19","","","M","99.94","","","","-9","","NA"
"2012-11-10 12:00","2012","11","10","12:00","-2.7","","-8.5","","64","","5","","13","","","M","99.92","","","","-7","","NA"
"2012-11-10 13:00","2012","11","10","13:00","-2.2","","-8.2","","63","","7","","9","","","M","99.79","","","","-6","","NA"
"2012-11-10 14:00","2012","11","10","14:00","-2.4","","-6.7","","72","","5","","15","","","M","99.64","","","","-7","","NA"
"2012-11-10 15:00","2012","11","10","15:00","-1.8","","-6.6","","70","","6","","17","","","M","99.51","","","","-7","","NA"
"2012-11-10 16:00","2012","11","10","16:00","-1.7","","-6.0","","72","","6","","15","","","M","99.41","","","","-7","","NA"
"2012-11-10 17:00","2012","11","10","17:00","-2.0","","-4.5","","83","","7","","17","","","M","99.31","","","","-7","","NA"
"2012-11-10 18:00","2012","11","10","18:00","-2.0","","-3.7","","88","","7","","15","","","M","99.18","","","","-7","","NA"
"2012-11-10 19:00","2012","11","10","19:00","-1.7","","-3.1","","90","","6","","17","","","M","99.14","","","","-7","","NA"
"2012-11-10 20:00","2012","11","10","20:00","-1.4","","-2.2","","94","","6","","13","","","M","99.12","","","","-6","","NA"
"2012-11-10 21:00","2012","11","10","21:00","-1.4","","-2.1","","95","","5","","15","","","M","99.09","","","","-6","","NA"
"2012-11-10 22:00","2012","11","10","22:00","-1.5","","-2.3","","94","","5","","17","","","M","99.00","","","","-7","","NA"
"2012-11-10 23:00","2012","11","10","23:00","-1.3","","-2.0","","95","","5","","15","","","M","98.92","","","","-6","","NA"
"2012-11-11 00:00","2012","11","11","00:00","-1.0","","-1.5","","96","","5","","13","","","M","98.81","","","","-5","","NA"
"2012-11-11 01:00","2012","11","11","01:00","-0.4","","-0.8","","97","","5","","11","","","M","98.78","","","","-4","","NA"
"2012-11-11 02:00","2012","11","11","02:00","-0.1","","-0.5","","97","","5","","11","","","M","98.63","","","","-4","","NA"
"2012-11-11 03:00","2012","11","11","03:00","0.8","","0.4","","97","","6","","6","","","M","98.44","","","","","","NA"
"2012-11-11 04:00","2012","11","11","04:00","0.9","","0.6","","98","","6","","11","","","M","98.25","","","","","","NA"
"2012-11-11 05:00","2012","11","11","05:00","2.2","","1.9","","98","","5","","7","","","M","98.28","","","","","","NA"
"2012-11-11 06:00","2012","11","11","06:00","2.6","","2.3","","98","","5","","9","","","M","98.12","","","","","","NA"
"2012-11-11 07:00","2012","11","11","07:00","9.7","","9.4","","98","","18","","11","","","M","98.05","","","","","","NA"
"2012-11-11 08:00","2012","11","11","08:00","10.2","","8.9","","92","","18","","19","","","M","98.04","","","","","","NA"
"2012-11-11 09:00","2012","11","11","09:00","10.4","","8.8","","90","","18","","19","","","M","98.08","","","","","","NA"
"2012-11-11 10:00","2012","11","11","10:00","10.7","","8.9","","89","","19","","19","","","M","98.13","","","","","","NA"
"2012-11-11 11:00","2012","11","11","11:00","11.6","","9.5","","87","","18","","17","","","M","98.12","","","","","","NA"
"2012-11-11 12:00","2012","11","11","12:00","11.9","","9.6","","86","","18","","19","","","M","98.07","","","","","","NA"
"2012-11-11 13:00","2012","11","11","13:00","11.5","","10.2","","92","","18","","15","","","M","98.11","","","","","","NA"
"2012-11-11 14:00","2012","11","11","14:00","11.2","","9.9","","92","","18","","17","","","M","98.02","","","","","","NA"
"2012-11-11 15:00","2012","11","11","15:00","11.3","","10.4","","94","","18","","17","","","M","97.92","","","","","","NA"
"2012-11-11 16:00","2012","11","11","16:00","11.4","","10.5","","94","","18","","19","","","M","97.91","","","","","","NA"
"2012-11-11 17:00","2012","11","11","17:00","10.2","","9.5","","95","","19","","17","","","M","97.96","","","","","","NA"
"2012-11-11 18:00","2012","11","11","18:00","9.0","","8.5","","97","","18","","15","","","M","97.93","","","","","","NA"
"2012-11-11 19:00","2012","11","11","19:00","8.4","","8.0","","97","","19","","13","","","M","97.96","","","","","","NA"
"2012-11-11 20:00","2012","11","11","20:00","8.1","","7.7","","97","","15","","4","","","M","97.84","","","","","","NA"
"2012-11-11 21:00","2012","11","11","21:00","7.8","","7.4","","97","","24","","9","","","M","97.79","","","","","","NA"
"2012-11-11 22:00","2012","11","11","22:00","6.6","","6.2","","97","","25","","13","","","M","97.82","","","","","","NA"
"2012-11-11 23:00","2012","11","11","23:00","5.8","","5.4","","97","","22","","7","","","M","97.75","","","","","","NA"
"2012-11-12 00:00","2012","11","12","00:00","5.8","","5.4","","97","","22","","11","","","M","97.81","","","","","","NA"
"2012-11-12 01:00","2012","11","12","01:00","5.3","","4.8","","97","","25","","11","","","M","97.93","","","","","","NA"
"2012-11-12 02:00","2012","11","12","02:00","4.4","","3.8","","96","","24","","11","","","M","97.97","","","","","","NA"
"2012-11-12 03:00","2012","11","12","03:00","3.8","","3.2","","96","","25","","11","","","M","98.03","","","","","","NA"
"2012-11-12 04:00","2012","11","12","04:00","3.1","","2.5","","96","","26","","13","","","M","98.06","","","","","","NA"
"2012-11-12 05:00","2012","11","12","05:00","2.2","","1.5","","95","","26","","15","","","M","98.12","","","","","","NA"
"2012-11-12 06:00","2012","11","12","06:00","1.5","","0.1","","90","","27","","19","","","M","98.18","","","","","","NA"
"2012-11-12 07:00","2012","11","12","07:00","0.6","","-1.1","","88","","27","","19","","","M","98.29","","","","","","NA"
"2012-11-12 08:00","2012","11","12","08:00","0.4","","-2.0","","84","","26","","17","","","M","98.32","","","","","","NA"
"2012-11-12 09:00","2012","11","12","09:00","0.4","","-1.7","","86","","26","","17","","","M","98.36","","","","","","NA"
"2012-11-12 10:00","2012","11","12","10:00","0.3","","-2.2","","83","","26","","15","","","M","98.38","","","","","","NA"
"2012-11-12 11:00","2012","11","12","11:00","0.5","","-3.1","","77","","25","","15","","","M","98.41","","","","","","NA"
"2012-11-12 12:00","2012","11","12","12:00","0.2","","-2.0","","85","","27","","13","","","M","98.41","","","","","","NA"
"2012-11-12 13:00","2012","11","12","13:00","-0.2","","-2.4","","85","","28","","11","","","M","98.40","","","","-4","","NA"
"2012-11-12 14:00","2012","11","12","14:00","0.3","","-4.1","","72","","26","","13","","","M","98.40","","","","","","NA"
"2012-11-12 15:00","2012","11","12","15:00","-0.7","","-2.6","","87","","28","","11","","","M","98.40","","","","-4","","NA"
"2012-11-12 16:00","2012","11","12","16:00","-0.6","","-3.8","","79","","27","","15","","","M","98.44","","","","-5","","NA"
"2012-11-12 17:00","2012","11","12","17:00","-1.4","","-2.7","","91","","27","","7","","","M","98.50","","","","-4","","NA"
"2012-11-12 18:00","2012","11","12","18:00","-1.6","","-3.5","","87","","32","","6","","","M","98.58","","","","-4","","NA"
"2012-11-12 19:00","2012","11","12","19:00","-1.6","","-4.7","","79","","36","","4","","","M","98.66","","","","-3","","NA"
"2012-11-12 20:00","2012","11","12","20:00","-2.5","","-4.0","","89","","35","","4","","","M","98.74","","","","-4","","NA"
"2012-11-12 21:00","2012","11","12","21:00","-2.5","","-4.1","","89","","2","","4","","","M","98.79","","","","-4","","NA"
"2012-11-12 22:00","2012","11","12","22:00","-2.8","","-5.9","","79","","3","","4","","","M","98.87","","","","-4","","NA"
"2012-11-12 23:00","2012","11","12","23:00","-3.8","","-5.8","","86","","31","","2","","","M","98.95","","","","-5","","NA"
"2012-11-13 00:00","2012","11","13","00:00","-3.6","","-6.0","","83","","31","","6","","","M","99.05","","","","-6","","NA"
"2012-11-13 01:00","2012","11","13","01:00","-3.2","","-5.4","","85","","30","","6","","","M","99.14","","","","-6","","NA"
"2012-11-13 02:00","2012","11","13","02:00","-2.6","","-5.0","","84","","29","","6","","","M","99.20","","","","-5","","NA"
"2012-11-13 03:00","2012","11","13","03:00","-2.0","","-5.0","","80","","29","","7","","","M","99.31","","","","-5","","NA"
"2012-11-13 04:00","2012","11","13","04:00","-0.9","","-3.3","","84","","31","","7","","","M","99.38","","","","-3","","NA"
"2012-11-13 05:00","2012","11","13","05:00","-1.4","","-4.1","","82","","33","","4","","","M","99.50","","","","-3","","NA"
"2012-11-13 06:00","2012","11","13","06:00","-1.4","","-4.2","","81","","35","","4","","","M","99.67","","","","-3","","NA"
"2012-11-13 07:00","2012","11","13","07:00","-1.8","","-4.2","","84","","1","","4","","","M","99.76","","","","-3","","NA"
"2012-11-13 08:00","2012","11","13","08:00","-1.6","","-3.6","","86","","1","","4","","","M","99.88","","","","-3","","NA"
"2012-11-13 09:00","2012","11","13","09:00","-1.5","","-3.9","","84","","4","","2","","","M","99.97","","","","-2","","NA"
"2012-11-13 10:00","2012","11","13","10:00","-0.9","","-4.3","","78","","31","","6","","","M","100.04","","","","-3","","NA"
"2012-11-13 11:00","2012","11","13","11:00","-0.6","","-4.4","","75","","30","","7","","","M","100.12","","","","-3","","NA"
"2012-11-13 12:00","2012","11","13","12:00","-0.2","","-4.4","","73","","28","","6","","","M","100.14","","","","-2","","NA"
"2012-11-13 13:00","2012","11","13","13:00","0.4","","-3.2","","77","","25","","11","","","M","100.12","","","","","","NA"
"2012-11-13 14:00","2012","11","13","14:00","0.8","","-3.7","","72","","25","","11","","","M","100.13","","","","","","NA"
"2012-11-13 15:00","2012","11","13","15:00","0.8","","-1.8","","83","","21","","9","","","M","100.12","","","","","","NA"
"2012-11-13 16:00","2012","11","13","16:00","0.8","","-3.3","","74","","24","","11","","","M","100.19","","","","","","NA"
"2012-11-13 17:00","2012","11","13","17:00","0.7","","-2.7","","78","","25","","6","","","M","100.21","","","","","","NA"
"2012-11-13 18:00","2012","11","13","18:00","0.9","","-2.4","","79","","24","","9","","","M","100.24","","","","","","NA"
"2012-11-13 19:00","2012","11","13","19:00","1.4","","-2.5","","75","","23","","11","","","M","100.27","","","","","","NA"
"2012-11-13 20:00","2012","11","13","20:00","1.3","","-1.9","","79","","24","","15","","","M","100.30","","","","","","NA"
"2012-11-13 21:00","2012","11","13","21:00","1.3","","-2.3","","77","","22","","11","","","M","100.35","","","","","","NA"
"2012-11-13 22:00","2012","11","13","22:00","0.9","","-3.2","","74","","22","","9","","","M","100.41","","","","","","NA"
"2012-11-13 23:00","2012","11","13","23:00","1.0","","-2.8","","76","","22","","7","","","M","100.38","","","","","","NA"
"2012-11-14 00:00","2012","11","14","00:00","1.7","","-3.0","","71","","22","","11","","","M","100.36","","","","","","NA"
"2012-11-14 01:00","2012","11","14","01:00","2.0","","-2.3","","73","","22","","11","","","M","100.36","","","","","","NA"
"2012-11-14 02:00","2012","11","14","02:00","2.5","","-2.3","","71","","21","","11","","","M","100.33","","","","","","NA"
"2012-11-14 03:00","2012","11","14","03:00","2.5","","-2.9","","67","","23","","9","","","M","100.33","","","","","","NA"
"2012-11-14 04:00","2012","11","14","04:00","2.5","","-2.5","","70","","23","","11","","","M","100.32","","","","","","NA"
"2012-11-14 05:00","2012","11","14","05:00","2.6","","-2.2","","71","","21","","11","","","M","100.32","","","","","","NA"
"2012-11-14 06:00","2012","11","14","06:00","2.8","","-1.6","","73","","21","","9","","","M","100.35","","","","","","NA"
"2012-11-14 07:00","2012","11","14","07:00","2.9","","-1.2","","74","","22","","9","","","M","100.35","","","","","","NA"
"2012-11-14 08:00","2012","11","14","08:00","3.0","","-0.8","","76","","21","","11","","","M","100.36","","","","","","NA"
"2012-11-14 09:00","2012","11","14","09:00","3.2","","-0.9","","74","","21","","11","","","M","100.35","","","","","","NA"
"2012-11-14 10:00","2012","11","14","10:00","3.9","","-1.5","","68","","20","","11","","","M","100.36","","","","","","NA"
"2012-11-14 11:00","2012","11","14","11:00","4.5","","-0.9","","68","","20","","13","","","M","100.36","","","","","","NA"
"2012-11-14 12:00","2012","11","14","12:00","5.2","","-0.2","","68","","20","","11","","","M","100.34","","","","","","NA"
"2012-11-14 13:00","2012","11","14","13:00","5.5","","1.5","","75","","20","","13","","","M","100.29","","","","","","NA"
"2012-11-14 14:00","2012","11","14","14:00","5.7","","1.8","","76","","20","","13","","","M","100.23","","","","","","NA"
"2012-11-14 15:00","2012","11","14","15:00","5.4","","0.1","","69","","20","","15","","","M","100.20","","","","","","NA"
"2012-11-14 16:00","2012","11","14","16:00","4.9","","0.2","","72","","19","","15","","","M","100.18","","","","","","NA"
"2012-11-14 17:00","2012","11","14","17:00","5.0","","-0.4","","68","","19","","13","","","M","100.17","","","","","","NA"
"2012-11-14 18:00","2012","11","14","18:00","5.3","","1.0","","74","","19","","11","","","M","100.11","","","","","","NA"
"2012-11-14 19:00","2012","11","14","19:00","5.6","","2.1","","78","","19","","13","","","M","100.07","","","","","","NA"
"2012-11-14 20:00","2012","11","14","20:00","5.8","","2.6","","80","","19","","15","","","M","100.03","","","","","","NA"
"2012-11-14 21:00","2012","11","14","21:00","5.6","","1.4","","74","","21","","13","","","M","100.01","","","","","","NA"
"2012-11-14 22:00","2012","11","14","22:00","5.2","","0.4","","71","","22","","13","","","M","99.99","","","","","","NA"
"2012-11-14 23:00","2012","11","14","23:00","4.9","","0.6","","74","","22","","11","","","M","99.95","","","","","","NA"
"2012-11-15 00:00","2012","11","15","00:00","5.3","","1.4","","76","","21","","11","","","M","99.92","","","","","","NA"
"2012-11-15 01:00","2012","11","15","01:00","5.2","","1.6","","78","","21","","13","","","M","99.87","","","","","","NA"
"2012-11-15 02:00","2012","11","15","02:00","5.1","","1.7","","79","","21","","13","","","M","99.83","","","","","","NA"
"2012-11-15 03:00","2012","11","15","03:00","4.8","","1.7","","80","","21","","15","","","M","99.78","","","","","","NA"
"2012-11-15 04:00","2012","11","15","04:00","5.1","","2.2","","82","","21","","13","","","M","99.75","","","","","","NA"
"2012-11-15 05:00","2012","11","15","05:00","5.0","","2.0","","81","","20","","13","","","M","99.70","","","","","","NA"
"2012-11-15 06:00","2012","11","15","06:00","4.8","","2.5","","85","","19","","11","","","M","99.67","","","","","","NA"
"2012-11-15 07:00","2012","11","15","07:00","5.0","","2.8","","86","","20","","13","","","M","99.64","","","","","","NA"
"2012-11-15 08:00","2012","11","15","08:00","5.1","","3.0","","86","","20","","13","","","M","99.62","","","","","","NA"
"2012-11-15 09:00","2012","11","15","09:00","5.7","","3.3","","85","","20","","15","","","M","99.58","","","","","","NA"
"2012-11-15 10:00","2012","11","15","10:00","6.0","","3.5","","84","","20","","15","","","M","99.52","","","","","","NA"
"2012-11-15 11:00","2012","11","15","11:00","6.3","","3.7","","83","","19","","17","","","M","99.51","","","","","","NA"
"2012-11-15 12:00","2012","11","15","12:00","6.1","","3.7","","85","","19","","15","","","M","99.45","","","","","","NA"
"2012-11-15 13:00","2012","11","15","13:00","6.0","","3.9","","86","","20","","15","","","M","99.47","","","","","","NA"
"2012-11-15 14:00","2012","11","15","14:00","6.9","","3.4","","78","","23","","15","","","M","99.47","","","","","","NA"
"2012-11-15 15:00","2012","11","15","15:00","6.5","","4.0","","84","","24","","17","","","M","99.50","","","","","","NA"
"2012-11-15 16:00","2012","11","15","16:00","6.4","","0.8","","67","","28","","15","","","M","99.60","","","","","","NA"
"2012-11-15 17:00","2012","11","15","17:00","5.1","","-1.9","","61","","32","","7","","","M","99.74","","","","","","NA"
"2012-11-15 18:00","2012","11","15","18:00","3.1","","-4.3","","58","","35","","6","","","M","99.92","","","","","","NA"
"2012-11-15 19:00","2012","11","15","19:00","1.3","","-6.6","","56","","34","","7","","","M","100.09","","","","","","NA"
"2012-11-15 20:00","2012","11","15","20:00","0.1","","-8.0","","54","","36","","9","","","M","100.24","","","","","","NA"
"2012-11-15 21:00","2012","11","15","21:00","-1.2","","-10.3","","50","","34","","7","","","M","100.33","","","","-4","","NA"
"2012-11-15 22:00","2012","11","15","22:00","-1.8","","-9.7","","55","","35","","4","","","M","100.46","","","","-3","","NA"
"2012-11-15 23:00","2012","11","15","23:00","-2.5","","-9.3","","60","","36","","4","","","M","100.53","","","","-4","","NA"
"2012-11-16 00:00","2012","11","16","00:00","-2.9","","-11.1","","53","","2","","7","","","M","100.64","","","","-6","","NA"
"2012-11-16 01:00","2012","11","16","01:00","-3.8","","-11.1","","57","","2","","6","","","M","100.71","","","","-6","","NA"
"2012-11-16 02:00","2012","11","16","02:00","-4.6","","-11.1","","60","","2","","6","","","M","100.76","","","","-7","","NA"
"2012-11-16 03:00","2012","11","16","03:00","-5.6","","-12.1","","60","","1","","2","","","M","100.82","","","","-7","","NA"
"2012-11-16 04:00","2012","11","16","04:00","-6.2","","-12.1","","63","","4","","6","","","M","100.85","","","","-9","","NA"
"2012-11-16 05:00","2012","11","16","05:00","-7.1","","-11.8","","69","","4","","2","","","M","100.93","","","","-8","","NA"
"2012-11-16 06:00","2012","11","16","06:00","-7.7","","-11.9","","72","","7","","6","","","M","100.92","","","","-11","","NA"
"2012-11-16 07:00","2012","11","16","07:00","-7.9","","-12.4","","70","","6","","7","","","M","100.93","","","","-12","","NA"
"2012-11-16 08:00","2012","11","16","08:00","-8.3","","-12.0","","75","","5","","6","","","M","100.97","","","","-12","","NA"
"2012-11-16 09:00","2012","11","16","09:00","-7.9","","-11.3","","77","","6","","4","","","M","101.03","","","","-10","","NA"
"2012-11-16 10:00","2012","11","16","10:00","-6.2","","-10.8","","70","","5","","6","","","M","101.07","","","","-9","","NA"
"2012-11-16 11:00","2012","11","16","11:00","-3.6","","-10.7","","58","","33","","2","","","M","101.08","","","","-4","","NA"
"2012-11-16 12:00","2012","11","16","12:00","-2.6","","-9.7","","58","","24","","4","","","M","101.03","","","","-4","","NA"
"2012-11-16 13:00","2012","11","16","13:00","-1.5","","-12.5","","43","","22","","6","","","M","101.02","","","","-4","","NA"
"2012-11-16 14:00","2012","11","16","14:00","-0.9","","-8.7","","55","","24","","6","","","M","101.04","","","","-3","","NA"
"2012-11-16 15:00","2012","11","16","15:00","-1.0","","-7.9","","59","","24","","6","","","M","100.99","","","","-3","","NA"
"2012-11-16 16:00","2012","11","16","16:00","-0.9","","-7.0","","63","","23","","6","","","M","100.95","","","","-3","","NA"
"2012-11-16 17:00","2012","11","16","17:00","-1.4","","-6.6","","68","","22","","6","","","M","100.92","","","","-4","","NA"
"2012-11-16 18:00","2012","11","16","18:00","-1.6","","-6.1","","71","","21","","6","","","M","100.88","","","","-4","","NA"
"2012-11-16 19:00","2012","11","16","19:00","-1.9","","-6.9","","69","","21","","6","","","M","100.87","","","","-4","","NA"
"2012-11-16 20:00","2012","11","16","20:00","-1.8","","-7.1","","67","","20","","7","","","M","100.83","","","","-4","","NA"
"2012-11-16 21:00","2012","11","16","21:00","-1.0","","-7.4","","62","","21","","7","","","M","100.81","","","","-4","","NA"
"2012-11-16 22:00","2012","11","16","22:00","-1.4","","-6.0","","71","","22","","7","","","M","100.82","","","","-4","","NA"
"2012-11-16 23:00","2012","11","16","23:00","-0.8","","-4.6","","75","","21","","7","","","M","100.79","","","","-3","","NA"
"2012-11-17 00:00","2012","11","17","00:00","-2.3","","-5.2","","80","","15","","6","","","M","100.75","","","","-5","","NA"
"2012-11-17 01:00","2012","11","17","01:00","-4.4","","-6.1","","88","","4","","4","","","M","100.77","","","","-6","","NA"
"2012-11-17 02:00","2012","11","17","02:00","-5.0","","-6.8","","87","","6","","4","","","M","100.76","","","","-7","","NA"
"2012-11-17 03:00","2012","11","17","03:00","-5.7","","-7.3","","88","","3","","4","","","M","100.78","","","","-8","","NA"
"2012-11-17 04:00","2012","11","17","04:00","-6.0","","-6.8","","94","","17","","2","","","M","100.71","","","","-7","","NA"
"2012-11-17 05:00","2012","11","17","05:00","-5.1","","-6.0","","93","","4","","2","","","M","100.69","","","","-6","","NA"
"2012-11-17 06:00","2012","11","17","06:00","0.1","","-2.4","","83","","20","","11","","","M","100.65","","","","","","NA"
"2012-11-17 07:00","2012","11","17","07:00","2.1","","-2.0","","74","","21","","13","","","M","100.62","","","","","","NA"
"2012-11-17 08:00","2012","11","17","08:00","2.3","","-1.5","","76","","20","","13","","","M","100.64","","","","","","NA"
"2012-11-17 09:00","2012","11","17","09:00","3.2","","-0.4","","77","","20","","11","","","M","100.63","","","","","","NA"
"2012-11-17 10:00","2012","11","17","10:00","4.1","","0.4","","77","","20","","13","","","M","100.62","","","","","","NA"
"2012-11-17 11:00","2012","11","17","11:00","4.3","","0.8","","78","","20","","11","","","M","100.66","","","","","","NA"
"2012-11-17 12:00","2012","11","17","12:00","4.7","","1.3","","79","","20","","15","","","M","100.62","","","","","","NA"
"2012-11-17 13:00","2012","11","17","13:00","5.0","","1.8","","80","","20","","17","","","M","100.56","","","","","","NA"
"2012-11-17 14:00","2012","11","17","14:00","4.8","","1.5","","79","","18","","17","","","M","100.55","","","","","","NA"
"2012-11-17 15:00","2012","11","17","15:00","4.6","","1.7","","81","","18","","13","","","M","100.52","","","","","","NA"
"2012-11-17 16:00","2012","11","17","16:00","4.8","","1.8","","81","","18","","11","","","M","100.51","","","","","","NA"
"2012-11-17 17:00","2012","11","17","17:00","4.6","","1.4","","80","","17","","7","","","M","100.52","","","","","","NA"
"2012-11-17 18:00","2012","11","17","18:00","4.1","","1.0","","80","","18","","9","","","M","100.50","","","","","","NA"
"2012-11-17 19:00","2012","11","17","19:00","5.3","","2.1","","80","","18","","11","","","M","100.47","","","","","","NA"
"2012-11-17 20:00","2012","11","17","20:00","5.9","","2.8","","80","","17","","9","","","M","100.41","","","","","","NA"
"2012-11-17 21:00","2012","11","17","21:00","6.5","","4.0","","84","","18","","15","","","M","100.36","","","","","","NA"
"2012-11-17 22:00","2012","11","17","22:00","6.6","","4.2","","85","","18","","15","","","M","100.38","","","","","","NA"
"2012-11-17 23:00","2012","11","17","23:00","6.5","","4.4","","86","","19","","17","","","M","100.39","","","","","","NA"
"2012-11-18 00:00","2012","11","18","00:00","6.4","","4.5","","88","","18","","17","","","M","100.42","","","","","","NA"
"2012-11-18 01:00","2012","11","18","01:00","6.4","","4.6","","88","","19","","15","","","M","100.42","","","","","","NA"
"2012-11-18 02:00","2012","11","18","02:00","6.5","","4.5","","87","","18","","15","","","M","100.42","","","","","","NA"
"2012-11-18 03:00","2012","11","18","03:00","6.7","","4.3","","85","","18","","17","","","M","100.43","","","","","","NA"
"2012-11-18 04:00","2012","11","18","04:00","6.6","","4.4","","86","","18","","17","","","M","100.39","","","","","","NA"
"2012-11-18 05:00","2012","11","18","05:00","6.6","","4.2","","85","","19","","15","","","M","100.36","","","","","","NA"
"2012-11-18 06:00","2012","11","18","06:00","6.7","","4.0","","83","","18","","17","","","M","100.37","","","","","","NA"
"2012-11-18 07:00","2012","11","18","07:00","6.6","","3.7","","82","","17","","13","","","M","100.36","","","","","","NA"
"2012-11-18 08:00","2012","11","18","08:00","6.5","","3.8","","83","","17","","13","","","M","100.36","","","","","","NA"
"2012-11-18 09:00","2012","11","18","09:00","6.7","","3.9","","82","","17","","15","","","M","100.35","","","","","","NA"
"2012-11-18 10:00","2012","11","18","10:00","7.0","","3.8","","80","","18","","17","","","M","100.35","","","","","","NA"
"2012-11-18 11:00","2012","11","18","11:00","7.3","","3.7","","78","","18","","17","","","M","100.34","","","","","","NA"
"2012-11-18 12:00","2012","11","18","12:00","7.6","","3.8","","77","","18","","17","","","M","100.30","","","","","","NA"
"2012-11-18 13:00","2012","11","18","13:00","8.3","","3.6","","72","","19","","17","","","M","100.26","","","","","","NA"
"2012-11-18 14:00","2012","11","18","14:00","8.2","","3.3","","71","","19","","19","","","M","100.24","","","","","","NA"
"2012-11-18 15:00","2012","11","18","15:00","8.4","","3.3","","70","","17","","13","","","M","100.19","","","","","","NA"
"2012-11-18 16:00","2012","11","18","16:00","8.0","","3.8","","75","","18","","13","","","M","100.20","","","","","","NA"
"2012-11-18 17:00","2012","11","18","17:00","8.1","","3.6","","73","","18","","13","","","M","100.18","","","","","","NA"
"2012-11-18 18:00","2012","11","18","18:00","7.8","","3.3","","73","","17","","11","","","M","100.17","","","","","","NA"
"2012-11-18 19:00","2012","11","18","19:00","8.3","","2.7","","68","","17","","11","","","M","100.15","","","","","","NA"
"2012-11-18 20:00","2012","11","18","20:00","9.0","","2.1","","62","","18","","17","","","M","100.10","","","","","","NA"
"2012-11-18 21:00","2012","11","18","21:00","8.8","","1.7","","61","","17","","19","","","M","100.08","","","","","","NA"
"2012-11-18 22:00","2012","11","18","22:00","8.8","","1.8","","61","","18","","19","","","M","100.08","","","","","","NA"
"2012-11-18 23:00","2012","11","18","23:00","8.5","","2.1","","64","","18","","15","","","M","100.05","","","","","","NA"
"2012-11-19 00:00","2012","11","19","00:00","8.6","","2.5","","65","","18","","17","","","M","100.01","","","","","","NA"
"2012-11-19 01:00","2012","11","19","01:00","8.4","","2.9","","68","","18","","19","","","M","99.98","","","","","","NA"
"2012-11-19 02:00","2012","11","19","02:00","8.2","","3.1","","70","","17","","15","","","M","99.95","","","","","","NA"
"2012-11-19 03:00","2012","11","19","03:00","7.9","","3.5","","74","","18","","15","","","M","99.93","","","","","","NA"
"2012-11-19 04:00","2012","11","19","04:00","7.9","","3.7","","75","","18","","15","","","M","99.88","","","","","","NA"
"2012-11-19 05:00","2012","11","19","05:00","7.3","","3.9","","79","","18","","15","","","M","99.85","","","","","","NA"
"2012-11-19 06:00","2012","11","19","06:00","7.1","","4.0","","81","","18","","17","","","M","99.84","","","","","","NA"
"2012-11-19 07:00","2012","11","19","07:00","6.9","","4.2","","83","","18","","15","","","M","99.80","","","","","","NA"
"2012-11-19 08:00","2012","11","19","08:00","6.8","","4.2","","83","","18","","15","","","M","99.79","","","","","","NA"
"2012-11-19 09:00","2012","11","19","09:00","6.9","","4.4","","84","","18","","15","","","M","99.77","","","","","","NA"
"2012-11-19 10:00","2012","11","19","10:00","7.5","","4.5","","81","","18","","13","","","M","99.74","","","","","","NA"
"2012-11-19 11:00","2012","11","19","11:00","8.0","","4.7","","80","","19","","15","","","M","99.73","","","","","","NA"
"2012-11-19 12:00","2012","11","19","12:00","8.5","","5.3","","80","","19","","15","","","M","99.70","","","","","","NA"
"2012-11-19 13:00","2012","11","19","13:00","8.3","","5.3","","81","","19","","15","","","M","99.67","","","","","","NA"
"2012-11-19 14:00","2012","11","19","14:00","7.7","","5.4","","85","","19","","15","","","M","99.64","","","","","","NA"
"2012-11-19 15:00","2012","11","19","15:00","7.8","","5.5","","85","","18","","13","","","M","99.60","","","","","","NA"
"2012-11-19 16:00","2012","11","19","16:00","7.7","","5.1","","84","","19","","11","","","M","99.56","","","","","","NA"
"2012-11-19 17:00","2012","11","19","17:00","7.3","","5.1","","86","","19","","11","","","M","99.54","","","","","","NA"
"2012-11-19 18:00","2012","11","19","18:00","7.5","","5.3","","86","","20","","11","","","M","99.53","","","","","","NA"
"2012-11-19 19:00","2012","11","19","19:00","7.7","","5.5","","86","","20","","11","","","M","99.52","","","","","","NA"
"2012-11-19 20:00","2012","11","19","20:00","7.6","","5.5","","87","","19","","9","","","M","99.47","","","","","","NA"
"2012-11-19 21:00","2012","11","19","21:00","7.7","","5.4","","85","","20","","9","","","M","99.48","","","","","","NA"
"2012-11-19 22:00","2012","11","19","22:00","8.1","","5.4","","83","","18","","13","","","M","99.43","","","","","","NA"
"2012-11-19 23:00","2012","11","19","23:00","7.8","","5.4","","85","","19","","13","","","M","99.43","","","","","","NA"
"2012-11-20 00:00","2012","11","20","00:00","7.6","","5.5","","87","","19","","11","","","M","99.38","","","","","","NA"
"2012-11-20 01:00","2012","11","20","01:00","7.3","","5.4","","88","","19","","9","","","M","99.34","","","","","","NA"
"2012-11-20 02:00","2012","11","20","02:00","7.3","","5.5","","88","","19","","9","","","M","99.32","","","","","","NA"
"2012-11-20 03:00","2012","11","20","03:00","6.6","","5.1","","90","","19","","9","","","M","99.32","","","","","","NA"
"2012-11-20 04:00","2012","11","20","04:00","7.1","","5.6","","90","","18","","9","","","M","99.31","","","","","","NA"
"2012-11-20 05:00","2012","11","20","05:00","7.0","","5.6","","91","","19","","7","","","M","99.33","","","","","","NA"
"2012-11-20 06:00","2012","11","20","06:00","7.1","","5.6","","90","","20","","6","","","M","99.37","","","","","","NA"
"2012-11-20 07:00","2012","11","20","07:00","6.9","","5.7","","92","","19","","4","","","M","99.38","","","","","","NA"
"2012-11-20 08:00","2012","11","20","08:00","6.5","","5.3","","92","","21","","2","","","M","99.39","","","","","","NA"
"2012-11-20 09:00","2012","11","20","09:00","6.2","","5.2","","93","","","","0","","","M","99.46","","","","","","NA"
"2012-11-20 10:00","2012","11","20","10:00","6.7","","4.9","","88","","3","","4","","","M","99.47","","","","","","NA"
"2012-11-20 11:00","2012","11","20","11:00","6.4","","3.8","","83","","3","","6","","","M","99.50","","","","","","NA"
"2012-11-20 12:00","2012","11","20","12:00","5.9","","2.4","","78","","2","","9","","","M","99.55","","","","","","NA"
"2012-11-20 13:00","2012","11","20","13:00","6.8","","2.9","","76","","2","","6","","","M","99.52","","","","","","NA"
"2012-11-20 14:00","2012","11","20","14:00","7.0","","2.5","","73","","3","","6","","","M","99.52","","","","","","NA"
"2012-11-20 15:00","2012","11","20","15:00","7.1","","2.2","","71","","4","","6","","","M","99.49","","","","","","NA"
"2012-11-20 16:00","2012","11","20","16:00","6.8","","2.2","","72","","35","","2","","","M","99.52","","","","","","NA"
"2012-11-20 17:00","2012","11","20","17:00","5.1","","1.7","","79","","5","","4","","","M","99.56","","","","","","NA"
"2012-11-20 18:00","2012","11","20","18:00","2.2","","-0.2","","84","","","","0","","","M","99.59","","","","","","NA"
"2012-11-20 19:00","2012","11","20","19:00","0.2","","-1.4","","89","","6","","2","","","M","99.60","","","","","","NA"
"2012-11-20 20:00","2012","11","20","20:00","-0.2","","-1.6","","90","","6","","4","","","M","99.62","","","","-1","","NA"
"2012-11-20 21:00","2012","11","20","21:00","0.3","","-0.9","","92","","","","0","","","M","99.61","","","","","","NA"
"2012-11-20 22:00","2012","11","20","22:00","0.4","","-0.7","","92","","4","","2","","","M","99.59","","","","","","NA"
"2012-11-20 23:00","2012","11","20","23:00","1.8","","0.9","","94","","25","","6","","","M","99.58","","","","","","NA"
"2012-11-21 00:00","2012","11","21","00:00","4.1","","2.1","","87","","22","","9","","","M","99.52","","","","","","NA"
"2012-11-21 01:00","2012","11","21","01:00","3.8","","1.8","","87","","22","","9","","","M","99.53","","","","","","NA"
"2012-11-21 02:00","2012","11","21","02:00","3.7","","1.5","","86","","22","","11","","","M","99.51","","","","","","NA"
"2012-11-21 03:00","2012","11","21","03:00","4.2","","1.9","","85","","22","","11","","","M","99.51","","","","","","NA"
"2012-11-21 04:00","2012","11","21","04:00","4.5","","2.1","","84","","21","","11","","","M","99.47","","","","","","NA"
"2012-11-21 05:00","2012","11","21","05:00","4.9","","2.4","","84","","21","","11","","","M","99.46","","","","","","NA"
"2012-11-21 06:00","2012","11","21","06:00","5.2","","2.7","","84","","21","","11","","","M","99.44","","","","","","NA"
"2012-11-21 07:00","2012","11","21","07:00","5.7","","3.7","","87","","20","","13","","","M","99.39","","","","","","NA"
"2012-11-21 08:00","2012","11","21","08:00","5.6","","3.7","","88","","20","","13","","","M","99.31","","","","","","NA"
"2012-11-21 09:00","2012","11","21","09:00","6.2","","4.4","","88","","20","","15","","","M","99.29","","","","","","NA"
"2012-11-21 10:00","2012","11","21","10:00","6.3","","4.4","","88","","19","","15","","","M","99.25","","","","","","NA"
"2012-11-21 11:00","2012","11","21","11:00","6.6","","5.0","","90","","20","","17","","","M","99.22","","","","","","NA"
"2012-11-21 12:00","2012","11","21","12:00","6.8","","5.2","","90","","21","","13","","","M","99.20","","","","","","NA"
"2012-11-21 13:00","2012","11","21","13:00","7.3","","5.3","","87","","20","","11","","","M","99.10","","","","","","NA"
"2012-11-21 14:00","2012","11","21","14:00","7.4","","5.4","","87","","19","","15","","","M","99.01","","","","","","NA"
"2012-11-21 15:00","2012","11","21","15:00","7.6","","5.4","","86","","19","","13","","","M","98.95","","","","","","NA"
"2012-11-21 16:00","2012","11","21","16:00","7.7","","5.6","","87","","20","","15","","","M","98.94","","","","","","NA"
"2012-11-21 17:00","2012","11","21","17:00","7.5","","5.5","","87","","19","","13","","","M","98.94","","","","","","NA"
"2012-11-21 18:00","2012","11","21","18:00","7.0","","5.4","","90","","20","","11","","","M","98.91","","","","","","NA"
"2012-11-21 19:00","2012","11","21","19:00","6.4","","5.1","","91","","20","","9","","","M","98.91","","","","","","NA"
"2012-11-21 20:00","2012","11","21","20:00","5.9","","5.0","","94","","19","","6","","","M","98.86","","","","","","NA"
"2012-11-21 21:00","2012","11","21","21:00","5.4","","4.5","","94","","20","","7","","","M","98.84","","","","","","NA"
"2012-11-21 22:00","2012","11","21","22:00","5.8","","5.0","","95","","19","","7","","","M","98.79","","","","","","NA"
"2012-11-21 23:00","2012","11","21","23:00","5.7","","4.9","","95","","18","","7","","","M","98.72","","","","","","NA"
"2012-11-22 00:00","2012","11","22","00:00","5.7","","4.7","","93","","17","","6","","","M","98.69","","","","","","NA"
"2012-11-22 01:00","2012","11","22","01:00","6.9","","6.0","","94","","18","","9","","","M","98.65","","","","","","NA"
"2012-11-22 02:00","2012","11","22","02:00","6.3","","5.1","","92","","17","","7","","","M","98.55","","","","","","NA"
"2012-11-22 03:00","2012","11","22","03:00","6.8","","5.6","","92","","17","","7","","","M","98.48","","","","","","NA"
"2012-11-22 04:00","2012","11","22","04:00","5.3","","4.5","","95","","19","","4","","","M","98.39","","","","","","NA"
"2012-11-22 05:00","2012","11","22","05:00","6.9","","5.5","","91","","18","","11","","","M","98.27","","","","","","NA"
"2012-11-22 06:00","2012","11","22","06:00","6.9","","5.2","","89","","19","","7","","","M","98.17","","","","","","NA"
"2012-11-22 07:00","2012","11","22","07:00","7.6","","5.7","","88","","18","","15","","","M","98.07","","","","","","NA"
"2012-11-22 08:00","2012","11","22","08:00","8.0","","5.7","","85","","18","","13","","","M","98.04","","","","","","NA"
"2012-11-22 09:00","2012","11","22","09:00","8.2","","5.9","","85","","18","","17","","","M","97.98","","","","","","NA"
"2012-11-22 10:00","2012","11","22","10:00","8.8","","6.0","","83","","18","","15","","","M","97.89","","","","","","NA"
"2012-11-22 11:00","2012","11","22","11:00","8.8","","6.1","","83","","18","","17","","","M","97.89","","","","","","NA"
"2012-11-22 12:00","2012","11","22","12:00","8.9","","6.2","","83","","18","","15","","","M","97.85","","","","","","NA"
"2012-11-22 13:00","2012","11","22","13:00","8.7","","6.0","","83","","18","","15","","","M","97.80","","","","","","NA"
"2012-11-22 14:00","2012","11","22","14:00","8.6","","5.8","","83","","18","","15","","","M","97.75","","","","","","NA"
"2012-11-22 15:00","2012","11","22","15:00","8.6","","5.8","","83","","19","","13","","","M","97.72","","","","","","NA"
"2012-11-22 16:00","2012","11","22","16:00","8.2","","5.8","","85","","18","","11","","","M","97.69","","","","","","NA"
"2012-11-22 17:00","2012","11","22","17:00","8.3","","5.9","","85","","19","","11","","","M","97.74","","","","","","NA"
"2012-11-22 18:00","2012","11","22","18:00","8.3","","5.8","","84","","19","","9","","","M","97.70","","","","","","NA"
"2012-11-22 19:00","2012","11","22","19:00","7.8","","5.7","","87","","20","","7","","","M","97.72","","","","","","NA"
"2012-11-22 20:00","2012","11","22","20:00","6.3","","4.7","","89","","35","","2","","","M","97.70","","","","","","NA"
"2012-11-22 21:00","2012","11","22","21:00","4.9","","3.7","","92","","7","","4","","","M","97.68","","","","","","NA"
"2012-11-22 22:00","2012","11","22","22:00","4.9","","3.9","","93","","5","","9","","","M","97.61","","","","","","NA"
"2012-11-22 23:00","2012","11","22","23:00","5.2","","3.2","","87","","3","","13","","","M","97.66","","","","","","NA"
"2012-11-23 00:00","2012","11","23","00:00","2.1","","-0.2","","85","","4","","22","","","M","97.63","","","","","","NA"
"2012-11-23 01:00","2012","11","23","01:00","1.0","","-1.5","","83","","4","","26","","","M","97.60","","","","","","NA"
"2012-11-23 02:00","2012","11","23","02:00","-0.1","","-2.3","","85","","4","","26","","","M","97.58","","","","-6","","NA"
"2012-11-23 03:00","2012","11","23","03:00","-1.1","","-3.5","","84","","4","","26","","","M","97.57","","","","-7","","NA"
"2012-11-23 04:00","2012","11","23","04:00","-2.7","","-4.7","","86","","4","","26","","","M","97.57","","","","-10","","NA"
"2012-11-23 05:00","2012","11","23","05:00","-4.1","","-6.4","","84","","4","","28","","","M","97.58","","","","-12","","NA"
"2012-11-23 06:00","2012","11","23","06:00","-5.6","","-6.4","","94","","3","","24","","","M","97.67","","","","-13","","NA"
"2012-11-23 07:00","2012","11","23","07:00","-6.0","","-6.7","","95","","4","","26","","","M","97.69","","","","-14","","NA"
"2012-11-23 08:00","2012","11","23","08:00","-5.9","","-6.7","","94","","3","","22","","","M","97.83","","","","-13","","NA"
"2012-11-23 09:00","2012","11","23","09:00","-5.9","","-6.9","","93","","2","","19","","","M","97.96","","","","-13","","NA"
"2012-11-23 10:00","2012","11","23","10:00","-5.4","","-6.6","","91","","2","","19","","","M","98.08","","","","-12","","NA"
"2012-11-23 11:00","2012","11","23","11:00","-5.2","","-6.3","","92","","1","","15","","","M","98.23","","","","-11","","NA"
"2012-11-23 12:00","2012","11","23","12:00","-4.9","","-6.1","","91","","36","","15","","","M","98.35","","","","-10","","NA"
"2012-11-23 13:00","2012","11","23","13:00","-4.8","","-6.0","","91","","36","","13","","","M","98.43","","","","-10","","NA"
"2012-11-23 14:00","2012","11","23","14:00","-4.7","","-6.1","","90","","36","","13","","","M","98.54","","","","-10","","NA"
"2012-11-23 15:00","2012","11","23","15:00","-4.5","","-6.2","","88","","35","","11","","","M","98.64","","","","-9","","NA"
"2012-11-23 16:00","2012","11","23","16:00","-4.6","","-7.0","","83","","35","","15","","","M","98.78","","","","-10","","NA"
"2012-11-23 17:00","2012","11","23","17:00","-4.8","","-7.7","","80","","36","","15","","","M","98.90","","","","-10","","NA"
"2012-11-23 18:00","2012","11","23","18:00","-5.3","","-7.8","","83","","35","","11","","","M","99.01","","","","-10","","NA"
"2012-11-23 19:00","2012","11","23","19:00","-5.4","","-8.0","","82","","36","","11","","","M","99.10","","","","-10","","NA"
"2012-11-23 20:00","2012","11","23","20:00","-5.5","","-7.9","","83","","36","","9","","","M","99.22","","","","-10","","NA"
"2012-11-23 21:00","2012","11","23","21:00","-5.9","","-8.9","","79","","36","","9","","","M","99.26","","","","-10","","NA"
"2012-11-23 22:00","2012","11","23","22:00","-6.2","","-8.8","","82","","35","","9","","","M","99.30","","","","-10","","NA"
"2012-11-23 23:00","2012","11","23","23:00","-6.7","","-9.3","","82","","36","","13","","","M","99.34","","","","-12","","NA"
"2012-11-24 00:00","2012","11","24","00:00","-7.5","","-9.9","","83","","35","","9","","","M","99.38","","","","-12","","NA"
"2012-11-24 01:00","2012","11","24","01:00","-7.2","","-10.0","","80","","35","","7","","","M","99.42","","","","-11","","NA"
"2012-11-24 02:00","2012","11","24","02:00","-7.3","","-10.0","","81","","36","","7","","","M","99.45","","","","-11","","NA"
"2012-11-24 03:00","2012","11","24","03:00","-7.4","","-10.3","","80","","35","","7","","","M","99.54","","","","-11","","NA"
"2012-11-24 04:00","2012","11","24","04:00","-7.5","","-10.4","","80","","35","","7","","","M","99.56","","","","-11","","NA"
"2012-11-24 05:00","2012","11","24","05:00","-7.9","","-10.0","","85","","35","","4","","","M","99.59","","","","-10","","NA"
"2012-11-24 06:00","2012","11","24","06:00","-7.9","","-10.6","","81","","36","","7","","","M","99.60","","","","-12","","NA"
"2012-11-24 07:00","2012","11","24","07:00","-8.0","","-11.1","","78","","36","","6","","","M","99.65","","","","-11","","NA"
"2012-11-24 08:00","2012","11","24","08:00","-8.2","","-11.2","","79","","36","","6","","","M","99.70","","","","-11","","NA"
"2012-11-24 09:00","2012","11","24","09:00","-8.1","","-11.8","","75","","36","","7","","","M","99.69","","","","-12","","NA"
"2012-11-24 10:00","2012","11","24","10:00","-7.9","","-11.6","","75","","1","","7","","","M","99.68","","","","-12","","NA"
"2012-11-24 11:00","2012","11","24","11:00","-7.2","","-11.2","","73","","1","","6","","","M","99.65","","","","-10","","NA"
"2012-11-24 12:00","2012","11","24","12:00","-7.0","","-11.7","","69","","3","","7","","","M","99.60","","","","-11","","NA"
"2012-11-24 13:00","2012","11","24","13:00","-6.8","","-12.2","","65","","35","","6","","","M","99.57","","","","-10","","NA"
"2012-11-24 14:00","2012","11","24","14:00","-7.0","","-11.4","","71","","4","","6","","","M","99.50","","","","-10","","NA"
"2012-11-24 15:00","2012","11","24","15:00","-7.0","","-11.8","","69","","2","","4","","","M","99.44","","","","-9","","NA"
"2012-11-24 16:00","2012","11","24","16:00","-7.3","","-11.9","","70","","3","","4","","","M","99.42","","","","-9","","NA"
"2012-11-24 17:00","2012","11","24","17:00","-7.8","","-10.8","","79","","8","","4","","","M","99.38","","","","-10","","NA"
"2012-11-24 18:00","2012","11","24","18:00","-8.2","","-10.8","","81","","7","","6","","","M","99.33","","","","-11","","NA"
"2012-11-24 19:00","2012","11","24","19:00","-8.4","","-10.9","","82","","6","","4","","","M","99.23","","","","-11","","NA"
"2012-11-24 20:00","2012","11","24","20:00","-8.5","","-10.9","","83","","6","","6","","","M","99.17","","","","-12","","NA"
"2012-11-24 21:00","2012","11","24","21:00","-8.6","","-10.7","","85","","5","","6","","","M","99.11","","","","-12","","NA"
"2012-11-24 22:00","2012","11","24","22:00","-8.6","","-10.7","","85","","6","","6","","","M","99.02","","","","-12","","NA"
"2012-11-24 23:00","2012","11","24","23:00","-8.6","","-10.6","","85","","6","","4","","","M","98.95","","","","-11","","NA"
"2012-11-25 00:00","2012","11","25","00:00","-8.3","","-10.5","","84","","5","","7","","","M","98.86","","","","-12","","NA"
"2012-11-25 01:00","2012","11","25","01:00","-8.2","","-10.4","","84","","4","","9","","","M","98.81","","","","-13","","NA"
"2012-11-25 02:00","2012","11","25","02:00","-8.2","","-9.8","","88","","4","","7","","","M","98.71","","","","-12","","NA"
"2012-11-25 03:00","2012","11","25","03:00","-8.3","","-9.7","","90","","5","","9","","","M","98.63","","","","-13","","NA"
"2012-11-25 04:00","2012","11","25","04:00","-8.5","","-9.9","","90","","5","","9","","","M","98.52","","","","-13","","NA"
"2012-11-25 05:00","2012","11","25","05:00","-8.3","","-9.5","","91","","4","","7","","","M","98.46","","","","-12","","NA"
"2012-11-25 06:00","2012","11","25","06:00","-7.9","","-9.3","","90","","2","","4","","","M","98.39","","","","-10","","NA"
"2012-11-25 07:00","2012","11","25","07:00","-7.1","","-8.2","","92","","5","","6","","","M","98.31","","","","-10","","NA"
"2012-11-25 08:00","2012","11","25","08:00","-6.4","","-8.2","","87","","10","","6","","","M","98.27","","","","-9","","NA"
"2012-11-25 09:00","2012","11","25","09:00","-6.5","","-7.9","","90","","5","","6","","","M","98.27","","","","-9","","NA"
"2012-11-25 10:00","2012","11","25","10:00","-6.0","","-7.4","","90","","4","","4","","","M","98.22","","","","-8","","NA"
"2012-11-25 11:00","2012","11","25","11:00","-4.5","","-6.5","","86","","10","","9","","","M","98.16","","","","-8","","NA"
"2012-11-25 12:00","2012","11","25","12:00","-3.8","","-6.0","","85","","8","","4","","","M","98.08","","","","-5","","NA"
"2012-11-25 13:00","2012","11","25","13:00","-3.8","","-5.0","","91","","9","","6","","","M","98.05","","","","-6","","NA"
"2012-11-25 14:00","2012","11","25","14:00","-3.4","","-4.5","","92","","5","","6","","","M","97.98","","","","-6","","NA"
"2012-11-25 15:00","2012","11","25","15:00","-3.9","","-5.0","","92","","34","","6","","","M","98.07","","","","-7","","NA"
"2012-11-25 16:00","2012","11","25","16:00","-4.9","","-6.1","","91","","34","","6","","","M","98.22","","","","-8","","NA"
"2012-11-25 17:00","2012","11","25","17:00","-5.2","","-6.3","","92","","33","","6","","","M","98.34","","","","-8","","NA"
"2012-11-25 18:00","2012","11","25","18:00","-5.8","","-7.4","","88","","34","","6","","","M","98.45","","","","-9","","NA"
"2012-11-25 19:00","2012","11","25","19:00","-6.6","","-7.8","","91","","35","","6","","","M","98.57","","","","-10","","NA"
"2012-11-25 20:00","2012","11","25","20:00","-7.1","","-8.8","","88","","35","","7","","","M","98.66","","","","-11","","NA"
"2012-11-25 21:00","2012","11","25","21:00","-7.8","","-9.0","","91","","35","","6","","","M","98.72","","","","-11","","NA"
"2012-11-25 22:00","2012","11","25","22:00","-8.3","","-9.4","","92","","35","","4","","","M","98.80","","","","-10","","NA"
"2012-11-25 23:00","2012","11","25","23:00","-9.3","","-10.3","","92","","2","","2","","","M","98.91","","","","-10","","NA"
"2012-11-26 00:00","2012","11","26","00:00","-9.8","","-10.8","","92","","5","","4","","","M","99.01","","","","-12","","NA"
"2012-11-26 01:00","2012","11","26","01:00","-10.3","","-11.3","","92","","3","","2","","","M","99.09","","","","-11","","NA"
"2012-11-26 02:00","2012","11","26","02:00","-9.1","","-10.1","","92","","4","","9","","","M","99.16","","","","-14","","NA"
"2012-11-26 03:00","2012","11","26","03:00","-8.7","","-9.8","","92","","5","","6","","","M","99.27","","","","-12","","NA"
"2012-11-26 04:00","2012","11","26","04:00","-8.5","","-9.8","","90","","4","","7","","","M","99.33","","","","-12","","NA"
"2012-11-26 05:00","2012","11","26","05:00","-8.8","","-10.3","","89","","3","","7","","","M","99.36","","","","-13","","NA"
"2012-11-26 06:00","2012","11","26","06:00","-9.2","","-10.9","","87","","4","","6","","","M","99.48","","","","-13","","NA"
"2012-11-26 07:00","2012","11","26","07:00","-9.3","","-11.1","","87","","4","","7","","","M","99.52","","","","-13","","NA"
"2012-11-26 08:00","2012","11","26","08:00","-9.4","","-11.1","","87","","5","","7","","","M","99.58","","","","-13","","NA"
"2012-11-26 09:00","2012","11","26","09:00","-9.4","","-11.2","","87","","6","","6","","","M","99.66","","","","-13","","NA"
"2012-11-26 10:00","2012","11","26","10:00","-9.0","","-11.0","","85","","1","","2","","","M","99.75","","","","-10","","NA"
"2012-11-26 11:00","2012","11","26","11:00","-8.6","","-11.0","","83","","4","","7","","","M","99.82","","","","-12","","NA"
"2012-11-26 12:00","2012","11","26","12:00","-8.1","","-11.2","","78","","2","","6","","","M","99.85","","","","-11","","NA"
"2012-11-26 13:00","2012","11","26","13:00","-7.9","","-10.7","","80","","1","","4","","","M","99.86","","","","-10","","NA"
"2012-11-26 14:00","2012","11","26","14:00","-7.5","","-10.6","","78","","1","","6","","","M","99.88","","","","-11","","NA"
"2012-11-26 15:00","2012","11","26","15:00","-7.3","","-11.0","","75","","36","","4","","","M","99.88","","","","-9","","NA"
"2012-11-26 16:00","2012","11","26","16:00","-8.7","","-11.1","","83","","3","","4","","","M","99.92","","","","-11","","NA"
"2012-11-26 17:00","2012","11","26","17:00","-8.5","","-10.6","","85","","4","","4","","","M","99.96","","","","-11","","NA"
"2012-11-26 18:00","2012","11","26","18:00","-8.9","","-11.2","","83","","3","","6","","","M","99.99","","","","-12","","NA"
"2012-11-26 19:00","2012","11","26","19:00","-10.2","","-11.7","","89","","1","","4","","","M","100.01","","","","-13","","NA"
"2012-11-26 20:00","2012","11","26","20:00","-11.6","","-13.0","","89","","4","","6","","","M","100.01","","","","-15","","NA"
"2012-11-26 21:00","2012","11","26","21:00","-12.6","","-14.0","","89","","5","","6","","","M","100.00","","","","-17","","NA"
"2012-11-26 22:00","2012","11","26","22:00","-12.9","","-14.4","","88","","5","","7","","","M","99.99","","","","-17","","NA"
"2012-11-26 23:00","2012","11","26","23:00","-13.9","","-15.2","","90","","4","","6","","","M","100.00","","","","-18","","NA"
"2012-11-27 00:00","2012","11","27","00:00","-15.1","","-16.7","","88","","5","","6","","","M","99.99","","","","-19","","NA"
"2012-11-27 01:00","2012","11","27","01:00","-15.8","","-17.3","","88","","5","","7","","","M","99.96","","","","-21","","NA"
"2012-11-27 02:00","2012","11","27","02:00","-15.8","","-17.4","","87","","7","","6","","","M","99.95","","","","-20","","NA"
"2012-11-27 03:00","2012","11","27","03:00","-15.3","","-16.9","","88","","6","","9","","","M","99.89","","","","-21","","NA"
"2012-11-27 04:00","2012","11","27","04:00","-14.6","","-16.1","","88","","5","","9","","","M","99.82","","","","-20","","NA"
"2012-11-27 05:00","2012","11","27","05:00","-13.9","","-15.3","","89","","5","","9","","","M","99.74","","","","-20","","NA"
"2012-11-27 06:00","2012","11","27","06:00","-13.2","","-14.6","","89","","5","","9","","","M","99.66","","","","-19","","NA"
"2012-11-27 07:00","2012","11","27","07:00","-12.9","","-14.3","","89","","5","","9","","","M","99.58","","","","-18","","NA"
"2012-11-27 08:00","2012","11","27","08:00","-12.4","","-13.8","","89","","4","","7","","","M","99.49","","","","-17","","NA"
"2012-11-27 09:00","2012","11","27","09:00","-11.7","","-13.0","","90","","6","","9","","","M","99.42","","","","-17","","NA"
"2012-11-27 10:00","2012","11","27","10:00","-10.9","","-12.1","","91","","4","","7","","","M","99.35","","","","-15","","NA"
"2012-11-27 11:00","2012","11","27","11:00","-9.3","","-10.3","","92","","6","","2","","","M","99.31","","","","-10","","NA"
"2012-11-27 12:00","2012","11","27","12:00","-2.8","","-4.2","","90","","29","","13","","","M","99.26","","","","-7","","NA"
"2012-11-27 13:00","2012","11","27","13:00","-2.7","","-3.7","","93","","29","","6","","","M","99.18","","","","-5","","NA"
"2012-11-27 14:00","2012","11","27","14:00","-2.6","","-3.8","","91","","29","","4","","","M","99.13","","","","-4","","NA"
"2012-11-27 15:00","2012","11","27","15:00","-2.8","","-4.4","","89","","28","","11","","","M","99.10","","","","-7","","NA"
"2012-11-27 16:00","2012","11","27","16:00","-3.5","","-5.1","","89","","31","","6","","","M","99.11","","","","-6","","NA"
"2012-11-27 17:00","2012","11","27","17:00","-4.4","","-6.1","","88","","32","","6","","","M","99.14","","","","-7","","NA"
"2012-11-27 18:00","2012","11","27","18:00","-5.4","","-7.9","","83","","3","","4","","","M","99.16","","","","-7","","NA"
"2012-11-27 19:00","2012","11","27","19:00","-6.7","","-8.8","","85","","4","","6","","","M","99.18","","","","-10","","NA"
"2012-11-27 20:00","2012","11","27","20:00","-6.9","","-9.0","","85","","3","","6","","","M","99.22","","","","-10","","NA"
"2012-11-27 21:00","2012","11","27","21:00","-7.4","","-10.2","","80","","36","","6","","","M","99.25","","","","-11","","NA"
"2012-11-27 22:00","2012","11","27","22:00","-9.4","","-10.8","","90","","3","","6","","","M","99.30","","","","-13","","NA"
"2012-11-27 23:00","2012","11","27","23:00","-11.5","","-12.7","","91","","2","","6","","","M","99.30","","","","-15","","NA"
"2012-11-28 00:00","2012","11","28","00:00","-10.1","","-11.6","","89","","36","","6","","","M","99.35","","","","-14","","NA"
"2012-11-28 01:00","2012","11","28","01:00","-11.7","","-13.3","","88","","4","","9","","","M","99.44","","","","-17","","NA"
"2012-11-28 02:00","2012","11","28","02:00","-11.2","","-13.6","","82","","3","","7","","","M","99.52","","","","-15","","NA"
"2012-11-28 03:00","2012","11","28","03:00","-11.8","","-14.4","","81","","4","","13","","","M","99.63","","","","-18","","NA"
"2012-11-28 04:00","2012","11","28","04:00","-12.6","","-15.1","","82","","3","","7","","","M","99.67","","","","-17","","NA"
"2012-11-28 05:00","2012","11","28","05:00","-13.4","","-15.6","","83","","4","","7","","","M","99.70","","","","-18","","NA"
"2012-11-28 06:00","2012","11","28","06:00","-13.9","","-15.8","","86","","4","","6","","","M","99.78","","","","-18","","NA"
"2012-11-28 07:00","2012","11","28","07:00","-13.6","","-15.7","","84","","4","","7","","","M","99.81","","","","-18","","NA"
"2012-11-28 08:00","2012","11","28","08:00","-13.2","","-15.9","","80","","3","","7","","","M","99.82","","","","-18","","NA"
"2012-11-28 09:00","2012","11","28","09:00","-13.2","","-16.1","","79","","4","","7","","","M","99.87","","","","-18","","NA"
"2012-11-28 10:00","2012","11","28","10:00","-12.8","","-15.9","","78","","5","","7","","","M","99.87","","","","-17","","NA"
"2012-11-28 11:00","2012","11","28","11:00","-12.2","","-15.2","","78","","5","","6","","","M","99.91","","","","-16","","NA"
"2012-11-28 12:00","2012","11","28","12:00","-10.2","","-13.6","","76","","32","","4","","","M","99.87","","","","-13","","NA"
"2012-11-28 13:00","2012","11","28","13:00","-10.2","","-14.3","","72","","27","","7","","","M","99.80","","","","-14","","NA"
"2012-11-28 14:00","2012","11","28","14:00","-9.3","","-12.7","","76","","25","","7","","","M","99.75","","","","-13","","NA"
"2012-11-28 15:00","2012","11","28","15:00","-8.8","","-11.8","","79","","27","","7","","","M","99.67","","","","-13","","NA"
"2012-11-28 16:00","2012","11","28","16:00","-8.1","","-10.8","","81","","24","","11","","","M","99.54","","","","-13","","NA"
"2012-11-28 17:00","2012","11","28","17:00","-7.2","","-9.4","","84","","24","","13","","","M","99.46","","","","-13","","NA"
"2012-11-28 18:00","2012","11","28","18:00","-5.3","","-7.9","","82","","26","","17","","","M","99.36","","","","-11","","NA"
"2012-11-28 19:00","2012","11","28","19:00","-4.2","","-6.8","","82","","26","","15","","","M","99.26","","","","-10","","NA"
"2012-11-28 20:00","2012","11","28","20:00","-4.0","","-5.2","","91","","29","","13","","","M","99.28","","","","-9","","NA"
"2012-11-28 21:00","2012","11","28","21:00","-5.9","","-6.9","","93","","32","","9","","","M","99.36","","","","-10","","NA"
"2012-11-28 22:00","2012","11","28","22:00","-7.4","","-9.2","","87","","1","","7","","","M","99.37","","","","-11","","NA"
"2012-11-28 23:00","2012","11","28","23:00","-8.2","","-11.0","","80","","36","","6","","","M","99.43","","","","-11","","NA"
"2012-11-29 00:00","2012","11","29","00:00","-9.0","","-11.9","","79","","1","","7","","","M","99.49","","","","-13","","NA"
"2012-11-29 01:00","2012","11","29","01:00","-10.8","","-12.1","","90","","3","","6","","","M","99.55","","","","-14","","NA"
"2012-11-29 02:00","2012","11","29","02:00","-11.5","","-12.7","","91","","3","","6","","","M","99.62","","","","-15","","NA"
"2012-11-29 03:00","2012","11","29","03:00","-13.0","","-14.4","","89","","4","","6","","","M","99.75","","","","-17","","NA"
"2012-11-29 04:00","2012","11","29","04:00","-13.5","","-15.3","","86","","4","","7","","","M","99.87","","","","-18","","NA"
"2012-11-29 05:00","2012","11","29","05:00","-14.8","","-16.7","","85","","5","","7","","","M","99.92","","","","-20","","NA"
"2012-11-29 06:00","2012","11","29","06:00","-15.5","","-17.7","","83","","6","","9","","","M","99.98","","","","-21","","NA"
"2012-11-29 07:00","2012","11","29","07:00","-16.8","","-18.6","","86","","5","","7","","","M","100.10","","","","-22","","NA"
"2012-11-29 08:00","2012","11","29","08:00","-17.6","","-19.5","","85","","6","","7","","","M","100.17","","","","-23","","NA"
"2012-11-29 09:00","2012","11","29","09:00","-17.7","","-19.8","","84","","5","","7","","","M","100.23","","","","-23","","NA"
"2012-11-29 10:00","2012","11","29","10:00","-16.5","","-18.8","","82","","3","","6","","","M","100.26","","","","-21","","NA"
"2012-11-29 11:00","2012","11","29","11:00","-15.3","","-18.4","","77","","4","","7","","","M","100.37","","","","-20","","NA"
"2012-11-29 12:00","2012","11","29","12:00","-14.1","","-18.0","","72","","3","","7","","","M","100.31","","","","-19","","NA"
"2012-11-29 13:00","2012","11","29","13:00","-13.1","","-16.6","","75","","3","","11","","","M","100.30","","","","-19","","NA"
"2012-11-29 14:00","2012","11","29","14:00","-12.4","","-16.0","","74","","5","","9","","","M","100.31","","","","-18","","NA"
"2012-11-29 15:00","2012","11","29","15:00","-12.7","","-16.5","","73","","5","","11","","","M","100.33","","","","-19","","NA"
"2012-11-29 16:00","2012","11","29","16:00","-13.3","","-16.7","","76","","6","","7","","","M","100.38","","","","-18","","NA"
"2012-11-29 17:00","2012","11","29","17:00","-14.7","","-16.9","","83","","8","","7","","","M","100.45","","","","-19","","NA"
"2012-11-29 18:00","2012","11","29","18:00","-16.3","","-17.9","","87","","4","","4","","","M","100.56","","","","-19","","NA"
"2012-11-29 19:00","2012","11","29","19:00","-16.9","","-18.5","","87","","4","","6","","","M","100.61","","","","-21","","NA"
"2012-11-29 20:00","2012","11","29","20:00","-17.2","","-19.2","","84","","4","","9","","","M","100.63","","","","-23","","NA"
"2012-11-29 21:00","2012","11","29","21:00","-18.0","","-19.8","","86","","6","","7","","","M","100.68","","","","-23","","NA"
"2012-11-29 22:00","2012","11","29","22:00","-17.8","","-19.7","","85","","5","","9","","","M","100.73","","","","-24","","NA"
"2012-11-29 23:00","2012","11","29","23:00","-17.9","","-19.9","","84","","5","","9","","","M","100.70","","","","-24","","NA"
"2012-11-30 00:00","2012","11","30","00:00","-17.5","","-19.5","","84","","6","","7","","","M","100.76","","","","-23","","NA"
"2012-11-30 01:00","2012","11","30","01:00","-17.2","","-19.4","","83","","6","","11","","","M","100.78","","","","-24","","NA"
"2012-11-30 02:00","2012","11","30","02:00","-17.7","","-19.9","","83","","6","","13","","","M","100.81","","","","-26","","NA"
"2012-11-30 03:00","2012","11","30","03:00","-17.7","","-20.0","","82","","5","","15","","","M","100.83","","","","-26","","NA"
"2012-11-30 04:00","2012","11","30","04:00","-18.0","","-20.2","","83","","5","","15","","","M","100.82","","","","-27","","NA"
"2012-11-30 05:00","2012","11","30","05:00","-18.1","","-20.3","","83","","5","","15","","","M","100.81","","","","-27","","NA"
"2012-11-30 06:00","2012","11","30","06:00","-18.4","","-20.7","","82","","5","","17","","","M","100.83","","","","-28","","NA"
"2012-11-30 07:00","2012","11","30","07:00","-18.2","","-20.6","","81","","5","","15","","","M","100.83","","","","-27","","NA"
"2012-11-30 08:00","2012","11","30","08:00","-18.6","","-21.0","","81","","5","","11","","","M","100.84","","","","-26","","NA"
"2012-11-30 09:00","2012","11","30","09:00","-18.2","","-20.7","","81","","5","","13","","","M","100.83","","","","-26","","NA"
"2012-11-30 10:00","2012","11","30","10:00","-17.3","","-20.0","","79","","5","","13","","","M","100.81","","","","-25","","NA"
"2012-11-30 11:00","2012","11","30","11:00","-15.1","","-18.4","","76","","4","","11","","","M","100.81","","","","-22","","NA"
"2012-11-30 12:00","2012","11","30","12:00","-13.3","","-17.3","","72","","3","","11","","","M","100.81","","","","-20","","NA"
"2012-11-30 13:00","2012","11","30","13:00","-10.7","","-15.3","","69","","5","","7","","","M","100.66","","","","-15","","NA"
"2012-11-30 14:00","2012","11","30","14:00","-9.7","","-14.4","","69","","5","","7","","","M","100.68","","","","-14","","NA"
"2012-11-30 15:00","2012","11","30","15:00","-10.0","","-13.5","","76","","6","","9","","","M","100.55","","","","-15","","NA"
"2012-11-30 16:00","2012","11","30","16:00","-9.7","","-13.0","","77","","5","","9","","","M","100.59","","","","-15","","NA"
"2012-11-30 17:00","2012","11","30","17:00","-10.0","","-12.9","","79","","5","","9","","","M","100.59","","","","-15","","NA"
"2012-11-30 18:00","2012","11","30","18:00","-10.1","","-12.6","","82","","4","","9","","","M","100.57","","","","-15","","NA"
"2012-11-30 19:00","2012","11","30","19:00","-10.1","","-12.6","","82","","5","","9","","","M","100.54","","","","-15","","NA"
"2012-11-30 20:00","2012","11","30","20:00","-10.2","","-12.8","","81","","5","","9","","","M","100.53","","","","-15","","NA"
"2012-11-30 21:00","2012","11","30","21:00","-10.2","","-12.8","","81","","5","","9","","","M","100.48","","","","-15","","NA"
"2012-11-30 22:00","2012","11","30","22:00","-10.2","","-12.6","","83","","5","","7","","","M","100.40","","","","-14","","NA"
"2012-11-30 23:00","2012","11","30","23:00","-10.4","","-12.6","","84","","4","","7","","","M","100.29","","","","-14","","NA"
