"Station Name","PUKASKWA (AUT)"
"Province","ONTARIO"
"Latitude","48.59"
"Longitude","-86.29"
"Elevation","207.60"
"Climate Identifier","6046767"
"WMO Identifier","71750"
"TC Identifier","WCJ"
"All times are specified in Local Standard Time (LST). Add 1 hour to adjust for Daylight Saving Time where and when it is observed."

"Legend"
"E","Estimated"
"M","Missing"
"NA","Not Available"

"Date/Time","Year","Month","Day","Time","Temp (°C)","Temp Flag","Dew Point Temp (°C)","Dew Point Temp Flag","Rel Hum (%)","Rel Hum Flag","Wind Dir (10s deg)","Wind Dir Flag","Wind Spd (km/h)","Wind Spd Flag","Visibility (km)","Visibility Flag","Stn Press (kPa)","Stn Press Flag","Hmdx","Hmdx Flag","Wind Chill","Wind Chill Flag","Weather"
"2007-04-01 00:00","2007","04","01","00:00","7.0","","-12.2","","24","","9","","19","","","","98.76","","","","","","NA"
"2007-04-01 01:00","2007","04","01","01:00","7.0","","-12.6","","23","","9","","19","","","","98.66","","","","","","NA"
"2007-04-01 02:00","2007","04","01","02:00","6.5","","-12.9","","23","","10","","15","","","","98.58","","","","","","NA"
"2007-04-01 03:00","2007","04","01","03:00","5.4","","-8.1","","37","","10","","17","","","","98.49","","","","","","NA"
"2007-04-01 04:00","2007","04","01","04:00","3.5","","-1.7","","69","","8","","17","","","","98.38","","","","","","NA"
"2007-04-01 05:00","2007","04","01","05:00","1.9","","1.9","","100","","7","","13","","","","98.30","","","","","","NA"
"2007-04-01 06:00","2007","04","01","06:00","1.6","","1.4","","99","","7","","19","","","","98.08","","","","","","NA"
"2007-04-01 07:00","2007","04","01","07:00","1.3","","1.3","","100","","8","","13","","","","98.11","","","","","","NA"
"2007-04-01 08:00","2007","04","01","08:00","1.8","","1.8","","100","","8","","20","","","","97.99","","","","","","NA"
"2007-04-01 09:00","2007","04","01","09:00","2.4","","2.4","","100","","8","","15","","","","97.93","","","","","","NA"
"2007-04-01 10:00","2007","04","01","10:00","3.1","","3.1","","100","","8","","20","","","","97.83","","","","","","NA"
"2007-04-01 11:00","2007","04","01","11:00","3.6","","3.6","","100","","8","","19","","","","97.78","","","","","","NA"
"2007-04-01 12:00","2007","04","01","12:00","3.6","","3.6","","100","","5","","11","","","","97.74","","","","","","NA"
"2007-04-01 13:00","2007","04","01","13:00","5.1","","5.1","","100","","12","","13","","","","97.70","","","","","","NA"
"2007-04-01 14:00","2007","04","01","14:00","6.1","","6.1","","100","","11","","13","","","","97.62","","","","","","NA"
"2007-04-01 15:00","2007","04","01","15:00","7.1","","7.1","","100","","14","","13","","","","97.57","","","","","","NA"
"2007-04-01 16:00","2007","04","01","16:00","7.4","","5.9","","90","","22","","4","","","","97.53","","","","","","NA"
"2007-04-01 17:00","2007","04","01","17:00","8.1","","6.9","","92","","9","","15","","","","97.44","","","","","","NA"
"2007-04-01 18:00","2007","04","01","18:00","7.7","","6.5","","92","","9","","17","","","","97.42","","","","","","NA"
"2007-04-01 19:00","2007","04","01","19:00","6.6","","6.4","","99","","7","","13","","","","97.41","","","","","","NA"
"2007-04-01 20:00","2007","04","01","20:00","6.0","","6.0","","100","","7","","9","","","","97.44","","","","","","NA"
"2007-04-01 21:00","2007","04","01","21:00","5.3","","5.3","","100","","8","","15","","","","97.41","","","","","","NA"
"2007-04-01 22:00","2007","04","01","22:00","5.1","","5.1","","100","","8","","24","","","","97.35","","","","","","NA"
"2007-04-01 23:00","2007","04","01","23:00","4.8","","4.8","","100","","8","","15","","","","97.36","","","","","","NA"
"2007-04-02 00:00","2007","04","02","00:00","4.5","","4.5","","100","","6","","15","","","","97.36","","","","","","NA"
"2007-04-02 01:00","2007","04","02","01:00","4.3","","4.3","","100","","5","","9","","","","97.36","","","","","","NA"
"2007-04-02 02:00","2007","04","02","02:00","4.0","","4.0","","100","","6","","7","","","","97.36","","","","","","NA"
"2007-04-02 03:00","2007","04","02","03:00","3.9","","3.9","","100","","6","","9","","","","97.36","","","","","","NA"
"2007-04-02 04:00","2007","04","02","04:00","3.7","","3.7","","100","","7","","9","","","","97.38","","","","","","NA"
"2007-04-02 05:00","2007","04","02","05:00","3.4","","3.4","","100","","3","","11","","","","97.45","","","","","","NA"
"2007-04-02 06:00","2007","04","02","06:00","3.2","","3.2","","100","","3","","15","","","","97.50","","","","","","NA"
"2007-04-02 07:00","2007","04","02","07:00","3.2","","3.2","","100","","3","","11","","","","97.59","","","","","","NA"
"2007-04-02 08:00","2007","04","02","08:00","3.0","","3.0","","100","","1","","7","","","","97.67","","","","","","NA"
"2007-04-02 09:00","2007","04","02","09:00","2.8","","2.8","","100","","1","","7","","","","97.71","","","","","","NA"
"2007-04-02 10:00","2007","04","02","10:00","2.9","","2.9","","100","","35","","7","","","","97.82","","","","","","NA"
"2007-04-02 11:00","2007","04","02","11:00","2.8","","2.8","","100","","33","","9","","","","97.90","","","","","","NA"
"2007-04-02 12:00","2007","04","02","12:00","3.3","","3.3","","100","","33","","6","","","","98.00","","","","","","NA"
"2007-04-02 13:00","2007","04","02","13:00","3.7","","3.7","","100","","31","","7","","","","98.10","","","","","","NA"
"2007-04-02 14:00","2007","04","02","14:00","4.1","","4.1","","100","","33","","7","","","","98.16","","","","","","NA"
"2007-04-02 15:00","2007","04","02","15:00","3.3","","3.3","","100","","29","","9","","","","98.25","","","","","","NA"
"2007-04-02 16:00","2007","04","02","16:00","2.6","","2.6","","100","","32","","6","","","","98.35","","","","","","NA"
"2007-04-02 17:00","2007","04","02","17:00","3.6","","3.6","","100","","1","","2","","","","98.43","","","","","","NA"
"2007-04-02 18:00","2007","04","02","18:00","2.8","","2.8","","100","","30","","4","","","","98.55","","","","","","NA"
"2007-04-02 19:00","2007","04","02","19:00","3.6","","3.6","","100","","1","","4","","","","98.64","","","","","","NA"
"2007-04-02 20:00","2007","04","02","20:00","3.2","","3.2","","100","","2","","6","","","","98.74","","","","","","NA"
"2007-04-02 21:00","2007","04","02","21:00","2.6","","2.6","","100","","3","","6","","","","98.86","","","","","","NA"
"2007-04-02 22:00","2007","04","02","22:00","2.1","","2.1","","100","","36","","9","","","","98.91","","","","","","NA"
"2007-04-02 23:00","2007","04","02","23:00","1.2","","1.2","","100","","2","","7","","","","98.95","","","","","","NA"
"2007-04-03 00:00","2007","04","03","00:00","0.8","","0.8","","100","","1","","6","","","","99.04","","","","","","NA"
"2007-04-03 01:00","2007","04","03","01:00","0.4","","0.4","","100","","2","","6","","","","99.07","","","","","","NA"
"2007-04-03 02:00","2007","04","03","02:00","-0.1","","-0.1","","100","","4","","11","","","","99.06","","","","-4","","NA"
"2007-04-03 03:00","2007","04","03","03:00","-0.4","","-0.4","","100","","2","","9","","","","99.09","","","","-4","","NA"
"2007-04-03 04:00","2007","04","03","04:00","-1.1","","-1.4","","98","","3","","11","","","","99.05","","","","-5","","NA"
"2007-04-03 05:00","2007","04","03","05:00","-1.0","","-1.6","","96","","4","","13","","","","99.12","","","","-5","","NA"
"2007-04-03 06:00","2007","04","03","06:00","-1.2","","-1.7","","96","","7","","9","","","","99.25","","","","-4","","NA"
"2007-04-03 07:00","2007","04","03","07:00","-1.3","","-1.5","","99","","4","","9","","","","99.22","","","","-5","","NA"
"2007-04-03 08:00","2007","04","03","08:00","-1.2","","-1.6","","97","","5","","13","","","","99.19","","","","-5","","NA"
"2007-04-03 09:00","2007","04","03","09:00","-0.9","","-1.6","","95","","6","","13","","","","99.20","","","","-5","","NA"
"2007-04-03 10:00","2007","04","03","10:00","-0.6","","-1.4","","94","","7","","22","","","","99.15","","","","-6","","NA"
"2007-04-03 11:00","2007","04","03","11:00","-0.4","","-1.7","","91","","6","","30","","","","99.14","","","","-7","","NA"
"2007-04-03 12:00","2007","04","03","12:00","0.7","","-1.3","","86","","6","","24","","","","99.07","","","","","","NA"
"2007-04-03 13:00","2007","04","03","13:00","0.5","","-1.1","","89","","6","","19","","","","99.07","","","","","","NA"
"2007-04-03 14:00","2007","04","03","14:00","0.8","","-1.0","","88","","5","","19","","","","99.04","","","","","","NA"
"2007-04-03 15:00","2007","04","03","15:00","0.3","","-1.2","","90","","6","","19","","","","98.98","","","","","","NA"
"2007-04-03 16:00","2007","04","03","16:00","-0.2","","-0.2","","100","","6","","24","","","","98.92","","","","-6","","NA"
"2007-04-03 17:00","2007","04","03","17:00","-0.7","","-0.7","","100","","6","","26","","","","98.85","","","","-7","","NA"
"2007-04-03 18:00","2007","04","03","18:00","-0.9","","-0.9","","100","","5","","28","","","","98.73","","","","-7","","NA"
"2007-04-03 19:00","2007","04","03","19:00","-1.5","","-1.5","","100","","5","","20","","","","98.72","","","","-7","","NA"
"2007-04-03 20:00","2007","04","03","20:00","-2.5","","-2.5","","100","","5","","24","","","","98.83","","","","-9","","NA"
"2007-04-03 21:00","2007","04","03","21:00","-3.2","","-3.2","","100","","4","","37","","","","98.73","","","","-11","","NA"
"2007-04-03 22:00","2007","04","03","22:00","-4.1","","-4.1","","100","","5","","37","","","","98.67","","","","-13","","NA"
"2007-04-03 23:00","2007","04","03","23:00","-4.8","","-4.8","","100","","5","","46","","","","98.52","","","","-14","","NA"
"2007-04-04 00:00","2007","04","04","00:00","-5.1","","-5.1","","100","","5","","43","","","","98.44","","","","-14","","NA"
"2007-04-04 01:00","2007","04","04","01:00","-5.8","","-5.8","","100","","5","","44","","","","98.37","","","","-16","","NA"
"2007-04-04 02:00","2007","04","04","02:00","-6.4","","-6.4","","100","","5","","43","","","","98.30","","","","-16","","NA"
"2007-04-04 03:00","2007","04","04","03:00","-6.6","","-6.6","","100","","5","","46","","","","98.21","","","","-17","","NA"
"2007-04-04 04:00","2007","04","04","04:00","-7.2","","-7.2","","100","","4","","35","","","","98.20","","","","-16","","NA"
"2007-04-04 05:00","2007","04","04","05:00","-8.4","","-8.4","","100","","4","","26","","","","98.28","","","","-17","","NA"
"2007-04-04 06:00","2007","04","04","06:00","-9.9","","-9.9","","100","","4","","33","","","","98.33","","","","-20","","NA"
"2007-04-04 07:00","2007","04","04","07:00","-11.3","","-11.3","","100","","3","","32","","","","98.38","","","","-22","","NA"
"2007-04-04 08:00","2007","04","04","08:00","-12.1","","-12.2","","99","","3","","26","","","","98.39","","","","-22","","NA"
"2007-04-04 09:00","2007","04","04","09:00","-12.9","","-13.1","","98","","4","","33","","","","98.33","","","","-24","","NA"
"2007-04-04 10:00","2007","04","04","10:00","-13.2","","-13.4","","98","","3","","32","","","","98.26","","","","-24","","NA"
"2007-04-04 11:00","2007","04","04","11:00","-13.3","","-13.5","","98","","3","","37","","","","98.28","","","","-25","","NA"
"2007-04-04 12:00","2007","04","04","12:00","-13.2","","-13.4","","98","","2","","37","","","","98.26","","","","-25","","NA"
"2007-04-04 13:00","2007","04","04","13:00","-12.5","","-12.7","","98","","2","","33","","","","98.32","","","","-23","","NA"
"2007-04-04 14:00","2007","04","04","14:00","-12.5","","-12.7","","98","","2","","32","","","","98.39","","","","-23","","NA"
"2007-04-04 15:00","2007","04","04","15:00","-12.1","","-12.2","","99","","2","","37","","","","98.43","","","","-23","","NA"
"2007-04-04 16:00","2007","04","04","16:00","-11.4","","-11.5","","99","","2","","37","","","","98.52","","","","-22","","NA"
"2007-04-04 17:00","2007","04","04","17:00","-10.8","","-10.9","","99","","2","","30","","","","98.61","","","","-21","","NA"
"2007-04-04 18:00","2007","04","04","18:00","-10.5","","-10.6","","99","","1","","30","","","","98.70","","","","-20","","NA"
"2007-04-04 19:00","2007","04","04","19:00","-10.9","","-11.0","","99","","1","","32","","","","98.72","","","","-21","","NA"
"2007-04-04 20:00","2007","04","04","20:00","-10.7","","-10.8","","99","","1","","30","","","","98.78","","","","-20","","NA"
"2007-04-04 21:00","2007","04","04","21:00","-10.9","","-11.0","","99","","1","","28","","","","98.83","","","","-20","","NA"
"2007-04-04 22:00","2007","04","04","22:00","-11.2","","-11.4","","98","","1","","30","","","","98.85","","","","-21","","NA"
"2007-04-04 23:00","2007","04","04","23:00","-11.5","","-11.7","","98","","1","","30","","","","98.88","","","","-21","","NA"
"2007-04-05 00:00","2007","04","05","00:00","-11.8","","-12.1","","98","","1","","24","","","","98.89","","","","-21","","NA"
"2007-04-05 01:00","2007","04","05","01:00","-12.1","","-12.6","","96","","1","","28","","","","98.93","","","","-22","","NA"
"2007-04-05 02:00","2007","04","05","02:00","-12.5","","-13.0","","96","","36","","28","","","","98.96","","","","-22","","NA"
"2007-04-05 03:00","2007","04","05","03:00","-12.7","","-13.2","","96","","1","","26","","","","99.02","","","","-22","","NA"
"2007-04-05 04:00","2007","04","05","04:00","-13.0","","-13.6","","95","","36","","24","","","","99.04","","","","-22","","NA"
"2007-04-05 05:00","2007","04","05","05:00","-13.4","","-14.0","","95","","1","","20","","","","99.07","","","","-22","","NA"
"2007-04-05 06:00","2007","04","05","06:00","-13.8","","-14.7","","93","","1","","26","","","","99.12","","","","-24","","NA"
"2007-04-05 07:00","2007","04","05","07:00","-14.0","","-14.8","","94","","1","","20","","","","99.18","","","","-23","","NA"
"2007-04-05 08:00","2007","04","05","08:00","-13.9","","-14.7","","94","","36","","22","","","","99.22","","","","-23","","NA"
"2007-04-05 09:00","2007","04","05","09:00","-13.7","","-14.6","","93","","36","","24","","","","99.25","","","","-23","","NA"
"2007-04-05 10:00","2007","04","05","10:00","-12.9","","-14.0","","91","","36","","20","","","","99.24","","","","-22","","NA"
"2007-04-05 11:00","2007","04","05","11:00","-11.9","","-13.4","","89","","1","","20","","","","99.21","","","","-20","","NA"
"2007-04-05 12:00","2007","04","05","12:00","-11.0","","-12.9","","86","","36","","24","","","","99.19","","","","-20","","NA"
"2007-04-05 13:00","2007","04","05","13:00","-9.7","","-11.7","","85","","1","","20","","","","99.16","","","","-17","","NA"
"2007-04-05 14:00","2007","04","05","14:00","-8.9","","-11.3","","83","","36","","22","","","","99.16","","","","-17","","NA"
"2007-04-05 15:00","2007","04","05","15:00","-9.3","","-11.7","","83","","1","","26","","","","99.17","","","","-18","","NA"
"2007-04-05 16:00","2007","04","05","16:00","-9.3","","-10.8","","89","","36","","17","","","","99.22","","","","-16","","NA"
"2007-04-05 17:00","2007","04","05","17:00","-9.7","","-11.3","","88","","36","","19","","","","99.25","","","","-17","","NA"
"2007-04-05 18:00","2007","04","05","18:00","-10.0","","-11.1","","92","","1","","15","","","","99.31","","","","-17","","NA"
"2007-04-05 19:00","2007","04","05","19:00","-10.4","","-11.3","","93","","1","","17","","","","99.34","","","","-18","","NA"
"2007-04-05 20:00","2007","04","05","20:00","-10.7","","-12.2","","89","","1","","20","","","","99.34","","","","-19","","NA"
"2007-04-05 21:00","2007","04","05","21:00","-11.0","","-12.1","","92","","36","","17","","","","99.31","","","","-18","","NA"
"2007-04-05 22:00","2007","04","05","22:00","-11.4","","-12.7","","90","","1","","17","","","","99.31","","","","-19","","NA"
"2007-04-05 23:00","2007","04","05","23:00","-11.7","","-13.7","","85","","36","","22","","","","99.27","","","","-20","","NA"
"2007-04-06 00:00","2007","04","06","00:00","-12.1","","-14.1","","85","","36","","15","","","","99.23","","","","-19","","NA"
"2007-04-06 01:00","2007","04","06","01:00","-12.5","","-14.7","","84","","36","","17","","","","99.18","","","","-20","","NA"
"2007-04-06 02:00","2007","04","06","02:00","-12.9","","-15.0","","84","","36","","15","","","","99.18","","","","-20","","NA"
"2007-04-06 03:00","2007","04","06","03:00","-13.2","","-15.1","","86","","35","","15","","","","99.14","","","","-21","","NA"
"2007-04-06 04:00","2007","04","06","04:00","-13.4","","-15.2","","86","","36","","13","","","","99.10","","","","-20","","NA"
"2007-04-06 05:00","2007","04","06","05:00","-13.7","","-15.3","","88","","36","","11","","","","99.08","","","","-20","","NA"
"2007-04-06 06:00","2007","04","06","06:00","-13.9","","-15.6","","87","","1","","17","","","","99.07","","","","-22","","NA"
"2007-04-06 07:00","2007","04","06","07:00","-14.1","","-16.2","","84","","35","","19","","","","99.04","","","","-23","","NA"
"2007-04-06 08:00","2007","04","06","08:00","-13.9","","-16.4","","81","","1","","20","","","","99.00","","","","-23","","NA"
"2007-04-06 09:00","2007","04","06","09:00","-13.7","","-16.8","","77","","36","","19","","","","98.94","","","","-22","","NA"
"2007-04-06 10:00","2007","04","06","10:00","-12.9","","-16.5","","74","","1","","20","","","","98.89","","","","-22","","NA"
"2007-04-06 11:00","2007","04","06","11:00","-12.6","","-15.8","","77","","36","","22","","","","98.88","","","","-22","","NA"
"2007-04-06 12:00","2007","04","06","12:00","-12.2","","-15.1","","79","","1","","20","","","","98.82","","","","-21","","NA"
"2007-04-06 13:00","2007","04","06","13:00","-11.1","","-15.8","","68","","1","","20","","","","98.76","","","","-19","","NA"
"2007-04-06 14:00","2007","04","06","14:00","-9.9","","-15.2","","65","","1","","17","","","","98.73","","","","-17","","NA"
"2007-04-06 15:00","2007","04","06","15:00","-9.0","","-13.6","","69","","35","","17","","","","98.69","","","","-16","","NA"
"2007-04-06 16:00","2007","04","06","16:00","-9.1","","-12.2","","78","","36","","17","","","","98.68","","","","-16","","NA"
"2007-04-06 17:00","2007","04","06","17:00","-8.6","","-11.3","","81","","36","","15","","","","98.67","","","","-15","","NA"
"2007-04-06 18:00","2007","04","06","18:00","-9.0","","-10.8","","87","","1","","17","","","","98.71","","","","-16","","NA"
"2007-04-06 19:00","2007","04","06","19:00","-9.4","","-10.7","","90","","36","","15","","","","98.73","","","","-16","","NA"
"2007-04-06 20:00","2007","04","06","20:00","-9.3","","-10.4","","92","","36","","15","","","","98.73","","","","-16","","NA"
"2007-04-06 21:00","2007","04","06","21:00","-9.5","","-10.3","","94","","36","","11","","","","98.75","","","","-15","","NA"
"2007-04-06 22:00","2007","04","06","22:00","-9.5","","-11.0","","89","","1","","17","","","","98.75","","","","-17","","NA"
"2007-04-06 23:00","2007","04","06","23:00","-9.9","","-13.0","","78","","3","","20","","","","98.74","","","","-18","","NA"
"2007-04-07 00:00","2007","04","07","00:00","-10.3","","-12.3","","85","","2","","19","","","","98.72","","","","-18","","NA"
"2007-04-07 01:00","2007","04","07","01:00","-10.8","","-12.6","","87","","1","","19","","","","98.67","","","","-19","","NA"
"2007-04-07 02:00","2007","04","07","02:00","-10.9","","-12.8","","86","","1","","15","","","","98.65","","","","-18","","NA"
"2007-04-07 03:00","2007","04","07","03:00","-10.9","","-12.6","","87","","1","","13","","","","98.64","","","","-17","","NA"
"2007-04-07 04:00","2007","04","07","04:00","-11.0","","-12.7","","87","","1","","22","","","","98.63","","","","-20","","NA"
"2007-04-07 05:00","2007","04","07","05:00","-11.3","","-12.9","","88","","1","","17","","","","98.62","","","","-19","","NA"
"2007-04-07 06:00","2007","04","07","06:00","-11.5","","-13.2","","87","","1","","15","","","","98.63","","","","-19","","NA"
"2007-04-07 07:00","2007","04","07","07:00","-11.5","","-13.7","","84","","2","","15","","","","98.63","","","","-19","","NA"
"2007-04-07 08:00","2007","04","07","08:00","-10.9","","-13.5","","81","","1","","17","","","","98.63","","","","-18","","NA"
"2007-04-07 09:00","2007","04","07","09:00","-10.1","","-13.6","","76","","1","","22","","","","98.64","","","","-18","","NA"
"2007-04-07 10:00","2007","04","07","10:00","-10.2","","-13.7","","75","","2","","22","","","","98.67","","","","-18","","NA"
"2007-04-07 11:00","2007","04","07","11:00","-9.0","","-13.4","","70","","3","","24","","","","98.66","","","","-17","","NA"
"2007-04-07 12:00","2007","04","07","12:00","-7.3","","-12.2","","68","","2","","17","","","","98.65","","","","-14","","NA"
"2007-04-07 13:00","2007","04","07","13:00","-7.3","","-12.4","","67","","2","","24","","","","98.63","","","","-15","","NA"
"2007-04-07 14:00","2007","04","07","14:00","-7.1","","-11.7","","70","","1","","22","","","","98.66","","","","-15","","NA"
"2007-04-07 15:00","2007","04","07","15:00","-6.7","","-11.0","","71","","3","","19","","","","98.69","","","","-14","","NA"
"2007-04-07 16:00","2007","04","07","16:00","-5.8","","-10.4","","70","","1","","20","","","","98.69","","","","-13","","NA"
"2007-04-07 17:00","2007","04","07","17:00","-4.7","","-9.4","","70","","2","","15","","","","98.71","","","","-10","","NA"
"2007-04-07 18:00","2007","04","07","18:00","-4.2","","-7.8","","76","","1","","17","","","","98.76","","","","-10","","NA"
"2007-04-07 19:00","2007","04","07","19:00","-4.2","","-7.4","","78","","3","","13","","","","98.80","","","","-9","","NA"
"2007-04-07 20:00","2007","04","07","20:00","-4.6","","-8.8","","72","","1","","24","","","","98.89","","","","-12","","NA"
"2007-04-07 21:00","2007","04","07","21:00","-5.2","","-9.1","","74","","2","","19","","","","98.94","","","","-12","","NA"
"2007-04-07 22:00","2007","04","07","22:00","-5.5","","-9.5","","73","","2","","17","","","","98.93","","","","-12","","NA"
"2007-04-07 23:00","2007","04","07","23:00","-6.0","","-11.0","","68","","3","","15","","","","98.95","","","","-12","","NA"
"2007-04-08 00:00","2007","04","08","00:00","-6.7","","-13.8","","57","","2","","17","","","","98.94","","","","-13","","NA"
"2007-04-08 01:00","2007","04","08","01:00","-7.2","","-14.2","","57","","2","","17","","","","98.95","","","","-14","","NA"
"2007-04-08 02:00","2007","04","08","02:00","-8.1","","-14.8","","58","","1","","13","","","","98.96","","","","-14","","NA"
"2007-04-08 03:00","2007","04","08","03:00","-8.7","","-15.1","","60","","1","","11","","","","98.97","","","","-14","","NA"
"2007-04-08 04:00","2007","04","08","04:00","-9.2","","-15.5","","60","","2","","9","","","","99.00","","","","-14","","NA"
"2007-04-08 05:00","2007","04","08","05:00","-9.9","","-16.0","","61","","1","","7","","","","99.05","","","","-14","","NA"
"2007-04-08 06:00","2007","04","08","06:00","-10.0","","-15.2","","66","","36","","11","","","","99.07","","","","-16","","NA"
"2007-04-08 07:00","2007","04","08","07:00","-10.6","","-15.6","","67","","35","","9","","","","99.12","","","","-16","","NA"
"2007-04-08 08:00","2007","04","08","08:00","-9.6","","-15.7","","61","","2","","15","","","","99.12","","","","-16","","NA"
"2007-04-08 09:00","2007","04","08","09:00","-8.6","","-15.6","","57","","2","","13","","","","99.13","","","","-15","","NA"
"2007-04-08 10:00","2007","04","08","10:00","-6.8","","-14.2","","56","","3","","11","","","","99.13","","","","-12","","NA"
"2007-04-08 11:00","2007","04","08","11:00","-6.0","","-13.5","","55","","36","","13","","","","99.14","","","","-11","","NA"
"2007-04-08 12:00","2007","04","08","12:00","-4.9","","-12.4","","56","","35","","11","","","","99.14","","","","-9","","NA"
"2007-04-08 13:00","2007","04","08","13:00","-3.5","","-11.6","","53","","1","","9","","","","99.13","","","","-7","","NA"
"2007-04-08 14:00","2007","04","08","14:00","-3.0","","-10.3","","57","","1","","17","","","","99.13","","","","-9","","NA"
"2007-04-08 15:00","2007","04","08","15:00","-2.4","","-10.3","","55","","35","","15","","","","99.13","","","","-7","","NA"
"2007-04-08 16:00","2007","04","08","16:00","-1.9","","-11.5","","48","","1","","11","","","","99.12","","","","-6","","NA"
"2007-04-08 17:00","2007","04","08","17:00","-0.4","","-12.5","","40","","33","","7","","","","99.11","","","","-3","","NA"
"2007-04-08 18:00","2007","04","08","18:00","-1.0","","-13.2","","39","","32","","15","","","","99.12","","","","-6","","NA"
"2007-04-08 19:00","2007","04","08","19:00","-1.7","","-15.2","","35","","36","","7","","","","99.14","","","","-4","","NA"
"2007-04-08 20:00","2007","04","08","20:00","-3.7","","-15.2","","40","","2","","7","","","","99.18","","","","-7","","NA"
"2007-04-08 21:00","2007","04","08","21:00","-4.6","","-15.0","","44","","4","","9","","","","99.22","","","","-8","","NA"
"2007-04-08 22:00","2007","04","08","22:00","-6.6","","-13.8","","57","","4","","13","","","","99.24","","","","-12","","NA"
"2007-04-08 23:00","2007","04","08","23:00","-7.7","","-14.2","","60","","3","","13","","","","99.24","","","","-13","","NA"
"2007-04-09 00:00","2007","04","09","00:00","-8.8","","-14.2","","65","","3","","13","","","","99.25","","","","-15","","NA"
"2007-04-09 01:00","2007","04","09","01:00","-9.5","","-15.0","","64","","4","","11","","","","99.26","","","","-15","","NA"
"2007-04-09 02:00","2007","04","09","02:00","-9.8","","-15.1","","65","","4","","11","","","","99.26","","","","-15","","NA"
"2007-04-09 03:00","2007","04","09","03:00","-12.1","","-15.5","","76","","5","","13","","","","99.25","","","","-19","","NA"
"2007-04-09 04:00","2007","04","09","04:00","-12.0","","-15.4","","76","","5","","9","","","","99.26","","","","-17","","NA"
"2007-04-09 05:00","2007","04","09","05:00","-13.8","","-16.4","","81","","4","","7","","","","99.27","","","","-18","","NA"
"2007-04-09 06:00","2007","04","09","06:00","-15.0","","-16.8","","86","","3","","6","","","","99.31","","","","-19","","NA"
"2007-04-09 07:00","2007","04","09","07:00","-13.8","","-16.4","","81","","3","","13","","","","99.35","","","","-21","","NA"
"2007-04-09 08:00","2007","04","09","08:00","-9.8","","-14.4","","69","","4","","11","","","","99.37","","","","-15","","NA"
"2007-04-09 09:00","2007","04","09","09:00","-7.2","","-13.9","","59","","3","","11","","","","99.39","","","","-12","","NA"
"2007-04-09 10:00","2007","04","09","10:00","-5.3","","-14.2","","50","","3","","7","","","","99.37","","","","-9","","NA"
"2007-04-09 11:00","2007","04","09","11:00","-4.2","","-13.6","","48","","34","","9","","","","99.35","","","","-8","","NA"
"2007-04-09 12:00","2007","04","09","12:00","-3.4","","-11.7","","53","","26","","7","","","","99.30","","","","-6","","NA"
"2007-04-09 13:00","2007","04","09","13:00","-3.0","","-11.3","","53","","28","","19","","","","99.27","","","","-9","","NA"
"2007-04-09 14:00","2007","04","09","14:00","-2.6","","-10.9","","53","","29","","20","","","","99.24","","","","-9","","NA"
"2007-04-09 15:00","2007","04","09","15:00","-2.2","","-10.0","","55","","28","","19","","","","99.21","","","","-8","","NA"
"2007-04-09 16:00","2007","04","09","16:00","-1.8","","-10.1","","53","","28","","17","","","","99.18","","","","-7","","NA"
"2007-04-09 17:00","2007","04","09","17:00","-1.7","","-9.9","","53","","28","","17","","","","99.20","","","","-7","","NA"
"2007-04-09 18:00","2007","04","09","18:00","-1.8","","-9.6","","55","","29","","15","","","","99.20","","","","-7","","NA"
"2007-04-09 19:00","2007","04","09","19:00","-2.1","","-9.1","","59","","29","","11","","","","99.20","","","","-6","","NA"
"2007-04-09 20:00","2007","04","09","20:00","-2.5","","-8.8","","62","","30","","7","","","","99.23","","","","-5","","NA"
"2007-04-09 21:00","2007","04","09","21:00","-2.4","","-9.0","","60","","32","","7","","","","99.24","","","","-5","","NA"
"2007-04-09 22:00","2007","04","09","22:00","-4.8","","-8.3","","76","","5","","6","","","","99.23","","","","-8","","NA"
"2007-04-09 23:00","2007","04","09","23:00","-5.0","","-8.0","","79","","8","","6","","","","99.22","","","","-8","","NA"
"2007-04-10 00:00","2007","04","10","00:00","-5.2","","-7.7","","83","","8","","7","","","","99.23","","","","-8","","NA"
"2007-04-10 01:00","2007","04","10","01:00","-6.1","","-7.9","","87","","7","","9","","","","99.24","","","","-10","","NA"
"2007-04-10 02:00","2007","04","10","02:00","-6.0","","-8.4","","83","","6","","11","","","","99.23","","","","-11","","NA"
"2007-04-10 03:00","2007","04","10","03:00","-6.4","","-8.6","","84","","3","","13","","","","99.25","","","","-12","","NA"
"2007-04-10 04:00","2007","04","10","04:00","-7.3","","-9.4","","85","","4","","13","","","","99.28","","","","-13","","NA"
"2007-04-10 05:00","2007","04","10","05:00","-8.2","","-9.9","","88","","5","","11","","","","99.29","","","","-13","","NA"
"2007-04-10 06:00","2007","04","10","06:00","-9.0","","-10.1","","92","","5","","13","","","","99.33","","","","-15","","NA"
"2007-04-10 07:00","2007","04","10","07:00","-8.9","","-10.2","","90","","5","","11","","","","99.38","","","","-14","","NA"
"2007-04-10 08:00","2007","04","10","08:00","-6.2","","-9.4","","78","","4","","9","","","","99.39","","","","-10","","NA"
"2007-04-10 09:00","2007","04","10","09:00","-1.7","","-7.7","","64","","7","","7","","","","99.36","","","","-4","","NA"
"2007-04-10 10:00","2007","04","10","10:00","-0.8","","-9.8","","50","","24","","7","","","","99.38","","","","-3","","NA"
"2007-04-10 11:00","2007","04","10","11:00","0.3","","-6.8","","59","","25","","9","","","","99.40","","","","","","NA"
"2007-04-10 12:00","2007","04","10","12:00","0.3","","-6.1","","62","","26","","15","","","","99.39","","","","","","NA"
"2007-04-10 13:00","2007","04","10","13:00","0.6","","-8.2","","52","","26","","15","","","","99.36","","","","","","NA"
"2007-04-10 14:00","2007","04","10","14:00","0.8","","-8.3","","51","","26","","15","","","","99.37","","","","","","NA"
"2007-04-10 15:00","2007","04","10","15:00","0.7","","-6.7","","58","","25","","15","","","","99.36","","","","","","NA"
"2007-04-10 16:00","2007","04","10","16:00","0.4","","-6.8","","58","","24","","17","","","","99.37","","","","","","NA"
"2007-04-10 17:00","2007","04","10","17:00","0.1","","-7.5","","57","","22","","13","","","","99.37","","","","","","NA"
"2007-04-10 18:00","2007","04","10","18:00","0.2","","-7.9","","54","","24","","9","","","","99.36","","","","","","NA"
"2007-04-10 19:00","2007","04","10","19:00","-0.4","","-8.2","","56","","23","","9","","","","99.36","","","","-4","","NA"
"2007-04-10 20:00","2007","04","10","20:00","-1.3","","-7.3","","64","","23","","7","","","","99.40","","","","-4","","NA"
"2007-04-10 21:00","2007","04","10","21:00","-2.5","","-6.8","","72","","1","","2","","","","99.46","","","","-3","","NA"
"2007-04-10 22:00","2007","04","10","22:00","-4.4","","-6.8","","83","","7","","7","","","","99.48","","","","-8","","NA"
"2007-04-10 23:00","2007","04","10","23:00","-5.3","","-7.1","","87","","8","","7","","","","99.48","","","","-9","","NA"
"2007-04-11 00:00","2007","04","11","00:00","-5.2","","-7.7","","83","","8","","7","","","","99.50","","","","-8","","NA"
"2007-04-11 01:00","2007","04","11","01:00","-5.8","","-7.8","","86","","7","","9","","","","99.51","","","","-10","","NA"
"2007-04-11 02:00","2007","04","11","02:00","-5.1","","-8.2","","79","","7","","9","","","","99.48","","","","-9","","NA"
"2007-04-11 03:00","2007","04","11","03:00","-5.6","","-9.5","","74","","7","","15","","","","99.45","","","","-11","","NA"
"2007-04-11 04:00","2007","04","11","04:00","-6.9","","-10.2","","77","","7","","15","","","","99.47","","","","-13","","NA"
"2007-04-11 05:00","2007","04","11","05:00","-7.4","","-11.0","","75","","6","","19","","","","99.46","","","","-14","","NA"
"2007-04-11 06:00","2007","04","11","06:00","-8.1","","-11.1","","79","","4","","15","","","","99.47","","","","-14","","NA"
"2007-04-11 07:00","2007","04","11","07:00","-7.2","","-10.8","","75","","6","","15","","","","99.48","","","","-13","","NA"
"2007-04-11 08:00","2007","04","11","08:00","-4.5","","-9.4","","69","","5","","11","","","","99.45","","","","-9","","NA"
"2007-04-11 09:00","2007","04","11","09:00","-2.2","","-9.0","","60","","5","","13","","","","99.43","","","","-7","","NA"
"2007-04-11 10:00","2007","04","11","10:00","1.7","","-7.8","","49","","8","","11","","","","99.38","","","","","","NA"
"2007-04-11 11:00","2007","04","11","11:00","3.5","","-8.3","","42","","9","","17","","","","99.33","","","","","","NA"
"2007-04-11 12:00","2007","04","11","12:00","2.7","","-8.1","","45","","8","","17","","","","99.28","","","","","","NA"
"2007-04-11 13:00","2007","04","11","13:00","3.4","","-6.6","","48","","7","","19","","","","99.22","","","","","","NA"
"2007-04-11 14:00","2007","04","11","14:00","3.9","","-8.3","","41","","9","","22","","","","99.13","","","","","","NA"
"2007-04-11 15:00","2007","04","11","15:00","4.8","","-7.4","","41","","8","","24","","","","99.05","","","","","","NA"
"2007-04-11 16:00","2007","04","11","16:00","4.2","","-7.8","","41","","9","","26","","","","99.00","","","","","","NA"
"2007-04-11 17:00","2007","04","11","17:00","3.4","","-7.9","","43","","7","","28","","","","98.96","","","","","","NA"
"2007-04-11 18:00","2007","04","11","18:00","3.1","","-7.2","","47","","8","","20","","","","98.92","","","","","","NA"
"2007-04-11 19:00","2007","04","11","19:00","2.5","","-8.0","","46","","7","","20","","","","98.86","","","","","","NA"
"2007-04-11 20:00","2007","04","11","20:00","2.0","","-7.9","","48","","6","","19","","","","98.84","","","","","","NA"
"2007-04-11 21:00","2007","04","11","21:00","1.7","","-7.9","","49","","6","","22","","","","98.81","","","","","","NA"
"2007-04-11 22:00","2007","04","11","22:00","1.2","","-7.9","","51","","7","","17","","","","98.81","","","","","","NA"
"2007-04-11 23:00","2007","04","11","23:00","0.8","","-7.9","","52","","5","","15","","","","98.75","","","","","","NA"
"2007-04-12 00:00","2007","04","12","00:00","0.1","","-7.6","","56","","5","","19","","","","98.66","","","","","","NA"
"2007-04-12 01:00","2007","04","12","01:00","-0.5","","-7.4","","60","","5","","20","","","","98.60","","","","-6","","NA"
"2007-04-12 02:00","2007","04","12","02:00","-1.2","","-8.0","","60","","5","","20","","","","98.50","","","","-7","","NA"
"2007-04-12 03:00","2007","04","12","03:00","-1.5","","-8.1","","61","","4","","22","","","","98.40","","","","-7","","NA"
"2007-04-12 04:00","2007","04","12","04:00","-1.8","","-8.3","","61","","5","","17","","","","98.44","","","","-7","","NA"
"2007-04-12 05:00","2007","04","12","05:00","-2.4","","-9.0","","60","","4","","22","","","","98.37","","","","-9","","NA"
"2007-04-12 06:00","2007","04","12","06:00","-3.0","","-9.4","","61","","4","","26","","","","98.30","","","","-10","","NA"
"2007-04-12 07:00","2007","04","12","07:00"
"2007-04-12 08:00","2007","04","12","08:00","-2.9","","-9.3","","61","","4","","22","","","","98.24","","","","-9","","NA"
"2007-04-12 09:00","2007","04","12","09:00","-2.7","","-9.4","","60","","5","","30","","","","98.20","","","","-10","","NA"
"2007-04-12 10:00","2007","04","12","10:00","-1.3","","-9.1","","55","","5","","28","","","","98.15","","","","-8","","NA"
"2007-04-12 11:00","2007","04","12","11:00","-0.8","","-8.6","","55","","5","","22","","","","98.14","","","","-7","","NA"
"2007-04-12 12:00","2007","04","12","12:00","-0.5","","-5.5","","69","","4","","26","","","","98.08","","","","-7","","NA"
"2007-04-12 13:00","2007","04","12","13:00","2.1","","-5.4","","58","","4","","26","","","","98.04","","","","","","NA"
"2007-04-12 14:00","2007","04","12","14:00","2.1","","-6.0","","55","","5","","30","","","","98.09","","","","","","NA"
"2007-04-12 15:00","2007","04","12","15:00","2.3","","-5.7","","55","","3","","24","","","","98.12","","","","","","NA"
"2007-04-12 16:00","2007","04","12","16:00","1.6","","-3.5","","69","","3","","20","","","","98.19","","","","","","NA"
"2007-04-12 17:00","2007","04","12","17:00","0.6","","-2.7","","79","","3","","20","","","","98.29","","","","","","NA"
"2007-04-12 18:00","2007","04","12","18:00","-0.3","","-2.1","","88","","2","","17","","","","98.38","","","","-5","","NA"
"2007-04-12 19:00","2007","04","12","19:00","-0.6","","-1.1","","96","","1","","15","","","","98.46","","","","-5","","NA"
"2007-04-12 20:00","2007","04","12","20:00","-0.8","","-2.0","","92","","1","","17","","","","98.54","","","","-6","","NA"
"2007-04-12 21:00","2007","04","12","21:00","-1.0","","-2.5","","90","","2","","19","","","","98.58","","","","-6","","NA"
"2007-04-12 22:00","2007","04","12","22:00","-1.4","","-2.8","","90","","2","","15","","","","98.61","","","","-6","","NA"
"2007-04-12 23:00","2007","04","12","23:00","-1.7","","-3.1","","90","","3","","15","","","","98.62","","","","-7","","NA"
"2007-04-13 00:00","2007","04","13","00:00","-2.0","","-2.5","","96","","3","","6","","","","98.64","","","","-4","","NA"
"2007-04-13 01:00","2007","04","13","01:00","-2.3","","-2.6","","98","","36","","7","","","","98.69","","","","-5","","NA"
"2007-04-13 02:00","2007","04","13","02:00","-2.5","","-3.5","","93","","2","","7","","","","98.73","","","","-5","","NA"
"2007-04-13 03:00","2007","04","13","03:00","-2.8","","-5.0","","85","","2","","6","","","","98.78","","","","-5","","NA"
"2007-04-13 04:00","2007","04","13","04:00","-2.8","","-5.2","","84","","1","","6","","","","98.81","","","","-5","","NA"
"2007-04-13 05:00","2007","04","13","05:00","-2.6","","-5.7","","79","","35","","7","","","","98.87","","","","-5","","NA"
"2007-04-13 06:00","2007","04","13","06:00","-2.5","","-7.0","","71","","35","","7","","","","98.93","","","","-5","","NA"
"2007-04-13 07:00","2007","04","13","07:00","-2.5","","-8.0","","66","","36","","7","","","","99.00","","","","-5","","NA"
"2007-04-13 08:00","2007","04","13","08:00","-2.3","","-7.8","","66","","1","","15","","","","99.05","","","","-7","","NA"
"2007-04-13 09:00","2007","04","13","09:00","-1.7","","-7.4","","65","","2","","13","","","","99.11","","","","-6","","NA"
"2007-04-13 10:00","2007","04","13","10:00","-1.5","","-5.5","","74","","36","","15","","","","99.18","","","","-6","","NA"
"2007-04-13 11:00","2007","04","13","11:00","-1.1","","-2.6","","90","","36","","7","","","","99.24","","","","-4","","NA"
"2007-04-13 12:00","2007","04","13","12:00","-1.0","","-3.1","","86","","31","","15","","","","99.23","","","","-6","","NA"
"2007-04-13 13:00","2007","04","13","13:00","0.8","","-4.5","","68","","31","","11","","","","99.19","","","","","","NA"
"2007-04-13 14:00","2007","04","13","14:00","1.4","","-3.8","","68","","25","","11","","","","99.18","","","","","","NA"
"2007-04-13 15:00","2007","04","13","15:00","1.2","","-3.0","","74","","25","","15","","","","99.16","","","","","","NA"
"2007-04-13 16:00","2007","04","13","16:00","2.2","","-4.1","","63","","25","","15","","","","99.21","","","","","","NA"
"2007-04-13 17:00","2007","04","13","17:00","1.3","","-4.6","","65","","24","","22","","","","99.25","","","","","","NA"
"2007-04-13 18:00","2007","04","13","18:00","1.5","","-3.9","","67","","19","","7","","","","99.30","","","","","","NA"
"2007-04-13 19:00","2007","04","13","19:00","1.3","","-2.0","","79","","21","","7","","","","99.29","","","","","","NA"
"2007-04-13 20:00","2007","04","13","20:00","-0.2","","-1.6","","90","","18","","6","","","","99.29","","","","-2","","NA"
"2007-04-13 21:00","2007","04","13","21:00","-1.4","","-2.6","","92","","15","","6","","","","99.32","","","","-4","","NA"
"2007-04-13 22:00","2007","04","13","22:00","-2.0","","-2.9","","94","","10","","6","","","","99.31","","","","-4","","NA"
"2007-04-13 23:00","2007","04","13","23:00","-2.4","","-3.4","","93","","8","","9","","","","99.27","","","","-6","","NA"
"2007-04-14 00:00","2007","04","14","00:00","-3.3","","-4.0","","95","","7","","11","","","","99.21","","","","-8","","NA"
"2007-04-14 01:00","2007","04","14","01:00","-4.1","","-4.7","","96","","6","","11","","","","99.19","","","","-9","","NA"
"2007-04-14 02:00","2007","04","14","02:00","-5.0","","-5.1","","99","","6","","13","","","","99.20","","","","-10","","NA"
"2007-04-14 03:00","2007","04","14","03:00","-5.2","","-5.5","","98","","7","","13","","","","99.24","","","","-10","","NA"
"2007-04-14 04:00","2007","04","14","04:00","-5.5","","-5.8","","98","","8","","11","","","","99.27","","","","-10","","NA"
"2007-04-14 05:00","2007","04","14","05:00","-5.6","","-6.1","","96","","8","","13","","","","99.25","","","","-11","","NA"
"2007-04-14 06:00","2007","04","14","06:00","-5.2","","-5.7","","96","","8","","13","","","","99.20","","","","-10","","NA"
"2007-04-14 07:00","2007","04","14","07:00","-5.0","","-6.0","","93","","8","","13","","","","99.18","","","","-10","","NA"
"2007-04-14 08:00","2007","04","14","08:00","-2.7","","-5.3","","82","","6","","13","","","","99.16","","","","-7","","NA"
"2007-04-14 09:00","2007","04","14","09:00","3.1","","-5.4","","54","","7","","6","","","","99.13","","","","","","NA"
"2007-04-14 10:00","2007","04","14","10:00","4.2","","-7.4","","43","","20","","9","","","","99.13","","","","","","NA"
"2007-04-14 11:00","2007","04","14","11:00","4.2","","-5.1","","51","","20","","13","","","","99.14","","","","","","NA"
"2007-04-14 12:00","2007","04","14","12:00","2.8","","-1.7","","72","","23","","11","","","","99.16","","","","","","NA"
"2007-04-14 13:00","2007","04","14","13:00","2.5","","-0.8","","79","","23","","9","","","","99.12","","","","","","NA"
"2007-04-14 14:00","2007","04","14","14:00","3.1","","-1.3","","73","","22","","7","","","","99.07","","","","","","NA"
"2007-04-14 15:00","2007","04","14","15:00","3.2","","-1.1","","73","","23","","6","","","","98.99","","","","","","NA"
"2007-04-14 16:00","2007","04","14","16:00","2.2","","-0.4","","83","","22","","7","","","","98.95","","","","","","NA"
"2007-04-14 17:00","2007","04","14","17:00","2.6","","-0.3","","81","","21","","7","","","","98.93","","","","","","NA"
"2007-04-14 18:00","2007","04","14","18:00","1.9","","-0.3","","85","","24","","4","","","","98.91","","","","","","NA"
"2007-04-14 19:00","2007","04","14","19:00","2.0","","-0.8","","82","","35","","2","","","","98.90","","","","","","NA"
"2007-04-14 20:00","2007","04","14","20:00","1.0","","-0.9","","87","","","","0","","","","98.93","","","","","","NA"
"2007-04-14 21:00","2007","04","14","21:00","0.3","","-2.5","","81","","8","","6","","","","98.95","","","","","","NA"
"2007-04-14 22:00","2007","04","14","22:00","0.2","","-2.8","","80","","10","","2","","","","98.94","","","","","","NA"
"2007-04-14 23:00","2007","04","14","23:00","0.6","","-3.1","","76","","9","","4","","","","98.95","","","","","","NA"
"2007-04-15 00:00","2007","04","15","00:00","-0.1","","-2.9","","81","","3","","6","","","","98.95","","","","-2","","NA"
"2007-04-15 01:00","2007","04","15","01:00","-0.5","","-2.9","","84","","4","","7","","","","98.93","","","","-3","","NA"
"2007-04-15 02:00","2007","04","15","02:00","-1.0","","-3.3","","84","","6","","11","","","","98.90","","","","-5","","NA"
"2007-04-15 03:00","2007","04","15","03:00","-0.9","","-3.5","","82","","4","","13","","","","98.89","","","","-5","","NA"
"2007-04-15 04:00","2007","04","15","04:00","-1.6","","-3.7","","86","","4","","11","","","","98.89","","","","-5","","NA"
"2007-04-15 05:00","2007","04","15","05:00","-1.7","","-3.9","","85","","5","","13","","","","98.89","","","","-6","","NA"
"2007-04-15 06:00","2007","04","15","06:00","-2.2","","-4.0","","87","","5","","13","","","","98.94","","","","-7","","NA"
"2007-04-15 07:00","2007","04","15","07:00","-1.1","","-4.0","","81","","4","","15","","","","99.01","","","","-6","","NA"
"2007-04-15 08:00","2007","04","15","08:00","2.5","","-3.0","","67","","6","","11","","","","99.06","","","","","","NA"
"2007-04-15 09:00","2007","04","15","09:00","4.9","","-2.9","","57","","6","","13","","","","99.09","","","","","","NA"
"2007-04-15 10:00","2007","04","15","10:00","6.9","","-5.2","","42","","6","","13","","","","99.08","","","","","","NA"
"2007-04-15 11:00","2007","04","15","11:00","8.1","","-6.6","","35","","7","","15","","","","99.05","","","","","","NA"
"2007-04-15 12:00","2007","04","15","12:00","6.7","","-4.8","","44","","28","","13","","","","99.02","","","","","","NA"
"2007-04-15 13:00","2007","04","15","13:00","4.9","","-2.6","","58","","28","","19","","","","98.99","","","","","","NA"
"2007-04-15 14:00","2007","04","15","14:00","5.0","","-0.3","","69","","30","","11","","","","98.97","","","","","","NA"
"2007-04-15 15:00","2007","04","15","15:00","5.9","","-2.2","","56","","29","","13","","","","98.97","","","","","","NA"
"2007-04-15 16:00","2007","04","15","16:00","4.8","","-1.8","","62","","29","","26","","","","98.95","","","","","","NA"
"2007-04-15 17:00","2007","04","15","17:00","4.1","","-1.0","","69","","31","","13","","","","99.00","","","","","","NA"
"2007-04-15 18:00","2007","04","15","18:00","4.0","","-0.6","","72","","31","","9","","","","99.03","","","","","","NA"
"2007-04-15 19:00","2007","04","15","19:00","3.8","","-1.3","","69","","32","","11","","","","99.04","","","","","","NA"
"2007-04-15 20:00","2007","04","15","20:00","2.0","","-0.8","","82","","32","","9","","","","99.11","","","","","","NA"
"2007-04-15 21:00","2007","04","15","21:00","-0.1","","-2.2","","86","","9","","6","","","","99.14","","","","-2","","NA"
"2007-04-15 22:00","2007","04","15","22:00","-0.8","","-2.5","","88","","9","","6","","","","99.16","","","","-3","","NA"
"2007-04-15 23:00","2007","04","15","23:00","-1.1","","-3.3","","85","","9","","6","","","","99.18","","","","-3","","NA"
"2007-04-16 00:00","2007","04","16","00:00","-2.0","","-4.7","","82","","7","","9","","","","99.19","","","","-5","","NA"
"2007-04-16 01:00","2007","04","16","01:00","-1.2","","-7.6","","62","","7","","9","","","","99.21","","","","-4","","NA"
"2007-04-16 02:00","2007","04","16","02:00","-0.6","","-9.4","","51","","6","","11","","","","99.22","","","","-4","","NA"
"2007-04-16 03:00","2007","04","16","03:00","-1.8","","-8.4","","61","","5","","11","","","","99.23","","","","-6","","NA"
"2007-04-16 04:00","2007","04","16","04:00","-2.1","","-9.1","","59","","5","","13","","","","99.23","","","","-7","","NA"
"2007-04-16 05:00","2007","04","16","05:00","-3.2","","-8.7","","66","","5","","11","","","","99.24","","","","-7","","NA"
"2007-04-16 06:00","2007","04","16","06:00","-3.5","","-8.9","","66","","5","","15","","","","99.26","","","","-9","","NA"
"2007-04-16 07:00","2007","04","16","07:00","-2.0","","-9.0","","59","","5","","13","","","","99.31","","","","-6","","NA"
"2007-04-16 08:00","2007","04","16","08:00","1.9","","-8.2","","47","","6","","11","","","","99.39","","","","","","NA"
"2007-04-16 09:00","2007","04","16","09:00","6.6","","-6.1","","40","","10","","6","","","","99.36","","","","","","NA"
"2007-04-16 10:00","2007","04","16","10:00","5.6","","-4.8","","47","","27","","9","","","","99.36","","","","","","NA"
"2007-04-16 11:00","2007","04","16","11:00","5.8","","-6.7","","40","","28","","13","","","","99.32","","","","","","NA"
"2007-04-16 12:00","2007","04","16","12:00","7.3","","-8.3","","32","","29","","11","","","","99.27","","","","","","NA"
"2007-04-16 13:00","2007","04","16","13:00","6.9","","-7.5","","35","","28","","15","","","","99.16","","","","","","NA"
"2007-04-16 14:00","2007","04","16","14:00","4.6","","-1.9","","63","","31","","19","","","","99.14","","","","","","NA"
"2007-04-16 15:00","2007","04","16","15:00","4.4","","-2.4","","61","","31","","17","","","","99.09","","","","","","NA"
"2007-04-16 16:00","2007","04","16","16:00","4.7","","-2.7","","59","","31","","11","","","","99.05","","","","","","NA"
"2007-04-16 17:00","2007","04","16","17:00","5.5","","-2.5","","56","","30","","6","","","","99.04","","","","","","NA"
"2007-04-16 18:00","2007","04","16","18:00","4.4","","-2.7","","60","","26","","6","","","","99.03","","","","","","NA"
"2007-04-16 19:00","2007","04","16","19:00","4.0","","-1.8","","66","","30","","4","","","","99.03","","","","","","NA"
"2007-04-16 20:00","2007","04","16","20:00","2.3","","-2.5","","71","","18","","4","","","","99.03","","","","","","NA"
"2007-04-16 21:00","2007","04","16","21:00","0.6","","-4.6","","68","","9","","6","","","","99.03","","","","","","NA"
"2007-04-16 22:00","2007","04","16","22:00","0.0","","-5.8","","65","","8","","11","","","","98.96","","","","-4","","NA"
"2007-04-16 23:00","2007","04","16","23:00","-0.9","","-5.9","","69","","6","","11","","","","98.98","","","","-5","","NA"
"2007-04-17 00:00","2007","04","17","00:00","-0.9","","-6.4","","66","","7","","17","","","","98.93","","","","-6","","NA"
"2007-04-17 01:00","2007","04","17","01:00","-0.4","","-6.7","","62","","6","","15","","","","98.93","","","","-5","","NA"
"2007-04-17 02:00","2007","04","17","02:00","-0.4","","-6.3","","64","","5","","9","","","","98.99","","","","-4","","NA"
"2007-04-17 03:00","2007","04","17","03:00","-0.3","","-5.9","","66","","2","","9","","","","99.01","","","","-3","","NA"
"2007-04-17 04:00","2007","04","17","04:00","0.2","","-5.3","","66","","8","","7","","","","99.05","","","","","","NA"
"2007-04-17 05:00","2007","04","17","05:00","0.3","","-4.9","","68","","8","","7","","","","99.02","","","","","","NA"
"2007-04-17 06:00","2007","04","17","06:00","0.1","","-5.0","","69","","36","","4","","","","99.07","","","","","","NA"
"2007-04-17 07:00","2007","04","17","07:00","0.5","","-4.3","","70","","7","","6","","","","99.09","","","","","","NA"
"2007-04-17 08:00","2007","04","17","08:00","1.2","","-4.3","","67","","7","","6","","","","99.11","","","","","","NA"
"2007-04-17 09:00","2007","04","17","09:00","2.8","","-4.1","","60","","1","","7","","","","99.14","","","","","","NA"
"2007-04-17 10:00","2007","04","17","10:00","5.2","","-3.5","","53","","1","","6","","","","99.15","","","","","","NA"
"2007-04-17 11:00","2007","04","17","11:00","8.6","","-2.0","","47","","2","","7","","","","99.18","","","","","","NA"
"2007-04-17 12:00","2007","04","17","12:00","10.1","","-2.5","","41","","2","","13","","","","99.19","","","","","","NA"
"2007-04-17 13:00","2007","04","17","13:00","12.4","","-3.2","","34","","5","","17","","","","99.17","","","","","","NA"
"2007-04-17 14:00","2007","04","17","14:00","13.5","","-4.1","","29","","4","","13","","","","99.17","","","","","","NA"
"2007-04-17 15:00","2007","04","17","15:00","15.3","","-6.1","","22","","4","","17","","","","99.12","","","","","","NA"
"2007-04-17 16:00","2007","04","17","16:00","15.1","","-7.7","","20","","5","","22","","","","99.14","","","","","","NA"
"2007-04-17 17:00","2007","04","17","17:00","14.5","","-6.5","","23","","3","","19","","","","99.17","","","","","","NA"
"2007-04-17 18:00","2007","04","17","18:00","13.4","","-5.7","","26","","3","","15","","","","99.24","","","","","","NA"
"2007-04-17 19:00","2007","04","17","19:00","12.2","","-7.0","","25","","5","","20","","","","99.31","","","","","","NA"
"2007-04-17 20:00","2007","04","17","20:00","10.3","","-8.3","","26","","5","","20","","","","99.38","","","","","","NA"
"2007-04-17 21:00","2007","04","17","21:00","9.4","","-7.3","","30","","4","","17","","","","99.46","","","","","","NA"
"2007-04-17 22:00","2007","04","17","22:00","8.1","","-6.7","","34","","3","","15","","","","99.49","","","","","","NA"
"2007-04-17 23:00","2007","04","17","23:00","6.7","","-4.4","","45","","3","","17","","","","99.55","","","","","","NA"
"2007-04-18 00:00","2007","04","18","00:00","5.6","","-1.7","","59","","3","","15","","","","99.57","","","","","","NA"
"2007-04-18 01:00","2007","04","18","01:00","5.1","","-1.0","","65","","5","","19","","","","99.56","","","","","","NA"
"2007-04-18 02:00","2007","04","18","02:00","3.7","","-1.1","","71","","4","","13","","","","99.55","","","","","","NA"
"2007-04-18 03:00","2007","04","18","03:00","2.7","","-0.8","","78","","4","","13","","","","99.56","","","","","","NA"
"2007-04-18 04:00","2007","04","18","04:00","2.2","","-1.2","","78","","4","","11","","","","99.57","","","","","","NA"
"2007-04-18 05:00","2007","04","18","05:00","2.0","","-1.6","","77","","5","","22","","","","99.58","","","","","","NA"
"2007-04-18 06:00","2007","04","18","06:00","1.6","","-1.7","","79","","5","","26","","","","99.61","","","","","","NA"
"2007-04-18 07:00","2007","04","18","07:00","1.9","","-1.7","","77","","5","","19","","","","99.67","","","","","","NA"
"2007-04-18 08:00","2007","04","18","08:00","4.3","","-0.9","","69","","5","","19","","","","99.68","","","","","","NA"
"2007-04-18 09:00","2007","04","18","09:00","6.7","","-0.6","","60","","6","","20","","","","99.67","","","","","","NA"
"2007-04-18 10:00","2007","04","18","10:00","9.3","","-0.5","","50","","5","","19","","","","99.61","","","","","","NA"
"2007-04-18 11:00","2007","04","18","11:00","9.9","","-1.1","","46","","5","","24","","","","99.60","","","","","","NA"
"2007-04-18 12:00","2007","04","18","12:00","10.1","","-0.4","","48","","8","","22","","","","99.58","","","","","","NA"
"2007-04-18 13:00","2007","04","18","13:00","11.1","","0.4","","48","","8","","22","","","","99.54","","","","","","NA"
"2007-04-18 14:00","2007","04","18","14:00","11.6","","0.5","","46","","6","","22","","","","99.52","","","","","","NA"
"2007-04-18 15:00","2007","04","18","15:00","12.0","","0.7","","46","","7","","19","","","","99.48","","","","","","NA"
"2007-04-18 16:00","2007","04","18","16:00","12.0","","0.8","","46","","5","","19","","","","99.47","","","","","","NA"
"2007-04-18 17:00","2007","04","18","17:00","11.4","","0.8","","48","","9","","20","","","","99.48","","","","","","NA"
"2007-04-18 18:00","2007","04","18","18:00","11.2","","1.1","","50","","7","","13","","","","99.50","","","","","","NA"
"2007-04-18 19:00","2007","04","18","19:00","10.2","","1.5","","55","","6","","17","","","","99.52","","","","","","NA"
"2007-04-18 20:00","2007","04","18","20:00","9.0","","1.8","","61","","5","","15","","","","99.56","","","","","","NA"
"2007-04-18 21:00","2007","04","18","21:00","7.9","","1.7","","65","","5","","20","","","","99.55","","","","","","NA"
"2007-04-18 22:00","2007","04","18","22:00","6.9","","1.5","","68","","6","","13","","","","99.58","","","","","","NA"
"2007-04-18 23:00","2007","04","18","23:00","5.9","","1.4","","73","","6","","13","","","","99.58","","","","","","NA"
"2007-04-19 00:00","2007","04","19","00:00","4.6","","1.1","","78","","7","","11","","","","99.60","","","","","","NA"
"2007-04-19 01:00","2007","04","19","01:00","4.3","","0.7","","77","","7","","15","","","","99.59","","","","","","NA"
"2007-04-19 02:00","2007","04","19","02:00","3.8","","0.4","","78","","7","","17","","","","99.59","","","","","","NA"
"2007-04-19 03:00","2007","04","19","03:00","3.1","","0.0","","80","","5","","17","","","","99.60","","","","","","NA"
"2007-04-19 04:00","2007","04","19","04:00","3.4","","-0.1","","78","","5","","15","","","","99.61","","","","","","NA"
"2007-04-19 05:00","2007","04","19","05:00","3.3","","-0.4","","77","","6","","19","","","","99.64","","","","","","NA"
"2007-04-19 06:00","2007","04","19","06:00","3.1","","-0.5","","77","","5","","19","","","","99.68","","","","","","NA"
"2007-04-19 07:00","2007","04","19","07:00","3.9","","-0.3","","74","","6","","19","","","","99.74","","","","","","NA"
"2007-04-19 08:00","2007","04","19","08:00","6.4","","0.1","","64","","7","","17","","","","99.78","","","","","","NA"
"2007-04-19 09:00","2007","04","19","09:00","8.9","","0.3","","55","","7","","15","","","","99.80","","","","","","NA"
"2007-04-19 10:00","2007","04","19","10:00","11.8","","-0.6","","42","","7","","13","","","","99.80","","","","","","NA"
"2007-04-19 11:00","2007","04","19","11:00","14.0","","-1.0","","36","","7","","19","","","","99.78","","","","","","NA"
"2007-04-19 12:00","2007","04","19","12:00","14.9","","-0.7","","34","","8","","17","","","","99.77","","","","","","NA"
"2007-04-19 13:00","2007","04","19","13:00","16.7","","0.8","","34","","8","","11","","","","99.74","","","","","","NA"
"2007-04-19 14:00","2007","04","19","14:00","17.6","","0.2","","31","","8","","9","","","","99.71","","","","","","NA"
"2007-04-19 15:00","2007","04","19","15:00","13.2","","0.4","","41","","31","","9","","","","99.70","","","","","","NA"
"2007-04-19 16:00","2007","04","19","16:00","11.7","","0.3","","45","","31","","17","","","","99.68","","","","","","NA"
"2007-04-19 17:00","2007","04","19","17:00","11.5","","0.8","","48","","31","","17","","","","99.68","","","","","","NA"
"2007-04-19 18:00","2007","04","19","18:00","11.7","","0.7","","47","","32","","15","","","","99.69","","","","","","NA"
"2007-04-19 19:00","2007","04","19","19:00","11.4","","1.1","","49","","32","","13","","","","99.69","","","","","","NA"
"2007-04-19 20:00","2007","04","19","20:00","10.8","","1.4","","52","","5","","6","","","","99.69","","","","","","NA"
"2007-04-19 21:00","2007","04","19","21:00","6.1","","0.9","","69","","17","","11","","","","99.75","","","","","","NA"
"2007-04-19 22:00","2007","04","19","22:00","5.9","","0.7","","69","","17","","2","","","","99.79","","","","","","NA"
"2007-04-19 23:00","2007","04","19","23:00","3.9","","-1.5","","68","","6","","9","","","","99.80","","","","","","NA"
"2007-04-20 00:00","2007","04","20","00:00","5.2","","-3.2","","55","","4","","15","","","","99.79","","","","","","NA"
"2007-04-20 01:00","2007","04","20","01:00","4.3","","-3.4","","57","","5","","17","","","","99.79","","","","","","NA"
"2007-04-20 02:00","2007","04","20","02:00","3.7","","-3.3","","60","","5","","19","","","","99.79","","","","","","NA"
"2007-04-20 03:00","2007","04","20","03:00","3.4","","-3.4","","61","","5","","15","","","","99.83","","","","","","NA"
"2007-04-20 04:00","2007","04","20","04:00","1.7","","-3.4","","69","","3","","13","","","","99.85","","","","","","NA"
"2007-04-20 05:00","2007","04","20","05:00","2.3","","-3.2","","67","","4","","17","","","","99.87","","","","","","NA"
"2007-04-20 06:00","2007","04","20","06:00","2.5","","-3.1","","67","","5","","15","","","","99.93","","","","","","NA"
"2007-04-20 07:00","2007","04","20","07:00","4.1","","-3.0","","60","","5","","15","","","","99.96","","","","","","NA"
"2007-04-20 08:00","2007","04","20","08:00","8.4","","-1.9","","48","","6","","11","","","","99.99","","","","","","NA"
"2007-04-20 09:00","2007","04","20","09:00","11.1","","-2.5","","38","","19","","4","","","","100.02","","","","","","NA"
"2007-04-20 10:00","2007","04","20","10:00","6.3","","-0.3","","63","","24","","6","","","","100.04","","","","","","NA"
"2007-04-20 11:00","2007","04","20","11:00","10.3","","-1.7","","43","","17","","7","","","","100.04","","","","","","NA"
"2007-04-20 12:00","2007","04","20","12:00","11.6","","-1.5","","40","","17","","11","","","","100.00","","","","","","NA"
"2007-04-20 13:00","2007","04","20","13:00","12.4","","-1.3","","39","","18","","7","","","","99.97","","","","","","NA"
"2007-04-20 14:00","2007","04","20","14:00","11.0","","-1.9","","41","","20","","9","","","","99.94","","","","","","NA"
"2007-04-20 15:00","2007","04","20","15:00","10.0","","-1.7","","44","","21","","7","","","","99.86","","","","","","NA"
"2007-04-20 16:00","2007","04","20","16:00","8.9","","-2.0","","46","","22","","6","","","","99.84","","","","","","NA"
"2007-04-20 17:00","2007","04","20","17:00","8.8","","-2.0","","47","","22","","6","","","","99.83","","","","","","NA"
"2007-04-20 18:00","2007","04","20","18:00","7.8","","-1.3","","53","","24","","9","","","","99.81","","","","","","NA"
"2007-04-20 19:00","2007","04","20","19:00","7.3","","-1.1","","55","","23","","6","","","","99.74","","","","","","NA"
"2007-04-20 20:00","2007","04","20","20:00","6.0","","-0.4","","63","","9","","6","","","","99.69","","","","","","NA"
"2007-04-20 21:00","2007","04","20","21:00","4.9","","-0.7","","67","","8","","9","","","","99.70","","","","","","NA"
"2007-04-20 22:00","2007","04","20","22:00","3.9","","-0.3","","74","","7","","11","","","","99.71","","","","","","NA"
"2007-04-20 23:00","2007","04","20","23:00","3.6","","-0.6","","74","","6","","13","","","","99.67","","","","","","NA"
"2007-04-21 00:00","2007","04","21","00:00","3.3","","-0.2","","78","","8","","9","","","","99.68","","","","","","NA"
"2007-04-21 01:00","2007","04","21","01:00","3.0","","-0.3","","79","","7","","9","","","","99.65","","","","","","NA"
"2007-04-21 02:00","2007","04","21","02:00","3.3","","-0.3","","77","","6","","9","","","","99.60","","","","","","NA"
"2007-04-21 03:00","2007","04","21","03:00","3.7","","0.0","","77","","7","","11","","","","99.55","","","","","","NA"
"2007-04-21 04:00","2007","04","21","04:00","3.8","","-0.3","","75","","7","","7","","","","99.56","","","","","","NA"
"2007-04-21 05:00","2007","04","21","05:00","2.8","","-0.3","","80","","6","","7","","","","99.54","","","","","","NA"
"2007-04-21 06:00","2007","04","21","06:00","3.7","","0.1","","77","","9","","4","","","","99.61","","","","","","NA"
"2007-04-21 07:00","2007","04","21","07:00","7.0","","1.4","","67","","16","","9","","","","99.59","","","","","","NA"
"2007-04-21 08:00","2007","04","21","08:00","8.3","","1.5","","62","","17","","15","","","","99.57","","","","","","NA"
"2007-04-21 09:00","2007","04","21","09:00","7.5","","2.3","","70","","17","","24","","","","99.53","","","","","","NA"
"2007-04-21 10:00","2007","04","21","10:00","7.7","","2.4","","69","","17","","24","","","","99.52","","","","","","NA"
"2007-04-21 11:00","2007","04","21","11:00","7.7","","2.2","","68","","17","","24","","","","99.47","","","","","","NA"
"2007-04-21 12:00","2007","04","21","12:00","9.0","","3.2","","67","","17","","30","","","","99.37","","","","","","NA"
"2007-04-21 13:00","2007","04","21","13:00","7.2","","2.9","","74","","18","","20","","","","99.33","","","","","","NA"
"2007-04-21 14:00","2007","04","21","14:00","8.3","","3.3","","71","","17","","28","","","","99.26","","","","","","NA"
"2007-04-21 15:00","2007","04","21","15:00","10.6","","3.8","","63","","17","","24","","","","99.17","","","","","","NA"
"2007-04-21 16:00","2007","04","21","16:00","12.1","","4.3","","59","","17","","28","","","","99.04","","","","","","NA"
"2007-04-21 17:00","2007","04","21","17:00","11.4","","4.2","","61","","17","","26","","","","98.94","","","","","","NA"
"2007-04-21 18:00","2007","04","21","18:00","12.5","","4.5","","58","","17","","28","","","","98.84","","","","","","NA"
"2007-04-21 19:00","2007","04","21","19:00","12.7","","4.0","","55","","17","","30","","","","98.76","","","","","","NA"
"2007-04-21 20:00","2007","04","21","20:00","11.9","","3.0","","54","","17","","33","","","","98.72","","","","","","NA"
"2007-04-21 21:00","2007","04","21","21:00","12.0","","2.8","","53","","17","","37","","","","98.68","","","","","","NA"
"2007-04-21 22:00","2007","04","21","22:00","9.4","","2.4","","62","","17","","35","","","","98.68","","","","","","NA"
"2007-04-21 23:00","2007","04","21","23:00","8.8","","3.0","","67","","17","","26","","","","98.68","","","","","","NA"
"2007-04-22 00:00","2007","04","22","00:00","10.3","","2.4","","58","","17","","37","","","","98.55","","","","","","NA"
"2007-04-22 01:00","2007","04","22","01:00","10.6","","2.9","","59","","17","","32","","","","98.44","","","","","","NA"
"2007-04-22 02:00","2007","04","22","02:00","8.6","","2.8","","67","","17","","33","","","","98.44","","","","","","NA"
"2007-04-22 03:00","2007","04","22","03:00","9.2","","3.2","","66","","17","","33","","","","98.43","","","","","","NA"
"2007-04-22 04:00","2007","04","22","04:00","8.0","","3.2","","72","","17","","28","","","","98.42","","","","","","NA"
"2007-04-22 05:00","2007","04","22","05:00","8.6","","3.4","","70","","17","","24","","","","98.34","","","","","","NA"
"2007-04-22 06:00","2007","04","22","06:00","8.4","","3.6","","72","","17","","22","","","","98.41","","","","","","NA"
"2007-04-22 07:00","2007","04","22","07:00","7.9","","3.4","","73","","19","","19","","","","98.40","","","","","","NA"
"2007-04-22 08:00","2007","04","22","08:00","7.8","","3.5","","74","","16","","17","","","","98.33","","","","","","NA"
"2007-04-22 09:00","2007","04","22","09:00","9.2","","3.8","","69","","16","","24","","","","98.20","","","","","","NA"
"2007-04-22 10:00","2007","04","22","10:00","9.4","","4.0","","69","","17","","26","","","","98.13","","","","","","NA"
"2007-04-22 11:00","2007","04","22","11:00","9.6","","4.1","","69","","17","","33","","","","98.12","","","","","","NA"
"2007-04-22 12:00","2007","04","22","12:00","8.5","","4.3","","75","","17","","26","","","","98.14","","","","","","NA"
"2007-04-22 13:00","2007","04","22","13:00","8.9","","4.5","","74","","18","","20","","","","98.18","","","","","","NA"
"2007-04-22 14:00","2007","04","22","14:00","9.7","","4.7","","71","","17","","19","","","","98.15","","","","","","NA"
"2007-04-22 15:00","2007","04","22","15:00","8.8","","4.8","","76","","18","","22","","","","98.12","","","","","","NA"
"2007-04-22 16:00","2007","04","22","16:00","7.3","","4.6","","83","","17","","19","","","","98.12","","","","","","NA"
"2007-04-22 17:00","2007","04","22","17:00","8.7","","5.4","","80","","17","","9","","","","98.08","","","","","","NA"
"2007-04-22 18:00","2007","04","22","18:00","10.9","","5.6","","70","","20","","2","","","","98.01","","","","","","NA"
"2007-04-22 19:00","2007","04","22","19:00","8.8","","5.8","","81","","30","","2","","","","98.04","","","","","","NA"
"2007-04-22 20:00","2007","04","22","20:00","9.1","","6.1","","81","","5","","6","","","","97.97","","","","","","NA"
"2007-04-22 21:00","2007","04","22","21:00","10.0","","7.0","","82","","5","","11","","","","97.98","","","","","","NA"
"2007-04-22 22:00","2007","04","22","22:00","10.5","","7.4","","81","","2","","11","","","","97.97","","","","","","NA"
"2007-04-22 23:00","2007","04","22","23:00","11.0","","10.1","","94","","35","","9","","","","98.01","","","","","","NA"
"2007-04-23 00:00","2007","04","23","00:00","10.5","","10.5","","100","","3","","13","","","","97.98","","","","","","NA"
"2007-04-23 01:00","2007","04","23","01:00","9.5","","9.5","","100","","4","","13","","","","97.97","","","","","","NA"
"2007-04-23 02:00","2007","04","23","02:00","9.2","","9.2","","100","","36","","9","","","","97.93","","","","","","NA"
"2007-04-23 03:00","2007","04","23","03:00","8.8","","8.8","","100","","5","","11","","","","97.91","","","","","","NA"
"2007-04-23 04:00","2007","04","23","04:00","8.5","","8.5","","100","","2","","13","","","","97.93","","","","","","NA"
"2007-04-23 05:00","2007","04","23","05:00","8.5","","8.5","","100","","3","","15","","","","97.93","","","","","","NA"
"2007-04-23 06:00","2007","04","23","06:00","8.4","","8.4","","100","","4","","7","","","","98.01","","","","","","NA"
"2007-04-23 07:00","2007","04","23","07:00","8.4","","8.4","","100","","6","","17","","","","97.91","","","","","","NA"
"2007-04-23 08:00","2007","04","23","08:00","8.4","","8.4","","100","","1","","9","","","","98.05","","","","","","NA"
"2007-04-23 09:00","2007","04","23","09:00","8.2","","8.2","","100","","36","","13","","","","98.13","","","","","","NA"
"2007-04-23 10:00","2007","04","23","10:00","8.2","","8.2","","100","","1","","13","","","","98.17","","","","","","NA"
"2007-04-23 11:00","2007","04","23","11:00","10.1","","8.8","","92","","4","","17","","","","98.21","","","","","","NA"
"2007-04-23 12:00","2007","04","23","12:00","10.8","","7.6","","81","","1","","17","","","","98.30","","","","","","NA"
"2007-04-23 13:00","2007","04","23","13:00","10.1","","6.0","","76","","33","","9","","","","98.41","","","","","","NA"
"2007-04-23 14:00","2007","04","23","14:00","10.4","","4.8","","68","","32","","20","","","","98.47","","","","","","NA"
"2007-04-23 15:00","2007","04","23","15:00","10.8","","3.4","","60","","32","","20","","","","98.54","","","","","","NA"
"2007-04-23 16:00","2007","04","23","16:00","11.1","","3.0","","57","","28","","9","","","","98.59","","","","","","NA"
"2007-04-23 17:00","2007","04","23","17:00","6.1","","2.6","","78","","26","","9","","","","98.64","","","","","","NA"
"2007-04-23 18:00","2007","04","23","18:00","7.8","","1.8","","66","","31","","6","","","","98.71","","","","","","NA"
"2007-04-23 19:00","2007","04","23","19:00","8.5","","-1.5","","49","","32","","13","","","","98.79","","","","","","NA"
"2007-04-23 20:00","2007","04","23","20:00","7.9","","-4.0","","43","","34","","11","","","","98.90","","","","","","NA"
"2007-04-23 21:00","2007","04","23","21:00","6.6","","-3.3","","49","","33","","7","","","","98.99","","","","","","NA"
"2007-04-23 22:00","2007","04","23","22:00","3.2","","1.6","","89","","31","","6","","","","99.08","","","","","","NA"
"2007-04-23 23:00","2007","04","23","23:00","2.3","","1.2","","92","","29","","2","","","","99.14","","","","","","NA"
"2007-04-24 00:00","2007","04","24","00:00","1.3","","0.2","","92","","35","","6","","","","99.21","","","","","","NA"
"2007-04-24 01:00","2007","04","24","01:00","1.1","","-1.6","","82","","4","","9","","","","99.25","","","","","","NA"
"2007-04-24 02:00","2007","04","24","02:00","1.9","","-3.8","","66","","8","","7","","","","99.29","","","","","","NA"
"2007-04-24 03:00","2007","04","24","03:00","1.2","","-5.0","","63","","5","","9","","","","99.37","","","","","","NA"
"2007-04-24 04:00","2007","04","24","04:00","0.7","","-4.9","","66","","","","0","","","","99.43","","","","","","NA"
"2007-04-24 05:00","2007","04","24","05:00","-0.1","","-4.6","","72","","7","","6","","","","99.47","","","","-2","","NA"
"2007-04-24 06:00","2007","04","24","06:00","0.1","","-5.0","","69","","4","","15","","","","99.53","","","","","","NA"
"2007-04-24 07:00","2007","04","24","07:00","2.0","","-5.0","","60","","6","","9","","","","99.57","","","","","","NA"
"2007-04-24 08:00","2007","04","24","08:00","3.7","","-5.6","","51","","5","","11","","","","99.60","","","","","","NA"
"2007-04-24 09:00","2007","04","24","09:00","4.8","","-6.1","","45","","4","","7","","","","99.65","","","","","","NA"
"2007-04-24 10:00","2007","04","24","10:00","5.0","","-4.0","","52","","27","","11","","","","99.66","","","","","","NA"
"2007-04-24 11:00","2007","04","24","11:00","3.7","","-2.9","","62","","26","","19","","","","99.65","","","","","","NA"
"2007-04-24 12:00","2007","04","24","12:00","3.5","","-1.2","","71","","25","","15","","","","99.68","","","","","","NA"
"2007-04-24 13:00","2007","04","24","13:00","4.0","","-0.2","","74","","23","","9","","","","99.65","","","","","","NA"
"2007-04-24 14:00","2007","04","24","14:00","4.8","","-1.4","","64","","25","","9","","","","99.62","","","","","","NA"
"2007-04-24 15:00","2007","04","24","15:00","4.9","","-2.5","","59","","26","","17","","","","99.60","","","","","","NA"
"2007-04-24 16:00","2007","04","24","16:00","4.5","","-1.8","","64","","25","","7","","","","99.60","","","","","","NA"
"2007-04-24 17:00","2007","04","24","17:00","4.8","","-2.2","","60","","18","","4","","","","99.55","","","","","","NA"
"2007-04-24 18:00","2007","04","24","18:00","4.5","","-2.3","","61","","24","","6","","","","99.55","","","","","","NA"
"2007-04-24 19:00","2007","04","24","19:00","4.4","","-1.9","","64","","24","","2","","","","99.54","","","","","","NA"
"2007-04-24 20:00","2007","04","24","20:00","2.4","","-1.5","","75","","17","","6","","","","99.52","","","","","","NA"
"2007-04-24 21:00","2007","04","24","21:00","0.5","","-2.2","","82","","11","","2","","","","99.51","","","","","","NA"
"2007-04-24 22:00","2007","04","24","22:00","-1.0","","-2.2","","92","","7","","7","","","","99.49","","","","-4","","NA"
"2007-04-24 23:00","2007","04","24","23:00","-1.3","","-2.3","","93","","8","","7","","","","99.58","","","","-4","","NA"
"2007-04-25 00:00","2007","04","25","00:00","-2.2","","-2.6","","97","","7","","9","","","","99.62","","","","-6","","NA"
"2007-04-25 01:00","2007","04","25","01:00","-2.1","","-2.9","","94","","4","","7","","","","99.60","","","","-5","","NA"
"2007-04-25 02:00","2007","04","25","02:00","-2.9","","-3.2","","98","","7","","13","","","","99.61","","","","-8","","NA"
"2007-04-25 03:00","2007","04","25","03:00","-2.8","","-3.3","","96","","6","","15","","","","99.54","","","","-8","","NA"
"2007-04-25 04:00","2007","04","25","04:00","-3.4","","-4.1","","95","","4","","11","","","","99.57","","","","-8","","NA"
"2007-04-25 05:00","2007","04","25","05:00","-3.8","","-4.2","","97","","4","","9","","","","99.58","","","","-8","","NA"
"2007-04-25 06:00","2007","04","25","06:00","-3.9","","-4.5","","96","","4","","9","","","","99.60","","","","-8","","NA"
"2007-04-25 07:00","2007","04","25","07:00","-1.4","","-4.0","","82","","5","","11","","","","99.60","","","","-5","","NA"
"2007-04-25 08:00","2007","04","25","08:00","1.9","","-2.8","","71","","3","","2","","","","99.64","","","","","","NA"
"2007-04-25 09:00","2007","04","25","09:00","3.6","","-5.9","","50","","23","","2","","","","99.64","","","","","","NA"
"2007-04-25 10:00","2007","04","25","10:00","4.0","","-5.0","","52","","21","","4","","","","99.61","","","","","","NA"
"2007-04-25 11:00","2007","04","25","11:00","5.5","","-4.9","","47","","26","","7","","","","99.53","","","","","","NA"
"2007-04-25 12:00","2007","04","25","12:00","4.8","","-1.4","","64","","21","","15","","","","99.58","","","","","","NA"
"2007-04-25 13:00","2007","04","25","13:00","6.0","","-2.7","","54","","25","","13","","","","99.57","","","","","","NA"
"2007-04-25 14:00","2007","04","25","14:00","6.7","","-2.9","","50","","22","","7","","","","99.57","","","","","","NA"
"2007-04-25 15:00","2007","04","25","15:00","7.1","","-5.2","","41","","28","","11","","","","99.49","","","","","","NA"
"2007-04-25 16:00","2007","04","25","16:00","7.6","","-5.3","","39","","31","","9","","","","99.41","","","","","","NA"
"2007-04-25 17:00","2007","04","25","17:00","6.1","","-3.2","","51","","22","","7","","","","99.38","","","","","","NA"
"2007-04-25 18:00","2007","04","25","18:00","6.4","","-4.4","","46","","23","","4","","","","99.35","","","","","","NA"
"2007-04-25 19:00","2007","04","25","19:00","4.8","","-3.1","","57","","17","","7","","","","99.34","","","","","","NA"
"2007-04-25 20:00","2007","04","25","20:00","2.9","","-2.4","","68","","18","","6","","","","99.34","","","","","","NA"
"2007-04-25 21:00","2007","04","25","21:00","1.1","","-3.4","","72","","9","","4","","","","99.34","","","","","","NA"
"2007-04-25 22:00","2007","04","25","22:00","0.0","","-3.6","","77","","8","","9","","","","99.29","","","","-3","","NA"
"2007-04-25 23:00","2007","04","25","23:00","-0.5","","-3.7","","79","","8","","7","","","","99.32","","","","-3","","NA"
"2007-04-26 00:00","2007","04","26","00:00","-0.8","","-3.4","","83","","8","","11","","","","99.32","","","","-5","","NA"
"2007-04-26 01:00","2007","04","26","01:00","-0.9","","-4.1","","79","","10","","6","","","","99.31","","","","-3","","NA"
"2007-04-26 02:00","2007","04","26","02:00","-1.7","","-4.0","","84","","8","","11","","","","99.16","","","","-6","","NA"
"2007-04-26 03:00","2007","04","26","03:00","-1.7","","-4.3","","82","","8","","9","","","","99.16","","","","-5","","NA"
"2007-04-26 04:00","2007","04","26","04:00","-2.6","","-4.3","","88","","8","","9","","","","99.15","","","","-6","","NA"
"2007-04-26 05:00","2007","04","26","05:00","-3.0","","-4.8","","87","","8","","11","","","","99.11","","","","-7","","NA"
"2007-04-26 06:00","2007","04","26","06:00","-2.1","","-5.1","","80","","8","","11","","","","99.12","","","","-6","","NA"
"2007-04-26 07:00","2007","04","26","07:00","0.1","","-5.1","","68","","6","","6","","","","99.14","","","","","","NA"
"2007-04-26 08:00","2007","04","26","08:00","2.8","","-6.0","","52","","7","","7","","","","99.10","","","","","","NA"
"2007-04-26 09:00","2007","04","26","09:00","5.9","","-6.1","","42","","30","","2","","","","99.07","","","","","","NA"
"2007-04-26 10:00","2007","04","26","10:00","5.1","","-9.3","","34","","25","","6","","","","99.09","","","","","","NA"
"2007-04-26 11:00","2007","04","26","11:00","6.2","","-7.1","","38","","23","","6","","","","99.05","","","","","","NA"
"2007-04-26 12:00","2007","04","26","12:00","6.6","","-6.7","","38","","24","","6","","","","99.01","","","","","","NA"
"2007-04-26 13:00","2007","04","26","13:00","6.6","","-6.3","","39","","23","","6","","","","98.94","","","","","","NA"
"2007-04-26 14:00","2007","04","26","14:00","8.2","","-6.7","","34","","25","","6","","","","98.86","","","","","","NA"
"2007-04-26 15:00","2007","04","26","15:00","9.3","","-7.7","","29","","32","","7","","","","98.77","","","","","","NA"
"2007-04-26 16:00","2007","04","26","16:00","9.1","","-9.6","","26","","31","","9","","","","98.71","","","","","","NA"
"2007-04-26 17:00","2007","04","26","17:00","9.0","","-5.6","","35","","28","","6","","","","98.64","","","","","","NA"
"2007-04-26 18:00","2007","04","26","18:00","9.4","","-7.5","","30","","31","","6","","","","98.58","","","","","","NA"
"2007-04-26 19:00","2007","04","26","19:00","9.0","","-5.1","","36","","34","","2","","","","98.56","","","","","","NA"
"2007-04-26 20:00","2007","04","26","20:00","6.6","","-4.5","","45","","7","","2","","","","98.56","","","","","","NA"
"2007-04-26 21:00","2007","04","26","21:00","4.6","","-1.8","","63","","7","","11","","","","98.56","","","","","","NA"
"2007-04-26 22:00","2007","04","26","22:00","3.8","","-3.0","","61","","8","","9","","","","98.54","","","","","","NA"
"2007-04-26 23:00","2007","04","26","23:00","2.8","","-2.9","","66","","10","","7","","","","98.52","","","","","","NA"
"2007-04-27 00:00","2007","04","27","00:00","2.8","","-2.7","","67","","10","","6","","","","98.49","","","","","","NA"
"2007-04-27 01:00","2007","04","27","01:00","5.3","","-2.0","","59","","14","","9","","","","98.44","","","","","","NA"
"2007-04-27 02:00","2007","04","27","02:00","1.6","","-2.2","","76","","9","","9","","","","98.38","","","","","","NA"
"2007-04-27 03:00","2007","04","27","03:00","1.3","","-2.2","","77","","6","","11","","","","98.35","","","","","","NA"
"2007-04-27 04:00","2007","04","27","04:00","1.0","","-2.2","","79","","4","","11","","","","98.36","","","","","","NA"
"2007-04-27 05:00","2007","04","27","05:00","0.7","","-1.4","","86","","7","","13","","","","98.34","","","","","","NA"
"2007-04-27 06:00","2007","04","27","06:00","0.7","","-1.1","","88","","7","","13","","","","98.37","","","","","","NA"
"2007-04-27 07:00","2007","04","27","07:00","0.9","","-1.8","","82","","4","","13","","","","98.39","","","","","","NA"
"2007-04-27 08:00","2007","04","27","08:00","5.6","","-0.3","","66","","4","","6","","","","98.38","","","","","","NA"
"2007-04-27 09:00","2007","04","27","09:00","10.0","","-1.6","","44","","2","","7","","","","98.37","","","","","","NA"
"2007-04-27 10:00","2007","04","27","10:00","9.9","","-0.4","","49","","30","","7","","","","98.35","","","","","","NA"
"2007-04-27 11:00","2007","04","27","11:00","9.8","","-1.0","","47","","27","","9","","","","98.35","","","","","","NA"
"2007-04-27 12:00","2007","04","27","12:00","7.9","","-0.5","","55","","30","","9","","","","98.33","","","","","","NA"
"2007-04-27 13:00","2007","04","27","13:00","8.4","","-1.2","","51","","31","","17","","","","98.31","","","","","","NA"
"2007-04-27 14:00","2007","04","27","14:00","7.8","","-1.2","","53","","31","","19","","","","98.28","","","","","","NA"
"2007-04-27 15:00","2007","04","27","15:00","7.5","","-1.0","","55","","31","","17","","","","98.25","","","","","","NA"
"2007-04-27 16:00","2007","04","27","16:00","7.9","","-0.3","","56","","31","","13","","","","98.26","","","","","","NA"
"2007-04-27 17:00","2007","04","27","17:00","7.1","","0.8","","64","","30","","13","","","","98.26","","","","","","NA"
"2007-04-27 18:00","2007","04","27","18:00","6.7","","1.3","","68","","29","","7","","","","98.28","","","","","","NA"
"2007-04-27 19:00","2007","04","27","19:00","5.8","","1.8","","75","","22","","6","","","","98.30","","","","","","NA"
"2007-04-27 20:00","2007","04","27","20:00","4.8","","1.6","","80","","18","","4","","","","98.31","","","","","","NA"
"2007-04-27 21:00","2007","04","27","21:00","4.2","","1.5","","83","","8","","2","","","","98.32","","","","","","NA"
"2007-04-27 22:00","2007","04","27","22:00","3.4","","1.0","","84","","9","","7","","","","98.28","","","","","","NA"
"2007-04-27 23:00","2007","04","27","23:00","3.2","","0.7","","84","","8","","11","","","","98.27","","","","","","NA"
"2007-04-28 00:00","2007","04","28","00:00","2.4","","0.2","","85","","8","","9","","","","98.26","","","","","","NA"
"2007-04-28 01:00","2007","04","28","01:00","1.2","","0.2","","93","","7","","7","","","","98.25","","","","","","NA"
"2007-04-28 02:00","2007","04","28","02:00","1.5","","0.2","","91","","8","","9","","","","98.22","","","","","","NA"
"2007-04-28 03:00","2007","04","28","03:00","1.3","","0.2","","92","","9","","6","","","","98.21","","","","","","NA"
"2007-04-28 04:00","2007","04","28","04:00","1.7","","0.4","","91","","15","","6","","","","98.23","","","","","","NA"
"2007-04-28 05:00","2007","04","28","05:00","3.1","","0.8","","85","","16","","15","","","","98.25","","","","","","NA"
"2007-04-28 06:00","2007","04","28","06:00","3.4","","0.4","","81","","17","","9","","","","98.25","","","","","","NA"
"2007-04-28 07:00","2007","04","28","07:00","3.4","","0.3","","80","","3","","9","","","","98.25","","","","","","NA"
"2007-04-28 08:00","2007","04","28","08:00","4.3","","0.5","","76","","36","","11","","","","98.24","","","","","","NA"
"2007-04-28 09:00","2007","04","28","09:00","6.0","","1.1","","71","","32","","15","","","","98.29","","","","","","NA"
"2007-04-28 10:00","2007","04","28","10:00","5.2","","1.6","","78","","32","","17","","","","98.34","","","","","","NA"
"2007-04-28 11:00","2007","04","28","11:00","6.4","","1.6","","71","","29","","7","","","","98.40","","","","","","NA"
"2007-04-28 12:00","2007","04","28","12:00","4.5","","4.4","","99","","14","","7","","","","98.37","","","","","","NA"
"2007-04-28 13:00","2007","04","28","13:00","5.3","","4.6","","95","","21","","6","","","","98.39","","","","","","NA"
"2007-04-28 14:00","2007","04","28","14:00","5.7","","2.9","","82","","23","","11","","","","98.41","","","","","","NA"
"2007-04-28 15:00","2007","04","28","15:00","5.2","","3.8","","91","","22","","9","","","","98.43","","","","","","NA"
"2007-04-28 16:00","2007","04","28","16:00","6.5","","3.6","","82","","17","","9","","","","98.40","","","","","","NA"
"2007-04-28 17:00","2007","04","28","17:00","4.3","","3.0","","91","","23","","13","","","","98.42","","","","","","NA"
"2007-04-28 18:00","2007","04","28","18:00","5.0","","3.9","","93","","20","","6","","","","98.47","","","","","","NA"
"2007-04-28 19:00","2007","04","28","19:00","4.8","","3.7","","93","","18","","13","","","","98.50","","","","","","NA"
"2007-04-28 20:00","2007","04","28","20:00","4.9","","4.9","","100","","18","","11","","","","98.50","","","","","","NA"
"2007-04-28 21:00","2007","04","28","21:00","5.0","","4.9","","99","","9","","7","","","","98.56","","","","","","NA"
"2007-04-28 22:00","2007","04","28","22:00","5.6","","5.5","","99","","9","","9","","","","98.52","","","","","","NA"
"2007-04-28 23:00","2007","04","28","23:00","4.8","","4.8","","100","","10","","7","","","","98.51","","","","","","NA"
"2007-04-29 00:00","2007","04","29","00:00","3.9","","3.9","","100","","11","","4","","","","98.51","","","","","","NA"
"2007-04-29 01:00","2007","04","29","01:00","4.6","","4.4","","99","","15","","6","","","","98.46","","","","","","NA"
"2007-04-29 02:00","2007","04","29","02:00","3.5","","3.5","","100","","16","","11","","","","98.47","","","","","","NA"
"2007-04-29 03:00","2007","04","29","03:00","3.6","","3.4","","99","","17","","17","","","","98.40","","","","","","NA"
"2007-04-29 04:00","2007","04","29","04:00","3.8","","3.5","","98","","17","","19","","","","98.33","","","","","","NA"
"2007-04-29 05:00","2007","04","29","05:00","4.8","","3.8","","93","","16","","19","","","","98.24","","","","","","NA"
"2007-04-29 06:00","2007","04","29","06:00","5.6","","3.4","","86","","20","","13","","","","98.29","","","","","","NA"
"2007-04-29 07:00","2007","04","29","07:00","8.2","","4.7","","79","","12","","9","","","","98.20","","","","","","NA"
"2007-04-29 08:00","2007","04","29","08:00","9.4","","5.1","","74","","15","","19","","","","97.94","","","","","","NA"
"2007-04-29 09:00","2007","04","29","09:00","8.1","","3.7","","74","","17","","41","","","","97.74","","","","","","NA"
"2007-04-29 10:00","2007","04","29","10:00","9.0","","3.4","","68","","18","","37","","","","97.71","","","","","","NA"
"2007-04-29 11:00","2007","04","29","11:00","9.0","","3.1","","66","","18","","39","","","","97.62","","","","","","NA"
"2007-04-29 12:00","2007","04","29","12:00","9.5","","3.4","","66","","18","","30","","","","97.56","","","","","","NA"
"2007-04-29 13:00","2007","04","29","13:00","9.0","","3.6","","69","","20","","24","","","","97.63","","","","","","NA"
"2007-04-29 14:00","2007","04","29","14:00","9.6","","3.9","","68","","20","","19","","","","97.65","","","","","","NA"
"2007-04-29 15:00","2007","04","29","15:00","7.9","","3.8","","75","","22","","15","","","","97.79","","","","","","NA"
"2007-04-29 16:00","2007","04","29","16:00","10.7","","4.1","","64","","31","","13","","","","97.90","","","","","","NA"
"2007-04-29 17:00","2007","04","29","17:00","12.7","","4.6","","58","","33","","28","","","","98.04","","","","","","NA"
"2007-04-29 18:00","2007","04","29","18:00","13.4","","4.1","","53","","33","","30","","","","98.25","","","","","","NA"
"2007-04-29 19:00","2007","04","29","19:00","12.4","","3.3","","54","","35","","30","","","","98.35","","","","","","NA"
"2007-04-29 20:00","2007","04","29","20:00","10.5","","3.9","","64","","35","","17","","","","98.48","","","","","","NA"
"2007-04-29 21:00","2007","04","29","21:00","9.1","","4.3","","72","","1","","13","","","","98.59","","","","","","NA"
"2007-04-29 22:00","2007","04","29","22:00","7.6","","4.7","","82","","2","","9","","","","98.68","","","","","","NA"
"2007-04-29 23:00","2007","04","29","23:00","6.1","","4.3","","88","","1","","9","","","","98.76","","","","","","NA"
"2007-04-30 00:00","2007","04","30","00:00","5.3","","4.0","","91","","1","","11","","","","98.78","","","","","","NA"
"2007-04-30 01:00","2007","04","30","01:00","5.4","","4.1","","91","","34","","4","","","","98.79","","","","","","NA"
"2007-04-30 02:00","2007","04","30","02:00","5.8","","4.4","","91","","35","","7","","","","98.81","","","","","","NA"
"2007-04-30 03:00","2007","04","30","03:00","5.8","","4.3","","90","","2","","6","","","","98.90","","","","","","NA"
"2007-04-30 04:00","2007","04","30","04:00","5.6","","3.3","","85","","34","","6","","","","98.94","","","","","","NA"
"2007-04-30 05:00","2007","04","30","05:00","5.0","","2.7","","85","","32","","7","","","","99.01","","","","","","NA"
"2007-04-30 06:00","2007","04","30","06:00","5.0","","3.1","","87","","33","","7","","","","99.07","","","","","","NA"
"2007-04-30 07:00","2007","04","30","07:00","6.2","","2.7","","78","","33","","9","","","","99.16","","","","","","NA"
"2007-04-30 08:00","2007","04","30","08:00","6.1","","3.1","","81","","32","","9","","","","99.20","","","","","","NA"
"2007-04-30 09:00","2007","04","30","09:00","6.7","","2.6","","75","","29","","11","","","","99.19","","","","","","NA"
"2007-04-30 10:00","2007","04","30","10:00","5.3","","2.6","","83","","27","","11","","","","99.18","","","","","","NA"
"2007-04-30 11:00","2007","04","30","11:00","7.3","","2.9","","74","","27","","11","","","","99.19","","","","","","NA"
"2007-04-30 12:00","2007","04","30","12:00","6.6","","2.3","","74","","26","","13","","","","99.22","","","","","","NA"
"2007-04-30 13:00","2007","04","30","13:00","6.3","","2.7","","78","","26","","13","","","","99.18","","","","","","NA"
"2007-04-30 14:00","2007","04","30","14:00","6.7","","2.8","","76","","28","","13","","","","99.16","","","","","","NA"
"2007-04-30 15:00","2007","04","30","15:00","5.5","","2.5","","81","","31","","13","","","","99.14","","","","","","NA"
"2007-04-30 16:00","2007","04","30","16:00","6.7","","3.1","","78","","29","","7","","","","99.12","","","","","","NA"
"2007-04-30 17:00","2007","04","30","17:00","5.3","","2.9","","84","","26","","6","","","","99.07","","","","","","NA"
"2007-04-30 18:00","2007","04","30","18:00","4.6","","2.9","","89","","22","","7","","","","99.07","","","","","","NA"
"2007-04-30 19:00","2007","04","30","19:00","4.7","","3.1","","89","","20","","4","","","","99.11","","","","","","NA"
"2007-04-30 20:00","2007","04","30","20:00","3.3","","2.8","","97","","18","","11","","","","99.16","","","","","","NA"
"2007-04-30 21:00","2007","04","30","21:00","3.4","","3.0","","97","","14","","9","","","","99.12","","","","","","NA"
"2007-04-30 22:00","2007","04","30","22:00","3.0","","2.8","","99","","8","","7","","","","99.05","","","","","","NA"
"2007-04-30 23:00","2007","04","30","23:00","3.9","","2.7","","92","","6","","11","","","","98.92","","","","","","NA"
