"Station Name","PUKASKWA (AUT)"
"Province","ONTARIO"
"Latitude","48.61"
"Longitude","-86.29"
"Elevation","191.50"
"Climate Identifier","6046768"
"WMO Identifier","71750"
"TC Identifier","WCJ"
"All times are specified in Local Standard Time (LST). Add 1 hour to adjust for Daylight Saving Time where and when it is observed."

"Legend"
"E","Estimated"
"M","Missing"
"NA","Not Available"

"Date/Time","Year","Month","Day","Time","Temp (°C)","Temp Flag","Dew Point Temp (°C)","Dew Point Temp Flag","Rel Hum (%)","Rel Hum Flag","Wind Dir (10s deg)","Wind Dir Flag","Wind Spd (km/h)","Wind Spd Flag","Visibility (km)","Visibility Flag","Stn Press (kPa)","Stn Press Flag","Hmdx","Hmdx Flag","Wind Chill","Wind Chill Flag","Weather"
"2017-12-01 00:00","2017","12","01","00:00","-2.4","","-6.2","","75","","3","","4","","","","99.27","","","","-4","","NA"
"2017-12-01 01:00","2017","12","01","01:00","-1.7","","-6.2","","72","","1","","1","","","","99.36","","","","-2","","NA"
"2017-12-01 02:00","2017","12","01","02:00","-1.9","","-6.6","","70","","11","","1","","","","99.31","","","","-2","","NA"
"2017-12-01 03:00","2017","12","01","03:00","-1.4","","-6.2","","70","","15","","5","","","","99.34","","","","-3","","NA"
"2017-12-01 04:00","2017","12","01","04:00","-1.4","","-6.0","","71","","22","","4","","","","99.33","","","","-3","","NA"
"2017-12-01 05:00","2017","12","01","05:00","-0.2","","-3.6","","78","","25","","11","","","","99.36","","","","-4","","NA"
"2017-12-01 06:00","2017","12","01","06:00","0.3","","-3.1","","78","","24","","11","","","","99.34","","","","","","NA"
"2017-12-01 07:00","2017","12","01","07:00","1.1","","-2.1","","79","","22","","11","","","","99.36","","","","","","NA"
"2017-12-01 08:00","2017","12","01","08:00","1.6","","-1.8","","78","","23","","12","","","","99.40","","","","","","NA"
"2017-12-01 09:00","2017","12","01","09:00","2.1","","-1.1","","80","","22","","10","","","","99.37","","","","","","NA"
"2017-12-01 10:00","2017","12","01","10:00","2.7","","-0.7","","78","","22","","10","","","","99.37","","","","","","NA"
"2017-12-01 11:00","2017","12","01","11:00","2.9","","-0.5","","78","","22","","13","","","","99.44","","","","","","NA"
"2017-12-01 12:00","2017","12","01","12:00","2.9","","-0.4","","78","","22","","11","","","","99.40","","","","","","NA"
"2017-12-01 13:00","2017","12","01","13:00","3.2","","-0.6","","77","","22","","12","","","","99.36","","","","","","NA"
"2017-12-01 14:00","2017","12","01","14:00","3.6","","-0.3","","76","","23","","10","","","","99.33","","","","","","NA"
"2017-12-01 15:00","2017","12","01","15:00","3.0","","-0.7","","77","","20","","10","","","","99.30","","","","","","NA"
"2017-12-01 16:00","2017","12","01","16:00","2.8","","0.0","","82","","21","","10","","","","99.29","","","","","","NA"
"2017-12-01 17:00","2017","12","01","17:00","2.7","","0.1","","83","","22","","8","","","","99.32","","","","","","NA"
"2017-12-01 18:00","2017","12","01","18:00","2.8","","0.5","","85","","20","","9","","","","99.33","","","","","","NA"
"2017-12-01 19:00","2017","12","01","19:00","3.0","","1.0","","87","","20","","9","","","","99.35","","","","","","NA"
"2017-12-01 20:00","2017","12","01","20:00","2.4","","0.4","","87","","20","","8","","","","99.35","","","","","","NA"
"2017-12-01 21:00","2017","12","01","21:00","1.9","","0.1","","88","","18","","5","","","","99.34","","","","","","NA"
"2017-12-01 22:00","2017","12","01","22:00","1.2","","0.5","","95","","19","","5","","","","99.35","","","","","","NA"
"2017-12-01 23:00","2017","12","01","23:00","0.5","","0.1","","97","","18","","4","","","","99.33","","","","","","NA"
"2017-12-02 00:00","2017","12","02","00:00","-0.4","","-0.8","","97","","17","","2","","","","99.31","","","","-1","","NA"
"2017-12-02 01:00","2017","12","02","01:00","-0.9","","-1.1","","98","","","","0","","","","99.28","","","","","","NA"
"2017-12-02 02:00","2017","12","02","02:00","-1.1","","-1.2","","99","","20","","2","","","","99.25","","","","-2","","NA"
"2017-12-02 03:00","2017","12","02","03:00","2.6","","2.6","","100","","19","","7","","","","99.24","","","","","","NA"
"2017-12-02 04:00","2017","12","02","04:00","3.6","","2.1","","90","","18","","6","","","","99.19","","","","","","NA"
"2017-12-02 05:00","2017","12","02","05:00","3.3","","2.9","","97","","20","","4","","","","99.17","","","","","","NA"
"2017-12-02 06:00","2017","12","02","06:00","2.2","","2.0","","99","","17","","1","","","","99.15","","","","","","NA"
"2017-12-02 07:00","2017","12","02","07:00","1.0","","1.0","","100","","5","","6","","","","99.17","","","","","","NA"
"2017-12-02 08:00","2017","12","02","08:00","0.8","","0.8","","100","","5","","5","","","","99.18","","","","","","NA"
"2017-12-02 09:00","2017","12","02","09:00","0.8","","0.8","","100","","6","","6","","","","99.19","","","","","","NA"
"2017-12-02 10:00","2017","12","02","10:00","1.4","","1.4","","100","","5","","4","","","","99.21","","","","","","NA"
"2017-12-02 11:00","2017","12","02","11:00","2.4","","2.4","","100","","5","","3","","","","99.20","","","","","","NA"
"2017-12-02 12:00","2017","12","02","12:00","3.3","","3.3","","100","","6","","2","","","","99.15","","","","","","NA"
"2017-12-02 13:00","2017","12","02","13:00","3.6","","3.1","","96","","3","","6","","","","99.15","","","","","","NA"
"2017-12-02 14:00","2017","12","02","14:00","3.8","","3.1","","95","","5","","3","","","","99.15","","","","","","NA"
"2017-12-02 15:00","2017","12","02","15:00","4.1","","3.2","","94","","2","","2","","","","99.15","","","","","","NA"
"2017-12-02 16:00","2017","12","02","16:00","3.3","","3.2","","99","","","","0","","","","99.21","","","","","","NA"
"2017-12-02 17:00","2017","12","02","17:00","2.7","","2.7","","100","","8","","2","","","","99.27","","","","","","NA"
"2017-12-02 18:00","2017","12","02","18:00","2.1","","2.1","","100","","6","","5","","","","99.31","","","","","","NA"
"2017-12-02 19:00","2017","12","02","19:00","1.2","","1.2","","100","","5","","4","","","","99.34","","","","","","NA"
"2017-12-02 20:00","2017","12","02","20:00","-0.5","","-0.5","","100","","6","","6","","","","99.37","","","","-3","","NA"
"2017-12-02 21:00","2017","12","02","21:00","-0.2","","-0.2","","100","","5","","8","","","","99.42","","","","-3","","NA"
"2017-12-02 22:00","2017","12","02","22:00","-0.2","","-0.2","","100","","5","","5","","","","99.44","","","","-2","","NA"
"2017-12-02 23:00","2017","12","02","23:00","-0.1","","-0.1","","100","","4","","3","","","","99.49","","","","-1","","NA"
"2017-12-03 00:00","2017","12","03","00:00","0.0","","0.0","","100","","4","","5","","","","99.49","","","","-2","","NA"
"2017-12-03 01:00","2017","12","03","01:00","0.1","","0.1","","100","","5","","4","","","","99.48","","","","","","NA"
"2017-12-03 02:00","2017","12","03","02:00","0.1","","0.1","","100","","5","","4","","","","99.48","","","","","","NA"
"2017-12-03 03:00","2017","12","03","03:00","0.1","","0.1","","100","","10","","2","","","","99.50","","","","","","NA"
"2017-12-03 04:00","2017","12","03","04:00","0.1","","0.1","","100","","0","","1","","","","99.47","","","","","","NA"
"2017-12-03 05:00","2017","12","03","05:00","0.3","","0.3","","100","","15","","4","","","","99.48","","","","","","NA"
"2017-12-03 06:00","2017","12","03","06:00","0.8","","0.8","","100","","14","","5","","","","99.49","","","","","","NA"
"2017-12-03 07:00","2017","12","03","07:00","0.8","","0.8","","100","","19","","5","","","","99.54","","","","","","NA"
"2017-12-03 08:00","2017","12","03","08:00","1.7","","1.7","","100","","20","","7","","","","99.54","","","","","","NA"
"2017-12-03 09:00","2017","12","03","09:00","1.5","","1.5","","100","","16","","5","","","","99.51","","","","","","NA"
"2017-12-03 10:00","2017","12","03","10:00","1.9","","1.9","","100","","18","","6","","","","99.50","","","","","","NA"
"2017-12-03 11:00","2017","12","03","11:00","2.8","","2.4","","97","","20","","7","","","","99.49","","","","","","NA"
"2017-12-03 12:00","2017","12","03","12:00","3.1","","1.8","","91","","20","","12","","","","99.42","","","","","","NA"
"2017-12-03 13:00","2017","12","03","13:00","3.5","","1.6","","87","","20","","15","","","","99.40","","","","","","NA"
"2017-12-03 14:00","2017","12","03","14:00","3.6","","1.5","","86","","19","","11","","","","99.36","","","","","","NA"
"2017-12-03 15:00","2017","12","03","15:00","3.4","","1.2","","85","","18","","13","","","","99.33","","","","","","NA"
"2017-12-03 16:00","2017","12","03","16:00","3.4","","0.8","","83","","18","","9","","","","99.34","","","","","","NA"
"2017-12-03 17:00","2017","12","03","17:00","2.9","","0.4","","84","","18","","9","","","","99.34","","","","","","NA"
"2017-12-03 18:00","2017","12","03","18:00","2.8","","0.8","","86","","18","","9","","","","99.34","","","","","","NA"
"2017-12-03 19:00","2017","12","03","19:00","2.7","","0.4","","85","","17","","9","","","","99.36","","","","","","NA"
"2017-12-03 20:00","2017","12","03","20:00","2.9","","0.3","","83","","19","","7","","","","99.33","","","","","","NA"
"2017-12-03 21:00","2017","12","03","21:00","0.6","","-1.1","","89","","8","","2","","","","99.33","","","","","","NA"
"2017-12-03 22:00","2017","12","03","22:00","-0.4","","-0.8","","97","","5","","3","","","","99.34","","","","-1","","NA"
"2017-12-03 23:00","2017","12","03","23:00","-0.8","","-1.1","","98","","7","","2","","","","99.28","","","","-1","","NA"
"2017-12-04 00:00","2017","12","04","00:00","0.8","","-0.7","","89","","16","","6","","","","99.26","","","","","","NA"
"2017-12-04 01:00","2017","12","04","01:00","2.8","","-0.4","","79","","18","","9","","","","99.26","","","","","","NA"
"2017-12-04 02:00","2017","12","04","02:00","4.6","","1.5","","80","","18","","9","","","","99.23","","","","","","NA"
"2017-12-04 03:00","2017","12","04","03:00","4.0","","3.3","","95","","17","","11","","","","99.24","","","","","","NA"
"2017-12-04 04:00","2017","12","04","04:00","3.2","","2.9","","98","","12","","8","","","","99.12","","","","","","NA"
"2017-12-04 05:00","2017","12","04","05:00","3.1","","3.0","","100","","13","","4","","","","99.00","","","","","","NA"
"2017-12-04 06:00","2017","12","04","06:00","3.3","","3.1","","98","","12","","9","","","","98.90","","","","","","NA"
"2017-12-04 07:00","2017","12","04","07:00","2.9","","2.7","","98","","10","","9","","","","98.74","","","","","","NA"
"2017-12-04 08:00","2017","12","04","08:00","2.9","","2.6","","98","","9","","12","","","","98.55","","","","","","NA"
"2017-12-04 09:00","2017","12","04","09:00","2.9","","2.7","","99","","9","","5","","","","98.49","","","","","","NA"
"2017-12-04 10:00","2017","12","04","10:00","3.6","","3.4","","99","","13","","8","","","","98.35","","","","","","NA"
"2017-12-04 11:00","2017","12","04","11:00","3.9","","3.8","","99","","11","","3","","","","98.31","","","","","","NA"
"2017-12-04 12:00","2017","12","04","12:00","3.9","","3.8","","99","","10","","2","","","","98.11","","","","","","NA"
"2017-12-04 13:00","2017","12","04","13:00","4.2","","4.2","","100","","11","","5","","","","97.93","","","","","","NA"
"2017-12-04 14:00","2017","12","04","14:00","4.8","","4.8","","100","","12","","6","","","","97.78","","","","","","NA"
"2017-12-04 15:00","2017","12","04","15:00","5.1","","4.9","","99","","14","","5","","","","97.66","","","","","","NA"
"2017-12-04 16:00","2017","12","04","16:00","5.4","","5.2","","99","","12","","5","","","","97.59","","","","","","NA"
"2017-12-04 17:00","2017","12","04","17:00","5.3","","5.3","","100","","10","","6","","","","97.43","","","","","","NA"
"2017-12-04 18:00","2017","12","04","18:00","5.3","","5.3","","100","","11","","6","","","","97.37","","","","","","NA"
"2017-12-04 19:00","2017","12","04","19:00","5.5","","5.5","","100","","13","","8","","","","97.18","","","","","","NA"
"2017-12-04 20:00","2017","12","04","20:00","5.9","","5.9","","100","","14","","7","","","","97.04","","","","","","NA"
"2017-12-04 21:00","2017","12","04","21:00","6.1","","6.1","","100","","13","","6","","","","96.90","","","","","","NA"
"2017-12-04 22:00","2017","12","04","22:00","6.0","","6.0","","100","","13","","6","","","","96.75","","","","","","NA"
"2017-12-04 23:00","2017","12","04","23:00","7.1","","7.1","","100","","13","","6","","","","96.51","","","","","","NA"
"2017-12-05 00:00","2017","12","05","00:00","8.8","","8.8","","100","","17","","12","","","","96.34","","","","","","NA"
"2017-12-05 01:00","2017","12","05","01:00","9.7","","9.7","","100","","16","","20","","","","96.14","","","","","","NA"
"2017-12-05 02:00","2017","12","05","02:00","9.6","","9.5","","99","","17","","16","","","","95.97","","","","","","NA"
"2017-12-05 03:00","2017","12","05","03:00","9.9","","9.6","","98","","17","","17","","","","95.77","","","","","","NA"
"2017-12-05 04:00","2017","12","05","04:00","10.1","","9.5","","96","","18","","24","","","","95.58","","","","","","NA"
"2017-12-05 05:00","2017","12","05","05:00","5.6","","5.1","","97","","20","","21","","","","95.66","","","","","","NA"
"2017-12-05 06:00","2017","12","05","06:00","3.2","","3.0","","99","","21","","21","","","","95.75","","","","","","NA"
"2017-12-05 07:00","2017","12","05","07:00","2.7","","2.6","","99","","22","","21","","","","95.73","","","","","","NA"
"2017-12-05 08:00","2017","12","05","08:00","1.7","","1.5","","99","","23","","23","","","","95.71","","","","","","NA"
"2017-12-05 09:00","2017","12","05","09:00","0.0","","0.0","","100","","24","","29","","","","95.80","","","","-6","","NA"
"2017-12-05 10:00","2017","12","05","10:00","-1.1","","-1.1","","100","","26","","26","","","","95.92","","","","-7","","NA"
"2017-12-05 11:00","2017","12","05","11:00","-2.1","","-2.1","","100","","26","","28","","","","96.09","","","","-9","","NA"
"2017-12-05 12:00","2017","12","05","12:00","-2.7","","-3.8","","92","","26","","30","","","","96.21","","","","-10","","NA"
"2017-12-05 13:00","2017","12","05","13:00","-3.3","","-4.3","","93","","27","","26","","","","96.28","","","","-10","","NA"
"2017-12-05 14:00","2017","12","05","14:00","-3.6","","-5.8","","85","","27","","27","","","","96.34","","","","-11","","NA"
"2017-12-05 15:00","2017","12","05","15:00","-4.3","","-5.8","","89","","26","","27","","","","96.44","","","","-12","","NA"
"2017-12-05 16:00","2017","12","05","16:00","-5.2","","-6.6","","90","","27","","25","","","","96.57","","","","-13","","NA"
"2017-12-05 17:00","2017","12","05","17:00","-5.8","","-7.1","","90","","28","","23","","","","96.65","","","","-13","","NA"
"2017-12-05 18:00","2017","12","05","18:00","-6.6","","-8.7","","85","","28","","27","","","","96.75","","","","-15","","NA"
"2017-12-05 19:00","2017","12","05","19:00","-6.8","","-9.1","","84","","29","","26","","","","96.83","","","","-15","","NA"
"2017-12-05 20:00","2017","12","05","20:00","-6.3","","-8.2","","86","","28","","26","","","","96.84","","","","-14","","NA"
"2017-12-05 21:00","2017","12","05","21:00","-6.7","","-9.1","","83","","29","","21","","","","96.91","","","","-14","","NA"
"2017-12-05 22:00","2017","12","05","22:00","-6.8","","-8.2","","89","","28","","25","","","","96.94","","","","-15","","NA"
"2017-12-05 23:00","2017","12","05","23:00","-6.8","","-8.1","","90","","28","","20","","","","96.98","","","","-14","","NA"
"2017-12-06 00:00","2017","12","06","00:00","-6.8","","-8.1","","90","","28","","25","","","","97.02","","","","-15","","NA"
"2017-12-06 01:00","2017","12","06","01:00","-6.9","","-8.4","","89","","28","","23","","","","97.06","","","","-14","","NA"
"2017-12-06 02:00","2017","12","06","02:00","-6.8","","-8.3","","89","","28","","22","","","","97.08","","","","-14","","NA"
"2017-12-06 03:00","2017","12","06","03:00","-6.8","","-8.9","","85","","28","","21","","","","97.14","","","","-14","","NA"
"2017-12-06 04:00","2017","12","06","04:00","-6.8","","-8.9","","85","","28","","22","","","","97.14","","","","-14","","NA"
"2017-12-06 05:00","2017","12","06","05:00","-6.4","","-8.7","","84","","28","","17","","","","97.19","","","","-13","","NA"
"2017-12-06 06:00","2017","12","06","06:00","-6.6","","-9.7","","79","","30","","16","","","","97.25","","","","-13","","NA"
"2017-12-06 07:00","2017","12","06","07:00","-6.7","","-9.0","","84","","29","","13","","","","97.33","","","","-12","","NA"
"2017-12-06 08:00","2017","12","06","08:00","-6.5","","-9.6","","79","","29","","14","","","","97.38","","","","-12","","NA"
"2017-12-06 09:00","2017","12","06","09:00","-6.5","","-9.2","","81","","30","","12","","","","97.43","","","","-12","","NA"
"2017-12-06 10:00","2017","12","06","10:00","-6.3","","-8.7","","83","","30","","12","","","","97.51","","","","-11","","NA"
"2017-12-06 11:00","2017","12","06","11:00","-6.0","","-8.6","","82","","30","","12","","","","97.60","","","","-11","","NA"
"2017-12-06 12:00","2017","12","06","12:00","-5.6","","-8.9","","77","","31","","12","","","","97.65","","","","-11","","NA"
"2017-12-06 13:00","2017","12","06","13:00","-5.3","","-8.3","","80","","31","","8","","","","97.73","","","","-9","","NA"
"2017-12-06 14:00","2017","12","06","14:00","-5.7","","-9.9","","72","","32","","7","","","","97.84","","","","-9","","NA"
"2017-12-06 15:00","2017","12","06","15:00","-6.0","","-10.0","","74","","33","","8","","","","97.97","","","","-10","","NA"
"2017-12-06 16:00","2017","12","06","16:00","-6.5","","-10.2","","75","","35","","5","","","","98.11","","","","-9","","NA"
"2017-12-06 17:00","2017","12","06","17:00","-6.9","","-10.9","","73","","35","","9","","","","98.25","","","","-11","","NA"
"2017-12-06 18:00","2017","12","06","18:00","-7.4","","-10.1","","81","","34","","5","","","","98.39","","","","-10","","NA"
"2017-12-06 19:00","2017","12","06","19:00","-7.5","","-10.3","","80","","33","","5","","","","98.50","","","","-10","","NA"
"2017-12-06 20:00","2017","12","06","20:00","-7.7","","-11.2","","76","","34","","6","","","","98.60","","","","-11","","NA"
"2017-12-06 21:00","2017","12","06","21:00","-7.8","","-11.1","","78","","34","","7","","","","98.65","","","","-11","","NA"
"2017-12-06 22:00","2017","12","06","22:00","-8.1","","-11.8","","75","","35","","9","","","","98.70","","","","-13","","NA"
"2017-12-06 23:00","2017","12","06","23:00","-8.5","","-11.9","","76","","34","","7","","","","98.79","","","","-12","","NA"
"2017-12-07 00:00","2017","12","07","00:00","-9.7","","-13.6","","74","","36","","11","","","","98.84","","","","-15","","NA"
"2017-12-07 01:00","2017","12","07","01:00","-9.8","","-13.1","","77","","34","","5","","","","98.88","","","","-13","","NA"
"2017-12-07 02:00","2017","12","07","02:00","-10.1","","-13.1","","79","","1","","5","","","","98.89","","","","-13","","NA"
"2017-12-07 03:00","2017","12","07","03:00","-10.6","","-13.3","","80","","36","","7","","","","98.96","","","","-15","","NA"
"2017-12-07 04:00","2017","12","07","04:00","-11.1","","-14.5","","76","","36","","7","","","","98.96","","","","-15","","NA"
"2017-12-07 05:00","2017","12","07","05:00","-12.1","","-15.3","","77","","34","","7","","","","98.99","","","","-16","","NA"
"2017-12-07 06:00","2017","12","07","06:00","-13.4","","-16.5","","77","","36","","8","","","","99.01","","","","-18","","NA"
"2017-12-07 07:00","2017","12","07","07:00","-14.0","","-17.0","","78","","1","","5","","","","99.03","","","","-17","","NA"
"2017-12-07 08:00","2017","12","07","08:00","-14.9","","-17.5","","80","","3","","7","","","","99.02","","","","-20","","NA"
"2017-12-07 09:00","2017","12","07","09:00","-16.0","","-17.8","","86","","5","","4","","","","98.99","","","","-19","","NA"
"2017-12-07 10:00","2017","12","07","10:00","-14.3","","-16.6","","83","","6","","6","","","","98.96","","","","-18","","NA"
"2017-12-07 11:00","2017","12","07","11:00","-12.1","","-15.6","","75","","3","","5","","","","98.93","","","","-15","","NA"
"2017-12-07 12:00","2017","12","07","12:00","-10.1","","-14.6","","70","","4","","5","","","","98.83","","","","-13","","NA"
"2017-12-07 13:00","2017","12","07","13:00","-10.0","","-13.1","","78","","5","","4","","","","98.73","","","","-12","","NA"
"2017-12-07 14:00","2017","12","07","14:00","-9.6","","-12.6","","79","","11","","2","","","","98.64","","","","-11","","NA"
"2017-12-07 15:00","2017","12","07","15:00","-8.5","","-11.4","","80","","27","","9","","","","98.58","","","","-13","","NA"
"2017-12-07 16:00","2017","12","07","16:00","-8.5","","-11.3","","80","","28","","9","","","","98.53","","","","-13","","NA"
"2017-12-07 17:00","2017","12","07","17:00","-8.4","","-10.7","","83","","29","","6","","","","98.51","","","","-12","","NA"
"2017-12-07 18:00","2017","12","07","18:00","-8.9","","-11.3","","83","","35","","5","","","","98.52","","","","-12","","NA"
"2017-12-07 19:00","2017","12","07","19:00","-10.2","","-13.1","","79","","1","","6","","","","98.52","","","","-14","","NA"
"2017-12-07 20:00","2017","12","07","20:00","-10.4","","-13.5","","78","","1","","5","","","","98.51","","","","-13","","NA"
"2017-12-07 21:00","2017","12","07","21:00","-10.5","","-13.8","","76","","36","","5","","","","98.46","","","","-14","","NA"
"2017-12-07 22:00","2017","12","07","22:00","-10.8","","-14.2","","76","","1","","6","","","","98.43","","","","-14","","NA"
"2017-12-07 23:00","2017","12","07","23:00","-10.8","","-14.2","","76","","36","","6","","","","98.39","","","","-14","","NA"
"2017-12-08 00:00","2017","12","08","00:00","-11.0","","-14.3","","77","","36","","6","","","","98.36","","","","-15","","NA"
"2017-12-08 01:00","2017","12","08","01:00","-11.6","","-15.0","","76","","2","","7","","","","98.36","","","","-16","","NA"
"2017-12-08 02:00","2017","12","08","02:00","-12.1","","-15.8","","74","","1","","8","","","","98.37","","","","-17","","NA"
"2017-12-08 03:00","2017","12","08","03:00","-12.6","","-15.9","","76","","1","","7","","","","98.38","","","","-17","","NA"
"2017-12-08 04:00","2017","12","08","04:00","-13.4","","-16.8","","76","","1","","8","","","","98.41","","","","-18","","NA"
"2017-12-08 05:00","2017","12","08","05:00","-14.1","","-18.1","","72","","35","","4","","","","98.45","","","","-17","","NA"
"2017-12-08 06:00","2017","12","08","06:00","-14.1","","-17.7","","74","","1","","5","","","","98.48","","","","-18","","NA"
"2017-12-08 07:00","2017","12","08","07:00","-14.1","","-17.3","","77","","36","","2","","","","98.48","","","","-15","","NA"
"2017-12-08 08:00","2017","12","08","08:00","-14.4","","-17.4","","78","","34","","3","","","","98.49","","","","-17","","NA"
"2017-12-08 09:00","2017","12","08","09:00","-14.2","","-17.8","","74","","36","","5","","","","98.49","","","","-18","","NA"
"2017-12-08 10:00","2017","12","08","10:00","-14.0","","-17.7","","74","","36","","6","","","","98.53","","","","-18","","NA"
"2017-12-08 11:00","2017","12","08","11:00","-13.0","","-18.3","","64","","1","","7","","","","98.55","","","","-18","","NA"
"2017-12-08 12:00","2017","12","08","12:00","-11.9","","-19.9","","51","","32","","4","","","","98.52","","","","-14","","NA"
"2017-12-08 13:00","2017","12","08","13:00","-12.0","","-19.8","","52","","34","","4","","","","98.48","","","","-15","","NA"
"2017-12-08 14:00","2017","12","08","14:00","-11.2","","-19.3","","51","","30","","5","","","","98.43","","","","-14","","NA"
"2017-12-08 15:00","2017","12","08","15:00","-11.4","","-19.0","","54","","31","","3","","","","98.38","","","","-13","","NA"
"2017-12-08 16:00","2017","12","08","16:00","-11.0","","-17.6","","58","","1","","3","","","","98.38","","","","-13","","NA"
"2017-12-08 17:00","2017","12","08","17:00","-11.9","","-16.4","","69","","5","","5","","","","98.41","","","","-15","","NA"
"2017-12-08 18:00","2017","12","08","18:00","-12.2","","-15.7","","76","","6","","6","","","","98.43","","","","-16","","NA"
"2017-12-08 19:00","2017","12","08","19:00","-12.4","","-15.9","","75","","4","","7","","","","98.41","","","","-17","","NA"
"2017-12-08 20:00","2017","12","08","20:00","-12.5","","-15.8","","76","","5","","7","","","","98.44","","","","-17","","NA"
"2017-12-08 21:00","2017","12","08","21:00","-13.1","","-15.7","","81","","5","","10","","","","98.45","","","","-19","","NA"
"2017-12-08 22:00","2017","12","08","22:00","-13.6","","-15.9","","82","","5","","9","","","","98.50","","","","-19","","NA"
"2017-12-08 23:00","2017","12","08","23:00","-14.6","","-16.8","","83","","5","","11","","","","98.50","","","","-21","","NA"
"2017-12-09 00:00","2017","12","09","00:00","-14.3","","-16.7","","82","","4","","10","","","","98.56","","","","-20","","NA"
"2017-12-09 01:00","2017","12","09","01:00","-14.0","","-17.0","","78","","5","","13","","","","98.59","","","","-21","","NA"
"2017-12-09 02:00","2017","12","09","02:00","-14.7","","-17.5","","79","","5","","10","","","","98.63","","","","-21","","NA"
"2017-12-09 03:00","2017","12","09","03:00","-15.5","","-17.7","","83","","5","","13","","","","98.71","","","","-23","","NA"
"2017-12-09 04:00","2017","12","09","04:00","-16.0","","-18.2","","83","","4","","11","","","","98.78","","","","-23","","NA"
"2017-12-09 05:00","2017","12","09","05:00","-16.1","","-18.5","","82","","5","","11","","","","98.85","","","","-23","","NA"
"2017-12-09 06:00","2017","12","09","06:00","-16.2","","-19.0","","79","","5","","12","","","","98.93","","","","-23","","NA"
"2017-12-09 07:00","2017","12","09","07:00","-16.7","","-19.4","","80","","4","","9","","","","99.01","","","","-23","","NA"
"2017-12-09 08:00","2017","12","09","08:00","-17.8","","-20.2","","81","","6","","10","","","","99.02","","","","-25","","NA"
"2017-12-09 09:00","2017","12","09","09:00","-18.5","","-20.9","","82","","4","","7","","","","99.06","","","","-24","","NA"
"2017-12-09 10:00","2017","12","09","10:00","-17.5","","-20.5","","77","","4","","7","","","","99.13","","","","-23","","NA"
"2017-12-09 11:00","2017","12","09","11:00","-15.7","","-20.0","","69","","5","","7","","","","99.15","","","","-21","","NA"
"2017-12-09 12:00","2017","12","09","12:00","-13.9","","-20.3","","58","","1","","7","","","","99.12","","","","-19","","NA"
"2017-12-09 13:00","2017","12","09","13:00","-12.5","","-19.5","","56","","3","","6","","","","99.07","","","","-16","","NA"
"2017-12-09 14:00","2017","12","09","14:00","-11.3","","-18.4","","56","","35","","4","","","","99.02","","","","-14","","NA"
"2017-12-09 15:00","2017","12","09","15:00","-11.0","","-16.7","","63","","30","","7","","","","98.98","","","","-15","","NA"
"2017-12-09 16:00","2017","12","09","16:00","-10.8","","-15.5","","69","","32","","2","","","","98.92","","","","-12","","NA"
"2017-12-09 17:00","2017","12","09","17:00","-11.2","","-15.5","","71","","5","","6","","","","98.89","","","","-15","","NA"
"2017-12-09 18:00","2017","12","09","18:00","-10.9","","-14.3","","76","","32","","6","","","","98.87","","","","-15","","NA"
"2017-12-09 19:00","2017","12","09","19:00","-9.7","","-13.5","","74","","29","","9","","","","98.82","","","","-15","","NA"
"2017-12-09 20:00","2017","12","09","20:00","-10.9","","-13.3","","82","","36","","3","","","","98.76","","","","-13","","NA"
"2017-12-09 21:00","2017","12","09","21:00","-10.8","","-13.4","","81","","31","","5","","","","98.72","","","","-14","","NA"
"2017-12-09 22:00","2017","12","09","22:00","-10.9","","-12.9","","85","","31","","4","","","","98.67","","","","-13","","NA"
"2017-12-09 23:00","2017","12","09","23:00","-10.8","","-12.6","","87","","1","","5","","","","98.60","","","","-14","","NA"
"2017-12-10 00:00","2017","12","10","00:00","-12.1","","-13.7","","88","","4","","8","","","","98.55","","","","-17","","NA"
"2017-12-10 01:00","2017","12","10","01:00","-11.4","","-12.9","","88","","1","","5","","","","98.49","","","","-15","","NA"
"2017-12-10 02:00","2017","12","10","02:00","-11.8","","-13.3","","88","","5","","4","","","","98.43","","","","-14","","NA"
"2017-12-10 03:00","2017","12","10","03:00","-11.4","","-12.8","","89","","5","","5","","","","98.42","","","","-15","","NA"
"2017-12-10 04:00","2017","12","10","04:00","-11.4","","-13.5","","84","","36","","6","","","","98.47","","","","-15","","NA"
"2017-12-10 05:00","2017","12","10","05:00","-12.5","","-15.1","","81","","3","","8","","","","98.50","","","","-17","","NA"
"2017-12-10 06:00","2017","12","10","06:00","-13.2","","-16.2","","78","","3","","11","","","","98.58","","","","-19","","NA"
"2017-12-10 07:00","2017","12","10","07:00","-15.0","","-18.4","","75","","36","","12","","","","98.65","","","","-22","","NA"
"2017-12-10 08:00","2017","12","10","08:00","-16.3","","-19.8","","74","","3","","11","","","","98.77","","","","-23","","NA"
"2017-12-10 09:00","2017","12","10","09:00","-17.5","","-20.5","","78","","1","","7","","","","98.85","","","","-23","","NA"
"2017-12-10 10:00","2017","12","10","10:00","-17.9","","-21.4","","74","","4","","9","","","","98.93","","","","-24","","NA"
"2017-12-10 11:00","2017","12","10","11:00","-17.2","","-21.5","","69","","2","","8","","","","99.03","","","","-23","","NA"
"2017-12-10 12:00","2017","12","10","12:00","-17.0","","-22.5","","63","","4","","11","","","","99.06","","","","-24","","NA"
"2017-12-10 13:00","2017","12","10","13:00","-16.3","","-21.6","","64","","3","","7","","","","99.09","","","","-21","","NA"
"2017-12-10 14:00","2017","12","10","14:00","-16.3","","-22.1","","61","","2","","10","","","","99.10","","","","-23","","NA"
"2017-12-10 15:00","2017","12","10","15:00","-16.1","","-21.2","","65","","2","","7","","","","99.13","","","","-21","","NA"
"2017-12-10 16:00","2017","12","10","16:00","-16.7","","-21.3","","68","","35","","4","","","","99.22","","","","-20","","NA"
"2017-12-10 17:00","2017","12","10","17:00","-16.8","","-20.7","","72","","1","","6","","","","99.30","","","","-21","","NA"
"2017-12-10 18:00","2017","12","10","18:00","-19.0","","-21.9","","78","","4","","4","","","","99.37","","","","-22","","NA"
"2017-12-10 19:00","2017","12","10","19:00","-20.6","","-23.0","","81","","3","","2","","","","99.41","","","","-22","","NA"
"2017-12-10 20:00","2017","12","10","20:00","-21.3","","-23.4","","84","","4","","6","","","","99.37","","","","-27","","NA"
"2017-12-10 21:00","2017","12","10","21:00","-21.3","","-23.4","","83","","3","","7","","","","99.40","","","","-27","","NA"
"2017-12-10 22:00","2017","12","10","22:00","-22.7","","-25.0","","81","","6","","4","","","","99.39","","","","-26","","NA"
"2017-12-10 23:00","2017","12","10","23:00","-23.4","","-25.8","","81","","7","","5","","","","99.34","","","","-28","","NA"
"2017-12-11 00:00","2017","12","11","00:00","-23.0","","-25.3","","81","","4","","7","","","","99.28","","","","-29","","NA"
"2017-12-11 01:00","2017","12","11","01:00","-21.9","","-24.3","","81","","5","","8","","","","99.25","","","","-28","","NA"
"2017-12-11 02:00","2017","12","11","02:00","-20.7","","-23.0","","82","","4","","7","","","","99.18","","","","-26","","NA"
"2017-12-11 03:00","2017","12","11","03:00","-19.4","","-21.6","","83","","6","","11","","","","99.15","","","","-27","","NA"
"2017-12-11 04:00","2017","12","11","04:00","-19.1","","-21.2","","84","","5","","10","","","","99.09","","","","-26","","NA"
"2017-12-11 05:00","2017","12","11","05:00","-18.3","","-20.3","","84","","4","","8","","","","98.97","","","","-24","","NA"
"2017-12-11 06:00","2017","12","11","06:00","-17.3","","-19.1","","86","","5","","6","","","","98.89","","","","-22","","NA"
"2017-12-11 07:00","2017","12","11","07:00","-16.0","","-17.7","","87","","6","","6","","","","98.79","","","","-20","","NA"
"2017-12-11 08:00","2017","12","11","08:00","-15.2","","-16.8","","87","","6","","9","","","","98.74","","","","-21","","NA"
"2017-12-11 09:00","2017","12","11","09:00","-14.6","","-16.2","","87","","6","","8","","","","98.66","","","","-20","","NA"
"2017-12-11 10:00","2017","12","11","10:00","-13.8","","-15.4","","88","","5","","10","","","","98.61","","","","-20","","NA"
"2017-12-11 11:00","2017","12","11","11:00","-12.3","","-13.6","","90","","5","","5","","","","98.49","","","","-16","","NA"
"2017-12-11 12:00","2017","12","11","12:00","-10.2","","-11.5","","90","","3","","4","","","","98.37","","","","-13","","NA"
"2017-12-11 13:00","2017","12","11","13:00","-5.0","","-5.0","","100","","22","","14","","","","98.24","","","","-10","","NA"
"2017-12-11 14:00","2017","12","11","14:00","-4.0","","-5.6","","89","","22","","10","","","","98.16","","","","-8","","NA"
"2017-12-11 15:00","2017","12","11","15:00","-6.3","","-8.7","","83","","35","","10","","","","98.16","","","","-11","","NA"
"2017-12-11 16:00","2017","12","11","16:00","-8.9","","-9.7","","94","","3","","12","","","","98.28","","","","-15","","NA"
"2017-12-11 17:00","2017","12","11","17:00","-9.9","","-11.6","","87","","3","","19","","","","98.36","","","","-18","","NA"
"2017-12-11 18:00","2017","12","11","18:00","-11.0","","-13.2","","84","","3","","14","","","","98.54","","","","-18","","NA"
"2017-12-11 19:00","2017","12","11","19:00","-12.2","","-15.0","","80","","2","","16","","","","98.71","","","","-20","","NA"
"2017-12-11 20:00","2017","12","11","20:00","-14.3","","-17.5","","76","","1","","15","","","","98.91","","","","-22","","NA"
"2017-12-11 21:00","2017","12","11","21:00","-15.5","","-18.9","","75","","3","","13","","","","99.02","","","","-23","","NA"
"2017-12-11 22:00","2017","12","11","22:00","-16.5","","-20.4","","72","","2","","17","","","","99.10","","","","-25","","NA"
"2017-12-11 23:00","2017","12","11","23:00","-16.8","","-19.5","","80","","1","","5","","","","99.17","","","","-21","","NA"
"2017-12-12 00:00","2017","12","12","00:00","-17.1","","-20.5","","75","","2","","10","","","","99.25","","","","-24","","NA"
"2017-12-12 01:00","2017","12","12","01:00","-17.2","","-20.7","","75","","1","","10","","","","99.29","","","","-24","","NA"
"2017-12-12 02:00","2017","12","12","02:00","-18.0","","-21.3","","75","","36","","11","","","","99.31","","","","-25","","NA"
"2017-12-12 03:00","2017","12","12","03:00","-18.1","","-21.3","","76","","2","","11","","","","99.37","","","","-25","","NA"
"2017-12-12 04:00","2017","12","12","04:00","-18.8","","-21.9","","77","","3","","5","","","","99.40","","","","-23","","NA"
"2017-12-12 05:00","2017","12","12","05:00","-19.1","","-22.1","","78","","1","","8","","","","99.42","","","","-25","","NA"
"2017-12-12 06:00","2017","12","12","06:00","-19.6","","-22.5","","78","","3","","9","","","","99.43","","","","-26","","NA"
"2017-12-12 07:00","2017","12","12","07:00","-19.9","","-22.9","","77","","36","","8","","","","99.45","","","","-26","","NA"
"2017-12-12 08:00","2017","12","12","08:00","-20.3","","-23.4","","76","","3","","7","","","","99.48","","","","-26","","NA"
"2017-12-12 09:00","2017","12","12","09:00","-20.6","","-23.6","","77","","3","","5","","","","99.50","","","","-25","","NA"
"2017-12-12 10:00","2017","12","12","10:00","-20.4","","-23.4","","77","","3","","3","","","","99.46","","","","-23","","NA"
"2017-12-12 11:00","2017","12","12","11:00","-18.7","","-22.8","","70","","3","","6","","","","99.44","","","","-24","","NA"
"2017-12-12 12:00","2017","12","12","12:00","-17.2","","-23.1","","60","","4","","11","","","","99.35","","","","-24","","NA"
"2017-12-12 13:00","2017","12","12","13:00","-16.8","","-22.4","","62","","4","","9","","","","99.32","","","","-23","","NA"
"2017-12-12 14:00","2017","12","12","14:00","-16.7","","-22.5","","61","","2","","7","","","","99.25","","","","-22","","NA"
"2017-12-12 15:00","2017","12","12","15:00","-17.0","","-22.3","","64","","2","","4","","","","99.23","","","","-20","","NA"
"2017-12-12 16:00","2017","12","12","16:00","-17.4","","-22.0","","67","","1","","4","","","","99.20","","","","-21","","NA"
"2017-12-12 17:00","2017","12","12","17:00","-19.0","","-22.0","","77","","3","","2","","","","99.20","","","","-21","","NA"
"2017-12-12 18:00","2017","12","12","18:00","-20.6","","-23.1","","81","","3","","5","","","","99.19","","","","-25","","NA"
"2017-12-12 19:00","2017","12","12","19:00","-22.1","","-24.3","","82","","6","","4","","","","99.17","","","","-26","","NA"
"2017-12-12 20:00","2017","12","12","20:00","-22.8","","-25.0","","82","","5","","4","","","","99.15","","","","-27","","NA"
"2017-12-12 21:00","2017","12","12","21:00","-24.2","","-26.7","","80","","6","","2","","","","99.12","","","","-26","","NA"
"2017-12-12 22:00","2017","12","12","22:00","-24.9","","-27.3","","80","","6","","4","","","","99.04","","","","-29","","NA"
"2017-12-12 23:00","2017","12","12","23:00","-24.9","","-27.3","","81","","6","","8","","","","98.97","","","","-32","","NA"
"2017-12-13 00:00","2017","12","13","00:00","-25.7","","-28.4","","78","","5","","9","","","","98.89","","","","-33","","NA"
"2017-12-13 01:00","2017","12","13","01:00","-26.6","","-29.4","","78","","5","","10","","","","98.86","","","","-35","","NA"
"2017-12-13 02:00","2017","12","13","02:00","-27.2","","-30.0","","77","","5","","10","","","","98.84","","","","-36","","NA"
"2017-12-13 03:00","2017","12","13","03:00","-27.6","","-30.5","","77","","5","","10","","","","98.73","","","","-36","","NA"
"2017-12-13 04:00","2017","12","13","04:00","-26.9","","-29.7","","78","","5","","7","","","","98.72","","","","-34","","NA"
"2017-12-13 05:00","2017","12","13","05:00","-25.8","","-28.4","","79","","6","","8","","","","98.65","","","","-33","","NA"
"2017-12-13 06:00","2017","12","13","06:00","-25.5","","-28.2","","78","","4","","10","","","","98.59","","","","-34","","NA"
"2017-12-13 07:00","2017","12","13","07:00","-25.3","","-28.0","","78","","5","","10","","","","98.60","","","","-34","","NA"
"2017-12-13 08:00","2017","12","13","08:00","-25.3","","-28.0","","78","","4","","14","","","","98.61","","","","-35","","NA"
"2017-12-13 09:00","2017","12","13","09:00","-24.9","","-27.5","","79","","4","","15","","","","98.63","","","","-35","","NA"
"2017-12-13 10:00","2017","12","13","10:00","-23.0","","-25.8","","78","","5","","15","","","","98.62","","","","-33","","NA"
"2017-12-13 11:00","2017","12","13","11:00","-21.5","","-25.0","","74","","4","","17","","","","98.62","","","","-32","","NA"
"2017-12-13 12:00","2017","12","13","12:00","-21.5","","-24.9","","74","","5","","15","","","","98.57","","","","-31","","NA"
"2017-12-13 13:00","2017","12","13","13:00","-20.1","","-24.0","","71","","5","","14","","","","98.56","","","","-29","","NA"
"2017-12-13 14:00","2017","12","13","14:00","-17.7","","-22.2","","68","","5","","15","","","","98.47","","","","-26","","NA"
"2017-12-13 15:00","2017","12","13","15:00","-18.0","","-21.9","","71","","5","","15","","","","98.48","","","","-27","","NA"
"2017-12-13 16:00","2017","12","13","16:00","-18.2","","-22.0","","72","","4","","17","","","","98.55","","","","-27","","NA"
"2017-12-13 17:00","2017","12","13","17:00","-19.6","","-23.1","","74","","4","","15","","","","98.63","","","","-29","","NA"
"2017-12-13 18:00","2017","12","13","18:00","-20.7","","-23.8","","76","","4","","12","","","","98.73","","","","-29","","NA"
"2017-12-13 19:00","2017","12","13","19:00","-21.2","","-24.3","","76","","5","","9","","","","98.80","","","","-28","","NA"
"2017-12-13 20:00","2017","12","13","20:00","-21.5","","-24.5","","77","","5","","11","","","","98.82","","","","-29","","NA"
"2017-12-13 21:00","2017","12","13","21:00","-22.0","","-24.8","","78","","4","","9","","","","98.88","","","","-29","","NA"
"2017-12-13 22:00","2017","12","13","22:00","-22.3","","-25.0","","79","","3","","7","","","","98.91","","","","-28","","NA"
"2017-12-13 23:00","2017","12","13","23:00","-22.3","","-24.9","","79","","4","","11","","","","98.87","","","","-30","","NA"
"2017-12-14 00:00","2017","12","14","00:00","-22.3","","-24.8","","80","","5","","6","","","","98.93","","","","-28","","NA"
"2017-12-14 01:00","2017","12","14","01:00","-22.3","","-24.8","","80","","4","","6","","","","98.91","","","","-28","","NA"
"2017-12-14 02:00","2017","12","14","02:00","-22.9","","-25.3","","81","","35","","1","","","","98.95","","","","-24","","NA"
"2017-12-14 03:00","2017","12","14","03:00","-23.6","","-25.8","","82","","2","","2","","","","99.00","","","","-26","","NA"
"2017-12-14 04:00","2017","12","14","04:00","-24.6","","-27.1","","80","","","","0","","","","99.00","","","","","","NA"
"2017-12-14 05:00","2017","12","14","05:00","-25.2","","-27.7","","80","","","","0","","","","99.05","","","","","","NA"
"2017-12-14 06:00","2017","12","14","06:00","-25.4","","-27.9","","80","","13","","1","","","","99.05","","","","-26","","NA"
"2017-12-14 07:00","2017","12","14","07:00","-25.4","","-27.9","","79","","4","","6","","","","99.06","","","","-31","","NA"
"2017-12-14 08:00","2017","12","14","08:00","-24.8","","-27.3","","80","","5","","6","","","","99.09","","","","-31","","NA"
"2017-12-14 09:00","2017","12","14","09:00","-25.0","","-27.8","","78","","5","","8","","","","99.14","","","","-32","","NA"
"2017-12-14 10:00","2017","12","14","10:00","-24.0","","-26.7","","78","","0","","1","","","","99.15","","","","-25","","NA"
"2017-12-14 11:00","2017","12","14","11:00","-21.7","","-24.5","","78","","6","","3","","","","99.16","","","","-24","","NA"
"2017-12-14 12:00","2017","12","14","12:00","-18.5","","-21.5","","77","","4","","5","","","","99.08","","","","-23","","NA"
"2017-12-14 13:00","2017","12","14","13:00","-15.7","","-19.5","","73","","4","","6","","","","99.01","","","","-20","","NA"
"2017-12-14 14:00","2017","12","14","14:00","-14.2","","-17.8","","74","","2","","4","","","","98.97","","","","-17","","NA"
"2017-12-14 15:00","2017","12","14","15:00","-14.2","","-17.4","","77","","","","0","","","","98.95","","","","","","NA"
"2017-12-14 16:00","2017","12","14","16:00","-15.5","","-17.7","","83","","8","","2","","","","98.92","","","","-17","","NA"
"2017-12-14 17:00","2017","12","14","17:00","-14.9","","-16.7","","86","","5","","5","","","","98.95","","","","-18","","NA"
"2017-12-14 18:00","2017","12","14","18:00","-14.2","","-16.4","","83","","3","","6","","","","98.95","","","","-18","","NA"
"2017-12-14 19:00","2017","12","14","19:00","-14.3","","-16.6","","83","","4","","4","","","","98.91","","","","-17","","NA"
"2017-12-14 20:00","2017","12","14","20:00","-14.4","","-16.6","","83","","6","","4","","","","98.87","","","","-17","","NA"
"2017-12-14 21:00","2017","12","14","21:00","-14.4","","-16.5","","84","","5","","7","","","","98.81","","","","-19","","NA"
"2017-12-14 22:00","2017","12","14","22:00","-14.3","","-16.3","","85","","4","","6","","","","98.77","","","","-18","","NA"
"2017-12-14 23:00","2017","12","14","23:00","-14.8","","-16.6","","86","","5","","5","","","","98.75","","","","-18","","NA"
"2017-12-15 00:00","2017","12","15","00:00","-14.4","","-16.1","","87","","5","","6","","","","98.72","","","","-19","","NA"
"2017-12-15 01:00","2017","12","15","01:00","-14.5","","-16.1","","87","","6","","5","","","","98.67","","","","-18","","NA"
"2017-12-15 02:00","2017","12","15","02:00","-14.4","","-16.0","","88","","5","","6","","","","98.61","","","","-19","","NA"
"2017-12-15 03:00","2017","12","15","03:00","-14.7","","-16.3","","87","","4","","7","","","","98.58","","","","-19","","NA"
"2017-12-15 04:00","2017","12","15","04:00","-14.7","","-16.3","","87","","5","","8","","","","98.56","","","","-20","","NA"
"2017-12-15 05:00","2017","12","15","05:00","-14.7","","-16.4","","87","","4","","8","","","","98.50","","","","-20","","NA"
"2017-12-15 06:00","2017","12","15","06:00","-14.5","","-16.2","","86","","4","","9","","","","98.48","","","","-20","","NA"
"2017-12-15 07:00","2017","12","15","07:00","-14.5","","-16.6","","84","","5","","11","","","","98.47","","","","-21","","NA"
"2017-12-15 08:00","2017","12","15","08:00","-14.9","","-17.0","","84","","4","","10","","","","98.46","","","","-21","","NA"
"2017-12-15 09:00","2017","12","15","09:00","-15.2","","-17.5","","82","","4","","10","","","","98.46","","","","-21","","NA"
"2017-12-15 10:00","2017","12","15","10:00","-15.2","","-17.9","","80","","4","","11","","","","98.47","","","","-22","","NA"
"2017-12-15 11:00","2017","12","15","11:00","-15.0","","-18.1","","77","","3","","11","","","","98.48","","","","-22","","NA"
"2017-12-15 12:00","2017","12","15","12:00","-15.0","","-18.6","","74","","3","","9","","","","98.49","","","","-21","","NA"
"2017-12-15 13:00","2017","12","15","13:00","-15.0","","-19.1","","71","","4","","10","","","","98.46","","","","-21","","NA"
"2017-12-15 14:00","2017","12","15","14:00","-15.3","","-20.0","","67","","1","","10","","","","98.47","","","","-22","","NA"
"2017-12-15 15:00","2017","12","15","15:00","-15.9","","-20.4","","68","","2","","9","","","","98.49","","","","-22","","NA"
"2017-12-15 16:00","2017","12","15","16:00","-16.5","","-21.0","","68","","3","","8","","","","98.56","","","","-22","","NA"
"2017-12-15 17:00","2017","12","15","17:00","-17.4","","-21.2","","72","","1","","6","","","","98.62","","","","-22","","NA"
"2017-12-15 18:00","2017","12","15","18:00","-17.8","","-21.1","","76","","3","","2","","","","98.70","","","","-19","","NA"
"2017-12-15 19:00","2017","12","15","19:00","-18.2","","-21.4","","76","","4","","7","","","","98.73","","","","-24","","NA"
"2017-12-15 20:00","2017","12","15","20:00","-18.4","","-21.2","","79","","4","","5","","","","98.81","","","","-22","","NA"
"2017-12-15 21:00","2017","12","15","21:00","-19.2","","-21.7","","80","","5","","7","","","","98.82","","","","-25","","NA"
"2017-12-15 22:00","2017","12","15","22:00","-20.6","","-22.8","","82","","4","","7","","","","98.80","","","","-26","","NA"
"2017-12-15 23:00","2017","12","15","23:00","-21.7","","-24.1","","81","","4","","7","","","","98.84","","","","-28","","NA"
"2017-12-16 00:00","2017","12","16","00:00","-23.0","","-25.5","","80","","6","","6","","","","98.95","","","","-28","","NA"
"2017-12-16 01:00","2017","12","16","01:00","-24.0","","-26.5","","80","","6","","6","","","","99.02","","","","-30","","NA"
"2017-12-16 02:00","2017","12","16","02:00","-24.6","","-27.1","","79","","5","","7","","","","99.09","","","","-31","","NA"
"2017-12-16 03:00","2017","12","16","03:00","-25.4","","-28.0","","78","","5","","4","","","","99.16","","","","-29","","NA"
"2017-12-16 04:00","2017","12","16","04:00","-26.0","","-28.6","","79","","5","","6","","","","99.25","","","","-32","","NA"
"2017-12-16 05:00","2017","12","16","05:00","-26.4","","-28.9","","80","","6","","7","","","","99.32","","","","-33","","NA"
"2017-12-16 06:00","2017","12","16","06:00","-26.4","","-29.1","","78","","5","","7","","","","99.35","","","","-33","","NA"
"2017-12-16 07:00","2017","12","16","07:00","-27.4","","-30.4","","76","","4","","10","","","","99.43","","","","-36","","NA"
"2017-12-16 08:00","2017","12","16","08:00","-27.5","","-30.4","","76","","5","","7","","","","99.53","","","","-34","","NA"
"2017-12-16 09:00","2017","12","16","09:00","-28.0","","-31.0","","75","","4","","8","","","","99.60","","","","-36","","NA"
"2017-12-16 10:00","2017","12","16","10:00","-26.3","","-29.1","","78","","4","","8","","","","99.65","","","","-34","","NA"
"2017-12-16 11:00","2017","12","16","11:00","-23.1","","-25.9","","78","","5","","7","","","","99.72","","","","-29","","NA"
"2017-12-16 12:00","2017","12","16","12:00","-19.9","","-24.2","","69","","7","","8","","","","99.85","","","","-26","","NA"
"2017-12-16 13:00","2017","12","16","13:00","-18.2","","-23.6","","63","","6","","8","","","","99.82","","","","-24","","NA"
"2017-12-16 14:00","2017","12","16","14:00","-17.4","","-23.8","","58","","7","","5","","","","99.84","","","","-21","","NA"
"2017-12-16 15:00","2017","12","16","15:00","-17.5","","-23.0","","62","","7","","4","","","","99.85","","","","-21","","NA"
"2017-12-16 16:00","2017","12","16","16:00","-17.4","","-22.6","","64","","7","","6","","","","99.90","","","","-22","","NA"
"2017-12-16 17:00","2017","12","16","17:00","-19.8","","-22.9","","77","","7","","5","","","","99.93","","","","-24","","NA"
"2017-12-16 18:00","2017","12","16","18:00","-21.2","","-23.7","","80","","6","","4","","","","99.96","","","","-25","","NA"
"2017-12-16 19:00","2017","12","16","19:00","-23.1","","-25.7","","80","","0","","1","","","","100.08","","","","-24","","NA"
"2017-12-16 20:00","2017","12","16","20:00","-22.8","","-25.2","","81","","5","","7","","","","100.12","","","","-29","","NA"
"2017-12-16 21:00","2017","12","16","21:00","-23.8","","-26.4","","79","","5","","9","","","","100.13","","","","-31","","NA"
"2017-12-16 22:00","2017","12","16","22:00","-24.8","","-27.5","","78","","6","","10","","","","100.20","","","","-33","","NA"
"2017-12-16 23:00","2017","12","16","23:00","-25.3","","-28.0","","78","","6","","10","","","","100.21","","","","-34","","NA"
"2017-12-17 00:00","2017","12","17","00:00","-24.2","","-26.9","","79","","4","","10","","","","100.20","","","","-32","","NA"
"2017-12-17 01:00","2017","12","17","01:00","-23.1","","-25.7","","79","","5","","8","","","","100.17","","","","-30","","NA"
"2017-12-17 02:00","2017","12","17","02:00","-21.3","","-23.8","","80","","5","","12","","","","100.15","","","","-30","","NA"
"2017-12-17 03:00","2017","12","17","03:00","-20.4","","-22.9","","80","","5","","12","","","","100.11","","","","-29","","NA"
"2017-12-17 04:00","2017","12","17","04:00","-19.8","","-22.1","","82","","5","","10","","","","100.04","","","","-27","","NA"
"2017-12-17 05:00","2017","12","17","05:00","-18.9","","-21.0","","83","","5","","8","","","","99.92","","","","-25","","NA"
"2017-12-17 06:00","2017","12","17","06:00","-17.8","","-19.9","","84","","5","","9","","","","99.86","","","","-24","","NA"
"2017-12-17 07:00","2017","12","17","07:00","-16.5","","-18.5","","85","","5","","7","","","","99.83","","","","-22","","NA"
"2017-12-17 08:00","2017","12","17","08:00","-14.4","","-16.1","","87","","14","","4","","","","99.83","","","","-17","","NA"
"2017-12-17 09:00","2017","12","17","09:00","-10.7","","-12.5","","87","","15","","6","","","","99.75","","","","-14","","NA"
"2017-12-17 10:00","2017","12","17","10:00","-8.8","","-10.6","","87","","14","","9","","","","99.74","","","","-13","","NA"
"2017-12-17 11:00","2017","12","17","11:00","-5.4","","-5.5","","99","","20","","14","","","","99.70","","","","-11","","NA"
"2017-12-17 12:00","2017","12","17","12:00","-3.9","","-5.0","","92","","20","","16","","","","99.60","","","","-9","","NA"
"2017-12-17 13:00","2017","12","17","13:00","-3.3","","-3.9","","96","","20","","14","","","","99.50","","","","-8","","NA"
"2017-12-17 14:00","2017","12","17","14:00","-2.6","","-3.4","","94","","20","","15","","","","99.38","","","","-8","","NA"
"2017-12-17 15:00","2017","12","17","15:00","-1.7","","-3.2","","90","","22","","12","","","","99.29","","","","-6","","NA"
"2017-12-17 16:00","2017","12","17","16:00","-1.3","","-3.5","","85","","22","","15","","","","99.23","","","","-6","","NA"
"2017-12-17 17:00","2017","12","17","17:00","-1.4","","-3.3","","86","","23","","13","","","","99.18","","","","-6","","NA"
"2017-12-17 18:00","2017","12","17","18:00","-1.0","","-3.2","","85","","21","","15","","","","99.09","","","","-6","","NA"
"2017-12-17 19:00","2017","12","17","19:00","-0.7","","-2.8","","86","","23","","12","","","","99.07","","","","-5","","NA"
"2017-12-17 20:00","2017","12","17","20:00","-0.5","","-2.7","","85","","23","","13","","","","99.01","","","","-5","","NA"
"2017-12-17 21:00","2017","12","17","21:00","-0.3","","-2.3","","86","","23","","12","","","","98.94","","","","-4","","NA"
"2017-12-17 22:00","2017","12","17","22:00","-0.3","","-2.2","","87","","23","","16","","","","98.90","","","","-5","","NA"
"2017-12-17 23:00","2017","12","17","23:00","-0.5","","-2.4","","87","","24","","15","","","","98.85","","","","-5","","NA"
"2017-12-18 00:00","2017","12","18","00:00","-0.7","","-2.8","","86","","24","","13","","","","98.80","","","","-5","","NA"
"2017-12-18 01:00","2017","12","18","01:00","-0.7","","-2.7","","86","","21","","14","","","","98.73","","","","-5","","NA"
"2017-12-18 02:00","2017","12","18","02:00","-0.3","","-2.1","","88","","21","","13","","","","98.64","","","","-4","","NA"
"2017-12-18 03:00","2017","12","18","03:00","0.1","","-1.7","","87","","21","","14","","","","98.57","","","","","","NA"
"2017-12-18 04:00","2017","12","18","04:00","0.4","","-2.2","","83","","23","","12","","","","98.51","","","","","","NA"
"2017-12-18 05:00","2017","12","18","05:00","0.5","","-1.7","","85","","24","","14","","","","98.47","","","","","","NA"
"2017-12-18 06:00","2017","12","18","06:00","0.3","","-2.4","","82","","25","","13","","","","98.44","","","","","","NA"
"2017-12-18 07:00","2017","12","18","07:00","0.1","","-2.4","","83","","24","","12","","","","98.38","","","","","","NA"
"2017-12-18 08:00","2017","12","18","08:00","0.1","","-2.4","","83","","23","","10","","","","98.29","","","","","","NA"
"2017-12-18 09:00","2017","12","18","09:00","0.7","","-2.3","","80","","22","","13","","","","98.28","","","","","","NA"
"2017-12-18 10:00","2017","12","18","10:00","0.5","","-2.3","","82","","21","","13","","","","98.25","","","","","","NA"
"2017-12-18 11:00","2017","12","18","11:00","0.7","","-2.0","","82","","22","","10","","","","98.18","","","","","","NA"
"2017-12-18 12:00","2017","12","18","12:00","0.8","","-1.6","","84","","22","","13","","","","98.10","","","","","","NA"
"2017-12-18 13:00","2017","12","18","13:00","0.5","","-2.0","","84","","22","","15","","","","98.03","","","","","","NA"
"2017-12-18 14:00","2017","12","18","14:00","0.4","","-2.3","","82","","21","","16","","","","97.92","","","","","","NA"
"2017-12-18 15:00","2017","12","18","15:00","0.4","","-1.6","","86","","21","","14","","","","97.82","","","","","","NA"
"2017-12-18 16:00","2017","12","18","16:00","0.6","","-1.5","","86","","21","","14","","","","97.77","","","","","","NA"
"2017-12-18 17:00","2017","12","18","17:00","0.9","","-0.8","","89","","22","","13","","","","97.72","","","","","","NA"
"2017-12-18 18:00","2017","12","18","18:00","1.4","","-0.4","","88","","22","","14","","","","97.68","","","","","","NA"
"2017-12-18 19:00","2017","12","18","19:00","1.8","","-0.1","","88","","22","","15","","","","97.62","","","","","","NA"
"2017-12-18 20:00","2017","12","18","20:00","1.9","","-0.1","","86","","22","","16","","","","97.55","","","","","","NA"
"2017-12-18 21:00","2017","12","18","21:00","1.9","","0.6","","91","","22","","15","","","","97.45","","","","","","NA"
"2017-12-18 22:00","2017","12","18","22:00","1.4","","1.2","","98","","22","","13","","","","97.37","","","","","","NA"
"2017-12-18 23:00","2017","12","18","23:00","0.3","","0.3","","100","","22","","11","","","","97.31","","","","","","NA"
"2017-12-19 00:00","2017","12","19","00:00","0.4","","0.4","","100","","24","","14","","","","97.26","","","","","","NA"
"2017-12-19 01:00","2017","12","19","01:00","0.5","","0.5","","100","","24","","12","","","","97.20","","","","","","NA"
"2017-12-19 02:00","2017","12","19","02:00","0.7","","0.7","","100","","29","","13","","","","97.23","","","","","","NA"
"2017-12-19 03:00","2017","12","19","03:00","0.8","","0.8","","100","","30","","8","","","","97.29","","","","","","NA"
"2017-12-19 04:00","2017","12","19","04:00","0.6","","0.6","","100","","29","","7","","","","97.32","","","","","","NA"
"2017-12-19 05:00","2017","12","19","05:00","0.3","","0.2","","99","","30","","9","","","","97.36","","","","","","NA"
"2017-12-19 06:00","2017","12","19","06:00","0.3","","0.3","","100","","27","","10","","","","97.39","","","","","","NA"
"2017-12-19 07:00","2017","12","19","07:00","0.4","","-1.2","","89","","28","","12","","","","97.41","","","","","","NA"
"2017-12-19 08:00","2017","12","19","08:00","0.7","","-1.1","","88","","29","","11","","","","97.43","","","","","","NA"
"2017-12-19 09:00","2017","12","19","09:00","1.3","","-1.0","","84","","27","","16","","","","97.41","","","","","","NA"
"2017-12-19 10:00","2017","12","19","10:00","1.5","","-1.6","","80","","28","","18","","","","97.44","","","","","","NA"
"2017-12-19 11:00","2017","12","19","11:00","1.5","","-2.2","","77","","28","","19","","","","97.46","","","","","","NA"
"2017-12-19 12:00","2017","12","19","12:00","1.6","","-3.0","","72","","28","","18","","","","97.44","","","","","","NA"
"2017-12-19 13:00","2017","12","19","13:00","0.7","","-3.0","","76","","29","","16","","","","97.46","","","","","","NA"
"2017-12-19 14:00","2017","12","19","14:00","0.5","","-4.2","","71","","30","","13","","","","97.49","","","","","","NA"
"2017-12-19 15:00","2017","12","19","15:00","-1.4","","-4.2","","81","","31","","18","","","","97.60","","","","-7","","NA"
"2017-12-19 16:00","2017","12","19","16:00","-1.7","","-5.2","","77","","31","","10","","","","97.75","","","","-5","","NA"
"2017-12-19 17:00","2017","12","19","17:00","-2.7","","-7.5","","69","","30","","15","","","","97.96","","","","-8","","NA"
"2017-12-19 18:00","2017","12","19","18:00","-4.3","","-9.4","","68","","30","","14","","","","98.16","","","","-9","","NA"
"2017-12-19 19:00","2017","12","19","19:00","-5.5","","-10.4","","68","","31","","11","","","","98.32","","","","-10","","NA"
"2017-12-19 20:00","2017","12","19","20:00","-6.9","","-12.3","","65","","34","","11","","","","98.48","","","","-12","","NA"
"2017-12-19 21:00","2017","12","19","21:00","-7.5","","-12.6","","67","","33","","11","","","","98.64","","","","-13","","NA"
"2017-12-19 22:00","2017","12","19","22:00","-7.9","","-12.8","","68","","33","","10","","","","98.74","","","","-13","","NA"
"2017-12-19 23:00","2017","12","19","23:00","-8.1","","-12.6","","70","","31","","10","","","","98.83","","","","-13","","NA"
"2017-12-20 00:00","2017","12","20","00:00","-8.7","","-13.4","","69","","34","","9","","","","98.95","","","","-13","","NA"
"2017-12-20 01:00","2017","12","20","01:00","-10.4","","-15.0","","69","","35","","10","","","","99.06","","","","-16","","NA"
"2017-12-20 02:00","2017","12","20","02:00","-11.6","","-15.7","","71","","35","","9","","","","99.16","","","","-17","","NA"
"2017-12-20 03:00","2017","12","20","03:00","-12.1","","-15.9","","73","","1","","9","","","","99.27","","","","-17","","NA"
"2017-12-20 04:00","2017","12","20","04:00","-13.1","","-16.2","","78","","2","","7","","","","99.35","","","","-18","","NA"
"2017-12-20 05:00","2017","12","20","05:00","-13.4","","-16.5","","77","","1","","8","","","","99.41","","","","-18","","NA"
"2017-12-20 06:00","2017","12","20","06:00","-14.0","","-17.6","","74","","1","","7","","","","99.46","","","","-19","","NA"
"2017-12-20 07:00","2017","12","20","07:00","-14.7","","-18.3","","74","","36","","7","","","","99.59","","","","-19","","NA"
"2017-12-20 08:00","2017","12","20","08:00","-16.2","","-19.0","","79","","","","0","","","","99.64","","","","","","NA"
"2017-12-20 09:00","2017","12","20","09:00","-16.8","","-18.7","","86","","35","","1","","","","99.70","","","","-18","","NA"
"2017-12-20 10:00","2017","12","20","10:00","-15.4","","-18.2","","79","","3","","5","","","","99.77","","","","-19","","NA"
"2017-12-20 11:00","2017","12","20","11:00","-13.9","","-18.0","","71","","36","","7","","","","99.82","","","","-19","","NA"
"2017-12-20 12:00","2017","12","20","12:00","-13.2","","-18.2","","66","","36","","7","","","","99.81","","","","-18","","NA"
"2017-12-20 13:00","2017","12","20","13:00","-12.5","","-19.0","","58","","4","","6","","","","99.82","","","","-16","","NA"
"2017-12-20 14:00","2017","12","20","14:00","-12.4","","-19.2","","57","","2","","5","","","","99.81","","","","-16","","NA"
"2017-12-20 15:00","2017","12","20","15:00","-12.7","","-18.8","","60","","1","","5","","","","99.82","","","","-16","","NA"
"2017-12-20 16:00","2017","12","20","16:00","-13.2","","-18.4","","65","","1","","3","","","","99.88","","","","-15","","NA"
"2017-12-20 17:00","2017","12","20","17:00","-13.8","","-17.9","","71","","4","","4","","","","99.88","","","","-17","","NA"
"2017-12-20 18:00","2017","12","20","18:00","-16.0","","-18.9","","79","","5","","2","","","","99.93","","","","-17","","NA"
"2017-12-20 19:00","2017","12","20","19:00","-17.2","","-19.4","","83","","7","","5","","","","99.93","","","","-21","","NA"
"2017-12-20 20:00","2017","12","20","20:00","-17.2","","-18.9","","86","","5","","5","","","","99.95","","","","-21","","NA"
"2017-12-20 21:00","2017","12","20","21:00","-17.3","","-19.2","","85","","5","","6","","","","99.94","","","","-22","","NA"
"2017-12-20 22:00","2017","12","20","22:00","-17.0","","-19.3","","83","","4","","4","","","","99.93","","","","-20","","NA"
"2017-12-20 23:00","2017","12","20","23:00","-16.7","","-18.9","","83","","5","","3","","","","100.00","","","","-19","","NA"
"2017-12-21 00:00","2017","12","21","00:00","-16.6","","-18.7","","84","","5","","4","","","","100.02","","","","-20","","NA"
"2017-12-21 01:00","2017","12","21","01:00","-17.0","","-19.2","","83","","5","","7","","","","100.05","","","","-22","","NA"
"2017-12-21 02:00","2017","12","21","02:00","-17.7","","-19.8","","84","","4","","8","","","","100.05","","","","-24","","NA"
"2017-12-21 03:00","2017","12","21","03:00","-18.7","","-20.9","","83","","4","","5","","","","100.07","","","","-23","","NA"
"2017-12-21 04:00","2017","12","21","04:00","-18.6","","-20.8","","83","","5","","7","","","","100.09","","","","-24","","NA"
"2017-12-21 05:00","2017","12","21","05:00","-18.9","","-21.1","","83","","4","","8","","","","100.11","","","","-25","","NA"
"2017-12-21 06:00","2017","12","21","06:00","-18.9","","-21.1","","82","","4","","7","","","","100.09","","","","-24","","NA"
"2017-12-21 07:00","2017","12","21","07:00","-18.3","","-20.6","","82","","5","","7","","","","100.06","","","","-24","","NA"
"2017-12-21 08:00","2017","12","21","08:00","-18.0","","-20.4","","81","","4","","8","","","","100.07","","","","-24","","NA"
"2017-12-21 09:00","2017","12","21","09:00","-17.7","","-20.1","","81","","5","","6","","","","100.10","","","","-22","","NA"
"2017-12-21 10:00","2017","12","21","10:00","-16.9","","-19.7","","79","","4","","6","","","","100.16","","","","-21","","NA"
"2017-12-21 11:00","2017","12","21","11:00","-15.2","","-18.9","","73","","4","","7","","","","100.18","","","","-20","","NA"
"2017-12-21 12:00","2017","12","21","12:00","-13.6","","-18.7","","65","","4","","9","","","","100.12","","","","-19","","NA"
"2017-12-21 13:00","2017","12","21","13:00","-12.6","","-18.7","","60","","7","","6","","","","100.10","","","","-17","","NA"
"2017-12-21 14:00","2017","12","21","14:00","-12.6","","-17.9","","64","","4","","11","","","","100.03","","","","-19","","NA"
"2017-12-21 15:00","2017","12","21","15:00","-12.2","","-16.6","","70","","4","","9","","","","100.01","","","","-17","","NA"
"2017-12-21 16:00","2017","12","21","16:00","-12.3","","-16.0","","73","","5","","7","","","","100.06","","","","-17","","NA"
"2017-12-21 17:00","2017","12","21","17:00","-12.5","","-15.7","","77","","5","","6","","","","100.05","","","","-16","","NA"
"2017-12-21 18:00","2017","12","21","18:00","-12.6","","-15.8","","77","","5","","7","","","","100.03","","","","-17","","NA"
"2017-12-21 19:00","2017","12","21","19:00","-12.6","","-15.8","","77","","4","","6","","","","100.00","","","","-17","","NA"
"2017-12-21 20:00","2017","12","21","20:00","-12.5","","-15.5","","78","","4","","9","","","","100.00","","","","-18","","NA"
"2017-12-21 21:00","2017","12","21","21:00","-12.4","","-15.2","","80","","4","","8","","","","99.93","","","","-17","","NA"
"2017-12-21 22:00","2017","12","21","22:00","-12.5","","-15.0","","82","","4","","7","","","","99.92","","","","-17","","NA"
"2017-12-21 23:00","2017","12","21","23:00","-12.4","","-14.8","","82","","4","","7","","","","99.90","","","","-17","","NA"
"2017-12-22 00:00","2017","12","22","00:00","-12.3","","-14.6","","83","","4","","9","","","","99.86","","","","-18","","NA"
"2017-12-22 01:00","2017","12","22","01:00","-12.0","","-14.2","","84","","5","","7","","","","99.82","","","","-16","","NA"
"2017-12-22 02:00","2017","12","22","02:00","-11.6","","-13.7","","85","","4","","6","","","","99.77","","","","-15","","NA"
"2017-12-22 03:00","2017","12","22","03:00","-11.3","","-13.4","","85","","4","","6","","","","99.75","","","","-15","","NA"
"2017-12-22 04:00","2017","12","22","04:00","-11.1","","-13.4","","84","","5","","9","","","","99.71","","","","-16","","NA"
"2017-12-22 05:00","2017","12","22","05:00","-11.0","","-13.4","","83","","4","","13","","","","99.63","","","","-17","","NA"
"2017-12-22 06:00","2017","12","22","06:00","-10.9","","-13.3","","82","","4","","13","","","","99.58","","","","-17","","NA"
"2017-12-22 07:00","2017","12","22","07:00","-10.7","","-12.8","","85","","4","","13","","","","99.55","","","","-17","","NA"
"2017-12-22 08:00","2017","12","22","08:00","-10.5","","-12.2","","88","","5","","12","","","","99.52","","","","-17","","NA"
"2017-12-22 09:00","2017","12","22","09:00","-10.5","","-12.2","","88","","3","","10","","","","99.49","","","","-16","","NA"
"2017-12-22 10:00","2017","12","22","10:00","-10.1","","-11.3","","91","","4","","11","","","","99.43","","","","-16","","NA"
"2017-12-22 11:00","2017","12","22","11:00","-9.4","","-10.3","","93","","4","","13","","","","99.40","","","","-15","","NA"
"2017-12-22 12:00","2017","12","22","12:00","-4.1","","-4.6","","97","","18","","9","","","","99.30","","","","-8","","NA"
"2017-12-22 13:00","2017","12","22","13:00","-3.6","","-5.6","","86","","17","","13","","","","99.23","","","","-8","","NA"
"2017-12-22 14:00","2017","12","22","14:00","-3.2","","-5.4","","85","","17","","12","","","","99.20","","","","-8","","NA"
"2017-12-22 15:00","2017","12","22","15:00","-3.5","","-4.4","","94","","17","","11","","","","99.15","","","","-8","","NA"
"2017-12-22 16:00","2017","12","22","16:00","-3.3","","-3.6","","98","","16","","11","","","","99.09","","","","-8","","NA"
"2017-12-22 17:00","2017","12","22","17:00","-2.8","","-4.1","","91","","17","","10","","","","99.03","","","","-7","","NA"
"2017-12-22 18:00","2017","12","22","18:00","-2.4","","-2.4","","100","","18","","8","","","","99.01","","","","-6","","NA"
"2017-12-22 19:00","2017","12","22","19:00","-1.6","","-2.8","","92","","23","","15","","","","98.94","","","","-6","","NA"
"2017-12-22 20:00","2017","12","22","20:00","-2.1","","-2.3","","99","","24","","16","","","","98.92","","","","-7","","NA"
"2017-12-22 21:00","2017","12","22","21:00","-1.8","","-3.2","","90","","25","","15","","","","98.87","","","","-7","","NA"
"2017-12-22 22:00","2017","12","22","22:00","-2.2","","-2.4","","99","","24","","16","","","","98.85","","","","-7","","NA"
"2017-12-22 23:00","2017","12","22","23:00","-2.5","","-2.7","","98","","29","","8","","","","98.82","","","","-6","","NA"
"2017-12-23 00:00","2017","12","23","00:00","-3.5","","-3.8","","98","","30","","9","","","","98.82","","","","-7","","NA"
"2017-12-23 01:00","2017","12","23","01:00","-4.3","","-5.6","","91","","30","","6","","","","98.81","","","","-7","","NA"
"2017-12-23 02:00","2017","12","23","02:00","-4.8","","-6.4","","88","","27","","13","","","","98.81","","","","-10","","NA"
"2017-12-23 03:00","2017","12","23","03:00","-6.0","","-8.1","","85","","32","","5","","","","98.87","","","","-8","","NA"
"2017-12-23 04:00","2017","12","23","04:00","-7.3","","-9.3","","86","","33","","3","","","","98.92","","","","-9","","NA"
"2017-12-23 05:00","2017","12","23","05:00","-8.5","","-10.6","","85","","35","","5","","","","98.94","","","","-11","","NA"
"2017-12-23 06:00","2017","12","23","06:00","-11.1","","-13.7","","81","","3","","4","","","","99.02","","","","-14","","NA"
"2017-12-23 07:00","2017","12","23","07:00","-11.1","","-13.1","","85","","3","","6","","","","99.06","","","","-15","","NA"
"2017-12-23 08:00","2017","12","23","08:00","-10.9","","-13.2","","84","","1","","3","","","","99.03","","","","-13","","NA"
"2017-12-23 09:00","2017","12","23","09:00","-11.0","","-13.1","","85","","4","","3","","","","99.05","","","","-13","","NA"
"2017-12-23 10:00","2017","12","23","10:00","-10.7","","-13.3","","81","","33","","2","","","","99.07","","","","-12","","NA"
"2017-12-23 11:00","2017","12","23","11:00","-11.0","","-14.7","","74","","33","","7","","","","99.10","","","","-15","","NA"
"2017-12-23 12:00","2017","12","23","12:00","-11.3","","-14.9","","74","","31","","5","","","","99.10","","","","-14","","NA"
"2017-12-23 13:00","2017","12","23","13:00","-11.5","","-15.6","","72","","31","","5","","","","99.08","","","","-15","","NA"
"2017-12-23 14:00","2017","12","23","14:00","-11.3","","-16.0","","69","","30","","10","","","","99.10","","","","-17","","NA"
"2017-12-23 15:00","2017","12","23","15:00","-11.5","","-16.5","","67","","32","","5","","","","99.09","","","","-15","","NA"
"2017-12-23 16:00","2017","12","23","16:00","-11.6","","-15.7","","72","","30","","7","","","","99.14","","","","-16","","NA"
"2017-12-23 17:00","2017","12","23","17:00","-13.0","","-16.2","","77","","3","","3","","","","99.18","","","","-15","","NA"
"2017-12-23 18:00","2017","12","23","18:00","-15.7","","-17.7","","85","","7","","2","","","","99.20","","","","-17","","NA"
"2017-12-23 19:00","2017","12","23","19:00","-16.5","","-18.2","","87","","4","","6","","","","99.24","","","","-21","","NA"
"2017-12-23 20:00","2017","12","23","20:00","-16.7","","-18.5","","85","","6","","5","","","","99.23","","","","-21","","NA"
"2017-12-23 21:00","2017","12","23","21:00","-16.3","","-18.3","","85","","4","","6","","","","99.16","","","","-21","","NA"
"2017-12-23 22:00","2017","12","23","22:00","-15.2","","-16.8","","88","","5","","11","","","","99.14","","","","-22","","NA"
"2017-12-23 23:00","2017","12","23","23:00","-15.1","","-16.6","","88","","4","","8","","","","99.14","","","","-20","","NA"
"2017-12-24 00:00","2017","12","24","00:00","-14.6","","-16.1","","88","","4","","7","","","","99.16","","","","-19","","NA"
"2017-12-24 01:00","2017","12","24","01:00","-14.8","","-16.4","","88","","5","","9","","","","99.14","","","","-21","","NA"
"2017-12-24 02:00","2017","12","24","02:00","-14.8","","-16.4","","87","","2","","5","","","","99.17","","","","-18","","NA"
"2017-12-24 03:00","2017","12","24","03:00","-15.7","","-17.7","","84","","4","","4","","","","99.19","","","","-19","","NA"
"2017-12-24 04:00","2017","12","24","04:00","-16.0","","-17.8","","86","","4","","8","","","","99.19","","","","-22","","NA"
"2017-12-24 05:00","2017","12","24","05:00","-15.8","","-17.6","","87","","5","","9","","","","99.19","","","","-22","","NA"
"2017-12-24 06:00","2017","12","24","06:00","-15.8","","-17.6","","86","","5","","7","","","","99.18","","","","-21","","NA"
"2017-12-24 07:00","2017","12","24","07:00","-16.2","","-18.2","","85","","6","","10","","","","99.20","","","","-23","","NA"
"2017-12-24 08:00","2017","12","24","08:00","-17.0","","-18.9","","85","","5","","8","","","","99.27","","","","-23","","NA"
"2017-12-24 09:00","2017","12","24","09:00","-17.4","","-19.3","","85","","5","","8","","","","99.34","","","","-23","","NA"
"2017-12-24 10:00","2017","12","24","10:00","-17.5","","-19.4","","85","","5","","8","","","","99.41","","","","-23","","NA"
"2017-12-24 11:00","2017","12","24","11:00","-16.0","","-18.2","","84","","4","","9","","","","99.45","","","","-22","","NA"
"2017-12-24 12:00","2017","12","24","12:00","-14.8","","-17.5","","80","","3","","8","","","","99.44","","","","-20","","NA"
"2017-12-24 13:00","2017","12","24","13:00","-14.0","","-17.5","","75","","5","","10","","","","99.37","","","","-20","","NA"
"2017-12-24 14:00","2017","12","24","14:00","-13.4","","-17.1","","74","","4","","8","","","","99.32","","","","-18","","NA"
"2017-12-24 15:00","2017","12","24","15:00","-13.8","","-17.2","","75","","2","","4","","","","99.34","","","","-17","","NA"
"2017-12-24 16:00","2017","12","24","16:00","-14.8","","-17.1","","83","","4","","6","","","","99.30","","","","-19","","NA"
"2017-12-24 17:00","2017","12","24","17:00","-16.0","","-18.0","","85","","4","","7","","","","99.27","","","","-21","","NA"
"2017-12-24 18:00","2017","12","24","18:00","-17.3","","-19.3","","84","","4","","8","","","","99.27","","","","-23","","NA"
"2017-12-24 19:00","2017","12","24","19:00","-18.2","","-20.2","","84","","6","","6","","","","99.27","","","","-23","","NA"
"2017-12-24 20:00","2017","12","24","20:00","-19.1","","-21.1","","84","","4","","9","","","","99.25","","","","-26","","NA"
"2017-12-24 21:00","2017","12","24","21:00","-19.8","","-22.1","","82","","5","","11","","","","99.19","","","","-27","","NA"
"2017-12-24 22:00","2017","12","24","22:00","-19.9","","-22.1","","82","","4","","12","","","","99.10","","","","-28","","NA"
"2017-12-24 23:00","2017","12","24","23:00","-19.6","","-21.9","","82","","4","","14","","","","99.04","","","","-28","","NA"
"2017-12-25 00:00","2017","12","25","00:00","-19.8","","-22.0","","83","","5","","11","","","","99.00","","","","-27","","NA"
"2017-12-25 01:00","2017","12","25","01:00","-19.9","","-22.1","","82","","4","","13","","","","98.91","","","","-28","","NA"
"2017-12-25 02:00","2017","12","25","02:00","-19.2","","-21.3","","83","","4","","13","","","","98.88","","","","-27","","NA"
"2017-12-25 03:00","2017","12","25","03:00","-18.4","","-20.5","","83","","4","","15","","","","98.85","","","","-27","","NA"
"2017-12-25 04:00","2017","12","25","04:00","-18.5","","-20.7","","83","","4","","14","","","","98.86","","","","-27","","NA"
"2017-12-25 05:00","2017","12","25","05:00","-19.0","","-21.1","","84","","4","","16","","","","98.90","","","","-28","","NA"
"2017-12-25 06:00","2017","12","25","06:00","-19.4","","-21.5","","83","","4","","15","","","","98.90","","","","-28","","NA"
"2017-12-25 07:00","2017","12","25","07:00","-19.6","","-21.8","","83","","5","","16","","","","98.92","","","","-29","","NA"
"2017-12-25 08:00","2017","12","25","08:00","-19.8","","-22.1","","81","","5","","13","","","","98.93","","","","-28","","NA"
"2017-12-25 09:00","2017","12","25","09:00","-19.8","","-22.1","","82","","4","","11","","","","98.95","","","","-27","","NA"
"2017-12-25 10:00","2017","12","25","10:00","-20.2","","-22.7","","80","","3","","8","","","","99.01","","","","-26","","NA"
"2017-12-25 11:00","2017","12","25","11:00","-19.7","","-22.4","","79","","3","","8","","","","99.05","","","","-26","","NA"
"2017-12-25 12:00","2017","12","25","12:00","-19.4","","-22.7","","75","","2","","10","","","","99.05","","","","-26","","NA"
"2017-12-25 13:00","2017","12","25","13:00","-19.2","","-22.5","","75","","1","","7","","","","99.04","","","","-25","","NA"
"2017-12-25 14:00","2017","12","25","14:00","-19.2","","-22.8","","73","","2","","9","","","","99.07","","","","-26","","NA"
"2017-12-25 15:00","2017","12","25","15:00","-20.2","","-23.5","","75","","35","","7","","","","99.14","","","","-26","","NA"
"2017-12-25 16:00","2017","12","25","16:00","-21.1","","-24.4","","75","","1","","6","","","","99.24","","","","-26","","NA"
"2017-12-25 17:00","2017","12","25","17:00","-21.6","","-24.6","","77","","36","","6","","","","99.34","","","","-27","","NA"
"2017-12-25 18:00","2017","12","25","18:00","-23.2","","-26.3","","76","","1","","5","","","","99.47","","","","-28","","NA"
"2017-12-25 19:00","2017","12","25","19:00","-24.2","","-27.4","","75","","36","","7","","","","99.57","","","","-31","","NA"
"2017-12-25 20:00","2017","12","25","20:00","-24.8","","-28.2","","73","","36","","8","","","","99.64","","","","-32","","NA"
"2017-12-25 21:00","2017","12","25","21:00","-26.1","","-29.5","","73","","36","","6","","","","99.73","","","","-32","","NA"
"2017-12-25 22:00","2017","12","25","22:00","-26.7","","-30.7","","69","","36","","7","","","","99.81","","","","-33","","NA"
"2017-12-25 23:00","2017","12","25","23:00","-27.5","","-31.3","","70","","35","","7","","","","99.88","","","","-34","","NA"
"2017-12-26 00:00","2017","12","26","00:00","-28.1","","-32.7","","65","","36","","7","","","","99.91","","","","-35","","NA"
"2017-12-26 01:00","2017","12","26","01:00","-28.9","","-33.6","","64","","36","","5","","","","99.99","","","","-34","","NA"
"2017-12-26 02:00","2017","12","26","02:00","-29.5","","-34.1","","65","","36","","7","","","","100.04","","","","-37","","NA"
"2017-12-26 03:00","2017","12","26","03:00","-31.4","","-34.9","","71","","4","","7","","","","100.11","","","","-39","","NA"
"2017-12-26 04:00","2017","12","26","04:00","-32.5","","-36.3","","69","","3","","7","","","","100.12","","","","-40","","NA"
"2017-12-26 05:00","2017","12","26","05:00","-32.1","","-35.9","","69","","4","","9","","","","100.13","","","","-41","","NA"
"2017-12-26 06:00","2017","12","26","06:00","-32.0","","-35.7","","70","","4","","8","","","","100.15","","","","-40","","NA"
"2017-12-26 07:00","2017","12","26","07:00","-31.3","","-35.1","","69","","5","","11","","","","100.17","","","","-41","","NA"
"2017-12-26 08:00","2017","12","26","08:00","-32.1","","-35.9","","69","","4","","9","","","","100.22","","","","-41","","NA"
"2017-12-26 09:00","2017","12","26","09:00","-32.0","","-35.7","","69","","5","","11","","","","100.29","","","","-42","","NA"
"2017-12-26 10:00","2017","12","26","10:00","-31.0","","-34.9","","68","","4","","8","","","","100.35","","","","-39","","NA"
"2017-12-26 11:00","2017","12","26","11:00","-28.7","","-32.9","","67","","3","","9","","","","100.39","","","","-37","","NA"
"2017-12-26 12:00","2017","12","26","12:00","-27.6","","-32.9","","61","","3","","7","","","","100.42","","","","-34","","NA"
"2017-12-26 13:00","2017","12","26","13:00","-27.0","","-32.5","","60","","3","","5","","","","100.40","","","","-32","","NA"
"2017-12-26 14:00","2017","12","26","14:00","-25.7","","-31.3","","59","","2","","4","","","","100.41","","","","-30","","NA"
"2017-12-26 15:00","2017","12","26","15:00","-25.5","","-30.7","","62","","35","","6","","","","100.44","","","","-31","","NA"
"2017-12-26 16:00","2017","12","26","16:00","-25.8","","-30.2","","67","","2","","2","","","","100.50","","","","-28","","NA"
"2017-12-26 17:00","2017","12","26","17:00","-27.5","","-31.1","","72","","5","","4","","","","100.55","","","","-32","","NA"
"2017-12-26 18:00","2017","12","26","18:00","-28.2","","-31.5","","73","","5","","6","","","","100.63","","","","-34","","NA"
"2017-12-26 19:00","2017","12","26","19:00","-29.3","","-32.6","","73","","5","","7","","","","100.70","","","","-36","","NA"
"2017-12-26 20:00","2017","12","26","20:00","-30.7","","-34.0","","73","","6","","8","","","","100.77","","","","-39","","NA"
"2017-12-26 21:00","2017","12","26","21:00","-31.9","","-35.3","","72","","4","","5","","","","100.84","","","","-38","","NA"
"2017-12-26 22:00","2017","12","26","22:00","-32.4","","-35.8","","71","","6","","6","","","","100.88","","","","-39","","NA"
"2017-12-26 23:00","2017","12","26","23:00","-32.4","","-35.6","","73","","4","","9","","","","100.91","","","","-41","","NA"
"2017-12-27 00:00","2017","12","27","00:00","-32.7","","-36.1","","71","","8","","6","","","","100.99","","","","-40","","NA"
"2017-12-27 01:00","2017","12","27","01:00","-33.7","","-37.1","","72","","6","","6","","","","101.04","","","","-41","","NA"
"2017-12-27 02:00","2017","12","27","02:00","-34.1","","-37.8","","69","","5","","8","","","","101.07","","","","-43","","NA"
"2017-12-27 03:00","2017","12","27","03:00","-34.8","","-38.6","","68","","5","","7","","","","101.13","","","","-43","","NA"
"2017-12-27 04:00","2017","12","27","04:00","-35.7","","-39.6","","68","","7","","6","","","","101.15","","","","-43","","NA"
"2017-12-27 05:00","2017","12","27","05:00","-35.4","","-39.3","","68","","7","","8","","","","101.16","","","","-44","","NA"
"2017-12-27 06:00","2017","12","27","06:00","-36.7","","-40.8","","66","","6","","9","","","","101.21","","","","-47","","NA"
"2017-12-27 07:00","2017","12","27","07:00","-36.9","","-41.0","","66","","5","","11","","","","101.24","","","","-48","","NA"
"2017-12-27 08:00","2017","12","27","08:00","-36.8","","-40.9","","66","","5","","12","","","","101.28","","","","-48","","NA"
"2017-12-27 09:00","2017","12","27","09:00","-36.8","","-40.9","","66","","5","","13","","","","101.32","","","","-49","","NA"
"2017-12-27 10:00","2017","12","27","10:00","-35.4","","-39.4","","67","","6","","9","","","","101.38","","","","-45","","NA"
"2017-12-27 11:00","2017","12","27","11:00","-32.1","","-35.7","","71","","5","","7","","","","101.44","","","","-40","","NA"
"2017-12-27 12:00","2017","12","27","12:00","-27.9","","-32.4","","66","","3","","5","","","","101.42","","","","-33","","NA"
"2017-12-27 13:00","2017","12","27","13:00","-25.4","","-30.4","","63","","4","","6","","","","101.38","","","","-31","","NA"
"2017-12-27 14:00","2017","12","27","14:00","-24.1","","-29.2","","62","","3","","7","","","","101.34","","","","-30","","NA"
"2017-12-27 15:00","2017","12","27","15:00","-23.1","","-28.0","","64","","3","","7","","","","101.36","","","","-29","","NA"
"2017-12-27 16:00","2017","12","27","16:00","-23.6","","-27.6","","70","","10","","3","","","","101.40","","","","-26","","NA"
"2017-12-27 17:00","2017","12","27","17:00","-25.7","","-28.9","","75","","2","","5","","","","101.42","","","","-31","","NA"
"2017-12-27 18:00","2017","12","27","18:00","-27.0","","-29.9","","76","","6","","6","","","","101.46","","","","-33","","NA"
"2017-12-27 19:00","2017","12","27","19:00","-27.9","","-31.0","","75","","5","","5","","","","101.51","","","","-33","","NA"
"2017-12-27 20:00","2017","12","27","20:00","-28.9","","-32.0","","75","","6","","7","","","","101.52","","","","-36","","NA"
"2017-12-27 21:00","2017","12","27","21:00","-29.7","","-32.9","","74","","6","","9","","","","101.51","","","","-38","","NA"
"2017-12-27 22:00","2017","12","27","22:00","-30.7","","-34.0","","73","","6","","9","","","","101.51","","","","-39","","NA"
"2017-12-27 23:00","2017","12","27","23:00","-31.1","","-34.5","","72","","6","","9","","","","101.53","","","","-40","","NA"
"2017-12-28 00:00","2017","12","28","00:00","-31.9","","-35.4","","71","","5","","9","","","","101.55","","","","-41","","NA"
"2017-12-28 01:00","2017","12","28","01:00","-32.3","","-35.8","","71","","5","","13","","","","101.55","","","","-43","","NA"
"2017-12-28 02:00","2017","12","28","02:00","-32.6","","-36.2","","70","","5","","12","","","","101.54","","","","-43","","NA"
"2017-12-28 03:00","2017","12","28","03:00","-32.9","","-36.6","","70","","5","","13","","","","101.53","","","","-44","","NA"
"2017-12-28 04:00","2017","12","28","04:00","-33.1","","-36.7","","70","","5","","12","","","","101.55","","","","-44","","NA"
"2017-12-28 05:00","2017","12","28","05:00","-33.5","","-37.1","","70","","6","","9","","","","101.55","","","","-43","","NA"
"2017-12-28 06:00","2017","12","28","06:00","-33.9","","-37.7","","69","","5","","10","","","","101.54","","","","-44","","NA"
"2017-12-28 07:00","2017","12","28","07:00","-33.3","","-37.0","","70","","5","","11","","","","101.53","","","","-44","","NA"
"2017-12-28 08:00","2017","12","28","08:00","-33.0","","-36.6","","70","","5","","11","","","","101.47","","","","-43","","NA"
"2017-12-28 09:00","2017","12","28","09:00","-32.7","","-36.3","","70","","6","","10","","","","101.41","","","","-42","","NA"
"2017-12-28 10:00","2017","12","28","10:00","-31.1","","-34.7","","71","","4","","16","","","","101.36","","","","-43","","NA"
"2017-12-28 11:00","2017","12","28","11:00","-27.7","","-31.4","","71","","4","","11","","","","101.37","","","","-37","","NA"
"2017-12-28 12:00","2017","12","28","12:00","-24.5","","-28.6","","69","","5","","11","","","","101.26","","","","-33","","NA"
"2017-12-28 13:00","2017","12","28","13:00","-22.3","","-26.5","","69","","4","","9","","","","101.18","","","","-29","","NA"
"2017-12-28 14:00","2017","12","28","14:00","-20.5","","-24.5","","70","","4","","11","","","","101.03","","","","-28","","NA"
"2017-12-28 15:00","2017","12","28","15:00","-19.2","","-23.2","","71","","5","","10","","","","100.95","","","","-26","","NA"
"2017-12-28 16:00","2017","12","28","16:00","-18.9","","-22.4","","74","","5","","10","","","","100.89","","","","-26","","NA"
"2017-12-28 17:00","2017","12","28","17:00","-19.5","","-22.5","","77","","5","","13","","","","100.82","","","","-28","","NA"
"2017-12-28 18:00","2017","12","28","18:00","-20.3","","-23.1","","78","","5","","15","","","","100.76","","","","-29","","NA"
"2017-12-28 19:00","2017","12","28","19:00","-20.3","","-23.1","","78","","5","","15","","","","100.71","","","","-29","","NA"
"2017-12-28 20:00","2017","12","28","20:00","-19.7","","-22.2","","80","","4","","14","","","","100.64","","","","-28","","NA"
"2017-12-28 21:00","2017","12","28","21:00","-19.1","","-21.2","","83","","4","","15","","","","100.56","","","","-28","","NA"
"2017-12-28 22:00","2017","12","28","22:00","-18.4","","-20.6","","83","","4","","14","","","","100.45","","","","-27","","NA"
"2017-12-28 23:00","2017","12","28","23:00","-17.7","","-19.9","","83","","4","","12","","","","100.39","","","","-25","","NA"
"2017-12-29 00:00","2017","12","29","00:00","-17.9","","-19.9","","84","","4","","11","","","","100.34","","","","-25","","NA"
"2017-12-29 01:00","2017","12","29","01:00","-17.3","","-19.5","","83","","4","","13","","","","100.24","","","","-25","","NA"
"2017-12-29 02:00","2017","12","29","02:00","-15.8","","-18.5","","80","","5","","12","","","","100.17","","","","-23","","NA"
"2017-12-29 03:00","2017","12","29","03:00","-15.8","","-18.6","","79","","6","","11","","","","100.14","","","","-23","","NA"
"2017-12-29 04:00","2017","12","29","04:00","-15.5","","-18.6","","77","","6","","12","","","","100.09","","","","-23","","NA"
"2017-12-29 05:00","2017","12","29","05:00","-17.0","","-19.8","","79","","4","","13","","","","100.04","","","","-25","","NA"
"2017-12-29 06:00","2017","12","29","06:00","-17.5","","-20.3","","79","","5","","10","","","","99.99","","","","-24","","NA"
"2017-12-29 07:00","2017","12","29","07:00","-18.2","","-21.0","","79","","4","","14","","","","99.98","","","","-27","","NA"
"2017-12-29 08:00","2017","12","29","08:00","-18.7","","-21.6","","78","","5","","13","","","","99.96","","","","-27","","NA"
"2017-12-29 09:00","2017","12","29","09:00","-19.4","","-22.3","","77","","5","","10","","","","99.93","","","","-26","","NA"
"2017-12-29 10:00","2017","12","29","10:00","-18.8","","-22.1","","75","","4","","12","","","","99.94","","","","-27","","NA"
"2017-12-29 11:00","2017","12","29","11:00","-16.8","","-20.5","","73","","5","","12","","","","99.95","","","","-24","","NA"
"2017-12-29 12:00","2017","12","29","12:00","-14.9","","-19.2","","69","","4","","10","","","","99.91","","","","-21","","NA"
"2017-12-29 13:00","2017","12","29","13:00","-13.2","","-16.8","","74","","4","","10","","","","99.82","","","","-19","","NA"
"2017-12-29 14:00","2017","12","29","14:00","-11.5","","-15.0","","75","","6","","10","","","","99.75","","","","-17","","NA"
"2017-12-29 15:00","2017","12","29","15:00","-11.1","","-13.9","","80","","5","","11","","","","99.69","","","","-17","","NA"
"2017-12-29 16:00","2017","12","29","16:00","-11.7","","-14.6","","79","","6","","13","","","","99.70","","","","-18","","NA"
"2017-12-29 17:00","2017","12","29","17:00","-12.2","","-14.5","","83","","6","","12","","","","99.70","","","","-19","","NA"
"2017-12-29 18:00","2017","12","29","18:00","-12.7","","-14.2","","89","","5","","12","","","","99.67","","","","-19","","NA"
"2017-12-29 19:00","2017","12","29","19:00","-13.1","","-14.7","","88","","5","","11","","","","99.64","","","","-19","","NA"
"2017-12-29 20:00","2017","12","29","20:00","-13.5","","-15.2","","87","","6","","13","","","","99.58","","","","-20","","NA"
"2017-12-29 21:00","2017","12","29","21:00","-14.1","","-16.3","","84","","6","","11","","","","99.51","","","","-21","","NA"
"2017-12-29 22:00","2017","12","29","22:00","-15.0","","-17.4","","81","","6","","10","","","","99.44","","","","-21","","NA"
"2017-12-29 23:00","2017","12","29","23:00","-15.9","","-18.3","","81","","5","","12","","","","99.38","","","","-23","","NA"
"2017-12-30 00:00","2017","12","30","00:00","-16.5","","-19.1","","80","","6","","15","","","","99.32","","","","-25","","NA"
"2017-12-30 01:00","2017","12","30","01:00","-16.9","","-19.8","","78","","6","","19","","","","99.29","","","","-26","","NA"
"2017-12-30 02:00","2017","12","30","02:00","-17.4","","-20.3","","78","","5","","19","","","","99.32","","","","-27","","NA"
"2017-12-30 03:00","2017","12","30","03:00","-17.7","","-20.9","","76","","5","","18","","","","99.36","","","","-27","","NA"
"2017-12-30 04:00","2017","12","30","04:00","-18.3","","-21.3","","77","","5","","17","","","","99.44","","","","-28","","NA"
"2017-12-30 05:00","2017","12","30","05:00","-18.9","","-21.4","","81","","5","","20","","","","99.50","","","","-29","","NA"
"2017-12-30 06:00","2017","12","30","06:00","-19.6","","-22.1","","81","","4","","22","","","","99.60","","","","-30","","NA"
"2017-12-30 07:00","2017","12","30","07:00","-20.5","","-23.5","","77","","4","","20","","","","99.74","","","","-31","","NA"
"2017-12-30 08:00","2017","12","30","08:00","-21.6","","-24.7","","76","","4","","19","","","","99.87","","","","-32","","NA"
"2017-12-30 09:00","2017","12","30","09:00","-22.4","","-25.7","","75","","4","","18","","","","100.00","","","","-33","","NA"
"2017-12-30 10:00","2017","12","30","10:00","-23.6","","-27.1","","73","","4","","18","","","","100.11","","","","-34","","NA"
"2017-12-30 11:00","2017","12","30","11:00","-23.5","","-26.9","","73","","4","","13","","","","100.19","","","","-33","","NA"
"2017-12-30 12:00","2017","12","30","12:00","-21.7","","-25.7","","70","","4","","12","","","","100.19","","","","-30","","NA"
"2017-12-30 13:00","2017","12","30","13:00","-20.8","","-25.5","","66","","4","","14","","","","100.22","","","","-30","","NA"
"2017-12-30 14:00","2017","12","30","14:00","-20.3","","-25.0","","66","","4","","12","","","","100.24","","","","-28","","NA"
"2017-12-30 15:00","2017","12","30","15:00","-19.8","","-24.3","","67","","3","","8","","","","100.29","","","","-26","","NA"
"2017-12-30 16:00","2017","12","30","16:00","-19.9","","-24.5","","67","","3","","10","","","","100.36","","","","-27","","NA"
"2017-12-30 17:00","2017","12","30","17:00","-22.0","","-25.5","","73","","36","","1","","","","100.47","","","","-23","","NA"
"2017-12-30 18:00","2017","12","30","18:00","-22.8","","-25.9","","76","","2","","5","","","","100.57","","","","-27","","NA"
"2017-12-30 19:00","2017","12","30","19:00","-24.8","","-27.6","","77","","36","","5","","","","100.61","","","","-30","","NA"
"2017-12-30 20:00","2017","12","30","20:00","-25.4","","-28.1","","78","","1","","5","","","","100.70","","","","-30","","NA"
"2017-12-30 21:00","2017","12","30","21:00","-25.3","","-28.2","","77","","3","","6","","","","100.76","","","","-31","","NA"
"2017-12-30 22:00","2017","12","30","22:00","-26.5","","-29.2","","78","","4","","6","","","","100.77","","","","-32","","NA"
"2017-12-30 23:00","2017","12","30","23:00","-27.9","","-30.9","","75","","2","","8","","","","100.80","","","","-36","","NA"
"2017-12-31 00:00","2017","12","31","00:00","-28.6","","-31.7","","75","","2","","7","","","","100.88","","","","-36","","NA"
"2017-12-31 01:00","2017","12","31","01:00","-28.5","","-31.6","","74","","4","","2","","","","100.92","","","","-31","","NA"
"2017-12-31 02:00","2017","12","31","02:00","-28.6","","-31.4","","76","","3","","5","","","","100.90","","","","-34","","NA"
"2017-12-31 03:00","2017","12","31","03:00","-29.6","","-32.6","","75","","5","","2","","","","100.95","","","","-32","","NA"
"2017-12-31 04:00","2017","12","31","04:00","-30.8","","-34.1","","73","","5","","6","","","","100.97","","","","-37","","NA"
"2017-12-31 05:00","2017","12","31","05:00","-31.7","","-35.1","","72","","6","","2","","","","100.97","","","","-34","","NA"
"2017-12-31 06:00","2017","12","31","06:00","-32.2","","-35.6","","72","","5","","8","","","","100.96","","","","-41","","NA"
"2017-12-31 07:00","2017","12","31","07:00","-31.1","","-34.3","","73","","4","","9","","","","100.93","","","","-40","","NA"
"2017-12-31 08:00","2017","12","31","08:00","-32.4","","-36.0","","71","","5","","7","","","","100.93","","","","-40","","NA"
"2017-12-31 09:00","2017","12","31","09:00","-32.8","","-36.3","","71","","5","","9","","","","100.92","","","","-42","","NA"
"2017-12-31 10:00","2017","12","31","10:00","-31.8","","-35.3","","71","","5","","7","","","","100.94","","","","-39","","NA"
"2017-12-31 11:00","2017","12","31","11:00","-27.8","","-31.0","","74","","4","","9","","","","100.92","","","","-36","","NA"
"2017-12-31 12:00","2017","12","31","12:00","-24.3","","-28.6","","67","","6","","8","","","","100.84","","","","-31","","NA"
"2017-12-31 13:00","2017","12","31","13:00","-22.5","","-27.5","","64","","4","","6","","","","100.75","","","","-28","","NA"
"2017-12-31 14:00","2017","12","31","14:00","-21.1","","-25.7","","66","","27","","2","","","","100.67","","","","-23","","NA"
"2017-12-31 15:00","2017","12","31","15:00","-20.3","","-23.9","","73","","4","","2","","","","100.62","","","","-22","","NA"
"2017-12-31 16:00","2017","12","31","16:00","-20.6","","-23.8","","76","","6","","4","","","","100.57","","","","-24","","NA"
"2017-12-31 17:00","2017","12","31","17:00","-20.9","","-23.9","","77","","6","","8","","","","100.55","","","","-27","","NA"
"2017-12-31 18:00","2017","12","31","18:00","-21.5","","-24.3","","78","","5","","8","","","","100.53","","","","-28","","NA"
"2017-12-31 19:00","2017","12","31","19:00","-22.2","","-25.1","","78","","4","","10","","","","100.56","","","","-30","","NA"
"2017-12-31 20:00","2017","12","31","20:00","-23.6","","-26.9","","74","","2","","7","","","","100.62","","","","-30","","NA"
"2017-12-31 21:00","2017","12","31","21:00","-24.7","","-28.2","","73","","3","","5","","","","100.67","","","","-30","","NA"
"2017-12-31 22:00","2017","12","31","22:00","-25.5","","-29.0","","73","","4","","5","","","","100.70","","","","-31","","NA"
"2017-12-31 23:00","2017","12","31","23:00","-24.6","","-28.0","","73","","1","","6","","","","100.70","","","","-30","","NA"
