"Station Name","PUKASKWA (AUT)"
"Province","ONTARIO"
"Latitude","48.59"
"Longitude","-86.29"
"Elevation","207.60"
"Climate Identifier","6046767"
"WMO Identifier","71750"
"TC Identifier","WCJ"
"All times are specified in Local Standard Time (LST). Add 1 hour to adjust for Daylight Saving Time where and when it is observed."

"Legend"
"E","Estimated"
"M","Missing"
"NA","Not Available"

"Date/Time","Year","Month","Day","Time","Temp (°C)","Temp Flag","Dew Point Temp (°C)","Dew Point Temp Flag","Rel Hum (%)","Rel Hum Flag","Wind Dir (10s deg)","Wind Dir Flag","Wind Spd (km/h)","Wind Spd Flag","Visibility (km)","Visibility Flag","Stn Press (kPa)","Stn Press Flag","Hmdx","Hmdx Flag","Wind Chill","Wind Chill Flag","Weather"
"2006-10-01 00:00","2006","10","01","00:00","8.8","","8.8","","100","","32","","9","","","","98.19","","","","","","NA"
"2006-10-01 01:00","2006","10","01","01:00","8.8","","8.8","","100","","31","","9","","","","98.22","","","","","","NA"
"2006-10-01 02:00","2006","10","01","02:00","8.9","","8.8","","99","","31","","6","","","","98.29","","","","","","NA"
"2006-10-01 03:00","2006","10","01","03:00","8.9","","8.7","","99","","30","","7","","","","98.33","","","","","","NA"
"2006-10-01 04:00","2006","10","01","04:00","8.0","","8.0","","100","","35","","6","","","","98.40","","","","","","NA"
"2006-10-01 05:00","2006","10","01","05:00","7.7","","7.7","","100","","35","","7","","","","98.49","","","","","","NA"
"2006-10-01 06:00","2006","10","01","06:00","7.7","","7.7","","100","","6","","6","","","","98.57","","","","","","NA"
"2006-10-01 07:00","2006","10","01","07:00","8.0","","7.8","","99","","36","","7","","","","98.65","","","","","","NA"
"2006-10-01 08:00","2006","10","01","08:00","8.3","","8.0","","98","","35","","11","","","","98.75","","","","","","NA"
"2006-10-01 09:00","2006","10","01","09:00","9.0","","7.0","","87","","1","","4","","","","98.84","","","","","","NA"
"2006-10-01 10:00","2006","10","01","10:00","9.6","","6.9","","83","","26","","7","","","","98.89","","","","","","NA"
"2006-10-01 11:00","2006","10","01","11:00","10.5","","7.6","","82","","23","","11","","","","98.93","","","","","","NA"
"2006-10-01 12:00","2006","10","01","12:00","10.7","","7.5","","81","","24","","11","","","","98.96","","","","","","NA"
"2006-10-01 13:00","2006","10","01","13:00","11.9","","8.3","","79","","23","","11","","","","98.98","","","","","","NA"
"2006-10-01 14:00","2006","10","01","14:00","11.8","","8.6","","81","","23","","15","","","","98.99","","","","","","NA"
"2006-10-01 15:00","2006","10","01","15:00","12.4","","8.7","","78","","20","","17","","","","99.00","","","","","","NA"
"2006-10-01 16:00","2006","10","01","16:00","11.9","","7.3","","73","","22","","15","","","","98.96","","","","","","NA"
"2006-10-01 17:00","2006","10","01","17:00","11.5","","7.7","","77","","23","","15","","","","99.00","","","","","","NA"
"2006-10-01 18:00","2006","10","01","18:00","9.9","","7.6","","86","","19","","13","","","","98.96","","","","","","NA"
"2006-10-01 19:00","2006","10","01","19:00","9.2","","7.6","","90","","14","","11","","","","98.93","","","","","","NA"
"2006-10-01 20:00","2006","10","01","20:00","8.2","","7.7","","97","","12","","11","","","","98.95","","","","","","NA"
"2006-10-01 21:00","2006","10","01","21:00","8.9","","8.3","","96","","13","","17","","","","98.89","","","","","","NA"
"2006-10-01 22:00","2006","10","01","22:00","7.8","","7.6","","99","","11","","13","","","","98.85","","","","","","NA"
"2006-10-01 23:00","2006","10","01","23:00","9.1","","7.5","","90","","13","","13","","","","98.80","","","","","","NA"
"2006-10-02 00:00","2006","10","02","00:00","10.6","","9.5","","93","","17","","37","","","","98.76","","","","","","NA"
"2006-10-02 01:00","2006","10","02","01:00","11.2","","8.5","","83","","17","","35","","","","98.71","","","","","","NA"
"2006-10-02 02:00","2006","10","02","02:00","11.2","","8.5","","83","","16","","33","","","","98.65","","","","","","NA"
"2006-10-02 03:00","2006","10","02","03:00","11.6","","8.9","","83","","17","","33","","","","98.59","","","","","","NA"
"2006-10-02 04:00","2006","10","02","04:00","12.0","","9.1","","82","","17","","33","","","","98.55","","","","","","NA"
"2006-10-02 05:00","2006","10","02","05:00","11.8","","9.5","","86","","17","","30","","","","98.53","","","","","","NA"
"2006-10-02 06:00","2006","10","02","06:00","11.8","","9.9","","88","","17","","26","","","","98.52","","","","","","NA"
"2006-10-02 07:00","2006","10","02","07:00","11.7","","10.1","","90","","17","","24","","","","98.50","","","","","","NA"
"2006-10-02 08:00","2006","10","02","08:00","12.5","","10.5","","88","","17","","20","","","","98.51","","","","","","NA"
"2006-10-02 09:00","2006","10","02","09:00","13.4","","10.9","","85","","17","","24","","","","98.51","","","","","","NA"
"2006-10-02 10:00","2006","10","02","10:00","13.7","","11.3","","85","","18","","17","","","","98.56","","","","","","NA"
"2006-10-02 11:00","2006","10","02","11:00","14.4","","12.0","","85","","18","","20","","","","98.55","","","","","","NA"
"2006-10-02 12:00","2006","10","02","12:00","14.9","","12.3","","84","","18","","15","","","","98.55","","","","","","NA"
"2006-10-02 13:00","2006","10","02","13:00","15.6","","12.7","","83","","17","","20","","","","98.50","","","","","","NA"
"2006-10-02 14:00","2006","10","02","14:00","16.0","","12.6","","80","","20","","7","","","","98.54","","","","","","NA"
"2006-10-02 15:00","2006","10","02","15:00","14.9","","12.7","","87","","21","","11","","","","98.55","","","","","","NA"
"2006-10-02 16:00","2006","10","02","16:00","14.5","","12.7","","89","","22","","6","","","","98.57","","","","","","NA"
"2006-10-02 17:00","2006","10","02","17:00","14.2","","12.8","","91","","23","","4","","","","98.59","","","","","","NA"
"2006-10-02 18:00","2006","10","02","18:00","13.2","","12.6","","96","","28","","2","","","","98.63","","","","","","NA"
"2006-10-02 19:00","2006","10","02","19:00","11.8","","11.8","","100","","8","","2","","","","98.66","","","","","","NA"
"2006-10-02 20:00","2006","10","02","20:00","10.6","","10.6","","100","","11","","2","","","","98.73","","","","","","NA"
"2006-10-02 21:00","2006","10","02","21:00","9.8","","9.8","","100","","7","","4","","","","98.80","","","","","","NA"
"2006-10-02 22:00","2006","10","02","22:00","9.3","","9.3","","100","","8","","7","","","","98.89","","","","","","NA"
"2006-10-02 23:00","2006","10","02","23:00","8.7","","8.7","","100","","7","","7","","","","98.94","","","","","","NA"
"2006-10-03 00:00","2006","10","03","00:00","8.2","","8.2","","100","","2","","9","","","","98.94","","","","","","NA"
"2006-10-03 01:00","2006","10","03","01:00","7.9","","7.9","","100","","3","","13","","","","98.97","","","","","","NA"
"2006-10-03 02:00","2006","10","03","02:00","7.8","","7.8","","100","","4","","6","","","","99.03","","","","","","NA"
"2006-10-03 03:00","2006","10","03","03:00","7.2","","7.2","","100","","25","","2","","","","99.08","","","","","","NA"
"2006-10-03 04:00","2006","10","03","04:00","6.5","","6.5","","100","","7","","9","","","","99.12","","","","","","NA"
"2006-10-03 05:00","2006","10","03","05:00","5.9","","5.9","","100","","6","","9","","","","99.19","","","","","","NA"
"2006-10-03 06:00","2006","10","03","06:00","5.0","","5.0","","100","","4","","6","","","","99.25","","","","","","NA"
"2006-10-03 07:00","2006","10","03","07:00","5.6","","5.6","","100","","4","","11","","","","99.31","","","","","","NA"
"2006-10-03 08:00","2006","10","03","08:00","7.2","","7.2","","100","","6","","11","","","","99.33","","","","","","NA"
"2006-10-03 09:00","2006","10","03","09:00","9.0","","8.0","","93","","3","","15","","","","99.36","","","","","","NA"
"2006-10-03 10:00","2006","10","03","10:00","14.4","","8.2","","66","","4","","2","","","","99.40","","","","","","NA"
"2006-10-03 11:00","2006","10","03","11:00","15.8","","9.8","","67","","4","","2","","","","99.39","","","","","","NA"
"2006-10-03 12:00","2006","10","03","12:00","12.4","","10.8","","90","","23","","7","","","","99.42","","","","","","NA"
"2006-10-03 13:00","2006","10","03","13:00","13.0","","10.3","","84","","28","","2","","","","99.42","","","","","","NA"
"2006-10-03 14:00","2006","10","03","14:00","13.0","","10.9","","87","","23","","6","","","","99.40","","","","","","NA"
"2006-10-03 15:00","2006","10","03","15:00","13.0","","11.2","","89","","31","","4","","","","99.43","","","","","","NA"
"2006-10-03 16:00","2006","10","03","16:00","12.6","","12.0","","96","","24","","4","","","","99.44","","","","","","NA"
"2006-10-03 17:00","2006","10","03","17:00","12.8","","12.3","","97","","35","","2","","","","99.44","","","","","","NA"
"2006-10-03 18:00","2006","10","03","18:00","12.3","","11.9","","97","","32","","2","","","","99.43","","","","","","NA"
"2006-10-03 19:00","2006","10","03","19:00","11.8","","11.7","","99","","19","","2","","","","99.45","","","","","","NA"
"2006-10-03 20:00","2006","10","03","20:00","11.8","","10.6","","92","","3","","9","","","","99.46","","","","","","NA"
"2006-10-03 21:00","2006","10","03","21:00","12.4","","7.3","","71","","3","","9","","","","99.46","","","","","","NA"
"2006-10-03 22:00","2006","10","03","22:00","11.8","","6.5","","70","","2","","7","","","","99.55","","","","","","NA"
"2006-10-03 23:00","2006","10","03","23:00","10.0","","7.8","","86","","3","","11","","","","99.60","","","","","","NA"
"2006-10-04 00:00","2006","10","04","00:00","9.4","","8.9","","97","","7","","7","","","","99.53","","","","","","NA"
"2006-10-04 01:00","2006","10","04","01:00","9.0","","8.5","","97","","3","","15","","","","99.51","","","","","","NA"
"2006-10-04 02:00","2006","10","04","02:00","8.8","","5.6","","80","","3","","17","","","","99.51","","","","","","NA"
"2006-10-04 03:00","2006","10","04","03:00","8.5","","4.5","","76","","4","","20","","","","99.56","","","","","","NA"
"2006-10-04 04:00","2006","10","04","04:00","8.1","","3.6","","73","","4","","26","","","","99.57","","","","","","NA"
"2006-10-04 05:00","2006","10","04","05:00","7.1","","3.5","","78","","4","","19","","","","99.66","","","","","","NA"
"2006-10-04 06:00","2006","10","04","06:00","5.4","","3.6","","88","","2","","11","","","","99.75","","","","","","NA"
"2006-10-04 07:00","2006","10","04","07:00","4.5","","3.5","","93","","3","","15","","","","99.83","","","","","","NA"
"2006-10-04 08:00","2006","10","04","08:00","5.1","","3.1","","87","","3","","13","","","","99.84","","","","","","NA"
"2006-10-04 09:00","2006","10","04","09:00","7.3","","3.2","","75","","3","","9","","","","99.89","","","","","","NA"
"2006-10-04 10:00","2006","10","04","10:00","10.6","","2.7","","58","","4","","7","","","","99.98","","","","","","NA"
"2006-10-04 11:00","2006","10","04","11:00","11.6","","1.7","","51","","3","","19","","","","100.02","","","","","","NA"
"2006-10-04 12:00","2006","10","04","12:00","12.4","","0.8","","45","","1","","15","","","","100.04","","","","","","NA"
"2006-10-04 13:00","2006","10","04","13:00","13.3","","-0.3","","39","","1","","15","","","","100.04","","","","","","NA"
"2006-10-04 14:00","2006","10","04","14:00","13.2","","0.0","","40","","35","","11","","","","100.05","","","","","","NA"
"2006-10-04 15:00","2006","10","04","15:00","12.9","","-0.1","","41","","36","","13","","","","100.08","","","","","","NA"
"2006-10-04 16:00","2006","10","04","16:00","13.0","","-0.5","","39","","35","","13","","","","100.11","","","","","","NA"
"2006-10-04 17:00","2006","10","04","17:00","12.0","","-1.4","","39","","1","","15","","","","100.14","","","","","","NA"
"2006-10-04 18:00","2006","10","04","18:00","10.4","","-1.6","","43","","36","","9","","","","100.20","","","","","","NA"
"2006-10-04 19:00","2006","10","04","19:00","7.8","","0.3","","59","","4","","7","","","","100.25","","","","","","NA"
"2006-10-04 20:00","2006","10","04","20:00","6.8","","0.1","","62","","4","","11","","","","100.26","","","","","","NA"
"2006-10-04 21:00","2006","10","04","21:00","5.6","","0.4","","69","","4","","9","","","","100.31","","","","","","NA"
"2006-10-04 22:00","2006","10","04","22:00","3.5","","1.4","","86","","4","","7","","","","100.33","","","","","","NA"
"2006-10-04 23:00","2006","10","04","23:00","3.4","","0.5","","81","","7","","9","","","","100.33","","","","","","NA"
"2006-10-05 00:00","2006","10","05","00:00","2.2","","-0.3","","84","","6","","11","","","","100.31","","","","","","NA"
"2006-10-05 01:00","2006","10","05","01:00","2.3","","-0.4","","82","","7","","13","","","","100.30","","","","","","NA"
"2006-10-05 02:00","2006","10","05","02:00","2.4","","-0.5","","81","","6","","17","","","","100.31","","","","","","NA"
"2006-10-05 03:00","2006","10","05","03:00","2.7","","-0.1","","82","","7","","17","","","","100.32","","","","","","NA"
"2006-10-05 04:00","2006","10","05","04:00","1.3","","-1.1","","84","","8","","9","","","","100.34","","","","","","NA"
"2006-10-05 05:00","2006","10","05","05:00","1.1","","-0.2","","91","","8","","11","","","","100.36","","","","","","NA"
"2006-10-05 06:00","2006","10","05","06:00","1.2","","-0.5","","88","","8","","13","","","","100.39","","","","","","NA"
"2006-10-05 07:00","2006","10","05","07:00","1.7","","-0.4","","86","","8","","11","","","","100.41","","","","","","NA"
"2006-10-05 08:00","2006","10","05","08:00","2.4","","0.4","","87","","8","","11","","","","100.42","","","","","","NA"
"2006-10-05 09:00","2006","10","05","09:00","5.6","","1.0","","72","","8","","9","","","","100.41","","","","","","NA"
"2006-10-05 10:00","2006","10","05","10:00","6.8","","2.1","","72","","34","","13","","","","100.41","","","","","","NA"
"2006-10-05 11:00","2006","10","05","11:00","9.6","","4.5","","70","","23","","6","","","","100.40","","","","","","NA"
"2006-10-05 12:00","2006","10","05","12:00","11.4","","3.6","","59","","25","","9","","","","100.38","","","","","","NA"
"2006-10-05 13:00","2006","10","05","13:00","11.2","","4.0","","61","","24","","13","","","","100.31","","","","","","NA"
"2006-10-05 14:00","2006","10","05","14:00","11.2","","3.3","","58","","24","","13","","","","100.26","","","","","","NA"
"2006-10-05 15:00","2006","10","05","15:00","12.2","","3.1","","54","","26","","13","","","","100.24","","","","","","NA"
"2006-10-05 16:00","2006","10","05","16:00","11.7","","4.5","","61","","24","","15","","","","100.19","","","","","","NA"
"2006-10-05 17:00","2006","10","05","17:00","11.6","","4.7","","63","","26","","13","","","","100.18","","","","","","NA"
"2006-10-05 18:00","2006","10","05","18:00","10.2","","5.0","","70","","24","","15","","","","100.18","","","","","","NA"
"2006-10-05 19:00","2006","10","05","19:00","9.7","","5.8","","77","","23","","15","","","","100.21","","","","","","NA"
"2006-10-05 20:00","2006","10","05","20:00","7.4","","4.4","","81","","16","","6","","","","100.21","","","","","","NA"
"2006-10-05 21:00","2006","10","05","21:00","5.6","","5.1","","97","","12","","6","","","","100.24","","","","","","NA"
"2006-10-05 22:00","2006","10","05","22:00","4.8","","3.9","","94","","13","","7","","","","100.27","","","","","","NA"
"2006-10-05 23:00","2006","10","05","23:00","5.4","","4.5","","94","","12","","6","","","","100.27","","","","","","NA"
"2006-10-06 00:00","2006","10","06","00:00","6.5","","5.1","","91","","13","","9","","","","100.26","","","","","","NA"
"2006-10-06 01:00","2006","10","06","01:00","5.5","","4.6","","94","","13","","9","","","","100.25","","","","","","NA"
"2006-10-06 02:00","2006","10","06","02:00","7.7","","6.2","","90","","13","","15","","","","100.26","","","","","","NA"
"2006-10-06 03:00","2006","10","06","03:00","7.3","","5.9","","91","","14","","13","","","","100.26","","","","","","NA"
"2006-10-06 04:00","2006","10","06","04:00","7.5","","7.2","","98","","15","","9","","","","100.26","","","","","","NA"
"2006-10-06 05:00","2006","10","06","05:00","10.7","","10.3","","97","","20","","28","","","","100.32","","","","","","NA"
"2006-10-06 06:00","2006","10","06","06:00","10.9","","9.8","","93","","19","","28","","","","100.29","","","","","","NA"
"2006-10-06 07:00","2006","10","06","07:00","10.6","","9.4","","92","","18","","20","","","","100.26","","","","","","NA"
"2006-10-06 08:00","2006","10","06","08:00","11.4","","10.3","","93","","19","","28","","","","100.29","","","","","","NA"
"2006-10-06 09:00","2006","10","06","09:00","11.9","","9.9","","88","","20","","32","","","","100.31","","","","","","NA"
"2006-10-06 10:00","2006","10","06","10:00","12.2","","9.6","","84","","20","","33","","","","100.33","","","","","","NA"
"2006-10-06 11:00","2006","10","06","11:00","12.5","","10.2","","86","","20","","32","","","","100.33","","","","","","NA"
"2006-10-06 12:00","2006","10","06","12:00","12.4","","9.6","","83","","19","","32","","","","100.26","","","","","","NA"
"2006-10-06 13:00","2006","10","06","13:00","13.1","","9.5","","79","","20","","37","","","","100.22","","","","","","NA"
"2006-10-06 14:00","2006","10","06","14:00","13.4","","10.4","","82","","20","","35","","","","100.16","","","","","","NA"
"2006-10-06 15:00","2006","10","06","15:00","13.3","","10.3","","82","","19","","35","","","","100.08","","","","","","NA"
"2006-10-06 16:00","2006","10","06","16:00","12.4","","9.8","","84","","19","","37","","","","100.05","","","","","","NA"
"2006-10-06 17:00","2006","10","06","17:00","12.3","","9.3","","82","","18","","30","","","","99.96","","","","","","NA"
"2006-10-06 18:00","2006","10","06","18:00","12.3","","9.1","","81","","18","","39","","","","99.87","","","","","","NA"
"2006-10-06 19:00","2006","10","06","19:00","12.4","","9.4","","82","","17","","41","","","","99.87","","","","","","NA"
"2006-10-06 20:00","2006","10","06","20:00","12.2","","10.7","","91","","17","","35","","","","99.87","","","","","","NA"
"2006-10-06 21:00","2006","10","06","21:00","12.4","","10.1","","86","","17","","41","","","","99.79","","","","","","NA"
"2006-10-06 22:00","2006","10","06","22:00","12.1","","10.3","","89","","18","","39","","","","99.79","","","","","","NA"
"2006-10-06 23:00","2006","10","06","23:00","12.0","","10.3","","89","","18","","39","","","","99.80","","","","","","NA"
"2006-10-07 00:00","2006","10","07","00:00","11.9","","10.0","","88","","19","","39","","","","99.82","","","","","","NA"
"2006-10-07 01:00","2006","10","07","01:00","11.2","","11.2","","100","","20","","39","","","","99.91","","","","","","NA"
"2006-10-07 02:00","2006","10","07","02:00","10.8","","10.8","","100","","19","","37","","","","99.84","","","","","","NA"
"2006-10-07 03:00","2006","10","07","03:00","10.9","","10.9","","100","","19","","32","","","","99.75","","","","","","NA"
"2006-10-07 04:00","2006","10","07","04:00","11.2","","11.2","","100","","19","","30","","","","99.73","","","","","","NA"
"2006-10-07 05:00","2006","10","07","05:00","11.5","","10.6","","94","","19","","33","","","","99.67","","","","","","NA"
"2006-10-07 06:00","2006","10","07","06:00","11.4","","10.6","","95","","19","","33","","","","99.62","","","","","","NA"
"2006-10-07 07:00","2006","10","07","07:00","11.5","","11.1","","97","","18","","33","","","","99.59","","","","","","NA"
"2006-10-07 08:00","2006","10","07","08:00","11.9","","11.4","","97","","19","","30","","","","99.58","","","","","","NA"
"2006-10-07 09:00","2006","10","07","09:00","12.6","","11.4","","92","","18","","30","","","","99.55","","","","","","NA"
"2006-10-07 10:00","2006","10","07","10:00","12.7","","11.3","","91","","18","","30","","","","99.55","","","","","","NA"
"2006-10-07 11:00","2006","10","07","11:00","12.5","","11.2","","92","","18","","30","","","","99.52","","","","","","NA"
"2006-10-07 12:00","2006","10","07","12:00","13.3","","11.1","","87","","17","","35","","","","99.49","","","","","","NA"
"2006-10-07 13:00","2006","10","07","13:00","13.1","","10.7","","85","","17","","39","","","","99.45","","","","","","NA"
"2006-10-07 14:00","2006","10","07","14:00","13.7","","9.9","","78","","17","","39","","","","99.38","","","","","","NA"
"2006-10-07 15:00","2006","10","07","15:00","14.0","","9.7","","75","","17","","37","","","","99.31","","","","","","NA"
"2006-10-07 16:00","2006","10","07","16:00","14.5","","9.8","","73","","17","","37","","","","99.23","","","","","","NA"
"2006-10-07 17:00","2006","10","07","17:00","15.1","","8.3","","64","","17","","43","","","","99.15","","","","","","NA"
"2006-10-07 18:00","2006","10","07","18:00","15.6","","7.2","","57","","17","","44","","","","99.11","","","","","","NA"
"2006-10-07 19:00","2006","10","07","19:00","15.3","","7.8","","61","","17","","46","","","","99.10","","","","","","NA"
"2006-10-07 20:00","2006","10","07","20:00","15.0","","8.1","","63","","17","","41","","","","99.06","","","","","","NA"
"2006-10-07 21:00","2006","10","07","21:00","14.6","","8.8","","68","","17","","46","","","","99.00","","","","","","NA"
"2006-10-07 22:00","2006","10","07","22:00","14.1","","9.0","","71","","17","","46","","","","98.98","","","","","","NA"
"2006-10-07 23:00","2006","10","07","23:00","13.8","","9.8","","77","","17","","44","","","","98.97","","","","","","NA"
"2006-10-08 00:00","2006","10","08","00:00","13.5","","10.2","","80","","17","","43","","","","98.93","","","","","","NA"
"2006-10-08 01:00","2006","10","08","01:00","13.4","","10.6","","83","","17","","41","","","","98.91","","","","","","NA"
"2006-10-08 02:00","2006","10","08","02:00","13.6","","11.0","","84","","17","","39","","","","98.90","","","","","","NA"
"2006-10-08 03:00","2006","10","08","03:00","13.6","","10.9","","84","","17","","41","","","","98.84","","","","","","NA"
"2006-10-08 04:00","2006","10","08","04:00","13.5","","10.8","","84","","17","","37","","","","98.77","","","","","","NA"
"2006-10-08 05:00","2006","10","08","05:00","13.8","","10.6","","81","","17","","37","","","","98.74","","","","","","NA"
"2006-10-08 06:00","2006","10","08","06:00","13.8","","10.7","","82","","17","","35","","","","98.68","","","","","","NA"
"2006-10-08 07:00","2006","10","08","07:00","13.8","","10.6","","81","","17","","37","","","","98.60","","","","","","NA"
"2006-10-08 08:00","2006","10","08","08:00","14.0","","10.7","","80","","17","","44","","","","98.57","","","","","","NA"
"2006-10-08 09:00","2006","10","08","09:00","14.0","","10.6","","80","","17","","41","","","","98.52","","","","","","NA"
"2006-10-08 10:00","2006","10","08","10:00","14.3","","10.7","","79","","18","","43","","","","98.53","","","","","","NA"
"2006-10-08 11:00","2006","10","08","11:00","12.9","","11.9","","94","","18","","37","","","","98.57","","","","","","NA"
"2006-10-08 12:00","2006","10","08","12:00","12.8","","12.1","","96","","19","","43","","","","98.53","","","","","","NA"
"2006-10-08 13:00","2006","10","08","13:00","12.9","","12.2","","96","","18","","37","","","","98.47","","","","","","NA"
"2006-10-08 14:00","2006","10","08","14:00","13.0","","12.2","","95","","19","","43","","","","98.53","","","","","","NA"
"2006-10-08 15:00","2006","10","08","15:00","12.5","","12.5","","100","","18","","33","","","","98.52","","","","","","NA"
"2006-10-08 16:00","2006","10","08","16:00","12.5","","12.2","","98","","22","","43","","","","98.57","","","","","","NA"
"2006-10-08 17:00","2006","10","08","17:00","12.7","","12.2","","97","","23","","43","","","","98.63","","","","","","NA"
"2006-10-08 18:00","2006","10","08","18:00","12.8","","11.8","","94","","24","","50","","","","98.69","","","","","","NA"
"2006-10-08 19:00","2006","10","08","19:00","13.0","","10.3","","84","","27","","35","","","","98.77","","","","","","NA"
"2006-10-08 20:00","2006","10","08","20:00","13.1","","8.0","","71","","28","","41","","","","98.91","","","","","","NA"
"2006-10-08 21:00","2006","10","08","21:00","12.1","","6.4","","68","","30","","26","","","","99.06","","","","","","NA"
"2006-10-08 22:00","2006","10","08","22:00","11.0","","3.3","","59","","31","","22","","","","99.20","","","","","","NA"
"2006-10-08 23:00","2006","10","08","23:00","10.0","","2.7","","60","","30","","26","","","","99.27","","","","","","NA"
"2006-10-09 00:00","2006","10","09","00:00","8.5","","1.5","","61","","33","","22","","","","99.43","","","","","","NA"
"2006-10-09 01:00","2006","10","09","01:00","6.6","","-0.5","","60","","35","","13","","","","99.55","","","","","","NA"
"2006-10-09 02:00","2006","10","09","02:00","5.8","","-0.9","","62","","35","","19","","","","99.63","","","","","","NA"
"2006-10-09 03:00","2006","10","09","03:00","4.5","","-0.9","","68","","36","","7","","","","99.74","","","","","","NA"
"2006-10-09 04:00","2006","10","09","04:00","3.6","","-1.4","","70","","34","","11","","","","99.85","","","","","","NA"
"2006-10-09 05:00","2006","10","09","05:00","2.7","","-1.2","","75","","36","","7","","","","99.97","","","","","","NA"
"2006-10-09 06:00","2006","10","09","06:00","1.6","","-1.3","","81","","2","","7","","","","100.07","","","","","","NA"
"2006-10-09 07:00","2006","10","09","07:00","1.4","","-1.0","","84","","35","","9","","","","100.15","","","","","","NA"
"2006-10-09 08:00","2006","10","09","08:00","2.0","","-1.1","","80","","2","","7","","","","100.25","","","","","","NA"
"2006-10-09 09:00","2006","10","09","09:00","3.6","","-0.9","","72","","2","","9","","","","100.30","","","","","","NA"
"2006-10-09 10:00","2006","10","09","10:00","4.5","","-1.1","","67","","36","","9","","","","100.34","","","","","","NA"
"2006-10-09 11:00","2006","10","09","11:00","6.2","","-1.2","","59","","3","","7","","","","100.34","","","","","","NA"
"2006-10-09 12:00","2006","10","09","12:00","7.0","","-1.4","","55","","4","","6","","","","100.29","","","","","","NA"
"2006-10-09 13:00","2006","10","09","13:00","8.2","","-2.0","","49","","34","","7","","","","100.25","","","","","","NA"
"2006-10-09 14:00","2006","10","09","14:00","8.1","","-1.4","","51","","34","","7","","","","100.21","","","","","","NA"
"2006-10-09 15:00","2006","10","09","15:00","8.4","","0.3","","57","","27","","13","","","","100.17","","","","","","NA"
"2006-10-09 16:00","2006","10","09","16:00","7.0","","1.0","","66","","29","","19","","","","100.16","","","","","","NA"
"2006-10-09 17:00","2006","10","09","17:00","7.2","","1.3","","66","","28","","17","","","","100.15","","","","","","NA"
"2006-10-09 18:00","2006","10","09","18:00","6.7","","1.3","","68","","30","","11","","","","100.12","","","","","","NA"
"2006-10-09 19:00","2006","10","09","19:00","6.3","","1.1","","69","","31","","9","","","","100.12","","","","","","NA"
"2006-10-09 20:00","2006","10","09","20:00","4.2","","2.0","","86","","35","","4","","","","100.08","","","","","","NA"
"2006-10-09 21:00","2006","10","09","21:00","2.1","","1.7","","97","","7","","9","","","","100.07","","","","","","NA"
"2006-10-09 22:00","2006","10","09","22:00","2.5","","0.9","","89","","4","","11","","","","100.07","","","","","","NA"
"2006-10-09 23:00","2006","10","09","23:00","2.4","","0.2","","85","","5","","9","","","","100.03","","","","","","NA"
"2006-10-10 00:00","2006","10","10","00:00","0.9","","-0.8","","88","","7","","7","","","","100.03","","","","","","NA"
"2006-10-10 01:00","2006","10","10","01:00","-0.5","","-1.6","","92","","4","","7","","","","100.02","","","","-3","","NA"
"2006-10-10 02:00","2006","10","10","02:00","-1.0","","-1.4","","97","","6","","9","","","","100.00","","","","-4","","NA"
"2006-10-10 03:00","2006","10","10","03:00","-1.0","","-1.1","","99","","6","","11","","","","99.95","","","","-5","","NA"
"2006-10-10 04:00","2006","10","10","04:00","-1.6","","-1.9","","98","","7","","15","","","","99.90","","","","-6","","NA"
"2006-10-10 05:00","2006","10","10","05:00","-1.3","","-1.4","","99","","7","","15","","","","99.84","","","","-6","","NA"
"2006-10-10 06:00","2006","10","10","06:00","-1.1","","-1.4","","98","","8","","15","","","","99.78","","","","-6","","NA"
"2006-10-10 07:00","2006","10","10","07:00","-1.3","","-1.8","","96","","8","","15","","","","99.73","","","","-6","","NA"
"2006-10-10 08:00","2006","10","10","08:00","1.5","","-1.1","","83","","10","","13","","","","99.63","","","","","","NA"
"2006-10-10 09:00","2006","10","10","09:00","5.5","","0.4","","70","","11","","13","","","","99.57","","","","","","NA"
"2006-10-10 10:00","2006","10","10","10:00","8.4","","3.6","","72","","20","","35","","","","99.54","","","","","","NA"
"2006-10-10 11:00","2006","10","10","11:00","8.3","","4.7","","78","","20","","35","","","","99.47","","","","","","NA"
"2006-10-10 12:00","2006","10","10","12:00","8.4","","5.3","","81","","21","","39","","","","99.33","","","","","","NA"
"2006-10-10 13:00","2006","10","10","13:00","8.0","","4.5","","79","","20","","37","","","","99.21","","","","","","NA"
"2006-10-10 14:00","2006","10","10","14:00","8.7","","4.0","","72","","21","","37","","","","99.09","","","","","","NA"
"2006-10-10 15:00","2006","10","10","15:00","9.6","","4.0","","68","","20","","39","","","","98.91","","","","","","NA"
"2006-10-10 16:00","2006","10","10","16:00","9.6","","2.9","","63","","20","","39","","","","98.80","","","","","","NA"
"2006-10-10 17:00","2006","10","10","17:00","8.7","","4.6","","75","","20","","41","","","","98.69","","","","","","NA"
"2006-10-10 18:00","2006","10","10","18:00","8.1","","3.4","","72","","19","","37","","","","98.59","","","","","","NA"
"2006-10-10 19:00","2006","10","10","19:00","7.9","","4.0","","76","","18","","33","","","","98.45","","","","","","NA"
"2006-10-10 20:00","2006","10","10","20:00","8.0","","4.2","","77","","19","","32","","","","98.33","","","","","","NA"
"2006-10-10 21:00","2006","10","10","21:00","6.7","","3.8","","82","","15","","19","","","","98.20","","","","","","NA"
"2006-10-10 22:00","2006","10","10","22:00","7.8","","4.1","","77","","16","","24","","","","98.05","","","","","","NA"
"2006-10-10 23:00","2006","10","10","23:00","8.9","","6.0","","82","","17","","35","","","","97.89","","","","","","NA"
"2006-10-11 00:00","2006","10","11","00:00","9.7","","6.7","","82","","19","","44","","","","97.75","","","","","","NA"
"2006-10-11 01:00","2006","10","11","01:00","9.4","","6.5","","82","","19","","44","","","","97.61","","","","","","NA"
"2006-10-11 02:00","2006","10","11","02:00","9.3","","7.2","","87","","19","","44","","","","97.50","","","","","","NA"
"2006-10-11 03:00","2006","10","11","03:00","9.3","","7.0","","86","","20","","44","","","","97.35","","","","","","NA"
"2006-10-11 04:00","2006","10","11","04:00","9.4","","6.2","","80","","20","","43","","","","97.23","","","","","","NA"
"2006-10-11 05:00","2006","10","11","05:00","9.2","","6.1","","81","","20","","39","","","","97.13","","","","","","NA"
"2006-10-11 06:00","2006","10","11","06:00","9.1","","6.2","","82","","20","","35","","","","97.02","","","","","","NA"
"2006-10-11 07:00","2006","10","11","07:00","7.7","","5.6","","87","","23","","35","","","","96.93","","","","","","NA"
"2006-10-11 08:00","2006","10","11","08:00","7.0","","5.4","","90","","21","","24","","","","96.83","","","","","","NA"
"2006-10-11 09:00","2006","10","11","09:00","6.7","","6.3","","97","","20","","19","","","","96.71","","","","","","NA"
"2006-10-11 10:00","2006","10","11","10:00","6.6","","6.6","","100","","19","","17","","","","96.63","","","","","","NA"
"2006-10-11 11:00","2006","10","11","11:00","6.4","","5.6","","95","","19","","22","","","","96.54","","","","","","NA"
"2006-10-11 12:00","2006","10","11","12:00","6.7","","6.7","","100","","19","","17","","","","96.46","","","","","","NA"
"2006-10-11 13:00","2006","10","11","13:00","6.7","","6.7","","100","","14","","11","","","","96.37","","","","","","NA"
"2006-10-11 14:00","2006","10","11","14:00","6.9","","6.8","","99","","21","","19","","","","96.30","","","","","","NA"
"2006-10-11 15:00","2006","10","11","15:00","6.7","","6.7","","100","","19","","17","","","","96.23","","","","","","NA"
"2006-10-11 16:00","2006","10","11","16:00","6.4","","6.4","","100","","18","","15","","","","96.19","","","","","","NA"
"2006-10-11 17:00","2006","10","11","17:00","6.2","","6.2","","100","","17","","15","","","","96.12","","","","","","NA"
"2006-10-11 18:00","2006","10","11","18:00","4.9","","4.9","","100","","32","","13","","","","96.08","","","","","","NA"
"2006-10-11 19:00","2006","10","11","19:00","0.8","","0.8","","100","","36","","13","","","","96.15","","","","","","NA"
"2006-10-11 20:00","2006","10","11","20:00","0.0","","0.0","","100","","33","","20","","","","96.23","","","","-5","","NA"
"2006-10-11 21:00","2006","10","11","21:00","-1.2","","-1.2","","100","","35","","13","","","","96.26","","","","-5","","NA"
"2006-10-11 22:00","2006","10","11","22:00","-2.0","","-2.0","","100","","34","","15","","","","96.33","","","","-7","","NA"
"2006-10-11 23:00","2006","10","11","23:00","-2.0","","-2.0","","100","","34","","13","","","","96.33","","","","-6","","NA"
"2006-10-12 00:00","2006","10","12","00:00","-2.3","","-2.3","","100","","33","","19","","","","96.38","","","","-8","","NA"
"2006-10-12 01:00","2006","10","12","01:00","-1.9","","-1.9","","100","","32","","26","","","","96.37","","","","-8","","NA"
"2006-10-12 02:00","2006","10","12","02:00","-2.3","","-2.5","","99","","33","","22","","","","96.41","","","","-8","","NA"
"2006-10-12 03:00","2006","10","12","03:00","-1.6","","-3.0","","90","","30","","22","","","","96.40","","","","-8","","NA"
"2006-10-12 04:00","2006","10","12","04:00","-1.7","","-2.8","","92","","32","","24","","","","96.37","","","","-8","","NA"
"2006-10-12 05:00","2006","10","12","05:00","-0.9","","-3.3","","84","","29","","35","","","","96.37","","","","-8","","NA"
"2006-10-12 06:00","2006","10","12","06:00","-1.0","","-3.9","","81","","29","","35","","","","96.39","","","","-8","","NA"
"2006-10-12 07:00","2006","10","12","07:00","-0.6","","-2.8","","85","","27","","37","","","","96.37","","","","-8","","NA"
"2006-10-12 08:00","2006","10","12","08:00","-0.9","","-2.8","","87","","27","","32","","","","96.34","","","","-8","","NA"
"2006-10-12 09:00","2006","10","12","09:00","-0.6","","-2.8","","85","","27","","35","","","","96.29","","","","-8","","NA"
"2006-10-12 10:00","2006","10","12","10:00","-1.1","","-3.8","","82","","28","","35","","","","96.28","","","","-8","","NA"
"2006-10-12 11:00","2006","10","12","11:00","-1.1","","-2.6","","90","","28","","26","","","","96.27","","","","-7","","NA"
"2006-10-12 12:00","2006","10","12","12:00","-0.1","","-1.9","","88","","26","","39","","","","96.24","","","","-7","","NA"
"2006-10-12 13:00","2006","10","12","13:00","-0.1","","-1.6","","90","","27","","39","","","","96.20","","","","-7","","NA"
"2006-10-12 14:00","2006","10","12","14:00","1.2","","-1.5","","82","","25","","44","","","","96.15","","","","","","NA"
"2006-10-12 15:00","2006","10","12","15:00","1.6","","0.1","","90","","25","","46","","","","96.06","","","","","","NA"
"2006-10-12 16:00","2006","10","12","16:00","2.4","","-0.7","","80","","24","","54","","","","96.00","","","","","","NA"
"2006-10-12 17:00","2006","10","12","17:00","1.1","","1.1","","100","","22","","59","","","","95.97","","","","","","NA"
"2006-10-12 18:00","2006","10","12","18:00","1.6","","1.5","","99","","24","","48","","","","95.89","","","","","","NA"
"2006-10-12 19:00","2006","10","12","19:00","1.4","","1.4","","100","","26","","41","","","","95.80","","","","","","NA"
"2006-10-12 20:00","2006","10","12","20:00","1.2","","1.0","","99","","25","","41","","","","95.76","","","","","","NA"
"2006-10-12 21:00","2006","10","12","21:00","1.9","","1.5","","97","","24","","41","","","","95.68","","","","","","NA"
"2006-10-12 22:00","2006","10","12","22:00","1.4","","1.4","","100","","23","","44","","","","95.59","","","","","","NA"
"2006-10-12 23:00","2006","10","12","23:00","1.9","","1.9","","100","","22","","37","","","","95.48","","","","","","NA"
"2006-10-13 00:00","2006","10","13","00:00","2.4","","2.4","","100","","23","","37","","","","95.37","","","","","","NA"
"2006-10-13 01:00","2006","10","13","01:00","2.6","","2.6","","100","","23","","32","","","","95.27","","","","","","NA"
"2006-10-13 02:00","2006","10","13","02:00","2.3","","2.3","","100","","24","","41","","","","95.23","","","","","","NA"
"2006-10-13 03:00","2006","10","13","03:00","2.1","","2.1","","100","","24","","35","","","","95.17","","","","","","NA"
"2006-10-13 04:00","2006","10","13","04:00","2.7","","2.7","","100","","22","","43","","","","95.11","","","","","","NA"
"2006-10-13 05:00","2006","10","13","05:00","3.1","","3.1","","100","","24","","28","","","","95.11","","","","","","NA"
"2006-10-13 06:00","2006","10","13","06:00","3.1","","3.1","","100","","27","","20","","","","95.10","","","","","","NA"
"2006-10-13 07:00","2006","10","13","07:00","3.3","","2.9","","97","","28","","26","","","","95.10","","","","","","NA"
"2006-10-13 08:00","2006","10","13","08:00","2.6","","2.5","","99","","29","","35","","","","95.17","","","","","","NA"
"2006-10-13 09:00","2006","10","13","09:00","3.2","","2.3","","94","","29","","35","","","","95.25","","","","","","NA"
"2006-10-13 10:00","2006","10","13","10:00","3.6","","1.5","","86","","29","","33","","","","95.34","","","","","","NA"
"2006-10-13 11:00","2006","10","13","11:00","2.6","","-0.2","","82","","29","","30","","","","95.44","","","","","","NA"
"2006-10-13 12:00","2006","10","13","12:00","3.0","","-0.1","","80","","28","","30","","","","95.54","","","","","","NA"
"2006-10-13 13:00","2006","10","13","13:00","2.4","","1.3","","92","","28","","30","","","","95.63","","","","","","NA"
"2006-10-13 14:00","2006","10","13","14:00","2.7","","0.8","","87","","28","","26","","","","95.74","","","","","","NA"
"2006-10-13 15:00","2006","10","13","15:00","2.1","","1.8","","98","","29","","33","","","","95.85","","","","","","NA"
"2006-10-13 16:00","2006","10","13","16:00","2.1","","1.7","","97","","30","","26","","","","95.98","","","","","","NA"
"2006-10-13 17:00","2006","10","13","17:00","2.7","","2.1","","96","","30","","20","","","","96.11","","","","","","NA"
"2006-10-13 18:00","2006","10","13","18:00","2.4","","2.1","","98","","31","","20","","","","96.22","","","","","","NA"
"2006-10-13 19:00","2006","10","13","19:00","2.7","","1.2","","90","","32","","24","","","","96.32","","","","","","NA"
"2006-10-13 20:00","2006","10","13","20:00","1.7","","0.8","","94","","34","","13","","","","96.43","","","","","","NA"
"2006-10-13 21:00","2006","10","13","21:00","0.9","","0.2","","95","","34","","17","","","","96.54","","","","","","NA"
"2006-10-13 22:00","2006","10","13","22:00","0.6","","-0.5","","92","","35","","15","","","","96.64","","","","","","NA"
"2006-10-13 23:00","2006","10","13","23:00","0.3","","-0.1","","97","","34","","15","","","","96.73","","","","","","NA"
"2006-10-14 00:00","2006","10","14","00:00","1.1","","-0.4","","90","","34","","20","","","","96.81","","","","","","NA"
"2006-10-14 01:00","2006","10","14","01:00","1.3","","-0.4","","88","","34","","20","","","","96.92","","","","","","NA"
"2006-10-14 02:00","2006","10","14","02:00","1.3","","-0.7","","87","","34","","22","","","","97.05","","","","","","NA"
"2006-10-14 03:00","2006","10","14","03:00","1.4","","-0.5","","87","","33","","26","","","","97.12","","","","","","NA"
"2006-10-14 04:00","2006","10","14","04:00","1.2","","-1.7","","81","","34","","19","","","","97.24","","","","","","NA"
"2006-10-14 05:00","2006","10","14","05:00","1.0","","-1.1","","86","","33","","17","","","","97.35","","","","","","NA"
"2006-10-14 06:00","2006","10","14","06:00","2.2","","-1.2","","78","","31","","22","","","","97.37","","","","","","NA"
"2006-10-14 07:00","2006","10","14","07:00","2.2","","-0.5","","82","","29","","32","","","","97.41","","","","","","NA"
"2006-10-14 08:00","2006","10","14","08:00","2.3","","-0.4","","82","","29","","32","","","","97.43","","","","","","NA"
"2006-10-14 09:00","2006","10","14","09:00","2.6","","-0.6","","79","","28","","39","","","","97.40","","","","","","NA"
"2006-10-14 10:00","2006","10","14","10:00","1.8","","0.8","","93","","29","","35","","","","97.43","","","","","","NA"
"2006-10-14 11:00","2006","10","14","11:00","3.0","","0.0","","81","","29","","33","","","","97.44","","","","","","NA"
"2006-10-14 12:00","2006","10","14","12:00","3.1","","-0.9","","75","","29","","28","","","","97.48","","","","","","NA"
"2006-10-14 13:00","2006","10","14","13:00","3.2","","-1.7","","70","","29","","28","","","","97.51","","","","","","NA"
"2006-10-14 14:00","2006","10","14","14:00","4.2","","-1.6","","66","","29","","30","","","","97.52","","","","","","NA"
"2006-10-14 15:00","2006","10","14","15:00","4.0","","-0.6","","72","","29","","37","","","","97.56","","","","","","NA"
"2006-10-14 16:00","2006","10","14","16:00","3.8","","-0.6","","73","","30","","33","","","","97.66","","","","","","NA"
"2006-10-14 17:00","2006","10","14","17:00","3.8","","-1.3","","69","","29","","32","","","","97.75","","","","","","NA"
"2006-10-14 18:00","2006","10","14","18:00","4.0","","-1.4","","68","","30","","28","","","","97.81","","","","","","NA"
"2006-10-14 19:00","2006","10","14","19:00","4.2","","-2.0","","64","","30","","33","","","","97.89","","","","","","NA"
"2006-10-14 20:00","2006","10","14","20:00","4.0","","-3.2","","59","","30","","33","","","","97.98","","","","","","NA"
"2006-10-14 21:00","2006","10","14","21:00","3.7","","-3.2","","61","","30","","26","","","","98.01","","","","","","NA"
"2006-10-14 22:00","2006","10","14","22:00","3.2","","-4.3","","58","","30","","28","","","","98.06","","","","","","NA"
"2006-10-14 23:00","2006","10","14","23:00","2.8","","-3.2","","65","","32","","24","","","","98.08","","","","","","NA"
"2006-10-15 00:00","2006","10","15","00:00","2.7","","-2.6","","68","","31","","22","","","","98.10","","","","","","NA"
"2006-10-15 01:00","2006","10","15","01:00","2.3","","-3.8","","64","","32","","22","","","","98.16","","","","","","NA"
"2006-10-15 02:00","2006","10","15","02:00","2.4","","-3.7","","64","","30","","17","","","","98.20","","","","","","NA"
"2006-10-15 03:00","2006","10","15","03:00","2.5","","-2.7","","69","","31","","17","","","","98.19","","","","","","NA"
"2006-10-15 04:00","2006","10","15","04:00","3.1","","-1.2","","73","","30","","15","","","","98.20","","","","","","NA"
"2006-10-15 05:00","2006","10","15","05:00","3.8","","-0.2","","75","","29","","22","","","","98.20","","","","","","NA"
"2006-10-15 06:00","2006","10","15","06:00","3.7","","0.4","","79","","28","","24","","","","98.23","","","","","","NA"
"2006-10-15 07:00","2006","10","15","07:00","4.2","","1.0","","80","","27","","19","","","","98.23","","","","","","NA"
"2006-10-15 08:00","2006","10","15","08:00","4.3","","1.0","","79","","28","","26","","","","98.28","","","","","","NA"
"2006-10-15 09:00","2006","10","15","09:00","5.0","","1.0","","75","","27","","22","","","","98.34","","","","","","NA"
"2006-10-15 10:00","2006","10","15","10:00","5.6","","1.4","","74","","26","","24","","","","98.37","","","","","","NA"
"2006-10-15 11:00","2006","10","15","11:00","6.0","","0.5","","68","","27","","24","","","","98.41","","","","","","NA"
"2006-10-15 12:00","2006","10","15","12:00","6.7","","0.2","","63","","26","","28","","","","98.43","","","","","","NA"
"2006-10-15 13:00","2006","10","15","13:00","6.7","","0.4","","64","","26","","30","","","","98.43","","","","","","NA"
"2006-10-15 14:00","2006","10","15","14:00","7.6","","-1.6","","52","","26","","28","","","","98.41","","","","","","NA"
"2006-10-15 15:00","2006","10","15","15:00","7.8","","0.3","","59","","27","","22","","","","98.41","","","","","","NA"
"2006-10-15 16:00","2006","10","15","16:00","7.5","","-0.4","","57","","27","","19","","","","98.43","","","","","","NA"
"2006-10-15 17:00","2006","10","15","17:00","7.2","","-0.9","","56","","28","","19","","","","98.46","","","","","","NA"
"2006-10-15 18:00","2006","10","15","18:00","6.6","","-0.9","","59","","28","","17","","","","98.49","","","","","","NA"
"2006-10-15 19:00","2006","10","15","19:00","6.4","","1.8","","72","","25","","19","","","","98.51","","","","","","NA"
"2006-10-15 20:00","2006","10","15","20:00","6.8","","2.3","","73","","25","","22","","","","98.53","","","","","","NA"
"2006-10-15 21:00","2006","10","15","21:00","7.0","","3.1","","76","","24","","30","","","","98.55","","","","","","NA"
"2006-10-15 22:00","2006","10","15","22:00","7.0","","3.9","","81","","24","","26","","","","98.55","","","","","","NA"
"2006-10-15 23:00","2006","10","15","23:00","7.0","","3.9","","81","","25","","20","","","","98.57","","","","","","NA"
"2006-10-16 00:00","2006","10","16","00:00","7.1","","3.9","","80","","25","","22","","","","98.60","","","","","","NA"
"2006-10-16 01:00","2006","10","16","01:00","7.1","","5.0","","86","","21","","24","","","","98.62","","","","","","NA"
"2006-10-16 02:00","2006","10","16","02:00","7.3","","3.5","","77","","21","","24","","","","98.63","","","","","","NA"
"2006-10-16 03:00","2006","10","16","03:00","5.0","","3.2","","88","","15","","11","","","","98.66","","","","","","NA"
"2006-10-16 04:00","2006","10","16","04:00","4.4","","3.0","","91","","13","","9","","","","98.66","","","","","","NA"
"2006-10-16 05:00","2006","10","16","05:00","2.3","","1.8","","96","","8","","13","","","","98.68","","","","","","NA"
"2006-10-16 06:00","2006","10","16","06:00","1.9","","1.9","","100","","8","","15","","","","98.68","","","","","","NA"
"2006-10-16 07:00","2006","10","16","07:00","1.6","","1.4","","99","","8","","15","","","","98.69","","","","","","NA"
"2006-10-16 08:00","2006","10","16","08:00","2.1","","0.5","","89","","8","","15","","","","98.68","","","","","","NA"
"2006-10-16 09:00","2006","10","16","09:00","4.8","","0.2","","72","","9","","9","","","","98.74","","","","","","NA"
"2006-10-16 10:00","2006","10","16","10:00","8.3","","0.2","","57","","9","","7","","","","98.75","","","","","","NA"
"2006-10-16 11:00","2006","10","16","11:00","9.0","","2.0","","61","","21","","9","","","","98.74","","","","","","NA"
"2006-10-16 12:00","2006","10","16","12:00","11.1","","5.5","","68","","19","","20","","","","98.71","","","","","","NA"
"2006-10-16 13:00","2006","10","16","13:00","10.5","","5.8","","73","","16","","17","","","","98.66","","","","","","NA"
"2006-10-16 14:00","2006","10","16","14:00","10.1","","5.2","","72","","18","","20","","","","98.65","","","","","","NA"
"2006-10-16 15:00","2006","10","16","15:00","10.8","","6.1","","73","","13","","22","","","","98.58","","","","","","NA"
"2006-10-16 16:00","2006","10","16","16:00","10.3","","6.3","","76","","10","","17","","","","98.55","","","","","","NA"
"2006-10-16 17:00","2006","10","16","17:00","9.6","","6.1","","79","","9","","13","","","","98.57","","","","","","NA"
"2006-10-16 18:00","2006","10","16","18:00","8.8","","6.9","","88","","11","","17","","","","98.53","","","","","","NA"
"2006-10-16 19:00","2006","10","16","19:00","8.1","","7.4","","95","","10","","17","","","","98.50","","","","","","NA"
"2006-10-16 20:00","2006","10","16","20:00","7.3","","7.3","","100","","9","","17","","","","98.48","","","","","","NA"
"2006-10-16 21:00","2006","10","16","21:00","7.5","","7.5","","100","","9","","15","","","","98.44","","","","","","NA"
"2006-10-16 22:00","2006","10","16","22:00","8.4","","8.4","","100","","14","","15","","","","98.37","","","","","","NA"
"2006-10-16 23:00","2006","10","16","23:00","9.0","","9.0","","100","","17","","35","","","","98.30","","","","","","NA"
"2006-10-17 00:00","2006","10","17","00:00","9.0","","9.0","","100","","17","","41","","","","98.25","","","","","","NA"
"2006-10-17 01:00","2006","10","17","01:00","9.0","","9.0","","100","","17","","35","","","","98.20","","","","","","NA"
"2006-10-17 02:00","2006","10","17","02:00","8.9","","8.9","","100","","16","","33","","","","98.15","","","","","","NA"
"2006-10-17 03:00","2006","10","17","03:00","8.7","","8.7","","100","","17","","26","","","","98.09","","","","","","NA"
"2006-10-17 04:00","2006","10","17","04:00","9.0","","9.0","","100","","15","","20","","","","98.04","","","","","","NA"
"2006-10-17 05:00","2006","10","17","05:00","8.9","","8.9","","100","","14","","19","","","","97.99","","","","","","NA"
"2006-10-17 06:00","2006","10","17","06:00","8.6","","8.6","","100","","12","","15","","","","97.95","","","","","","NA"
"2006-10-17 07:00","2006","10","17","07:00","8.6","","8.6","","100","","11","","11","","","","97.89","","","","","","NA"
"2006-10-17 08:00","2006","10","17","08:00","8.6","","8.6","","100","","10","","13","","","","97.84","","","","","","NA"
"2006-10-17 09:00","2006","10","17","09:00","8.6","","8.6","","100","","9","","17","","","","97.77","","","","","","NA"
"2006-10-17 10:00","2006","10","17","10:00","8.9","","8.9","","100","","8","","17","","","","97.70","","","","","","NA"
"2006-10-17 11:00","2006","10","17","11:00","9.1","","9.1","","100","","8","","17","","","","97.65","","","","","","NA"
"2006-10-17 12:00","2006","10","17","12:00","9.6","","9.6","","100","","9","","17","","","","97.61","","","","","","NA"
"2006-10-17 13:00","2006","10","17","13:00","9.7","","9.7","","100","","10","","13","","","","97.57","","","","","","NA"
"2006-10-17 14:00","2006","10","17","14:00","9.7","","9.7","","100","","7","","7","","","","97.55","","","","","","NA"
"2006-10-17 15:00","2006","10","17","15:00","9.8","","9.8","","100","","9","","13","","","","97.50","","","","","","NA"
"2006-10-17 16:00","2006","10","17","16:00","10.0","","10.0","","100","","8","","11","","","","97.51","","","","","","NA"
"2006-10-17 17:00","2006","10","17","17:00","9.9","","9.9","","100","","8","","15","","","","97.51","","","","","","NA"
"2006-10-17 18:00","2006","10","17","18:00","9.6","","9.6","","100","","10","","7","","","","97.53","","","","","","NA"
"2006-10-17 19:00","2006","10","17","19:00","9.3","","9.3","","100","","8","","11","","","","97.53","","","","","","NA"
"2006-10-17 20:00","2006","10","17","20:00","9.1","","9.1","","100","","10","","11","","","","97.51","","","","","","NA"
"2006-10-17 21:00","2006","10","17","21:00","9.1","","9.1","","100","","15","","6","","","","97.54","","","","","","NA"
"2006-10-17 22:00","2006","10","17","22:00","8.8","","8.8","","100","","15","","6","","","","97.51","","","","","","NA"
"2006-10-17 23:00","2006","10","17","23:00","8.7","","8.7","","100","","18","","9","","","","97.50","","","","","","NA"
"2006-10-18 00:00","2006","10","18","00:00","8.7","","8.7","","100","","20","","26","","","","97.50","","","","","","NA"
"2006-10-18 01:00","2006","10","18","01:00","8.7","","8.7","","100","","19","","22","","","","97.46","","","","","","NA"
"2006-10-18 02:00","2006","10","18","02:00","8.6","","8.6","","100","","19","","22","","","","97.43","","","","","","NA"
"2006-10-18 03:00","2006","10","18","03:00","8.7","","8.7","","100","","19","","24","","","","97.42","","","","","","NA"
"2006-10-18 04:00","2006","10","18","04:00","8.7","","8.7","","100","","19","","22","","","","97.39","","","","","","NA"
"2006-10-18 05:00","2006","10","18","05:00","9.0","","9.0","","100","","20","","28","","","","97.36","","","","","","NA"
"2006-10-18 06:00","2006","10","18","06:00","8.7","","8.7","","100","","25","","43","","","","97.37","","","","","","NA"
"2006-10-18 07:00","2006","10","18","07:00","7.0","","7.0","","100","","26","","52","","","","97.46","","","","","","NA"
"2006-10-18 08:00","2006","10","18","08:00","6.4","","6.4","","100","","26","","39","","","","97.57","","","","","","NA"
"2006-10-18 09:00","2006","10","18","09:00","5.7","","5.3","","97","","27","","33","","","","97.64","","","","","","NA"
"2006-10-18 10:00","2006","10","18","10:00","5.2","","4.3","","94","","27","","35","","","","97.73","","","","","","NA"
"2006-10-18 11:00","2006","10","18","11:00","5.1","","4.0","","93","","27","","32","","","","97.80","","","","","","NA"
"2006-10-18 12:00","2006","10","18","12:00","5.3","","3.8","","90","","26","","37","","","","97.85","","","","","","NA"
"2006-10-18 13:00","2006","10","18","13:00","5.5","","3.2","","85","","28","","33","","","","97.88","","","","","","NA"
"2006-10-18 14:00","2006","10","18","14:00","5.6","","3.1","","84","","28","","33","","","","97.88","","","","","","NA"
"2006-10-18 15:00","2006","10","18","15:00","5.7","","2.9","","82","","28","","28","","","","97.92","","","","","","NA"
"2006-10-18 16:00","2006","10","18","16:00","5.6","","3.2","","85","","28","","30","","","","97.95","","","","","","NA"
"2006-10-18 17:00","2006","10","18","17:00","5.6","","3.3","","85","","28","","24","","","","97.98","","","","","","NA"
"2006-10-18 18:00","2006","10","18","18:00","5.6","","3.5","","86","","28","","26","","","","98.04","","","","","","NA"
"2006-10-18 19:00","2006","10","18","19:00","5.2","","2.7","","84","","33","","17","","","","98.04","","","","","","NA"
"2006-10-18 20:00","2006","10","18","20:00","4.9","","2.0","","81","","33","","22","","","","98.04","","","","","","NA"
"2006-10-18 21:00","2006","10","18","21:00","4.8","","2.3","","84","","32","","20","","","","98.07","","","","","","NA"
"2006-10-18 22:00","2006","10","18","22:00","4.6","","2.1","","84","","33","","19","","","","98.05","","","","","","NA"
"2006-10-18 23:00","2006","10","18","23:00","4.2","","1.8","","84","","33","","13","","","","98.06","","","","","","NA"
"2006-10-19 00:00","2006","10","19","00:00","3.7","","0.9","","82","","34","","13","","","","98.08","","","","","","NA"
"2006-10-19 01:00","2006","10","19","01:00","3.0","","1.5","","90","","32","","24","","","","98.12","","","","","","NA"
"2006-10-19 02:00","2006","10","19","02:00","3.5","","0.4","","80","","32","","19","","","","98.14","","","","","","NA"
"2006-10-19 03:00","2006","10","19","03:00","3.4","","0.5","","81","","32","","20","","","","98.16","","","","","","NA"
"2006-10-19 04:00","2006","10","19","04:00","3.1","","0.4","","82","","33","","17","","","","98.18","","","","","","NA"
"2006-10-19 05:00","2006","10","19","05:00","2.9","","-0.2","","80","","34","","17","","","","98.20","","","","","","NA"
"2006-10-19 06:00","2006","10","19","06:00","2.9","","-0.4","","79","","33","","19","","","","98.22","","","","","","NA"
"2006-10-19 07:00","2006","10","19","07:00","2.9","","-1.1","","75","","34","","15","","","","98.24","","","","","","NA"
"2006-10-19 08:00","2006","10","19","08:00","2.3","","-2.1","","73","","36","","9","","","","98.27","","","","","","NA"
"2006-10-19 09:00","2006","10","19","09:00","2.9","","-2.3","","69","","34","","15","","","","98.28","","","","","","NA"
"2006-10-19 10:00","2006","10","19","10:00","3.0","","-2.0","","70","","35","","11","","","","98.28","","","","","","NA"
"2006-10-19 11:00","2006","10","19","11:00","2.8","","-1.8","","72","","34","","11","","","","98.31","","","","","","NA"
"2006-10-19 12:00","2006","10","19","12:00","3.0","","-1.7","","71","","33","","13","","","","98.30","","","","","","NA"
"2006-10-19 13:00","2006","10","19","13:00","3.0","","-2.5","","67","","34","","11","","","","98.29","","","","","","NA"
"2006-10-19 14:00","2006","10","19","14:00","3.1","","-2.1","","69","","32","","9","","","","98.25","","","","","","NA"
"2006-10-19 15:00","2006","10","19","15:00","3.2","","-1.8","","70","","27","","13","","","","98.25","","","","","","NA"
"2006-10-19 16:00","2006","10","19","16:00","3.2","","-2.5","","66","","29","","19","","","","98.27","","","","","","NA"
"2006-10-19 17:00","2006","10","19","17:00","2.9","","-2.9","","66","","29","","17","","","","98.28","","","","","","NA"
"2006-10-19 18:00","2006","10","19","18:00","2.8","","-2.6","","68","","29","","22","","","","98.29","","","","","","NA"
"2006-10-19 19:00","2006","10","19","19:00","2.7","","-3.0","","66","","29","","22","","","","98.28","","","","","","NA"
"2006-10-19 20:00","2006","10","19","20:00","2.4","","-3.2","","66","","31","","19","","","","98.32","","","","","","NA"
"2006-10-19 21:00","2006","10","19","21:00","2.1","","-3.4","","67","","33","","13","","","","98.33","","","","","","NA"
"2006-10-19 22:00","2006","10","19","22:00","1.6","","-4.3","","65","","34","","11","","","","98.33","","","","","","NA"
"2006-10-19 23:00","2006","10","19","23:00","1.0","","-4.2","","68","","5","","6","","","","98.32","","","","","","NA"
"2006-10-20 00:00","2006","10","20","00:00","0.9","","-4.0","","70","","3","","6","","","","98.30","","","","","","NA"
"2006-10-20 01:00","2006","10","20","01:00","2.0","","-4.4","","63","","30","","11","","","","98.26","","","","","","NA"
"2006-10-20 02:00","2006","10","20","02:00","1.1","","-2.4","","77","","30","","6","","","","98.25","","","","","","NA"
"2006-10-20 03:00","2006","10","20","03:00","0.7","","-2.4","","80","","7","","6","","","","98.19","","","","","","NA"
"2006-10-20 04:00","2006","10","20","04:00","0.8","","-1.9","","82","","5","","7","","","","98.17","","","","","","NA"
"2006-10-20 05:00","2006","10","20","05:00","0.6","","-2.5","","80","","8","","9","","","","98.18","","","","","","NA"
"2006-10-20 06:00","2006","10","20","06:00","0.6","","-2.5","","80","","8","","9","","","","98.18","","","","","","NA"
"2006-10-20 07:00","2006","10","20","07:00","0.5","","-2.0","","83","","8","","9","","","","98.18","","","","","","NA"
"2006-10-20 08:00","2006","10","20","08:00","0.8","","-2.3","","80","","5","","6","","","","98.20","","","","","","NA"
"2006-10-20 09:00","2006","10","20","09:00","1.4","","-2.6","","75","","5","","6","","","","98.22","","","","","","NA"
"2006-10-20 10:00","2006","10","20","10:00","2.3","","-2.4","","71","","7","","6","","","","98.24","","","","","","NA"
"2006-10-20 11:00","2006","10","20","11:00","2.6","","-2.8","","68","","3","","6","","","","98.24","","","","","","NA"
"2006-10-20 12:00","2006","10","20","12:00","2.8","","-2.7","","67","","9","","4","","","","98.24","","","","","","NA"
"2006-10-20 13:00","2006","10","20","13:00","3.7","","-2.6","","63","","28","","4","","","","98.18","","","","","","NA"
"2006-10-20 14:00","2006","10","20","14:00","4.6","","-2.2","","61","","30","","6","","","","98.18","","","","","","NA"
"2006-10-20 15:00","2006","10","20","15:00","3.8","","-1.6","","68","","28","","7","","","","98.19","","","","","","NA"
"2006-10-20 16:00","2006","10","20","16:00","3.7","","-1.6","","68","","25","","13","","","","98.22","","","","","","NA"
"2006-10-20 17:00","2006","10","20","17:00","3.7","","-2.2","","65","","26","","15","","","","98.24","","","","","","NA"
"2006-10-20 18:00","2006","10","20","18:00","3.2","","-1.7","","70","","29","","13","","","","98.28","","","","","","NA"
"2006-10-20 19:00","2006","10","20","19:00","3.3","","-1.9","","69","","28","","11","","","","98.32","","","","","","NA"
"2006-10-20 20:00","2006","10","20","20:00","3.5","","-1.0","","72","","27","","11","","","","98.36","","","","","","NA"
"2006-10-20 21:00","2006","10","20","21:00","2.6","","-1.3","","75","","1","","6","","","","98.40","","","","","","NA"
"2006-10-20 22:00","2006","10","20","22:00","2.4","","-2.9","","68","","3","","7","","","","98.43","","","","","","NA"
"2006-10-20 23:00","2006","10","20","23:00","2.5","","-3.8","","63","","36","","7","","","","98.45","","","","","","NA"
"2006-10-21 00:00","2006","10","21","00:00","2.0","","-2.3","","73","","7","","7","","","","98.44","","","","","","NA"
"2006-10-21 01:00","2006","10","21","01:00","1.6","","-2.0","","77","","7","","7","","","","98.46","","","","","","NA"
"2006-10-21 02:00","2006","10","21","02:00","1.8","","-1.4","","79","","5","","6","","","","98.48","","","","","","NA"
"2006-10-21 03:00","2006","10","21","03:00","1.7","","1.2","","96","","30","","22","","","","98.53","","","","","","NA"
"2006-10-21 04:00","2006","10","21","04:00","1.1","","0.4","","95","","8","","4","","","","98.53","","","","","","NA"
"2006-10-21 05:00","2006","10","21","05:00","0.9","","0.6","","98","","4","","6","","","","98.55","","","","","","NA"
"2006-10-21 06:00","2006","10","21","06:00","2.1","","-2.8","","70","","32","","7","","","","98.61","","","","","","NA"
"2006-10-21 07:00","2006","10","21","07:00","2.7","","-3.7","","63","","29","","13","","","","98.65","","","","","","NA"
"2006-10-21 08:00","2006","10","21","08:00","0.2","","-0.2","","97","","6","","6","","","","98.69","","","","","","NA"
"2006-10-21 09:00","2006","10","21","09:00","2.7","","-3.4","","64","","30","","9","","","","98.72","","","","","","NA"
"2006-10-21 10:00","2006","10","21","10:00","2.8","","-4.3","","59","","29","","15","","","","98.77","","","","","","NA"
"2006-10-21 11:00","2006","10","21","11:00","2.8","","-3.9","","61","","28","","13","","","","98.77","","","","","","NA"
"2006-10-21 12:00","2006","10","21","12:00","2.7","","-3.7","","63","","28","","17","","","","98.80","","","","","","NA"
"2006-10-21 13:00","2006","10","21","13:00","3.7","","-4.0","","57","","28","","22","","","","98.77","","","","","","NA"
"2006-10-21 14:00","2006","10","21","14:00","2.9","","-4.7","","57","","29","","17","","","","98.77","","","","","","NA"
"2006-10-21 15:00","2006","10","21","15:00","3.3","","-4.4","","57","","27","","19","","","","98.77","","","","","","NA"
"2006-10-21 16:00","2006","10","21","16:00","2.9","","-3.6","","62","","28","","17","","","","98.77","","","","","","NA"
"2006-10-21 17:00","2006","10","21","17:00","2.9","","-4.7","","57","","28","","15","","","","98.81","","","","","","NA"
"2006-10-21 18:00","2006","10","21","18:00","2.9","","-4.3","","59","","28","","19","","","","98.80","","","","","","NA"
"2006-10-21 19:00","2006","10","21","19:00","2.9","","-4.6","","58","","26","","17","","","","98.82","","","","","","NA"
"2006-10-21 20:00","2006","10","21","20:00","2.8","","-3.6","","63","","31","","17","","","","98.82","","","","","","NA"
"2006-10-21 21:00","2006","10","21","21:00","2.6","","-4.2","","61","","29","","17","","","","98.81","","","","","","NA"
"2006-10-21 22:00","2006","10","21","22:00","1.9","","-4.0","","65","","31","","15","","","","98.83","","","","","","NA"
"2006-10-21 23:00","2006","10","21","23:00","1.6","","-5.0","","61","","29","","19","","","","98.84","","","","","","NA"
"2006-10-22 00:00","2006","10","22","00:00","1.3","","-4.9","","63","","29","","9","","","","98.82","","","","","","NA"
"2006-10-22 01:00","2006","10","22","01:00","0.6","","-5.2","","65","","5","","7","","","","98.77","","","","","","NA"
"2006-10-22 02:00","2006","10","22","02:00","0.6","","-5.7","","63","","1","","4","","","","98.75","","","","","","NA"
"2006-10-22 03:00","2006","10","22","03:00","0.2","","-4.3","","72","","8","","7","","","","98.70","","","","","","NA"
"2006-10-22 04:00","2006","10","22","04:00","0.2","","-5.3","","66","","5","","11","","","","98.64","","","","","","NA"
"2006-10-22 05:00","2006","10","22","05:00","-0.2","","-4.7","","72","","5","","9","","","","98.64","","","","-3","","NA"
"2006-10-22 06:00","2006","10","22","06:00","0.0","","-3.9","","75","","10","","7","","","","98.64","","","","-2","","NA"
"2006-10-22 07:00","2006","10","22","07:00","0.0","","-4.2","","73","","8","","9","","","","98.61","","","","-3","","NA"
"2006-10-22 08:00","2006","10","22","08:00","-0.3","","-3.5","","79","","5","","6","","","","98.61","","","","-2","","NA"
"2006-10-22 09:00","2006","10","22","09:00","0.6","","-3.5","","74","","7","","6","","","","98.60","","","","","","NA"
"2006-10-22 10:00","2006","10","22","10:00","1.8","","-3.7","","67","","4","","6","","","","98.58","","","","","","NA"
"2006-10-22 11:00","2006","10","22","11:00","2.3","","-3.6","","65","","2","","4","","","","98.54","","","","","","NA"
"2006-10-22 12:00","2006","10","22","12:00","2.6","","-3.1","","66","","1","","6","","","","98.50","","","","","","NA"
"2006-10-22 13:00","2006","10","22","13:00","2.9","","-2.8","","66","","3","","9","","","","98.45","","","","","","NA"
"2006-10-22 14:00","2006","10","22","14:00","3.1","","-3.0","","64","","3","","7","","","","98.41","","","","","","NA"
"2006-10-22 15:00","2006","10","22","15:00","3.0","","-3.4","","63","","36","","7","","","","98.41","","","","","","NA"
"2006-10-22 16:00","2006","10","22","16:00","2.8","","-3.4","","64","","1","","9","","","","98.45","","","","","","NA"
"2006-10-22 17:00","2006","10","22","17:00","2.5","","-3.0","","67","","36","","7","","","","98.48","","","","","","NA"
"2006-10-22 18:00","2006","10","22","18:00","2.1","","-2.5","","72","","36","","6","","","","98.51","","","","","","NA"
"2006-10-22 19:00","2006","10","22","19:00","1.7","","-2.3","","75","","36","","6","","","","98.53","","","","","","NA"
"2006-10-22 20:00","2006","10","22","20:00","1.8","","-2.2","","75","","35","","7","","","","98.55","","","","","","NA"
"2006-10-22 21:00","2006","10","22","21:00","1.8","","-2.5","","73","","35","","11","","","","98.55","","","","","","NA"
"2006-10-22 22:00","2006","10","22","22:00","1.4","","-2.6","","75","","1","","9","","","","98.55","","","","","","NA"
"2006-10-22 23:00","2006","10","22","23:00","1.1","","-2.6","","76","","35","","6","","","","98.53","","","","","","NA"
"2006-10-23 00:00","2006","10","23","00:00","1.2","","-3.0","","74","","34","","9","","","","98.51","","","","","","NA"
"2006-10-23 01:00","2006","10","23","01:00","1.2","","-3.2","","72","","34","","9","","","","98.51","","","","","","NA"
"2006-10-23 02:00","2006","10","23","02:00","0.9","","-3.4","","73","","35","","6","","","","98.52","","","","","","NA"
"2006-10-23 03:00","2006","10","23","03:00","0.8","","-3.1","","75","","1","","6","","","","98.51","","","","","","NA"
"2006-10-23 04:00","2006","10","23","04:00","0.5","","-3.2","","76","","1","","4","","","","98.52","","","","","","NA"
"2006-10-23 05:00","2006","10","23","05:00","0.5","","-3.5","","75","","1","","11","","","","98.55","","","","","","NA"
"2006-10-23 06:00","2006","10","23","06:00","-0.1","","-3.5","","78","","1","","9","","","","98.60","","","","-3","","NA"
"2006-10-23 07:00","2006","10","23","07:00","-0.2","","-3.7","","77","","1","","7","","","","98.62","","","","-3","","NA"
"2006-10-23 08:00","2006","10","23","08:00","-0.3","","-3.6","","78","","35","","7","","","","98.64","","","","-3","","NA"
"2006-10-23 09:00","2006","10","23","09:00","0.6","","-3.3","","75","","36","","11","","","","98.66","","","","","","NA"
"2006-10-23 10:00","2006","10","23","10:00","1.3","","-3.2","","72","","1","","15","","","","98.66","","","","","","NA"
"2006-10-23 11:00","2006","10","23","11:00","2.0","","-3.3","","68","","2","","13","","","","98.67","","","","","","NA"
"2006-10-23 12:00","2006","10","23","12:00","2.7","","-3.1","","66","","4","","11","","","","98.68","","","","","","NA"
"2006-10-23 13:00","2006","10","23","13:00","3.3","","-2.7","","65","","2","","15","","","","98.67","","","","","","NA"
"2006-10-23 14:00","2006","10","23","14:00","3.9","","-3.0","","61","","2","","15","","","","98.66","","","","","","NA"
"2006-10-23 15:00","2006","10","23","15:00","3.4","","-1.6","","70","","2","","15","","","","98.70","","","","","","NA"
"2006-10-23 16:00","2006","10","23","16:00","2.5","","0.1","","84","","1","","13","","","","98.76","","","","","","NA"
"2006-10-23 17:00","2006","10","23","17:00","2.2","","-0.2","","84","","2","","13","","","","98.82","","","","","","NA"
"2006-10-23 18:00","2006","10","23","18:00","1.2","","0.4","","94","","1","","7","","","","98.90","","","","","","NA"
"2006-10-23 19:00","2006","10","23","19:00","0.8","","0.5","","98","","2","","7","","","","98.95","","","","","","NA"
"2006-10-23 20:00","2006","10","23","20:00","0.4","","0.0","","97","","3","","11","","","","99.00","","","","","","NA"
"2006-10-23 21:00","2006","10","23","21:00","-0.4","","-0.6","","99","","2","","7","","","","99.06","","","","-3","","NA"
"2006-10-23 22:00","2006","10","23","22:00","-0.7","","-0.8","","99","","2","","7","","","","99.08","","","","-3","","NA"
"2006-10-23 23:00","2006","10","23","23:00","-0.6","","-0.6","","100","","2","","6","","","","99.11","","","","-3","","NA"
"2006-10-24 00:00","2006","10","24","00:00","-0.4","","-0.5","","99","","3","","7","","","","99.13","","","","-3","","NA"
"2006-10-24 01:00","2006","10","24","01:00","0.4","","0.0","","97","","2","","11","","","","99.17","","","","","","NA"
"2006-10-24 02:00","2006","10","24","02:00","0.3","","-0.1","","97","","2","","11","","","","99.18","","","","","","NA"
"2006-10-24 03:00","2006","10","24","03:00","0.0","","-0.3","","98","","2","","7","","","","99.21","","","","-2","","NA"
"2006-10-24 04:00","2006","10","24","04:00","-0.6","","-0.7","","99","","36","","6","","","","99.25","","","","-3","","NA"
"2006-10-24 05:00","2006","10","24","05:00","-0.9","","-0.9","","100","","2","","9","","","","99.29","","","","-4","","NA"
"2006-10-24 06:00","2006","10","24","06:00","-0.4","","-0.5","","99","","4","","13","","","","99.30","","","","-5","","NA"
"2006-10-24 07:00","2006","10","24","07:00","-0.3","","-0.5","","99","","1","","7","","","","99.31","","","","-3","","NA"
"2006-10-24 08:00","2006","10","24","08:00","-0.1","","-0.3","","99","","1","","6","","","","99.35","","","","-2","","NA"
"2006-10-24 09:00","2006","10","24","09:00","0.7","","0.0","","95","","2","","7","","","","99.37","","","","","","NA"
"2006-10-24 10:00","2006","10","24","10:00","1.7","","0.0","","88","","36","","9","","","","99.42","","","","","","NA"
"2006-10-24 11:00","2006","10","24","11:00","2.6","","-0.1","","82","","1","","11","","","","99.42","","","","","","NA"
"2006-10-24 12:00","2006","10","24","12:00","3.2","","-0.2","","78","","36","","7","","","","99.42","","","","","","NA"
"2006-10-24 13:00","2006","10","24","13:00","3.8","","-0.2","","75","","35","","6","","","","99.38","","","","","","NA"
"2006-10-24 14:00","2006","10","24","14:00","4.0","","0.1","","76","","29","","6","","","","99.37","","","","","","NA"
"2006-10-24 15:00","2006","10","24","15:00","4.3","","-0.3","","72","","31","","9","","","","99.35","","","","","","NA"
"2006-10-24 16:00","2006","10","24","16:00","4.3","","-0.6","","70","","34","","6","","","","99.34","","","","","","NA"
"2006-10-24 17:00","2006","10","24","17:00","3.6","","-0.3","","76","","5","","4","","","","99.37","","","","","","NA"
"2006-10-24 18:00","2006","10","24","18:00","3.2","","0.0","","79","","5","","4","","","","99.38","","","","","","NA"
"2006-10-24 19:00","2006","10","24","19:00","2.7","","0.7","","87","","9","","11","","","","99.41","","","","","","NA"
"2006-10-24 20:00","2006","10","24","20:00","2.3","","0.8","","90","","9","","7","","","","99.44","","","","","","NA"
"2006-10-24 21:00","2006","10","24","21:00","1.7","","0.4","","91","","6","","4","","","","99.45","","","","","","NA"
"2006-10-24 22:00","2006","10","24","22:00","1.3","","0.2","","92","","5","","9","","","","99.45","","","","","","NA"
"2006-10-24 23:00","2006","10","24","23:00","1.1","","-0.1","","92","","5","","11","","","","99.46","","","","","","NA"
"2006-10-25 00:00","2006","10","25","00:00","1.0","","-0.1","","92","","4","","11","","","","99.48","","","","","","NA"
"2006-10-25 01:00","2006","10","25","01:00","0.7","","-0.1","","94","","5","","11","","","","99.50","","","","","","NA"
"2006-10-25 02:00","2006","10","25","02:00","0.1","","-0.4","","96","","6","","13","","","","99.54","","","","","","NA"
"2006-10-25 03:00","2006","10","25","03:00","-0.2","","-0.5","","98","","4","","11","","","","99.57","","","","-4","","NA"
"2006-10-25 04:00","2006","10","25","04:00","-1.7","","-1.7","","100","","1","","4","","","","99.58","","","","-3","","NA"
"2006-10-25 05:00","2006","10","25","05:00","-2.3","","-2.3","","100","","36","","7","","","","99.62","","","","-5","","NA"
"2006-10-25 06:00","2006","10","25","06:00","-2.8","","-2.8","","100","","36","","6","","","","99.65","","","","-5","","NA"
"2006-10-25 07:00","2006","10","25","07:00","-2.9","","-2.9","","100","","3","","6","","","","99.68","","","","-5","","NA"
"2006-10-25 08:00","2006","10","25","08:00","-1.4","","-1.7","","98","","4","","11","","","","99.71","","","","-5","","NA"
"2006-10-25 09:00","2006","10","25","09:00","-0.7","","-1.6","","94","","3","","7","","","","99.74","","","","-3","","NA"
"2006-10-25 10:00","2006","10","25","10:00","0.5","","-2.0","","83","","3","","11","","","","99.76","","","","","","NA"
"2006-10-25 11:00","2006","10","25","11:00","1.1","","-3.0","","74","","2","","9","","","","99.76","","","","","","NA"
"2006-10-25 12:00","2006","10","25","12:00","1.8","","-3.5","","68","","1","","9","","","","99.73","","","","","","NA"
"2006-10-25 13:00","2006","10","25","13:00","2.3","","-3.4","","66","","33","","6","","","","99.73","","","","","","NA"
"2006-10-25 14:00","2006","10","25","14:00","2.2","","-3.3","","67","","33","","7","","","","99.72","","","","","","NA"
"2006-10-25 15:00","2006","10","25","15:00","3.8","","-4.0","","57","","32","","7","","","","99.70","","","","","","NA"
"2006-10-25 16:00","2006","10","25","16:00","2.7","","-3.3","","65","","30","","6","","","","99.68","","","","","","NA"
"2006-10-25 17:00","2006","10","25","17:00","1.8","","-3.5","","68","","30","","7","","","","99.68","","","","","","NA"
"2006-10-25 18:00","2006","10","25","18:00","0.1","","-2.8","","81","","2","","4","","","","99.69","","","","","","NA"
"2006-10-25 19:00","2006","10","25","19:00","-1.2","","-2.5","","91","","6","","6","","","","99.70","","","","-3","","NA"
"2006-10-25 20:00","2006","10","25","20:00","-2.1","","-2.6","","96","","5","","7","","","","99.71","","","","-5","","NA"
"2006-10-25 21:00","2006","10","25","21:00","-0.5","","-3.7","","79","","2","","11","","","","99.72","","","","-4","","NA"
"2006-10-25 22:00","2006","10","25","22:00","-1.9","","-3.7","","87","","9","","6","","","","99.72","","","","-4","","NA"
"2006-10-25 23:00","2006","10","25","23:00","-2.6","","-3.6","","93","","10","","2","","","","99.74","","","","-3","","NA"
"2006-10-26 00:00","2006","10","26","00:00","-3.4","","-4.1","","95","","8","","4","","","","99.75","","","","-5","","NA"
"2006-10-26 01:00","2006","10","26","01:00","-3.9","","-3.9","","100","","7","","11","","","","99.77","","","","-8","","NA"
"2006-10-26 02:00","2006","10","26","02:00","-4.4","","-4.4","","100","","6","","9","","","","99.78","","","","-8","","NA"
"2006-10-26 03:00","2006","10","26","03:00","-4.8","","-4.8","","100","","6","","13","","","","99.77","","","","-10","","NA"
"2006-10-26 04:00","2006","10","26","04:00","-5.2","","-5.2","","100","","5","","15","","","","99.76","","","","-11","","NA"
"2006-10-26 05:00","2006","10","26","05:00","-5.6","","-5.7","","99","","5","","11","","","","99.79","","","","-10","","NA"
"2006-10-26 06:00","2006","10","26","06:00","-5.5","","-5.5","","100","","5","","15","","","","99.79","","","","-11","","NA"
"2006-10-26 07:00","2006","10","26","07:00","-5.9","","-6.0","","99","","5","","15","","","","99.79","","","","-12","","NA"
"2006-10-26 08:00","2006","10","26","08:00","-5.2","","-5.5","","98","","5","","13","","","","99.83","","","","-10","","NA"
"2006-10-26 09:00","2006","10","26","09:00","-2.7","","-4.4","","88","","6","","9","","","","99.83","","","","-6","","NA"
"2006-10-26 10:00","2006","10","26","10:00","1.0","","-2.5","","77","","6","","7","","","","99.82","","","","","","NA"
"2006-10-26 11:00","2006","10","26","11:00","4.1","","-2.5","","62","","14","","4","","","","99.77","","","","","","NA"
"2006-10-26 12:00","2006","10","26","12:00","6.5","","-1.5","","57","","18","","9","","","","99.72","","","","","","NA"
"2006-10-26 13:00","2006","10","26","13:00","5.2","","-2.5","","57","","21","","11","","","","99.66","","","","","","NA"
"2006-10-26 14:00","2006","10","26","14:00","5.9","","-1.8","","58","","21","","15","","","","99.62","","","","","","NA"
"2006-10-26 15:00","2006","10","26","15:00","5.6","","-0.9","","63","","20","","19","","","","99.60","","","","","","NA"
"2006-10-26 16:00","2006","10","26","16:00","5.0","","-0.4","","68","","21","","17","","","","99.60","","","","","","NA"
"2006-10-26 17:00","2006","10","26","17:00","4.5","","-0.2","","71","","23","","15","","","","99.59","","","","","","NA"
"2006-10-26 18:00","2006","10","26","18:00","4.0","","-1.6","","67","","26","","11","","","","99.57","","","","","","NA"
"2006-10-26 19:00","2006","10","26","19:00","1.4","","-1.4","","82","","9","","4","","","","99.52","","","","","","NA"
"2006-10-26 20:00","2006","10","26","20:00","-0.1","","-1.3","","92","","7","","9","","","","99.46","","","","-3","","NA"
"2006-10-26 21:00","2006","10","26","21:00","-0.4","","-1.3","","94","","8","","11","","","","99.42","","","","-4","","NA"
"2006-10-26 22:00","2006","10","26","22:00","0.2","","-1.1","","91","","8","","11","","","","99.40","","","","","","NA"
"2006-10-26 23:00","2006","10","26","23:00","0.2","","-0.9","","92","","7","","11","","","","99.38","","","","","","NA"
"2006-10-27 00:00","2006","10","27","00:00","1.2","","0.4","","94","","10","","11","","","","99.34","","","","","","NA"
"2006-10-27 01:00","2006","10","27","01:00","1.5","","0.9","","96","","10","","7","","","","99.31","","","","","","NA"
"2006-10-27 02:00","2006","10","27","02:00","5.7","","3.7","","87","","21","","26","","","","99.26","","","","","","NA"
"2006-10-27 03:00","2006","10","27","03:00","6.0","","3.7","","85","","21","","26","","","","99.22","","","","","","NA"
"2006-10-27 04:00","2006","10","27","04:00","6.1","","3.3","","82","","21","","28","","","","99.16","","","","","","NA"
"2006-10-27 05:00","2006","10","27","05:00","6.3","","4.1","","86","","21","","24","","","","99.12","","","","","","NA"
"2006-10-27 06:00","2006","10","27","06:00","6.4","","4.8","","89","","20","","26","","","","99.04","","","","","","NA"
"2006-10-27 07:00","2006","10","27","07:00","6.4","","4.9","","90","","20","","28","","","","98.98","","","","","","NA"
"2006-10-27 08:00","2006","10","27","08:00","6.4","","5.1","","91","","20","","30","","","","98.92","","","","","","NA"
"2006-10-27 09:00","2006","10","27","09:00","6.7","","5.0","","89","","20","","33","","","","98.88","","","","","","NA"
"2006-10-27 10:00","2006","10","27","10:00","7.1","","4.6","","84","","20","","37","","","","98.84","","","","","","NA"
"2006-10-27 11:00","2006","10","27","11:00","7.7","","4.7","","81","","20","","37","","","","98.77","","","","","","NA"
"2006-10-27 12:00","2006","10","27","12:00","6.8","","4.4","","85","","21","","39","","","","98.71","","","","","","NA"
"2006-10-27 13:00","2006","10","27","13:00","6.9","","4.5","","85","","20","","37","","","","98.61","","","","","","NA"
"2006-10-27 14:00","2006","10","27","14:00","6.6","","4.2","","85","","20","","39","","","","98.45","","","","","","NA"
"2006-10-27 15:00","2006","10","27","15:00","6.5","","4.0","","84","","19","","33","","","","98.34","","","","","","NA"
"2006-10-27 16:00","2006","10","27","16:00","6.3","","3.7","","83","","19","","32","","","","98.25","","","","","","NA"
"2006-10-27 17:00","2006","10","27","17:00","6.0","","3.6","","85","","20","","33","","","","98.17","","","","","","NA"
"2006-10-27 18:00","2006","10","27","18:00","6.0","","3.0","","81","","19","","28","","","","98.06","","","","","","NA"
"2006-10-27 19:00","2006","10","27","19:00","5.8","","2.9","","82","","15","","19","","","","97.96","","","","","","NA"
"2006-10-27 20:00","2006","10","27","20:00","6.2","","2.5","","77","","18","","30","","","","97.86","","","","","","NA"
"2006-10-27 21:00","2006","10","27","21:00","5.2","","3.8","","91","","19","","22","","","","97.79","","","","","","NA"
"2006-10-27 22:00","2006","10","27","22:00","5.2","","4.7","","97","","22","","32","","","","97.67","","","","","","NA"
"2006-10-27 23:00","2006","10","27","23:00","5.5","","5.5","","100","","20","","22","","","","97.52","","","","","","NA"
"2006-10-28 00:00","2006","10","28","00:00","5.5","","5.2","","98","","22","","28","","","","97.40","","","","","","NA"
"2006-10-28 01:00","2006","10","28","01:00","5.0","","5.0","","100","","25","","19","","","","97.27","","","","","","NA"
"2006-10-28 02:00","2006","10","28","02:00","4.7","","4.7","","100","","32","","9","","","","97.17","","","","","","NA"
"2006-10-28 03:00","2006","10","28","03:00","3.1","","3.1","","100","","36","","13","","","","97.15","","","","","","NA"
"2006-10-28 04:00","2006","10","28","04:00","2.1","","2.1","","100","","2","","15","","","","97.10","","","","","","NA"
"2006-10-28 05:00","2006","10","28","05:00","1.8","","1.8","","100","","2","","17","","","","97.10","","","","","","NA"
"2006-10-28 06:00","2006","10","28","06:00","1.7","","1.7","","100","","35","","11","","","","97.09","","","","","","NA"
"2006-10-28 07:00","2006","10","28","07:00","1.8","","1.8","","100","","35","","17","","","","97.07","","","","","","NA"
"2006-10-28 08:00","2006","10","28","08:00","2.0","","2.0","","100","","35","","15","","","","97.09","","","","","","NA"
"2006-10-28 09:00","2006","10","28","09:00","2.3","","2.3","","100","","35","","15","","","","97.07","","","","","","NA"
"2006-10-28 10:00","2006","10","28","10:00","2.8","","2.8","","100","","35","","15","","","","97.05","","","","","","NA"
"2006-10-28 11:00","2006","10","28","11:00","3.3","","2.8","","97","","34","","19","","","","97.03","","","","","","NA"
"2006-10-28 12:00","2006","10","28","12:00","3.5","","1.5","","87","","34","","20","","","","97.01","","","","","","NA"
"2006-10-28 13:00","2006","10","28","13:00","3.4","","1.6","","88","","34","","19","","","","96.97","","","","","","NA"
"2006-10-28 14:00","2006","10","28","14:00","3.6","","0.1","","78","","34","","20","","","","96.97","","","","","","NA"
"2006-10-28 15:00","2006","10","28","15:00","4.1","","-1.7","","66","","35","","24","","","","96.96","","","","","","NA"
"2006-10-28 16:00","2006","10","28","16:00","4.1","","-1.7","","66","","33","","19","","","","97.00","","","","","","NA"
"2006-10-28 17:00","2006","10","28","17:00","4.1","","-2.0","","64","","34","","20","","","","97.04","","","","","","NA"
"2006-10-28 18:00","2006","10","28","18:00","3.5","","-2.3","","66","","34","","24","","","","97.09","","","","","","NA"
"2006-10-28 19:00","2006","10","28","19:00","3.3","","-2.0","","68","","33","","26","","","","97.12","","","","","","NA"
"2006-10-28 20:00","2006","10","28","20:00","2.8","","-2.6","","68","","34","","20","","","","97.12","","","","","","NA"
"2006-10-28 21:00","2006","10","28","21:00","2.3","","-3.1","","67","","33","","20","","","","97.10","","","","","","NA"
"2006-10-28 22:00","2006","10","28","22:00","2.1","","-3.0","","69","","33","","20","","","","97.07","","","","","","NA"
"2006-10-28 23:00","2006","10","28","23:00","2.1","","-3.2","","68","","32","","32","","","","97.01","","","","","","NA"
"2006-10-29 00:00","2006","10","29","00:00","1.6","","-3.1","","71","","33","","28","","","","97.02","","","","","","NA"
"2006-10-29 01:00","2006","10","29","01:00","1.7","","-3.3","","69","","33","","26","","","","97.02","","","","","","NA"
"2006-10-29 02:00","2006","10","29","02:00","1.8","","-3.3","","69","","32","","30","","","","97.03","","","","","","NA"
"2006-10-29 03:00","2006","10","29","03:00","2.0","","-2.9","","70","","32","","28","","","","97.05","","","","","","NA"
"2006-10-29 04:00","2006","10","29","04:00","2.0","","-4.2","","63","","33","","32","","","","97.09","","","","","","NA"
"2006-10-29 05:00","2006","10","29","05:00","1.9","","-4.6","","62","","33","","30","","","","97.15","","","","","","NA"
"2006-10-29 06:00","2006","10","29","06:00","1.5","","-5.5","","60","","33","","35","","","","97.24","","","","","","NA"
"2006-10-29 07:00","2006","10","29","07:00","1.0","","-6.0","","59","","33","","20","","","","97.29","","","","","","NA"
"2006-10-29 08:00","2006","10","29","08:00","1.3","","-4.6","","65","","33","","28","","","","97.32","","","","","","NA"
"2006-10-29 09:00","2006","10","29","09:00","1.2","","-4.7","","65","","33","","32","","","","97.37","","","","","","NA"
"2006-10-29 10:00","2006","10","29","10:00","1.7","","-3.6","","68","","33","","24","","","","97.40","","","","","","NA"
"2006-10-29 11:00","2006","10","29","11:00","1.9","","-3.9","","65","","32","","24","","","","97.46","","","","","","NA"
"2006-10-29 12:00","2006","10","29","12:00","2.1","","-3.3","","67","","32","","32","","","","97.55","","","","","","NA"
"2006-10-29 13:00","2006","10","29","13:00","2.6","","-3.5","","64","","33","","20","","","","97.64","","","","","","NA"
"2006-10-29 14:00","2006","10","29","14:00","2.8","","-3.5","","63","","32","","26","","","","97.68","","","","","","NA"
"2006-10-29 15:00","2006","10","29","15:00","4.3","","-3.5","","57","","32","","20","","","","97.75","","","","","","NA"
"2006-10-29 16:00","2006","10","29","16:00","4.5","","-2.8","","59","","31","","13","","","","97.78","","","","","","NA"
"2006-10-29 17:00","2006","10","29","17:00","3.9","","-2.3","","64","","28","","24","","","","97.85","","","","","","NA"
"2006-10-29 18:00","2006","10","29","18:00","3.9","","-2.1","","65","","30","","17","","","","97.92","","","","","","NA"
"2006-10-29 19:00","2006","10","29","19:00","2.6","","-3.1","","66","","35","","9","","","","97.98","","","","","","NA"
"2006-10-29 20:00","2006","10","29","20:00","1.2","","-3.4","","71","","6","","4","","","","98.05","","","","","","NA"
"2006-10-29 21:00","2006","10","29","21:00","1.1","","-2.7","","76","","34","","9","","","","98.06","","","","","","NA"
"2006-10-29 22:00","2006","10","29","22:00","-0.5","","-2.8","","84","","3","","7","","","","98.10","","","","-3","","NA"
"2006-10-29 23:00","2006","10","29","23:00","-0.8","","-2.8","","86","","7","","7","","","","98.16","","","","-3","","NA"
"2006-10-30 00:00","2006","10","30","00:00","2.9","","-2.4","","68","","30","","17","","","","98.21","","","","","","NA"
"2006-10-30 01:00","2006","10","30","01:00","2.5","","-2.8","","68","","32","","22","","","","98.26","","","","","","NA"
"2006-10-30 02:00","2006","10","30","02:00","2.2","","-2.1","","73","","32","","15","","","","98.30","","","","","","NA"
"2006-10-30 03:00","2006","10","30","03:00","0.1","","-3.5","","77","","3","","9","","","","98.35","","","","","","NA"
"2006-10-30 04:00","2006","10","30","04:00","-0.3","","-3.6","","78","","2","","11","","","","98.38","","","","-4","","NA"
"2006-10-30 05:00","2006","10","30","05:00","0.0","","-3.5","","77","","3","","9","","","","98.40","","","","-3","","NA"
"2006-10-30 06:00","2006","10","30","06:00","-1.4","","-3.2","","88","","8","","6","","","","98.44","","","","-4","","NA"
"2006-10-30 07:00","2006","10","30","07:00","-2.5","","-3.5","","93","","8","","6","","","","98.50","","","","-5","","NA"
"2006-10-30 08:00","2006","10","30","08:00","-2.9","","-3.8","","93","","6","","11","","","","98.50","","","","-7","","NA"
"2006-10-30 09:00","2006","10","30","09:00","-0.1","","-3.4","","78","","8","","6","","","","98.54","","","","-2","","NA"
"2006-10-30 10:00","2006","10","30","10:00","2.3","","-4.4","","61","","10","","15","","","","98.51","","","","","","NA"
"2006-10-30 11:00","2006","10","30","11:00","4.2","","-3.9","","56","","13","","9","","","","98.53","","","","","","NA"
"2006-10-30 12:00","2006","10","30","12:00","4.6","","-4.1","","53","","8","","9","","","","98.52","","","","","","NA"
"2006-10-30 13:00","2006","10","30","13:00","5.4","","-4.8","","48","","8","","11","","","","98.38","","","","","","NA"
"2006-10-30 14:00","2006","10","30","14:00","6.0","","-3.9","","49","","9","","11","","","","98.32","","","","","","NA"
"2006-10-30 15:00","2006","10","30","15:00","6.5","","-4.5","","45","","8","","15","","","","98.23","","","","","","NA"
"2006-10-30 16:00","2006","10","30","16:00","6.7","","-3.9","","47","","9","","17","","","","98.13","","","","","","NA"
"2006-10-30 17:00","2006","10","30","17:00","5.3","","-2.9","","55","","7","","11","","","","98.03","","","","","","NA"
"2006-10-30 18:00","2006","10","30","18:00","4.2","","-2.1","","64","","8","","19","","","","97.98","","","","","","NA"
"2006-10-30 19:00","2006","10","30","19:00","3.4","","-1.8","","69","","9","","32","","","","97.88","","","","","","NA"
"2006-10-30 20:00","2006","10","30","20:00","3.2","","-1.6","","71","","9","","37","","","","97.75","","","","","","NA"
"2006-10-30 21:00","2006","10","30","21:00","2.8","","-1.4","","74","","8","","30","","","","97.69","","","","","","NA"
"2006-10-30 22:00","2006","10","30","22:00","3.7","","-1.5","","69","","8","","30","","","","97.51","","","","","","NA"
"2006-10-30 23:00","2006","10","30","23:00","4.1","","-1.0","","69","","9","","20","","","","97.33","","","","","","NA"
"2006-10-31 00:00","2006","10","31","00:00","4.5","","-0.6","","69","","9","","28","","","","97.19","","","","","","NA"
"2006-10-31 01:00","2006","10","31","01:00","5.0","","0.0","","70","","9","","24","","","","97.09","","","","","","NA"
"2006-10-31 02:00","2006","10","31","02:00","5.2","","0.6","","72","","8","","19","","","","97.00","","","","","","NA"
"2006-10-31 03:00","2006","10","31","03:00","5.2","","1.2","","75","","6","","9","","","","96.92","","","","","","NA"
"2006-10-31 04:00","2006","10","31","04:00","5.0","","1.6","","79","","7","","13","","","","96.81","","","","","","NA"
"2006-10-31 05:00","2006","10","31","05:00","5.9","","3.1","","82","","9","","6","","","","96.77","","","","","","NA"
"2006-10-31 06:00","2006","10","31","06:00","8.2","","8.0","","99","","19","","33","","","","96.69","","","","","","NA"
"2006-10-31 07:00","2006","10","31","07:00","7.5","","7.5","","100","","24","","39","","","","96.68","","","","","","NA"
"2006-10-31 08:00","2006","10","31","08:00","5.8","","5.0","","95","","27","","46","","","","96.87","","","","","","NA"
"2006-10-31 09:00","2006","10","31","09:00","4.8","","3.0","","88","","26","","54","","","","97.10","","","","","","NA"
"2006-10-31 10:00","2006","10","31","10:00","3.6","","-0.4","","75","","26","","61","","","","97.24","","","","","","NA"
"2006-10-31 11:00","2006","10","31","11:00","3.0","","-1.4","","73","","26","","57","","","","97.35","","","","","","NA"
"2006-10-31 12:00","2006","10","31","12:00","2.5","","-3.9","","63","","28","","50","","","","97.44","","","","","","NA"
"2006-10-31 13:00","2006","10","31","13:00","2.7","","-2.8","","67","","27","","50","","","","97.51","","","","","","NA"
"2006-10-31 14:00","2006","10","31","14:00","2.7","","-2.4","","69","","27","","52","","","","97.55","","","","","","NA"
"2006-10-31 15:00","2006","10","31","15:00","2.8","","-1.8","","72","","26","","56","","","","97.61","","","","","","NA"
"2006-10-31 16:00","2006","10","31","16:00","2.6","","-4.0","","62","","27","","52","","","","97.69","","","","","","NA"
"2006-10-31 17:00","2006","10","31","17:00","2.3","","-3.1","","67","","27","","57","","","","97.79","","","","","","NA"
"2006-10-31 18:00","2006","10","31","18:00","2.2","","-3.2","","67","","27","","56","","","","97.90","","","","","","NA"
"2006-10-31 19:00","2006","10","31","19:00","1.9","","-3.4","","68","","27","","54","","","","97.99","","","","","","NA"
"2006-10-31 20:00","2006","10","31","20:00","1.8","","-2.6","","73","","27","","52","","","","98.05","","","","","","NA"
"2006-10-31 21:00","2006","10","31","21:00","1.2","","-4.1","","68","","27","","50","","","","98.10","","","","","","NA"
"2006-10-31 22:00","2006","10","31","22:00","1.1","","-4.4","","67","","27","","54","","","","98.12","","","","","","NA"
"2006-10-31 23:00","2006","10","31","23:00","0.9","","-4.1","","69","","28","","48","","","","98.18","","","","","","NA"
