"Station Name","PUKASKWA (AUT)"
"Province","ONTARIO"
"Latitude","48.59"
"Longitude","-86.29"
"Elevation","207.60"
"Climate Identifier","6046767"
"WMO Identifier","71750"
"TC Identifier","WCJ"
"All times are specified in Local Standard Time (LST). Add 1 hour to adjust for Daylight Saving Time where and when it is observed."

"Legend"
"E","Estimated"
"M","Missing"
"NA","Not Available"

"Date/Time","Year","Month","Day","Time","Temp (°C)","Temp Flag","Dew Point Temp (°C)","Dew Point Temp Flag","Rel Hum (%)","Rel Hum Flag","Wind Dir (10s deg)","Wind Dir Flag","Wind Spd (km/h)","Wind Spd Flag","Visibility (km)","Visibility Flag","Stn Press (kPa)","Stn Press Flag","Hmdx","Hmdx Flag","Wind Chill","Wind Chill Flag","Weather"
"2009-08-01 00:00","2009","08","01","00:00","14.3","","11.4","","83","","15","","9","","","","98.38","","","","","","NA"
"2009-08-01 01:00","2009","08","01","01:00","16.2","","14.0","","87","","16","","22","","","","98.29","","","","","","NA"
"2009-08-01 02:00","2009","08","01","02:00","16.5","","15.1","","91","","17","","32","","","","98.18","","","","","","NA"
"2009-08-01 03:00","2009","08","01","03:00","16.2","","15.4","","95","","17","","33","","","","98.09","","","","","","NA"
"2009-08-01 04:00","2009","08","01","04:00","15.9","","15.4","","97","","16","","30","","","","97.99","","","","","","NA"
"2009-08-01 05:00","2009","08","01","05:00","15.9","","15.3","","96","","16","","28","","","","97.90","","","","","","NA"
"2009-08-01 06:00","2009","08","01","06:00","16.3","","15.2","","93","","16","","30","","","","97.82","","","","","","NA"
"2009-08-01 07:00","2009","08","01","07:00","15.7","","15.6","","99","","18","","33","","","","97.76","","","","","","NA"
"2009-08-01 08:00","2009","08","01","08:00","15.1","","15.1","","100","","16","","39","","","","97.60","","","","","","NA"
"2009-08-01 09:00","2009","08","01","09:00","14.7","","14.7","","100","","17","","48","","","","97.51","","","","","","NA"
"2009-08-01 10:00","2009","08","01","10:00","14.1","","14.1","","100","","18","","50","","","","97.49","","","","","","NA"
"2009-08-01 11:00","2009","08","01","11:00","13.4","","13.4","","100","","19","","48","","","","97.48","","","","","","NA"
"2009-08-01 12:00","2009","08","01","12:00","12.4","","12.4","","100","","18","","32","","","","97.43","","","","","","NA"
"2009-08-01 13:00","2009","08","01","13:00","10.9","","10.9","","100","","18","","33","","","","97.43","","","","","","NA"
"2009-08-01 14:00","2009","08","01","14:00","11.2","","11.2","","100","","18","","30","","","","97.44","","","","","","NA"
"2009-08-01 15:00","2009","08","01","15:00","10.6","","10.6","","100","","22","","44","","","","97.45","","","","","","NA"
"2009-08-01 16:00","2009","08","01","16:00","11.2","","11.1","","99","","22","","41","","","","97.51","","","","","","NA"
"2009-08-01 17:00","2009","08","01","17:00","11.2","","11.1","","99","","22","","43","","","","97.57","","","","","","NA"
"2009-08-01 18:00","2009","08","01","18:00","11.2","","11.0","","99","","20","","41","","","","97.57","","","","","","NA"
"2009-08-01 19:00","2009","08","01","19:00","10.8","","10.7","","99","","22","","48","","","","97.61","","","","","","NA"
"2009-08-01 20:00","2009","08","01","20:00","10.2","","10.2","","100","","22","","39","","","","97.64","","","","","","NA"
"2009-08-01 21:00","2009","08","01","21:00","10.3","","10.3","","100","","23","","44","","","","97.64","","","","","","NA"
"2009-08-01 22:00","2009","08","01","22:00","10.2","","10.2","","100","","22","","44","","","","97.62","","","","","","NA"
"2009-08-01 23:00","2009","08","01","23:00","10.4","","10.4","","100","","23","","50","","","","97.58","","","","","","NA"
"2009-08-02 00:00","2009","08","02","00:00","10.0","","10.0","","100","","23","","41","","","","97.55","","","","","","NA"
"2009-08-02 01:00","2009","08","02","01:00","9.8","","9.8","","100","","23","","41","","","","97.53","","","","","","NA"
"2009-08-02 02:00","2009","08","02","02:00","10.0","","10.0","","100","","24","","43","","","","97.49","","","","","","NA"
"2009-08-02 03:00","2009","08","02","03:00","10.3","","10.3","","100","","24","","43","","","","97.48","","","","","","NA"
"2009-08-02 04:00","2009","08","02","04:00","9.8","","9.8","","100","","25","","39","","","","97.51","","","","","","NA"
"2009-08-02 05:00","2009","08","02","05:00","9.5","","9.5","","100","","25","","35","","","","97.54","","","","","","NA"
"2009-08-02 06:00","2009","08","02","06:00","9.5","","9.5","","100","","25","","33","","","","97.59","","","","","","NA"
"2009-08-02 07:00","2009","08","02","07:00","9.5","","9.5","","100","","25","","28","","","","97.63","","","","","","NA"
"2009-08-02 08:00","2009","08","02","08:00","9.5","","9.5","","100","","25","","28","","","","97.69","","","","","","NA"
"2009-08-02 09:00","2009","08","02","09:00","9.8","","9.8","","100","","25","","24","","","","97.74","","","","","","NA"
"2009-08-02 10:00","2009","08","02","10:00","9.9","","9.9","","100","","26","","33","","","","97.77","","","","","","NA"
"2009-08-02 11:00","2009","08","02","11:00","10.0","","10.0","","100","","26","","32","","","","97.81","","","","","","NA"
"2009-08-02 12:00","2009","08","02","12:00","9.9","","9.9","","100","","26","","28","","","","97.88","","","","","","NA"
"2009-08-02 13:00","2009","08","02","13:00","9.8","","9.8","","100","","25","","28","","","","97.92","","","","","","NA"
"2009-08-02 14:00","2009","08","02","14:00","10.2","","10.1","","99","","24","","30","","","","97.95","","","","","","NA"
"2009-08-02 15:00","2009","08","02","15:00","10.1","","9.9","","99","","25","","28","","","","97.97","","","","","","NA"
"2009-08-02 16:00","2009","08","02","16:00","10.3","","10.1","","99","","24","","28","","","","97.99","","","","","","NA"
"2009-08-02 17:00","2009","08","02","17:00","10.4","","9.7","","95","","29","","7","","","","98.06","","","","","","NA"
"2009-08-02 18:00","2009","08","02","18:00","10.0","","9.7","","98","","24","","6","","","","98.07","","","","","","NA"
"2009-08-02 19:00","2009","08","02","19:00","10.4","","10.1","","98","","23","","4","","","","98.10","","","","","","NA"
"2009-08-02 20:00","2009","08","02","20:00","9.9","","9.6","","98","","28","","11","","","","98.10","","","","","","NA"
"2009-08-02 21:00","2009","08","02","21:00","9.7","","9.7","","100","","28","","2","","","","98.15","","","","","","NA"
"2009-08-02 22:00","2009","08","02","22:00","9.5","","9.5","","100","","19","","6","","","","98.17","","","","","","NA"
"2009-08-02 23:00","2009","08","02","23:00","9.3","","9.3","","100","","13","","6","","","","98.15","","","","","","NA"
"2009-08-03 00:00","2009","08","03","00:00","8.8","","8.8","","100","","11","","6","","","","98.13","","","","","","NA"
"2009-08-03 01:00","2009","08","03","01:00","8.4","","8.4","","100","","9","","7","","","","98.10","","","","","","NA"
"2009-08-03 02:00","2009","08","03","02:00","9.2","","9.2","","100","","17","","9","","","","98.10","","","","","","NA"
"2009-08-03 03:00","2009","08","03","03:00","9.7","","9.7","","100","","13","","7","","","","98.09","","","","","","NA"
"2009-08-03 04:00","2009","08","03","04:00","9.0","","9.0","","100","","9","","7","","","","98.09","","","","","","NA"
"2009-08-03 05:00","2009","08","03","05:00","8.6","","8.6","","100","","8","","9","","","","98.07","","","","","","NA"
"2009-08-03 06:00","2009","08","03","06:00","8.0","","8.0","","100","","6","","11","","","","98.08","","","","","","NA"
"2009-08-03 07:00","2009","08","03","07:00","9.4","","9.4","","100","","7","","9","","","","98.11","","","","","","NA"
"2009-08-03 08:00","2009","08","03","08:00","13.6","","11.2","","85","","6","","7","","","","98.09","","","","","","NA"
"2009-08-03 09:00","2009","08","03","09:00","16.1","","10.1","","68","","","","0","","","","98.05","","","","","","NA"
"2009-08-03 10:00","2009","08","03","10:00","17.1","","9.9","","63","","23","","4","","","","98.02","","","","","","NA"
"2009-08-03 11:00","2009","08","03","11:00","18.5","","10.9","","61","","30","","7","","","","97.99","","","","","","NA"
"2009-08-03 12:00","2009","08","03","12:00","17.5","","10.1","","62","","28","","11","","","","97.99","","","","","","NA"
"2009-08-03 13:00","2009","08","03","13:00","16.9","","10.0","","64","","21","","7","","","","97.98","","","","","","NA"
"2009-08-03 14:00","2009","08","03","14:00","16.0","","10.1","","68","","25","","6","","","","97.94","","","","","","NA"
"2009-08-03 15:00","2009","08","03","15:00","14.9","","11.1","","78","","23","","7","","","","97.93","","","","","","NA"
"2009-08-03 16:00","2009","08","03","16:00","14.6","","13.0","","90","","21","","7","","","","97.90","","","","","","NA"
"2009-08-03 17:00","2009","08","03","17:00","14.5","","14.4","","99","","18","","11","","","","97.89","","","","","","NA"
"2009-08-03 18:00","2009","08","03","18:00","12.7","","12.7","","100","","18","","13","","","","97.88","","","","","","NA"
"2009-08-03 19:00","2009","08","03","19:00","13.0","","13.0","","100","","16","","9","","","","97.83","","","","","","NA"
"2009-08-03 20:00","2009","08","03","20:00","12.8","","12.8","","100","","17","","7","","","","97.81","","","","","","NA"
"2009-08-03 21:00","2009","08","03","21:00","12.5","","12.5","","100","","16","","13","","","","97.79","","","","","","NA"
"2009-08-03 22:00","2009","08","03","22:00","12.5","","12.5","","100","","18","","24","","","","97.80","","","","","","NA"
"2009-08-03 23:00","2009","08","03","23:00","12.2","","12.2","","100","","17","","30","","","","97.69","","","","","","NA"
"2009-08-04 00:00","2009","08","04","00:00","12.8","","12.8","","100","","18","","30","","","","97.66","","","","","","NA"
"2009-08-04 01:00","2009","08","04","01:00","12.7","","12.7","","100","","20","","24","","","","97.66","","","","","","NA"
"2009-08-04 02:00","2009","08","04","02:00","11.0","","11.0","","100","","21","","19","","","","97.68","","","","","","NA"
"2009-08-04 03:00","2009","08","04","03:00","10.0","","10.0","","100","","23","","11","","","","97.72","","","","","","NA"
"2009-08-04 04:00","2009","08","04","04:00","9.1","","9.1","","100","","22","","9","","","","97.76","","","","","","NA"
"2009-08-04 05:00","2009","08","04","05:00","9.0","","9.0","","100","","26","","4","","","","97.82","","","","","","NA"
"2009-08-04 06:00","2009","08","04","06:00","9.2","","9.2","","100","","23","","7","","","","97.92","","","","","","NA"
"2009-08-04 07:00","2009","08","04","07:00","10.6","","10.6","","100","","32","","4","","","","98.03","","","","","","NA"
"2009-08-04 08:00","2009","08","04","08:00","12.8","","12.8","","100","","33","","13","","","","98.08","","","","","","NA"
"2009-08-04 09:00","2009","08","04","09:00","13.4","","13.1","","98","","32","","13","","","","98.12","","","","","","NA"
"2009-08-04 10:00","2009","08","04","10:00","13.8","","12.9","","94","","29","","11","","","","98.15","","","","","","NA"
"2009-08-04 11:00","2009","08","04","11:00","12.9","","11.4","","91","","28","","20","","","","98.17","","","","","","NA"
"2009-08-04 12:00","2009","08","04","12:00","11.4","","11.1","","98","","27","","20","","","","98.25","","","","","","NA"
"2009-08-04 13:00","2009","08","04","13:00","10.6","","10.6","","100","","27","","20","","","","98.35","","","","","","NA"
"2009-08-04 14:00","2009","08","04","14:00","11.0","","10.4","","96","","25","","24","","","","98.36","","","","","","NA"
"2009-08-04 15:00","2009","08","04","15:00","11.5","","10.6","","94","","26","","24","","","","98.35","","","","","","NA"
"2009-08-04 16:00","2009","08","04","16:00","12.0","","10.5","","91","","26","","17","","","","98.36","","","","","","NA"
"2009-08-04 17:00","2009","08","04","17:00","11.5","","10.7","","95","","26","","20","","","","98.38","","","","","","NA"
"2009-08-04 18:00","2009","08","04","18:00","11.2","","10.5","","95","","25","","20","","","","98.37","","","","","","NA"
"2009-08-04 19:00","2009","08","04","19:00","10.8","","10.4","","97","","24","","6","","","","98.41","","","","","","NA"
"2009-08-04 20:00","2009","08","04","20:00","11.9","","11.3","","96","","30","","15","","","","98.39","","","","","","NA"
"2009-08-04 21:00","2009","08","04","21:00","11.0","","11.0","","100","","27","","7","","","","98.45","","","","","","NA"
"2009-08-04 22:00","2009","08","04","22:00","10.8","","10.7","","99","","18","","6","","","","98.48","","","","","","NA"
"2009-08-04 23:00","2009","08","04","23:00","10.9","","10.6","","98","","23","","9","","","","98.48","","","","","","NA"
"2009-08-05 00:00","2009","08","05","00:00","11.1","","10.9","","99","","28","","6","","","","98.49","","","","","","NA"
"2009-08-05 01:00","2009","08","05","01:00","10.5","","10.5","","100","","5","","6","","","","98.49","","","","","","NA"
"2009-08-05 02:00","2009","08","05","02:00","11.6","","11.6","","100","","34","","4","","","","98.49","","","","","","NA"
"2009-08-05 03:00","2009","08","05","03:00","11.7","","11.7","","100","","32","","9","","","","98.53","","","","","","NA"
"2009-08-05 04:00","2009","08","05","04:00","12.8","","12.3","","97","","29","","11","","","","98.59","","","","","","NA"
"2009-08-05 05:00","2009","08","05","05:00","12.1","","12.0","","99","","28","","13","","","","98.66","","","","","","NA"
"2009-08-05 06:00","2009","08","05","06:00","10.4","","10.4","","100","","26","","15","","","","98.74","","","","","","NA"
"2009-08-05 07:00","2009","08","05","07:00","10.8","","10.8","","100","","28","","15","","","","98.82","","","","","","NA"
"2009-08-05 08:00","2009","08","05","08:00","10.9","","10.9","","100","","32","","2","","","","98.85","","","","","","NA"
"2009-08-05 09:00","2009","08","05","09:00","11.6","","11.5","","99","","28","","17","","","","98.84","","","","","","NA"
"2009-08-05 10:00","2009","08","05","10:00","11.6","","11.5","","99","","29","","11","","","","98.91","","","","","","NA"
"2009-08-05 11:00","2009","08","05","11:00","11.9","","11.7","","99","","29","","15","","","","98.94","","","","","","NA"
"2009-08-05 12:00","2009","08","05","12:00","13.0","","11.7","","92","","26","","15","","","","98.93","","","","","","NA"
"2009-08-05 13:00","2009","08","05","13:00","13.8","","12.2","","90","","25","","9","","","","98.96","","","","","","NA"
"2009-08-05 14:00","2009","08","05","14:00","13.5","","11.0","","85","","23","","4","","","","98.95","","","","","","NA"
"2009-08-05 15:00","2009","08","05","15:00","13.7","","11.8","","88","","28","","17","","","","98.94","","","","","","NA"
"2009-08-05 16:00","2009","08","05","16:00","14.9","","12.0","","83","","23","","9","","","","98.95","","","","","","NA"
"2009-08-05 17:00","2009","08","05","17:00","13.5","","11.3","","87","","21","","9","","","","98.94","","","","","","NA"
"2009-08-05 18:00","2009","08","05","18:00","11.8","","10.7","","93","","20","","6","","","","98.97","","","","","","NA"
"2009-08-05 19:00","2009","08","05","19:00","11.8","","11.4","","97","","24","","7","","","","98.95","","","","","","NA"
"2009-08-05 20:00","2009","08","05","20:00","11.9","","11.2","","95","","19","","11","","","","98.93","","","","","","NA"
"2009-08-05 21:00","2009","08","05","21:00","10.7","","10.7","","100","","17","","9","","","","98.96","","","","","","NA"
"2009-08-05 22:00","2009","08","05","22:00","10.1","","10.1","","100","","13","","6","","","","98.96","","","","","","NA"
"2009-08-05 23:00","2009","08","05","23:00","10.4","","10.4","","100","","16","","9","","","","98.96","","","","","","NA"
"2009-08-06 00:00","2009","08","06","00:00","8.8","","8.8","","100","","9","","6","","","","98.96","","","","","","NA"
"2009-08-06 01:00","2009","08","06","01:00","9.1","","9.1","","100","","9","","7","","","","98.95","","","","","","NA"
"2009-08-06 02:00","2009","08","06","02:00","8.7","","8.7","","100","","8","","6","","","","98.95","","","","","","NA"
"2009-08-06 03:00","2009","08","06","03:00","8.6","","8.6","","100","","8","","7","","","","98.92","","","","","","NA"
"2009-08-06 04:00","2009","08","06","04:00","7.8","","7.8","","100","","8","","6","","","","98.94","","","","","","NA"
"2009-08-06 05:00","2009","08","06","05:00","8.2","","8.2","","100","","11","","6","","","","98.97","","","","","","NA"
"2009-08-06 06:00","2009","08","06","06:00","9.3","","9.3","","100","","13","","6","","","","99.02","","","","","","NA"
"2009-08-06 07:00","2009","08","06","07:00","10.0","","10.0","","100","","15","","4","","","","99.06","","","","","","NA"
"2009-08-06 08:00","2009","08","06","08:00","11.3","","11.3","","100","","19","","6","","","","99.11","","","","","","NA"
"2009-08-06 09:00","2009","08","06","09:00","13.3","","12.3","","94","","18","","7","","","","99.08","","","","","","NA"
"2009-08-06 10:00","2009","08","06","10:00","12.9","","12.5","","97","","22","","9","","","","99.11","","","","","","NA"
"2009-08-06 11:00","2009","08","06","11:00","13.7","","12.8","","94","","21","","6","","","","99.13","","","","","","NA"
"2009-08-06 12:00","2009","08","06","12:00","13.7","","12.1","","90","","22","","7","","","","99.12","","","","","","NA"
"2009-08-06 13:00","2009","08","06","13:00","14.3","","12.3","","88","","21","","9","","","","99.12","","","","","","NA"
"2009-08-06 14:00","2009","08","06","14:00","13.9","","11.7","","87","","21","","6","","","","99.10","","","","","","NA"
"2009-08-06 15:00","2009","08","06","15:00","15.8","","12.2","","79","","20","","13","","","","99.14","","","","","","NA"
"2009-08-06 16:00","2009","08","06","16:00","14.6","","11.9","","84","","26","","7","","","","99.17","","","","","","NA"
"2009-08-06 17:00","2009","08","06","17:00","14.4","","11.6","","83","","29","","7","","","","99.18","","","","","","NA"
"2009-08-06 18:00","2009","08","06","18:00","13.6","","12.2","","91","","23","","4","","","","99.18","","","","","","NA"
"2009-08-06 19:00","2009","08","06","19:00","13.2","","11.8","","91","","22","","9","","","","99.20","","","","","","NA"
"2009-08-06 20:00","2009","08","06","20:00","12.2","","11.1","","93","","16","","6","","","","99.20","","","","","","NA"
"2009-08-06 21:00","2009","08","06","21:00","11.0","","11.0","","100","","15","","6","","","","99.32","","","","","","NA"
"2009-08-06 22:00","2009","08","06","22:00","10.7","","10.7","","100","","11","","6","","","","99.35","","","","","","NA"
"2009-08-06 23:00","2009","08","06","23:00","10.2","","10.2","","100","","12","","7","","","","99.36","","","","","","NA"
"2009-08-07 00:00","2009","08","07","00:00","9.2","","9.2","","100","","9","","9","","","","99.35","","","","","","NA"
"2009-08-07 01:00","2009","08","07","01:00","8.3","","8.3","","100","","8","","7","","","","99.39","","","","","","NA"
"2009-08-07 02:00","2009","08","07","02:00","8.2","","8.2","","100","","9","","7","","","","99.43","","","","","","NA"
"2009-08-07 03:00","2009","08","07","03:00","7.5","","7.5","","100","","8","","9","","","","99.43","","","","","","NA"
"2009-08-07 04:00","2009","08","07","04:00","7.2","","7.2","","100","","9","","9","","","","99.45","","","","","","NA"
"2009-08-07 05:00","2009","08","07","05:00","6.9","","6.9","","100","","8","","9","","","","99.48","","","","","","NA"
"2009-08-07 06:00","2009","08","07","06:00","6.9","","6.9","","100","","8","","9","","","","99.50","","","","","","NA"
"2009-08-07 07:00","2009","08","07","07:00","8.7","","8.7","","100","","7","","7","","","","99.47","","","","","","NA"
"2009-08-07 08:00","2009","08","07","08:00","12.4","","10.6","","89","","16","","4","","","","99.50","","","","","","NA"
"2009-08-07 09:00","2009","08","07","09:00","11.8","","10.9","","94","","21","","9","","","","99.53","","","","","","NA"
"2009-08-07 10:00","2009","08","07","10:00","13.4","","12.1","","92","","18","","13","","","","99.50","","","","","","NA"
"2009-08-07 11:00","2009","08","07","11:00","13.9","","12.4","","91","","20","","17","","","","99.54","","","","","","NA"
"2009-08-07 12:00","2009","08","07","12:00","14.9","","12.5","","86","","17","","17","","","","99.51","","","","","","NA"
"2009-08-07 13:00","2009","08","07","13:00","16.7","","12.8","","78","","17","","19","","","","99.50","","","","","","NA"
"2009-08-07 14:00","2009","08","07","14:00","16.9","","11.6","","71","","17","","22","","","","99.43","","","","","","NA"
"2009-08-07 15:00","2009","08","07","15:00","16.2","","11.8","","75","","18","","19","","","","99.44","","","","","","NA"
"2009-08-07 16:00","2009","08","07","16:00","17.0","","11.5","","70","","17","","17","","","","99.42","","","","","","NA"
"2009-08-07 17:00","2009","08","07","17:00","16.2","","11.0","","71","","17","","20","","","","99.37","","","","","","NA"
"2009-08-07 18:00","2009","08","07","18:00","16.4","","10.0","","66","","17","","20","","","","99.31","","","","","","NA"
"2009-08-07 19:00","2009","08","07","19:00","15.8","","10.1","","69","","17","","19","","","","99.28","","","","","","NA"
"2009-08-07 20:00","2009","08","07","20:00","14.2","","10.5","","78","","17","","15","","","","99.27","","","","","","NA"
"2009-08-07 21:00","2009","08","07","21:00","14.4","","9.6","","73","","14","","7","","","","99.27","","","","","","NA"
"2009-08-07 22:00","2009","08","07","22:00","13.7","","9.2","","74","","10","","9","","","","99.29","","","","","","NA"
"2009-08-07 23:00","2009","08","07","23:00","13.9","","9.1","","73","","13","","7","","","","99.28","","","","","","NA"
"2009-08-08 00:00","2009","08","08","00:00","12.3","","10.3","","88","","11","","7","","","","99.29","","","","","","NA"
"2009-08-08 01:00","2009","08","08","01:00","13.4","","9.2","","76","","10","","15","","","","99.22","","","","","","NA"
"2009-08-08 02:00","2009","08","08","02:00","13.5","","9.1","","75","","10","","13","","","","99.14","","","","","","NA"
"2009-08-08 03:00","2009","08","08","03:00","13.8","","9.7","","76","","10","","17","","","","99.01","","","","","","NA"
"2009-08-08 04:00","2009","08","08","04:00","13.8","","9.9","","77","","10","","17","","","","98.92","","","","","","NA"
"2009-08-08 05:00","2009","08","08","05:00","14.1","","9.7","","75","","10","","11","","","","98.95","","","","","","NA"
"2009-08-08 06:00","2009","08","08","06:00","14.7","","10.4","","75","","10","","13","","","","98.97","","","","","","NA"
"2009-08-08 07:00","2009","08","08","07:00","15.0","","12.2","","83","","10","","13","","","","98.93","","","","","","NA"
"2009-08-08 08:00","2009","08","08","08:00","15.1","","14.1","","94","","10","","17","","","","98.90","","","","","","NA"
"2009-08-08 09:00","2009","08","08","09:00","14.1","","14.1","","100","","9","","17","","","","98.85","","","","","","NA"
"2009-08-08 10:00","2009","08","08","10:00","15.1","","15.1","","100","","10","","19","","","","98.76","","","","","","NA"
"2009-08-08 11:00","2009","08","08","11:00","16.5","","16.1","","97","","17","","7","","","","98.71","","","","","","NA"
"2009-08-08 12:00","2009","08","08","12:00","14.3","","14.3","","100","","18","","11","","","","98.73","","","","","","NA"
"2009-08-08 13:00","2009","08","08","13:00","14.5","","14.5","","100","","","","0","","","","98.72","","","","","","NA"
"2009-08-08 14:00","2009","08","08","14:00","15.4","","15.4","","100","","17","","6","","","","98.68","","","","","","NA"
"2009-08-08 15:00","2009","08","08","15:00","15.9","","15.9","","100","","15","","9","","","","98.58","","","","","","NA"
"2009-08-08 16:00","2009","08","08","16:00","15.3","","15.3","","100","","19","","6","","","","98.52","","","","","","NA"
"2009-08-08 17:00","2009","08","08","17:00","14.7","","14.7","","100","","16","","15","","","","98.52","","","","","","NA"
"2009-08-08 18:00","2009","08","08","18:00","14.6","","14.6","","100","","18","","11","","","","98.58","","","","","","NA"
"2009-08-08 19:00","2009","08","08","19:00","14.2","","14.2","","100","","17","","15","","","","98.61","","","","","","NA"
"2009-08-08 20:00","2009","08","08","20:00","14.2","","14.2","","100","","17","","22","","","","98.58","","","","","","NA"
"2009-08-08 21:00","2009","08","08","21:00","13.7","","13.7","","100","","18","","9","","","","98.61","","","","","","NA"
"2009-08-08 22:00","2009","08","08","22:00","13.4","","13.4","","100","","21","","7","","","","98.63","","","","","","NA"
"2009-08-08 23:00","2009","08","08","23:00","14.0","","14.0","","100","","21","","11","","","","98.60","","","","","","NA"
"2009-08-09 00:00","2009","08","09","00:00","15.8","","15.8","","100","","13","","6","","","","98.45","","","","","","NA"
"2009-08-09 01:00","2009","08","09","01:00","16.0","","16.0","","100","","18","","19","","","","98.47","","","","","","NA"
"2009-08-09 02:00","2009","08","09","02:00","15.0","","15.0","","100","","16","","17","","","","98.36","","","","","","NA"
"2009-08-09 03:00","2009","08","09","03:00","15.4","","15.4","","100","","17","","20","","","","98.30","","","","","","NA"
"2009-08-09 04:00","2009","08","09","04:00","15.6","","15.6","","100","","16","","17","","","","98.31","","","","","","NA"
"2009-08-09 05:00","2009","08","09","05:00","15.1","","15.1","","100","","26","","4","","","","98.30","","","","","","NA"
"2009-08-09 06:00","2009","08","09","06:00","15.4","","15.4","","100","","18","","11","","","","98.26","","","","","","NA"
"2009-08-09 07:00","2009","08","09","07:00","15.5","","15.5","","100","","7","","2","","","","98.25","","","","","","NA"
"2009-08-09 08:00","2009","08","09","08:00","17.1","","17.1","","100","","9","","6","","","","98.26","","","","","","NA"
"2009-08-09 09:00","2009","08","09","09:00","16.5","","16.5","","100","","19","","9","","","","98.27","","","","","","NA"
"2009-08-09 10:00","2009","08","09","10:00","15.0","","15.0","","100","","17","","13","","","","98.30","","","","","","NA"
"2009-08-09 11:00","2009","08","09","11:00","15.0","","15.0","","100","","18","","13","","","","98.31","","","","","","NA"
"2009-08-09 12:00","2009","08","09","12:00","13.3","","13.3","","100","","25","","11","","","","98.37","","","","","","NA"
"2009-08-09 13:00","2009","08","09","13:00","13.2","","13.2","","100","","20","","11","","","","98.35","","","","","","NA"
"2009-08-09 14:00","2009","08","09","14:00","11.7","","11.7","","100","","21","","15","","","","98.43","","","","","","NA"
"2009-08-09 15:00","2009","08","09","15:00","12.1","","12.1","","100","","17","","13","","","","98.43","","","","","","NA"
"2009-08-09 16:00","2009","08","09","16:00","11.5","","11.5","","100","","20","","11","","","","98.44","","","","","","NA"
"2009-08-09 17:00","2009","08","09","17:00","11.6","","11.6","","100","","15","","7","","","","98.43","","","","","","NA"
"2009-08-09 18:00","2009","08","09","18:00","11.8","","11.8","","100","","16","","7","","","","98.44","","","","","","NA"
"2009-08-09 19:00","2009","08","09","19:00","11.7","","11.7","","100","","17","","15","","","","98.48","","","","","","NA"
"2009-08-09 20:00","2009","08","09","20:00","12.2","","12.2","","100","","17","","13","","","","98.43","","","","","","NA"
"2009-08-09 21:00","2009","08","09","21:00","12.6","","12.6","","100","","19","","4","","","","98.48","","","","","","NA"
"2009-08-09 22:00","2009","08","09","22:00","11.8","","11.8","","100","","18","","9","","","","98.51","","","","","","NA"
"2009-08-09 23:00","2009","08","09","23:00","11.4","","11.4","","100","","18","","4","","","","98.56","","","","","","NA"
"2009-08-10 00:00","2009","08","10","00:00","11.6","","11.6","","100","","9","","2","","","","98.55","","","","","","NA"
"2009-08-10 01:00","2009","08","10","01:00","11.6","","11.6","","100","","20","","4","","","","98.54","","","","","","NA"
"2009-08-10 02:00","2009","08","10","02:00","11.4","","11.4","","100","","22","","2","","","","98.56","","","","","","NA"
"2009-08-10 03:00","2009","08","10","03:00","11.6","","11.6","","100","","","","0","","","","98.59","","","","","","NA"
"2009-08-10 04:00","2009","08","10","04:00","11.6","","11.6","","100","","","","0","","","","98.59","","","","","","NA"
"2009-08-10 05:00","2009","08","10","05:00","11.9","","11.9","","100","","","","0","","","","98.64","","","","","","NA"
"2009-08-10 06:00","2009","08","10","06:00","11.8","","11.8","","100","","23","","4","","","","98.68","","","","","","NA"
"2009-08-10 07:00","2009","08","10","07:00","12.2","","12.2","","100","","6","","6","","","","98.65","","","","","","NA"
"2009-08-10 08:00","2009","08","10","08:00","12.9","","12.9","","100","","29","","4","","","","98.68","","","","","","NA"
"2009-08-10 09:00","2009","08","10","09:00","12.6","","12.6","","100","","28","","6","","","","98.71","","","","","","NA"
"2009-08-10 10:00","2009","08","10","10:00","13.6","","13.6","","100","","29","","4","","","","98.68","","","","","","NA"
"2009-08-10 11:00","2009","08","10","11:00","13.2","","13.2","","100","","26","","6","","","","98.70","","","","","","NA"
"2009-08-10 12:00","2009","08","10","12:00","13.0","","13.0","","100","","23","","6","","","","98.72","","","","","","NA"
"2009-08-10 13:00","2009","08","10","13:00","13.6","","13.6","","100","","21","","6","","","","98.73","","","","","","NA"
"2009-08-10 14:00","2009","08","10","14:00","15.5","","15.5","","100","","19","","7","","","","98.71","","","","","","NA"
"2009-08-10 15:00","2009","08","10","15:00","14.3","","14.3","","100","","23","","9","","","","98.71","","","","","","NA"
"2009-08-10 16:00","2009","08","10","16:00","14.1","","14.1","","100","","24","","6","","","","98.68","","","","","","NA"
"2009-08-10 17:00","2009","08","10","17:00","13.6","","13.6","","100","","25","","6","","","","98.68","","","","","","NA"
"2009-08-10 18:00","2009","08","10","18:00","14.3","","14.3","","100","","27","","6","","","","98.67","","","","","","NA"
"2009-08-10 19:00","2009","08","10","19:00","13.0","","13.0","","100","","31","","4","","","","98.72","","","","","","NA"
"2009-08-10 20:00","2009","08","10","20:00","12.8","","12.8","","100","","25","","6","","","","98.75","","","","","","NA"
"2009-08-10 21:00","2009","08","10","21:00","12.9","","12.9","","100","","22","","2","","","","98.78","","","","","","NA"
"2009-08-10 22:00","2009","08","10","22:00","12.8","","12.8","","100","","","","0","","","","98.83","","","","","","NA"
"2009-08-10 23:00","2009","08","10","23:00","14.5","","14.5","","100","","1","","7","","","","98.81","","","","","","NA"
"2009-08-11 00:00","2009","08","11","00:00","14.7","","14.7","","100","","3","","9","","","","98.82","","","","","","NA"
"2009-08-11 01:00","2009","08","11","01:00","15.1","","15.1","","100","","3","","9","","","","98.87","","","","","","NA"
"2009-08-11 02:00","2009","08","11","02:00","15.0","","15.0","","100","","1","","6","","","","98.90","","","","","","NA"
"2009-08-11 03:00","2009","08","11","03:00","14.9","","14.9","","100","","5","","2","","","","98.96","","","","","","NA"
"2009-08-11 04:00","2009","08","11","04:00","14.6","","14.6","","100","","33","","2","","","","98.99","","","","","","NA"
"2009-08-11 05:00","2009","08","11","05:00","14.5","","14.5","","100","","1","","6","","","","99.02","","","","","","NA"
"2009-08-11 06:00","2009","08","11","06:00","14.2","","14.2","","100","","3","","7","","","","99.04","","","","","","NA"
"2009-08-11 07:00","2009","08","11","07:00","14.1","","14.1","","100","","5","","6","","","","99.08","","","","","","NA"
"2009-08-11 08:00","2009","08","11","08:00","15.7","","15.4","","98","","3","","6","","","","99.08","","","","","","NA"
"2009-08-11 09:00","2009","08","11","09:00","16.8","","15.4","","91","","23","","2","","","","99.08","","","","","","NA"
"2009-08-11 10:00","2009","08","11","10:00","16.7","","15.2","","91","","26","","9","","","","99.10","","","","","","NA"
"2009-08-11 11:00","2009","08","11","11:00","17.3","","15.7","","90","","25","","6","","","","99.11","","","","","","NA"
"2009-08-11 12:00","2009","08","11","12:00","16.9","","15.9","","94","","21","","9","","","","99.11","","","","","","NA"
"2009-08-11 13:00","2009","08","11","13:00","17.1","","15.9","","93","","23","","11","","","","99.11","","","","","","NA"
"2009-08-11 14:00","2009","08","11","14:00","15.2","","14.5","","96","","24","","11","","","","99.11","","","","","","NA"
"2009-08-11 15:00","2009","08","11","15:00","15.2","","14.8","","97","","22","","11","","","","99.10","","","","","","NA"
"2009-08-11 16:00","2009","08","11","16:00","14.3","","14.3","","100","","22","","11","","","","99.10","","","","","","NA"
"2009-08-11 17:00","2009","08","11","17:00","14.6","","14.6","","100","","20","","15","","","","99.07","","","","","","NA"
"2009-08-11 18:00","2009","08","11","18:00","14.0","","14.0","","100","","20","","15","","","","99.08","","","","","","NA"
"2009-08-11 19:00","2009","08","11","19:00","13.0","","13.0","","100","","20","","11","","","","99.06","","","","","","NA"
"2009-08-11 20:00","2009","08","11","20:00","12.8","","12.8","","100","","17","","13","","","","99.05","","","","","","NA"
"2009-08-11 21:00","2009","08","11","21:00","12.6","","12.6","","100","","18","","15","","","","99.09","","","","","","NA"
"2009-08-11 22:00","2009","08","11","22:00","12.8","","12.8","","100","","17","","15","","","","99.08","","","","","","NA"
"2009-08-11 23:00","2009","08","11","23:00","12.6","","12.6","","100","","17","","11","","","","99.08","","","","","","NA"
"2009-08-12 00:00","2009","08","12","00:00","13.0","","13.0","","100","","17","","13","","","","99.08","","","","","","NA"
"2009-08-12 01:00","2009","08","12","01:00","12.8","","12.8","","100","","18","","19","","","","99.06","","","","","","NA"
"2009-08-12 02:00","2009","08","12","02:00","13.0","","13.0","","100","","17","","19","","","","99.06","","","","","","NA"
"2009-08-12 03:00","2009","08","12","03:00","12.8","","12.8","","100","","18","","11","","","","99.07","","","","","","NA"
"2009-08-12 04:00","2009","08","12","04:00","13.0","","13.0","","100","","17","","17","","","","99.10","","","","","","NA"
"2009-08-12 05:00","2009","08","12","05:00","13.0","","13.0","","100","","17","","19","","","","99.10","","","","","","NA"
"2009-08-12 06:00","2009","08","12","06:00","13.4","","13.4","","100","","17","","19","","","","99.13","","","","","","NA"
"2009-08-12 07:00","2009","08","12","07:00","14.4","","14.4","","100","","17","","22","","","","99.14","","","","","","NA"
"2009-08-12 08:00","2009","08","12","08:00","15.5","","15.5","","100","","17","","19","","","","99.16","","","","","","NA"
"2009-08-12 09:00","2009","08","12","09:00","16.4","","15.8","","96","","17","","17","","","","99.15","","","","","","NA"
"2009-08-12 10:00","2009","08","12","10:00","16.6","","15.7","","94","","18","","22","","","","99.16","","","","","","NA"
"2009-08-12 11:00","2009","08","12","11:00","16.9","","15.7","","93","","19","","22","","","","99.18","","","","","","NA"
"2009-08-12 12:00","2009","08","12","12:00","17.1","","15.5","","90","","18","","22","","","","99.16","","","","","","NA"
"2009-08-12 13:00","2009","08","12","13:00","17.5","","15.7","","89","","18","","26","","","","99.13","","","","","","NA"
"2009-08-12 14:00","2009","08","12","14:00","18.1","","16.1","","88","","18","","22","","","","99.12","","","","","","NA"
"2009-08-12 15:00","2009","08","12","15:00","17.8","","15.8","","88","","18","","22","","","","99.10","","","","","","NA"
"2009-08-12 16:00","2009","08","12","16:00","17.6","","15.8","","89","","18","","22","","","","99.10","","","","","","NA"
"2009-08-12 17:00","2009","08","12","17:00","17.3","","15.8","","91","","18","","20","","","","99.09","","","","","","NA"
"2009-08-12 18:00","2009","08","12","18:00","16.6","","15.7","","94","","17","","22","","","","99.03","","","","","","NA"
"2009-08-12 19:00","2009","08","12","19:00","16.8","","15.6","","93","","17","","26","","","","98.96","","","","","","NA"
"2009-08-12 20:00","2009","08","12","20:00","16.8","","15.5","","92","","17","","28","","","","98.92","","","","","","NA"
"2009-08-12 21:00","2009","08","12","21:00","17.1","","15.5","","90","","18","","22","","","","98.93","","","","","","NA"
"2009-08-12 22:00","2009","08","12","22:00","17.0","","15.5","","91","","18","","24","","","","98.91","","","","","","NA"
"2009-08-12 23:00","2009","08","12","23:00","15.5","","15.3","","99","","16","","20","","","","98.91","","","","","","NA"
"2009-08-13 00:00","2009","08","13","00:00","17.4","","15.2","","87","","18","","28","","","","98.91","","","","","","NA"
"2009-08-13 01:00","2009","08","13","01:00","17.2","","16.2","","94","","17","","26","","","","98.91","","","","","","NA"
"2009-08-13 02:00","2009","08","13","02:00","16.4","","16.2","","99","","17","","28","","","","98.89","","","","","","NA"
"2009-08-13 03:00","2009","08","13","03:00","15.7","","15.7","","100","","17","","24","","","","98.87","","","","","","NA"
"2009-08-13 04:00","2009","08","13","04:00","15.4","","15.4","","100","","18","","15","","","","98.95","","","","","","NA"
"2009-08-13 05:00","2009","08","13","05:00","16.1","","16.1","","100","","17","","24","","","","98.96","","","","","","NA"
"2009-08-13 06:00","2009","08","13","06:00","16.1","","15.9","","99","","18","","22","","","","98.98","","","","","","NA"
"2009-08-13 07:00","2009","08","13","07:00","16.1","","16.0","","99","","18","","20","","","","98.98","","","","","","NA"
"2009-08-13 08:00","2009","08","13","08:00","16.8","","16.1","","96","","18","","20","","","","98.97","","","","","","NA"
"2009-08-13 09:00","2009","08","13","09:00","17.4","","16.4","","94","","18","","20","","","","99.00","","","","","","NA"
"2009-08-13 10:00","2009","08","13","10:00","18.2","","16.8","","92","","18","","26","","","","99.03","","","","","","NA"
"2009-08-13 11:00","2009","08","13","11:00","18.5","","16.6","","89","","19","","28","","","","99.12","","","","","","NA"
"2009-08-13 12:00","2009","08","13","12:00","18.5","","17.1","","92","","18","","20","","","","99.15","","","","","","NA"
"2009-08-13 13:00","2009","08","13","13:00","20.3","","17.9","","86","","17","","17","","","","99.14","","26","","","","NA"
"2009-08-13 14:00","2009","08","13","14:00","20.7","","18.2","","86","","17","","22","","","","99.13","","27","","","","NA"
"2009-08-13 15:00","2009","08","13","15:00","19.7","","17.8","","89","","18","","20","","","","99.08","","","","","","NA"
"2009-08-13 16:00","2009","08","13","16:00","18.8","","17.5","","92","","19","","19","","","","99.13","","","","","","NA"
"2009-08-13 17:00","2009","08","13","17:00","17.5","","16.8","","96","","18","","19","","","","99.16","","","","","","NA"
"2009-08-13 18:00","2009","08","13","18:00","17.1","","16.8","","98","","18","","19","","","","99.12","","","","","","NA"
"2009-08-13 19:00","2009","08","13","19:00","17.7","","17.7","","100","","17","","22","","","","99.07","","","","","","NA"
"2009-08-13 20:00","2009","08","13","20:00","17.7","","17.7","","100","","17","","15","","","","99.07","","","","","","NA"
"2009-08-13 21:00","2009","08","13","21:00","17.0","","17.0","","100","","18","","17","","","","99.11","","","","","","NA"
"2009-08-13 22:00","2009","08","13","22:00","15.8","","15.8","","100","","19","","9","","","","99.13","","","","","","NA"
"2009-08-13 23:00","2009","08","13","23:00","17.2","","17.2","","100","","18","","6","","","","99.11","","","","","","NA"
"2009-08-14 00:00","2009","08","14","00:00","18.5","","17.5","","94","","16","","9","","","","99.11","","","","","","NA"
"2009-08-14 01:00","2009","08","14","01:00","18.9","","17.7","","93","","17","","20","","","","99.04","","","","","","NA"
"2009-08-14 02:00","2009","08","14","02:00","18.0","","17.2","","95","","16","","24","","","","99.01","","","","","","NA"
"2009-08-14 03:00","2009","08","14","03:00","16.9","","16.7","","99","","17","","20","","","","99.08","","","","","","NA"
"2009-08-14 04:00","2009","08","14","04:00","16.5","","16.5","","100","","16","","17","","","","99.07","","","","","","NA"
"2009-08-14 05:00","2009","08","14","05:00","16.3","","16.3","","100","","17","","17","","","","99.12","","","","","","NA"
"2009-08-14 06:00","2009","08","14","06:00","16.2","","16.2","","100","","17","","20","","","","99.13","","","","","","NA"
"2009-08-14 07:00","2009","08","14","07:00","17.0","","16.9","","99","","17","","15","","","","99.14","","","","","","NA"
"2009-08-14 08:00","2009","08","14","08:00","17.7","","16.9","","95","","17","","19","","","","99.13","","","","","","NA"
"2009-08-14 09:00","2009","08","14","09:00","19.0","","17.2","","89","","16","","17","","","","99.11","","","","","","NA"
"2009-08-14 10:00","2009","08","14","10:00","18.9","","16.8","","88","","16","","22","","","","99.12","","","","","","NA"
"2009-08-14 11:00","2009","08","14","11:00","19.8","","17.2","","85","","17","","20","","","","99.15","","","","","","NA"
"2009-08-14 12:00","2009","08","14","12:00","20.3","","17.1","","82","","17","","15","","","","99.11","","26","","","","NA"
"2009-08-14 13:00","2009","08","14","13:00","19.6","","17.2","","86","","19","","19","","","","99.10","","","","","","NA"
"2009-08-14 14:00","2009","08","14","14:00","19.9","","18.0","","89","","18","","20","","","","99.05","","","","","","NA"
"2009-08-14 15:00","2009","08","14","15:00","19.6","","18.6","","94","","20","","13","","","","99.10","","","","","","NA"
"2009-08-14 16:00","2009","08","14","16:00","20.6","","18.9","","90","","17","","13","","","","99.02","","27","","","","NA"
"2009-08-14 17:00","2009","08","14","17:00","19.9","","18.5","","92","","18","","13","","","","99.02","","","","","","NA"
"2009-08-14 18:00","2009","08","14","18:00","20.2","","18.5","","90","","17","","13","","","","98.93","","27","","","","NA"
"2009-08-14 19:00","2009","08","14","19:00","19.6","","18.3","","92","","17","","9","","","","98.91","","","","","","NA"
"2009-08-14 20:00","2009","08","14","20:00","19.2","","18.6","","96","","17","","20","","","","98.85","","","","","","NA"
"2009-08-14 21:00","2009","08","14","21:00","18.9","","18.2","","96","","17","","17","","","","98.90","","","","","","NA"
"2009-08-14 22:00","2009","08","14","22:00","18.5","","18.2","","98","","18","","13","","","","98.92","","","","","","NA"
"2009-08-14 23:00","2009","08","14","23:00","18.3","","18.3","","100","","17","","9","","","","98.88","","","","","","NA"
"2009-08-15 00:00","2009","08","15","00:00","16.6","","16.6","","100","","17","","15","","","","98.81","","","","","","NA"
"2009-08-15 01:00","2009","08","15","01:00","16.7","","16.7","","100","","14","","2","","","","98.91","","","","","","NA"
"2009-08-15 02:00","2009","08","15","02:00","16.5","","16.5","","100","","18","","7","","","","98.92","","","","","","NA"
"2009-08-15 03:00","2009","08","15","03:00","16.1","","16.1","","100","","7","","6","","","","98.85","","","","","","NA"
"2009-08-15 04:00","2009","08","15","04:00","16.2","","16.2","","100","","7","","6","","","","98.81","","","","","","NA"
"2009-08-15 05:00","2009","08","15","05:00","17.8","","17.8","","100","","13","","4","","","","98.81","","","","","","NA"
"2009-08-15 06:00","2009","08","15","06:00","17.0","","17.0","","100","","1","","9","","","","98.94","","","","","","NA"
"2009-08-15 07:00","2009","08","15","07:00","17.3","","17.3","","100","","","","0","","","","99.01","","","","","","NA"
"2009-08-15 08:00","2009","08","15","08:00","18.0","","18.0","","100","","12","","22","","","","98.86","","","","","","NA"
"2009-08-15 09:00","2009","08","15","09:00","19.2","","19.2","","100","","4","","13","","","","99.00","","","","","","NA"
"2009-08-15 10:00","2009","08","15","10:00","20.0","","20.0","","100","","9","","19","","","","98.89","","28","","","","NA"
"2009-08-15 11:00","2009","08","15","11:00","22.9","","22.4","","97","","14","","19","","","","98.87","","33","","","","NA"
"2009-08-15 12:00","2009","08","15","12:00","24.9","","22.2","","85","","15","","17","","","","98.84","","34","","","","NA"
"2009-08-15 13:00","2009","08","15","13:00","19.2","","19.0","","99","","18","","13","","","","98.87","","","","","","NA"
"2009-08-15 14:00","2009","08","15","14:00","19.4","","19.4","","100","","17","","19","","","","98.82","","","","","","NA"
"2009-08-15 15:00","2009","08","15","15:00","19.0","","19.0","","100","","33","","6","","","","98.89","","","","","","NA"
"2009-08-15 16:00","2009","08","15","16:00","20.3","","20.3","","100","","30","","2","","","","98.89","","28","","","","NA"
"2009-08-15 17:00","2009","08","15","17:00","22.1","","21.0","","93","","19","","6","","","","98.87","","31","","","","NA"
"2009-08-15 18:00","2009","08","15","18:00","22.7","","22.0","","96","","11","","4","","","","98.89","","32","","","","NA"
"2009-08-15 19:00","2009","08","15","19:00","21.8","","21.4","","98","","5","","7","","","","98.85","","31","","","","NA"
"2009-08-15 20:00","2009","08","15","20:00","19.8","","19.8","","100","","29","","6","","","","98.85","","","","","","NA"
"2009-08-15 21:00","2009","08","15","21:00","19.7","","19.7","","100","","6","","7","","","","98.86","","","","","","NA"
"2009-08-15 22:00","2009","08","15","22:00","21.7","","21.7","","100","","11","","9","","","","98.85","","31","","","","NA"
"2009-08-15 23:00","2009","08","15","23:00","21.2","","19.7","","91","","17","","22","","","","98.83","","29","","","","NA"
"2009-08-16 00:00","2009","08","16","00:00","21.8","","19.1","","85","","16","","37","","","","98.78","","29","","","","NA"
"2009-08-16 01:00","2009","08","16","01:00","19.7","","18.4","","92","","17","","32","","","","98.77","","","","","","NA"
"2009-08-16 02:00","2009","08","16","02:00","19.1","","18.3","","95","","17","","30","","","","98.72","","","","","","NA"
"2009-08-16 03:00","2009","08","16","03:00","18.8","","18.1","","96","","17","","32","","","","98.68","","","","","","NA"
"2009-08-16 04:00","2009","08","16","04:00","18.2","","17.8","","98","","17","","30","","","","98.70","","","","","","NA"
"2009-08-16 05:00","2009","08","16","05:00","18.0","","17.7","","98","","19","","26","","","","98.70","","","","","","NA"
"2009-08-16 06:00","2009","08","16","06:00","18.0","","17.6","","98","","18","","24","","","","98.69","","","","","","NA"
"2009-08-16 07:00","2009","08","16","07:00","17.3","","17.3","","100","","17","","19","","","","98.63","","","","","","NA"
"2009-08-16 08:00","2009","08","16","08:00","17.9","","17.9","","100","","17","","28","","","","98.61","","","","","","NA"
"2009-08-16 09:00","2009","08","16","09:00","18.5","","18.2","","98","","17","","37","","","","98.56","","","","","","NA"
"2009-08-16 10:00","2009","08","16","10:00","18.9","","18.5","","98","","18","","35","","","","98.55","","","","","","NA"
"2009-08-16 11:00","2009","08","16","11:00","19.5","","18.8","","96","","18","","37","","","","98.52","","","","","","NA"
"2009-08-16 12:00","2009","08","16","12:00","20.4","","19.3","","93","","17","","35","","","","98.45","","27","","","","NA"
"2009-08-16 13:00","2009","08","16","13:00","21.4","","20.2","","93","","17","","37","","","","98.38","","29","","","","NA"
"2009-08-16 14:00","2009","08","16","14:00","23.5","","20.5","","83","","17","","37","","","","98.32","","31","","","","NA"
"2009-08-16 15:00","2009","08","16","15:00","22.6","","19.6","","83","","16","","33","","","","98.27","","30","","","","NA"
"2009-08-16 16:00","2009","08","16","16:00","20.8","","20.8","","100","","14","","24","","","","98.22","","29","","","","NA"
"2009-08-16 17:00","2009","08","16","17:00","20.3","","20.3","","100","","17","","44","","","","98.19","","28","","","","NA"
"2009-08-16 18:00","2009","08","16","18:00","20.4","","20.4","","100","","17","","37","","","","98.10","","28","","","","NA"
"2009-08-16 19:00","2009","08","16","19:00","18.4","","18.4","","100","","17","","39","","","","98.09","","","","","","NA"
"2009-08-16 20:00","2009","08","16","20:00","17.5","","17.5","","100","","17","","37","","","","98.13","","","","","","NA"
"2009-08-16 21:00","2009","08","16","21:00","17.8","","17.8","","100","","17","","39","","","","98.17","","","","","","NA"
"2009-08-16 22:00","2009","08","16","22:00","16.7","","16.7","","100","","18","","37","","","","98.15","","","","","","NA"
"2009-08-16 23:00","2009","08","16","23:00","16.6","","16.6","","100","","18","","35","","","","98.17","","","","","","NA"
"2009-08-17 00:00","2009","08","17","00:00","15.8","","15.8","","100","","17","","26","","","","98.20","","","","","","NA"
"2009-08-17 01:00","2009","08","17","01:00","14.5","","14.5","","100","","24","","33","","","","98.28","","","","","","NA"
"2009-08-17 02:00","2009","08","17","02:00","14.3","","14.3","","100","","30","","11","","","","98.37","","","","","","NA"
"2009-08-17 03:00","2009","08","17","03:00","13.4","","13.4","","100","","29","","6","","","","98.46","","","","","","NA"
"2009-08-17 04:00","2009","08","17","04:00","13.7","","13.7","","100","","21","","6","","","","98.51","","","","","","NA"
"2009-08-17 05:00","2009","08","17","05:00","13.7","","13.7","","100","","29","","11","","","","98.55","","","","","","NA"
"2009-08-17 06:00","2009","08","17","06:00","13.1","","13.1","","100","","29","","7","","","","98.60","","","","","","NA"
"2009-08-17 07:00","2009","08","17","07:00","13.8","","13.8","","100","","26","","6","","","","98.69","","","","","","NA"
"2009-08-17 08:00","2009","08","17","08:00","14.9","","14.5","","97","","19","","2","","","","98.74","","","","","","NA"
"2009-08-17 09:00","2009","08","17","09:00","15.3","","14.7","","96","","24","","11","","","","98.78","","","","","","NA"
"2009-08-17 10:00","2009","08","17","10:00","16.1","","14.8","","92","","21","","11","","","","98.82","","","","","","NA"
"2009-08-17 11:00","2009","08","17","11:00","16.5","","15.6","","94","","24","","9","","","","98.82","","","","","","NA"
"2009-08-17 12:00","2009","08","17","12:00","18.3","","16.6","","90","","18","","11","","","","98.81","","","","","","NA"
"2009-08-17 13:00","2009","08","17","13:00","18.9","","16.4","","85","","19","","19","","","","98.85","","","","","","NA"
"2009-08-17 14:00","2009","08","17","14:00","18.9","","16.8","","88","","19","","20","","","","98.82","","","","","","NA"
"2009-08-17 15:00","2009","08","17","15:00","19.0","","16.7","","87","","17","","20","","","","98.78","","","","","","NA"
"2009-08-17 16:00","2009","08","17","16:00","18.4","","16.5","","89","","17","","22","","","","98.74","","","","","","NA"
"2009-08-17 17:00","2009","08","17","17:00","17.9","","16.0","","89","","17","","28","","","","98.68","","","","","","NA"
"2009-08-17 18:00","2009","08","17","18:00","18.0","","16.1","","89","","17","","26","","","","98.63","","","","","","NA"
"2009-08-17 19:00","2009","08","17","19:00","17.9","","15.7","","87","","17","","28","","","","98.54","","","","","","NA"
"2009-08-17 20:00","2009","08","17","20:00","17.6","","15.5","","87","","17","","20","","","","98.51","","","","","","NA"
"2009-08-17 21:00","2009","08","17","21:00","18.0","","15.4","","85","","16","","24","","","","98.46","","","","","","NA"
"2009-08-17 22:00","2009","08","17","22:00","17.5","","15.5","","88","","20","","24","","","","98.53","","","","","","NA"
"2009-08-17 23:00","2009","08","17","23:00","14.8","","14.8","","100","","17","","32","","","","98.45","","","","","","NA"
"2009-08-18 00:00","2009","08","18","00:00","16.5","","15.7","","95","","14","","24","","","","98.32","","","","","","NA"
"2009-08-18 01:00","2009","08","18","01:00","15.3","","15.2","","99","","33","","6","","","","98.42","","","","","","NA"
"2009-08-18 02:00","2009","08","18","02:00","14.9","","14.9","","100","","9","","6","","","","98.33","","","","","","NA"
"2009-08-18 03:00","2009","08","18","03:00","15.1","","15.1","","100","","12","","7","","","","98.28","","","","","","NA"
"2009-08-18 04:00","2009","08","18","04:00","15.2","","15.2","","100","","14","","7","","","","98.22","","","","","","NA"
"2009-08-18 05:00","2009","08","18","05:00","14.9","","14.9","","100","","19","","19","","","","98.16","","","","","","NA"
"2009-08-18 06:00","2009","08","18","06:00","13.6","","13.6","","100","","21","","30","","","","98.21","","","","","","NA"
"2009-08-18 07:00","2009","08","18","07:00","13.3","","13.3","","100","","21","","26","","","","98.24","","","","","","NA"
"2009-08-18 08:00","2009","08","18","08:00","13.1","","13.1","","100","","23","","17","","","","98.24","","","","","","NA"
"2009-08-18 09:00","2009","08","18","09:00","13.9","","13.8","","99","","24","","22","","","","98.22","","","","","","NA"
"2009-08-18 10:00","2009","08","18","10:00","14.1","","13.9","","99","","24","","32","","","","98.24","","","","","","NA"
"2009-08-18 11:00","2009","08","18","11:00","13.8","","13.7","","99","","25","","20","","","","98.26","","","","","","NA"
"2009-08-18 12:00","2009","08","18","12:00","14.9","","14.1","","95","","23","","22","","","","98.26","","","","","","NA"
"2009-08-18 13:00","2009","08","18","13:00","14.5","","14.0","","97","","23","","28","","","","98.26","","","","","","NA"
"2009-08-18 14:00","2009","08","18","14:00","15.1","","13.9","","93","","24","","30","","","","98.31","","","","","","NA"
"2009-08-18 15:00","2009","08","18","15:00","15.2","","14.0","","93","","23","","32","","","","98.32","","","","","","NA"
"2009-08-18 16:00","2009","08","18","16:00","15.6","","13.9","","90","","23","","24","","","","98.35","","","","","","NA"
"2009-08-18 17:00","2009","08","18","17:00","13.8","","13.4","","97","","24","","28","","","","98.38","","","","","","NA"
"2009-08-18 18:00","2009","08","18","18:00","13.2","","13.2","","100","","22","","11","","","","98.43","","","","","","NA"
"2009-08-18 19:00","2009","08","18","19:00","12.9","","12.9","","100","","28","","9","","","","98.38","","","","","","NA"
"2009-08-18 20:00","2009","08","18","20:00","12.5","","12.5","","100","","22","","6","","","","98.38","","","","","","NA"
"2009-08-18 21:00","2009","08","18","21:00","12.6","","12.6","","100","","24","","7","","","","98.40","","","","","","NA"
"2009-08-18 22:00","2009","08","18","22:00","12.5","","12.5","","100","","23","","15","","","","98.38","","","","","","NA"
"2009-08-18 23:00","2009","08","18","23:00","12.2","","12.2","","100","","25","","13","","","","98.39","","","","","","NA"
"2009-08-19 00:00","2009","08","19","00:00","12.6","","12.6","","100","","20","","15","","","","98.44","","","","","","NA"
"2009-08-19 01:00","2009","08","19","01:00","12.4","","12.4","","100","","18","","6","","","","98.45","","","","","","NA"
"2009-08-19 02:00","2009","08","19","02:00","12.4","","12.4","","100","","21","","7","","","","98.46","","","","","","NA"
"2009-08-19 03:00","2009","08","19","03:00","12.0","","12.0","","100","","14","","4","","","","98.46","","","","","","NA"
"2009-08-19 04:00","2009","08","19","04:00","12.5","","12.5","","100","","21","","13","","","","98.50","","","","","","NA"
"2009-08-19 05:00","2009","08","19","05:00","12.7","","12.7","","100","","21","","11","","","","98.54","","","","","","NA"
"2009-08-19 06:00","2009","08","19","06:00","12.9","","12.9","","100","","17","","7","","","","98.55","","","","","","NA"
"2009-08-19 07:00","2009","08","19","07:00","13.2","","13.1","","99","","20","","15","","","","98.62","","","","","","NA"
"2009-08-19 08:00","2009","08","19","08:00","13.4","","13.2","","99","","19","","11","","","","98.69","","","","","","NA"
"2009-08-19 09:00","2009","08","19","09:00","14.8","","13.6","","93","","20","","19","","","","98.68","","","","","","NA"
"2009-08-19 10:00","2009","08","19","10:00","15.7","","13.8","","88","","20","","17","","","","98.69","","","","","","NA"
"2009-08-19 11:00","2009","08","19","11:00","16.2","","13.9","","86","","20","","19","","","","98.68","","","","","","NA"
"2009-08-19 12:00","2009","08","19","12:00","17.0","","13.8","","81","","18","","19","","","","98.66","","","","","","NA"
"2009-08-19 13:00","2009","08","19","13:00","17.7","","14.6","","82","","19","","17","","","","98.64","","","","","","NA"
"2009-08-19 14:00","2009","08","19","14:00","18.5","","13.9","","75","","18","","13","","","","98.58","","","","","","NA"
"2009-08-19 15:00","2009","08","19","15:00","18.0","","14.0","","77","","19","","17","","","","98.52","","","","","","NA"
"2009-08-19 16:00","2009","08","19","16:00","18.9","","13.9","","73","","18","","15","","","","98.46","","","","","","NA"
"2009-08-19 17:00","2009","08","19","17:00","17.2","","14.7","","85","","17","","13","","","","98.45","","","","","","NA"
"2009-08-19 18:00","2009","08","19","18:00","17.3","","15.6","","90","","15","","9","","","","98.44","","","","","","NA"
"2009-08-19 19:00","2009","08","19","19:00","17.8","","15.4","","86","","7","","6","","","","98.42","","","","","","NA"
"2009-08-19 20:00","2009","08","19","20:00","17.0","","14.0","","82","","6","","9","","","","98.36","","","","","","NA"
"2009-08-19 21:00","2009","08","19","21:00","16.1","","14.3","","89","","8","","9","","","","98.36","","","","","","NA"
"2009-08-19 22:00","2009","08","19","22:00","15.6","","13.9","","90","","7","","13","","","","98.36","","","","","","NA"
"2009-08-19 23:00","2009","08","19","23:00","17.0","","12.7","","76","","9","","20","","","","98.29","","","","","","NA"
"2009-08-20 00:00","2009","08","20","00:00","17.0","","12.5","","75","","9","","19","","","","98.21","","","","","","NA"
"2009-08-20 01:00","2009","08","20","01:00","16.3","","13.9","","86","","8","","19","","","","98.13","","","","","","NA"
"2009-08-20 02:00","2009","08","20","02:00","16.8","","12.7","","77","","9","","24","","","","98.07","","","","","","NA"
"2009-08-20 03:00","2009","08","20","03:00","16.6","","12.8","","78","","8","","20","","","","98.02","","","","","","NA"
"2009-08-20 04:00","2009","08","20","04:00","16.4","","13.2","","81","","8","","22","","","","97.92","","","","","","NA"
"2009-08-20 05:00","2009","08","20","05:00","16.1","","13.6","","85","","8","","26","","","","97.85","","","","","","NA"
"2009-08-20 06:00","2009","08","20","06:00","16.2","","13.5","","84","","8","","28","","","","97.84","","","","","","NA"
"2009-08-20 07:00","2009","08","20","07:00","16.4","","13.7","","84","","9","","22","","","","97.84","","","","","","NA"
"2009-08-20 08:00","2009","08","20","08:00","17.0","","13.4","","79","","9","","17","","","","97.85","","","","","","NA"
"2009-08-20 09:00","2009","08","20","09:00","16.4","","13.8","","85","","8","","17","","","","97.85","","","","","","NA"
"2009-08-20 10:00","2009","08","20","10:00","16.7","","14.4","","86","","8","","13","","","","97.77","","","","","","NA"
"2009-08-20 11:00","2009","08","20","11:00","17.9","","14.1","","78","","9","","19","","","","97.71","","","","","","NA"
"2009-08-20 12:00","2009","08","20","12:00","18.5","","13.9","","75","","7","","19","","","","97.61","","","","","","NA"
"2009-08-20 13:00","2009","08","20","13:00","19.0","","13.4","","70","","7","","28","","","","97.53","","","","","","NA"
"2009-08-20 14:00","2009","08","20","14:00","18.8","","13.9","","73","","8","","22","","","","97.48","","","","","","NA"
"2009-08-20 15:00","2009","08","20","15:00","15.8","","15.8","","100","","5","","22","","","","97.40","","","","","","NA"
"2009-08-20 16:00","2009","08","20","16:00","14.6","","14.6","","100","","5","","19","","","","97.33","","","","","","NA"
"2009-08-20 17:00","2009","08","20","17:00","14.4","","14.4","","100","","5","","22","","","","97.25","","","","","","NA"
"2009-08-20 18:00","2009","08","20","18:00","14.4","","14.4","","100","","5","","24","","","","97.19","","","","","","NA"
"2009-08-20 19:00","2009","08","20","19:00","14.5","","14.5","","100","","7","","19","","","","97.15","","","","","","NA"
"2009-08-20 20:00","2009","08","20","20:00","14.5","","14.5","","100","","7","","17","","","","97.13","","","","","","NA"
"2009-08-20 21:00","2009","08","20","21:00","14.5","","14.5","","100","","7","","17","","","","97.13","","","","","","NA"
"2009-08-20 22:00","2009","08","20","22:00","14.6","","14.6","","100","","7","","13","","","","97.10","","","","","","NA"
"2009-08-20 23:00","2009","08","20","23:00","14.6","","14.6","","100","","7","","9","","","","97.09","","","","","","NA"
"2009-08-21 00:00","2009","08","21","00:00","14.7","","14.7","","100","","6","","13","","","","97.09","","","","","","NA"
"2009-08-21 01:00","2009","08","21","01:00","14.7","","14.7","","100","","6","","9","","","","97.11","","","","","","NA"
"2009-08-21 02:00","2009","08","21","02:00","14.7","","14.7","","100","","5","","2","","","","97.11","","","","","","NA"
"2009-08-21 03:00","2009","08","21","03:00","13.7","","13.7","","100","","22","","7","","","","97.15","","","","","","NA"
"2009-08-21 04:00","2009","08","21","04:00","14.2","","14.2","","100","","3","","11","","","","97.12","","","","","","NA"
"2009-08-21 05:00","2009","08","21","05:00","13.6","","13.6","","100","","4","","28","","","","97.10","","","","","","NA"
"2009-08-21 06:00","2009","08","21","06:00","12.0","","12.0","","100","","4","","30","","","","97.14","","","","","","NA"
"2009-08-21 07:00","2009","08","21","07:00","11.0","","11.0","","100","","4","","30","","","","97.18","","","","","","NA"
"2009-08-21 08:00","2009","08","21","08:00","10.6","","10.6","","100","","4","","33","","","","97.23","","","","","","NA"
"2009-08-21 09:00","2009","08","21","09:00","10.6","","10.6","","100","","3","","28","","","","97.33","","","","","","NA"
"2009-08-21 10:00","2009","08","21","10:00","10.3","","10.3","","100","","3","","28","","","","97.36","","","","","","NA"
"2009-08-21 11:00","2009","08","21","11:00","11.0","","11.0","","100","","3","","20","","","","97.47","","","","","","NA"
"2009-08-21 12:00","2009","08","21","12:00","11.6","","11.6","","100","","3","","17","","","","97.55","","","","","","NA"
"2009-08-21 13:00","2009","08","21","13:00","12.8","","12.8","","100","","2","","20","","","","97.63","","","","","","NA"
"2009-08-21 14:00","2009","08","21","14:00","14.0","","12.9","","93","","1","","20","","","","97.68","","","","","","NA"
"2009-08-21 15:00","2009","08","21","15:00","13.6","","12.6","","94","","36","","20","","","","97.76","","","","","","NA"
"2009-08-21 16:00","2009","08","21","16:00","13.3","","11.9","","91","","35","","20","","","","97.85","","","","","","NA"
"2009-08-21 17:00","2009","08","21","17:00","13.5","","12.2","","92","","36","","17","","","","97.92","","","","","","NA"
"2009-08-21 18:00","2009","08","21","18:00","13.1","","12.1","","94","","35","","15","","","","98.03","","","","","","NA"
"2009-08-21 19:00","2009","08","21","19:00","11.5","","11.5","","100","","36","","19","","","","98.15","","","","","","NA"
"2009-08-21 20:00","2009","08","21","20:00","11.3","","11.3","","100","","35","","17","","","","98.24","","","","","","NA"
"2009-08-21 21:00","2009","08","21","21:00","11.4","","11.4","","100","","35","","13","","","","98.33","","","","","","NA"
"2009-08-21 22:00","2009","08","21","22:00","11.5","","11.5","","100","","35","","15","","","","98.39","","","","","","NA"
"2009-08-21 23:00","2009","08","21","23:00","11.2","","11.2","","100","","35","","13","","","","98.47","","","","","","NA"
"2009-08-22 00:00","2009","08","22","00:00","11.2","","11.2","","100","","36","","15","","","","98.53","","","","","","NA"
"2009-08-22 01:00","2009","08","22","01:00","11.4","","11.4","","100","","36","","13","","","","98.59","","","","","","NA"
"2009-08-22 02:00","2009","08","22","02:00","11.2","","11.2","","100","","2","","15","","","","98.64","","","","","","NA"
"2009-08-22 03:00","2009","08","22","03:00","11.1","","11.0","","99","","2","","13","","","","98.71","","","","","","NA"
"2009-08-22 04:00","2009","08","22","04:00","10.7","","10.5","","99","","2","","13","","","","98.80","","","","","","NA"
"2009-08-22 05:00","2009","08","22","05:00","10.5","","10.3","","99","","3","","11","","","","98.87","","","","","","NA"
"2009-08-22 06:00","2009","08","22","06:00","10.3","","10.2","","99","","3","","13","","","","98.93","","","","","","NA"
"2009-08-22 07:00","2009","08","22","07:00","10.9","","10.3","","96","","3","","9","","","","99.02","","","","","","NA"
"2009-08-22 08:00","2009","08","22","08:00","10.9","","10.4","","97","","4","","17","","","","99.07","","","","","","NA"
"2009-08-22 09:00","2009","08","22","09:00","11.5","","10.5","","94","","4","","19","","","","99.13","","","","","","NA"
"2009-08-22 10:00","2009","08","22","10:00","12.4","","10.4","","88","","3","","17","","","","99.21","","","","","","NA"
"2009-08-22 11:00","2009","08","22","11:00","12.9","","10.0","","83","","4","","17","","","","99.27","","","","","","NA"
"2009-08-22 12:00","2009","08","22","12:00","14.4","","10.3","","76","","2","","15","","","","99.30","","","","","","NA"
"2009-08-22 13:00","2009","08","22","13:00","15.0","","10.6","","75","","6","","15","","","","99.32","","","","","","NA"
"2009-08-22 14:00","2009","08","22","14:00","16.1","","11.1","","72","","4","","13","","","","99.33","","","","","","NA"
"2009-08-22 15:00","2009","08","22","15:00","16.0","","11.4","","74","","3","","15","","","","99.30","","","","","","NA"
"2009-08-22 16:00","2009","08","22","16:00","16.6","","11.3","","71","","7","","15","","","","99.27","","","","","","NA"
"2009-08-22 17:00","2009","08","22","17:00","16.3","","11.2","","72","","6","","15","","","","99.28","","","","","","NA"
"2009-08-22 18:00","2009","08","22","18:00","15.5","","11.6","","78","","5","","15","","","","99.31","","","","","","NA"
"2009-08-22 19:00","2009","08","22","19:00","14.2","","11.3","","83","","5","","17","","","","99.34","","","","","","NA"
"2009-08-22 20:00","2009","08","22","20:00","12.0","","11.3","","95","","8","","6","","","","99.36","","","","","","NA"
"2009-08-22 21:00","2009","08","22","21:00","10.7","","10.7","","100","","10","","13","","","","99.42","","","","","","NA"
"2009-08-22 22:00","2009","08","22","22:00","9.3","","9.3","","100","","9","","6","","","","99.46","","","","","","NA"
"2009-08-22 23:00","2009","08","22","23:00","8.5","","8.5","","100","","5","","4","","","","99.47","","","","","","NA"
"2009-08-23 00:00","2009","08","23","00:00","7.7","","7.7","","100","","6","","7","","","","99.45","","","","","","NA"
"2009-08-23 01:00","2009","08","23","01:00","7.2","","7.2","","100","","6","","7","","","","99.44","","","","","","NA"
"2009-08-23 02:00","2009","08","23","02:00","6.8","","6.8","","100","","6","","11","","","","99.44","","","","","","NA"
"2009-08-23 03:00","2009","08","23","03:00","6.6","","6.6","","100","","6","","9","","","","99.41","","","","","","NA"
"2009-08-23 04:00","2009","08","23","04:00","5.4","","5.4","","100","","4","","13","","","","99.42","","","","","","NA"
"2009-08-23 05:00","2009","08","23","05:00","5.3","","5.3","","100","","4","","13","","","","99.43","","","","","","NA"
"2009-08-23 06:00","2009","08","23","06:00","5.0","","5.0","","100","","5","","11","","","","99.42","","","","","","NA"
"2009-08-23 07:00","2009","08","23","07:00","5.4","","5.4","","100","","4","","15","","","","99.44","","","","","","NA"
"2009-08-23 08:00","2009","08","23","08:00","9.2","","9.2","","100","","6","","9","","","","99.43","","","","","","NA"
"2009-08-23 09:00","2009","08","23","09:00","12.7","","11.1","","90","","16","","2","","","","99.43","","","","","","NA"
"2009-08-23 10:00","2009","08","23","10:00","13.3","","12.5","","95","","17","","6","","","","99.40","","","","","","NA"
"2009-08-23 11:00","2009","08","23","11:00","14.1","","11.5","","84","","21","","11","","","","99.43","","","","","","NA"
"2009-08-23 12:00","2009","08","23","12:00","14.2","","11.7","","85","","22","","13","","","","99.40","","","","","","NA"
"2009-08-23 13:00","2009","08","23","13:00","14.8","","12.0","","83","","21","","17","","","","99.37","","","","","","NA"
"2009-08-23 14:00","2009","08","23","14:00","15.8","","11.8","","77","","24","","15","","","","99.34","","","","","","NA"
"2009-08-23 15:00","2009","08","23","15:00","15.6","","12.2","","80","","24","","15","","","","99.31","","","","","","NA"
"2009-08-23 16:00","2009","08","23","16:00","15.8","","12.1","","79","","24","","15","","","","99.24","","","","","","NA"
"2009-08-23 17:00","2009","08","23","17:00","14.8","","11.8","","82","","25","","15","","","","99.22","","","","","","NA"
"2009-08-23 18:00","2009","08","23","18:00","13.3","","11.9","","91","","25","","15","","","","99.19","","","","","","NA"
"2009-08-23 19:00","2009","08","23","19:00","13.0","","12.0","","94","","23","","17","","","","99.16","","","","","","NA"
"2009-08-23 20:00","2009","08","23","20:00","12.0","","11.6","","97","","22","","13","","","","99.14","","","","","","NA"
"2009-08-23 21:00","2009","08","23","21:00","11.8","","11.6","","99","","21","","15","","","","99.14","","","","","","NA"
"2009-08-23 22:00","2009","08","23","22:00","9.8","","9.8","","100","","12","","6","","","","99.17","","","","","","NA"
"2009-08-23 23:00","2009","08","23","23:00","9.1","","9.1","","100","","8","","4","","","","99.17","","","","","","NA"
"2009-08-24 00:00","2009","08","24","00:00","9.2","","9.2","","100","","9","","7","","","","99.14","","","","","","NA"
"2009-08-24 01:00","2009","08","24","01:00","9.7","","9.7","","100","","12","","6","","","","99.13","","","","","","NA"
"2009-08-24 02:00","2009","08","24","02:00","12.2","","12.2","","100","","19","","20","","","","99.13","","","","","","NA"
"2009-08-24 03:00","2009","08","24","03:00","12.1","","12.1","","100","","19","","19","","","","99.13","","","","","","NA"
"2009-08-24 04:00","2009","08","24","04:00","11.7","","11.7","","100","","17","","7","","","","99.13","","","","","","NA"
"2009-08-24 05:00","2009","08","24","05:00","9.8","","9.8","","100","","10","","4","","","","99.12","","","","","","NA"
"2009-08-24 06:00","2009","08","24","06:00","9.9","","9.9","","100","","11","","6","","","","99.10","","","","","","NA"
"2009-08-24 07:00","2009","08","24","07:00","10.1","","10.1","","100","","10","","6","","","","99.12","","","","","","NA"
"2009-08-24 08:00","2009","08","24","08:00","14.8","","14.7","","99","","19","","15","","","","99.18","","","","","","NA"
"2009-08-24 09:00","2009","08","24","09:00","15.6","","15.2","","97","","18","","17","","","","99.17","","","","","","NA"
"2009-08-24 10:00","2009","08","24","10:00","16.3","","15.4","","94","","20","","20","","","","99.20","","","","","","NA"
"2009-08-24 11:00","2009","08","24","11:00","17.1","","15.9","","93","","20","","22","","","","99.23","","","","","","NA"
"2009-08-24 12:00","2009","08","24","12:00","17.4","","16.1","","92","","20","","19","","","","99.22","","","","","","NA"
"2009-08-24 13:00","2009","08","24","13:00","17.8","","16.3","","91","","19","","15","","","","99.17","","","","","","NA"
"2009-08-24 14:00","2009","08","24","14:00","17.7","","16.2","","91","","18","","20","","","","99.13","","","","","","NA"
"2009-08-24 15:00","2009","08","24","15:00","17.1","","16.3","","95","","19","","17","","","","99.09","","","","","","NA"
"2009-08-24 16:00","2009","08","24","16:00","17.0","","16.0","","94","","18","","19","","","","99.00","","","","","","NA"
"2009-08-24 17:00","2009","08","24","17:00","16.7","","16.0","","96","","16","","11","","","","98.97","","","","","","NA"
"2009-08-24 18:00","2009","08","24","18:00","16.7","","16.1","","96","","15","","6","","","","98.93","","","","","","NA"
"2009-08-24 19:00","2009","08","24","19:00","17.5","","16.5","","94","","15","","11","","","","98.85","","","","","","NA"
"2009-08-24 20:00","2009","08","24","20:00","19.3","","16.8","","85","","13","","13","","","","98.68","","","","","","NA"
"2009-08-24 21:00","2009","08","24","21:00","20.0","","16.9","","82","","16","","19","","","","98.69","","25","","","","NA"
"2009-08-24 22:00","2009","08","24","22:00","17.5","","17.3","","99","","17","","28","","","","98.80","","","","","","NA"
"2009-08-24 23:00","2009","08","24","23:00","17.8","","17.8","","100","","16","","19","","","","98.83","","","","","","NA"
"2009-08-25 00:00","2009","08","25","00:00","17.3","","17.3","","100","","17","","35","","","","98.66","","","","","","NA"
"2009-08-25 01:00","2009","08","25","01:00","16.9","","16.9","","100","","17","","37","","","","98.56","","","","","","NA"
"2009-08-25 02:00","2009","08","25","02:00","15.9","","15.9","","100","","17","","39","","","","98.50","","","","","","NA"
"2009-08-25 03:00","2009","08","25","03:00","15.7","","15.7","","100","","17","","39","","","","98.38","","","","","","NA"
"2009-08-25 04:00","2009","08","25","04:00","15.7","","15.7","","100","","17","","35","","","","98.35","","","","","","NA"
"2009-08-25 05:00","2009","08","25","05:00","15.6","","15.6","","100","","17","","37","","","","98.32","","","","","","NA"
"2009-08-25 06:00","2009","08","25","06:00","15.5","","15.5","","100","","17","","41","","","","98.22","","","","","","NA"
"2009-08-25 07:00","2009","08","25","07:00","15.3","","15.3","","100","","18","","37","","","","98.10","","","","","","NA"
"2009-08-25 08:00","2009","08","25","08:00","15.3","","15.3","","100","","18","","39","","","","98.11","","","","","","NA"
"2009-08-25 09:00","2009","08","25","09:00","15.0","","15.0","","100","","19","","39","","","","98.04","","","","","","NA"
"2009-08-25 10:00","2009","08","25","10:00","15.1","","15.1","","100","","22","","37","","","","98.05","","","","","","NA"
"2009-08-25 11:00","2009","08","25","11:00","14.4","","14.4","","100","","24","","28","","","","98.13","","","","","","NA"
"2009-08-25 12:00","2009","08","25","12:00","15.6","","15.6","","100","","25","","22","","","","98.13","","","","","","NA"
"2009-08-25 13:00","2009","08","25","13:00","16.4","","15.7","","96","","28","","30","","","","98.07","","","","","","NA"
"2009-08-25 14:00","2009","08","25","14:00","17.2","","15.8","","91","","28","","24","","","","98.14","","","","","","NA"
"2009-08-25 15:00","2009","08","25","15:00","20.4","","14.8","","70","","33","","30","","","","98.27","","","","","","NA"
"2009-08-25 16:00","2009","08","25","16:00","19.4","","15.4","","78","","31","","15","","","","98.36","","","","","","NA"
"2009-08-25 17:00","2009","08","25","17:00","19.8","","14.2","","70","","32","","20","","","","98.49","","","","","","NA"
"2009-08-25 18:00","2009","08","25","18:00","18.4","","14.7","","79","","32","","17","","","","98.60","","","","","","NA"
"2009-08-25 19:00","2009","08","25","19:00","18.3","","13.2","","72","","34","","17","","","","98.70","","","","","","NA"
"2009-08-25 20:00","2009","08","25","20:00","16.7","","12.2","","75","","34","","17","","","","98.80","","","","","","NA"
"2009-08-25 21:00","2009","08","25","21:00","14.9","","11.0","","77","","1","","15","","","","98.98","","","","","","NA"
"2009-08-25 22:00","2009","08","25","22:00","13.4","","10.2","","81","","36","","13","","","","99.09","","","","","","NA"
"2009-08-25 23:00","2009","08","25","23:00","11.8","","10.5","","92","","3","","11","","","","99.16","","","","","","NA"
"2009-08-26 00:00","2009","08","26","00:00","11.0","","9.7","","92","","4","","11","","","","99.22","","","","","","NA"
"2009-08-26 01:00","2009","08","26","01:00","9.6","","8.8","","95","","3","","6","","","","99.29","","","","","","NA"
"2009-08-26 02:00","2009","08","26","02:00","8.5","","8.4","","99","","2","","9","","","","99.36","","","","","","NA"
"2009-08-26 03:00","2009","08","26","03:00","8.0","","7.9","","99","","2","","11","","","","99.42","","","","","","NA"
"2009-08-26 04:00","2009","08","26","04:00","7.4","","7.1","","98","","1","","6","","","","99.49","","","","","","NA"
"2009-08-26 05:00","2009","08","26","05:00","6.6","","6.6","","100","","6","","6","","","","99.52","","","","","","NA"
"2009-08-26 06:00","2009","08","26","06:00","5.8","","5.8","","100","","35","","6","","","","99.61","","","","","","NA"
"2009-08-26 07:00","2009","08","26","07:00","6.1","","6.1","","100","","36","","6","","","","99.67","","","","","","NA"
"2009-08-26 08:00","2009","08","26","08:00","9.7","","8.0","","89","","9","","9","","","","99.71","","","","","","NA"
"2009-08-26 09:00","2009","08","26","09:00","11.0","","7.7","","80","","4","","13","","","","99.74","","","","","","NA"
"2009-08-26 10:00","2009","08","26","10:00","13.1","","8.3","","73","","6","","7","","","","99.77","","","","","","NA"
"2009-08-26 11:00","2009","08","26","11:00","13.6","","9.1","","74","","26","","13","","","","99.76","","","","","","NA"
"2009-08-26 12:00","2009","08","26","12:00","13.8","","8.6","","71","","28","","11","","","","99.76","","","","","","NA"
"2009-08-26 13:00","2009","08","26","13:00","14.1","","9.7","","75","","29","","15","","","","99.72","","","","","","NA"
"2009-08-26 14:00","2009","08","26","14:00","14.0","","10.4","","79","","28","","19","","","","99.73","","","","","","NA"
"2009-08-26 15:00","2009","08","26","15:00","13.8","","10.9","","83","","27","","17","","","","99.74","","","","","","NA"
"2009-08-26 16:00","2009","08","26","16:00","13.8","","11.1","","84","","28","","17","","","","99.69","","","","","","NA"
"2009-08-26 17:00","2009","08","26","17:00","14.3","","11.8","","85","","30","","11","","","","99.66","","","","","","NA"
"2009-08-26 18:00","2009","08","26","18:00","14.3","","12.5","","89","","26","","7","","","","99.66","","","","","","NA"
"2009-08-26 19:00","2009","08","26","19:00","13.2","","12.0","","92","","29","","9","","","","99.68","","","","","","NA"
"2009-08-26 20:00","2009","08","26","20:00","11.9","","11.3","","96","","25","","6","","","","99.67","","","","","","NA"
"2009-08-26 21:00","2009","08","26","21:00","11.2","","11.2","","100","","14","","4","","","","99.68","","","","","","NA"
"2009-08-26 22:00","2009","08","26","22:00","9.9","","9.9","","100","","8","","6","","","","99.69","","","","","","NA"
"2009-08-26 23:00","2009","08","26","23:00","9.7","","9.7","","100","","8","","6","","","","99.69","","","","","","NA"
"2009-08-27 00:00","2009","08","27","00:00","10.1","","10.1","","100","","10","","7","","","","99.63","","","","","","NA"
"2009-08-27 01:00","2009","08","27","01:00","10.2","","10.2","","100","","7","","7","","","","99.62","","","","","","NA"
"2009-08-27 02:00","2009","08","27","02:00","10.5","","10.5","","100","","9","","7","","","","99.56","","","","","","NA"
"2009-08-27 03:00","2009","08","27","03:00","10.9","","10.9","","100","","10","","4","","","","99.48","","","","","","NA"
"2009-08-27 04:00","2009","08","27","04:00","10.6","","10.6","","100","","7","","9","","","","99.51","","","","","","NA"
"2009-08-27 05:00","2009","08","27","05:00","10.7","","10.7","","100","","12","","7","","","","99.53","","","","","","NA"
"2009-08-27 06:00","2009","08","27","06:00","10.5","","10.5","","100","","9","","4","","","","99.56","","","","","","NA"
"2009-08-27 07:00","2009","08","27","07:00","12.5","","12.5","","100","","19","","13","","","","99.56","","","","","","NA"
"2009-08-27 08:00","2009","08","27","08:00","12.1","","12.0","","99","","18","","24","","","","99.52","","","","","","NA"
"2009-08-27 09:00","2009","08","27","09:00","11.6","","11.6","","100","","19","","28","","","","99.49","","","","","","NA"
"2009-08-27 10:00","2009","08","27","10:00","11.3","","11.3","","100","","19","","39","","","","99.43","","","","","","NA"
"2009-08-27 11:00","2009","08","27","11:00","11.8","","11.4","","97","","18","","33","","","","99.44","","","","","","NA"
"2009-08-27 12:00","2009","08","27","12:00","13.4","","12.4","","94","","17","","26","","","","99.43","","","","","","NA"
"2009-08-27 13:00","2009","08","27","13:00","13.6","","12.6","","94","","20","","32","","","","99.44","","","","","","NA"
"2009-08-27 14:00","2009","08","27","14:00","13.6","","13.1","","97","","19","","24","","","","99.44","","","","","","NA"
"2009-08-27 15:00","2009","08","27","15:00","13.6","","13.6","","100","","19","","11","","","","99.44","","","","","","NA"
"2009-08-27 16:00","2009","08","27","16:00","13.6","","13.6","","100","","18","","6","","","","99.46","","","","","","NA"
"2009-08-27 17:00","2009","08","27","17:00","12.7","","12.7","","100","","7","","9","","","","99.48","","","","","","NA"
"2009-08-27 18:00","2009","08","27","18:00","12.0","","12.0","","100","","6","","15","","","","99.48","","","","","","NA"
"2009-08-27 19:00","2009","08","27","19:00","11.9","","11.9","","100","","7","","13","","","","99.49","","","","","","NA"
"2009-08-27 20:00","2009","08","27","20:00","11.9","","11.9","","100","","7","","13","","","","99.51","","","","","","NA"
"2009-08-27 21:00","2009","08","27","21:00","11.6","","11.6","","100","","6","","17","","","","99.57","","","","","","NA"
"2009-08-27 22:00","2009","08","27","22:00","11.4","","11.4","","100","","4","","13","","","","99.61","","","","","","NA"
"2009-08-27 23:00","2009","08","27","23:00","11.1","","11.1","","100","","6","","13","","","","99.52","","","","","","NA"
"2009-08-28 00:00","2009","08","28","00:00","10.9","","10.9","","100","","6","","20","","","","99.49","","","","","","NA"
"2009-08-28 01:00","2009","08","28","01:00","10.9","","10.9","","100","","8","","15","","","","99.49","","","","","","NA"
"2009-08-28 02:00","2009","08","28","02:00","10.8","","10.8","","100","","8","","20","","","","99.44","","","","","","NA"
"2009-08-28 03:00","2009","08","28","03:00","10.8","","10.8","","100","","8","","20","","","","99.39","","","","","","NA"
"2009-08-28 04:00","2009","08","28","04:00","10.8","","10.8","","100","","8","","17","","","","99.38","","","","","","NA"
"2009-08-28 05:00","2009","08","28","05:00","10.6","","10.6","","100","","7","","17","","","","99.38","","","","","","NA"
"2009-08-28 06:00","2009","08","28","06:00","10.4","","10.4","","100","","6","","15","","","","99.37","","","","","","NA"
"2009-08-28 07:00","2009","08","28","07:00","10.3","","10.3","","100","","6","","17","","","","99.34","","","","","","NA"
"2009-08-28 08:00","2009","08","28","08:00","10.3","","10.3","","100","","6","","17","","","","99.32","","","","","","NA"
"2009-08-28 09:00","2009","08","28","09:00","10.5","","10.5","","100","","8","","17","","","","99.28","","","","","","NA"
"2009-08-28 10:00","2009","08","28","10:00","10.7","","10.7","","100","","8","","15","","","","99.24","","","","","","NA"
"2009-08-28 11:00","2009","08","28","11:00","11.0","","11.0","","100","","7","","15","","","","99.24","","","","","","NA"
"2009-08-28 12:00","2009","08","28","12:00","11.3","","11.3","","100","","7","","15","","","","99.23","","","","","","NA"
"2009-08-28 13:00","2009","08","28","13:00","11.2","","11.2","","100","","7","","17","","","","99.18","","","","","","NA"
"2009-08-28 14:00","2009","08","28","14:00","11.1","","11.1","","100","","8","","17","","","","99.16","","","","","","NA"
"2009-08-28 15:00","2009","08","28","15:00","11.2","","11.2","","100","","7","","19","","","","99.13","","","","","","NA"
"2009-08-28 16:00","2009","08","28","16:00","11.3","","11.3","","100","","8","","19","","","","99.08","","","","","","NA"
"2009-08-28 17:00","2009","08","28","17:00","11.2","","11.2","","100","","7","","19","","","","99.05","","","","","","NA"
"2009-08-28 18:00","2009","08","28","18:00","11.3","","11.3","","100","","8","","17","","","","99.04","","","","","","NA"
"2009-08-28 19:00","2009","08","28","19:00","11.2","","11.2","","100","","7","","17","","","","99.00","","","","","","NA"
"2009-08-28 20:00","2009","08","28","20:00","11.2","","11.2","","100","","7","","11","","","","99.01","","","","","","NA"
"2009-08-28 21:00","2009","08","28","21:00","11.2","","11.2","","100","","7","","13","","","","99.00","","","","","","NA"
"2009-08-28 22:00","2009","08","28","22:00","11.2","","11.2","","100","","7","","17","","","","98.95","","","","","","NA"
"2009-08-28 23:00","2009","08","28","23:00","11.0","","11.0","","100","","6","","19","","","","98.90","","","","","","NA"
"2009-08-29 00:00","2009","08","29","00:00","10.8","","10.8","","100","","5","","20","","","","98.85","","","","","","NA"
"2009-08-29 01:00","2009","08","29","01:00","10.9","","10.9","","100","","7","","20","","","","98.83","","","","","","NA"
"2009-08-29 02:00","2009","08","29","02:00","10.9","","10.9","","100","","7","","22","","","","98.81","","","","","","NA"
"2009-08-29 03:00","2009","08","29","03:00","10.6","","10.6","","100","","5","","22","","","","98.80","","","","","","NA"
"2009-08-29 04:00","2009","08","29","04:00","10.6","","10.6","","100","","5","","22","","","","98.78","","","","","","NA"
"2009-08-29 05:00","2009","08","29","05:00","10.5","","10.5","","100","","5","","20","","","","98.79","","","","","","NA"
"2009-08-29 06:00","2009","08","29","06:00","10.1","","10.1","","100","","5","","24","","","","98.79","","","","","","NA"
"2009-08-29 07:00","2009","08","29","07:00","9.6","","9.6","","100","","5","","26","","","","98.82","","","","","","NA"
"2009-08-29 08:00","2009","08","29","08:00","9.6","","9.6","","100","","5","","24","","","","98.85","","","","","","NA"
"2009-08-29 09:00","2009","08","29","09:00","10.1","","10.1","","100","","4","","20","","","","98.89","","","","","","NA"
"2009-08-29 10:00","2009","08","29","10:00","11.1","","11.1","","100","","4","","17","","","","98.96","","","","","","NA"
"2009-08-29 11:00","2009","08","29","11:00","12.4","","12.3","","99","","4","","20","","","","98.96","","","","","","NA"
"2009-08-29 12:00","2009","08","29","12:00","13.4","","10.5","","83","","4","","30","","","","98.96","","","","","","NA"
"2009-08-29 13:00","2009","08","29","13:00","14.6","","10.2","","75","","5","","28","","","","98.97","","","","","","NA"
"2009-08-29 14:00","2009","08","29","14:00","15.3","","8.9","","66","","4","","30","","","","98.98","","","","","","NA"
"2009-08-29 15:00","2009","08","29","15:00","15.9","","7.1","","56","","5","","24","","","","98.96","","","","","","NA"
"2009-08-29 16:00","2009","08","29","16:00","16.6","","7.6","","55","","3","","19","","","","98.95","","","","","","NA"
"2009-08-29 17:00","2009","08","29","17:00","16.1","","7.4","","56","","3","","17","","","","99.01","","","","","","NA"
"2009-08-29 18:00","2009","08","29","18:00","14.6","","5.9","","56","","3","","24","","","","99.08","","","","","","NA"
"2009-08-29 19:00","2009","08","29","19:00","13.0","","6.9","","66","","2","","13","","","","99.11","","","","","","NA"
"2009-08-29 20:00","2009","08","29","20:00","11.0","","6.4","","73","","2","","11","","","","99.17","","","","","","NA"
"2009-08-29 21:00","2009","08","29","21:00","9.9","","6.4","","79","","1","","7","","","","99.22","","","","","","NA"
"2009-08-29 22:00","2009","08","29","22:00","8.9","","6.4","","84","","2","","11","","","","99.23","","","","","","NA"
"2009-08-29 23:00","2009","08","29","23:00","8.2","","6.3","","88","","3","","11","","","","99.23","","","","","","NA"
"2009-08-30 00:00","2009","08","30","00:00","7.3","","6.1","","92","","3","","11","","","","99.25","","","","","","NA"
"2009-08-30 01:00","2009","08","30","01:00","6.7","","6.1","","96","","3","","15","","","","99.25","","","","","","NA"
"2009-08-30 02:00","2009","08","30","02:00","5.7","","5.6","","99","","3","","13","","","","99.26","","","","","","NA"
"2009-08-30 03:00","2009","08","30","03:00","5.0","","5.0","","100","","1","","11","","","","99.29","","","","","","NA"
"2009-08-30 04:00","2009","08","30","04:00","4.8","","4.8","","100","","2","","13","","","","99.33","","","","","","NA"
"2009-08-30 05:00","2009","08","30","05:00","4.9","","4.9","","100","","2","","13","","","","99.35","","","","","","NA"
"2009-08-30 06:00","2009","08","30","06:00","4.9","","4.9","","100","","2","","17","","","","99.41","","","","","","NA"
"2009-08-30 07:00","2009","08","30","07:00","4.8","","4.7","","99","","36","","11","","","","99.48","","","","","","NA"
"2009-08-30 08:00","2009","08","30","08:00","7.4","","5.9","","90","","3","","13","","","","99.52","","","","","","NA"
"2009-08-30 09:00","2009","08","30","09:00","10.0","","7.3","","83","","3","","7","","","","99.55","","","","","","NA"
"2009-08-30 10:00","2009","08","30","10:00","12.1","","6.1","","67","","36","","11","","","","99.52","","","","","","NA"
"2009-08-30 11:00","2009","08","30","11:00","13.6","","5.3","","57","","34","","15","","","","99.51","","","","","","NA"
"2009-08-30 12:00","2009","08","30","12:00","15.0","","5.7","","54","","35","","9","","","","99.47","","","","","","NA"
"2009-08-30 13:00","2009","08","30","13:00","14.8","","6.1","","56","","33","","9","","","","99.46","","","","","","NA"
"2009-08-30 14:00","2009","08","30","14:00","16.4","","6.2","","51","","30","","11","","","","99.44","","","","","","NA"
"2009-08-30 15:00","2009","08","30","15:00","15.1","","10.0","","72","","26","","20","","","","99.43","","","","","","NA"
"2009-08-30 16:00","2009","08","30","16:00","15.3","","10.6","","74","","26","","19","","","","99.44","","","","","","NA"
"2009-08-30 17:00","2009","08","30","17:00","14.6","","10.2","","75","","26","","22","","","","99.45","","","","","","NA"
"2009-08-30 18:00","2009","08","30","18:00","14.6","","11.2","","80","","26","","13","","","","99.47","","","","","","NA"
"2009-08-30 19:00","2009","08","30","19:00","14.2","","11.5","","84","","27","","6","","","","99.48","","","","","","NA"
"2009-08-30 20:00","2009","08","30","20:00","11.7","","11.3","","97","","10","","2","","","","99.49","","","","","","NA"
"2009-08-30 21:00","2009","08","30","21:00","9.8","","9.8","","100","","11","","6","","","","99.53","","","","","","NA"
"2009-08-30 22:00","2009","08","30","22:00","8.9","","8.9","","100","","8","","6","","","","99.56","","","","","","NA"
"2009-08-30 23:00","2009","08","30","23:00","9.6","","9.6","","100","","32","","4","","","","99.59","","","","","","NA"
"2009-08-31 00:00","2009","08","31","00:00","12.6","","10.7","","88","","29","","11","","","","99.59","","","","","","NA"
"2009-08-31 01:00","2009","08","31","01:00","12.6","","11.1","","91","","29","","11","","","","99.59","","","","","","NA"
"2009-08-31 02:00","2009","08","31","02:00","12.2","","11.4","","95","","28","","11","","","","99.58","","","","","","NA"
"2009-08-31 03:00","2009","08","31","03:00","10.0","","10.0","","100","","25","","4","","","","99.60","","","","","","NA"
"2009-08-31 04:00","2009","08","31","04:00","10.7","","10.7","","100","","20","","7","","","","99.61","","","","","","NA"
"2009-08-31 05:00","2009","08","31","05:00","9.1","","9.1","","100","","16","","7","","","","99.59","","","","","","NA"
"2009-08-31 06:00","2009","08","31","06:00","10.4","","10.4","","100","","17","","7","","","","99.63","","","","","","NA"
"2009-08-31 07:00","2009","08","31","07:00","11.9","","11.9","","100","","19","","15","","","","99.68","","","","","","NA"
"2009-08-31 08:00","2009","08","31","08:00","12.8","","12.5","","98","","20","","19","","","","99.69","","","","","","NA"
"2009-08-31 09:00","2009","08","31","09:00","14.0","","12.8","","92","","20","","20","","","","99.67","","","","","","NA"
"2009-08-31 10:00","2009","08","31","10:00","13.7","","13.0","","96","","20","","15","","","","99.70","","","","","","NA"
"2009-08-31 11:00","2009","08","31","11:00","15.1","","13.3","","89","","20","","20","","","","99.72","","","","","","NA"
"2009-08-31 12:00","2009","08","31","12:00","15.4","","13.0","","86","","20","","22","","","","99.68","","","","","","NA"
"2009-08-31 13:00","2009","08","31","13:00","16.0","","13.4","","85","","20","","20","","","","99.66","","","","","","NA"
"2009-08-31 14:00","2009","08","31","14:00","15.7","","13.0","","84","","20","","26","","","","99.66","","","","","","NA"
"2009-08-31 15:00","2009","08","31","15:00","16.4","","13.8","","85","","20","","19","","","","99.62","","","","","","NA"
"2009-08-31 16:00","2009","08","31","16:00","16.1","","13.6","","85","","20","","17","","","","99.58","","","","","","NA"
"2009-08-31 17:00","2009","08","31","17:00","15.6","","13.2","","86","","20","","15","","","","99.55","","","","","","NA"
"2009-08-31 18:00","2009","08","31","18:00","14.8","","13.5","","92","","20","","15","","","","99.54","","","","","","NA"
"2009-08-31 19:00","2009","08","31","19:00","14.0","","13.0","","94","","21","","11","","","","99.53","","","","","","NA"
"2009-08-31 20:00","2009","08","31","20:00","12.9","","12.5","","97","","25","","7","","","","99.56","","","","","","NA"
"2009-08-31 21:00","2009","08","31","21:00","12.9","","12.6","","98","","25","","7","","","","99.56","","","","","","NA"
"2009-08-31 22:00","2009","08","31","22:00","12.9","","12.5","","97","","26","","9","","","","99.59","","","","","","NA"
"2009-08-31 23:00","2009","08","31","23:00","12.8","","12.7","","99","","22","","9","","","","99.59","","","","","","NA"
