"Station Name","PUKASKWA (AUT)"
"Province","ONTARIO"
"Latitude","48.59"
"Longitude","-86.29"
"Elevation","207.60"
"Climate Identifier","6046767"
"WMO Identifier","71750"
"TC Identifier","WCJ"
"All times are specified in Local Standard Time (LST). Add 1 hour to adjust for Daylight Saving Time where and when it is observed."

"Legend"
"E","Estimated"
"M","Missing"
"NA","Not Available"

"Date/Time","Year","Month","Day","Time","Temp (°C)","Temp Flag","Dew Point Temp (°C)","Dew Point Temp Flag","Rel Hum (%)","Rel Hum Flag","Wind Dir (10s deg)","Wind Dir Flag","Wind Spd (km/h)","Wind Spd Flag","Visibility (km)","Visibility Flag","Stn Press (kPa)","Stn Press Flag","Hmdx","Hmdx Flag","Wind Chill","Wind Chill Flag","Weather"
"2009-07-01 00:00","2009","07","01","00:00","10.5","","10.5","","100","","4","","13","","","","97.90","","","","","","NA"
"2009-07-01 01:00","2009","07","01","01:00","10.5","","10.5","","100","","4","","15","","","","97.92","","","","","","NA"
"2009-07-01 02:00","2009","07","01","02:00","10.3","","10.3","","100","","4","","11","","","","97.94","","","","","","NA"
"2009-07-01 03:00","2009","07","01","03:00","10.2","","10.2","","100","","3","","15","","","","97.95","","","","","","NA"
"2009-07-01 04:00","2009","07","01","04:00","10.0","","10.0","","100","","4","","19","","","","97.98","","","","","","NA"
"2009-07-01 05:00","2009","07","01","05:00","9.9","","9.9","","100","","5","","19","","","","98.05","","","","","","NA"
"2009-07-01 06:00","2009","07","01","06:00","10.0","","10.0","","100","","4","","17","","","","98.06","","","","","","NA"
"2009-07-01 07:00","2009","07","01","07:00","10.4","","10.4","","100","","5","","15","","","","98.14","","","","","","NA"
"2009-07-01 08:00","2009","07","01","08:00","11.1","","11.0","","99","","4","","20","","","","98.16","","","","","","NA"
"2009-07-01 09:00","2009","07","01","09:00","12.8","","12.1","","96","","4","","19","","","","98.16","","","","","","NA"
"2009-07-01 10:00","2009","07","01","10:00","12.7","","12.1","","96","","5","","20","","","","98.18","","","","","","NA"
"2009-07-01 11:00","2009","07","01","11:00","13.5","","12.6","","94","","4","","11","","","","98.22","","","","","","NA"
"2009-07-01 12:00","2009","07","01","12:00","15.5","","13.8","","90","","3","","13","","","","98.20","","","","","","NA"
"2009-07-01 13:00","2009","07","01","13:00","15.2","","14.0","","93","","4","","17","","","","98.20","","","","","","NA"
"2009-07-01 14:00","2009","07","01","14:00","16.3","","14.9","","91","","3","","11","","","","98.19","","","","","","NA"
"2009-07-01 15:00","2009","07","01","15:00","16.4","","14.6","","89","","4","","15","","","","98.19","","","","","","NA"
"2009-07-01 16:00","2009","07","01","16:00","15.8","","14.2","","90","","3","","13","","","","98.26","","","","","","NA"
"2009-07-01 17:00","2009","07","01","17:00","15.2","","14.6","","96","","1","","15","","","","98.27","","","","","","NA"
"2009-07-01 18:00","2009","07","01","18:00","15.0","","14.6","","97","","2","","17","","","","98.30","","","","","","NA"
"2009-07-01 19:00","2009","07","01","19:00","14.4","","14.4","","100","","1","","13","","","","98.31","","","","","","NA"
"2009-07-01 20:00","2009","07","01","20:00","14.5","","14.5","","100","","1","","9","","","","98.38","","","","","","NA"
"2009-07-01 21:00","2009","07","01","21:00","14.3","","14.3","","100","","1","","7","","","","98.41","","","","","","NA"
"2009-07-01 22:00","2009","07","01","22:00","14.0","","14.0","","100","","4","","13","","","","98.43","","","","","","NA"
"2009-07-01 23:00","2009","07","01","23:00","13.4","","13.4","","100","","4","","15","","","","98.46","","","","","","NA"
"2009-07-02 00:00","2009","07","02","00:00","13.0","","13.0","","100","","2","","15","","","","98.46","","","","","","NA"
"2009-07-02 01:00","2009","07","02","01:00","12.4","","12.4","","100","","2","","9","","","","98.44","","","","","","NA"
"2009-07-02 02:00","2009","07","02","02:00","12.2","","12.2","","100","","2","","15","","","","98.47","","","","","","NA"
"2009-07-02 03:00","2009","07","02","03:00","12.1","","12.1","","100","","2","","13","","","","98.50","","","","","","NA"
"2009-07-02 04:00","2009","07","02","04:00","11.8","","11.8","","100","","3","","11","","","","98.49","","","","","","NA"
"2009-07-02 05:00","2009","07","02","05:00","11.5","","11.5","","100","","4","","13","","","","98.53","","","","","","NA"
"2009-07-02 06:00","2009","07","02","06:00","11.6","","11.6","","100","","1","","9","","","","98.59","","","","","","NA"
"2009-07-02 07:00","2009","07","02","07:00","12.0","","11.8","","99","","3","","11","","","","98.64","","","","","","NA"
"2009-07-02 08:00","2009","07","02","08:00","12.8","","12.1","","96","","2","","7","","","","98.67","","","","","","NA"
"2009-07-02 09:00","2009","07","02","09:00","13.2","","12.3","","94","","5","","17","","","","98.67","","","","","","NA"
"2009-07-02 10:00","2009","07","02","10:00","13.9","","12.8","","93","","3","","13","","","","98.69","","","","","","NA"
"2009-07-02 11:00","2009","07","02","11:00","14.1","","11.9","","87","","33","","6","","","","98.71","","","","","","NA"
"2009-07-02 12:00","2009","07","02","12:00","15.2","","11.8","","80","","33","","9","","","","98.74","","","","","","NA"
"2009-07-02 13:00","2009","07","02","13:00","13.3","","11.8","","91","","31","","19","","","","98.73","","","","","","NA"
"2009-07-02 14:00","2009","07","02","14:00","15.5","","12.8","","84","","32","","13","","","","98.72","","","","","","NA"
"2009-07-02 15:00","2009","07","02","15:00","17.2","","13.8","","80","","4","","15","","","","98.75","","","","","","NA"
"2009-07-02 16:00","2009","07","02","16:00","10.9","","10.3","","96","","30","","17","","","","98.77","","","","","","NA"
"2009-07-02 17:00","2009","07","02","17:00","12.8","","11.9","","94","","29","","7","","","","98.79","","","","","","NA"
"2009-07-02 18:00","2009","07","02","18:00","9.3","","9.2","","99","","24","","7","","","","98.83","","","","","","NA"
"2009-07-02 19:00","2009","07","02","19:00","10.8","","10.6","","99","","2","","2","","","","98.85","","","","","","NA"
"2009-07-02 20:00","2009","07","02","20:00","14.7","","13.1","","90","","2","","11","","","","98.87","","","","","","NA"
"2009-07-02 21:00","2009","07","02","21:00","13.9","","12.8","","93","","4","","13","","","","98.92","","","","","","NA"
"2009-07-02 22:00","2009","07","02","22:00","13.3","","12.5","","95","","2","","9","","","","98.96","","","","","","NA"
"2009-07-02 23:00","2009","07","02","23:00","12.6","","12.4","","99","","2","","7","","","","98.97","","","","","","NA"
"2009-07-03 00:00","2009","07","03","00:00","11.7","","11.7","","100","","35","","9","","","","98.99","","","","","","NA"
"2009-07-03 01:00","2009","07","03","01:00","10.9","","10.9","","100","","2","","9","","","","98.99","","","","","","NA"
"2009-07-03 02:00","2009","07","03","02:00","10.8","","10.8","","100","","2","","9","","","","99.04","","","","","","NA"
"2009-07-03 03:00","2009","07","03","03:00","10.8","","10.8","","100","","36","","6","","","","99.02","","","","","","NA"
"2009-07-03 04:00","2009","07","03","04:00","10.2","","10.2","","100","","32","","6","","","","99.05","","","","","","NA"
"2009-07-03 05:00","2009","07","03","05:00","10.4","","10.4","","100","","34","","6","","","","99.08","","","","","","NA"
"2009-07-03 06:00","2009","07","03","06:00","10.5","","10.5","","100","","33","","6","","","","99.07","","","","","","NA"
"2009-07-03 07:00","2009","07","03","07:00","10.0","","10.0","","100","","32","","11","","","","99.11","","","","","","NA"
"2009-07-03 08:00","2009","07","03","08:00","10.6","","10.1","","97","","32","","15","","","","99.13","","","","","","NA"
"2009-07-03 09:00","2009","07","03","09:00","10.0","","9.1","","94","","31","","11","","","","99.15","","","","","","NA"
"2009-07-03 10:00","2009","07","03","10:00","10.9","","9.3","","90","","29","","19","","","","99.14","","","","","","NA"
"2009-07-03 11:00","2009","07","03","11:00","9.2","","8.3","","94","","26","","13","","","","99.13","","","","","","NA"
"2009-07-03 12:00","2009","07","03","12:00","9.6","","7.9","","89","","22","","6","","","","99.11","","","","","","NA"
"2009-07-03 13:00","2009","07","03","13:00","10.2","","8.1","","87","","24","","6","","","","99.08","","","","","","NA"
"2009-07-03 14:00","2009","07","03","14:00","11.1","","8.1","","82","","22","","6","","","","99.07","","","","","","NA"
"2009-07-03 15:00","2009","07","03","15:00","11.6","","7.7","","77","","22","","7","","","","99.08","","","","","","NA"
"2009-07-03 16:00","2009","07","03","16:00","11.5","","7.3","","75","","22","","6","","","","99.07","","","","","","NA"
"2009-07-03 17:00","2009","07","03","17:00","11.7","","6.5","","70","","20","","9","","","","99.06","","","","","","NA"
"2009-07-03 18:00","2009","07","03","18:00","11.3","","7.0","","75","","18","","7","","","","99.08","","","","","","NA"
"2009-07-03 19:00","2009","07","03","19:00","10.1","","7.1","","82","","17","","9","","","","99.08","","","","","","NA"
"2009-07-03 20:00","2009","07","03","20:00","9.5","","7.2","","86","","18","","7","","","","99.08","","","","","","NA"
"2009-07-03 21:00","2009","07","03","21:00","8.5","","7.8","","95","","9","","6","","","","99.13","","","","","","NA"
"2009-07-03 22:00","2009","07","03","22:00","7.9","","7.7","","99","","12","","6","","","","99.14","","","","","","NA"
"2009-07-03 23:00","2009","07","03","23:00","7.1","","7.1","","100","","9","","6","","","","99.11","","","","","","NA"
"2009-07-04 00:00","2009","07","04","00:00","7.1","","7.1","","100","","9","","6","","","","99.10","","","","","","NA"
"2009-07-04 01:00","2009","07","04","01:00","6.7","","6.7","","100","","12","","6","","","","99.09","","","","","","NA"
"2009-07-04 02:00","2009","07","04","02:00","6.4","","6.4","","100","","12","","6","","","","99.06","","","","","","NA"
"2009-07-04 03:00","2009","07","04","03:00","5.5","","5.5","","100","","11","","6","","","","99.02","","","","","","NA"
"2009-07-04 04:00","2009","07","04","04:00","5.0","","5.0","","100","","8","","4","","","","99.03","","","","","","NA"
"2009-07-04 05:00","2009","07","04","05:00","5.3","","5.3","","100","","12","","4","","","","99.02","","","","","","NA"
"2009-07-04 06:00","2009","07","04","06:00","7.0","","7.0","","100","","15","","7","","","","99.05","","","","","","NA"
"2009-07-04 07:00","2009","07","04","07:00","8.5","","8.3","","99","","17","","7","","","","99.04","","","","","","NA"
"2009-07-04 08:00","2009","07","04","08:00","8.4","","7.5","","94","","19","","7","","","","99.06","","","","","","NA"
"2009-07-04 09:00","2009","07","04","09:00","8.9","","7.8","","93","","19","","7","","","","99.06","","","","","","NA"
"2009-07-04 10:00","2009","07","04","10:00","8.1","","7.5","","96","","21","","11","","","","99.08","","","","","","NA"
"2009-07-04 11:00","2009","07","04","11:00","9.6","","7.9","","89","","20","","7","","","","99.05","","","","","","NA"
"2009-07-04 12:00","2009","07","04","12:00","9.8","","7.4","","85","","21","","7","","","","99.00","","","","","","NA"
"2009-07-04 13:00","2009","07","04","13:00","10.7","","8.0","","83","","19","","11","","","","98.94","","","","","","NA"
"2009-07-04 14:00","2009","07","04","14:00","11.9","","8.3","","79","","18","","15","","","","98.93","","","","","","NA"
"2009-07-04 15:00","2009","07","04","15:00","12.8","","9.3","","79","","17","","11","","","","98.89","","","","","","NA"
"2009-07-04 16:00","2009","07","04","16:00","14.0","","9.3","","73","","18","","11","","","","98.83","","","","","","NA"
"2009-07-04 17:00","2009","07","04","17:00","12.9","","8.5","","75","","19","","11","","","","98.80","","","","","","NA"
"2009-07-04 18:00","2009","07","04","18:00","11.8","","8.0","","78","","20","","13","","","","98.77","","","","","","NA"
"2009-07-04 19:00","2009","07","04","19:00","11.6","","8.3","","80","","19","","7","","","","98.72","","","","","","NA"
"2009-07-04 20:00","2009","07","04","20:00","10.5","","8.2","","86","","17","","11","","","","98.69","","","","","","NA"
"2009-07-04 21:00","2009","07","04","21:00","8.7","","8.0","","95","","18","","9","","","","98.68","","","","","","NA"
"2009-07-04 22:00","2009","07","04","22:00","8.6","","8.2","","97","","17","","15","","","","98.66","","","","","","NA"
"2009-07-04 23:00","2009","07","04","23:00","8.4","","8.1","","98","","6","","7","","","","98.68","","","","","","NA"
"2009-07-05 00:00","2009","07","05","00:00","7.8","","7.8","","100","","17","","6","","","","98.68","","","","","","NA"
"2009-07-05 01:00","2009","07","05","01:00","7.1","","7.1","","100","","9","","4","","","","98.66","","","","","","NA"
"2009-07-05 02:00","2009","07","05","02:00","6.6","","6.6","","100","","4","","7","","","","98.64","","","","","","NA"
"2009-07-05 03:00","2009","07","05","03:00","5.9","","5.9","","100","","7","","6","","","","98.60","","","","","","NA"
"2009-07-05 04:00","2009","07","05","04:00","6.0","","6.0","","100","","6","","6","","","","98.57","","","","","","NA"
"2009-07-05 05:00","2009","07","05","05:00","5.7","","5.7","","100","","8","","4","","","","98.56","","","","","","NA"
"2009-07-05 06:00","2009","07","05","06:00","7.1","","7.1","","100","","8","","2","","","","98.59","","","","","","NA"
"2009-07-05 07:00","2009","07","05","07:00","7.8","","7.8","","100","","22","","4","","","","98.59","","","","","","NA"
"2009-07-05 08:00","2009","07","05","08:00","8.7","","8.1","","96","","21","","4","","","","98.59","","","","","","NA"
"2009-07-05 09:00","2009","07","05","09:00","9.4","","7.9","","90","","20","","13","","","","98.52","","","","","","NA"
"2009-07-05 10:00","2009","07","05","10:00","10.2","","8.0","","86","","18","","11","","","","98.50","","","","","","NA"
"2009-07-05 11:00","2009","07","05","11:00","9.4","","7.6","","89","","24","","9","","","","98.43","","","","","","NA"
"2009-07-05 12:00","2009","07","05","12:00","9.8","","7.5","","86","","32","","6","","","","98.40","","","","","","NA"
"2009-07-05 13:00","2009","07","05","13:00","9.9","","7.6","","86","","35","","4","","","","98.38","","","","","","NA"
"2009-07-05 14:00","2009","07","05","14:00","13.1","","9.7","","80","","34","","11","","","","98.37","","","","","","NA"
"2009-07-05 15:00","2009","07","05","15:00","9.3","","9.3","","100","","4","","4","","","","98.39","","","","","","NA"
"2009-07-05 16:00","2009","07","05","16:00","8.3","","8.3","","100","","18","","4","","","","98.41","","","","","","NA"
"2009-07-05 17:00","2009","07","05","17:00","7.5","","7.5","","100","","20","","6","","","","98.43","","","","","","NA"
"2009-07-05 18:00","2009","07","05","18:00","7.2","","7.2","","100","","18","","6","","","","98.43","","","","","","NA"
"2009-07-05 19:00","2009","07","05","19:00","7.7","","7.7","","100","","17","","7","","","","98.41","","","","","","NA"
"2009-07-05 20:00","2009","07","05","20:00","8.5","","8.5","","100","","17","","6","","","","98.41","","","","","","NA"
"2009-07-05 21:00","2009","07","05","21:00","8.5","","8.5","","100","","18","","9","","","","98.41","","","","","","NA"
"2009-07-05 22:00","2009","07","05","22:00","7.9","","7.9","","100","","17","","13","","","","98.40","","","","","","NA"
"2009-07-05 23:00","2009","07","05","23:00","7.8","","7.8","","100","","19","","6","","","","98.41","","","","","","NA"
"2009-07-06 00:00","2009","07","06","00:00","7.6","","7.6","","100","","18","","4","","","","98.38","","","","","","NA"
"2009-07-06 01:00","2009","07","06","01:00","7.5","","7.5","","100","","18","","2","","","","98.36","","","","","","NA"
"2009-07-06 02:00","2009","07","06","02:00","7.3","","7.3","","100","","22","","4","","","","98.33","","","","","","NA"
"2009-07-06 03:00","2009","07","06","03:00","7.2","","7.2","","100","","26","","4","","","","98.31","","","","","","NA"
"2009-07-06 04:00","2009","07","06","04:00","7.3","","7.3","","100","","","","0","","","","98.30","","","","","","NA"
"2009-07-06 05:00","2009","07","06","05:00","8.7","","8.7","","100","","32","","6","","","","98.30","","","","","","NA"
"2009-07-06 06:00","2009","07","06","06:00","9.1","","9.1","","100","","33","","7","","","","98.33","","","","","","NA"
"2009-07-06 07:00","2009","07","06","07:00","9.0","","9.0","","100","","33","","7","","","","98.36","","","","","","NA"
"2009-07-06 08:00","2009","07","06","08:00","9.3","","9.3","","100","","31","","7","","","","98.35","","","","","","NA"
"2009-07-06 09:00","2009","07","06","09:00","9.2","","9.2","","100","","28","","9","","","","98.37","","","","","","NA"
"2009-07-06 10:00","2009","07","06","10:00","9.2","","9.2","","100","","31","","9","","","","98.36","","","","","","NA"
"2009-07-06 11:00","2009","07","06","11:00","9.3","","9.3","","100","","30","","9","","","","98.36","","","","","","NA"
"2009-07-06 12:00","2009","07","06","12:00","9.5","","9.5","","100","","31","","11","","","","98.34","","","","","","NA"
"2009-07-06 13:00","2009","07","06","13:00","10.0","","10.0","","100","","29","","15","","","","98.36","","","","","","NA"
"2009-07-06 14:00","2009","07","06","14:00","9.2","","9.2","","100","","31","","9","","","","98.39","","","","","","NA"
"2009-07-06 15:00","2009","07","06","15:00","10.4","","10.4","","100","","29","","13","","","","98.40","","","","","","NA"
"2009-07-06 16:00","2009","07","06","16:00","9.6","","9.6","","100","","30","","13","","","","98.42","","","","","","NA"
"2009-07-06 17:00","2009","07","06","17:00","10.1","","9.6","","97","","31","","9","","","","98.42","","","","","","NA"
"2009-07-06 18:00","2009","07","06","18:00","8.9","","8.9","","100","","30","","11","","","","98.43","","","","","","NA"
"2009-07-06 19:00","2009","07","06","19:00","10.7","","10.7","","100","","32","","4","","","","98.39","","","","","","NA"
"2009-07-06 20:00","2009","07","06","20:00","11.4","","11.4","","100","","32","","11","","","","98.41","","","","","","NA"
"2009-07-06 21:00","2009","07","06","21:00","11.6","","11.6","","100","","34","","11","","","","98.44","","","","","","NA"
"2009-07-06 22:00","2009","07","06","22:00","11.0","","11.0","","100","","33","","6","","","","98.48","","","","","","NA"
"2009-07-06 23:00","2009","07","06","23:00","10.8","","10.8","","100","","34","","7","","","","98.51","","","","","","NA"
"2009-07-07 00:00","2009","07","07","00:00","10.3","","10.3","","100","","1","","6","","","","98.52","","","","","","NA"
"2009-07-07 01:00","2009","07","07","01:00","10.5","","10.5","","100","","36","","9","","","","98.52","","","","","","NA"
"2009-07-07 02:00","2009","07","07","02:00","10.6","","10.6","","100","","2","","11","","","","98.50","","","","","","NA"
"2009-07-07 03:00","2009","07","07","03:00","10.6","","10.6","","100","","1","","6","","","","98.53","","","","","","NA"
"2009-07-07 04:00","2009","07","07","04:00","10.3","","10.3","","100","","1","","13","","","","98.55","","","","","","NA"
"2009-07-07 05:00","2009","07","07","05:00","10.1","","10.1","","100","","36","","6","","","","98.60","","","","","","NA"
"2009-07-07 06:00","2009","07","07","06:00","10.3","","10.3","","100","","33","","4","","","","98.62","","","","","","NA"
"2009-07-07 07:00","2009","07","07","07:00","10.8","","10.8","","100","","2","","4","","","","98.62","","","","","","NA"
"2009-07-07 08:00","2009","07","07","08:00","11.8","","11.8","","100","","1","","4","","","","98.65","","","","","","NA"
"2009-07-07 09:00","2009","07","07","09:00","13.3","","12.7","","96","","4","","11","","","","98.64","","","","","","NA"
"2009-07-07 10:00","2009","07","07","10:00","13.9","","13.3","","96","","36","","7","","","","98.64","","","","","","NA"
"2009-07-07 11:00","2009","07","07","11:00","14.3","","13.3","","94","","2","","7","","","","98.68","","","","","","NA"
"2009-07-07 12:00","2009","07","07","12:00","14.8","","13.3","","91","","36","","9","","","","98.71","","","","","","NA"
"2009-07-07 13:00","2009","07","07","13:00","15.9","","13.7","","87","","3","","7","","","","98.73","","","","","","NA"
"2009-07-07 14:00","2009","07","07","14:00","15.3","","11.9","","80","","30","","9","","","","98.73","","","","","","NA"
"2009-07-07 15:00","2009","07","07","15:00","12.9","","11.6","","92","","31","","17","","","","98.76","","","","","","NA"
"2009-07-07 16:00","2009","07","07","16:00","11.4","","10.8","","96","","31","","15","","","","98.80","","","","","","NA"
"2009-07-07 17:00","2009","07","07","17:00","12.9","","11.6","","92","","32","","15","","","","98.78","","","","","","NA"
"2009-07-07 18:00","2009","07","07","18:00","12.8","","11.3","","91","","32","","13","","","","98.80","","","","","","NA"
"2009-07-07 19:00","2009","07","07","19:00","13.1","","12.1","","94","","33","","4","","","","98.80","","","","","","NA"
"2009-07-07 20:00","2009","07","07","20:00","11.9","","10.7","","92","","24","","6","","","","98.84","","","","","","NA"
"2009-07-07 21:00","2009","07","07","21:00","11.3","","11.0","","98","","18","","2","","","","98.86","","","","","","NA"
"2009-07-07 22:00","2009","07","07","22:00","10.9","","10.9","","100","","14","","2","","","","98.93","","","","","","NA"
"2009-07-07 23:00","2009","07","07","23:00","10.3","","10.3","","100","","8","","6","","","","98.95","","","","","","NA"
"2009-07-08 00:00","2009","07","08","00:00","9.3","","9.3","","100","","9","","4","","","","98.97","","","","","","NA"
"2009-07-08 01:00","2009","07","08","01:00","9.9","","9.9","","100","","6","","6","","","","99.00","","","","","","NA"
"2009-07-08 02:00","2009","07","08","02:00","9.6","","9.6","","100","","4","","7","","","","99.00","","","","","","NA"
"2009-07-08 03:00","2009","07","08","03:00","12.3","","12.3","","100","","3","","13","","","","99.02","","","","","","NA"
"2009-07-08 04:00","2009","07","08","04:00","9.6","","9.6","","100","","30","","6","","","","99.06","","","","","","NA"
"2009-07-08 05:00","2009","07","08","05:00","8.9","","8.9","","100","","7","","6","","","","99.08","","","","","","NA"
"2009-07-08 06:00","2009","07","08","06:00","10.0","","10.0","","100","","12","","4","","","","99.16","","","","","","NA"
"2009-07-08 07:00","2009","07","08","07:00","14.2","","13.3","","94","","10","","9","","","","99.17","","","","","","NA"
"2009-07-08 08:00","2009","07","08","08:00","14.6","","13.6","","94","","32","","2","","","","99.23","","","","","","NA"
"2009-07-08 09:00","2009","07","08","09:00","18.2","","12.9","","71","","11","","9","","","","99.22","","","","","","NA"
"2009-07-08 10:00","2009","07","08","10:00","15.3","","12.9","","86","","29","","11","","","","99.24","","","","","","NA"
"2009-07-08 11:00","2009","07","08","11:00","14.4","","12.6","","89","","31","","15","","","","99.22","","","","","","NA"
"2009-07-08 12:00","2009","07","08","12:00","17.8","","14.1","","79","","30","","11","","","","99.22","","","","","","NA"
"2009-07-08 13:00","2009","07","08","13:00","14.9","","12.9","","88","","26","","6","","","","99.23","","","","","","NA"
"2009-07-08 14:00","2009","07","08","14:00","16.6","","13.1","","80","","31","","11","","","","99.22","","","","","","NA"
"2009-07-08 15:00","2009","07","08","15:00","15.8","","12.4","","80","","30","","11","","","","99.24","","","","","","NA"
"2009-07-08 16:00","2009","07","08","16:00","14.6","","11.7","","83","","23","","9","","","","99.26","","","","","","NA"
"2009-07-08 17:00","2009","07","08","17:00","15.6","","12.3","","81","","18","","9","","","","99.29","","","","","","NA"
"2009-07-08 18:00","2009","07","08","18:00","14.8","","11.8","","82","","19","","7","","","","99.28","","","","","","NA"
"2009-07-08 19:00","2009","07","08","19:00","14.0","","11.8","","87","","17","","7","","","","99.30","","","","","","NA"
"2009-07-08 20:00","2009","07","08","20:00","14.0","","12.0","","88","","","","0","","","","99.29","","","","","","NA"
"2009-07-08 21:00","2009","07","08","21:00","11.5","","11.4","","99","","17","","4","","","","99.30","","","","","","NA"
"2009-07-08 22:00","2009","07","08","22:00","10.7","","10.7","","100","","","","0","","","","99.34","","","","","","NA"
"2009-07-08 23:00","2009","07","08","23:00","10.9","","10.9","","100","","8","","7","","","","99.36","","","","","","NA"
"2009-07-09 00:00","2009","07","09","00:00","11.6","","11.6","","100","","7","","11","","","","99.34","","","","","","NA"
"2009-07-09 01:00","2009","07","09","01:00","10.7","","10.7","","100","","7","","9","","","","99.36","","","","","","NA"
"2009-07-09 02:00","2009","07","09","02:00","11.1","","11.1","","100","","7","","13","","","","99.35","","","","","","NA"
"2009-07-09 03:00","2009","07","09","03:00","11.7","","11.7","","100","","8","","9","","","","99.34","","","","","","NA"
"2009-07-09 04:00","2009","07","09","04:00","10.2","","10.2","","100","","36","","6","","","","99.34","","","","","","NA"
"2009-07-09 05:00","2009","07","09","05:00","9.9","","9.9","","100","","18","","11","","","","99.45","","","","","","NA"
"2009-07-09 06:00","2009","07","09","06:00","9.7","","9.7","","100","","24","","6","","","","99.53","","","","","","NA"
"2009-07-09 07:00","2009","07","09","07:00","10.4","","10.3","","99","","17","","7","","","","99.52","","","","","","NA"
"2009-07-09 08:00","2009","07","09","08:00","10.5","","9.8","","95","","24","","7","","","","99.55","","","","","","NA"
"2009-07-09 09:00","2009","07","09","09:00","11.9","","10.6","","92","","27","","6","","","","99.53","","","","","","NA"
"2009-07-09 10:00","2009","07","09","10:00","13.4","","11.8","","90","","21","","7","","","","99.52","","","","","","NA"
"2009-07-09 11:00","2009","07","09","11:00","15.5","","12.8","","84","","19","","11","","","","99.50","","","","","","NA"
"2009-07-09 12:00","2009","07","09","12:00","14.4","","11.9","","85","","25","","9","","","","99.49","","","","","","NA"
"2009-07-09 13:00","2009","07","09","13:00","15.5","","12.6","","83","","20","","11","","","","99.41","","","","","","NA"
"2009-07-09 14:00","2009","07","09","14:00","15.8","","12.3","","80","","17","","24","","","","99.32","","","","","","NA"
"2009-07-09 15:00","2009","07","09","15:00","16.3","","12.9","","80","","17","","20","","","","99.24","","","","","","NA"
"2009-07-09 16:00","2009","07","09","16:00","17.1","","12.7","","75","","17","","22","","","","99.14","","","","","","NA"
"2009-07-09 17:00","2009","07","09","17:00","16.4","","12.4","","77","","17","","22","","","","99.13","","","","","","NA"
"2009-07-09 18:00","2009","07","09","18:00","18.4","","12.7","","69","","17","","32","","","","99.02","","","","","","NA"
"2009-07-09 19:00","2009","07","09","19:00","19.1","","12.8","","67","","17","","32","","","","98.95","","","","","","NA"
"2009-07-09 20:00","2009","07","09","20:00","18.5","","12.4","","68","","17","","33","","","","98.89","","","","","","NA"
"2009-07-09 21:00","2009","07","09","21:00","16.3","","11.7","","74","","18","","35","","","","98.91","","","","","","NA"
"2009-07-09 22:00","2009","07","09","22:00","14.0","","10.9","","82","","17","","32","","","","98.98","","","","","","NA"
"2009-07-09 23:00","2009","07","09","23:00","15.3","","11.9","","80","","17","","37","","","","98.91","","","","","","NA"
"2009-07-10 00:00","2009","07","10","00:00","15.7","","12.8","","83","","17","","41","","","","98.84","","","","","","NA"
"2009-07-10 01:00","2009","07","10","01:00","16.0","","12.6","","80","","17","","41","","","","98.79","","","","","","NA"
"2009-07-10 02:00","2009","07","10","02:00","15.6","","12.0","","79","","17","","46","","","","98.73","","","","","","NA"
"2009-07-10 03:00","2009","07","10","03:00","12.6","","12.3","","98","","17","","37","","","","98.71","","","","","","NA"
"2009-07-10 04:00","2009","07","10","04:00","13.5","","13.2","","98","","17","","43","","","","98.63","","","","","","NA"
"2009-07-10 05:00","2009","07","10","05:00","12.5","","12.3","","99","","17","","37","","","","98.66","","","","","","NA"
"2009-07-10 06:00","2009","07","10","06:00","11.6","","11.6","","100","","17","","39","","","","98.52","","","","","","NA"
"2009-07-10 07:00","2009","07","10","07:00","9.3","","9.3","","100","","17","","19","","","","98.61","","","","","","NA"
"2009-07-10 08:00","2009","07","10","08:00","9.8","","9.8","","100","","20","","15","","","","98.66","","","","","","NA"
"2009-07-10 09:00","2009","07","10","09:00","10.4","","10.4","","100","","15","","15","","","","98.59","","","","","","NA"
"2009-07-10 10:00","2009","07","10","10:00","9.5","","9.5","","100","","17","","22","","","","98.58","","","","","","NA"
"2009-07-10 11:00","2009","07","10","11:00","10.9","","10.9","","100","","18","","22","","","","98.58","","","","","","NA"
"2009-07-10 12:00","2009","07","10","12:00","10.4","","10.4","","100","","17","","26","","","","98.58","","","","","","NA"
"2009-07-10 13:00","2009","07","10","13:00","11.2","","11.2","","100","","18","","24","","","","98.55","","","","","","NA"
"2009-07-10 14:00","2009","07","10","14:00","10.8","","10.8","","100","","18","","22","","","","98.56","","","","","","NA"
"2009-07-10 15:00","2009","07","10","15:00","11.0","","11.0","","100","","18","","20","","","","98.57","","","","","","NA"
"2009-07-10 16:00","2009","07","10","16:00","11.1","","11.1","","100","","18","","19","","","","98.57","","","","","","NA"
"2009-07-10 17:00","2009","07","10","17:00","11.8","","11.8","","100","","17","","22","","","","98.52","","","","","","NA"
"2009-07-10 18:00","2009","07","10","18:00","11.5","","11.5","","100","","17","","24","","","","98.45","","","","","","NA"
"2009-07-10 19:00","2009","07","10","19:00","10.6","","10.6","","100","","18","","24","","","","98.45","","","","","","NA"
"2009-07-10 20:00","2009","07","10","20:00","10.5","","10.5","","100","","17","","17","","","","98.43","","","","","","NA"
"2009-07-10 21:00","2009","07","10","21:00","10.0","","10.0","","100","","17","","19","","","","98.43","","","","","","NA"
"2009-07-10 22:00","2009","07","10","22:00","9.7","","9.7","","100","","17","","9","","","","98.44","","","","","","NA"
"2009-07-10 23:00","2009","07","10","23:00","9.1","","9.1","","100","","17","","24","","","","98.45","","","","","","NA"
"2009-07-11 00:00","2009","07","11","00:00","8.1","","8.1","","100","","17","","22","","","","98.44","","","","","","NA"
"2009-07-11 01:00","2009","07","11","01:00","8.0","","8.0","","100","","18","","9","","","","98.49","","","","","","NA"
"2009-07-11 02:00","2009","07","11","02:00","8.3","","8.3","","100","","17","","11","","","","98.48","","","","","","NA"
"2009-07-11 03:00","2009","07","11","03:00","8.7","","8.7","","100","","18","","6","","","","98.52","","","","","","NA"
"2009-07-11 04:00","2009","07","11","04:00","8.3","","8.3","","100","","17","","4","","","","98.50","","","","","","NA"
"2009-07-11 05:00","2009","07","11","05:00","8.2","","8.2","","100","","21","","6","","","","98.52","","","","","","NA"
"2009-07-11 06:00","2009","07","11","06:00","7.7","","7.7","","100","","18","","2","","","","98.56","","","","","","NA"
"2009-07-11 07:00","2009","07","11","07:00","7.3","","7.1","","99","","24","","4","","","","98.60","","","","","","NA"
"2009-07-11 08:00","2009","07","11","08:00","8.0","","7.8","","99","","21","","6","","","","98.62","","","","","","NA"
"2009-07-11 09:00","2009","07","11","09:00","9.7","","8.2","","90","","19","","6","","","","98.64","","","","","","NA"
"2009-07-11 10:00","2009","07","11","10:00","9.9","","6.8","","81","","28","","26","","","","98.63","","","","","","NA"
"2009-07-11 11:00","2009","07","11","11:00","10.0","","6.2","","77","","28","","28","","","","98.65","","","","","","NA"
"2009-07-11 12:00","2009","07","11","12:00","10.6","","6.0","","73","","27","","20","","","","98.65","","","","","","NA"
"2009-07-11 13:00","2009","07","11","13:00","10.2","","6.7","","79","","25","","24","","","","98.65","","","","","","NA"
"2009-07-11 14:00","2009","07","11","14:00","9.5","","7.0","","84","","24","","26","","","","98.67","","","","","","NA"
"2009-07-11 15:00","2009","07","11","15:00","9.4","","6.9","","84","","24","","26","","","","98.69","","","","","","NA"
"2009-07-11 16:00","2009","07","11","16:00","10.1","","7.4","","83","","25","","20","","","","98.70","","","","","","NA"
"2009-07-11 17:00","2009","07","11","17:00","8.4","","6.9","","90","","25","","22","","","","98.72","","","","","","NA"
"2009-07-11 18:00","2009","07","11","18:00","8.6","","6.5","","87","","26","","9","","","","98.76","","","","","","NA"
"2009-07-11 19:00","2009","07","11","19:00","8.9","","7.0","","88","","20","","4","","","","98.78","","","","","","NA"
"2009-07-11 20:00","2009","07","11","20:00","8.7","","6.8","","88","","20","","6","","","","98.76","","","","","","NA"
"2009-07-11 21:00","2009","07","11","21:00","8.5","","7.3","","92","","18","","9","","","","98.79","","","","","","NA"
"2009-07-11 22:00","2009","07","11","22:00","8.4","","7.4","","93","","18","","7","","","","98.81","","","","","","NA"
"2009-07-11 23:00","2009","07","11","23:00","8.0","","7.3","","95","","20","","4","","","","98.86","","","","","","NA"
"2009-07-12 00:00","2009","07","12","00:00","7.7","","7.3","","97","","15","","6","","","","98.85","","","","","","NA"
"2009-07-12 01:00","2009","07","12","01:00","7.4","","7.4","","100","","15","","4","","","","98.85","","","","","","NA"
"2009-07-12 02:00","2009","07","12","02:00","7.2","","7.1","","99","","18","","7","","","","98.86","","","","","","NA"
"2009-07-12 03:00","2009","07","12","03:00","6.6","","6.6","","100","","17","","6","","","","98.88","","","","","","NA"
"2009-07-12 04:00","2009","07","12","04:00","5.8","","5.8","","100","","10","","6","","","","98.86","","","","","","NA"
"2009-07-12 05:00","2009","07","12","05:00","5.2","","5.2","","100","","9","","6","","","","98.85","","","","","","NA"
"2009-07-12 06:00","2009","07","12","06:00","6.7","","6.6","","99","","17","","4","","","","98.91","","","","","","NA"
"2009-07-12 07:00","2009","07","12","07:00","8.0","","7.0","","93","","17","","9","","","","98.91","","","","","","NA"
"2009-07-12 08:00","2009","07","12","08:00","9.6","","7.4","","86","","18","","11","","","","98.90","","","","","","NA"
"2009-07-12 09:00","2009","07","12","09:00","8.9","","6.6","","85","","21","","11","","","","98.93","","","","","","NA"
"2009-07-12 10:00","2009","07","12","10:00","11.1","","7.9","","81","","18","","11","","","","98.88","","","","","","NA"
"2009-07-12 11:00","2009","07","12","11:00","12.3","","8.1","","76","","17","","15","","","","98.87","","","","","","NA"
"2009-07-12 12:00","2009","07","12","12:00","12.3","","7.2","","71","","23","","6","","","","98.83","","","","","","NA"
"2009-07-12 13:00","2009","07","12","13:00","11.0","","7.5","","79","","23","","11","","","","98.78","","","","","","NA"
"2009-07-12 14:00","2009","07","12","14:00","10.1","","6.8","","80","","25","","26","","","","98.74","","","","","","NA"
"2009-07-12 15:00","2009","07","12","15:00","9.5","","6.6","","82","","26","","32","","","","98.72","","","","","","NA"
"2009-07-12 16:00","2009","07","12","16:00","9.7","","6.5","","80","","30","","7","","","","98.75","","","","","","NA"
"2009-07-12 17:00","2009","07","12","17:00","9.2","","6.2","","81","","29","","17","","","","98.74","","","","","","NA"
"2009-07-12 18:00","2009","07","12","18:00","8.7","","7.6","","93","","33","","19","","","","98.89","","","","","","NA"
"2009-07-12 19:00","2009","07","12","19:00","8.8","","7.6","","92","","17","","13","","","","98.80","","","","","","NA"
"2009-07-12 20:00","2009","07","12","20:00","9.0","","6.9","","87","","16","","7","","","","98.83","","","","","","NA"
"2009-07-12 21:00","2009","07","12","21:00","7.9","","7.3","","96","","18","","9","","","","98.86","","","","","","NA"
"2009-07-12 22:00","2009","07","12","22:00","7.1","","7.1","","100","","8","","6","","","","98.95","","","","","","NA"
"2009-07-12 23:00","2009","07","12","23:00","6.2","","6.2","","100","","8","","6","","","","98.96","","","","","","NA"
"2009-07-13 00:00","2009","07","13","00:00","5.7","","5.7","","100","","7","","6","","","","99.00","","","","","","NA"
"2009-07-13 01:00","2009","07","13","01:00","5.2","","5.2","","100","","8","","6","","","","99.00","","","","","","NA"
"2009-07-13 02:00","2009","07","13","02:00","5.3","","5.3","","100","","8","","2","","","","99.02","","","","","","NA"
"2009-07-13 03:00","2009","07","13","03:00","5.2","","5.2","","100","","8","","4","","","","99.01","","","","","","NA"
"2009-07-13 04:00","2009","07","13","04:00","5.0","","5.0","","100","","8","","4","","","","99.00","","","","","","NA"
"2009-07-13 05:00","2009","07","13","05:00","5.4","","5.4","","100","","9","","4","","","","98.99","","","","","","NA"
"2009-07-13 06:00","2009","07","13","06:00","6.5","","6.5","","100","","15","","6","","","","98.98","","","","","","NA"
"2009-07-13 07:00","2009","07","13","07:00","7.4","","7.1","","98","","20","","9","","","","98.99","","","","","","NA"
"2009-07-13 08:00","2009","07","13","08:00","9.1","","7.5","","90","","19","","9","","","","98.92","","","","","","NA"
"2009-07-13 09:00","2009","07","13","09:00","10.0","","7.5","","84","","29","","6","","","","98.86","","","","","","NA"
"2009-07-13 10:00","2009","07","13","10:00","9.4","","7.5","","88","","23","","9","","","","98.84","","","","","","NA"
"2009-07-13 11:00","2009","07","13","11:00","15.9","","2.1","","39","","31","","19","","","","98.81","","","","","","NA"
"2009-07-13 12:00","2009","07","13","12:00","11.8","","5.9","","67","","27","","13","","","","98.83","","","","","","NA"
"2009-07-13 13:00","2009","07","13","13:00","14.7","","6.6","","58","","28","","15","","","","98.87","","","","","","NA"
"2009-07-13 14:00","2009","07","13","14:00","11.6","","6.4","","70","","26","","19","","","","98.89","","","","","","NA"
"2009-07-13 15:00","2009","07","13","15:00","15.4","","6.0","","53","","28","","15","","","","98.88","","","","","","NA"
"2009-07-13 16:00","2009","07","13","16:00","15.7","","5.5","","51","","28","","17","","","","98.87","","","","","","NA"
"2009-07-13 17:00","2009","07","13","17:00","14.5","","7.1","","61","","26","","9","","","","98.88","","","","","","NA"
"2009-07-13 18:00","2009","07","13","18:00","14.7","","7.7","","63","","24","","11","","","","98.91","","","","","","NA"
"2009-07-13 19:00","2009","07","13","19:00","13.4","","7.4","","67","","21","","6","","","","98.93","","","","","","NA"
"2009-07-13 20:00","2009","07","13","20:00","11.7","","7.0","","73","","19","","6","","","","98.97","","","","","","NA"
"2009-07-13 21:00","2009","07","13","21:00","10.8","","6.9","","77","","17","","6","","","","99.03","","","","","","NA"
"2009-07-13 22:00","2009","07","13","22:00","9.9","","8.1","","89","","14","","4","","","","99.11","","","","","","NA"
"2009-07-13 23:00","2009","07","13","23:00","8.9","","8.9","","100","","10","","2","","","","99.17","","","","","","NA"
"2009-07-14 00:00","2009","07","14","00:00","8.2","","8.2","","100","","8","","7","","","","99.20","","","","","","NA"
"2009-07-14 01:00","2009","07","14","01:00","7.8","","7.8","","100","","8","","6","","","","99.21","","","","","","NA"
"2009-07-14 02:00","2009","07","14","02:00","7.2","","7.2","","100","","8","","7","","","","99.23","","","","","","NA"
"2009-07-14 03:00","2009","07","14","03:00","6.8","","6.8","","100","","7","","6","","","","99.23","","","","","","NA"
"2009-07-14 04:00","2009","07","14","04:00","5.7","","5.7","","100","","6","","9","","","","99.25","","","","","","NA"
"2009-07-14 05:00","2009","07","14","05:00","5.6","","5.6","","100","","3","","6","","","","99.39","","","","","","NA"
"2009-07-14 06:00","2009","07","14","06:00","6.7","","6.7","","100","","7","","9","","","","99.42","","","","","","NA"
"2009-07-14 07:00","2009","07","14","07:00","10.1","","8.5","","90","","6","","9","","","","99.35","","","","","","NA"
"2009-07-14 08:00","2009","07","14","08:00","13.9","","10.1","","78","","","","0","","","","99.38","","","","","","NA"
"2009-07-14 09:00","2009","07","14","09:00","13.4","","7.9","","69","","24","","6","","","","99.38","","","","","","NA"
"2009-07-14 10:00","2009","07","14","10:00","14.2","","8.0","","66","","24","","6","","","","99.43","","","","","","NA"
"2009-07-14 11:00","2009","07","14","11:00","14.5","","8.6","","68","","23","","7","","","","99.42","","","","","","NA"
"2009-07-14 12:00","2009","07","14","12:00","14.7","","8.1","","65","","24","","6","","","","99.40","","","","","","NA"
"2009-07-14 13:00","2009","07","14","13:00","13.4","","8.6","","73","","20","","11","","","","99.40","","","","","","NA"
"2009-07-14 14:00","2009","07","14","14:00","13.4","","8.2","","71","","18","","15","","","","99.37","","","","","","NA"
"2009-07-14 15:00","2009","07","14","15:00","14.4","","7.9","","65","","18","","13","","","","99.33","","","","","","NA"
"2009-07-14 16:00","2009","07","14","16:00","16.0","","7.4","","57","","19","","11","","","","99.27","","","","","","NA"
"2009-07-14 17:00","2009","07","14","17:00","13.3","","8.0","","70","","20","","7","","","","99.28","","","","","","NA"
"2009-07-14 18:00","2009","07","14","18:00","15.5","","6.8","","56","","19","","7","","","","99.19","","","","","","NA"
"2009-07-14 19:00","2009","07","14","19:00","13.8","","6.3","","61","","16","","9","","","","99.11","","","","","","NA"
"2009-07-14 20:00","2009","07","14","20:00","15.3","","7.7","","60","","26","","2","","","","99.04","","","","","","NA"
"2009-07-14 21:00","2009","07","14","21:00","12.4","","9.2","","81","","7","","4","","","","99.02","","","","","","NA"
"2009-07-14 22:00","2009","07","14","22:00","11.1","","9.7","","91","","10","","2","","","","98.99","","","","","","NA"
"2009-07-14 23:00","2009","07","14","23:00","10.6","","10.1","","97","","7","","9","","","","98.89","","","","","","NA"
"2009-07-15 00:00","2009","07","15","00:00","14.4","","7.3","","62","","10","","17","","","","98.82","","","","","","NA"
"2009-07-15 01:00","2009","07","15","01:00","15.6","","7.1","","57","","12","","13","","","","98.76","","","","","","NA"
"2009-07-15 02:00","2009","07","15","02:00","16.9","","8.8","","59","","15","","15","","","","98.68","","","","","","NA"
"2009-07-15 03:00","2009","07","15","03:00","15.3","","9.5","","68","","17","","24","","","","98.64","","","","","","NA"
"2009-07-15 04:00","2009","07","15","04:00","13.9","","12.7","","92","","16","","26","","","","98.51","","","","","","NA"
"2009-07-15 05:00","2009","07","15","05:00","14.4","","13.0","","91","","15","","24","","","","98.39","","","","","","NA"
"2009-07-15 06:00","2009","07","15","06:00","14.8","","11.9","","83","","17","","30","","","","98.38","","","","","","NA"
"2009-07-15 07:00","2009","07","15","07:00","13.5","","13.5","","100","","15","","35","","","","98.26","","","","","","NA"
"2009-07-15 08:00","2009","07","15","08:00","14.2","","14.2","","100","","14","","26","","","","98.12","","","","","","NA"
"2009-07-15 09:00","2009","07","15","09:00","14.0","","14.0","","100","","15","","32","","","","98.06","","","","","","NA"
"2009-07-15 10:00","2009","07","15","10:00","13.3","","13.3","","100","","17","","33","","","","98.00","","","","","","NA"
"2009-07-15 11:00","2009","07","15","11:00","12.7","","12.7","","100","","17","","35","","","","97.97","","","","","","NA"
"2009-07-15 12:00","2009","07","15","12:00","11.4","","11.4","","100","","17","","33","","","","97.94","","","","","","NA"
"2009-07-15 13:00","2009","07","15","13:00","10.7","","10.7","","100","","18","","28","","","","97.94","","","","","","NA"
"2009-07-15 14:00","2009","07","15","14:00","10.2","","10.2","","100","","18","","24","","","","97.96","","","","","","NA"
"2009-07-15 15:00","2009","07","15","15:00","10.6","","10.6","","100","","17","","24","","","","97.94","","","","","","NA"
"2009-07-15 16:00","2009","07","15","16:00","10.5","","10.5","","100","","17","","24","","","","97.93","","","","","","NA"
"2009-07-15 17:00","2009","07","15","17:00","10.8","","10.8","","100","","18","","26","","","","97.92","","","","","","NA"
"2009-07-15 18:00","2009","07","15","18:00","10.5","","10.5","","100","","19","","22","","","","97.91","","","","","","NA"
"2009-07-15 19:00","2009","07","15","19:00","9.8","","9.8","","100","","18","","19","","","","97.90","","","","","","NA"
"2009-07-15 20:00","2009","07","15","20:00","9.2","","9.2","","100","","18","","24","","","","97.93","","","","","","NA"
"2009-07-15 21:00","2009","07","15","21:00","8.7","","8.7","","100","","18","","20","","","","97.95","","","","","","NA"
"2009-07-15 22:00","2009","07","15","22:00","8.9","","8.9","","100","","18","","20","","","","97.98","","","","","","NA"
"2009-07-15 23:00","2009","07","15","23:00","8.7","","8.7","","100","","17","","19","","","","97.98","","","","","","NA"
"2009-07-16 00:00","2009","07","16","00:00","9.1","","9.1","","100","","19","","9","","","","97.97","","","","","","NA"
"2009-07-16 01:00","2009","07","16","01:00","8.5","","8.5","","100","","18","","15","","","","97.97","","","","","","NA"
"2009-07-16 02:00","2009","07","16","02:00","8.8","","8.8","","100","","17","","13","","","","97.95","","","","","","NA"
"2009-07-16 03:00","2009","07","16","03:00","8.9","","8.9","","100","","18","","6","","","","97.94","","","","","","NA"
"2009-07-16 04:00","2009","07","16","04:00","8.9","","8.9","","100","","17","","13","","","","97.91","","","","","","NA"
"2009-07-16 05:00","2009","07","16","05:00","8.7","","8.7","","100","","18","","17","","","","97.94","","","","","","NA"
"2009-07-16 06:00","2009","07","16","06:00","8.3","","8.3","","100","","20","","17","","","","97.95","","","","","","NA"
"2009-07-16 07:00","2009","07","16","07:00","8.7","","8.7","","100","","20","","4","","","","97.93","","","","","","NA"
"2009-07-16 08:00","2009","07","16","08:00","9.9","","9.9","","100","","18","","15","","","","97.92","","","","","","NA"
"2009-07-16 09:00","2009","07","16","09:00","9.7","","9.5","","99","","18","","19","","","","97.92","","","","","","NA"
"2009-07-16 10:00","2009","07","16","10:00","10.0","","9.5","","97","","18","","19","","","","97.91","","","","","","NA"
"2009-07-16 11:00","2009","07","16","11:00","9.7","","9.3","","97","","18","","24","","","","97.96","","","","","","NA"
"2009-07-16 12:00","2009","07","16","12:00","10.3","","9.6","","95","","17","","24","","","","97.99","","","","","","NA"
"2009-07-16 13:00","2009","07","16","13:00","10.1","","9.4","","95","","17","","24","","","","98.01","","","","","","NA"
"2009-07-16 14:00","2009","07","16","14:00","9.1","","9.0","","99","","17","","22","","","","98.01","","","","","","NA"
"2009-07-16 15:00","2009","07","16","15:00","9.3","","9.0","","98","","17","","19","","","","98.06","","","","","","NA"
"2009-07-16 16:00","2009","07","16","16:00","9.3","","9.1","","99","","18","","20","","","","98.07","","","","","","NA"
"2009-07-16 17:00","2009","07","16","17:00","8.4","","8.4","","100","","17","","19","","","","98.07","","","","","","NA"
"2009-07-16 18:00","2009","07","16","18:00","8.1","","8.1","","100","","17","","19","","","","98.05","","","","","","NA"
"2009-07-16 19:00","2009","07","16","19:00","7.3","","7.3","","100","","18","","15","","","","98.08","","","","","","NA"
"2009-07-16 20:00","2009","07","16","20:00","7.7","","7.7","","100","","18","","11","","","","98.09","","","","","","NA"
"2009-07-16 21:00","2009","07","16","21:00","7.4","","7.4","","100","","18","","15","","","","98.08","","","","","","NA"
"2009-07-16 22:00","2009","07","16","22:00","7.7","","7.7","","100","","17","","15","","","","98.07","","","","","","NA"
"2009-07-16 23:00","2009","07","16","23:00","7.4","","7.4","","100","","19","","11","","","","98.06","","","","","","NA"
"2009-07-17 00:00","2009","07","17","00:00","6.9","","6.9","","100","","17","","9","","","","98.07","","","","","","NA"
"2009-07-17 01:00","2009","07","17","01:00","7.3","","7.3","","100","","17","","17","","","","98.04","","","","","","NA"
"2009-07-17 02:00","2009","07","17","02:00","7.5","","7.5","","100","","19","","7","","","","98.06","","","","","","NA"
"2009-07-17 03:00","2009","07","17","03:00","7.1","","7.1","","100","","16","","6","","","","98.07","","","","","","NA"
"2009-07-17 04:00","2009","07","17","04:00","6.9","","6.9","","100","","28","","4","","","","98.09","","","","","","NA"
"2009-07-17 05:00","2009","07","17","05:00","6.8","","6.8","","100","","","","0","","","","98.12","","","","","","NA"
"2009-07-17 06:00","2009","07","17","06:00","7.0","","7.0","","100","","23","","4","","","","98.17","","","","","","NA"
"2009-07-17 07:00","2009","07","17","07:00","7.3","","7.3","","100","","23","","2","","","","98.21","","","","","","NA"
"2009-07-17 08:00","2009","07","17","08:00","7.6","","7.6","","100","","24","","4","","","","98.25","","","","","","NA"
"2009-07-17 09:00","2009","07","17","09:00","8.5","","8.5","","100","","24","","6","","","","98.24","","","","","","NA"
"2009-07-17 10:00","2009","07","17","10:00","9.4","","9.4","","100","","23","","6","","","","98.28","","","","","","NA"
"2009-07-17 11:00","2009","07","17","11:00","9.3","","9.2","","99","","24","","7","","","","98.29","","","","","","NA"
"2009-07-17 12:00","2009","07","17","12:00","9.8","","9.4","","97","","25","","11","","","","98.31","","","","","","NA"
"2009-07-17 13:00","2009","07","17","13:00","9.5","","9.1","","97","","23","","9","","","","98.33","","","","","","NA"
"2009-07-17 14:00","2009","07","17","14:00","9.2","","9.2","","100","","20","","6","","","","98.32","","","","","","NA"
"2009-07-17 15:00","2009","07","17","15:00","10.9","","10.7","","99","","23","","4","","","","98.32","","","","","","NA"
"2009-07-17 16:00","2009","07","17","16:00","12.5","","11.7","","95","","21","","9","","","","98.33","","","","","","NA"
"2009-07-17 17:00","2009","07","17","17:00","10.9","","10.7","","99","","21","","6","","","","98.37","","","","","","NA"
"2009-07-17 18:00","2009","07","17","18:00","10.7","","10.6","","99","","27","","4","","","","98.43","","","","","","NA"
"2009-07-17 19:00","2009","07","17","19:00","13.8","","13.4","","97","","1","","19","","","","98.47","","","","","","NA"
"2009-07-17 20:00","2009","07","17","20:00","13.1","","13.1","","100","","1","","11","","","","98.47","","","","","","NA"
"2009-07-17 21:00","2009","07","17","21:00","13.0","","13.0","","100","","33","","6","","","","98.49","","","","","","NA"
"2009-07-17 22:00","2009","07","17","22:00","12.1","","12.1","","100","","33","","7","","","","98.50","","","","","","NA"
"2009-07-17 23:00","2009","07","17","23:00","13.2","","13.2","","100","","36","","9","","","","98.50","","","","","","NA"
"2009-07-18 00:00","2009","07","18","00:00","13.3","","13.3","","100","","1","","9","","","","98.48","","","","","","NA"
"2009-07-18 01:00","2009","07","18","01:00","13.1","","13.1","","100","","1","","13","","","","98.49","","","","","","NA"
"2009-07-18 02:00","2009","07","18","02:00","12.8","","12.8","","100","","1","","15","","","","98.48","","","","","","NA"
"2009-07-18 03:00","2009","07","18","03:00","12.6","","12.6","","100","","1","","11","","","","98.53","","","","","","NA"
"2009-07-18 04:00","2009","07","18","04:00","12.4","","12.4","","100","","1","","9","","","","98.60","","","","","","NA"
"2009-07-18 05:00","2009","07","18","05:00","11.8","","11.8","","100","","2","","15","","","","98.62","","","","","","NA"
"2009-07-18 06:00","2009","07","18","06:00","11.7","","11.7","","100","","2","","13","","","","98.66","","","","","","NA"
"2009-07-18 07:00","2009","07","18","07:00","12.1","","11.9","","99","","1","","13","","","","98.71","","","","","","NA"
"2009-07-18 08:00","2009","07","18","08:00","12.5","","11.9","","96","","1","","19","","","","98.73","","","","","","NA"
"2009-07-18 09:00","2009","07","18","09:00","12.8","","12.0","","95","","2","","13","","","","98.77","","","","","","NA"
"2009-07-18 10:00","2009","07","18","10:00","13.4","","12.4","","94","","1","","11","","","","98.78","","","","","","NA"
"2009-07-18 11:00","2009","07","18","11:00","14.3","","12.1","","87","","5","","17","","","","98.81","","","","","","NA"
"2009-07-18 12:00","2009","07","18","12:00","14.3","","12.3","","88","","35","","15","","","","98.83","","","","","","NA"
"2009-07-18 13:00","2009","07","18","13:00","16.1","","12.3","","78","","36","","9","","","","98.81","","","","","","NA"
"2009-07-18 14:00","2009","07","18","14:00","16.4","","12.1","","76","","30","","13","","","","98.81","","","","","","NA"
"2009-07-18 15:00","2009","07","18","15:00","13.2","","10.8","","85","","28","","9","","","","98.83","","","","","","NA"
"2009-07-18 16:00","2009","07","18","16:00","12.9","","10.7","","86","","24","","4","","","","98.85","","","","","","NA"
"2009-07-18 17:00","2009","07","18","17:00","12.8","","10.5","","86","","24","","4","","","","98.86","","","","","","NA"
"2009-07-18 18:00","2009","07","18","18:00","11.1","","9.8","","92","","23","","7","","","","98.88","","","","","","NA"
"2009-07-18 19:00","2009","07","18","19:00","11.1","","9.6","","90","","23","","7","","","","98.89","","","","","","NA"
"2009-07-18 20:00","2009","07","18","20:00","10.6","","10.3","","98","","","","0","","","","98.93","","","","","","NA"
"2009-07-18 21:00","2009","07","18","21:00","9.5","","9.5","","100","","19","","6","","","","99.00","","","","","","NA"
"2009-07-18 22:00","2009","07","18","22:00","9.5","","9.5","","100","","13","","4","","","","99.04","","","","","","NA"
"2009-07-18 23:00","2009","07","18","23:00","9.3","","9.3","","100","","","","0","","","","99.06","","","","","","NA"
"2009-07-19 00:00","2009","07","19","00:00","9.4","","9.4","","100","","","","0","","","","99.05","","","","","","NA"
"2009-07-19 01:00","2009","07","19","01:00","9.5","","9.5","","100","","32","","9","","","","99.04","","","","","","NA"
"2009-07-19 02:00","2009","07","19","02:00","11.7","","11.7","","100","","4","","11","","","","99.05","","","","","","NA"
"2009-07-19 03:00","2009","07","19","03:00","10.4","","10.4","","100","","1","","4","","","","99.08","","","","","","NA"
"2009-07-19 04:00","2009","07","19","04:00","12.0","","11.9","","99","","4","","11","","","","99.10","","","","","","NA"
"2009-07-19 05:00","2009","07","19","05:00","11.0","","11.0","","100","","35","","6","","","","99.14","","","","","","NA"
"2009-07-19 06:00","2009","07","19","06:00","12.7","","11.4","","92","","4","","15","","","","99.17","","","","","","NA"
"2009-07-19 07:00","2009","07","19","07:00","13.0","","11.4","","90","","4","","13","","","","99.25","","","","","","NA"
"2009-07-19 08:00","2009","07","19","08:00","15.3","","11.6","","79","","2","","7","","","","99.30","","","","","","NA"
"2009-07-19 09:00","2009","07","19","09:00","17.1","","11.6","","70","","3","","6","","","","99.31","","","","","","NA"
"2009-07-19 10:00","2009","07","19","10:00","14.8","","11.1","","78","","29","","11","","","","99.34","","","","","","NA"
"2009-07-19 11:00","2009","07","19","11:00","14.1","","10.9","","81","","31","","13","","","","99.34","","","","","","NA"
"2009-07-19 12:00","2009","07","19","12:00","13.2","","10.5","","84","","31","","11","","","","99.34","","","","","","NA"
"2009-07-19 13:00","2009","07","19","13:00","14.6","","10.9","","78","","27","","9","","","","99.33","","","","","","NA"
"2009-07-19 14:00","2009","07","19","14:00","14.2","","10.3","","77","","28","","13","","","","99.33","","","","","","NA"
"2009-07-19 15:00","2009","07","19","15:00","15.1","","10.3","","73","","27","","9","","","","99.32","","","","","","NA"
"2009-07-19 16:00","2009","07","19","16:00","14.3","","10.8","","79","","23","","6","","","","99.33","","","","","","NA"
"2009-07-19 17:00","2009","07","19","17:00","13.9","","9.9","","77","","25","","7","","","","99.33","","","","","","NA"
"2009-07-19 18:00","2009","07","19","18:00","13.5","","10.7","","83","","28","","2","","","","99.32","","","","","","NA"
"2009-07-19 19:00","2009","07","19","19:00","12.8","","10.7","","87","","22","","7","","","","99.30","","","","","","NA"
"2009-07-19 20:00","2009","07","19","20:00","11.7","","10.3","","91","","22","","6","","","","99.31","","","","","","NA"
"2009-07-19 21:00","2009","07","19","21:00","10.3","","10.3","","100","","22","","7","","","","99.32","","","","","","NA"
"2009-07-19 22:00","2009","07","19","22:00","9.7","","9.7","","100","","10","","7","","","","99.32","","","","","","NA"
"2009-07-19 23:00","2009","07","19","23:00","9.3","","9.3","","100","","9","","6","","","","99.34","","","","","","NA"
"2009-07-20 00:00","2009","07","20","00:00","8.8","","8.8","","100","","8","","6","","","","99.37","","","","","","NA"
"2009-07-20 01:00","2009","07","20","01:00","8.2","","8.2","","100","","8","","6","","","","99.36","","","","","","NA"
"2009-07-20 02:00","2009","07","20","02:00","9.2","","9.2","","100","","17","","6","","","","99.36","","","","","","NA"
"2009-07-20 03:00","2009","07","20","03:00","8.5","","8.5","","100","","18","","11","","","","99.36","","","","","","NA"
"2009-07-20 04:00","2009","07","20","04:00","7.7","","7.7","","100","","22","","9","","","","99.40","","","","","","NA"
"2009-07-20 05:00","2009","07","20","05:00","7.8","","7.8","","100","","13","","7","","","","99.39","","","","","","NA"
"2009-07-20 06:00","2009","07","20","06:00","7.7","","7.7","","100","","9","","6","","","","99.41","","","","","","NA"
"2009-07-20 07:00","2009","07","20","07:00","10.2","","10.0","","99","","10","","4","","","","99.42","","","","","","NA"
"2009-07-20 08:00","2009","07","20","08:00","10.5","","10.0","","97","","27","","6","","","","99.46","","","","","","NA"
"2009-07-20 09:00","2009","07","20","09:00","11.4","","10.0","","91","","26","","4","","","","99.44","","","","","","NA"
"2009-07-20 10:00","2009","07","20","10:00","12.1","","10.3","","89","","21","","6","","","","99.45","","","","","","NA"
"2009-07-20 11:00","2009","07","20","11:00","13.9","","11.2","","84","","20","","7","","","","99.44","","","","","","NA"
"2009-07-20 12:00","2009","07","20","12:00","14.6","","11.1","","80","","18","","15","","","","99.40","","","","","","NA"
"2009-07-20 13:00","2009","07","20","13:00","15.1","","11.2","","78","","18","","13","","","","99.42","","","","","","NA"
"2009-07-20 14:00","2009","07","20","14:00","16.5","","11.3","","71","","17","","17","","","","99.35","","","","","","NA"
"2009-07-20 15:00","2009","07","20","15:00","16.1","","10.9","","71","","18","","15","","","","99.32","","","","","","NA"
"2009-07-20 16:00","2009","07","20","16:00","16.3","","11.3","","72","","17","","15","","","","99.26","","","","","","NA"
"2009-07-20 17:00","2009","07","20","17:00","16.0","","11.3","","74","","17","","13","","","","99.21","","","","","","NA"
"2009-07-20 18:00","2009","07","20","18:00","16.2","","10.8","","70","","16","","20","","","","99.18","","","","","","NA"
"2009-07-20 19:00","2009","07","20","19:00","17.0","","11.2","","69","","17","","20","","","","99.18","","","","","","NA"
"2009-07-20 20:00","2009","07","20","20:00","14.4","","11.1","","81","","17","","17","","","","99.19","","","","","","NA"
"2009-07-20 21:00","2009","07","20","21:00","13.1","","11.3","","89","","16","","15","","","","99.21","","","","","","NA"
"2009-07-20 22:00","2009","07","20","22:00","15.7","","12.8","","83","","12","","9","","","","99.21","","","","","","NA"
"2009-07-20 23:00","2009","07","20","23:00","16.9","","12.3","","74","","14","","9","","","","99.20","","","","","","NA"
"2009-07-21 00:00","2009","07","21","00:00","16.1","","11.3","","73","","17","","26","","","","99.20","","","","","","NA"
"2009-07-21 01:00","2009","07","21","01:00","14.7","","11.6","","82","","17","","30","","","","99.20","","","","","","NA"
"2009-07-21 02:00","2009","07","21","02:00","14.2","","11.6","","84","","17","","28","","","","99.20","","","","","","NA"
"2009-07-21 03:00","2009","07","21","03:00","15.7","","11.3","","75","","17","","32","","","","99.16","","","","","","NA"
"2009-07-21 04:00","2009","07","21","04:00","16.1","","10.8","","71","","16","","26","","","","99.14","","","","","","NA"
"2009-07-21 05:00","2009","07","21","05:00","15.6","","12.1","","80","","17","","24","","","","99.14","","","","","","NA"
"2009-07-21 06:00","2009","07","21","06:00","15.1","","11.8","","81","","17","","26","","","","99.17","","","","","","NA"
"2009-07-21 07:00","2009","07","21","07:00","14.5","","11.2","","81","","17","","28","","","","99.20","","","","","","NA"
"2009-07-21 08:00","2009","07","21","08:00","15.6","","11.3","","76","","17","","30","","","","99.22","","","","","","NA"
"2009-07-21 09:00","2009","07","21","09:00","16.6","","10.8","","69","","17","","37","","","","99.21","","","","","","NA"
"2009-07-21 10:00","2009","07","21","10:00","17.0","","10.9","","67","","17","","28","","","","99.20","","","","","","NA"
"2009-07-21 11:00","2009","07","21","11:00","16.2","","11.5","","74","","17","","24","","","","99.23","","","","","","NA"
"2009-07-21 12:00","2009","07","21","12:00","16.2","","11.2","","72","","17","","24","","","","99.21","","","","","","NA"
"2009-07-21 13:00","2009","07","21","13:00","16.8","","11.1","","69","","17","","28","","","","99.21","","","","","","NA"
"2009-07-21 14:00","2009","07","21","14:00","16.7","","11.1","","70","","17","","24","","","","99.20","","","","","","NA"
"2009-07-21 15:00","2009","07","21","15:00","17.9","","11.1","","64","","17","","24","","","","99.17","","","","","","NA"
"2009-07-21 16:00","2009","07","21","16:00","18.4","","12.0","","66","","17","","26","","","","99.12","","","","","","NA"
"2009-07-21 17:00","2009","07","21","17:00","21.1","","12.9","","59","","17","","22","","","","99.05","","","","","","NA"
"2009-07-21 18:00","2009","07","21","18:00","19.2","","12.8","","66","","17","","26","","","","99.02","","","","","","NA"
"2009-07-21 19:00","2009","07","21","19:00","16.5","","12.6","","78","","17","","22","","","","99.04","","","","","","NA"
"2009-07-21 20:00","2009","07","21","20:00","19.7","","13.6","","68","","16","","17","","","","99.05","","","","","","NA"
"2009-07-21 21:00","2009","07","21","21:00","17.0","","14.3","","84","","15","","11","","","","99.06","","","","","","NA"
"2009-07-21 22:00","2009","07","21","22:00","18.9","","14.6","","76","","16","","19","","","","99.07","","","","","","NA"
"2009-07-21 23:00","2009","07","21","23:00","16.8","","13.2","","79","","17","","26","","","","99.09","","","","","","NA"
"2009-07-22 00:00","2009","07","22","00:00","15.7","","12.4","","81","","16","","17","","","","99.09","","","","","","NA"
"2009-07-22 01:00","2009","07","22","01:00","18.4","","13.1","","71","","13","","15","","","","99.09","","","","","","NA"
"2009-07-22 02:00","2009","07","22","02:00","17.3","","13.3","","77","","11","","11","","","","99.07","","","","","","NA"
"2009-07-22 03:00","2009","07","22","03:00","16.6","","13.6","","82","","12","","11","","","","99.08","","","","","","NA"
"2009-07-22 04:00","2009","07","22","04:00","16.1","","13.6","","85","","14","","11","","","","99.08","","","","","","NA"
"2009-07-22 05:00","2009","07","22","05:00","16.2","","14.0","","87","","10","","11","","","","99.07","","","","","","NA"
"2009-07-22 06:00","2009","07","22","06:00","13.1","","11.7","","91","","16","","15","","","","99.14","","","","","","NA"
"2009-07-22 07:00","2009","07","22","07:00","15.3","","13.6","","90","","18","","20","","","","99.15","","","","","","NA"
"2009-07-22 08:00","2009","07","22","08:00","13.0","","13.0","","100","","16","","17","","","","99.20","","","","","","NA"
"2009-07-22 09:00","2009","07","22","09:00","13.2","","13.2","","100","","17","","22","","","","99.24","","","","","","NA"
"2009-07-22 10:00","2009","07","22","10:00","15.6","","15.6","","100","","14","","9","","","","99.25","","","","","","NA"
"2009-07-22 11:00","2009","07","22","11:00","13.9","","13.9","","100","","17","","20","","","","99.30","","","","","","NA"
"2009-07-22 12:00","2009","07","22","12:00","14.4","","14.4","","100","","17","","15","","","","99.32","","","","","","NA"
"2009-07-22 13:00","2009","07","22","13:00","15.4","","14.6","","95","","18","","11","","","","99.29","","","","","","NA"
"2009-07-22 14:00","2009","07","22","14:00","15.2","","15.0","","99","","17","","11","","","","99.25","","","","","","NA"
"2009-07-22 15:00","2009","07","22","15:00","18.4","","15.2","","82","","18","","11","","","","99.22","","","","","","NA"
"2009-07-22 16:00","2009","07","22","16:00","17.7","","16.1","","90","","15","","13","","","","99.16","","","","","","NA"
"2009-07-22 17:00","2009","07","22","17:00","17.0","","15.9","","93","","17","","9","","","","99.13","","","","","","NA"
"2009-07-22 18:00","2009","07","22","18:00","17.2","","16.0","","93","","18","","9","","","","99.10","","","","","","NA"
"2009-07-22 19:00","2009","07","22","19:00","13.6","","13.6","","100","","","","0","","","","99.10","","","","","","NA"
"2009-07-22 20:00","2009","07","22","20:00","14.0","","14.0","","100","","","","0","","","","99.09","","","","","","NA"
"2009-07-22 21:00","2009","07","22","21:00","13.8","","13.8","","100","","35","","2","","","","99.14","","","","","","NA"
"2009-07-22 22:00","2009","07","22","22:00","14.5","","14.5","","100","","6","","4","","","","99.11","","","","","","NA"
"2009-07-22 23:00","2009","07","22","23:00","14.9","","14.9","","100","","","","0","","","","99.07","","","","","","NA"
"2009-07-23 00:00","2009","07","23","00:00","14.7","","14.7","","100","","35","","2","","","","99.04","","","","","","NA"
"2009-07-23 01:00","2009","07","23","01:00","15.1","","15.1","","100","","6","","6","","","","99.02","","","","","","NA"
"2009-07-23 02:00","2009","07","23","02:00","14.9","","14.9","","100","","2","","4","","","","98.98","","","","","","NA"
"2009-07-23 03:00","2009","07","23","03:00","14.7","","14.7","","100","","","","0","","","","98.98","","","","","","NA"
"2009-07-23 04:00","2009","07","23","04:00","13.7","","13.7","","100","","28","","6","","","","98.97","","","","","","NA"
"2009-07-23 05:00","2009","07","23","05:00","13.0","","13.0","","100","","","","0","","","","98.98","","","","","","NA"
"2009-07-23 06:00","2009","07","23","06:00","13.9","","13.9","","100","","5","","2","","","","98.98","","","","","","NA"
"2009-07-23 07:00","2009","07","23","07:00","13.3","","13.3","","100","","11","","2","","","","98.98","","","","","","NA"
"2009-07-23 08:00","2009","07","23","08:00","12.5","","12.5","","100","","32","","2","","","","98.99","","","","","","NA"
"2009-07-23 09:00","2009","07","23","09:00","13.2","","13.2","","100","","31","","6","","","","98.96","","","","","","NA"
"2009-07-23 10:00","2009","07","23","10:00","14.6","","14.6","","100","","32","","6","","","","98.95","","","","","","NA"
"2009-07-23 11:00","2009","07","23","11:00","17.0","","16.8","","99","","31","","6","","","","98.91","","","","","","NA"
"2009-07-23 12:00","2009","07","23","12:00","17.5","","16.4","","93","","29","","6","","","","98.86","","","","","","NA"
"2009-07-23 13:00","2009","07","23","13:00","14.9","","14.9","","100","","31","","11","","","","98.83","","","","","","NA"
"2009-07-23 14:00","2009","07","23","14:00","14.3","","14.2","","99","","31","","13","","","","98.80","","","","","","NA"
"2009-07-23 15:00","2009","07","23","15:00","14.1","","13.4","","96","","29","","7","","","","98.76","","","","","","NA"
"2009-07-23 16:00","2009","07","23","16:00","12.5","","12.5","","100","","24","","7","","","","98.74","","","","","","NA"
"2009-07-23 17:00","2009","07","23","17:00","11.9","","11.9","","100","","23","","6","","","","98.71","","","","","","NA"
"2009-07-23 18:00","2009","07","23","18:00","11.0","","11.0","","100","","20","","7","","","","98.69","","","","","","NA"
"2009-07-23 19:00","2009","07","23","19:00","10.2","","10.2","","100","","22","","6","","","","98.64","","","","","","NA"
"2009-07-23 20:00","2009","07","23","20:00","10.2","","10.2","","100","","18","","9","","","","98.63","","","","","","NA"
"2009-07-23 21:00","2009","07","23","21:00","10.0","","10.0","","100","","15","","7","","","","98.60","","","","","","NA"
"2009-07-23 22:00","2009","07","23","22:00","9.7","","9.7","","100","","27","","4","","","","98.59","","","","","","NA"
"2009-07-23 23:00","2009","07","23","23:00","9.7","","9.7","","100","","14","","6","","","","98.53","","","","","","NA"
"2009-07-24 00:00","2009","07","24","00:00","9.3","","9.3","","100","","20","","6","","","","98.49","","","","","","NA"
"2009-07-24 01:00","2009","07","24","01:00","8.9","","8.9","","100","","14","","6","","","","98.40","","","","","","NA"
"2009-07-24 02:00","2009","07","24","02:00","8.6","","8.6","","100","","33","","4","","","","98.36","","","","","","NA"
"2009-07-24 03:00","2009","07","24","03:00","8.2","","8.2","","100","","","","0","","","","98.36","","","","","","NA"
"2009-07-24 04:00","2009","07","24","04:00","8.3","","8.3","","100","","22","","6","","","","98.32","","","","","","NA"
"2009-07-24 05:00","2009","07","24","05:00","7.7","","7.7","","100","","22","","4","","","","98.33","","","","","","NA"
"2009-07-24 06:00","2009","07","24","06:00","8.3","","8.3","","100","","15","","6","","","","98.31","","","","","","NA"
"2009-07-24 07:00","2009","07","24","07:00","9.3","","9.3","","100","","8","","11","","","","98.21","","","","","","NA"
"2009-07-24 08:00","2009","07","24","08:00","13.2","","13.2","","100","","9","","6","","","","98.19","","","","","","NA"
"2009-07-24 09:00","2009","07","24","09:00","10.4","","10.4","","100","","30","","2","","","","98.21","","","","","","NA"
"2009-07-24 10:00","2009","07","24","10:00","11.7","","11.7","","100","","10","","9","","","","98.12","","","","","","NA"
"2009-07-24 11:00","2009","07","24","11:00","13.3","","13.1","","99","","17","","17","","","","98.05","","","","","","NA"
"2009-07-24 12:00","2009","07","24","12:00","14.0","","13.2","","95","","17","","17","","","","98.06","","","","","","NA"
"2009-07-24 13:00","2009","07","24","13:00","13.5","","12.8","","96","","18","","13","","","","98.03","","","","","","NA"
"2009-07-24 14:00","2009","07","24","14:00","12.5","","12.5","","100","","17","","22","","","","98.04","","","","","","NA"
"2009-07-24 15:00","2009","07","24","15:00","12.4","","12.4","","100","","19","","17","","","","98.00","","","","","","NA"
"2009-07-24 16:00","2009","07","24","16:00","13.7","","13.7","","100","","17","","19","","","","97.98","","","","","","NA"
"2009-07-24 17:00","2009","07","24","17:00","13.0","","13.0","","100","","17","","19","","","","98.00","","","","","","NA"
"2009-07-24 18:00","2009","07","24","18:00","14.1","","14.1","","100","","17","","19","","","","97.98","","","","","","NA"
"2009-07-24 19:00","2009","07","24","19:00","14.1","","14.1","","100","","16","","19","","","","97.94","","","","","","NA"
"2009-07-24 20:00","2009","07","24","20:00","14.5","","14.5","","100","","16","","15","","","","97.89","","","","","","NA"
"2009-07-24 21:00","2009","07","24","21:00","15.7","","15.7","","100","","9","","11","","","","97.85","","","","","","NA"
"2009-07-24 22:00","2009","07","24","22:00","16.1","","16.1","","100","","9","","13","","","","97.83","","","","","","NA"
"2009-07-24 23:00","2009","07","24","23:00","16.2","","16.2","","100","","9","","15","","","","97.80","","","","","","NA"
"2009-07-25 00:00","2009","07","25","00:00","16.1","","16.1","","100","","10","","15","","","","97.76","","","","","","NA"
"2009-07-25 01:00","2009","07","25","01:00","14.1","","14.1","","100","","25","","6","","","","97.76","","","","","","NA"
"2009-07-25 02:00","2009","07","25","02:00","13.8","","13.8","","100","","4","","4","","","","97.75","","","","","","NA"
"2009-07-25 03:00","2009","07","25","03:00","14.3","","14.3","","100","","9","","4","","","","97.71","","","","","","NA"
"2009-07-25 04:00","2009","07","25","04:00","13.8","","13.8","","100","","32","","4","","","","97.71","","","","","","NA"
"2009-07-25 05:00","2009","07","25","05:00","13.5","","13.5","","100","","33","","9","","","","97.70","","","","","","NA"
"2009-07-25 06:00","2009","07","25","06:00","13.3","","13.3","","100","","35","","4","","","","97.72","","","","","","NA"
"2009-07-25 07:00","2009","07","25","07:00","13.2","","13.2","","100","","","","0","","","","97.73","","","","","","NA"
"2009-07-25 08:00","2009","07","25","08:00","14.9","","14.9","","100","","2","","6","","","","97.73","","","","","","NA"
"2009-07-25 09:00","2009","07","25","09:00","13.4","","13.4","","100","","32","","6","","","","97.74","","","","","","NA"
"2009-07-25 10:00","2009","07","25","10:00","15.3","","15.3","","100","","32","","4","","","","97.71","","","","","","NA"
"2009-07-25 11:00","2009","07","25","11:00","15.2","","15.2","","100","","35","","6","","","","97.71","","","","","","NA"
"2009-07-25 12:00","2009","07","25","12:00","16.2","","16.2","","100","","36","","6","","","","97.71","","","","","","NA"
"2009-07-25 13:00","2009","07","25","13:00","15.7","","15.7","","100","","31","","7","","","","97.71","","","","","","NA"
"2009-07-25 14:00","2009","07","25","14:00","15.2","","15.2","","100","","30","","7","","","","97.71","","","","","","NA"
"2009-07-25 15:00","2009","07","25","15:00","12.9","","12.9","","100","","33","","6","","","","97.73","","","","","","NA"
"2009-07-25 16:00","2009","07","25","16:00","12.9","","12.9","","100","","18","","13","","","","97.73","","","","","","NA"
"2009-07-25 17:00","2009","07","25","17:00","13.5","","13.5","","100","","15","","17","","","","97.75","","","","","","NA"
"2009-07-25 18:00","2009","07","25","18:00","16.1","","16.1","","100","","14","","7","","","","97.80","","","","","","NA"
"2009-07-25 19:00","2009","07","25","19:00","15.8","","15.8","","100","","11","","6","","","","97.83","","","","","","NA"
"2009-07-25 20:00","2009","07","25","20:00","16.3","","16.3","","100","","","","0","","","","97.87","","","","","","NA"
"2009-07-25 21:00","2009","07","25","21:00","15.2","","15.2","","100","","","","0","","","","97.90","","","","","","NA"
"2009-07-25 22:00","2009","07","25","22:00","12.0","","12.0","","100","","34","","4","","","","97.92","","","","","","NA"
"2009-07-25 23:00","2009","07","25","23:00","15.2","","15.2","","100","","3","","7","","","","97.92","","","","","","NA"
"2009-07-26 00:00","2009","07","26","00:00","15.2","","15.2","","100","","3","","9","","","","97.90","","","","","","NA"
"2009-07-26 01:00","2009","07","26","01:00","14.8","","14.8","","100","","5","","6","","","","97.89","","","","","","NA"
"2009-07-26 02:00","2009","07","26","02:00","14.7","","14.7","","100","","2","","13","","","","97.90","","","","","","NA"
"2009-07-26 03:00","2009","07","26","03:00","15.0","","15.0","","100","","2","","7","","","","97.92","","","","","","NA"
"2009-07-26 04:00","2009","07","26","04:00","15.5","","15.5","","100","","2","","7","","","","97.93","","","","","","NA"
"2009-07-26 05:00","2009","07","26","05:00","15.7","","15.7","","100","","2","","7","","","","97.94","","","","","","NA"
"2009-07-26 06:00","2009","07","26","06:00","15.7","","15.7","","100","","3","","9","","","","98.00","","","","","","NA"
"2009-07-26 07:00","2009","07","26","07:00","16.0","","16.0","","100","","1","","7","","","","98.06","","","","","","NA"
"2009-07-26 08:00","2009","07","26","08:00","16.1","","16.1","","100","","36","","7","","","","98.07","","","","","","NA"
"2009-07-26 09:00","2009","07","26","09:00","16.0","","16.0","","100","","36","","9","","","","98.07","","","","","","NA"
"2009-07-26 10:00","2009","07","26","10:00","15.9","","15.9","","100","","32","","9","","","","98.06","","","","","","NA"
"2009-07-26 11:00","2009","07","26","11:00","14.6","","14.6","","100","","30","","11","","","","98.07","","","","","","NA"
"2009-07-26 12:00","2009","07","26","12:00","14.4","","14.4","","100","","31","","9","","","","98.05","","","","","","NA"
"2009-07-26 13:00","2009","07","26","13:00","14.2","","14.2","","100","","24","","2","","","","98.06","","","","","","NA"
"2009-07-26 14:00","2009","07","26","14:00","13.5","","13.5","","100","","27","","2","","","","98.07","","","","","","NA"
"2009-07-26 15:00","2009","07","26","15:00","16.9","","16.9","","100","","33","","11","","","","98.05","","","","","","NA"
"2009-07-26 16:00","2009","07","26","16:00","17.3","","17.3","","100","","34","","9","","","","98.07","","","","","","NA"
"2009-07-26 17:00","2009","07","26","17:00","17.5","","17.5","","100","","4","","7","","","","98.07","","","","","","NA"
"2009-07-26 18:00","2009","07","26","18:00","15.8","","15.8","","100","","31","","9","","","","98.06","","","","","","NA"
"2009-07-26 19:00","2009","07","26","19:00","17.0","","17.0","","100","","32","","6","","","","98.06","","","","","","NA"
"2009-07-26 20:00","2009","07","26","20:00","12.5","","12.5","","100","","22","","4","","","","98.10","","","","","","NA"
"2009-07-26 21:00","2009","07","26","21:00","13.5","","13.5","","100","","19","","4","","","","98.12","","","","","","NA"
"2009-07-26 22:00","2009","07","26","22:00","13.7","","13.7","","100","","","","0","","","","98.11","","","","","","NA"
"2009-07-26 23:00","2009","07","26","23:00","11.9","","11.9","","100","","17","","4","","","","98.10","","","","","","NA"
"2009-07-27 00:00","2009","07","27","00:00","12.6","","12.6","","100","","18","","4","","","","98.11","","","","","","NA"
"2009-07-27 01:00","2009","07","27","01:00","12.0","","12.0","","100","","21","","7","","","","98.09","","","","","","NA"
"2009-07-27 02:00","2009","07","27","02:00","11.9","","11.9","","100","","","","0","","","","98.10","","","","","","NA"
"2009-07-27 03:00","2009","07","27","03:00","12.1","","12.1","","100","","27","","2","","","","98.12","","","","","","NA"
"2009-07-27 04:00","2009","07","27","04:00","12.5","","12.5","","100","","10","","2","","","","98.15","","","","","","NA"
"2009-07-27 05:00","2009","07","27","05:00","12.1","","12.1","","100","","","","0","","","","98.15","","","","","","NA"
"2009-07-27 06:00","2009","07","27","06:00","12.1","","12.1","","100","","23","","4","","","","98.17","","","","","","NA"
"2009-07-27 07:00","2009","07","27","07:00","13.2","","13.2","","100","","18","","6","","","","98.17","","","","","","NA"
"2009-07-27 08:00","2009","07","27","08:00","11.6","","11.6","","100","","22","","7","","","","98.20","","","","","","NA"
"2009-07-27 09:00","2009","07","27","09:00","14.5","","14.5","","100","","19","","6","","","","98.19","","","","","","NA"
"2009-07-27 10:00","2009","07","27","10:00","15.0","","14.6","","97","","21","","6","","","","98.17","","","","","","NA"
"2009-07-27 11:00","2009","07","27","11:00","15.0","","14.5","","97","","18","","9","","","","98.17","","","","","","NA"
"2009-07-27 12:00","2009","07","27","12:00","14.0","","13.0","","94","","20","","15","","","","98.17","","","","","","NA"
"2009-07-27 13:00","2009","07","27","13:00","17.0","","15.8","","93","","17","","17","","","","98.11","","","","","","NA"
"2009-07-27 14:00","2009","07","27","14:00","17.0","","15.2","","89","","17","","20","","","","98.10","","","","","","NA"
"2009-07-27 15:00","2009","07","27","15:00","16.1","","14.6","","91","","17","","20","","","","98.07","","","","","","NA"
"2009-07-27 16:00","2009","07","27","16:00","16.6","","15.4","","93","","18","","20","","","","98.06","","","","","","NA"
"2009-07-27 17:00","2009","07","27","17:00","15.3","","14.8","","97","","20","","13","","","","98.08","","","","","","NA"
"2009-07-27 18:00","2009","07","27","18:00","15.3","","15.1","","99","","17","","19","","","","97.97","","","","","","NA"
"2009-07-27 19:00","2009","07","27","19:00","15.2","","15.0","","99","","17","","20","","","","97.94","","","","","","NA"
"2009-07-27 20:00","2009","07","27","20:00","12.7","","12.7","","100","","18","","19","","","","97.91","","","","","","NA"
"2009-07-27 21:00","2009","07","27","21:00","13.0","","13.0","","100","","18","","13","","","","97.92","","","","","","NA"
"2009-07-27 22:00","2009","07","27","22:00","12.6","","12.6","","100","","18","","11","","","","97.88","","","","","","NA"
"2009-07-27 23:00","2009","07","27","23:00","13.1","","13.1","","100","","17","","17","","","","97.80","","","","","","NA"
"2009-07-28 00:00","2009","07","28","00:00","13.7","","13.7","","100","","17","","24","","","","97.78","","","","","","NA"
"2009-07-28 01:00","2009","07","28","01:00","12.9","","12.9","","100","","17","","13","","","","97.78","","","","","","NA"
"2009-07-28 02:00","2009","07","28","02:00","12.5","","12.5","","100","","21","","15","","","","97.72","","","","","","NA"
"2009-07-28 03:00","2009","07","28","03:00","11.6","","11.6","","100","","20","","9","","","","97.68","","","","","","NA"
"2009-07-28 04:00","2009","07","28","04:00","11.7","","11.7","","100","","19","","6","","","","97.63","","","","","","NA"
"2009-07-28 05:00","2009","07","28","05:00","10.9","","10.9","","100","","17","","15","","","","97.62","","","","","","NA"
"2009-07-28 06:00","2009","07","28","06:00","10.6","","10.6","","100","","17","","15","","","","97.60","","","","","","NA"
"2009-07-28 07:00","2009","07","28","07:00","11.0","","11.0","","100","","18","","17","","","","97.57","","","","","","NA"
"2009-07-28 08:00","2009","07","28","08:00","11.4","","11.4","","100","","18","","17","","","","97.56","","","","","","NA"
"2009-07-28 09:00","2009","07","28","09:00","11.8","","11.8","","100","","19","","19","","","","97.57","","","","","","NA"
"2009-07-28 10:00","2009","07","28","10:00","11.3","","11.3","","100","","19","","17","","","","97.59","","","","","","NA"
"2009-07-28 11:00","2009","07","28","11:00","10.9","","10.9","","100","","19","","19","","","","97.63","","","","","","NA"
"2009-07-28 12:00","2009","07","28","12:00","11.7","","11.7","","100","","18","","17","","","","97.62","","","","","","NA"
"2009-07-28 13:00","2009","07","28","13:00","12.5","","12.4","","99","","19","","15","","","","97.59","","","","","","NA"
"2009-07-28 14:00","2009","07","28","14:00","12.2","","12.0","","99","","18","","13","","","","97.61","","","","","","NA"
"2009-07-28 15:00","2009","07","28","15:00","14.8","","13.3","","91","","19","","13","","","","97.63","","","","","","NA"
"2009-07-28 16:00","2009","07","28","16:00","12.9","","12.1","","95","","18","","20","","","","97.65","","","","","","NA"
"2009-07-28 17:00","2009","07","28","17:00","12.9","","12.4","","97","","20","","15","","","","97.68","","","","","","NA"
"2009-07-28 18:00","2009","07","28","18:00","12.9","","12.5","","97","","17","","19","","","","97.67","","","","","","NA"
"2009-07-28 19:00","2009","07","28","19:00","12.2","","12.2","","100","","18","","22","","","","97.66","","","","","","NA"
"2009-07-28 20:00","2009","07","28","20:00","11.2","","11.2","","100","","18","","24","","","","97.66","","","","","","NA"
"2009-07-28 21:00","2009","07","28","21:00","10.7","","10.7","","100","","19","","22","","","","97.66","","","","","","NA"
"2009-07-28 22:00","2009","07","28","22:00","10.1","","10.1","","100","","19","","17","","","","97.70","","","","","","NA"
"2009-07-28 23:00","2009","07","28","23:00","10.1","","10.1","","100","","19","","15","","","","97.67","","","","","","NA"
"2009-07-29 00:00","2009","07","29","00:00","9.9","","9.9","","100","","18","","19","","","","97.69","","","","","","NA"
"2009-07-29 01:00","2009","07","29","01:00","9.9","","9.9","","100","","17","","17","","","","97.67","","","","","","NA"
"2009-07-29 02:00","2009","07","29","02:00","9.5","","9.5","","100","","20","","11","","","","97.64","","","","","","NA"
"2009-07-29 03:00","2009","07","29","03:00","9.9","","9.9","","100","","20","","9","","","","97.64","","","","","","NA"
"2009-07-29 04:00","2009","07","29","04:00","10.0","","10.0","","100","","19","","11","","","","97.66","","","","","","NA"
"2009-07-29 05:00","2009","07","29","05:00","9.4","","9.4","","100","","20","","9","","","","97.68","","","","","","NA"
"2009-07-29 06:00","2009","07","29","06:00","9.9","","9.9","","100","","19","","7","","","","97.69","","","","","","NA"
"2009-07-29 07:00","2009","07","29","07:00","9.5","","9.5","","100","","18","","9","","","","97.69","","","","","","NA"
"2009-07-29 08:00","2009","07","29","08:00","10.4","","10.4","","100","","15","","7","","","","97.72","","","","","","NA"
"2009-07-29 09:00","2009","07","29","09:00","10.1","","10.1","","100","","22","","7","","","","97.79","","","","","","NA"
"2009-07-29 10:00","2009","07","29","10:00","11.8","","11.8","","100","","18","","7","","","","97.88","","","","","","NA"
"2009-07-29 11:00","2009","07","29","11:00","12.7","","12.7","","100","","18","","7","","","","97.94","","","","","","NA"
"2009-07-29 12:00","2009","07","29","12:00","13.9","","13.9","","100","","21","","11","","","","97.96","","","","","","NA"
"2009-07-29 13:00","2009","07","29","13:00","14.1","","14.0","","99","","21","","7","","","","97.99","","","","","","NA"
"2009-07-29 14:00","2009","07","29","14:00","15.0","","13.5","","91","","25","","11","","","","98.01","","","","","","NA"
"2009-07-29 15:00","2009","07","29","15:00","15.4","","14.1","","92","","17","","7","","","","98.06","","","","","","NA"
"2009-07-29 16:00","2009","07","29","16:00","14.9","","13.7","","93","","20","","9","","","","98.13","","","","","","NA"
"2009-07-29 17:00","2009","07","29","17:00","14.7","","13.6","","93","","17","","11","","","","98.15","","","","","","NA"
"2009-07-29 18:00","2009","07","29","18:00","14.1","","12.7","","91","","18","","7","","","","98.19","","","","","","NA"
"2009-07-29 19:00","2009","07","29","19:00","12.5","","12.1","","97","","24","","13","","","","98.18","","","","","","NA"
"2009-07-29 20:00","2009","07","29","20:00","11.8","","11.5","","98","","21","","9","","","","98.18","","","","","","NA"
"2009-07-29 21:00","2009","07","29","21:00","11.2","","11.2","","100","","19","","4","","","","98.17","","","","","","NA"
"2009-07-29 22:00","2009","07","29","22:00","10.7","","10.7","","100","","11","","6","","","","98.17","","","","","","NA"
"2009-07-29 23:00","2009","07","29","23:00","11.3","","11.3","","100","","18","","11","","","","98.14","","","","","","NA"
"2009-07-30 00:00","2009","07","30","00:00","11.3","","11.3","","100","","18","","15","","","","98.14","","","","","","NA"
"2009-07-30 01:00","2009","07","30","01:00","11.2","","11.2","","100","","18","","13","","","","98.12","","","","","","NA"
"2009-07-30 02:00","2009","07","30","02:00","11.4","","11.4","","100","","19","","26","","","","98.13","","","","","","NA"
"2009-07-30 03:00","2009","07","30","03:00","11.1","","11.1","","100","","18","","24","","","","98.15","","","","","","NA"
"2009-07-30 04:00","2009","07","30","04:00","11.4","","11.4","","100","","18","","24","","","","98.11","","","","","","NA"
"2009-07-30 05:00","2009","07","30","05:00","10.8","","10.8","","100","","19","","24","","","","98.11","","","","","","NA"
"2009-07-30 06:00","2009","07","30","06:00","11.1","","11.1","","100","","18","","15","","","","98.10","","","","","","NA"
"2009-07-30 07:00","2009","07","30","07:00","11.3","","11.3","","100","","18","","15","","","","98.13","","","","","","NA"
"2009-07-30 08:00","2009","07","30","08:00","11.5","","11.5","","100","","20","","15","","","","98.14","","","","","","NA"
"2009-07-30 09:00","2009","07","30","09:00","12.3","","12.3","","100","","18","","17","","","","98.14","","","","","","NA"
"2009-07-30 10:00","2009","07","30","10:00","12.0","","12.0","","100","","18","","24","","","","98.18","","","","","","NA"
"2009-07-30 11:00","2009","07","30","11:00","12.5","","12.2","","98","","18","","24","","","","98.20","","","","","","NA"
"2009-07-30 12:00","2009","07","30","12:00","13.8","","12.2","","90","","20","","17","","","","98.20","","","","","","NA"
"2009-07-30 13:00","2009","07","30","13:00","14.0","","12.3","","89","","20","","19","","","","98.17","","","","","","NA"
"2009-07-30 14:00","2009","07","30","14:00","12.8","","12.4","","97","","17","","22","","","","98.15","","","","","","NA"
"2009-07-30 15:00","2009","07","30","15:00","12.3","","12.2","","99","","17","","19","","","","98.16","","","","","","NA"
"2009-07-30 16:00","2009","07","30","16:00","11.6","","11.6","","100","","18","","17","","","","98.21","","","","","","NA"
"2009-07-30 17:00","2009","07","30","17:00","11.8","","11.8","","100","","18","","19","","","","98.20","","","","","","NA"
"2009-07-30 18:00","2009","07","30","18:00","11.6","","11.6","","100","","18","","11","","","","98.19","","","","","","NA"
"2009-07-30 19:00","2009","07","30","19:00","11.6","","11.6","","100","","17","","15","","","","98.16","","","","","","NA"
"2009-07-30 20:00","2009","07","30","20:00","11.1","","11.1","","100","","20","","13","","","","98.16","","","","","","NA"
"2009-07-30 21:00","2009","07","30","21:00","10.0","","10.0","","100","","28","","11","","","","98.25","","","","","","NA"
"2009-07-30 22:00","2009","07","30","22:00","9.4","","9.4","","100","","24","","13","","","","98.31","","","","","","NA"
"2009-07-30 23:00","2009","07","30","23:00","9.8","","9.8","","100","","19","","4","","","","98.30","","","","","","NA"
"2009-07-31 00:00","2009","07","31","00:00","9.7","","9.7","","100","","18","","9","","","","98.32","","","","","","NA"
"2009-07-31 01:00","2009","07","31","01:00","9.9","","9.9","","100","","18","","6","","","","98.31","","","","","","NA"
"2009-07-31 02:00","2009","07","31","02:00","10.2","","10.2","","100","","25","","4","","","","98.31","","","","","","NA"
"2009-07-31 03:00","2009","07","31","03:00","9.8","","9.8","","100","","20","","2","","","","98.33","","","","","","NA"
"2009-07-31 04:00","2009","07","31","04:00","10.0","","10.0","","100","","15","","6","","","","98.32","","","","","","NA"
"2009-07-31 05:00","2009","07","31","05:00","10.2","","10.2","","100","","16","","6","","","","98.37","","","","","","NA"
"2009-07-31 06:00","2009","07","31","06:00","10.3","","10.3","","100","","17","","6","","","","98.42","","","","","","NA"
"2009-07-31 07:00","2009","07","31","07:00","10.6","","10.6","","100","","17","","6","","","","98.46","","","","","","NA"
"2009-07-31 08:00","2009","07","31","08:00","10.2","","10.2","","100","","24","","6","","","","98.53","","","","","","NA"
"2009-07-31 09:00","2009","07","31","09:00","10.3","","10.3","","100","","21","","9","","","","98.55","","","","","","NA"
"2009-07-31 10:00","2009","07","31","10:00","10.7","","10.7","","100","","22","","7","","","","98.59","","","","","","NA"
"2009-07-31 11:00","2009","07","31","11:00","11.8","","11.8","","100","","23","","9","","","","98.60","","","","","","NA"
"2009-07-31 12:00","2009","07","31","12:00","12.7","","12.3","","97","","23","","9","","","","98.59","","","","","","NA"
"2009-07-31 13:00","2009","07","31","13:00","14.0","","12.8","","92","","24","","7","","","","98.58","","","","","","NA"
"2009-07-31 14:00","2009","07","31","14:00","14.0","","12.7","","92","","22","","9","","","","98.61","","","","","","NA"
"2009-07-31 15:00","2009","07","31","15:00","14.4","","12.5","","88","","20","","9","","","","98.62","","","","","","NA"
"2009-07-31 16:00","2009","07","31","16:00","14.4","","13.1","","92","","18","","11","","","","98.62","","","","","","NA"
"2009-07-31 17:00","2009","07","31","17:00","14.4","","13.5","","94","","17","","15","","","","98.58","","","","","","NA"
"2009-07-31 18:00","2009","07","31","18:00","14.3","","13.9","","97","","17","","15","","","","98.59","","","","","","NA"
"2009-07-31 19:00","2009","07","31","19:00","13.7","","13.6","","99","","17","","15","","","","98.56","","","","","","NA"
"2009-07-31 20:00","2009","07","31","20:00","12.7","","12.7","","100","","17","","13","","","","98.53","","","","","","NA"
"2009-07-31 21:00","2009","07","31","21:00","12.6","","12.6","","100","","17","","9","","","","98.52","","","","","","NA"
"2009-07-31 22:00","2009","07","31","22:00","12.0","","12.0","","100","","9","","4","","","","98.49","","","","","","NA"
"2009-07-31 23:00","2009","07","31","23:00","13.9","","12.2","","89","","14","","13","","","","98.44","","","","","","NA"
