"Station Name","PUKASKWA (AUT)"
"Province","ONTARIO"
"Latitude","48.61"
"Longitude","-86.29"
"Elevation","191.50"
"Climate Identifier","6046768"
"WMO Identifier","71750"
"TC Identifier","WCJ"
"All times are specified in Local Standard Time (LST). Add 1 hour to adjust for Daylight Saving Time where and when it is observed."

"Legend"
"E","Estimated"
"M","Missing"
"NA","Not Available"

"Date/Time","Year","Month","Day","Time","Temp (°C)","Temp Flag","Dew Point Temp (°C)","Dew Point Temp Flag","Rel Hum (%)","Rel Hum Flag","Wind Dir (10s deg)","Wind Dir Flag","Wind Spd (km/h)","Wind Spd Flag","Visibility (km)","Visibility Flag","Stn Press (kPa)","Stn Press Flag","Hmdx","Hmdx Flag","Wind Chill","Wind Chill Flag","Weather"
"2015-01-01 00:00","2015","01","01","00:00","-9.3","","-14.5","","66","","30","","14","","","","97.86","","","","-16","","NA"
"2015-01-01 01:00","2015","01","01","01:00","-9.3","","-14.5","","66","","30","","12","","","","97.84","","","","-15","","NA"
"2015-01-01 02:00","2015","01","01","02:00","-9.6","","-13.8","","71","","31","","11","","","","97.80","","","","-15","","NA"
"2015-01-01 03:00","2015","01","01","03:00","-9.6","","-15.0","","64","","30","","10","","","","97.80","","","","-15","","NA"
"2015-01-01 04:00","2015","01","01","04:00","-9.0","","-13.7","","69","","28","","13","","","","97.74","","","","-15","","NA"
"2015-01-01 05:00","2015","01","01","05:00","-8.0","","-13.0","","67","","27","","17","","","","97.64","","","","-15","","NA"
"2015-01-01 06:00","2015","01","01","06:00","-6.2","","-10.7","","70","","26","","23","","","","97.53","","","","-14","","NA"
"2015-01-01 07:00","2015","01","01","07:00","-5.6","","-8.1","","82","","27","","22","","","","97.44","","","","-13","","NA"
"2015-01-01 08:00","2015","01","01","08:00","-6.6","","-9.4","","80","","29","","17","","","","97.45","","","","-13","","NA"
"2015-01-01 09:00","2015","01","01","09:00","-6.8","","-12.2","","66","","30","","16","","","","97.48","","","","-13","","NA"
"2015-01-01 10:00","2015","01","01","10:00","-7.8","","-13.0","","66","","30","","13","","","","97.62","","","","-14","","NA"
"2015-01-01 11:00","2015","01","01","11:00","-9.2","","-15.1","","62","","34","","10","","","","97.73","","","","-14","","NA"
"2015-01-01 12:00","2015","01","01","12:00","-10.2","","-18.2","","52","","34","","9","","","","97.86","","","","-15","","NA"
"2015-01-01 13:00","2015","01","01","13:00","-10.7","","-19.3","","50","","32","","7","","","","97.93","","","","-15","","NA"
"2015-01-01 14:00","2015","01","01","14:00","-11.4","","-20.2","","48","","32","","9","","","","98.02","","","","-17","","NA"
"2015-01-01 15:00","2015","01","01","15:00","-12.6","","-19.6","","56","","32","","11","","","","98.19","","","","-19","","NA"
"2015-01-01 16:00","2015","01","01","16:00","-14.6","","-21.6","","55","","32","","10","","","","98.37","","","","-21","","NA"
"2015-01-01 17:00","2015","01","01","17:00","-16.1","","-23.5","","53","","33","","7","","","","98.55","","","","-21","","NA"
"2015-01-01 18:00","2015","01","01","18:00","-17.3","","-23.4","","59","","33","","7","","","","98.73","","","","-23","","NA"
"2015-01-01 19:00","2015","01","01","19:00","-18.2","","-23.5","","63","","36","","9","","","","98.91","","","","-25","","NA"
"2015-01-01 20:00","2015","01","01","20:00","-19.4","","-24.9","","61","","36","","8","","","","99.06","","","","-26","","NA"
"2015-01-01 21:00","2015","01","01","21:00","-20.4","","-25.3","","65","","2","","7","","","","99.13","","","","-26","","NA"
"2015-01-01 22:00","2015","01","01","22:00","-20.7","","-26.5","","60","","35","","10","","","","99.17","","","","-28","","NA"
"2015-01-01 23:00","2015","01","01","23:00","-21.3","","-26.3","","64","","36","","7","","","","99.27","","","","-27","","NA"
"2015-01-02 00:00","2015","01","02","00:00","-23.4","","-27.1","","71","","1","","6","","","","99.35","","","","-29","","NA"
"2015-01-02 01:00","2015","01","02","01:00","-25.3","","-28.5","","75","","4","","6","","","","99.38","","","","-31","","NA"
"2015-01-02 02:00","2015","01","02","02:00","-25.8","","-29.2","","73","","4","","10","","","","99.40","","","","-34","","NA"
"2015-01-02 03:00","2015","01","02","03:00","-27.0","","-30.3","","74","","5","","9","","","","99.44","","","","-35","","NA"
"2015-01-02 04:00","2015","01","02","04:00","-27.5","","-30.7","","74","","4","","9","","","","99.45","","","","-36","","NA"
"2015-01-02 05:00","2015","01","02","05:00","-28.1","","-31.2","","75","","5","","10","","","","99.48","","","","-37","","NA"
"2015-01-02 06:00","2015","01","02","06:00","-28.6","","-31.8","","74","","4","","9","","","","99.56","","","","-37","","NA"
"2015-01-02 07:00","2015","01","02","07:00","-28.1","","-31.0","","76","","4","","8","","","","99.64","","","","-36","","NA"
"2015-01-02 08:00","2015","01","02","08:00","-29.7","","-32.9","","74","","5","","11","","","","99.69","","","","-39","","NA"
"2015-01-02 09:00","2015","01","02","09:00","-30.3","","-33.5","","73","","4","","12","","","","99.80","","","","-41","","NA"
"2015-01-02 10:00","2015","01","02","10:00","-29.2","","-32.3","","75","","4","","11","","","","99.89","","","","-39","","NA"
"2015-01-02 11:00","2015","01","02","11:00","-25.6","","-28.8","","74","","2","","4","","","","99.96","","","","-30","","NA"
"2015-01-02 12:00","2015","01","02","12:00","","M","-24.7","","66","","3","","8","","","","99.93","","","","","","NA"
"2015-01-02 13:00","2015","01","02","13:00","-17.4","","-22.7","","63","","4","","4","","","","99.91","","","","-21","","NA"
"2015-01-02 14:00","2015","01","02","14:00","-16.3","","-22.4","","59","","2","","1","","","","99.93","","","","-17","","NA"
"2015-01-02 15:00","2015","01","02","15:00","-16.1","","-20.0","","72","","15","","2","","","","99.96","","","","-18","","NA"
"2015-01-02 16:00","2015","01","02","16:00","-16.3","","-19.5","","76","","13","","2","","","","99.95","","","","-18","","NA"
"2015-01-02 17:00","2015","01","02","17:00","-17.6","","-20.3","","79","","4","","2","","","","99.92","","","","-19","","NA"
"2015-01-02 18:00","2015","01","02","18:00","-17.7","","-19.9","","83","","1","","5","","","","99.92","","","","-22","","NA"
"2015-01-02 19:00","2015","01","02","19:00","-18.1","","-20.5","","82","","4","","6","","","","99.90","","","","-23","","NA"
"2015-01-02 20:00","2015","01","02","20:00","-18.5","","-20.6","","83","","5","","8","","","","99.92","","","","-24","","NA"
"2015-01-02 21:00","2015","01","02","21:00","-17.6","","-19.6","","85","","4","","9","","","","99.91","","","","-24","","NA"
"2015-01-02 22:00","2015","01","02","22:00","-16.6","","-18.3","","87","","4","","8","","","","99.82","","","","-22","","NA"
"2015-01-02 23:00","2015","01","02","23:00","-15.6","","-17.1","","88","","5","","5","","","","99.78","","","","-19","","NA"
"2015-01-03 00:00","2015","01","03","00:00","-14.5","","-16.0","","89","","4","","7","","","","99.71","","","","-19","","NA"
"2015-01-03 01:00","2015","01","03","01:00","-13.2","","-14.6","","90","","4","","8","","","","99.66","","","","-18","","NA"
"2015-01-03 02:00","2015","01","03","02:00","-12.4","","-13.7","","90","","5","","8","","","","99.59","","","","-17","","NA"
"2015-01-03 03:00","2015","01","03","03:00","-11.7","","-12.9","","91","","4","","11","","","","99.56","","","","-18","","NA"
"2015-01-03 04:00","2015","01","03","04:00","-11.3","","-12.6","","91","","5","","8","","","","99.49","","","","-16","","NA"
"2015-01-03 05:00","2015","01","03","05:00","-11.4","","-12.7","","90","","4","","14","","","","99.45","","","","-18","","NA"
"2015-01-03 06:00","2015","01","03","06:00","-11.7","","-12.8","","91","","4","","9","","","","99.39","","","","-17","","NA"
"2015-01-03 07:00","2015","01","03","07:00","-11.4","","-12.6","","91","","5","","8","","","","99.33","","","","-16","","NA"
"2015-01-03 08:00","2015","01","03","08:00","-10.7","","-11.7","","92","","4","","5","","","","99.28","","","","-14","","NA"
"2015-01-03 09:00","2015","01","03","09:00","-10.4","","-11.4","","92","","4","","9","","","","99.29","","","","-15","","NA"
"2015-01-03 10:00","2015","01","03","10:00","-10.1","","-11.1","","92","","5","","9","","","","99.26","","","","-15","","NA"
"2015-01-03 11:00","2015","01","03","11:00","-10.3","","-11.5","","91","","5","","13","","","","99.17","","","","-17","","NA"
"2015-01-03 12:00","2015","01","03","12:00","-10.5","","-11.7","","91","","4","","16","","","","99.17","","","","-18","","NA"
"2015-01-03 13:00","2015","01","03","13:00","-10.7","","-11.9","","91","","3","","16","","","","99.02","","","","-18","","NA"
"2015-01-03 14:00","2015","01","03","14:00","-10.9","","-12.1","","90","","4","","15","","","","98.94","","","","-18","","NA"
"2015-01-03 15:00","2015","01","03","15:00","-10.9","","-12.0","","91","","4","","15","","","","98.92","","","","-18","","NA"
"2015-01-03 16:00","2015","01","03","16:00","-10.6","","-11.7","","91","","3","","16","","","","98.91","","","","-18","","NA"
"2015-01-03 17:00","2015","01","03","17:00","-11.2","","-12.7","","89","","4","","19","","","","98.99","","","","-19","","NA"
"2015-01-03 18:00","2015","01","03","18:00","-13.3","","-15.1","","87","","3","","22","","","","99.09","","","","-22","","NA"
"2015-01-03 19:00","2015","01","03","19:00","-14.5","","-16.4","","85","","4","","23","","","","99.15","","","","-24","","NA"
"2015-01-03 20:00","2015","01","03","20:00","-15.2","","-17.2","","85","","4","","22","","","","99.21","","","","-25","","NA"
"2015-01-03 21:00","2015","01","03","21:00","-15.6","","-17.8","","83","","4","","22","","","","99.18","","","","-25","","NA"
"2015-01-03 22:00","2015","01","03","22:00","-16.6","","-19.0","","81","","4","","23","","","","99.19","","","","-27","","NA"
"2015-01-03 23:00","2015","01","03","23:00","-17.7","","-20.2","","80","","4","","24","","","","99.15","","","","-28","","NA"
"2015-01-04 00:00","2015","01","04","00:00","-18.2","","-20.9","","79","","4","","22","","","","99.18","","","","-29","","NA"
"2015-01-04 01:00","2015","01","04","01:00","-18.8","","-21.9","","77","","3","","19","","","","99.17","","","","-29","","NA"
"2015-01-04 02:00","2015","01","04","02:00","-19.2","","-22.2","","77","","3","","20","","","","99.26","","","","-29","","NA"
"2015-01-04 03:00","2015","01","04","03:00","-19.8","","-22.9","","76","","4","","20","","","","99.28","","","","-30","","NA"
"2015-01-04 04:00","2015","01","04","04:00","-20.4","","-23.5","","76","","3","","20","","","","99.29","","","","-31","","NA"
"2015-01-04 05:00","2015","01","04","05:00","-21.4","","-24.6","","75","","3","","19","","","","99.26","","","","-32","","NA"
"2015-01-04 06:00","2015","01","04","06:00","-22.2","","-25.4","","75","","3","","20","","","","99.22","","","","-33","","NA"
"2015-01-04 07:00","2015","01","04","07:00","-23.1","","-26.5","","74","","2","","17","","","","99.30","","","","-34","","NA"
"2015-01-04 08:00","2015","01","04","08:00","-23.8","","-27.1","","74","","2","","20","","","","99.35","","","","-35","","NA"
"2015-01-04 09:00","2015","01","04","09:00","-24.2","","-27.8","","72","","3","","19","","","","99.41","","","","-36","","NA"
"2015-01-04 10:00","2015","01","04","10:00","-24.1","","-27.7","","72","","2","","11","","","","99.47","","","","-33","","NA"
"2015-01-04 11:00","2015","01","04","11:00","-23.7","","-27.6","","70","","2","","12","","","","99.42","","","","-33","","NA"
"2015-01-04 12:00","2015","01","04","12:00","-23.4","","-27.7","","67","","3","","13","","","","99.39","","","","-33","","NA"
"2015-01-04 13:00","2015","01","04","13:00","-23.3","","-27.8","","67","","36","","9","","","","99.36","","","","-31","","NA"
"2015-01-04 14:00","2015","01","04","14:00","-23.4","","-27.9","","67","","2","","10","","","","99.38","","","","-31","","NA"
"2015-01-04 15:00","2015","01","04","15:00","-23.3","","-27.9","","66","","2","","12","","","","99.40","","","","-32","","NA"
"2015-01-04 16:00","2015","01","04","16:00","-23.4","","-27.9","","66","","2","","8","","","","99.51","","","","-30","","NA"
"2015-01-04 17:00","2015","01","04","17:00","-24.0","","-28.1","","69","","36","","6","","","","99.58","","","","-30","","NA"
"2015-01-04 18:00","2015","01","04","18:00","-25.2","","-28.8","","72","","36","","8","","","","99.65","","","","-32","","NA"
"2015-01-04 19:00","2015","01","04","19:00","-25.8","","-29.4","","72","","35","","7","","","","99.76","","","","-32","","NA"
"2015-01-04 20:00","2015","01","04","20:00","-27.1","","-30.5","","73","","1","","4","","","","99.80","","","","-31","","NA"
"2015-01-04 21:00","2015","01","04","21:00","-27.7","","-30.7","","76","","1","","6","","","","99.85","","","","-34","","NA"
"2015-01-04 22:00","2015","01","04","22:00","-28.2","","-31.4","","74","","4","","6","","","","99.87","","","","-34","","NA"
"2015-01-04 23:00","2015","01","04","23:00","-29.0","","-32.2","","74","","5","","5","","","","99.85","","","","-34","","NA"
"2015-01-05 00:00","2015","01","05","00:00","-31.7","","-35.1","","72","","5","","7","","","","99.86","","","","-39","","NA"
"2015-01-05 01:00","2015","01","05","01:00","-33.1","","-36.6","","71","","3","","6","","","","99.86","","","","-40","","NA"
"2015-01-05 02:00","2015","01","05","02:00","-35.0","","-38.7","","69","","4","","4","","","","99.93","","","","-40","","NA"
"2015-01-05 03:00","2015","01","05","03:00","-33.8","","-37.5","","70","","5","","7","","","","100.00","","","","-42","","NA"
"2015-01-05 04:00","2015","01","05","04:00","-33.1","","-36.5","","72","","4","","9","","","","100.02","","","","-42","","NA"
"2015-01-05 05:00","2015","01","05","05:00","-33.9","","-37.2","","72","","4","","8","","","","100.00","","","","-43","","NA"
"2015-01-05 06:00","2015","01","05","06:00","-33.2","","-36.6","","71","","5","","7","","","","100.01","","","","-41","","NA"
"2015-01-05 07:00","2015","01","05","07:00","-34.2","","-37.8","","70","","5","","8","","","","99.99","","","","-43","","NA"
"2015-01-05 08:00","2015","01","05","08:00","-33.7","","-37.3","","70","","5","","8","","","","99.99","","","","-42","","NA"
"2015-01-05 09:00","2015","01","05","09:00","-32.3","","-35.9","","71","","3","","9","","","","100.02","","","","-41","","NA"
"2015-01-05 10:00","2015","01","05","10:00","-31.4","","-34.7","","73","","3","","11","","","","100.03","","","","-41","","NA"
"2015-01-05 11:00","2015","01","05","11:00","-29.0","","-32.0","","76","","5","","9","","","","100.04","","","","-37","","NA"
"2015-01-05 12:00","2015","01","05","12:00","","M","-25.7","","81","","32","","5","","","","99.96","","","","","","NA"
"2015-01-05 13:00","2015","01","05","13:00","-20.7","","-23.1","","80","","30","","7","","","","99.91","","","","-26","","NA"
"2015-01-05 14:00","2015","01","05","14:00","-19.8","","-22.2","","81","","30","","5","","","","99.84","","","","-24","","NA"
"2015-01-05 15:00","2015","01","05","15:00","-18.7","","-20.7","","84","","29","","4","","","","99.82","","","","-22","","NA"
"2015-01-05 16:00","2015","01","05","16:00","-17.2","","-19.1","","85","","29","","7","","","","99.79","","","","-22","","NA"
"2015-01-05 17:00","2015","01","05","17:00","-16.5","","-18.6","","84","","27","","13","","","","99.74","","","","-24","","NA"
"2015-01-05 18:00","2015","01","05","18:00","-15.6","","-17.4","","86","","27","","11","","","","99.65","","","","-22","","NA"
"2015-01-05 19:00","2015","01","05","19:00","-13.7","","-15.5","","86","","26","","13","","","","99.59","","","","-21","","NA"
"2015-01-05 20:00","2015","01","05","20:00","-12.0","","-13.9","","86","","27","","16","","","","99.55","","","","-19","","NA"
"2015-01-05 21:00","2015","01","05","21:00","-11.2","","-13.1","","86","","27","","18","","","","99.49","","","","-19","","NA"
"2015-01-05 22:00","2015","01","05","22:00","-10.9","","-12.9","","85","","27","","20","","","","99.45","","","","-19","","NA"
"2015-01-05 23:00","2015","01","05","23:00","-10.5","","-12.6","","84","","27","","16","","","","99.41","","","","-18","","NA"
"2015-01-06 00:00","2015","01","06","00:00","-11.2","","-12.9","","87","","29","","12","","","","99.41","","","","-17","","NA"
"2015-01-06 01:00","2015","01","06","01:00","-12.1","","-14.1","","85","","29","","12","","","","99.40","","","","-18","","NA"
"2015-01-06 02:00","2015","01","06","02:00","-12.9","","-14.8","","86","","29","","10","","","","99.39","","","","-19","","NA"
"2015-01-06 03:00","2015","01","06","03:00","-15.3","","-17.3","","85","","34","","6","","","","99.41","","","","-20","","NA"
"2015-01-06 04:00","2015","01","06","04:00","-16.7","","-18.8","","84","","1","","6","","","","99.41","","","","-21","","NA"
"2015-01-06 05:00","2015","01","06","05:00","-17.9","","-20.1","","83","","1","","7","","","","99.38","","","","-23","","NA"
"2015-01-06 06:00","2015","01","06","06:00","-18.4","","-21.1","","79","","36","","6","","","","99.37","","","","-23","","NA"
"2015-01-06 07:00","2015","01","06","07:00","-19.9","","-22.5","","80","","36","","6","","","","99.36","","","","-25","","NA"
"2015-01-06 08:00","2015","01","06","08:00","-19.9","","-22.7","","79","","1","","8","","","","99.33","","","","-26","","NA"
"2015-01-06 09:00","2015","01","06","09:00","-21.4","","-23.8","","81","","1","","3","","","","99.33","","","","-24","","NA"
"2015-01-06 10:00","2015","01","06","10:00","-20.5","","-22.9","","81","","2","","7","","","","99.27","","","","-26","","NA"
"2015-01-06 11:00","2015","01","06","11:00","-18.5","","-21.6","","77","","4","","7","","","","99.28","","","","-24","","NA"
"2015-01-06 12:00","2015","01","06","12:00","-17.8","","-21.4","","74","","2","","6","","","","99.23","","","","-22","","NA"
"2015-01-06 13:00","2015","01","06","13:00","-17.0","","-21.1","","71","","34","","5","","","","99.12","","","","-21","","NA"
"2015-01-06 14:00","2015","01","06","14:00","-17.0","","-21.0","","71","","35","","6","","","","99.08","","","","-22","","NA"
"2015-01-06 15:00","2015","01","06","15:00","-17.1","","-21.3","","70","","36","","7","","","","99.08","","","","-22","","NA"
"2015-01-06 16:00","2015","01","06","16:00","-17.7","","-21.2","","74","","1","","8","","","","99.11","","","","-24","","NA"
"2015-01-06 17:00","2015","01","06","17:00","-18.0","","-22.9","","66","","35","","9","","","","99.16","","","","-24","","NA"
"2015-01-06 18:00","2015","01","06","18:00","-18.6","","-22.9","","69","","36","","10","","","","99.26","","","","-26","","NA"
"2015-01-06 19:00","2015","01","06","19:00","-19.3","","-23.9","","67","","34","","7","","","","99.36","","","","-25","","NA"
"2015-01-06 20:00","2015","01","06","20:00","-20.0","","-24.0","","71","","35","","11","","","","99.46","","","","-28","","NA"
"2015-01-06 21:00","2015","01","06","21:00","-21.1","","-25.9","","65","","35","","14","","","","99.58","","","","-30","","NA"
"2015-01-06 22:00","2015","01","06","22:00","-21.8","","-25.8","","70","","36","","11","","","","99.68","","","","-30","","NA"
"2015-01-06 23:00","2015","01","06","23:00","-23.1","","-27.0","","70","","34","","9","","","","99.80","","","","-30","","NA"
"2015-01-07 00:00","2015","01","07","00:00","-24.2","","-27.8","","72","","36","","8","","","","99.94","","","","-31","","NA"
"2015-01-07 01:00","2015","01","07","01:00","-25.5","","-29.3","","70","","36","","9","","","","100.07","","","","-33","","NA"
"2015-01-07 02:00","2015","01","07","02:00","-26.7","","-31.0","","68","","1","","6","","","","100.26","","","","-33","","NA"
"2015-01-07 03:00","2015","01","07","03:00","-27.5","","-32.0","","66","","36","","9","","","","100.40","","","","-36","","NA"
"2015-01-07 04:00","2015","01","07","04:00","-28.1","","-32.5","","66","","35","","8","","","","100.51","","","","-36","","NA"
"2015-01-07 05:00","2015","01","07","05:00","-28.9","","-33.1","","67","","35","","6","","","","100.57","","","","-35","","NA"
"2015-01-07 06:00","2015","01","07","06:00","-29.1","","-33.6","","65","","35","","8","","","","100.69","","","","-37","","NA"
"2015-01-07 07:00","2015","01","07","07:00","-29.5","","-34.0","","65","","35","","9","","","","100.77","","","","-38","","NA"
"2015-01-07 08:00","2015","01","07","08:00","-29.8","","-34.4","","64","","36","","7","","","","100.83","","","","-37","","NA"
"2015-01-07 09:00","2015","01","07","09:00","-30.2","","-34.7","","65","","2","","6","","","","100.87","","","","-37","","NA"
"2015-01-07 10:00","2015","01","07","10:00","-29.6","","-33.9","","67","","3","","4","","","","100.91","","","","-34","","NA"
"2015-01-07 11:00","2015","01","07","11:00","-28.0","","-32.7","","64","","2","","6","","","","100.84","","","","-34","","NA"
"2015-01-07 12:00","2015","01","07","12:00","-25.7","","-29.8","","69","","2","","6","","","","100.80","","","","-32","","NA"
"2015-01-07 13:00","2015","01","07","13:00","-24.0","","-27.3","","75","","3","","6","","","","100.65","","","","-30","","NA"
"2015-01-07 14:00","2015","01","07","14:00","-21.3","","-24.6","","75","","28","","6","","","","100.51","","","","-27","","NA"
"2015-01-07 15:00","2015","01","07","15:00","-19.4","","-21.8","","81","","29","","8","","","","100.40","","","","-26","","NA"
"2015-01-07 16:00","2015","01","07","16:00","-18.2","","-20.5","","82","","28","","15","","","","100.31","","","","-27","","NA"
"2015-01-07 17:00","2015","01","07","17:00","-19.0","","-21.7","","79","","30","","9","","","","100.24","","","","-26","","NA"
"2015-01-07 18:00","2015","01","07","18:00","-18.0","","-20.4","","82","","30","","11","","","","100.16","","","","-25","","NA"
"2015-01-07 19:00","2015","01","07","19:00","-16.4","","-18.6","","83","","30","","15","","","","100.08","","","","-25","","NA"
"2015-01-07 20:00","2015","01","07","20:00","-17.0","","-19.9","","78","","30","","14","","","","100.00","","","","-25","","NA"
"2015-01-07 21:00","2015","01","07","21:00","-17.1","","-19.8","","79","","30","","12","","","","99.90","","","","-25","","NA"
"2015-01-07 22:00","2015","01","07","22:00","-16.7","","-19.3","","80","","29","","11","","","","99.79","","","","-24","","NA"
"2015-01-07 23:00","2015","01","07","23:00","-16.3","","-18.5","","83","","29","","11","","","","99.68","","","","-23","","NA"
"2015-01-08 00:00","2015","01","08","00:00","-15.6","","-17.7","","84","","30","","14","","","","99.52","","","","-23","","NA"
"2015-01-08 01:00","2015","01","08","01:00","-13.7","","-15.2","","88","","28","","14","","","","99.38","","","","-21","","NA"
"2015-01-08 02:00","2015","01","08","02:00","-13.8","","-15.5","","87","","28","","11","","","","99.23","","","","-20","","NA"
"2015-01-08 03:00","2015","01","08","03:00","-13.4","","-14.9","","89","","27","","17","","","","99.16","","","","-21","","NA"
"2015-01-08 04:00","2015","01","08","04:00","-13.6","","-15.3","","87","","26","","17","","","","99.04","","","","-22","","NA"
"2015-01-08 05:00","2015","01","08","05:00","-13.3","","-14.9","","88","","27","","19","","","","98.91","","","","-22","","NA"
"2015-01-08 06:00","2015","01","08","06:00","-12.9","","-14.3","","89","","28","","17","","","","98.80","","","","-21","","NA"
"2015-01-08 07:00","2015","01","08","07:00","-12.4","","-13.9","","89","","28","","14","","","","98.69","","","","-19","","NA"
"2015-01-08 08:00","2015","01","08","08:00","-11.9","","-13.3","","89","","28","","14","","","","98.57","","","","-19","","NA"
"2015-01-08 09:00","2015","01","08","09:00","-11.8","","-13.3","","88","","28","","11","","","","98.48","","","","-18","","NA"
"2015-01-08 10:00","2015","01","08","10:00","-11.4","","-13.1","","87","","27","","17","","","","98.38","","","","-19","","NA"
"2015-01-08 11:00","2015","01","08","11:00","-11.2","","-13.0","","86","","28","","14","","","","98.33","","","","-18","","NA"
"2015-01-08 12:00","2015","01","08","12:00","-10.9","","-12.8","","86","","29","","12","","","","98.23","","","","-17","","NA"
"2015-01-08 13:00","2015","01","08","13:00","-10.7","","-12.5","","87","","28","","10","","","","98.05","","","","-16","","NA"
"2015-01-08 14:00","2015","01","08","14:00","-11.3","","-13.0","","87","","33","","4","","","","97.91","","","","-14","","NA"
"2015-01-08 15:00","2015","01","08","15:00","-11.7","","-13.9","","84","","34","","7","","","","97.83","","","","-16","","NA"
"2015-01-08 16:00","2015","01","08","16:00","-12.4","","-14.3","","86","","3","","5","","","","97.78","","","","-16","","NA"
"2015-01-08 17:00","2015","01","08","17:00","-12.9","","-14.6","","87","","4","","4","","","","97.76","","","","-16","","NA"
"2015-01-08 18:00","2015","01","08","18:00","-13.4","","-15.0","","88","","3","","7","","","","97.75","","","","-18","","NA"
"2015-01-08 19:00","2015","01","08","19:00","-14.2","","-16.2","","85","","2","","9","","","","97.80","","","","-20","","NA"
"2015-01-08 20:00","2015","01","08","20:00","-14.7","","-16.7","","85","","1","","6","","","","97.87","","","","-19","","NA"
"2015-01-08 21:00","2015","01","08","21:00","-15.3","","-17.6","","83","","36","","10","","","","97.89","","","","-22","","NA"
"2015-01-08 22:00","2015","01","08","22:00","-16.3","","-18.8","","81","","36","","11","","","","97.96","","","","-23","","NA"
"2015-01-08 23:00","2015","01","08","23:00","-16.9","","-19.3","","81","","35","","7","","","","98.03","","","","-22","","NA"
"2015-01-09 00:00","2015","01","09","00:00","-17.2","","-19.5","","82","","35","","8","","","","98.10","","","","-23","","NA"
"2015-01-09 01:00","2015","01","09","01:00","-17.2","","-19.6","","82","","34","","7","","","","98.18","","","","-22","","NA"
"2015-01-09 02:00","2015","01","09","02:00","-17.9","","-21.0","","77","","35","","10","","","","98.25","","","","-25","","NA"
"2015-01-09 03:00","2015","01","09","03:00","-19.2","","-22.5","","75","","34","","10","","","","98.39","","","","-26","","NA"
"2015-01-09 04:00","2015","01","09","04:00","-20.9","","-24.4","","73","","34","","7","","","","98.52","","","","-27","","NA"
"2015-01-09 05:00","2015","01","09","05:00","-21.6","","-25.0","","74","","34","","5","","","","98.60","","","","-26","","NA"
"2015-01-09 06:00","2015","01","09","06:00","-22.1","","-25.8","","72","","35","","7","","","","98.65","","","","-28","","NA"
"2015-01-09 07:00","2015","01","09","07:00","-22.0","","-25.5","","74","","2","","7","","","","98.69","","","","-28","","NA"
"2015-01-09 08:00","2015","01","09","08:00","-22.2","","-25.2","","77","","2","","8","","","","98.70","","","","-29","","NA"
"2015-01-09 09:00","2015","01","09","09:00","-21.5","","-25.1","","73","","35","","8","","","","98.78","","","","-28","","NA"
"2015-01-09 10:00","2015","01","09","10:00","-22.0","","-25.8","","71","","34","","6","","","","98.88","","","","-27","","NA"
"2015-01-09 11:00","2015","01","09","11:00","-20.7","","-24.5","","72","","32","","6","","","","98.87","","","","-26","","NA"
"2015-01-09 12:00","2015","01","09","12:00","-20.2","","-24.1","","71","","31","","8","","","","98.83","","","","-26","","NA"
"2015-01-09 13:00","2015","01","09","13:00"
"2015-01-09 14:00","2015","01","09","14:00","-19.4","","-22.7","","75","","31","","6","","","","98.73","","","","-24","","NA"
"2015-01-09 15:00","2015","01","09","15:00","-19.7","","-23.5","","72","","33","","5","","","","98.76","","","","-24","","NA"
"2015-01-09 16:00","2015","01","09","16:00","-19.8","","-22.9","","77","","32","","5","","","","98.85","","","","-24","","NA"
"2015-01-09 17:00","2015","01","09","17:00","-20.3","","-24.4","","69","","34","","6","","","","98.93","","","","-25","","NA"
"2015-01-09 18:00","2015","01","09","18:00","-20.7","","-25.3","","66","","34","","9","","","","99.01","","","","-28","","NA"
"2015-01-09 19:00","2015","01","09","19:00","-20.5","","-25.6","","64","","33","","10","","","","99.13","","","","-28","","NA"
"2015-01-09 20:00","2015","01","09","20:00","-19.9","","-24.3","","68","","31","","7","","","","99.14","","","","-26","","NA"
"2015-01-09 21:00","2015","01","09","21:00","-19.6","","-23.6","","71","","32","","8","","","","99.17","","","","-26","","NA"
"2015-01-09 22:00","2015","01","09","22:00","-19.7","","-24.2","","67","","31","","10","","","","99.20","","","","-27","","NA"
"2015-01-09 23:00","2015","01","09","23:00","-19.6","","-23.7","","70","","30","","9","","","","99.18","","","","-26","","NA"
"2015-01-10 00:00","2015","01","10","00:00","-19.4","","-23.5","","70","","31","","8","","","","99.15","","","","-26","","NA"
"2015-01-10 01:00","2015","01","10","01:00","-19.1","","-22.7","","73","","31","","6","","","","99.14","","","","-24","","NA"
"2015-01-10 02:00","2015","01","10","02:00","-18.9","","-22.1","","76","","33","","4","","","","99.14","","","","-22","","NA"
"2015-01-10 03:00","2015","01","10","03:00","-18.5","","-21.3","","79","","30","","6","","","","99.18","","","","-23","","NA"
"2015-01-10 04:00","2015","01","10","04:00","-19.5","","-22.2","","79","","4","","6","","","","99.15","","","","-24","","NA"
"2015-01-10 05:00","2015","01","10","05:00","-19.8","","-22.1","","82","","3","","4","","","","99.08","","","","-23","","NA"
"2015-01-10 06:00","2015","01","10","06:00","-20.0","","-22.2","","83","","4","","5","","","","99.00","","","","-24","","NA"
"2015-01-10 07:00","2015","01","10","07:00","-19.9","","-21.9","","84","","3","","7","","","","98.96","","","","-26","","NA"
"2015-01-10 08:00","2015","01","10","08:00","-20.2","","-22.3","","84","","4","","7","","","","98.91","","","","-26","","NA"
"2015-01-10 09:00","2015","01","10","09:00","-19.7","","-21.6","","85","","5","","7","","","","98.92","","","","-25","","NA"
"2015-01-10 10:00","2015","01","10","10:00","-16.3","","-18.1","","86","","29","","12","","","","98.91","","","","-24","","NA"
"2015-01-10 11:00","2015","01","10","11:00","-12.9","","-15.0","","84","","30","","9","","","","98.94","","","","-18","","NA"
"2015-01-10 12:00","2015","01","10","12:00","-13.0","","-16.4","","75","","30","","9","","","","98.98","","","","-18","","NA"
"2015-01-10 13:00","2015","01","10","13:00","-12.8","","-16.2","","76","","29","","8","","","","99.00","","","","-18","","NA"
"2015-01-10 14:00","2015","01","10","14:00","-12.2","","-16.6","","70","","30","","5","","","","99.01","","","","-15","","NA"
"2015-01-10 15:00","2015","01","10","15:00","-12.6","","-16.1","","75","","30","","4","","","","99.03","","","","-15","","NA"
"2015-01-10 16:00","2015","01","10","16:00","-12.3","","-15.6","","76","","33","","3","","","","99.10","","","","-14","","NA"
"2015-01-10 17:00","2015","01","10","17:00","-14.0","","-16.9","","78","","6","","4","","","","99.18","","","","-17","","NA"
"2015-01-10 18:00","2015","01","10","18:00","-14.3","","-16.5","","83","","6","","6","","","","99.27","","","","-18","","NA"
"2015-01-10 19:00","2015","01","10","19:00","-15.3","","-18.0","","80","","5","","6","","","","99.34","","","","-20","","NA"
"2015-01-10 20:00","2015","01","10","20:00","-17.3","","-19.9","","80","","5","","7","","","","99.44","","","","-23","","NA"
"2015-01-10 21:00","2015","01","10","21:00","-20.0","","-22.6","","80","","5","","9","","","","99.52","","","","-27","","NA"
"2015-01-10 22:00","2015","01","10","22:00","-21.6","","-23.9","","82","","5","","9","","","","99.60","","","","-29","","NA"
"2015-01-10 23:00","2015","01","10","23:00","-23.5","","-26.0","","80","","5","","7","","","","99.66","","","","-30","","NA"
"2015-01-11 00:00","2015","01","11","00:00","-24.7","","-27.3","","79","","5","","10","","","","99.67","","","","-33","","NA"
"2015-01-11 01:00","2015","01","11","01:00","-25.4","","-28.1","","78","","5","","11","","","","99.66","","","","-34","","NA"
"2015-01-11 02:00","2015","01","11","02:00","-26.2","","-29.0","","78","","5","","12","","","","99.66","","","","-36","","NA"
"2015-01-11 03:00","2015","01","11","03:00","-27.3","","-30.2","","76","","5","","13","","","","99.70","","","","-37","","NA"
"2015-01-11 04:00","2015","01","11","04:00","-27.9","","-30.8","","77","","5","","13","","","","99.68","","","","-38","","NA"
"2015-01-11 05:00","2015","01","11","05:00","-28.7","","-31.8","","75","","5","","14","","","","99.68","","","","-39","","NA"
"2015-01-11 06:00","2015","01","11","06:00","-29.2","","-32.3","","74","","5","","14","","","","99.70","","","","-40","","NA"
"2015-01-11 07:00","2015","01","11","07:00","-30.2","","-33.4","","73","","5","","14","","","","99.74","","","","-41","","NA"
"2015-01-11 08:00","2015","01","11","08:00","-30.9","","-34.2","","73","","5","","15","","","","99.77","","","","-43","","NA"
"2015-01-11 09:00","2015","01","11","09:00","-31.1","","-34.5","","72","","5","","15","","","","99.83","","","","-43","","NA"
"2015-01-11 10:00","2015","01","11","10:00","-29.7","","-32.9","","74","","5","","13","","","","99.86","","","","-40","","NA"
"2015-01-11 11:00","2015","01","11","11:00","-26.3","","-29.3","","76","","5","","13","","","","99.86","","","","-36","","NA"
"2015-01-11 12:00","2015","01","11","12:00","-22.1","","-24.8","","79","","5","","8","","","","99.80","","","","-29","","NA"
"2015-01-11 13:00","2015","01","11","13:00","-18.5","","-20.9","","81","","2","","6","","","","99.71","","","","-23","","NA"
"2015-01-11 14:00","2015","01","11","14:00","-14.7","","-16.9","","83","","3","","1","","","","99.70","","","","-15","","NA"
"2015-01-11 15:00","2015","01","11","15:00","-11.9","","-14.8","","79","","27","","11","","","","99.73","","","","-18","","NA"
"2015-01-11 16:00","2015","01","11","16:00","-11.9","","-14.8","","79","","27","","10","","","","99.74","","","","-18","","NA"
"2015-01-11 17:00","2015","01","11","17:00","-12.6","","-15.3","","80","","27","","10","","","","99.78","","","","-18","","NA"
"2015-01-11 18:00","2015","01","11","18:00","-12.8","","-15.6","","79","","27","","10","","","","99.81","","","","-19","","NA"
"2015-01-11 19:00","2015","01","11","19:00","-12.0","","-14.3","","83","","27","","9","","","","99.84","","","","-17","","NA"
"2015-01-11 20:00","2015","01","11","20:00","-12.0","","-14.2","","83","","28","","7","","","","99.85","","","","-16","","NA"
"2015-01-11 21:00","2015","01","11","21:00","-13.0","","-15.2","","84","","30","","2","","","","99.89","","","","-14","","NA"
"2015-01-11 22:00","2015","01","11","22:00","-16.8","","-19.7","","78","","6","","9","","","","100.00","","","","-23","","NA"
"2015-01-11 23:00","2015","01","11","23:00","-20.4","","-23.0","","80","","4","","8","","","","100.08","","","","-27","","NA"
"2015-01-12 00:00","2015","01","12","00:00","-21.4","","-24.0","","80","","4","","7","","","","100.12","","","","-27","","NA"
"2015-01-12 01:00","2015","01","12","01:00","-24.8","","-27.4","","79","","4","","6","","","","100.16","","","","-31","","NA"
"2015-01-12 02:00","2015","01","12","02:00","-25.9","","-28.4","","79","","6","","7","","","","100.23","","","","-33","","NA"
"2015-01-12 03:00","2015","01","12","03:00","-24.9","","-27.4","","80","","4","","9","","","","100.33","","","","-33","","NA"
"2015-01-12 04:00","2015","01","12","04:00","-23.9","","-26.4","","79","","3","","12","","","","100.44","","","","-33","","NA"
"2015-01-12 05:00","2015","01","12","05:00","-23.9","","-26.5","","79","","4","","10","","","","100.56","","","","-32","","NA"
"2015-01-12 06:00","2015","01","12","06:00","-24.5","","-27.2","","78","","2","","7","","","","100.71","","","","-31","","NA"
"2015-01-12 07:00","2015","01","12","07:00","-25.4","","-28.2","","77","","3","","8","","","","100.86","","","","-33","","NA"
"2015-01-12 08:00","2015","01","12","08:00","-24.9","","-27.6","","78","","1","","8","","","","101.00","","","","-32","","NA"
"2015-01-12 09:00","2015","01","12","09:00","-26.2","","-29.2","","76","","3","","7","","","","101.14","","","","-33","","NA"
"2015-01-12 10:00","2015","01","12","10:00","-25.1","","-27.9","","77","","3","","6","","","","101.29","","","","-31","","NA"
"2015-01-12 11:00","2015","01","12","11:00","-23.5","","-26.9","","73","","2","","6","","","","101.39","","","","-29","","NA"
"2015-01-12 12:00","2015","01","12","12:00","-21.4","","-26.2","","65","","36","","6","","","","101.43","","","","-27","","NA"
"2015-01-12 13:00","2015","01","12","13:00","-19.8","","-25.8","","59","","1","","6","","","","101.43","","","","-25","","NA"
"2015-01-12 14:00","2015","01","12","14:00","-18.7","","-25.3","","56","","35","","6","","","","101.44","","","","-24","","NA"
"2015-01-12 15:00","2015","01","12","15:00","-18.8","","-24.1","","63","","2","","5","","","","101.44","","","","-23","","NA"
"2015-01-12 16:00","2015","01","12","16:00","-18.8","","-24.2","","63","","1","","5","","","","101.51","","","","-23","","NA"
"2015-01-12 17:00","2015","01","12","17:00","-20.5","","-24.1","","73","","7","","4","","","","101.55","","","","-24","","NA"
"2015-01-12 18:00","2015","01","12","18:00","-23.0","","-26.1","","76","","4","","4","","","","101.58","","","","-27","","NA"
"2015-01-12 19:00","2015","01","12","19:00","-25.1","","-28.2","","75","","3","","5","","","","101.57","","","","-30","","NA"
"2015-01-12 20:00","2015","01","12","20:00","-25.4","","-28.1","","78","","4","","7","","","","101.57","","","","-32","","NA"
"2015-01-12 21:00","2015","01","12","21:00","-25.0","","-27.9","","77","","5","","7","","","","101.61","","","","-31","","NA"
"2015-01-12 22:00","2015","01","12","22:00","-25.4","","-28.3","","77","","5","","7","","","","101.60","","","","-32","","NA"
"2015-01-12 23:00","2015","01","12","23:00","-25.9","","-28.9","","76","","5","","7","","","","101.56","","","","-33","","NA"
"2015-01-13 00:00","2015","01","13","00:00","-25.1","","-27.7","","78","","5","","7","","","","101.50","","","","-32","","NA"
"2015-01-13 01:00","2015","01","13","01:00","-23.8","","-26.5","","78","","5","","7","","","","101.46","","","","-30","","NA"
"2015-01-13 02:00","2015","01","13","02:00","-23.1","","-25.6","","80","","5","","5","","","","101.44","","","","-28","","NA"
"2015-01-13 03:00","2015","01","13","03:00","-21.3","","-23.3","","84","","26","","5","","","","101.42","","","","-26","","NA"
"2015-01-13 04:00","2015","01","13","04:00","","M","","","87","","25","","16","","","","101.38","","","","","","NA"
"2015-01-13 05:00","2015","01","13","05:00","","M","-12.4","","84","","25","","14","","","","101.31","","","","","","NA"
"2015-01-13 06:00","2015","01","13","06:00","","M","-11.1","","85","","25","","15","","","","101.24","","","","","","NA"
"2015-01-13 07:00","2015","01","13","07:00","-8.2","","-10.4","","84","","24","","16","","","","101.21","","","","-15","","NA"
"2015-01-13 08:00","2015","01","13","08:00","-7.8","","-10.0","","84","","24","","16","","","","101.15","","","","-14","","NA"
"2015-01-13 09:00","2015","01","13","09:00","-7.0","","-9.5","","83","","24","","19","","","","101.10","","","","-14","","NA"
"2015-01-13 10:00","2015","01","13","10:00","-6.3","","-8.7","","83","","24","","19","","","","101.06","","","","-13","","NA"
"2015-01-13 11:00","2015","01","13","11:00","-5.7","","-7.6","","86","","25","","15","","","","101.02","","","","-11","","NA"
"2015-01-13 12:00","2015","01","13","12:00","-5.6","","-8.0","","83","","23","","19","","","","100.94","","","","-12","","NA"
"2015-01-13 13:00","2015","01","13","13:00","-5.6","","-8.3","","81","","22","","16","","","","100.85","","","","-12","","NA"
"2015-01-13 14:00","2015","01","13","14:00","-5.5","","-8.2","","82","","22","","18","","","","100.72","","","","-12","","NA"
"2015-01-13 15:00","2015","01","13","15:00","-6.0","","-8.4","","83","","21","","18","","","","100.64","","","","-12","","NA"
"2015-01-13 16:00","2015","01","13","16:00","-6.0","","-9.1","","79","","21","","19","","","","100.55","","","","-13","","NA"
"2015-01-13 17:00","2015","01","13","17:00","-6.3","","-8.9","","82","","22","","19","","","","100.48","","","","-13","","NA"
"2015-01-13 18:00","2015","01","13","18:00","-6.8","","-10.1","","78","","21","","17","","","","100.44","","","","-13","","NA"
"2015-01-13 19:00","2015","01","13","19:00","-6.6","","-10.3","","75","","22","","19","","","","100.35","","","","-13","","NA"
"2015-01-13 20:00","2015","01","13","20:00","-5.8","","-9.8","","74","","22","","20","","","","100.22","","","","-13","","NA"
"2015-01-13 21:00","2015","01","13","21:00","-5.1","","-9.8","","70","","22","","19","","","","100.10","","","","-12","","NA"
"2015-01-13 22:00","2015","01","13","22:00","-5.5","","-10.1","","70","","23","","21","","","","100.02","","","","-12","","NA"
"2015-01-13 23:00","2015","01","13","23:00","-5.4","","-9.9","","70","","22","","19","","","","99.90","","","","-12","","NA"
"2015-01-14 00:00","2015","01","14","00:00","-5.6","","-9.3","","75","","21","","18","","","","99.83","","","","-12","","NA"
"2015-01-14 01:00","2015","01","14","01:00","-5.6","","-8.8","","78","","21","","19","","","","99.70","","","","-12","","NA"
"2015-01-14 02:00","2015","01","14","02:00","-5.4","","-7.8","","83","","21","","19","","","","99.59","","","","-12","","NA"
"2015-01-14 03:00","2015","01","14","03:00","-5.4","","-7.1","","88","","21","","18","","","","99.49","","","","-12","","NA"
"2015-01-14 04:00","2015","01","14","04:00","-5.3","","-5.9","","95","","21","","17","","","","99.41","","","","-11","","NA"
"2015-01-14 05:00","2015","01","14","05:00","-4.7","","-5.5","","94","","24","","18","","","","99.32","","","","-11","","NA"
"2015-01-14 06:00","2015","01","14","06:00","-6.5","","-7.8","","90","","29","","11","","","","99.35","","","","-11","","NA"
"2015-01-14 07:00","2015","01","14","07:00","-7.8","","-9.4","","88","","29","","10","","","","99.42","","","","-13","","NA"
"2015-01-14 08:00","2015","01","14","08:00","-8.6","","-10.6","","86","","31","","5","","","","99.47","","","","-11","","NA"
"2015-01-14 09:00","2015","01","14","09:00","-8.8","","-10.7","","87","","1","","5","","","","99.52","","","","-12","","NA"
"2015-01-14 10:00","2015","01","14","10:00","-8.9","","-10.7","","86","","2","","6","","","","99.59","","","","-12","","NA"
"2015-01-14 11:00","2015","01","14","11:00","-8.7","","-11.3","","82","","32","","5","","","","99.63","","","","-11","","NA"
"2015-01-14 12:00","2015","01","14","12:00","-8.3","","-11.4","","79","","2","","5","","","","99.63","","","","-11","","NA"
"2015-01-14 13:00","2015","01","14","13:00","-8.0","","-11.2","","78","","1","","5","","","","99.59","","","","-11","","NA"
"2015-01-14 14:00","2015","01","14","14:00"
"2015-01-14 15:00","2015","01","14","15:00","-8.2","","-12.3","","72","","1","","5","","","","99.51","","","","-11","","NA"
"2015-01-14 16:00","2015","01","14","16:00","-9.5","","-11.8","","83","","0","","1","","","","99.49","","","","-10","","NA"
"2015-01-14 17:00","2015","01","14","17:00","-9.8","","-11.4","","88","","","","0","","","","99.53","","","","","","NA"
"2015-01-14 18:00","2015","01","14","18:00","-9.5","","-11.0","","89","","5","","4","","","","99.51","","","","-12","","NA"
"2015-01-14 19:00","2015","01","14","19:00","-9.7","","-11.0","","90","","1","","4","","","","99.45","","","","-12","","NA"
"2015-01-14 20:00","2015","01","14","20:00","-9.7","","-11.3","","88","","2","","4","","","","99.40","","","","-12","","NA"
"2015-01-14 21:00","2015","01","14","21:00","-9.3","","-11.4","","85","","8","","5","","","","99.29","","","","-12","","NA"
"2015-01-14 22:00","2015","01","14","22:00","-9.2","","-11.0","","87","","3","","2","","","","99.18","","","","-10","","NA"
"2015-01-14 23:00","2015","01","14","23:00","-9.3","","-11.0","","88","","5","","4","","","","99.05","","","","-12","","NA"
"2015-01-15 00:00","2015","01","15","00:00","-5.0","","-6.4","","89","","21","","12","","","","98.89","","","","-10","","NA"
"2015-01-15 01:00","2015","01","15","01:00","-3.9","","-5.2","","91","","21","","14","","","","98.73","","","","-9","","NA"
"2015-01-15 02:00","2015","01","15","02:00","-3.4","","-4.5","","92","","21","","15","","","","98.58","","","","-9","","NA"
"2015-01-15 03:00","2015","01","15","03:00","-3.1","","-4.3","","91","","20","","18","","","","98.43","","","","-9","","NA"
"2015-01-15 04:00","2015","01","15","04:00","-3.1","","-3.9","","94","","20","","19","","","","98.31","","","","-9","","NA"
"2015-01-15 05:00","2015","01","15","05:00","-3.2","","-4.0","","94","","23","","20","","","","98.20","","","","-9","","NA"
"2015-01-15 06:00","2015","01","15","06:00","-3.1","","-4.1","","93","","21","","18","","","","98.04","","","","-9","","NA"
"2015-01-15 07:00","2015","01","15","07:00","-2.0","","-2.7","","95","","23","","20","","","","97.95","","","","-8","","NA"
"2015-01-15 08:00","2015","01","15","08:00","-1.7","","-2.8","","92","","26","","19","","","","97.84","","","","-7","","NA"
"2015-01-15 09:00","2015","01","15","09:00","-1.3","","-3.1","","88","","25","","19","","","","97.83","","","","-7","","NA"
"2015-01-15 10:00","2015","01","15","10:00","-1.7","","-3.8","","86","","27","","23","","","","97.85","","","","-8","","NA"
"2015-01-15 11:00","2015","01","15","11:00","-1.8","","-4.4","","83","","27","","18","","","","97.83","","","","-7","","NA"
"2015-01-15 12:00","2015","01","15","12:00","-2.3","","-5.8","","77","","29","","10","","","","97.77","","","","-6","","NA"
"2015-01-15 13:00","2015","01","15","13:00","-2.2","","-6.6","","72","","28","","15","","","","97.72","","","","-7","","NA"
"2015-01-15 14:00","2015","01","15","14:00","-4.5","","-6.0","","89","","30","","11","","","","97.76","","","","-9","","NA"
"2015-01-15 15:00","2015","01","15","15:00","-5.9","","-10.7","","68","","31","","9","","","","97.91","","","","-10","","NA"
"2015-01-15 16:00","2015","01","15","16:00","-6.9","","-13.0","","62","","33","","9","","","","98.07","","","","-11","","NA"
"2015-01-15 17:00","2015","01","15","17:00","-8.8","","-15.0","","61","","33","","11","","","","98.27","","","","-14","","NA"
"2015-01-15 18:00","2015","01","15","18:00","-10.3","","-15.3","","67","","33","","11","","","","98.45","","","","-16","","NA"
"2015-01-15 19:00","2015","01","15","19:00","-11.8","","-15.8","","73","","32","","7","","","","98.62","","","","-16","","NA"
"2015-01-15 20:00","2015","01","15","20:00","-12.9","","-17.4","","69","","35","","11","","","","98.74","","","","-19","","NA"
"2015-01-15 21:00","2015","01","15","21:00","-14.1","","-19.4","","65","","35","","9","","","","98.85","","","","-20","","NA"
"2015-01-15 22:00","2015","01","15","22:00","-15.3","","-19.5","","71","","34","","8","","","","98.94","","","","-21","","NA"
"2015-01-15 23:00","2015","01","15","23:00","-16.4","","-19.8","","75","","35","","7","","","","99.04","","","","-21","","NA"
"2015-01-16 00:00","2015","01","16","00:00","-17.0","","-20.6","","74","","36","","9","","","","99.13","","","","-23","","NA"
"2015-01-16 01:00","2015","01","16","01:00","-18.4","","-21.8","","74","","36","","7","","","","99.23","","","","-24","","NA"
"2015-01-16 02:00","2015","01","16","02:00","-19.0","","-22.3","","75","","36","","7","","","","99.29","","","","-24","","NA"
"2015-01-16 03:00","2015","01","16","03:00","-21.7","","-24.1","","81","","2","","9","","","","99.42","","","","-29","","NA"
"2015-01-16 04:00","2015","01","16","04:00","-21.5","","-24.1","","79","","1","","7","","","","99.53","","","","-27","","NA"
"2015-01-16 05:00","2015","01","16","05:00","-23.3","","-25.7","","81","","27","","1","","","","99.61","","","","-24","","NA"
"2015-01-16 06:00","2015","01","16","06:00","-24.4","","-26.7","","81","","2","","5","","","","99.76","","","","-29","","NA"
"2015-01-16 07:00","2015","01","16","07:00","-24.9","","-27.0","","83","","2","","6","","","","99.81","","","","-31","","NA"
"2015-01-16 08:00","2015","01","16","08:00","-24.6","","-27.0","","80","","3","","8","","","","99.88","","","","-32","","NA"
"2015-01-16 09:00","2015","01","16","09:00","-26.0","","-28.5","","79","","1","","8","","","","100.00","","","","-33","","NA"
"2015-01-16 10:00","2015","01","16","10:00","-25.5","","-28.2","","79","","7","","1","","","","100.07","","","","-27","","NA"
"2015-01-16 11:00","2015","01","16","11:00","-21.8","","-25.5","","72","","3","","7","","","","100.14","","","","-28","","NA"
"2015-01-16 12:00","2015","01","16","12:00","-20.3","","-25.7","","62","","1","","8","","","","100.15","","","","-27","","NA"
"2015-01-16 13:00","2015","01","16","13:00","-18.4","","-24.9","","57","","7","","5","","","","100.09","","","","-22","","NA"
"2015-01-16 14:00","2015","01","16","14:00","-17.6","","-24.7","","54","","4","","8","","","","99.99","","","","-23","","NA"
"2015-01-16 15:00","2015","01","16","15:00","-16.9","","-24.0","","54","","2","","4","","","","99.99","","","","-20","","NA"
"2015-01-16 16:00","2015","01","16","16:00","-16.7","","-23.6","","55","","4","","2","","","","100.02","","","","-18","","NA"
"2015-01-16 17:00","2015","01","16","17:00","-18.7","","-22.9","","69","","8","","3","","","","99.98","","","","-21","","NA"
"2015-01-16 18:00","2015","01","16","18:00","-21.5","","-24.5","","77","","36","","3","","","","99.94","","","","-24","","NA"
"2015-01-16 19:00","2015","01","16","19:00","-21.9","","-25.0","","76","","5","","7","","","","99.90","","","","-28","","NA"
"2015-01-16 20:00","2015","01","16","20:00","-22.4","","-25.5","","76","","4","","7","","","","99.89","","","","-28","","NA"
"2015-01-16 21:00","2015","01","16","21:00","-21.9","","-25.2","","75","","5","","10","","","","99.79","","","","-29","","NA"
"2015-01-16 22:00","2015","01","16","22:00"
"2015-01-16 23:00","2015","01","16","23:00"
"2015-01-17 00:00","2015","01","17","00:00"
"2015-01-17 01:00","2015","01","17","01:00"
"2015-01-17 02:00","2015","01","17","02:00"
"2015-01-17 03:00","2015","01","17","03:00"
"2015-01-17 04:00","2015","01","17","04:00"
"2015-01-17 05:00","2015","01","17","05:00"
"2015-01-17 06:00","2015","01","17","06:00"
"2015-01-17 07:00","2015","01","17","07:00"
"2015-01-17 08:00","2015","01","17","08:00"
"2015-01-17 09:00","2015","01","17","09:00"
"2015-01-17 10:00","2015","01","17","10:00","-4.5","","-5.7","","92","","17","","18","","","","97.79","","","","-11","","NA"
"2015-01-17 11:00","2015","01","17","11:00","-3.9","","-5.0","","92","","18","","15","","","","97.66","","","","-9","","NA"
"2015-01-17 12:00","2015","01","17","12:00","-3.4","","-4.5","","93","","18","","16","","","","97.50","","","","-9","","NA"
"2015-01-17 13:00","2015","01","17","13:00","-3.1","","-4.0","","94","","18","","17","","","","97.33","","","","-9","","NA"
"2015-01-17 14:00","2015","01","17","14:00","-2.7","","-3.5","","94","","18","","18","","","","97.22","","","","-8","","NA"
"2015-01-17 15:00","2015","01","17","15:00","-2.5","","-3.2","","95","","19","","15","","","","97.11","","","","-7","","NA"
"2015-01-17 16:00","2015","01","17","16:00","-2.2","","-2.9","","96","","19","","15","","","","97.06","","","","-7","","NA"
"2015-01-17 17:00","2015","01","17","17:00","-1.8","","-2.5","","95","","18","","14","","","","96.96","","","","-6","","NA"
"2015-01-17 18:00","2015","01","17","18:00","-1.3","","-2.1","","94","","19","","15","","","","96.92","","","","-6","","NA"
"2015-01-17 19:00","2015","01","17","19:00","-0.7","","-1.3","","96","","22","","13","","","","96.92","","","","-5","","NA"
"2015-01-17 20:00","2015","01","17","20:00","-1.0","","-1.7","","95","","23","","8","","","","96.89","","","","-4","","NA"
"2015-01-17 21:00","2015","01","17","21:00","-0.4","","-0.8","","97","","23","","10","","","","96.88","","","","-4","","NA"
"2015-01-17 22:00","2015","01","17","22:00","-0.4","","-1.0","","96","","27","","8","","","","96.86","","","","-3","","NA"
"2015-01-17 23:00","2015","01","17","23:00","-0.8","","-1.2","","97","","27","","7","","","","96.91","","","","-3","","NA"
"2015-01-18 00:00","2015","01","18","00:00","-1.6","","-2.4","","95","","31","","5","","","","96.97","","","","-3","","NA"
"2015-01-18 01:00","2015","01","18","01:00","-2.1","","-3.0","","94","","31","","4","","","","97.02","","","","-4","","NA"
"2015-01-18 02:00","2015","01","18","02:00","-2.7","","-3.8","","92","","34","","4","","","","97.11","","","","-4","","NA"
"2015-01-18 03:00","2015","01","18","03:00","-3.0","","-4.5","","89","","33","","5","","","","97.22","","","","-5","","NA"
"2015-01-18 04:00","2015","01","18","04:00","-3.3","","-4.5","","91","","33","","4","","","","97.30","","","","-5","","NA"
"2015-01-18 05:00","2015","01","18","05:00","-3.9","","-5.4","","90","","32","","4","","","","97.39","","","","-6","","NA"
"2015-01-18 06:00","2015","01","18","06:00","-5.5","","-7.5","","86","","1","","8","","","","97.56","","","","-9","","NA"
"2015-01-18 07:00","2015","01","18","07:00","-6.5","","-8.9","","83","","36","","9","","","","97.70","","","","-11","","NA"
"2015-01-18 08:00","2015","01","18","08:00","-7.1","","-9.1","","86","","1","","4","","","","97.81","","","","-9","","NA"
"2015-01-18 09:00","2015","01","18","09:00","-7.7","","-10.1","","82","","2","","7","","","","97.95","","","","-11","","NA"
"2015-01-18 10:00","2015","01","18","10:00","-7.8","","-10.1","","84","","2","","5","","","","98.09","","","","-10","","NA"
"2015-01-18 11:00","2015","01","18","11:00","-8.2","","-11.1","","79","","2","","11","","","","98.17","","","","-13","","NA"
"2015-01-18 12:00","2015","01","18","12:00","-8.0","","-11.2","","78","","2","","9","","","","98.24","","","","-13","","NA"
"2015-01-18 13:00","2015","01","18","13:00","-8.7","","-11.7","","79","","3","","11","","","","98.33","","","","-14","","NA"
"2015-01-18 14:00","2015","01","18","14:00","-9.0","","-11.9","","80","","2","","10","","","","98.42","","","","-14","","NA"
"2015-01-18 15:00","2015","01","18","15:00","-9.6","","-13.6","","73","","36","","9","","","","98.56","","","","-14","","NA"
"2015-01-18 16:00","2015","01","18","16:00","-10.1","","-13.8","","74","","1","","11","","","","98.71","","","","-16","","NA"
"2015-01-18 17:00","2015","01","18","17:00","-10.6","","-13.5","","80","","36","","6","","","","98.88","","","","-14","","NA"
"2015-01-18 18:00","2015","01","18","18:00","-11.7","","-15.8","","72","","2","","13","","","","99.04","","","","-18","","NA"
"2015-01-18 19:00","2015","01","18","19:00","-12.9","","-16.5","","74","","4","","13","","","","99.15","","","","-20","","NA"
"2015-01-18 20:00","2015","01","18","20:00","-15.3","","-19.1","","73","","3","","15","","","","99.27","","","","-23","","NA"
"2015-01-18 21:00","2015","01","18","21:00","-16.8","","-20.2","","75","","3","","13","","","","99.37","","","","-25","","NA"
"2015-01-18 22:00","2015","01","18","22:00","-17.9","","-21.3","","75","","3","","14","","","","99.40","","","","-26","","NA"
"2015-01-18 23:00","2015","01","18","23:00","-18.7","","-21.7","","77","","3","","8","","","","99.52","","","","-25","","NA"
"2015-01-19 00:00","2015","01","19","00:00","-20.0","","-22.6","","80","","3","","8","","","","99.59","","","","-26","","NA"
"2015-01-19 01:00","2015","01","19","01:00","-20.4","","-23.3","","78","","4","","9","","","","99.61","","","","-27","","NA"
"2015-01-19 02:00","2015","01","19","02:00","-21.3","","-23.9","","80","","3","","8","","","","99.69","","","","-28","","NA"
"2015-01-19 03:00","2015","01","19","03:00","-22.3","","-24.6","","81","","4","","7","","","","99.70","","","","-28","","NA"
"2015-01-19 04:00","2015","01","19","04:00","-23.1","","-25.4","","81","","3","","9","","","","99.71","","","","-30","","NA"
"2015-01-19 05:00","2015","01","19","05:00","-23.8","","-26.2","","81","","4","","10","","","","99.73","","","","-32","","NA"
"2015-01-19 06:00","2015","01","19","06:00","-24.5","","-27.1","","79","","4","","11","","","","99.78","","","","-33","","NA"
"2015-01-19 07:00","2015","01","19","07:00","-25.1","","-27.7","","79","","4","","15","","","","99.81","","","","-35","","NA"
"2015-01-19 08:00","2015","01","19","08:00","-24.9","","-27.7","","77","","5","","13","","","","99.80","","","","-34","","NA"
"2015-01-19 09:00","2015","01","19","09:00","-25.5","","-28.3","","77","","4","","16","","","","99.82","","","","-36","","NA"
"2015-01-19 10:00","2015","01","19","10:00","-24.1","","-27.3","","75","","4","","18","","","","99.81","","","","-35","","NA"
"2015-01-19 11:00","2015","01","19","11:00","-21.9","","-25.5","","73","","5","","17","","","","99.74","","","","-32","","NA"
"2015-01-19 12:00","2015","01","19","12:00","-18.3","","-22.8","","68","","5","","14","","","","99.65","","","","-27","","NA"
"2015-01-19 13:00","2015","01","19","13:00","-16.3","","-22.0","","61","","5","","7","","","","99.61","","","","-21","","NA"
"2015-01-19 14:00","2015","01","19","14:00","-14.9","","-20.5","","62","","2","","8","","","","99.56","","","","-20","","NA"
"2015-01-19 15:00","2015","01","19","15:00","-13.9","","-19.7","","62","","3","","7","","","","99.54","","","","-19","","NA"
"2015-01-19 16:00","2015","01","19","16:00","-14.4","","-19.0","","68","","3","","7","","","","99.52","","","","-19","","NA"
"2015-01-19 17:00","2015","01","19","17:00","-15.1","","-19.2","","71","","4","","8","","","","99.54","","","","-20","","NA"
"2015-01-19 18:00","2015","01","19","18:00","-16.9","","-19.5","","80","","5","","8","","","","99.56","","","","-23","","NA"
"2015-01-19 19:00","2015","01","19","19:00","-18.1","","-20.5","","82","","4","","9","","","","99.51","","","","-24","","NA"
"2015-01-19 20:00","2015","01","19","20:00","-18.7","","-21.1","","81","","5","","7","","","","99.46","","","","-24","","NA"
"2015-01-19 21:00","2015","01","19","21:00","-19.0","","-21.3","","82","","4","","10","","","","99.45","","","","-26","","NA"
"2015-01-19 22:00","2015","01","19","22:00","-19.5","","-21.8","","82","","3","","12","","","","99.42","","","","-27","","NA"
"2015-01-19 23:00","2015","01","19","23:00","-19.2","","-21.8","","80","","4","","11","","","","99.40","","","","-27","","NA"
"2015-01-20 00:00","2015","01","20","00:00","-19.6","","-22.1","","81","","4","","8","","","","99.43","","","","-26","","NA"
"2015-01-20 01:00","2015","01","20","01:00","-19.8","","-22.2","","81","","4","","12","","","","99.39","","","","-28","","NA"
"2015-01-20 02:00","2015","01","20","02:00","-20.8","","-23.1","","82","","4","","11","","","","99.36","","","","-29","","NA"
"2015-01-20 03:00","2015","01","20","03:00","-21.7","","-24.0","","82","","4","","9","","","","99.38","","","","-29","","NA"
"2015-01-20 04:00","2015","01","20","04:00","-22.7","","-25.0","","81","","4","","12","","","","99.41","","","","-31","","NA"
"2015-01-20 05:00","2015","01","20","05:00","-23.6","","-25.9","","81","","4","","12","","","","99.41","","","","-32","","NA"
"2015-01-20 06:00","2015","01","20","06:00","-25.0","","-27.5","","80","","4","","11","","","","99.40","","","","-34","","NA"
"2015-01-20 07:00","2015","01","20","07:00","-25.9","","-28.5","","78","","4","","13","","","","99.44","","","","-36","","NA"
"2015-01-20 08:00","2015","01","20","08:00","-26.3","","-28.9","","78","","4","","13","","","","99.44","","","","-36","","NA"
"2015-01-20 09:00","2015","01","20","09:00","-26.5","","-29.2","","78","","5","","12","","","","99.47","","","","-36","","NA"
"2015-01-20 10:00","2015","01","20","10:00","-24.6","","-27.6","","76","","4","","11","","","","99.49","","","","-33","","NA"
"2015-01-20 11:00","2015","01","20","11:00","-20.6","","-23.8","","75","","4","","11","","","","99.48","","","","-28","","NA"
"2015-01-20 12:00","2015","01","20","12:00","","M","-20.0","","67","","4","","8","","","","99.47","","","","","","NA"
"2015-01-20 13:00","2015","01","20","13:00","","M","-17.1","","56","","36","","1","","","","99.41","","","","","","NA"
"2015-01-20 14:00","2015","01","20","14:00","","M","-13.7","","62","","23","","4","","","","99.37","","","","","","NA"
"2015-01-20 15:00","2015","01","20","15:00","-6.9","","-11.8","","68","","24","","4","","","","99.35","","","","-9","","NA"
"2015-01-20 16:00","2015","01","20","16:00","-6.9","","-10.5","","75","","23","","8","","","","99.37","","","","-11","","NA"
"2015-01-20 17:00","2015","01","20","17:00","-6.8","","-9.6","","81","","22","","7","","","","99.37","","","","-10","","NA"
"2015-01-20 18:00","2015","01","20","18:00","-6.5","","-8.9","","83","","22","","9","","","","99.37","","","","-11","","NA"
"2015-01-20 19:00","2015","01","20","19:00","-6.1","","-8.3","","84","","22","","9","","","","99.38","","","","-10","","NA"
"2015-01-20 20:00","2015","01","20","20:00","-5.5","","-7.5","","86","","23","","7","","","","99.36","","","","-9","","NA"
"2015-01-20 21:00","2015","01","20","21:00","-5.0","","-7.0","","86","","22","","6","","","","99.30","","","","-8","","NA"
"2015-01-20 22:00","2015","01","20","22:00","-4.6","","-6.7","","85","","27","","8","","","","99.29","","","","-8","","NA"
"2015-01-20 23:00","2015","01","20","23:00","-4.3","","-5.6","","91","","24","","8","","","","99.29","","","","-8","","NA"
"2015-01-21 00:00","2015","01","21","00:00","-4.2","","-5.5","","91","","30","","5","","","","99.31","","","","-6","","NA"
"2015-01-21 01:00","2015","01","21","01:00","-4.7","","-6.2","","89","","32","","2","","","","99.32","","","","-6","","NA"
"2015-01-21 02:00","2015","01","21","02:00","-5.1","","-6.4","","91","","2","","4","","","","99.34","","","","-7","","NA"
"2015-01-21 03:00","2015","01","21","03:00","-5.6","","-6.8","","91","","2","","4","","","","99.37","","","","-7","","NA"
"2015-01-21 04:00","2015","01","21","04:00","-5.9","","-7.3","","90","","4","","6","","","","99.37","","","","-9","","NA"
"2015-01-21 05:00","2015","01","21","05:00","-6.3","","-7.6","","90","","4","","6","","","","99.37","","","","-9","","NA"
"2015-01-21 06:00","2015","01","21","06:00","-6.4","","-8.0","","89","","4","","7","","","","99.39","","","","-10","","NA"
"2015-01-21 07:00","2015","01","21","07:00","-6.8","","-8.2","","90","","4","","8","","","","99.44","","","","-11","","NA"
"2015-01-21 08:00","2015","01","21","08:00","-7.4","","-8.8","","89","","3","","9","","","","99.49","","","","-12","","NA"
"2015-01-21 09:00","2015","01","21","09:00","-8.0","","-9.7","","87","","4","","7","","","","99.57","","","","-12","","NA"
"2015-01-21 10:00","2015","01","21","10:00","-7.9","","-9.8","","86","","3","","7","","","","99.60","","","","-12","","NA"
"2015-01-21 11:00","2015","01","21","11:00","-7.4","","-10.2","","80","","3","","8","","","","99.65","","","","-11","","NA"
"2015-01-21 12:00","2015","01","21","12:00","-7.3","","-11.3","","73","","2","","7","","","","99.67","","","","-11","","NA"
"2015-01-21 13:00","2015","01","21","13:00","-6.4","","-11.0","","70","","1","","4","","","","99.65","","","","-8","","NA"
"2015-01-21 14:00","2015","01","21","14:00","-6.4","","-11.7","","66","","1","","6","","","","99.63","","","","-9","","NA"
"2015-01-21 15:00","2015","01","21","15:00","-6.0","","-11.4","","65","","35","","5","","","","99.63","","","","-8","","NA"
"2015-01-21 16:00","2015","01","21","16:00","-7.0","","-11.7","","69","","31","","5","","","","99.67","","","","-10","","NA"
"2015-01-21 17:00","2015","01","21","17:00","-8.0","","-12.0","","73","","3","","6","","","","99.70","","","","-11","","NA"
"2015-01-21 18:00","2015","01","21","18:00","-8.6","","-11.8","","78","","3","","5","","","","99.73","","","","-11","","NA"
"2015-01-21 19:00","2015","01","21","19:00","-8.8","","-11.7","","79","","3","","4","","","","99.78","","","","-11","","NA"
"2015-01-21 20:00","2015","01","21","20:00","-9.0","","-11.4","","82","","3","","4","","","","99.82","","","","-11","","NA"
"2015-01-21 21:00","2015","01","21","21:00","-9.2","","-11.1","","86","","32","","1","","","","99.86","","","","-10","","NA"
"2015-01-21 22:00","2015","01","21","22:00","-11.0","","-14.0","","79","","36","","7","","","","99.94","","","","-15","","NA"
"2015-01-21 23:00","2015","01","21","23:00","-11.4","","-14.3","","79","","35","","7","","","","99.99","","","","-16","","NA"
"2015-01-22 00:00","2015","01","22","00:00","-11.5","","-14.7","","77","","1","","6","","","","100.01","","","","-15","","NA"
"2015-01-22 01:00","2015","01","22","01:00","-11.5","","-14.7","","77","","4","","5","","","","100.00","","","","-15","","NA"
"2015-01-22 02:00","2015","01","22","02:00","-11.5","","-15.2","","74","","36","","7","","","","100.05","","","","-16","","NA"
"2015-01-22 03:00","2015","01","22","03:00","-12.2","","-16.8","","69","","1","","8","","","","100.08","","","","-17","","NA"
"2015-01-22 04:00","2015","01","22","04:00","-13.5","","-16.7","","76","","1","","12","","","","100.15","","","","-20","","NA"
"2015-01-22 05:00","2015","01","22","05:00","-16.5","","-18.9","","81","","3","","7","","","","100.21","","","","-22","","NA"
"2015-01-22 06:00","2015","01","22","06:00","-19.0","","-20.5","","88","","4","","2","","","","100.23","","","","-21","","NA"
"2015-01-22 07:00","2015","01","22","07:00","-21.3","","-23.2","","85","","4","","2","","","","100.30","","","","-23","","NA"
"2015-01-22 08:00","2015","01","22","08:00","-21.8","","-23.7","","84","","3","","7","","","","100.29","","","","-28","","NA"
"2015-01-22 09:00","2015","01","22","09:00","-21.8","","-23.8","","83","","5","","8","","","","100.30","","","","-28","","NA"
"2015-01-22 10:00","2015","01","22","10:00","-20.4","","-22.9","","81","","4","","7","","","","100.26","","","","-26","","NA"
"2015-01-22 11:00","2015","01","22","11:00","-17.2","","-19.5","","82","","4","","2","","","","100.25","","","","-19","","NA"
"2015-01-22 12:00","2015","01","22","12:00","","M","-13.7","","81","","19","","4","","","","100.19","","","","","","NA"
"2015-01-22 13:00","2015","01","22","13:00","","M","-11.0","","80","","22","","9","","","","100.10","","","","","","NA"
"2015-01-22 14:00","2015","01","22","14:00","-7.1","","-9.8","","81","","22","","11","","","","99.97","","","","-12","","NA"
"2015-01-22 15:00","2015","01","22","15:00","-6.0","","-8.7","","81","","22","","13","","","","99.87","","","","-11","","NA"
"2015-01-22 16:00","2015","01","22","16:00","-4.7","","-6.7","","86","","21","","14","","","","99.72","","","","-10","","NA"
"2015-01-22 17:00","2015","01","22","17:00","-3.7","","-5.3","","89","","20","","16","","","","99.64","","","","-9","","NA"
"2015-01-22 18:00","2015","01","22","18:00","-2.5","","-5.4","","81","","21","","18","","","","99.54","","","","-8","","NA"
"2015-01-22 19:00","2015","01","22","19:00","-2.0","","-4.6","","82","","21","","20","","","","99.42","","","","-8","","NA"
"2015-01-22 20:00","2015","01","22","20:00","-1.1","","-4.6","","77","","21","","16","","","","99.24","","","","-6","","NA"
"2015-01-22 21:00","2015","01","22","21:00","-0.1","","-4.7","","71","","22","","20","","","","99.05","","","","-5","","NA"
"2015-01-22 22:00","2015","01","22","22:00","-0.2","","-4.5","","73","","22","","19","","","","98.92","","","","-5","","NA"
"2015-01-22 23:00","2015","01","22","23:00","0.1","","-3.5","","77","","23","","20","","","","98.84","","","","","","NA"
"2015-01-23 00:00","2015","01","23","00:00","0.0","","-3.2","","79","","23","","21","","","","98.73","","","","-5","","NA"
"2015-01-23 01:00","2015","01","23","01:00","-0.8","","-1.8","","94","","23","","22","","","","98.65","","","","-7","","NA"
"2015-01-23 02:00","2015","01","23","02:00","-0.9","","-1.8","","94","","23","","24","","","","98.57","","","","-7","","NA"
"2015-01-23 03:00","2015","01","23","03:00","-1.2","","-1.7","","97","","23","","23","","","","98.56","","","","-7","","NA"
"2015-01-23 04:00","2015","01","23","04:00","-1.0","","-1.4","","97","","23","","19","","","","98.47","","","","-6","","NA"
"2015-01-23 05:00","2015","01","23","05:00","-0.6","","-1.0","","97","","24","","20","","","","98.40","","","","-6","","NA"
"2015-01-23 06:00","2015","01","23","06:00","-0.2","","-1.0","","94","","24","","20","","","","98.33","","","","-5","","NA"
"2015-01-23 07:00","2015","01","23","07:00","0.2","","-0.8","","93","","24","","18","","","","98.26","","","","","","NA"
"2015-01-23 08:00","2015","01","23","08:00","0.4","","-0.5","","94","","24","","20","","","","98.17","","","","","","NA"
"2015-01-23 09:00","2015","01","23","09:00","0.5","","-0.3","","95","","24","","17","","","","98.12","","","","","","NA"
"2015-01-23 10:00","2015","01","23","10:00","0.6","","-0.4","","93","","24","","16","","","","98.07","","","","","","NA"
"2015-01-23 11:00","2015","01","23","11:00","0.6","","-0.2","","94","","25","","14","","","","98.07","","","","","","NA"
"2015-01-23 12:00","2015","01","23","12:00","0.9","","0.0","","94","","25","","13","","","","98.05","","","","","","NA"
"2015-01-23 13:00","2015","01","23","13:00","0.9","","0.2","","95","","26","","13","","","","98.00","","","","","","NA"
"2015-01-23 14:00","2015","01","23","14:00","1.1","","0.2","","94","","26","","12","","","","97.98","","","","","","NA"
"2015-01-23 15:00","2015","01","23","15:00","1.2","","0.2","","93","","27","","10","","","","97.97","","","","","","NA"
"2015-01-23 16:00","2015","01","23","16:00","1.0","","0.0","","93","","26","","9","","","","97.97","","","","","","NA"
"2015-01-23 17:00","2015","01","23","17:00","0.8","","-0.1","","94","","28","","3","","","","97.99","","","","","","NA"
"2015-01-23 18:00","2015","01","23","18:00","0.7","","-0.1","","95","","29","","2","","","","98.00","","","","","","NA"
"2015-01-23 19:00","2015","01","23","19:00","0.1","","-0.3","","97","","2","","2","","","","98.00","","","","","","NA"
"2015-01-23 20:00","2015","01","23","20:00","0.0","","-0.4","","97","","27","","2","","","","97.99","","","","-1","","NA"
"2015-01-23 21:00","2015","01","23","21:00","-0.2","","-0.6","","97","","23","","4","","","","97.89","","","","-1","","NA"
"2015-01-23 22:00","2015","01","23","22:00","-0.6","","-0.8","","98","","25","","5","","","","97.88","","","","-2","","NA"
"2015-01-23 23:00","2015","01","23","23:00","-0.1","","-0.4","","98","","26","","5","","","","97.83","","","","-2","","NA"
"2015-01-24 00:00","2015","01","24","00:00","-0.1","","-0.3","","98","","22","","5","","","","97.75","","","","-2","","NA"
"2015-01-24 01:00","2015","01","24","01:00","0.2","","0.0","","98","","23","","5","","","","97.71","","","","","","NA"
"2015-01-24 02:00","2015","01","24","02:00","0.4","","0.1","","98","","27","","4","","","","97.65","","","","","","NA"
"2015-01-24 03:00","2015","01","24","03:00","0.1","","-0.2","","98","","26","","6","","","","97.61","","","","","","NA"
"2015-01-24 04:00","2015","01","24","04:00","-0.8","","-1.1","","98","","28","","5","","","","97.56","","","","-2","","NA"
"2015-01-24 05:00","2015","01","24","05:00","0.1","","-0.2","","98","","30","","6","","","","97.56","","","","","","NA"
"2015-01-24 06:00","2015","01","24","06:00","-3.4","","-5.1","","88","","36","","13","","","","97.70","","","","-8","","NA"
"2015-01-24 07:00","2015","01","24","07:00","-5.1","","-7.1","","86","","35","","8","","","","97.80","","","","-9","","NA"
"2015-01-24 08:00","2015","01","24","08:00","-6.1","","-9.1","","79","","34","","8","","","","97.84","","","","-10","","NA"
"2015-01-24 09:00","2015","01","24","09:00","-8.2","","-11.2","","79","","36","","8","","","","97.94","","","","-12","","NA"
"2015-01-24 10:00","2015","01","24","10:00","-10.6","","-13.8","","77","","35","","14","","","","98.03","","","","-17","","NA"
"2015-01-24 11:00","2015","01","24","11:00","-10.8","","-15.4","","69","","1","","12","","","","98.08","","","","-17","","NA"
"2015-01-24 12:00","2015","01","24","12:00","-10.4","","-14.6","","71","","2","","9","","","","98.09","","","","-15","","NA"
"2015-01-24 13:00","2015","01","24","13:00","-10.4","","-15.0","","69","","36","","8","","","","98.06","","","","-15","","NA"
"2015-01-24 14:00","2015","01","24","14:00","-11.0","","-16.3","","65","","2","","12","","","","98.11","","","","-17","","NA"
"2015-01-24 15:00","2015","01","24","15:00","-10.9","","-16.4","","64","","2","","10","","","","98.14","","","","-16","","NA"
"2015-01-24 16:00","2015","01","24","16:00","-11.4","","-17.0","","63","","2","","8","","","","98.21","","","","-16","","NA"
"2015-01-24 17:00","2015","01","24","17:00","-12.3","","-17.6","","65","","1","","8","","","","98.33","","","","-17","","NA"
"2015-01-24 18:00","2015","01","24","18:00","-14.1","","-18.0","","72","","1","","6","","","","98.52","","","","-18","","NA"
"2015-01-24 19:00","2015","01","24","19:00","-15.8","","-18.7","","79","","3","","7","","","","98.62","","","","-21","","NA"
"2015-01-24 20:00","2015","01","24","20:00","-16.7","","-19.4","","80","","3","","7","","","","98.69","","","","-22","","NA"
"2015-01-24 21:00","2015","01","24","21:00","-17.4","","-20.4","","78","","3","","8","","","","98.78","","","","-23","","NA"
"2015-01-24 22:00","2015","01","24","22:00","-19.0","","-21.2","","82","","3","","9","","","","98.85","","","","-26","","NA"
"2015-01-24 23:00","2015","01","24","23:00","-19.5","","-21.8","","82","","4","","7","","","","98.86","","","","-25","","NA"
"2015-01-25 00:00","2015","01","25","00:00","-19.8","","-22.2","","82","","3","","11","","","","98.94","","","","-27","","NA"
"2015-01-25 01:00","2015","01","25","01:00","-21.2","","-23.8","","80","","2","","9","","","","99.08","","","","-28","","NA"
"2015-01-25 02:00","2015","01","25","02:00","-21.6","","-23.8","","82","","3","","9","","","","99.21","","","","-29","","NA"
"2015-01-25 03:00","2015","01","25","03:00","-21.3","","-24.0","","79","","3","","12","","","","99.29","","","","-30","","NA"
"2015-01-25 04:00","2015","01","25","04:00","-21.3","","-24.0","","78","","4","","14","","","","99.34","","","","-30","","NA"
"2015-01-25 05:00","2015","01","25","05:00","-21.9","","-24.7","","78","","4","","12","","","","99.42","","","","-30","","NA"
"2015-01-25 06:00","2015","01","25","06:00","-22.8","","-25.5","","79","","3","","9","","","","99.51","","","","-30","","NA"
"2015-01-25 07:00","2015","01","25","07:00","-23.2","","-25.9","","78","","4","","9","","","","99.55","","","","-31","","NA"
"2015-01-25 08:00","2015","01","25","08:00","-24.1","","-26.8","","78","","4","","4","","","","99.57","","","","-28","","NA"
"2015-01-25 09:00","2015","01","25","09:00","-24.8","","-27.5","","79","","2","","7","","","","99.61","","","","-31","","NA"
"2015-01-25 10:00","2015","01","25","10:00","-22.4","","-25.8","","74","","2","","9","","","","99.67","","","","-30","","NA"
"2015-01-25 11:00","2015","01","25","11:00","-20.6","","-24.6","","70","","3","","7","","","","99.69","","","","-26","","NA"
"2015-01-25 12:00","2015","01","25","12:00","-17.4","","-23.0","","61","","6","","6","","","","99.69","","","","-22","","NA"
"2015-01-25 13:00","2015","01","25","13:00","-15.7","","-21.9","","59","","4","","10","","","","99.70","","","","-22","","NA"
"2015-01-25 14:00","2015","01","25","14:00","-14.3","","-22.1","","52","","3","","7","","","","99.66","","","","-19","","NA"
"2015-01-25 15:00","2015","01","25","15:00","-13.4","","-21.0","","53","","1","","6","","","","99.63","","","","-17","","NA"
"2015-01-25 16:00","2015","01","25","16:00","-12.9","","-19.7","","57","","7","","4","","","","99.60","","","","-16","","NA"
"2015-01-25 17:00","2015","01","25","17:00","-14.3","","-18.1","","73","","1","","4","","","","99.62","","","","-17","","NA"
"2015-01-25 18:00","2015","01","25","18:00","-17.4","","-20.2","","79","","2","","3","","","","99.63","","","","-20","","NA"
"2015-01-25 19:00","2015","01","25","19:00","-19.8","","-22.1","","81","","4","","5","","","","99.67","","","","-24","","NA"
"2015-01-25 20:00","2015","01","25","20:00","-20.0","","-22.4","","81","","6","","7","","","","99.68","","","","-26","","NA"
"2015-01-25 21:00","2015","01","25","21:00","-21.5","","-23.7","","82","","6","","9","","","","99.57","","","","-29","","NA"
"2015-01-25 22:00","2015","01","25","22:00","-23.0","","-25.3","","81","","5","","9","","","","99.46","","","","-30","","NA"
"2015-01-25 23:00","2015","01","25","23:00","-23.3","","-25.7","","81","","5","","11","","","","99.42","","","","-32","","NA"
"2015-01-26 00:00","2015","01","26","00:00","-22.6","","-25.1","","80","","5","","9","","","","99.37","","","","-30","","NA"
"2015-01-26 01:00","2015","01","26","01:00","-21.8","","-24.2","","81","","4","","9","","","","99.30","","","","-29","","NA"
"2015-01-26 02:00","2015","01","26","02:00","-20.8","","-23.0","","82","","4","","11","","","","99.22","","","","-29","","NA"
"2015-01-26 03:00","2015","01","26","03:00","-19.7","","-21.8","","83","","4","","8","","","","99.16","","","","-26","","NA"
"2015-01-26 04:00","2015","01","26","04:00","-18.4","","-20.3","","85","","4","","9","","","","99.06","","","","-25","","NA"
"2015-01-26 05:00","2015","01","26","05:00","-16.4","","-18.0","","87","","4","","5","","","","98.97","","","","-20","","NA"
"2015-01-26 06:00","2015","01","26","06:00","","M","-11.7","","90","","13","","8","","","","98.88","","","","","","NA"
"2015-01-26 07:00","2015","01","26","07:00","-9.4","","-10.7","","90","","14","","8","","","","98.82","","","","-14","","NA"
"2015-01-26 08:00","2015","01","26","08:00","-8.3","","-9.4","","91","","14","","10","","","","98.77","","","","-13","","NA"
"2015-01-26 09:00","2015","01","26","09:00","-5.8","","-8.1","","84","","19","","16","","","","98.78","","","","-12","","NA"
"2015-01-26 10:00","2015","01","26","10:00","-5.3","","-7.8","","82","","19","","14","","","","98.78","","","","-11","","NA"
"2015-01-26 11:00","2015","01","26","11:00","-4.6","","-8.4","","75","","20","","12","","","","98.79","","","","-9","","NA"
"2015-01-26 12:00","2015","01","26","12:00","-4.4","","-8.5","","73","","18","","13","","","","98.83","","","","-9","","NA"
"2015-01-26 13:00","2015","01","26","13:00","-4.2","","-7.9","","76","","19","","13","","","","98.83","","","","-9","","NA"
"2015-01-26 14:00","2015","01","26","14:00","-4.4","","-7.8","","77","","17","","12","","","","98.82","","","","-9","","NA"
"2015-01-26 15:00","2015","01","26","15:00","-4.7","","-8.0","","77","","14","","8","","","","98.88","","","","-8","","NA"
"2015-01-26 16:00","2015","01","26","16:00","-5.1","","-8.2","","79","","13","","5","","","","98.98","","","","-7","","NA"
"2015-01-26 17:00","2015","01","26","17:00","-5.5","","-8.5","","79","","13","","7","","","","99.04","","","","-9","","NA"
"2015-01-26 18:00","2015","01","26","18:00","-6.0","","-9.5","","76","","13","","6","","","","99.10","","","","-9","","NA"
"2015-01-26 19:00","2015","01","26","19:00","-6.5","","-10.0","","76","","12","","7","","","","99.17","","","","-10","","NA"
"2015-01-26 20:00","2015","01","26","20:00","-6.8","","-10.0","","78","","10","","6","","","","99.26","","","","-10","","NA"
"2015-01-26 21:00","2015","01","26","21:00","-6.9","","-10.0","","78","","10","","9","","","","99.31","","","","-11","","NA"
"2015-01-26 22:00","2015","01","26","22:00","-7.2","","-9.9","","81","","11","","8","","","","99.34","","","","-11","","NA"
"2015-01-26 23:00","2015","01","26","23:00","-8.4","","-10.6","","84","","5","","6","","","","99.42","","","","-12","","NA"
"2015-01-27 00:00","2015","01","27","00:00","-9.0","","-11.2","","84","","3","","5","","","","99.47","","","","-12","","NA"
"2015-01-27 01:00","2015","01","27","01:00","-9.5","","-11.5","","85","","3","","7","","","","99.52","","","","-13","","NA"
"2015-01-27 02:00","2015","01","27","02:00","-9.6","","-11.5","","86","","5","","6","","","","99.58","","","","-13","","NA"
"2015-01-27 03:00","2015","01","27","03:00","-8.9","","-10.9","","86","","10","","4","","","","99.63","","","","-11","","NA"
"2015-01-27 04:00","2015","01","27","04:00","-9.0","","-11.2","","84","","10","","4","","","","99.67","","","","-11","","NA"
"2015-01-27 05:00","2015","01","27","05:00","-10.4","","-12.2","","87","","4","","5","","","","99.71","","","","-13","","NA"
"2015-01-27 06:00","2015","01","27","06:00","-12.2","","-13.8","","88","","5","","7","","","","99.77","","","","-17","","NA"
"2015-01-27 07:00","2015","01","27","07:00","-13.0","","-14.4","","89","","4","","7","","","","99.80","","","","-18","","NA"
"2015-01-27 08:00","2015","01","27","08:00","-13.7","","-15.2","","88","","5","","8","","","","99.84","","","","-19","","NA"
"2015-01-27 09:00","2015","01","27","09:00","-13.7","","-15.4","","87","","5","","8","","","","99.88","","","","-19","","NA"
"2015-01-27 10:00","2015","01","27","10:00","-11.0","","-13.5","","82","","4","","5","","","","99.92","","","","-14","","NA"
"2015-01-27 11:00","2015","01","27","11:00","-7.2","","-10.6","","77","","14","","7","","","","99.96","","","","-11","","NA"
"2015-01-27 12:00","2015","01","27","12:00","-3.8","","-8.7","","69","","18","","12","","","","99.96","","","","-8","","NA"
"2015-01-27 13:00","2015","01","27","13:00","-3.6","","-8.3","","70","","17","","9","","","","99.97","","","","-7","","NA"
"2015-01-27 14:00","2015","01","27","14:00","-3.7","","-7.6","","74","","18","","10","","","","99.97","","","","-8","","NA"
"2015-01-27 15:00","2015","01","27","15:00","-4.0","","-7.3","","78","","17","","12","","","","99.96","","","","-9","","NA"
"2015-01-27 16:00","2015","01","27","16:00","-3.9","","-7.3","","77","","19","","9","","","","99.95","","","","-8","","NA"
"2015-01-27 17:00","2015","01","27","17:00","-4.2","","-7.3","","79","","18","","10","","","","99.95","","","","-8","","NA"
"2015-01-27 18:00","2015","01","27","18:00","-4.3","","-7.9","","76","","19","","9","","","","99.96","","","","-8","","NA"
"2015-01-27 19:00","2015","01","27","19:00","-4.2","","-7.9","","75","","19","","11","","","","99.92","","","","-9","","NA"
"2015-01-27 20:00","2015","01","27","20:00","-4.2","","-7.6","","77","","19","","10","","","","99.90","","","","-8","","NA"
"2015-01-27 21:00","2015","01","27","21:00","-4.1","","-7.3","","78","","22","","7","","","","99.88","","","","-7","","NA"
"2015-01-27 22:00","2015","01","27","22:00","-3.8","","-6.5","","81","","22","","9","","","","99.83","","","","-8","","NA"
"2015-01-27 23:00","2015","01","27","23:00","-3.4","","-6.5","","79","","24","","12","","","","99.83","","","","-8","","NA"
"2015-01-28 00:00","2015","01","28","00:00","-3.3","","-6.1","","81","","24","","10","","","","99.82","","","","-7","","NA"
"2015-01-28 01:00","2015","01","28","01:00","-3.0","","-6.1","","80","","21","","12","","","","99.78","","","","-7","","NA"
"2015-01-28 02:00","2015","01","28","02:00","-2.7","","-5.3","","82","","22","","10","","","","99.76","","","","-7","","NA"
"2015-01-28 03:00","2015","01","28","03:00","-2.3","","-5.1","","81","","22","","9","","","","99.74","","","","-6","","NA"
"2015-01-28 04:00","2015","01","28","04:00","-1.9","","-4.5","","82","","22","","9","","","","99.75","","","","-5","","NA"
"2015-01-28 05:00","2015","01","28","05:00","-1.6","","-3.9","","85","","21","","8","","","","99.71","","","","-5","","NA"
"2015-01-28 06:00","2015","01","28","06:00","-1.6","","-4.1","","83","","24","","7","","","","99.70","","","","-4","","NA"
"2015-01-28 07:00","2015","01","28","07:00","-1.3","","-3.6","","84","","21","","10","","","","99.70","","","","-5","","NA"
"2015-01-28 08:00","2015","01","28","08:00","-1.1","","-3.5","","83","","20","","11","","","","99.71","","","","-5","","NA"
"2015-01-28 09:00","2015","01","28","09:00","-1.0","","-3.9","","81","","20","","10","","","","99.73","","","","-5","","NA"
"2015-01-28 10:00","2015","01","28","10:00","-1.0","","-4.1","","79","","19","","9","","","","99.74","","","","-4","","NA"
"2015-01-28 11:00","2015","01","28","11:00","-0.9","","-4.0","","79","","20","","9","","","","99.73","","","","-4","","NA"
"2015-01-28 12:00","2015","01","28","12:00","-0.9","","-4.3","","78","","19","","10","","","","99.69","","","","-4","","NA"
"2015-01-28 13:00","2015","01","28","13:00","-1.2","","-4.2","","80","","18","","10","","","","99.58","","","","-5","","NA"
"2015-01-28 14:00","2015","01","28","14:00","-1.7","","-4.4","","82","","18","","12","","","","99.47","","","","-6","","NA"
"2015-01-28 15:00","2015","01","28","15:00","-2.0","","-4.6","","82","","16","","11","","","","99.40","","","","-6","","NA"
"2015-01-28 16:00","2015","01","28","16:00","-1.8","","-4.5","","82","","17","","10","","","","99.37","","","","-5","","NA"
"2015-01-28 17:00","2015","01","28","17:00","-2.3","","-4.5","","85","","15","","10","","","","99.36","","","","-6","","NA"
"2015-01-28 18:00","2015","01","28","18:00","-3.0","","-4.1","","92","","12","","7","","","","99.28","","","","-6","","NA"
"2015-01-28 19:00","2015","01","28","19:00","-3.2","","-4.3","","92","","10","","8","","","","99.16","","","","-6","","NA"
"2015-01-28 20:00","2015","01","28","20:00","-3.4","","-4.3","","93","","9","","4","","","","99.11","","","","-5","","NA"
"2015-01-28 21:00","2015","01","28","21:00","-3.2","","-4.3","","93","","12","","5","","","","98.98","","","","-5","","NA"
"2015-01-28 22:00","2015","01","28","22:00","-2.5","","-3.9","","90","","17","","7","","","","98.92","","","","-5","","NA"
"2015-01-28 23:00","2015","01","28","23:00","-2.4","","-3.4","","93","","17","","14","","","","98.85","","","","-7","","NA"
"2015-01-29 00:00","2015","01","29","00:00","-2.3","","-3.3","","93","","17","","13","","","","98.73","","","","-7","","NA"
"2015-01-29 01:00","2015","01","29","01:00","-2.4","","-3.2","","94","","17","","12","","","","98.62","","","","-7","","NA"
"2015-01-29 02:00","2015","01","29","02:00","-2.3","","-2.8","","96","","17","","13","","","","98.54","","","","-7","","NA"
"2015-01-29 03:00","2015","01","29","03:00","-1.1","","-1.5","","97","","20","","16","","","","98.49","","","","-6","","NA"
"2015-01-29 04:00","2015","01","29","04:00","-0.9","","-1.3","","97","","22","","14","","","","98.40","","","","-5","","NA"
"2015-01-29 05:00","2015","01","29","05:00","-0.8","","-1.4","","96","","22","","13","","","","98.36","","","","-5","","NA"
"2015-01-29 06:00","2015","01","29","06:00","-0.7","","-1.4","","95","","23","","12","","","","98.33","","","","-5","","NA"
"2015-01-29 07:00","2015","01","29","07:00","-0.4","","-0.8","","97","","24","","8","","","","98.32","","","","-3","","NA"
"2015-01-29 08:00","2015","01","29","08:00","-0.7","","-1.3","","96","","34","","6","","","","98.34","","","","-3","","NA"
"2015-01-29 09:00","2015","01","29","09:00","-1.3","","-2.2","","93","","34","","4","","","","98.44","","","","-3","","NA"
"2015-01-29 10:00","2015","01","29","10:00","-6.8","","-8.5","","88","","1","","17","","","","98.67","","","","-13","","NA"
"2015-01-29 11:00","2015","01","29","11:00","-9.9","","-12.5","","81","","1","","19","","","","98.81","","","","-18","","NA"
"2015-01-29 12:00","2015","01","29","12:00","-11.1","","-14.1","","79","","1","","14","","","","98.92","","","","-18","","NA"
"2015-01-29 13:00","2015","01","29","13:00","-12.0","","-15.1","","78","","36","","18","","","","99.05","","","","-20","","NA"
"2015-01-29 14:00","2015","01","29","14:00","-12.0","","-16.1","","72","","3","","18","","","","99.15","","","","-20","","NA"
"2015-01-29 15:00","2015","01","29","15:00","-12.4","","-16.2","","73","","2","","14","","","","99.27","","","","-19","","NA"
"2015-01-29 16:00","2015","01","29","16:00","-12.9","","-17.1","","71","","1","","13","","","","99.45","","","","-20","","NA"
"2015-01-29 17:00","2015","01","29","17:00","-13.5","","-17.2","","74","","36","","13","","","","99.60","","","","-20","","NA"
"2015-01-29 18:00","2015","01","29","18:00","-14.2","","-18.1","","73","","1","","15","","","","99.81","","","","-22","","NA"
"2015-01-29 19:00","2015","01","29","19:00","-14.7","","-18.3","","74","","35","","14","","","","99.97","","","","-22","","NA"
"2015-01-29 20:00","2015","01","29","20:00","-15.8","","-19.4","","74","","1","","10","","","","100.14","","","","-22","","NA"
"2015-01-29 21:00","2015","01","29","21:00","-16.5","","-20.1","","74","","36","","9","","","","100.27","","","","-23","","NA"
"2015-01-29 22:00","2015","01","29","22:00","-17.2","","-19.9","","80","","1","","6","","","","100.39","","","","-22","","NA"
"2015-01-29 23:00","2015","01","29","23:00","-17.0","","-20.7","","73","","34","","12","","","","100.48","","","","-24","","NA"
"2015-01-30 00:00","2015","01","30","00:00","-17.6","","-21.1","","74","","36","","8","","","","100.57","","","","-23","","NA"
"2015-01-30 01:00","2015","01","30","01:00","-19.3","","-22.0","","79","","36","","4","","","","100.61","","","","-23","","NA"
"2015-01-30 02:00","2015","01","30","02:00","-21.0","","-23.1","","83","","4","","4","","","","100.63","","","","-25","","NA"
"2015-01-30 03:00","2015","01","30","03:00","-23.3","","-25.4","","83","","3","","6","","","","100.66","","","","-29","","NA"
"2015-01-30 04:00","2015","01","30","04:00","-25.3","","-27.8","","80","","","","0","","","","100.70","","","","","","NA"
"2015-01-30 05:00","2015","01","30","05:00","-26.7","","-29.2","","79","","2","","4","","","","100.73","","","","-31","","NA"
"2015-01-30 06:00","2015","01","30","06:00","-28.2","","-30.9","","78","","4","","3","","","","100.76","","","","-31","","NA"
"2015-01-30 07:00","2015","01","30","07:00","-28.7","","-31.3","","78","","4","","7","","","","100.81","","","","-36","","NA"
"2015-01-30 08:00","2015","01","30","08:00","-27.7","","-30.5","","77","","5","","10","","","","100.82","","","","-36","","NA"
"2015-01-30 09:00","2015","01","30","09:00","-27.4","","-30.2","","77","","5","","9","","","","100.85","","","","-36","","NA"
"2015-01-30 10:00","2015","01","30","10:00","-25.5","","-28.4","","77","","4","","7","","","","100.84","","","","-32","","NA"
"2015-01-30 11:00","2015","01","30","11:00","-20.9","","-23.6","","79","","5","","7","","","","100.83","","","","-27","","NA"
"2015-01-30 12:00","2015","01","30","12:00","-17.0","","-22.0","","65","","35","","4","","","","100.78","","","","-20","","NA"
"2015-01-30 13:00","2015","01","30","13:00","-15.3","","-20.8","","63","","24","","4","","","","100.68","","","","-18","","NA"
"2015-01-30 14:00","2015","01","30","14:00","-15.1","","-19.4","","70","","26","","4","","","","100.58","","","","-18","","NA"
"2015-01-30 15:00","2015","01","30","15:00","-14.7","","-18.8","","71","","25","","5","","","","100.53","","","","-18","","NA"
"2015-01-30 16:00","2015","01","30","16:00","-14.4","","-17.0","","81","","11","","3","","","","100.45","","","","-17","","NA"
"2015-01-30 17:00","2015","01","30","17:00","-13.4","","-15.6","","84","","27","","3","","","","100.37","","","","-15","","NA"
"2015-01-30 18:00","2015","01","30","18:00","-12.9","","-15.7","","79","","25","","9","","","","100.28","","","","-18","","NA"
"2015-01-30 19:00","2015","01","30","19:00","-12.2","","-14.6","","82","","26","","8","","","","100.22","","","","-17","","NA"
"2015-01-30 20:00","2015","01","30","20:00","-11.7","","-14.0","","83","","26","","9","","","","100.13","","","","-17","","NA"
"2015-01-30 21:00","2015","01","30","21:00","-10.4","","-12.8","","83","","24","","9","","","","100.02","","","","-15","","NA"
"2015-01-30 22:00","2015","01","30","22:00","-14.4","","-16.3","","85","","3","","8","","","","99.97","","","","-20","","NA"
"2015-01-30 23:00","2015","01","30","23:00","-14.8","","-16.5","","87","","4","","7","","","","99.86","","","","-20","","NA"
"2015-01-31 00:00","2015","01","31","00:00","-15.3","","-17.0","","87","","4","","11","","","","99.80","","","","-22","","NA"
"2015-01-31 01:00","2015","01","31","01:00","-15.5","","-17.2","","87","","4","","9","","","","99.73","","","","-21","","NA"
"2015-01-31 02:00","2015","01","31","02:00","-15.6","","-17.3","","87","","4","","8","","","","99.61","","","","-21","","NA"
"2015-01-31 03:00","2015","01","31","03:00","-15.9","","-17.6","","87","","5","","8","","","","99.52","","","","-21","","NA"
"2015-01-31 04:00","2015","01","31","04:00","-15.5","","-17.1","","87","","4","","8","","","","99.37","","","","-21","","NA"
"2015-01-31 05:00","2015","01","31","05:00","-15.0","","-16.8","","87","","4","","9","","","","99.35","","","","-21","","NA"
"2015-01-31 06:00","2015","01","31","06:00","-14.3","","-15.8","","88","","4","","7","","","","99.33","","","","-19","","NA"
"2015-01-31 07:00","2015","01","31","07:00","-14.1","","-15.5","","89","","4","","8","","","","99.36","","","","-19","","NA"
"2015-01-31 08:00","2015","01","31","08:00","-13.9","","-15.3","","89","","3","","8","","","","99.42","","","","-19","","NA"
"2015-01-31 09:00","2015","01","31","09:00","-13.0","","-14.5","","89","","4","","7","","","","99.57","","","","-18","","NA"
"2015-01-31 10:00","2015","01","31","10:00","-12.0","","-14.1","","84","","1","","7","","","","99.66","","","","-16","","NA"
"2015-01-31 11:00","2015","01","31","11:00","-11.9","","-14.6","","81","","36","","8","","","","99.74","","","","-17","","NA"
"2015-01-31 12:00","2015","01","31","12:00","-12.3","","-16.7","","70","","36","","11","","","","99.82","","","","-18","","NA"
"2015-01-31 13:00","2015","01","31","13:00","-12.3","","-18.2","","61","","1","","12","","","","99.90","","","","-19","","NA"
"2015-01-31 14:00","2015","01","31","14:00","-13.2","","-19.9","","57","","1","","14","","","","99.96","","","","-20","","NA"
"2015-01-31 15:00","2015","01","31","15:00","-14.0","","-20.2","","59","","36","","14","","","","100.05","","","","-21","","NA"
"2015-01-31 16:00","2015","01","31","16:00","-15.1","","-20.6","","63","","36","","10","","","","100.14","","","","-21","","NA"
"2015-01-31 17:00","2015","01","31","17:00","-17.2","","-23.4","","59","","2","","11","","","","100.27","","","","-24","","NA"
"2015-01-31 18:00","2015","01","31","18:00","-19.7","","-25.1","","62","","2","","8","","","","100.43","","","","-26","","NA"
"2015-01-31 19:00","2015","01","31","19:00","-21.6","","-26.4","","65","","36","","5","","","","100.54","","","","-26","","NA"
"2015-01-31 20:00","2015","01","31","20:00","-23.3","","-26.9","","72","","3","","3","","","","100.64","","","","-26","","NA"
"2015-01-31 21:00","2015","01","31","21:00","-25.9","","-29.1","","75","","0","","1","","","","100.72","","","","-27","","NA"
"2015-01-31 22:00","2015","01","31","22:00","-27.6","","-30.4","","78","","2","","6","","","","100.72","","","","-34","","NA"
"2015-01-31 23:00","2015","01","31","23:00","-27.1","","-29.9","","77","","9","","2","","","","100.75","","","","-29","","NA"
