"Station Name","PUKASKWA (AUT)"
"Province","ONTARIO"
"Latitude","48.61"
"Longitude","-86.29"
"Elevation","191.50"
"Climate Identifier","6046768"
"WMO Identifier","71750"
"TC Identifier","WCJ"
"All times are specified in Local Standard Time (LST). Add 1 hour to adjust for Daylight Saving Time where and when it is observed."

"Legend"
"E","Estimated"
"M","Missing"
"NA","Not Available"

"Date/Time","Year","Month","Day","Time","Temp (°C)","Temp Flag","Dew Point Temp (°C)","Dew Point Temp Flag","Rel Hum (%)","Rel Hum Flag","Wind Dir (10s deg)","Wind Dir Flag","Wind Spd (km/h)","Wind Spd Flag","Visibility (km)","Visibility Flag","Stn Press (kPa)","Stn Press Flag","Hmdx","Hmdx Flag","Wind Chill","Wind Chill Flag","Weather"
"2014-08-01 00:00","2014","08","01","00:00","9.1","","8.4","","95","","20","","4","","","","99.27","","","","","","NA"
"2014-08-01 01:00","2014","08","01","01:00","9.1","","8.5","","96","","18","","3","","","","99.24","","","","","","NA"
"2014-08-01 02:00","2014","08","01","02:00","8.9","","8.3","","96","","","","0","","","","99.22","","","","","","NA"
"2014-08-01 03:00","2014","08","01","03:00","7.8","","7.2","","96","","4","","1","","","","99.24","","","","","","NA"
"2014-08-01 04:00","2014","08","01","04:00","7.5","","7.0","","97","","4","","3","","","","99.27","","","","","","NA"
"2014-08-01 05:00","2014","08","01","05:00","6.9","","6.5","","97","","4","","3","","","","99.33","","","","","","NA"
"2014-08-01 06:00","2014","08","01","06:00","7.0","","6.6","","98","","4","","3","","","","99.37","","","","","","NA"
"2014-08-01 07:00","2014","08","01","07:00","8.4","","8.1","","98","","4","","3","","","","99.47","","","","","","NA"
"2014-08-01 08:00","2014","08","01","08:00","12.4","","12.1","","98","","2","","2","","","","99.49","","","","","","NA"
"2014-08-01 09:00","2014","08","01","09:00","12.3","","10.1","","86","","23","","5","","","","99.54","","","","","","NA"
"2014-08-01 10:00","2014","08","01","10:00","12.7","","9.4","","80","","23","","9","","","","99.57","","","","","","NA"
"2014-08-01 11:00","2014","08","01","11:00","13.2","","10.0","","81","","24","","6","","","","99.58","","","","","","NA"
"2014-08-01 12:00","2014","08","01","12:00","14.0","","10.3","","78","","22","","8","","","","99.59","","","","","","NA"
"2014-08-01 13:00","2014","08","01","13:00","14.8","","10.8","","77","","23","","9","","","","99.57","","","","","","NA"
"2014-08-01 14:00","2014","08","01","14:00","14.4","","10.8","","79","","22","","7","","","","99.59","","","","","","NA"
"2014-08-01 15:00","2014","08","01","15:00","15.1","","11.3","","78","","23","","8","","","","99.62","","","","","","NA"
"2014-08-01 16:00","2014","08","01","16:00","16.0","","11.1","","73","","23","","6","","","","99.61","","","","","","NA"
"2014-08-01 17:00","2014","08","01","17:00","14.7","","10.6","","76","","23","","4","","","","99.64","","","","","","NA"
"2014-08-01 18:00","2014","08","01","18:00","13.7","","10.6","","81","","20","","3","","","","99.63","","","","","","NA"
"2014-08-01 19:00","2014","08","01","19:00","13.0","","10.5","","85","","21","","4","","","","99.64","","","","","","NA"
"2014-08-01 20:00","2014","08","01","20:00","12.3","","10.2","","87","","24","","3","","","","99.65","","","","","","NA"
"2014-08-01 21:00","2014","08","01","21:00","10.9","","9.5","","91","","19","","2","","","","99.69","","","","","","NA"
"2014-08-01 22:00","2014","08","01","22:00","9.6","","8.5","","93","","12","","1","","","","99.72","","","","","","NA"
"2014-08-01 23:00","2014","08","01","23:00","8.9","","8.1","","95","","7","","2","","","","99.73","","","","","","NA"
"2014-08-02 00:00","2014","08","02","00:00","8.4","","7.6","","95","","1","","2","","","","99.74","","","","","","NA"
"2014-08-02 01:00","2014","08","02","01:00","7.7","","7.0","","95","","5","","2","","","","99.72","","","","","","NA"
"2014-08-02 02:00","2014","08","02","02:00","7.2","","6.6","","96","","0","","1","","","","99.70","","","","","","NA"
"2014-08-02 03:00","2014","08","02","03:00","6.6","","6.0","","96","","2","","2","","","","99.69","","","","","","NA"
"2014-08-02 04:00","2014","08","02","04:00","6.3","","5.7","","96","","0","","1","","","","99.73","","","","","","NA"
"2014-08-02 05:00","2014","08","02","05:00","8.3","","7.9","","98","","20","","3","","","","99.74","","","","","","NA"
"2014-08-02 06:00","2014","08","02","06:00","8.6","","8.3","","98","","22","","2","","","","99.76","","","","","","NA"
"2014-08-02 07:00","2014","08","02","07:00","9.3","","9.0","","98","","23","","3","","","","99.80","","","","","","NA"
"2014-08-02 08:00","2014","08","02","08:00","10.8","","10.5","","98","","24","","4","","","","99.82","","","","","","NA"
"2014-08-02 09:00","2014","08","02","09:00","12.3","","9.4","","82","","24","","7","","","","99.82","","","","","","NA"
"2014-08-02 10:00","2014","08","02","10:00","12.9","","9.5","","80","","24","","7","","","","99.83","","","","","","NA"
"2014-08-02 11:00","2014","08","02","11:00","13.4","","9.6","","78","","23","","6","","","","99.83","","","","","","NA"
"2014-08-02 12:00","2014","08","02","12:00","15.7","","9.9","","68","","24","","9","","","","99.81","","","","","","NA"
"2014-08-02 13:00","2014","08","02","13:00","15.4","","9.7","","69","","23","","7","","","","99.79","","","","","","NA"
"2014-08-02 14:00","2014","08","02","14:00","16.3","","10.6","","69","","22","","8","","","","99.77","","","","","","NA"
"2014-08-02 15:00","2014","08","02","15:00","15.5","","9.9","","69","","21","","9","","","","99.75","","","","","","NA"
"2014-08-02 16:00","2014","08","02","16:00","14.4","","9.7","","74","","22","","8","","","","99.72","","","","","","NA"
"2014-08-02 17:00","2014","08","02","17:00","14.8","","9.9","","73","","18","","4","","","","99.68","","","","","","NA"
"2014-08-02 18:00","2014","08","02","18:00","14.6","","9.6","","72","","20","","7","","","","99.64","","","","","","NA"
"2014-08-02 19:00","2014","08","02","19:00","14.6","","10.5","","76","","22","","3","","","","99.59","","","","","","NA"
"2014-08-02 20:00","2014","08","02","20:00","12.6","","9.2","","79","","23","","4","","","","99.57","","","","","","NA"
"2014-08-02 21:00","2014","08","02","21:00","12.2","","9.5","","83","","21","","2","","","","99.55","","","","","","NA"
"2014-08-02 22:00","2014","08","02","22:00","12.0","","9.7","","86","","20","","2","","","","99.54","","","","","","NA"
"2014-08-02 23:00","2014","08","02","23:00","11.7","","9.6","","87","","15","","1","","","","99.52","","","","","","NA"
"2014-08-03 00:00","2014","08","03","00:00","11.9","","10.0","","88","","9","","1","","","","99.53","","","","","","NA"
"2014-08-03 01:00","2014","08","03","01:00","11.8","","10.2","","90","","13","","4","","","","99.50","","","","","","NA"
"2014-08-03 02:00","2014","08","03","02:00","11.8","","10.9","","94","","17","","2","","","","99.48","","","","","","NA"
"2014-08-03 03:00","2014","08","03","03:00","11.9","","11.2","","95","","21","","3","","","","99.51","","","","","","NA"
"2014-08-03 04:00","2014","08","03","04:00","11.5","","10.9","","96","","26","","3","","","","99.43","","","","","","NA"
"2014-08-03 05:00","2014","08","03","05:00","11.7","","11.2","","97","","","","0","","","","99.47","","","","","","NA"
"2014-08-03 06:00","2014","08","03","06:00","11.9","","11.4","","97","","33","","2","","","","99.46","","","","","","NA"
"2014-08-03 07:00","2014","08","03","07:00","12.2","","11.7","","97","","6","","4","","","","99.49","","","","","","NA"
"2014-08-03 08:00","2014","08","03","08:00","13.7","","13.1","","96","","6","","4","","","","99.51","","","","","","NA"
"2014-08-03 09:00","2014","08","03","09:00","16.6","","13.7","","83","","4","","4","","","","99.50","","","","","","NA"
"2014-08-03 10:00","2014","08","03","10:00","19.1","","14.9","","77","","2","","5","","","","99.50","","","","","","NA"
"2014-08-03 11:00","2014","08","03","11:00","17.5","","13.3","","76","","20","","8","","","","99.53","","","","","","NA"
"2014-08-03 12:00","2014","08","03","12:00","19.2","","12.7","","66","","19","","9","","","","99.51","","","","","","NA"
"2014-08-03 13:00","2014","08","03","13:00","20.1","","13.6","","66","","20","","6","","","","99.51","","","","","","NA"
"2014-08-03 14:00","2014","08","03","14:00","22.4","","14.8","","62","","30","","5","","","","99.51","","26","","","","NA"
"2014-08-03 15:00","2014","08","03","15:00","22.5","","12.2","","52","","36","","8","","","","99.49","","25","","","","NA"
"2014-08-03 16:00","2014","08","03","16:00","22.4","","12.1","","52","","2","","8","","","","99.47","","25","","","","NA"
"2014-08-03 17:00","2014","08","03","17:00","20.3","","12.6","","62","","27","","10","","","","99.49","","","","","","NA"
"2014-08-03 18:00","2014","08","03","18:00","19.7","","12.7","","64","","28","","6","","","","99.48","","","","","","NA"
"2014-08-03 19:00","2014","08","03","19:00","18.8","","13.0","","69","","29","","3","","","","99.47","","","","","","NA"
"2014-08-03 20:00","2014","08","03","20:00","18.0","","13.9","","77","","3","","4","","","","99.52","","","","","","NA"
"2014-08-03 21:00","2014","08","03","21:00","16.7","","13.5","","82","","4","","6","","","","99.59","","","","","","NA"
"2014-08-03 22:00","2014","08","03","22:00","15.0","","12.8","","87","","3","","5","","","","99.61","","","","","","NA"
"2014-08-03 23:00","2014","08","03","23:00","14.0","","12.4","","90","","5","","2","","","","99.63","","","","","","NA"
"2014-08-04 00:00","2014","08","04","00:00","13.1","","11.9","","92","","6","","4","","","","99.67","","","","","","NA"
"2014-08-04 01:00","2014","08","04","01:00","12.3","","11.4","","94","","4","","7","","","","99.66","","","","","","NA"
"2014-08-04 02:00","2014","08","04","02:00","11.8","","11.0","","95","","5","","4","","","","99.66","","","","","","NA"
"2014-08-04 03:00","2014","08","04","03:00","11.1","","10.3","","95","","4","","6","","","","99.66","","","","","","NA"
"2014-08-04 04:00","2014","08","04","04:00","10.5","","9.9","","96","","4","","7","","","","99.68","","","","","","NA"
"2014-08-04 05:00","2014","08","04","05:00","10.2","","9.6","","96","","4","","5","","","","99.70","","","","","","NA"
"2014-08-04 06:00","2014","08","04","06:00","10.0","","9.4","","96","","5","","5","","","","99.79","","","","","","NA"
"2014-08-04 07:00","2014","08","04","07:00","10.5","","10.0","","97","","5","","6","","","","99.81","","","","","","NA"
"2014-08-04 08:00","2014","08","04","08:00","13.8","","12.3","","91","","2","","2","","","","99.83","","","","","","NA"
"2014-08-04 09:00","2014","08","04","09:00","17.5","","13.2","","76","","4","","7","","","","99.82","","","","","","NA"
"2014-08-04 10:00","2014","08","04","10:00","18.8","","12.8","","68","","7","","10","","","","99.80","","","","","","NA"
"2014-08-04 11:00","2014","08","04","11:00","20.2","","12.2","","60","","5","","7","","","","99.79","","","","","","NA"
"2014-08-04 12:00","2014","08","04","12:00","21.1","","11.2","","53","","2","","9","","","","99.76","","","","","","NA"
"2014-08-04 13:00","2014","08","04","13:00","21.4","","13.8","","62","","24","","5","","","","99.72","","25","","","","NA"
"2014-08-04 14:00","2014","08","04","14:00","19.8","","13.5","","67","","28","","8","","","","99.72","","","","","","NA"
"2014-08-04 15:00","2014","08","04","15:00","21.3","","12.6","","58","","27","","8","","","","99.68","","","","","","NA"
"2014-08-04 16:00","2014","08","04","16:00","20.4","","12.8","","62","","28","","7","","","","99.67","","","","","","NA"
"2014-08-04 17:00","2014","08","04","17:00","19.0","","12.1","","64","","29","","8","","","","99.64","","","","","","NA"
"2014-08-04 18:00","2014","08","04","18:00","19.0","","11.4","","61","","30","","5","","","","99.63","","","","","","NA"
"2014-08-04 19:00","2014","08","04","19:00","17.1","","11.8","","71","","19","","5","","","","99.65","","","","","","NA"
"2014-08-04 20:00","2014","08","04","20:00","14.4","","10.7","","78","","20","","2","","","","99.64","","","","","","NA"
"2014-08-04 21:00","2014","08","04","21:00","13.4","","10.5","","82","","20","","2","","","","99.67","","","","","","NA"
"2014-08-04 22:00","2014","08","04","22:00","13.0","","10.5","","85","","24","","2","","","","99.67","","","","","","NA"
"2014-08-04 23:00","2014","08","04","23:00","12.5","","10.5","","87","","26","","3","","","","99.69","","","","","","NA"
"2014-08-05 00:00","2014","08","05","00:00","12.0","","10.6","","91","","26","","2","","","","99.69","","","","","","NA"
"2014-08-05 01:00","2014","08","05","01:00","11.4","","10.1","","92","","0","","1","","","","99.70","","","","","","NA"
"2014-08-05 02:00","2014","08","05","02:00","10.8","","9.9","","94","","5","","4","","","","99.65","","","","","","NA"
"2014-08-05 03:00","2014","08","05","03:00","10.2","","9.3","","94","","4","","3","","","","99.63","","","","","","NA"
"2014-08-05 04:00","2014","08","05","04:00","9.2","","8.3","","94","","0","","1","","","","99.65","","","","","","NA"
"2014-08-05 05:00","2014","08","05","05:00","8.3","","7.5","","95","","11","","1","","","","99.69","","","","","","NA"
"2014-08-05 06:00","2014","08","05","06:00","8.1","","7.5","","96","","4","","5","","","","99.70","","","","","","NA"
"2014-08-05 07:00","2014","08","05","07:00","8.9","","8.4","","97","","3","","3","","","","99.73","","","","","","NA"
"2014-08-05 08:00","2014","08","05","08:00","12.2","","11.4","","95","","23","","4","","","","99.74","","","","","","NA"
"2014-08-05 09:00","2014","08","05","09:00","15.1","","11.7","","80","","25","","6","","","","99.72","","","","","","NA"
"2014-08-05 10:00","2014","08","05","10:00","15.7","","11.3","","75","","25","","5","","","","99.72","","","","","","NA"
"2014-08-05 11:00","2014","08","05","11:00","16.4","","12.0","","75","","24","","8","","","","99.72","","","","","","NA"
"2014-08-05 12:00","2014","08","05","12:00","16.0","","11.7","","76","","25","","8","","","","99.73","","","","","","NA"
"2014-08-05 13:00","2014","08","05","13:00","15.7","","10.6","","72","","23","","10","","","","99.73","","","","","","NA"
"2014-08-05 14:00","2014","08","05","14:00","16.1","","7.5","","57","","24","","7","","","","99.71","","","","","","NA"
"2014-08-05 15:00","2014","08","05","15:00","17.0","","10.1","","64","","23","","9","","","","99.65","","","","","","NA"
"2014-08-05 16:00","2014","08","05","16:00","17.2","","10.6","","65","","23","","8","","","","99.63","","","","","","NA"
"2014-08-05 17:00","2014","08","05","17:00","15.7","","11.1","","74","","22","","7","","","","99.61","","","","","","NA"
"2014-08-05 18:00","2014","08","05","18:00","15.3","","10.3","","72","","18","","6","","","","99.60","","","","","","NA"
"2014-08-05 19:00","2014","08","05","19:00","13.4","","10.3","","81","","23","","4","","","","99.59","","","","","","NA"
"2014-08-05 20:00","2014","08","05","20:00","12.4","","10.2","","87","","22","","3","","","","99.54","","","","","","NA"
"2014-08-05 21:00","2014","08","05","21:00","11.7","","10.2","","91","","22","","4","","","","99.54","","","","","","NA"
"2014-08-05 22:00","2014","08","05","22:00","11.5","","10.5","","94","","5","","4","","","","99.55","","","","","","NA"
"2014-08-05 23:00","2014","08","05","23:00","11.2","","10.1","","93","","0","","1","","","","99.50","","","","","","NA"
"2014-08-06 00:00","2014","08","06","00:00","11.3","","10.2","","93","","3","","2","","","","99.48","","","","","","NA"
"2014-08-06 01:00","2014","08","06","01:00","11.3","","10.2","","93","","5","","2","","","","99.48","","","","","","NA"
"2014-08-06 02:00","2014","08","06","02:00","11.3","","10.1","","93","","8","","3","","","","99.46","","","","","","NA"
"2014-08-06 03:00","2014","08","06","03:00","11.4","","10.2","","93","","6","","1","","","","99.49","","","","","","NA"
"2014-08-06 04:00","2014","08","06","04:00","11.4","","10.1","","92","","34","","2","","","","99.49","","","","","","NA"
"2014-08-06 05:00","2014","08","06","05:00","10.0","","9.1","","94","","4","","4","","","","99.50","","","","","","NA"
"2014-08-06 06:00","2014","08","06","06:00","9.9","","9.2","","96","","4","","5","","","","99.52","","","","","","NA"
"2014-08-06 07:00","2014","08","06","07:00","10.3","","9.6","","96","","4","","5","","","","99.56","","","","","","NA"
"2014-08-06 08:00","2014","08","06","08:00","13.2","","11.5","","89","","3","","3","","","","99.60","","","","","","NA"
"2014-08-06 09:00","2014","08","06","09:00","17.4","","13.3","","77","","2","","5","","","","99.59","","","","","","NA"
"2014-08-06 10:00","2014","08","06","10:00","20.7","","14.6","","68","","4","","6","","","","99.59","","","","","","NA"
"2014-08-06 11:00","2014","08","06","11:00","19.3","","14.2","","72","","21","","8","","","","99.63","","","","","","NA"
"2014-08-06 12:00","2014","08","06","12:00","19.6","","14.1","","70","","22","","7","","","","99.63","","","","","","NA"
"2014-08-06 13:00","2014","08","06","13:00","20.3","","14.1","","68","","22","","5","","","","99.61","","","","","","NA"
"2014-08-06 14:00","2014","08","06","14:00","22.6","","13.9","","58","","21","","6","","","","99.59","","26","","","","NA"
"2014-08-06 15:00","2014","08","06","15:00","23.4","","13.5","","54","","29","","8","","","","99.56","","26","","","","NA"
"2014-08-06 16:00","2014","08","06","16:00","22.5","","13.6","","57","","29","","5","","","","99.57","","26","","","","NA"
"2014-08-06 17:00","2014","08","06","17:00","21.5","","13.6","","61","","29","","5","","","","99.58","","25","","","","NA"
"2014-08-06 18:00","2014","08","06","18:00","20.7","","13.6","","64","","29","","6","","","","99.56","","","","","","NA"
"2014-08-06 19:00","2014","08","06","19:00","19.7","","12.7","","64","","28","","4","","","","99.59","","","","","","NA"
"2014-08-06 20:00","2014","08","06","20:00","17.3","","13.0","","76","","19","","3","","","","99.57","","","","","","NA"
"2014-08-06 21:00","2014","08","06","21:00","15.0","","12.0","","82","","0","","1","","","","99.60","","","","","","NA"
"2014-08-06 22:00","2014","08","06","22:00","13.2","","11.2","","88","","6","","2","","","","99.64","","","","","","NA"
"2014-08-06 23:00","2014","08","06","23:00","12.9","","11.4","","91","","5","","6","","","","99.66","","","","","","NA"
"2014-08-07 00:00","2014","08","07","00:00","12.6","","11.3","","92","","8","","5","","","","99.70","","","","","","NA"
"2014-08-07 01:00","2014","08","07","01:00","11.8","","10.8","","94","","6","","3","","","","99.70","","","","","","NA"
"2014-08-07 02:00","2014","08","07","02:00","11.0","","10.1","","94","","5","","10","","","","99.68","","","","","","NA"
"2014-08-07 03:00","2014","08","07","03:00","10.1","","9.2","","95","","5","","8","","","","99.71","","","","","","NA"
"2014-08-07 04:00","2014","08","07","04:00","9.5","","8.7","","95","","5","","11","","","","99.71","","","","","","NA"
"2014-08-07 05:00","2014","08","07","05:00","9.0","","8.3","","96","","5","","9","","","","99.75","","","","","","NA"
"2014-08-07 06:00","2014","08","07","06:00","8.6","","7.9","","96","","4","","10","","","","99.78","","","","","","NA"
"2014-08-07 07:00","2014","08","07","07:00","9.2","","8.6","","96","","4","","11","","","","99.81","","","","","","NA"
"2014-08-07 08:00","2014","08","07","08:00","12.2","","10.9","","92","","4","","9","","","","99.83","","","","","","NA"
"2014-08-07 09:00","2014","08","07","09:00","17.1","","13.4","","79","","3","","6","","","","99.82","","","","","","NA"
"2014-08-07 10:00","2014","08","07","10:00","20.8","","13.8","","64","","2","","5","","","","99.82","","","","","","NA"
"2014-08-07 11:00","2014","08","07","11:00","19.7","","13.0","","65","","25","","8","","","","99.81","","","","","","NA"
"2014-08-07 12:00","2014","08","07","12:00","18.7","","11.9","","65","","22","","6","","","","99.80","","","","","","NA"
"2014-08-07 13:00","2014","08","07","13:00","18.9","","12.8","","68","","25","","8","","","","99.79","","","","","","NA"
"2014-08-07 14:00","2014","08","07","14:00","18.6","","13.0","","70","","21","","6","","","","99.78","","","","","","NA"
"2014-08-07 15:00","2014","08","07","15:00","17.3","","12.1","","72","","24","","7","","","","99.75","","","","","","NA"
"2014-08-07 16:00","2014","08","07","16:00","17.4","","11.6","","69","","23","","5","","","","99.70","","","","","","NA"
"2014-08-07 17:00","2014","08","07","17:00","17.0","","11.9","","72","","25","","5","","","","99.67","","","","","","NA"
"2014-08-07 18:00","2014","08","07","18:00","17.0","","12.6","","75","","21","","4","","","","99.64","","","","","","NA"
"2014-08-07 19:00","2014","08","07","19:00","15.8","","11.8","","77","","22","","3","","","","99.63","","","","","","NA"
"2014-08-07 20:00","2014","08","07","20:00","14.3","","11.7","","85","","24","","4","","","","99.65","","","","","","NA"
"2014-08-07 21:00","2014","08","07","21:00","12.6","","10.8","","89","","24","","1","","","","99.70","","","","","","NA"
"2014-08-07 22:00","2014","08","07","22:00","11.3","","10.0","","92","","4","","4","","","","99.68","","","","","","NA"
"2014-08-07 23:00","2014","08","07","23:00","11.0","","10.0","","94","","5","","6","","","","99.68","","","","","","NA"
"2014-08-08 00:00","2014","08","08","00:00","10.8","","9.8","","94","","5","","6","","","","99.68","","","","","","NA"
"2014-08-08 01:00","2014","08","08","01:00","10.2","","9.3","","95","","6","","6","","","","99.70","","","","","","NA"
"2014-08-08 02:00","2014","08","08","02:00","9.6","","8.8","","95","","5","","7","","","","99.70","","","","","","NA"
"2014-08-08 03:00","2014","08","08","03:00","8.9","","8.2","","95","","5","","4","","","","99.75","","","","","","NA"
"2014-08-08 04:00","2014","08","08","04:00","8.2","","7.6","","96","","4","","4","","","","99.77","","","","","","NA"
"2014-08-08 05:00","2014","08","08","05:00","7.7","","7.1","","96","","5","","6","","","","99.78","","","","","","NA"
"2014-08-08 06:00","2014","08","08","06:00","7.3","","6.7","","96","","4","","9","","","","99.79","","","","","","NA"
"2014-08-08 07:00","2014","08","08","07:00","7.9","","7.4","","97","","4","","10","","","","99.80","","","","","","NA"
"2014-08-08 08:00","2014","08","08","08:00","10.7","","10.0","","95","","4","","6","","","","99.81","","","","","","NA"
"2014-08-08 09:00","2014","08","08","09:00","15.8","","12.5","","81","","","","0","","","","99.82","","","","","","NA"
"2014-08-08 10:00","2014","08","08","10:00","17.9","","10.8","","63","","25","","5","","","","99.82","","","","","","NA"
"2014-08-08 11:00","2014","08","08","11:00","20.7","","11.9","","57","","22","","5","","","","99.79","","","","","","NA"
"2014-08-08 12:00","2014","08","08","12:00","19.8","","11.4","","58","","24","","7","","","","99.80","","","","","","NA"
"2014-08-08 13:00","2014","08","08","13:00","18.9","","12.1","","65","","25","","9","","","","99.79","","","","","","NA"
"2014-08-08 14:00","2014","08","08","14:00","19.4","","12.6","","65","","25","","9","","","","99.77","","","","","","NA"
"2014-08-08 15:00","2014","08","08","15:00","19.3","","13.1","","68","","24","","8","","","","99.76","","","","","","NA"
"2014-08-08 16:00","2014","08","08","16:00","18.7","","12.6","","68","","23","","8","","","","99.73","","","","","","NA"
"2014-08-08 17:00","2014","08","08","17:00","17.5","","12.4","","72","","20","","8","","","","99.71","","","","","","NA"
"2014-08-08 18:00","2014","08","08","18:00","16.2","","12.0","","76","","22","","7","","","","99.70","","","","","","NA"
"2014-08-08 19:00","2014","08","08","19:00","14.9","","11.5","","80","","19","","5","","","","99.67","","","","","","NA"
"2014-08-08 20:00","2014","08","08","20:00","14.3","","12.0","","86","","0","","1","","","","99.66","","","","","","NA"
"2014-08-08 21:00","2014","08","08","21:00","13.0","","11.4","","90","","","","0","","","","99.68","","","","","","NA"
"2014-08-08 22:00","2014","08","08","22:00","12.0","","10.7","","92","","25","","2","","","","99.73","","","","","","NA"
"2014-08-08 23:00","2014","08","08","23:00","11.2","","10.1","","93","","17","","2","","","","99.79","","","","","","NA"
"2014-08-09 00:00","2014","08","09","00:00","10.4","","9.4","","94","","20","","1","","","","99.77","","","","","","NA"
"2014-08-09 01:00","2014","08","09","01:00","9.8","","9.0","","94","","6","","2","","","","99.75","","","","","","NA"
"2014-08-09 02:00","2014","08","09","02:00","9.4","","8.6","","95","","3","","2","","","","99.73","","","","","","NA"
"2014-08-09 03:00","2014","08","09","03:00","8.8","","8.1","","95","","6","","2","","","","99.74","","","","","","NA"
"2014-08-09 04:00","2014","08","09","04:00","8.5","","7.9","","96","","0","","1","","","","99.77","","","","","","NA"
"2014-08-09 05:00","2014","08","09","05:00","8.0","","7.4","","96","","6","","2","","","","99.81","","","","","","NA"
"2014-08-09 06:00","2014","08","09","06:00","8.4","","7.9","","97","","4","","4","","","","99.84","","","","","","NA"
"2014-08-09 07:00","2014","08","09","07:00","10.1","","9.6","","97","","4","","4","","","","99.85","","","","","","NA"
"2014-08-09 08:00","2014","08","09","08:00","12.9","","11.9","","94","","0","","1","","","","99.86","","","","","","NA"
"2014-08-09 09:00","2014","08","09","09:00","17.8","","13.9","","78","","21","","3","","","","99.88","","","","","","NA"
"2014-08-09 10:00","2014","08","09","10:00","19.6","","12.0","","61","","23","","6","","","","99.89","","","","","","NA"
"2014-08-09 11:00","2014","08","09","11:00","19.6","","13.4","","67","","25","","8","","","","99.91","","","","","","NA"
"2014-08-09 12:00","2014","08","09","12:00","20.3","","11.9","","59","","25","","9","","","","99.87","","","","","","NA"
"2014-08-09 13:00","2014","08","09","13:00","21.1","","12.6","","59","","25","","8","","","","99.84","","","","","","NA"
"2014-08-09 14:00","2014","08","09","14:00","20.4","","12.9","","62","","25","","8","","","","99.86","","","","","","NA"
"2014-08-09 15:00","2014","08","09","15:00","19.7","","13.2","","66","","24","","8","","","","99.81","","","","","","NA"
"2014-08-09 16:00","2014","08","09","16:00","20.3","","13.5","","65","","20","","8","","","","99.79","","","","","","NA"
"2014-08-09 17:00","2014","08","09","17:00","19.3","","13.1","","67","","23","","5","","","","99.78","","","","","","NA"
"2014-08-09 18:00","2014","08","09","18:00","19.5","","13.3","","67","","23","","6","","","","99.75","","","","","","NA"
"2014-08-09 19:00","2014","08","09","19:00","17.2","","13.0","","76","","24","","4","","","","99.75","","","","","","NA"
"2014-08-09 20:00","2014","08","09","20:00","15.8","","12.9","","83","","22","","2","","","","99.75","","","","","","NA"
"2014-08-09 21:00","2014","08","09","21:00","13.7","","11.6","","87","","0","","1","","","","99.76","","","","","","NA"
"2014-08-09 22:00","2014","08","09","22:00","12.5","","11.1","","91","","4","","5","","","","99.74","","","","","","NA"
"2014-08-09 23:00","2014","08","09","23:00","12.8","","11.6","","93","","5","","6","","","","99.72","","","","","","NA"
"2014-08-10 00:00","2014","08","10","00:00","12.4","","11.4","","94","","5","","6","","","","99.71","","","","","","NA"
"2014-08-10 01:00","2014","08","10","01:00","11.8","","11.0","","95","","7","","4","","","","99.73","","","","","","NA"
"2014-08-10 02:00","2014","08","10","02:00","10.6","","9.7","","94","","2","","2","","","","99.71","","","","","","NA"
"2014-08-10 03:00","2014","08","10","03:00","9.7","","9.0","","95","","3","","4","","","","99.70","","","","","","NA"
"2014-08-10 04:00","2014","08","10","04:00","9.6","","9.0","","96","","5","","6","","","","99.69","","","","","","NA"
"2014-08-10 05:00","2014","08","10","05:00","9.6","","9.0","","96","","5","","6","","","","99.67","","","","","","NA"
"2014-08-10 06:00","2014","08","10","06:00","9.7","","9.0","","96","","5","","7","","","","99.69","","","","","","NA"
"2014-08-10 07:00","2014","08","10","07:00","10.4","","9.8","","96","","5","","8","","","","99.68","","","","","","NA"
"2014-08-10 08:00","2014","08","10","08:00","13.5","","11.9","","90","","4","","4","","","","99.68","","","","","","NA"
"2014-08-10 09:00","2014","08","10","09:00","17.3","","13.9","","80","","25","","1","","","","99.68","","","","","","NA"
"2014-08-10 10:00","2014","08","10","10:00","20.1","","14.2","","69","","24","","5","","","","99.66","","","","","","NA"
"2014-08-10 11:00","2014","08","10","11:00","21.9","","14.3","","62","","21","","8","","","","99.66","","25","","","","NA"
"2014-08-10 12:00","2014","08","10","12:00","21.8","","13.5","","60","","20","","7","","","","99.66","","25","","","","NA"
"2014-08-10 13:00","2014","08","10","13:00","21.9","","13.8","","60","","20","","6","","","","99.62","","25","","","","NA"
"2014-08-10 14:00","2014","08","10","14:00","21.2","","13.6","","62","","20","","10","","","","99.60","","","","","","NA"
"2014-08-10 15:00","2014","08","10","15:00","20.8","","13.4","","63","","21","","11","","","","99.55","","","","","","NA"
"2014-08-10 16:00","2014","08","10","16:00","20.6","","13.3","","63","","19","","10","","","","99.50","","","","","","NA"
"2014-08-10 17:00","2014","08","10","17:00","20.5","","13.2","","63","","19","","7","","","","99.48","","","","","","NA"
"2014-08-10 18:00","2014","08","10","18:00","19.0","","12.9","","68","","24","","7","","","","99.46","","","","","","NA"
"2014-08-10 19:00","2014","08","10","19:00","17.7","","13.4","","76","","22","","3","","","","99.41","","","","","","NA"
"2014-08-10 20:00","2014","08","10","20:00","15.8","","12.7","","82","","23","","2","","","","99.38","","","","","","NA"
"2014-08-10 21:00","2014","08","10","21:00","14.1","","12.3","","89","","","","0","","","","99.41","","","","","","NA"
"2014-08-10 22:00","2014","08","10","22:00","13.0","","11.4","","91","","36","","1","","","","99.38","","","","","","NA"
"2014-08-10 23:00","2014","08","10","23:00","12.5","","11.2","","92","","1","","2","","","","99.36","","","","","","NA"
"2014-08-11 00:00","2014","08","11","00:00","12.1","","11.2","","94","","6","","3","","","","99.35","","","","","","NA"
"2014-08-11 01:00","2014","08","11","01:00","12.1","","11.2","","95","","4","","6","","","","99.36","","","","","","NA"
"2014-08-11 02:00","2014","08","11","02:00","12.2","","11.4","","95","","4","","6","","","","99.29","","","","","","NA"
"2014-08-11 03:00","2014","08","11","03:00","12.3","","11.3","","94","","5","","6","","","","99.27","","","","","","NA"
"2014-08-11 04:00","2014","08","11","04:00","12.5","","11.4","","93","","4","","7","","","","99.24","","","","","","NA"
"2014-08-11 05:00","2014","08","11","05:00","12.8","","11.6","","93","","5","","5","","","","99.23","","","","","","NA"
"2014-08-11 06:00","2014","08","11","06:00","13.0","","11.9","","93","","5","","5","","","","99.23","","","","","","NA"
"2014-08-11 07:00","2014","08","11","07:00","13.1","","12.5","","96","","4","","8","","","","99.21","","","","","","NA"
"2014-08-11 08:00","2014","08","11","08:00","13.5","","13.0","","97","","11","","2","","","","99.27","","","","","","NA"
"2014-08-11 09:00","2014","08","11","09:00","14.1","","13.6","","97","","4","","8","","","","99.25","","","","","","NA"
"2014-08-11 10:00","2014","08","11","10:00","14.7","","14.3","","97","","7","","7","","","","99.29","","","","","","NA"
"2014-08-11 11:00","2014","08","11","11:00","15.9","","15.5","","97","","4","","8","","","","99.33","","","","","","NA"
"2014-08-11 12:00","2014","08","11","12:00","15.7","","15.1","","96","","4","","12","","","","99.34","","","","","","NA"
"2014-08-11 13:00","2014","08","11","13:00","16.3","","15.5","","96","","3","","11","","","","99.29","","","","","","NA"
"2014-08-11 14:00","2014","08","11","14:00","16.2","","15.3","","95","","4","","11","","","","99.28","","","","","","NA"
"2014-08-11 15:00","2014","08","11","15:00","15.6","","14.4","","93","","4","","14","","","","99.28","","","","","","NA"
"2014-08-11 16:00","2014","08","11","16:00","14.9","","13.9","","93","","2","","9","","","","99.33","","","","","","NA"
"2014-08-11 17:00","2014","08","11","17:00","14.0","","12.9","","93","","3","","16","","","","99.34","","","","","","NA"
"2014-08-11 18:00","2014","08","11","18:00","13.1","","12.2","","94","","3","","15","","","","99.33","","","","","","NA"
"2014-08-11 19:00","2014","08","11","19:00","12.3","","11.6","","95","","3","","12","","","","99.37","","","","","","NA"
"2014-08-11 20:00","2014","08","11","20:00","12.2","","11.4","","95","","3","","8","","","","99.37","","","","","","NA"
"2014-08-11 21:00","2014","08","11","21:00","12.0","","11.3","","96","","4","","10","","","","99.35","","","","","","NA"
"2014-08-11 22:00","2014","08","11","22:00","11.8","","11.1","","96","","4","","9","","","","99.35","","","","","","NA"
"2014-08-11 23:00","2014","08","11","23:00","11.6","","10.8","","95","","4","","15","","","","99.29","","","","","","NA"
"2014-08-12 00:00","2014","08","12","00:00","11.4","","10.7","","96","","4","","16","","","","99.22","","","","","","NA"
"2014-08-12 01:00","2014","08","12","01:00","11.3","","10.6","","95","","4","","14","","","","99.15","","","","","","NA"
"2014-08-12 02:00","2014","08","12","02:00","11.1","","10.3","","95","","4","","17","","","","99.04","","","","","","NA"
"2014-08-12 03:00","2014","08","12","03:00","11.2","","10.4","","95","","4","","13","","","","99.02","","","","","","NA"
"2014-08-12 04:00","2014","08","12","04:00","11.2","","10.3","","95","","4","","14","","","","98.99","","","","","","NA"
"2014-08-12 05:00","2014","08","12","05:00","11.2","","10.3","","94","","4","","14","","","","98.99","","","","","","NA"
"2014-08-12 06:00","2014","08","12","06:00","11.2","","10.3","","94","","3","","13","","","","98.95","","","","","","NA"
"2014-08-12 07:00","2014","08","12","07:00","11.4","","10.3","","93","","3","","12","","","","98.94","","","","","","NA"
"2014-08-12 08:00","2014","08","12","08:00","11.8","","10.4","","91","","3","","15","","","","98.90","","","","","","NA"
"2014-08-12 09:00","2014","08","12","09:00","12.6","","10.5","","87","","4","","15","","","","98.85","","","","","","NA"
"2014-08-12 10:00","2014","08","12","10:00","13.1","","10.7","","85","","4","","11","","","","98.83","","","","","","NA"
"2014-08-12 11:00","2014","08","12","11:00","13.4","","10.2","","81","","3","","14","","","","98.86","","","","","","NA"
"2014-08-12 12:00","2014","08","12","12:00","13.5","","10.4","","82","","3","","12","","","","98.85","","","","","","NA"
"2014-08-12 13:00","2014","08","12","13:00","13.3","","10.4","","83","","36","","9","","","","98.83","","","","","","NA"
"2014-08-12 14:00","2014","08","12","14:00","13.2","","9.8","","80","","3","","14","","","","98.82","","","","","","NA"
"2014-08-12 15:00","2014","08","12","15:00","13.8","","10.0","","78","","2","","12","","","","98.80","","","","","","NA"
"2014-08-12 16:00","2014","08","12","16:00","15.5","","10.9","","74","","4","","9","","","","98.79","","","","","","NA"
"2014-08-12 17:00","2014","08","12","17:00","17.4","","10.7","","65","","4","","10","","","","98.76","","","","","","NA"
"2014-08-12 18:00","2014","08","12","18:00","17.5","","11.6","","68","","5","","8","","","","98.74","","","","","","NA"
"2014-08-12 19:00","2014","08","12","19:00","15.6","","11.3","","76","","5","","7","","","","98.73","","","","","","NA"
"2014-08-12 20:00","2014","08","12","20:00","13.1","","10.1","","82","","24","","2","","","","98.79","","","","","","NA"
"2014-08-12 21:00","2014","08","12","21:00","10.4","","9.2","","92","","6","","3","","","","98.80","","","","","","NA"
"2014-08-12 22:00","2014","08","12","22:00","9.3","","8.5","","95","","6","","2","","","","98.81","","","","","","NA"
"2014-08-12 23:00","2014","08","12","23:00","9.0","","8.4","","96","","3","","4","","","","98.83","","","","","","NA"
"2014-08-13 00:00","2014","08","13","00:00","8.8","","8.2","","96","","5","","5","","","","98.86","","","","","","NA"
"2014-08-13 01:00","2014","08","13","01:00","8.4","","7.9","","97","","4","","6","","","","98.87","","","","","","NA"
"2014-08-13 02:00","2014","08","13","02:00","7.8","","7.3","","97","","5","","7","","","","98.88","","","","","","NA"
"2014-08-13 03:00","2014","08","13","03:00","7.2","","6.8","","97","","5","","8","","","","98.91","","","","","","NA"
"2014-08-13 04:00","2014","08","13","04:00","7.4","","7.0","","97","","4","","7","","","","98.95","","","","","","NA"
"2014-08-13 05:00","2014","08","13","05:00","8.6","","8.2","","98","","3","","8","","","","98.99","","","","","","NA"
"2014-08-13 06:00","2014","08","13","06:00","9.5","","9.1","","98","","3","","8","","","","99.02","","","","","","NA"
"2014-08-13 07:00","2014","08","13","07:00","10.8","","10.3","","97","","2","","7","","","","99.10","","","","","","NA"
"2014-08-13 08:00","2014","08","13","08:00","12.6","","11.1","","90","","3","","9","","","","99.16","","","","","","NA"
"2014-08-13 09:00","2014","08","13","09:00","13.8","","9.5","","75","","2","","13","","","","99.21","","","","","","NA"
"2014-08-13 10:00","2014","08","13","10:00","13.9","","9.1","","73","","36","","11","","","","99.27","","","","","","NA"
"2014-08-13 11:00","2014","08","13","11:00","14.9","","8.5","","66","","2","","12","","","","99.31","","","","","","NA"
"2014-08-13 12:00","2014","08","13","12:00","15.6","","8.3","","62","","1","","10","","","","99.32","","","","","","NA"
"2014-08-13 13:00","2014","08","13","13:00","16.6","","7.2","","54","","3","","11","","","","99.33","","","","","","NA"
"2014-08-13 14:00","2014","08","13","14:00","17.0","","6.8","","51","","1","","12","","","","99.33","","","","","","NA"
"2014-08-13 15:00","2014","08","13","15:00","18.0","","5.7","","45","","2","","14","","","","99.33","","","","","","NA"
"2014-08-13 16:00","2014","08","13","16:00","17.6","","5.3","","44","","1","","10","","","","99.35","","","","","","NA"
"2014-08-13 17:00","2014","08","13","17:00","18.3","","5.4","","43","","2","","11","","","","99.36","","","","","","NA"
"2014-08-13 18:00","2014","08","13","18:00","16.9","","5.8","","48","","35","","7","","","","99.38","","","","","","NA"
"2014-08-13 19:00","2014","08","13","19:00","15.8","","6.2","","53","","36","","6","","","","99.42","","","","","","NA"
"2014-08-13 20:00","2014","08","13","20:00","13.2","","7.2","","67","","3","","3","","","","99.46","","","","","","NA"
"2014-08-13 21:00","2014","08","13","21:00","10.2","","7.0","","81","","2","","3","","","","99.51","","","","","","NA"
"2014-08-13 22:00","2014","08","13","22:00","8.6","","6.7","","88","","4","","5","","","","99.54","","","","","","NA"
"2014-08-13 23:00","2014","08","13","23:00","7.9","","6.4","","90","","6","","7","","","","99.58","","","","","","NA"
"2014-08-14 00:00","2014","08","14","00:00","7.0","","5.8","","92","","4","","5","","","","99.60","","","","","","NA"
"2014-08-14 01:00","2014","08","14","01:00","6.2","","5.1","","93","","6","","5","","","","99.63","","","","","","NA"
"2014-08-14 02:00","2014","08","14","02:00","5.5","","4.5","","94","","6","","6","","","","99.62","","","","","","NA"
"2014-08-14 03:00","2014","08","14","03:00","5.2","","4.3","","94","","6","","6","","","","99.62","","","","","","NA"
"2014-08-14 04:00","2014","08","14","04:00","4.7","","3.9","","94","","4","","5","","","","99.62","","","","","","NA"
"2014-08-14 05:00","2014","08","14","05:00","4.1","","3.3","","95","","4","","5","","","","99.64","","","","","","NA"
"2014-08-14 06:00","2014","08","14","06:00","3.9","","3.3","","96","","4","","6","","","","99.66","","","","","","NA"
"2014-08-14 07:00","2014","08","14","07:00","4.3","","3.7","","96","","5","","5","","","","99.68","","","","","","NA"
"2014-08-14 08:00","2014","08","14","08:00","7.8","","6.1","","89","","3","","5","","","","99.69","","","","","","NA"
"2014-08-14 09:00","2014","08","14","09:00","12.3","","6.5","","67","","2","","9","","","","99.69","","","","","","NA"
"2014-08-14 10:00","2014","08","14","10:00","14.9","","7.1","","60","","35","","7","","","","99.64","","","","","","NA"
"2014-08-14 11:00","2014","08","14","11:00","16.7","","6.1","","50","","36","","8","","","","99.56","","","","","","NA"
"2014-08-14 12:00","2014","08","14","12:00","18.2","","5.1","","42","","33","","7","","","","99.49","","","","","","NA"
"2014-08-14 13:00","2014","08","14","13:00","17.5","","8.5","","56","","26","","8","","","","99.45","","","","","","NA"
"2014-08-14 14:00","2014","08","14","14:00","16.2","","6.9","","54","","29","","14","","","","99.42","","","","","","NA"
"2014-08-14 15:00","2014","08","14","15:00","16.5","","8.3","","58","","28","","11","","","","99.39","","","","","","NA"
"2014-08-14 16:00","2014","08","14","16:00","15.2","","7.6","","61","","28","","14","","","","99.36","","","","","","NA"
"2014-08-14 17:00","2014","08","14","17:00","15.3","","8.5","","64","","27","","10","","","","99.31","","","","","","NA"
"2014-08-14 18:00","2014","08","14","18:00","14.1","","8.4","","69","","25","","6","","","","99.30","","","","","","NA"
"2014-08-14 19:00","2014","08","14","19:00","12.7","","8.3","","75","","22","","6","","","","99.26","","","","","","NA"
"2014-08-14 20:00","2014","08","14","20:00","10.9","","8.3","","84","","18","","4","","","","99.22","","","","","","NA"
"2014-08-14 21:00","2014","08","14","21:00","9.5","","7.8","","89","","21","","2","","","","99.21","","","","","","NA"
"2014-08-14 22:00","2014","08","14","22:00","8.2","","6.9","","92","","0","","1","","","","99.17","","","","","","NA"
"2014-08-14 23:00","2014","08","14","23:00","7.2","","6.2","","93","","0","","1","","","","99.18","","","","","","NA"
"2014-08-15 00:00","2014","08","15","00:00","6.4","","5.5","","94","","0","","1","","","","99.16","","","","","","NA"
"2014-08-15 01:00","2014","08","15","01:00","5.8","","5.0","","95","","34","","1","","","","99.13","","","","","","NA"
"2014-08-15 02:00","2014","08","15","02:00","5.2","","4.5","","95","","5","","3","","","","99.12","","","","","","NA"
"2014-08-15 03:00","2014","08","15","03:00","4.4","","3.7","","95","","5","","3","","","","99.11","","","","","","NA"
"2014-08-15 04:00","2014","08","15","04:00","3.8","","3.2","","96","","4","","3","","","","99.08","","","","","","NA"
"2014-08-15 05:00","2014","08","15","05:00","3.7","","3.1","","96","","","","0","","","","99.07","","","","","","NA"
"2014-08-15 06:00","2014","08","15","06:00","5.4","","5.0","","97","","24","","3","","","","99.07","","","","","","NA"
"2014-08-15 07:00","2014","08","15","07:00","8.6","","8.3","","98","","22","","2","","","","99.06","","","","","","NA"
"2014-08-15 08:00","2014","08","15","08:00","9.5","","9.2","","98","","19","","5","","","","99.09","","","","","","NA"
"2014-08-15 09:00","2014","08","15","09:00","9.6","","9.3","","98","","21","","6","","","","99.07","","","","","","NA"
"2014-08-15 10:00","2014","08","15","10:00","10.8","","10.4","","97","","22","","5","","","","99.04","","","","","","NA"
"2014-08-15 11:00","2014","08","15","11:00","12.8","","9.8","","82","","22","","10","","","","99.00","","","","","","NA"
"2014-08-15 12:00","2014","08","15","12:00","14.6","","10.5","","76","","23","","6","","","","98.97","","","","","","NA"
"2014-08-15 13:00","2014","08","15","13:00","14.2","","10.1","","77","","22","","7","","","","98.92","","","","","","NA"
"2014-08-15 14:00","2014","08","15","14:00","14.7","","10.7","","77","","21","","7","","","","98.88","","","","","","NA"
"2014-08-15 15:00","2014","08","15","15:00","14.5","","11.3","","81","","19","","6","","","","98.84","","","","","","NA"
"2014-08-15 16:00","2014","08","15","16:00","15.6","","11.2","","75","","20","","8","","","","98.80","","","","","","NA"
"2014-08-15 17:00","2014","08","15","17:00","14.3","","10.9","","80","","18","","5","","","","98.74","","","","","","NA"
"2014-08-15 18:00","2014","08","15","18:00","13.1","","10.8","","86","","19","","6","","","","98.71","","","","","","NA"
"2014-08-15 19:00","2014","08","15","19:00","12.8","","10.9","","88","","20","","4","","","","98.64","","","","","","NA"
"2014-08-15 20:00","2014","08","15","20:00","12.8","","11.4","","91","","27","","3","","","","98.64","","","","","","NA"
"2014-08-15 21:00","2014","08","15","21:00","12.8","","12.0","","95","","31","","2","","","","98.62","","","","","","NA"
"2014-08-15 22:00","2014","08","15","22:00","11.6","","11.1","","96","","24","","5","","","","98.48","","","","","","NA"
"2014-08-15 23:00","2014","08","15","23:00","13.4","","12.9","","97","","22","","6","","","","98.39","","","","","","NA"
"2014-08-16 00:00","2014","08","16","00:00","12.8","","12.4","","97","","19","","11","","","","98.35","","","","","","NA"
"2014-08-16 01:00","2014","08","16","01:00","10.9","","10.4","","96","","23","","6","","","","98.39","","","","","","NA"
"2014-08-16 02:00","2014","08","16","02:00","11.2","","10.8","","97","","20","","3","","","","98.37","","","","","","NA"
"2014-08-16 03:00","2014","08","16","03:00","11.4","","11.0","","97","","23","","3","","","","98.37","","","","","","NA"
"2014-08-16 04:00","2014","08","16","04:00","11.6","","11.2","","98","","18","","2","","","","98.37","","","","","","NA"
"2014-08-16 05:00","2014","08","16","05:00","11.6","","11.3","","98","","20","","1","","","","98.39","","","","","","NA"
"2014-08-16 06:00","2014","08","16","06:00","11.6","","11.2","","98","","0","","1","","","","98.46","","","","","","NA"
"2014-08-16 07:00","2014","08","16","07:00","12.1","","11.7","","98","","","","0","","","","98.50","","","","","","NA"
"2014-08-16 08:00","2014","08","16","08:00","14.5","","14.2","","98","","1","","7","","","","98.56","","","","","","NA"
"2014-08-16 09:00","2014","08","16","09:00","14.6","","13.1","","91","","3","","11","","","","98.67","","","","","","NA"
"2014-08-16 10:00","2014","08","16","10:00","15.1","","12.6","","85","","3","","12","","","","98.75","","","","","","NA"
"2014-08-16 11:00","2014","08","16","11:00","15.1","","12.3","","83","","2","","9","","","","98.81","","","","","","NA"
"2014-08-16 12:00","2014","08","16","12:00","16.3","","12.0","","76","","4","","11","","","","98.86","","","","","","NA"
"2014-08-16 13:00","2014","08","16","13:00","16.3","","11.6","","74","","1","","11","","","","98.90","","","","","","NA"
"2014-08-16 14:00","2014","08","16","14:00","16.6","","10.9","","69","","4","","12","","","","98.94","","","","","","NA"
"2014-08-16 15:00","2014","08","16","15:00","16.3","","10.9","","70","","3","","11","","","","99.00","","","","","","NA"
"2014-08-16 16:00","2014","08","16","16:00","16.5","","10.6","","68","","3","","11","","","","99.04","","","","","","NA"
"2014-08-16 17:00","2014","08","16","17:00","17.0","","10.8","","67","","2","","10","","","","99.10","","","","","","NA"
"2014-08-16 18:00","2014","08","16","18:00","15.4","","10.4","","72","","2","","9","","","","99.19","","","","","","NA"
"2014-08-16 19:00","2014","08","16","19:00","14.2","","10.0","","76","","1","","8","","","","99.25","","","","","","NA"
"2014-08-16 20:00","2014","08","16","20:00","13.3","","9.6","","78","","3","","9","","","","99.29","","","","","","NA"
"2014-08-16 21:00","2014","08","16","21:00","12.9","","9.7","","81","","3","","7","","","","99.37","","","","","","NA"
"2014-08-16 22:00","2014","08","16","22:00","12.4","","9.4","","82","","2","","7","","","","99.41","","","","","","NA"
"2014-08-16 23:00","2014","08","16","23:00","11.9","","9.0","","83","","4","","5","","","","99.44","","","","","","NA"
"2014-08-17 00:00","2014","08","17","00:00","10.8","","8.2","","84","","4","","7","","","","99.44","","","","","","NA"
"2014-08-17 01:00","2014","08","17","01:00","10.1","","8.0","","87","","5","","6","","","","99.48","","","","","","NA"
"2014-08-17 02:00","2014","08","17","02:00","9.0","","7.6","","91","","4","","4","","","","99.47","","","","","","NA"
"2014-08-17 03:00","2014","08","17","03:00","7.7","","6.6","","93","","6","","2","","","","99.55","","","","","","NA"
"2014-08-17 04:00","2014","08","17","04:00","7.7","","6.8","","94","","8","","3","","","","99.56","","","","","","NA"
"2014-08-17 05:00","2014","08","17","05:00","7.1","","6.2","","94","","6","","5","","","","99.62","","","","","","NA"
"2014-08-17 06:00","2014","08","17","06:00","6.7","","6.1","","96","","5","","3","","","","99.65","","","","","","NA"
"2014-08-17 07:00","2014","08","17","07:00","7.2","","6.6","","96","","0","","1","","","","99.73","","","","","","NA"
"2014-08-17 08:00","2014","08","17","08:00","9.8","","8.5","","92","","4","","3","","","","99.71","","","","","","NA"
"2014-08-17 09:00","2014","08","17","09:00","13.6","","9.1","","74","","6","","6","","","","99.69","","","","","","NA"
"2014-08-17 10:00","2014","08","17","10:00","15.2","","9.1","","67","","8","","9","","","","99.67","","","","","","NA"
"2014-08-17 11:00","2014","08","17","11:00","16.6","","8.3","","58","","2","","7","","","","99.68","","","","","","NA"
"2014-08-17 12:00","2014","08","17","12:00","16.6","","9.4","","63","","22","","8","","","","99.65","","","","","","NA"
"2014-08-17 13:00","2014","08","17","13:00","16.7","","9.7","","63","","25","","9","","","","99.61","","","","","","NA"
"2014-08-17 14:00","2014","08","17","14:00","17.4","","9.6","","60","","24","","8","","","","99.55","","","","","","NA"
"2014-08-17 15:00","2014","08","17","15:00","17.7","","8.8","","56","","28","","8","","","","99.53","","","","","","NA"
"2014-08-17 16:00","2014","08","17","16:00","17.9","","8.3","","53","","25","","5","","","","99.49","","","","","","NA"
"2014-08-17 17:00","2014","08","17","17:00","15.8","","10.2","","70","","23","","6","","","","99.49","","","","","","NA"
"2014-08-17 18:00","2014","08","17","18:00","14.0","","9.8","","76","","23","","6","","","","99.49","","","","","","NA"
"2014-08-17 19:00","2014","08","17","19:00","12.7","","9.6","","81","","21","","4","","","","99.42","","","","","","NA"
"2014-08-17 20:00","2014","08","17","20:00","11.3","","9.0","","86","","17","","3","","","","99.39","","","","","","NA"
"2014-08-17 21:00","2014","08","17","21:00","9.8","","8.4","","91","","24","","2","","","","99.42","","","","","","NA"
"2014-08-17 22:00","2014","08","17","22:00","8.6","","7.5","","93","","","","0","","","","99.36","","","","","","NA"
"2014-08-17 23:00","2014","08","17","23:00","7.7","","6.9","","94","","3","","3","","","","99.34","","","","","","NA"
"2014-08-18 00:00","2014","08","18","00:00","7.7","","7.0","","96","","4","","7","","","","99.32","","","","","","NA"
"2014-08-18 01:00","2014","08","18","01:00","7.5","","6.9","","96","","5","","7","","","","99.28","","","","","","NA"
"2014-08-18 02:00","2014","08","18","02:00","7.2","","6.6","","96","","4","","8","","","","99.24","","","","","","NA"
"2014-08-18 03:00","2014","08","18","03:00","6.7","","6.1","","96","","6","","5","","","","99.22","","","","","","NA"
"2014-08-18 04:00","2014","08","18","04:00","6.7","","6.2","","96","","5","","7","","","","99.18","","","","","","NA"
"2014-08-18 05:00","2014","08","18","05:00","6.8","","6.2","","97","","4","","7","","","","99.14","","","","","","NA"
"2014-08-18 06:00","2014","08","18","06:00","6.8","","6.2","","96","","5","","5","","","","99.08","","","","","","NA"
"2014-08-18 07:00","2014","08","18","07:00","7.5","","7.0","","97","","5","","9","","","","99.13","","","","","","NA"
"2014-08-18 08:00","2014","08","18","08:00","9.6","","8.9","","96","","5","","4","","","","99.10","","","","","","NA"
"2014-08-18 09:00","2014","08","18","09:00","12.5","","10.8","","89","","2","","3","","","","99.07","","","","","","NA"
"2014-08-18 10:00","2014","08","18","10:00","15.6","","11.3","","76","","19","","8","","","","99.03","","","","","","NA"
"2014-08-18 11:00","2014","08","18","11:00","15.8","","11.5","","75","","21","","5","","","","98.99","","","","","","NA"
"2014-08-18 12:00","2014","08","18","12:00","17.9","","13.0","","73","","19","","6","","","","98.90","","","","","","NA"
"2014-08-18 13:00","2014","08","18","13:00","17.1","","12.2","","73","","20","","6","","","","98.86","","","","","","NA"
"2014-08-18 14:00","2014","08","18","14:00","16.3","","11.7","","74","","22","","10","","","","98.85","","","","","","NA"
"2014-08-18 15:00","2014","08","18","15:00","14.7","","11.4","","81","","19","","9","","","","98.84","","","","","","NA"
"2014-08-18 16:00","2014","08","18","16:00","15.4","","12.0","","80","","19","","8","","","","98.74","","","","","","NA"
"2014-08-18 17:00","2014","08","18","17:00","15.6","","12.4","","81","","28","","2","","","","98.71","","","","","","NA"
"2014-08-18 18:00","2014","08","18","18:00","15.9","","12.4","","80","","28","","2","","","","98.65","","","","","","NA"
"2014-08-18 19:00","2014","08","18","19:00","15.7","","13.7","","88","","14","","2","","","","98.62","","","","","","NA"
"2014-08-18 20:00","2014","08","18","20:00","15.5","","14.3","","93","","11","","3","","","","98.60","","","","","","NA"
"2014-08-18 21:00","2014","08","18","21:00","15.4","","14.2","","93","","7","","3","","","","98.58","","","","","","NA"
"2014-08-18 22:00","2014","08","18","22:00","15.2","","14.3","","94","","7","","4","","","","98.54","","","","","","NA"
"2014-08-18 23:00","2014","08","18","23:00","15.2","","14.3","","94","","11","","3","","","","98.51","","","","","","NA"
"2014-08-19 00:00","2014","08","19","00:00","15.0","","14.3","","96","","10","","3","","","","98.47","","","","","","NA"
"2014-08-19 01:00","2014","08","19","01:00","14.8","","14.2","","96","","5","","4","","","","98.42","","","","","","NA"
"2014-08-19 02:00","2014","08","19","02:00","14.8","","14.2","","96","","9","","3","","","","98.37","","","","","","NA"
"2014-08-19 03:00","2014","08","19","03:00","14.8","","14.2","","96","","5","","4","","","","98.35","","","","","","NA"
"2014-08-19 04:00","2014","08","19","04:00","14.8","","14.2","","97","","4","","4","","","","98.34","","","","","","NA"
"2014-08-19 05:00","2014","08","19","05:00","14.8","","14.2","","97","","4","","3","","","","98.35","","","","","","NA"
"2014-08-19 06:00","2014","08","19","06:00","14.8","","14.3","","97","","3","","2","","","","98.36","","","","","","NA"
"2014-08-19 07:00","2014","08","19","07:00","14.9","","14.4","","97","","5","","5","","","","98.36","","","","","","NA"
"2014-08-19 08:00","2014","08","19","08:00","15.2","","14.7","","97","","6","","6","","","","98.36","","","","","","NA"
"2014-08-19 09:00","2014","08","19","09:00","15.4","","14.8","","97","","5","","4","","","","98.37","","","","","","NA"
"2014-08-19 10:00","2014","08","19","10:00","15.9","","15.1","","95","","7","","3","","","","98.39","","","","","","NA"
"2014-08-19 11:00","2014","08","19","11:00","16.0","","15.1","","94","","6","","4","","","","98.39","","","","","","NA"
"2014-08-19 12:00","2014","08","19","12:00","16.4","","15.3","","94","","5","","4","","","","98.40","","","","","","NA"
"2014-08-19 13:00","2014","08","19","13:00","16.5","","15.4","","93","","5","","6","","","","98.40","","","","","","NA"
"2014-08-19 14:00","2014","08","19","14:00","16.6","","15.5","","93","","5","","6","","","","98.39","","","","","","NA"
"2014-08-19 15:00","2014","08","19","15:00","17.0","","15.8","","93","","4","","7","","","","98.37","","","","","","NA"
"2014-08-19 16:00","2014","08","19","16:00","16.9","","15.8","","93","","5","","7","","","","98.39","","","","","","NA"
"2014-08-19 17:00","2014","08","19","17:00","16.6","","15.6","","94","","5","","6","","","","98.42","","","","","","NA"
"2014-08-19 18:00","2014","08","19","18:00","16.2","","15.2","","94","","6","","6","","","","98.45","","","","","","NA"
"2014-08-19 19:00","2014","08","19","19:00","15.5","","14.7","","95","","5","","6","","","","98.47","","","","","","NA"
"2014-08-19 20:00","2014","08","19","20:00","15.3","","14.7","","96","","4","","8","","","","98.47","","","","","","NA"
"2014-08-19 21:00","2014","08","19","21:00","15.3","","14.7","","97","","4","","7","","","","98.51","","","","","","NA"
"2014-08-19 22:00","2014","08","19","22:00","15.2","","14.7","","97","","4","","7","","","","98.50","","","","","","NA"
"2014-08-19 23:00","2014","08","19","23:00","15.2","","14.6","","97","","4","","8","","","","98.49","","","","","","NA"
"2014-08-20 00:00","2014","08","20","00:00","15.1","","14.6","","97","","4","","8","","","","98.50","","","","","","NA"
"2014-08-20 01:00","2014","08","20","01:00","15.2","","14.7","","97","","4","","9","","","","98.51","","","","","","NA"
"2014-08-20 02:00","2014","08","20","02:00","15.2","","14.7","","97","","4","","6","","","","98.54","","","","","","NA"
"2014-08-20 03:00","2014","08","20","03:00","15.2","","14.7","","97","","3","","6","","","","98.55","","","","","","NA"
"2014-08-20 04:00","2014","08","20","04:00","15.3","","14.8","","97","","3","","6","","","","98.58","","","","","","NA"
"2014-08-20 05:00","2014","08","20","05:00","15.3","","14.9","","97","","4","","6","","","","98.60","","","","","","NA"
"2014-08-20 06:00","2014","08","20","06:00","15.5","","15.0","","97","","4","","6","","","","98.66","","","","","","NA"
"2014-08-20 07:00","2014","08","20","07:00","15.6","","15.1","","97","","4","","6","","","","98.70","","","","","","NA"
"2014-08-20 08:00","2014","08","20","08:00","16.0","","15.5","","97","","4","","9","","","","98.72","","","","","","NA"
"2014-08-20 09:00","2014","08","20","09:00","16.7","","15.7","","94","","6","","8","","","","98.75","","","","","","NA"
"2014-08-20 10:00","2014","08","20","10:00"
"2014-08-20 11:00","2014","08","20","11:00","17.6","","16.1","","91","","7","","5","","","","98.83","","","","","","NA"
"2014-08-20 12:00","2014","08","20","12:00","18.8","","16.5","","86","","6","","8","","","","98.83","","","","","","NA"
"2014-08-20 13:00","2014","08","20","13:00","19.0","","17.0","","88","","7","","3","","","","98.89","","","","","","NA"
"2014-08-20 14:00","2014","08","20","14:00","18.7","","16.9","","90","","3","","5","","","","98.93","","","","","","NA"
"2014-08-20 15:00","2014","08","20","15:00","19.1","","16.5","","85","","4","","7","","","","98.95","","","","","","NA"
"2014-08-20 16:00","2014","08","20","16:00","19.7","","16.6","","83","","5","","7","","","","98.94","","","","","","NA"
"2014-08-20 17:00","2014","08","20","17:00","19.5","","16.6","","84","","5","","6","","","","98.98","","","","","","NA"
"2014-08-20 18:00","2014","08","20","18:00","18.9","","16.9","","88","","7","","5","","","","99.02","","","","","","NA"
"2014-08-20 19:00","2014","08","20","19:00","18.5","","17.1","","92","","4","","3","","","","99.05","","","","","","NA"
"2014-08-20 20:00","2014","08","20","20:00","17.9","","16.9","","94","","5","","4","","","","99.07","","","","","","NA"
"2014-08-20 21:00","2014","08","20","21:00","17.3","","16.5","","95","","5","","4","","","","99.11","","","","","","NA"
"2014-08-20 22:00","2014","08","20","22:00","16.5","","15.8","","96","","5","","5","","","","99.11","","","","","","NA"
"2014-08-20 23:00","2014","08","20","23:00","16.3","","15.7","","97","","1","","3","","","","99.16","","","","","","NA"
"2014-08-21 00:00","2014","08","21","00:00","16.6","","16.1","","97","","5","","2","","","","99.15","","","","","","NA"
"2014-08-21 01:00","2014","08","21","01:00","16.0","","15.3","","96","","10","","1","","","","99.18","","","","","","NA"
"2014-08-21 02:00","2014","08","21","02:00","16.2","","15.6","","97","","6","","2","","","","99.15","","","","","","NA"
"2014-08-21 03:00","2014","08","21","03:00","16.4","","15.9","","97","","4","","2","","","","99.16","","","","","","NA"
"2014-08-21 04:00","2014","08","21","04:00","16.1","","15.6","","97","","4","","4","","","","99.15","","","","","","NA"
"2014-08-21 05:00","2014","08","21","05:00","16.3","","15.8","","97","","6","","7","","","","99.14","","","","","","NA"
"2014-08-21 06:00","2014","08","21","06:00","16.3","","15.8","","97","","7","","5","","","","99.18","","","","","","NA"
"2014-08-21 07:00","2014","08","21","07:00","16.5","","16.0","","97","","5","","4","","","","99.21","","","","","","NA"
"2014-08-21 08:00","2014","08","21","08:00","17.3","","16.6","","96","","7","","3","","","","99.27","","","","","","NA"
"2014-08-21 09:00","2014","08","21","09:00","18.2","","16.9","","92","","12","","1","","","","99.31","","","","","","NA"
"2014-08-21 10:00","2014","08","21","10:00","18.7","","17.1","","91","","13","","1","","","","99.28","","","","","","NA"
"2014-08-21 11:00","2014","08","21","11:00","19.6","","17.3","","86","","33","","2","","","","99.25","","","","","","NA"
"2014-08-21 12:00","2014","08","21","12:00","18.1","","16.2","","89","","23","","3","","","","99.27","","","","","","NA"
"2014-08-21 13:00","2014","08","21","13:00","21.1","","17.7","","81","","24","","6","","","","99.23","","27","","","","NA"
"2014-08-21 14:00","2014","08","21","14:00","21.6","","17.5","","78","","23","","7","","","","99.24","","27","","","","NA"
"2014-08-21 15:00","2014","08","21","15:00","18.2","","15.4","","84","","21","","7","","","","99.30","","","","","","NA"
"2014-08-21 16:00","2014","08","21","16:00","16.1","","15.1","","94","","27","","2","","","","99.28","","","","","","NA"
"2014-08-21 17:00","2014","08","21","17:00","19.8","","17.6","","87","","36","","1","","","","99.25","","","","","","NA"
"2014-08-21 18:00","2014","08","21","18:00","15.3","","14.2","","93","","20","","6","","","","99.28","","","","","","NA"
"2014-08-21 19:00","2014","08","21","19:00","14.0","","13.2","","95","","22","","4","","","","99.29","","","","","","NA"
"2014-08-21 20:00","2014","08","21","20:00","13.8","","13.3","","96","","0","","1","","","","99.31","","","","","","NA"
"2014-08-21 21:00","2014","08","21","21:00","14.3","","13.9","","97","","4","","7","","","","99.31","","","","","","NA"
"2014-08-21 22:00","2014","08","21","22:00","14.7","","14.3","","97","","3","","7","","","","99.32","","","","","","NA"
"2014-08-21 23:00","2014","08","21","23:00","14.4","","13.9","","97","","4","","6","","","","99.31","","","","","","NA"
"2014-08-22 00:00","2014","08","22","00:00","14.4","","14.0","","97","","3","","9","","","","99.32","","","","","","NA"
"2014-08-22 01:00","2014","08","22","01:00","14.3","","13.9","","97","","4","","7","","","","99.29","","","","","","NA"
"2014-08-22 02:00","2014","08","22","02:00","14.1","","13.6","","97","","4","","7","","","","99.26","","","","","","NA"
"2014-08-22 03:00","2014","08","22","03:00","13.7","","13.2","","97","","5","","8","","","","99.23","","","","","","NA"
"2014-08-22 04:00","2014","08","22","04:00","13.4","","12.9","","97","","5","","7","","","","99.26","","","","","","NA"
"2014-08-22 05:00","2014","08","22","05:00","13.3","","12.8","","97","","5","","7","","","","99.27","","","","","","NA"
"2014-08-22 06:00","2014","08","22","06:00","13.4","","13.0","","97","","4","","10","","","","99.29","","","","","","NA"
"2014-08-22 07:00","2014","08","22","07:00","13.9","","13.5","","97","","6","","6","","","","99.35","","","","","","NA"
"2014-08-22 08:00","2014","08","22","08:00","15.2","","14.7","","97","","4","","6","","","","99.35","","","","","","NA"
"2014-08-22 09:00","2014","08","22","09:00","18.9","","16.8","","88","","1","","3","","","","99.35","","","","","","NA"
"2014-08-22 10:00","2014","08","22","10:00","21.7","","17.9","","79","","32","","2","","","","99.34","","28","","","","NA"
"2014-08-22 11:00","2014","08","22","11:00","19.5","","16.2","","81","","23","","6","","","","99.37","","","","","","NA"
"2014-08-22 12:00","2014","08","22","12:00","19.9","","16.6","","81","","23","","5","","","","99.37","","","","","","NA"
"2014-08-22 13:00","2014","08","22","13:00","22.0","","17.1","","74","","23","","9","","","","99.40","","27","","","","NA"
"2014-08-22 14:00","2014","08","22","14:00","21.4","","16.8","","75","","23","","6","","","","99.41","","27","","","","NA"
"2014-08-22 15:00","2014","08","22","15:00","22.1","","17.4","","75","","23","","5","","","","99.40","","28","","","","NA"
"2014-08-22 16:00","2014","08","22","16:00","21.4","","16.9","","76","","24","","6","","","","99.42","","27","","","","NA"
"2014-08-22 17:00","2014","08","22","17:00","20.5","","16.8","","80","","22","","6","","","","99.44","","26","","","","NA"
"2014-08-22 18:00","2014","08","22","18:00","19.5","","16.7","","84","","23","","3","","","","99.42","","","","","","NA"
"2014-08-22 19:00","2014","08","22","19:00","19.4","","17.3","","88","","20","","1","","","","99.42","","","","","","NA"
"2014-08-22 20:00","2014","08","22","20:00","18.5","","16.8","","90","","18","","3","","","","99.45","","","","","","NA"
"2014-08-22 21:00","2014","08","22","21:00","16.8","","15.5","","92","","20","","3","","","","99.50","","","","","","NA"
"2014-08-22 22:00","2014","08","22","22:00","16.5","","15.6","","94","","0","","1","","","","99.51","","","","","","NA"
"2014-08-22 23:00","2014","08","22","23:00","16.5","","15.6","","95","","7","","2","","","","99.53","","","","","","NA"
"2014-08-23 00:00","2014","08","23","00:00","16.6","","15.8","","95","","3","","5","","","","99.53","","","","","","NA"
"2014-08-23 01:00","2014","08","23","01:00","16.6","","15.8","","95","","5","","6","","","","99.53","","","","","","NA"
"2014-08-23 02:00","2014","08","23","02:00","16.5","","15.6","","95","","8","","3","","","","99.54","","","","","","NA"
"2014-08-23 03:00","2014","08","23","03:00","16.1","","15.4","","96","","5","","6","","","","99.55","","","","","","NA"
"2014-08-23 04:00","2014","08","23","04:00","15.8","","15.2","","96","","5","","8","","","","99.52","","","","","","NA"
"2014-08-23 05:00","2014","08","23","05:00","15.5","","14.9","","96","","6","","6","","","","99.58","","","","","","NA"
"2014-08-23 06:00","2014","08","23","06:00","15.2","","14.7","","97","","4","","9","","","","99.60","","","","","","NA"
"2014-08-23 07:00","2014","08","23","07:00","15.2","","14.6","","97","","5","","7","","","","99.63","","","","","","NA"
"2014-08-23 08:00","2014","08","23","08:00","16.5","","16.0","","97","","3","","3","","","","99.62","","","","","","NA"
"2014-08-23 09:00","2014","08","23","09:00","20.5","","18.1","","86","","2","","2","","","","99.64","","27","","","","NA"
"2014-08-23 10:00","2014","08","23","10:00","22.7","","17.3","","72","","25","","5","","","","99.67","","28","","","","NA"
"2014-08-23 11:00","2014","08","23","11:00","22.5","","16.7","","70","","24","","6","","","","99.70","","28","","","","NA"
"2014-08-23 12:00","2014","08","23","12:00","23.8","","16.5","","64","","23","","7","","","","99.68","","29","","","","NA"
"2014-08-23 13:00","2014","08","23","13:00","22.5","","16.5","","69","","23","","8","","","","99.72","","27","","","","NA"
"2014-08-23 14:00","2014","08","23","14:00","21.6","","17.0","","75","","25","","7","","","","99.70","","27","","","","NA"
"2014-08-23 15:00","2014","08","23","15:00","21.3","","16.9","","76","","26","","8","","","","99.68","","27","","","","NA"
"2014-08-23 16:00","2014","08","23","16:00","21.6","","17.2","","76","","24","","6","","","","99.68","","27","","","","NA"
"2014-08-23 17:00","2014","08","23","17:00","21.0","","17.1","","79","","24","","5","","","","99.72","","26","","","","NA"
"2014-08-23 18:00","2014","08","23","18:00","19.9","","16.9","","83","","21","","5","","","","99.71","","","","","","NA"
"2014-08-23 19:00","2014","08","23","19:00","19.4","","17.0","","86","","28","","1","","","","99.69","","","","","","NA"
"2014-08-23 20:00","2014","08","23","20:00","18.6","","16.9","","90","","35","","2","","","","99.71","","","","","","NA"
"2014-08-23 21:00","2014","08","23","21:00","18.0","","16.7","","92","","","","0","","","","99.71","","","","","","NA"
"2014-08-23 22:00","2014","08","23","22:00","17.8","","16.5","","93","","5","","4","","","","99.73","","","","","","NA"
"2014-08-23 23:00","2014","08","23","23:00"
"2014-08-24 00:00","2014","08","24","00:00"
"2014-08-24 01:00","2014","08","24","01:00","16.9","","15.9","","94","","6","","6","","","","99.76","","","","","","NA"
"2014-08-24 02:00","2014","08","24","02:00","16.6","","15.8","","95","","4","","5","","","","99.75","","","","","","NA"
"2014-08-24 03:00","2014","08","24","03:00","16.2","","15.5","","95","","6","","8","","","","99.77","","","","","","NA"
"2014-08-24 04:00","2014","08","24","04:00","16.4","","15.6","","95","","4","","6","","","","99.75","","","","","","NA"
"2014-08-24 05:00","2014","08","24","05:00","16.3","","15.5","","95","","4","","7","","","","99.74","","","","","","NA"
"2014-08-24 06:00","2014","08","24","06:00","16.3","","15.5","","95","","5","","5","","","","99.76","","","","","","NA"
"2014-08-24 07:00","2014","08","24","07:00","16.5","","15.9","","96","","4","","6","","","","99.76","","","","","","NA"
"2014-08-24 08:00","2014","08","24","08:00","17.5","","16.6","","95","","4","","5","","","","99.76","","","","","","NA"
"2014-08-24 09:00","2014","08","24","09:00","19.4","","17.5","","89","","35","","3","","","","99.72","","","","","","NA"
"2014-08-24 10:00","2014","08","24","10:00","21.8","","18.0","","79","","14","","4","","","","99.70","","28","","","","NA"
"2014-08-24 11:00","2014","08","24","11:00","23.3","","17.6","","70","","18","","8","","","","99.66","","29","","","","NA"
"2014-08-24 12:00","2014","08","24","12:00","22.3","","16.7","","71","","17","","7","","","","99.64","","27","","","","NA"
"2014-08-24 13:00","2014","08","24","13:00","21.5","","15.9","","71","","18","","11","","","","99.66","","26","","","","NA"
"2014-08-24 14:00","2014","08","24","14:00","22.3","","16.8","","71","","18","","10","","","","99.51","","27","","","","NA"
"2014-08-24 15:00","2014","08","24","15:00","21.2","","15.9","","72","","18","","8","","","","99.57","","26","","","","NA"
"2014-08-24 16:00","2014","08","24","16:00","21.7","","16.9","","74","","18","","12","","","","99.51","","27","","","","NA"
"2014-08-24 17:00","2014","08","24","17:00","21.4","","17.0","","76","","19","","9","","","","99.48","","27","","","","NA"
"2014-08-24 18:00","2014","08","24","18:00","23.7","","17.8","","69","","19","","6","","","","99.39","","30","","","","NA"
"2014-08-24 19:00","2014","08","24","19:00","22.8","","17.6","","73","","15","","8","","","","99.36","","29","","","","NA"
"2014-08-24 20:00","2014","08","24","20:00","20.5","","17.1","","81","","13","","4","","","","99.31","","26","","","","NA"
"2014-08-24 21:00","2014","08","24","21:00","19.7","","16.5","","82","","14","","5","","","","99.34","","","","","","NA"
"2014-08-24 22:00","2014","08","24","22:00","19.4","","15.8","","80","","17","","5","","","","99.33","","","","","","NA"
"2014-08-24 23:00","2014","08","24","23:00","19.4","","15.5","","78","","16","","8","","","","99.26","","","","","","NA"
"2014-08-25 00:00","2014","08","25","00:00","19.1","","15.4","","79","","14","","6","","","","99.15","","","","","","NA"
"2014-08-25 01:00","2014","08","25","01:00","18.3","","15.5","","84","","20","","4","","","","99.20","","","","","","NA"
"2014-08-25 02:00","2014","08","25","02:00","20.0","","16.4","","80","","18","","16","","","","99.09","","25","","","","NA"
"2014-08-25 03:00","2014","08","25","03:00","19.2","","16.1","","83","","19","","16","","","","99.15","","","","","","NA"
"2014-08-25 04:00","2014","08","25","04:00","18.8","","16.3","","86","","18","","17","","","","99.10","","","","","","NA"
"2014-08-25 05:00","2014","08","25","05:00","18.1","","16.1","","88","","18","","18","","","","99.13","","","","","","NA"
"2014-08-25 06:00","2014","08","25","06:00","17.3","","16.0","","92","","17","","14","","","","99.00","","","","","","NA"
"2014-08-25 07:00","2014","08","25","07:00","18.1","","17.3","","95","","17","","12","","","","98.83","","","","","","NA"
"2014-08-25 08:00","2014","08","25","08:00","18.2","","16.9","","92","","22","","6","","","","98.83","","","","","","NA"
"2014-08-25 09:00","2014","08","25","09:00","18.5","","17.1","","91","","20","","8","","","","98.91","","","","","","NA"
"2014-08-25 10:00","2014","08","25","10:00","14.1","","13.2","","95","","22","","9","","","","99.05","","","","","","NA"
"2014-08-25 11:00","2014","08","25","11:00","14.2","","13.7","","97","","18","","10","","","","99.01","","","","","","NA"
"2014-08-25 12:00","2014","08","25","12:00","16.0","","15.4","","96","","19","","8","","","","99.01","","","","","","NA"
"2014-08-25 13:00","2014","08","25","13:00","21.1","","17.8","","82","","20","","9","","","","98.89","","27","","","","NA"
"2014-08-25 14:00","2014","08","25","14:00","21.4","","17.5","","79","","19","","16","","","","98.86","","27","","","","NA"
"2014-08-25 15:00","2014","08","25","15:00","21.2","","17.8","","81","","18","","16","","","","98.84","","27","","","","NA"
"2014-08-25 16:00","2014","08","25","16:00","21.2","","17.9","","81","","18","","15","","","","98.78","","27","","","","NA"
"2014-08-25 17:00","2014","08","25","17:00","21.6","","18.2","","81","","18","","16","","","","98.68","","28","","","","NA"
"2014-08-25 18:00","2014","08","25","18:00","20.9","","17.7","","82","","18","","17","","","","98.61","","27","","","","NA"
"2014-08-25 19:00","2014","08","25","19:00","19.6","","17.2","","86","","18","","16","","","","98.58","","","","","","NA"
"2014-08-25 20:00","2014","08","25","20:00","17.4","","15.4","","88","","18","","9","","","","98.62","","","","","","NA"
"2014-08-25 21:00","2014","08","25","21:00","17.0","","15.2","","89","","18","","13","","","","98.57","","","","","","NA"
"2014-08-25 22:00","2014","08","25","22:00","15.2","","13.1","","87","","21","","9","","","","98.65","","","","","","NA"
"2014-08-25 23:00","2014","08","25","23:00","13.2","","11.4","","89","","19","","7","","","","98.72","","","","","","NA"
"2014-08-26 00:00","2014","08","26","00:00","12.3","","11.0","","92","","19","","6","","","","98.78","","","","","","NA"
"2014-08-26 01:00","2014","08","26","01:00","12.0","","10.8","","93","","17","","6","","","","98.82","","","","","","NA"
"2014-08-26 02:00","2014","08","26","02:00","11.7","","10.9","","95","","18","","6","","","","98.84","","","","","","NA"
"2014-08-26 03:00","2014","08","26","03:00","12.7","","11.4","","92","","23","","5","","","","98.89","","","","","","NA"
"2014-08-26 04:00","2014","08","26","04:00","12.4","","11.3","","93","","23","","6","","","","98.88","","","","","","NA"
"2014-08-26 05:00","2014","08","26","05:00","12.4","","11.3","","93","","24","","5","","","","98.91","","","","","","NA"
"2014-08-26 06:00","2014","08","26","06:00","12.1","","11.1","","94","","24","","5","","","","98.95","","","","","","NA"
"2014-08-26 07:00","2014","08","26","07:00","12.0","","11.2","","95","","23","","6","","","","99.02","","","","","","NA"
"2014-08-26 08:00","2014","08","26","08:00","13.2","","11.5","","89","","25","","12","","","","99.13","","","","","","NA"
"2014-08-26 09:00","2014","08","26","09:00","14.2","","11.2","","82","","27","","14","","","","99.12","","","","","","NA"
"2014-08-26 10:00","2014","08","26","10:00","14.4","","11.0","","80","","26","","10","","","","99.18","","","","","","NA"
"2014-08-26 11:00","2014","08","26","11:00","14.6","","11.4","","81","","25","","10","","","","99.25","","","","","","NA"
"2014-08-26 12:00","2014","08","26","12:00","14.6","","11.3","","80","","23","","8","","","","99.30","","","","","","NA"
"2014-08-26 13:00","2014","08","26","13:00","14.9","","10.8","","77","","26","","13","","","","99.30","","","","","","NA"
"2014-08-26 14:00","2014","08","26","14:00","15.9","","11.4","","75","","24","","9","","","","99.32","","","","","","NA"
"2014-08-26 15:00","2014","08","26","15:00","15.5","","10.9","","74","","19","","12","","","","99.36","","","","","","NA"
"2014-08-26 16:00","2014","08","26","16:00","13.4","","10.6","","83","","20","","10","","","","99.36","","","","","","NA"
"2014-08-26 17:00","2014","08","26","17:00","12.9","","10.8","","87","","12","","3","","","","99.41","","","","","","NA"
"2014-08-26 18:00","2014","08","26","18:00","13.1","","10.8","","86","","1","","3","","","","99.45","","","","","","NA"
"2014-08-26 19:00","2014","08","26","19:00","12.9","","10.9","","88","","29","","4","","","","99.44","","","","","","NA"
"2014-08-26 20:00","2014","08","26","20:00","12.7","","11.0","","90","","0","","1","","","","99.46","","","","","","NA"
"2014-08-26 21:00","2014","08","26","21:00","12.7","","11.3","","91","","17","","3","","","","99.51","","","","","","NA"
"2014-08-26 22:00","2014","08","26","22:00","12.5","","11.1","","91","","19","","4","","","","99.52","","","","","","NA"
"2014-08-26 23:00","2014","08","26","23:00","12.4","","11.2","","92","","22","","3","","","","99.54","","","","","","NA"
"2014-08-27 00:00","2014","08","27","00:00","12.4","","11.3","","93","","24","","2","","","","99.56","","","","","","NA"
"2014-08-27 01:00","2014","08","27","01:00","12.4","","11.1","","92","","0","","1","","","","99.55","","","","","","NA"
"2014-08-27 02:00","2014","08","27","02:00","12.1","","11.0","","93","","26","","2","","","","99.57","","","","","","NA"
"2014-08-27 03:00","2014","08","27","03:00","12.2","","10.9","","91","","28","","5","","","","99.59","","","","","","NA"
"2014-08-27 04:00","2014","08","27","04:00","12.2","","11.0","","93","","29","","3","","","","99.59","","","","","","NA"
"2014-08-27 05:00","2014","08","27","05:00","12.1","","10.8","","92","","31","","3","","","","99.59","","","","","","NA"
"2014-08-27 06:00","2014","08","27","06:00","12.0","","10.5","","91","","30","","4","","","","99.67","","","","","","NA"
"2014-08-27 07:00","2014","08","27","07:00","12.2","","10.6","","90","","29","","4","","","","99.70","","","","","","NA"
"2014-08-27 08:00","2014","08","27","08:00","12.9","","10.4","","85","","28","","3","","","","99.70","","","","","","NA"
"2014-08-27 09:00","2014","08","27","09:00","13.7","","9.5","","76","","28","","6","","","","99.70","","","","","","NA"
"2014-08-27 10:00","2014","08","27","10:00","14.6","","10.8","","78","","28","","7","","","","99.73","","","","","","NA"
"2014-08-27 11:00","2014","08","27","11:00","14.2","","11.0","","81","","24","","7","","","","99.74","","","","","","NA"
"2014-08-27 12:00","2014","08","27","12:00","14.3","","10.7","","79","","25","","9","","","","99.73","","","","","","NA"
"2014-08-27 13:00","2014","08","27","13:00","13.7","","10.2","","79","","26","","9","","","","99.75","","","","","","NA"
"2014-08-27 14:00","2014","08","27","14:00","14.6","","10.3","","76","","22","","8","","","","99.74","","","","","","NA"
"2014-08-27 15:00","2014","08","27","15:00","14.1","","10.3","","78","","21","","7","","","","99.75","","","","","","NA"
"2014-08-27 16:00","2014","08","27","16:00","15.8","","10.3","","70","","26","","11","","","","99.72","","","","","","NA"
"2014-08-27 17:00","2014","08","27","17:00","15.5","","10.1","","71","","27","","9","","","","99.74","","","","","","NA"
"2014-08-27 18:00","2014","08","27","18:00","14.2","","10.0","","76","","28","","9","","","","99.75","","","","","","NA"
"2014-08-27 19:00","2014","08","27","19:00","13.4","","10.3","","81","","29","","7","","","","99.77","","","","","","NA"
"2014-08-27 20:00","2014","08","27","20:00","11.7","","9.9","","88","","28","","2","","","","99.74","","","","","","NA"
"2014-08-27 21:00","2014","08","27","21:00","9.8","","8.4","","91","","7","","1","","","","99.75","","","","","","NA"
"2014-08-27 22:00","2014","08","27","22:00","9.1","","8.1","","94","","4","","1","","","","99.76","","","","","","NA"
"2014-08-27 23:00","2014","08","27","23:00","8.1","","7.2","","94","","3","","3","","","","99.78","","","","","","NA"
"2014-08-28 00:00","2014","08","28","00:00","7.4","","6.8","","96","","6","","3","","","","99.77","","","","","","NA"
"2014-08-28 01:00","2014","08","28","01:00","6.6","","5.9","","96","","5","","2","","","","99.78","","","","","","NA"
"2014-08-28 02:00","2014","08","28","02:00","6.1","","5.5","","96","","4","","5","","","","99.81","","","","","","NA"
"2014-08-28 03:00","2014","08","28","03:00","5.4","","4.8","","96","","5","","6","","","","99.83","","","","","","NA"
"2014-08-28 04:00","2014","08","28","04:00","4.9","","4.4","","97","","5","","6","","","","99.81","","","","","","NA"
"2014-08-28 05:00","2014","08","28","05:00","4.3","","3.9","","97","","5","","8","","","","99.82","","","","","","NA"
"2014-08-28 06:00","2014","08","28","06:00","4.1","","3.7","","97","","5","","7","","","","99.84","","","","","","NA"
"2014-08-28 07:00","2014","08","28","07:00","4.2","","3.8","","98","","5","","6","","","","99.87","","","","","","NA"
"2014-08-28 08:00","2014","08","28","08:00","6.3","","6.0","","98","","4","","4","","","","99.87","","","","","","NA"
"2014-08-28 09:00","2014","08","28","09:00","11.4","","11.0","","97","","35","","2","","","","99.84","","","","","","NA"
"2014-08-28 10:00","2014","08","28","10:00","14.2","","10.0","","76","","22","","8","","","","99.84","","","","","","NA"
"2014-08-28 11:00","2014","08","28","11:00","14.9","","10.4","","74","","22","","7","","","","99.83","","","","","","NA"
"2014-08-28 12:00","2014","08","28","12:00","15.0","","10.7","","75","","22","","9","","","","99.85","","","","","","NA"
"2014-08-28 13:00","2014","08","28","13:00","15.6","","10.7","","73","","23","","6","","","","99.83","","","","","","NA"
"2014-08-28 14:00","2014","08","28","14:00","15.7","","9.8","","68","","21","","9","","","","99.79","","","","","","NA"
"2014-08-28 15:00","2014","08","28","15:00","15.6","","10.6","","73","","20","","9","","","","99.75","","","","","","NA"
"2014-08-28 16:00","2014","08","28","16:00","15.2","","9.4","","68","","19","","9","","","","99.70","","","","","","NA"
"2014-08-28 17:00","2014","08","28","17:00","15.1","","9.3","","68","","19","","7","","","","99.66","","","","","","NA"
"2014-08-28 18:00","2014","08","28","18:00","13.8","","9.6","","76","","19","","10","","","","99.62","","","","","","NA"
"2014-08-28 19:00","2014","08","28","19:00","12.9","","9.9","","82","","18","","7","","","","99.57","","","","","","NA"
"2014-08-28 20:00","2014","08","28","20:00","10.9","","8.9","","87","","16","","2","","","","99.56","","","","","","NA"
"2014-08-28 21:00","2014","08","28","21:00","9.3","","7.8","","90","","","","0","","","","99.53","","","","","","NA"
"2014-08-28 22:00","2014","08","28","22:00","8.6","","7.5","","92","","15","","1","","","","99.51","","","","","","NA"
"2014-08-28 23:00","2014","08","28","23:00","8.6","","7.9","","95","","20","","2","","","","99.50","","","","","","NA"
"2014-08-29 00:00","2014","08","29","00:00","9.4","","7.6","","89","","17","","3","","","","99.40","","","","","","NA"
"2014-08-29 01:00","2014","08","29","01:00","9.4","","7.4","","88","","17","","5","","","","99.38","","","","","","NA"
"2014-08-29 02:00","2014","08","29","02:00","10.2","","7.7","","85","","17","","4","","","","99.34","","","","","","NA"
"2014-08-29 03:00","2014","08","29","03:00","8.3","","7.2","","93","","19","","4","","","","99.32","","","","","","NA"
"2014-08-29 04:00","2014","08","29","04:00","13.2","","11.0","","86","","18","","9","","","","99.30","","","","","","NA"
"2014-08-29 05:00","2014","08","29","05:00","13.8","","11.1","","84","","18","","10","","","","99.26","","","","","","NA"
"2014-08-29 06:00","2014","08","29","06:00","14.0","","11.0","","82","","18","","11","","","","99.25","","","","","","NA"
"2014-08-29 07:00","2014","08","29","07:00","14.5","","11.0","","80","","18","","11","","","","99.23","","","","","","NA"
"2014-08-29 08:00","2014","08","29","08:00","14.9","","10.2","","74","","18","","11","","","","99.22","","","","","","NA"
"2014-08-29 09:00","2014","08","29","09:00","16.4","","10.1","","66","","18","","13","","","","99.19","","","","","","NA"
"2014-08-29 10:00","2014","08","29","10:00","16.1","","10.6","","70","","18","","11","","","","99.18","","","","","","NA"
"2014-08-29 11:00","2014","08","29","11:00","16.3","","10.9","","71","","18","","11","","","","99.16","","","","","","NA"
"2014-08-29 12:00","2014","08","29","12:00","16.3","","11.4","","73","","18","","12","","","","99.14","","","","","","NA"
"2014-08-29 13:00","2014","08","29","13:00","16.1","","13.1","","82","","18","","10","","","","99.09","","","","","","NA"
"2014-08-29 14:00","2014","08","29","14:00","15.1","","13.4","","90","","19","","11","","","","99.00","","","","","","NA"
"2014-08-29 15:00","2014","08","29","15:00","14.4","","13.5","","94","","26","","2","","","","98.95","","","","","","NA"
"2014-08-29 16:00","2014","08","29","16:00","14.9","","14.3","","96","","9","","2","","","","98.88","","","","","","NA"
"2014-08-29 17:00","2014","08","29","17:00","15.0","","14.4","","96","","5","","3","","","","98.78","","","","","","NA"
"2014-08-29 18:00","2014","08","29","18:00","15.0","","14.4","","96","","7","","3","","","","98.70","","","","","","NA"
"2014-08-29 19:00","2014","08","29","19:00","14.9","","14.4","","96","","6","","3","","","","98.63","","","","","","NA"
"2014-08-29 20:00","2014","08","29","20:00","15.1","","14.6","","97","","13","","3","","","","98.61","","","","","","NA"
"2014-08-29 21:00","2014","08","29","21:00","15.5","","14.9","","97","","18","","11","","","","98.59","","","","","","NA"
"2014-08-29 22:00","2014","08","29","22:00","15.3","","14.8","","97","","18","","13","","","","98.58","","","","","","NA"
"2014-08-29 23:00","2014","08","29","23:00","14.7","","14.2","","97","","18","","11","","","","98.57","","","","","","NA"
"2014-08-30 00:00","2014","08","30","00:00","14.5","","14.1","","97","","21","","7","","","","98.59","","","","","","NA"
"2014-08-30 01:00","2014","08","30","01:00","13.2","","12.7","","97","","24","","3","","","","98.55","","","","","","NA"
"2014-08-30 02:00","2014","08","30","02:00","13.1","","12.6","","97","","20","","2","","","","98.53","","","","","","NA"
"2014-08-30 03:00","2014","08","30","03:00","13.6","","13.2","","98","","28","","2","","","","98.55","","","","","","NA"
"2014-08-30 04:00","2014","08","30","04:00","13.7","","13.4","","98","","0","","1","","","","98.57","","","","","","NA"
"2014-08-30 05:00","2014","08","30","05:00","13.8","","13.4","","98","","5","","3","","","","98.57","","","","","","NA"
"2014-08-30 06:00","2014","08","30","06:00","14.1","","13.7","","98","","4","","6","","","","98.59","","","","","","NA"
"2014-08-30 07:00","2014","08","30","07:00","14.7","","14.3","","98","","4","","7","","","","98.63","","","","","","NA"
"2014-08-30 08:00","2014","08","30","08:00","15.2","","14.8","","97","","4","","9","","","","98.62","","","","","","NA"
"2014-08-30 09:00","2014","08","30","09:00","15.9","","14.9","","94","","4","","9","","","","98.65","","","","","","NA"
"2014-08-30 10:00","2014","08","30","10:00","15.9","","14.8","","93","","3","","10","","","","98.64","","","","","","NA"
"2014-08-30 11:00","2014","08","30","11:00","16.0","","14.7","","92","","4","","12","","","","98.68","","","","","","NA"
"2014-08-30 12:00","2014","08","30","12:00","16.8","","14.7","","88","","5","","11","","","","98.68","","","","","","NA"
"2014-08-30 13:00","2014","08","30","13:00","18.5","","15.8","","85","","5","","11","","","","98.66","","","","","","NA"
"2014-08-30 14:00","2014","08","30","14:00","19.1","","14.8","","76","","6","","13","","","","98.67","","","","","","NA"
"2014-08-30 15:00","2014","08","30","15:00","18.7","","14.7","","78","","5","","10","","","","98.67","","","","","","NA"
"2014-08-30 16:00","2014","08","30","16:00","18.5","","14.6","","78","","5","","11","","","","98.67","","","","","","NA"
"2014-08-30 17:00","2014","08","30","17:00","18.6","","14.8","","79","","3","","8","","","","98.67","","","","","","NA"
"2014-08-30 18:00","2014","08","30","18:00","17.6","","14.0","","79","","4","","10","","","","98.72","","","","","","NA"
"2014-08-30 19:00","2014","08","30","19:00","17.4","","14.5","","83","","5","","7","","","","98.75","","","","","","NA"
"2014-08-30 20:00","2014","08","30","20:00","15.7","","13.2","","85","","4","","7","","","","98.79","","","","","","NA"
"2014-08-30 21:00","2014","08","30","21:00","14.6","","12.9","","90","","4","","6","","","","98.83","","","","","","NA"
"2014-08-30 22:00","2014","08","30","22:00","13.8","","12.5","","92","","5","","4","","","","98.85","","","","","","NA"
"2014-08-30 23:00","2014","08","30","23:00","12.8","","12.0","","95","","6","","5","","","","98.87","","","","","","NA"
"2014-08-31 00:00","2014","08","31","00:00","12.4","","11.7","","96","","4","","6","","","","98.91","","","","","","NA"
"2014-08-31 01:00","2014","08","31","01:00","11.7","","11.1","","96","","4","","7","","","","98.93","","","","","","NA"
"2014-08-31 02:00","2014","08","31","02:00","10.9","","10.4","","96","","4","","7","","","","98.95","","","","","","NA"
"2014-08-31 03:00","2014","08","31","03:00","10.5","","10.1","","97","","4","","8","","","","98.98","","","","","","NA"
"2014-08-31 04:00","2014","08","31","04:00","10.0","","9.6","","97","","4","","8","","","","98.99","","","","","","NA"
"2014-08-31 05:00","2014","08","31","05:00","9.6","","9.1","","97","","4","","8","","","","99.07","","","","","","NA"
"2014-08-31 06:00","2014","08","31","06:00","9.8","","9.4","","97","","4","","9","","","","99.12","","","","","","NA"
"2014-08-31 07:00","2014","08","31","07:00","10.7","","10.4","","98","","3","","8","","","","99.14","","","","","","NA"
"2014-08-31 08:00","2014","08","31","08:00","11.7","","11.3","","98","","5","","7","","","","99.13","","","","","","NA"
"2014-08-31 09:00","2014","08","31","09:00","13.0","","10.7","","86","","5","","10","","","","99.11","","","","","","NA"
"2014-08-31 10:00","2014","08","31","10:00","13.1","","10.7","","85","","6","","12","","","","99.16","","","","","","NA"
"2014-08-31 11:00","2014","08","31","11:00","16.1","","11.5","","74","","6","","11","","","","99.09","","","","","","NA"
"2014-08-31 12:00","2014","08","31","12:00","16.4","","11.4","","72","","11","","8","","","","99.05","","","","","","NA"
"2014-08-31 13:00","2014","08","31","13:00","18.3","","12.3","","68","","8","","4","","","","99.00","","","","","","NA"
"2014-08-31 14:00","2014","08","31","14:00","19.5","","13.0","","66","","17","","7","","","","98.97","","","","","","NA"
"2014-08-31 15:00","2014","08","31","15:00","19.1","","12.8","","67","","20","","8","","","","98.95","","","","","","NA"
"2014-08-31 16:00","2014","08","31","16:00","17.6","","12.0","","70","","21","","10","","","","98.92","","","","","","NA"
"2014-08-31 17:00","2014","08","31","17:00","16.9","","12.3","","75","","19","","7","","","","98.86","","","","","","NA"
"2014-08-31 18:00","2014","08","31","18:00","16.3","","12.0","","76","","19","","6","","","","98.85","","","","","","NA"
"2014-08-31 19:00","2014","08","31","19:00","14.3","","11.8","","85","","18","","4","","","","98.81","","","","","","NA"
"2014-08-31 20:00","2014","08","31","20:00","12.7","","11.4","","92","","26","","3","","","","98.71","","","","","","NA"
"2014-08-31 21:00","2014","08","31","21:00","12.0","","11.0","","94","","2","","4","","","","98.63","","","","","","NA"
"2014-08-31 22:00","2014","08","31","22:00","12.2","","11.4","","95","","6","","5","","","","98.63","","","","","","NA"
"2014-08-31 23:00","2014","08","31","23:00","12.7","","11.7","","94","","6","","5","","","","98.58","","","","","","NA"
