"Station Name","PUKASKWA (AUT)"
"Province","ONTARIO"
"Latitude","48.59"
"Longitude","-86.29"
"Elevation","207.60"
"Climate Identifier","6046767"
"WMO Identifier","71750"
"TC Identifier","WCJ"
"All times are specified in Local Standard Time (LST). Add 1 hour to adjust for Daylight Saving Time where and when it is observed."

"Legend"
"E","Estimated"
"M","Missing"
"NA","Not Available"

"Date/Time","Year","Month","Day","Time","Temp (°C)","Temp Flag","Dew Point Temp (°C)","Dew Point Temp Flag","Rel Hum (%)","Rel Hum Flag","Wind Dir (10s deg)","Wind Dir Flag","Wind Spd (km/h)","Wind Spd Flag","Visibility (km)","Visibility Flag","Stn Press (kPa)","Stn Press Flag","Hmdx","Hmdx Flag","Wind Chill","Wind Chill Flag","Weather"
"2010-08-01 00:00","2010","08","01","00:00","17.2","","16.5","","96","","20","","20","","","","98.70","","","","","","NA"
"2010-08-01 01:00","2010","08","01","01:00","17.5","","16.7","","95","","20","","15","","","","98.72","","","","","","NA"
"2010-08-01 02:00","2010","08","01","02:00","17.3","","16.5","","95","","19","","11","","","","98.69","","","","","","NA"
"2010-08-01 03:00","2010","08","01","03:00","17.2","","16.7","","97","","23","","15","","","","98.70","","","","","","NA"
"2010-08-01 04:00","2010","08","01","04:00","16.9","","16.6","","98","","21","","20","","","","98.65","","","","","","NA"
"2010-08-01 05:00","2010","08","01","05:00","17.1","","16.9","","99","","20","","19","","","","98.66","","","","","","NA"
"2010-08-01 06:00","2010","08","01","06:00","17.1","","16.9","","99","","20","","19","","","","98.66","","","","","","NA"
"2010-08-01 07:00","2010","08","01","07:00","17.7","","16.4","","92","","20","","24","","","","98.67","","","","","","NA"
"2010-08-01 08:00","2010","08","01","08:00","18.4","","16.7","","90","","19","","22","","","","98.71","","","","","","NA"
"2010-08-01 09:00","2010","08","01","09:00","18.5","","16.8","","90","","19","","20","","","","98.69","","","","","","NA"
"2010-08-01 10:00","2010","08","01","10:00","18.4","","17.0","","92","","19","","26","","","","98.70","","","","","","NA"
"2010-08-01 11:00","2010","08","01","11:00","20.1","","17.2","","83","","18","","26","","","","98.58","","26","","","","NA"
"2010-08-01 12:00","2010","08","01","12:00","18.9","","17.3","","90","","19","","28","","","","98.64","","","","","","NA"
"2010-08-01 13:00","2010","08","01","13:00","19.9","","17.6","","87","","18","","30","","","","98.58","","","","","","NA"
"2010-08-01 14:00","2010","08","01","14:00","20.0","","17.6","","86","","18","","24","","","","98.57","","26","","","","NA"
"2010-08-01 15:00","2010","08","01","15:00","19.4","","17.7","","90","","20","","32","","","","98.55","","","","","","NA"
"2010-08-01 16:00","2010","08","01","16:00","20.7","","17.9","","84","","19","","22","","","","98.53","","27","","","","NA"
"2010-08-01 17:00","2010","08","01","17:00","19.8","","17.7","","88","","18","","24","","","","98.52","","","","","","NA"
"2010-08-01 18:00","2010","08","01","18:00","19.6","","17.7","","89","","17","","20","","","","98.47","","","","","","NA"
"2010-08-01 19:00","2010","08","01","19:00","20.1","","17.3","","84","","18","","20","","","","98.43","","26","","","","NA"
"2010-08-01 20:00","2010","08","01","20:00","19.6","","17.4","","87","","18","","20","","","","98.48","","","","","","NA"
"2010-08-01 21:00","2010","08","01","21:00","19.4","","17.7","","90","","19","","20","","","","98.59","","","","","","NA"
"2010-08-01 22:00","2010","08","01","22:00","19.3","","17.7","","90","","18","","17","","","","98.56","","","","","","NA"
"2010-08-01 23:00","2010","08","01","23:00","19.2","","17.8","","92","","16","","9","","","","98.46","","","","","","NA"
"2010-08-02 00:00","2010","08","02","00:00","18.7","","17.6","","93","","10","","6","","","","98.38","","","","","","NA"
"2010-08-02 01:00","2010","08","02","01:00","18.9","","17.5","","92","","18","","19","","","","98.44","","","","","","NA"
"2010-08-02 02:00","2010","08","02","02:00","18.4","","17.6","","95","","17","","19","","","","98.47","","","","","","NA"
"2010-08-02 03:00","2010","08","02","03:00","18.5","","17.5","","94","","17","","17","","","","98.52","","","","","","NA"
"2010-08-02 04:00","2010","08","02","04:00","18.6","","17.4","","93","","16","","11","","","","98.47","","","","","","NA"
"2010-08-02 05:00","2010","08","02","05:00","18.9","","17.7","","93","","16","","11","","","","98.50","","","","","","NA"
"2010-08-02 06:00","2010","08","02","06:00","18.9","","17.8","","93","","15","","11","","","","98.49","","","","","","NA"
"2010-08-02 07:00","2010","08","02","07:00","19.5","","17.8","","90","","15","","9","","","","98.51","","","","","","NA"
"2010-08-02 08:00","2010","08","02","08:00","20.0","","18.1","","89","","18","","15","","","","98.51","","26","","","","NA"
"2010-08-02 09:00","2010","08","02","09:00","20.3","","18.1","","87","","17","","17","","","","98.49","","26","","","","NA"
"2010-08-02 10:00","2010","08","02","10:00","19.7","","18.3","","92","","18","","13","","","","98.53","","","","","","NA"
"2010-08-02 11:00","2010","08","02","11:00","19.6","","18.4","","93","","19","","9","","","","98.54","","","","","","NA"
"2010-08-02 12:00","2010","08","02","12:00","20.4","","18.4","","88","","17","","15","","","","98.52","","27","","","","NA"
"2010-08-02 13:00","2010","08","02","13:00","21.4","","18.0","","81","","18","","11","","","","98.51","","27","","","","NA"
"2010-08-02 14:00","2010","08","02","14:00","21.5","","17.9","","80","","21","","17","","","","98.53","","27","","","","NA"
"2010-08-02 15:00","2010","08","02","15:00","20.3","","17.7","","85","","20","","19","","","","98.53","","26","","","","NA"
"2010-08-02 16:00","2010","08","02","16:00","22.4","","18.0","","76","","20","","19","","","","98.55","","28","","","","NA"
"2010-08-02 17:00","2010","08","02","17:00","20.5","","17.8","","85","","22","","15","","","","98.52","","26","","","","NA"
"2010-08-02 18:00","2010","08","02","18:00","21.1","","18.0","","82","","20","","9","","","","98.52","","27","","","","NA"
"2010-08-02 19:00","2010","08","02","19:00","20.6","","18.1","","86","","18","","9","","","","98.51","","27","","","","NA"
"2010-08-02 20:00","2010","08","02","20:00","19.6","","17.9","","90","","19","","9","","","","98.55","","","","","","NA"
"2010-08-02 21:00","2010","08","02","21:00","18.6","","17.7","","95","","16","","6","","","","98.60","","","","","","NA"
"2010-08-02 22:00","2010","08","02","22:00","18.6","","17.8","","95","","17","","11","","","","98.58","","","","","","NA"
"2010-08-02 23:00","2010","08","02","23:00","18.4","","17.6","","95","","16","","7","","","","98.57","","","","","","NA"
"2010-08-03 00:00","2010","08","03","00:00","17.9","","17.1","","95","","14","","4","","","","98.58","","","","","","NA"
"2010-08-03 01:00","2010","08","03","01:00","17.0","","16.4","","96","","9","","6","","","","98.57","","","","","","NA"
"2010-08-03 02:00","2010","08","03","02:00","16.4","","15.7","","96","","8","","7","","","","98.55","","","","","","NA"
"2010-08-03 03:00","2010","08","03","03:00","16.0","","15.5","","97","","8","","7","","","","98.52","","","","","","NA"
"2010-08-03 04:00","2010","08","03","04:00","16.6","","16.0","","96","","10","","7","","","","98.43","","","","","","NA"
"2010-08-03 05:00","2010","08","03","05:00","16.5","","15.7","","95","","10","","11","","","","98.43","","","","","","NA"
"2010-08-03 06:00","2010","08","03","06:00","17.3","","16.4","","94","","18","","4","","","","98.49","","","","","","NA"
"2010-08-03 07:00","2010","08","03","07:00","18.3","","17.4","","94","","19","","6","","","","98.53","","","","","","NA"
"2010-08-03 08:00","2010","08","03","08:00","18.3","","17.8","","97","","19","","17","","","","98.52","","","","","","NA"
"2010-08-03 09:00","2010","08","03","09:00","18.6","","17.8","","95","","18","","13","","","","98.49","","","","","","NA"
"2010-08-03 10:00","2010","08","03","10:00","18.7","","18.1","","96","","19","","15","","","","98.49","","","","","","NA"
"2010-08-03 11:00","2010","08","03","11:00","19.3","","18.2","","93","","19","","17","","","","98.47","","","","","","NA"
"2010-08-03 12:00","2010","08","03","12:00","19.7","","18.3","","92","","20","","22","","","","98.46","","","","","","NA"
"2010-08-03 13:00","2010","08","03","13:00","19.5","","18.3","","93","","23","","13","","","","98.53","","","","","","NA"
"2010-08-03 14:00","2010","08","03","14:00","20.3","","18.2","","88","","17","","13","","","","98.37","","26","","","","NA"
"2010-08-03 15:00","2010","08","03","15:00","20.1","","18.2","","89","","18","","17","","","","98.34","","26","","","","NA"
"2010-08-03 16:00","2010","08","03","16:00","18.7","","18.2","","97","","19","","24","","","","98.24","","","","","","NA"
"2010-08-03 17:00","2010","08","03","17:00","19.9","","18.4","","91","","19","","15","","","","98.18","","","","","","NA"
"2010-08-03 18:00","2010","08","03","18:00","21.0","","18.4","","85","","20","","15","","","","98.22","","27","","","","NA"
"2010-08-03 19:00","2010","08","03","19:00","19.4","","17.6","","89","","17","","17","","","","98.18","","","","","","NA"
"2010-08-03 20:00","2010","08","03","20:00","19.0","","17.8","","93","","21","","9","","","","98.17","","","","","","NA"
"2010-08-03 21:00","2010","08","03","21:00","19.1","","18.2","","95","","19","","7","","","","98.22","","","","","","NA"
"2010-08-03 22:00","2010","08","03","22:00","19.3","","18.4","","95","","22","","6","","","","98.24","","","","","","NA"
"2010-08-03 23:00","2010","08","03","23:00","19.3","","18.8","","97","","20","","11","","","","98.19","","","","","","NA"
"2010-08-04 00:00","2010","08","04","00:00","19.1","","18.8","","98","","20","","13","","","","98.22","","","","","","NA"
"2010-08-04 01:00","2010","08","04","01:00","18.8","","18.5","","98","","22","","15","","","","98.19","","","","","","NA"
"2010-08-04 02:00","2010","08","04","02:00","18.6","","18.4","","99","","23","","11","","","","98.18","","","","","","NA"
"2010-08-04 03:00","2010","08","04","03:00","18.4","","18.2","","99","","20","","7","","","","98.14","","","","","","NA"
"2010-08-04 04:00","2010","08","04","04:00","18.3","","18.1","","99","","20","","13","","","","98.12","","","","","","NA"
"2010-08-04 05:00","2010","08","04","05:00","18.0","","17.8","","99","","20","","11","","","","98.11","","","","","","NA"
"2010-08-04 06:00","2010","08","04","06:00","17.8","","17.6","","99","","19","","9","","","","98.19","","","","","","NA"
"2010-08-04 07:00","2010","08","04","07:00","18.3","","18.1","","99","","17","","7","","","","98.22","","","","","","NA"
"2010-08-04 08:00","2010","08","04","08:00"
"2010-08-04 09:00","2010","08","04","09:00","20.1","","17.5","","85","","25","","4","","","","98.24","","26","","","","NA"
"2010-08-04 10:00","2010","08","04","10:00","21.0","","17.7","","81","","26","","9","","","","98.27","","27","","","","NA"
"2010-08-04 11:00","2010","08","04","11:00","21.5","","17.0","","76","","29","","9","","","","98.24","","27","","","","NA"
"2010-08-04 12:00","2010","08","04","12:00","20.9","","17.8","","82","","24","","9","","","","98.22","","27","","","","NA"
"2010-08-04 13:00","2010","08","04","13:00","22.3","","17.9","","76","","22","","7","","","","98.16","","28","","","","NA"
"2010-08-04 14:00","2010","08","04","14:00","23.1","","17.4","","70","","23","","9","","","","98.11","","29","","","","NA"
"2010-08-04 15:00","2010","08","04","15:00","23.6","","17.0","","67","","23","","11","","","","98.06","","29","","","","NA"
"2010-08-04 16:00","2010","08","04","16:00","22.5","","16.8","","70","","22","","17","","","","98.05","","28","","","","NA"
"2010-08-04 17:00","2010","08","04","17:00","22.8","","17.7","","73","","19","","17","","","","97.98","","29","","","","NA"
"2010-08-04 18:00","2010","08","04","18:00","20.7","","17.2","","80","","20","","15","","","","97.97","","26","","","","NA"
"2010-08-04 19:00","2010","08","04","19:00","20.0","","17.9","","88","","20","","9","","","","97.94","","26","","","","NA"
"2010-08-04 20:00","2010","08","04","20:00","16.5","","16.1","","97","","2","","11","","","","97.98","","","","","","NA"
"2010-08-04 21:00","2010","08","04","21:00","16.8","","16.4","","97","","10","","17","","","","97.77","","","","","","NA"
"2010-08-04 22:00","2010","08","04","22:00","17.0","","16.6","","97","","22","","7","","","","97.87","","","","","","NA"
"2010-08-04 23:00","2010","08","04","23:00","16.9","","16.4","","97","","26","","9","","","","97.82","","","","","","NA"
"2010-08-05 00:00","2010","08","05","00:00","16.9","","16.4","","97","","27","","11","","","","97.81","","","","","","NA"
"2010-08-05 01:00","2010","08","05","01:00","17.3","","16.5","","95","","27","","11","","","","97.77","","","","","","NA"
"2010-08-05 02:00","2010","08","05","02:00","17.8","","16.9","","94","","28","","15","","","","97.72","","","","","","NA"
"2010-08-05 03:00","2010","08","05","03:00","18.0","","17.1","","94","","28","","19","","","","97.68","","","","","","NA"
"2010-08-05 04:00","2010","08","05","04:00","17.9","","16.5","","92","","29","","20","","","","97.68","","","","","","NA"
"2010-08-05 05:00","2010","08","05","05:00","17.6","","16.2","","92","","28","","22","","","","97.65","","","","","","NA"
"2010-08-05 06:00","2010","08","05","06:00","17.9","","16.1","","89","","28","","22","","","","97.63","","","","","","NA"
"2010-08-05 07:00","2010","08","05","07:00","18.0","","15.9","","88","","29","","17","","","","97.60","","","","","","NA"
"2010-08-05 08:00","2010","08","05","08:00","17.7","","15.3","","86","","29","","24","","","","97.62","","","","","","NA"
"2010-08-05 09:00","2010","08","05","09:00","17.7","","14.7","","83","","31","","17","","","","97.62","","","","","","NA"
"2010-08-05 10:00","2010","08","05","10:00","18.7","","14.6","","77","","29","","22","","","","97.66","","","","","","NA"
"2010-08-05 11:00","2010","08","05","11:00","19.0","","12.5","","66","","32","","26","","","","97.70","","","","","","NA"
"2010-08-05 12:00","2010","08","05","12:00","17.7","","10.8","","64","","33","","20","","","","97.76","","","","","","NA"
"2010-08-05 13:00","2010","08","05","13:00","17.5","","8.8","","57","","33","","26","","","","97.83","","","","","","NA"
"2010-08-05 14:00","2010","08","05","14:00","19.2","","11.5","","61","","29","","17","","","","97.86","","","","","","NA"
"2010-08-05 15:00","2010","08","05","15:00","19.9","","9.6","","51","","31","","22","","","","97.89","","","","","","NA"
"2010-08-05 16:00","2010","08","05","16:00","18.8","","8.2","","50","","32","","24","","","","97.94","","","","","","NA"
"2010-08-05 17:00","2010","08","05","17:00","18.7","","4.4","","39","","34","","28","","","","98.00","","","","","","NA"
"2010-08-05 18:00","2010","08","05","18:00","18.5","","5.4","","42","","32","","24","","","","98.05","","","","","","NA"
"2010-08-05 19:00","2010","08","05","19:00","17.8","","4.2","","40","","34","","17","","","","98.07","","","","","","NA"
"2010-08-05 20:00","2010","08","05","20:00","16.5","","3.7","","42","","33","","15","","","","98.12","","","","","","NA"
"2010-08-05 21:00","2010","08","05","21:00","14.7","","3.0","","45","","34","","11","","","","98.18","","","","","","NA"
"2010-08-05 22:00","2010","08","05","22:00","11.9","","7.3","","73","","6","","6","","","","98.25","","","","","","NA"
"2010-08-05 23:00","2010","08","05","23:00","9.6","","7.1","","84","","5","","7","","","","98.30","","","","","","NA"
"2010-08-06 00:00","2010","08","06","00:00","8.7","","5.4","","80","","6","","9","","","","98.33","","","","","","NA"
"2010-08-06 01:00","2010","08","06","01:00","7.9","","5.9","","87","","6","","7","","","","98.37","","","","","","NA"
"2010-08-06 02:00","2010","08","06","02:00","7.1","","5.5","","90","","5","","7","","","","98.40","","","","","","NA"
"2010-08-06 03:00","2010","08","06","03:00","6.8","","5.8","","93","","4","","7","","","","98.45","","","","","","NA"
"2010-08-06 04:00","2010","08","06","04:00","6.8","","4.4","","85","","4","","11","","","","98.47","","","","","","NA"
"2010-08-06 05:00","2010","08","06","05:00","7.9","","4.1","","77","","5","","9","","","","98.51","","","","","","NA"
"2010-08-06 06:00","2010","08","06","06:00","8.6","","4.3","","74","","4","","7","","","","98.56","","","","","","NA"
"2010-08-06 07:00","2010","08","06","07:00","9.5","","5.4","","76","","36","","9","","","","98.63","","","","","","NA"
"2010-08-06 08:00","2010","08","06","08:00","13.1","","5.0","","58","","33","","11","","","","98.65","","","","","","NA"
"2010-08-06 09:00","2010","08","06","09:00","14.2","","3.8","","50","","33","","15","","","","98.68","","","","","","NA"
"2010-08-06 10:00","2010","08","06","10:00","15.2","","2.2","","41","","32","","19","","","","98.68","","","","","","NA"
"2010-08-06 11:00","2010","08","06","11:00","16.4","","2.1","","38","","31","","15","","","","98.69","","","","","","NA"
"2010-08-06 12:00","2010","08","06","12:00","17.1","","3.8","","41","","29","","15","","","","98.69","","","","","","NA"
"2010-08-06 13:00","2010","08","06","13:00","18.0","","5.7","","44","","26","","15","","","","98.67","","","","","","NA"
"2010-08-06 14:00","2010","08","06","14:00","18.1","","6.2","","46","","26","","22","","","","98.67","","","","","","NA"
"2010-08-06 15:00","2010","08","06","15:00","18.3","","6.5","","46","","26","","22","","","","98.64","","","","","","NA"
"2010-08-06 16:00","2010","08","06","16:00","18.9","","6.8","","45","","27","","26","","","","98.63","","","","","","NA"
"2010-08-06 17:00","2010","08","06","17:00","17.5","","7.6","","52","","28","","26","","","","98.63","","","","","","NA"
"2010-08-06 18:00","2010","08","06","18:00","18.0","","6.5","","47","","31","","15","","","","98.64","","","","","","NA"
"2010-08-06 19:00","2010","08","06","19:00","16.6","","9.3","","62","","27","","22","","","","98.65","","","","","","NA"
"2010-08-06 20:00","2010","08","06","20:00","16.3","","9.7","","65","","27","","24","","","","98.65","","","","","","NA"
"2010-08-06 21:00","2010","08","06","21:00","16.2","","10.5","","69","","28","","22","","","","98.68","","","","","","NA"
"2010-08-06 22:00","2010","08","06","22:00","16.4","","11.4","","72","","27","","20","","","","98.69","","","","","","NA"
"2010-08-06 23:00","2010","08","06","23:00","16.6","","10.8","","69","","28","","15","","","","98.66","","","","","","NA"
"2010-08-07 00:00","2010","08","07","00:00","16.5","","11.3","","71","","27","","13","","","","98.65","","","","","","NA"
"2010-08-07 01:00","2010","08","07","01:00","16.1","","11.7","","75","","26","","19","","","","98.64","","","","","","NA"
"2010-08-07 02:00","2010","08","07","02:00","16.6","","12.2","","75","","27","","20","","","","98.61","","","","","","NA"
"2010-08-07 03:00","2010","08","07","03:00","16.3","","12.9","","80","","26","","20","","","","98.59","","","","","","NA"
"2010-08-07 04:00","2010","08","07","04:00","16.4","","13.1","","81","","25","","26","","","","98.60","","","","","","NA"
"2010-08-07 05:00","2010","08","07","05:00","16.4","","13.4","","82","","24","","28","","","","98.59","","","","","","NA"
"2010-08-07 06:00","2010","08","07","06:00","16.5","","13.7","","84","","24","","26","","","","98.54","","","","","","NA"
"2010-08-07 07:00","2010","08","07","07:00","16.9","","13.8","","82","","24","","22","","","","98.53","","","","","","NA"
"2010-08-07 08:00","2010","08","07","08:00","17.1","","14.0","","82","","24","","24","","","","98.55","","","","","","NA"
"2010-08-07 09:00","2010","08","07","09:00","17.5","","14.5","","83","","23","","20","","","","98.53","","","","","","NA"
"2010-08-07 10:00","2010","08","07","10:00","18.0","","14.3","","79","","21","","26","","","","98.50","","","","","","NA"
"2010-08-07 11:00","2010","08","07","11:00","19.3","","15.3","","78","","23","","22","","","","98.49","","","","","","NA"
"2010-08-07 12:00","2010","08","07","12:00","20.6","","15.0","","70","","24","","19","","","","98.45","","25","","","","NA"
"2010-08-07 13:00","2010","08","07","13:00","20.0","","15.5","","75","","24","","17","","","","98.42","","","","","","NA"
"2010-08-07 14:00","2010","08","07","14:00","20.1","","15.6","","75","","23","","15","","","","98.37","","","","","","NA"
"2010-08-07 15:00","2010","08","07","15:00","19.7","","15.4","","76","","22","","17","","","","98.34","","","","","","NA"
"2010-08-07 16:00","2010","08","07","16:00","20.8","","14.2","","66","","20","","15","","","","98.29","","","","","","NA"
"2010-08-07 17:00","2010","08","07","17:00","20.0","","13.7","","67","","18","","15","","","","98.25","","","","","","NA"
"2010-08-07 18:00","2010","08","07","18:00","19.2","","12.9","","67","","19","","19","","","","98.25","","","","","","NA"
"2010-08-07 19:00","2010","08","07","19:00","18.6","","13.6","","73","","19","","13","","","","98.26","","","","","","NA"
"2010-08-07 20:00","2010","08","07","20:00","17.6","","13.7","","78","","19","","9","","","","98.26","","","","","","NA"
"2010-08-07 21:00","2010","08","07","21:00","16.8","","14.6","","87","","17","","11","","","","98.27","","","","","","NA"
"2010-08-07 22:00","2010","08","07","22:00","16.1","","14.1","","88","","17","","6","","","","98.29","","","","","","NA"
"2010-08-07 23:00","2010","08","07","23:00","15.5","","12.8","","84","","14","","6","","","","98.27","","","","","","NA"
"2010-08-08 00:00","2010","08","08","00:00","13.4","","11.4","","88","","10","","7","","","","98.26","","","","","","NA"
"2010-08-08 01:00","2010","08","08","01:00","12.0","","10.7","","92","","7","","9","","","","98.23","","","","","","NA"
"2010-08-08 02:00","2010","08","08","02:00","11.4","","10.5","","94","","8","","9","","","","98.25","","","","","","NA"
"2010-08-08 03:00","2010","08","08","03:00","10.9","","9.1","","89","","7","","11","","","","98.25","","","","","","NA"
"2010-08-08 04:00","2010","08","08","04:00","10.4","","8.8","","90","","7","","9","","","","98.24","","","","","","NA"
"2010-08-08 05:00","2010","08","08","05:00","10.2","","8.3","","88","","6","","11","","","","98.22","","","","","","NA"
"2010-08-08 06:00","2010","08","08","06:00","10.4","","8.5","","88","","6","","11","","","","98.25","","","","","","NA"
"2010-08-08 07:00","2010","08","08","07:00","12.2","","9.5","","84","","7","","13","","","","98.23","","","","","","NA"
"2010-08-08 08:00","2010","08","08","08:00","15.7","","10.3","","70","","6","","6","","","","98.31","","","","","","NA"
"2010-08-08 09:00","2010","08","08","09:00","17.6","","9.7","","60","","21","","4","","","","98.34","","","","","","NA"
"2010-08-08 10:00","2010","08","08","10:00","18.2","","13.1","","72","","23","","4","","","","98.35","","","","","","NA"
"2010-08-08 11:00","2010","08","08","11:00","20.1","","14.2","","69","","23","","9","","","","98.40","","","","","","NA"
"2010-08-08 12:00","2010","08","08","12:00","20.8","","14.7","","68","","22","","9","","","","98.43","","25","","","","NA"
"2010-08-08 13:00","2010","08","08","13:00","22.0","","15.4","","66","","23","","11","","","","98.44","","26","","","","NA"
"2010-08-08 14:00","2010","08","08","14:00","21.2","","15.5","","70","","24","","9","","","","98.48","","25","","","","NA"
"2010-08-08 15:00","2010","08","08","15:00","21.1","","14.3","","65","","24","","7","","","","98.45","","25","","","","NA"
"2010-08-08 16:00","2010","08","08","16:00","20.6","","14.1","","66","","24","","9","","","","98.45","","","","","","NA"
"2010-08-08 17:00","2010","08","08","17:00","20.9","","14.3","","66","","21","","6","","","","98.47","","","","","","NA"
"2010-08-08 18:00","2010","08","08","18:00","20.3","","14.7","","70","","22","","6","","","","98.51","","","","","","NA"
"2010-08-08 19:00","2010","08","08","19:00","20.1","","14.6","","71","","20","","6","","","","98.50","","","","","","NA"
"2010-08-08 20:00","2010","08","08","20:00","18.8","","14.4","","76","","18","","6","","","","98.47","","","","","","NA"
"2010-08-08 21:00","2010","08","08","21:00","16.3","","13.7","","85","","8","","7","","","","98.45","","","","","","NA"
"2010-08-08 22:00","2010","08","08","22:00","15.3","","12.2","","82","","7","","9","","","","98.48","","","","","","NA"
"2010-08-08 23:00","2010","08","08","23:00","14.3","","11.3","","82","","7","","9","","","","98.53","","","","","","NA"
"2010-08-09 00:00","2010","08","09","00:00","13.6","","10.8","","83","","7","","11","","","","98.58","","","","","","NA"
"2010-08-09 01:00","2010","08","09","01:00","13.4","","10.5","","83","","7","","13","","","","98.55","","","","","","NA"
"2010-08-09 02:00","2010","08","09","02:00","12.9","","10.0","","83","","7","","13","","","","98.54","","","","","","NA"
"2010-08-09 03:00","2010","08","09","03:00","12.5","","9.2","","80","","6","","15","","","","98.54","","","","","","NA"
"2010-08-09 04:00","2010","08","09","04:00","13.1","","9.4","","78","","8","","17","","","","98.48","","","","","","NA"
"2010-08-09 05:00","2010","08","09","05:00","12.3","","9.7","","84","","7","","13","","","","98.51","","","","","","NA"
"2010-08-09 06:00","2010","08","09","06:00","12.0","","9.7","","86","","7","","11","","","","98.54","","","","","","NA"
"2010-08-09 07:00","2010","08","09","07:00","12.9","","9.1","","78","","3","","13","","","","98.58","","","","","","NA"
"2010-08-09 08:00","2010","08","09","08:00","16.4","","10.4","","68","","3","","9","","","","98.59","","","","","","NA"
"2010-08-09 09:00","2010","08","09","09:00","21.1","","11.5","","54","","31","","2","","","","98.60","","","","","","NA"
"2010-08-09 10:00","2010","08","09","10:00","22.3","","9.0","","43","","20","","6","","","","98.58","","","","","","NA"
"2010-08-09 11:00","2010","08","09","11:00","23.4","","10.4","","44","","20","","9","","","","98.61","","25","","","","NA"
"2010-08-09 12:00","2010","08","09","12:00","23.1","","13.4","","54","","25","","7","","","","98.64","","26","","","","NA"
"2010-08-09 13:00","2010","08","09","13:00","23.3","","16.7","","66","","26","","7","","","","98.64","","28","","","","NA"
"2010-08-09 14:00","2010","08","09","14:00","23.5","","17.9","","71","","23","","7","","","","98.64","","29","","","","NA"
"2010-08-09 15:00","2010","08","09","15:00","23.0","","18.1","","74","","21","","11","","","","98.64","","29","","","","NA"
"2010-08-09 16:00","2010","08","09","16:00","21.4","","18.5","","84","","22","","9","","","","98.66","","28","","","","NA"
"2010-08-09 17:00","2010","08","09","17:00","20.1","","18.6","","91","","21","","9","","","","98.67","","27","","","","NA"
"2010-08-09 18:00","2010","08","09","18:00","20.1","","18.7","","92","","20","","9","","","","98.66","","27","","","","NA"
"2010-08-09 19:00","2010","08","09","19:00","19.8","","18.8","","94","","19","","6","","","","98.68","","","","","","NA"
"2010-08-09 20:00","2010","08","09","20:00","19.0","","18.6","","98","","23","","7","","","","98.71","","","","","","NA"
"2010-08-09 21:00","2010","08","09","21:00","18.8","","18.5","","98","","22","","7","","","","98.77","","","","","","NA"
"2010-08-09 22:00","2010","08","09","22:00","18.6","","18.3","","98","","23","","6","","","","98.81","","","","","","NA"
"2010-08-09 23:00","2010","08","09","23:00","18.3","","18.0","","98","","20","","4","","","","98.80","","","","","","NA"
"2010-08-10 00:00","2010","08","10","00:00","18.2","","17.8","","98","","20","","4","","","","98.82","","","","","","NA"
"2010-08-10 01:00","2010","08","10","01:00","18.2","","17.7","","97","","21","","4","","","","98.86","","","","","","NA"
"2010-08-10 02:00","2010","08","10","02:00","17.8","","17.4","","98","","1","","2","","","","98.89","","","","","","NA"
"2010-08-10 03:00","2010","08","10","03:00","17.8","","17.4","","98","","21","","4","","","","98.88","","","","","","NA"
"2010-08-10 04:00","2010","08","10","04:00","17.6","","17.3","","98","","6","","4","","","","98.85","","","","","","NA"
"2010-08-10 05:00","2010","08","10","05:00","17.2","","16.9","","98","","9","","6","","","","98.88","","","","","","NA"
"2010-08-10 06:00","2010","08","10","06:00","16.3","","16.0","","98","","5","","6","","","","98.88","","","","","","NA"
"2010-08-10 07:00","2010","08","10","07:00","16.8","","16.5","","98","","2","","4","","","","98.99","","","","","","NA"
"2010-08-10 08:00","2010","08","10","08:00","19.9","","17.5","","86","","8","","4","","","","99.00","","","","","","NA"
"2010-08-10 09:00","2010","08","10","09:00","22.0","","18.3","","80","","30","","4","","","","99.02","","28","","","","NA"
"2010-08-10 10:00","2010","08","10","10:00","20.8","","18.1","","85","","26","","9","","","","99.01","","27","","","","NA"
"2010-08-10 11:00","2010","08","10","11:00","20.3","","17.5","","84","","26","","15","","","","99.12","","26","","","","NA"
"2010-08-10 12:00","2010","08","10","12:00","20.5","","17.8","","85","","29","","6","","","","99.11","","26","","","","NA"
"2010-08-10 13:00","2010","08","10","13:00","21.2","","18.1","","82","","23","","6","","","","99.04","","27","","","","NA"
"2010-08-10 14:00","2010","08","10","14:00","23.2","","18.5","","75","","25","","4","","","","98.97","","30","","","","NA"
"2010-08-10 15:00","2010","08","10","15:00","25.0","","17.6","","64","","24","","6","","","","98.94","","31","","","","NA"
"2010-08-10 16:00","2010","08","10","16:00","23.7","","19.2","","76","","24","","7","","","","98.88","","31","","","","NA"
"2010-08-10 17:00","2010","08","10","17:00","22.6","","19.5","","83","","23","","6","","","","98.86","","30","","","","NA"
"2010-08-10 18:00","2010","08","10","18:00","22.0","","19.5","","86","","24","","6","","","","98.87","","29","","","","NA"
"2010-08-10 19:00","2010","08","10","19:00","21.4","","19.3","","88","","25","","6","","","","98.93","","28","","","","NA"
"2010-08-10 20:00","2010","08","10","20:00","20.5","","19.1","","92","","21","","7","","","","98.94","","27","","","","NA"
"2010-08-10 21:00","2010","08","10","21:00","20.4","","19.4","","94","","17","","7","","","","98.95","","27","","","","NA"
"2010-08-10 22:00","2010","08","10","22:00","19.5","","18.3","","93","","9","","7","","","","98.95","","","","","","NA"
"2010-08-10 23:00","2010","08","10","23:00","19.5","","18.1","","92","","8","","9","","","","98.93","","","","","","NA"
"2010-08-11 00:00","2010","08","11","00:00","19.2","","17.9","","92","","5","","6","","","","98.90","","","","","","NA"
"2010-08-11 01:00","2010","08","11","01:00","18.6","","17.5","","93","","6","","9","","","","98.84","","","","","","NA"
"2010-08-11 02:00","2010","08","11","02:00","18.3","","17.0","","92","","6","","11","","","","98.83","","","","","","NA"
"2010-08-11 03:00","2010","08","11","03:00","18.3","","16.7","","90","","6","","15","","","","98.80","","","","","","NA"
"2010-08-11 04:00","2010","08","11","04:00","18.3","","16.6","","90","","6","","9","","","","98.82","","","","","","NA"
"2010-08-11 05:00","2010","08","11","05:00","17.8","","16.5","","92","","7","","9","","","","98.79","","","","","","NA"
"2010-08-11 06:00","2010","08","11","06:00","17.6","","15.9","","90","","6","","9","","","","98.75","","","","","","NA"
"2010-08-11 07:00","2010","08","11","07:00","18.5","","15.9","","85","","6","","15","","","","98.76","","","","","","NA"
"2010-08-11 08:00","2010","08","11","08:00","20.1","","16.7","","81","","8","","13","","","","98.78","","25","","","","NA"
"2010-08-11 09:00","2010","08","11","09:00","22.0","","16.9","","73","","9","","11","","","","98.73","","27","","","","NA"
"2010-08-11 10:00","2010","08","11","10:00","24.2","","17.1","","65","","10","","9","","","","98.71","","30","","","","NA"
"2010-08-11 11:00","2010","08","11","11:00","24.9","","16.7","","60","","19","","4","","","","98.72","","30","","","","NA"
"2010-08-11 12:00","2010","08","11","12:00","23.6","","17.3","","68","","21","","4","","","","98.73","","29","","","","NA"
"2010-08-11 13:00","2010","08","11","13:00","22.7","","17.6","","73","","19","","15","","","","98.69","","28","","","","NA"
"2010-08-11 14:00","2010","08","11","14:00","24.5","","19.3","","73","","9","","2","","","","98.65","","32","","","","NA"
"2010-08-11 15:00","2010","08","11","15:00","25.6","","17.8","","62","","11","","9","","","","98.61","","31","","","","NA"
"2010-08-11 16:00","2010","08","11","16:00","24.8","","17.1","","62","","11","","15","","","","98.60","","30","","","","NA"
"2010-08-11 17:00","2010","08","11","17:00","24.6","","16.6","","61","","10","","19","","","","98.58","","30","","","","NA"
"2010-08-11 18:00","2010","08","11","18:00","24.3","","16.2","","61","","11","","17","","","","98.54","","29","","","","NA"
"2010-08-11 19:00","2010","08","11","19:00","23.8","","15.9","","61","","13","","9","","","","98.56","","28","","","","NA"
"2010-08-11 20:00","2010","08","11","20:00","22.6","","16.6","","69","","9","","15","","","","98.52","","28","","","","NA"
"2010-08-11 21:00","2010","08","11","21:00","23.0","","15.7","","63","","10","","26","","","","98.47","","27","","","","NA"
"2010-08-11 22:00","2010","08","11","22:00","22.7","","15.8","","65","","10","","17","","","","98.52","","27","","","","NA"
"2010-08-11 23:00","2010","08","11","23:00","22.2","","15.9","","67","","9","","9","","","","98.50","","27","","","","NA"
"2010-08-12 00:00","2010","08","12","00:00","21.9","","17.1","","74","","14","","11","","","","98.48","","27","","","","NA"
"2010-08-12 01:00","2010","08","12","01:00","22.4","","16.8","","71","","11","","19","","","","98.42","","28","","","","NA"
"2010-08-12 02:00","2010","08","12","02:00","22.3","","16.7","","71","","11","","11","","","","98.41","","27","","","","NA"
"2010-08-12 03:00","2010","08","12","03:00","22.2","","16.4","","70","","11","","13","","","","98.39","","27","","","","NA"
"2010-08-12 04:00","2010","08","12","04:00","22.3","","16.4","","69","","13","","13","","","","98.34","","27","","","","NA"
"2010-08-12 05:00","2010","08","12","05:00","20.6","","18.3","","87","","14","","9","","","","98.36","","27","","","","NA"
"2010-08-12 06:00","2010","08","12","06:00","21.2","","18.6","","85","","17","","22","","","","98.36","","28","","","","NA"
"2010-08-12 07:00","2010","08","12","07:00","20.9","","18.9","","88","","16","","13","","","","98.37","","28","","","","NA"
"2010-08-12 08:00","2010","08","12","08:00","20.2","","19.2","","94","","17","","22","","","","98.39","","27","","","","NA"
"2010-08-12 09:00","2010","08","12","09:00","20.4","","19.2","","93","","18","","24","","","","98.40","","27","","","","NA"
"2010-08-12 10:00","2010","08","12","10:00","20.3","","19.3","","94","","18","","24","","","","98.40","","27","","","","NA"
"2010-08-12 11:00","2010","08","12","11:00","20.4","","19.4","","94","","18","","22","","","","98.37","","27","","","","NA"
"2010-08-12 12:00","2010","08","12","12:00","20.0","","19.4","","96","","19","","24","","","","98.40","","27","","","","NA"
"2010-08-12 13:00","2010","08","12","13:00","20.8","","19.6","","93","","17","","19","","","","98.39","","28","","","","NA"
"2010-08-12 14:00","2010","08","12","14:00","20.5","","19.4","","93","","20","","20","","","","98.43","","28","","","","NA"
"2010-08-12 15:00","2010","08","12","15:00","21.1","","19.5","","91","","17","","17","","","","98.40","","28","","","","NA"
"2010-08-12 16:00","2010","08","12","16:00","20.5","","19.1","","92","","20","","15","","","","98.41","","27","","","","NA"
"2010-08-12 17:00","2010","08","12","17:00","20.7","","19.1","","91","","18","","13","","","","98.42","","28","","","","NA"
"2010-08-12 18:00","2010","08","12","18:00","20.5","","19.1","","92","","17","","13","","","","98.40","","27","","","","NA"
"2010-08-12 19:00","2010","08","12","19:00","20.3","","18.9","","92","","17","","13","","","","98.40","","27","","","","NA"
"2010-08-12 20:00","2010","08","12","20:00","19.6","","18.9","","96","","15","","9","","","","98.44","","","","","","NA"
"2010-08-12 21:00","2010","08","12","21:00","19.7","","18.8","","95","","15","","11","","","","98.41","","","","","","NA"
"2010-08-12 22:00","2010","08","12","22:00","19.9","","18.5","","92","","14","","7","","","","98.43","","","","","","NA"
"2010-08-12 23:00","2010","08","12","23:00","19.4","","18.3","","93","","21","","2","","","","98.45","","","","","","NA"
"2010-08-13 00:00","2010","08","13","00:00","19.2","","18.5","","96","","13","","6","","","","98.46","","","","","","NA"
"2010-08-13 01:00","2010","08","13","01:00","18.6","","17.9","","96","","10","","6","","","","98.45","","","","","","NA"
"2010-08-13 02:00","2010","08","13","02:00","19.1","","18.4","","96","","18","","9","","","","98.43","","","","","","NA"
"2010-08-13 03:00","2010","08","13","03:00","19.3","","18.5","","95","","18","","9","","","","98.41","","","","","","NA"
"2010-08-13 04:00","2010","08","13","04:00","19.2","","18.4","","95","","14","","6","","","","98.42","","","","","","NA"
"2010-08-13 05:00","2010","08","13","05:00","19.8","","17.7","","88","","11","","9","","","","98.37","","","","","","NA"
"2010-08-13 06:00","2010","08","13","06:00","20.1","","17.4","","84","","10","","11","","","","98.39","","26","","","","NA"
"2010-08-13 07:00","2010","08","13","07:00","19.3","","17.6","","90","","8","","11","","","","98.42","","","","","","NA"
"2010-08-13 08:00","2010","08","13","08:00","21.2","","18.1","","82","","11","","11","","","","98.38","","27","","","","NA"
"2010-08-13 09:00","2010","08","13","09:00","24.0","","20.2","","79","","17","","15","","","","98.30","","32","","","","NA"
"2010-08-13 10:00","2010","08","13","10:00","21.7","","20.0","","90","","25","","17","","","","98.33","","29","","","","NA"
"2010-08-13 11:00","2010","08","13","11:00","21.7","","20.2","","91","","20","","30","","","","98.36","","29","","","","NA"
"2010-08-13 12:00","2010","08","13","12:00","22.9","","20.3","","85","","17","","20","","","","98.31","","31","","","","NA"
"2010-08-13 13:00","2010","08","13","13:00","23.4","","20.1","","82","","17","","24","","","","98.26","","31","","","","NA"
"2010-08-13 14:00","2010","08","13","14:00","19.9","","19.3","","96","","25","","22","","","","98.37","","","","","","NA"
"2010-08-13 15:00","2010","08","13","15:00","20.2","","19.8","","98","","8","","9","","","","98.21","","28","","","","NA"
"2010-08-13 16:00","2010","08","13","16:00","21.3","","20.4","","95","","10","","19","","","","98.07","","29","","","","NA"
"2010-08-13 17:00","2010","08","13","17:00","20.5","","20.1","","98","","10","","22","","","","98.05","","28","","","","NA"
"2010-08-13 18:00","2010","08","13","18:00","21.1","","20.4","","96","","9","","19","","","","97.96","","29","","","","NA"
"2010-08-13 19:00","2010","08","13","19:00","21.0","","20.6","","98","","9","","15","","","","97.92","","29","","","","NA"
"2010-08-13 20:00","2010","08","13","20:00","21.4","","20.5","","95","","17","","35","","","","97.90","","29","","","","NA"
"2010-08-13 21:00","2010","08","13","21:00","21.0","","20.1","","95","","17","","33","","","","97.92","","29","","","","NA"
"2010-08-13 22:00","2010","08","13","22:00","22.1","","20.3","","90","","17","","35","","","","97.90","","30","","","","NA"
"2010-08-13 23:00","2010","08","13","23:00","22.2","","20.0","","87","","18","","35","","","","97.89","","30","","","","NA"
"2010-08-14 00:00","2010","08","14","00:00","21.2","","19.8","","92","","18","","32","","","","97.91","","29","","","","NA"
"2010-08-14 01:00","2010","08","14","01:00","20.7","","19.9","","95","","17","","28","","","","97.85","","28","","","","NA"
"2010-08-14 02:00","2010","08","14","02:00","20.4","","20.0","","98","","17","","20","","","","97.78","","28","","","","NA"
"2010-08-14 03:00","2010","08","14","03:00","20.3","","19.8","","97","","18","","7","","","","97.73","","28","","","","NA"
"2010-08-14 04:00","2010","08","14","04:00","20.1","","19.3","","95","","18","","32","","","","97.74","","27","","","","NA"
"2010-08-14 05:00","2010","08","14","05:00","19.5","","19.0","","97","","23","","22","","","","97.78","","","","","","NA"
"2010-08-14 06:00","2010","08","14","06:00","18.9","","18.4","","97","","26","","6","","","","97.91","","","","","","NA"
"2010-08-14 07:00","2010","08","14","07:00","19.2","","18.7","","97","","18","","15","","","","97.94","","","","","","NA"
"2010-08-14 08:00","2010","08","14","08:00","19.4","","19.1","","98","","21","","20","","","","98.00","","","","","","NA"
"2010-08-14 09:00","2010","08","14","09:00","19.2","","19.0","","99","","22","","20","","","","98.02","","","","","","NA"
"2010-08-14 10:00","2010","08","14","10:00","19.2","","19.0","","99","","24","","22","","","","98.05","","","","","","NA"
"2010-08-14 11:00","2010","08","14","11:00","19.1","","18.8","","98","","23","","26","","","","98.09","","","","","","NA"
"2010-08-14 12:00","2010","08","14","12:00","19.5","","19.0","","97","","22","","19","","","","98.10","","","","","","NA"
"2010-08-14 13:00","2010","08","14","13:00","20.8","","19.3","","91","","21","","17","","","","98.11","","28","","","","NA"
"2010-08-14 14:00","2010","08","14","14:00","22.1","","19.5","","85","","18","","15","","","","98.11","","29","","","","NA"
"2010-08-14 15:00","2010","08","14","15:00","22.0","","19.2","","84","","18","","19","","","","98.08","","29","","","","NA"
"2010-08-14 16:00","2010","08","14","16:00","21.3","","18.8","","86","","19","","24","","","","98.09","","28","","","","NA"
"2010-08-14 17:00","2010","08","14","17:00","21.0","","19.0","","88","","18","","24","","","","98.06","","28","","","","NA"
"2010-08-14 18:00","2010","08","14","18:00","20.4","","19.0","","92","","18","","28","","","","98.04","","27","","","","NA"
"2010-08-14 19:00","2010","08","14","19:00","20.2","","18.9","","92","","17","","30","","","","98.00","","27","","","","NA"
"2010-08-14 20:00","2010","08","14","20:00","19.9","","18.8","","93","","18","","32","","","","97.97","","","","","","NA"
"2010-08-14 21:00","2010","08","14","21:00","19.9","","18.8","","93","","18","","28","","","","97.95","","","","","","NA"
"2010-08-14 22:00","2010","08","14","22:00","20.5","","18.1","","86","","18","","26","","","","97.91","","27","","","","NA"
"2010-08-14 23:00","2010","08","14","23:00","20.2","","18.2","","88","","18","","28","","","","97.91","","26","","","","NA"
"2010-08-15 00:00","2010","08","15","00:00","20.0","","18.6","","92","","18","","32","","","","97.86","","26","","","","NA"
"2010-08-15 01:00","2010","08","15","01:00","20.2","","18.7","","91","","18","","30","","","","97.86","","27","","","","NA"
"2010-08-15 02:00","2010","08","15","02:00","20.2","","18.1","","88","","22","","30","","","","97.85","","26","","","","NA"
"2010-08-15 03:00","2010","08","15","03:00","19.3","","18.3","","94","","22","","30","","","","97.92","","","","","","NA"
"2010-08-15 04:00","2010","08","15","04:00","18.9","","17.6","","92","","20","","41","","","","97.75","","","","","","NA"
"2010-08-15 05:00","2010","08","15","05:00","18.9","","17.1","","89","","23","","44","","","","97.69","","","","","","NA"
"2010-08-15 06:00","2010","08","15","06:00","19.0","","16.8","","87","","23","","46","","","","97.72","","","","","","NA"
"2010-08-15 07:00","2010","08","15","07:00","18.6","","16.6","","88","","24","","41","","","","97.74","","","","","","NA"
"2010-08-15 08:00","2010","08","15","08:00","18.7","","16.5","","87","","24","","39","","","","97.71","","","","","","NA"
"2010-08-15 09:00","2010","08","15","09:00","18.7","","16.3","","86","","24","","41","","","","97.71","","","","","","NA"
"2010-08-15 10:00","2010","08","15","10:00","19.0","","16.2","","84","","25","","41","","","","97.70","","","","","","NA"
"2010-08-15 11:00","2010","08","15","11:00","19.3","","15.7","","80","","25","","41","","","","97.72","","","","","","NA"
"2010-08-15 12:00","2010","08","15","12:00","19.2","","15.0","","77","","25","","39","","","","97.74","","","","","","NA"
"2010-08-15 13:00","2010","08","15","13:00","19.1","","14.7","","76","","25","","41","","","","97.75","","","","","","NA"
"2010-08-15 14:00","2010","08","15","14:00","18.7","","14.8","","78","","24","","46","","","","97.75","","","","","","NA"
"2010-08-15 15:00","2010","08","15","15:00","18.6","","14.8","","79","","24","","50","","","","97.74","","","","","","NA"
"2010-08-15 16:00","2010","08","15","16:00","18.8","","14.9","","78","","24","","50","","","","97.74","","","","","","NA"
"2010-08-15 17:00","2010","08","15","17:00","18.4","","14.9","","80","","25","","48","","","","97.76","","","","","","NA"
"2010-08-15 18:00","2010","08","15","18:00","18.2","","14.9","","81","","25","","46","","","","97.74","","","","","","NA"
"2010-08-15 19:00","2010","08","15","19:00","18.3","","14.4","","78","","25","","48","","","","97.72","","","","","","NA"
"2010-08-15 20:00","2010","08","15","20:00","17.8","","14.9","","83","","25","","35","","","","97.73","","","","","","NA"
"2010-08-15 21:00","2010","08","15","21:00","17.7","","14.6","","82","","27","","28","","","","97.75","","","","","","NA"
"2010-08-15 22:00","2010","08","15","22:00","17.9","","14.5","","81","","26","","32","","","","97.70","","","","","","NA"
"2010-08-15 23:00","2010","08","15","23:00","17.8","","13.9","","78","","27","","32","","","","97.66","","","","","","NA"
"2010-08-16 00:00","2010","08","16","00:00","17.3","","13.6","","79","","27","","37","","","","97.65","","","","","","NA"
"2010-08-16 01:00","2010","08","16","01:00","16.7","","13.1","","79","","27","","33","","","","97.62","","","","","","NA"
"2010-08-16 02:00","2010","08","16","02:00","16.2","","13.4","","83","","27","","35","","","","97.63","","","","","","NA"
"2010-08-16 03:00","2010","08","16","03:00","16.0","","12.2","","78","","27","","33","","","","97.64","","","","","","NA"
"2010-08-16 04:00","2010","08","16","04:00","15.9","","12.7","","81","","27","","37","","","","97.61","","","","","","NA"
"2010-08-16 05:00","2010","08","16","05:00","15.5","","12.7","","83","","27","","32","","","","97.60","","","","","","NA"
"2010-08-16 06:00","2010","08","16","06:00","15.1","","12.2","","83","","28","","33","","","","97.67","","","","","","NA"
"2010-08-16 07:00","2010","08","16","07:00","14.3","","12.6","","90","","28","","32","","","","97.70","","","","","","NA"
"2010-08-16 08:00","2010","08","16","08:00","13.7","","12.6","","93","","27","","37","","","","97.75","","","","","","NA"
"2010-08-16 09:00","2010","08","16","09:00","14.4","","12.1","","86","","27","","35","","","","97.80","","","","","","NA"
"2010-08-16 10:00","2010","08","16","10:00","15.0","","11.4","","79","","27","","33","","","","97.83","","","","","","NA"
"2010-08-16 11:00","2010","08","16","11:00","15.4","","10.2","","71","","28","","37","","","","97.85","","","","","","NA"
"2010-08-16 12:00","2010","08","16","12:00","16.0","","9.8","","67","","27","","46","","","","97.87","","","","","","NA"
"2010-08-16 13:00","2010","08","16","13:00","16.5","","10.8","","69","","26","","41","","","","97.90","","","","","","NA"
"2010-08-16 14:00","2010","08","16","14:00","17.1","","12.2","","73","","26","","41","","","","97.93","","","","","","NA"
"2010-08-16 15:00","2010","08","16","15:00","17.4","","11.6","","69","","26","","46","","","","97.94","","","","","","NA"
"2010-08-16 16:00","2010","08","16","16:00","17.5","","12.3","","72","","26","","39","","","","97.99","","","","","","NA"
"2010-08-16 17:00","2010","08","16","17:00","16.8","","12.0","","73","","26","","35","","","","97.99","","","","","","NA"
"2010-08-16 18:00","2010","08","16","18:00","16.9","","10.3","","65","","27","","32","","","","97.99","","","","","","NA"
"2010-08-16 19:00","2010","08","16","19:00","16.2","","11.6","","74","","29","","33","","","","98.03","","","","","","NA"
"2010-08-16 20:00","2010","08","16","20:00","16.0","","10.4","","69","","28","","39","","","","98.04","","","","","","NA"
"2010-08-16 21:00","2010","08","16","21:00","13.5","","11.6","","88","","29","","33","","","","98.09","","","","","","NA"
"2010-08-16 22:00","2010","08","16","22:00","14.7","","9.0","","69","","29","","54","","","","98.14","","","","","","NA"
"2010-08-16 23:00","2010","08","16","23:00","14.8","","9.6","","71","","29","","39","","","","98.10","","","","","","NA"
"2010-08-17 00:00","2010","08","17","00:00","12.7","","11.2","","91","","30","","33","","","","98.14","","","","","","NA"
"2010-08-17 01:00","2010","08","17","01:00","13.1","","9.9","","81","","29","","32","","","","98.12","","","","","","NA"
"2010-08-17 02:00","2010","08","17","02:00","13.8","","8.3","","69","","28","","35","","","","98.11","","","","","","NA"
"2010-08-17 03:00","2010","08","17","03:00","13.4","","8.0","","70","","29","","33","","","","98.15","","","","","","NA"
"2010-08-17 04:00","2010","08","17","04:00","11.9","","8.7","","81","","29","","32","","","","98.21","","","","","","NA"
"2010-08-17 05:00","2010","08","17","05:00","11.2","","8.9","","86","","29","","32","","","","98.26","","","","","","NA"
"2010-08-17 06:00","2010","08","17","06:00","11.7","","8.4","","80","","29","","30","","","","98.33","","","","","","NA"
"2010-08-17 07:00","2010","08","17","07:00","11.7","","8.7","","82","","29","","33","","","","98.38","","","","","","NA"
"2010-08-17 08:00","2010","08","17","08:00","11.5","","8.2","","80","","30","","30","","","","98.46","","","","","","NA"
"2010-08-17 09:00","2010","08","17","09:00","11.9","","8.0","","77","","29","","32","","","","98.51","","","","","","NA"
"2010-08-17 10:00","2010","08","17","10:00","12.1","","7.9","","75","","29","","28","","","","98.56","","","","","","NA"
"2010-08-17 11:00","2010","08","17","11:00","12.7","","7.8","","72","","28","","30","","","","98.64","","","","","","NA"
"2010-08-17 12:00","2010","08","17","12:00","13.5","","7.4","","67","","28","","24","","","","98.65","","","","","","NA"
"2010-08-17 13:00","2010","08","17","13:00","14.7","","9.1","","69","","27","","28","","","","98.68","","","","","","NA"
"2010-08-17 14:00","2010","08","17","14:00","15.3","","8.1","","62","","27","","30","","","","98.71","","","","","","NA"
"2010-08-17 15:00","2010","08","17","15:00","16.2","","8.0","","58","","27","","33","","","","98.72","","","","","","NA"
"2010-08-17 16:00","2010","08","17","16:00","16.2","","9.0","","62","","26","","28","","","","98.74","","","","","","NA"
"2010-08-17 17:00","2010","08","17","17:00","16.2","","10.0","","67","","25","","32","","","","98.77","","","","","","NA"
"2010-08-17 18:00","2010","08","17","18:00","15.7","","11.1","","74","","25","","35","","","","98.80","","","","","","NA"
"2010-08-17 19:00","2010","08","17","19:00","15.4","","11.2","","76","","26","","32","","","","98.83","","","","","","NA"
"2010-08-17 20:00","2010","08","17","20:00","15.3","","10.9","","75","","27","","28","","","","98.81","","","","","","NA"
"2010-08-17 21:00","2010","08","17","21:00","15.5","","11.0","","75","","27","","22","","","","98.80","","","","","","NA"
"2010-08-17 22:00","2010","08","17","22:00","15.7","","11.3","","75","","26","","24","","","","98.76","","","","","","NA"
"2010-08-17 23:00","2010","08","17","23:00","15.7","","11.0","","74","","26","","20","","","","98.72","","","","","","NA"
"2010-08-18 00:00","2010","08","18","00:00","15.7","","11.5","","76","","26","","17","","","","98.67","","","","","","NA"
"2010-08-18 01:00","2010","08","18","01:00","15.9","","12.5","","80","","22","","24","","","","98.69","","","","","","NA"
"2010-08-18 02:00","2010","08","18","02:00","14.6","","13.3","","92","","18","","20","","","","98.59","","","","","","NA"
"2010-08-18 03:00","2010","08","18","03:00","14.1","","12.4","","89","","20","","48","","","","98.52","","","","","","NA"
"2010-08-18 04:00","2010","08","18","04:00","13.8","","13.3","","97","","18","","32","","","","98.46","","","","","","NA"
"2010-08-18 05:00","2010","08","18","05:00","14.3","","13.7","","96","","19","","33","","","","98.35","","","","","","NA"
"2010-08-18 06:00","2010","08","18","06:00","15.7","","14.9","","95","","20","","35","","","","98.35","","","","","","NA"
"2010-08-18 07:00","2010","08","18","07:00","15.6","","14.3","","92","","27","","28","","","","98.34","","","","","","NA"
"2010-08-18 08:00","2010","08","18","08:00","15.1","","13.9","","93","","28","","22","","","","98.42","","","","","","NA"
"2010-08-18 09:00","2010","08","18","09:00","15.3","","13.6","","90","","33","","7","","","","98.43","","","","","","NA"
"2010-08-18 10:00","2010","08","18","10:00","14.8","","11.9","","83","","33","","15","","","","98.48","","","","","","NA"
"2010-08-18 11:00","2010","08","18","11:00","16.7","","11.7","","72","","31","","13","","","","98.50","","","","","","NA"
"2010-08-18 12:00","2010","08","18","12:00","17.1","","11.6","","70","","29","","15","","","","98.52","","","","","","NA"
"2010-08-18 13:00","2010","08","18","13:00","18.2","","11.7","","66","","27","","13","","","","98.51","","","","","","NA"
"2010-08-18 14:00","2010","08","18","14:00","17.3","","12.3","","72","","27","","24","","","","98.52","","","","","","NA"
"2010-08-18 15:00","2010","08","18","15:00","17.7","","11.7","","68","","27","","17","","","","98.54","","","","","","NA"
"2010-08-18 16:00","2010","08","18","16:00","17.6","","11.2","","66","","28","","20","","","","98.57","","","","","","NA"
"2010-08-18 17:00","2010","08","18","17:00","17.6","","10.4","","63","","28","","20","","","","98.56","","","","","","NA"
"2010-08-18 18:00","2010","08","18","18:00","16.9","","12.3","","74","","27","","19","","","","98.57","","","","","","NA"
"2010-08-18 19:00","2010","08","18","19:00","16.3","","11.2","","72","","28","","15","","","","98.57","","","","","","NA"
"2010-08-18 20:00","2010","08","18","20:00","15.3","","11.5","","78","","29","","19","","","","98.59","","","","","","NA"
"2010-08-18 21:00","2010","08","18","21:00","15.0","","12.3","","84","","30","","6","","","","98.63","","","","","","NA"
"2010-08-18 22:00","2010","08","18","22:00","12.8","","11.6","","92","","7","","6","","","","98.64","","","","","","NA"
"2010-08-18 23:00","2010","08","18","23:00","11.9","","11.0","","94","","6","","7","","","","98.61","","","","","","NA"
"2010-08-19 00:00","2010","08","19","00:00","11.5","","10.9","","96","","8","","7","","","","98.61","","","","","","NA"
"2010-08-19 01:00","2010","08","19","01:00","11.6","","11.1","","97","","8","","7","","","","98.58","","","","","","NA"
"2010-08-19 02:00","2010","08","19","02:00","11.5","","11.1","","97","","7","","11","","","","98.56","","","","","","NA"
"2010-08-19 03:00","2010","08","19","03:00","11.4","","11.0","","97","","8","","7","","","","98.56","","","","","","NA"
"2010-08-19 04:00","2010","08","19","04:00","10.4","","10.1","","98","","8","","7","","","","98.60","","","","","","NA"
"2010-08-19 05:00","2010","08","19","05:00","9.8","","9.5","","98","","7","","7","","","","98.61","","","","","","NA"
"2010-08-19 06:00","2010","08","19","06:00","8.9","","8.6","","98","","7","","9","","","","98.65","","","","","","NA"
"2010-08-19 07:00","2010","08","19","07:00","10.0","","9.3","","95","","7","","7","","","","98.72","","","","","","NA"
"2010-08-19 08:00","2010","08","19","08:00","13.9","","11.8","","87","","7","","4","","","","98.75","","","","","","NA"
"2010-08-19 09:00","2010","08","19","09:00","14.5","","12.3","","87","","24","","6","","","","98.72","","","","","","NA"
"2010-08-19 10:00","2010","08","19","10:00","16.0","","13.1","","83","","24","","9","","","","98.73","","","","","","NA"
"2010-08-19 11:00","2010","08","19","11:00","17.2","","12.3","","73","","23","","11","","","","98.76","","","","","","NA"
"2010-08-19 12:00","2010","08","19","12:00","18.0","","10.8","","63","","24","","17","","","","98.78","","","","","","NA"
"2010-08-19 13:00","2010","08","19","13:00","18.5","","11.3","","63","","24","","13","","","","98.76","","","","","","NA"
"2010-08-19 14:00","2010","08","19","14:00","18.8","","12.8","","68","","25","","19","","","","98.78","","","","","","NA"
"2010-08-19 15:00","2010","08","19","15:00","19.2","","11.1","","59","","26","","15","","","","98.79","","","","","","NA"
"2010-08-19 16:00","2010","08","19","16:00","19.3","","11.1","","59","","26","","19","","","","98.75","","","","","","NA"
"2010-08-19 17:00","2010","08","19","17:00","18.8","","10.6","","59","","25","","17","","","","98.78","","","","","","NA"
"2010-08-19 18:00","2010","08","19","18:00","18.0","","10.9","","63","","26","","19","","","","98.80","","","","","","NA"
"2010-08-19 19:00","2010","08","19","19:00","17.5","","10.7","","64","","28","","13","","","","98.80","","","","","","NA"
"2010-08-19 20:00","2010","08","19","20:00","16.0","","11.3","","74","","29","","9","","","","98.82","","","","","","NA"
"2010-08-19 21:00","2010","08","19","21:00","14.1","","11.6","","85","","26","","2","","","","98.86","","","","","","NA"
"2010-08-19 22:00","2010","08","19","22:00","11.9","","10.9","","94","","8","","6","","","","98.88","","","","","","NA"
"2010-08-19 23:00","2010","08","19","23:00","11.2","","10.4","","95","","7","","9","","","","98.87","","","","","","NA"
"2010-08-20 00:00","2010","08","20","00:00","10.9","","10.2","","95","","8","","9","","","","98.88","","","","","","NA"
"2010-08-20 01:00","2010","08","20","01:00","10.4","","9.7","","95","","8","","11","","","","98.88","","","","","","NA"
"2010-08-20 02:00","2010","08","20","02:00","9.9","","9.3","","96","","8","","11","","","","98.90","","","","","","NA"
"2010-08-20 03:00","2010","08","20","03:00","9.5","","9.0","","97","","8","","11","","","","98.91","","","","","","NA"
"2010-08-20 04:00","2010","08","20","04:00","8.8","","8.3","","97","","7","","11","","","","98.91","","","","","","NA"
"2010-08-20 05:00","2010","08","20","05:00","8.6","","8.1","","97","","8","","11","","","","98.87","","","","","","NA"
"2010-08-20 06:00","2010","08","20","06:00","8.3","","7.7","","96","","8","","13","","","","98.88","","","","","","NA"
"2010-08-20 07:00","2010","08","20","07:00","10.0","","7.8","","86","","8","","13","","","","98.97","","","","","","NA"
"2010-08-20 08:00","2010","08","20","08:00","10.6","","8.8","","89","","7","","13","","","","98.93","","","","","","NA"
"2010-08-20 09:00","2010","08","20","09:00","14.0","","7.3","","64","","9","","11","","","","98.92","","","","","","NA"
"2010-08-20 10:00","2010","08","20","10:00","15.2","","8.6","","65","","11","","6","","","","99.00","","","","","","NA"
"2010-08-20 11:00","2010","08","20","11:00","16.2","","9.9","","66","","10","","13","","","","98.89","","","","","","NA"
"2010-08-20 12:00","2010","08","20","12:00","17.8","","10.3","","61","","11","","22","","","","98.67","","","","","","NA"
"2010-08-20 13:00","2010","08","20","13:00","16.7","","12.6","","77","","10","","13","","","","98.70","","","","","","NA"
"2010-08-20 14:00","2010","08","20","14:00","16.4","","13.5","","83","","11","","13","","","","98.65","","","","","","NA"
"2010-08-20 15:00","2010","08","20","15:00","16.4","","13.9","","85","","10","","7","","","","98.62","","","","","","NA"
"2010-08-20 16:00","2010","08","20","16:00","14.8","","14.1","","96","","8","","11","","","","98.53","","","","","","NA"
"2010-08-20 17:00","2010","08","20","17:00","14.6","","14.2","","97","","7","","9","","","","98.46","","","","","","NA"
"2010-08-20 18:00","2010","08","20","18:00","14.5","","14.1","","97","","8","","20","","","","98.34","","","","","","NA"
"2010-08-20 19:00","2010","08","20","19:00","14.5","","14.2","","98","","8","","22","","","","98.29","","","","","","NA"
"2010-08-20 20:00","2010","08","20","20:00","14.4","","14.2","","99","","7","","15","","","","98.34","","","","","","NA"
"2010-08-20 21:00","2010","08","20","21:00","14.4","","14.2","","99","","8","","19","","","","98.33","","","","","","NA"
"2010-08-20 22:00","2010","08","20","22:00","15.1","","14.9","","99","","8","","13","","","","98.30","","","","","","NA"
"2010-08-20 23:00","2010","08","20","23:00","15.8","","15.6","","99","","9","","19","","","","98.23","","","","","","NA"
"2010-08-21 00:00","2010","08","21","00:00","15.9","","15.7","","99","","11","","22","","","","98.17","","","","","","NA"
"2010-08-21 01:00","2010","08","21","01:00","15.0","","14.8","","99","","3","","13","","","","98.18","","","","","","NA"
"2010-08-21 02:00","2010","08","21","02:00","15.5","","15.3","","99","","5","","11","","","","98.17","","","","","","NA"
"2010-08-21 03:00","2010","08","21","03:00","15.0","","14.8","","99","","5","","11","","","","98.14","","","","","","NA"
"2010-08-21 04:00","2010","08","21","04:00","14.7","","14.5","","99","","6","","11","","","","98.18","","","","","","NA"
"2010-08-21 05:00","2010","08","21","05:00","14.5","","14.3","","99","","5","","17","","","","98.24","","","","","","NA"
"2010-08-21 06:00","2010","08","21","06:00","14.4","","14.2","","99","","4","","11","","","","98.30","","","","","","NA"
"2010-08-21 07:00","2010","08","21","07:00","14.7","","14.5","","99","","2","","11","","","","98.34","","","","","","NA"
"2010-08-21 08:00","2010","08","21","08:00","15.3","","15.1","","99","","35","","6","","","","98.39","","","","","","NA"
"2010-08-21 09:00","2010","08","21","09:00","16.8","","16.5","","98","","1","","7","","","","98.40","","","","","","NA"
"2010-08-21 10:00","2010","08","21","10:00","18.5","","17.9","","96","","1","","11","","","","98.44","","","","","","NA"
"2010-08-21 11:00","2010","08","21","11:00","20.0","","18.8","","93","","2","","9","","","","98.43","","27","","","","NA"
"2010-08-21 12:00","2010","08","21","12:00","21.2","","18.0","","82","","3","","11","","","","98.44","","27","","","","NA"
"2010-08-21 13:00","2010","08","21","13:00","22.3","","17.7","","75","","4","","9","","","","98.48","","28","","","","NA"
"2010-08-21 14:00","2010","08","21","14:00","23.2","","17.5","","70","","2","","9","","","","98.52","","29","","","","NA"
"2010-08-21 15:00","2010","08","21","15:00","20.2","","16.7","","80","","29","","15","","","","98.56","","25","","","","NA"
"2010-08-21 16:00","2010","08","21","16:00","19.9","","16.5","","81","","28","","17","","","","98.62","","","","","","NA"
"2010-08-21 17:00","2010","08","21","17:00","19.8","","16.6","","82","","30","","6","","","","98.66","","","","","","NA"
"2010-08-21 18:00","2010","08","21","18:00","19.4","","16.7","","84","","23","","6","","","","98.69","","","","","","NA"
"2010-08-21 19:00","2010","08","21","19:00","19.3","","16.5","","84","","18","","6","","","","98.72","","","","","","NA"
"2010-08-21 20:00","2010","08","21","20:00","17.7","","16.2","","91","","17","","7","","","","98.76","","","","","","NA"
"2010-08-21 21:00","2010","08","21","21:00","17.2","","15.9","","92","","12","","6","","","","98.83","","","","","","NA"
"2010-08-21 22:00","2010","08","21","22:00","16.2","","15.3","","94","","11","","6","","","","98.88","","","","","","NA"
"2010-08-21 23:00","2010","08","21","23:00","15.7","","15.0","","96","","8","","6","","","","98.92","","","","","","NA"
"2010-08-22 00:00","2010","08","22","00:00","15.2","","14.7","","97","","8","","7","","","","98.95","","","","","","NA"
"2010-08-22 01:00","2010","08","22","01:00","15.0","","14.6","","97","","3","","6","","","","98.99","","","","","","NA"
"2010-08-22 02:00","2010","08","22","02:00","14.3","","14.0","","98","","7","","7","","","","99.02","","","","","","NA"
"2010-08-22 03:00","2010","08","22","03:00","13.7","","13.3","","97","","6","","7","","","","99.05","","","","","","NA"
"2010-08-22 04:00","2010","08","22","04:00","13.1","","12.8","","98","","2","","7","","","","99.10","","","","","","NA"
"2010-08-22 05:00","2010","08","22","05:00","13.2","","13.0","","99","","5","","4","","","","99.14","","","","","","NA"
"2010-08-22 06:00","2010","08","22","06:00","14.3","","14.1","","99","","9","","6","","","","99.21","","","","","","NA"
"2010-08-22 07:00","2010","08","22","07:00","13.9","","13.1","","95","","36","","7","","","","99.27","","","","","","NA"
"2010-08-22 08:00","2010","08","22","08:00","16.9","","15.3","","90","","34","","2","","","","99.33","","","","","","NA"
"2010-08-22 09:00","2010","08","22","09:00","19.8","","17.0","","84","","8","","4","","","","99.35","","","","","","NA"
"2010-08-22 10:00","2010","08","22","10:00","22.6","","17.6","","73","","4","","11","","","","99.34","","28","","","","NA"
"2010-08-22 11:00","2010","08","22","11:00","24.3","","16.8","","63","","3","","9","","","","99.38","","29","","","","NA"
"2010-08-22 12:00","2010","08","22","12:00","22.2","","18.0","","77","","28","","7","","","","99.37","","28","","","","NA"
"2010-08-22 13:00","2010","08","22","13:00","20.9","","17.5","","81","","27","","13","","","","99.37","","27","","","","NA"
"2010-08-22 14:00","2010","08","22","14:00","22.0","","17.5","","76","","28","","11","","","","99.38","","28","","","","NA"
"2010-08-22 15:00","2010","08","22","15:00","21.7","","17.4","","77","","30","","13","","","","99.39","","27","","","","NA"
"2010-08-22 16:00","2010","08","22","16:00","21.5","","17.2","","77","","31","","13","","","","99.39","","27","","","","NA"
"2010-08-22 17:00","2010","08","22","17:00","21.5","","16.8","","75","","31","","11","","","","99.37","","27","","","","NA"
"2010-08-22 18:00","2010","08","22","18:00","21.6","","15.8","","70","","31","","11","","","","99.38","","26","","","","NA"
"2010-08-22 19:00","2010","08","22","19:00","21.2","","16.7","","76","","27","","6","","","","99.40","","26","","","","NA"
"2010-08-22 20:00","2010","08","22","20:00","19.4","","15.3","","77","","1","","2","","","","99.40","","","","","","NA"
"2010-08-22 21:00","2010","08","22","21:00","17.6","","15.6","","88","","8","","6","","","","99.44","","","","","","NA"
"2010-08-22 22:00","2010","08","22","22:00","16.9","","15.2","","90","","10","","7","","","","99.45","","","","","","NA"
"2010-08-22 23:00","2010","08","22","23:00","16.5","","14.7","","89","","8","","9","","","","99.46","","","","","","NA"
"2010-08-23 00:00","2010","08","23","00:00","16.4","","14.6","","89","","9","","9","","","","99.42","","","","","","NA"
"2010-08-23 01:00","2010","08","23","01:00","16.6","","14.5","","87","","10","","7","","","","99.44","","","","","","NA"
"2010-08-23 02:00","2010","08","23","02:00","15.0","","14.2","","95","","8","","7","","","","99.45","","","","","","NA"
"2010-08-23 03:00","2010","08","23","03:00","15.0","","14.3","","96","","6","","6","","","","99.47","","","","","","NA"
"2010-08-23 04:00","2010","08","23","04:00","14.1","","13.6","","97","","6","","7","","","","99.51","","","","","","NA"
"2010-08-23 05:00","2010","08","23","05:00","13.7","","13.3","","97","","7","","9","","","","99.50","","","","","","NA"
"2010-08-23 06:00","2010","08","23","06:00","14.1","","13.4","","96","","9","","13","","","","99.50","","","","","","NA"
"2010-08-23 07:00","2010","08","23","07:00","16.1","","13.9","","87","","10","","6","","","","99.58","","","","","","NA"
"2010-08-23 08:00","2010","08","23","08:00","18.6","","15.5","","82","","17","","9","","","","99.58","","","","","","NA"
"2010-08-23 09:00","2010","08","23","09:00","19.7","","16.3","","81","","17","","20","","","","99.56","","","","","","NA"
"2010-08-23 10:00","2010","08","23","10:00","19.7","","15.6","","77","","19","","24","","","","99.54","","","","","","NA"
"2010-08-23 11:00","2010","08","23","11:00","20.0","","15.8","","77","","20","","32","","","","99.55","","","","","","NA"
"2010-08-23 12:00","2010","08","23","12:00","21.1","","15.8","","72","","18","","19","","","","99.51","","26","","","","NA"
"2010-08-23 13:00","2010","08","23","13:00","21.2","","16.0","","72","","20","","22","","","","99.45","","26","","","","NA"
"2010-08-23 14:00","2010","08","23","14:00","21.4","","16.3","","73","","20","","20","","","","99.40","","26","","","","NA"
"2010-08-23 15:00","2010","08","23","15:00","21.3","","15.9","","71","","20","","20","","","","99.34","","26","","","","NA"
"2010-08-23 16:00","2010","08","23","16:00","20.9","","16.0","","74","","20","","20","","","","99.30","","26","","","","NA"
"2010-08-23 17:00","2010","08","23","17:00","20.2","","15.8","","76","","20","","24","","","","99.25","","25","","","","NA"
"2010-08-23 18:00","2010","08","23","18:00","19.4","","16.0","","81","","20","","24","","","","99.18","","","","","","NA"
"2010-08-23 19:00","2010","08","23","19:00","19.1","","16.5","","85","","18","","22","","","","99.10","","","","","","NA"
"2010-08-23 20:00","2010","08","23","20:00","18.9","","16.5","","86","","17","","20","","","","99.11","","","","","","NA"
"2010-08-23 21:00","2010","08","23","21:00","18.0","","15.1","","83","","14","","11","","","","99.14","","","","","","NA"
"2010-08-23 22:00","2010","08","23","22:00","17.6","","14.6","","83","","14","","11","","","","99.09","","","","","","NA"
"2010-08-23 23:00","2010","08","23","23:00","17.4","","14.5","","83","","14","","13","","","","99.04","","","","","","NA"
"2010-08-24 00:00","2010","08","24","00:00","18.9","","16.4","","85","","17","","41","","","","98.98","","","","","","NA"
"2010-08-24 01:00","2010","08","24","01:00","18.5","","16.5","","88","","17","","39","","","","99.00","","","","","","NA"
"2010-08-24 02:00","2010","08","24","02:00","17.9","","16.3","","90","","17","","37","","","","98.95","","","","","","NA"
"2010-08-24 03:00","2010","08","24","03:00","17.8","","15.8","","88","","17","","30","","","","98.88","","","","","","NA"
"2010-08-24 04:00","2010","08","24","04:00","18.1","","16.5","","90","","17","","39","","","","98.82","","","","","","NA"
"2010-08-24 05:00","2010","08","24","05:00","18.3","","16.7","","90","","17","","37","","","","98.78","","","","","","NA"
"2010-08-24 06:00","2010","08","24","06:00","18.4","","17.2","","93","","18","","43","","","","98.73","","","","","","NA"
"2010-08-24 07:00","2010","08","24","07:00","18.6","","17.3","","92","","18","","41","","","","98.73","","","","","","NA"
"2010-08-24 08:00","2010","08","24","08:00","18.8","","17.6","","93","","19","","37","","","","98.72","","","","","","NA"
"2010-08-24 09:00","2010","08","24","09:00","18.8","","17.5","","92","","18","","39","","","","98.65","","","","","","NA"
"2010-08-24 10:00","2010","08","24","10:00","18.7","","17.4","","92","","17","","37","","","","98.63","","","","","","NA"
"2010-08-24 11:00","2010","08","24","11:00","18.4","","17.2","","93","","19","","33","","","","98.64","","","","","","NA"
"2010-08-24 12:00","2010","08","24","12:00","18.2","","17.1","","93","","20","","35","","","","98.63","","","","","","NA"
"2010-08-24 13:00","2010","08","24","13:00","17.8","","17.1","","96","","21","","26","","","","98.67","","","","","","NA"
"2010-08-24 14:00","2010","08","24","14:00","17.5","","16.3","","93","","21","","19","","","","98.67","","","","","","NA"
"2010-08-24 15:00","2010","08","24","15:00","17.4","","16.2","","93","","21","","22","","","","98.63","","","","","","NA"
"2010-08-24 16:00","2010","08","24","16:00","17.7","","16.5","","93","","22","","33","","","","98.63","","","","","","NA"
"2010-08-24 17:00","2010","08","24","17:00","18.1","","15.0","","82","","23","","39","","","","98.63","","","","","","NA"
"2010-08-24 18:00","2010","08","24","18:00","17.2","","14.8","","86","","24","","37","","","","98.61","","","","","","NA"
"2010-08-24 19:00","2010","08","24","19:00","17.5","","14.3","","81","","23","","32","","","","98.60","","","","","","NA"
"2010-08-24 20:00","2010","08","24","20:00","17.4","","14.1","","81","","24","","33","","","","98.58","","","","","","NA"
"2010-08-24 21:00","2010","08","24","21:00","17.5","","14.0","","80","","25","","26","","","","98.58","","","","","","NA"
"2010-08-24 22:00","2010","08","24","22:00","17.1","","14.0","","82","","27","","22","","","","98.57","","","","","","NA"
"2010-08-24 23:00","2010","08","24","23:00","17.3","","13.5","","78","","27","","22","","","","98.56","","","","","","NA"
"2010-08-25 00:00","2010","08","25","00:00","17.1","","12.8","","76","","27","","30","","","","98.53","","","","","","NA"
"2010-08-25 01:00","2010","08","25","01:00","16.7","","12.4","","76","","27","","30","","","","98.51","","","","","","NA"
"2010-08-25 02:00","2010","08","25","02:00","16.3","","12.8","","80","","27","","32","","","","98.52","","","","","","NA"
"2010-08-25 03:00","2010","08","25","03:00","16.2","","12.1","","77","","27","","30","","","","98.50","","","","","","NA"
"2010-08-25 04:00","2010","08","25","04:00","16.1","","12.4","","79","","27","","28","","","","98.50","","","","","","NA"
"2010-08-25 05:00","2010","08","25","05:00","15.6","","12.0","","79","","28","","28","","","","98.51","","","","","","NA"
"2010-08-25 06:00","2010","08","25","06:00","15.4","","11.5","","78","","28","","26","","","","98.52","","","","","","NA"
"2010-08-25 07:00","2010","08","25","07:00","15.5","","10.3","","71","","28","","28","","","","98.55","","","","","","NA"
"2010-08-25 08:00","2010","08","25","08:00","14.5","","11.5","","82","","28","","33","","","","98.58","","","","","","NA"
"2010-08-25 09:00","2010","08","25","09:00","14.9","","10.5","","75","","29","","22","","","","98.62","","","","","","NA"
"2010-08-25 10:00","2010","08","25","10:00","15.2","","8.9","","66","","30","","17","","","","98.66","","","","","","NA"
"2010-08-25 11:00","2010","08","25","11:00","14.6","","8.7","","68","","33","","20","","","","98.74","","","","","","NA"
"2010-08-25 12:00","2010","08","25","12:00","16.4","","8.3","","59","","32","","20","","","","98.76","","","","","","NA"
"2010-08-25 13:00","2010","08","25","13:00","15.7","","9.7","","67","","31","","19","","","","98.81","","","","","","NA"
"2010-08-25 14:00","2010","08","25","14:00","15.8","","10.2","","69","","32","","19","","","","98.86","","","","","","NA"
"2010-08-25 15:00","2010","08","25","15:00","17.2","","9.5","","61","","32","","24","","","","98.88","","","","","","NA"
"2010-08-25 16:00","2010","08","25","16:00","16.1","","8.9","","62","","32","","17","","","","98.94","","","","","","NA"
"2010-08-25 17:00","2010","08","25","17:00","17.4","","9.8","","61","","32","","17","","","","98.98","","","","","","NA"
"2010-08-25 18:00","2010","08","25","18:00","17.1","","8.3","","56","","32","","20","","","","99.02","","","","","","NA"
"2010-08-25 19:00","2010","08","25","19:00","17.0","","7.7","","54","","33","","17","","","","99.07","","","","","","NA"
"2010-08-25 20:00","2010","08","25","20:00","15.6","","7.1","","57","","34","","13","","","","99.16","","","","","","NA"
"2010-08-25 21:00","2010","08","25","21:00","14.6","","7.8","","64","","34","","11","","","","99.22","","","","","","NA"
"2010-08-25 22:00","2010","08","25","22:00","13.8","","7.9","","68","","34","","11","","","","99.26","","","","","","NA"
"2010-08-25 23:00","2010","08","25","23:00","11.1","","8.7","","85","","2","","7","","","","99.28","","","","","","NA"
"2010-08-26 00:00","2010","08","26","00:00","10.5","","7.8","","83","","8","","7","","","","99.30","","","","","","NA"
"2010-08-26 01:00","2010","08","26","01:00","8.8","","7.8","","93","","5","","7","","","","99.34","","","","","","NA"
"2010-08-26 02:00","2010","08","26","02:00","8.4","","7.5","","94","","7","","7","","","","99.35","","","","","","NA"
"2010-08-26 03:00","2010","08","26","03:00","7.7","","6.9","","95","","6","","9","","","","99.37","","","","","","NA"
"2010-08-26 04:00","2010","08","26","04:00","7.4","","6.8","","96","","7","","9","","","","99.40","","","","","","NA"
"2010-08-26 05:00","2010","08","26","05:00","7.1","","6.6","","97","","7","","11","","","","99.42","","","","","","NA"
"2010-08-26 06:00","2010","08","26","06:00","6.9","","6.6","","98","","8","","9","","","","99.48","","","","","","NA"
"2010-08-26 07:00","2010","08","26","07:00","9.1","","7.6","","90","","7","","11","","","","99.51","","","","","","NA"
"2010-08-26 08:00","2010","08","26","08:00","12.2","","9.2","","82","","7","","7","","","","99.54","","","","","","NA"
"2010-08-26 09:00","2010","08","26","09:00","16.4","","11.2","","71","","25","","9","","","","99.54","","","","","","NA"
"2010-08-26 10:00","2010","08","26","10:00","17.7","","11.7","","68","","24","","15","","","","99.54","","","","","","NA"
"2010-08-26 11:00","2010","08","26","11:00","17.3","","11.2","","67","","24","","20","","","","99.54","","","","","","NA"
"2010-08-26 12:00","2010","08","26","12:00","18.4","","11.5","","64","","23","","20","","","","99.51","","","","","","NA"
"2010-08-26 13:00","2010","08","26","13:00","18.2","","13.2","","73","","22","","20","","","","99.45","","","","","","NA"
"2010-08-26 14:00","2010","08","26","14:00","18.1","","13.8","","76","","22","","20","","","","99.41","","","","","","NA"
"2010-08-26 15:00","2010","08","26","15:00","18.2","","13.2","","73","","22","","22","","","","99.35","","","","","","NA"
"2010-08-26 16:00","2010","08","26","16:00","18.2","","12.8","","71","","21","","22","","","","99.32","","","","","","NA"
"2010-08-26 17:00","2010","08","26","17:00","17.8","","12.6","","72","","21","","26","","","","99.26","","","","","","NA"
"2010-08-26 18:00","2010","08","26","18:00","17.4","","12.5","","73","","22","","30","","","","99.21","","","","","","NA"
"2010-08-26 19:00","2010","08","26","19:00","17.1","","11.8","","71","","22","","28","","","","99.17","","","","","","NA"
"2010-08-26 20:00","2010","08","26","20:00","16.7","","13.1","","79","","22","","26","","","","99.14","","","","","","NA"
"2010-08-26 21:00","2010","08","26","21:00","16.9","","13.2","","79","","21","","28","","","","99.10","","","","","","NA"
"2010-08-26 22:00","2010","08","26","22:00","17.1","","13.3","","78","","21","","32","","","","99.08","","","","","","NA"
"2010-08-26 23:00","2010","08","26","23:00","17.1","","12.6","","75","","21","","33","","","","99.02","","","","","","NA"
"2010-08-27 00:00","2010","08","27","00:00","17.3","","12.1","","71","","20","","30","","","","99.00","","","","","","NA"
"2010-08-27 01:00","2010","08","27","01:00","17.3","","11.8","","70","","20","","33","","","","98.96","","","","","","NA"
"2010-08-27 02:00","2010","08","27","02:00","17.2","","13.3","","78","","20","","32","","","","98.92","","","","","","NA"
"2010-08-27 03:00","2010","08","27","03:00","17.5","","14.3","","81","","21","","28","","","","98.90","","","","","","NA"
"2010-08-27 04:00","2010","08","27","04:00","17.3","","14.7","","85","","21","","26","","","","98.88","","","","","","NA"
"2010-08-27 05:00","2010","08","27","05:00","17.4","","14.6","","84","","22","","22","","","","98.87","","","","","","NA"
"2010-08-27 06:00","2010","08","27","06:00","17.3","","14.2","","82","","25","","17","","","","98.90","","","","","","NA"
"2010-08-27 07:00","2010","08","27","07:00","17.2","","14.2","","83","","25","","13","","","","98.94","","","","","","NA"
"2010-08-27 08:00","2010","08","27","08:00","17.7","","14.4","","81","","25","","11","","","","98.97","","","","","","NA"
"2010-08-27 09:00","2010","08","27","09:00","18.2","","14.8","","81","","23","","17","","","","98.95","","","","","","NA"
"2010-08-27 10:00","2010","08","27","10:00","18.6","","15.2","","81","","22","","13","","","","98.91","","","","","","NA"
"2010-08-27 11:00","2010","08","27","11:00","20.4","","15.4","","73","","20","","17","","","","98.91","","25","","","","NA"
"2010-08-27 12:00","2010","08","27","12:00","21.0","","15.6","","71","","19","","17","","","","98.86","","25","","","","NA"
"2010-08-27 13:00","2010","08","27","13:00","21.4","","15.8","","70","","18","","19","","","","98.83","","26","","","","NA"
"2010-08-27 14:00","2010","08","27","14:00","21.1","","15.9","","72","","19","","20","","","","98.82","","26","","","","NA"
"2010-08-27 15:00","2010","08","27","15:00","21.0","","16.0","","73","","18","","20","","","","98.77","","26","","","","NA"
"2010-08-27 16:00","2010","08","27","16:00","20.8","","15.6","","72","","18","","20","","","","98.70","","25","","","","NA"
"2010-08-27 17:00","2010","08","27","17:00","20.6","","15.1","","71","","18","","22","","","","98.67","","25","","","","NA"
"2010-08-27 18:00","2010","08","27","18:00","21.2","","15.1","","68","","17","","19","","","","98.62","","25","","","","NA"
"2010-08-27 19:00","2010","08","27","19:00","20.6","","15.8","","74","","17","","20","","","","98.55","","25","","","","NA"
"2010-08-27 20:00","2010","08","27","20:00","20.9","","16.3","","75","","17","","24","","","","98.55","","26","","","","NA"
"2010-08-27 21:00","2010","08","27","21:00","21.0","","16.4","","75","","17","","28","","","","98.51","","26","","","","NA"
"2010-08-27 22:00","2010","08","27","22:00","20.8","","17.1","","79","","17","","33","","","","98.46","","26","","","","NA"
"2010-08-27 23:00","2010","08","27","23:00","20.7","","17.3","","81","","17","","37","","","","98.45","","26","","","","NA"
"2010-08-28 00:00","2010","08","28","00:00","20.2","","17.7","","86","","18","","39","","","","98.45","","26","","","","NA"
"2010-08-28 01:00","2010","08","28","01:00","19.6","","17.7","","89","","18","","35","","","","98.44","","","","","","NA"
"2010-08-28 02:00","2010","08","28","02:00","19.7","","17.3","","86","","18","","37","","","","98.40","","","","","","NA"
"2010-08-28 03:00","2010","08","28","03:00","19.7","","17.3","","86","","18","","33","","","","98.39","","","","","","NA"
"2010-08-28 04:00","2010","08","28","04:00","19.7","","17.3","","86","","18","","33","","","","98.41","","","","","","NA"
"2010-08-28 05:00","2010","08","28","05:00","20.1","","17.1","","83","","19","","39","","","","98.43","","25","","","","NA"
"2010-08-28 06:00","2010","08","28","06:00","19.6","","17.2","","86","","18","","32","","","","98.49","","","","","","NA"
"2010-08-28 07:00","2010","08","28","07:00","19.7","","17.0","","84","","18","","33","","","","98.52","","","","","","NA"
"2010-08-28 08:00","2010","08","28","08:00","20.3","","16.5","","79","","19","","35","","","","98.56","","25","","","","NA"
"2010-08-28 09:00","2010","08","28","09:00","20.8","","16.4","","76","","19","","35","","","","98.57","","26","","","","NA"
"2010-08-28 10:00","2010","08","28","10:00","20.8","","16.6","","77","","18","","32","","","","98.62","","26","","","","NA"
"2010-08-28 11:00","2010","08","28","11:00","21.1","","16.4","","75","","19","","37","","","","98.64","","26","","","","NA"
"2010-08-28 12:00","2010","08","28","12:00","21.1","","16.3","","74","","19","","37","","","","98.63","","26","","","","NA"
"2010-08-28 13:00","2010","08","28","13:00","21.6","","16.3","","72","","19","","35","","","","98.65","","26","","","","NA"
"2010-08-28 14:00","2010","08","28","14:00","21.9","","16.3","","71","","18","","33","","","","98.65","","27","","","","NA"
"2010-08-28 15:00","2010","08","28","15:00","22.3","","16.6","","70","","19","","32","","","","98.63","","27","","","","NA"
"2010-08-28 16:00","2010","08","28","16:00","21.9","","16.5","","71","","18","","30","","","","98.59","","27","","","","NA"
"2010-08-28 17:00","2010","08","28","17:00","21.4","","16.7","","75","","18","","24","","","","98.57","","26","","","","NA"
"2010-08-28 18:00","2010","08","28","18:00","20.7","","17.0","","79","","17","","20","","","","98.54","","26","","","","NA"
"2010-08-28 19:00","2010","08","28","19:00","20.4","","16.8","","80","","17","","30","","","","98.50","","26","","","","NA"
"2010-08-28 20:00","2010","08","28","20:00","20.1","","16.7","","81","","18","","28","","","","98.56","","25","","","","NA"
"2010-08-28 21:00","2010","08","28","21:00","19.8","","17.3","","86","","17","","28","","","","98.60","","","","","","NA"
"2010-08-28 22:00","2010","08","28","22:00","19.8","","17.2","","85","","17","","26","","","","98.66","","","","","","NA"
"2010-08-28 23:00","2010","08","28","23:00","19.6","","17.2","","86","","17","","28","","","","98.70","","","","","","NA"
"2010-08-29 00:00","2010","08","29","00:00","19.3","","17.1","","87","","17","","28","","","","98.75","","","","","","NA"
"2010-08-29 01:00","2010","08","29","01:00","19.6","","16.8","","84","","18","","30","","","","98.76","","","","","","NA"
"2010-08-29 02:00","2010","08","29","02:00","19.4","","17.0","","86","","17","","26","","","","98.80","","","","","","NA"
"2010-08-29 03:00","2010","08","29","03:00","19.3","","17.0","","87","","17","","26","","","","98.86","","","","","","NA"
"2010-08-29 04:00","2010","08","29","04:00","19.5","","16.7","","84","","17","","28","","","","98.88","","","","","","NA"
"2010-08-29 05:00","2010","08","29","05:00","19.4","","16.6","","84","","18","","22","","","","98.91","","","","","","NA"
"2010-08-29 06:00","2010","08","29","06:00","19.2","","16.5","","84","","17","","24","","","","98.95","","","","","","NA"
"2010-08-29 07:00","2010","08","29","07:00","19.7","","16.3","","81","","17","","22","","","","99.00","","","","","","NA"
"2010-08-29 08:00","2010","08","29","08:00","20.7","","16.3","","76","","17","","24","","","","99.03","","26","","","","NA"
"2010-08-29 09:00","2010","08","29","09:00","21.4","","16.2","","72","","17","","22","","","","99.04","","26","","","","NA"
"2010-08-29 10:00","2010","08","29","10:00","22.0","","16.5","","71","","17","","24","","","","99.04","","27","","","","NA"
"2010-08-29 11:00","2010","08","29","11:00","22.0","","16.0","","69","","18","","28","","","","99.05","","27","","","","NA"
"2010-08-29 12:00","2010","08","29","12:00","22.6","","16.5","","68","","17","","26","","","","99.05","","28","","","","NA"
"2010-08-29 13:00","2010","08","29","13:00","22.6","","16.1","","67","","17","","30","","","","99.00","","27","","","","NA"
"2010-08-29 14:00","2010","08","29","14:00","22.4","","16.2","","68","","18","","26","","","","99.01","","27","","","","NA"
"2010-08-29 15:00","2010","08","29","15:00","22.2","","16.3","","69","","17","","26","","","","98.99","","27","","","","NA"
"2010-08-29 16:00","2010","08","29","16:00","22.8","","16.7","","68","","17","","26","","","","98.94","","28","","","","NA"
"2010-08-29 17:00","2010","08","29","17:00","21.7","","17.0","","75","","17","","28","","","","98.94","","27","","","","NA"
"2010-08-29 18:00","2010","08","29","18:00","22.4","","16.7","","70","","17","","26","","","","98.93","","27","","","","NA"
"2010-08-29 19:00","2010","08","29","19:00","22.0","","16.5","","71","","17","","26","","","","98.90","","27","","","","NA"
"2010-08-29 20:00","2010","08","29","20:00","22.5","","16.4","","68","","17","","26","","","","98.90","","27","","","","NA"
"2010-08-29 21:00","2010","08","29","21:00","22.2","","16.8","","71","","17","","26","","","","98.91","","27","","","","NA"
"2010-08-29 22:00","2010","08","29","22:00","22.9","","17.7","","73","","18","","32","","","","98.92","","29","","","","NA"
"2010-08-29 23:00","2010","08","29","23:00","21.8","","18.8","","83","","18","","33","","","","98.92","","28","","","","NA"
"2010-08-30 00:00","2010","08","30","00:00","20.4","","18.7","","90","","17","","30","","","","98.96","","27","","","","NA"
"2010-08-30 01:00","2010","08","30","01:00","20.2","","18.9","","92","","17","","26","","","","98.98","","27","","","","NA"
"2010-08-30 02:00","2010","08","30","02:00","20.4","","18.9","","91","","17","","26","","","","98.99","","27","","","","NA"
"2010-08-30 03:00","2010","08","30","03:00","20.4","","19.0","","92","","18","","24","","","","99.01","","27","","","","NA"
"2010-08-30 04:00","2010","08","30","04:00","20.4","","18.7","","90","","20","","19","","","","99.09","","27","","","","NA"
"2010-08-30 05:00","2010","08","30","05:00","19.6","","18.3","","92","","15","","6","","","","99.08","","","","","","NA"
"2010-08-30 06:00","2010","08","30","06:00","20.2","","18.6","","91","","16","","15","","","","99.07","","27","","","","NA"
"2010-08-30 07:00","2010","08","30","07:00","21.2","","18.7","","86","","15","","11","","","","99.13","","28","","","","NA"
"2010-08-30 08:00","2010","08","30","08:00","22.5","","19.0","","81","","17","","17","","","","99.16","","29","","","","NA"
"2010-08-30 09:00","2010","08","30","09:00","22.3","","19.2","","83","","18","","17","","","","99.15","","29","","","","NA"
"2010-08-30 10:00","2010","08","30","10:00","22.4","","18.9","","81","","18","","22","","","","99.15","","29","","","","NA"
"2010-08-30 11:00","2010","08","30","11:00","22.2","","19.0","","82","","18","","20","","","","99.13","","29","","","","NA"
"2010-08-30 12:00","2010","08","30","12:00","22.6","","19.1","","81","","17","","22","","","","99.12","","29","","","","NA"
"2010-08-30 13:00","2010","08","30","13:00","22.4","","19.1","","82","","18","","28","","","","99.10","","29","","","","NA"
"2010-08-30 14:00","2010","08","30","14:00","22.1","","19.1","","83","","18","","28","","","","99.10","","29","","","","NA"
"2010-08-30 15:00","2010","08","30","15:00","23.4","","19.6","","79","","17","","26","","","","99.04","","31","","","","NA"
"2010-08-30 16:00","2010","08","30","16:00","23.3","","19.5","","79","","17","","26","","","","99.00","","30","","","","NA"
"2010-08-30 17:00","2010","08","30","17:00","24.1","","19.7","","76","","17","","26","","","","98.92","","31","","","","NA"
"2010-08-30 18:00","2010","08","30","18:00","23.3","","19.5","","79","","17","","22","","","","98.89","","30","","","","NA"
"2010-08-30 19:00","2010","08","30","19:00","23.5","","19.1","","76","","17","","32","","","","98.82","","30","","","","NA"
"2010-08-30 20:00","2010","08","30","20:00","23.7","","19.5","","77","","17","","35","","","","98.82","","31","","","","NA"
"2010-08-30 21:00","2010","08","30","21:00","22.9","","18.6","","77","","17","","35","","","","98.78","","29","","","","NA"
"2010-08-30 22:00","2010","08","30","22:00","22.6","","18.4","","77","","17","","33","","","","98.75","","29","","","","NA"
"2010-08-30 23:00","2010","08","30","23:00","22.0","","18.3","","80","","17","","32","","","","98.80","","28","","","","NA"
"2010-08-31 00:00","2010","08","31","00:00","21.1","","18.4","","85","","17","","32","","","","98.83","","27","","","","NA"
"2010-08-31 01:00","2010","08","31","01:00","20.9","","18.7","","87","","17","","32","","","","98.81","","27","","","","NA"
"2010-08-31 02:00","2010","08","31","02:00","21.1","","19.0","","88","","17","","35","","","","98.74","","28","","","","NA"
"2010-08-31 03:00","2010","08","31","03:00","21.0","","19.0","","88","","17","","35","","","","98.68","","28","","","","NA"
"2010-08-31 04:00","2010","08","31","04:00","21.1","","19.1","","88","","17","","33","","","","98.66","","28","","","","NA"
"2010-08-31 05:00","2010","08","31","05:00","21.0","","19.1","","89","","17","","33","","","","98.59","","28","","","","NA"
"2010-08-31 06:00","2010","08","31","06:00","21.2","","19.1","","88","","18","","32","","","","98.60","","28","","","","NA"
"2010-08-31 07:00","2010","08","31","07:00","21.1","","18.8","","87","","18","","33","","","","98.59","","28","","","","NA"
"2010-08-31 08:00","2010","08","31","08:00","20.8","","18.9","","89","","18","","33","","","","98.57","","27","","","","NA"
"2010-08-31 09:00","2010","08","31","09:00","21.0","","19.0","","88","","17","","33","","","","98.46","","28","","","","NA"
"2010-08-31 10:00","2010","08","31","10:00","22.6","","19.3","","82","","17","","43","","","","98.31","","30","","","","NA"
"2010-08-31 11:00","2010","08","31","11:00","21.6","","19.1","","86","","19","","28","","","","98.44","","28","","","","NA"
"2010-08-31 12:00","2010","08","31","12:00","21.8","","19.2","","85","","17","","33","","","","98.36","","29","","","","NA"
"2010-08-31 13:00","2010","08","31","13:00","21.3","","19.1","","87","","18","","32","","","","98.35","","28","","","","NA"
"2010-08-31 14:00","2010","08","31","14:00","22.2","","18.8","","81","","19","","30","","","","98.42","","29","","","","NA"
"2010-08-31 15:00","2010","08","31","15:00","22.6","","18.9","","80","","19","","26","","","","98.41","","29","","","","NA"
"2010-08-31 16:00","2010","08","31","16:00","21.5","","18.5","","83","","19","","24","","","","98.43","","28","","","","NA"
"2010-08-31 17:00","2010","08","31","17:00","22.2","","18.4","","79","","19","","24","","","","98.44","","29","","","","NA"
"2010-08-31 18:00","2010","08","31","18:00","21.0","","18.7","","87","","17","","28","","","","98.41","","28","","","","NA"
"2010-08-31 19:00","2010","08","31","19:00","20.8","","18.8","","88","","17","","22","","","","98.35","","27","","","","NA"
"2010-08-31 20:00","2010","08","31","20:00","20.4","","19.2","","93","","16","","24","","","","98.34","","27","","","","NA"
"2010-08-31 21:00","2010","08","31","21:00","20.5","","19.3","","93","","17","","24","","","","98.35","","28","","","","NA"
"2010-08-31 22:00","2010","08","31","22:00","20.6","","19.2","","92","","17","","26","","","","98.33","","28","","","","NA"
"2010-08-31 23:00","2010","08","31","23:00","21.3","","19.0","","87","","17","","26","","","","98.30","","28","","","","NA"
