"Station Name","PUKASKWA (AUT)"
"Province","ONTARIO"
"Latitude","48.61"
"Longitude","-86.29"
"Elevation","191.50"
"Climate Identifier","6046768"
"WMO Identifier","71750"
"TC Identifier","WCJ"
"All times are specified in Local Standard Time (LST). Add 1 hour to adjust for Daylight Saving Time where and when it is observed."

"Legend"
"E","Estimated"
"M","Missing"
"NA","Not Available"

"Date/Time","Year","Month","Day","Time","Temp (°C)","Temp Flag","Dew Point Temp (°C)","Dew Point Temp Flag","Rel Hum (%)","Rel Hum Flag","Wind Dir (10s deg)","Wind Dir Flag","Wind Spd (km/h)","Wind Spd Flag","Visibility (km)","Visibility Flag","Stn Press (kPa)","Stn Press Flag","Hmdx","Hmdx Flag","Wind Chill","Wind Chill Flag","Weather"
"2017-04-01 00:00","2017","04","01","00:00","-1.8","","-4.8","","80","","6","","3","","","","99.36","","","","-3","","NA"
"2017-04-01 01:00","2017","04","01","01:00","-0.7","","-4.2","","77","","4","","4","","","","99.39","","","","-2","","NA"
"2017-04-01 02:00","2017","04","01","02:00","-0.4","","-4.3","","75","","5","","8","","","","99.40","","","","-3","","NA"
"2017-04-01 03:00","2017","04","01","03:00","0.3","","-3.9","","74","","4","","8","","","","99.43","","","","","","NA"
"2017-04-01 04:00","2017","04","01","04:00","0.7","","-3.9","","71","","4","","9","","","","99.51","","","","","","NA"
"2017-04-01 05:00","2017","04","01","05:00","2.3","","-1.9","","74","","4","","9","","","","99.54","","","","","","NA"
"2017-04-01 06:00","2017","04","01","06:00","1.6","","-2.2","","76","","4","","9","","","","99.60","","","","","","NA"
"2017-04-01 07:00","2017","04","01","07:00","1.9","","-1.8","","76","","3","","8","","","","99.65","","","","","","NA"
"2017-04-01 08:00","2017","04","01","08:00","2.6","","-1.1","","77","","3","","11","","","","99.68","","","","","","NA"
"2017-04-01 09:00","2017","04","01","09:00","3.2","","-1.5","","71","","3","","14","","","","99.67","","","","","","NA"
"2017-04-01 10:00","2017","04","01","10:00","4.0","","-1.5","","68","","5","","12","","","","99.67","","","","","","NA"
"2017-04-01 11:00","2017","04","01","11:00","4.7","","-2.0","","62","","1","","9","","","","99.71","","","","","","NA"
"2017-04-01 12:00","2017","04","01","12:00","5.4","","-1.9","","59","","1","","6","","","","99.75","","","","","","NA"
"2017-04-01 13:00","2017","04","01","13:00","5.5","","-2.0","","59","","34","","5","","","","99.76","","","","","","NA"
"2017-04-01 14:00","2017","04","01","14:00","4.5","","-1.4","","65","","29","","1","","","","99.72","","","","","","NA"
"2017-04-01 15:00","2017","04","01","15:00","5.2","","-2.0","","60","","27","","4","","","","99.71","","","","","","NA"
"2017-04-01 16:00","2017","04","01","16:00","5.4","","-2.2","","58","","29","","7","","","","99.69","","","","","","NA"
"2017-04-01 17:00","2017","04","01","17:00","4.2","","-2.0","","64","","30","","5","","","","99.71","","","","","","NA"
"2017-04-01 18:00","2017","04","01","18:00","3.2","","-1.6","","71","","26","","8","","","","99.72","","","","","","NA"
"2017-04-01 19:00","2017","04","01","19:00","2.4","","-0.9","","79","","26","","6","","","","99.71","","","","","","NA"
"2017-04-01 20:00","2017","04","01","20:00","1.4","","-1.5","","81","","20","","3","","","","99.73","","","","","","NA"
"2017-04-01 21:00","2017","04","01","21:00","-0.1","","-2.4","","84","","","","0","","","","99.72","","","","","","NA"
"2017-04-01 22:00","2017","04","01","22:00","-1.5","","-3.3","","87","","0","","1","","","","99.70","","","","-2","","NA"
"2017-04-01 23:00","2017","04","01","23:00","-2.3","","-3.7","","90","","35","","1","","","","99.71","","","","-3","","NA"
"2017-04-02 00:00","2017","04","02","00:00","-2.7","","-3.8","","92","","","","0","","","","99.73","","","","","","NA"
"2017-04-02 01:00","2017","04","02","01:00","-3.0","","-4.0","","93","","5","","5","","","","99.74","","","","-5","","NA"
"2017-04-02 02:00","2017","04","02","02:00","-2.9","","-3.8","","94","","4","","5","","","","99.73","","","","-5","","NA"
"2017-04-02 03:00","2017","04","02","03:00","-3.2","","-4.0","","94","","5","","5","","","","99.70","","","","-5","","NA"
"2017-04-02 04:00","2017","04","02","04:00","-2.7","","-3.7","","93","","5","","9","","","","99.68","","","","-6","","NA"
"2017-04-02 05:00","2017","04","02","05:00","-2.2","","-3.3","","93","","3","","9","","","","99.70","","","","-6","","NA"
"2017-04-02 06:00","2017","04","02","06:00","-2.3","","-3.0","","95","","4","","6","","","","99.70","","","","-5","","NA"
"2017-04-02 07:00","2017","04","02","07:00","-2.7","","-3.3","","96","","4","","9","","","","99.71","","","","-6","","NA"
"2017-04-02 08:00","2017","04","02","08:00","-1.9","","-2.8","","93","","4","","4","","","","99.69","","","","-3","","NA"
"2017-04-02 09:00","2017","04","02","09:00","0.1","","-2.0","","86","","2","","5","","","","99.65","","","","","","NA"
"2017-04-02 10:00","2017","04","02","10:00","3.4","","-2.0","","68","","21","","7","","","","99.63","","","","","","NA"
"2017-04-02 11:00","2017","04","02","11:00","4.4","","-2.3","","62","","24","","7","","","","99.61","","","","","","NA"
"2017-04-02 12:00","2017","04","02","12:00","5.1","","-1.6","","62","","22","","10","","","","99.57","","","","","","NA"
"2017-04-02 13:00","2017","04","02","13:00","5.7","","-2.1","","57","","19","","12","","","","99.49","","","","","","NA"
"2017-04-02 14:00","2017","04","02","14:00","6.7","","-2.0","","54","","19","","11","","","","99.34","","","","","","NA"
"2017-04-02 15:00","2017","04","02","15:00","7.2","","-1.9","","52","","19","","11","","","","99.25","","","","","","NA"
"2017-04-02 16:00","2017","04","02","16:00","7.0","","-1.6","","54","","18","","12","","","","99.18","","","","","","NA"
"2017-04-02 17:00","2017","04","02","17:00","7.1","","-0.9","","57","","19","","14","","","","99.11","","","","","","NA"
"2017-04-02 18:00","2017","04","02","18:00","9.1","","-1.1","","49","","15","","9","","","","99.00","","","","","","NA"
"2017-04-02 19:00","2017","04","02","19:00","8.8","","-1.0","","50","","14","","5","","","","98.89","","","","","","NA"
"2017-04-02 20:00","2017","04","02","20:00","6.6","","-1.5","","56","","14","","5","","","","98.85","","","","","","NA"
"2017-04-02 21:00","2017","04","02","21:00","7.0","","-0.8","","58","","14","","6","","","","98.82","","","","","","NA"
"2017-04-02 22:00","2017","04","02","22:00","8.3","","-0.2","","55","","18","","12","","","","98.78","","","","","","NA"
"2017-04-02 23:00","2017","04","02","23:00","5.6","","0.2","","68","","18","","16","","","","98.82","","","","","","NA"
"2017-04-03 00:00","2017","04","03","00:00","5.5","","0.7","","72","","18","","13","","","","98.79","","","","","","NA"
"2017-04-03 01:00","2017","04","03","01:00","5.6","","2.7","","82","","18","","10","","","","98.71","","","","","","NA"
"2017-04-03 02:00","2017","04","03","02:00","5.3","","3.2","","86","","18","","8","","","","98.64","","","","","","NA"
"2017-04-03 03:00","2017","04","03","03:00","4.5","","1.5","","81","","18","","9","","","","98.62","","","","","","NA"
"2017-04-03 04:00","2017","04","03","04:00","4.0","","1.0","","81","","18","","12","","","","98.60","","","","","","NA"
"2017-04-03 05:00","2017","04","03","05:00","3.8","","1.4","","84","","17","","11","","","","98.56","","","","","","NA"
"2017-04-03 06:00","2017","04","03","06:00","4.1","","0.9","","80","","19","","7","","","","98.54","","","","","","NA"
"2017-04-03 07:00","2017","04","03","07:00","4.4","","0.7","","77","","17","","9","","","","98.53","","","","","","NA"
"2017-04-03 08:00","2017","04","03","08:00","4.2","","1.0","","80","","18","","13","","","","98.51","","","","","","NA"
"2017-04-03 09:00","2017","04","03","09:00","4.2","","1.4","","82","","18","","9","","","","98.51","","","","","","NA"
"2017-04-03 10:00","2017","04","03","10:00","4.1","","2.1","","87","","19","","9","","","","98.50","","","","","","NA"
"2017-04-03 11:00","2017","04","03","11:00","4.2","","1.9","","85","","17","","8","","","","98.47","","","","","","NA"
"2017-04-03 12:00","2017","04","03","12:00","3.5","","1.8","","89","","18","","9","","","","98.49","","","","","","NA"
"2017-04-03 13:00","2017","04","03","13:00","3.6","","2.5","","92","","19","","7","","","","98.48","","","","","","NA"
"2017-04-03 14:00","2017","04","03","14:00","3.4","","2.2","","92","","19","","6","","","","98.44","","","","","","NA"
"2017-04-03 15:00","2017","04","03","15:00","4.0","","2.6","","91","","18","","6","","","","98.39","","","","","","NA"
"2017-04-03 16:00","2017","04","03","16:00","4.4","","2.6","","88","","19","","7","","","","98.35","","","","","","NA"
"2017-04-03 17:00","2017","04","03","17:00","4.8","","3.0","","88","","22","","4","","","","98.29","","","","","","NA"
"2017-04-03 18:00","2017","04","03","18:00","4.7","","2.9","","88","","28","","2","","","","98.29","","","","","","NA"
"2017-04-03 19:00","2017","04","03","19:00","3.9","","2.1","","88","","","","0","","","","98.26","","","","","","NA"
"2017-04-03 20:00","2017","04","03","20:00","1.3","","-0.1","","90","","4","","6","","","","98.26","","","","","","NA"
"2017-04-03 21:00","2017","04","03","21:00","2.6","","1.9","","95","","5","","6","","","","98.21","","","","","","NA"
"2017-04-03 22:00","2017","04","03","22:00","2.4","","1.8","","96","","4","","9","","","","98.24","","","","","","NA"
"2017-04-03 23:00","2017","04","03","23:00","2.1","","1.5","","96","","5","","7","","","","98.24","","","","","","NA"
"2017-04-04 00:00","2017","04","04","00:00","1.2","","0.7","","97","","4","","8","","","","98.17","","","","","","NA"
"2017-04-04 01:00","2017","04","04","01:00","1.0","","0.6","","97","","4","","9","","","","98.12","","","","","","NA"
"2017-04-04 02:00","2017","04","04","02:00","0.7","","0.2","","97","","5","","9","","","","98.08","","","","","","NA"
"2017-04-04 03:00","2017","04","04","03:00","0.1","","-0.3","","97","","5","","10","","","","98.02","","","","","","NA"
"2017-04-04 04:00","2017","04","04","04:00","0.3","","-0.1","","97","","5","","9","","","","98.01","","","","","","NA"
"2017-04-04 05:00","2017","04","04","05:00","0.6","","0.1","","97","","5","","10","","","","98.01","","","","","","NA"
"2017-04-04 06:00","2017","04","04","06:00","0.2","","-0.2","","97","","4","","9","","","","98.05","","","","","","NA"
"2017-04-04 07:00","2017","04","04","07:00","0.5","","0.0","","96","","4","","11","","","","98.10","","","","","","NA"
"2017-04-04 08:00","2017","04","04","08:00","1.7","","0.7","","93","","4","","12","","","","98.16","","","","","","NA"
"2017-04-04 09:00","2017","04","04","09:00","4.1","","0.3","","76","","4","","14","","","","98.18","","","","","","NA"
"2017-04-04 10:00","2017","04","04","10:00","6.3","","-0.5","","62","","3","","18","","","","98.20","","","","","","NA"
"2017-04-04 11:00","2017","04","04","11:00","8.1","","0.0","","56","","36","","11","","","","98.24","","","","","","NA"
"2017-04-04 12:00","2017","04","04","12:00","9.4","","-1.3","","47","","35","","11","","","","98.25","","","","","","NA"
"2017-04-04 13:00","2017","04","04","13:00","10.9","","-1.9","","41","","1","","11","","","","98.28","","","","","","NA"
"2017-04-04 14:00","2017","04","04","14:00","11.1","","-3.6","","35","","36","","10","","","","98.31","","","","","","NA"
"2017-04-04 15:00","2017","04","04","15:00","10.9","","-5.4","","31","","35","","9","","","","98.36","","","","","","NA"
"2017-04-04 16:00","2017","04","04","16:00","10.8","","-3.9","","35","","31","","8","","","","98.41","","","","","","NA"
"2017-04-04 17:00","2017","04","04","17:00","10.8","","-5.9","","31","","32","","6","","","","98.49","","","","","","NA"
"2017-04-04 18:00","2017","04","04","18:00","9.2","","-5.2","","36","","34","","6","","","","98.59","","","","","","NA"
"2017-04-04 19:00","2017","04","04","19:00","6.7","","-4.2","","45","","31","","8","","","","98.73","","","","","","NA"
"2017-04-04 20:00","2017","04","04","20:00","5.3","","-4.1","","51","","31","","7","","","","98.83","","","","","","NA"
"2017-04-04 21:00","2017","04","04","21:00","3.8","","-5.3","","51","","32","","4","","","","98.93","","","","","","NA"
"2017-04-04 22:00","2017","04","04","22:00","5.0","","-5.3","","47","","36","","6","","","","98.95","","","","","","NA"
"2017-04-04 23:00","2017","04","04","23:00","0.2","","-6.6","","60","","","","0","","","","98.99","","","","","","NA"
"2017-04-05 00:00","2017","04","05","00:00","-1.2","","-6.4","","68","","5","","4","","","","98.99","","","","-3","","NA"
"2017-04-05 01:00","2017","04","05","01:00","-2.2","","-5.7","","77","","2","","2","","","","99.00","","","","-3","","NA"
"2017-04-05 02:00","2017","04","05","02:00","-1.9","","-5.3","","78","","5","","6","","","","99.02","","","","-4","","NA"
"2017-04-05 03:00","2017","04","05","03:00","-2.2","","-5.3","","79","","5","","9","","","","99.01","","","","-6","","NA"
"2017-04-05 04:00","2017","04","05","04:00","-2.4","","-5.3","","81","","5","","7","","","","99.04","","","","-5","","NA"
"2017-04-05 05:00","2017","04","05","05:00","-2.5","","-5.0","","83","","6","","4","","","","99.13","","","","-4","","NA"
"2017-04-05 06:00","2017","04","05","06:00","-2.1","","-4.8","","82","","5","","4","","","","99.17","","","","-4","","NA"
"2017-04-05 07:00","2017","04","05","07:00","-1.8","","-4.5","","82","","5","","6","","","","99.20","","","","-4","","NA"
"2017-04-05 08:00","2017","04","05","08:00","-0.8","","-4.0","","79","","4","","8","","","","99.21","","","","-4","","NA"
"2017-04-05 09:00","2017","04","05","09:00","2.4","","-2.9","","68","","3","","8","","","","99.19","","","","","","NA"
"2017-04-05 10:00","2017","04","05","10:00","5.3","","-3.8","","52","","3","","10","","","","99.17","","","","","","NA"
"2017-04-05 11:00","2017","04","05","11:00","6.7","","-5.3","","42","","7","","5","","","","99.19","","","","","","NA"
"2017-04-05 12:00","2017","04","05","12:00","7.8","","-5.1","","40","","3","","4","","","","99.16","","","","","","NA"
"2017-04-05 13:00","2017","04","05","13:00","8.9","","-4.5","","38","","31","","3","","","","99.10","","","","","","NA"
"2017-04-05 14:00","2017","04","05","14:00","9.0","","-5.7","","35","","29","","6","","","","99.06","","","","","","NA"
"2017-04-05 15:00","2017","04","05","15:00","9.3","","-5.5","","35","","29","","8","","","","99.04","","","","","","NA"
"2017-04-05 16:00","2017","04","05","16:00","6.6","","-4.2","","46","","29","","7","","","","99.05","","","","","","NA"
"2017-04-05 17:00","2017","04","05","17:00","6.6","","-3.9","","47","","25","","7","","","","99.09","","","","","","NA"
"2017-04-05 18:00","2017","04","05","18:00","6.0","","-4.1","","48","","31","","2","","","","99.15","","","","","","NA"
"2017-04-05 19:00","2017","04","05","19:00","5.9","","-4.4","","47","","36","","7","","","","99.19","","","","","","NA"
"2017-04-05 20:00","2017","04","05","20:00","4.9","","-5.5","","47","","3","","11","","","","99.27","","","","","","NA"
"2017-04-05 21:00","2017","04","05","21:00","3.9","","-5.6","","50","","3","","13","","","","99.32","","","","","","NA"
"2017-04-05 22:00","2017","04","05","22:00","3.1","","-5.5","","53","","3","","13","","","","99.33","","","","","","NA"
"2017-04-05 23:00","2017","04","05","23:00","2.3","","-5.6","","56","","4","","14","","","","99.34","","","","","","NA"
"2017-04-06 00:00","2017","04","06","00:00","1.6","","-5.8","","58","","4","","12","","","","99.40","","","","","","NA"
"2017-04-06 01:00","2017","04","06","01:00","0.5","","-5.7","","63","","4","","10","","","","99.38","","","","","","NA"
"2017-04-06 02:00","2017","04","06","02:00","-0.2","","-5.8","","66","","5","","8","","","","99.40","","","","-3","","NA"
"2017-04-06 03:00","2017","04","06","03:00","-1.6","","-5.8","","73","","3","","8","","","","99.32","","","","-5","","NA"
"2017-04-06 04:00","2017","04","06","04:00","-2.1","","-5.8","","75","","1","","3","","","","99.40","","","","-3","","NA"
"2017-04-06 05:00","2017","04","06","05:00","-1.5","","-5.6","","74","","4","","9","","","","99.42","","","","-5","","NA"
"2017-04-06 06:00","2017","04","06","06:00","-1.2","","-5.8","","71","","3","","10","","","","99.47","","","","-5","","NA"
"2017-04-06 07:00","2017","04","06","07:00","-1.2","","-5.9","","71","","3","","14","","","","99.54","","","","-6","","NA"
"2017-04-06 08:00","2017","04","06","08:00","-0.4","","-5.8","","67","","3","","15","","","","99.52","","","","-5","","NA"
"2017-04-06 09:00","2017","04","06","09:00","1.1","","-6.6","","57","","2","","16","","","","99.53","","","","","","NA"
"2017-04-06 10:00","2017","04","06","10:00","2.6","","-7.1","","49","","3","","16","","","","99.53","","","","","","NA"
"2017-04-06 11:00","2017","04","06","11:00","3.7","","-6.8","","46","","2","","18","","","","99.51","","","","","","NA"
"2017-04-06 12:00","2017","04","06","12:00","5.1","","-6.8","","42","","3","","15","","","","99.47","","","","","","NA"
"2017-04-06 13:00","2017","04","06","13:00","6.2","","-7.4","","37","","2","","18","","","","99.47","","","","","","NA"
"2017-04-06 14:00","2017","04","06","14:00","6.7","","-8.0","","34","","36","","18","","","","99.44","","","","","","NA"
"2017-04-06 15:00","2017","04","06","15:00","7.9","","-8.7","","30","","3","","13","","","","99.46","","","","","","NA"
"2017-04-06 16:00","2017","04","06","16:00","8.1","","-9.6","","27","","2","","16","","","","99.45","","","","","","NA"
"2017-04-06 17:00","2017","04","06","17:00","8.3","","-10.2","","26","","3","","13","","","","99.45","","","","","","NA"
"2017-04-06 18:00","2017","04","06","18:00","7.5","","-9.8","","28","","2","","17","","","","99.47","","","","","","NA"
"2017-04-06 19:00","2017","04","06","19:00","6.0","","-9.5","","32","","1","","12","","","","99.54","","","","","","NA"
"2017-04-06 20:00","2017","04","06","20:00","4.5","","-10.2","","33","","2","","10","","","","99.60","","","","","","NA"
"2017-04-06 21:00","2017","04","06","21:00","3.0","","-10.3","","37","","1","","8","","","","99.62","","","","","","NA"
"2017-04-06 22:00","2017","04","06","22:00","2.5","","-12.3","","33","","1","","9","","","","99.62","","","","","","NA"
"2017-04-06 23:00","2017","04","06","23:00","1.5","","-11.9","","36","","3","","11","","","","99.61","","","","","","NA"
"2017-04-07 00:00","2017","04","07","00:00","0.8","","-11.8","","38","","3","","14","","","","99.59","","","","","","NA"
"2017-04-07 01:00","2017","04","07","01:00","0.4","","-10.8","","43","","3","","15","","","","99.56","","","","","","NA"
"2017-04-07 02:00","2017","04","07","02:00","0.0","","-10.9","","44","","3","","14","","","","99.53","","","","-4","","NA"
"2017-04-07 03:00","2017","04","07","03:00","-0.5","","-10.7","","46","","3","","12","","","","99.52","","","","-4","","NA"
"2017-04-07 04:00","2017","04","07","04:00","-1.5","","-10.7","","50","","4","","4","","","","99.53","","","","-3","","NA"
"2017-04-07 05:00","2017","04","07","05:00","-2.2","","-10.2","","54","","34","","2","","","","99.58","","","","-3","","NA"
"2017-04-07 06:00","2017","04","07","06:00","-2.4","","-10.3","","54","","1","","5","","","","99.57","","","","-4","","NA"
"2017-04-07 07:00","2017","04","07","07:00","-2.7","","-9.5","","60","","3","","7","","","","99.61","","","","-6","","NA"
"2017-04-07 08:00","2017","04","07","08:00","-0.4","","-9.5","","50","","2","","8","","","","99.62","","","","-3","","NA"
"2017-04-07 09:00","2017","04","07","09:00","2.7","","-9.0","","42","","35","","5","","","","99.59","","","","","","NA"
"2017-04-07 10:00","2017","04","07","10:00","5.9","","-6.3","","41","","35","","9","","","","99.55","","","","","","NA"
"2017-04-07 11:00","2017","04","07","11:00","7.4","","-7.5","","34","","2","","12","","","","99.49","","","","","","NA"
"2017-04-07 12:00","2017","04","07","12:00","8.9","","-7.8","","30","","1","","9","","","","99.42","","","","","","NA"
"2017-04-07 13:00","2017","04","07","13:00","7.5","","-3.5","","46","","24","","10","","","","99.36","","","","","","NA"
"2017-04-07 14:00","2017","04","07","14:00","7.8","","-3.7","","44","","26","","11","","","","99.33","","","","","","NA"
"2017-04-07 15:00","2017","04","07","15:00","7.2","","-3.3","","47","","27","","13","","","","99.27","","","","","","NA"
"2017-04-07 16:00","2017","04","07","16:00","7.1","","-4.0","","45","","28","","12","","","","99.22","","","","","","NA"
"2017-04-07 17:00","2017","04","07","17:00","6.5","","-3.5","","49","","27","","9","","","","99.18","","","","","","NA"
"2017-04-07 18:00","2017","04","07","18:00","4.8","","-2.8","","58","","26","","8","","","","99.15","","","","","","NA"
"2017-04-07 19:00","2017","04","07","19:00","2.8","","-2.4","","68","","24","","6","","","","99.13","","","","","","NA"
"2017-04-07 20:00","2017","04","07","20:00","0.8","","-2.6","","78","","19","","5","","","","99.12","","","","","","NA"
"2017-04-07 21:00","2017","04","07","21:00","-0.6","","-3.3","","82","","17","","6","","","","99.11","","","","-3","","NA"
"2017-04-07 22:00","2017","04","07","22:00","-1.7","","-3.9","","85","","20","","3","","","","99.06","","","","-3","","NA"
"2017-04-07 23:00","2017","04","07","23:00","-2.0","","-3.9","","87","","25","","3","","","","99.05","","","","-3","","NA"
"2017-04-08 00:00","2017","04","08","00:00","-2.6","","-4.3","","88","","0","","1","","","","99.00","","","","-3","","NA"
"2017-04-08 01:00","2017","04","08","01:00","-3.1","","-4.6","","90","","2","","2","","","","98.96","","","","-4","","NA"
"2017-04-08 02:00","2017","04","08","02:00","-3.1","","-4.7","","89","","3","","3","","","","98.97","","","","-4","","NA"
"2017-04-08 03:00","2017","04","08","03:00","-3.7","","-5.3","","89","","0","","1","","","","98.98","","","","-4","","NA"
"2017-04-08 04:00","2017","04","08","04:00","-4.5","","-5.7","","91","","24","","3","","","","98.93","","","","-6","","NA"
"2017-04-08 05:00","2017","04","08","05:00","-3.4","","-4.1","","95","","32","","2","","","","98.90","","","","-4","","NA"
"2017-04-08 06:00","2017","04","08","06:00","-4.4","","-5.5","","92","","4","","4","","","","98.91","","","","-6","","NA"
"2017-04-08 07:00","2017","04","08","07:00","-4.7","","-5.9","","91","","5","","5","","","","98.87","","","","-7","","NA"
"2017-04-08 08:00","2017","04","08","08:00","-0.9","","-2.6","","88","","19","","8","","","","98.84","","","","-4","","NA"
"2017-04-08 09:00","2017","04","08","09:00","5.3","","-4.2","","50","","19","","11","","","","98.77","","","","","","NA"
"2017-04-08 10:00","2017","04","08","10:00","5.7","","-3.8","","50","","19","","12","","","","98.74","","","","","","NA"
"2017-04-08 11:00","2017","04","08","11:00","7.1","","-4.1","","45","","19","","10","","","","98.71","","","","","","NA"
"2017-04-08 12:00","2017","04","08","12:00","7.9","","-3.7","","44","","19","","13","","","","98.70","","","","","","NA"
"2017-04-08 13:00","2017","04","08","13:00","8.5","","-4.6","","39","","18","","15","","","","98.64","","","","","","NA"
"2017-04-08 14:00","2017","04","08","14:00","8.1","","-3.0","","45","","19","","14","","","","98.56","","","","","","NA"
"2017-04-08 15:00","2017","04","08","15:00","9.3","","-3.4","","41","","19","","14","","","","98.53","","","","","","NA"
"2017-04-08 16:00","2017","04","08","16:00","11.1","","-5.3","","31","","18","","17","","","","98.42","","","","","","NA"
"2017-04-08 17:00","2017","04","08","17:00","12.4","","-5.2","","29","","18","","16","","","","98.30","","","","","","NA"
"2017-04-08 18:00","2017","04","08","18:00","12.0","","-5.0","","30","","18","","15","","","","98.23","","","","","","NA"
"2017-04-08 19:00","2017","04","08","19:00","11.2","","-4.8","","32","","17","","12","","","","98.17","","","","","","NA"
"2017-04-08 20:00","2017","04","08","20:00","10.1","","-4.7","","35","","17","","10","","","","98.11","","","","","","NA"
"2017-04-08 21:00","2017","04","08","21:00","10.4","","-4.3","","35","","17","","15","","","","98.09","","","","","","NA"
"2017-04-08 22:00","2017","04","08","22:00","10.3","","-3.9","","37","","17","","17","","","","98.05","","","","","","NA"
"2017-04-08 23:00","2017","04","08","23:00","9.2","","-1.9","","46","","17","","19","","","","98.03","","","","","","NA"
"2017-04-09 00:00","2017","04","09","00:00","9.1","","-0.9","","50","","18","","18","","","","97.98","","","","","","NA"
"2017-04-09 01:00","2017","04","09","01:00","8.7","","-0.3","","53","","18","","17","","","","97.95","","","","","","NA"
"2017-04-09 02:00","2017","04","09","02:00","9.3","","0.9","","56","","17","","16","","","","97.84","","","","","","NA"
"2017-04-09 03:00","2017","04","09","03:00","9.4","","1.7","","59","","18","","14","","","","97.75","","","","","","NA"
"2017-04-09 04:00","2017","04","09","04:00","8.9","","1.5","","60","","17","","17","","","","97.76","","","","","","NA"
"2017-04-09 05:00","2017","04","09","05:00","8.6","","2.1","","63","","18","","15","","","","97.73","","","","","","NA"
"2017-04-09 06:00","2017","04","09","06:00","8.8","","2.6","","65","","18","","15","","","","97.78","","","","","","NA"
"2017-04-09 07:00","2017","04","09","07:00","8.7","","2.9","","67","","19","","13","","","","97.85","","","","","","NA"
"2017-04-09 08:00","2017","04","09","08:00","7.4","","2.7","","72","","20","","8","","","","97.90","","","","","","NA"
"2017-04-09 09:00","2017","04","09","09:00","8.0","","3.0","","71","","19","","10","","","","97.97","","","","","","NA"
"2017-04-09 10:00","2017","04","09","10:00","8.9","","2.9","","66","","19","","8","","","","98.00","","","","","","NA"
"2017-04-09 11:00","2017","04","09","11:00","8.3","","2.3","","66","","23","","9","","","","98.04","","","","","","NA"
"2017-04-09 12:00","2017","04","09","12:00","8.9","","3.5","","69","","26","","6","","","","98.00","","","","","","NA"
"2017-04-09 13:00","2017","04","09","13:00","7.1","","2.7","","74","","20","","6","","","","98.13","","","","","","NA"
"2017-04-09 14:00","2017","04","09","14:00","7.5","","2.2","","69","","24","","6","","","","98.13","","","","","","NA"
"2017-04-09 15:00","2017","04","09","15:00","6.2","","2.0","","75","","24","","7","","","","98.20","","","","","","NA"
"2017-04-09 16:00","2017","04","09","16:00","6.4","","2.4","","76","","24","","4","","","","98.21","","","","","","NA"
"2017-04-09 17:00","2017","04","09","17:00","6.3","","2.6","","77","","24","","7","","","","98.19","","","","","","NA"
"2017-04-09 18:00","2017","04","09","18:00","7.3","","3.6","","78","","","","0","","","","98.15","","","","","","NA"
"2017-04-09 19:00","2017","04","09","19:00","7.1","","3.2","","76","","24","","2","","","","98.20","","","","","","NA"
"2017-04-09 20:00","2017","04","09","20:00","3.9","","1.1","","82","","18","","2","","","","98.26","","","","","","NA"
"2017-04-09 21:00","2017","04","09","21:00","1.7","","-0.3","","86","","3","","1","","","","98.27","","","","","","NA"
"2017-04-09 22:00","2017","04","09","22:00","1.5","","-0.1","","89","","4","","7","","","","98.28","","","","","","NA"
"2017-04-09 23:00","2017","04","09","23:00","2.2","","0.0","","86","","3","","7","","","","98.57","","","","","","NA"
"2017-04-10 00:00","2017","04","10","00:00","3.5","","1.7","","88","","3","","10","","","","98.36","","","","","","NA"
"2017-04-10 01:00","2017","04","10","01:00","5.0","","0.9","","75","","4","","20","","","","98.39","","","","","","NA"
"2017-04-10 02:00","2017","04","10","02:00","3.3","","-0.3","","77","","4","","25","","","","98.40","","","","","","NA"
"2017-04-10 03:00","2017","04","10","03:00","2.4","","-1.6","","75","","4","","18","","","","98.54","","","","","","NA"
"2017-04-10 04:00","2017","04","10","04:00","0.8","","-2.2","","80","","3","","16","","","","98.68","","","","","","NA"
"2017-04-10 05:00","2017","04","10","05:00","-0.6","","-2.2","","89","","4","","15","","","","98.75","","","","-5","","NA"
"2017-04-10 06:00","2017","04","10","06:00","-1.5","","-3.4","","87","","3","","20","","","","98.76","","","","-7","","NA"
"2017-04-10 07:00","2017","04","10","07:00","-2.2","","-5.0","","81","","3","","22","","","","98.90","","","","-8","","NA"
"2017-04-10 08:00","2017","04","10","08:00","-2.4","","-5.6","","79","","4","","26","","","","98.94","","","","-9","","NA"
"2017-04-10 09:00","2017","04","10","09:00","-2.6","","-6.7","","73","","3","","26","","","","99.04","","","","-9","","NA"
"2017-04-10 10:00","2017","04","10","10:00","-2.5","","-7.6","","68","","4","","21","","","","99.30","","","","-9","","NA"
"2017-04-10 11:00","2017","04","10","11:00","-1.3","","-7.5","","62","","4","","25","","","","99.31","","","","-8","","NA"
"2017-04-10 12:00","2017","04","10","12:00","0.6","","-7.3","","55","","3","","19","","","","99.42","","","","","","NA"
"2017-04-10 13:00","2017","04","10","13:00","1.6","","-7.9","","49","","3","","21","","","","99.46","","","","","","NA"
"2017-04-10 14:00","2017","04","10","14:00","4.0","","-9.5","","37","","4","","16","","","","99.47","","","","","","NA"
"2017-04-10 15:00","2017","04","10","15:00","4.5","","-11.2","","31","","3","","15","","","","99.55","","","","","","NA"
"2017-04-10 16:00","2017","04","10","16:00","5.2","","-10.6","","31","","3","","16","","","","99.64","","","","","","NA"
"2017-04-10 17:00","2017","04","10","17:00","5.0","","-12.5","","27","","3","","15","","","","99.72","","","","","","NA"
"2017-04-10 18:00","2017","04","10","18:00","4.9","","-13.9","","24","","6","","15","","","","99.78","","","","","","NA"
"2017-04-10 19:00","2017","04","10","19:00","3.4","","-12.5","","30","","4","","11","","","","99.78","","","","","","NA"
"2017-04-10 20:00","2017","04","10","20:00","1.7","","-12.3","","35","","3","","10","","","","99.86","","","","","","NA"
"2017-04-10 21:00","2017","04","10","21:00","0.7","","-13.1","","35","","5","","11","","","","99.98","","","","","","NA"
"2017-04-10 22:00","2017","04","10","22:00","-0.2","","-13.1","","37","","4","","10","","","","100.00","","","","-4","","NA"
"2017-04-10 23:00","2017","04","10","23:00","-0.9","","-12.6","","41","","5","","7","","","","100.03","","","","-3","","NA"
"2017-04-11 00:00","2017","04","11","00:00","-1.6","","-11.7","","46","","3","","8","","","","100.04","","","","-5","","NA"
"2017-04-11 01:00","2017","04","11","01:00","-2.0","","-11.4","","49","","4","","10","","","","100.03","","","","-6","","NA"
"2017-04-11 02:00","2017","04","11","02:00","-2.0","","-11.1","","50","","4","","15","","","","99.95","","","","-7","","NA"
"2017-04-11 03:00","2017","04","11","03:00","-2.5","","-11.0","","52","","5","","14","","","","99.97","","","","-7","","NA"
"2017-04-11 04:00","2017","04","11","04:00","-3.1","","-11.0","","55","","5","","9","","","","100.00","","","","-7","","NA"
"2017-04-11 05:00","2017","04","11","05:00","-3.8","","-10.8","","58","","4","","11","","","","99.99","","","","-8","","NA"
"2017-04-11 06:00","2017","04","11","06:00","-4.4","","-10.8","","61","","4","","10","","","","99.98","","","","-9","","NA"
"2017-04-11 07:00","2017","04","11","07:00","-4.3","","-11.3","","58","","5","","11","","","","100.01","","","","-9","","NA"
"2017-04-11 08:00","2017","04","11","08:00","-2.8","","-12.6","","47","","7","","13","","","","100.07","","","","-7","","NA"
"2017-04-11 09:00","2017","04","11","09:00","-0.7","","-15.2","","32","","5","","16","","","","100.02","","","","-5","","NA"
"2017-04-11 10:00","2017","04","11","10:00","2.1","","-15.7","","26","","5","","14","","","","99.94","","","","","","NA"
"2017-04-11 11:00","2017","04","11","11:00","4.6","","-15.3","","22","","5","","12","","","","99.86","","","","","","NA"
"2017-04-11 12:00","2017","04","11","12:00","6.6","","-18.8","","14","","8","","18","","","","99.82","","","","","","NA"
"2017-04-11 13:00","2017","04","11","13:00","8.0","","-18.0","","14","","4","","14","","","","99.75","","","","","","NA"
"2017-04-11 14:00","2017","04","11","14:00","9.1","","-18.3","","13","","6","","13","","","","99.74","","","","","","NA"
"2017-04-11 15:00","2017","04","11","15:00","9.9","","-18.5","","12","","8","","12","","","","99.67","","","","","","NA"
"2017-04-11 16:00","2017","04","11","16:00","4.2","","-6.7","","45","","19","","12","","","","99.73","","","","","","NA"
"2017-04-11 17:00","2017","04","11","17:00","3.3","","-4.2","","58","","18","","9","","","","99.77","","","","","","NA"
"2017-04-11 18:00","2017","04","11","18:00","1.7","","-3.2","","70","","18","","9","","","","99.82","","","","","","NA"
"2017-04-11 19:00","2017","04","11","19:00","1.1","","-3.0","","74","","18","","8","","","","99.87","","","","","","NA"
"2017-04-11 20:00","2017","04","11","20:00","0.9","","-2.9","","76","","20","","7","","","","99.88","","","","","","NA"
"2017-04-11 21:00","2017","04","11","21:00","-0.2","","-3.0","","81","","20","","5","","","","99.94","","","","-2","","NA"
"2017-04-11 22:00","2017","04","11","22:00","-0.6","","-2.9","","85","","19","","6","","","","99.97","","","","-3","","NA"
"2017-04-11 23:00","2017","04","11","23:00","-0.4","","-2.3","","87","","19","","6","","","","99.98","","","","-2","","NA"
"2017-04-12 00:00","2017","04","12","00:00","-1.1","","-2.9","","88","","19","","4","","","","99.98","","","","-2","","NA"
"2017-04-12 01:00","2017","04","12","01:00","-2.3","","-3.8","","89","","17","","1","","","","99.97","","","","-3","","NA"
"2017-04-12 02:00","2017","04","12","02:00","-2.9","","-4.1","","91","","1","","2","","","","99.95","","","","-4","","NA"
"2017-04-12 03:00","2017","04","12","03:00","-3.0","","-4.3","","91","","5","","6","","","","99.96","","","","-5","","NA"
"2017-04-12 04:00","2017","04","12","04:00","-3.5","","-4.7","","91","","4","","4","","","","99.97","","","","-5","","NA"
"2017-04-12 05:00","2017","04","12","05:00","-4.1","","-5.2","","92","","5","","8","","","","100.01","","","","-8","","NA"
"2017-04-12 06:00","2017","04","12","06:00","-4.6","","-5.6","","93","","5","","7","","","","100.06","","","","-8","","NA"
"2017-04-12 07:00","2017","04","12","07:00","-4.5","","-5.4","","93","","4","","7","","","","100.12","","","","-8","","NA"
"2017-04-12 08:00","2017","04","12","08:00","-2.1","","-3.5","","90","","4","","5","","","","100.18","","","","-4","","NA"
"2017-04-12 09:00","2017","04","12","09:00","1.0","","-1.4","","84","","0","","1","","","","100.20","","","","","","NA"
"2017-04-12 10:00","2017","04","12","10:00","3.0","","-1.3","","73","","31","","2","","","","100.23","","","","","","NA"
"2017-04-12 11:00","2017","04","12","11:00","4.3","","-2.2","","63","","24","","9","","","","100.30","","","","","","NA"
"2017-04-12 12:00","2017","04","12","12:00","3.8","","-1.8","","67","","23","","11","","","","100.36","","","","","","NA"
"2017-04-12 13:00","2017","04","12","13:00","4.6","","-1.1","","66","","24","","9","","","","100.38","","","","","","NA"
"2017-04-12 14:00","2017","04","12","14:00","5.4","","-1.8","","60","","24","","9","","","","100.35","","","","","","NA"
"2017-04-12 15:00","2017","04","12","15:00","5.6","","-1.7","","59","","24","","8","","","","100.36","","","","","","NA"
"2017-04-12 16:00","2017","04","12","16:00","5.7","","0.6","","70","","25","","9","","","","100.39","","","","","","NA"
"2017-04-12 17:00","2017","04","12","17:00","4.9","","-0.5","","68","","26","","9","","","","100.38","","","","","","NA"
"2017-04-12 18:00","2017","04","12","18:00","3.4","","-0.4","","76","","22","","10","","","","100.47","","","","","","NA"
"2017-04-12 19:00","2017","04","12","19:00","2.2","","-0.7","","81","","23","","4","","","","100.48","","","","","","NA"
"2017-04-12 20:00","2017","04","12","20:00","0.0","","-1.9","","86","","17","","4","","","","100.53","","","","-1","","NA"
"2017-04-12 21:00","2017","04","12","21:00","-1.3","","-2.7","","90","","20","","5","","","","100.60","","","","-3","","NA"
"2017-04-12 22:00","2017","04","12","22:00","-0.8","","-1.7","","94","","","","0","","","","100.59","","","","","","NA"
"2017-04-12 23:00","2017","04","12","23:00","-1.1","","-1.8","","95","","3","","3","","","","100.57","","","","-2","","NA"
"2017-04-13 00:00","2017","04","13","00:00","-1.5","","-1.9","","97","","5","","5","","","","100.56","","","","-3","","NA"
"2017-04-13 01:00","2017","04","13","01:00","-2.6","","-3.1","","97","","5","","4","","","","100.62","","","","-4","","NA"
"2017-04-13 02:00","2017","04","13","02:00","-3.0","","-3.4","","97","","4","","6","","","","100.60","","","","-5","","NA"
"2017-04-13 03:00","2017","04","13","03:00","-3.6","","-4.2","","96","","4","","7","","","","100.58","","","","-7","","NA"
"2017-04-13 04:00","2017","04","13","04:00","-4.0","","-4.6","","95","","4","","8","","","","100.59","","","","-7","","NA"
"2017-04-13 05:00","2017","04","13","05:00","-4.5","","-5.3","","94","","4","","11","","","","100.60","","","","-9","","NA"
"2017-04-13 06:00","2017","04","13","06:00","-4.9","","-5.8","","93","","4","","10","","","","100.63","","","","-9","","NA"
"2017-04-13 07:00","2017","04","13","07:00","-4.6","","-5.5","","93","","5","","9","","","","100.68","","","","-8","","NA"
"2017-04-13 08:00","2017","04","13","08:00","-2.4","","-3.5","","92","","4","","7","","","","100.68","","","","-5","","NA"
"2017-04-13 09:00","2017","04","13","09:00","1.2","","-2.2","","78","","4","","4","","","","100.67","","","","","","NA"
"2017-04-13 10:00","2017","04","13","10:00","6.9","","-4.2","","45","","20","","8","","","","100.64","","","","","","NA"
"2017-04-13 11:00","2017","04","13","11:00","8.3","","-5.5","","37","","20","","9","","","","100.64","","","","","","NA"
"2017-04-13 12:00","2017","04","13","12:00","6.8","","-5.1","","43","","25","","11","","","","100.63","","","","","","NA"
"2017-04-13 13:00","2017","04","13","13:00","6.4","","-3.9","","47","","24","","9","","","","100.61","","","","","","NA"
"2017-04-13 14:00","2017","04","13","14:00","7.6","","-1.3","","53","","24","","7","","","","100.61","","","","","","NA"
"2017-04-13 15:00","2017","04","13","15:00","7.5","","-1.6","","52","","22","","7","","","","100.56","","","","","","NA"
"2017-04-13 16:00","2017","04","13","16:00","7.2","","-1.2","","55","","20","","9","","","","100.55","","","","","","NA"
"2017-04-13 17:00","2017","04","13","17:00","6.3","","-1.7","","57","","23","","8","","","","100.52","","","","","","NA"
"2017-04-13 18:00","2017","04","13","18:00","5.2","","-1.4","","62","","22","","7","","","","100.50","","","","","","NA"
"2017-04-13 19:00","2017","04","13","19:00","3.6","","-1.2","","71","","24","","4","","","","100.47","","","","","","NA"
"2017-04-13 20:00","2017","04","13","20:00","1.1","","-2.4","","78","","21","","1","","","","100.50","","","","","","NA"
"2017-04-13 21:00","2017","04","13","21:00","-1.2","","-3.8","","82","","","","0","","","","100.52","","","","","","NA"
"2017-04-13 22:00","2017","04","13","22:00","-1.9","","-4.1","","85","","2","","4","","","","100.49","","","","-3","","NA"
"2017-04-13 23:00","2017","04","13","23:00","-1.7","","-3.4","","88","","3","","5","","","","100.50","","","","-4","","NA"
"2017-04-14 00:00","2017","04","14","00:00","-2.2","","-3.9","","88","","4","","3","","","","100.50","","","","-3","","NA"
"2017-04-14 01:00","2017","04","14","01:00","-2.1","","-3.6","","90","","4","","6","","","","100.51","","","","-4","","NA"
"2017-04-14 02:00","2017","04","14","02:00","-2.0","","-3.5","","90","","4","","8","","","","100.55","","","","-5","","NA"
"2017-04-14 03:00","2017","04","14","03:00","-2.5","","-3.9","","90","","5","","9","","","","100.50","","","","-6","","NA"
"2017-04-14 04:00","2017","04","14","04:00","-2.4","","-3.6","","91","","4","","11","","","","100.49","","","","-6","","NA"
"2017-04-14 05:00","2017","04","14","05:00","-2.6","","-3.8","","92","","5","","8","","","","100.51","","","","-6","","NA"
"2017-04-14 06:00","2017","04","14","06:00","-2.8","","-3.9","","92","","5","","11","","","","100.54","","","","-7","","NA"
"2017-04-14 07:00","2017","04","14","07:00","-2.2","","-3.5","","91","","4","","9","","","","100.55","","","","-6","","NA"
"2017-04-14 08:00","2017","04","14","08:00","0.2","","-1.7","","87","","4","","6","","","","100.55","","","","","","NA"
"2017-04-14 09:00","2017","04","14","09:00","5.0","","0.7","","73","","35","","2","","","","100.52","","","","","","NA"
"2017-04-14 10:00","2017","04","14","10:00","9.0","","-2.0","","46","","19","","11","","","","100.47","","","","","","NA"
"2017-04-14 11:00","2017","04","14","11:00","9.4","","-2.4","","44","","18","","10","","","","100.45","","","","","","NA"
"2017-04-14 12:00","2017","04","14","12:00","9.6","","-3.7","","39","","18","","14","","","","100.41","","","","","","NA"
"2017-04-14 13:00","2017","04","14","13:00","10.1","","-2.9","","40","","18","","13","","","","100.37","","","","","","NA"
"2017-04-14 14:00","2017","04","14","14:00","10.4","","-2.4","","41","","19","","12","","","","100.28","","","","","","NA"
"2017-04-14 15:00","2017","04","14","15:00","11.1","","-2.0","","40","","23","","8","","","","100.20","","","","","","NA"
"2017-04-14 16:00","2017","04","14","16:00","10.9","","-1.6","","42","","23","","9","","","","100.07","","","","","","NA"
"2017-04-14 17:00","2017","04","14","17:00","10.6","","-2.2","","41","","22","","7","","","","100.00","","","","","","NA"
"2017-04-14 18:00","2017","04","14","18:00","11.1","","-4.4","","33","","18","","8","","","","99.93","","","","","","NA"
"2017-04-14 19:00","2017","04","14","19:00","9.7","","-4.2","","37","","20","","3","","","","99.85","","","","","","NA"
"2017-04-14 20:00","2017","04","14","20:00","5.0","","-3.8","","53","","0","","1","","","","99.78","","","","","","NA"
"2017-04-14 21:00","2017","04","14","21:00","3.7","","-3.0","","61","","15","","3","","","","99.73","","","","","","NA"
"2017-04-14 22:00","2017","04","14","22:00","5.0","","-2.9","","57","","14","","4","","","","99.62","","","","","","NA"
"2017-04-14 23:00","2017","04","14","23:00","5.7","","-4.5","","48","","15","","5","","","","99.54","","","","","","NA"
"2017-04-15 00:00","2017","04","15","00:00","7.1","","-4.1","","45","","17","","7","","","","99.43","","","","","","NA"
"2017-04-15 01:00","2017","04","15","01:00","7.0","","-4.0","","45","","16","","4","","","","99.28","","","","","","NA"
"2017-04-15 02:00","2017","04","15","02:00","8.7","","-2.4","","45","","20","","7","","","","99.21","","","","","","NA"
"2017-04-15 03:00","2017","04","15","03:00","9.9","","0.3","","51","","18","","16","","","","99.14","","","","","","NA"
"2017-04-15 04:00","2017","04","15","04:00","10.3","","1.4","","54","","19","","10","","","","99.06","","","","","","NA"
"2017-04-15 05:00","2017","04","15","05:00","9.3","","1.0","","56","","18","","11","","","","98.98","","","","","","NA"
"2017-04-15 06:00","2017","04","15","06:00","8.9","","3.2","","68","","18","","10","","","","98.88","","","","","","NA"
"2017-04-15 07:00","2017","04","15","07:00","9.3","","3.8","","68","","19","","11","","","","98.77","","","","","","NA"
"2017-04-15 08:00","2017","04","15","08:00","9.7","","2.9","","63","","18","","12","","","","98.70","","","","","","NA"
"2017-04-15 09:00","2017","04","15","09:00","10.1","","4.5","","68","","17","","12","","","","98.62","","","","","","NA"
"2017-04-15 10:00","2017","04","15","10:00","10.1","","5.3","","72","","19","","12","","","","98.59","","","","","","NA"
"2017-04-15 11:00","2017","04","15","11:00","8.5","","5.4","","81","","18","","9","","","","98.53","","","","","","NA"
"2017-04-15 12:00","2017","04","15","12:00","8.5","","6.2","","86","","18","","9","","","","98.43","","","","","","NA"
"2017-04-15 13:00","2017","04","15","13:00","8.9","","6.1","","83","","19","","9","","","","98.37","","","","","","NA"
"2017-04-15 14:00","2017","04","15","14:00","6.9","","4.7","","85","","21","","6","","","","98.39","","","","","","NA"
"2017-04-15 15:00","2017","04","15","15:00","6.3","","4.8","","90","","18","","9","","","","98.36","","","","","","NA"
"2017-04-15 16:00","2017","04","15","16:00","5.7","","4.1","","90","","20","","7","","","","98.39","","","","","","NA"
"2017-04-15 17:00","2017","04","15","17:00","5.4","","4.2","","92","","24","","4","","","","98.43","","","","","","NA"
"2017-04-15 18:00","2017","04","15","18:00","5.2","","4.0","","92","","23","","2","","","","98.45","","","","","","NA"
"2017-04-15 19:00","2017","04","15","19:00","5.6","","4.2","","91","","","","0","","","","98.45","","","","","","NA"
"2017-04-15 20:00","2017","04","15","20:00","5.0","","3.3","","89","","8","","2","","","","98.51","","","","","","NA"
"2017-04-15 21:00","2017","04","15","21:00","4.3","","3.1","","91","","5","","4","","","","98.66","","","","","","NA"
"2017-04-15 22:00","2017","04","15","22:00","5.3","","4.3","","93","","3","","11","","","","98.72","","","","","","NA"
"2017-04-15 23:00","2017","04","15","23:00","2.8","","0.9","","87","","2","","10","","","","98.76","","","","","","NA"
"2017-04-16 00:00","2017","04","16","00:00","1.2","","-0.9","","86","","4","","15","","","","98.71","","","","","","NA"
"2017-04-16 01:00","2017","04","16","01:00","0.3","","-2.3","","82","","5","","15","","","","98.77","","","","","","NA"
"2017-04-16 02:00","2017","04","16","02:00","-0.4","","-3.1","","82","","4","","14","","","","98.78","","","","-5","","NA"
"2017-04-16 03:00","2017","04","16","03:00","-1.1","","-4.0","","81","","4","","17","","","","98.79","","","","-6","","NA"
"2017-04-16 04:00","2017","04","16","04:00","-1.7","","-4.6","","81","","5","","15","","","","98.79","","","","-7","","NA"
"2017-04-16 05:00","2017","04","16","05:00","-2.1","","-5.2","","79","","5","","13","","","","98.80","","","","-7","","NA"
"2017-04-16 06:00","2017","04","16","06:00","-2.4","","-5.8","","77","","5","","16","","","","98.91","","","","-8","","NA"
"2017-04-16 07:00","2017","04","16","07:00","-2.6","","-5.9","","78","","4","","16","","","","98.88","","","","-8","","NA"
"2017-04-16 08:00","2017","04","16","08:00","-2.5","","-5.9","","77","","5","","14","","","","98.87","","","","-7","","NA"
"2017-04-16 09:00","2017","04","16","09:00","-2.6","","-6.1","","77","","5","","12","","","","98.89","","","","-7","","NA"
"2017-04-16 10:00","2017","04","16","10:00","-2.0","","-6.1","","74","","6","","16","","","","98.81","","","","-7","","NA"
"2017-04-16 11:00","2017","04","16","11:00","-2.2","","-6.4","","73","","4","","12","","","","98.91","","","","-6","","NA"
"2017-04-16 12:00","2017","04","16","12:00","-2.7","","-4.3","","89","","5","","14","","","","98.83","","","","-8","","NA"
"2017-04-16 13:00","2017","04","16","13:00","-3.4","","-4.7","","91","","5","","14","","","","98.89","","","","-8","","NA"
"2017-04-16 14:00","2017","04","16","14:00","-3.5","","-4.4","","94","","3","","9","","","","99.04","","","","-7","","NA"
"2017-04-16 15:00","2017","04","16","15:00","-3.8","","-4.7","","93","","4","","12","","","","99.09","","","","-8","","NA"
"2017-04-16 16:00","2017","04","16","16:00","-3.5","","-4.4","","93","","3","","12","","","","99.16","","","","-8","","NA"
"2017-04-16 17:00","2017","04","16","17:00","-3.6","","-4.9","","91","","2","","9","","","","99.29","","","","-7","","NA"
"2017-04-16 18:00","2017","04","16","18:00","-4.1","","-5.5","","90","","4","","12","","","","99.33","","","","-9","","NA"
"2017-04-16 19:00","2017","04","16","19:00","-4.3","","-5.9","","89","","4","","12","","","","99.37","","","","-9","","NA"
"2017-04-16 20:00","2017","04","16","20:00","-4.5","","-6.1","","89","","4","","9","","","","99.51","","","","-8","","NA"
"2017-04-16 21:00","2017","04","16","21:00","-4.9","","-6.6","","88","","4","","10","","","","99.56","","","","-9","","NA"
"2017-04-16 22:00","2017","04","16","22:00","-5.5","","-7.1","","89","","2","","5","","","","99.65","","","","-8","","NA"
"2017-04-16 23:00","2017","04","16","23:00","-5.5","","-7.1","","88","","1","","5","","","","99.72","","","","-8","","NA"
"2017-04-17 00:00","2017","04","17","00:00","-5.5","","-7.7","","85","","3","","9","","","","99.80","","","","-10","","NA"
"2017-04-17 01:00","2017","04","17","01:00","-5.9","","-8.2","","84","","5","","12","","","","99.83","","","","-11","","NA"
"2017-04-17 02:00","2017","04","17","02:00","-6.2","","-8.6","","84","","5","","11","","","","99.82","","","","-11","","NA"
"2017-04-17 03:00","2017","04","17","03:00","-6.3","","-8.3","","85","","3","","8","","","","99.86","","","","-10","","NA"
"2017-04-17 04:00","2017","04","17","04:00","-6.6","","-8.6","","86","","5","","5","","","","99.93","","","","-9","","NA"
"2017-04-17 05:00","2017","04","17","05:00","-6.8","","-9.1","","84","","4","","9","","","","100.00","","","","-11","","NA"
"2017-04-17 06:00","2017","04","17","06:00","-6.9","","-9.2","","84","","4","","5","","","","100.10","","","","-9","","NA"
"2017-04-17 07:00","2017","04","17","07:00","-6.9","","-8.8","","86","","2","","7","","","","100.18","","","","-10","","NA"
"2017-04-17 08:00","2017","04","17","08:00","-6.5","","-9.1","","82","","5","","10","","","","100.25","","","","-11","","NA"
"2017-04-17 09:00","2017","04","17","09:00","-6.1","","-8.7","","82","","3","","10","","","","100.31","","","","-11","","NA"
"2017-04-17 10:00","2017","04","17","10:00","-5.5","","-8.7","","78","","4","","11","","","","100.36","","","","-10","","NA"
"2017-04-17 11:00","2017","04","17","11:00","-4.2","","-8.3","","73","","3","","10","","","","100.35","","","","-8","","NA"
"2017-04-17 12:00","2017","04","17","12:00","-2.6","","-7.5","","69","","4","","10","","","","100.33","","","","-6","","NA"
"2017-04-17 13:00","2017","04","17","13:00","-0.7","","-7.0","","62","","3","","8","","","","100.30","","","","-4","","NA"
"2017-04-17 14:00","2017","04","17","14:00","0.3","","-7.5","","55","","5","","8","","","","100.30","","","","","","NA"
"2017-04-17 15:00","2017","04","17","15:00","1.5","","-8.1","","49","","3","","11","","","","100.28","","","","","","NA"
"2017-04-17 16:00","2017","04","17","16:00","1.9","","-4.2","","64","","25","","9","","","","100.29","","","","","","NA"
"2017-04-17 17:00","2017","04","17","17:00","1.6","","-4.2","","65","","24","","9","","","","100.31","","","","","","NA"
"2017-04-17 18:00","2017","04","17","18:00","1.2","","-4.2","","67","","26","","8","","","","100.33","","","","","","NA"
"2017-04-17 19:00","2017","04","17","19:00","-0.1","","-4.5","","72","","27","","9","","","","100.43","","","","-3","","NA"
"2017-04-17 20:00","2017","04","17","20:00","-2.0","","-4.6","","82","","25","","6","","","","100.41","","","","-4","","NA"
"2017-04-17 21:00","2017","04","17","21:00","-3.0","","-5.2","","85","","22","","2","","","","100.39","","","","-4","","NA"
"2017-04-17 22:00","2017","04","17","22:00","-3.9","","-5.6","","88","","0","","1","","","","100.41","","","","-4","","NA"
"2017-04-17 23:00","2017","04","17","23:00","-4.8","","-6.2","","90","","2","","3","","","","100.36","","","","-6","","NA"
"2017-04-18 00:00","2017","04","18","00:00","-5.3","","-6.4","","92","","3","","3","","","","100.38","","","","-7","","NA"
"2017-04-18 01:00","2017","04","18","01:00","-5.9","","-6.9","","93","","4","","5","","","","100.36","","","","-8","","NA"
"2017-04-18 02:00","2017","04","18","02:00","-6.1","","-7.0","","93","","5","","6","","","","100.30","","","","-9","","NA"
"2017-04-18 03:00","2017","04","18","03:00","-6.2","","-7.1","","93","","4","","7","","","","100.29","","","","-10","","NA"
"2017-04-18 04:00","2017","04","18","04:00","-6.3","","-7.2","","93","","4","","6","","","","100.29","","","","-9","","NA"
"2017-04-18 05:00","2017","04","18","05:00","-6.4","","-7.4","","93","","4","","6","","","","100.24","","","","-9","","NA"
"2017-04-18 06:00","2017","04","18","06:00","-6.9","","-7.8","","93","","4","","7","","","","100.25","","","","-10","","NA"
"2017-04-18 07:00","2017","04","18","07:00","-5.7","","-6.7","","93","","4","","6","","","","100.21","","","","-9","","NA"
"2017-04-18 08:00","2017","04","18","08:00","-3.5","","-5.1","","89","","4","","6","","","","100.15","","","","-6","","NA"
"2017-04-18 09:00","2017","04","18","09:00","-0.9","","-3.4","","83","","1","","3","","","","100.06","","","","-2","","NA"
"2017-04-18 10:00","2017","04","18","10:00","3.9","","-2.0","","65","","20","","12","","","","99.97","","","","","","NA"
"2017-04-18 11:00","2017","04","18","11:00","3.6","","-1.7","","68","","20","","9","","","","99.93","","","","","","NA"
"2017-04-18 12:00","2017","04","18","12:00","4.3","","-2.3","","62","","15","","10","","","","99.87","","","","","","NA"
"2017-04-18 13:00","2017","04","18","13:00","2.5","","-0.2","","82","","12","","6","","","","99.76","","","","","","NA"
"2017-04-18 14:00","2017","04","18","14:00","2.9","","1.3","","89","","10","","7","","","","99.63","","","","","","NA"
"2017-04-18 15:00","2017","04","18","15:00","3.1","","1.7","","90","","12","","7","","","","99.42","","","","","","NA"
"2017-04-18 16:00","2017","04","18","16:00","3.4","","2.0","","91","","14","","6","","","","99.32","","","","","","NA"
"2017-04-18 17:00","2017","04","18","17:00","4.2","","2.5","","89","","13","","8","","","","99.09","","","","","","NA"
"2017-04-18 18:00","2017","04","18","18:00","4.1","","2.5","","89","","14","","6","","","","99.04","","","","","","NA"
"2017-04-18 19:00","2017","04","18","19:00","3.8","","2.4","","90","","11","","7","","","","98.94","","","","","","NA"
"2017-04-18 20:00","2017","04","18","20:00","4.2","","2.9","","91","","15","","8","","","","98.83","","","","","","NA"
"2017-04-18 21:00","2017","04","18","21:00","5.8","","4.6","","92","","16","","11","","","","98.77","","","","","","NA"
"2017-04-18 22:00","2017","04","18","22:00","5.9","","4.5","","90","","18","","11","","","","98.76","","","","","","NA"
"2017-04-18 23:00","2017","04","18","23:00","5.9","","4.9","","93","","18","","12","","","","98.77","","","","","","NA"
"2017-04-19 00:00","2017","04","19","00:00","5.5","","4.2","","92","","18","","12","","","","98.78","","","","","","NA"
"2017-04-19 01:00","2017","04","19","01:00","5.3","","4.4","","94","","18","","5","","","","98.79","","","","","","NA"
"2017-04-19 02:00","2017","04","19","02:00","4.1","","3.2","","94","","3","","9","","","","98.78","","","","","","NA"
"2017-04-19 03:00","2017","04","19","03:00","3.2","","2.5","","95","","3","","9","","","","98.80","","","","","","NA"
"2017-04-19 04:00","2017","04","19","04:00","3.0","","2.2","","95","","4","","8","","","","98.86","","","","","","NA"
"2017-04-19 05:00","2017","04","19","05:00","2.6","","1.9","","95","","1","","6","","","","98.93","","","","","","NA"
"2017-04-19 06:00","2017","04","19","06:00","2.6","","1.6","","93","","1","","10","","","","99.15","","","","","","NA"
"2017-04-19 07:00","2017","04","19","07:00","2.2","","1.0","","92","","2","","11","","","","99.23","","","","","","NA"
"2017-04-19 08:00","2017","04","19","08:00","2.5","","1.0","","90","","2","","11","","","","99.36","","","","","","NA"
"2017-04-19 09:00","2017","04","19","09:00","3.2","","1.3","","87","","3","","13","","","","99.48","","","","","","NA"
"2017-04-19 10:00","2017","04","19","10:00","4.1","","1.5","","83","","3","","13","","","","99.60","","","","","","NA"
"2017-04-19 11:00","2017","04","19","11:00","4.9","","1.4","","78","","3","","14","","","","99.69","","","","","","NA"
"2017-04-19 12:00","2017","04","19","12:00","5.2","","1.0","","74","","3","","12","","","","99.78","","","","","","NA"
"2017-04-19 13:00","2017","04","19","13:00","6.6","","0.5","","65","","2","","9","","","","99.87","","","","","","NA"
"2017-04-19 14:00","2017","04","19","14:00","8.0","","0.8","","61","","1","","13","","","","99.94","","","","","","NA"
"2017-04-19 15:00","2017","04","19","15:00","8.5","","0.4","","57","","3","","13","","","","99.96","","","","","","NA"
"2017-04-19 16:00","2017","04","19","16:00","9.2","","-0.2","","52","","6","","12","","","","99.95","","","","","","NA"
"2017-04-19 17:00","2017","04","19","17:00","9.3","","0.1","","53","","3","","13","","","","99.94","","","","","","NA"
"2017-04-19 18:00","2017","04","19","18:00","8.5","","-0.3","","54","","6","","10","","","","100.04","","","","","","NA"
"2017-04-19 19:00","2017","04","19","19:00","6.9","","-0.6","","58","","6","","7","","","","100.15","","","","","","NA"
"2017-04-19 20:00","2017","04","19","20:00","4.6","","-0.6","","69","","5","","7","","","","100.19","","","","","","NA"
"2017-04-19 21:00","2017","04","19","21:00","4.1","","-0.9","","70","","5","","8","","","","100.24","","","","","","NA"
"2017-04-19 22:00","2017","04","19","22:00","3.4","","-1.2","","72","","5","","9","","","","100.18","","","","","","NA"
"2017-04-19 23:00","2017","04","19","23:00","2.3","","-1.7","","75","","4","","5","","","","100.16","","","","","","NA"
"2017-04-20 00:00","2017","04","20","00:00","1.6","","-1.6","","79","","4","","6","","","","100.02","","","","","","NA"
"2017-04-20 01:00","2017","04","20","01:00","1.9","","-1.3","","79","","3","","6","","","","100.06","","","","","","NA"
"2017-04-20 02:00","2017","04","20","02:00","1.7","","-1.5","","80","","4","","9","","","","99.93","","","","","","NA"
"2017-04-20 03:00","2017","04","20","03:00","1.6","","-1.7","","79","","4","","8","","","","99.86","","","","","","NA"
"2017-04-20 04:00","2017","04","20","04:00","1.3","","-1.8","","80","","35","","3","","","","99.89","","","","","","NA"
"2017-04-20 05:00","2017","04","20","05:00","0.4","","-2.1","","84","","3","","4","","","","99.88","","","","","","NA"
"2017-04-20 06:00","2017","04","20","06:00","0.1","","-2.0","","86","","4","","7","","","","99.92","","","","","","NA"
"2017-04-20 07:00","2017","04","20","07:00","0.5","","-1.8","","84","","6","","4","","","","99.99","","","","","","NA"
"2017-04-20 08:00","2017","04","20","08:00","1.1","","-1.7","","81","","5","","14","","","","99.87","","","","","","NA"
"2017-04-20 09:00","2017","04","20","09:00","2.2","","-1.9","","74","","5","","15","","","","99.78","","","","","","NA"
"2017-04-20 10:00","2017","04","20","10:00","3.0","","-2.1","","69","","5","","13","","","","99.75","","","","","","NA"
"2017-04-20 11:00","2017","04","20","11:00","4.9","","-1.5","","63","","5","","14","","","","99.64","","","","","","NA"
"2017-04-20 12:00","2017","04","20","12:00","6.0","","-2.3","","55","","4","","13","","","","99.60","","","","","","NA"
"2017-04-20 13:00","2017","04","20","13:00","7.0","","-2.0","","53","","4","","16","","","","99.44","","","","","","NA"
"2017-04-20 14:00","2017","04","20","14:00","6.7","","-2.8","","51","","4","","19","","","","99.29","","","","","","NA"
"2017-04-20 15:00","2017","04","20","15:00","7.2","","-3.7","","46","","4","","21","","","","99.16","","","","","","NA"
"2017-04-20 16:00","2017","04","20","16:00","7.8","","-4.6","","41","","7","","12","","","","99.12","","","","","","NA"
"2017-04-20 17:00","2017","04","20","17:00","7.6","","-2.5","","49","","4","","14","","","","99.10","","","","","","NA"
"2017-04-20 18:00","2017","04","20","18:00","7.0","","-2.6","","50","","4","","11","","","","99.08","","","","","","NA"
"2017-04-20 19:00","2017","04","20","19:00","7.0","","-5.5","","41","","7","","12","","","","99.05","","","","","","NA"
"2017-04-20 20:00","2017","04","20","20:00","4.2","","-1.1","","68","","7","","12","","","","98.99","","","","","","NA"
"2017-04-20 21:00","2017","04","20","21:00","5.7","","-6.2","","42","","6","","8","","","","99.05","","","","","","NA"
"2017-04-20 22:00","2017","04","20","22:00","5.4","","-7.8","","38","","4","","8","","","","99.07","","","","","","NA"
"2017-04-20 23:00","2017","04","20","23:00","4.5","","-5.1","","50","","9","","16","","","","99.11","","","","","","NA"
"2017-04-21 00:00","2017","04","21","00:00","3.9","","-4.7","","54","","5","","10","","","","99.10","","","","","","NA"
"2017-04-21 01:00","2017","04","21","01:00","4.1","","-6.5","","46","","3","","12","","","","99.10","","","","","","NA"
"2017-04-21 02:00","2017","04","21","02:00","3.7","","-5.9","","50","","3","","11","","","","99.09","","","","","","NA"
"2017-04-21 03:00","2017","04","21","03:00","3.1","","-3.4","","62","","4","","12","","","","99.09","","","","","","NA"
"2017-04-21 04:00","2017","04","21","04:00","3.1","","-4.9","","56","","3","","11","","","","99.11","","","","","","NA"
"2017-04-21 05:00","2017","04","21","05:00","2.4","","-6.3","","53","","2","","11","","","","99.16","","","","","","NA"
"2017-04-21 06:00","2017","04","21","06:00","1.9","","-6.5","","53","","3","","12","","","","99.25","","","","","","NA"
"2017-04-21 07:00","2017","04","21","07:00","2.1","","-6.4","","53","","3","","13","","","","99.33","","","","","","NA"
"2017-04-21 08:00","2017","04","21","08:00","2.9","","-6.1","","52","","3","","12","","","","99.38","","","","","","NA"
"2017-04-21 09:00","2017","04","21","09:00","5.0","","-7.5","","40","","3","","15","","","","99.37","","","","","","NA"
"2017-04-21 10:00","2017","04","21","10:00","7.1","","-6.2","","38","","1","","15","","","","99.38","","","","","","NA"
"2017-04-21 11:00","2017","04","21","11:00","8.6","","-7.1","","32","","4","","14","","","","99.40","","","","","","NA"
"2017-04-21 12:00","2017","04","21","12:00","10.1","","-7.7","","28","","3","","15","","","","99.41","","","","","","NA"
"2017-04-21 13:00","2017","04","21","13:00","11.5","","-7.7","","25","","36","","12","","","","99.44","","","","","","NA"
"2017-04-21 14:00","2017","04","21","14:00","12.7","","-8.7","","22","","2","","13","","","","99.50","","","","","","NA"
"2017-04-21 15:00","2017","04","21","15:00","13.5","","-8.5","","21","","36","","9","","","","99.51","","","","","","NA"
"2017-04-21 16:00","2017","04","21","16:00","10.8","","-5.5","","31","","28","","10","","","","99.53","","","","","","NA"
"2017-04-21 17:00","2017","04","21","17:00","10.2","","-5.7","","32","","27","","9","","","","99.58","","","","","","NA"
"2017-04-21 18:00","2017","04","21","18:00","10.3","","-3.7","","37","","20","","4","","","","99.62","","","","","","NA"
"2017-04-21 19:00","2017","04","21","19:00","6.3","","-1.5","","57","","21","","5","","","","99.66","","","","","","NA"
"2017-04-21 20:00","2017","04","21","20:00","3.8","","-1.8","","67","","17","","2","","","","99.71","","","","","","NA"
"2017-04-21 21:00","2017","04","21","21:00","1.1","","-3.6","","71","","4","","1","","","","99.76","","","","","","NA"
"2017-04-21 22:00","2017","04","21","22:00","-0.7","","-4.7","","75","","7","","3","","","","99.80","","","","-2","","NA"
"2017-04-21 23:00","2017","04","21","23:00","-1.8","","-4.6","","81","","1","","2","","","","99.80","","","","-3","","NA"
"2017-04-22 00:00","2017","04","22","00:00","-0.8","","-4.3","","77","","5","","4","","","","99.80","","","","-2","","NA"
"2017-04-22 01:00","2017","04","22","01:00","-1.4","","-4.7","","78","","5","","7","","","","99.78","","","","-4","","NA"
"2017-04-22 02:00","2017","04","22","02:00","-1.8","","-5.0","","79","","5","","8","","","","99.73","","","","-5","","NA"
"2017-04-22 03:00","2017","04","22","03:00","-2.0","","-5.0","","80","","6","","8","","","","99.71","","","","-5","","NA"
"2017-04-22 04:00","2017","04","22","04:00","-2.4","","-5.1","","82","","5","","7","","","","99.72","","","","-5","","NA"
"2017-04-22 05:00","2017","04","22","05:00","-2.6","","-5.0","","83","","5","","7","","","","99.76","","","","-5","","NA"
"2017-04-22 06:00","2017","04","22","06:00","-3.0","","-5.3","","84","","5","","4","","","","99.76","","","","-5","","NA"
"2017-04-22 07:00","2017","04","22","07:00","-2.5","","-4.6","","85","","","","0","","","","99.79","","","","","","NA"
"2017-04-22 08:00","2017","04","22","08:00","3.6","","-1.8","","68","","18","","7","","","","99.76","","","","","","NA"
"2017-04-22 09:00","2017","04","22","09:00","6.7","","-0.9","","58","","18","","11","","","","99.72","","","","","","NA"
"2017-04-22 10:00","2017","04","22","10:00","8.9","","-3.1","","43","","19","","10","","","","99.68","","","","","","NA"
"2017-04-22 11:00","2017","04","22","11:00","8.7","","-4.3","","39","","19","","16","","","","99.64","","","","","","NA"
"2017-04-22 12:00","2017","04","22","12:00","8.4","","-2.4","","46","","19","","15","","","","99.63","","","","","","NA"
"2017-04-22 13:00","2017","04","22","13:00","8.5","","-1.6","","49","","18","","14","","","","99.60","","","","","","NA"
"2017-04-22 14:00","2017","04","22","14:00","8.1","","-0.9","","53","","19","","17","","","","99.51","","","","","","NA"
"2017-04-22 15:00","2017","04","22","15:00","8.9","","-0.3","","52","","19","","13","","","","99.44","","","","","","NA"
"2017-04-22 16:00","2017","04","22","16:00","8.7","","-1.4","","49","","18","","12","","","","99.34","","","","","","NA"
"2017-04-22 17:00","2017","04","22","17:00","8.2","","-2.4","","47","","18","","13","","","","99.27","","","","","","NA"
"2017-04-22 18:00","2017","04","22","18:00","7.1","","-1.7","","53","","18","","10","","","","99.27","","","","","","NA"
"2017-04-22 19:00","2017","04","22","19:00","6.0","","-0.6","","63","","20","","8","","","","99.24","","","","","","NA"
"2017-04-22 20:00","2017","04","22","20:00","4.1","","1.3","","82","","17","","7","","","","99.26","","","","","","NA"
"2017-04-22 21:00","2017","04","22","21:00","3.5","","2.3","","92","","31","","2","","","","99.29","","","","","","NA"
"2017-04-22 22:00","2017","04","22","22:00","3.2","","2.2","","93","","0","","1","","","","99.31","","","","","","NA"
"2017-04-22 23:00","2017","04","22","23:00","3.1","","2.2","","93","","","","0","","","","99.25","","","","","","NA"
"2017-04-23 00:00","2017","04","23","00:00","3.2","","1.8","","91","","36","","11","","","","99.34","","","","","","NA"
"2017-04-23 01:00","2017","04","23","01:00","1.5","","0.1","","91","","36","","9","","","","99.42","","","","","","NA"
"2017-04-23 02:00","2017","04","23","02:00","0.4","","-2.1","","83","","1","","8","","","","99.47","","","","","","NA"
"2017-04-23 03:00","2017","04","23","03:00","-0.9","","-3.0","","86","","2","","10","","","","99.56","","","","-4","","NA"
"2017-04-23 04:00","2017","04","23","04:00","-1.4","","-3.6","","85","","36","","8","","","","99.63","","","","-4","","NA"
"2017-04-23 05:00","2017","04","23","05:00","-2.1","","-5.5","","78","","35","","7","","","","99.75","","","","-5","","NA"
"2017-04-23 06:00","2017","04","23","06:00","-2.6","","-5.6","","79","","1","","8","","","","99.80","","","","-6","","NA"
"2017-04-23 07:00","2017","04","23","07:00","-2.9","","-7.8","","69","","36","","8","","","","99.91","","","","-6","","NA"
"2017-04-23 08:00","2017","04","23","08:00","-2.0","","-9.5","","56","","2","","13","","","","99.94","","","","-6","","NA"
"2017-04-23 09:00","2017","04","23","09:00","-1.7","","-9.3","","56","","1","","11","","","","99.98","","","","-6","","NA"
"2017-04-23 10:00","2017","04","23","10:00","-1.4","","-10.8","","49","","36","","10","","","","100.00","","","","-5","","NA"
"2017-04-23 11:00","2017","04","23","11:00","-0.6","","-11.6","","43","","2","","11","","","","100.01","","","","-4","","NA"
"2017-04-23 12:00","2017","04","23","12:00","0.5","","-12.6","","37","","1","","9","","","","99.98","","","","","","NA"
"2017-04-23 13:00","2017","04","23","13:00","1.9","","-10.4","","40","","28","","10","","","","99.94","","","","","","NA"
"2017-04-23 14:00","2017","04","23","14:00","2.8","","-10.8","","36","","30","","8","","","","99.95","","","","","","NA"
"2017-04-23 15:00","2017","04","23","15:00","2.0","","-10.1","","40","","27","","14","","","","99.92","","","","","","NA"
"2017-04-23 16:00","2017","04","23","16:00","1.8","","-8.2","","48","","29","","10","","","","99.85","","","","","","NA"
"2017-04-23 17:00","2017","04","23","17:00","2.1","","-6.9","","52","","28","","11","","","","99.84","","","","","","NA"
"2017-04-23 18:00","2017","04","23","18:00","0.3","","-7.2","","57","","26","","8","","","","99.88","","","","","","NA"
"2017-04-23 19:00","2017","04","23","19:00","-0.2","","-6.6","","62","","27","","8","","","","99.91","","","","-3","","NA"
"2017-04-23 20:00","2017","04","23","20:00","-0.5","","-6.4","","65","","27","","4","","","","99.94","","","","-2","","NA"
"2017-04-23 21:00","2017","04","23","21:00","-1.8","","-7.1","","67","","22","","2","","","","99.99","","","","-3","","NA"
"2017-04-23 22:00","2017","04","23","22:00","-2.2","","-7.0","","70","","3","","4","","","","99.98","","","","-4","","NA"
"2017-04-23 23:00","2017","04","23","23:00","-1.7","","-6.1","","72","","5","","5","","","","99.94","","","","-4","","NA"
"2017-04-24 00:00","2017","04","24","00:00","-1.4","","-6.0","","71","","4","","7","","","","99.93","","","","-4","","NA"
"2017-04-24 01:00","2017","04","24","01:00","-1.5","","-6.3","","70","","3","","8","","","","99.91","","","","-5","","NA"
"2017-04-24 02:00","2017","04","24","02:00","-1.4","","-7.6","","63","","4","","9","","","","99.90","","","","-5","","NA"
"2017-04-24 03:00","2017","04","24","03:00","-1.3","","-9.1","","55","","5","","7","","","","99.87","","","","-4","","NA"
"2017-04-24 04:00","2017","04","24","04:00","-1.5","","-8.8","","57","","4","","10","","","","99.86","","","","-5","","NA"
"2017-04-24 05:00","2017","04","24","05:00","-1.2","","-9.9","","52","","4","","9","","","","99.83","","","","-4","","NA"
"2017-04-24 06:00","2017","04","24","06:00","-0.9","","-10.0","","50","","4","","9","","","","99.85","","","","-4","","NA"
"2017-04-24 07:00","2017","04","24","07:00","-0.5","","-10.1","","48","","7","","6","","","","99.91","","","","-3","","NA"
"2017-04-24 08:00","2017","04","24","08:00","-0.2","","-8.6","","53","","13","","6","","","","99.94","","","","-2","","NA"
"2017-04-24 09:00","2017","04","24","09:00","-1.0","","-4.5","","78","","5","","9","","","","99.92","","","","-4","","NA"
"2017-04-24 10:00","2017","04","24","10:00","-0.9","","-4.0","","80","","6","","11","","","","99.89","","","","-5","","NA"
"2017-04-24 11:00","2017","04","24","11:00","0.5","","-2.7","","79","","7","","11","","","","99.83","","","","","","NA"
"2017-04-24 12:00","2017","04","24","12:00","1.7","","-2.9","","72","","8","","11","","","","99.79","","","","","","NA"
"2017-04-24 13:00","2017","04","24","13:00","2.4","","-2.9","","68","","7","","13","","","","99.68","","","","","","NA"
"2017-04-24 14:00","2017","04","24","14:00","3.2","","-2.7","","65","","7","","11","","","","99.60","","","","","","NA"
"2017-04-24 15:00","2017","04","24","15:00","3.2","","-3.5","","61","","8","","11","","","","99.54","","","","","","NA"
"2017-04-24 16:00","2017","04","24","16:00","4.3","","-3.5","","57","","8","","12","","","","99.43","","","","","","NA"
"2017-04-24 17:00","2017","04","24","17:00","4.7","","-3.6","","55","","6","","14","","","","99.30","","","","","","NA"
"2017-04-24 18:00","2017","04","24","18:00","4.4","","-4.1","","54","","7","","14","","","","99.24","","","","","","NA"
"2017-04-24 19:00","2017","04","24","19:00","3.9","","-4.6","","54","","7","","15","","","","99.11","","","","","","NA"
"2017-04-24 20:00","2017","04","24","20:00","3.0","","-5.6","","53","","6","","14","","","","99.06","","","","","","NA"
"2017-04-24 21:00","2017","04","24","21:00","2.4","","-5.8","","55","","5","","18","","","","99.00","","","","","","NA"
"2017-04-24 22:00","2017","04","24","22:00","2.1","","-5.8","","56","","9","","7","","","","99.07","","","","","","NA"
"2017-04-24 23:00","2017","04","24","23:00","1.9","","-6.4","","54","","5","","14","","","","99.07","","","","","","NA"
"2017-04-25 00:00","2017","04","25","00:00","1.1","","-6.3","","57","","4","","15","","","","99.02","","","","","","NA"
"2017-04-25 01:00","2017","04","25","01:00","1.1","","-6.1","","59","","5","","13","","","","99.00","","","","","","NA"
"2017-04-25 02:00","2017","04","25","02:00","1.3","","-5.5","","61","","4","","14","","","","98.84","","","","","","NA"
"2017-04-25 03:00","2017","04","25","03:00","1.8","","-4.8","","62","","4","","11","","","","98.82","","","","","","NA"
"2017-04-25 04:00","2017","04","25","04:00","2.1","","-4.3","","63","","3","","11","","","","98.77","","","","","","NA"
"2017-04-25 05:00","2017","04","25","05:00","2.3","","-3.6","","65","","3","","13","","","","98.69","","","","","","NA"
"2017-04-25 06:00","2017","04","25","06:00","2.7","","-2.9","","66","","4","","12","","","","98.60","","","","","","NA"
"2017-04-25 07:00","2017","04","25","07:00","3.9","","-1.3","","68","","5","","8","","","","98.48","","","","","","NA"
"2017-04-25 08:00","2017","04","25","08:00","7.8","","0.4","","60","","5","","3","","","","98.44","","","","","","NA"
"2017-04-25 09:00","2017","04","25","09:00","10.0","","1.0","","53","","3","","6","","","","98.42","","","","","","NA"
"2017-04-25 10:00","2017","04","25","10:00","12.8","","1.1","","45","","27","","7","","","","98.44","","","","","","NA"
"2017-04-25 11:00","2017","04","25","11:00","14.8","","3.2","","46","","20","","9","","","","98.45","","","","","","NA"
"2017-04-25 12:00","2017","04","25","12:00","14.1","","4.1","","51","","19","","13","","","","98.45","","","","","","NA"
"2017-04-25 13:00","2017","04","25","13:00","14.2","","4.9","","54","","20","","9","","","","98.44","","","","","","NA"
"2017-04-25 14:00","2017","04","25","14:00","12.2","","3.5","","55","","23","","7","","","","98.36","","","","","","NA"
"2017-04-25 15:00","2017","04","25","15:00","11.6","","3.4","","57","","26","","8","","","","98.42","","","","","","NA"
"2017-04-25 16:00","2017","04","25","16:00","11.9","","5.0","","62","","24","","3","","","","98.42","","","","","","NA"
"2017-04-25 17:00","2017","04","25","17:00","12.8","","5.5","","61","","3","","6","","","","98.40","","","","","","NA"
"2017-04-25 18:00","2017","04","25","18:00","11.3","","-1.4","","41","","3","","16","","","","98.42","","","","","","NA"
"2017-04-25 19:00","2017","04","25","19:00","7.6","","-2.6","","49","","3","","20","","","","98.46","","","","","","NA"
"2017-04-25 20:00","2017","04","25","20:00","4.9","","-3.2","","55","","4","","21","","","","98.59","","","","","","NA"
"2017-04-25 21:00","2017","04","25","21:00","2.1","","-3.8","","65","","4","","26","","","","98.72","","","","","","NA"
"2017-04-25 22:00","2017","04","25","22:00","0.5","","-4.4","","70","","4","","26","","","","98.79","","","","","","NA"
"2017-04-25 23:00","2017","04","25","23:00","-0.5","","-5.0","","72","","4","","25","","","","98.87","","","","-7","","NA"
"2017-04-26 00:00","2017","04","26","00:00","-1.1","","-5.3","","73","","5","","23","","","","98.82","","","","-7","","NA"
"2017-04-26 01:00","2017","04","26","01:00","-1.8","","-5.9","","74","","5","","23","","","","98.85","","","","-8","","NA"
"2017-04-26 02:00","2017","04","26","02:00","-2.5","","-6.7","","73","","5","","21","","","","98.85","","","","-9","","NA"
"2017-04-26 03:00","2017","04","26","03:00","-3.4","","-5.8","","84","","4","","21","","","","98.80","","","","-10","","NA"
"2017-04-26 04:00","2017","04","26","04:00","-3.5","","-6.6","","79","","5","","19","","","","98.79","","","","-9","","NA"
"2017-04-26 05:00","2017","04","26","05:00","-4.1","","-6.4","","84","","5","","23","","","","98.71","","","","-11","","NA"
"2017-04-26 06:00","2017","04","26","06:00","-4.1","","-6.6","","83","","5","","26","","","","98.64","","","","-11","","NA"
"2017-04-26 07:00","2017","04","26","07:00","-4.1","","-6.6","","83","","4","","27","","","","98.60","","","","-11","","NA"
"2017-04-26 08:00","2017","04","26","08:00","-3.8","","-6.4","","82","","5","","25","","","","98.58","","","","-11","","NA"
"2017-04-26 09:00","2017","04","26","09:00","-3.6","","-6.1","","83","","4","","24","","","","98.48","","","","-10","","NA"
"2017-04-26 10:00","2017","04","26","10:00","-3.7","","-6.1","","83","","4","","25","","","","98.38","","","","-11","","NA"
"2017-04-26 11:00","2017","04","26","11:00","-3.5","","-6.3","","81","","4","","26","","","","98.33","","","","-11","","NA"
"2017-04-26 12:00","2017","04","26","12:00","-3.3","","-6.1","","81","","4","","28","","","","98.23","","","","-11","","NA"
"2017-04-26 13:00","2017","04","26","13:00","-3.0","","-5.5","","83","","4","","27","","","","98.10","","","","-10","","NA"
"2017-04-26 14:00","2017","04","26","14:00","-2.9","","-5.4","","83","","5","","25","","","","98.10","","","","-10","","NA"
"2017-04-26 15:00","2017","04","26","15:00","-2.9","","-5.5","","82","","5","","27","","","","98.03","","","","-10","","NA"
"2017-04-26 16:00","2017","04","26","16:00","-2.6","","-4.4","","88","","5","","23","","","","97.93","","","","-9","","NA"
"2017-04-26 17:00","2017","04","26","17:00","-2.7","","-4.5","","87","","5","","26","","","","97.88","","","","-10","","NA"
"2017-04-26 18:00","2017","04","26","18:00","-2.6","","-4.7","","86","","5","","20","","","","97.79","","","","-9","","NA"
"2017-04-26 19:00","2017","04","26","19:00","-2.7","","-4.2","","89","","4","","24","","","","97.73","","","","-9","","NA"
"2017-04-26 20:00","2017","04","26","20:00","-2.3","","-3.5","","91","","5","","25","","","","97.76","","","","-9","","NA"
"2017-04-26 21:00","2017","04","26","21:00","-2.2","","-3.3","","92","","5","","18","","","","97.81","","","","-8","","NA"
"2017-04-26 22:00","2017","04","26","22:00","-2.4","","-3.4","","93","","4","","14","","","","97.76","","","","-7","","NA"
"2017-04-26 23:00","2017","04","26","23:00","-2.6","","-3.6","","93","","4","","15","","","","97.78","","","","-8","","NA"
"2017-04-27 00:00","2017","04","27","00:00","-2.8","","-3.8","","93","","4","","13","","","","97.80","","","","-7","","NA"
"2017-04-27 01:00","2017","04","27","01:00","-3.1","","-4.2","","92","","4","","15","","","","97.73","","","","-8","","NA"
"2017-04-27 02:00","2017","04","27","02:00","-3.4","","-4.5","","92","","5","","14","","","","97.66","","","","-8","","NA"
"2017-04-27 03:00","2017","04","27","03:00","-3.7","","-5.0","","91","","5","","16","","","","97.64","","","","-9","","NA"
"2017-04-27 04:00","2017","04","27","04:00","-3.9","","-5.0","","92","","5","","15","","","","97.60","","","","-9","","NA"
"2017-04-27 05:00","2017","04","27","05:00","-3.8","","-4.8","","92","","5","","14","","","","97.53","","","","-9","","NA"
"2017-04-27 06:00","2017","04","27","06:00","-2.8","","-3.8","","93","","5","","10","","","","97.43","","","","-7","","NA"
"2017-04-27 07:00","2017","04","27","07:00","-2.2","","-3.2","","93","","4","","8","","","","97.38","","","","-5","","NA"
"2017-04-27 08:00","2017","04","27","08:00","-1.4","","-2.4","","93","","4","","5","","","","97.27","","","","-3","","NA"
"2017-04-27 09:00","2017","04","27","09:00","-0.2","","-1.0","","94","","","","0","","","","97.12","","","","","","NA"
"2017-04-27 10:00","2017","04","27","10:00","0.1","","-0.7","","94","","","","0","","","","97.09","","","","","","NA"
"2017-04-27 11:00","2017","04","27","11:00","0.3","","-0.5","","95","","","","0","","","","96.97","","","","","","NA"
"2017-04-27 12:00","2017","04","27","12:00","0.4","","-0.3","","95","","","","0","","","","96.90","","","","","","NA"
"2017-04-27 13:00","2017","04","27","13:00","0.4","","-0.3","","95","","","","0","","","","96.89","","","","","","NA"
"2017-04-27 14:00","2017","04","27","14:00","0.6","","-0.1","","95","","4","","14","","","","96.84","","","","","","NA"
"2017-04-27 15:00","2017","04","27","15:00","1.0","","0.3","","95","","3","","12","","","","96.82","","","","","","NA"
"2017-04-27 16:00","2017","04","27","16:00","1.2","","0.5","","95","","4","","8","","","","96.76","","","","","","NA"
"2017-04-27 17:00","2017","04","27","17:00","2.7","","2.1","","95","","17","","11","","","","96.79","","","","","","NA"
"2017-04-27 18:00","2017","04","27","18:00","1.1","","0.4","","95","","22","","12","","","","96.98","","","","","","NA"
"2017-04-27 19:00","2017","04","27","19:00","0.0","","-0.6","","96","","22","","17","","","","97.18","","","","-5","","NA"
"2017-04-27 20:00","2017","04","27","20:00","-0.8","","-1.7","","94","","21","","21","","","","97.32","","","","-6","","NA"
"2017-04-27 21:00","2017","04","27","21:00","-1.3","","-2.0","","95","","22","","16","","","","97.46","","","","-6","","NA"
"2017-04-27 22:00","2017","04","27","22:00","-1.6","","-2.2","","95","","23","","19","","","","97.54","","","","-7","","NA"
"2017-04-27 23:00","2017","04","27","23:00","-1.6","","-2.4","","94","","23","","19","","","","97.62","","","","-7","","NA"
"2017-04-28 00:00","2017","04","28","00:00","-1.6","","-2.9","","91","","24","","19","","","","97.70","","","","-7","","NA"
"2017-04-28 01:00","2017","04","28","01:00","-1.6","","-3.1","","89","","24","","18","","","","97.75","","","","-7","","NA"
"2017-04-28 02:00","2017","04","28","02:00","-1.5","","-3.2","","88","","24","","17","","","","97.79","","","","-7","","NA"
"2017-04-28 03:00","2017","04","28","03:00","-1.5","","-3.7","","85","","24","","17","","","","97.83","","","","-7","","NA"
"2017-04-28 04:00","2017","04","28","04:00","-1.3","","-3.6","","84","","24","","17","","","","97.89","","","","-6","","NA"
"2017-04-28 05:00","2017","04","28","05:00","-1.4","","-3.8","","83","","24","","17","","","","97.92","","","","-7","","NA"
"2017-04-28 06:00","2017","04","28","06:00","-1.2","","-3.6","","84","","24","","15","","","","97.98","","","","-6","","NA"
"2017-04-28 07:00","2017","04","28","07:00","-1.0","","-3.6","","82","","24","","17","","","","98.07","","","","-6","","NA"
"2017-04-28 08:00","2017","04","28","08:00","-0.8","","-3.6","","82","","25","","14","","","","98.14","","","","-5","","NA"
"2017-04-28 09:00","2017","04","28","09:00","-0.5","","-3.9","","78","","25","","15","","","","98.16","","","","-5","","NA"
"2017-04-28 10:00","2017","04","28","10:00","-0.3","","-4.6","","72","","25","","17","","","","98.18","","","","-5","","NA"
"2017-04-28 11:00","2017","04","28","11:00","-0.4","","-4.5","","74","","25","","16","","","","98.25","","","","-5","","NA"
"2017-04-28 12:00","2017","04","28","12:00","-0.3","","-4.5","","73","","25","","14","","","","98.35","","","","-5","","NA"
"2017-04-28 13:00","2017","04","28","13:00","0.3","","-4.9","","68","","25","","15","","","","98.44","","","","","","NA"
"2017-04-28 14:00","2017","04","28","14:00","-0.7","","-3.8","","80","","25","","16","","","","98.54","","","","-5","","NA"
"2017-04-28 15:00","2017","04","28","15:00","1.0","","-4.9","","65","","25","","17","","","","98.62","","","","","","NA"
"2017-04-28 16:00","2017","04","28","16:00","1.4","","-4.8","","63","","25","","16","","","","98.69","","","","","","NA"
"2017-04-28 17:00","2017","04","28","17:00","0.6","","-3.2","","76","","25","","13","","","","98.76","","","","","","NA"
"2017-04-28 18:00","2017","04","28","18:00","1.3","","-5.4","","61","","27","","18","","","","98.82","","","","","","NA"
"2017-04-28 19:00","2017","04","28","19:00","0.3","","-5.7","","64","","28","","15","","","","98.92","","","","","","NA"
"2017-04-28 20:00","2017","04","28","20:00","-0.3","","-5.7","","67","","30","","7","","","","99.02","","","","-3","","NA"
"2017-04-28 21:00","2017","04","28","21:00","0.1","","-5.1","","68","","29","","7","","","","99.12","","","","","","NA"
"2017-04-28 22:00","2017","04","28","22:00","0.6","","-4.3","","70","","29","","9","","","","99.19","","","","","","NA"
"2017-04-28 23:00","2017","04","28","23:00","0.7","","-3.6","","73","","28","","13","","","","99.27","","","","","","NA"
"2017-04-29 00:00","2017","04","29","00:00","0.6","","-3.8","","73","","30","","9","","","","99.41","","","","","","NA"
"2017-04-29 01:00","2017","04","29","01:00","0.6","","-3.8","","72","","30","","6","","","","99.48","","","","","","NA"
"2017-04-29 02:00","2017","04","29","02:00","0.7","","-4.1","","70","","33","","6","","","","99.51","","","","","","NA"
"2017-04-29 03:00","2017","04","29","03:00","-0.2","","-5.3","","69","","35","","10","","","","99.56","","","","-4","","NA"
"2017-04-29 04:00","2017","04","29","04:00","-1.0","","-5.9","","70","","33","","2","","","","99.71","","","","-2","","NA"
"2017-04-29 05:00","2017","04","29","05:00","-1.8","","-5.9","","73","","35","","3","","","","99.80","","","","-3","","NA"
"2017-04-29 06:00","2017","04","29","06:00","-1.7","","-6.7","","69","","1","","5","","","","99.89","","","","-4","","NA"
"2017-04-29 07:00","2017","04","29","07:00","-0.5","","-8.1","","57","","1","","9","","","","99.94","","","","-4","","NA"
"2017-04-29 08:00","2017","04","29","08:00","1.0","","-8.7","","48","","1","","9","","","","100.03","","","","","","NA"
"2017-04-29 09:00","2017","04","29","09:00","3.4","","-8.4","","42","","1","","9","","","","100.17","","","","","","NA"
"2017-04-29 10:00","2017","04","29","10:00","4.9","","-8.7","","37","","2","","9","","","","100.30","","","","","","NA"
"2017-04-29 11:00","2017","04","29","11:00","5.6","","-8.5","","36","","29","","8","","","","100.40","","","","","","NA"
"2017-04-29 12:00","2017","04","29","12:00","6.2","","-6.8","","39","","30","","7","","","","100.37","","","","","","NA"
"2017-04-29 13:00","2017","04","29","13:00","6.2","","-7.0","","38","","28","","10","","","","100.31","","","","","","NA"
"2017-04-29 14:00","2017","04","29","14:00","5.0","","-4.3","","51","","26","","11","","","","100.31","","","","","","NA"
"2017-04-29 15:00","2017","04","29","15:00","4.2","","-4.1","","55","","25","","12","","","","100.50","","","","","","NA"
"2017-04-29 16:00","2017","04","29","16:00","5.4","","-5.6","","45","","27","","13","","","","100.52","","","","","","NA"
"2017-04-29 17:00","2017","04","29","17:00","5.7","","-6.2","","42","","26","","7","","","","100.54","","","","","","NA"
"2017-04-29 18:00","2017","04","29","18:00","4.9","","-4.2","","51","","28","","7","","","","100.53","","","","","","NA"
"2017-04-29 19:00","2017","04","29","19:00","3.7","","-3.5","","59","","24","","4","","","","100.44","","","","","","NA"
"2017-04-29 20:00","2017","04","29","20:00","0.9","","-3.6","","72","","15","","1","","","","100.38","","","","","","NA"
"2017-04-29 21:00","2017","04","29","21:00","-1.5","","-5.1","","76","","1","","2","","","","100.40","","","","-2","","NA"
"2017-04-29 22:00","2017","04","29","22:00","-2.2","","-5.0","","81","","4","","3","","","","100.44","","","","-3","","NA"
"2017-04-29 23:00","2017","04","29","23:00","-2.2","","-4.8","","83","","5","","5","","","","100.48","","","","-4","","NA"
"2017-04-30 00:00","2017","04","30","00:00","-2.0","","-4.7","","82","","4","","9","","","","100.51","","","","-5","","NA"
"2017-04-30 01:00","2017","04","30","01:00","-2.0","","-5.0","","80","","4","","11","","","","100.50","","","","-6","","NA"
"2017-04-30 02:00","2017","04","30","02:00","-2.1","","-5.0","","80","","4","","8","","","","100.45","","","","-5","","NA"
"2017-04-30 03:00","2017","04","30","03:00","-1.6","","-5.1","","77","","4","","10","","","","100.39","","","","-5","","NA"
"2017-04-30 04:00","2017","04","30","04:00","-1.1","","-5.6","","71","","4","","12","","","","100.35","","","","-5","","NA"
"2017-04-30 05:00","2017","04","30","05:00","-0.8","","-5.9","","68","","3","","11","","","","100.34","","","","-5","","NA"
"2017-04-30 06:00","2017","04","30","06:00","-0.7","","-5.9","","68","","4","","10","","","","100.34","","","","-4","","NA"
"2017-04-30 07:00","2017","04","30","07:00","0.2","","-5.3","","67","","3","","6","","","","100.35","","","","","","NA"
"2017-04-30 08:00","2017","04","30","08:00","3.1","","-4.7","","57","","3","","9","","","","100.33","","","","","","NA"
"2017-04-30 09:00","2017","04","30","09:00","6.9","","-5.4","","41","","9","","5","","","","100.16","","","","","","NA"
"2017-04-30 10:00","2017","04","30","10:00","8.7","","-8.5","","29","","6","","11","","","","100.06","","","","","","NA"
"2017-04-30 11:00","2017","04","30","11:00","10.2","","-9.3","","24","","3","","11","","","","99.99","","","","","","NA"
"2017-04-30 12:00","2017","04","30","12:00","10.5","","-9.1","","24","","5","","10","","","","99.92","","","","","","NA"
"2017-04-30 13:00","2017","04","30","13:00","12.0","","-9.5","","21","","6","","11","","","","99.88","","","","","","NA"
"2017-04-30 14:00","2017","04","30","14:00","12.5","","-10.1","","20","","3","","12","","","","99.73","","","","","","NA"
"2017-04-30 15:00","2017","04","30","15:00","14.0","","-9.4","","19","","4","","11","","","","99.61","","","","","","NA"
"2017-04-30 16:00","2017","04","30","16:00","13.2","","-10.4","","18","","6","","13","","","","99.52","","","","","","NA"
"2017-04-30 17:00","2017","04","30","17:00","12.8","","-8.7","","22","","5","","11","","","","99.48","","","","","","NA"
"2017-04-30 18:00","2017","04","30","18:00","12.3","","-9.8","","20","","5","","8","","","","99.42","","","","","","NA"
"2017-04-30 19:00","2017","04","30","19:00","10.8","","-9.9","","22","","4","","7","","","","99.34","","","","","","NA"
"2017-04-30 20:00","2017","04","30","20:00","8.4","","-9.1","","28","","5","","5","","","","99.31","","","","","","NA"
"2017-04-30 21:00","2017","04","30","21:00","7.3","","-8.9","","31","","6","","6","","","","99.27","","","","","","NA"
"2017-04-30 22:00","2017","04","30","22:00","7.4","","-8.9","","30","","5","","6","","","","99.22","","","","","","NA"
"2017-04-30 23:00","2017","04","30","23:00","6.7","","-8.2","","34","","5","","7","","","","99.16","","","","","","NA"
