"Station Name","PUKASKWA (AUT)"
"Province","ONTARIO"
"Latitude","48.59"
"Longitude","-86.29"
"Elevation","207.60"
"Climate Identifier","6046767"
"WMO Identifier","71750"
"TC Identifier","WCJ"
"All times are specified in Local Standard Time (LST). Add 1 hour to adjust for Daylight Saving Time where and when it is observed."

"Legend"
"E","Estimated"
"M","Missing"
"NA","Not Available"

"Date/Time","Year","Month","Day","Time","Temp (°C)","Temp Flag","Dew Point Temp (°C)","Dew Point Temp Flag","Rel Hum (%)","Rel Hum Flag","Wind Dir (10s deg)","Wind Dir Flag","Wind Spd (km/h)","Wind Spd Flag","Visibility (km)","Visibility Flag","Stn Press (kPa)","Stn Press Flag","Hmdx","Hmdx Flag","Wind Chill","Wind Chill Flag","Weather"
"2010-01-01 00:00","2010","01","01","00:00","-18.7","","-20.2","","88","","","M","","M","","","99.57","","","","","","NA"
"2010-01-01 01:00","2010","01","01","01:00","-19.9","","-20.9","","92","","","M","","M","","","99.59","","","","","","NA"
"2010-01-01 02:00","2010","01","01","02:00","-20.2","","-21.2","","92","","","M","","M","","","99.62","","","","","","NA"
"2010-01-01 03:00","2010","01","01","03:00","-20.0","","-21.4","","89","","","M","","M","","","99.67","","","","","","NA"
"2010-01-01 04:00","2010","01","01","04:00","-20.3","","-21.9","","87","","","M","","M","","","99.71","","","","","","NA"
"2010-01-01 05:00","2010","01","01","05:00","-20.8","","-22.2","","88","","","M","","M","","","99.76","","","","","","NA"
"2010-01-01 06:00","2010","01","01","06:00","-21.6","","-23.0","","88","","","M","","M","","","99.82","","","","","","NA"
"2010-01-01 07:00","2010","01","01","07:00","-22.1","","-23.4","","89","","","M","","M","","","99.88","","","","","","NA"
"2010-01-01 08:00","2010","01","01","08:00","-23.1","","-24.8","","86","","","M","","M","","","99.96","","","","","","NA"
"2010-01-01 09:00","2010","01","01","09:00","-23.6","","-25.5","","84","","","M","","M","","","100.02","","","","","","NA"
"2010-01-01 10:00","2010","01","01","10:00","-23.3","","-25.6","","81","","","M","","M","","","100.10","","","","","","NA"
"2010-01-01 11:00","2010","01","01","11:00","-22.5","","-25.6","","76","","","M","","M","","","100.15","","","","","","NA"
"2010-01-01 12:00","2010","01","01","12:00","-21.3","","-25.4","","69","","","M","","M","","","100.12","","","","","","NA"
"2010-01-01 13:00","2010","01","01","13:00","-20.8","","-25.5","","66","","","M","","M","","","100.07","","","","","","NA"
"2010-01-01 14:00","2010","01","01","14:00","-20.5","","-25.1","","67","","","M","","M","","","100.06","","","","","","NA"
"2010-01-01 15:00","2010","01","01","15:00","-20.6","","-25.3","","66","","","M","","M","","","100.10","","","","","","NA"
"2010-01-01 16:00","2010","01","01","16:00","-21.3","","-25.4","","69","","","M","","M","","","100.16","","","","","","NA"
"2010-01-01 17:00","2010","01","01","17:00","-22.3","","-25.4","","76","","","M","","M","","","100.22","","","","","","NA"
"2010-01-01 18:00","2010","01","01","18:00","-23.2","","-25.8","","79","","","M","","M","","","100.29","","","","","","NA"
"2010-01-01 19:00","2010","01","01","19:00","-24.0","","-26.2","","82","","","M","","M","","","100.35","","","","","","NA"
"2010-01-01 20:00","2010","01","01","20:00","-24.4","","-26.5","","83","","","M","","M","","","100.38","","","","","","NA"
"2010-01-01 21:00","2010","01","01","21:00","-24.8","","-27.0","","82","","","M","","M","","","100.39","","","","","","NA"
"2010-01-01 22:00","2010","01","01","22:00","-24.6","","-27.0","","80","","","M","","M","","","100.40","","","","","","NA"
"2010-01-01 23:00","2010","01","01","23:00","-25.0","","-27.3","","81","","","M","","M","","","100.39","","","","","","NA"
"2010-01-02 00:00","2010","01","02","00:00","-25.4","","-27.6","","82","","","M","","M","","","100.41","","","","","","NA"
"2010-01-02 01:00","2010","01","02","01:00","-25.9","","-28.2","","81","","","M","","M","","","100.40","","","","","","NA"
"2010-01-02 02:00","2010","01","02","02:00","-26.4","","-28.8","","80","","","M","","M","","","100.44","","","","","","NA"
"2010-01-02 03:00","2010","01","02","03:00","-26.8","","-29.2","","80","","","M","","M","","","100.49","","","","","","NA"
"2010-01-02 04:00","2010","01","02","04:00","-27.7","","-29.8","","82","","","M","","M","","","100.52","","","","","","NA"
"2010-01-02 05:00","2010","01","02","05:00","-28.4","","-30.3","","84","","","M","","M","","","100.52","","","","","","NA"
"2010-01-02 06:00","2010","01","02","06:00","-28.6","","-30.6","","83","","","M","","M","","","100.54","","","","","","NA"
"2010-01-02 07:00","2010","01","02","07:00","-29.2","","-31.3","","82","","","M","","M","","","100.59","","","","","","NA"
"2010-01-02 08:00","2010","01","02","08:00","-29.4","","-31.6","","81","","","M","","M","","","100.60","","","","","","NA"
"2010-01-02 09:00","2010","01","02","09:00","-29.3","","-31.8","","79","","","M","","M","","","100.62","","","","","","NA"
"2010-01-02 10:00","2010","01","02","10:00","-28.5","","-31.4","","76","","","M","","M","","","100.69","","","","","","NA"
"2010-01-02 11:00","2010","01","02","11:00","-26.9","","-30.6","","71","","","M","","M","","","100.72","","","","","","NA"
"2010-01-02 12:00","2010","01","02","12:00","-24.9","","-29.5","","65","","","M","","M","","","100.66","","","","","","NA"
"2010-01-02 13:00","2010","01","02","13:00","-24.0","","-28.8","","65","","","M","","M","","","100.62","","","","","","NA"
"2010-01-02 14:00","2010","01","02","14:00","-22.5","","-27.6","","63","","","M","","M","","","100.59","","","","","","NA"
"2010-01-02 15:00","2010","01","02","15:00","-21.9","","-26.5","","66","","","M","","M","","","100.54","","","","","","NA"
"2010-01-02 16:00","2010","01","02","16:00","-22.4","","-26.4","","70","","","M","","M","","","100.57","","","","","","NA"
"2010-01-02 17:00","2010","01","02","17:00","-23.1","","-26.1","","76","","","M","","M","","","100.62","","","","","","NA"
"2010-01-02 18:00","2010","01","02","18:00","-23.8","","-26.3","","80","","","M","","M","","","100.66","","","","","","NA"
"2010-01-02 19:00","2010","01","02","19:00","-24.0","","-26.4","","81","","","M","","M","","","100.72","","","","","","NA"
"2010-01-02 20:00","2010","01","02","20:00","-24.1","","-26.4","","81","","","M","","M","","","100.77","","","","","","NA"
"2010-01-02 21:00","2010","01","02","21:00","-24.4","","-26.5","","83","","","M","","M","","","100.78","","","","","","NA"
"2010-01-02 22:00","2010","01","02","22:00","-24.1","","-26.1","","83","","","M","","M","","","100.73","","","","","","NA"
"2010-01-02 23:00","2010","01","02","23:00","-24.3","","-26.3","","83","","","M","","M","","","100.73","","","","","","NA"
"2010-01-03 00:00","2010","01","03","00:00","-24.5","","-26.5","","83","","","M","","M","","","100.69","","","","","","NA"
"2010-01-03 01:00","2010","01","03","01:00","-24.6","","-26.7","","83","","","M","","M","","","100.69","","","","","","NA"
"2010-01-03 02:00","2010","01","03","02:00","-24.8","","-27.0","","82","","","M","","M","","","100.73","","","","","","NA"
"2010-01-03 03:00","2010","01","03","03:00","-25.0","","-27.2","","82","","","M","","M","","","100.75","","","","","","NA"
"2010-01-03 04:00","2010","01","03","04:00","-25.3","","-27.3","","83","","","M","","M","","","100.69","","","","","","NA"
"2010-01-03 05:00","2010","01","03","05:00","-25.0","","-27.1","","83","","","M","","M","","","100.66","","","","","","NA"
"2010-01-03 06:00","2010","01","03","06:00","-24.7","","-26.9","","82","","","M","","M","","","100.66","","","","","","NA"
"2010-01-03 07:00","2010","01","03","07:00","-24.3","","-26.5","","82","","","M","","M","","","100.67","","","","","","NA"
"2010-01-03 08:00","2010","01","03","08:00","-23.9","","-26.1","","82","","","M","","M","","","100.72","","","","","","NA"
"2010-01-03 09:00","2010","01","03","09:00","-23.9","","-26.1","","82","","","M","","M","","","100.73","","","","","","NA"
"2010-01-03 10:00","2010","01","03","10:00","-22.9","","-26.2","","74","","","M","","M","","","100.74","","","","","","NA"
"2010-01-03 11:00","2010","01","03","11:00","-20.3","","-24.8","","67","","","M","","M","","","100.70","","","","","","NA"
"2010-01-03 12:00","2010","01","03","12:00","-18.9","","-24.1","","63","","","M","","M","","","100.64","","","","","","NA"
"2010-01-03 13:00","2010","01","03","13:00","-17.6","","-23.1","","62","","","M","","M","","","100.57","","","","","","NA"
"2010-01-03 14:00","2010","01","03","14:00","-16.1","","-21.7","","62","","","M","","M","","","100.53","","","","","","NA"
"2010-01-03 15:00","2010","01","03","15:00","-15.8","","-21.1","","64","","","M","","M","","","100.48","","","","","","NA"
"2010-01-03 16:00","2010","01","03","16:00","-16.0","","-20.3","","69","","","M","","M","","","100.49","","","","","","NA"
"2010-01-03 17:00","2010","01","03","17:00","-16.4","","-20.0","","74","","","M","","M","","","100.52","","","","","","NA"
"2010-01-03 18:00","2010","01","03","18:00","-16.5","","-19.8","","76","","","M","","M","","","100.53","","","","","","NA"
"2010-01-03 19:00","2010","01","03","19:00","-16.5","","-19.7","","76","","","M","","M","","","100.50","","","","","","NA"
"2010-01-03 20:00","2010","01","03","20:00","-16.6","","-19.8","","76","","","M","","M","","","100.49","","","","","","NA"
"2010-01-03 21:00","2010","01","03","21:00","-16.5","","-19.7","","76","","","M","","M","","","100.44","","","","","","NA"
"2010-01-03 22:00","2010","01","03","22:00","-16.4","","-19.6","","76","","","M","","M","","","100.37","","","","","","NA"
"2010-01-03 23:00","2010","01","03","23:00","-16.5","","-19.7","","76","","","M","","M","","","100.35","","","","","","NA"
"2010-01-04 00:00","2010","01","04","00:00","-16.8","","-19.8","","78","","","M","","M","","","100.32","","","","","","NA"
"2010-01-04 01:00","2010","01","04","01:00","-16.8","","-19.5","","80","","","M","","M","","","100.25","","","","","","NA"
"2010-01-04 02:00","2010","01","04","02:00","-16.7","","-19.3","","80","","","M","","M","","","100.19","","","","","","NA"
"2010-01-04 03:00","2010","01","04","03:00","-16.5","","-18.8","","82","","","M","","M","","","100.17","","","","","","NA"
"2010-01-04 04:00","2010","01","04","04:00","-16.5","","-18.6","","84","","","M","","M","","","100.11","","","","","","NA"
"2010-01-04 05:00","2010","01","04","05:00","-16.1","","-17.8","","87","","","M","","M","","","100.08","","","","","","NA"
"2010-01-04 06:00","2010","01","04","06:00","-15.7","","-17.5","","86","","","M","","M","","","100.06","","","","","","NA"
"2010-01-04 07:00","2010","01","04","07:00","-15.4","","-17.5","","84","","","M","","M","","","100.07","","","","","","NA"
"2010-01-04 08:00","2010","01","04","08:00","-15.2","","-17.2","","85","","","M","","M","","","100.06","","","","","","NA"
"2010-01-04 09:00","2010","01","04","09:00","-15.3","","-17.2","","85","","","M","","M","","","100.04","","","","","","NA"
"2010-01-04 10:00","2010","01","04","10:00","-15.1","","-17.7","","80","","","M","","M","","","100.04","","","","","","NA"
"2010-01-04 11:00","2010","01","04","11:00","-14.3","","-17.6","","76","","","M","","M","","","100.01","","","","","","NA"
"2010-01-04 12:00","2010","01","04","12:00","-13.2","","-16.7","","75","","","M","","M","","","99.94","","","","","","NA"
"2010-01-04 13:00","2010","01","04","13:00","-12.4","","-15.7","","76","","","M","","M","","","99.84","","","","","","NA"
"2010-01-04 14:00","2010","01","04","14:00","-11.1","","-14.8","","74","","","M","","M","","","99.77","","","","","","NA"
"2010-01-04 15:00","2010","01","04","15:00","-10.0","","-13.8","","74","","","M","","M","","","99.77","","","","","","NA"
"2010-01-04 16:00","2010","01","04","16:00","-10.7","","-13.3","","81","","","M","","M","","","99.78","","","","","","NA"
"2010-01-04 17:00","2010","01","04","17:00","-11.6","","-13.3","","87","","","M","","M","","","99.81","","","","","","NA"
"2010-01-04 18:00","2010","01","04","18:00","-12.5","","-14.0","","89","","","M","","M","","","99.83","","","","","","NA"
"2010-01-04 19:00","2010","01","04","19:00","-12.9","","-14.5","","88","","","M","","M","","","99.85","","","","","","NA"
"2010-01-04 20:00","2010","01","04","20:00","-12.7","","-14.6","","86","","","M","","M","","","99.84","","","","","","NA"
"2010-01-04 21:00","2010","01","04","21:00","-13.0","","-14.9","","86","","","M","","M","","","99.81","","","","","","NA"
"2010-01-04 22:00","2010","01","04","22:00","-13.4","","-15.4","","85","","","M","","M","","","99.80","","","","","","NA"
"2010-01-04 23:00","2010","01","04","23:00","-13.5","","-15.1","","88","","","M","","M","","","99.78","","","","","","NA"
"2010-01-05 00:00","2010","01","05","00:00","-13.1","","-14.4","","90","","","M","","M","","","99.73","","","","","","NA"
"2010-01-05 01:00","2010","01","05","01:00","-13.3","","-14.8","","88","","","M","","M","","","99.72","","","","","","NA"
"2010-01-05 02:00","2010","01","05","02:00","-13.4","","-14.7","","90","","","M","","M","","","99.71","","","","","","NA"
"2010-01-05 03:00","2010","01","05","03:00","-13.4","","-15.0","","88","","","M","","M","","","99.67","","","","","","NA"
"2010-01-05 04:00","2010","01","05","04:00","-13.0","","-15.1","","84","","","M","","M","","","99.67","","","","","","NA"
"2010-01-05 05:00","2010","01","05","05:00","-12.6","","-15.9","","76","","","M","","M","","","99.64","","","","","","NA"
"2010-01-05 06:00","2010","01","05","06:00","-12.3","","-16.3","","72","","","M","","M","","","99.66","","","","","","NA"
"2010-01-05 07:00","2010","01","05","07:00","-12.2","","-16.0","","73","","","M","","M","","","99.67","","","","","","NA"
"2010-01-05 08:00","2010","01","05","08:00","-12.5","","-15.9","","76","","","M","","M","","","99.66","","","","","","NA"
"2010-01-05 09:00","2010","01","05","09:00","-12.5","","-15.1","","81","","","M","","M","","","99.66","","","","","","NA"
"2010-01-05 10:00","2010","01","05","10:00","-12.4","","-14.6","","84","","","M","","M","","","99.68","","","","","","NA"
"2010-01-05 11:00","2010","01","05","11:00","-12.0","","-14.2","","84","","","M","","M","","","99.67","","","","","","NA"
"2010-01-05 12:00","2010","01","05","12:00","-11.9","","-14.4","","82","","","M","","M","","","99.64","","","","","","NA"
"2010-01-05 13:00","2010","01","05","13:00","-11.5","","-14.2","","80","","","M","","M","","","99.60","","","","","","NA"
"2010-01-05 14:00","2010","01","05","14:00","-11.2","","-13.8","","81","","","M","","M","","","99.54","","","","","","NA"
"2010-01-05 15:00","2010","01","05","15:00","-10.3","","-13.2","","79","","","M","","M","","","99.54","","","","","","NA"
"2010-01-05 16:00","2010","01","05","16:00","-10.6","","-13.0","","82","","","M","","M","","","99.56","","","","","","NA"
"2010-01-05 17:00","2010","01","05","17:00","-10.9","","-12.6","","87","","","M","","M","","","99.61","","","","","","NA"
"2010-01-05 18:00","2010","01","05","18:00","-11.1","","-12.3","","91","","","M","","M","","","99.63","","","","","","NA"
"2010-01-05 19:00","2010","01","05","19:00","-11.1","","-12.2","","92","","","M","","M","","","99.64","","","","","","NA"
"2010-01-05 20:00","2010","01","05","20:00","-11.3","","-12.8","","89","","","M","","M","","","99.65","","","","","","NA"
"2010-01-05 21:00","2010","01","05","21:00","-11.4","","-13.3","","86","","","M","","M","","","99.64","","","","","","NA"
"2010-01-05 22:00","2010","01","05","22:00","-11.8","","-13.7","","86","","","M","","M","","","99.62","","","","","","NA"
"2010-01-05 23:00","2010","01","05","23:00","-12.4","","-14.1","","87","","","M","","M","","","99.60","","","","","","NA"
"2010-01-06 00:00","2010","01","06","00:00","-13.0","","-15.0","","85","","","M","","M","","","99.63","","","","","","NA"
"2010-01-06 01:00","2010","01","06","01:00","-13.5","","-15.5","","85","","","M","","M","","","99.64","","","","","","NA"
"2010-01-06 02:00","2010","01","06","02:00","-13.5","","-15.4","","86","","","M","","M","","","99.63","","","","","","NA"
"2010-01-06 03:00","2010","01","06","03:00","-14.2","","-15.8","","88","","","M","","M","","","99.66","","","","","","NA"
"2010-01-06 04:00","2010","01","06","04:00","-14.3","","-15.6","","90","","","M","","M","","","99.66","","","","","","NA"
"2010-01-06 05:00","2010","01","06","05:00","-14.8","","-15.8","","92","","","M","","M","","","99.65","","","","","","NA"
"2010-01-06 06:00","2010","01","06","06:00","-14.3","","-15.4","","91","","","M","","M","","","99.62","","","","","","NA"
"2010-01-06 07:00","2010","01","06","07:00","-14.4","","-15.7","","90","","","M","","M","","","99.65","","","","","","NA"
"2010-01-06 08:00","2010","01","06","08:00","-14.6","","-16.1","","88","","","M","","M","","","99.67","","","","","","NA"
"2010-01-06 09:00","2010","01","06","09:00","-14.9","","-16.2","","90","","","M","","M","","","99.71","","","","","","NA"
"2010-01-06 10:00","2010","01","06","10:00","-14.3","","-16.0","","87","","","M","","M","","","99.72","","","","","","NA"
"2010-01-06 11:00","2010","01","06","11:00","-13.6","","-15.5","","86","","","M","","M","","","99.74","","","","","","NA"
"2010-01-06 12:00","2010","01","06","12:00","-11.7","","-15.0","","76","","","M","","M","","","99.66","","","","","","NA"
"2010-01-06 13:00","2010","01","06","13:00","-11.6","","-14.6","","78","","","M","","M","","","99.62","","","","","","NA"
"2010-01-06 14:00","2010","01","06","14:00","-10.8","","-13.7","","79","","","M","","M","","","99.57","","","","","","NA"
"2010-01-06 15:00","2010","01","06","15:00","-10.9","","-13.3","","82","","","M","","M","","","99.56","","","","","","NA"
"2010-01-06 16:00","2010","01","06","16:00","-11.4","","-13.6","","84","","","M","","M","","","99.60","","","","","","NA"
"2010-01-06 17:00","2010","01","06","17:00","-11.9","","-13.7","","86","","","M","","M","","","99.63","","","","","","NA"
"2010-01-06 18:00","2010","01","06","18:00","-12.5","","-14.1","","88","","","M","","M","","","99.64","","","","","","NA"
"2010-01-06 19:00","2010","01","06","19:00","-12.7","","-14.4","","87","","","M","","M","","","99.65","","","","","","NA"
"2010-01-06 20:00","2010","01","06","20:00","-13.3","","-14.9","","88","","","M","","M","","","99.67","","","","","","NA"
"2010-01-06 21:00","2010","01","06","21:00","-13.8","","-15.4","","88","","","M","","M","","","99.70","","","","","","NA"
"2010-01-06 22:00","2010","01","06","22:00","-14.2","","-15.8","","88","","","M","","M","","","99.73","","","","","","NA"
"2010-01-06 23:00","2010","01","06","23:00","-14.5","","-15.9","","89","","","M","","M","","","99.72","","","","","","NA"
"2010-01-07 00:00","2010","01","07","00:00","-14.5","","-15.7","","91","","","M","","M","","","99.76","","","","","","NA"
"2010-01-07 01:00","2010","01","07","01:00","-14.6","","-15.6","","92","","","M","","M","","","99.73","","","","","","NA"
"2010-01-07 02:00","2010","01","07","02:00","-14.7","","-15.7","","92","","","M","","M","","","99.74","","","","","","NA"
"2010-01-07 03:00","2010","01","07","03:00","-14.8","","-15.8","","92","","","M","","M","","","99.75","","","","","","NA"
"2010-01-07 04:00","2010","01","07","04:00","-14.8","","-15.8","","92","","","M","","M","","","99.77","","","","","","NA"
"2010-01-07 05:00","2010","01","07","05:00","-14.8","","-15.8","","92","","","M","","M","","","99.79","","","","","","NA"
"2010-01-07 06:00","2010","01","07","06:00","-14.7","","-15.6","","93","","","M","","M","","","99.76","","","","","","NA"
"2010-01-07 07:00","2010","01","07","07:00","-14.8","","-15.7","","93","","","M","","M","","","99.77","","","","","","NA"
"2010-01-07 08:00","2010","01","07","08:00","-14.8","","-15.6","","94","","","M","","M","","","99.81","","","","","","NA"
"2010-01-07 09:00","2010","01","07","09:00","-14.9","","-16.0","","91","","","M","","M","","","99.84","","","","","","NA"
"2010-01-07 10:00","2010","01","07","10:00","-14.2","","-16.0","","86","","","M","","M","","","99.83","","","","","","NA"
"2010-01-07 11:00","2010","01","07","11:00","-12.5","","-15.7","","77","","","M","","M","","","99.82","","","","","","NA"
"2010-01-07 12:00","2010","01","07","12:00","-12.3","","-15.8","","75","","","M","","M","","","99.82","","","","","","NA"
"2010-01-07 13:00","2010","01","07","13:00","-11.6","","-15.5","","73","","","M","","M","","","99.76","","","","","","NA"
"2010-01-07 14:00","2010","01","07","14:00","-11.5","","-15.8","","70","","","M","","M","","","99.74","","","","","","NA"
"2010-01-07 15:00","2010","01","07","15:00","-11.1","","-16.1","","67","","","M","","M","","","99.73","","","","","","NA"
"2010-01-07 16:00","2010","01","07","16:00","-11.6","","-15.5","","73","","","M","","M","","","99.75","","","","","","NA"
"2010-01-07 17:00","2010","01","07","17:00","-12.9","","-15.7","","79","","","M","","M","","","99.79","","","","","","NA"
"2010-01-07 18:00","2010","01","07","18:00","-14.0","","-16.6","","81","","","M","","M","","","99.88","","","","","","NA"
"2010-01-07 19:00","2010","01","07","19:00","-14.8","","-18.1","","76","","","M","","M","","","99.87","","","","","","NA"
"2010-01-07 20:00","2010","01","07","20:00","-15.4","","-19.2","","73","","","M","","M","","","99.93","","","","","","NA"
"2010-01-07 21:00","2010","01","07","21:00","-16.2","","-20.2","","71","","","M","","M","","","99.93","","","","","","NA"
"2010-01-07 22:00","2010","01","07","22:00","-16.9","","-20.9","","71","","","M","","M","","","99.96","","","","","","NA"
"2010-01-07 23:00","2010","01","07","23:00","-17.6","","-21.6","","71","","","M","","M","","","99.98","","","","","","NA"
"2010-01-08 00:00","2010","01","08","00:00","-18.3","","-22.5","","70","","","M","","M","","","100.02","","","","","","NA"
"2010-01-08 01:00","2010","01","08","01:00","-18.9","","-22.9","","71","","","M","","M","","","100.02","","","","","","NA"
"2010-01-08 02:00","2010","01","08","02:00","-19.5","","-23.3","","72","","","M","","M","","","100.03","","","","","","NA"
"2010-01-08 03:00","2010","01","08","03:00","-20.2","","-24.0","","72","","","M","","M","","","100.09","","","","","","NA"
"2010-01-08 04:00","2010","01","08","04:00","-20.8","","-24.4","","73","","","M","","M","","","100.14","","","","","","NA"
"2010-01-08 05:00","2010","01","08","05:00","-21.3","","-25.0","","72","","","M","","M","","","100.17","","","","","","NA"
"2010-01-08 06:00","2010","01","08","06:00","-21.7","","-25.6","","71","","","M","","M","","","100.18","","","","","","NA"
"2010-01-08 07:00","2010","01","08","07:00","-22.1","","-25.7","","73","","","M","","M","","","100.21","","","","","","NA"
"2010-01-08 08:00","2010","01","08","08:00","-22.5","","-25.5","","76","","","M","","M","","","100.28","","","","","","NA"
"2010-01-08 09:00","2010","01","08","09:00","-22.8","","-25.4","","79","","","M","","M","","","100.33","","","","","","NA"
"2010-01-08 10:00","2010","01","08","10:00","-22.0","","-25.4","","74","","","M","","M","","","100.36","","","","","","NA"
"2010-01-08 11:00","2010","01","08","11:00","-20.7","","-24.8","","70","","","M","","M","","","100.39","","","","","","NA"
"2010-01-08 12:00","2010","01","08","12:00","-19.0","","-23.7","","66","","","M","","M","","","100.36","","","","","","NA"
"2010-01-08 13:00","2010","01","08","13:00","-17.5","","-22.6","","64","","","M","","M","","","100.30","","","","","","NA"
"2010-01-08 14:00","2010","01","08","14:00","-15.4","","-21.5","","60","","","M","","M","","","100.29","","","","","","NA"
"2010-01-08 15:00","2010","01","08","15:00","-15.3","","-21.5","","59","","","M","","M","","","100.31","","","","","","NA"
"2010-01-08 16:00","2010","01","08","16:00","-14.9","","-21.9","","55","","","M","","M","","","100.37","","","","","","NA"
"2010-01-08 17:00","2010","01","08","17:00","-15.9","","-21.0","","65","","","M","","M","","","100.43","","","","","","NA"
"2010-01-08 18:00","2010","01","08","18:00","-17.3","","-21.0","","73","","","M","","M","","","100.52","","","","","","NA"
"2010-01-08 19:00","2010","01","08","19:00","-17.6","","-20.6","","77","","","M","","M","","","100.54","","","","","","NA"
"2010-01-08 20:00","2010","01","08","20:00","-18.6","","-21.4","","79","","","M","","M","","","100.56","","","","","","NA"
"2010-01-08 21:00","2010","01","08","21:00","-18.9","","-21.3","","81","","","M","","M","","","100.59","","","","","","NA"
"2010-01-08 22:00","2010","01","08","22:00","-19.6","","-21.4","","86","","","M","","M","","","100.56","","","","","","NA"
"2010-01-08 23:00","2010","01","08","23:00","-20.3","","-21.7","","89","","","M","","M","","","100.59","","","","","","NA"
"2010-01-09 00:00","2010","01","09","00:00","-21.0","","-22.6","","87","","","M","","M","","","100.58","","","","","","NA"
"2010-01-09 01:00","2010","01","09","01:00","-22.3","","-23.5","","90","","","M","","M","","","100.56","","","","","","NA"
"2010-01-09 02:00","2010","01","09","02:00","-22.6","","-23.8","","90","","","M","","M","","","100.57","","","","","","NA"
"2010-01-09 03:00","2010","01","09","03:00","-23.1","","-24.1","","91","","","M","","M","","","100.56","","","","","","NA"
"2010-01-09 04:00","2010","01","09","04:00","-23.6","","-24.7","","91","","","M","","M","","","100.57","","","","","","NA"
"2010-01-09 05:00","2010","01","09","05:00","-23.0","","-23.8","","93","","","M","","M","","","100.51","","","","","","NA"
"2010-01-09 06:00","2010","01","09","06:00","-21.6","","-22.8","","90","","","M","","M","","","100.49","","","","","","NA"
"2010-01-09 07:00","2010","01","09","07:00","-20.9","","-22.3","","88","","","M","","M","","","100.43","","","","","","NA"
"2010-01-09 08:00","2010","01","09","08:00","-19.4","","-20.2","","93","","","M","","M","","","100.41","","","","","","NA"
"2010-01-09 09:00","2010","01","09","09:00","-18.7","","-19.4","","94","","","M","","M","","","100.39","","","","","","NA"
"2010-01-09 10:00","2010","01","09","10:00","-17.6","","-18.0","","97","","","M","","M","","","100.38","","","","","","NA"
"2010-01-09 11:00","2010","01","09","11:00","-14.3","","-14.6","","98","","","M","","M","","","100.39","","","","","","NA"
"2010-01-09 12:00","2010","01","09","12:00","-6.8","","-9.0","","84","","","M","","M","","","100.28","","","","","","NA"
"2010-01-09 13:00","2010","01","09","13:00","-6.2","","-8.8","","82","","","M","","M","","","100.13","","","","","","NA"
"2010-01-09 14:00","2010","01","09","14:00","-5.5","","-8.1","","82","","","M","","M","","","100.06","","","","","","NA"
"2010-01-09 15:00","2010","01","09","15:00","-5.2","","-8.2","","79","","","M","","M","","","99.98","","","","","","NA"
"2010-01-09 16:00","2010","01","09","16:00","-4.5","","-7.3","","81","","","M","","M","","","99.94","","","","","","NA"
"2010-01-09 17:00","2010","01","09","17:00","-4.3","","-8.2","","74","","","M","","M","","","99.89","","","","","","NA"
"2010-01-09 18:00","2010","01","09","18:00","-3.4","","-5.9","","83","","","M","","M","","","99.82","","","","","","NA"
"2010-01-09 19:00","2010","01","09","19:00","-2.9","","-5.4","","83","","","M","","M","","","99.72","","","","","","NA"
"2010-01-09 20:00","2010","01","09","20:00","-2.7","","-5.7","","80","","","M","","M","","","99.66","","","","","","NA"
"2010-01-09 21:00","2010","01","09","21:00","-2.4","","-4.9","","83","","","M","","M","","","99.62","","","","","","NA"
"2010-01-09 22:00","2010","01","09","22:00","-2.2","","-5.4","","79","","","M","","M","","","99.54","","","","","","NA"
"2010-01-09 23:00","2010","01","09","23:00","-1.9","","-4.5","","82","","","M","","M","","","99.49","","","","","","NA"
"2010-01-10 00:00","2010","01","10","00:00","-1.7","","-4.4","","82","","","M","","M","","","99.40","","","","","","NA"
"2010-01-10 01:00","2010","01","10","01:00","-1.8","","-4.4","","82","","","M","","M","","","99.32","","","","","","NA"
"2010-01-10 02:00","2010","01","10","02:00","-1.7","","-4.9","","79","","","M","","M","","","99.23","","","","","","NA"
"2010-01-10 03:00","2010","01","10","03:00","-1.2","","-3.0","","88","","","M","","M","","","99.18","","","","","","NA"
"2010-01-10 04:00","2010","01","10","04:00","-1.2","","-2.4","","92","","","M","","M","","","99.12","","","","","","NA"
"2010-01-10 05:00","2010","01","10","05:00","-1.3","","-2.9","","89","","","M","","M","","","99.05","","","","","","NA"
"2010-01-10 06:00","2010","01","10","06:00","-1.3","","-3.3","","86","","","M","","M","","","98.92","","","","","","NA"
"2010-01-10 07:00","2010","01","10","07:00","-1.1","","-3.0","","87","","","M","","M","","","98.87","","","","","","NA"
"2010-01-10 08:00","2010","01","10","08:00","-1.3","","-3.2","","87","","","M","","M","","","98.83","","","","","","NA"
"2010-01-10 09:00","2010","01","10","09:00","-1.5","","-3.4","","87","","","M","","M","","","98.77","","","","","","NA"
"2010-01-10 10:00","2010","01","10","10:00","-1.4","","-2.7","","91","","","M","","M","","","98.71","","","","","","NA"
"2010-01-10 11:00","2010","01","10","11:00","-2.9","","-6.0","","79","","","M","","M","","","98.68","","","","","","NA"
"2010-01-10 12:00","2010","01","10","12:00","-3.7","","-7.0","","78","","","M","","M","","","98.62","","","","","","NA"
"2010-01-10 13:00","2010","01","10","13:00","-4.2","","-7.5","","78","","","M","","M","","","98.59","","","","","","NA"
"2010-01-10 14:00","2010","01","10","14:00","-4.5","","-7.8","","78","","","M","","M","","","98.53","","","","","","NA"
"2010-01-10 15:00","2010","01","10","15:00","-4.4","","-8.0","","76","","","M","","M","","","98.53","","","","","","NA"
"2010-01-10 16:00","2010","01","10","16:00","-4.3","","-8.0","","75","","","M","","M","","","98.52","","","","","","NA"
"2010-01-10 17:00","2010","01","10","17:00","-4.9","","-9.7","","69","","","M","","M","","","98.56","","","","","","NA"
"2010-01-10 18:00","2010","01","10","18:00","-6.8","","-10.0","","78","","","M","","M","","","98.63","","","","","","NA"
"2010-01-10 19:00","2010","01","10","19:00","-8.1","","-8.3","","98","","","M","","M","","","98.70","","","","","","NA"
"2010-01-10 20:00","2010","01","10","20:00","-8.6","","-9.1","","96","","","M","","M","","","98.76","","","","","","NA"
"2010-01-10 21:00","2010","01","10","21:00","-8.9","","-9.5","","95","","","M","","M","","","98.82","","","","","","NA"
"2010-01-10 22:00","2010","01","10","22:00","-9.3","","-10.2","","93","","","M","","M","","","98.85","","","","","","NA"
"2010-01-10 23:00","2010","01","10","23:00","-9.6","","-10.5","","93","","","M","","M","","","98.93","","","","","","NA"
"2010-01-11 00:00","2010","01","11","00:00","-9.7","","-11.0","","90","","","M","","M","","","98.98","","","","","","NA"
"2010-01-11 01:00","2010","01","11","01:00","-9.6","","-11.1","","89","","","M","","M","","","99.04","","","","","","NA"
"2010-01-11 02:00","2010","01","11","02:00","-9.9","","-11.7","","87","","","M","","M","","","99.11","","","","","","NA"
"2010-01-11 03:00","2010","01","11","03:00","-10.3","","-12.9","","81","","","M","","M","","","99.21","","","","","","NA"
"2010-01-11 04:00","2010","01","11","04:00","-10.4","","-12.5","","85","","","M","","M","","","99.29","","","","","","NA"
"2010-01-11 05:00","2010","01","11","05:00","-10.4","","-12.7","","83","","","M","","M","","","99.37","","","","","","NA"
"2010-01-11 06:00","2010","01","11","06:00","-10.6","","-12.9","","83","","","M","","M","","","99.46","","","","","","NA"
"2010-01-11 07:00","2010","01","11","07:00","-11.0","","-12.9","","86","","","M","","M","","","99.58","","","","","","NA"
"2010-01-11 08:00","2010","01","11","08:00","-11.4","","-13.9","","82","","","M","","M","","","99.70","","","","","","NA"
"2010-01-11 09:00","2010","01","11","09:00","-11.7","","-13.9","","84","","","M","","M","","","99.80","","","","","","NA"
"2010-01-11 10:00","2010","01","11","10:00","-11.9","","-14.2","","83","","","M","","M","","","99.84","","","","","","NA"
"2010-01-11 11:00","2010","01","11","11:00","-11.6","","-14.4","","80","","","M","","M","","","99.94","","","","","","NA"
"2010-01-11 12:00","2010","01","11","12:00","-11.2","","-15.0","","73","","","M","","M","","","100.00","","","","","","NA"
"2010-01-11 13:00","2010","01","11","13:00","-11.4","","-15.3","","73","","","M","","M","","","100.02","","","","","","NA"
"2010-01-11 14:00","2010","01","11","14:00","-9.9","","-15.3","","65","","","M","","M","","","100.05","","","","","","NA"
"2010-01-11 15:00","2010","01","11","15:00","-10.5","","-15.8","","65","","","M","","M","","","100.09","","","","","","NA"
"2010-01-11 16:00","2010","01","11","16:00","-10.7","","-16.2","","64","","","M","","M","","","100.21","","","","","","NA"
"2010-01-11 17:00","2010","01","11","17:00","-11.9","","-16.4","","69","","","M","","M","","","100.28","","","","","","NA"
"2010-01-11 18:00","2010","01","11","18:00","-13.3","","-16.6","","76","","","M","","M","","","100.40","","","","","","NA"
"2010-01-11 19:00","2010","01","11","19:00","-14.4","","-17.5","","77","","","M","","M","","","100.39","","","","","","NA"
"2010-01-11 20:00","2010","01","11","20:00","-15.5","","-18.8","","76","","","M","","M","","","100.53","","","","","","NA"
"2010-01-11 21:00","2010","01","11","21:00","-16.2","","-19.7","","74","","","M","","M","","","100.53","","","","","","NA"
"2010-01-11 22:00","2010","01","11","22:00","-16.5","","-20.4","","72","","","M","","M","","","100.51","","","","","","NA"
"2010-01-11 23:00","2010","01","11","23:00","-17.2","","-21.0","","72","","","M","","M","","","100.54","","","","","","NA"
"2010-01-12 00:00","2010","01","12","00:00","-17.9","","-21.2","","75","","","M","","M","","","100.53","","","","","","NA"
"2010-01-12 01:00","2010","01","12","01:00","-18.6","","-21.1","","81","","","M","","M","","","100.52","","","","","","NA"
"2010-01-12 02:00","2010","01","12","02:00","-18.8","","-21.7","","78","","","M","","M","","","100.51","","","","","","NA"
"2010-01-12 03:00","2010","01","12","03:00","-19.4","","-22.0","","80","","","M","","M","","","100.49","","","","","","NA"
"2010-01-12 04:00","2010","01","12","04:00","-19.6","","-22.3","","79","","","M","","M","","","100.44","","","","","","NA"
"2010-01-12 05:00","2010","01","12","05:00","-19.7","","-22.5","","78","","","M","","M","","","100.34","","","","","","NA"
"2010-01-12 06:00","2010","01","12","06:00","-19.3","","-21.9","","80","","","M","","M","","","100.20","","","","","","NA"
"2010-01-12 07:00","2010","01","12","07:00","-18.8","","-21.2","","81","","","M","","M","","","100.28","","","","","","NA"
"2010-01-12 08:00","2010","01","12","08:00","-18.3","","-20.3","","84","","","M","","M","","","100.19","","","","","","NA"
"2010-01-12 09:00","2010","01","12","09:00","-16.9","","-18.6","","87","","","M","","M","","","100.08","","","","","","NA"
"2010-01-12 10:00","2010","01","12","10:00","-15.6","","-17.7","","84","","","M","","M","","","100.10","","","","","","NA"
"2010-01-12 11:00","2010","01","12","11:00","-12.4","","-14.0","","88","","","M","","M","","","99.96","","","","","","NA"
"2010-01-12 12:00","2010","01","12","12:00","-5.4","","-6.8","","90","","","M","","M","","","99.72","","","","","","NA"
"2010-01-12 13:00","2010","01","12","13:00","-4.1","","-5.3","","91","","","M","","M","","","99.59","","","","","","NA"
"2010-01-12 14:00","2010","01","12","14:00","-3.3","","-4.2","","93","","","M","","M","","","99.41","","","","","","NA"
"2010-01-12 15:00","2010","01","12","15:00","-2.2","","-3.0","","94","","","M","","M","","","99.32","","","","","","NA"
"2010-01-12 16:00","2010","01","12","16:00","-1.7","","-2.9","","91","","","M","","M","","","99.18","","","","","","NA"
"2010-01-12 17:00","2010","01","12","17:00","-1.2","","-1.7","","96","","","M","","M","","","99.06","","","","","","NA"
"2010-01-12 18:00","2010","01","12","18:00","-1.2","","-1.7","","96","","","M","","M","","","99.01","","","","","","NA"
"2010-01-12 19:00","2010","01","12","19:00","-1.2","","-1.6","","97","","","M","","M","","","98.95","","","","","","NA"
"2010-01-12 20:00","2010","01","12","20:00","-0.6","","-1.8","","92","","","M","","M","","","98.88","","","","","","NA"
"2010-01-12 21:00","2010","01","12","21:00","-0.2","","-2.5","","84","","","M","","M","","","98.81","","","","","","NA"
"2010-01-12 22:00","2010","01","12","22:00","0.3","","-0.8","","92","","","M","","M","","","98.69","","","","","","NA"
"2010-01-12 23:00","2010","01","12","23:00","0.6","","-1.4","","86","","","M","","M","","","98.65","","","","","","NA"
"2010-01-13 00:00","2010","01","13","00:00","0.7","","-1.0","","88","","","M","","M","","","98.62","","","","","","NA"
"2010-01-13 01:00","2010","01","13","01:00","1.0","","-0.2","","92","","","M","","M","","","98.53","","","","","","NA"
"2010-01-13 02:00","2010","01","13","02:00","1.4","","-0.1","","90","","","M","","M","","","98.47","","","","","","NA"
"2010-01-13 03:00","2010","01","13","03:00","1.2","","0.6","","96","","","M","","M","","","98.50","","","","","","NA"
"2010-01-13 04:00","2010","01","13","04:00","1.4","","0.7","","95","","","M","","M","","","98.45","","","","","","NA"
"2010-01-13 05:00","2010","01","13","05:00","0.6","","-0.4","","93","","","M","","M","","","98.45","","","","","","NA"
"2010-01-13 06:00","2010","01","13","06:00","0.2","","-1.2","","90","","","M","","M","","","98.45","","","","","","NA"
"2010-01-13 07:00","2010","01","13","07:00","-1.6","","-1.6","","100","","","M","","M","","","98.50","","","","","","NA"
"2010-01-13 08:00","2010","01","13","08:00","-2.3","","-2.3","","100","","","M","","M","","","98.55","","","","","","NA"
"2010-01-13 09:00","2010","01","13","09:00","-2.6","","-2.6","","100","","","M","","M","","","98.56","","","","","","NA"
"2010-01-13 10:00","2010","01","13","10:00","-1.3","","-2.2","","94","","","M","","M","","","98.55","","","","","","NA"
"2010-01-13 11:00","2010","01","13","11:00","0.5","","-0.2","","95","","","M","","M","","","98.57","","","","","","NA"
"2010-01-13 12:00","2010","01","13","12:00","1.4","","0.9","","96","","","M","","M","","","98.58","","","","","","NA"
"2010-01-13 13:00","2010","01","13","13:00","1.3","","0.6","","95","","","M","","M","","","98.49","","","","","","NA"
"2010-01-13 14:00","2010","01","13","14:00","1.2","","0.6","","96","","","M","","M","","","98.48","","","","","","NA"
"2010-01-13 15:00","2010","01","13","15:00","1.1","","1.1","","100","","","M","","M","","","98.46","","","","","","NA"
"2010-01-13 16:00","2010","01","13","16:00","0.7","","0.7","","100","","","M","","M","","","98.48","","","","","","NA"
"2010-01-13 17:00","2010","01","13","17:00","0.5","","0.5","","100","","","M","","M","","","98.49","","","","","","NA"
"2010-01-13 18:00","2010","01","13","18:00","0.3","","0.3","","100","","","M","","M","","","98.46","","","","","","NA"
"2010-01-13 19:00","2010","01","13","19:00","0.0","","0.0","","100","","","M","","M","","","98.45","","","","","","NA"
"2010-01-13 20:00","2010","01","13","20:00","-0.1","","-0.1","","100","","","M","","M","","","98.43","","","","","","NA"
"2010-01-13 21:00","2010","01","13","21:00","0.2","","0.2","","100","","","M","","M","","","98.40","","","","","","NA"
"2010-01-13 22:00","2010","01","13","22:00","0.4","","0.2","","99","","","M","","M","","","98.32","","","","","","NA"
"2010-01-13 23:00","2010","01","13","23:00","0.6","","0.4","","99","","","M","","M","","","98.32","","","","","","NA"
"2010-01-14 00:00","2010","01","14","00:00","0.0","","0.0","","100","","","M","","M","","","98.32","","","","","","NA"
"2010-01-14 01:00","2010","01","14","01:00","-0.4","","-0.4","","100","","","M","","M","","","98.25","","","","","","NA"
"2010-01-14 02:00","2010","01","14","02:00","-0.4","","-0.4","","100","","","M","","M","","","98.15","","","","","","NA"
"2010-01-14 03:00","2010","01","14","03:00","-0.2","","-0.2","","100","","","M","","M","","","98.15","","","","","","NA"
"2010-01-14 04:00","2010","01","14","04:00","-0.5","","-0.6","","99","","","M","","M","","","98.11","","","","","","NA"
"2010-01-14 05:00","2010","01","14","05:00","-0.5","","-0.5","","100","","","M","","M","","","98.07","","","","","","NA"
"2010-01-14 06:00","2010","01","14","06:00","-0.2","","-0.3","","99","","","M","","M","","","98.02","","","","","","NA"
"2010-01-14 07:00","2010","01","14","07:00","0.0","","0.0","","100","","","M","","M","","","97.96","","","","","","NA"
"2010-01-14 08:00","2010","01","14","08:00","0.4","","0.4","","100","","","M","","M","","","97.98","","","","","","NA"
"2010-01-14 09:00","2010","01","14","09:00","1.0","","0.6","","97","","","M","","M","","","97.97","","","","","","NA"
"2010-01-14 10:00","2010","01","14","10:00","0.8","","0.7","","99","","","M","","M","","","98.00","","","","","","NA"
"2010-01-14 11:00","2010","01","14","11:00","0.5","","0.5","","100","","","M","","M","","","98.03","","","","","","NA"
"2010-01-14 12:00","2010","01","14","12:00","0.4","","0.4","","100","","","M","","M","","","98.04","","","","","","NA"
"2010-01-14 13:00","2010","01","14","13:00","0.2","","0.2","","100","","","M","","M","","","98.04","","","","","","NA"
"2010-01-14 14:00","2010","01","14","14:00","-0.1","","-0.1","","100","","","M","","M","","","98.04","","","","","","NA"
"2010-01-14 15:00","2010","01","14","15:00","0.1","","0.1","","100","","","M","","M","","","98.10","","","","","","NA"
"2010-01-14 16:00","2010","01","14","16:00","0.1","","-0.5","","96","","","M","","M","","","98.20","","","","","","NA"
"2010-01-14 17:00","2010","01","14","17:00","-0.3","","-1.3","","93","","","M","","M","","","98.33","","","","","","NA"
"2010-01-14 18:00","2010","01","14","18:00","-0.5","","-1.2","","95","","","M","","M","","","98.47","","","","","","NA"
"2010-01-14 19:00","2010","01","14","19:00","-0.5","","-1.1","","96","","","M","","M","","","98.56","","","","","","NA"
"2010-01-14 20:00","2010","01","14","20:00","-0.4","","-1.1","","95","","","M","","M","","","98.66","","","","","","NA"
"2010-01-14 21:00","2010","01","14","21:00","-0.6","","-1.7","","92","","","M","","M","","","98.77","","","","","","NA"
"2010-01-14 22:00","2010","01","14","22:00","-1.0","","-2.3","","91","","","M","","M","","","98.85","","","","","","NA"
"2010-01-14 23:00","2010","01","14","23:00","-1.7","","-3.3","","89","","","M","","M","","","98.93","","","","","","NA"
"2010-01-15 00:00","2010","01","15","00:00","-2.1","","-3.8","","88","","","M","","M","","","99.03","","","","","","NA"
"2010-01-15 01:00","2010","01","15","01:00","-3.5","","-5.5","","86","","","M","","M","","","99.14","","","","","","NA"
"2010-01-15 02:00","2010","01","15","02:00","-5.0","","-7.2","","85","","","M","","M","","","99.19","","","","","","NA"
"2010-01-15 03:00","2010","01","15","03:00","-6.3","","-8.0","","88","","","M","","M","","","99.30","","","","","","NA"
"2010-01-15 04:00","2010","01","15","04:00","-6.4","","-7.9","","89","","","M","","M","","","99.35","","","","","","NA"
"2010-01-15 05:00","2010","01","15","05:00","-6.5","","-7.8","","90","","","M","","M","","","99.32","","","","","","NA"
"2010-01-15 06:00","2010","01","15","06:00","-6.8","","-8.1","","90","","","M","","M","","","99.39","","","","","","NA"
"2010-01-15 07:00","2010","01","15","07:00","-7.1","","-8.4","","90","","","M","","M","","","99.40","","","","","","NA"
"2010-01-15 08:00","2010","01","15","08:00","-7.0","","-8.0","","93","","","M","","M","","","99.41","","","","","","NA"
"2010-01-15 09:00","2010","01","15","09:00","-6.6","","-6.9","","98","","","M","","M","","","99.39","","","","","","NA"
"2010-01-15 10:00","2010","01","15","10:00","-4.6","","-5.2","","96","","","M","","M","","","99.45","","","","","","NA"
"2010-01-15 11:00","2010","01","15","11:00","-3.3","","-4.5","","91","","","M","","M","","","99.45","","","","","","NA"
"2010-01-15 12:00","2010","01","15","12:00","-2.3","","-2.3","","100","","","M","","M","","","99.29","","","","","","NA"
"2010-01-15 13:00","2010","01","15","13:00","-0.9","","-0.9","","100","","","M","","M","","","99.24","","","","","","NA"
"2010-01-15 14:00","2010","01","15","14:00","0.3","","0.3","","100","","","M","","M","","","99.12","","","","","","NA"
"2010-01-15 15:00","2010","01","15","15:00","0.1","","0.1","","100","","","M","","M","","","99.07","","","","","","NA"
"2010-01-15 16:00","2010","01","15","16:00","-0.2","","-0.3","","99","","","M","","M","","","98.95","","","","","","NA"
"2010-01-15 17:00","2010","01","15","17:00","0.2","","0.0","","99","","","M","","M","","","98.92","","","","","","NA"
"2010-01-15 18:00","2010","01","15","18:00","0.2","","0.0","","99","","","M","","M","","","98.89","","","","","","NA"
"2010-01-15 19:00","2010","01","15","19:00","1.1","","0.5","","96","","","M","","M","","","98.84","","","","","","NA"
"2010-01-15 20:00","2010","01","15","20:00","1.6","","0.0","","89","","","M","","M","","","98.76","","","","","","NA"
"2010-01-15 21:00","2010","01","15","21:00","2.0","","1.8","","99","","","M","","M","","","98.74","","","","","","NA"
"2010-01-15 22:00","2010","01","15","22:00","2.1","","1.8","","98","","","M","","M","","","98.72","","","","","","NA"
"2010-01-15 23:00","2010","01","15","23:00","1.7","","1.5","","99","","","M","","M","","","98.67","","","","","","NA"
"2010-01-16 00:00","2010","01","16","00:00","1.3","","1.2","","99","","","M","","M","","","98.68","","","","","","NA"
"2010-01-16 01:00","2010","01","16","01:00","1.8","","1.8","","100","","","M","","M","","","98.66","","","","","","NA"
"2010-01-16 02:00","2010","01","16","02:00","2.0","","2.0","","100","","","M","","M","","","98.70","","","","","","NA"
"2010-01-16 03:00","2010","01","16","03:00","1.9","","1.9","","100","","","M","","M","","","98.71","","","","","","NA"
"2010-01-16 04:00","2010","01","16","04:00","1.7","","1.7","","100","","","M","","M","","","98.72","","","","","","NA"
"2010-01-16 05:00","2010","01","16","05:00","1.7","","1.7","","100","","","M","","M","","","98.74","","","","","","NA"
"2010-01-16 06:00","2010","01","16","06:00","1.9","","1.8","","99","","","M","","M","","","98.75","","","","","","NA"
"2010-01-16 07:00","2010","01","16","07:00","1.9","","1.9","","100","","","M","","M","","","98.74","","","","","","NA"
"2010-01-16 08:00","2010","01","16","08:00","2.0","","2.0","","100","","","M","","M","","","98.72","","","","","","NA"
"2010-01-16 09:00","2010","01","16","09:00","1.9","","1.9","","100","","","M","","M","","","98.70","","","","","","NA"
"2010-01-16 10:00","2010","01","16","10:00","1.9","","1.9","","100","","","M","","M","","","98.70","","","","","","NA"
"2010-01-16 11:00","2010","01","16","11:00","2.0","","2.0","","100","","","M","","M","","","98.73","","","","","","NA"
"2010-01-16 12:00","2010","01","16","12:00","1.8","","1.7","","99","","","M","","M","","","98.72","","","","","","NA"
"2010-01-16 13:00","2010","01","16","13:00","2.2","","1.8","","97","","","M","","M","","","98.62","","","","","","NA"
"2010-01-16 14:00","2010","01","16","14:00","1.9","","1.9","","100","","","M","","M","","","98.55","","","","","","NA"
"2010-01-16 15:00","2010","01","16","15:00","1.2","","1.2","","100","","","M","","M","","","98.52","","","","","","NA"
"2010-01-16 16:00","2010","01","16","16:00","0.8","","0.8","","100","","","M","","M","","","98.52","","","","","","NA"
"2010-01-16 17:00","2010","01","16","17:00","0.9","","0.9","","100","","","M","","M","","","98.45","","","","","","NA"
"2010-01-16 18:00","2010","01","16","18:00","1.1","","1.1","","100","","","M","","M","","","98.42","","","","","","NA"
"2010-01-16 19:00","2010","01","16","19:00","1.2","","1.2","","100","","","M","","M","","","98.37","","","","","","NA"
"2010-01-16 20:00","2010","01","16","20:00","1.3","","1.2","","99","","","M","","M","","","98.33","","","","","","NA"
"2010-01-16 21:00","2010","01","16","21:00","1.5","","1.2","","98","","","M","","M","","","98.21","","","","","","NA"
"2010-01-16 22:00","2010","01","16","22:00","1.7","","1.6","","99","","","M","","M","","","98.15","","","","","","NA"
"2010-01-16 23:00","2010","01","16","23:00","1.6","","1.6","","100","","","M","","M","","","98.06","","","","","","NA"
"2010-01-17 00:00","2010","01","17","00:00","1.6","","1.6","","100","","","M","","M","","","98.03","","","","","","NA"
"2010-01-17 01:00","2010","01","17","01:00","1.8","","1.8","","100","","","M","","M","","","98.02","","","","","","NA"
"2010-01-17 02:00","2010","01","17","02:00","2.4","","2.4","","100","","","M","","M","","","98.04","","","","","","NA"
"2010-01-17 03:00","2010","01","17","03:00","2.9","","2.8","","99","","","M","","M","","","98.05","","","","","","NA"
"2010-01-17 04:00","2010","01","17","04:00","2.6","","2.6","","100","","","M","","M","","","98.00","","","","","","NA"
"2010-01-17 05:00","2010","01","17","05:00","2.5","","2.5","","100","","","M","","M","","","97.97","","","","","","NA"
"2010-01-17 06:00","2010","01","17","06:00","2.5","","2.5","","100","","","M","","M","","","97.99","","","","","","NA"
"2010-01-17 07:00","2010","01","17","07:00","2.4","","2.4","","100","","","M","","M","","","97.97","","","","","","NA"
"2010-01-17 08:00","2010","01","17","08:00","2.2","","2.2","","100","","","M","","M","","","97.97","","","","","","NA"
"2010-01-17 09:00","2010","01","17","09:00","2.0","","1.8","","99","","","M","","M","","","97.98","","","","","","NA"
"2010-01-17 10:00","2010","01","17","10:00","1.9","","1.5","","97","","","M","","M","","","98.03","","","","","","NA"
"2010-01-17 11:00","2010","01","17","11:00","1.0","","0.5","","96","","","M","","M","","","98.04","","","","","","NA"
"2010-01-17 12:00","2010","01","17","12:00","1.5","","0.5","","93","","","M","","M","","","97.98","","","","","","NA"
"2010-01-17 13:00","2010","01","17","13:00","1.0","","0.3","","95","","","M","","M","","","97.95","","","","","","NA"
"2010-01-17 14:00","2010","01","17","14:00","1.5","","0.5","","93","","","M","","M","","","97.89","","","","","","NA"
"2010-01-17 15:00","2010","01","17","15:00","1.4","","0.6","","94","","","M","","M","","","97.87","","","","","","NA"
"2010-01-17 16:00","2010","01","17","16:00","2.1","","0.9","","92","","","M","","M","","","97.91","","","","","","NA"
"2010-01-17 17:00","2010","01","17","17:00","1.8","","1.6","","99","","","M","","M","","","97.92","","","","","","NA"
"2010-01-17 18:00","2010","01","17","18:00","1.8","","1.7","","99","","","M","","M","","","97.95","","","","","","NA"
"2010-01-17 19:00","2010","01","17","19:00","2.2","","1.9","","98","","","M","","M","","","97.95","","","","","","NA"
"2010-01-17 20:00","2010","01","17","20:00","2.1","","2.0","","99","","","M","","M","","","97.96","","","","","","NA"
"2010-01-17 21:00","2010","01","17","21:00","2.3","","2.3","","100","","","M","","M","","","97.92","","","","","","NA"
"2010-01-17 22:00","2010","01","17","22:00","2.3","","1.7","","96","","","M","","M","","","97.93","","","","","","NA"
"2010-01-17 23:00","2010","01","17","23:00","2.2","","1.0","","92","","","M","","M","","","97.95","","","","","","NA"
"2010-01-18 00:00","2010","01","18","00:00","1.9","","0.8","","92","","","M","","M","","","97.93","","","","","","NA"
"2010-01-18 01:00","2010","01","18","01:00","1.6","","0.7","","94","","","M","","M","","","97.91","","","","","","NA"
"2010-01-18 02:00","2010","01","18","02:00","1.2","","0.3","","94","","","M","","M","","","97.92","","","","","","NA"
"2010-01-18 03:00","2010","01","18","03:00","0.8","","-0.2","","93","","","M","","M","","","97.99","","","","","","NA"
"2010-01-18 04:00","2010","01","18","04:00","-0.5","","-0.9","","97","","","M","","M","","","98.07","","","","","","NA"
"2010-01-18 05:00","2010","01","18","05:00","-1.7","","-2.6","","94","","","M","","M","","","98.13","","","","","","NA"
"2010-01-18 06:00","2010","01","18","06:00","-2.6","","-5.0","","84","","","M","","M","","","98.18","","","","","","NA"
"2010-01-18 07:00","2010","01","18","07:00","-3.5","","-7.1","","76","","","M","","M","","","98.28","","","","","","NA"
"2010-01-18 08:00","2010","01","18","08:00","-4.8","","-9.0","","72","","","M","","M","","","98.33","","","","","","NA"
"2010-01-18 09:00","2010","01","18","09:00","-5.3","","-8.1","","81","","","M","","M","","","98.37","","","","","","NA"
"2010-01-18 10:00","2010","01","18","10:00","-5.7","","-7.9","","84","","","M","","M","","","98.45","","","","","","NA"
"2010-01-18 11:00","2010","01","18","11:00","-6.1","","-10.8","","69","","","M","","M","","","98.51","","","","","","NA"
"2010-01-18 12:00","2010","01","18","12:00","-6.7","","-11.3","","70","","","M","","M","","","98.50","","","","","","NA"
"2010-01-18 13:00","2010","01","18","13:00","-6.2","","-11.7","","65","","","M","","M","","","98.45","","","","","","NA"
"2010-01-18 14:00","2010","01","18","14:00","-5.5","","-10.6","","67","","","M","","M","","","98.43","","","","","","NA"
"2010-01-18 15:00","2010","01","18","15:00","-6.3","","-10.1","","74","","","M","","M","","","98.43","","","","","","NA"
"2010-01-18 16:00","2010","01","18","16:00","-6.6","","-8.8","","84","","","M","","M","","","98.48","","","","","","NA"
"2010-01-18 17:00","2010","01","18","17:00","-6.9","","-9.6","","81","","","M","","M","","","98.51","","","","","","NA"
"2010-01-18 18:00","2010","01","18","18:00","-7.3","","-9.6","","84","","","M","","M","","","98.60","","","","","","NA"
"2010-01-18 19:00","2010","01","18","19:00","-7.7","","-9.6","","86","","","M","","M","","","98.65","","","","","","NA"
"2010-01-18 20:00","2010","01","18","20:00","-8.2","","-8.9","","95","","","M","","M","","","98.69","","","","","","NA"
"2010-01-18 21:00","2010","01","18","21:00","-9.2","","-12.0","","80","","","M","","M","","","98.69","","","","","","NA"
"2010-01-18 22:00","2010","01","18","22:00","-9.8","","-12.2","","83","","","M","","M","","","98.70","","","","","","NA"
"2010-01-18 23:00","2010","01","18","23:00","-10.1","","-12.0","","86","","","M","","M","","","98.73","","","","","","NA"
"2010-01-19 00:00","2010","01","19","00:00","-10.3","","-11.8","","89","","","M","","M","","","98.76","","","","","","NA"
"2010-01-19 01:00","2010","01","19","01:00","-10.3","","-11.7","","89","","","M","","M","","","98.78","","","","","","NA"
"2010-01-19 02:00","2010","01","19","02:00","-10.9","","-13.2","","83","","","M","","M","","","98.79","","","","","","NA"
"2010-01-19 03:00","2010","01","19","03:00","-11.2","","-13.1","","86","","","M","","M","","","98.82","","","","","","NA"
"2010-01-19 04:00","2010","01","19","04:00","-11.4","","-13.1","","87","","","M","","M","","","98.83","","","","","","NA"
"2010-01-19 05:00","2010","01","19","05:00","-11.6","","-13.0","","89","","","M","","M","","","98.86","","","","","","NA"
"2010-01-19 06:00","2010","01","19","06:00","-12.2","","-14.4","","84","","","M","","M","","","98.89","","","","","","NA"
"2010-01-19 07:00","2010","01","19","07:00","-12.9","","-14.5","","88","","","M","","M","","","98.96","","","","","","NA"
"2010-01-19 08:00","2010","01","19","08:00","-12.8","","-14.3","","88","","","M","","M","","","99.00","","","","","","NA"
"2010-01-19 09:00","2010","01","19","09:00","-12.7","","-14.2","","89","","","M","","M","","","99.03","","","","","","NA"
"2010-01-19 10:00","2010","01","19","10:00","-12.5","","-14.4","","86","","","M","","M","","","99.08","","","","","","NA"
"2010-01-19 11:00","2010","01","19","11:00","-11.6","","-13.9","","83","","","M","","M","","","99.11","","","","","","NA"
"2010-01-19 12:00","2010","01","19","12:00","-11.2","","-13.7","","82","","","M","","M","","","99.13","","","","","","NA"
"2010-01-19 13:00","2010","01","19","13:00","-10.7","","-14.2","","75","","","M","","M","","","99.11","","","","","","NA"
"2010-01-19 14:00","2010","01","19","14:00","-10.0","","-13.6","","75","","","M","","M","","","99.12","","","","","","NA"
"2010-01-19 15:00","2010","01","19","15:00","-9.7","","-13.4","","74","","","M","","M","","","99.11","","","","","","NA"
"2010-01-19 16:00","2010","01","19","16:00","-8.7","","-13.8","","67","","","M","","M","","","99.16","","","","","","NA"
"2010-01-19 17:00","2010","01","19","17:00","-9.5","","-13.8","","71","","","M","","M","","","99.20","","","","","","NA"
"2010-01-19 18:00","2010","01","19","18:00","-11.0","","-13.8","","80","","","M","","M","","","99.26","","","","","","NA"
"2010-01-19 19:00","2010","01","19","19:00","-12.7","","-14.0","","90","","","M","","M","","","99.27","","","","","","NA"
"2010-01-19 20:00","2010","01","19","20:00","-13.4","","-14.0","","95","","","M","","M","","","99.33","","","","","","NA"
"2010-01-19 21:00","2010","01","19","21:00","-14.5","","-14.9","","97","","","M","","M","","","99.31","","","","","","NA"
"2010-01-19 22:00","2010","01","19","22:00","-14.9","","-15.6","","94","","","M","","M","","","99.37","","","","","","NA"
"2010-01-19 23:00","2010","01","19","23:00","-15.8","","-15.8","","100","","","M","","M","","","99.36","","","","","","NA"
"2010-01-20 00:00","2010","01","20","00:00","-15.3","","-15.4","","99","","","M","","M","","","99.39","","","","","","NA"
"2010-01-20 01:00","2010","01","20","01:00","-15.8","","-16.0","","98","","","M","","M","","","99.40","","","","","","NA"
"2010-01-20 02:00","2010","01","20","02:00","-16.2","","-16.3","","99","","","M","","M","","","99.44","","","","","","NA"
"2010-01-20 03:00","2010","01","20","03:00","-16.2","","-16.4","","98","","","M","","M","","","99.45","","","","","","NA"
"2010-01-20 04:00","2010","01","20","04:00","-16.7","","-17.2","","96","","","M","","M","","","99.47","","","","","","NA"
"2010-01-20 05:00","2010","01","20","05:00","-16.6","","-17.1","","96","","","M","","M","","","99.44","","","","","","NA"
"2010-01-20 06:00","2010","01","20","06:00","-17.7","","-18.3","","95","","","M","","M","","","99.47","","","","","","NA"
"2010-01-20 07:00","2010","01","20","07:00","-18.2","","-18.8","","95","","","M","","M","","","99.48","","","","","","NA"
"2010-01-20 08:00","2010","01","20","08:00","-18.7","","-19.3","","95","","","M","","M","","","99.49","","","","","","NA"
"2010-01-20 09:00","2010","01","20","09:00","-18.4","","-19.3","","93","","","M","","M","","","99.49","","","","","","NA"
"2010-01-20 10:00","2010","01","20","10:00","-16.4","","-18.1","","87","","","M","","M","","","99.49","","","","","","NA"
"2010-01-20 11:00","2010","01","20","11:00","-14.1","","-15.4","","90","","","M","","M","","","99.50","","","","","","NA"
"2010-01-20 12:00","2010","01","20","12:00","-11.3","","-12.8","","89","","","M","","M","","","99.48","","","","","","NA"
"2010-01-20 13:00","2010","01","20","13:00","-8.1","","-10.0","","86","","","M","","M","","","99.47","","","","","","NA"
"2010-01-20 14:00","2010","01","20","14:00","-4.9","","-6.0","","92","","","M","","M","","","99.45","","","","","","NA"
"2010-01-20 15:00","2010","01","20","15:00","-4.0","","-5.4","","90","","","M","","M","","","99.43","","","","","","NA"
"2010-01-20 16:00","2010","01","20","16:00","-3.9","","-6.1","","85","","","M","","M","","","99.49","","","","","","NA"
"2010-01-20 17:00","2010","01","20","17:00","-3.8","","-6.2","","83","","","M","","M","","","99.50","","","","","","NA"
"2010-01-20 18:00","2010","01","20","18:00","-4.7","","-5.8","","92","","","M","","M","","","99.49","","","","","","NA"
"2010-01-20 19:00","2010","01","20","19:00","-7.0","","-7.2","","98","","","M","","M","","","99.46","","","","","","NA"
"2010-01-20 20:00","2010","01","20","20:00","-8.9","","-8.9","","100","","","M","","M","","","99.47","","","","","","NA"
"2010-01-20 21:00","2010","01","20","21:00","-10.2","","-10.2","","100","","","M","","M","","","99.47","","","","","","NA"
"2010-01-20 22:00","2010","01","20","22:00","-11.2","","-11.2","","100","","","M","","M","","","99.48","","","","","","NA"
"2010-01-20 23:00","2010","01","20","23:00","-11.0","","-11.0","","100","","","M","","M","","","99.52","","","","","","NA"
"2010-01-21 00:00","2010","01","21","00:00","-9.6","","-9.6","","100","","","M","","M","","","99.51","","","","","","NA"
"2010-01-21 01:00","2010","01","21","01:00","-8.7","","-8.7","","100","","","M","","M","","","99.51","","","","","","NA"
"2010-01-21 02:00","2010","01","21","02:00","-7.5","","-7.5","","100","","","M","","M","","","99.49","","","","","","NA"
"2010-01-21 03:00","2010","01","21","03:00","-6.7","","-6.7","","100","","","M","","M","","","99.50","","","","","","NA"
"2010-01-21 04:00","2010","01","21","04:00","-7.0","","-7.0","","100","","","M","","M","","","99.50","","","","","","NA"
"2010-01-21 05:00","2010","01","21","05:00","-8.1","","-8.1","","100","","","M","","M","","","99.49","","","","","","NA"
"2010-01-21 06:00","2010","01","21","06:00","-9.5","","-9.5","","100","","","M","","M","","","99.51","","","","","","NA"
"2010-01-21 07:00","2010","01","21","07:00","-10.1","","-10.1","","100","","","M","","M","","","99.49","","","","","","NA"
"2010-01-21 08:00","2010","01","21","08:00","-10.2","","-10.2","","100","","","M","","M","","","99.49","","","","","","NA"
"2010-01-21 09:00","2010","01","21","09:00","-9.1","","-9.1","","100","","","M","","M","","","99.60","","","","","","NA"
"2010-01-21 10:00","2010","01","21","10:00","-4.0","","-5.0","","93","","","M","","M","","","99.59","","","","","","NA"
"2010-01-21 11:00","2010","01","21","11:00","-2.2","","-3.1","","94","","","M","","M","","","99.63","","","","","","NA"
"2010-01-21 12:00","2010","01","21","12:00","-1.1","","-1.5","","97","","","M","","M","","","99.60","","","","","","NA"
"2010-01-21 13:00","2010","01","21","13:00","-1.0","","-1.5","","96","","","M","","M","","","99.51","","","","","","NA"
"2010-01-21 14:00","2010","01","21","14:00","-0.9","","-1.5","","96","","","M","","M","","","99.44","","","","","","NA"
"2010-01-21 15:00","2010","01","21","15:00","-1.1","","-2.0","","94","","","M","","M","","","99.42","","","","","","NA"
"2010-01-21 16:00","2010","01","21","16:00","-0.4","","-2.8","","84","","","M","","M","","","99.38","","","","","","NA"
"2010-01-21 17:00","2010","01","21","17:00","-1.4","","-3.2","","88","","","M","","M","","","99.36","","","","","","NA"
"2010-01-21 18:00","2010","01","21","18:00","-2.5","","-3.1","","96","","","M","","M","","","99.41","","","","","","NA"
"2010-01-21 19:00","2010","01","21","19:00","-4.7","","-4.7","","100","","","M","","M","","","99.41","","","","","","NA"
"2010-01-21 20:00","2010","01","21","20:00","-5.8","","-5.8","","100","","","M","","M","","","99.42","","","","","","NA"
"2010-01-21 21:00","2010","01","21","21:00","-5.7","","-5.7","","100","","","M","","M","","","99.37","","","","","","NA"
"2010-01-21 22:00","2010","01","21","22:00","-6.5","","-6.5","","100","","","M","","M","","","99.37","","","","","","NA"
"2010-01-21 23:00","2010","01","21","23:00","-6.5","","-6.5","","100","","","M","","M","","","99.38","","","","","","NA"
"2010-01-22 00:00","2010","01","22","00:00","-7.2","","-7.2","","100","","","M","","M","","","99.36","","","","","","NA"
"2010-01-22 01:00","2010","01","22","01:00","-8.4","","-8.4","","100","","","M","","M","","","99.40","","","","","","NA"
"2010-01-22 02:00","2010","01","22","02:00","-8.5","","-8.5","","100","","","M","","M","","","99.40","","","","","","NA"
"2010-01-22 03:00","2010","01","22","03:00","-9.7","","-9.7","","100","","","M","","M","","","99.41","","","","","","NA"
"2010-01-22 04:00","2010","01","22","04:00","-9.7","","-9.7","","100","","","M","","M","","","99.38","","","","","","NA"
"2010-01-22 05:00","2010","01","22","05:00","-10.4","","-10.4","","100","","","M","","M","","","99.38","","","","","","NA"
"2010-01-22 06:00","2010","01","22","06:00","-9.1","","-9.1","","100","","","M","","M","","","99.32","","","","","","NA"
"2010-01-22 07:00","2010","01","22","07:00","-10.7","","-10.7","","100","","","M","","M","","","99.35","","","","","","NA"
"2010-01-22 08:00","2010","01","22","08:00","-10.1","","-10.1","","100","","","M","","M","","","99.39","","","","","","NA"
"2010-01-22 09:00","2010","01","22","09:00","-9.8","","-9.8","","100","","","M","","M","","","99.44","","","","","","NA"
"2010-01-22 10:00","2010","01","22","10:00","-7.6","","-8.7","","92","","","M","","M","","","99.47","","","","","","NA"
"2010-01-22 11:00","2010","01","22","11:00","-4.6","","-6.5","","87","","","M","","M","","","99.45","","","","","","NA"
"2010-01-22 12:00","2010","01","22","12:00","-2.6","","-4.5","","87","","","M","","M","","","99.49","","","","","","NA"
"2010-01-22 13:00","2010","01","22","13:00","0.4","","-3.6","","74","","","M","","M","","","99.47","","","","","","NA"
"2010-01-22 14:00","2010","01","22","14:00","2.3","","-3.7","","64","","","M","","M","","","99.44","","","","","","NA"
"2010-01-22 15:00","2010","01","22","15:00","1.2","","-3.2","","72","","","M","","M","","","99.40","","","","","","NA"
"2010-01-22 16:00","2010","01","22","16:00","1.1","","-3.3","","72","","","M","","M","","","99.39","","","","","","NA"
"2010-01-22 17:00","2010","01","22","17:00","-0.8","","-4.2","","78","","","M","","M","","","99.46","","","","","","NA"
"2010-01-22 18:00","2010","01","22","18:00","-2.4","","-5.0","","82","","","M","","M","","","99.49","","","","","","NA"
"2010-01-22 19:00","2010","01","22","19:00","-3.5","","-5.4","","87","","","M","","M","","","99.47","","","","","","NA"
"2010-01-22 20:00","2010","01","22","20:00","-5.0","","-5.9","","93","","","M","","M","","","99.50","","","","","","NA"
"2010-01-22 21:00","2010","01","22","21:00","-5.9","","-6.0","","99","","","M","","M","","","99.50","","","","","","NA"
"2010-01-22 22:00","2010","01","22","22:00","-5.9","","-5.9","","100","","","M","","M","","","99.52","","","","","","NA"
"2010-01-22 23:00","2010","01","22","23:00","-6.2","","-6.2","","100","","","M","","M","","","99.48","","","","","","NA"
"2010-01-23 00:00","2010","01","23","00:00","-6.6","","-6.6","","100","","","M","","M","","","99.46","","","","","","NA"
"2010-01-23 01:00","2010","01","23","01:00","-7.1","","-7.1","","100","","","M","","M","","","99.44","","","","","","NA"
"2010-01-23 02:00","2010","01","23","02:00","-7.6","","-7.6","","100","","","M","","M","","","99.42","","","","","","NA"
"2010-01-23 03:00","2010","01","23","03:00","-8.0","","-8.0","","100","","","M","","M","","","99.40","","","","","","NA"
"2010-01-23 04:00","2010","01","23","04:00","-7.7","","-7.9","","98","","","M","","M","","","99.36","","","","","","NA"
"2010-01-23 05:00","2010","01","23","05:00","-8.2","","-8.3","","99","","","M","","M","","","99.36","","","","","","NA"
"2010-01-23 06:00","2010","01","23","06:00","-8.7","","-8.7","","100","","","M","","M","","","99.35","","","","","","NA"
"2010-01-23 07:00","2010","01","23","07:00","-7.8","","-8.0","","98","","","M","","M","","","99.34","","","","","","NA"
"2010-01-23 08:00","2010","01","23","08:00","-5.3","","-5.8","","96","","","M","","M","","","99.24","","","","","","NA"
"2010-01-23 09:00","2010","01","23","09:00","-5.1","","-5.6","","96","","","M","","M","","","99.20","","","","","","NA"
"2010-01-23 10:00","2010","01","23","10:00","-4.0","","-4.6","","96","","","M","","M","","","99.12","","","","","","NA"
"2010-01-23 11:00","2010","01","23","11:00","-2.7","","-3.7","","93","","","M","","M","","","99.11","","","","","","NA"
"2010-01-23 12:00","2010","01","23","12:00","-0.9","","-2.9","","86","","","M","","M","","","99.04","","","","","","NA"
"2010-01-23 13:00","2010","01","23","13:00","0.5","","-1.3","","88","","","M","","M","","","98.92","","","","","","NA"
"2010-01-23 14:00","2010","01","23","14:00","1.4","","-0.6","","87","","","M","","M","","","98.80","","","","","","NA"
"2010-01-23 15:00","2010","01","23","15:00","1.5","","-1.3","","82","","","M","","M","","","98.68","","","","","","NA"
"2010-01-23 16:00","2010","01","23","16:00","1.3","","-1.3","","83","","","M","","M","","","98.61","","","","","","NA"
"2010-01-23 17:00","2010","01","23","17:00","0.9","","-1.1","","86","","","M","","M","","","98.57","","","","","","NA"
"2010-01-23 18:00","2010","01","23","18:00","0.5","","-1.2","","88","","","M","","M","","","98.61","","","","","","NA"
"2010-01-23 19:00","2010","01","23","19:00","0.4","","-1.1","","90","","","M","","M","","","98.57","","","","","","NA"
"2010-01-23 20:00","2010","01","23","20:00","0.4","","-1.2","","89","","","M","","M","","","98.52","","","","","","NA"
"2010-01-23 21:00","2010","01","23","21:00","0.5","","-1.8","","85","","","M","","M","","","98.42","","","","","","NA"
"2010-01-23 22:00","2010","01","23","22:00","0.6","","-2.0","","83","","","M","","M","","","98.32","","","","","","NA"
"2010-01-23 23:00","2010","01","23","23:00","0.8","","-1.2","","86","","","M","","M","","","98.27","","","","","","NA"
"2010-01-24 00:00","2010","01","24","00:00","0.4","","0.4","","100","","","M","","M","","","98.17","","","","","","NA"
"2010-01-24 01:00","2010","01","24","01:00","1.0","","1.0","","100","","","M","","M","","","98.06","","","","","","NA"
"2010-01-24 02:00","2010","01","24","02:00","1.2","","1.2","","100","","","M","","M","","","97.95","","","","","","NA"
"2010-01-24 03:00","2010","01","24","03:00","1.6","","1.6","","100","","","M","","M","","","97.82","","","","","","NA"
"2010-01-24 04:00","2010","01","24","04:00","1.8","","1.8","","100","","","M","","M","","","97.80","","","","","","NA"
"2010-01-24 05:00","2010","01","24","05:00","1.9","","1.9","","100","","","M","","M","","","97.76","","","","","","NA"
"2010-01-24 06:00","2010","01","24","06:00","2.1","","2.1","","100","","","M","","M","","","97.70","","","","","","NA"
"2010-01-24 07:00","2010","01","24","07:00","2.4","","2.4","","100","","","M","","M","","","97.62","","","","","","NA"
"2010-01-24 08:00","2010","01","24","08:00","2.1","","2.1","","100","","","M","","M","","","97.50","","","","","","NA"
"2010-01-24 09:00","2010","01","24","09:00","2.2","","2.2","","100","","","M","","M","","","97.47","","","","","","NA"
"2010-01-24 10:00","2010","01","24","10:00","1.9","","1.9","","100","","","M","","M","","","97.33","","","","","","NA"
"2010-01-24 11:00","2010","01","24","11:00","1.9","","1.7","","99","","","M","","M","","","97.18","","","","","","NA"
"2010-01-24 12:00","2010","01","24","12:00","2.7","","2.0","","95","","","M","","M","","","97.02","","","","","","NA"
"2010-01-24 13:00","2010","01","24","13:00","3.6","","2.2","","91","","","M","","M","","","96.81","","","","","","NA"
"2010-01-24 14:00","2010","01","24","14:00","3.9","","2.4","","90","","","M","","M","","","96.61","","","","","","NA"
"2010-01-24 15:00","2010","01","24","15:00","3.0","","3.0","","100","","","M","","M","","","96.46","","","","","","NA"
"2010-01-24 16:00","2010","01","24","16:00","2.3","","2.3","","100","","","M","","M","","","96.37","","","","","","NA"
"2010-01-24 17:00","2010","01","24","17:00","1.9","","1.9","","100","","","M","","M","","","96.29","","","","","","NA"
"2010-01-24 18:00","2010","01","24","18:00","2.2","","2.2","","100","","","M","","M","","","96.23","","","","","","NA"
"2010-01-24 19:00","2010","01","24","19:00","2.3","","2.3","","100","","","M","","M","","","96.12","","","","","","NA"
"2010-01-24 20:00","2010","01","24","20:00","2.3","","2.3","","100","","","M","","M","","","96.00","","","","","","NA"
"2010-01-24 21:00","2010","01","24","21:00","2.2","","2.2","","100","","","M","","M","","","95.88","","","","","","NA"
"2010-01-24 22:00","2010","01","24","22:00","2.2","","2.2","","100","","","M","","M","","","95.83","","","","","","NA"
"2010-01-24 23:00","2010","01","24","23:00","2.6","","2.6","","100","","","M","","M","","","95.82","","","","","","NA"
"2010-01-25 00:00","2010","01","25","00:00","2.6","","2.6","","100","","","M","","M","","","95.79","","","","","","NA"
"2010-01-25 01:00","2010","01","25","01:00","2.3","","2.3","","100","","","M","","M","","","95.77","","","","","","NA"
"2010-01-25 02:00","2010","01","25","02:00","2.4","","2.4","","100","","","M","","M","","","95.74","","","","","","NA"
"2010-01-25 03:00","2010","01","25","03:00","2.4","","2.4","","100","","","M","","M","","","95.76","","","","","","NA"
"2010-01-25 04:00","2010","01","25","04:00","2.3","","2.3","","100","","","M","","M","","","95.76","","","","","","NA"
"2010-01-25 05:00","2010","01","25","05:00","2.3","","2.3","","100","","","M","","M","","","95.72","","","","","","NA"
"2010-01-25 06:00","2010","01","25","06:00","2.4","","2.4","","100","","","M","","M","","","95.68","","","","","","NA"
"2010-01-25 07:00","2010","01","25","07:00","2.4","","2.4","","100","","","M","","M","","","95.71","","","","","","NA"
"2010-01-25 08:00","2010","01","25","08:00","2.5","","2.5","","100","","","M","","M","","","95.72","","","","","","NA"
"2010-01-25 09:00","2010","01","25","09:00","1.4","","1.4","","100","","","M","","M","","","95.73","","","","","","NA"
"2010-01-25 10:00","2010","01","25","10:00","2.1","","2.1","","100","","","M","","M","","","95.72","","","","","","NA"
"2010-01-25 11:00","2010","01","25","11:00","2.2","","2.2","","100","","","M","","M","","","95.73","","","","","","NA"
"2010-01-25 12:00","2010","01","25","12:00","2.4","","2.4","","100","","","M","","M","","","95.74","","","","","","NA"
"2010-01-25 13:00","2010","01","25","13:00","1.1","","1.1","","100","","","M","","M","","","95.72","","","","","","NA"
"2010-01-25 14:00","2010","01","25","14:00","2.2","","2.2","","100","","","M","","M","","","95.70","","","","","","NA"
"2010-01-25 15:00","2010","01","25","15:00","0.8","","0.8","","100","","","M","","M","","","95.74","","","","","","NA"
"2010-01-25 16:00","2010","01","25","16:00","1.6","","1.6","","100","","","M","","M","","","95.82","","","","","","NA"
"2010-01-25 17:00","2010","01","25","17:00","1.7","","1.7","","100","","","M","","M","","","95.92","","","","","","NA"
"2010-01-25 18:00","2010","01","25","18:00","1.7","","1.7","","100","","","M","","M","","","95.99","","","","","","NA"
"2010-01-25 19:00","2010","01","25","19:00","1.0","","1.0","","100","","","M","","M","","","96.12","","","","","","NA"
"2010-01-25 20:00","2010","01","25","20:00","-3.9","","-3.9","","100","","","M","","M","","","96.25","","","","","","NA"
"2010-01-25 21:00","2010","01","25","21:00","-6.1","","-6.1","","100","","","M","","M","","","96.37","","","","","","NA"
"2010-01-25 22:00","2010","01","25","22:00","-6.8","","-6.8","","100","","","M","","M","","","96.54","","","","","","NA"
"2010-01-25 23:00","2010","01","25","23:00","-8.2","","-8.2","","100","","","M","","M","","","96.68","","","","","","NA"
"2010-01-26 00:00","2010","01","26","00:00","-9.4","","-9.4","","100","","","M","","M","","","96.82","","","","","","NA"
"2010-01-26 01:00","2010","01","26","01:00","-10.5","","-10.8","","98","","","M","","M","","","96.93","","","","","","NA"
"2010-01-26 02:00","2010","01","26","02:00","-11.4","","-11.7","","98","","","M","","M","","","97.04","","","","","","NA"
"2010-01-26 03:00","2010","01","26","03:00","-12.6","","-13.0","","97","","","M","","M","","","97.16","","","","","","NA"
"2010-01-26 04:00","2010","01","26","04:00","-13.5","","-14.6","","91","","","M","","M","","","97.28","","","","","","NA"
"2010-01-26 05:00","2010","01","26","05:00","-14.0","","-14.6","","95","","","M","","M","","","97.43","","","","","","NA"
"2010-01-26 06:00","2010","01","26","06:00","-14.7","","-15.2","","96","","","M","","M","","","97.51","","","","","","NA"
"2010-01-26 07:00","2010","01","26","07:00","-15.7","","-16.6","","93","","","M","","M","","","97.68","","","","","","NA"
"2010-01-26 08:00","2010","01","26","08:00","-17.5","","-18.5","","92","","","M","","M","","","97.82","","","","","","NA"
"2010-01-26 09:00","2010","01","26","09:00","-18.3","","-19.2","","93","","","M","","M","","","97.88","","","","","","NA"
"2010-01-26 10:00","2010","01","26","10:00","-17.9","","-19.9","","84","","","M","","M","","","97.93","","","","","","NA"
"2010-01-26 11:00","2010","01","26","11:00","-16.9","","-19.4","","81","","","M","","M","","","97.99","","","","","","NA"
"2010-01-26 12:00","2010","01","26","12:00","-15.2","","-17.6","","82","","","M","","M","","","98.04","","","","","","NA"
"2010-01-26 13:00","2010","01","26","13:00","-13.9","","-16.2","","83","","","M","","M","","","97.99","","","","","","NA"
"2010-01-26 14:00","2010","01","26","14:00","-13.5","","-16.4","","79","","","M","","M","","","98.01","","","","","","NA"
"2010-01-26 15:00","2010","01","26","15:00","-13.7","","-15.6","","86","","","M","","M","","","98.02","","","","","","NA"
"2010-01-26 16:00","2010","01","26","16:00","-13.2","","-14.8","","88","","","M","","M","","","98.02","","","","","","NA"
"2010-01-26 17:00","2010","01","26","17:00","-12.5","","-12.9","","97","","","M","","M","","","98.00","","","","","","NA"
"2010-01-26 18:00","2010","01","26","18:00","-13.0","","-13.2","","98","","","M","","M","","","98.00","","","","","","NA"
"2010-01-26 19:00","2010","01","26","19:00","-13.4","","-13.6","","98","","","M","","M","","","97.99","","","","","","NA"
"2010-01-26 20:00","2010","01","26","20:00","-10.8","","-13.2","","82","","","M","","M","","","98.03","","","","","","NA"
"2010-01-26 21:00","2010","01","26","21:00","-10.5","","-12.6","","85","","","M","","M","","","98.04","","","","","","NA"
"2010-01-26 22:00","2010","01","26","22:00","-11.8","","-13.3","","89","","","M","","M","","","98.03","","","","","","NA"
"2010-01-26 23:00","2010","01","26","23:00","-13.5","","-15.3","","86","","","M","","M","","","98.02","","","","","","NA"
"2010-01-27 00:00","2010","01","27","00:00","-15.1","","-17.0","","85","","","M","","M","","","98.01","","","","","","NA"
"2010-01-27 01:00","2010","01","27","01:00","-15.4","","-17.7","","83","","","M","","M","","","97.98","","","","","","NA"
"2010-01-27 02:00","2010","01","27","02:00","-15.8","","-17.8","","85","","","M","","M","","","97.96","","","","","","NA"
"2010-01-27 03:00","2010","01","27","03:00","-15.6","","-16.6","","92","","","M","","M","","","97.91","","","","","","NA"
"2010-01-27 04:00","2010","01","27","04:00","-15.4","","-15.6","","98","","","M","","M","","","97.85","","","","","","NA"
"2010-01-27 05:00","2010","01","27","05:00","-15.8","","-16.0","","98","","","M","","M","","","97.88","","","","","","NA"
"2010-01-27 06:00","2010","01","27","06:00","-16.2","","-16.5","","98","","","M","","M","","","97.94","","","","","","NA"
"2010-01-27 07:00","2010","01","27","07:00","-16.6","","-16.9","","98","","","M","","M","","","98.00","","","","","","NA"
"2010-01-27 08:00","2010","01","27","08:00","-17.4","","-17.9","","96","","","M","","M","","","98.06","","","","","","NA"
"2010-01-27 09:00","2010","01","27","09:00","-17.8","","-18.3","","96","","","M","","M","","","98.13","","","","","","NA"
"2010-01-27 10:00","2010","01","27","10:00","-17.1","","-18.2","","91","","","M","","M","","","98.16","","","","","","NA"
"2010-01-27 11:00","2010","01","27","11:00","-15.4","","-16.8","","89","","","M","","M","","","98.20","","","","","","NA"
"2010-01-27 12:00","2010","01","27","12:00","-14.9","","-17.0","","84","","","M","","M","","","98.20","","","","","","NA"
"2010-01-27 13:00","2010","01","27","13:00","-14.2","","-17.3","","77","","","M","","M","","","98.19","","","","","","NA"
"2010-01-27 14:00","2010","01","27","14:00","-14.5","","-16.9","","82","","","M","","M","","","98.20","","","","","","NA"
"2010-01-27 15:00","2010","01","27","15:00","-14.1","","-17.5","","75","","","M","","M","","","98.22","","","","","","NA"
"2010-01-27 16:00","2010","01","27","16:00","-14.2","","-15.0","","94","","","M","","M","","","98.25","","","","","","NA"
"2010-01-27 17:00","2010","01","27","17:00","-14.1","","-18.1","","72","","","M","","M","","","98.28","","","","","","NA"
"2010-01-27 18:00","2010","01","27","18:00","-14.3","","-14.7","","97","","","M","","M","","","98.34","","","","","","NA"
"2010-01-27 19:00","2010","01","27","19:00","-15.4","","-16.3","","93","","","M","","M","","","98.39","","","","","","NA"
"2010-01-27 20:00","2010","01","27","20:00","-17.2","","-18.4","","90","","","M","","M","","","98.42","","","","","","NA"
"2010-01-27 21:00","2010","01","27","21:00","-17.5","","-19.7","","83","","","M","","M","","","98.48","","","","","","NA"
"2010-01-27 22:00","2010","01","27","22:00","-17.7","","-19.8","","84","","","M","","M","","","98.50","","","","","","NA"
"2010-01-27 23:00","2010","01","27","23:00","-17.9","","-20.6","","79","","","M","","M","","","98.52","","","","","","NA"
"2010-01-28 00:00","2010","01","28","00:00","-18.2","","-20.6","","81","","","M","","M","","","98.61","","","","","","NA"
"2010-01-28 01:00","2010","01","28","01:00","-18.7","","-21.2","","81","","","M","","M","","","98.68","","","","","","NA"
"2010-01-28 02:00","2010","01","28","02:00","-19.2","","-21.5","","82","","","M","","M","","","98.72","","","","","","NA"
"2010-01-28 03:00","2010","01","28","03:00","-19.8","","-22.2","","81","","","M","","M","","","98.81","","","","","","NA"
"2010-01-28 04:00","2010","01","28","04:00","-20.7","","-23.0","","82","","","M","","M","","","98.90","","","","","","NA"
"2010-01-28 05:00","2010","01","28","05:00","-21.2","","-23.7","","80","","","M","","M","","","99.02","","","","","","NA"
"2010-01-28 06:00","2010","01","28","06:00","-21.9","","-24.0","","83","","","M","","M","","","99.14","","","","","","NA"
"2010-01-28 07:00","2010","01","28","07:00","-22.6","","-24.7","","83","","","M","","M","","","99.28","","","","","","NA"
"2010-01-28 08:00","2010","01","28","08:00","-23.4","","-25.3","","84","","","M","","M","","","99.44","","","","","","NA"
"2010-01-28 09:00","2010","01","28","09:00","-23.6","","-26.2","","79","","","M","","M","","","99.60","","","","","","NA"
"2010-01-28 10:00","2010","01","28","10:00","-22.7","","-26.8","","69","","","M","","M","","","99.71","","","","","","NA"
"2010-01-28 11:00","2010","01","28","11:00","-21.5","","-26.8","","62","","","M","","M","","","99.79","","","","","","NA"
"2010-01-28 12:00","2010","01","28","12:00","-21.0","","-26.1","","64","","","M","","M","","","99.80","","","","","","NA"
"2010-01-28 13:00","2010","01","28","13:00","-20.6","","-22.8","","82","","","M","","M","","","99.81","","","","","","NA"
"2010-01-28 14:00","2010","01","28","14:00","-20.4","","-23.3","","78","","","M","","M","","","99.81","","","","","","NA"
"2010-01-28 15:00","2010","01","28","15:00","-20.0","","-24.4","","68","","","M","","M","","","99.83","","","","","","NA"
"2010-01-28 16:00","2010","01","28","16:00","-20.2","","-24.4","","69","","","M","","M","","","99.91","","","","","","NA"
"2010-01-28 17:00","2010","01","28","17:00","-20.6","","-24.4","","72","","","M","","M","","","99.96","","","","","","NA"
"2010-01-28 18:00","2010","01","28","18:00","-21.4","","-24.9","","73","","","M","","M","","","100.05","","","","","","NA"
"2010-01-28 19:00","2010","01","28","19:00","-22.2","","-25.2","","77","","","M","","M","","","100.13","","","","","","NA"
"2010-01-28 20:00","2010","01","28","20:00","-22.3","","-25.4","","76","","","M","","M","","","100.21","","","","","","NA"
"2010-01-28 21:00","2010","01","28","21:00","-22.8","","-25.5","","79","","","M","","M","","","100.25","","","","","","NA"
"2010-01-28 22:00","2010","01","28","22:00","-22.9","","-25.6","","79","","","M","","M","","","100.29","","","","","","NA"
"2010-01-28 23:00","2010","01","28","23:00","-24.3","","-25.7","","88","","","M","","M","","","100.32","","","","","","NA"
"2010-01-29 00:00","2010","01","29","00:00","-23.8","","-25.8","","84","","","M","","M","","","100.34","","","","","","NA"
"2010-01-29 01:00","2010","01","29","01:00","-24.8","","-26.3","","87","","","M","","M","","","100.37","","","","","","NA"
"2010-01-29 02:00","2010","01","29","02:00","-25.5","","-26.7","","90","","","M","","M","","","100.38","","","","","","NA"
"2010-01-29 03:00","2010","01","29","03:00","-25.5","","-26.4","","92","","","M","","M","","","100.42","","","","","","NA"
"2010-01-29 04:00","2010","01","29","04:00","-25.5","","-27.0","","87","","","M","","M","","","100.38","","","","","","NA"
"2010-01-29 05:00","2010","01","29","05:00","-25.4","","-26.8","","88","","","M","","M","","","100.38","","","","","","NA"
"2010-01-29 06:00","2010","01","29","06:00","-26.2","","-27.6","","88","","","M","","M","","","100.38","","","","","","NA"
"2010-01-29 07:00","2010","01","29","07:00","-26.1","","-27.2","","90","","","M","","M","","","100.40","","","","","","NA"
"2010-01-29 08:00","2010","01","29","08:00","-26.6","","-27.9","","89","","","M","","M","","","100.42","","","","","","NA"
"2010-01-29 09:00","2010","01","29","09:00","-25.1","","-26.6","","87","","","M","","M","","","100.48","","","","","","NA"
"2010-01-29 10:00","2010","01","29","10:00","-21.9","","-23.9","","84","","","M","","M","","","100.49","","","","","","NA"
"2010-01-29 11:00","2010","01","29","11:00","-19.9","","-23.1","","76","","","M","","M","","","100.49","","","","","","NA"
"2010-01-29 12:00","2010","01","29","12:00","-16.8","","-20.4","","74","","","M","","M","","","100.45","","","","","","NA"
"2010-01-29 13:00","2010","01","29","13:00","-14.6","","-19.3","","67","","","M","","M","","","100.37","","","","","","NA"
"2010-01-29 14:00","2010","01","29","14:00","-14.7","","-18.2","","75","","","M","","M","","","100.28","","","","","","NA"
"2010-01-29 15:00","2010","01","29","15:00","-13.8","","-17.3","","75","","","M","","M","","","100.22","","","","","","NA"
"2010-01-29 16:00","2010","01","29","16:00","-14.0","","-17.4","","75","","","M","","M","","","100.22","","","","","","NA"
"2010-01-29 17:00","2010","01","29","17:00","-13.4","","-15.3","","86","","","M","","M","","","100.19","","","","","","NA"
"2010-01-29 18:00","2010","01","29","18:00","-11.5","","-12.8","","90","","","M","","M","","","100.13","","","","","","NA"
"2010-01-29 19:00","2010","01","29","19:00","-10.3","","-11.1","","94","","","M","","M","","","100.08","","","","","","NA"
"2010-01-29 20:00","2010","01","29","20:00","-9.9","","-11.7","","87","","","M","","M","","","100.00","","","","","","NA"
"2010-01-29 21:00","2010","01","29","21:00","-14.2","","-14.6","","97","","","M","","M","","","99.96","","","","","","NA"
"2010-01-29 22:00","2010","01","29","22:00","-14.6","","-14.7","","99","","","M","","M","","","99.92","","","","","","NA"
"2010-01-29 23:00","2010","01","29","23:00","-14.5","","-14.6","","99","","","M","","M","","","99.88","","","","","","NA"
"2010-01-30 00:00","2010","01","30","00:00","-14.3","","-14.4","","99","","","M","","M","","","99.81","","","","","","NA"
"2010-01-30 01:00","2010","01","30","01:00","-15.0","","-15.1","","99","","","M","","M","","","99.75","","","","","","NA"
"2010-01-30 02:00","2010","01","30","02:00","-15.1","","-15.2","","99","","","M","","M","","","99.71","","","","","","NA"
"2010-01-30 03:00","2010","01","30","03:00","-14.4","","-14.6","","98","","","M","","M","","","99.68","","","","","","NA"
"2010-01-30 04:00","2010","01","30","04:00","-16.6","","-16.9","","98","","","M","","M","","","99.66","","","","","","NA"
"2010-01-30 05:00","2010","01","30","05:00","-14.9","","-15.0","","99","","","M","","M","","","99.61","","","","","","NA"
"2010-01-30 06:00","2010","01","30","06:00","-14.4","","-14.6","","98","","","M","","M","","","99.54","","","","","","NA"
"2010-01-30 07:00","2010","01","30","07:00","-15.8","","-16.0","","98","","","M","","M","","","99.50","","","","","","NA"
"2010-01-30 08:00","2010","01","30","08:00","-15.9","","-16.2","","98","","","M","","M","","","99.47","","","","","","NA"
"2010-01-30 09:00","2010","01","30","09:00","-15.4","","-15.5","","99","","","M","","M","","","99.45","","","","","","NA"
"2010-01-30 10:00","2010","01","30","10:00","-14.3","","-15.1","","94","","","M","","M","","","99.43","","","","","","NA"
"2010-01-30 11:00","2010","01","30","11:00","-13.5","","-15.4","","86","","","M","","M","","","99.43","","","","","","NA"
"2010-01-30 12:00","2010","01","30","12:00","-10.5","","-14.6","","72","","","M","","M","","","99.38","","","","","","NA"
"2010-01-30 13:00","2010","01","30","13:00","-9.3","","-12.9","","75","","","M","","M","","","99.29","","","","","","NA"
"2010-01-30 14:00","2010","01","30","14:00","-8.3","","-12.4","","72","","","M","","M","","","99.21","","","","","","NA"
"2010-01-30 15:00","2010","01","30","15:00","-7.6","","-12.9","","66","","","M","","M","","","99.17","","","","","","NA"
"2010-01-30 16:00","2010","01","30","16:00","-7.1","","-12.4","","66","","","M","","M","","","99.15","","","","","","NA"
"2010-01-30 17:00","2010","01","30","17:00","-9.0","","-12.2","","78","","","M","","M","","","99.13","","","","","","NA"
"2010-01-30 18:00","2010","01","30","18:00","-11.3","","-12.6","","90","","","M","","M","","","99.12","","","","","","NA"
"2010-01-30 19:00","2010","01","30","19:00","-12.9","","-13.6","","94","","","M","","M","","","99.12","","","","","","NA"
"2010-01-30 20:00","2010","01","30","20:00","-14.6","","-14.8","","98","","","M","","M","","","99.10","","","","","","NA"
"2010-01-30 21:00","2010","01","30","21:00","-13.3","","-14.1","","94","","","M","","M","","","99.07","","","","","","NA"
"2010-01-30 22:00","2010","01","30","22:00","-13.6","","-14.6","","92","","","M","","M","","","99.06","","","","","","NA"
"2010-01-30 23:00","2010","01","30","23:00","-13.8","","-14.7","","93","","","M","","M","","","99.04","","","","","","NA"
"2010-01-31 00:00","2010","01","31","00:00","-14.0","","-15.0","","92","","","M","","M","","","99.01","","","","","","NA"
"2010-01-31 01:00","2010","01","31","01:00","-15.2","","-15.9","","94","","","M","","M","","","99.01","","","","","","NA"
"2010-01-31 02:00","2010","01","31","02:00","-16.8","","-17.4","","95","","","M","","M","","","99.02","","","","","","NA"
"2010-01-31 03:00","2010","01","31","03:00","-17.9","","-18.2","","97","","","M","","M","","","99.04","","","","","","NA"
"2010-01-31 04:00","2010","01","31","04:00","-18.9","","-19.3","","97","","","M","","M","","","99.02","","","","","","NA"
"2010-01-31 05:00","2010","01","31","05:00","-18.4","","-18.9","","96","","","M","","M","","","98.99","","","","","","NA"
"2010-01-31 06:00","2010","01","31","06:00","-18.2","","-19.0","","93","","","M","","M","","","99.05","","","","","","NA"
"2010-01-31 07:00","2010","01","31","07:00","-18.3","","-18.9","","95","","","M","","M","","","99.13","","","","","","NA"
"2010-01-31 08:00","2010","01","31","08:00","-18.7","","-19.4","","94","","","M","","M","","","99.20","","","","","","NA"
"2010-01-31 09:00","2010","01","31","09:00","-18.6","","-19.3","","94","","","M","","M","","","99.22","","","","","","NA"
"2010-01-31 10:00","2010","01","31","10:00","-18.1","","-19.9","","86","","","M","","M","","","99.26","","","","","","NA"
"2010-01-31 11:00","2010","01","31","11:00","-17.4","","-20.4","","77","","","M","","M","","","99.27","","","","","","NA"
"2010-01-31 12:00","2010","01","31","12:00","-16.1","","-20.5","","69","","","M","","M","","","99.30","","","","","","NA"
"2010-01-31 13:00","2010","01","31","13:00","-14.1","","-20.0","","61","","","M","","M","","","99.28","","","","","","NA"
"2010-01-31 14:00","2010","01","31","14:00","-13.4","","-19.5","","60","","","M","","M","","","99.28","","","","","","NA"
"2010-01-31 15:00","2010","01","31","15:00","-13.3","","-19.5","","60","","","M","","M","","","99.25","","","","","","NA"
"2010-01-31 16:00","2010","01","31","16:00","-13.3","","-18.7","","64","","","M","","M","","","99.28","","","","","","NA"
"2010-01-31 17:00","2010","01","31","17:00","-12.9","","-18.1","","65","","","M","","M","","","99.26","","","","","","NA"
"2010-01-31 18:00","2010","01","31","18:00","-13.8","","-18.1","","70","","","M","","M","","","99.31","","","","","","NA"
"2010-01-31 19:00","2010","01","31","19:00","-14.4","","-18.7","","70","","","M","","M","","","99.34","","","","","","NA"
"2010-01-31 20:00","2010","01","31","20:00","-14.4","","-17.3","","79","","","M","","M","","","99.38","","","","","","NA"
"2010-01-31 21:00","2010","01","31","21:00","-13.0","","-16.1","","78","","","M","","M","","","99.34","","","","","","NA"
"2010-01-31 22:00","2010","01","31","22:00","-12.9","","-16.3","","76","","","M","","M","","","99.31","","","","","","NA"
"2010-01-31 23:00","2010","01","31","23:00","-13.6","","-17.2","","74","","","M","","M","","","99.33","","","","","","NA"
