"Station Name","PUKASKWA (AUT)"
"Province","ONTARIO"
"Latitude","48.59"
"Longitude","-86.29"
"Elevation","207.60"
"Climate Identifier","6046767"
"WMO Identifier","71750"
"TC Identifier","WCJ"
"All times are specified in Local Standard Time (LST). Add 1 hour to adjust for Daylight Saving Time where and when it is observed."

"Legend"
"E","Estimated"
"M","Missing"
"NA","Not Available"

"Date/Time","Year","Month","Day","Time","Temp (°C)","Temp Flag","Dew Point Temp (°C)","Dew Point Temp Flag","Rel Hum (%)","Rel Hum Flag","Wind Dir (10s deg)","Wind Dir Flag","Wind Spd (km/h)","Wind Spd Flag","Visibility (km)","Visibility Flag","Stn Press (kPa)","Stn Press Flag","Hmdx","Hmdx Flag","Wind Chill","Wind Chill Flag","Weather"
"2004-11-01 00:00","2004","11","01","00:00","-1.3","","-2.5","","92","","6","","9","","","M","99.40","","","","-5","","NA"
"2004-11-01 01:00","2004","11","01","01:00","-1.3","","-2.4","","92","","10","","7","","","M","99.48","","","","-4","","NA"
"2004-11-01 02:00","2004","11","01","02:00","-1.7","","-2.1","","97","","10","","15","","","M","99.53","","","","-7","","NA"
"2004-11-01 03:00","2004","11","01","03:00","-1.7","","-2.5","","94","","9","","19","","","M","99.50","","","","-7","","NA"
"2004-11-01 04:00","2004","11","01","04:00","-1.9","","-2.2","","98","","8","","11","","","M","99.51","","","","-6","","NA"
"2004-11-01 05:00","2004","11","01","05:00","-2.1","","-2.6","","96","","7","","7","","","M","99.59","","","","-5","","NA"
"2004-11-01 06:00","2004","11","01","06:00","-2.0","","-2.3","","98","","4","","7","","","M","99.62","","","","-5","","NA"
"2004-11-01 07:00","2004","11","01","07:00","-1.4","","-1.5","","99","","8","","7","","","M","99.66","","","","-4","","NA"
"2004-11-01 08:00","2004","11","01","08:00","-0.9","","-1.2","","98","","9","","11","","","M","99.69","","","","-5","","NA"
"2004-11-01 09:00","2004","11","01","09:00","-0.1","","-0.7","","96","","9","","6","","","M","99.76","","","","-2","","NA"
"2004-11-01 10:00","2004","11","01","10:00","0.9","","-0.3","","92","","9","","11","","","M","99.64","","","","","","NA"
"2004-11-01 11:00","2004","11","01","11:00","3.5","","-0.5","","75","","19","","2","","","M","99.79","","","","","","NA"
"2004-11-01 12:00","2004","11","01","12:00","3.7","","0.8","","81","","23","","4","","","M","99.67","","","","","","NA"
"2004-11-01 13:00","2004","11","01","13:00","4.1","","1.1","","81","","16","","4","","","M","99.66","","","","","","NA"
"2004-11-01 14:00","2004","11","01","14:00","4.4","","1.6","","82","","18","","7","","","M","99.61","","","","","","NA"
"2004-11-01 15:00","2004","11","01","15:00","4.3","","2.4","","87","","22","","15","","","M","99.61","","","","","","NA"
"2004-11-01 16:00","2004","11","01","16:00","3.9","","3.2","","95","","24","","7","","","M","99.62","","","","","","NA"
"2004-11-01 17:00","2004","11","01","17:00","4.0","","3.2","","95","","22","","11","","","M","99.63","","","","","","NA"
"2004-11-01 18:00","2004","11","01","18:00","2.9","","2.9","","100","","9","","6","","","M","99.63","","","","","","NA"
"2004-11-01 19:00","2004","11","01","19:00","2.9","","2.9","","100","","8","","6","","","M","99.65","","","","","","NA"
"2004-11-01 20:00","2004","11","01","20:00","4.0","","4.0","","100","","16","","7","","","M","99.64","","","","","","NA"
"2004-11-01 21:00","2004","11","01","21:00","2.7","","2.7","","100","","9","","7","","","M","99.61","","","","","","NA"
"2004-11-01 22:00","2004","11","01","22:00","2.5","","2.5","","100","","9","","9","","","M","99.58","","","","","","NA"
"2004-11-01 23:00","2004","11","01","23:00","1.9","","1.9","","100","","8","","7","","","M","99.53","","","","","","NA"
"2004-11-02 00:00","2004","11","02","00:00","1.8","","1.8","","100","","8","","7","","","M","99.48","","","","","","NA"
"2004-11-02 01:00","2004","11","02","01:00","1.7","","1.7","","100","","7","","9","","","M","99.46","","","","","","NA"
"2004-11-02 02:00","2004","11","02","02:00","1.3","","1.3","","100","","5","","9","","","M","99.37","","","","","","NA"
"2004-11-02 03:00","2004","11","02","03:00","1.8","","1.8","","100","","7","","9","","","M","99.36","","","","","","NA"
"2004-11-02 04:00","2004","11","02","04:00","2.0","","2.0","","100","","7","","9","","","M","99.40","","","","","","NA"
"2004-11-02 05:00","2004","11","02","05:00","2.2","","2.2","","100","","3","","9","","","M","99.37","","","","","","NA"
"2004-11-02 06:00","2004","11","02","06:00","2.7","","2.7","","100","","4","","9","","","M","99.34","","","","","","NA"
"2004-11-02 07:00","2004","11","02","07:00","2.3","","2.3","","100","","1","","6","","","M","99.32","","","","","","NA"
"2004-11-02 08:00","2004","11","02","08:00","2.0","","2.0","","100","","1","","7","","","M","99.34","","","","","","NA"
"2004-11-02 09:00","2004","11","02","09:00","2.2","","2.2","","100","","36","","6","","","M","99.31","","","","","","NA"
"2004-11-02 10:00","2004","11","02","10:00","2.6","","2.5","","99","","2","","7","","","M","99.30","","","","","","NA"
"2004-11-02 11:00","2004","11","02","11:00","3.2","","2.4","","94","","1","","6","","","M","99.30","","","","","","NA"
"2004-11-02 12:00","2004","11","02","12:00","3.8","","1.7","","86","","1","","11","","","M","99.30","","","","","","NA"
"2004-11-02 13:00","2004","11","02","13:00","3.1","","2.3","","94","","36","","11","","","M","99.33","","","","","","NA"
"2004-11-02 14:00","2004","11","02","14:00","3.3","","1.4","","87","","35","","13","","","M","99.36","","","","","","NA"
"2004-11-02 15:00","2004","11","02","15:00","3.9","","1.8","","86","","36","","7","","","M","99.39","","","","","","NA"
"2004-11-02 16:00","2004","11","02","16:00","3.9","","1.5","","84","","1","","6","","","M","99.40","","","","","","NA"
"2004-11-02 17:00","2004","11","02","17:00","3.8","","1.4","","84","","4","","4","","","M","99.38","","","","","","NA"
"2004-11-02 18:00","2004","11","02","18:00","2.7","","1.6","","92","","3","","2","","","M","99.45","","","","","","NA"
"2004-11-02 19:00","2004","11","02","19:00","0.4","","0.4","","100","","6","","7","","","M","99.50","","","","","","NA"
"2004-11-02 20:00","2004","11","02","20:00","-0.4","","-0.4","","100","","5","","7","","","M","99.58","","","","-3","","NA"
"2004-11-02 21:00","2004","11","02","21:00","-0.5","","-0.5","","100","","7","","7","","","M","99.59","","","","-3","","NA"
"2004-11-02 22:00","2004","11","02","22:00","-0.4","","-0.4","","100","","6","","7","","","M","99.63","","","","-3","","NA"
"2004-11-02 23:00","2004","11","02","23:00","-0.8","","-0.8","","100","","7","","7","","","M","99.69","","","","-3","","NA"
"2004-11-03 00:00","2004","11","03","00:00","-1.4","","-1.4","","100","","7","","11","","","M","99.70","","","","-5","","NA"
"2004-11-03 01:00","2004","11","03","01:00","-1.4","","-1.4","","100","","8","","9","","","M","99.72","","","","-5","","NA"
"2004-11-03 02:00","2004","11","03","02:00","-1.5","","-1.5","","100","","8","","11","","","M","99.75","","","","-5","","NA"
"2004-11-03 03:00","2004","11","03","03:00","-1.7","","-1.7","","100","","7","","13","","","M","99.78","","","","-6","","NA"
"2004-11-03 04:00","2004","11","03","04:00","-1.4","","-1.4","","100","","7","","13","","","M","99.78","","","","-6","","NA"
"2004-11-03 05:00","2004","11","03","05:00","-1.3","","-1.3","","100","","8","","13","","","M","99.79","","","","-6","","NA"
"2004-11-03 06:00","2004","11","03","06:00","-0.3","","-0.3","","100","","8","","9","","","M","99.79","","","","-3","","NA"
"2004-11-03 07:00","2004","11","03","07:00","-0.1","","-0.1","","100","","8","","11","","","M","99.77","","","","-4","","NA"
"2004-11-03 08:00","2004","11","03","08:00","5.7","","3.4","","85","","22","","22","","","M","99.77","","","","","","NA"
"2004-11-03 09:00","2004","11","03","09:00","6.2","","3.5","","83","","22","","32","","","M","99.78","","","","","","NA"
"2004-11-03 10:00","2004","11","03","10:00","6.7","","3.4","","79","","22","","32","","","M","99.73","","","","","","NA"
"2004-11-03 11:00","2004","11","03","11:00","6.9","","4.0","","82","","22","","37","","","M","99.70","","","","","","NA"
"2004-11-03 12:00","2004","11","03","12:00","7.2","","4.7","","84","","22","","41","","","M","99.67","","","","","","NA"
"2004-11-03 13:00","2004","11","03","13:00","7.4","","3.7","","77","","22","","41","","","M","99.62","","","","","","NA"
"2004-11-03 14:00","2004","11","03","14:00","7.3","","4.8","","84","","21","","41","","","M","99.55","","","","","","NA"
"2004-11-03 15:00","2004","11","03","15:00","7.0","","4.8","","86","","22","","37","","","M","99.51","","","","","","NA"
"2004-11-03 16:00","2004","11","03","16:00","7.1","","3.1","","76","","22","","43","","","M","99.48","","","","","","NA"
"2004-11-03 17:00","2004","11","03","17:00","6.8","","3.4","","79","","21","","37","","","M","99.40","","","","","","NA"
"2004-11-03 18:00","2004","11","03","18:00","6.6","","4.0","","83","","20","","37","","","M","99.30","","","","","","NA"
"2004-11-03 19:00","2004","11","03","19:00","6.8","","4.9","","88","","20","","41","","","M","99.26","","","","","","NA"
"2004-11-03 20:00","2004","11","03","20:00","7.4","","4.6","","82","","20","","43","","","M","99.17","","","","","","NA"
"2004-11-03 21:00","2004","11","03","21:00","7.2","","5.0","","86","","19","","35","","","M","99.04","","","","","","NA"
"2004-11-03 22:00","2004","11","03","22:00","7.6","","5.2","","85","","19","","33","","","M","99.00","","","","","","NA"
"2004-11-03 23:00","2004","11","03","23:00","7.6","","5.8","","88","","19","","43","","","M","98.93","","","","","","NA"
"2004-11-04 00:00","2004","11","04","00:00","7.4","","6.3","","93","","20","","43","","","M","98.82","","","","","","NA"
"2004-11-04 01:00","2004","11","04","01:00","7.6","","5.9","","89","","21","","43","","","M","98.74","","","","","","NA"
"2004-11-04 02:00","2004","11","04","02:00","7.4","","5.9","","90","","21","","39","","","M","98.64","","","","","","NA"
"2004-11-04 03:00","2004","11","04","03:00","7.5","","6.1","","91","","21","","41","","","M","98.51","","","","","","NA"
"2004-11-04 04:00","2004","11","04","04:00","7.6","","5.9","","89","","22","","39","","","M","98.34","","","","","","NA"
"2004-11-04 05:00","2004","11","04","05:00","7.3","","5.5","","88","","22","","39","","","M","98.19","","","","","","NA"
"2004-11-04 06:00","2004","11","04","06:00","7.2","","5.6","","90","","22","","39","","","M","98.07","","","","","","NA"
"2004-11-04 07:00","2004","11","04","07:00","7.2","","6.2","","93","","22","","39","","","M","97.97","","","","","","NA"
"2004-11-04 08:00","2004","11","04","08:00","7.3","","6.4","","94","","23","","41","","","M","97.88","","","","","","NA"
"2004-11-04 09:00","2004","11","04","09:00","7.4","","6.5","","94","","24","","35","","","M","97.75","","","","","","NA"
"2004-11-04 10:00","2004","11","04","10:00","6.2","","4.3","","88","","29","","30","","","M","97.67","","","","","","NA"
"2004-11-04 11:00","2004","11","04","11:00","4.3","","3.8","","97","","32","","28","","","M","97.64","","","","","","NA"
"2004-11-04 12:00","2004","11","04","12:00","3.3","","3.2","","99","","32","","28","","","M","97.62","","","","","","NA"
"2004-11-04 13:00","2004","11","04","13:00","3.2","","3.0","","99","","33","","24","","","M","97.59","","","","","","NA"
"2004-11-04 14:00","2004","11","04","14:00","3.8","","3.2","","96","","33","","22","","","M","97.55","","","","","","NA"
"2004-11-04 15:00","2004","11","04","15:00","4.0","","2.9","","93","","33","","26","","","M","97.56","","","","","","NA"
"2004-11-04 16:00","2004","11","04","16:00","4.3","","2.3","","87","","33","","17","","","M","97.60","","","","","","NA"
"2004-11-04 17:00","2004","11","04","17:00","3.6","","2.3","","91","","34","","20","","","M","97.64","","","","","","NA"
"2004-11-04 18:00","2004","11","04","18:00","3.9","","1.5","","84","","32","","33","","","M","97.70","","","","","","NA"
"2004-11-04 19:00","2004","11","04","19:00","3.5","","0.6","","81","","33","","26","","","M","97.76","","","","","","NA"
"2004-11-04 20:00","2004","11","04","20:00","3.4","","0.6","","82","","33","","28","","","M","97.81","","","","","","NA"
"2004-11-04 21:00","2004","11","04","21:00","3.1","","0.7","","84","","34","","22","","","M","97.86","","","","","","NA"
"2004-11-04 22:00","2004","11","04","22:00","2.6","","0.4","","85","","34","","24","","","M","97.95","","","","","","NA"
"2004-11-04 23:00","2004","11","04","23:00","2.9","","-0.5","","78","","33","","26","","","M","97.98","","","","","","NA"
"2004-11-05 00:00","2004","11","05","00:00","2.8","","-1.1","","75","","33","","22","","","M","98.04","","","","","","NA"
"2004-11-05 01:00","2004","11","05","01:00","2.9","","-0.7","","77","","33","","26","","","M","98.09","","","","","","NA"
"2004-11-05 02:00","2004","11","05","02:00","2.9","","-1.1","","75","","33","","26","","","M","98.14","","","","","","NA"
"2004-11-05 03:00","2004","11","05","03:00","2.7","","-1.3","","75","","33","","19","","","M","98.16","","","","","","NA"
"2004-11-05 04:00","2004","11","05","04:00","2.5","","-1.6","","74","","32","","26","","","M","98.20","","","","","","NA"
"2004-11-05 05:00","2004","11","05","05:00","2.5","","-1.3","","76","","31","","22","","","M","98.22","","","","","","NA"
"2004-11-05 06:00","2004","11","05","06:00","2.2","","-1.9","","74","","33","","19","","","M","98.21","","","","","","NA"
"2004-11-05 07:00","2004","11","05","07:00","2.4","","-1.8","","74","","30","","13","","","M","98.15","","","","","","NA"
"2004-11-05 08:00","2004","11","05","08:00","2.5","","-3.1","","67","","30","","13","","","M","98.10","","","","","","NA"
"2004-11-05 09:00","2004","11","05","09:00","3.0","","-2.9","","65","","28","","17","","","M","98.07","","","","","","NA"
"2004-11-05 10:00","2004","11","05","10:00","3.6","","-1.6","","69","","26","","17","","","M","97.98","","","","","","NA"
"2004-11-05 11:00","2004","11","05","11:00","4.2","","-1.0","","69","","24","","19","","","M","97.93","","","","","","NA"
"2004-11-05 12:00","2004","11","05","12:00","4.5","","0.1","","73","","20","","26","","","M","97.79","","","","","","NA"
"2004-11-05 13:00","2004","11","05","13:00","5.1","","3.0","","86","","20","","41","","","M","97.62","","","","","","NA"
"2004-11-05 14:00","2004","11","05","14:00","5.9","","4.1","","88","","21","","44","","","M","97.49","","","","","","NA"
"2004-11-05 15:00","2004","11","05","15:00","6.9","","3.3","","78","","25","","28","","","M","97.46","","","","","","NA"
"2004-11-05 16:00","2004","11","05","16:00","6.2","","1.6","","72","","28","","24","","","M","97.47","","","","","","NA"
"2004-11-05 17:00","2004","11","05","17:00","6.1","","1.7","","73","","28","","26","","","M","97.46","","","","","","NA"
"2004-11-05 18:00","2004","11","05","18:00","6.4","","2.1","","74","","29","","26","","","M","97.49","","","","","","NA"
"2004-11-05 19:00","2004","11","05","19:00","6.5","","2.4","","75","","26","","20","","","M","97.42","","","","","","NA"
"2004-11-05 20:00","2004","11","05","20:00","7.1","","4.0","","81","","26","","22","","","M","97.36","","","","","","NA"
"2004-11-05 21:00","2004","11","05","21:00","7.4","","5.7","","89","","24","","28","","","M","97.29","","","","","","NA"
"2004-11-05 22:00","2004","11","05","22:00","7.9","","4.9","","81","","23","","33","","","M","97.28","","","","","","NA"
"2004-11-05 23:00","2004","11","05","23:00","8.2","","5.6","","84","","23","","33","","","M","97.17","","","","","","NA"
"2004-11-06 00:00","2004","11","06","00:00","8.6","","5.4","","80","","26","","32","","","M","97.11","","","","","","NA"
"2004-11-06 01:00","2004","11","06","01:00","8.9","","4.9","","76","","29","","35","","","M","97.09","","","","","","NA"
"2004-11-06 02:00","2004","11","06","02:00","8.9","","5.2","","78","","28","","32","","","M","97.11","","","","","","NA"
"2004-11-06 03:00","2004","11","06","03:00","8.6","","4.9","","78","","29","","32","","","M","97.12","","","","","","NA"
"2004-11-06 04:00","2004","11","06","04:00","8.5","","4.2","","74","","29","","28","","","M","97.17","","","","","","NA"
"2004-11-06 05:00","2004","11","06","05:00","8.0","","3.0","","71","","32","","20","","","M","97.20","","","","","","NA"
"2004-11-06 06:00","2004","11","06","06:00","7.3","","2.3","","71","","33","","22","","","M","97.29","","","","","","NA"
"2004-11-06 07:00","2004","11","06","07:00","6.5","","1.8","","72","","33","","19","","","M","97.40","","","","","","NA"
"2004-11-06 08:00","2004","11","06","08:00","6.0","","2.1","","76","","33","","15","","","M","97.47","","","","","","NA"
"2004-11-06 09:00","2004","11","06","09:00","5.1","","0.1","","70","","3","","13","","","M","97.52","","","","","","NA"
"2004-11-06 10:00","2004","11","06","10:00","5.4","","-0.5","","66","","36","","13","","","M","97.58","","","","","","NA"
"2004-11-06 11:00","2004","11","06","11:00","5.6","","-0.5","","65","","32","","19","","","M","97.67","","","","","","NA"
"2004-11-06 12:00","2004","11","06","12:00","5.2","","-1.8","","61","","33","","15","","","M","97.69","","","","","","NA"
"2004-11-06 13:00","2004","11","06","13:00","5.7","","-2.4","","56","","31","","13","","","M","97.64","","","","","","NA"
"2004-11-06 14:00","2004","11","06","14:00","5.6","","-2.7","","55","","30","","13","","","M","97.69","","","","","","NA"
"2004-11-06 15:00","2004","11","06","15:00","5.9","","-2.2","","56","","27","","9","","","M","97.66","","","","","","NA"
"2004-11-06 16:00","2004","11","06","16:00","5.6","","-2.3","","57","","28","","7","","","M","97.71","","","","","","NA"
"2004-11-06 17:00","2004","11","06","17:00","5.6","","-1.6","","60","","23","","11","","","M","97.71","","","","","","NA"
"2004-11-06 18:00","2004","11","06","18:00","5.6","","-0.1","","67","","25","","7","","","M","97.70","","","","","","NA"
"2004-11-06 19:00","2004","11","06","19:00","5.6","","0.9","","72","","20","","11","","","M","97.68","","","","","","NA"
"2004-11-06 20:00","2004","11","06","20:00","5.3","","1.0","","74","","21","","6","","","M","97.70","","","","","","NA"
"2004-11-06 21:00","2004","11","06","21:00","4.2","","3.2","","93","","16","","6","","","M","97.64","","","","","","NA"
"2004-11-06 22:00","2004","11","06","22:00","3.4","","3.1","","98","","11","","7","","","M","97.53","","","","","","NA"
"2004-11-06 23:00","2004","11","06","23:00","3.0","","3.0","","100","","6","","9","","","M","97.52","","","","","","NA"
"2004-11-07 00:00","2004","11","07","00:00","1.8","","1.8","","100","","7","","13","","","M","97.47","","","","","","NA"
"2004-11-07 01:00","2004","11","07","01:00","1.0","","1.0","","100","","5","","15","","","M","97.45","","","","","","NA"
"2004-11-07 02:00","2004","11","07","02:00","0.4","","0.4","","100","","3","","17","","","M","97.58","","","","","","NA"
"2004-11-07 03:00","2004","11","07","03:00","0.4","","0.4","","100","","1","","11","","","M","97.72","","","","","","NA"
"2004-11-07 04:00","2004","11","07","04:00","0.3","","0.3","","100","","1","","13","","","M","97.87","","","","","","NA"
"2004-11-07 05:00","2004","11","07","05:00","0.1","","0.1","","100","","36","","13","","","M","98.04","","","","","","NA"
"2004-11-07 06:00","2004","11","07","06:00","-0.3","","-0.4","","99","","35","","11","","","M","98.17","","","","-4","","NA"
"2004-11-07 07:00","2004","11","07","07:00","-0.2","","-0.4","","99","","35","","11","","","M","98.31","","","","-4","","NA"
"2004-11-07 08:00","2004","11","07","08:00","0.0","","-1.3","","91","","35","","13","","","M","98.40","","","","-4","","NA"
"2004-11-07 09:00","2004","11","07","09:00","0.0","","-2.2","","85","","36","","11","","","M","98.46","","","","-4","","NA"
"2004-11-07 10:00","2004","11","07","10:00","0.9","","-2.5","","78","","35","","7","","","M","98.50","","","","","","NA"
"2004-11-07 11:00","2004","11","07","11:00","1.5","","-1.6","","80","","33","","13","","","M","98.55","","","","","","NA"
"2004-11-07 12:00","2004","11","07","12:00","1.4","","0.0","","90","","30","","24","","","M","98.55","","","","","","NA"
"2004-11-07 13:00","2004","11","07","13:00","2.3","","-1.4","","77","","31","","30","","","M","98.56","","","","","","NA"
"2004-11-07 14:00","2004","11","07","14:00","2.0","","-2.3","","73","","32","","33","","","M","98.64","","","","","","NA"
"2004-11-07 15:00","2004","11","07","15:00","1.5","","-3.7","","68","","33","","26","","","M","98.76","","","","","","NA"
"2004-11-07 16:00","2004","11","07","16:00","1.8","","-4.7","","62","","32","","33","","","M","98.87","","","","","","NA"
"2004-11-07 17:00","2004","11","07","17:00","0.6","","-4.5","","69","","32","","35","","","M","99.01","","","","","","NA"
"2004-11-07 18:00","2004","11","07","18:00","-0.4","","-4.3","","75","","34","","20","","","M","99.15","","","","-6","","NA"
"2004-11-07 19:00","2004","11","07","19:00","-0.7","","-6.8","","63","","33","","33","","","M","99.28","","","","-8","","NA"
"2004-11-07 20:00","2004","11","07","20:00","-1.4","","-7.5","","63","","34","","20","","","M","99.38","","","","-7","","NA"
"2004-11-07 21:00","2004","11","07","21:00","-1.4","","-7.2","","65","","33","","17","","","M","99.44","","","","-7","","NA"
"2004-11-07 22:00","2004","11","07","22:00","-1.7","","-7.3","","66","","36","","7","","","M","99.46","","","","-4","","NA"
"2004-11-07 23:00","2004","11","07","23:00","-2.4","","-6.9","","71","","36","","9","","","M","99.50","","","","-6","","NA"
"2004-11-08 00:00","2004","11","08","00:00","-3.0","","-6.9","","74","","34","","9","","","M","99.57","","","","-7","","NA"
"2004-11-08 01:00","2004","11","08","01:00","-3.4","","-7.8","","72","","34","","9","","","M","99.64","","","","-7","","NA"
"2004-11-08 02:00","2004","11","08","02:00","-3.8","","-8.6","","69","","35","","11","","","M","99.70","","","","-8","","NA"
"2004-11-08 03:00","2004","11","08","03:00","-4.6","","-9.4","","69","","35","","19","","","M","99.76","","","","-11","","NA"
"2004-11-08 04:00","2004","11","08","04:00","-5.4","","-9.1","","75","","35","","11","","","M","99.85","","","","-10","","NA"
"2004-11-08 05:00","2004","11","08","05:00","-5.5","","-10.3","","69","","36","","11","","","M","99.91","","","","-10","","NA"
"2004-11-08 06:00","2004","11","08","06:00","-5.7","","-9.6","","74","","34","","13","","","M","99.97","","","","-11","","NA"
"2004-11-08 07:00","2004","11","08","07:00","-6.3","","-9.7","","77","","35","","11","","","M","100.08","","","","-11","","NA"
"2004-11-08 08:00","2004","11","08","08:00","-6.7","","-10.2","","76","","35","","9","","","M","100.16","","","","-11","","NA"
"2004-11-08 09:00","2004","11","08","09:00","-5.5","","-11.2","","64","","34","","11","","","M","100.22","","","","-10","","NA"
"2004-11-08 10:00","2004","11","08","10:00","-4.7","","-11.8","","58","","35","","17","","","M","100.27","","","","-11","","NA"
"2004-11-08 11:00","2004","11","08","11:00","-4.3","","-11.4","","58","","35","","13","","","M","100.30","","","","-9","","NA"
"2004-11-08 12:00","2004","11","08","12:00","-4.0","","-10.8","","59","","36","","15","","","M","100.29","","","","-9","","NA"
"2004-11-08 13:00","2004","11","08","13:00","-3.6","","-11.0","","56","","36","","11","","","M","100.24","","","","-8","","NA"
"2004-11-08 14:00","2004","11","08","14:00","-3.1","","-10.4","","57","","34","","17","","","M","100.22","","","","-9","","NA"
"2004-11-08 15:00","2004","11","08","15:00","-3.4","","-9.7","","62","","35","","9","","","M","100.24","","","","-7","","NA"
"2004-11-08 16:00","2004","11","08","16:00","-3.5","","-9.5","","63","","1","","6","","","M","100.29","","","","-6","","NA"
"2004-11-08 17:00","2004","11","08","17:00","-4.1","","-9.3","","67","","2","","11","","","M","100.34","","","","-9","","NA"
"2004-11-08 18:00","2004","11","08","18:00","-4.5","","-11.1","","60","","36","","17","","","M","100.40","","","","-10","","NA"
"2004-11-08 19:00","2004","11","08","19:00","-5.2","","-10.7","","65","","1","","7","","","M","100.42","","","","-8","","NA"
"2004-11-08 20:00","2004","11","08","20:00","-5.8","","-10.2","","71","","6","","4","","","M","100.47","","","","-8","","NA"
"2004-11-08 21:00","2004","11","08","21:00","-5.8","","-8.4","","82","","8","","4","","","M","100.47","","","","-8","","NA"
"2004-11-08 22:00","2004","11","08","22:00","-5.9","","-8.0","","85","","7","","6","","","M","100.47","","","","-9","","NA"
"2004-11-08 23:00","2004","11","08","23:00","-5.3","","-10.5","","67","","6","","11","","","M","100.48","","","","-10","","NA"
"2004-11-09 00:00","2004","11","09","00:00","-5.2","","-10.1","","68","","5","","11","","","M","100.47","","","","-10","","NA"
"2004-11-09 01:00","2004","11","09","01:00","-5.7","","-8.4","","81","","3","","13","","","M","100.53","","","","-11","","NA"
"2004-11-09 02:00","2004","11","09","02:00","-5.7","","-10.4","","69","","5","","7","","","M","100.54","","","","-9","","NA"
"2004-11-09 03:00","2004","11","09","03:00","-6.0","","-9.1","","79","","7","","7","","","M","100.55","","","","-9","","NA"
"2004-11-09 04:00","2004","11","09","04:00","-6.3","","-9.5","","78","","6","","11","","","M","100.54","","","","-11","","NA"
"2004-11-09 05:00","2004","11","09","05:00","-5.9","","-9.0","","79","","8","","6","","","M","100.52","","","","-9","","NA"
"2004-11-09 06:00","2004","11","09","06:00","-5.3","","-8.5","","78","","12","","11","","","M","100.55","","","","-10","","NA"
"2004-11-09 07:00","2004","11","09","07:00","-5.4","","-8.8","","77","","13","","11","","","M","100.55","","","","-10","","NA"
"2004-11-09 08:00","2004","11","09","08:00","-5.5","","-8.9","","77","","11","","19","","","M","100.53","","","","-12","","NA"
"2004-11-09 09:00","2004","11","09","09:00","-5.2","","-9.2","","73","","11","","19","","","M","100.48","","","","-12","","NA"
"2004-11-09 10:00","2004","11","09","10:00","-4.5","","-9.1","","70","","11","","20","","","M","100.43","","","","-11","","NA"
"2004-11-09 11:00","2004","11","09","11:00","-3.7","","-8.4","","70","","9","","17","","","M","100.40","","","","-9","","NA"
"2004-11-09 12:00","2004","11","09","12:00","-2.4","","-6.6","","73","","11","","15","","","M","100.27","","","","-7","","NA"
"2004-11-09 13:00","2004","11","09","13:00","-1.1","","-5.0","","75","","12","","15","","","M","100.11","","","","-6","","NA"
"2004-11-09 14:00","2004","11","09","14:00","0.4","","-2.8","","79","","15","","28","","","M","99.96","","","","","","NA"
"2004-11-09 15:00","2004","11","09","15:00","1.1","","-1.9","","80","","15","","28","","","M","99.79","","","","","","NA"
"2004-11-09 16:00","2004","11","09","16:00","1.3","","-2.0","","79","","15","","28","","","M","99.64","","","","","","NA"
"2004-11-09 17:00","2004","11","09","17:00","2.5","","-2.4","","70","","17","","39","","","M","99.54","","","","","","NA"
"2004-11-09 18:00","2004","11","09","18:00","2.1","","-2.5","","72","","15","","32","","","M","99.36","","","","","","NA"
"2004-11-09 19:00","2004","11","09","19:00","3.1","","1.0","","86","","17","","44","","","M","99.23","","","","","","NA"
"2004-11-09 20:00","2004","11","09","20:00","4.0","","2.3","","89","","18","","54","","","M","99.14","","","","","","NA"
"2004-11-09 21:00","2004","11","09","21:00","4.7","","2.5","","86","","18","","59","","","M","99.01","","","","","","NA"
"2004-11-09 22:00","2004","11","09","22:00","4.9","","3.6","","91","","17","","54","","","M","98.87","","","","","","NA"
"2004-11-09 23:00","2004","11","09","23:00","5.3","","4.1","","92","","17","","54","","","M","98.81","","","","","","NA"
"2004-11-10 00:00","2004","11","10","00:00","5.8","","4.8","","93","","18","","50","","","M","98.75","","","","","","NA"
"2004-11-10 01:00","2004","11","10","01:00","6.5","","5.6","","94","","18","","44","","","M","98.62","","","","","","NA"
"2004-11-10 02:00","2004","11","10","02:00","7.2","","5.9","","91","","19","","41","","","M","98.52","","","","","","NA"
"2004-11-10 03:00","2004","11","10","03:00","7.4","","4.6","","82","","19","","44","","","M","98.42","","","","","","NA"
"2004-11-10 04:00","2004","11","10","04:00","7.4","","4.6","","82","","19","","43","","","M","98.33","","","","","","NA"
"2004-11-10 05:00","2004","11","10","05:00","7.3","","4.8","","84","","19","","39","","","M","98.28","","","","","","NA"
"2004-11-10 06:00","2004","11","10","06:00","7.6","","5.8","","88","","20","","39","","","M","98.26","","","","","","NA"
"2004-11-10 07:00","2004","11","10","07:00","7.9","","6.2","","89","","21","","35","","","M","98.22","","","","","","NA"
"2004-11-10 08:00","2004","11","10","08:00","7.8","","6.7","","93","","23","","30","","","M","98.21","","","","","","NA"
"2004-11-10 09:00","2004","11","10","09:00","7.8","","6.9","","94","","26","","19","","","M","98.25","","","","","","NA"
"2004-11-10 10:00","2004","11","10","10:00","7.9","","6.1","","88","","30","","15","","","M","98.26","","","","","","NA"
"2004-11-10 11:00","2004","11","10","11:00","7.5","","3.9","","78","","34","","6","","","M","98.29","","","","","","NA"
"2004-11-10 12:00","2004","11","10","12:00","6.4","","3.2","","80","","3","","9","","","M","98.31","","","","","","NA"
"2004-11-10 13:00","2004","11","10","13:00","6.2","","1.7","","73","","32","","13","","","M","98.37","","","","","","NA"
"2004-11-10 14:00","2004","11","10","14:00","6.3","","0.8","","68","","34","","15","","","M","98.41","","","","","","NA"
"2004-11-10 15:00","2004","11","10","15:00","5.0","","-1.7","","62","","36","","17","","","M","98.49","","","","","","NA"
"2004-11-10 16:00","2004","11","10","16:00","4.8","","-2.6","","59","","34","","11","","","M","98.63","","","","","","NA"
"2004-11-10 17:00","2004","11","10","17:00","3.5","","-3.9","","58","","33","","28","","","M","98.78","","","","","","NA"
"2004-11-10 18:00","2004","11","10","18:00","2.3","","-6.6","","52","","34","","17","","","M","98.97","","","","","","NA"
"2004-11-10 19:00","2004","11","10","19:00","1.3","","-6.0","","58","","36","","13","","","M","99.09","","","","","","NA"
"2004-11-10 20:00","2004","11","10","20:00","1.4","","-4.8","","63","","33","","22","","","M","99.21","","","","","","NA"
"2004-11-10 21:00","2004","11","10","21:00","0.0","","-5.7","","65","","35","","20","","","M","99.36","","","","-5","","NA"
"2004-11-10 22:00","2004","11","10","22:00","-1.0","","-9.5","","52","","34","","22","","","M","99.50","","","","-7","","NA"
"2004-11-10 23:00","2004","11","10","23:00","-2.0","","-12.0","","46","","35","","20","","","M","99.61","","","","-8","","NA"
"2004-11-11 00:00","2004","11","11","00:00","-2.5","","-11.5","","50","","34","","22","","","M","99.71","","","","-9","","NA"
"2004-11-11 01:00","2004","11","11","01:00","-3.3","","-10.3","","58","","35","","15","","","M","99.84","","","","-8","","NA"
"2004-11-11 02:00","2004","11","11","02:00","-4.5","","-11.9","","56","","36","","11","","","M","99.94","","","","-9","","NA"
"2004-11-11 03:00","2004","11","11","03:00","-5.0","","-11.3","","61","","35","","15","","","M","100.03","","","","-11","","NA"
"2004-11-11 04:00","2004","11","11","04:00","-5.6","","-10.7","","67","","1","","9","","","M","100.09","","","","-10","","NA"
"2004-11-11 05:00","2004","11","11","05:00","-6.0","","-10.5","","70","","4","","6","","","M","100.14","","","","-9","","NA"
"2004-11-11 06:00","2004","11","11","06:00","-6.4","","-9.3","","80","","7","","7","","","M","100.18","","","","-10","","NA"
"2004-11-11 07:00","2004","11","11","07:00","-6.9","","-8.7","","87","","7","","9","","","M","100.23","","","","-11","","NA"
"2004-11-11 08:00","2004","11","11","08:00","-7.1","","-8.0","","93","","6","","9","","","M","100.28","","","","-11","","NA"
"2004-11-11 09:00","2004","11","11","09:00","-3.3","","-8.9","","65","","31","","9","","","M","100.31","","","","-7","","NA"
"2004-11-11 10:00","2004","11","11","10:00","-1.6","","-7.5","","64","","27","","19","","","M","100.29","","","","-7","","NA"
"2004-11-11 11:00","2004","11","11","11:00","-1.6","","-8.5","","59","","28","","17","","","M","100.27","","","","-7","","NA"
"2004-11-11 12:00","2004","11","11","12:00","-0.6","","-7.5","","60","","28","","19","","","M","100.23","","","","-6","","NA"
"2004-11-11 13:00","2004","11","11","13:00","-0.6","","-6.9","","62","","26","","24","","","M","100.16","","","","-7","","NA"
"2004-11-11 14:00","2004","11","11","14:00","-0.2","","-6.2","","64","","26","","32","","","M","100.10","","","","-7","","NA"
"2004-11-11 15:00","2004","11","11","15:00","1.1","","-5.1","","63","","25","","41","","","M","100.01","","","","","","NA"
"2004-11-11 16:00","2004","11","11","16:00","1.5","","-3.3","","70","","25","","39","","","M","99.92","","","","","","NA"
"2004-11-11 17:00","2004","11","11","17:00","2.2","","-3.7","","65","","26","","44","","","M","99.88","","","","","","NA"
"2004-11-11 18:00","2004","11","11","18:00","2.2","","-4.9","","59","","26","","41","","","M","99.85","","","","","","NA"
"2004-11-11 19:00","2004","11","11","19:00","2.0","","-6.0","","55","","27","","35","","","M","99.87","","","","","","NA"
"2004-11-11 20:00","2004","11","11","20:00","1.9","","-8.0","","48","","30","","35","","","M","99.88","","","","","","NA"
"2004-11-11 21:00","2004","11","11","21:00","1.2","","-8.5","","48","","32","","30","","","M","99.93","","","","","","NA"
"2004-11-11 22:00","2004","11","11","22:00","0.0","","-8.3","","54","","33","","20","","","M","100.00","","","","-5","","NA"
"2004-11-11 23:00","2004","11","11","23:00","-1.0","","-6.9","","64","","35","","11","","","M","100.04","","","","-5","","NA"
"2004-11-12 00:00","2004","11","12","00:00","-1.0","","-6.1","","68","","34","","11","","","M","100.06","","","","-5","","NA"
"2004-11-12 01:00","2004","11","12","01:00","-2.0","","-6.6","","71","","2","","6","","","M","100.10","","","","-4","","NA"
"2004-11-12 02:00","2004","11","12","02:00","-1.9","","-6.5","","71","","36","","7","","","M","100.16","","","","-5","","NA"
"2004-11-12 03:00","2004","11","12","03:00","-3.9","","-5.7","","87","","3","","9","","","M","100.27","","","","-8","","NA"
"2004-11-12 04:00","2004","11","12","04:00","-4.6","","-5.9","","91","","6","","13","","","M","100.30","","","","-10","","NA"
"2004-11-12 05:00","2004","11","12","05:00","-5.3","","-7.2","","86","","6","","11","","","M","100.34","","","","-10","","NA"
"2004-11-12 06:00","2004","11","12","06:00","-6.1","","-7.6","","89","","6","","11","","","M","100.40","","","","-11","","NA"
"2004-11-12 07:00","2004","11","12","07:00","-6.7","","-8.2","","89","","6","","9","","","M","100.45","","","","-11","","NA"
"2004-11-12 08:00","2004","11","12","08:00","-7.0","","-8.1","","92","","7","","15","","","M","100.51","","","","-13","","NA"
"2004-11-12 09:00","2004","11","12","09:00","-5.8","","-8.1","","84","","7","","11","","","M","100.58","","","","-11","","NA"
"2004-11-12 10:00","2004","11","12","10:00","-4.0","","-7.8","","75","","9","","11","","","M","100.64","","","","-8","","NA"
"2004-11-12 11:00","2004","11","12","11:00","-2.5","","-8.1","","65","","10","","9","","","M","100.66","","","","-6","","NA"
"2004-11-12 12:00","2004","11","12","12:00","-1.3","","-10.0","","52","","16","","4","","","M","100.67","","","","-3","","NA"
"2004-11-12 13:00","2004","11","12","13:00","-0.7","","-8.9","","54","","1","","4","","","M","100.62","","","","-2","","NA"
"2004-11-12 14:00","2004","11","12","14:00","0.2","","-8.9","","50","","10","","7","","","M","100.60","","","","","","NA"
"2004-11-12 15:00","2004","11","12","15:00","0.5","","-8.0","","53","","7","","4","","","M","100.58","","","","","","NA"
"2004-11-12 16:00","2004","11","12","16:00","-0.3","","-7.2","","60","","9","","7","","","M","100.60","","","","-3","","NA"
"2004-11-12 17:00","2004","11","12","17:00","-0.8","","-7.0","","63","","9","","11","","","M","100.59","","","","-5","","NA"
"2004-11-12 18:00","2004","11","12","18:00","-1.2","","-6.9","","65","","9","","13","","","M","100.58","","","","-5","","NA"
"2004-11-12 19:00","2004","11","12","19:00","-1.5","","-6.4","","69","","8","","15","","","M","100.57","","","","-6","","NA"
"2004-11-12 20:00","2004","11","12","20:00","-1.5","","-5.6","","74","","7","","15","","","M","100.56","","","","-6","","NA"
"2004-11-12 21:00","2004","11","12","21:00","-1.7","","-5.5","","75","","7","","15","","","M","100.54","","","","-7","","NA"
"2004-11-12 22:00","2004","11","12","22:00","-1.2","","-4.6","","78","","6","","7","","","M","100.51","","","","-4","","NA"
"2004-11-12 23:00","2004","11","12","23:00","4.6","","-0.4","","70","","25","","39","","","M","100.53","","","","","","NA"
"2004-11-13 00:00","2004","11","13","00:00","4.9","","-0.5","","68","","25","","35","","","M","100.53","","","","","","NA"
"2004-11-13 01:00","2004","11","13","01:00","4.9","","0.7","","74","","26","","32","","","M","100.52","","","","","","NA"
"2004-11-13 02:00","2004","11","13","02:00","5.1","","1.2","","76","","25","","32","","","M","100.51","","","","","","NA"
"2004-11-13 03:00","2004","11","13","03:00","5.4","","1.7","","77","","25","","32","","","M","100.52","","","","","","NA"
"2004-11-13 04:00","2004","11","13","04:00","5.5","","1.2","","74","","25","","35","","","M","100.54","","","","","","NA"
"2004-11-13 05:00","2004","11","13","05:00","5.6","","1.1","","73","","26","","33","","","M","100.54","","","","","","NA"
"2004-11-13 06:00","2004","11","13","06:00","5.6","","0.6","","70","","26","","37","","","M","100.55","","","","","","NA"
"2004-11-13 07:00","2004","11","13","07:00","5.5","","0.3","","69","","26","","35","","","M","100.56","","","","","","NA"
"2004-11-13 08:00","2004","11","13","08:00","5.6","","0.6","","70","","26","","32","","","M","100.59","","","","","","NA"
"2004-11-13 09:00","2004","11","13","09:00","5.7","","1.2","","73","","25","","33","","","M","100.61","","","","","","NA"
"2004-11-13 10:00","2004","11","13","10:00","5.8","","0.2","","67","","25","","39","","","M","100.67","","","","","","NA"
"2004-11-13 11:00","2004","11","13","11:00","6.0","","1.4","","72","","25","","41","","","M","100.68","","","","","","NA"
"2004-11-13 12:00","2004","11","13","12:00","5.9","","0.6","","69","","24","","41","","","M","100.69","","","","","","NA"
"2004-11-13 13:00","2004","11","13","13:00","6.1","","2.3","","77","","25","","35","","","M","100.64","","","","","","NA"
"2004-11-13 14:00","2004","11","13","14:00","5.5","","1.6","","76","","24","","41","","","M","100.61","","","","","","NA"
"2004-11-13 15:00","2004","11","13","15:00","5.4","","2.1","","79","","23","","41","","","M","100.61","","","","","","NA"
"2004-11-13 16:00","2004","11","13","16:00","5.4","","2.1","","79","","23","","41","","","M","100.62","","","","","","NA"
"2004-11-13 17:00","2004","11","13","17:00","5.3","","1.9","","79","","23","","43","","","M","100.64","","","","","","NA"
"2004-11-13 18:00","2004","11","13","18:00","5.5","","2.2","","79","","22","","44","","","M","100.63","","","","","","NA"
"2004-11-13 19:00","2004","11","13","19:00","5.8","","2.4","","79","","23","","43","","","M","100.64","","","","","","NA"
"2004-11-13 20:00","2004","11","13","20:00","6.1","","1.7","","73","","24","","43","","","M","100.65","","","","","","NA"
"2004-11-13 21:00","2004","11","13","21:00","6.7","","0.7","","66","","25","","35","","","M","100.66","","","","","","NA"
"2004-11-13 22:00","2004","11","13","22:00","6.9","","1.4","","68","","24","","35","","","M","100.67","","","","","","NA"
"2004-11-13 23:00","2004","11","13","23:00","6.9","","1.0","","66","","25","","35","","","M","100.66","","","","","","NA"
"2004-11-14 00:00","2004","11","14","00:00","6.7","","1.2","","68","","26","","32","","","M","100.67","","","","","","NA"
"2004-11-14 01:00","2004","11","14","01:00","6.6","","1.6","","70","","26","","30","","","M","100.71","","","","","","NA"
"2004-11-14 02:00","2004","11","14","02:00","6.4","","1.5","","71","","26","","30","","","M","100.75","","","","","","NA"
"2004-11-14 03:00","2004","11","14","03:00","6.2","","2.5","","77","","25","","24","","","M","100.79","","","","","","NA"
"2004-11-14 04:00","2004","11","14","04:00","6.3","","2.3","","76","","26","","26","","","M","100.81","","","","","","NA"
"2004-11-14 05:00","2004","11","14","05:00","6.2","","0.9","","69","","27","","24","","","M","100.82","","","","","","NA"
"2004-11-14 06:00","2004","11","14","06:00","6.0","","0.1","","66","","27","","24","","","M","100.82","","","","","","NA"
"2004-11-14 07:00","2004","11","14","07:00","5.8","","0.8","","70","","26","","22","","","M","100.85","","","","","","NA"
"2004-11-14 08:00","2004","11","14","08:00","5.8","","0.9","","71","","26","","24","","","M","100.85","","","","","","NA"
"2004-11-14 09:00","2004","11","14","09:00","6.1","","2.8","","79","","25","","28","","","M","100.90","","","","","","NA"
"2004-11-14 10:00","2004","11","14","10:00","6.4","","2.3","","75","","24","","33","","","M","100.94","","","","","","NA"
"2004-11-14 11:00","2004","11","14","11:00","6.7","","2.4","","74","","24","","35","","","M","100.96","","","","","","NA"
"2004-11-14 12:00","2004","11","14","12:00","6.8","","2.8","","76","","23","","35","","","M","100.92","","","","","","NA"
"2004-11-14 13:00","2004","11","14","13:00","7.0","","2.9","","75","","24","","35","","","M","100.88","","","","","","NA"
"2004-11-14 14:00","2004","11","14","14:00","6.9","","3.5","","79","","23","","32","","","M","100.85","","","","","","NA"
"2004-11-14 15:00","2004","11","14","15:00","6.8","","3.8","","81","","22","","32","","","M","100.79","","","","","","NA"
"2004-11-14 16:00","2004","11","14","16:00","6.3","","4.0","","85","","22","","35","","","M","100.81","","","","","","NA"
"2004-11-14 17:00","2004","11","14","17:00","5.9","","3.7","","86","","22","","37","","","M","100.80","","","","","","NA"
"2004-11-14 18:00","2004","11","14","18:00","6.1","","3.6","","84","","22","","37","","","M","100.79","","","","","","NA"
"2004-11-14 19:00","2004","11","14","19:00","6.5","","3.1","","79","","23","","28","","","M","100.80","","","","","","NA"
"2004-11-14 20:00","2004","11","14","20:00","6.6","","3.4","","80","","22","","32","","","M","100.79","","","","","","NA"
"2004-11-14 21:00","2004","11","14","21:00","6.0","","4.5","","90","","21","","24","","","M","100.76","","","","","","NA"
"2004-11-14 22:00","2004","11","14","22:00","6.1","","4.2","","88","","20","","24","","","M","100.71","","","","","","NA"
"2004-11-14 23:00","2004","11","14","23:00","6.5","","4.0","","84","","20","","24","","","M","100.64","","","","","","NA"
"2004-11-15 00:00","2004","11","15","00:00","7.1","","3.9","","80","","22","","26","","","M","100.63","","","","","","NA"
"2004-11-15 01:00","2004","11","15","01:00","7.1","","4.0","","81","","23","","26","","","M","100.63","","","","","","NA"
"2004-11-15 02:00","2004","11","15","02:00","6.9","","4.4","","84","","24","","26","","","M","100.60","","","","","","NA"
"2004-11-15 03:00","2004","11","15","03:00","6.7","","4.1","","83","","25","","20","","","M","100.58","","","","","","NA"
"2004-11-15 04:00","2004","11","15","04:00","6.3","","4.4","","88","","26","","15","","","M","100.53","","","","","","NA"
"2004-11-15 05:00","2004","11","15","05:00","6.6","","4.3","","85","","24","","22","","","M","100.49","","","","","","NA"
"2004-11-15 06:00","2004","11","15","06:00","6.5","","4.1","","85","","25","","26","","","M","100.54","","","","","","NA"
"2004-11-15 07:00","2004","11","15","07:00","6.2","","2.8","","79","","25","","19","","","M","100.54","","","","","","NA"
"2004-11-15 08:00","2004","11","15","08:00","6.0","","3.0","","81","","25","","19","","","M","100.49","","","","","","NA"
"2004-11-15 09:00","2004","11","15","09:00","6.4","","3.1","","79","","23","","26","","","M","100.49","","","","","","NA"
"2004-11-15 10:00","2004","11","15","10:00","6.5","","3.3","","80","","23","","24","","","M","100.49","","","","","","NA"
"2004-11-15 11:00","2004","11","15","11:00","6.8","","3.5","","79","","23","","26","","","M","100.54","","","","","","NA"
"2004-11-15 12:00","2004","11","15","12:00","7.0","","3.8","","80","","22","","24","","","M","100.47","","","","","","NA"
"2004-11-15 13:00","2004","11","15","13:00","6.4","","3.9","","84","","21","","33","","","M","100.36","","","","","","NA"
"2004-11-15 14:00","2004","11","15","14:00","6.6","","4.0","","83","","21","","30","","","M","100.25","","","","","","NA"
"2004-11-15 15:00","2004","11","15","15:00","6.7","","3.2","","78","","21","","32","","","M","100.17","","","","","","NA"
"2004-11-15 16:00","2004","11","15","16:00","6.2","","3.3","","82","","22","","28","","","M","100.19","","","","","","NA"
"2004-11-15 17:00","2004","11","15","17:00","6.0","","2.8","","80","","22","","28","","","M","100.06","","","","","","NA"
"2004-11-15 18:00","2004","11","15","18:00","5.8","","3.7","","86","","21","","28","","","M","100.05","","","","","","NA"
"2004-11-15 19:00","2004","11","15","19:00","5.7","","4.3","","91","","21","","32","","","M","100.02","","","","","","NA"
"2004-11-15 20:00","2004","11","15","20:00","5.8","","4.3","","90","","20","","32","","","M","99.98","","","","","","NA"
"2004-11-15 21:00","2004","11","15","21:00","5.8","","4.3","","90","","19","","32","","","M","99.91","","","","","","NA"
"2004-11-15 22:00","2004","11","15","22:00","5.9","","4.6","","91","","19","","30","","","M","99.90","","","","","","NA"
"2004-11-15 23:00","2004","11","15","23:00","6.1","","5.1","","93","","19","","26","","","M","99.87","","","","","","NA"
"2004-11-16 00:00","2004","11","16","00:00","6.2","","5.4","","95","","19","","30","","","M","99.86","","","","","","NA"
"2004-11-16 01:00","2004","11","16","01:00","6.3","","6.0","","98","","19","","33","","","M","99.82","","","","","","NA"
"2004-11-16 02:00","2004","11","16","02:00","6.6","","5.9","","95","","20","","28","","","M","99.77","","","","","","NA"
"2004-11-16 03:00","2004","11","16","03:00","6.8","","5.6","","92","","23","","26","","","M","99.76","","","","","","NA"
"2004-11-16 04:00","2004","11","16","04:00","6.9","","5.7","","92","","23","","22","","","M","99.72","","","","","","NA"
"2004-11-16 05:00","2004","11","16","05:00","6.5","","5.9","","96","","20","","22","","","M","99.69","","","","","","NA"
"2004-11-16 06:00","2004","11","16","06:00","6.2","","5.6","","96","","20","","28","","","M","99.65","","","","","","NA"
"2004-11-16 07:00","2004","11","16","07:00","6.3","","5.7","","96","","20","","32","","","M","99.62","","","","","","NA"
"2004-11-16 08:00","2004","11","16","08:00","6.3","","6.1","","99","","20","","35","","","M","99.60","","","","","","NA"
"2004-11-16 09:00","2004","11","16","09:00","6.5","","6.3","","99","","20","","35","","","M","99.60","","","","","","NA"
"2004-11-16 10:00","2004","11","16","10:00","6.8","","6.6","","99","","21","","35","","","M","99.58","","","","","","NA"
"2004-11-16 11:00","2004","11","16","11:00","7.4","","6.4","","93","","20","","35","","","M","99.55","","","","","","NA"
"2004-11-16 12:00","2004","11","16","12:00","7.2","","6.4","","95","","20","","35","","","M","99.51","","","","","","NA"
"2004-11-16 13:00","2004","11","16","13:00","6.5","","6.1","","97","","22","","33","","","M","99.50","","","","","","NA"
"2004-11-16 14:00","2004","11","16","14:00","5.9","","5.9","","100","","21","","33","","","M","99.49","","","","","","NA"
"2004-11-16 15:00","2004","11","16","15:00","5.6","","5.6","","100","","22","","30","","","M","99.46","","","","","","NA"
"2004-11-16 16:00","2004","11","16","16:00","5.9","","5.9","","100","","20","","32","","","M","99.45","","","","","","NA"
"2004-11-16 17:00","2004","11","16","17:00","6.0","","6.0","","100","","21","","30","","","M","99.48","","","","","","NA"
"2004-11-16 18:00","2004","11","16","18:00","6.4","","6.4","","100","","22","","32","","","M","99.50","","","","","","NA"
"2004-11-16 19:00","2004","11","16","19:00","6.1","","6.1","","100","","20","","28","","","M","99.46","","","","","","NA"
"2004-11-16 20:00","2004","11","16","20:00","5.8","","5.8","","100","","18","","26","","","M","99.44","","","","","","NA"
"2004-11-16 21:00","2004","11","16","21:00","6.0","","6.0","","100","","19","","28","","","M","99.41","","","","","","NA"
"2004-11-16 22:00","2004","11","16","22:00","6.4","","6.4","","100","","18","","26","","","M","99.38","","","","","","NA"
"2004-11-16 23:00","2004","11","16","23:00","6.7","","6.7","","100","","18","","26","","","M","99.40","","","","","","NA"
"2004-11-17 00:00","2004","11","17","00:00","6.9","","6.9","","100","","19","","26","","","M","99.40","","","","","","NA"
"2004-11-17 01:00","2004","11","17","01:00","6.9","","6.9","","100","","19","","24","","","M","99.40","","","","","","NA"
"2004-11-17 02:00","2004","11","17","02:00","6.9","","6.9","","100","","18","","22","","","M","99.40","","","","","","NA"
"2004-11-17 03:00","2004","11","17","03:00","7.0","","7.0","","100","","19","","19","","","M","99.39","","","","","","NA"
"2004-11-17 04:00","2004","11","17","04:00","7.0","","7.0","","100","","19","","22","","","M","99.37","","","","","","NA"
"2004-11-17 05:00","2004","11","17","05:00","7.1","","7.1","","100","","19","","20","","","M","99.36","","","","","","NA"
"2004-11-17 06:00","2004","11","17","06:00","7.1","","7.1","","100","","19","","19","","","M","99.35","","","","","","NA"
"2004-11-17 07:00","2004","11","17","07:00","7.1","","7.1","","100","","19","","19","","","M","99.37","","","","","","NA"
"2004-11-17 08:00","2004","11","17","08:00","7.1","","7.1","","100","","19","","19","","","M","99.39","","","","","","NA"
"2004-11-17 09:00","2004","11","17","09:00","7.1","","7.1","","100","","19","","22","","","M","99.42","","","","","","NA"
"2004-11-17 10:00","2004","11","17","10:00","7.2","","7.2","","100","","18","","19","","","M","99.37","","","","","","NA"
"2004-11-17 11:00","2004","11","17","11:00","7.1","","7.1","","100","","22","","19","","","M","99.41","","","","","","NA"
"2004-11-17 12:00","2004","11","17","12:00","7.1","","7.1","","100","","23","","20","","","M","99.40","","","","","","NA"
"2004-11-17 13:00","2004","11","17","13:00","7.0","","7.0","","100","","24","","19","","","M","99.39","","","","","","NA"
"2004-11-17 14:00","2004","11","17","14:00","7.2","","7.2","","100","","25","","11","","","M","99.38","","","","","","NA"
"2004-11-17 15:00","2004","11","17","15:00","7.1","","7.1","","100","","22","","7","","","M","99.34","","","","","","NA"
"2004-11-17 16:00","2004","11","17","16:00","6.8","","6.8","","100","","24","","7","","","M","99.32","","","","","","NA"
"2004-11-17 17:00","2004","11","17","17:00","6.5","","6.5","","100","","29","","6","","","M","99.37","","","","","","NA"
"2004-11-17 18:00","2004","11","17","18:00","6.4","","6.4","","100","","27","","6","","","M","99.38","","","","","","NA"
"2004-11-17 19:00","2004","11","17","19:00","6.3","","6.3","","100","","25","","9","","","M","99.39","","","","","","NA"
"2004-11-17 20:00","2004","11","17","20:00","6.0","","6.0","","100","","27","","13","","","M","99.39","","","","","","NA"
"2004-11-17 21:00","2004","11","17","21:00","5.7","","5.7","","100","","27","","19","","","M","99.37","","","","","","NA"
"2004-11-17 22:00","2004","11","17","22:00","5.7","","5.7","","100","","26","","19","","","M","99.37","","","","","","NA"
"2004-11-17 23:00","2004","11","17","23:00","5.8","","5.8","","100","","26","","11","","","M","99.30","","","","","","NA"
"2004-11-18 00:00","2004","11","18","00:00","5.8","","5.8","","100","","25","","13","","","M","99.29","","","","","","NA"
"2004-11-18 01:00","2004","11","18","01:00","5.7","","5.7","","100","","27","","19","","","M","99.32","","","","","","NA"
"2004-11-18 02:00","2004","11","18","02:00","5.9","","5.3","","96","","27","","22","","","M","99.26","","","","","","NA"
"2004-11-18 03:00","2004","11","18","03:00","5.9","","5.3","","96","","25","","22","","","M","99.24","","","","","","NA"
"2004-11-18 04:00","2004","11","18","04:00","6.0","","5.3","","95","","28","","19","","","M","99.20","","","","","","NA"
"2004-11-18 05:00","2004","11","18","05:00","6.2","","5.1","","93","","28","","22","","","M","99.24","","","","","","NA"
"2004-11-18 06:00","2004","11","18","06:00","6.4","","6.0","","97","","27","","20","","","M","99.24","","","","","","NA"
"2004-11-18 07:00","2004","11","18","07:00","6.6","","5.6","","93","","27","","24","","","M","99.24","","","","","","NA"
"2004-11-18 08:00","2004","11","18","08:00","6.1","","4.8","","91","","28","","26","","","M","99.30","","","","","","NA"
"2004-11-18 09:00","2004","11","18","09:00","5.8","","4.6","","92","","29","","20","","","M","99.33","","","","","","NA"
"2004-11-18 10:00","2004","11","18","10:00","5.8","","4.2","","89","","29","","19","","","M","99.35","","","","","","NA"
"2004-11-18 11:00","2004","11","18","11:00","6.1","","4.5","","89","","28","","19","","","M","99.37","","","","","","NA"
"2004-11-18 12:00","2004","11","18","12:00","6.8","","4.3","","84","","28","","20","","","M","99.41","","","","","","NA"
"2004-11-18 13:00","2004","11","18","13:00","7.2","","4.0","","80","","28","","28","","","M","99.37","","","","","","NA"
"2004-11-18 14:00","2004","11","18","14:00","7.4","","4.4","","81","","28","","24","","","M","99.35","","","","","","NA"
"2004-11-18 15:00","2004","11","18","15:00","7.6","","4.0","","78","","27","","26","","","M","99.32","","","","","","NA"
"2004-11-18 16:00","2004","11","18","16:00","7.3","","4.9","","85","","27","","24","","","M","99.35","","","","","","NA"
"2004-11-18 17:00","2004","11","18","17:00","6.6","","4.7","","88","","27","","26","","","M","99.44","","","","","","NA"
"2004-11-18 18:00","2004","11","18","18:00","6.9","","4.7","","86","","28","","32","","","M","99.51","","","","","","NA"
"2004-11-18 19:00","2004","11","18","19:00","7.2","","4.9","","85","","29","","26","","","M","99.59","","","","","","NA"
"2004-11-18 20:00","2004","11","18","20:00","6.8","","1.8","","70","","32","","15","","","M","99.64","","","","","","NA"
"2004-11-18 21:00","2004","11","18","21:00","5.8","","1.0","","71","","34","","13","","","M","99.68","","","","","","NA"
"2004-11-18 22:00","2004","11","18","22:00","4.8","","0.4","","73","","34","","11","","","M","99.74","","","","","","NA"
"2004-11-18 23:00","2004","11","18","23:00","1.8","","0.1","","88","","3","","7","","","M","99.76","","","","","","NA"
"2004-11-19 00:00","2004","11","19","00:00","1.5","","-0.7","","85","","2","","6","","","M","99.81","","","","","","NA"
"2004-11-19 01:00","2004","11","19","01:00","1.6","","-0.6","","85","","4","","9","","","M","99.84","","","","","","NA"
"2004-11-19 02:00","2004","11","19","02:00","0.9","","-0.6","","90","","3","","9","","","M","99.84","","","","","","NA"
"2004-11-19 03:00","2004","11","19","03:00","-1.5","","-1.7","","99","","2","","6","","","M","99.88","","","","-4","","NA"
"2004-11-19 04:00","2004","11","19","04:00","-1.8","","-1.8","","100","","3","","6","","","M","99.86","","","","-4","","NA"
"2004-11-19 05:00","2004","11","19","05:00","1.7","","-0.3","","87","","5","","13","","","M","99.84","","","","","","NA"
"2004-11-19 06:00","2004","11","19","06:00","0.3","","-0.8","","92","","13","","6","","","M","99.93","","","","","","NA"
"2004-11-19 07:00","2004","11","19","07:00","-1.2","","-1.7","","96","","4","","4","","","M","99.95","","","","-3","","NA"
"2004-11-19 08:00","2004","11","19","08:00","-1.3","","-1.3","","100","","8","","11","","","M","99.98","","","","-5","","NA"
"2004-11-19 09:00","2004","11","19","09:00","-0.1","","-1.3","","92","","5","","11","","","M","99.96","","","","-4","","NA"
"2004-11-19 10:00","2004","11","19","10:00","2.3","","0.0","","85","","9","","19","","","M","99.96","","","","","","NA"
"2004-11-19 11:00","2004","11","19","11:00","3.8","","0.2","","77","","9","","26","","","M","99.92","","","","","","NA"
"2004-11-19 12:00","2004","11","19","12:00","4.0","","0.2","","76","","9","","22","","","M","99.84","","","","","","NA"
"2004-11-19 13:00","2004","11","19","13:00","5.1","","0.5","","72","","9","","11","","","M","99.81","","","","","","NA"
"2004-11-19 14:00","2004","11","19","14:00","5.5","","-0.1","","67","","10","","15","","","M","99.73","","","","","","NA"
"2004-11-19 15:00","2004","11","19","15:00","5.1","","0.5","","72","","8","","13","","","M","99.66","","","","","","NA"
"2004-11-19 16:00","2004","11","19","16:00","4.6","","0.3","","74","","9","","13","","","M","99.63","","","","","","NA"
"2004-11-19 17:00","2004","11","19","17:00","3.9","","-0.1","","75","","9","","17","","","M","99.58","","","","","","NA"
"2004-11-19 18:00","2004","11","19","18:00","3.4","","-0.2","","77","","9","","20","","","M","99.54","","","","","","NA"
"2004-11-19 19:00","2004","11","19","19:00","3.0","","-0.2","","79","","8","","17","","","M","99.46","","","","","","NA"
"2004-11-19 20:00","2004","11","19","20:00","2.6","","-0.2","","82","","8","","20","","","M","99.37","","","","","","NA"
"2004-11-19 21:00","2004","11","19","21:00","2.3","","-0.2","","84","","8","","13","","","M","99.30","","","","","","NA"
"2004-11-19 22:00","2004","11","19","22:00","2.7","","-0.1","","82","","8","","20","","","M","99.20","","","","","","NA"
"2004-11-19 23:00","2004","11","19","23:00","2.9","","0.0","","81","","8","","17","","","M","99.13","","","","","","NA"
"2004-11-20 00:00","2004","11","20","00:00","2.9","","0.0","","81","","8","","17","","","M","99.08","","","","","","NA"
"2004-11-20 01:00","2004","11","20","01:00","3.3","","0.0","","79","","9","","19","","","M","99.01","","","","","","NA"
"2004-11-20 02:00","2004","11","20","02:00","3.2","","0.0","","79","","8","","19","","","M","98.92","","","","","","NA"
"2004-11-20 03:00","2004","11","20","03:00","2.2","","1.4","","94","","9","","17","","","M","98.85","","","","","","NA"
"2004-11-20 04:00","2004","11","20","04:00","1.8","","1.8","","100","","8","","19","","","M","98.75","","","","","","NA"
"2004-11-20 05:00","2004","11","20","05:00","1.6","","1.6","","100","","8","","20","","","M","98.64","","","","","","NA"
"2004-11-20 06:00","2004","11","20","06:00","1.8","","1.8","","100","","8","","17","","","M","98.59","","","","","","NA"
"2004-11-20 07:00","2004","11","20","07:00","1.9","","1.9","","100","","8","","19","","","M","98.53","","","","","","NA"
"2004-11-20 08:00","2004","11","20","08:00","2.3","","2.3","","100","","8","","17","","","M","98.45","","","","","","NA"
"2004-11-20 09:00","2004","11","20","09:00","2.8","","2.8","","100","","9","","19","","","M","98.41","","","","","","NA"
"2004-11-20 10:00","2004","11","20","10:00","3.2","","3.2","","100","","8","","19","","","M","98.35","","","","","","NA"
"2004-11-20 11:00","2004","11","20","11:00","3.8","","3.8","","100","","9","","17","","","M","98.30","","","","","","NA"
"2004-11-20 12:00","2004","11","20","12:00","4.6","","4.6","","100","","10","","11","","","M","98.25","","","","","","NA"
"2004-11-20 13:00","2004","11","20","13:00","6.0","","6.0","","100","","17","","20","","","M","98.19","","","","","","NA"
"2004-11-20 14:00","2004","11","20","14:00","6.5","","6.5","","100","","18","","26","","","M","98.16","","","","","","NA"
"2004-11-20 15:00","2004","11","20","15:00","6.6","","6.6","","100","","21","","30","","","M","98.17","","","","","","NA"
"2004-11-20 16:00","2004","11","20","16:00","6.1","","6.1","","100","","26","","22","","","M","98.21","","","","","","NA"
"2004-11-20 17:00","2004","11","20","17:00","6.1","","6.1","","100","","26","","22","","","M","98.27","","","","","","NA"
"2004-11-20 18:00","2004","11","20","18:00","6.2","","6.2","","100","","26","","28","","","M","98.31","","","","","","NA"
"2004-11-20 19:00","2004","11","20","19:00","6.0","","5.5","","97","","28","","32","","","M","98.35","","","","","","NA"
"2004-11-20 20:00","2004","11","20","20:00","5.3","","3.9","","91","","28","","35","","","M","98.45","","","","","","NA"
"2004-11-20 21:00","2004","11","20","21:00","5.1","","2.9","","86","","28","","39","","","M","98.53","","","","","","NA"
"2004-11-20 22:00","2004","11","20","22:00","5.0","","1.8","","80","","28","","37","","","M","98.59","","","","","","NA"
"2004-11-20 23:00","2004","11","20","23:00","3.7","","2.5","","92","","28","","32","","","M","98.67","","","","","","NA"
"2004-11-21 00:00","2004","11","21","00:00","4.1","","1.1","","81","","28","","41","","","M","98.74","","","","","","NA"
"2004-11-21 01:00","2004","11","21","01:00","3.3","","0.7","","83","","29","","44","","","M","98.79","","","","","","NA"
"2004-11-21 02:00","2004","11","21","02:00","3.0","","-2.4","","68","","28","","44","","","M","98.89","","","","","","NA"
"2004-11-21 03:00","2004","11","21","03:00","3.0","","-2.2","","69","","28","","43","","","M","98.97","","","","","","NA"
"2004-11-21 04:00","2004","11","21","04:00","2.7","","-3.0","","66","","29","","44","","","M","99.01","","","","","","NA"
"2004-11-21 05:00","2004","11","21","05:00","2.6","","-3.4","","65","","29","","39","","","M","99.04","","","","","","NA"
"2004-11-21 06:00","2004","11","21","06:00","2.6","","-2.2","","71","","29","","33","","","M","99.09","","","","","","NA"
"2004-11-21 07:00","2004","11","21","07:00","2.4","","-2.7","","69","","28","","35","","","M","99.13","","","","","","NA"
"2004-11-21 08:00","2004","11","21","08:00","2.5","","-1.6","","74","","26","","37","","","M","99.14","","","","","","NA"
"2004-11-21 09:00","2004","11","21","09:00","2.0","","-2.9","","70","","27","","37","","","M","99.21","","","","","","NA"
"2004-11-21 10:00","2004","11","21","10:00","1.9","","-2.4","","73","","28","","37","","","M","99.23","","","","","","NA"
"2004-11-21 11:00","2004","11","21","11:00","1.7","","-2.3","","75","","28","","30","","","M","99.26","","","","","","NA"
"2004-11-21 12:00","2004","11","21","12:00","1.4","","-2.4","","76","","28","","30","","","M","99.30","","","","","","NA"
"2004-11-21 13:00","2004","11","21","13:00","1.4","","-3.2","","71","","28","","30","","","M","99.25","","","","","","NA"
"2004-11-21 14:00","2004","11","21","14:00","1.6","","-2.9","","72","","27","","28","","","M","99.24","","","","","","NA"
"2004-11-21 15:00","2004","11","21","15:00","1.4","","-3.8","","68","","28","","28","","","M","99.25","","","","","","NA"
"2004-11-21 16:00","2004","11","21","16:00","1.7","","-3.6","","68","","27","","33","","","M","99.26","","","","","","NA"
"2004-11-21 17:00","2004","11","21","17:00","2.0","","-3.2","","68","","27","","28","","","M","99.26","","","","","","NA"
"2004-11-21 18:00","2004","11","21","18:00","2.3","","-4.0","","63","","27","","28","","","M","99.24","","","","","","NA"
"2004-11-21 19:00","2004","11","21","19:00","2.3","","-4.2","","62","","27","","28","","","M","99.23","","","","","","NA"
"2004-11-21 20:00","2004","11","21","20:00","2.1","","-4.0","","64","","28","","24","","","M","99.22","","","","","","NA"
"2004-11-21 21:00","2004","11","21","21:00","2.2","","-3.0","","68","","28","","26","","","M","99.19","","","","","","NA"
"2004-11-21 22:00","2004","11","21","22:00","1.9","","-4.1","","64","","28","","30","","","M","99.17","","","","","","NA"
"2004-11-21 23:00","2004","11","21","23:00","1.6","","-3.8","","67","","29","","22","","","M","99.11","","","","","","NA"
"2004-11-22 00:00","2004","11","22","00:00","2.1","","-2.7","","70","","28","","15","","","M","99.05","","","","","","NA"
"2004-11-22 01:00","2004","11","22","01:00","2.3","","-2.2","","72","","30","","7","","","M","99.00","","","","","","NA"
"2004-11-22 02:00","2004","11","22","02:00","1.1","","-2.4","","77","","1","","9","","","M","98.94","","","","","","NA"
"2004-11-22 03:00","2004","11","22","03:00","1.7","","-1.4","","80","","35","","4","","","M","98.92","","","","","","NA"
"2004-11-22 04:00","2004","11","22","04:00","3.7","","-2.7","","63","","28","","32","","","M","98.89","","","","","","NA"
"2004-11-22 05:00","2004","11","22","05:00","3.4","","-4.2","","57","","29","","30","","","M","98.86","","","","","","NA"
"2004-11-22 06:00","2004","11","22","06:00","4.0","","-2.8","","61","","27","","28","","","M","98.84","","","","","","NA"
"2004-11-22 07:00","2004","11","22","07:00","4.3","","-2.1","","63","","26","","32","","","M","98.80","","","","","","NA"
"2004-11-22 08:00","2004","11","22","08:00","4.4","","-0.9","","68","","24","","33","","","M","98.78","","","","","","NA"
"2004-11-22 09:00","2004","11","22","09:00","4.8","","1.1","","77","","23","","41","","","M","98.73","","","","","","NA"
"2004-11-22 10:00","2004","11","22","10:00","4.5","","2.0","","84","","22","","43","","","M","98.69","","","","","","NA"
"2004-11-22 11:00","2004","11","22","11:00","4.3","","2.4","","87","","21","","37","","","M","98.65","","","","","","NA"
"2004-11-22 12:00","2004","11","22","12:00","4.4","","2.1","","85","","21","","41","","","M","98.55","","","","","","NA"
"2004-11-22 13:00","2004","11","22","13:00","4.9","","2.8","","86","","21","","46","","","M","98.45","","","","","","NA"
"2004-11-22 14:00","2004","11","22","14:00","5.2","","2.3","","82","","21","","46","","","M","98.41","","","","","","NA"
"2004-11-22 15:00","2004","11","22","15:00","5.1","","2.2","","82","","22","","44","","","M","98.34","","","","","","NA"
"2004-11-22 16:00","2004","11","22","16:00","5.3","","2.3","","81","","22","","43","","","M","98.29","","","","","","NA"
"2004-11-22 17:00","2004","11","22","17:00","5.7","","1.6","","75","","21","","50","","","M","98.24","","","","","","NA"
"2004-11-22 18:00","2004","11","22","18:00","5.8","","1.4","","73","","22","","52","","","M","98.22","","","","","","NA"
"2004-11-22 19:00","2004","11","22","19:00","6.0","","1.4","","72","","22","","44","","","M","98.18","","","","","","NA"
"2004-11-22 20:00","2004","11","22","20:00","5.7","","2.7","","81","","21","","43","","","M","98.08","","","","","","NA"
"2004-11-22 21:00","2004","11","22","21:00","5.8","","3.7","","86","","21","","41","","","M","98.01","","","","","","NA"
"2004-11-22 22:00","2004","11","22","22:00","6.1","","2.6","","78","","22","","50","","","M","97.96","","","","","","NA"
"2004-11-22 23:00","2004","11","22","23:00","5.8","","2.4","","79","","23","","48","","","M","97.90","","","","","","NA"
"2004-11-23 00:00","2004","11","23","00:00","5.7","","2.7","","81","","22","","52","","","M","97.83","","","","","","NA"
"2004-11-23 01:00","2004","11","23","01:00","5.6","","2.4","","80","","22","","52","","","M","97.74","","","","","","NA"
"2004-11-23 02:00","2004","11","23","02:00","5.5","","2.8","","83","","22","","48","","","M","97.67","","","","","","NA"
"2004-11-23 03:00","2004","11","23","03:00","5.6","","2.9","","83","","21","","54","","","M","97.59","","","","","","NA"
"2004-11-23 04:00","2004","11","23","04:00","5.6","","3.1","","84","","21","","52","","","M","97.50","","","","","","NA"
"2004-11-23 05:00","2004","11","23","05:00","5.6","","3.4","","86","","21","","54","","","M","97.41","","","","","","NA"
"2004-11-23 06:00","2004","11","23","06:00","5.7","","4.0","","89","","21","","54","","","M","97.35","","","","","","NA"
"2004-11-23 07:00","2004","11","23","07:00","5.8","","4.3","","90","","21","","54","","","M","97.30","","","","","","NA"
"2004-11-23 08:00","2004","11","23","08:00","6.2","","5.1","","93","","25","","50","","","M","97.30","","","","","","NA"
"2004-11-23 09:00","2004","11","23","09:00","5.7","","2.3","","79","","28","","43","","","M","97.34","","","","","","NA"
"2004-11-23 10:00","2004","11","23","10:00","3.7","","-0.3","","75","","29","","46","","","M","97.52","","","","","","NA"
"2004-11-23 11:00","2004","11","23","11:00","2.2","","-2.2","","73","","29","","43","","","M","97.68","","","","","","NA"
"2004-11-23 12:00","2004","11","23","12:00","1.2","","-5.7","","60","","28","","43","","","M","97.77","","","","","","NA"
"2004-11-23 13:00","2004","11","23","13:00","1.3","","-8.0","","50","","28","","44","","","M","97.83","","","","","","NA"
"2004-11-23 14:00","2004","11","23","14:00","1.0","","-8.0","","51","","28","","37","","","M","97.88","","","","","","NA"
"2004-11-23 15:00","2004","11","23","15:00","1.4","","-6.3","","56","","28","","39","","","M","97.97","","","","","","NA"
"2004-11-23 16:00","2004","11","23","16:00","0.7","","-5.2","","65","","29","","39","","","M","98.06","","","","","","NA"
"2004-11-23 17:00","2004","11","23","17:00","0.6","","-8.4","","51","","29","","43","","","M","98.10","","","","","","NA"
"2004-11-23 18:00","2004","11","23","18:00","0.8","","-7.2","","55","","28","","43","","","M","98.19","","","","","","NA"
"2004-11-23 19:00","2004","11","23","19:00","0.0","","-5.7","","65","","29","","44","","","M","98.28","","","","-8","","NA"
"2004-11-23 20:00","2004","11","23","20:00","-0.3","","-7.2","","60","","28","","43","","","M","98.37","","","","-8","","NA"
"2004-11-23 21:00","2004","11","23","21:00","-0.8","","-8.2","","57","","30","","28","","","M","98.44","","","","-7","","NA"
"2004-11-23 22:00","2004","11","23","22:00","-1.0","","-7.4","","62","","30","","20","","","M","98.51","","","","-7","","NA"
"2004-11-23 23:00","2004","11","23","23:00","-1.3","","-9.0","","56","","30","","33","","","M","98.58","","","","-8","","NA"
"2004-11-24 00:00","2004","11","24","00:00","-2.0","","-8.9","","59","","30","","28","","","M","98.65","","","","-9","","NA"
"2004-11-24 01:00","2004","11","24","01:00","-2.0","","-8.4","","62","","29","","30","","","M","98.71","","","","-9","","NA"
"2004-11-24 02:00","2004","11","24","02:00","-2.4","","-9.7","","57","","29","","32","","","M","98.76","","","","-10","","NA"
"2004-11-24 03:00","2004","11","24","03:00","-2.5","","-7.9","","66","","29","","28","","","M","98.79","","","","-10","","NA"
"2004-11-24 04:00","2004","11","24","04:00","-2.7","","-7.7","","68","","30","","26","","","M","98.79","","","","-10","","NA"
"2004-11-24 05:00","2004","11","24","05:00","-3.0","","-8.8","","64","","31","","26","","","M","98.82","","","","-10","","NA"
"2004-11-24 06:00","2004","11","24","06:00","-3.3","","-8.4","","68","","32","","26","","","M","98.82","","","","-10","","NA"
"2004-11-24 07:00","2004","11","24","07:00","-3.1","","-9.7","","60","","29","","22","","","M","98.91","","","","-9","","NA"
"2004-11-24 08:00","2004","11","24","08:00","-3.6","","-10.4","","59","","31","","17","","","M","98.91","","","","-9","","NA"
"2004-11-24 09:00","2004","11","24","09:00","-3.5","","-10.0","","61","","32","","19","","","M","98.97","","","","-9","","NA"
"2004-11-24 10:00","2004","11","24","10:00","-3.4","","-9.7","","62","","32","","20","","","M","98.98","","","","-10","","NA"
"2004-11-24 11:00","2004","11","24","11:00","-3.3","","-10.6","","57","","32","","20","","","M","98.95","","","","-9","","NA"
"2004-11-24 12:00","2004","11","24","12:00","-3.2","","-11.6","","52","","32","","15","","","M","98.90","","","","-8","","NA"
"2004-11-24 13:00","2004","11","24","13:00","-2.2","","-12.0","","47","","33","","7","","","M","98.83","","","","-5","","NA"
"2004-11-24 14:00","2004","11","24","14:00","-2.8","","-11.5","","51","","28","","7","","","M","98.75","","","","-6","","NA"
"2004-11-24 15:00","2004","11","24","15:00","-1.7","","-12.0","","45","","30","","9","","","M","98.62","","","","-5","","NA"
"2004-11-24 16:00","2004","11","24","16:00","-2.5","","-12.7","","45","","4","","11","","","M","98.58","","","","-7","","NA"
"2004-11-24 17:00","2004","11","24","17:00","-3.9","","-12.0","","53","","3","","9","","","M","98.58","","","","-8","","NA"
"2004-11-24 18:00","2004","11","24","18:00","-5.1","","-11.5","","61","","4","","9","","","M","98.58","","","","-9","","NA"
"2004-11-24 19:00","2004","11","24","19:00","-6.0","","-10.6","","70","","3","","9","","","M","98.54","","","","-10","","NA"
"2004-11-24 20:00","2004","11","24","20:00","-6.8","","-10.4","","75","","3","","9","","","M","98.53","","","","-11","","NA"
"2004-11-24 21:00","2004","11","24","21:00","-7.7","","-10.8","","78","","2","","9","","","M","98.53","","","","-12","","NA"
"2004-11-24 22:00","2004","11","24","22:00","-8.5","","-11.0","","82","","1","","7","","","M","98.50","","","","-12","","NA"
"2004-11-24 23:00","2004","11","24","23:00","-9.2","","-10.9","","87","","34","","6","","","M","98.45","","","","-13","","NA"
"2004-11-25 00:00","2004","11","25","00:00","-10.0","","-10.9","","93","","35","","7","","","M","98.40","","","","-14","","NA"
"2004-11-25 01:00","2004","11","25","01:00","-9.5","","-10.5","","92","","5","","6","","","M","98.35","","","","-13","","NA"
"2004-11-25 02:00","2004","11","25","02:00","-9.8","","-11.5","","87","","36","","7","","","M","98.33","","","","-14","","NA"
"2004-11-25 03:00","2004","11","25","03:00","-10.2","","-10.9","","95","","3","","13","","","M","98.34","","","","-16","","NA"
"2004-11-25 04:00","2004","11","25","04:00","-10.0","","-11.1","","92","","3","","13","","","M","98.28","","","","-16","","NA"
"2004-11-25 05:00","2004","11","25","05:00","-10.3","","-11.3","","92","","3","","13","","","M","98.27","","","","-17","","NA"
"2004-11-25 06:00","2004","11","25","06:00","-11.0","","-11.7","","95","","3","","15","","","M","98.26","","","","-18","","NA"
"2004-11-25 07:00","2004","11","25","07:00","-11.0","","-11.7","","95","","3","","15","","","M","98.25","","","","-18","","NA"
"2004-11-25 08:00","2004","11","25","08:00","-11.3","","-12.0","","95","","3","","13","","","M","98.28","","","","-18","","NA"
"2004-11-25 09:00","2004","11","25","09:00","-10.7","","-12.3","","88","","3","","11","","","M","98.29","","","","-16","","NA"
"2004-11-25 10:00","2004","11","25","10:00","-9.6","","-12.1","","82","","3","","11","","","M","98.31","","","","-15","","NA"
"2004-11-25 11:00","2004","11","25","11:00","-7.7","","-11.0","","77","","4","","9","","","M","98.32","","","","-12","","NA"
"2004-11-25 12:00","2004","11","25","12:00","-6.3","","-13.1","","59","","1","","11","","","M","98.28","","","","-11","","NA"
"2004-11-25 13:00","2004","11","25","13:00","-5.9","","-14.0","","53","","1","","11","","","M","98.27","","","","-11","","NA"
"2004-11-25 14:00","2004","11","25","14:00","-6.0","","-14.0","","53","","4","","9","","","M","98.27","","","","-10","","NA"
"2004-11-25 15:00","2004","11","25","15:00","-5.9","","-14.0","","53","","36","","9","","","M","98.28","","","","-10","","NA"
"2004-11-25 16:00","2004","11","25","16:00","-7.0","","-14.1","","57","","36","","7","","","M","98.32","","","","-11","","NA"
"2004-11-25 17:00","2004","11","25","17:00","-7.7","","-14.3","","59","","2","","11","","","M","98.39","","","","-13","","NA"
"2004-11-25 18:00","2004","11","25","18:00","-8.8","","-14.1","","65","","1","","9","","","M","98.46","","","","-13","","NA"
"2004-11-25 19:00","2004","11","25","19:00","-9.8","","-14.4","","69","","4","","7","","","M","98.49","","","","-14","","NA"
"2004-11-25 20:00","2004","11","25","20:00","-10.3","","-14.4","","72","","4","","9","","","M","98.52","","","","-15","","NA"
"2004-11-25 21:00","2004","11","25","21:00","-10.6","","-14.5","","73","","3","","9","","","M","98.56","","","","-16","","NA"
"2004-11-25 22:00","2004","11","25","22:00","-11.0","","-13.7","","80","","4","","6","","","M","98.59","","","","-15","","NA"
"2004-11-25 23:00","2004","11","25","23:00","-12.5","","-13.3","","94","","8","","7","","","M","98.58","","","","-17","","NA"
"2004-11-26 00:00","2004","11","26","00:00","-12.8","","-14.9","","84","","4","","6","","","M","98.62","","","","-17","","NA"
"2004-11-26 01:00","2004","11","26","01:00","-13.0","","-13.7","","94","","7","","9","","","M","98.64","","","","-18","","NA"
"2004-11-26 02:00","2004","11","26","02:00","-13.5","","-14.4","","93","","8","","7","","","M","98.66","","","","-18","","NA"
"2004-11-26 03:00","2004","11","26","03:00","-11.8","","-13.0","","91","","8","","9","","","M","98.70","","","","-17","","NA"
"2004-11-26 04:00","2004","11","26","04:00","-12.7","","-14.0","","90","","7","","15","","","M","98.75","","","","-20","","NA"
"2004-11-26 05:00","2004","11","26","05:00","-13.6","","-14.4","","94","","6","","15","","","M","98.74","","","","-21","","NA"
"2004-11-26 06:00","2004","11","26","06:00","-13.9","","-14.8","","93","","6","","17","","","M","98.76","","","","-22","","NA"
"2004-11-26 07:00","2004","11","26","07:00","-14.1","","-14.8","","94","","6","","19","","","M","98.79","","","","-23","","NA"
"2004-11-26 08:00","2004","11","26","08:00","-13.6","","-14.4","","94","","6","","19","","","M","98.78","","","","-22","","NA"
"2004-11-26 09:00","2004","11","26","09:00","-12.4","","-13.5","","91","","7","","17","","","M","98.77","","","","-20","","NA"
"2004-11-26 10:00","2004","11","26","10:00","-10.0","","-12.5","","82","","7","","19","","","M","98.82","","","","-18","","NA"
"2004-11-26 11:00","2004","11","26","11:00","-6.9","","-11.7","","69","","9","","17","","","M","98.84","","","","-13","","NA"
"2004-11-26 12:00","2004","11","26","12:00","-4.5","","-11.0","","60","","9","","17","","","M","98.81","","","","-10","","NA"
"2004-11-26 13:00","2004","11","26","13:00","-3.8","","-9.9","","63","","9","","11","","","M","98.79","","","","-8","","NA"
"2004-11-26 14:00","2004","11","26","14:00","-3.2","","-8.9","","65","","10","","15","","","M","98.76","","","","-8","","NA"
"2004-11-26 15:00","2004","11","26","15:00","-2.8","","-8.2","","66","","10","","15","","","M","98.72","","","","-8","","NA"
"2004-11-26 16:00","2004","11","26","16:00","-2.5","","-6.4","","75","","11","","19","","","M","98.72","","","","-8","","NA"
"2004-11-26 17:00","2004","11","26","17:00","-2.9","","-6.0","","79","","9","","22","","","M","98.70","","","","-9","","NA"
"2004-11-26 18:00","2004","11","26","18:00","-3.2","","-6.0","","81","","9","","26","","","M","98.66","","","","-10","","NA"
"2004-11-26 19:00","2004","11","26","19:00","-3.4","","-5.4","","86","","9","","19","","","M","98.65","","","","-9","","NA"
"2004-11-26 20:00","2004","11","26","20:00","-3.0","","-5.3","","84","","9","","22","","","M","98.68","","","","-9","","NA"
"2004-11-26 21:00","2004","11","26","21:00","-2.9","","-5.4","","83","","10","","20","","","M","98.72","","","","-9","","NA"
"2004-11-26 22:00","2004","11","26","22:00","-2.8","","-5.2","","84","","10","","19","","","M","98.72","","","","-9","","NA"
"2004-11-26 23:00","2004","11","26","23:00","-2.8","","-4.9","","85","","10","","22","","","M","98.68","","","","-9","","NA"
"2004-11-27 00:00","2004","11","27","00:00","-2.8","","-3.6","","94","","9","","19","","","M","98.70","","","","-9","","NA"
"2004-11-27 01:00","2004","11","27","01:00","-2.3","","-3.5","","91","","9","","20","","","M","98.67","","","","-8","","NA"
"2004-11-27 02:00","2004","11","27","02:00","-2.0","","-3.6","","89","","9","","20","","","M","98.66","","","","-8","","NA"
"2004-11-27 03:00","2004","11","27","03:00","-1.6","","-3.0","","90","","8","","19","","","M","98.63","","","","-7","","NA"
"2004-11-27 04:00","2004","11","27","04:00","-1.1","","-2.5","","90","","8","","20","","","M","98.57","","","","-7","","NA"
"2004-11-27 05:00","2004","11","27","05:00","-1.0","","-2.3","","91","","8","","24","","","M","98.51","","","","-7","","NA"
"2004-11-27 06:00","2004","11","27","06:00","-1.7","","-2.7","","93","","7","","15","","","M","98.45","","","","-7","","NA"
"2004-11-27 07:00","2004","11","27","07:00","-1.7","","-2.9","","91","","8","","22","","","M","98.41","","","","-8","","NA"
"2004-11-27 08:00","2004","11","27","08:00","-1.8","","-3.4","","89","","8","","26","","","M","98.34","","","","-8","","NA"
"2004-11-27 09:00","2004","11","27","09:00","-1.5","","-3.1","","89","","8","","20","","","M","98.32","","","","-7","","NA"
"2004-11-27 10:00","2004","11","27","10:00","-1.2","","-1.6","","97","","8","","15","","","M","98.28","","","","-6","","NA"
"2004-11-27 11:00","2004","11","27","11:00","-0.8","","-1.1","","98","","8","","26","","","M","98.18","","","","-7","","NA"
"2004-11-27 12:00","2004","11","27","12:00","-0.6","","-0.6","","100","","8","","19","","","M","98.07","","","","-6","","NA"
"2004-11-27 13:00","2004","11","27","13:00","-0.7","","-0.7","","100","","7","","17","","","M","97.92","","","","-6","","NA"
"2004-11-27 14:00","2004","11","27","14:00","-0.6","","-0.6","","100","","7","","19","","","M","97.78","","","","-6","","NA"
"2004-11-27 15:00","2004","11","27","15:00","-0.5","","-0.5","","100","","7","","17","","","M","97.67","","","","-5","","NA"
"2004-11-27 16:00","2004","11","27","16:00","-0.9","","-0.9","","100","","6","","15","","","M","97.61","","","","-6","","NA"
"2004-11-27 17:00","2004","11","27","17:00","-1.1","","-1.1","","100","","6","","13","","","M","97.55","","","","-5","","NA"
"2004-11-27 18:00","2004","11","27","18:00","-1.4","","-1.4","","100","","5","","15","","","M","97.49","","","","-6","","NA"
"2004-11-27 19:00","2004","11","27","19:00","-1.6","","-1.6","","100","","5","","19","","","M","97.42","","","","-7","","NA"
"2004-11-27 20:00","2004","11","27","20:00","-1.8","","-1.8","","100","","5","","20","","","M","97.40","","","","-8","","NA"
"2004-11-27 21:00","2004","11","27","21:00","-2.0","","-2.0","","100","","5","","13","","","M","97.34","","","","-6","","NA"
"2004-11-27 22:00","2004","11","27","22:00","-2.4","","-2.4","","100","","3","","17","","","M","97.30","","","","-8","","NA"
"2004-11-27 23:00","2004","11","27","23:00","-2.8","","-2.8","","100","","3","","17","","","M","97.28","","","","-8","","NA"
"2004-11-28 00:00","2004","11","28","00:00","-3.0","","-3.0","","100","","3","","19","","","M","97.29","","","","-9","","NA"
"2004-11-28 01:00","2004","11","28","01:00","-3.2","","-3.2","","100","","2","","15","","","M","97.32","","","","-8","","NA"
"2004-11-28 02:00","2004","11","28","02:00","-3.8","","-3.8","","100","","2","","17","","","M","97.35","","","","-10","","NA"
"2004-11-28 03:00","2004","11","28","03:00","-4.0","","-4.0","","100","","36","","17","","","M","97.40","","","","-10","","NA"
"2004-11-28 04:00","2004","11","28","04:00","-4.2","","-4.2","","100","","36","","17","","","M","97.50","","","","-10","","NA"
"2004-11-28 05:00","2004","11","28","05:00","-4.2","","-4.2","","100","","36","","11","","","M","97.58","","","","-9","","NA"
"2004-11-28 06:00","2004","11","28","06:00","-4.4","","-4.6","","99","","36","","15","","","M","97.66","","","","-10","","NA"
"2004-11-28 07:00","2004","11","28","07:00","-4.5","","-4.6","","99","","36","","11","","","M","97.77","","","","-9","","NA"
"2004-11-28 08:00","2004","11","28","08:00","-4.1","","-4.3","","99","","35","","13","","","M","97.86","","","","-9","","NA"
"2004-11-28 09:00","2004","11","28","09:00","-3.6","","-4.3","","95","","35","","19","","","M","97.95","","","","-10","","NA"
"2004-11-28 10:00","2004","11","28","10:00","-3.4","","-4.4","","93","","34","","19","","","M","98.03","","","","-9","","NA"
"2004-11-28 11:00","2004","11","28","11:00","-2.9","","-4.2","","91","","35","","19","","","M","98.10","","","","-9","","NA"
"2004-11-28 12:00","2004","11","28","12:00","-2.7","","-4.8","","85","","34","","19","","","M","98.16","","","","-8","","NA"
"2004-11-28 13:00","2004","11","28","13:00","-2.4","","-5.0","","82","","34","","17","","","M","98.25","","","","-8","","NA"
"2004-11-28 14:00","2004","11","28","14:00","-2.1","","-4.7","","82","","34","","15","","","M","98.40","","","","-7","","NA"
"2004-11-28 15:00","2004","11","28","15:00","-2.1","","-5.3","","79","","34","","19","","","M","98.50","","","","-8","","NA"
"2004-11-28 16:00","2004","11","28","16:00","-1.7","","-5.6","","75","","33","","24","","","M","98.65","","","","-8","","NA"
"2004-11-28 17:00","2004","11","28","17:00","-2.0","","-6.0","","74","","34","","22","","","M","98.76","","","","-8","","NA"
"2004-11-28 18:00","2004","11","28","18:00","-1.8","","-6.2","","72","","32","","22","","","M","98.88","","","","-8","","NA"
"2004-11-28 19:00","2004","11","28","19:00","-1.7","","-5.7","","74","","32","","26","","","M","98.97","","","","-8","","NA"
"2004-11-28 20:00","2004","11","28","20:00","-1.6","","-6.0","","72","","31","","19","","","M","99.06","","","","-7","","NA"
"2004-11-28 21:00","2004","11","28","21:00","-1.5","","-6.8","","67","","32","","22","","","M","99.08","","","","-7","","NA"
"2004-11-28 22:00","2004","11","28","22:00","-0.6","","-5.7","","68","","28","","24","","","M","99.06","","","","-7","","NA"
"2004-11-28 23:00","2004","11","28","23:00","-0.4","","-6.0","","66","","29","","37","","","M","99.10","","","","-8","","NA"
"2004-11-29 00:00","2004","11","29","00:00","-1.3","","-5.7","","72","","31","","20","","","M","99.16","","","","-7","","NA"
"2004-11-29 01:00","2004","11","29","01:00","-1.8","","-5.5","","76","","30","","20","","","M","99.20","","","","-8","","NA"
"2004-11-29 02:00","2004","11","29","02:00","-2.4","","-4.6","","85","","31","","15","","","M","99.27","","","","-7","","NA"
"2004-11-29 03:00","2004","11","29","03:00","-2.9","","-6.7","","75","","30","","19","","","M","99.35","","","","-9","","NA"
"2004-11-29 04:00","2004","11","29","04:00","-3.4","","-6.9","","77","","31","","17","","","M","99.39","","","","-9","","NA"
"2004-11-29 05:00","2004","11","29","05:00","-4.0","","-8.1","","73","","30","","24","","","M","99.38","","","","-11","","NA"
"2004-11-29 06:00","2004","11","29","06:00","-4.9","","-8.9","","73","","31","","11","","","M","99.41","","","","-9","","NA"
"2004-11-29 07:00","2004","11","29","07:00","-8.7","","-10.2","","89","","4","","7","","","M","99.45","","","","-13","","NA"
"2004-11-29 08:00","2004","11","29","08:00","-9.8","","-10.8","","92","","7","","7","","","M","99.44","","","","-14","","NA"
"2004-11-29 09:00","2004","11","29","09:00","-10.6","","-12.0","","89","","5","","11","","","M","99.44","","","","-16","","NA"
"2004-11-29 10:00","2004","11","29","10:00","-8.1","","-10.7","","82","","7","","11","","","M","99.45","","","","-13","","NA"
"2004-11-29 11:00","2004","11","29","11:00","-5.3","","-7.8","","83","","32","","4","","","M","99.40","","","","-7","","NA"
"2004-11-29 12:00","2004","11","29","12:00","-2.9","","-6.5","","76","","26","","26","","","M","99.32","","","","-10","","NA"
"2004-11-29 13:00","2004","11","29","13:00","-2.0","","-5.2","","79","","24","","39","","","M","99.21","","","","-10","","NA"
"2004-11-29 14:00","2004","11","29","14:00","-0.6","","-4.3","","76","","25","","35","","","M","99.10","","","","-8","","NA"
"2004-11-29 15:00","2004","11","29","15:00","-0.6","","-4.4","","75","","24","","48","","","M","99.05","","","","-9","","NA"
"2004-11-29 16:00","2004","11","29","16:00","-0.2","","-3.7","","77","","24","","46","","","M","98.99","","","","-8","","NA"
"2004-11-29 17:00","2004","11","29","17:00","0.6","","-2.4","","80","","23","","54","","","M","98.91","","","","","","NA"
"2004-11-29 18:00","2004","11","29","18:00","1.2","","-2.2","","78","","23","","61","","","M","98.83","","","","","","NA"
"2004-11-29 19:00","2004","11","29","19:00","1.6","","-0.7","","85","","23","","65","","","M","98.78","","","","","","NA"
"2004-11-29 20:00","2004","11","29","20:00","1.8","","-1.3","","80","","23","","63","","","M","98.71","","","","","","NA"
"2004-11-29 21:00","2004","11","29","21:00","2.3","","-0.1","","84","","23","","61","","","M","98.70","","","","","","NA"
"2004-11-29 22:00","2004","11","29","22:00","3.2","","0.1","","80","","25","","52","","","M","98.61","","","","","","NA"
"2004-11-29 23:00","2004","11","29","23:00","3.4","","0.2","","80","","25","","50","","","M","98.56","","","","","","NA"
"2004-11-30 00:00","2004","11","30","00:00","3.3","","-0.7","","75","","26","","54","","","M","98.56","","","","","","NA"
"2004-11-30 01:00","2004","11","30","01:00","2.8","","-0.5","","79","","27","","48","","","M","98.54","","","","","","NA"
"2004-11-30 02:00","2004","11","30","02:00","3.1","","-0.4","","78","","27","","46","","","M","98.50","","","","","","NA"
"2004-11-30 03:00","2004","11","30","03:00","2.9","","0.2","","82","","26","","50","","","M","98.52","","","","","","NA"
"2004-11-30 04:00","2004","11","30","04:00","3.0","","-0.4","","78","","27","","46","","","M","98.51","","","","","","NA"
"2004-11-30 05:00","2004","11","30","05:00","3.3","","0.0","","79","","26","","48","","","M","98.49","","","","","","NA"
"2004-11-30 06:00","2004","11","30","06:00","3.3","","0.2","","80","","27","","44","","","M","98.47","","","","","","NA"
"2004-11-30 07:00","2004","11","30","07:00","3.3","","0.8","","84","","25","","41","","","M","98.51","","","","","","NA"
"2004-11-30 08:00","2004","11","30","08:00","3.1","","0.6","","84","","26","","39","","","M","98.49","","","","","","NA"
"2004-11-30 09:00","2004","11","30","09:00","3.2","","0.7","","84","","27","","33","","","M","98.51","","","","","","NA"
"2004-11-30 10:00","2004","11","30","10:00","3.3","","1.1","","85","","26","","35","","","M","98.50","","","","","","NA"
"2004-11-30 11:00","2004","11","30","11:00","3.6","","1.6","","87","","25","","37","","","M","98.47","","","","","","NA"
"2004-11-30 12:00","2004","11","30","12:00","3.7","","2.1","","89","","25","","32","","","M","98.43","","","","","","NA"
"2004-11-30 13:00","2004","11","30","13:00","3.7","","1.8","","87","","24","","41","","","M","98.38","","","","","","NA"
"2004-11-30 14:00","2004","11","30","14:00","3.9","","2.3","","89","","24","","44","","","M","98.36","","","","","","NA"
"2004-11-30 15:00","2004","11","30","15:00","3.7","","1.7","","87","","23","","44","","","M","98.36","","","","","","NA"
"2004-11-30 16:00","2004","11","30","16:00","3.7","","1.5","","86","","23","","44","","","M","98.34","","","","","","NA"
"2004-11-30 17:00","2004","11","30","17:00","3.6","","1.7","","87","","23","","43","","","M","98.33","","","","","","NA"
"2004-11-30 18:00","2004","11","30","18:00","2.6","","-0.5","","80","","29","","19","","","M","98.34","","","","","","NA"
"2004-11-30 19:00","2004","11","30","19:00","1.8","","-1.7","","78","","33","","11","","","M","98.34","","","","","","NA"
"2004-11-30 20:00","2004","11","30","20:00","-0.8","","-3.5","","82","","2","","15","","","M","98.34","","","","-5","","NA"
"2004-11-30 21:00","2004","11","30","21:00","-1.7","","-4.1","","84","","4","","19","","","M","98.34","","","","-7","","NA"
"2004-11-30 22:00","2004","11","30","22:00","-2.7","","-4.9","","85","","5","","15","","","M","98.36","","","","-8","","NA"
"2004-11-30 23:00","2004","11","30","23:00","-4.7","","-6.6","","87","","7","","17","","","M","98.33","","","","-11","","NA"
