"Station Name","PUKASKWA (AUT)"
"Province","ONTARIO"
"Latitude","48.59"
"Longitude","-86.29"
"Elevation","207.60"
"Climate Identifier","6046767"
"WMO Identifier","71750"
"TC Identifier","WCJ"
"All times are specified in Local Standard Time (LST). Add 1 hour to adjust for Daylight Saving Time where and when it is observed."

"Legend"
"E","Estimated"
"M","Missing"
"NA","Not Available"

"Date/Time","Year","Month","Day","Time","Temp (°C)","Temp Flag","Dew Point Temp (°C)","Dew Point Temp Flag","Rel Hum (%)","Rel Hum Flag","Wind Dir (10s deg)","Wind Dir Flag","Wind Spd (km/h)","Wind Spd Flag","Visibility (km)","Visibility Flag","Stn Press (kPa)","Stn Press Flag","Hmdx","Hmdx Flag","Wind Chill","Wind Chill Flag","Weather"
"2001-11-01 00:00","2001","11","01","00:00","9.6","","7.4","","86","","18","","20","","","M","97.79","","","","","","NA"
"2001-11-01 01:00","2001","11","01","01:00","9.9","","7.0","","82","","19","","35","","","M","97.71","","","","","","NA"
"2001-11-01 02:00","2001","11","01","02:00","9.8","","6.9","","82","","19","","39","","","M","97.61","","","","","","NA"
"2001-11-01 03:00","2001","11","01","03:00","10.1","","6.6","","79","","19","","39","","","M","97.55","","","","","","NA"
"2001-11-01 04:00","2001","11","01","04:00","9.4","","7.0","","85","","20","","43","","","M","97.46","","","","","","NA"
"2001-11-01 05:00","2001","11","01","05:00","9.8","","6.7","","81","","20","","43","","","M","97.39","","","","","","NA"
"2001-11-01 06:00","2001","11","01","06:00","10.1","","6.6","","79","","20","","48","","","M","97.33","","","","","","NA"
"2001-11-01 07:00","2001","11","01","07:00","9.5","","6.9","","84","","20","","44","","","M","97.26","","","","","","NA"
"2001-11-01 08:00","2001","11","01","08:00","9.5","","6.9","","84","","20","","43","","","M","97.24","","","","","","NA"
"2001-11-01 09:00","2001","11","01","09:00","9.5","","6.8","","83","","20","","37","","","M","97.19","","","","","","NA"
"2001-11-01 10:00","2001","11","01","10:00","9.2","","6.8","","85","","20","","43","","","M","97.14","","","","","","NA"
"2001-11-01 11:00","2001","11","01","11:00","9.7","","6.8","","82","","21","","41","","","M","97.12","","","","","","NA"
"2001-11-01 12:00","2001","11","01","12:00","9.0","","7.0","","87","","20","","44","","","M","97.16","","","","","","NA"
"2001-11-01 13:00","2001","11","01","13:00","8.7","","7.5","","92","","20","","37","","","M","97.11","","","","","","NA"
"2001-11-01 14:00","2001","11","01","14:00","9.2","","7.3","","88","","20","","35","","","M","97.13","","","","","","NA"
"2001-11-01 15:00","2001","11","01","15:00","9.0","","7.5","","90","","21","","35","","","M","97.19","","","","","","NA"
"2001-11-01 16:00","2001","11","01","16:00","9.0","","7.8","","92","","22","","37","","","M","97.24","","","","","","NA"
"2001-11-01 17:00","2001","11","01","17:00","8.6","","7.7","","94","","20","","26","","","M","97.31","","","","","","NA"
"2001-11-01 18:00","2001","11","01","18:00","8.6","","7.9","","95","","20","","32","","","M","97.33","","","","","","NA"
"2001-11-01 19:00","2001","11","01","19:00","9.1","","8.0","","93","","20","","33","","","M","97.35","","","","","","NA"
"2001-11-01 20:00","2001","11","01","20:00","9.5","","8.0","","90","","20","","32","","","M","97.37","","","","","","NA"
"2001-11-01 21:00","2001","11","01","21:00","9.9","","8.5","","91","","20","","33","","","M","97.35","","","","","","NA"
"2001-11-01 22:00","2001","11","01","22:00","9.6","","8.2","","91","","20","","32","","","M","97.32","","","","","","NA"
"2001-11-01 23:00","2001","11","01","23:00","9.0","","5.7","","80","","23","","30","","","M","97.37","","","","","","NA"
"2001-11-02 00:00","2001","11","02","00:00","8.7","","5.5","","80","","21","","22","","","M","97.40","","","","","","NA"
"2001-11-02 01:00","2001","11","02","01:00","9.1","","5.3","","77","","25","","39","","","M","97.42","","","","","","NA"
"2001-11-02 02:00","2001","11","02","02:00","8.5","","5.6","","82","","23","","37","","","M","97.47","","","","","","NA"
"2001-11-02 03:00","2001","11","02","03:00","8.3","","5.8","","84","","24","","33","","","M","97.50","","","","","","NA"
"2001-11-02 04:00","2001","11","02","04:00","8.1","","5.7","","85","","24","","35","","","M","97.48","","","","","","NA"
"2001-11-02 05:00","2001","11","02","05:00","7.8","","6.1","","89","","23","","37","","","M","97.50","","","","","","NA"
"2001-11-02 06:00","2001","11","02","06:00","7.6","","6.1","","90","","24","","39","","","M","97.53","","","","","","NA"
"2001-11-02 07:00","2001","11","02","07:00","7.6","","5.9","","89","","25","","39","","","M","97.55","","","","","","NA"
"2001-11-02 08:00","2001","11","02","08:00","7.5","","6.0","","90","","25","","32","","","M","97.65","","","","","","NA"
"2001-11-02 09:00","2001","11","02","09:00","7.6","","5.9","","89","","25","","44","","","M","97.66","","","","","","NA"
"2001-11-02 10:00","2001","11","02","10:00","7.2","","6.2","","93","","27","","32","","","M","97.67","","","","","","NA"
"2001-11-02 11:00","2001","11","02","11:00","6.6","","4.4","","86","","29","","39","","","M","97.75","","","","","","NA"
"2001-11-02 12:00","2001","11","02","12:00","6.5","","4.7","","88","","28","","37","","","M","97.86","","","","","","NA"
"2001-11-02 13:00","2001","11","02","13:00","6.7","","4.0","","83","","28","","28","","","M","97.93","","","","","","NA"
"2001-11-02 14:00","2001","11","02","14:00","5.8","","3.3","","84","","29","","30","","","M","98.03","","","","","","NA"
"2001-11-02 15:00","2001","11","02","15:00","6.1","","3.6","","84","","29","","28","","","M","98.12","","","","","","NA"
"2001-11-02 16:00","2001","11","02","16:00","6.0","","2.3","","77","","29","","37","","","M","98.28","","","","","","NA"
"2001-11-02 17:00","2001","11","02","17:00","5.4","","2.1","","79","","29","","37","","","M","98.41","","","","","","NA"
"2001-11-02 18:00","2001","11","02","18:00","5.5","","1.8","","77","","30","","32","","","M","98.57","","","","","","NA"
"2001-11-02 19:00","2001","11","02","19:00","5.3","","1.2","","75","","30","","28","","","M","98.70","","","","","","NA"
"2001-11-02 20:00","2001","11","02","20:00","4.9","","1.4","","78","","32","","22","","","M","98.81","","","","","","NA"
"2001-11-02 21:00","2001","11","02","21:00","4.7","","1.0","","77","","34","","15","","","M","98.94","","","","","","NA"
"2001-11-02 22:00","2001","11","02","22:00","4.6","","0.9","","77","","32","","17","","","M","99.08","","","","","","NA"
"2001-11-02 23:00","2001","11","02","23:00","4.5","","1.0","","78","","33","","17","","","M","99.18","","","","","","NA"
"2001-11-03 00:00","2001","11","03","00:00","4.2","","0.5","","77","","36","","9","","","M","99.27","","","","","","NA"
"2001-11-03 01:00","2001","11","03","01:00","4.3","","1.2","","80","","33","","15","","","M","99.37","","","","","","NA"
"2001-11-03 02:00","2001","11","03","02:00","4.0","","1.4","","83","","32","","11","","","M","99.46","","","","","","NA"
"2001-11-03 03:00","2001","11","03","03:00","4.3","","1.7","","83","","31","","13","","","M","99.53","","","","","","NA"
"2001-11-03 04:00","2001","11","03","04:00","4.6","","1.8","","82","","30","","13","","","M","99.56","","","","","","NA"
"2001-11-03 05:00","2001","11","03","05:00","4.7","","2.1","","83","","30","","19","","","M","99.63","","","","","","NA"
"2001-11-03 06:00","2001","11","03","06:00","4.7","","2.4","","85","","30","","17","","","M","99.68","","","","","","NA"
"2001-11-03 07:00","2001","11","03","07:00","4.4","","2.1","","85","","29","","15","","","M","99.71","","","","","","NA"
"2001-11-03 08:00","2001","11","03","08:00","4.6","","2.6","","87","","30","","15","","","M","99.76","","","","","","NA"
"2001-11-03 09:00","2001","11","03","09:00","4.8","","2.2","","83","","28","","11","","","M","99.78","","","","","","NA"
"2001-11-03 10:00","2001","11","03","10:00","5.1","","1.8","","79","","28","","13","","","M","99.78","","","","","","NA"
"2001-11-03 11:00","2001","11","03","11:00","5.3","","2.5","","82","","28","","17","","","M","99.78","","","","","","NA"
"2001-11-03 12:00","2001","11","03","12:00","5.5","","2.9","","83","","26","","22","","","M","99.79","","","","","","NA"
"2001-11-03 13:00","2001","11","03","13:00","5.7","","2.7","","81","","25","","30","","","M","99.74","","","","","","NA"
"2001-11-03 14:00","2001","11","03","14:00","5.7","","3.2","","84","","26","","30","","","M","99.64","","","","","","NA"
"2001-11-03 15:00","2001","11","03","15:00","5.9","","3.6","","85","","24","","26","","","M","99.54","","","","","","NA"
"2001-11-03 16:00","2001","11","03","16:00","6.8","","3.4","","79","","24","","26","","","M","99.51","","","","","","NA"
"2001-11-03 17:00","2001","11","03","17:00","5.9","","3.9","","87","","23","","30","","","M","99.46","","","","","","NA"
"2001-11-03 18:00","2001","11","03","18:00","6.1","","4.3","","88","","24","","26","","","M","99.45","","","","","","NA"
"2001-11-03 19:00","2001","11","03","19:00","5.9","","4.9","","93","","23","","24","","","M","99.45","","","","","","NA"
"2001-11-03 20:00","2001","11","03","20:00","5.8","","4.8","","93","","23","","22","","","M","99.40","","","","","","NA"
"2001-11-03 21:00","2001","11","03","21:00","5.9","","4.7","","92","","21","","26","","","M","99.33","","","","","","NA"
"2001-11-03 22:00","2001","11","03","22:00","5.8","","4.8","","93","","22","","19","","","M","99.30","","","","","","NA"
"2001-11-03 23:00","2001","11","03","23:00","5.8","","4.6","","92","","22","","19","","","M","99.19","","","","","","NA"
"2001-11-04 00:00","2001","11","04","00:00","5.9","","5.3","","96","","24","","17","","","M","99.14","","","","","","NA"
"2001-11-04 01:00","2001","11","04","01:00","5.9","","4.9","","93","","28","","20","","","M","99.14","","","","","","NA"
"2001-11-04 02:00","2001","11","04","02:00","5.8","","5.1","","95","","30","","11","","","M","99.17","","","","","","NA"
"2001-11-04 03:00","2001","11","04","03:00","5.1","","3.0","","86","","32","","9","","","M","99.22","","","","","","NA"
"2001-11-04 04:00","2001","11","04","04:00","4.6","","2.0","","83","","35","","11","","","M","99.27","","","","","","NA"
"2001-11-04 05:00","2001","11","04","05:00","4.7","","1.6","","80","","33","","15","","","M","99.36","","","","","","NA"
"2001-11-04 06:00","2001","11","04","06:00","4.2","","1.1","","80","","33","","13","","","M","99.41","","","","","","NA"
"2001-11-04 07:00","2001","11","04","07:00","3.8","","0.3","","78","","35","","9","","","M","99.45","","","","","","NA"
"2001-11-04 08:00","2001","11","04","08:00","2.8","","0.0","","82","","4","","6","","","M","99.52","","","","","","NA"
"2001-11-04 09:00","2001","11","04","09:00","3.6","","-1.4","","70","","1","","11","","","M","99.59","","","","","","NA"
"2001-11-04 10:00","2001","11","04","10:00","4.0","","-2.1","","64","","33","","11","","","M","99.64","","","","","","NA"
"2001-11-04 11:00","2001","11","04","11:00","4.7","","-2.3","","60","","32","","17","","","M","99.66","","","","","","NA"
"2001-11-04 12:00","2001","11","04","12:00","5.0","","-2.7","","57","","34","","19","","","M","99.70","","","","","","NA"
"2001-11-04 13:00","2001","11","04","13:00","5.6","","-4.1","","50","","35","","11","","","M","99.69","","","","","","NA"
"2001-11-04 14:00","2001","11","04","14:00","5.5","","-3.7","","51","","35","","17","","","M","99.78","","","","","","NA"
"2001-11-04 15:00","2001","11","04","15:00","5.2","","-4.2","","51","","34","","11","","","M","99.87","","","","","","NA"
"2001-11-04 16:00","2001","11","04","16:00","5.2","","-4.7","","49","","34","","17","","","M","99.90","","","","","","NA"
"2001-11-04 17:00","2001","11","04","17:00","4.7","","-4.1","","53","","34","","6","","","M","99.97","","","","","","NA"
"2001-11-04 18:00","2001","11","04","18:00","4.2","","-3.6","","57","","3","","7","","","M","100.03","","","","","","NA"
"2001-11-04 19:00","2001","11","04","19:00","3.7","","-3.4","","60","","2","","9","","","M","100.09","","","","","","NA"
"2001-11-04 20:00","2001","11","04","20:00","2.1","","-2.7","","70","","5","","9","","","M","100.12","","","","","","NA"
"2001-11-04 21:00","2001","11","04","21:00","1.7","","-3.1","","70","","12","","6","","","M","100.10","","","","","","NA"
"2001-11-04 22:00","2001","11","04","22:00","0.8","","-3.0","","76","","8","","7","","","M","100.11","","","","","","NA"
"2001-11-04 23:00","2001","11","04","23:00","-0.6","","-2.9","","84","","11","","11","","","M","100.08","","","","-4","","NA"
"2001-11-05 00:00","2001","11","05","00:00","-0.9","","-3.2","","84","","10","","9","","","M","100.08","","","","-4","","NA"
"2001-11-05 01:00","2001","11","05","01:00","-1.5","","-3.0","","89","","9","","9","","","M","100.09","","","","-5","","NA"
"2001-11-05 02:00","2001","11","05","02:00","-1.7","","-3.1","","90","","11","","7","","","M","100.11","","","","-4","","NA"
"2001-11-05 03:00","2001","11","05","03:00","-1.6","","-3.3","","88","","10","","9","","","M","100.09","","","","-5","","NA"
"2001-11-05 04:00","2001","11","05","04:00","-1.6","","-3.9","","84","","11","","13","","","M","100.07","","","","-6","","NA"
"2001-11-05 05:00","2001","11","05","05:00","-1.3","","-3.6","","84","","12","","9","","","M","100.11","","","","-5","","NA"
"2001-11-05 06:00","2001","11","05","06:00","-1.1","","-3.5","","84","","13","","11","","","M","100.09","","","","-5","","NA"
"2001-11-05 07:00","2001","11","05","07:00","-0.7","","-3.6","","81","","13","","11","","","M","100.07","","","","-4","","NA"
"2001-11-05 08:00","2001","11","05","08:00","0.1","","-2.7","","81","","14","","15","","","M","100.01","","","","","","NA"
"2001-11-05 09:00","2001","11","05","09:00","2.3","","-1.8","","74","","15","","11","","","M","99.98","","","","","","NA"
"2001-11-05 10:00","2001","11","05","10:00","5.2","","1.3","","76","","20","","33","","","M","99.92","","","","","","NA"
"2001-11-05 11:00","2001","11","05","11:00","6.5","","2.0","","73","","20","","37","","","M","99.87","","","","","","NA"
"2001-11-05 12:00","2001","11","05","12:00","7.0","","2.7","","74","","20","","37","","","M","99.80","","","","","","NA"
"2001-11-05 13:00","2001","11","05","13:00","7.5","","2.6","","71","","20","","43","","","M","99.69","","","","","","NA"
"2001-11-05 14:00","2001","11","05","14:00","7.9","","1.7","","65","","20","","37","","","M","99.55","","","","","","NA"
"2001-11-05 15:00","2001","11","05","15:00","7.9","","0.9","","61","","20","","35","","","M","99.44","","","","","","NA"
"2001-11-05 16:00","2001","11","05","16:00","7.6","","2.1","","68","","21","","37","","","M","99.41","","","","","","NA"
"2001-11-05 17:00","2001","11","05","17:00","7.1","","2.0","","70","","20","","41","","","M","99.35","","","","","","NA"
"2001-11-05 18:00","2001","11","05","18:00","7.2","","2.1","","70","","20","","43","","","M","99.27","","","","","","NA"
"2001-11-05 19:00","2001","11","05","19:00","7.7","","2.0","","67","","20","","39","","","M","99.22","","","","","","NA"
"2001-11-05 20:00","2001","11","05","20:00","7.5","","2.8","","72","","20","","43","","","M","99.18","","","","","","NA"
"2001-11-05 21:00","2001","11","05","21:00","7.4","","3.6","","77","","20","","39","","","M","99.14","","","","","","NA"
"2001-11-05 22:00","2001","11","05","22:00","7.5","","4.1","","79","","21","","41","","","M","99.12","","","","","","NA"
"2001-11-05 23:00","2001","11","05","23:00","7.2","","4.9","","85","","21","","39","","","M","99.10","","","","","","NA"
"2001-11-06 00:00","2001","11","06","00:00","7.6","","4.9","","83","","20","","39","","","M","99.06","","","","","","NA"
"2001-11-06 01:00","2001","11","06","01:00","7.5","","4.8","","83","","20","","39","","","M","99.01","","","","","","NA"
"2001-11-06 02:00","2001","11","06","02:00","7.8","","4.9","","82","","21","","22","","","M","98.99","","","","","","NA"
"2001-11-06 03:00","2001","11","06","03:00","7.7","","5.0","","83","","20","","30","","","M","98.94","","","","","","NA"
"2001-11-06 04:00","2001","11","06","04:00","7.9","","4.9","","81","","20","","30","","","M","98.88","","","","","","NA"
"2001-11-06 05:00","2001","11","06","05:00","7.9","","4.9","","81","","20","","28","","","M","98.84","","","","","","NA"
"2001-11-06 06:00","2001","11","06","06:00","8.1","","4.9","","80","","20","","30","","","M","98.78","","","","","","NA"
"2001-11-06 07:00","2001","11","06","07:00","8.1","","4.9","","80","","20","","28","","","M","98.75","","","","","","NA"
"2001-11-06 08:00","2001","11","06","08:00","7.9","","5.0","","82","","20","","32","","","M","98.72","","","","","","NA"
"2001-11-06 09:00","2001","11","06","09:00","8.2","","5.5","","83","","20","","32","","","M","98.72","","","","","","NA"
"2001-11-06 10:00","2001","11","06","10:00","8.8","","5.4","","79","","20","","32","","","M","98.69","","","","","","NA"
"2001-11-06 11:00","2001","11","06","11:00","9.0","","6.1","","82","","21","","26","","","M","98.72","","","","","","NA"
"2001-11-06 12:00","2001","11","06","12:00","9.7","","6.2","","79","","22","","22","","","M","98.73","","","","","","NA"
"2001-11-06 13:00","2001","11","06","13:00","9.8","","6.3","","79","","21","","22","","","M","98.72","","","","","","NA"
"2001-11-06 14:00","2001","11","06","14:00","10.1","","6.5","","78","","21","","19","","","M","98.72","","","","","","NA"
"2001-11-06 15:00","2001","11","06","15:00","9.7","","6.6","","81","","22","","20","","","M","98.80","","","","","","NA"
"2001-11-06 16:00","2001","11","06","16:00","8.9","","6.7","","86","","21","","15","","","M","98.90","","","","","","NA"
"2001-11-06 17:00","2001","11","06","17:00","7.6","","6.7","","94","","18","","9","","","M","98.98","","","","","","NA"
"2001-11-06 18:00","2001","11","06","18:00","6.5","","6.5","","100","","16","","2","","","M","99.09","","","","","","NA"
"2001-11-06 19:00","2001","11","06","19:00","5.7","","5.7","","100","","4","","9","","","M","99.24","","","","","","NA"
"2001-11-06 20:00","2001","11","06","20:00","6.7","","4.0","","83","","1","","17","","","M","99.36","","","","","","NA"
"2001-11-06 21:00","2001","11","06","21:00","6.2","","1.7","","73","","2","","20","","","M","99.52","","","","","","NA"
"2001-11-06 22:00","2001","11","06","22:00","5.0","","-0.5","","68","","5","","19","","","M","99.62","","","","","","NA"
"2001-11-06 23:00","2001","11","06","23:00","3.9","","-1.4","","68","","5","","20","","","M","99.74","","","","","","NA"
"2001-11-07 00:00","2001","11","07","00:00","3.0","","-2.0","","70","","5","","19","","","M","99.86","","","","","","NA"
"2001-11-07 01:00","2001","11","07","01:00","2.2","","-2.0","","74","","6","","11","","","M","99.94","","","","","","NA"
"2001-11-07 02:00","2001","11","07","02:00","1.9","","-2.0","","75","","7","","19","","","M","99.89","","","","","","NA"
"2001-11-07 03:00","2001","11","07","03:00","0.8","","-2.0","","82","","9","","2","","","M","100.04","","","","","","NA"
"2001-11-07 04:00","2001","11","07","04:00","-0.3","","-2.3","","86","","12","","4","","","M","100.07","","","","-2","","NA"
"2001-11-07 05:00","2001","11","07","05:00","-1.5","","-2.6","","92","","7","","6","","","M","100.06","","","","-4","","NA"
"2001-11-07 06:00","2001","11","07","06:00","-1.2","","-2.4","","92","","2","","7","","","M","100.12","","","","-4","","NA"
"2001-11-07 07:00","2001","11","07","07:00","-1.3","","-2.2","","94","","10","","9","","","M","100.17","","","","-5","","NA"
"2001-11-07 08:00","2001","11","07","08:00","-1.5","","-2.4","","94","","5","","9","","","M","100.20","","","","-5","","NA"
"2001-11-07 09:00","2001","11","07","09:00","-0.1","","-2.4","","84","","9","","9","","","M","100.23","","","","-3","","NA"
"2001-11-07 10:00","2001","11","07","10:00","2.0","","-2.1","","74","","9","","7","","","M","100.22","","","","","","NA"
"2001-11-07 11:00","2001","11","07","11:00","4.2","","-2.5","","62","","11","","11","","","M","100.23","","","","","","NA"
"2001-11-07 12:00","2001","11","07","12:00","4.7","","-3.7","","54","","10","","17","","","M","100.16","","","","","","NA"
"2001-11-07 13:00","2001","11","07","13:00","5.0","","-3.9","","53","","9","","17","","","M","100.05","","","","","","NA"
"2001-11-07 14:00","2001","11","07","14:00","5.3","","-4.4","","50","","11","","22","","","M","99.93","","","","","","NA"
"2001-11-07 15:00","2001","11","07","15:00","5.4","","-4.3","","50","","12","","15","","","M","99.83","","","","","","NA"
"2001-11-07 16:00","2001","11","07","16:00","5.0","","-4.4","","51","","10","","13","","","M","99.73","","","","","","NA"
"2001-11-07 17:00","2001","11","07","17:00","4.4","","-4.2","","54","","11","","13","","","M","99.68","","","","","","NA"
"2001-11-07 18:00","2001","11","07","18:00","3.7","","-4.1","","57","","11","","13","","","M","99.57","","","","","","NA"
"2001-11-07 19:00","2001","11","07","19:00","3.4","","-4.4","","57","","12","","26","","","M","99.44","","","","","","NA"
"2001-11-07 20:00","2001","11","07","20:00","3.3","","-4.0","","59","","13","","32","","","M","99.25","","","","","","NA"
"2001-11-07 21:00","2001","11","07","21:00","3.5","","-4.5","","56","","10","","32","","","M","99.24","","","","","","NA"
"2001-11-07 22:00","2001","11","07","22:00","3.4","","-3.7","","60","","11","","17","","","M","99.21","","","","","","NA"
"2001-11-07 23:00","2001","11","07","23:00","3.2","","-3.9","","60","","11","","19","","","M","99.10","","","","","","NA"
"2001-11-08 00:00","2001","11","08","00:00","1.1","","0.1","","93","","12","","11","","","M","99.04","","","","","","NA"
"2001-11-08 01:00","2001","11","08","01:00","0.6","","0.6","","100","","9","","13","","","M","98.86","","","","","","NA"
"2001-11-08 02:00","2001","11","08","02:00","0.8","","0.8","","100","","10","","15","","","M","98.72","","","","","","NA"
"2001-11-08 03:00","2001","11","08","03:00","0.9","","0.9","","100","","8","","13","","","M","98.65","","","","","","NA"
"2001-11-08 04:00","2001","11","08","04:00","0.8","","0.8","","100","","10","","11","","","M","98.62","","","","","","NA"
"2001-11-08 05:00","2001","11","08","05:00","0.5","","0.5","","100","","6","","13","","","M","98.59","","","","","","NA"
"2001-11-08 06:00","2001","11","08","06:00","0.1","","0.1","","100","","6","","17","","","M","98.61","","","","","","NA"
"2001-11-08 07:00","2001","11","08","07:00","0.0","","0.0","","100","","5","","17","","","M","98.64","","","","-5","","NA"
"2001-11-08 08:00","2001","11","08","08:00","-0.4","","-0.5","","99","","1","","19","","","M","98.76","","","","-6","","NA"
"2001-11-08 09:00","2001","11","08","09:00","-0.8","","-0.9","","99","","1","","15","","","M","98.86","","","","-5","","NA"
"2001-11-08 10:00","2001","11","08","10:00","-0.8","","-0.9","","99","","4","","20","","","M","98.97","","","","-6","","NA"
"2001-11-08 11:00","2001","11","08","11:00","-0.6","","-1.0","","97","","36","","17","","","M","99.15","","","","-6","","NA"
"2001-11-08 12:00","2001","11","08","12:00","-0.2","","-0.8","","96","","3","","20","","","M","99.29","","","","-5","","NA"
"2001-11-08 13:00","2001","11","08","13:00","-0.2","","-1.4","","92","","36","","17","","","M","99.41","","","","-5","","NA"
"2001-11-08 14:00","2001","11","08","14:00","-0.6","","-2.4","","88","","2","","19","","","M","99.51","","","","-6","","NA"
"2001-11-08 15:00","2001","11","08","15:00","-0.7","","-3.0","","84","","36","","20","","","M","99.56","","","","-6","","NA"
"2001-11-08 16:00","2001","11","08","16:00","-1.2","","-3.5","","84","","3","","11","","","M","99.67","","","","-5","","NA"
"2001-11-08 17:00","2001","11","08","17:00","-1.6","","-4.0","","84","","35","","17","","","M","99.77","","","","-7","","NA"
"2001-11-08 18:00","2001","11","08","18:00","-1.9","","-4.6","","82","","35","","13","","","M","99.92","","","","-6","","NA"
"2001-11-08 19:00","2001","11","08","19:00","-1.9","","-4.2","","84","","6","","4","","","M","99.95","","","","-3","","NA"
"2001-11-08 20:00","2001","11","08","20:00","-1.8","","-4.7","","81","","1","","9","","","M","99.98","","","","-5","","NA"
"2001-11-08 21:00","2001","11","08","21:00","-1.9","","-4.6","","82","","6","","6","","","M","99.98","","","","-4","","NA"
"2001-11-08 22:00","2001","11","08","22:00","-2.0","","-4.6","","82","","5","","6","","","M","99.97","","","","-4","","NA"
"2001-11-08 23:00","2001","11","08","23:00","-1.9","","-3.9","","86","","13","","2","","","M","99.91","","","","-3","","NA"
"2001-11-09 00:00","2001","11","09","00:00","-2.0","","-4.1","","86","","11","","11","","","M","99.80","","","","-6","","NA"
"2001-11-09 01:00","2001","11","09","01:00","-1.8","","-3.0","","91","","14","","11","","","M","99.76","","","","-6","","NA"
"2001-11-09 02:00","2001","11","09","02:00","-1.0","","-2.2","","92","","20","","13","","","M","99.70","","","","-5","","NA"
"2001-11-09 03:00","2001","11","09","03:00","1.5","","-1.0","","83","","22","","30","","","M","99.56","","","","","","NA"
"2001-11-09 04:00","2001","11","09","04:00","2.4","","-0.8","","79","","24","","37","","","M","99.45","","","","","","NA"
"2001-11-09 05:00","2001","11","09","05:00","3.1","","0.2","","81","","23","","43","","","M","99.33","","","","","","NA"
"2001-11-09 06:00","2001","11","09","06:00","3.4","","0.3","","80","","23","","44","","","M","99.19","","","","","","NA"
"2001-11-09 07:00","2001","11","09","07:00","3.9","","1.1","","82","","24","","46","","","M","99.10","","","","","","NA"
"2001-11-09 08:00","2001","11","09","08:00","4.0","","1.4","","83","","23","","48","","","M","99.00","","","","","","NA"
"2001-11-09 09:00","2001","11","09","09:00","4.3","","1.0","","79","","24","","43","","","M","98.90","","","","","","NA"
"2001-11-09 10:00","2001","11","09","10:00","4.3","","2.3","","87","","24","","44","","","M","98.85","","","","","","NA"
"2001-11-09 11:00","2001","11","09","11:00","4.8","","1.3","","78","","28","","28","","","M","98.81","","","","","","NA"
"2001-11-09 12:00","2001","11","09","12:00","4.9","","1.6","","79","","26","","26","","","M","98.79","","","","","","NA"
"2001-11-09 13:00","2001","11","09","13:00","4.8","","1.3","","78","","28","","19","","","M","98.76","","","","","","NA"
"2001-11-09 14:00","2001","11","09","14:00","4.7","","1.2","","78","","28","","20","","","M","98.74","","","","","","NA"
"2001-11-09 15:00","2001","11","09","15:00","4.7","","1.7","","81","","27","","20","","","M","98.75","","","","","","NA"
"2001-11-09 16:00","2001","11","09","16:00","4.6","","1.6","","81","","27","","17","","","M","98.75","","","","","","NA"
"2001-11-09 17:00","2001","11","09","17:00","4.6","","1.6","","81","","27","","15","","","M","98.77","","","","","","NA"
"2001-11-09 18:00","2001","11","09","18:00","4.8","","1.7","","80","","28","","13","","","M","98.76","","","","","","NA"
"2001-11-09 19:00","2001","11","09","19:00","5.0","","2.0","","81","","31","","11","","","M","98.76","","","","","","NA"
"2001-11-09 20:00","2001","11","09","20:00","4.6","","2.0","","83","","5","","4","","","M","98.74","","","","","","NA"
"2001-11-09 21:00","2001","11","09","21:00","3.5","","1.9","","89","","10","","11","","","M","98.67","","","","","","NA"
"2001-11-09 22:00","2001","11","09","22:00","3.0","","1.5","","90","","9","","7","","","M","98.70","","","","","","NA"
"2001-11-09 23:00","2001","11","09","23:00","2.8","","1.5","","91","","7","","7","","","M","98.58","","","","","","NA"
"2001-11-10 00:00","2001","11","10","00:00","2.5","","1.5","","93","","8","","13","","","M","98.53","","","","","","NA"
"2001-11-10 01:00","2001","11","10","01:00","2.3","","1.6","","95","","6","","9","","","M","98.50","","","","","","NA"
"2001-11-10 02:00","2001","11","10","02:00","1.9","","1.3","","96","","9","","4","","","M","98.47","","","","","","NA"
"2001-11-10 03:00","2001","11","10","03:00","1.7","","1.3","","97","","8","","15","","","M","98.47","","","","","","NA"
"2001-11-10 04:00","2001","11","10","04:00","1.5","","0.9","","96","","10","","15","","","M","98.48","","","","","","NA"
"2001-11-10 05:00","2001","11","10","05:00","1.5","","0.5","","93","","7","","19","","","M","98.54","","","","","","NA"
"2001-11-10 06:00","2001","11","10","06:00","1.4","","0.7","","95","","6","","7","","","M","98.65","","","","","","NA"
"2001-11-10 07:00","2001","11","10","07:00","1.3","","0.5","","94","","5","","13","","","M","98.74","","","","","","NA"
"2001-11-10 08:00","2001","11","10","08:00","1.2","","-0.3","","90","","5","","11","","","M","98.85","","","","","","NA"
"2001-11-10 09:00","2001","11","10","09:00","1.3","","-0.9","","85","","5","","15","","","M","98.97","","","","","","NA"
"2001-11-10 10:00","2001","11","10","10:00","1.6","","-1.4","","80","","4","","19","","","M","99.09","","","","","","NA"
"2001-11-10 11:00","2001","11","10","11:00","1.1","","-3.1","","74","","7","","22","","","M","99.22","","","","","","NA"
"2001-11-10 12:00","2001","11","10","12:00","1.1","","-3.5","","71","","7","","22","","","M","99.32","","","","","","NA"
"2001-11-10 13:00","2001","11","10","13:00","1.3","","-3.8","","69","","8","","19","","","M","99.38","","","","","","NA"
"2001-11-10 14:00","2001","11","10","14:00","3.0","","-3.7","","61","","2","","13","","","M","99.43","","","","","","NA"
"2001-11-10 15:00","2001","11","10","15:00","2.7","","-3.5","","64","","1","","15","","","M","99.48","","","","","","NA"
"2001-11-10 16:00","2001","11","10","16:00","1.8","","-2.2","","75","","3","","15","","","M","99.59","","","","","","NA"
"2001-11-10 17:00","2001","11","10","17:00","0.7","","-3.0","","76","","7","","9","","","M","99.70","","","","","","NA"
"2001-11-10 18:00","2001","11","10","18:00","-0.4","","-3.9","","77","","4","","9","","","M","99.81","","","","-4","","NA"
"2001-11-10 19:00","2001","11","10","19:00","-0.3","","-4.5","","73","","6","","19","","","M","99.91","","","","-5","","NA"
"2001-11-10 20:00","2001","11","10","20:00","-0.7","","-4.8","","74","","4","","9","","","M","99.98","","","","-4","","NA"
"2001-11-10 21:00","2001","11","10","21:00","-0.9","","-4.7","","75","","6","","9","","","M","100.01","","","","-4","","NA"
"2001-11-10 22:00","2001","11","10","22:00","-1.1","","-5.4","","73","","5","","6","","","M","100.05","","","","-3","","NA"
"2001-11-10 23:00","2001","11","10","23:00","-1.8","","-5.7","","75","","12","","7","","","M","100.03","","","","-4","","NA"
"2001-11-11 00:00","2001","11","11","00:00","-2.7","","-6.1","","77","","11","","11","","","M","99.99","","","","-7","","NA"
"2001-11-11 01:00","2001","11","11","01:00","-2.8","","-6.2","","77","","13","","2","","","M","100.01","","","","-4","","NA"
"2001-11-11 02:00","2001","11","11","02:00","-2.4","","-5.5","","79","","11","","4","","","M","100.04","","","","-4","","NA"
"2001-11-11 03:00","2001","11","11","03:00","-1.7","","-5.5","","75","","16","","7","","","M","100.04","","","","-4","","NA"
"2001-11-11 04:00","2001","11","11","04:00","-1.8","","-5.4","","76","","16","","2","","","M","100.01","","","","-3","","NA"
"2001-11-11 05:00","2001","11","11","05:00","0.7","","-3.7","","72","","24","","17","","","M","99.98","","","","","","NA"
"2001-11-11 06:00","2001","11","11","06:00","1.7","","-2.0","","76","","25","","22","","","M","99.96","","","","","","NA"
"2001-11-11 07:00","2001","11","11","07:00","2.2","","-0.5","","82","","23","","24","","","M","99.95","","","","","","NA"
"2001-11-11 08:00","2001","11","11","08:00","0.9","","0.2","","95","","30","","6","","","M","99.93","","","","","","NA"
"2001-11-11 09:00","2001","11","11","09:00","3.0","","-1.4","","73","","29","","20","","","M","99.93","","","","","","NA"
"2001-11-11 10:00","2001","11","11","10:00","2.9","","-2.5","","68","","32","","19","","","M","99.89","","","","","","NA"
"2001-11-11 11:00","2001","11","11","11:00","3.1","","-3.6","","61","","29","","20","","","M","99.90","","","","","","NA"
"2001-11-11 12:00","2001","11","11","12:00","3.5","","-1.7","","69","","29","","22","","","M","99.82","","","","","","NA"
"2001-11-11 13:00","2001","11","11","13:00","3.8","","-0.5","","73","","30","","28","","","M","99.82","","","","","","NA"
"2001-11-11 14:00","2001","11","11","14:00","3.9","","-0.4","","73","","31","","17","","","M","99.78","","","","","","NA"
"2001-11-11 15:00","2001","11","11","15:00","3.4","","-1.4","","71","","34","","13","","","M","99.79","","","","","","NA"
"2001-11-11 16:00","2001","11","11","16:00","2.7","","-1.6","","73","","6","","7","","","M","99.82","","","","","","NA"
"2001-11-11 17:00","2001","11","11","17:00","2.1","","-3.3","","67","","35","","9","","","M","99.89","","","","","","NA"
"2001-11-11 18:00","2001","11","11","18:00","2.4","","-3.4","","65","","34","","9","","","M","99.96","","","","","","NA"
"2001-11-11 19:00","2001","11","11","19:00","1.4","","-2.6","","75","","3","","9","","","M","100.05","","","","","","NA"
"2001-11-11 20:00","2001","11","11","20:00","0.4","","-2.7","","80","","1","","7","","","M","100.09","","","","","","NA"
"2001-11-11 21:00","2001","11","11","21:00","0.1","","-3.0","","80","","5","","13","","","M","100.13","","","","","","NA"
"2001-11-11 22:00","2001","11","11","22:00","-0.6","","-3.2","","83","","3","","7","","","M","100.20","","","","-3","","NA"
"2001-11-11 23:00","2001","11","11","23:00","-1.1","","-3.4","","84","","8","","9","","","M","100.25","","","","-4","","NA"
"2001-11-12 00:00","2001","11","12","00:00","-1.4","","-4.0","","82","","7","","9","","","M","100.28","","","","-5","","NA"
"2001-11-12 01:00","2001","11","12","01:00","-1.8","","-3.6","","87","","12","","6","","","M","100.31","","","","-4","","NA"
"2001-11-12 02:00","2001","11","12","02:00","-2.2","","-3.6","","90","","11","","11","","","M","100.32","","","","-6","","NA"
"2001-11-12 03:00","2001","11","12","03:00","-2.3","","-3.7","","90","","12","","7","","","M","100.36","","","","-5","","NA"
"2001-11-12 04:00","2001","11","12","04:00","-2.9","","-4.1","","91","","8","","9","","","M","100.37","","","","-6","","NA"
"2001-11-12 05:00","2001","11","12","05:00","-4.5","","-4.9","","97","","7","","7","","","M","100.41","","","","-8","","NA"
"2001-11-12 06:00","2001","11","12","06:00","-4.4","","-4.9","","96","","6","","7","","","M","100.42","","","","-8","","NA"
"2001-11-12 07:00","2001","11","12","07:00","-4.6","","-5.2","","96","","5","","9","","","M","100.44","","","","-8","","NA"
"2001-11-12 08:00","2001","11","12","08:00","-3.7","","-4.8","","92","","9","","11","","","M","100.39","","","","-8","","NA"
"2001-11-12 09:00","2001","11","12","09:00","-2.8","","-4.4","","89","","10","","13","","","M","100.39","","","","-7","","NA"
"2001-11-12 10:00","2001","11","12","10:00","-1.4","","-4.2","","81","","12","","11","","","M","100.36","","","","-5","","NA"
"2001-11-12 11:00","2001","11","12","11:00","0.9","","-3.3","","73","","14","","9","","","M","100.36","","","","","","NA"
"2001-11-12 12:00","2001","11","12","12:00","2.5","","-2.1","","72","","17","","13","","","M","100.28","","","","","","NA"
"2001-11-12 13:00","2001","11","12","13:00","3.2","","-1.4","","72","","21","","19","","","M","100.21","","","","","","NA"
"2001-11-12 14:00","2001","11","12","14:00","4.5","","-1.6","","65","","20","","17","","","M","100.12","","","","","","NA"
"2001-11-12 15:00","2001","11","12","15:00","5.8","","-1.7","","59","","18","","15","","","M","100.03","","","","","","NA"
"2001-11-12 16:00","2001","11","12","16:00","5.0","","-1.8","","61","","17","","15","","","M","99.97","","","","","","NA"
"2001-11-12 17:00","2001","11","12","17:00","3.6","","-0.9","","72","","17","","11","","","M","99.94","","","","","","NA"
"2001-11-12 18:00","2001","11","12","18:00","2.3","","-0.5","","82","","13","","13","","","M","99.88","","","","","","NA"
"2001-11-12 19:00","2001","11","12","19:00"
"2001-11-12 20:00","2001","11","12","20:00","1.9","","-0.3","","85","","12","","17","","","M","99.68","","","","","","NA"
"2001-11-12 21:00","2001","11","12","21:00","2.0","","0.4","","89","","13","","17","","","M","99.59","","","","","","NA"
"2001-11-12 22:00","2001","11","12","22:00"
"2001-11-12 23:00","2001","11","12","23:00"
"2001-11-13 00:00","2001","11","13","00:00","6.3","","6.0","","98","","20","","37","","","M","99.43","","","","","","NA"
"2001-11-13 01:00","2001","11","13","01:00","6.4","","6.3","","99","","21","","30","","","M","99.35","","","","","","NA"
"2001-11-13 02:00","2001","11","13","02:00","6.4","","6.3","","99","","19","","37","","","M","99.28","","","","","","NA"
"2001-11-13 03:00","2001","11","13","03:00","6.7","","6.0","","95","","19","","33","","","M","99.21","","","","","","NA"
"2001-11-13 04:00","2001","11","13","04:00","6.7","","6.0","","95","","20","","30","","","M","99.17","","","","","","NA"
"2001-11-13 05:00","2001","11","13","05:00","6.6","","5.7","","94","","19","","32","","","M","99.11","","","","","","NA"
"2001-11-13 06:00","2001","11","13","06:00","6.5","","5.6","","94","","19","","28","","","M","99.03","","","","","","NA"
"2001-11-13 07:00","2001","11","13","07:00","6.5","","5.5","","93","","20","","33","","","M","98.99","","","","","","NA"
"2001-11-13 08:00","2001","11","13","08:00","6.4","","5.5","","94","","19","","30","","","M","98.95","","","","","","NA"
"2001-11-13 09:00","2001","11","13","09:00","6.7","","5.5","","92","","19","","32","","","M","98.92","","","","","","NA"
"2001-11-13 10:00","2001","11","13","10:00","7.0","","5.6","","91","","20","","32","","","M","98.92","","","","","","NA"
"2001-11-13 11:00","2001","11","13","11:00","7.2","","5.5","","89","","19","","30","","","M","98.91","","","","","","NA"
"2001-11-13 12:00","2001","11","13","12:00","7.3","","5.3","","87","","19","","28","","","M","98.84","","","","","","NA"
"2001-11-13 13:00","2001","11","13","13:00","7.3","","5.5","","88","","20","","26","","","M","98.79","","","","","","NA"
"2001-11-13 14:00","2001","11","13","14:00","7.0","","5.5","","90","","20","","22","","","M","98.78","","","","","","NA"
"2001-11-13 15:00","2001","11","13","15:00","6.7","","5.7","","93","","20","","30","","","M","98.73","","","","","","NA"
"2001-11-13 16:00","2001","11","13","16:00","6.7","","6.0","","95","","20","","22","","","M","98.72","","","","","","NA"
"2001-11-13 17:00","2001","11","13","17:00","6.6","","6.3","","98","","21","","24","","","M","98.70","","","","","","NA"
"2001-11-13 18:00","2001","11","13","18:00","6.3","","6.3","","100","","19","","24","","","M","98.71","","","","","","NA"
"2001-11-13 19:00","2001","11","13","19:00","6.4","","6.4","","100","","20","","22","","","M","98.74","","","","","","NA"
"2001-11-13 20:00","2001","11","13","20:00","6.7","","6.7","","100","","20","","20","","","M","98.74","","","","","","NA"
"2001-11-13 21:00","2001","11","13","21:00","6.8","","6.8","","100","","21","","22","","","M","98.76","","","","","","NA"
"2001-11-13 22:00","2001","11","13","22:00","6.8","","6.8","","100","","21","","17","","","M","98.78","","","","","","NA"
"2001-11-13 23:00","2001","11","13","23:00","6.9","","6.9","","100","","21","","19","","","M","98.78","","","","","","NA"
"2001-11-14 00:00","2001","11","14","00:00","7.0","","7.0","","100","","20","","22","","","M","98.75","","","","","","NA"
"2001-11-14 01:00","2001","11","14","01:00","7.0","","7.0","","100","","22","","19","","","M","98.77","","","","","","NA"
"2001-11-14 02:00","2001","11","14","02:00","6.8","","6.8","","100","","21","","13","","","M","98.76","","","","","","NA"
"2001-11-14 03:00","2001","11","14","03:00","6.7","","6.7","","100","","20","","11","","","M","98.79","","","","","","NA"
"2001-11-14 04:00","2001","11","14","04:00","6.7","","6.7","","100","","22","","17","","","M","98.80","","","","","","NA"
"2001-11-14 05:00","2001","11","14","05:00","6.6","","6.6","","100","","22","","11","","","M","98.80","","","","","","NA"
"2001-11-14 06:00","2001","11","14","06:00","6.7","","6.7","","100","","20","","15","","","M","98.80","","","","","","NA"
"2001-11-14 07:00","2001","11","14","07:00","6.5","","6.5","","100","","19","","22","","","M","98.79","","","","","","NA"
"2001-11-14 08:00","2001","11","14","08:00","6.8","","6.8","","100","","20","","30","","","M","98.78","","","","","","NA"
"2001-11-14 09:00","2001","11","14","09:00","7.2","","7.2","","100","","21","","28","","","M","98.83","","","","","","NA"
"2001-11-14 10:00","2001","11","14","10:00","7.4","","7.4","","100","","21","","22","","","M","98.85","","","","","","NA"
"2001-11-14 11:00","2001","11","14","11:00","7.0","","7.0","","100","","24","","24","","","M","98.88","","","","","","NA"
"2001-11-14 12:00","2001","11","14","12:00","7.6","","7.6","","100","","21","","24","","","M","98.87","","","","","","NA"
"2001-11-14 13:00","2001","11","14","13:00","7.4","","7.4","","100","","20","","20","","","M","98.85","","","","","","NA"
"2001-11-14 14:00","2001","11","14","14:00","7.5","","7.5","","100","","21","","22","","","M","98.84","","","","","","NA"
"2001-11-14 15:00","2001","11","14","15:00","7.5","","7.5","","100","","22","","22","","","M","98.81","","","","","","NA"
"2001-11-14 16:00","2001","11","14","16:00","7.5","","7.5","","100","","20","","20","","","M","98.77","","","","","","NA"
"2001-11-14 17:00","2001","11","14","17:00","7.8","","7.8","","100","","20","","22","","","M","98.78","","","","","","NA"
"2001-11-14 18:00","2001","11","14","18:00","7.9","","7.9","","100","","19","","24","","","M","98.74","","","","","","NA"
"2001-11-14 19:00","2001","11","14","19:00","8.3","","8.3","","100","","20","","24","","","M","98.76","","","","","","NA"
"2001-11-14 20:00","2001","11","14","20:00","8.0","","8.0","","100","","20","","22","","","M","98.73","","","","","","NA"
"2001-11-14 21:00","2001","11","14","21:00","8.3","","8.3","","100","","20","","22","","","M","98.71","","","","","","NA"
"2001-11-14 22:00","2001","11","14","22:00","8.3","","8.3","","100","","19","","20","","","M","98.67","","","","","","NA"
"2001-11-14 23:00","2001","11","14","23:00","8.6","","8.6","","100","","20","","24","","","M","98.64","","","","","","NA"
"2001-11-15 00:00","2001","11","15","00:00","8.7","","8.7","","100","","19","","28","","","M","98.60","","","","","","NA"
"2001-11-15 01:00","2001","11","15","01:00","8.8","","8.8","","100","","19","","24","","","M","98.53","","","","","","NA"
"2001-11-15 02:00","2001","11","15","02:00","8.9","","8.9","","100","","19","","24","","","M","98.46","","","","","","NA"
"2001-11-15 03:00","2001","11","15","03:00","8.9","","8.9","","100","","20","","26","","","M","98.41","","","","","","NA"
"2001-11-15 04:00","2001","11","15","04:00","9.3","","9.3","","100","","20","","30","","","M","98.32","","","","","","NA"
"2001-11-15 05:00","2001","11","15","05:00","8.5","","8.5","","100","","20","","24","","","M","98.29","","","","","","NA"
"2001-11-15 06:00","2001","11","15","06:00","8.4","","8.4","","100","","20","","2","","","M","98.25","","","","","","NA"
"2001-11-15 07:00","2001","11","15","07:00","8.0","","8.0","","100","","24","","13","","","M","98.22","","","","","","NA"
"2001-11-15 08:00","2001","11","15","08:00","7.9","","7.9","","100","","20","","13","","","M","98.21","","","","","","NA"
"2001-11-15 09:00","2001","11","15","09:00","7.9","","7.9","","100","","22","","13","","","M","98.18","","","","","","NA"
"2001-11-15 10:00","2001","11","15","10:00","7.5","","7.5","","100","","21","","15","","","M","98.12","","","","","","NA"
"2001-11-15 11:00","2001","11","15","11:00","7.3","","7.3","","100","","23","","15","","","M","98.14","","","","","","NA"
"2001-11-15 12:00","2001","11","15","12:00","7.4","","7.4","","100","","24","","13","","","M","98.05","","","","","","NA"
"2001-11-15 13:00","2001","11","15","13:00","7.0","","7.0","","100","","28","","6","","","M","98.02","","","","","","NA"
"2001-11-15 14:00","2001","11","15","14:00","7.2","","7.2","","100","","28","","7","","","M","98.01","","","","","","NA"
"2001-11-15 15:00","2001","11","15","15:00","6.7","","6.7","","100","","25","","15","","","M","98.03","","","","","","NA"
"2001-11-15 16:00","2001","11","15","16:00","6.9","","6.9","","100","","23","","13","","","M","98.06","","","","","","NA"
"2001-11-15 17:00","2001","11","15","17:00","6.9","","6.9","","100","","25","","6","","","M","98.19","","","","","","NA"
"2001-11-15 18:00","2001","11","15","18:00","6.3","","6.3","","100","","7","","4","","","M","98.33","","","","","","NA"
"2001-11-15 19:00","2001","11","15","19:00","6.6","","6.6","","100","","34","","19","","","M","98.52","","","","","","NA"
"2001-11-15 20:00","2001","11","15","20:00","6.1","","4.4","","89","","35","","11","","","M","98.68","","","","","","NA"
"2001-11-15 21:00","2001","11","15","21:00","4.2","","2.2","","87","","34","","19","","","M","98.83","","","","","","NA"
"2001-11-15 22:00","2001","11","15","22:00","2.8","","0.4","","84","","3","","9","","","M","99.01","","","","","","NA"
"2001-11-15 23:00","2001","11","15","23:00","1.6","","-0.3","","87","","2","","17","","","M","99.14","","","","","","NA"
"2001-11-16 00:00","2001","11","16","00:00","0.7","","-1.5","","85","","4","","13","","","M","99.26","","","","","","NA"
"2001-11-16 01:00","2001","11","16","01:00","-0.2","","-1.6","","90","","1","","7","","","M","99.37","","","","-3","","NA"
"2001-11-16 02:00","2001","11","16","02:00","0.3","","-1.2","","90","","1","","6","","","M","99.52","","","","","","NA"
"2001-11-16 03:00","2001","11","16","03:00","0.1","","-2.4","","83","","6","","13","","","M","99.62","","","","","","NA"
"2001-11-16 04:00","2001","11","16","04:00","-0.1","","-2.7","","83","","4","","13","","","M","99.71","","","","-4","","NA"
"2001-11-16 05:00","2001","11","16","05:00","-1.5","","-3.5","","86","","3","","7","","","M","99.83","","","","-4","","NA"
"2001-11-16 06:00","2001","11","16","06:00","-1.6","","-3.7","","86","","5","","7","","","M","99.95","","","","-4","","NA"
"2001-11-16 07:00","2001","11","16","07:00","-2.1","","-4.2","","86","","2","","7","","","M","100.07","","","","-5","","NA"
"2001-11-16 08:00","2001","11","16","08:00","-2.1","","-3.8","","88","","4","","7","","","M","100.14","","","","-5","","NA"
"2001-11-16 09:00","2001","11","16","09:00","-2.2","","-4.0","","87","","9","","13","","","M","100.22","","","","-7","","NA"
"2001-11-16 10:00","2001","11","16","10:00","-2.4","","-4.4","","86","","6","","9","","","M","100.30","","","","-6","","NA"
"2001-11-16 11:00","2001","11","16","11:00","-1.2","","-3.8","","82","","7","","7","","","M","100.29","","","","-4","","NA"
"2001-11-16 12:00","2001","11","16","12:00","0.6","","-3.8","","72","","6","","7","","","M","100.29","","","","","","NA"
"2001-11-16 13:00","2001","11","16","13:00","2.0","","-4.0","","64","","12","","9","","","M","100.25","","","","","","NA"
"2001-11-16 14:00","2001","11","16","14:00","3.1","","-4.2","","59","","13","","11","","","M","100.19","","","","","","NA"
"2001-11-16 15:00","2001","11","16","15:00","3.2","","-4.4","","57","","15","","7","","","M","100.17","","","","","","NA"
"2001-11-16 16:00","2001","11","16","16:00","2.3","","-4.1","","63","","4","","9","","","M","100.21","","","","","","NA"
"2001-11-16 17:00","2001","11","16","17:00","1.7","","-4.3","","64","","6","","6","","","M","100.20","","","","","","NA"
"2001-11-16 18:00","2001","11","16","18:00","1.3","","-3.1","","72","","13","","9","","","M","100.18","","","","","","NA"
"2001-11-16 19:00","2001","11","16","19:00","0.2","","-3.1","","78","","12","","7","","","M","100.20","","","","","","NA"
"2001-11-16 20:00","2001","11","16","20:00","2.2","","-0.6","","82","","22","","17","","","M","100.22","","","","","","NA"
"2001-11-16 21:00","2001","11","16","21:00","2.7","","0.4","","85","","22","","22","","","M","100.16","","","","","","NA"
"2001-11-16 22:00","2001","11","16","22:00","1.2","","-0.7","","87","","14","","11","","","M","100.11","","","","","","NA"
"2001-11-16 23:00","2001","11","16","23:00","0.9","","-0.5","","90","","14","","9","","","M","100.05","","","","","","NA"
"2001-11-17 00:00","2001","11","17","00:00","1.2","","-0.7","","87","","16","","11","","","M","100.00","","","","","","NA"
"2001-11-17 01:00","2001","11","17","01:00","3.9","","1.3","","83","","22","","35","","","M","99.96","","","","","","NA"
"2001-11-17 02:00","2001","11","17","02:00","4.6","","2.5","","86","","21","","41","","","M","99.89","","","","","","NA"
"2001-11-17 03:00","2001","11","17","03:00","5.0","","3.5","","90","","21","","35","","","M","99.87","","","","","","NA"
"2001-11-17 04:00","2001","11","17","04:00","5.4","","3.7","","89","","21","","39","","","M","99.78","","","","","","NA"
"2001-11-17 05:00","2001","11","17","05:00","5.4","","3.9","","90","","20","","39","","","M","99.73","","","","","","NA"
"2001-11-17 06:00","2001","11","17","06:00","5.5","","4.2","","91","","21","","41","","","M","99.73","","","","","","NA"
"2001-11-17 07:00","2001","11","17","07:00","5.7","","4.5","","92","","19","","46","","","M","99.67","","","","","","NA"
"2001-11-17 08:00","2001","11","17","08:00","5.8","","4.9","","94","","20","","37","","","M","99.65","","","","","","NA"
"2001-11-17 09:00","2001","11","17","09:00","5.9","","5.2","","95","","21","","43","","","M","99.62","","","","","","NA"
"2001-11-17 10:00","2001","11","17","10:00","6.0","","5.4","","96","","20","","33","","","M","99.59","","","","","","NA"
"2001-11-17 11:00","2001","11","17","11:00","6.1","","5.5","","96","","20","","35","","","M","99.53","","","","","","NA"
"2001-11-17 12:00","2001","11","17","12:00","6.5","","5.8","","95","","20","","39","","","M","99.46","","","","","","NA"
"2001-11-17 13:00","2001","11","17","13:00","6.7","","5.8","","94","","20","","37","","","M","99.39","","","","","","NA"
"2001-11-17 14:00","2001","11","17","14:00","7.0","","6.1","","94","","20","","35","","","M","99.33","","","","","","NA"
"2001-11-17 15:00","2001","11","17","15:00","7.4","","6.7","","95","","19","","28","","","M","99.29","","","","","","NA"
"2001-11-17 16:00","2001","11","17","16:00","7.6","","6.9","","95","","19","","30","","","M","99.26","","","","","","NA"
"2001-11-17 17:00","2001","11","17","17:00","7.9","","7.2","","95","","19","","26","","","M","99.23","","","","","","NA"
"2001-11-17 18:00","2001","11","17","18:00","8.2","","7.5","","95","","19","","26","","","M","99.20","","","","","","NA"
"2001-11-17 19:00","2001","11","17","19:00","8.3","","7.4","","94","","19","","19","","","M","99.19","","","","","","NA"
"2001-11-17 20:00","2001","11","17","20:00","9.3","","8.1","","92","","19","","24","","","M","99.14","","","","","","NA"
"2001-11-17 21:00","2001","11","17","21:00","9.9","","8.0","","88","","20","","24","","","M","99.10","","","","","","NA"
"2001-11-17 22:00","2001","11","17","22:00","9.2","","8.0","","92","","20","","19","","","M","99.07","","","","","","NA"
"2001-11-17 23:00","2001","11","17","23:00","8.9","","8.0","","94","","19","","24","","","M","99.03","","","","","","NA"
"2001-11-18 00:00","2001","11","18","00:00","8.9","","8.0","","94","","19","","24","","","M","99.02","","","","","","NA"
"2001-11-18 01:00","2001","11","18","01:00","8.8","","8.1","","95","","19","","19","","","M","99.02","","","","","","NA"
"2001-11-18 02:00","2001","11","18","02:00","8.8","","8.2","","96","","19","","22","","","M","98.95","","","","","","NA"
"2001-11-18 03:00","2001","11","18","03:00","8.7","","8.3","","97","","19","","20","","","M","98.91","","","","","","NA"
"2001-11-18 04:00","2001","11","18","04:00","8.5","","8.2","","98","","18","","19","","","M","98.86","","","","","","NA"
"2001-11-18 05:00","2001","11","18","05:00","8.3","","8.0","","98","","18","","17","","","M","98.79","","","","","","NA"
"2001-11-18 06:00","2001","11","18","06:00","8.7","","8.4","","98","","18","","20","","","M","98.76","","","","","","NA"
"2001-11-18 07:00","2001","11","18","07:00","8.5","","8.5","","100","","19","","17","","","M","98.70","","","","","","NA"
"2001-11-18 08:00","2001","11","18","08:00","8.9","","8.6","","98","","20","","11","","","M","98.68","","","","","","NA"
"2001-11-18 09:00","2001","11","18","09:00","8.2","","8.1","","99","","19","","15","","","M","98.63","","","","","","NA"
"2001-11-18 10:00","2001","11","18","10:00","8.6","","8.3","","98","","20","","24","","","M","98.58","","","","","","NA"
"2001-11-18 11:00","2001","11","18","11:00","8.9","","8.5","","97","","19","","26","","","M","98.56","","","","","","NA"
"2001-11-18 12:00","2001","11","18","12:00","8.3","","8.0","","98","","19","","32","","","M","98.46","","","","","","NA"
"2001-11-18 13:00","2001","11","18","13:00","8.4","","8.1","","98","","19","","30","","","M","98.33","","","","","","NA"
"2001-11-18 14:00","2001","11","18","14:00","8.9","","8.5","","97","","19","","35","","","M","98.25","","","","","","NA"
"2001-11-18 15:00","2001","11","18","15:00","8.8","","8.5","","98","","20","","30","","","M","98.21","","","","","","NA"
"2001-11-18 16:00","2001","11","18","16:00","8.5","","8.5","","100","","19","","33","","","M","98.19","","","","","","NA"
"2001-11-18 17:00","2001","11","18","17:00","8.5","","8.5","","100","","20","","24","","","M","98.18","","","","","","NA"
"2001-11-18 18:00","2001","11","18","18:00","8.0","","8.0","","100","","21","","13","","","M","98.17","","","","","","NA"
"2001-11-18 19:00","2001","11","18","19:00","7.4","","7.4","","100","","35","","15","","","M","98.17","","","","","","NA"
"2001-11-18 20:00","2001","11","18","20:00","5.2","","5.2","","100","","3","","20","","","M","98.22","","","","","","NA"
"2001-11-18 21:00","2001","11","18","21:00","3.9","","3.9","","100","","2","","15","","","M","98.29","","","","","","NA"
"2001-11-18 22:00","2001","11","18","22:00","2.4","","2.4","","100","","4","","17","","","M","98.41","","","","","","NA"
"2001-11-18 23:00","2001","11","18","23:00","0.7","","0.7","","100","","36","","9","","","M","98.50","","","","","","NA"
"2001-11-19 00:00","2001","11","19","00:00","0.9","","0.9","","100","","1","","7","","","M","98.53","","","","","","NA"
"2001-11-19 01:00","2001","11","19","01:00","0.8","","0.8","","100","","3","","6","","","M","98.54","","","","","","NA"
"2001-11-19 02:00","2001","11","19","02:00","0.9","","0.9","","100","","5","","6","","","M","98.56","","","","","","NA"
"2001-11-19 03:00","2001","11","19","03:00","0.9","","0.9","","100","","3","","6","","","M","98.59","","","","","","NA"
"2001-11-19 04:00","2001","11","19","04:00","1.1","","1.1","","100","","36","","7","","","M","98.58","","","","","","NA"
"2001-11-19 05:00","2001","11","19","05:00","0.6","","0.3","","98","","36","","7","","","M","98.58","","","","","","NA"
"2001-11-19 06:00","2001","11","19","06:00","0.3","","0.2","","99","","36","","7","","","M","98.56","","","","","","NA"
"2001-11-19 07:00","2001","11","19","07:00","-0.5","","-1.0","","96","","34","","9","","","M","98.59","","","","-4","","NA"
"2001-11-19 08:00","2001","11","19","08:00","-0.3","","-0.8","","96","","34","","9","","","M","98.63","","","","-3","","NA"
"2001-11-19 09:00","2001","11","19","09:00","0.0","","-1.2","","92","","34","","9","","","M","98.65","","","","-3","","NA"
"2001-11-19 10:00","2001","11","19","10:00","0.2","","-2.0","","85","","34","","11","","","M","98.63","","","","","","NA"
"2001-11-19 11:00","2001","11","19","11:00","0.8","","-3.0","","76","","34","","15","","","M","98.62","","","","","","NA"
"2001-11-19 12:00","2001","11","19","12:00","0.9","","-4.6","","67","","1","","11","","","M","98.58","","","","","","NA"
"2001-11-19 13:00","2001","11","19","13:00","1.1","","-5.0","","64","","34","","17","","","M","98.57","","","","","","NA"
"2001-11-19 14:00","2001","11","19","14:00","0.9","","-4.2","","69","","34","","11","","","M","98.62","","","","","","NA"
"2001-11-19 15:00","2001","11","19","15:00","0.8","","-4.1","","70","","33","","20","","","M","98.66","","","","","","NA"
"2001-11-19 16:00","2001","11","19","16:00","0.0","","-4.2","","73","","35","","7","","","M","98.74","","","","-2","","NA"
"2001-11-19 17:00","2001","11","19","17:00","-0.5","","-4.8","","73","","35","","13","","","M","98.82","","","","-5","","NA"
"2001-11-19 18:00","2001","11","19","18:00","-1.0","","-5.3","","73","","35","","11","","","M","98.91","","","","-5","","NA"
"2001-11-19 19:00","2001","11","19","19:00","-1.5","","-5.4","","75","","36","","11","","","M","98.96","","","","-5","","NA"
"2001-11-19 20:00","2001","11","19","20:00","-2.0","","-5.7","","76","","35","","11","","","M","98.98","","","","-6","","NA"
"2001-11-19 21:00","2001","11","19","21:00","-2.8","","-6.4","","76","","1","","11","","","M","99.03","","","","-7","","NA"
"2001-11-19 22:00","2001","11","19","22:00","-2.7","","-7.0","","72","","36","","9","","","M","99.09","","","","-6","","NA"
"2001-11-19 23:00","2001","11","19","23:00","-3.2","","-8.2","","68","","34","","17","","","M","99.15","","","","-9","","NA"
"2001-11-20 00:00","2001","11","20","00:00","-3.7","","-7.7","","74","","35","","7","","","M","99.18","","","","-7","","NA"
"2001-11-20 01:00","2001","11","20","01:00","-3.8","","-7.3","","77","","35","","7","","","M","99.17","","","","-7","","NA"
"2001-11-20 02:00","2001","11","20","02:00","-3.9","","-7.1","","78","","36","","9","","","M","99.16","","","","-8","","NA"
"2001-11-20 03:00","2001","11","20","03:00","-3.3","","-7.0","","76","","36","","9","","","M","99.21","","","","-7","","NA"
"2001-11-20 04:00","2001","11","20","04:00","-3.0","","-7.2","","73","","2","","9","","","M","99.20","","","","-7","","NA"
"2001-11-20 05:00","2001","11","20","05:00","-3.1","","-7.2","","73","","1","","11","","","M","99.19","","","","-7","","NA"
"2001-11-20 06:00","2001","11","20","06:00","-3.9","","-7.4","","77","","7","","6","","","M","99.18","","","","-7","","NA"
"2001-11-20 07:00","2001","11","20","07:00","-5.0","","-5.8","","94","","9","","7","","","M","99.16","","","","-8","","NA"
"2001-11-20 08:00","2001","11","20","08:00","-5.0","","-5.5","","96","","7","","7","","","M","99.15","","","","-8","","NA"
"2001-11-20 09:00","2001","11","20","09:00","-3.7","","-5.5","","87","","10","","6","","","M","99.07","","","","-6","","NA"
"2001-11-20 10:00","2001","11","20","10:00","-2.5","","-5.1","","82","","11","","9","","","M","98.99","","","","-6","","NA"
"2001-11-20 11:00","2001","11","20","11:00","-1.8","","-4.7","","81","","14","","7","","","M","98.98","","","","-4","","NA"
"2001-11-20 12:00","2001","11","20","12:00","0.3","","-3.9","","73","","26","","26","","","M","98.87","","","","","","NA"
"2001-11-20 13:00","2001","11","20","13:00","1.0","","-3.0","","75","","25","","30","","","M","98.72","","","","","","NA"
"2001-11-20 14:00","2001","11","20","14:00","1.3","","-3.1","","72","","26","","32","","","M","98.65","","","","","","NA"
"2001-11-20 15:00","2001","11","20","15:00","2.0","","-1.5","","78","","24","","33","","","M","98.53","","","","","","NA"
"2001-11-20 16:00","2001","11","20","16:00","2.3","","-2.5","","71","","25","","35","","","M","98.42","","","","","","NA"
"2001-11-20 17:00","2001","11","20","17:00","1.9","","0.8","","92","","23","","33","","","M","98.37","","","","","","NA"
"2001-11-20 18:00","2001","11","20","18:00","3.1","","-0.1","","79","","23","","39","","","M","98.27","","","","","","NA"
"2001-11-20 19:00","2001","11","20","19:00","3.1","","-0.3","","78","","22","","41","","","M","98.17","","","","","","NA"
"2001-11-20 20:00","2001","11","20","20:00","2.7","","-0.8","","78","","22","","46","","","M","98.10","","","","","","NA"
"2001-11-20 21:00","2001","11","20","21:00","3.3","","-0.4","","77","","22","","43","","","M","98.07","","","","","","NA"
"2001-11-20 22:00","2001","11","20","22:00","3.7","","0.9","","82","","22","","39","","","M","98.04","","","","","","NA"
"2001-11-20 23:00","2001","11","20","23:00","4.3","","-0.4","","71","","23","","35","","","M","97.94","","","","","","NA"
"2001-11-21 00:00","2001","11","21","00:00","4.6","","-1.1","","66","","25","","32","","","M","97.85","","","","","","NA"
"2001-11-21 01:00","2001","11","21","01:00","4.3","","-0.2","","73","","25","","28","","","M","97.78","","","","","","NA"
"2001-11-21 02:00","2001","11","21","02:00","4.2","","1.1","","80","","23","","26","","","M","97.70","","","","","","NA"
"2001-11-21 03:00","2001","11","21","03:00","4.2","","1.4","","82","","24","","32","","","M","97.70","","","","","","NA"
"2001-11-21 04:00","2001","11","21","04:00","4.4","","2.4","","87","","23","","30","","","M","97.66","","","","","","NA"
"2001-11-21 05:00","2001","11","21","05:00","4.7","","2.6","","86","","24","","24","","","M","97.62","","","","","","NA"
"2001-11-21 06:00","2001","11","21","06:00","4.9","","1.9","","81","","25","","19","","","M","97.60","","","","","","NA"
"2001-11-21 07:00","2001","11","21","07:00","4.7","","1.6","","80","","25","","13","","","M","97.60","","","","","","NA"
"2001-11-21 08:00","2001","11","21","08:00","4.7","","1.7","","81","","25","","15","","","M","97.62","","","","","","NA"
"2001-11-21 09:00","2001","11","21","09:00","4.1","","0.8","","79","","2","","4","","","M","97.60","","","","","","NA"
"2001-11-21 10:00","2001","11","21","10:00","1.4","","0.3","","92","","2","","15","","","M","97.72","","","","","","NA"
"2001-11-21 11:00","2001","11","21","11:00","1.8","","0.0","","88","","3","","11","","","M","97.79","","","","","","NA"
"2001-11-21 12:00","2001","11","21","12:00","3.6","","0.5","","80","","3","","9","","","M","97.78","","","","","","NA"
"2001-11-21 13:00","2001","11","21","13:00","4.2","","0.2","","75","","3","","9","","","M","97.82","","","","","","NA"
"2001-11-21 14:00","2001","11","21","14:00","3.3","","-0.3","","77","","2","","11","","","M","97.90","","","","","","NA"
"2001-11-21 15:00","2001","11","21","15:00","3.5","","-1.7","","69","","1","","7","","","M","98.00","","","","","","NA"
"2001-11-21 16:00","2001","11","21","16:00","3.4","","-2.2","","67","","3","","11","","","M","98.11","","","","","","NA"
"2001-11-21 17:00","2001","11","21","17:00"
"2001-11-21 18:00","2001","11","21","18:00","1.0","","-1.6","","83","","6","","17","","","M","98.34","","","","","","NA"
"2001-11-21 19:00","2001","11","21","19:00","0.1","","-2.5","","83","","5","","17","","","M","98.46","","","","","","NA"
"2001-11-21 20:00","2001","11","21","20:00","0.1","","-2.5","","83","","6","","11","","","M","98.54","","","","","","NA"
"2001-11-21 21:00","2001","11","21","21:00","-0.1","","-2.4","","84","","7","","20","","","M","98.58","","","","-5","","NA"
"2001-11-21 22:00","2001","11","21","22:00","-0.6","","-2.7","","86","","7","","22","","","M","98.61","","","","-6","","NA"
"2001-11-21 23:00","2001","11","21","23:00","-0.8","","-2.8","","86","","8","","15","","","M","98.68","","","","-5","","NA"
"2001-11-22 00:00","2001","11","22","00:00","-0.6","","-2.9","","84","","8","","19","","","M","98.76","","","","-6","","NA"
"2001-11-22 01:00","2001","11","22","01:00","-0.9","","-3.0","","86","","8","","13","","","M","98.84","","","","-5","","NA"
"2001-11-22 02:00","2001","11","22","02:00","-0.9","","-2.7","","88","","8","","17","","","M","98.78","","","","-6","","NA"
"2001-11-22 03:00","2001","11","22","03:00","-1.0","","-3.0","","86","","7","","19","","","M","98.83","","","","-6","","NA"
"2001-11-22 04:00","2001","11","22","04:00","-1.1","","-2.8","","88","","9","","20","","","M","98.80","","","","-7","","NA"
"2001-11-22 05:00","2001","11","22","05:00","-1.1","","-2.5","","90","","10","","15","","","M","98.81","","","","-6","","NA"
"2001-11-22 06:00","2001","11","22","06:00","-0.9","","-3.0","","86","","9","","19","","","M","98.86","","","","-6","","NA"
"2001-11-22 07:00","2001","11","22","07:00","-0.8","","-2.8","","86","","11","","17","","","M","98.89","","","","-6","","NA"
"2001-11-22 08:00","2001","11","22","08:00","-0.7","","-2.5","","88","","10","","20","","","M","98.90","","","","-6","","NA"
"2001-11-22 09:00","2001","11","22","09:00","-0.5","","-2.2","","88","","11","","17","","","M","98.87","","","","-5","","NA"
"2001-11-22 10:00","2001","11","22","10:00","-0.2","","-2.2","","86","","10","","19","","","M","98.82","","","","-5","","NA"
"2001-11-22 11:00","2001","11","22","11:00","0.4","","-2.1","","83","","11","","20","","","M","98.81","","","","","","NA"
"2001-11-22 12:00","2001","11","22","12:00","0.5","","-1.5","","86","","11","","15","","","M","98.78","","","","","","NA"
"2001-11-22 13:00","2001","11","22","13:00","1.0","","-1.2","","85","","11","","17","","","M","98.66","","","","","","NA"
"2001-11-22 14:00","2001","11","22","14:00","1.0","","-1.2","","85","","9","","17","","","M","98.57","","","","","","NA"
"2001-11-22 15:00","2001","11","22","15:00","1.3","","-0.9","","85","","11","","19","","","M","98.49","","","","","","NA"
"2001-11-22 16:00","2001","11","22","16:00","1.5","","-0.4","","87","","11","","19","","","M","98.41","","","","","","NA"
"2001-11-22 17:00","2001","11","22","17:00","1.7","","0.1","","89","","11","","19","","","M","98.42","","","","","","NA"
"2001-11-22 18:00","2001","11","22","18:00","1.9","","0.3","","89","","9","","22","","","M","98.35","","","","","","NA"
"2001-11-22 19:00","2001","11","22","19:00","2.4","","0.6","","88","","10","","22","","","M","98.31","","","","","","NA"
"2001-11-22 20:00","2001","11","22","20:00","2.7","","0.6","","86","","10","","20","","","M","98.31","","","","","","NA"
"2001-11-22 21:00","2001","11","22","21:00","3.4","","1.0","","84","","12","","17","","","M","98.26","","","","","","NA"
"2001-11-22 22:00","2001","11","22","22:00","3.4","","1.0","","84","","12","","17","","","M","98.22","","","","","","NA"
"2001-11-22 23:00","2001","11","22","23:00","3.7","","1.3","","84","","10","","13","","","M","98.18","","","","","","NA"
"2001-11-23 00:00","2001","11","23","00:00","4.3","","1.8","","84","","11","","17","","","M","98.13","","","","","","NA"
"2001-11-23 01:00","2001","11","23","01:00","4.2","","1.8","","84","","12","","20","","","M","98.03","","","","","","NA"
"2001-11-23 02:00","2001","11","23","02:00","4.7","","2.2","","84","","10","","13","","","M","98.06","","","","","","NA"
"2001-11-23 03:00","2001","11","23","03:00","5.1","","3.0","","86","","11","","15","","","M","98.06","","","","","","NA"
"2001-11-23 04:00","2001","11","23","04:00","5.4","","3.3","","86","","11","","13","","","M","98.05","","","","","","NA"
"2001-11-23 05:00","2001","11","23","05:00","5.2","","3.2","","87","","11","","11","","","M","98.04","","","","","","NA"
"2001-11-23 06:00","2001","11","23","06:00","5.0","","3.5","","90","","13","","17","","","M","98.03","","","","","","NA"
"2001-11-23 07:00","2001","11","23","07:00","4.9","","3.6","","91","","12","","13","","","M","98.05","","","","","","NA"
"2001-11-23 08:00","2001","11","23","08:00","4.9","","3.6","","91","","12","","11","","","M","98.05","","","","","","NA"
"2001-11-23 09:00","2001","11","23","09:00","5.6","","3.9","","89","","15","","9","","","M","98.06","","","","","","NA"
"2001-11-23 10:00","2001","11","23","10:00","7.6","","5.3","","85","","18","","28","","","M","98.05","","","","","","NA"
"2001-11-23 11:00","2001","11","23","11:00","7.8","","5.4","","85","","19","","33","","","M","98.07","","","","","","NA"
"2001-11-23 12:00","2001","11","23","12:00","8.1","","5.4","","83","","19","","32","","","M","98.04","","","","","","NA"
"2001-11-23 13:00","2001","11","23","13:00","7.5","","5.3","","86","","19","","28","","","M","98.05","","","","","","NA"
"2001-11-23 14:00","2001","11","23","14:00","7.5","","5.3","","86","","19","","32","","","M","98.07","","","","","","NA"
"2001-11-23 15:00","2001","11","23","15:00","7.2","","5.5","","89","","20","","26","","","M","98.09","","","","","","NA"
"2001-11-23 16:00","2001","11","23","16:00","7.4","","5.6","","88","","20","","20","","","M","98.12","","","","","","NA"
"2001-11-23 17:00","2001","11","23","17:00","6.4","","5.5","","94","","21","","15","","","M","98.23","","","","","","NA"
"2001-11-23 18:00","2001","11","23","18:00","6.2","","5.8","","97","","21","","15","","","M","98.31","","","","","","NA"
"2001-11-23 19:00","2001","11","23","19:00","5.6","","5.5","","99","","16","","11","","","M","98.37","","","","","","NA"
"2001-11-23 20:00","2001","11","23","20:00","5.7","","5.6","","99","","15","","7","","","M","98.40","","","","","","NA"
"2001-11-23 21:00","2001","11","23","21:00","6.3","","6.0","","98","","17","","11","","","M","98.42","","","","","","NA"
"2001-11-23 22:00","2001","11","23","22:00","6.2","","5.5","","95","","18","","6","","","M","98.43","","","","","","NA"
"2001-11-23 23:00","2001","11","23","23:00","4.0","","4.0","","100","","9","","7","","","M","98.48","","","","","","NA"
"2001-11-24 00:00","2001","11","24","00:00","2.8","","2.8","","100","","8","","11","","","M","98.48","","","","","","NA"
"2001-11-24 01:00","2001","11","24","01:00","2.7","","2.7","","100","","9","","11","","","M","98.51","","","","","","NA"
"2001-11-24 02:00","2001","11","24","02:00","3.7","","3.6","","99","","10","","11","","","M","98.54","","","","","","NA"
"2001-11-24 03:00","2001","11","24","03:00","2.7","","2.7","","100","","6","","11","","","M","98.55","","","","","","NA"
"2001-11-24 04:00","2001","11","24","04:00","3.7","","3.6","","99","","7","","13","","","M","98.57","","","","","","NA"
"2001-11-24 05:00","2001","11","24","05:00","3.5","","3.4","","99","","7","","13","","","M","98.53","","","","","","NA"
"2001-11-24 06:00","2001","11","24","06:00","3.5","","3.5","","100","","4","","9","","","M","98.51","","","","","","NA"
"2001-11-24 07:00","2001","11","24","07:00","4.0","","4.0","","100","","6","","13","","","M","98.49","","","","","","NA"
"2001-11-24 08:00","2001","11","24","08:00","5.2","","5.2","","100","","3","","11","","","M","98.51","","","","","","NA"
"2001-11-24 09:00","2001","11","24","09:00","4.9","","4.9","","100","","5","","7","","","M","98.47","","","","","","NA"
"2001-11-24 10:00","2001","11","24","10:00","5.2","","5.2","","100","","5","","13","","","M","98.42","","","","","","NA"
"2001-11-24 11:00","2001","11","24","11:00","6.3","","6.3","","100","","10","","11","","","M","98.38","","","","","","NA"
"2001-11-24 12:00","2001","11","24","12:00","6.9","","6.9","","100","","11","","17","","","M","98.30","","","","","","NA"
"2001-11-24 13:00","2001","11","24","13:00","7.1","","7.1","","100","","7","","20","","","M","98.18","","","","","","NA"
"2001-11-24 14:00","2001","11","24","14:00","6.7","","6.7","","100","","6","","13","","","M","98.03","","","","","","NA"
"2001-11-24 15:00","2001","11","24","15:00","7.0","","7.0","","100","","9","","13","","","M","97.84","","","","","","NA"
"2001-11-24 16:00","2001","11","24","16:00","7.4","","7.4","","100","","4","","33","","","M","97.72","","","","","","NA"
"2001-11-24 17:00","2001","11","24","17:00","7.4","","7.4","","100","","8","","15","","","M","97.66","","","","","","NA"
"2001-11-24 18:00","2001","11","24","18:00","8.2","","8.2","","100","","7","","17","","","M","97.58","","","","","","NA"
"2001-11-24 19:00","2001","11","24","19:00","8.0","","8.0","","100","","3","","17","","","M","97.44","","","","","","NA"
"2001-11-24 20:00","2001","11","24","20:00","8.7","","8.7","","100","","4","","17","","","M","97.37","","","","","","NA"
"2001-11-24 21:00","2001","11","24","21:00","7.8","","7.8","","100","","5","","13","","","M","97.34","","","","","","NA"
"2001-11-24 22:00","2001","11","24","22:00","10.0","","10.0","","100","","16","","17","","","M","97.21","","","","","","NA"
"2001-11-24 23:00","2001","11","24","23:00","10.0","","10.0","","100","","15","","15","","","M","97.14","","","","","","NA"
"2001-11-25 00:00","2001","11","25","00:00","10.5","","10.5","","100","","12","","13","","","M","97.10","","","","","","NA"
"2001-11-25 01:00","2001","11","25","01:00","10.9","","10.9","","100","","14","","19","","","M","97.01","","","","","","NA"
"2001-11-25 02:00","2001","11","25","02:00","11.0","","11.0","","100","","13","","15","","","M","96.96","","","","","","NA"
"2001-11-25 03:00","2001","11","25","03:00","11.0","","11.0","","100","","12","","17","","","M","96.87","","","","","","NA"
"2001-11-25 04:00","2001","11","25","04:00","10.9","","10.9","","100","","14","","15","","","M","96.86","","","","","","NA"
"2001-11-25 05:00","2001","11","25","05:00","11.1","","11.1","","100","","16","","24","","","M","96.78","","","","","","NA"
"2001-11-25 06:00","2001","11","25","06:00","10.8","","10.8","","100","","16","","13","","","M","96.84","","","","","","NA"
"2001-11-25 07:00","2001","11","25","07:00","10.9","","10.8","","99","","17","","26","","","M","96.86","","","","","","NA"
"2001-11-25 08:00","2001","11","25","08:00","10.3","","10.2","","99","","19","","35","","","M","96.88","","","","","","NA"
"2001-11-25 09:00","2001","11","25","09:00","9.1","","9.1","","100","","18","","28","","","M","96.93","","","","","","NA"
"2001-11-25 10:00","2001","11","25","10:00","8.6","","8.6","","100","","19","","28","","","M","97.02","","","","","","NA"
"2001-11-25 11:00","2001","11","25","11:00","8.1","","8.1","","100","","18","","26","","","M","97.10","","","","","","NA"
"2001-11-25 12:00","2001","11","25","12:00","8.0","","8.0","","100","","17","","19","","","M","97.15","","","","","","NA"
"2001-11-25 13:00","2001","11","25","13:00","3.1","","3.1","","100","","8","","13","","","M","97.26","","","","","","NA"
"2001-11-25 14:00","2001","11","25","14:00","2.2","","2.2","","100","","4","","30","","","M","97.31","","","","","","NA"
"2001-11-25 15:00","2001","11","25","15:00","1.9","","1.9","","100","","4","","26","","","M","97.44","","","","","","NA"
"2001-11-25 16:00","2001","11","25","16:00","1.7","","1.7","","100","","4","","24","","","M","97.65","","","","","","NA"
"2001-11-25 17:00","2001","11","25","17:00","1.5","","1.5","","100","","4","","17","","","M","97.88","","","","","","NA"
"2001-11-25 18:00","2001","11","25","18:00","0.9","","0.9","","100","","2","","20","","","M","98.10","","","","","","NA"
"2001-11-25 19:00","2001","11","25","19:00","0.0","","-0.9","","94","","3","","24","","","M","98.26","","","","-6","","NA"
"2001-11-25 20:00","2001","11","25","20:00","-1.2","","-2.1","","94","","1","","20","","","M","98.52","","","","-7","","NA"
"2001-11-25 21:00","2001","11","25","21:00","-1.9","","-4.0","","86","","4","","28","","","M","98.69","","","","-9","","NA"
"2001-11-25 22:00","2001","11","25","22:00","-2.7","","-5.0","","84","","5","","28","","","M","98.78","","","","-10","","NA"
"2001-11-25 23:00","2001","11","25","23:00","-3.0","","-5.4","","83","","4","","32","","","M","98.95","","","","-11","","NA"
"2001-11-26 00:00","2001","11","26","00:00","-3.5","","-5.9","","83","","4","","26","","","M","99.20","","","","-11","","NA"
"2001-11-26 01:00","2001","11","26","01:00","-3.8","","-6.3","","83","","5","","24","","","M","99.35","","","","-11","","NA"
"2001-11-26 02:00","2001","11","26","02:00","-4.1","","-6.6","","83","","5","","24","","","M","99.44","","","","-11","","NA"
"2001-11-26 03:00","2001","11","26","03:00","-4.2","","-6.6","","83","","6","","19","","","M","99.57","","","","-10","","NA"
"2001-11-26 04:00","2001","11","26","04:00","-4.3","","-6.8","","83","","6","","17","","","M","99.62","","","","-10","","NA"
"2001-11-26 05:00","2001","11","26","05:00","-4.5","","-7.0","","83","","5","","20","","","M","99.73","","","","-11","","NA"
"2001-11-26 06:00","2001","11","26","06:00","-4.5","","-7.5","","80","","7","","28","","","M","99.85","","","","-12","","NA"
"2001-11-26 07:00","2001","11","26","07:00","-4.8","","-7.3","","83","","4","","22","","","M","99.96","","","","-12","","NA"
"2001-11-26 08:00","2001","11","26","08:00","-5.1","","-7.8","","81","","6","","22","","","M","100.04","","","","-12","","NA"
"2001-11-26 09:00","2001","11","26","09:00","-5.1","","-8.4","","78","","5","","24","","","M","100.13","","","","-12","","NA"
"2001-11-26 10:00","2001","11","26","10:00","-5.1","","-8.4","","78","","5","","24","","","M","100.12","","","","-12","","NA"
"2001-11-26 11:00","2001","11","26","11:00","-5.0","","-8.5","","76","","7","","28","","","M","100.16","","","","-13","","NA"
"2001-11-26 12:00","2001","11","26","12:00","-5.3","","-9.8","","71","","6","","22","","","M","100.21","","","","-12","","NA"
"2001-11-26 13:00","2001","11","26","13:00","-5.4","","-9.6","","72","","6","","24","","","M","100.22","","","","-13","","NA"
"2001-11-26 14:00","2001","11","26","14:00","-5.3","","-10.0","","69","","7","","32","","","M","100.20","","","","-14","","NA"
"2001-11-26 15:00","2001","11","26","15:00","-5.7","","-9.5","","75","","7","","26","","","M","100.25","","","","-13","","NA"
"2001-11-26 16:00","2001","11","26","16:00","-5.8","","-9.3","","76","","8","","22","","","M","100.33","","","","-13","","NA"
"2001-11-26 17:00","2001","11","26","17:00","-5.8","","-9.1","","77","","8","","24","","","M","100.31","","","","-13","","NA"
"2001-11-26 18:00","2001","11","26","18:00","-5.8","","-9.1","","77","","7","","20","","","M","100.31","","","","-13","","NA"
"2001-11-26 19:00","2001","11","26","19:00","-5.8","","-8.8","","79","","7","","30","","","M","100.27","","","","-14","","NA"
"2001-11-26 20:00","2001","11","26","20:00","-6.0","","-7.3","","90","","7","","22","","","M","100.28","","","","-13","","NA"
"2001-11-26 21:00","2001","11","26","21:00","-6.1","","-7.0","","93","","7","","28","","","M","100.29","","","","-14","","NA"
"2001-11-26 22:00","2001","11","26","22:00","-5.8","","-6.7","","93","","7","","20","","","M","100.32","","","","-13","","NA"
"2001-11-26 23:00","2001","11","26","23:00","-5.6","","-6.6","","93","","8","","20","","","M","100.24","","","","-12","","NA"
"2001-11-27 00:00","2001","11","27","00:00","-5.6","","-6.6","","93","","8","","26","","","M","100.18","","","","-13","","NA"
"2001-11-27 01:00","2001","11","27","01:00","-5.7","","-6.9","","91","","8","","24","","","M","100.14","","","","-13","","NA"
"2001-11-27 02:00","2001","11","27","02:00","-5.6","","-6.9","","91","","7","","30","","","M","100.08","","","","-14","","NA"
"2001-11-27 03:00","2001","11","27","03:00","-5.7","","-6.7","","93","","7","","28","","","M","100.09","","","","-14","","NA"
"2001-11-27 04:00","2001","11","27","04:00","-5.8","","-6.7","","93","","7","","24","","","M","99.97","","","","-13","","NA"
"2001-11-27 05:00","2001","11","27","05:00","-5.7","","-6.7","","93","","8","","24","","","M","99.98","","","","-13","","NA"
"2001-11-27 06:00","2001","11","27","06:00","-5.6","","-7.4","","87","","7","","35","","","M","99.90","","","","-14","","NA"
"2001-11-27 07:00","2001","11","27","07:00","-5.5","","-7.1","","88","","8","","28","","","M","99.91","","","","-13","","NA"
"2001-11-27 08:00","2001","11","27","08:00","-5.7","","-7.3","","88","","8","","30","","","M","99.92","","","","-14","","NA"
"2001-11-27 09:00","2001","11","27","09:00","-5.7","","-8.7","","79","","7","","32","","","M","99.91","","","","-14","","NA"
"2001-11-27 10:00","2001","11","27","10:00","-5.6","","-9.2","","76","","8","","32","","","M","99.94","","","","-14","","NA"
"2001-11-27 11:00","2001","11","27","11:00","-6.1","","-8.9","","81","","9","","48","","","M","99.85","","","","-16","","NA"
"2001-11-27 12:00","2001","11","27","12:00","-5.9","","-8.4","","82","","8","","37","","","M","99.82","","","","-15","","NA"
"2001-11-27 13:00","2001","11","27","13:00","-5.6","","-9.1","","76","","9","","32","","","M","99.81","","","","-14","","NA"
"2001-11-27 14:00","2001","11","27","14:00","-5.2","","-10.3","","67","","7","","41","","","M","99.81","","","","-14","","NA"
"2001-11-27 15:00","2001","11","27","15:00","-4.7","","-11.0","","61","","8","","32","","","M","99.81","","","","-13","","NA"
"2001-11-27 16:00","2001","11","27","16:00","-4.7","","-10.0","","66","","6","","35","","","M","99.86","","","","-13","","NA"
"2001-11-27 17:00","2001","11","27","17:00","-5.2","","-9.7","","71","","7","","28","","","M","99.97","","","","-13","","NA"
"2001-11-27 18:00","2001","11","27","18:00","-5.4","","-9.0","","76","","7","","32","","","M","100.02","","","","-14","","NA"
"2001-11-27 19:00","2001","11","27","19:00","-5.5","","-10.4","","68","","7","","33","","","M","100.06","","","","-14","","NA"
"2001-11-27 20:00","2001","11","27","20:00","-5.6","","-10.5","","68","","7","","26","","","M","100.15","","","","-13","","NA"
"2001-11-27 21:00","2001","11","27","21:00","-5.8","","-10.7","","68","","8","","33","","","M","100.20","","","","-14","","NA"
"2001-11-27 22:00","2001","11","27","22:00","-6.1","","-11.1","","68","","7","","26","","","M","100.27","","","","-14","","NA"
"2001-11-27 23:00","2001","11","27","23:00","-6.3","","-11.5","","67","","10","","35","","","M","100.33","","","","-15","","NA"
"2001-11-28 00:00","2001","11","28","00:00","-6.5","","-11.9","","65","","9","","33","","","M","100.40","","","","-15","","NA"
"2001-11-28 01:00","2001","11","28","01:00","-6.6","","-11.6","","68","","9","","24","","","M","100.50","","","","-14","","NA"
"2001-11-28 02:00","2001","11","28","02:00","-6.5","","-11.7","","67","","9","","32","","","M","100.54","","","","-15","","NA"
"2001-11-28 03:00","2001","11","28","03:00","-6.7","","-11.9","","66","","8","","24","","","M","100.61","","","","-14","","NA"
"2001-11-28 04:00","2001","11","28","04:00","-6.7","","-11.9","","66","","8","","24","","","M","100.63","","","","-14","","NA"
"2001-11-28 05:00","2001","11","28","05:00","-6.4","","-12.2","","63","","10","","33","","","M","100.67","","","","-15","","NA"
"2001-11-28 06:00","2001","11","28","06:00","-6.4","","-12.2","","63","","10","","26","","","M","100.75","","","","-14","","NA"
"2001-11-28 07:00","2001","11","28","07:00","-6.2","","-12.0","","63","","10","","24","","","M","100.84","","","","-14","","NA"
"2001-11-28 08:00","2001","11","28","08:00","-6.4","","-12.2","","63","","9","","24","","","M","100.90","","","","-14","","NA"
"2001-11-28 09:00","2001","11","28","09:00","-6.4","","-12.0","","64","","8","","19","","","M","100.95","","","","-13","","NA"
"2001-11-28 10:00","2001","11","28","10:00","-6.4","","-11.4","","68","","10","","20","","","M","100.91","","","","-13","","NA"
"2001-11-28 11:00","2001","11","28","11:00","-5.9","","-12.3","","61","","9","","26","","","M","100.93","","","","-14","","NA"
"2001-11-28 12:00","2001","11","28","12:00","-4.9","","-12.2","","57","","12","","15","","","M","100.84","","","","-10","","NA"
"2001-11-28 13:00","2001","11","28","13:00","-4.4","","-13.8","","48","","11","","32","","","M","100.72","","","","-12","","NA"
"2001-11-28 14:00","2001","11","28","14:00","-4.2","","-14.2","","46","","8","","17","","","M","100.72","","","","-10","","NA"
"2001-11-28 15:00","2001","11","28","15:00","-3.5","","-12.5","","50","","11","","15","","","M","100.71","","","","-9","","NA"
"2001-11-28 16:00","2001","11","28","16:00","-4.1","","-13.6","","48","","9","","20","","","M","100.67","","","","-10","","NA"
"2001-11-28 17:00","2001","11","28","17:00","-4.7","","-13.4","","51","","10","","22","","","M","100.54","","","","-12","","NA"
"2001-11-28 18:00","2001","11","28","18:00","-4.9","","-12.2","","57","","11","","24","","","M","100.52","","","","-12","","NA"
"2001-11-28 19:00","2001","11","28","19:00","-5.0","","-12.1","","57","","11","","30","","","M","100.50","","","","-13","","NA"
"2001-11-28 20:00","2001","11","28","20:00","-5.2","","-12.9","","55","","8","","11","","","M","100.51","","","","-10","","NA"
"2001-11-28 21:00","2001","11","28","21:00","-5.1","","-12.4","","57","","11","","26","","","M","100.42","","","","-13","","NA"
"2001-11-28 22:00","2001","11","28","22:00","-5.3","","-13.0","","55","","11","","35","","","M","100.25","","","","-14","","NA"
"2001-11-28 23:00","2001","11","28","23:00","-5.3","","-12.4","","57","","11","","22","","","M","100.25","","","","-12","","NA"
"2001-11-29 00:00","2001","11","29","00:00","-5.4","","-12.4","","58","","12","","15","","","M","100.24","","","","-11","","NA"
"2001-11-29 01:00","2001","11","29","01:00","-5.5","","-12.5","","58","","12","","19","","","M","100.16","","","","-12","","NA"
"2001-11-29 02:00","2001","11","29","02:00","-6.4","","-8.1","","88","","12","","22","","","M","100.10","","","","-14","","NA"
"2001-11-29 03:00","2001","11","29","03:00","-6.7","","-7.5","","94","","8","","15","","","M","100.02","","","","-13","","NA"
"2001-11-29 04:00","2001","11","29","04:00","-6.9","","-7.5","","95","","10","","9","","","M","99.94","","","","-11","","NA"
"2001-11-29 05:00","2001","11","29","05:00","-6.8","","-7.4","","95","","10","","13","","","M","99.84","","","","-12","","NA"
"2001-11-29 06:00","2001","11","29","06:00","-7.1","","-7.7","","95","","10","","11","","","M","99.84","","","","-12","","NA"
"2001-11-29 07:00","2001","11","29","07:00","-6.7","","-7.3","","95","","11","","15","","","M","99.79","","","","-13","","NA"
"2001-11-29 08:00","2001","11","29","08:00","-6.8","","-7.4","","95","","10","","15","","","M","99.75","","","","-13","","NA"
"2001-11-29 09:00","2001","11","29","09:00","-6.8","","-7.4","","95","","9","","13","","","M","99.69","","","","-12","","NA"
"2001-11-29 10:00","2001","11","29","10:00","-6.1","","-6.6","","96","","9","","11","","","M","99.70","","","","-11","","NA"
"2001-11-29 11:00","2001","11","29","11:00","-5.1","","-5.9","","94","","10","","13","","","M","99.66","","","","-10","","NA"
"2001-11-29 12:00","2001","11","29","12:00","-2.7","","-4.7","","86","","9","","13","","","M","99.54","","","","-7","","NA"
"2001-11-29 13:00","2001","11","29","13:00","-1.7","","-4.6","","81","","5","","9","","","M","99.49","","","","-5","","NA"
"2001-11-29 14:00","2001","11","29","14:00","-0.8","","-5.5","","70","","11","","7","","","M","99.47","","","","-3","","NA"
"2001-11-29 15:00","2001","11","29","15:00","-0.6","","-5.1","","72","","11","","6","","","M","99.44","","","","-3","","NA"
"2001-11-29 16:00","2001","11","29","16:00","-1.3","","-5.2","","75","","6","","7","","","M","99.47","","","","-4","","NA"
"2001-11-29 17:00","2001","11","29","17:00","-2.2","","-5.3","","79","","6","","9","","","M","99.49","","","","-6","","NA"
"2001-11-29 18:00","2001","11","29","18:00","-3.4","","-5.3","","87","","7","","7","","","M","99.48","","","","-6","","NA"
"2001-11-29 19:00","2001","11","29","19:00","-4.5","","-6.1","","89","","9","","7","","","M","99.42","","","","-8","","NA"
"2001-11-29 20:00","2001","11","29","20:00","-5.2","","-6.7","","89","","6","","9","","","M","99.52","","","","-9","","NA"
"2001-11-29 21:00","2001","11","29","21:00","-5.6","","-6.9","","91","","8","","13","","","M","99.45","","","","-11","","NA"
"2001-11-29 22:00","2001","11","29","22:00","-6.0","","-7.0","","93","","8","","6","","","M","99.52","","","","-9","","NA"
"2001-11-29 23:00","2001","11","29","23:00","-6.7","","-7.9","","91","","5","","17","","","M","99.44","","","","-13","","NA"
"2001-11-30 00:00","2001","11","30","00:00","-6.6","","-7.8","","91","","5","","13","","","M","99.32","","","","-12","","NA"
"2001-11-30 01:00","2001","11","30","01:00","-5.3","","-6.9","","88","","10","","17","","","M","99.33","","","","-11","","NA"
"2001-11-30 02:00","2001","11","30","02:00","-5.8","","-7.4","","88","","8","","15","","","M","99.27","","","","-12","","NA"
"2001-11-30 03:00","2001","11","30","03:00","-6.8","","-8.3","","89","","4","","13","","","M","99.18","","","","-12","","NA"
"2001-11-30 04:00","2001","11","30","04:00","-6.1","","-8.0","","86","","7","","15","","","M","99.17","","","","-12","","NA"
"2001-11-30 05:00","2001","11","30","05:00","-6.3","","-8.3","","86","","7","","13","","","M","99.13","","","","-12","","NA"
"2001-11-30 06:00","2001","11","30","06:00","-5.8","","-8.0","","84","","8","","19","","","M","99.09","","","","-12","","NA"
"2001-11-30 07:00","2001","11","30","07:00","-6.0","","-8.2","","84","","7","","19","","","M","98.94","","","","-13","","NA"
"2001-11-30 08:00","2001","11","30","08:00","-6.4","","-8.6","","84","","5","","22","","","M","98.94","","","","-14","","NA"
"2001-11-30 09:00","2001","11","30","09:00","-6.8","","-9.0","","84","","6","","24","","","M","98.81","","","","-14","","NA"
"2001-11-30 10:00","2001","11","30","10:00","-5.9","","-8.4","","82","","9","","26","","","M","98.69","","","","-14","","NA"
"2001-11-30 11:00","2001","11","30","11:00","-5.3","","-8.1","","81","","7","","24","","","M","98.66","","","","-13","","NA"
"2001-11-30 12:00","2001","11","30","12:00","-4.8","","-7.2","","83","","9","","24","","","M","98.58","","","","-12","","NA"
"2001-11-30 13:00","2001","11","30","13:00","-4.9","","-7.3","","83","","8","","26","","","M","98.44","","","","-12","","NA"
"2001-11-30 14:00","2001","11","30","14:00","-4.5","","-6.9","","83","","8","","15","","","M","98.33","","","","-10","","NA"
"2001-11-30 15:00","2001","11","30","15:00","-5.0","","-5.5","","96","","9","","15","","","M","98.26","","","","-11","","NA"
"2001-11-30 16:00","2001","11","30","16:00","-5.0","","-5.2","","98","","8","","19","","","M","98.30","","","","-11","","NA"
"2001-11-30 17:00","2001","11","30","17:00","-5.1","","-5.3","","98","","8","","22","","","M","98.22","","","","-12","","NA"
"2001-11-30 18:00","2001","11","30","18:00","-5.1","","-5.3","","98","","10","","19","","","M","98.18","","","","-12","","NA"
"2001-11-30 19:00","2001","11","30","19:00","-5.0","","-5.4","","97","","9","","20","","","M","98.09","","","","-12","","NA"
"2001-11-30 20:00","2001","11","30","20:00","-5.1","","-5.5","","97","","10","","20","","","M","98.04","","","","-12","","NA"
"2001-11-30 21:00","2001","11","30","21:00","-5.4","","-5.6","","98","","6","","11","","","M","98.07","","","","-10","","NA"
"2001-11-30 22:00","2001","11","30","22:00","-5.3","","-5.5","","98","","6","","9","","","M","98.03","","","","-9","","NA"
"2001-11-30 23:00","2001","11","30","23:00","-5.3","","-5.5","","98","","6","","11","","","M","98.02","","","","-10","","NA"
