"Station Name","ST CATHARINES A"
"Province","ONTARIO"
"Latitude","43.20"
"Longitude","-79.17"
"Elevation","97.80"
"Climate Identifier","6137287"
"WMO Identifier",""
"TC Identifier","YSN"
"All times are specified in Local Standard Time (LST). Add 1 hour to adjust for Daylight Saving Time where and when it is observed."

"Legend"
"E","Estimated"
"M","Missing"
"NA","Not Available"

"Date/Time","Year","Month","Day","Time","Temp (°C)","Temp Flag","Dew Point Temp (°C)","Dew Point Temp Flag","Rel Hum (%)","Rel Hum Flag","Wind Dir (10s deg)","Wind Dir Flag","Wind Spd (km/h)","Wind Spd Flag","Visibility (km)","Visibility Flag","Stn Press (kPa)","Stn Press Flag","Hmdx","Hmdx Flag","Wind Chill","Wind Chill Flag","Weather"
"2001-09-01 00:00","2001","09","01","00:00"
"2001-09-01 01:00","2001","09","01","01:00"
"2001-09-01 02:00","2001","09","01","02:00"
"2001-09-01 03:00","2001","09","01","03:00"
"2001-09-01 04:00","2001","09","01","04:00"
"2001-09-01 05:00","2001","09","01","05:00","14.3","","8.7","","69","","35","","19","","24.1","","100.38","","","","","","Cloudy"
"2001-09-01 06:00","2001","09","01","06:00","14.0","","8.7","","70","","29","","9","","24.1","","100.47","","","","","","Cloudy"
"2001-09-01 07:00","2001","09","01","07:00","13.9","","8.0","","68","","3","","19","","24.1","","100.55","","","","","","Mostly Cloudy"
"2001-09-01 08:00","2001","09","01","08:00","13.7","","7.9","","68","","2","","9","","24.1","","100.63","","","","","","Mostly Cloudy"
"2001-09-01 09:00","2001","09","01","09:00","14.2","","8.3","","68","","3","","15","","24.1","","100.68","","","","","","Mostly Cloudy"
"2001-09-01 10:00","2001","09","01","10:00","14.5","","8.5","","67","","2","","15","","48.3","","100.71","","","","","","Mostly Cloudy"
"2001-09-01 11:00","2001","09","01","11:00","14.9","","7.7","","62","","34","","19","","48.3","","100.72","","","","","","Mostly Cloudy"
"2001-09-01 12:00","2001","09","01","12:00","15.8","","8.1","","60","","34","","15","","48.3","","100.71","","","","","","Mainly Clear"
"2001-09-01 13:00","2001","09","01","13:00","16.4","","8.6","","60","","33","","9","","48.3","","100.67","","","","","","Mainly Clear"
"2001-09-01 14:00","2001","09","01","14:00","16.6","","7.6","","55","","3","","9","","48.3","","100.64","","","","","","Mainly Clear"
"2001-09-01 15:00","2001","09","01","15:00","17.5","","7.1","","50","","3","","9","","48.3","","100.58","","","","","","Clear"
"2001-09-01 16:00","2001","09","01","16:00","18.2","","6.9","","48","","35","","9","","48.3","","100.56","","","","","","Clear"
"2001-09-01 17:00","2001","09","01","17:00","18.5","","6.9","","47","","3","","9","","48.3","","100.54","","","","","","Clear"
"2001-09-01 18:00","2001","09","01","18:00","18.3","","6.8","","47","","3","","9","","48.3","","100.55","","","","","","Clear"
"2001-09-01 19:00","2001","09","01","19:00","16.6","","8.1","","57","","16","","7","","48.3","","100.57","","","","","","Mainly Clear"
"2001-09-01 20:00","2001","09","01","20:00","13.7","","8.3","","70","","20","","9","","24.1","","100.66","","","","","","Clear"
"2001-09-01 21:00","2001","09","01","21:00","13.7","","9.1","","74","","24","","9","","24.1","","100.66","","","","","","Clear"
"2001-09-01 22:00","2001","09","01","22:00"
"2001-09-01 23:00","2001","09","01","23:00"
"2001-09-02 00:00","2001","09","02","00:00"
"2001-09-02 01:00","2001","09","02","01:00"
"2001-09-02 02:00","2001","09","02","02:00"
"2001-09-02 03:00","2001","09","02","03:00"
"2001-09-02 04:00","2001","09","02","04:00"
"2001-09-02 05:00","2001","09","02","05:00","11.6","","10.5","","93","","19","","9","","24.1","","100.72","","","","","","Mostly Cloudy"
"2001-09-02 06:00","2001","09","02","06:00","11.7","","10.7","","94","","21","","9","","24.1","","100.75","","","","","","Mostly Cloudy"
"2001-09-02 07:00","2001","09","02","07:00","12.5","","11.6","","94","","18","","9","","24.1","","100.78","","","","","","Mostly Cloudy"
"2001-09-02 08:00","2001","09","02","08:00","15.8","","12.6","","81","","22","","9","","24.1","","100.82","","","","","","Mainly Clear"
"2001-09-02 09:00","2001","09","02","09:00","17.7","","12.0","","69","","29","","6","","24.1","","100.78","","","","","","Mainly Clear"
"2001-09-02 10:00","2001","09","02","10:00","18.5","","9.3","","55","","28","","9","","24.1","","100.78","","","","","","Mainly Clear"
"2001-09-02 11:00","2001","09","02","11:00","18.7","","9.8","","56","","28","","11","","24.1","","100.79","","","","","","Mainly Clear"
"2001-09-02 12:00","2001","09","02","12:00","19.3","","9.8","","54","","36","","9","","24.1","","100.75","","","","","","Mainly Clear"
"2001-09-02 13:00","2001","09","02","13:00","20.4","","8.9","","48","","33","","9","","24.1","","100.70","","","","","","Mainly Clear"
"2001-09-02 14:00","2001","09","02","14:00","20.8","","8.2","","44","","36","","15","","24.1","","100.64","","","","","","Mainly Clear"
"2001-09-02 15:00","2001","09","02","15:00","21.4","","9.8","","48","","2","","15","","24.1","","100.57","","","","","","Mainly Clear"
"2001-09-02 16:00","2001","09","02","16:00","21.5","","9.0","","45","","4","","7","","24.1","","100.54","","","","","","Mainly Clear"
"2001-09-02 17:00","2001","09","02","17:00","21.4","","9.2","","46","","3","","9","","24.1","","100.57","","","","","","Mainly Clear"
"2001-09-02 18:00","2001","09","02","18:00","20.8","","9.8","","49","","1","","9","","24.1","","100.54","","","","","","Mainly Clear"
"2001-09-02 19:00","2001","09","02","19:00","18.6","","9.8","","57","","15","","11","","24.1","","100.47","","","","","","Mainly Clear"
"2001-09-02 20:00","2001","09","02","20:00","17.4","","9.0","","58","","17","","15","","24.1","","100.47","","","","","","Mainly Clear"
"2001-09-02 21:00","2001","09","02","21:00","16.1","","10.3","","68","","19","","11","","24.1","","100.49","","","","","","Mainly Clear"
"2001-09-02 22:00","2001","09","02","22:00"
"2001-09-02 23:00","2001","09","02","23:00"
"2001-09-03 00:00","2001","09","03","00:00"
"2001-09-03 01:00","2001","09","03","01:00"
"2001-09-03 02:00","2001","09","03","02:00"
"2001-09-03 03:00","2001","09","03","03:00"
"2001-09-03 04:00","2001","09","03","04:00"
"2001-09-03 05:00","2001","09","03","05:00","15.9","","14.3","","90","","19","","9","","24.1","","100.28","","","","","","Clear"
"2001-09-03 06:00","2001","09","03","06:00","16.0","","14.3","","90","","19","","9","","24.1","","100.28","","","","","","Clear"
"2001-09-03 07:00","2001","09","03","07:00","16.7","","14.8","","89","","20","","9","","24.1","","100.30","","","","","","Clear"
"2001-09-03 08:00","2001","09","03","08:00","20.1","","15.9","","77","","21","","15","","24.1","","100.31","","25","","","","Clear"
"2001-09-03 09:00","2001","09","03","09:00","22.9","","15.6","","63","","23","","19","","24.1","","100.27","","27","","","","Clear"
"2001-09-03 10:00","2001","09","03","10:00","24.2","","15.8","","59","","23","","15","","24.1","","100.24","","29","","","","Mainly Clear"
"2001-09-03 11:00","2001","09","03","11:00","24.2","","14.4","","54","","22","","28","","24.1","","100.23","","28","","","","Mainly Clear"
"2001-09-03 12:00","2001","09","03","12:00","25.2","","13.2","","47","","23","","19","","24.1","","100.14","","28","","","","Clear"
"2001-09-03 13:00","2001","09","03","13:00","25.3","","12.6","","45","","20","","19","","19.3","","100.09","","28","","","","Clear"
"2001-09-03 14:00","2001","09","03","14:00","25.7","","12.1","","43","","23","","28","","19.3","","100.07","","28","","","","Mainly Clear"
"2001-09-03 15:00","2001","09","03","15:00","25.3","","13.0","","46","","23","","19","","19.3","","100.04","","28","","","","Mainly Clear"
"2001-09-03 16:00","2001","09","03","16:00","25.5","","13.0","","46","","22","","19","","19.3","","99.98","","28","","","","Mainly Clear"
"2001-09-03 17:00","2001","09","03","17:00","25.1","","13.1","","47","","22","","19","","19.3","","99.90","","28","","","","Mainly Clear"
"2001-09-03 18:00","2001","09","03","18:00","23.4","","13.6","","54","","22","","19","","19.3","","99.87","","27","","","","Mainly Clear"
"2001-09-03 19:00","2001","09","03","19:00","21.7","","14.2","","62","","21","","19","","19.3","","99.83","","25","","","","Mainly Clear"
"2001-09-03 20:00","2001","09","03","20:00","20.6","","15.1","","71","","21","","15","","19.3","","99.83","","25","","","","Mainly Clear"
"2001-09-03 21:00","2001","09","03","21:00","20.3","","16.1","","77","","20","","9","","19.3","","99.85","","25","","","","Mostly Cloudy"
"2001-09-03 22:00","2001","09","03","22:00"
"2001-09-03 23:00","2001","09","03","23:00"
"2001-09-04 00:00","2001","09","04","00:00"
"2001-09-04 01:00","2001","09","04","01:00"
"2001-09-04 02:00","2001","09","04","02:00"
"2001-09-04 03:00","2001","09","04","03:00"
"2001-09-04 04:00","2001","09","04","04:00"
"2001-09-04 05:00","2001","09","04","05:00","19.7","","18.0","","90","","31","","13","","9.7","","99.97","","","","","","Fog"
"2001-09-04 06:00","2001","09","04","06:00","18.3","","16.5","","89","","29","","11","","19.3","","100.02","","","","","","Mainly Clear"
"2001-09-04 07:00","2001","09","04","07:00","18.9","","16.0","","83","","30","","6","","24.1","","100.14","","","","","","Clear"
"2001-09-04 08:00","2001","09","04","08:00","19.4","","15.4","","78","","29","","11","","24.1","","100.18","","","","","","Clear"
"2001-09-04 09:00","2001","09","04","09:00","20.2","","15.3","","73","","30","","13","","24.1","","100.25","","","","","","Clear"
"2001-09-04 10:00","2001","09","04","10:00","20.8","","15.4","","71","","28","","9","","24.1","","100.28","","25","","","","Clear"
"2001-09-04 11:00","2001","09","04","11:00","21.4","","15.1","","67","","32","","19","","24.1","","100.30","","25","","","","Mainly Clear"
"2001-09-04 12:00","2001","09","04","12:00","22.6","","15.6","","65","","32","","19","","24.1","","100.34","","27","","","","Mainly Clear"
"2001-09-04 13:00","2001","09","04","13:00","22.4","","15.2","","64","","33","","19","","24.1","","100.37","","26","","","","Mostly Cloudy"
"2001-09-04 14:00","2001","09","04","14:00","22.5","","14.5","","61","","34","","19","","24.1","","100.41","","26","","","","Mostly Cloudy"
"2001-09-04 15:00","2001","09","04","15:00","22.4","","14.6","","61","","34","","19","","24.1","","100.43","","26","","","","Mostly Cloudy"
"2001-09-04 16:00","2001","09","04","16:00","21.3","","13.7","","62","","34","","19","","24.1","","100.47","","","","","","Mostly Cloudy"
"2001-09-04 17:00","2001","09","04","17:00","20.6","","13.1","","62","","2","","19","","24.1","","100.53","","","","","","Mostly Cloudy"
"2001-09-04 18:00","2001","09","04","18:00","18.9","","12.1","","65","","36","","22","","24.1","","100.60","","","","","","Mostly Cloudy"
"2001-09-04 19:00","2001","09","04","19:00","17.5","","11.7","","69","","36","","11","","24.1","","100.65","","","","","","Mostly Cloudy"
"2001-09-04 20:00","2001","09","04","20:00","17.9","","11.8","","67","","1","","19","","24.1","","100.73","","","","","","Mostly Cloudy"
"2001-09-04 21:00","2001","09","04","21:00","17.1","","10.6","","66","","1","","13","","24.1","","100.78","","","","","","Mostly Cloudy"
"2001-09-04 22:00","2001","09","04","22:00"
"2001-09-04 23:00","2001","09","04","23:00"
"2001-09-05 00:00","2001","09","05","00:00"
"2001-09-05 01:00","2001","09","05","01:00"
"2001-09-05 02:00","2001","09","05","02:00"
"2001-09-05 03:00","2001","09","05","03:00"
"2001-09-05 04:00","2001","09","05","04:00"
"2001-09-05 05:00","2001","09","05","05:00","11.0","","8.8","","86","","","","0","","24.1","","101.07","","","","","","Clear"
"2001-09-05 06:00","2001","09","05","06:00","9.2","","8.2","","93","","","","0","","24.1","","101.15","","","","","","Mainly Clear"
"2001-09-05 07:00","2001","09","05","07:00","13.5","","10.0","","79","","","","0","","24.1","","101.20","","","","","","Mainly Clear"
"2001-09-05 08:00","2001","09","05","08:00","15.6","","8.9","","64","","3","","11","","24.1","","101.28","","","","","","Mainly Clear"
"2001-09-05 09:00","2001","09","05","09:00","16.2","","9.0","","62","","2","","19","","24.1","","101.29","","","","","","Mainly Clear"
"2001-09-05 10:00","2001","09","05","10:00","16.3","","8.5","","60","","2","","19","","24.1","","101.33","","","","","","Mainly Clear"
"2001-09-05 11:00","2001","09","05","11:00","16.0","","8.2","","60","","4","","19","","24.1","","101.33","","","","","","Clear"
"2001-09-05 12:00","2001","09","05","12:00","16.6","","8.1","","57","","36","","19","","24.1","","101.30","","","","","","Clear"
"2001-09-05 13:00","2001","09","05","13:00","17.0","","8.2","","56","","33","","19","","24.1","","101.28","","","","","","Clear"
"2001-09-05 14:00","2001","09","05","14:00","18.0","","7.2","","49","","36","","15","","24.1","","101.21","","","","","","Clear"
"2001-09-05 15:00","2001","09","05","15:00","18.3","","6.6","","46","","3","","15","","24.1","","101.19","","","","","","Clear"
"2001-09-05 16:00","2001","09","05","16:00","18.9","","4.4","","38","","5","","9","","24.1","","101.13","","","","","","Clear"
"2001-09-05 17:00","2001","09","05","17:00","19.3","","4.8","","38","","3","","9","","24.1","","101.11","","","","","","Clear"
"2001-09-05 18:00","2001","09","05","18:00","19.1","","5.2","","40","","","","0","","24.1","","101.08","","","","","","Clear"
"2001-09-05 19:00","2001","09","05","19:00","16.7","","6.6","","51","","","","0","","24.1","","101.10","","","","","","Clear"
"2001-09-05 20:00","2001","09","05","20:00","14.7","","6.0","","56","","14","","7","","24.1","","101.10","","","","","","Clear"
"2001-09-05 21:00","2001","09","05","21:00","14.2","","6.4","","59","","18","","7","","24.1","","101.14","","","","","","Clear"
"2001-09-05 22:00","2001","09","05","22:00"
"2001-09-05 23:00","2001","09","05","23:00"
"2001-09-06 00:00","2001","09","06","00:00"
"2001-09-06 01:00","2001","09","06","01:00"
"2001-09-06 02:00","2001","09","06","02:00"
"2001-09-06 03:00","2001","09","06","03:00"
"2001-09-06 04:00","2001","09","06","04:00"
"2001-09-06 05:00","2001","09","06","05:00","9.8","","7.2","","84","","","","0","","19.3","","101.17","","","","","","Clear"
"2001-09-06 06:00","2001","09","06","06:00","10.8","","8.0","","83","","18","","7","","24.1","","101.17","","","","","","Clear"
"2001-09-06 07:00","2001","09","06","07:00","13.6","","11.5","","87","","","","0","","19.3","","101.21","","","","","","Clear"
"2001-09-06 08:00","2001","09","06","08:00","17.3","","13.5","","78","","","","0","","19.3","","101.19","","","","","","Clear"
"2001-09-06 09:00","2001","09","06","09:00","20.5","","9.8","","50","","20","","9","","24.1","","101.17","","","","","","Clear"
"2001-09-06 10:00","2001","09","06","10:00","22.2","","9.6","","45","","23","","9","","24.1","","101.12","","","","","","Clear"
"2001-09-06 11:00","2001","09","06","11:00","23.9","","10.2","","42","","24","","11","","24.1","","101.08","","25","","","","Clear"
"2001-09-06 12:00","2001","09","06","12:00","24.6","","8.8","","37","","22","","9","","24.1","","101.02","","25","","","","Clear"
"2001-09-06 13:00","2001","09","06","13:00","26.0","","6.1","","28","","20","","9","","24.1","","100.96","","26","","","","Clear"
"2001-09-06 14:00","2001","09","06","14:00","26.5","","4.4","","24","","18","","19","","24.1","","100.90","","26","","","","Mainly Clear"
"2001-09-06 15:00","2001","09","06","15:00","26.4","","1.4","","20","","23","","13","","24.1","","100.82","","25","","","","Mainly Clear"
"2001-09-06 16:00","2001","09","06","16:00","27.3","","2.4","","20","","25","","9","","24.1","","100.78","","26","","","","Mostly Cloudy"
"2001-09-06 17:00","2001","09","06","17:00","27.3","","3.2","","21","","24","","9","","24.1","","100.73","","26","","","","Mostly Cloudy"
"2001-09-06 18:00","2001","09","06","18:00","22.9","","14.1","","58","","5","","11","","24.1","","100.69","","26","","","","Mostly Cloudy"
"2001-09-06 19:00","2001","09","06","19:00","20.4","","14.0","","67","","9","","15","","24.1","","100.65","","","","","","Mostly Cloudy"
"2001-09-06 20:00","2001","09","06","20:00","19.5","","13.7","","69","","11","","7","","24.1","","100.65","","","","","","Mostly Cloudy"
"2001-09-06 21:00","2001","09","06","21:00","19.0","","12.0","","64","","13","","9","","24.1","","100.63","","","","","","Mainly Clear"
"2001-09-06 22:00","2001","09","06","22:00"
"2001-09-06 23:00","2001","09","06","23:00"
"2001-09-07 00:00","2001","09","07","00:00"
"2001-09-07 01:00","2001","09","07","01:00"
"2001-09-07 02:00","2001","09","07","02:00"
"2001-09-07 03:00","2001","09","07","03:00"
"2001-09-07 04:00","2001","09","07","04:00"
"2001-09-07 05:00","2001","09","07","05:00","18.6","","14.6","","78","","21","","9","","24.1","","100.33","","","","","","Mainly Clear"
"2001-09-07 06:00","2001","09","07","06:00","19.1","","14.8","","76","","18","","9","","24.1","","100.32","","","","","","Mainly Clear"
"2001-09-07 07:00","2001","09","07","07:00","19.7","","16.0","","79","","18","","9","","24.1","","100.35","","","","","","Mainly Clear"
"2001-09-07 08:00","2001","09","07","08:00","22.0","","16.6","","71","","19","","9","","24.1","","100.32","","27","","","","Mainly Clear"
"2001-09-07 09:00","2001","09","07","09:00","24.8","","17.7","","65","","23","","15","","24.1","","100.33","","31","","","","Mainly Clear"
"2001-09-07 10:00","2001","09","07","10:00","26.5","","17.0","","56","","21","","19","","19.3","","100.30","","32","","","","Mainly Clear"
"2001-09-07 11:00","2001","09","07","11:00","27.3","","16.1","","50","","21","","22","","19.3","","100.30","","32","","","","Mostly Cloudy"
"2001-09-07 12:00","2001","09","07","12:00","27.1","","17.1","","54","","21","","22","","16.1","","100.27","","32","","","","Mostly Cloudy"
"2001-09-07 13:00","2001","09","07","13:00","29.1","","18.4","","53","","19","","22","","16.1","","100.19","","35","","","","Mainly Clear"
"2001-09-07 14:00","2001","09","07","14:00","29.7","","19.4","","54","","23","","19","","12.9","","100.15","","37","","","","Mostly Cloudy"
"2001-09-07 15:00","2001","09","07","15:00","30.1","","20.3","","56","","20","","24","","12.9","","100.12","","38","","","","Mainly Clear"
"2001-09-07 16:00","2001","09","07","16:00","30.5","","20.8","","56","","22","","24","","12.9","","100.09","","39","","","","Mainly Clear"
"2001-09-07 17:00","2001","09","07","17:00","29.8","","20.6","","58","","22","","19","","12.9","","100.09","","38","","","","Mainly Clear"
"2001-09-07 18:00","2001","09","07","18:00","28.5","","20.6","","62","","21","","22","","16.1","","100.09","","37","","","","Mainly Clear"
"2001-09-07 19:00","2001","09","07","19:00","26.9","","20.9","","70","","20","","13","","12.9","","100.06","","35","","","","Mainly Clear"
"2001-09-07 20:00","2001","09","07","20:00","25.9","","20.8","","73","","19","","9","","12.9","","100.10","","34","","","","Mainly Clear"
"2001-09-07 21:00","2001","09","07","21:00","25.1","","20.4","","75","","19","","11","","12.9","","100.13","","33","","","","Mainly Clear"
"2001-09-07 22:00","2001","09","07","22:00"
"2001-09-07 23:00","2001","09","07","23:00"
"2001-09-08 00:00","2001","09","08","00:00"
"2001-09-08 01:00","2001","09","08","01:00"
"2001-09-08 02:00","2001","09","08","02:00"
"2001-09-08 03:00","2001","09","08","03:00"
"2001-09-08 04:00","2001","09","08","04:00"
"2001-09-08 05:00","2001","09","08","05:00","23.6","","20.4","","82","","20","","19","","12.9","","100.21","","32","","","","Mainly Clear"
"2001-09-08 06:00","2001","09","08","06:00","22.9","","20.2","","85","","20","","15","","8.0","","100.25","","31","","","","Haze"
"2001-09-08 07:00","2001","09","08","07:00","24.1","","20.2","","79","","20","","19","","8.0","","100.26","","32","","","","Haze"
"2001-09-08 08:00","2001","09","08","08:00","25.3","","20.5","","75","","20","","15","","8.0","","100.29","","33","","","","Haze"
"2001-09-08 09:00","2001","09","08","09:00","27.5","","20.4","","65","","20","","28","","9.7","","100.29","","35","","","","Haze"
"2001-09-08 10:00","2001","09","08","10:00","28.6","","20.3","","61","","20","","28","","24.1","","100.29","","36","","","","Clear"
"2001-09-08 11:00","2001","09","08","11:00","30.0","","19.8","","54","","22","","19","","11.3","","100.28","","37","","","","Clear"
"2001-09-08 12:00","2001","09","08","12:00","30.6","","19.3","","51","","23","","19","","11.3","","100.28","","38","","","","Mainly Clear"
"2001-09-08 13:00","2001","09","08","13:00","30.9","","19.5","","51","","22","","28","","12.9","","100.25","","38","","","","Mainly Clear"
"2001-09-08 14:00","2001","09","08","14:00","31.2","","19.5","","50","","23","","26","","12.9","","100.20","","38","","","","Mainly Clear"
"2001-09-08 15:00","2001","09","08","15:00","30.2","","18.6","","50","","22","","22","","16.1","","100.14","","37","","","","Mostly Cloudy"
"2001-09-08 16:00","2001","09","08","16:00","30.7","","18.6","","49","","22","","22","","19.3","","100.14","","37","","","","Mostly Cloudy"
"2001-09-08 17:00","2001","09","08","17:00","30.2","","18.3","","49","","22","","19","","19.3","","100.12","","36","","","","Mainly Clear"
"2001-09-08 18:00","2001","09","08","18:00","29.5","","18.3","","51","","22","","15","","16.1","","100.11","","36","","","","Clear"
"2001-09-08 19:00","2001","09","08","19:00","27.2","","18.8","","60","","18","","11","","12.9","","100.13","","34","","","","Clear"
"2001-09-08 20:00","2001","09","08","20:00","25.8","","19.6","","69","","18","","7","","12.9","","100.26","","33","","","","Clear"
"2001-09-08 21:00","2001","09","08","21:00","25.2","","19.6","","71","","19","","11","","12.9","","100.27","","32","","","","Mainly Clear"
"2001-09-08 22:00","2001","09","08","22:00"
"2001-09-08 23:00","2001","09","08","23:00"
"2001-09-09 00:00","2001","09","09","00:00"
"2001-09-09 01:00","2001","09","09","01:00"
"2001-09-09 02:00","2001","09","09","02:00"
"2001-09-09 03:00","2001","09","09","03:00"
"2001-09-09 04:00","2001","09","09","04:00"
"2001-09-09 05:00","2001","09","09","05:00","23.1","","18.4","","75","","20","","19","","19.3","","100.42","","29","","","","Clear"
"2001-09-09 06:00","2001","09","09","06:00","23.0","","18.6","","76","","20","","15","","12.9","","100.48","","29","","","","Mainly Clear"
"2001-09-09 07:00","2001","09","09","07:00","24.2","","18.7","","71","","19","","19","","12.9","","100.52","","31","","","","Mainly Clear"
"2001-09-09 08:00","2001","09","09","08:00","25.4","","19.1","","68","","19","","19","","12.9","","100.53","","32","","","","Mainly Clear"
"2001-09-09 09:00","2001","09","09","09:00","27.2","","19.0","","61","","22","","19","","14.5","","100.54","","34","","","","Mostly Cloudy"
"2001-09-09 10:00","2001","09","09","10:00","28.9","","19.7","","58","","21","","22","","12.9","","100.51","","36","","","","Mostly Cloudy"
"2001-09-09 11:00","2001","09","09","11:00","29.1","","19.7","","57","","21","","19","","14.5","","100.52","","36","","","","Mostly Cloudy"
"2001-09-09 12:00","2001","09","09","12:00","29.5","","19.7","","56","","18","","19","","14.5","","100.50","","37","","","","Mostly Cloudy"
"2001-09-09 13:00","2001","09","09","13:00","30.1","","19.6","","53","","19","","22","","16.1","","100.44","","37","","","","Mostly Cloudy"
"2001-09-09 14:00","2001","09","09","14:00","31.1","","19.8","","51","","22","","20","","16.1","","100.34","","39","","","","Mostly Cloudy"
"2001-09-09 15:00","2001","09","09","15:00","31.2","","18.6","","47","","21","","24","","16.1","","100.27","","38","","","","Mainly Clear"
"2001-09-09 16:00","2001","09","09","16:00","31.1","","18.5","","47","","20","","22","","16.1","","100.22","","37","","","","Mainly Clear"
"2001-09-09 17:00","2001","09","09","17:00","31.0","","17.8","","45","","18","","22","","16.1","","100.21","","37","","","","Mostly Cloudy"
"2001-09-09 18:00","2001","09","09","18:00","29.7","","17.7","","49","","18","","15","","16.1","","100.18","","35","","","","Mainly Clear"
"2001-09-09 19:00","2001","09","09","19:00","27.3","","17.7","","56","","17","","13","","16.1","","100.16","","33","","","","Mainly Clear"
"2001-09-09 20:00","2001","09","09","20:00","27.1","","17.0","","54","","18","","19","","16.1","","100.17","","32","","","","Mainly Clear"
"2001-09-09 21:00","2001","09","09","21:00","26.7","","16.2","","53","","17","","22","","16.1","","100.09","","31","","","","Mainly Clear"
"2001-09-09 22:00","2001","09","09","22:00"
"2001-09-09 23:00","2001","09","09","23:00"
"2001-09-10 00:00","2001","09","10","00:00"
"2001-09-10 01:00","2001","09","10","01:00"
"2001-09-10 02:00","2001","09","10","02:00"
"2001-09-10 03:00","2001","09","10","03:00"
"2001-09-10 04:00","2001","09","10","04:00"
"2001-09-10 05:00","2001","09","10","05:00","21.8","","15.5","","67","","24","","28","","16.1","","100.19","","26","","","","Rain Showers"
"2001-09-10 06:00","2001","09","10","06:00","19.1","","16.7","","86","","21","","28","","24.1","","100.27","","","","","","Mostly Cloudy"
"2001-09-10 07:00","2001","09","10","07:00","19.6","","17.3","","87","","22","","19","","24.1","","100.39","","","","","","Mostly Cloudy"
"2001-09-10 08:00","2001","09","10","08:00","19.7","","15.7","","78","","27","","19","","24.1","","100.44","","","","","","Mostly Cloudy"
"2001-09-10 09:00","2001","09","10","09:00","20.4","","13.9","","66","","28","","15","","24.1","","100.55","","","","","","Mostly Cloudy"
"2001-09-10 10:00","2001","09","10","10:00","21.5","","13.8","","62","","27","","19","","24.1","","100.62","","25","","","","Mostly Cloudy"
"2001-09-10 11:00","2001","09","10","11:00","22.8","","12.7","","53","","25","","19","","24.1","","100.62","","25","","","","Mostly Cloudy"
"2001-09-10 12:00","2001","09","10","12:00","21.8","","12.3","","55","","28","","19","","24.1","","100.65","","","","","","Mainly Clear"
"2001-09-10 13:00","2001","09","10","13:00","22.9","","11.8","","50","","28","","19","","24.1","","100.68","","25","","","","Mainly Clear"
"2001-09-10 14:00","2001","09","10","14:00","22.6","","12.2","","52","","30","","19","","24.1","","100.69","","25","","","","Mainly Clear"
"2001-09-10 15:00","2001","09","10","15:00","24.5","","10.5","","41","","30","","19","","24.1","","100.66","","26","","","","Mainly Clear"
"2001-09-10 16:00","2001","09","10","16:00","23.6","","13.4","","53","","24","","19","","24.1","","100.66","","27","","","","Mainly Clear"
"2001-09-10 17:00","2001","09","10","17:00","23.2","","13.1","","53","","23","","19","","24.1","","100.64","","26","","","","Mainly Clear"
"2001-09-10 18:00","2001","09","10","18:00","21.5","","13.8","","62","","23","","19","","24.1","","100.68","","25","","","","Mainly Clear"
"2001-09-10 19:00","2001","09","10","19:00","20.2","","14.2","","68","","23","","19","","24.1","","100.71","","","","","","Clear"
"2001-09-10 20:00","2001","09","10","20:00","19.3","","14.5","","74","","23","","19","","24.1","","100.78","","","","","","Clear"
"2001-09-10 21:00","2001","09","10","21:00","19.0","","14.8","","77","","24","","19","","24.1","","100.81","","","","","","Clear"
"2001-09-10 22:00","2001","09","10","22:00"
"2001-09-10 23:00","2001","09","10","23:00"
"2001-09-11 00:00","2001","09","11","00:00"
"2001-09-11 01:00","2001","09","11","01:00"
"2001-09-11 02:00","2001","09","11","02:00"
"2001-09-11 03:00","2001","09","11","03:00"
"2001-09-11 04:00","2001","09","11","04:00"
"2001-09-11 05:00","2001","09","11","05:00","15.7","","12.4","","81","","32","","11","","24.1","","100.95","","","","","","Clear"
"2001-09-11 06:00","2001","09","11","06:00","14.1","","10.9","","81","","31","","9","","24.1","","101.02","","","","","","Clear"
"2001-09-11 07:00","2001","09","11","07:00","16.8","","12.8","","77","","32","","19","","24.1","","101.12","","","","","","Clear"
"2001-09-11 08:00","2001","09","11","08:00","18.1","","13.4","","74","","30","","13","","24.1","","101.16","","","","","","Clear"
"2001-09-11 09:00","2001","09","11","09:00","19.5","","13.9","","70","","36","","9","","24.1","","101.21","","","","","","Clear"
"2001-09-11 10:00","2001","09","11","10:00","19.7","","12.1","","62","","35","","9","","24.1","","101.23","","","","","","Clear"
"2001-09-11 11:00","2001","09","11","11:00","20.2","","12.2","","60","","33","","11","","24.1","","101.23","","","","","","Clear"
"2001-09-11 12:00","2001","09","11","12:00","20.9","","10.7","","52","","30","","11","","24.1","","101.22","","","","","","Clear"
"2001-09-11 13:00","2001","09","11","13:00","21.9","","11.0","","50","","32","","19","","24.1","","101.17","","","","","","Clear"
"2001-09-11 14:00","2001","09","11","14:00","23.2","","11.8","","49","","32","","15","","24.1","","101.11","","25","","","","Clear"
"2001-09-11 15:00","2001","09","11","15:00","23.5","","10.7","","44","","31","","20","","24.1","","101.07","","25","","","","Mainly Clear"
"2001-09-11 16:00","2001","09","11","16:00","23.5","","10.3","","43","","27","","11","","24.1","","101.05","","25","","","","Mainly Clear"
"2001-09-11 17:00","2001","09","11","17:00","22.9","","13.0","","54","","22","","19","","24.1","","101.03","","26","","","","Mainly Clear"
"2001-09-11 18:00","2001","09","11","18:00","21.0","","14.6","","67","","21","","19","","24.1","","101.03","","25","","","","Clear"
"2001-09-11 19:00","2001","09","11","19:00","19.4","","14.6","","74","","22","","19","","24.1","","101.04","","","","","","Clear"
"2001-09-11 20:00","2001","09","11","20:00","18.1","","14.7","","81","","22","","9","","24.1","","101.09","","","","","","Clear"
"2001-09-11 21:00","2001","09","11","21:00","18.3","","14.8","","80","","25","","9","","24.1","","101.12","","","","","","Clear"
"2001-09-11 22:00","2001","09","11","22:00"
"2001-09-11 23:00","2001","09","11","23:00"
"2001-09-12 00:00","2001","09","12","00:00"
"2001-09-12 01:00","2001","09","12","01:00"
"2001-09-12 02:00","2001","09","12","02:00"
"2001-09-12 03:00","2001","09","12","03:00"
"2001-09-12 04:00","2001","09","12","04:00"
"2001-09-12 05:00","2001","09","12","05:00","12.8","","12.3","","97","","20","","4","","24.1","","101.11","","","","","","Clear"
"2001-09-12 06:00","2001","09","12","06:00","12.1","","11.6","","97","","20","","4","","24.1","","101.12","","","","","","Clear"
"2001-09-12 07:00","2001","09","12","07:00","14.1","","13.0","","93","","18","","7","","24.1","","101.12","","","","","","Clear"
"2001-09-12 08:00","2001","09","12","08:00","18.4","","14.1","","76","","18","","13","","24.1","","101.12","","","","","","Clear"
"2001-09-12 09:00","2001","09","12","09:00","20.9","","13.5","","63","","21","","19","","24.1","","101.08","","","","","","Clear"
"2001-09-12 10:00","2001","09","12","10:00","22.8","","11.4","","49","","21","","19","","24.1","","101.02","","25","","","","Clear"
"2001-09-12 11:00","2001","09","12","11:00","24.1","","12.3","","48","","22","","19","","24.1","","100.91","","27","","","","Clear"
"2001-09-12 12:00","2001","09","12","12:00","24.6","","13.4","","50","","22","","19","","24.1","","100.84","","28","","","","Clear"
"2001-09-12 13:00","2001","09","12","13:00","25.2","","12.8","","46","","21","","19","","24.1","","100.76","","28","","","","Clear"
"2001-09-12 14:00","2001","09","12","14:00","25.7","","11.9","","42","","24","","19","","24.1","","100.69","","28","","","","Clear"
"2001-09-12 15:00","2001","09","12","15:00","26.1","","10.9","","39","","21","","19","","24.1","","100.68","","28","","","","Mainly Clear"
"2001-09-12 16:00","2001","09","12","16:00","26.5","","10.2","","36","","21","","19","","24.1","","100.60","","28","","","","Mainly Clear"
"2001-09-12 17:00","2001","09","12","17:00","25.9","","10.8","","39","","22","","19","","24.1","","100.56","","28","","","","Clear"
"2001-09-12 18:00","2001","09","12","18:00","24.6","","10.2","","40","","22","","28","","24.1","","100.53","","26","","","","Clear"
"2001-09-12 19:00","2001","09","12","19:00","22.4","","10.7","","47","","21","","19","","24.1","","100.47","","","","","","Clear"
"2001-09-12 20:00","2001","09","12","20:00","21.9","","13.0","","57","","22","","19","","24.1","","100.46","","25","","","","Mainly Clear"
"2001-09-12 21:00","2001","09","12","21:00","21.4","","13.7","","61","","23","","19","","24.1","","100.48","","25","","","","Mainly Clear"
"2001-09-12 22:00","2001","09","12","22:00"
"2001-09-12 23:00","2001","09","12","23:00"
"2001-09-13 00:00","2001","09","13","00:00"
"2001-09-13 01:00","2001","09","13","01:00"
"2001-09-13 02:00","2001","09","13","02:00"
"2001-09-13 03:00","2001","09","13","03:00"
"2001-09-13 04:00","2001","09","13","04:00"
"2001-09-13 05:00","2001","09","13","05:00","17.1","","14.5","","85","","30","","9","","24.1","","100.69","","","","","","Mostly Cloudy"
"2001-09-13 06:00","2001","09","13","06:00","16.3","","14.9","","91","","30","","11","","24.1","","100.76","","","","","","Mostly Cloudy"
"2001-09-13 07:00","2001","09","13","07:00","16.8","","15.0","","89","","31","","9","","24.1","","100.80","","","","","","Mostly Cloudy"
"2001-09-13 08:00","2001","09","13","08:00","17.5","","14.5","","83","","34","","19","","24.1","","100.84","","","","","","Mostly Cloudy"
"2001-09-13 09:00","2001","09","13","09:00","17.8","","14.2","","79","","33","","11","","24.1","","100.89","","","","","","Mostly Cloudy"
"2001-09-13 10:00","2001","09","13","10:00","17.7","","13.6","","77","","36","","19","","24.1","","100.93","","","","","","Mostly Cloudy"
"2001-09-13 11:00","2001","09","13","11:00","17.9","","11.4","","66","","2","","11","","24.1","","100.96","","","","","","Mainly Clear"
"2001-09-13 12:00","2001","09","13","12:00","19.1","","11.8","","63","","1","","19","","24.1","","100.96","","","","","","Mostly Cloudy"
"2001-09-13 13:00","2001","09","13","13:00","18.0","","10.7","","62","","1","","11","","24.1","","100.96","","","","","","Mainly Clear"
"2001-09-13 14:00","2001","09","13","14:00","18.9","","10.6","","59","","2","","19","","24.1","","100.95","","","","","","Mostly Cloudy"
"2001-09-13 15:00","2001","09","13","15:00","17.6","","9.4","","59","","2","","7","","24.1","","100.94","","","","","","Cloudy"
"2001-09-13 16:00","2001","09","13","16:00","17.0","","8.6","","58","","1","","22","","24.1","","100.91","","","","","","Cloudy"
"2001-09-13 17:00","2001","09","13","17:00","16.9","","9.0","","60","","36","","19","","24.1","","100.90","","","","","","Mostly Cloudy"
"2001-09-13 18:00","2001","09","13","18:00","16.1","","8.5","","61","","1","","22","","24.1","","100.98","","","","","","Mostly Cloudy"
"2001-09-13 19:00","2001","09","13","19:00","15.2","","9.1","","67","","1","","24","","24.1","","101.01","","","","","","Mostly Cloudy"
"2001-09-13 20:00","2001","09","13","20:00","14.8","","7.6","","62","","1","","19","","24.1","","101.10","","","","","","Mostly Cloudy"
"2001-09-13 21:00","2001","09","13","21:00","14.2","","8.2","","67","","2","","19","","24.1","","101.13","","","","","","Mostly Cloudy"
"2001-09-13 22:00","2001","09","13","22:00"
"2001-09-13 23:00","2001","09","13","23:00"
"2001-09-14 00:00","2001","09","14","00:00"
"2001-09-14 01:00","2001","09","14","01:00"
"2001-09-14 02:00","2001","09","14","02:00"
"2001-09-14 03:00","2001","09","14","03:00"
"2001-09-14 04:00","2001","09","14","04:00"
"2001-09-14 05:00","2001","09","14","05:00","12.4","","5.6","","63","","4","","15","","24.1","","101.36","","","","","","Mainly Clear"
"2001-09-14 06:00","2001","09","14","06:00","12.4","","5.4","","62","","2","","19","","24.1","","101.45","","","","","","Mainly Clear"
"2001-09-14 07:00","2001","09","14","07:00","13.1","","6.4","","64","","3","","19","","24.1","","101.53","","","","","","Mainly Clear"
"2001-09-14 08:00","2001","09","14","08:00","14.0","","7.2","","64","","2","","19","","24.1","","101.58","","","","","","Mainly Clear"
"2001-09-14 09:00","2001","09","14","09:00","14.2","","5.8","","57","","2","","26","","24.1","","101.62","","","","","","Mainly Clear"
"2001-09-14 10:00","2001","09","14","10:00","14.5","","4.4","","51","","2","","19","","24.1","","101.63","","","","","","Mainly Clear"
"2001-09-14 11:00","2001","09","14","11:00","15.3","","3.7","","46","","5","","22","","24.1","","101.61","","","","","","Mainly Clear"
"2001-09-14 12:00","2001","09","14","12:00","15.3","","4.9","","50","","5","","19","","24.1","","101.60","","","","","","Mainly Clear"
"2001-09-14 13:00","2001","09","14","13:00","15.0","","4.2","","48","","3","","19","","24.1","","101.56","","","","","","Clear"
"2001-09-14 14:00","2001","09","14","14:00","16.8","","3.9","","42","","36","","15","","24.1","","101.49","","","","","","Clear"
"2001-09-14 15:00","2001","09","14","15:00","16.8","","4.1","","43","","35","","6","","24.1","","101.46","","","","","","Clear"
"2001-09-14 16:00","2001","09","14","16:00","17.4","","3.8","","40","","36","","15","","24.1","","101.46","","","","","","Clear"
"2001-09-14 17:00","2001","09","14","17:00","16.6","","4.2","","44","","1","","7","","24.1","","101.44","","","","","","Clear"
"2001-09-14 18:00","2001","09","14","18:00","15.8","","4.6","","47","","3","","9","","24.1","","101.41","","","","","","Mainly Clear"
"2001-09-14 19:00","2001","09","14","19:00","14.2","","5.9","","57","","","","0","","24.1","","101.39","","","","","","Mainly Clear"
"2001-09-14 20:00","2001","09","14","20:00","16.0","","4.4","","46","","2","","11","","24.1","","101.38","","","","","","Mostly Cloudy"
"2001-09-14 21:00","2001","09","14","21:00","15.9","","5.6","","50","","2","","19","","24.1","","101.41","","","","","","Mostly Cloudy"
"2001-09-14 22:00","2001","09","14","22:00"
"2001-09-14 23:00","2001","09","14","23:00"
"2001-09-15 00:00","2001","09","15","00:00"
"2001-09-15 01:00","2001","09","15","01:00"
"2001-09-15 02:00","2001","09","15","02:00"
"2001-09-15 03:00","2001","09","15","03:00"
"2001-09-15 04:00","2001","09","15","04:00"
"2001-09-15 05:00","2001","09","15","05:00","11.7","","6.8","","72","","18","","4","","24.1","","101.36","","","","","","Mostly Cloudy"
"2001-09-15 06:00","2001","09","15","06:00","11.9","","7.4","","74","","28","","6","","24.1","","101.40","","","","","","Mostly Cloudy"
"2001-09-15 07:00","2001","09","15","07:00","12.8","","7.2","","69","","1","","9","","24.1","","101.43","","","","","","Mostly Cloudy"
"2001-09-15 08:00","2001","09","15","08:00","15.7","","5.0","","49","","1","","15","","24.1","","101.45","","","","","","Mostly Cloudy"
"2001-09-15 09:00","2001","09","15","09:00","16.1","","5.1","","48","","2","","15","","24.1","","101.45","","","","","","Mostly Cloudy"
"2001-09-15 10:00","2001","09","15","10:00","17.3","","4.7","","43","","36","","15","","24.1","","101.44","","","","","","Mainly Clear"
"2001-09-15 11:00","2001","09","15","11:00","17.7","","5.0","","43","","36","","13","","24.1","","101.39","","","","","","Mostly Cloudy"
"2001-09-15 12:00","2001","09","15","12:00","17.1","","5.1","","45","","35","","19","","24.1","","101.35","","","","","","Clear"
"2001-09-15 13:00","2001","09","15","13:00","18.0","","4.9","","42","","34","","19","","24.1","","101.30","","","","","","Clear"
"2001-09-15 14:00","2001","09","15","14:00","18.0","","3.2","","37","","34","","9","","24.1","","101.21","","","","","","Clear"
"2001-09-15 15:00","2001","09","15","15:00","18.9","","4.1","","38","","3","","11","","24.1","","101.09","","","","","","Clear"
"2001-09-15 16:00","2001","09","15","16:00","19.0","","4.4","","38","","6","","6","","24.1","","101.04","","","","","","Clear"
"2001-09-15 17:00","2001","09","15","17:00","19.1","","4.4","","38","","","","0","","24.1","","101.01","","","","","","Clear"
"2001-09-15 18:00","2001","09","15","18:00","18.7","","4.4","","39","","","","0","","24.1","","100.99","","","","","","Clear"
"2001-09-15 19:00","2001","09","15","19:00","15.9","","6.9","","55","","25","","19","","24.1","","100.98","","","","","","Mainly Clear"
"2001-09-15 20:00","2001","09","15","20:00","14.2","","7.7","","65","","23","","15","","24.1","","101.01","","","","","","Mainly Clear"
"2001-09-15 21:00","2001","09","15","21:00","14.5","","7.8","","64","","25","","11","","24.1","","101.01","","","","","","Mainly Clear"
"2001-09-15 22:00","2001","09","15","22:00"
"2001-09-15 23:00","2001","09","15","23:00"
"2001-09-16 00:00","2001","09","16","00:00"
"2001-09-16 01:00","2001","09","16","01:00"
"2001-09-16 02:00","2001","09","16","02:00"
"2001-09-16 03:00","2001","09","16","03:00"
"2001-09-16 04:00","2001","09","16","04:00"
"2001-09-16 05:00","2001","09","16","05:00","8.8","","7.9","","94","","22","","9","","24.1","","101.00","","","","","","Mainly Clear"
"2001-09-16 06:00","2001","09","16","06:00","8.7","","7.7","","93","","22","","9","","24.1","","101.03","","","","","","Mainly Clear"
"2001-09-16 07:00","2001","09","16","07:00","11.0","","9.3","","89","","23","","9","","24.1","","101.03","","","","","","Mainly Clear"
"2001-09-16 08:00","2001","09","16","08:00","14.8","","10.4","","75","","25","","9","","24.1","","101.03","","","","","","Mainly Clear"
"2001-09-16 09:00","2001","09","16","09:00","17.6","","9.6","","59","","22","","7","","24.1","","101.04","","","","","","Clear"
"2001-09-16 10:00","2001","09","16","10:00","18.6","","8.0","","50","","33","","13","","24.1","","101.03","","","","","","Mainly Clear"
"2001-09-16 11:00","2001","09","16","11:00","18.9","","8.9","","52","","34","","15","","24.1","","101.01","","","","","","Clear"
"2001-09-16 12:00","2001","09","16","12:00","19.8","","8.3","","47","","32","","19","","24.1","","100.95","","","","","","Clear"
"2001-09-16 13:00","2001","09","16","13:00","20.9","","7.8","","43","","33","","19","","24.1","","100.89","","","","","","Clear"
"2001-09-16 14:00","2001","09","16","14:00","21.6","","8.4","","43","","33","","13","","24.1","","100.83","","","","","","Clear"
"2001-09-16 15:00","2001","09","16","15:00","22.0","","7.8","","40","","32","","11","","24.1","","100.79","","","","","","Clear"
"2001-09-16 16:00","2001","09","16","16:00","22.3","","7.9","","40","","30","","9","","24.1","","100.75","","","","","","Clear"
"2001-09-16 17:00","2001","09","16","17:00","21.0","","9.2","","47","","21","","19","","24.1","","100.72","","","","","","Clear"
"2001-09-16 18:00","2001","09","16","18:00","19.0","","9.8","","55","","21","","19","","24.1","","100.73","","","","","","Clear"
"2001-09-16 19:00","2001","09","16","19:00","17.4","","9.9","","61","","21","","19","","24.1","","100.74","","","","","","Clear"
"2001-09-16 20:00","2001","09","16","20:00","16.2","","10.1","","67","","23","","15","","24.1","","100.78","","","","","","Clear"
"2001-09-16 21:00","2001","09","16","21:00","16.4","","9.9","","65","","23","","15","","24.1","","100.78","","","","","","Clear"
"2001-09-16 22:00","2001","09","16","22:00"
"2001-09-16 23:00","2001","09","16","23:00"
"2001-09-17 00:00","2001","09","17","00:00"
"2001-09-17 01:00","2001","09","17","01:00"
"2001-09-17 02:00","2001","09","17","02:00"
"2001-09-17 03:00","2001","09","17","03:00"
"2001-09-17 04:00","2001","09","17","04:00"
"2001-09-17 05:00","2001","09","17","05:00","10.7","","10.1","","96","","22","","6","","24.1","","100.78","","","","","","Clear"
"2001-09-17 06:00","2001","09","17","06:00","10.7","","10.6","","99","","18","","9","","16.1","","100.83","","","","","","Clear"
"2001-09-17 07:00","2001","09","17","07:00","12.0","","11.3","","95","","15","","6","","19.3","","100.88","","","","","","Clear"
"2001-09-17 08:00","2001","09","17","08:00","16.5","","13.8","","84","","","","0","","19.3","","100.91","","","","","","Clear"
"2001-09-17 09:00","2001","09","17","09:00","18.2","","14.2","","77","","24","","4","","19.3","","100.90","","","","","","Clear"
"2001-09-17 10:00","2001","09","17","10:00","19.6","","12.7","","64","","28","","9","","24.1","","100.84","","","","","","Clear"
"2001-09-17 11:00","2001","09","17","11:00","21.5","","10.7","","50","","30","","9","","24.1","","100.79","","","","","","Mainly Clear"
"2001-09-17 12:00","2001","09","17","12:00","21.8","","11.7","","53","","33","","15","","24.1","","100.76","","","","","","Mainly Clear"
"2001-09-17 13:00","2001","09","17","13:00","21.2","","10.5","","50","","1","","20","","24.1","","100.69","","","","","","Mainly Clear"
"2001-09-17 14:00","2001","09","17","14:00","22.0","","11.0","","50","","35","","15","","24.1","","100.65","","","","","","Mainly Clear"
"2001-09-17 15:00","2001","09","17","15:00","22.3","","9.9","","45","","35","","9","","24.1","","100.62","","","","","","Mainly Clear"
"2001-09-17 16:00","2001","09","17","16:00","22.7","","10.1","","45","","1","","9","","24.1","","100.59","","","","","","Mainly Clear"
"2001-09-17 17:00","2001","09","17","17:00","22.3","","9.8","","45","","35","","11","","24.1","","100.57","","","","","","Mainly Clear"
"2001-09-17 18:00","2001","09","17","18:00","20.9","","10.2","","50","","28","","9","","24.1","","100.58","","","","","","Mostly Cloudy"
"2001-09-17 19:00","2001","09","17","19:00","18.5","","10.2","","58","","18","","9","","24.1","","100.56","","","","","","Mostly Cloudy"
"2001-09-17 20:00","2001","09","17","20:00","18.4","","7.8","","50","","19","","9","","24.1","","100.57","","","","","","Mostly Cloudy"
"2001-09-17 21:00","2001","09","17","21:00","16.9","","9.5","","62","","20","","9","","24.1","","100.59","","","","","","Mostly Cloudy"
"2001-09-17 22:00","2001","09","17","22:00"
"2001-09-17 23:00","2001","09","17","23:00"
"2001-09-18 00:00","2001","09","18","00:00"
"2001-09-18 01:00","2001","09","18","01:00"
"2001-09-18 02:00","2001","09","18","02:00"
"2001-09-18 03:00","2001","09","18","03:00"
"2001-09-18 04:00","2001","09","18","04:00"
"2001-09-18 05:00","2001","09","18","05:00","14.9","","11.5","","80","","","","0","","16.1","","100.54","","","","","","Cloudy"
"2001-09-18 06:00","2001","09","18","06:00","14.6","","11.5","","82","","","","0","","19.3","","100.57","","","","","","Cloudy"
"2001-09-18 07:00","2001","09","18","07:00","14.9","","12.2","","84","","","","0","","19.3","","100.58","","","","","","Cloudy"
"2001-09-18 08:00","2001","09","18","08:00","16.4","","13.3","","82","","","","0","","19.3","","100.63","","","","","","Mostly Cloudy"
"2001-09-18 09:00","2001","09","18","09:00","18.2","","13.3","","73","","","","0","","19.3","","100.62","","","","","","Mostly Cloudy"
"2001-09-18 10:00","2001","09","18","10:00","19.3","","12.6","","65","","8","","7","","19.3","","100.64","","","","","","Mostly Cloudy"
"2001-09-18 11:00","2001","09","18","11:00","21.1","","12.7","","59","","9","","15","","19.3","","100.57","","","","","","Mostly Cloudy"
"2001-09-18 12:00","2001","09","18","12:00","22.3","","11.9","","52","","3","","15","","19.3","","100.55","","25","","","","Mainly Clear"
"2001-09-18 13:00","2001","09","18","13:00","23.5","","14.6","","57","","4","","15","","24.1","","100.52","","27","","","","Mainly Clear"
"2001-09-18 14:00","2001","09","18","14:00","21.8","","14.2","","62","","3","","19","","24.1","","100.44","","25","","","","Mainly Clear"
"2001-09-18 15:00","2001","09","18","15:00","21.9","","14.3","","62","","3","","22","","24.1","","100.45","","25","","","","Clear"
"2001-09-18 16:00","2001","09","18","16:00","21.4","","14.7","","66","","6","","19","","19.3","","100.47","","25","","","","Mostly Cloudy"
"2001-09-18 17:00","2001","09","18","17:00","20.7","","13.9","","65","","4","","22","","19.3","","100.45","","","","","","Mainly Clear"
"2001-09-18 18:00","2001","09","18","18:00","19.8","","13.7","","68","","5","","15","","24.1","","100.49","","","","","","Mainly Clear"
"2001-09-18 19:00","2001","09","18","19:00","18.5","","14.1","","76","","6","","13","","24.1","","100.51","","","","","","Mainly Clear"
"2001-09-18 20:00","2001","09","18","20:00","17.5","","14.3","","81","","7","","15","","24.1","","100.54","","","","","","Mainly Clear"
"2001-09-18 21:00","2001","09","18","21:00","17.0","","13.6","","80","","9","","15","","24.1","","100.56","","","","","","Mainly Clear"
"2001-09-18 22:00","2001","09","18","22:00"
"2001-09-18 23:00","2001","09","18","23:00"
"2001-09-19 00:00","2001","09","19","00:00"
"2001-09-19 01:00","2001","09","19","01:00"
"2001-09-19 02:00","2001","09","19","02:00"
"2001-09-19 03:00","2001","09","19","03:00"
"2001-09-19 04:00","2001","09","19","04:00"
"2001-09-19 05:00","2001","09","19","05:00","16.3","","11.1","","71","","12","","9","","19.3","","100.38","","","","","","Mainly Clear"
"2001-09-19 06:00","2001","09","19","06:00","15.9","","11.3","","74","","14","","9","","19.3","","100.39","","","","","","Mainly Clear"
"2001-09-19 07:00","2001","09","19","07:00","17.0","","12.1","","73","","10","","9","","19.3","","100.37","","","","","","Mostly Cloudy"
"2001-09-19 08:00","2001","09","19","08:00","19.5","","13.1","","66","","9","","9","","19.3","","100.35","","","","","","Cloudy"
"2001-09-19 09:00","2001","09","19","09:00","21.5","","12.9","","58","","15","","11","","19.3","","100.33","","","","","","Cloudy"
"2001-09-19 10:00","2001","09","19","10:00","22.9","","13.0","","54","","16","","20","","19.3","","100.30","","26","","","","Cloudy"
"2001-09-19 11:00","2001","09","19","11:00","22.6","","12.6","","53","","16","","19","","19.3","","100.26","","25","","","","Cloudy"
"2001-09-19 12:00","2001","09","19","12:00","23.2","","13.3","","54","","19","","19","","12.9","","100.24","","26","","","","Cloudy"
"2001-09-19 13:00","2001","09","19","13:00","23.0","","13.9","","57","","18","","15","","12.9","","100.19","","26","","","","Rain Showers"
"2001-09-19 14:00","2001","09","19","14:00","22.1","","15.1","","65","","10","","11","","12.9","","100.09","","26","","","","Rain Showers"
"2001-09-19 15:00","2001","09","19","15:00","23.1","","14.4","","58","","12","","15","","16.1","","100.04","","27","","","","Rain Showers"
"2001-09-19 16:00","2001","09","19","16:00","23.2","","13.9","","56","","13","","15","","12.9","","99.99","","27","","","","Cloudy"
"2001-09-19 17:00","2001","09","19","17:00","22.4","","14.8","","62","","14","","15","","12.9","","99.97","","26","","","","Rain Showers"
"2001-09-19 18:00","2001","09","19","18:00","20.4","","15.8","","75","","14","","19","","11.3","","99.95","","25","","","","Rain Showers"
"2001-09-19 19:00","2001","09","19","19:00","19.6","","16.3","","81","","12","","20","","12.9","","99.86","","","","","","Rain Showers"
"2001-09-19 20:00","2001","09","19","20:00","19.6","","16.4","","82","","12","","19","","12.9","","99.81","","","","","","Rain Showers"
"2001-09-19 21:00","2001","09","19","21:00","19.9","","16.3","","80","","13","","22","","16.1","","99.79","","","","","","Rain Showers"
"2001-09-19 22:00","2001","09","19","22:00"
"2001-09-19 23:00","2001","09","19","23:00"
"2001-09-20 00:00","2001","09","20","00:00"
"2001-09-20 01:00","2001","09","20","01:00"
"2001-09-20 02:00","2001","09","20","02:00"
"2001-09-20 03:00","2001","09","20","03:00"
"2001-09-20 04:00","2001","09","20","04:00"
"2001-09-20 05:00","2001","09","20","05:00","19.2","","16.6","","85","","19","","28","","19.3","","99.74","","","","","","Cloudy"
"2001-09-20 06:00","2001","09","20","06:00","19.2","","17.1","","88","","19","","19","","12.9","","99.76","","","","","","Mostly Cloudy"
"2001-09-20 07:00","2001","09","20","07:00","19.7","","16.5","","82","","21","","19","","19.3","","99.81","","","","","","Mainly Clear"
"2001-09-20 08:00","2001","09","20","08:00","20.5","","15.5","","73","","22","","19","","24.1","","99.84","","25","","","","Mainly Clear"
"2001-09-20 09:00","2001","09","20","09:00","21.9","","15.5","","67","","21","","28","","24.1","","99.87","","26","","","","Mostly Cloudy"
"2001-09-20 10:00","2001","09","20","10:00","22.0","","15.3","","66","","21","","28","","24.1","","99.90","","26","","","","Mostly Cloudy"
"2001-09-20 11:00","2001","09","20","11:00","21.7","","14.5","","64","","22","","19","","24.1","","99.92","","25","","","","Mostly Cloudy"
"2001-09-20 12:00","2001","09","20","12:00","23.2","","14.2","","57","","22","","22","","24.1","","99.91","","27","","","","Mostly Cloudy"
"2001-09-20 13:00","2001","09","20","13:00","22.5","","14.5","","61","","21","","19","","24.1","","99.90","","26","","","","Mostly Cloudy"
"2001-09-20 14:00","2001","09","20","14:00","23.9","","14.3","","55","","22","","22","","24.1","","99.87","","27","","","","Mostly Cloudy"
"2001-09-20 15:00","2001","09","20","15:00","20.4","","13.3","","64","","23","","24","","24.1","","99.91","","","","","","Mostly Cloudy"
"2001-09-20 16:00","2001","09","20","16:00","21.9","","13.9","","60","","24","","22","","24.1","","99.89","","25","","","","Mainly Clear"
"2001-09-20 17:00","2001","09","20","17:00","21.1","","12.8","","59","","23","","22","","24.1","","99.93","","","","","","Mainly Clear"
"2001-09-20 18:00","2001","09","20","18:00","19.8","","12.6","","63","","22","","19","","24.1","","99.97","","","","","","Mainly Clear"
"2001-09-20 19:00","2001","09","20","19:00","18.9","","12.2","","65","","23","","19","","24.1","","100.00","","","","","","Mainly Clear"
"2001-09-20 20:00","2001","09","20","20:00","18.5","","11.9","","65","","23","","19","","24.1","","100.03","","","","","","Mostly Cloudy"
"2001-09-20 21:00","2001","09","20","21:00","18.7","","12.8","","69","","22","","11","","24.1","","100.02","","","","","","Cloudy"
"2001-09-20 22:00","2001","09","20","22:00"
"2001-09-20 23:00","2001","09","20","23:00"
"2001-09-21 00:00","2001","09","21","00:00"
"2001-09-21 01:00","2001","09","21","01:00"
"2001-09-21 02:00","2001","09","21","02:00"
"2001-09-21 03:00","2001","09","21","03:00"
"2001-09-21 04:00","2001","09","21","04:00"
"2001-09-21 05:00","2001","09","21","05:00","15.5","","11.9","","79","","22","","9","","24.1","","100.15","","","","","","Mainly Clear"
"2001-09-21 06:00","2001","09","21","06:00","14.1","","11.7","","85","","23","","9","","24.1","","100.18","","","","","","Mostly Cloudy"
"2001-09-21 07:00","2001","09","21","07:00","17.0","","13.2","","78","","22","","9","","24.1","","100.20","","","","","","Mostly Cloudy"
"2001-09-21 08:00","2001","09","21","08:00","19.9","","13.7","","67","","22","","19","","24.1","","100.17","","","","","","Mostly Cloudy"
"2001-09-21 09:00","2001","09","21","09:00","20.8","","13.8","","64","","23","","19","","24.1","","100.17","","","","","","Mostly Cloudy"
"2001-09-21 10:00","2001","09","21","10:00","22.4","","12.2","","52","","21","","19","","24.1","","100.16","","25","","","","Mostly Cloudy"
"2001-09-21 11:00","2001","09","21","11:00","21.5","","11.6","","53","","22","","22","","24.1","","100.14","","","","","","Cloudy"
"2001-09-21 12:00","2001","09","21","12:00","20.8","","14.1","","65","","23","","19","","19.3","","100.13","","","","","","Cloudy"
"2001-09-21 13:00","2001","09","21","13:00","21.0","","14.3","","66","","21","","19","","12.9","","100.09","","25","","","","Rain Showers"
"2001-09-21 14:00","2001","09","21","14:00","19.7","","14.4","","71","","21","","19","","16.1","","100.02","","","","","","Rain Showers"
"2001-09-21 15:00","2001","09","21","15:00","19.6","","15.9","","79","","22","","19","","12.9","","99.99","","","","","","Rain Showers"
"2001-09-21 16:00","2001","09","21","16:00","19.7","","16.6","","82","","16","","9","","12.9","","99.96","","","","","","Rain Showers"
"2001-09-21 17:00","2001","09","21","17:00","20.4","","15.4","","73","","18","","11","","16.1","","99.93","","25","","","","Cloudy"
"2001-09-21 18:00","2001","09","21","18:00","18.5","","16.8","","90","","24","","7","","6.4","","99.95","","","","","","Rain Showers,Fog"
"2001-09-21 19:00","2001","09","21","19:00","17.8","","16.8","","94","","15","","9","","9.7","","99.89","","","","","","Rain Showers,Fog"
"2001-09-21 20:00","2001","09","21","20:00","17.6","","16.1","","91","","15","","6","","19.3","","99.88","","","","","","Cloudy"
"2001-09-21 21:00","2001","09","21","21:00","17.4","","16.3","","93","","8","","9","","19.3","","99.83","","","","","","Thunderstorms"
"2001-09-21 22:00","2001","09","21","22:00"
"2001-09-21 23:00","2001","09","21","23:00"
"2001-09-22 00:00","2001","09","22","00:00"
"2001-09-22 01:00","2001","09","22","01:00"
"2001-09-22 02:00","2001","09","22","02:00"
"2001-09-22 03:00","2001","09","22","03:00"
"2001-09-22 04:00","2001","09","22","04:00"
"2001-09-22 05:00","2001","09","22","05:00","13.8","","13.6","","99","","25","","11","","4.8","","100.12","","","","","","Fog"
"2001-09-22 06:00","2001","09","22","06:00","14.1","","13.8","","98","","25","","15","","4.0","","100.18","","","","","","Fog"
"2001-09-22 07:00","2001","09","22","07:00","14.4","","14.0","","97","","24","","15","","4.8","","100.26","","","","","","Fog"
"2001-09-22 08:00","2001","09","22","08:00","15.2","","14.6","","96","","23","","13","","6.4","","100.31","","","","","","Fog"
"2001-09-22 09:00","2001","09","22","09:00","16.5","","15.1","","91","","25","","19","","8.0","","100.36","","","","","","Fog"
"2001-09-22 10:00","2001","09","22","10:00","17.6","","14.7","","83","","25","","15","","24.1","","100.39","","","","","","Mostly Cloudy"
"2001-09-22 11:00","2001","09","22","11:00","18.2","","14.3","","78","","28","","19","","24.1","","100.43","","","","","","Mostly Cloudy"
"2001-09-22 12:00","2001","09","22","12:00","17.9","","13.7","","76","","25","","15","","24.1","","100.45","","","","","","Mostly Cloudy"
"2001-09-22 13:00","2001","09","22","13:00","17.6","","14.5","","82","","26","","19","","24.1","","100.46","","","","","","Cloudy"
"2001-09-22 14:00","2001","09","22","14:00","18.1","","14.6","","80","","25","","19","","24.1","","100.45","","","","","","Cloudy"
"2001-09-22 15:00","2001","09","22","15:00","19.6","","13.2","","67","","25","","19","","24.1","","100.46","","","","","","Mostly Cloudy"
"2001-09-22 16:00","2001","09","22","16:00","20.5","","13.3","","63","","25","","15","","24.1","","100.45","","","","","","Mainly Clear"
"2001-09-22 17:00","2001","09","22","17:00","20.4","","14.1","","67","","23","","19","","24.1","","100.48","","","","","","Mainly Clear"
"2001-09-22 18:00","2001","09","22","18:00","18.7","","14.3","","76","","21","","15","","24.1","","100.51","","","","","","Mainly Clear"
"2001-09-22 19:00","2001","09","22","19:00","17.4","","14.5","","83","","21","","15","","24.1","","100.53","","","","","","Mainly Clear"
"2001-09-22 20:00","2001","09","22","20:00","17.0","","14.7","","86","","22","","19","","24.1","","100.57","","","","","","Mainly Clear"
"2001-09-22 21:00","2001","09","22","21:00","16.3","","14.5","","89","","24","","15","","24.1","","100.61","","","","","","Mainly Clear"
"2001-09-22 22:00","2001","09","22","22:00"
"2001-09-22 23:00","2001","09","22","23:00"
"2001-09-23 00:00","2001","09","23","00:00"
"2001-09-23 01:00","2001","09","23","01:00"
"2001-09-23 02:00","2001","09","23","02:00"
"2001-09-23 03:00","2001","09","23","03:00"
"2001-09-23 04:00","2001","09","23","04:00"
"2001-09-23 05:00","2001","09","23","05:00","10.0","","10.0","","100","","","","0","","6.4","","100.65","","","","","","Fog"
"2001-09-23 06:00","2001","09","23","06:00","11.4","","11.0","","97","","18","","9","","16.1","","100.69","","","","","","Mainly Clear"
"2001-09-23 07:00","2001","09","23","07:00","12.4","","12.0","","97","","18","","6","","12.9","","100.73","","","","","","Mostly Cloudy"
"2001-09-23 08:00","2001","09","23","08:00","16.4","","15.8","","96","","20","","13","","12.9","","100.75","","","","","","Mostly Cloudy"
"2001-09-23 09:00","2001","09","23","09:00","18.2","","16.4","","89","","21","","19","","12.9","","100.73","","","","","","Mostly Cloudy"
"2001-09-23 10:00","2001","09","23","10:00","20.4","","16.0","","76","","22","","9","","16.1","","100.68","","25","","","","Mostly Cloudy"
"2001-09-23 11:00","2001","09","23","11:00","20.6","","14.2","","67","","21","","19","","16.1","","100.67","","","","","","Mainly Clear"
"2001-09-23 12:00","2001","09","23","12:00","22.2","","13.9","","59","","18","","19","","19.3","","100.62","","26","","","","Mainly Clear"
"2001-09-23 13:00","2001","09","23","13:00","23.4","","11.8","","48","","22","","11","","19.3","","100.56","","26","","","","Mainly Clear"
"2001-09-23 14:00","2001","09","23","14:00","23.5","","10.6","","44","","22","","19","","19.3","","100.50","","25","","","","Mainly Clear"
"2001-09-23 15:00","2001","09","23","15:00","24.0","","10.6","","43","","23","","19","","24.1","","100.44","","26","","","","Mainly Clear"
"2001-09-23 16:00","2001","09","23","16:00","23.3","","10.2","","43","","20","","9","","24.1","","100.35","","25","","","","Mainly Clear"
"2001-09-23 17:00","2001","09","23","17:00","23.5","","10.1","","43","","19","","11","","24.1","","100.29","","25","","","","Mostly Cloudy"
"2001-09-23 18:00","2001","09","23","18:00","19.9","","15.4","","75","","6","","9","","24.1","","100.17","","","","","","Mostly Cloudy"
"2001-09-23 19:00","2001","09","23","19:00","18.1","","15.1","","83","","8","","9","","24.1","","100.13","","","","","","Mostly Cloudy"
"2001-09-23 20:00","2001","09","23","20:00","17.3","","14.4","","83","","11","","11","","24.1","","100.02","","","","","","Mostly Cloudy"
"2001-09-23 21:00","2001","09","23","21:00","18.5","","12.2","","67","","","","0","","24.1","","99.99","","","","","","Mostly Cloudy"
"2001-09-23 22:00","2001","09","23","22:00"
"2001-09-23 23:00","2001","09","23","23:00"
"2001-09-24 00:00","2001","09","24","00:00"
"2001-09-24 01:00","2001","09","24","01:00"
"2001-09-24 02:00","2001","09","24","02:00"
"2001-09-24 03:00","2001","09","24","03:00"
"2001-09-24 04:00","2001","09","24","04:00"
"2001-09-24 05:00","2001","09","24","05:00","18.6","","15.7","","83","","19","","15","","24.1","","99.67","","","","","","Cloudy"
"2001-09-24 06:00","2001","09","24","06:00","17.9","","15.6","","86","","20","","19","","24.1","","99.72","","","","","","Mostly Cloudy"
"2001-09-24 07:00","2001","09","24","07:00","18.5","","15.6","","83","","19","","9","","16.1","","99.76","","","","","","Cloudy"
"2001-09-24 08:00","2001","09","24","08:00","19.4","","15.9","","80","","20","","19","","16.1","","99.73","","","","","","Cloudy"
"2001-09-24 09:00","2001","09","24","09:00","18.3","","17.1","","93","","27","","13","","6.4","","99.78","","","","","","Rain Showers,Fog"
"2001-09-24 10:00","2001","09","24","10:00","17.8","","16.7","","93","","23","","11","","8.0","","99.83","","","","","","Rain Showers,Fog"
"2001-09-24 11:00","2001","09","24","11:00","18.0","","16.0","","88","","28","","7","","9.7","","99.75","","","","","","Rain Showers,Fog"
"2001-09-24 12:00","2001","09","24","12:00","17.4","","16.9","","97","","1","","7","","4.8","","99.71","","","","","","Rain Showers,Fog"
"2001-09-24 13:00","2001","09","24","13:00","16.8","","16.6","","99","","36","","9","","6.4","","99.69","","","","","","Rain Showers,Fog"
"2001-09-24 14:00","2001","09","24","14:00","17.1","","16.4","","96","","27","","13","","6.4","","99.69","","","","","","Rain Showers,Fog"
"2001-09-24 15:00","2001","09","24","15:00","16.6","","15.6","","94","","28","","9","","8.0","","99.67","","","","","","Rain Showers,Fog"
"2001-09-24 16:00","2001","09","24","16:00","16.3","","15.7","","96","","33","","9","","6.4","","99.67","","","","","","Rain Showers,Fog"
"2001-09-24 17:00","2001","09","24","17:00","13.9","","13.4","","97","","34","","19","","9.7","","99.70","","","","","","Rain Showers,Fog"
"2001-09-24 18:00","2001","09","24","18:00","13.3","","12.4","","94","","33","","19","","16.1","","99.73","","","","","","Rain Showers"
"2001-09-24 19:00","2001","09","24","19:00","12.6","","11.4","","92","","32","","19","","12.9","","99.78","","","","","","Rain Showers"
"2001-09-24 20:00","2001","09","24","20:00","12.1","","11.5","","96","","34","","15","","6.4","","99.77","","","","","","Rain Showers,Fog"
"2001-09-24 21:00","2001","09","24","21:00","11.5","","10.8","","95","","34","","15","","6.4","","99.77","","","","","","Rain Showers,Fog"
"2001-09-24 22:00","2001","09","24","22:00"
"2001-09-24 23:00","2001","09","24","23:00"
"2001-09-25 00:00","2001","09","25","00:00"
"2001-09-25 01:00","2001","09","25","01:00"
"2001-09-25 02:00","2001","09","25","02:00"
"2001-09-25 03:00","2001","09","25","03:00"
"2001-09-25 04:00","2001","09","25","04:00"
"2001-09-25 05:00","2001","09","25","05:00","9.9","","9.9","","100","","26","","19","","6.4","","99.67","","","","","","Rain Showers,Fog"
"2001-09-25 06:00","2001","09","25","06:00","9.5","","9.5","","100","","25","","19","","6.4","","99.68","","","","","","Rain Showers,Fog"
"2001-09-25 07:00","2001","09","25","07:00","9.4","","9.3","","99","","24","","9","","8.0","","99.72","","","","","","Rain Showers,Fog"
"2001-09-25 08:00","2001","09","25","08:00","9.6","","9.4","","99","","24","","9","","9.7","","99.72","","","","","","Rain Showers,Fog"
"2001-09-25 09:00","2001","09","25","09:00","9.7","","9.3","","97","","24","","9","","9.7","","99.75","","","","","","Rain Showers,Fog"
"2001-09-25 10:00","2001","09","25","10:00","10.9","","10.0","","94","","26","","15","","24.1","","99.74","","","","","","Mostly Cloudy"
"2001-09-25 11:00","2001","09","25","11:00","12.1","","10.1","","88","","30","","13","","24.1","","99.70","","","","","","Mostly Cloudy"
"2001-09-25 12:00","2001","09","25","12:00","12.5","","10.2","","86","","29","","11","","24.1","","99.69","","","","","","Mostly Cloudy"
"2001-09-25 13:00","2001","09","25","13:00","15.4","","10.2","","71","","21","","19","","24.1","","99.62","","","","","","Mostly Cloudy"
"2001-09-25 14:00","2001","09","25","14:00","15.7","","9.5","","67","","23","","22","","24.1","","99.55","","","","","","Mostly Cloudy"
"2001-09-25 15:00","2001","09","25","15:00","14.2","","8.5","","69","","23","","28","","24.1","","99.57","","","","","","Mostly Cloudy"
"2001-09-25 16:00","2001","09","25","16:00","11.6","","10.3","","92","","21","","19","","12.9","","99.60","","","","","","Rain Showers"
"2001-09-25 17:00","2001","09","25","17:00","11.3","","10.2","","93","","20","","22","","12.9","","99.59","","","","","","Rain Showers"
"2001-09-25 18:00","2001","09","25","18:00","11.6","","10.4","","92","","22","","22","","24.1","","99.62","","","","","","Cloudy"
"2001-09-25 19:00","2001","09","25","19:00","10.0","","7.9","","87","","25","","26","","24.1","","99.76","","","","","","Cloudy"
"2001-09-25 20:00","2001","09","25","20:00","9.3","","7.4","","88","","24","","22","","16.1","","99.81","","","","","","Rain Showers"
"2001-09-25 21:00","2001","09","25","21:00","8.8","","7.1","","89","","23","","15","","24.1","","99.84","","","","","","Mostly Cloudy"
"2001-09-25 22:00","2001","09","25","22:00"
"2001-09-25 23:00","2001","09","25","23:00"
"2001-09-26 00:00","2001","09","26","00:00"
"2001-09-26 01:00","2001","09","26","01:00"
"2001-09-26 02:00","2001","09","26","02:00"
"2001-09-26 03:00","2001","09","26","03:00"
"2001-09-26 04:00","2001","09","26","04:00"
"2001-09-26 05:00","2001","09","26","05:00","5.9","","4.2","","89","","23","","15","","24.1","","99.80","","","","","","Cloudy"
"2001-09-26 06:00","2001","09","26","06:00","5.4","","4.0","","91","","22","","9","","24.1","","99.78","","","","","","Cloudy"
"2001-09-26 07:00","2001","09","26","07:00","5.9","","3.9","","87","","20","","9","","24.1","","99.81","","","","","","Cloudy"
"2001-09-26 08:00","2001","09","26","08:00","6.8","","5.0","","88","","23","","9","","24.1","","99.82","","","","","","Rain Showers"
"2001-09-26 09:00","2001","09","26","09:00","7.9","","5.9","","87","","22","","15","","24.1","","99.81","","","","","","Cloudy"
"2001-09-26 10:00","2001","09","26","10:00","8.4","","4.4","","76","","21","","9","","24.1","","99.79","","","","","","Mostly Cloudy"
"2001-09-26 11:00","2001","09","26","11:00","9.7","","4.9","","72","","21","","19","","24.1","","99.76","","","","","","Mostly Cloudy"
"2001-09-26 12:00","2001","09","26","12:00","10.7","","5.5","","70","","23","","17","","24.1","","99.76","","","","","","Mostly Cloudy"
"2001-09-26 13:00","2001","09","26","13:00","10.7","","5.8","","72","","21","","19","","24.1","","99.73","","","","","","Mostly Cloudy"
"2001-09-26 14:00","2001","09","26","14:00","12.0","","6.2","","68","","22","","19","","24.1","","99.69","","","","","","Mostly Cloudy"
"2001-09-26 15:00","2001","09","26","15:00","12.7","","5.1","","60","","25","","19","","24.1","","99.69","","","","","","Mostly Cloudy"
"2001-09-26 16:00","2001","09","26","16:00","12.5","","4.9","","60","","24","","13","","24.1","","99.70","","","","","","Mostly Cloudy"
"2001-09-26 17:00","2001","09","26","17:00","12.4","","4.2","","57","","26","","15","","24.1","","99.74","","","","","","Mostly Cloudy"
"2001-09-26 18:00","2001","09","26","18:00","11.4","","5.2","","66","","24","","9","","24.1","","99.75","","","","","","Mostly Cloudy"
"2001-09-26 19:00","2001","09","26","19:00","10.1","","5.8","","75","","23","","7","","24.1","","99.79","","","","","","Mostly Cloudy"
"2001-09-26 20:00","2001","09","26","20:00","9.5","","5.8","","78","","22","","11","","24.1","","99.83","","","","","","Mostly Cloudy"
"2001-09-26 21:00","2001","09","26","21:00","8.4","","5.8","","84","","22","","9","","19.3","","99.84","","","","","","Mostly Cloudy"
"2001-09-26 22:00","2001","09","26","22:00"
"2001-09-26 23:00","2001","09","26","23:00"
"2001-09-27 00:00","2001","09","27","00:00"
"2001-09-27 01:00","2001","09","27","01:00"
"2001-09-27 02:00","2001","09","27","02:00"
"2001-09-27 03:00","2001","09","27","03:00"
"2001-09-27 04:00","2001","09","27","04:00"
"2001-09-27 05:00","2001","09","27","05:00","7.1","","6.6","","97","","22","","9","","24.1","","99.78","","","","","","Mostly Cloudy"
"2001-09-27 06:00","2001","09","27","06:00","8.2","","7.1","","93","","24","","9","","24.1","","99.80","","","","","","Mostly Cloudy"
"2001-09-27 07:00","2001","09","27","07:00","8.6","","7.4","","92","","26","","9","","24.1","","99.84","","","","","","Mostly Cloudy"
"2001-09-27 08:00","2001","09","27","08:00","8.7","","8.3","","97","","27","","4","","19.3","","99.90","","","","","","Rain Showers"
"2001-09-27 09:00","2001","09","27","09:00","9.6","","8.6","","93","","","","0","","24.1","","99.97","","","","","","Mostly Cloudy"
"2001-09-27 10:00","2001","09","27","10:00","10.3","","7.7","","84","","30","","11","","24.1","","100.02","","","","","","Mostly Cloudy"
"2001-09-27 11:00","2001","09","27","11:00","11.6","","8.0","","79","","31","","15","","24.1","","100.05","","","","","","Mostly Cloudy"
"2001-09-27 12:00","2001","09","27","12:00","11.8","","7.3","","74","","32","","19","","24.1","","100.07","","","","","","Mostly Cloudy"
"2001-09-27 13:00","2001","09","27","13:00","12.2","","7.5","","73","","34","","15","","24.1","","100.08","","","","","","Mostly Cloudy"
"2001-09-27 14:00","2001","09","27","14:00","11.8","","7.1","","73","","35","","15","","24.1","","100.09","","","","","","Rain Showers"
"2001-09-27 15:00","2001","09","27","15:00","11.3","","8.4","","82","","33","","7","","12.9","","100.12","","","","","","Rain Showers"
"2001-09-27 16:00","2001","09","27","16:00","11.6","","8.9","","83","","31","","4","","24.1","","100.14","","","","","","Cloudy"
"2001-09-27 17:00","2001","09","27","17:00","11.9","","8.9","","82","","30","","9","","24.1","","100.18","","","","","","Cloudy"
"2001-09-27 18:00","2001","09","27","18:00","11.0","","9.8","","92","","36","","6","","4.8","","100.23","","","","","","Rain Showers,Fog"
"2001-09-27 19:00","2001","09","27","19:00","10.4","","9.7","","95","","","","0","","24.1","","100.23","","","","","","Rain Showers"
"2001-09-27 20:00","2001","09","27","20:00","10.3","","9.9","","97","","23","","6","","24.1","","100.26","","","","","","Cloudy"
"2001-09-27 21:00","2001","09","27","21:00","11.6","","9.9","","89","","36","","11","","24.1","","100.28","","","","","","Cloudy"
"2001-09-27 22:00","2001","09","27","22:00"
"2001-09-27 23:00","2001","09","27","23:00"
"2001-09-28 00:00","2001","09","28","00:00"
"2001-09-28 01:00","2001","09","28","01:00"
"2001-09-28 02:00","2001","09","28","02:00"
"2001-09-28 03:00","2001","09","28","03:00"
"2001-09-28 04:00","2001","09","28","04:00"
"2001-09-28 05:00","2001","09","28","05:00","11.3","","9.5","","89","","3","","9","","19.3","","100.53","","","","","","Cloudy"
"2001-09-28 06:00","2001","09","28","06:00","10.8","","8.2","","84","","3","","9","","19.3","","100.59","","","","","","Mainly Clear"
"2001-09-28 07:00","2001","09","28","07:00","11.0","","8.6","","85","","3","","13","","24.1","","100.67","","","","","","Mainly Clear"
"2001-09-28 08:00","2001","09","28","08:00","12.8","","8.3","","74","","2","","19","","24.1","","100.69","","","","","","Mainly Clear"
"2001-09-28 09:00","2001","09","28","09:00","13.4","","9.8","","79","","2","","19","","24.1","","100.78","","","","","","Mostly Cloudy"
"2001-09-28 10:00","2001","09","28","10:00","13.5","","9.9","","79","","1","","19","","24.1","","100.82","","","","","","Mostly Cloudy"
"2001-09-28 11:00","2001","09","28","11:00","14.3","","9.2","","71","","2","","19","","24.1","","100.83","","","","","","Mainly Clear"
"2001-09-28 12:00","2001","09","28","12:00","15.7","","9.2","","65","","36","","19","","24.1","","100.85","","","","","","Mainly Clear"
"2001-09-28 13:00","2001","09","28","13:00","16.2","","8.3","","59","","35","","19","","24.1","","100.81","","","","","","Mainly Clear"
"2001-09-28 14:00","2001","09","28","14:00","15.0","","8.3","","64","","1","","9","","24.1","","100.81","","","","","","Mostly Cloudy"
"2001-09-28 15:00","2001","09","28","15:00","15.3","","9.0","","66","","35","","15","","24.1","","100.81","","","","","","Mostly Cloudy"
"2001-09-28 16:00","2001","09","28","16:00","13.5","","10.5","","82","","2","","13","","19.3","","100.84","","","","","","Rain Showers"
"2001-09-28 17:00","2001","09","28","17:00","13.0","","10.6","","85","","","","0","","24.1","","100.86","","","","","","Mostly Cloudy"
"2001-09-28 18:00","2001","09","28","18:00","12.8","","10.5","","86","","","","0","","24.1","","100.89","","","","","","Mainly Clear"
"2001-09-28 19:00","2001","09","28","19:00","12.3","","10.9","","91","","","","0","","24.1","","100.95","","","","","","Mainly Clear"
"2001-09-28 20:00","2001","09","28","20:00","12.0","","10.6","","91","","2","","9","","24.1","","101.01","","","","","","Mostly Cloudy"
"2001-09-28 21:00","2001","09","28","21:00","12.1","","9.7","","85","","3","","9","","24.1","","101.07","","","","","","Mainly Clear"
"2001-09-28 22:00","2001","09","28","22:00"
"2001-09-28 23:00","2001","09","28","23:00"
"2001-09-29 00:00","2001","09","29","00:00"
"2001-09-29 01:00","2001","09","29","01:00"
"2001-09-29 02:00","2001","09","29","02:00"
"2001-09-29 03:00","2001","09","29","03:00"
"2001-09-29 04:00","2001","09","29","04:00"
"2001-09-29 05:00","2001","09","29","05:00","6.0","","6.0","","100","","24","","4","","24.1","","101.21","","","","","","Clear"
"2001-09-29 06:00","2001","09","29","06:00","6.0","","6.0","","100","","","","0","","24.1","","101.25","","","","","","Clear"
"2001-09-29 07:00","2001","09","29","07:00","7.5","","7.4","","99","","","","0","","24.1","","101.32","","","","","","Clear"
"2001-09-29 08:00","2001","09","29","08:00","12.4","","11.0","","91","","2","","9","","24.1","","101.34","","","","","","Clear"
"2001-09-29 09:00","2001","09","29","09:00","13.9","","11.1","","83","","2","","19","","24.1","","101.38","","","","","","Clear"
"2001-09-29 10:00","2001","09","29","10:00","15.1","","9.9","","71","","6","","19","","24.1","","101.44","","","","","","Clear"
"2001-09-29 11:00","2001","09","29","11:00","15.4","","9.4","","67","","2","","19","","24.1","","101.46","","","","","","Clear"
"2001-09-29 12:00","2001","09","29","12:00","16.1","","8.5","","61","","2","","19","","24.1","","101.43","","","","","","Clear"
"2001-09-29 13:00","2001","09","29","13:00","16.4","","7.5","","56","","1","","22","","24.1","","101.40","","","","","","Clear"
"2001-09-29 14:00","2001","09","29","14:00","16.9","","6.3","","50","","2","","19","","24.1","","101.35","","","","","","Clear"
"2001-09-29 15:00","2001","09","29","15:00","17.5","","5.2","","44","","4","","9","","24.1","","101.33","","","","","","Clear"
"2001-09-29 16:00","2001","09","29","16:00","17.7","","5.7","","45","","7","","9","","24.1","","101.30","","","","","","Clear"
"2001-09-29 17:00","2001","09","29","17:00","17.3","","5.9","","47","","5","","15","","24.1","","101.32","","","","","","Clear"
"2001-09-29 18:00","2001","09","29","18:00","14.9","","6.8","","58","","7","","9","","24.1","","101.31","","","","","","Clear"
"2001-09-29 19:00","2001","09","29","19:00","13.2","","7.3","","67","","11","","7","","24.1","","101.37","","","","","","Clear"
"2001-09-29 20:00","2001","09","29","20:00","10.0","","7.3","","83","","","","0","","24.1","","101.43","","","","","","Clear"
"2001-09-29 21:00","2001","09","29","21:00","9.5","","7.0","","84","","","","0","","24.1","","101.43","","","","","","Clear"
"2001-09-29 22:00","2001","09","29","22:00"
"2001-09-29 23:00","2001","09","29","23:00"
"2001-09-30 00:00","2001","09","30","00:00"
"2001-09-30 01:00","2001","09","30","01:00"
"2001-09-30 02:00","2001","09","30","02:00"
"2001-09-30 03:00","2001","09","30","03:00"
"2001-09-30 04:00","2001","09","30","04:00"
"2001-09-30 05:00","2001","09","30","05:00","6.2","","6.2","","100","","","","0","","24.1","","101.41","","","","","","Clear"
"2001-09-30 06:00","2001","09","30","06:00","5.2","","5.1","","99","","","","0","","24.1","","101.46","","","","","","Clear"
"2001-09-30 07:00","2001","09","30","07:00","7.1","","6.8","","98","","","","0","","24.1","","101.51","","","","","","Clear"
"2001-09-30 08:00","2001","09","30","08:00","12.6","","10.7","","88","","","","0","","24.1","","101.51","","","","","","Clear"
"2001-09-30 09:00","2001","09","30","09:00","14.7","","9.1","","69","","3","","9","","24.1","","101.50","","","","","","Clear"
"2001-09-30 10:00","2001","09","30","10:00","15.5","","9.3","","67","","3","","13","","24.1","","101.48","","","","","","Clear"
"2001-09-30 11:00","2001","09","30","11:00","16.2","","8.6","","61","","6","","9","","24.1","","101.46","","","","","","Clear"
"2001-09-30 12:00","2001","09","30","12:00","16.4","","8.8","","61","","36","","19","","24.1","","101.39","","","","","","Clear"
"2001-09-30 13:00","2001","09","30","13:00","16.6","","9.1","","61","","35","","15","","24.1","","101.32","","","","","","Clear"
"2001-09-30 14:00","2001","09","30","14:00","16.5","","10.0","","65","","35","","15","","24.1","","101.26","","","","","","Clear"
"2001-09-30 15:00","2001","09","30","15:00","16.3","","8.9","","62","","2","","13","","24.1","","101.20","","","","","","Clear"
"2001-09-30 16:00","2001","09","30","16:00","16.2","","7.9","","58","","1","","9","","24.1","","101.13","","","","","","Clear"
"2001-09-30 17:00","2001","09","30","17:00","15.3","","8.3","","63","","36","","4","","24.1","","101.08","","","","","","Clear"
"2001-09-30 18:00","2001","09","30","18:00","13.2","","8.5","","73","","","","0","","24.1","","101.01","","","","","","Clear"
"2001-09-30 19:00","2001","09","30","19:00","11.0","","8.1","","82","","","","0","","24.1","","100.93","","","","","","Clear"
"2001-09-30 20:00","2001","09","30","20:00","9.3","","7.9","","91","","","","0","","24.1","","100.88","","","","","","Clear"
"2001-09-30 21:00","2001","09","30","21:00","8.4","","7.2","","92","","","","0","","24.1","","100.88","","","","","","Clear"
"2001-09-30 22:00","2001","09","30","22:00"
"2001-09-30 23:00","2001","09","30","23:00"
