"Station Name","ST. CATHARINES / NIAGARA DISTRICT A"
"Province","ONTARIO"
"Latitude","43.19"
"Longitude","-79.17"
"Elevation","97.80"
"Climate Identifier","6137286"
"WMO Identifier",""
"TC Identifier","YSN"
"All times are specified in Local Standard Time (LST). Add 1 hour to adjust for Daylight Saving Time where and when it is observed."

"Legend"
"E","Estimated"
"M","Missing"
"NA","Not Available"

"Date/Time","Year","Month","Day","Time","Temp (°C)","Temp Flag","Dew Point Temp (°C)","Dew Point Temp Flag","Rel Hum (%)","Rel Hum Flag","Wind Dir (10s deg)","Wind Dir Flag","Wind Spd (km/h)","Wind Spd Flag","Visibility (km)","Visibility Flag","Stn Press (kPa)","Stn Press Flag","Hmdx","Hmdx Flag","Wind Chill","Wind Chill Flag","Weather"
"2017-03-01 00:00","2017","03","01","00:00"
"2017-03-01 01:00","2017","03","01","01:00"
"2017-03-01 02:00","2017","03","01","02:00"
"2017-03-01 03:00","2017","03","01","03:00"
"2017-03-01 04:00","2017","03","01","04:00"
"2017-03-01 05:00","2017","03","01","05:00"
"2017-03-01 06:00","2017","03","01","06:00"
"2017-03-01 07:00","2017","03","01","07:00","11.8","","9.9","","88","","22","","18","","9.7","","98.55","","","","","","Rain Showers,Fog"
"2017-03-01 08:00","2017","03","01","08:00","11.8","","10.7","","93","","19","","27","","12.9","","98.31","","","","","","Rain Showers"
"2017-03-01 09:00","2017","03","01","09:00","11.3","","9.9","","91","","21","","42","","24.1","","98.21","","","","","","NA"
"2017-03-01 10:00","2017","03","01","10:00","11.1","","9.7","","91","","24","","31","","24.1","","98.35","","","","","","Mostly Cloudy"
"2017-03-01 11:00","2017","03","01","11:00","11.6","","9.7","","88","","23","","25","","24.1","","98.23","","","","","","NA"
"2017-03-01 12:00","2017","03","01","12:00","13.0","","9.5","","79","","23","","27","","24.1","","98.22","","","","","","NA"
"2017-03-01 13:00","2017","03","01","13:00","13.1","","8.8","","75","","24","","32","","24.1","","98.21","","","","","","Cloudy"
"2017-03-01 14:00","2017","03","01","14:00","14.0","","9.7","","75","","23","","31","","24.1","","98.12","","","","","","NA"
"2017-03-01 15:00","2017","03","01","15:00","14.4","","9.5","","72","","23","","38","","24.1","","98.04","","","","","","NA"
"2017-03-01 16:00","2017","03","01","16:00","13.2","","8.9","","75","","23","","40","","24.1","","97.99","","","","","","Cloudy"
"2017-03-01 17:00","2017","03","01","17:00","13.0","","8.7","","75","","23","","44","","24.1","","97.96","","","","","","NA"
"2017-03-01 18:00","2017","03","01","18:00","12.2","","7.7","","74","","24","","45","","24.1","","97.93","","","","","","NA"
"2017-03-01 19:00","2017","03","01","19:00","10.0","","6.4","","78","","23","","34","","24.1","","98.02","","","","","","Mainly Clear"
"2017-03-01 20:00","2017","03","01","20:00","9.5","","4.7","","72","","24","","41","","24.1","","98.17","","","","","","NA"
"2017-03-01 21:00","2017","03","01","21:00","7.5","","3.0","","73","","24","","30","","24.1","","98.33","","","","","","NA"
"2017-03-01 22:00","2017","03","01","22:00"
"2017-03-01 23:00","2017","03","01","23:00"
"2017-03-02 00:00","2017","03","02","00:00"
"2017-03-02 01:00","2017","03","02","01:00"
"2017-03-02 02:00","2017","03","02","02:00"
"2017-03-02 03:00","2017","03","02","03:00"
"2017-03-02 04:00","2017","03","02","04:00"
"2017-03-02 05:00","2017","03","02","05:00"
"2017-03-02 06:00","2017","03","02","06:00"
"2017-03-02 07:00","2017","03","02","07:00","-4.8","","-10.8","","63","","29","","33","","24.1","","100.04","","","","-13","","Cloudy"
"2017-03-02 08:00","2017","03","02","08:00","-4.4","","-10.0","","65","","28","","27","","24.1","","100.19","","","","-12","","NA"
"2017-03-02 09:00","2017","03","02","09:00","-4.0","","-9.8","","64","","29","","28","","24.1","","100.33","","","","-11","","NA"
"2017-03-02 10:00","2017","03","02","10:00","-3.0","","-9.7","","60","","30","","31","","24.1","","100.40","","","","-11","","Cloudy"
"2017-03-02 11:00","2017","03","02","11:00","-1.8","","-9.5","","56","","30","","30","","24.1","","100.49","","","","-9","","NA"
"2017-03-02 12:00","2017","03","02","12:00","-1.2","","-9.6","","53","","29","","28","","24.1","","100.56","","","","-8","","NA"
"2017-03-02 13:00","2017","03","02","13:00","-0.3","","-8.8","","53","","28","","29","","24.1","","100.59","","","","-7","","Mostly Cloudy"
"2017-03-02 14:00","2017","03","02","14:00","-1.2","","-9.9","","52","","29","","28","","24.1","","100.62","","","","-8","","NA"
"2017-03-02 15:00","2017","03","02","15:00","-1.2","","-9.4","","54","","28","","22","","24.1","","100.64","","","","-7","","NA"
"2017-03-02 16:00","2017","03","02","16:00","-1.1","","-8.6","","57","","28","","20","","24.1","","100.69","","","","-7","","Mostly Cloudy"
"2017-03-02 17:00","2017","03","02","17:00","-1.6","","-10.2","","52","","28","","29","","24.1","","100.73","","","","-8","","Snow Showers"
"2017-03-02 18:00","2017","03","02","18:00","-2.0","","-10.1","","54","","28","","24","","24.1","","100.84","","","","-8","","Snow Showers"
"2017-03-02 19:00","2017","03","02","19:00","-2.6","","-10.2","","56","","30","","28","","24.1","","100.94","","","","-10","","Mostly Cloudy"
"2017-03-02 20:00","2017","03","02","20:00","-3.1","","-10.9","","55","","29","","30","","24.1","","101.02","","","","-11","","NA"
"2017-03-02 21:00","2017","03","02","21:00","-3.7","","-11.3","","56","","30","","23","","24.1","","101.08","","","","-10","","NA"
"2017-03-02 22:00","2017","03","02","22:00"
"2017-03-02 23:00","2017","03","02","23:00"
"2017-03-03 00:00","2017","03","03","00:00"
"2017-03-03 01:00","2017","03","03","01:00"
"2017-03-03 02:00","2017","03","03","02:00"
"2017-03-03 03:00","2017","03","03","03:00"
"2017-03-03 04:00","2017","03","03","04:00"
"2017-03-03 05:00","2017","03","03","05:00"
"2017-03-03 06:00","2017","03","03","06:00"
"2017-03-03 07:00","2017","03","03","07:00","-4.5","","-9.9","","66","","25","","16","","24.1","","101.11","","","","-10","","Cloudy"
"2017-03-03 08:00","2017","03","03","08:00","-3.9","","-8.2","","72","","26","","22","","16.1","","101.16","","","","-10","","Snow Showers"
"2017-03-03 09:00","2017","03","03","09:00","-3.3","","-9.8","","61","","31","","27","","24.1","","101.22","","","","-10","","Snow Showers"
"2017-03-03 10:00","2017","03","03","10:00","-4.1","","-11.6","","56","","32","","32","","24.1","","101.33","","","","-12","","Snow Showers"
"2017-03-03 11:00","2017","03","03","11:00","-4.2","","-15.6","","41","","31","","37","","24.1","","101.47","","","","-13","","NA"
"2017-03-03 12:00","2017","03","03","12:00","-3.4","","-15.8","","38","","32","","32","","24.1","","101.57","","","","-11","","NA"
"2017-03-03 13:00","2017","03","03","13:00","-3.8","","-17.2","","35","","32","","35","","24.1","","101.63","","","","-12","","Mostly Cloudy"
"2017-03-03 14:00","2017","03","03","14:00","-4.8","","-16.2","","41","","31","","33","","24.1","","101.69","","","","-13","","NA"
"2017-03-03 15:00","2017","03","03","15:00","-5.2","","-17.5","","38","","29","","31","","24.1","","101.78","","","","-13","","NA"
"2017-03-03 16:00","2017","03","03","16:00","-4.3","","-16.3","","39","","31","","30","","24.1","","101.86","","","","-12","","Mostly Cloudy"
"2017-03-03 17:00","2017","03","03","17:00","-5.5","","-16.8","","41","","29","","29","","24.1","","101.94","","","","-14","","NA"
"2017-03-03 18:00","2017","03","03","18:00","-6.1","","-14.9","","50","","30","","21","","24.1","","102.01","","","","-13","","NA"
"2017-03-03 19:00","2017","03","03","19:00","-6.1","","-16.0","","46","","29","","26","","19.3","","102.06","","","","-14","","Mostly Cloudy"
"2017-03-03 20:00","2017","03","03","20:00","-6.1","","-15.7","","47","","30","","24","","12.9","","102.09","","","","-14","","Snow Showers"
"2017-03-03 21:00","2017","03","03","21:00","-6.5","","-15.6","","49","","31","","25","","24.1","","102.12","","","","-14","","NA"
"2017-03-03 22:00","2017","03","03","22:00"
"2017-03-03 23:00","2017","03","03","23:00"
"2017-03-04 00:00","2017","03","04","00:00"
"2017-03-04 01:00","2017","03","04","01:00"
"2017-03-04 02:00","2017","03","04","02:00"
"2017-03-04 03:00","2017","03","04","03:00"
"2017-03-04 04:00","2017","03","04","04:00"
"2017-03-04 05:00","2017","03","04","05:00"
"2017-03-04 06:00","2017","03","04","06:00"
"2017-03-04 07:00","2017","03","04","07:00","-8.3","","-14.4","","62","","1","","26","","24.1","","102.46","","","","-17","","Cloudy"
"2017-03-04 08:00","2017","03","04","08:00","-8.5","","-14.8","","61","","36","","21","","24.1","","102.58","","","","-16","","NA"
"2017-03-04 09:00","2017","03","04","09:00","-8.8","","-15.0","","61","","35","","25","","24.1","","102.70","","","","-17","","NA"
"2017-03-04 10:00","2017","03","04","10:00","-8.5","","-15.8","","56","","36","","25","","24.1","","102.80","","","","-17","","Mostly Cloudy"
"2017-03-04 11:00","2017","03","04","11:00","-8.4","","-17.6","","48","","35","","22","","24.1","","102.86","","","","-16","","NA"
"2017-03-04 12:00","2017","03","04","12:00","-8.6","","-17.5","","49","","1","","6","","24.1","","102.89","","","","-12","","NA"
"2017-03-04 13:00","2017","03","04","13:00","-7.4","","-16.9","","47","","33","","18","","24.1","","102.87","","","","-14","","Mainly Clear"
"2017-03-04 14:00","2017","03","04","14:00","-7.9","","-19.0","","41","","28","","13","","24.1","","102.83","","","","-14","","NA"
"2017-03-04 15:00","2017","03","04","15:00","-6.9","","-17.8","","42","","1","","8","","24.1","","102.80","","","","-11","","NA"
"2017-03-04 16:00","2017","03","04","16:00","-7.0","","-19.1","","38","","35","","8","","24.1","","102.79","","","","-11","","Mainly Clear"
"2017-03-04 17:00","2017","03","04","17:00","-7.4","","-18.6","","41","","2","","12","","24.1","","102.76","","","","-13","","NA"
"2017-03-04 18:00","2017","03","04","18:00","-8.9","","-18.3","","47","","8","","9","","24.1","","102.78","","","","-14","","NA"
"2017-03-04 19:00","2017","03","04","19:00","-9.3","","-17.9","","50","","15","","7","","24.1","","102.80","","","","-13","","Clear"
"2017-03-04 20:00","2017","03","04","20:00","-9.0","","-16.9","","53","","36","","2","","24.1","","102.80","","","","-10","","NA"
"2017-03-04 21:00","2017","03","04","21:00","-10.1","","-14.9","","68","","17","","8","","24.1","","102.80","","","","-15","","NA"
"2017-03-04 22:00","2017","03","04","22:00"
"2017-03-04 23:00","2017","03","04","23:00"
"2017-03-05 00:00","2017","03","05","00:00"
"2017-03-05 01:00","2017","03","05","01:00"
"2017-03-05 02:00","2017","03","05","02:00"
"2017-03-05 03:00","2017","03","05","03:00"
"2017-03-05 04:00","2017","03","05","04:00"
"2017-03-05 05:00","2017","03","05","05:00"
"2017-03-05 06:00","2017","03","05","06:00"
"2017-03-05 07:00","2017","03","05","07:00","-9.8","","-14.8","","67","","13","","11","","24.1","","102.81","","","","-15","","Clear"
"2017-03-05 08:00","2017","03","05","08:00","-7.7","","-14.4","","59","","11","","17","","24.1","","102.80","","","","-14","","NA"
"2017-03-05 09:00","2017","03","05","09:00","-6.8","","-14.0","","57","","12","","19","","24.1","","102.78","","","","-14","","NA"
"2017-03-05 10:00","2017","03","05","10:00","-5.5","","-14.4","","50","","12","","22","","24.1","","102.71","","","","-13","","Mainly Clear"
"2017-03-05 11:00","2017","03","05","11:00","-4.2","","-14.2","","46","","12","","20","","24.1","","102.61","","","","-11","","NA"
"2017-03-05 12:00","2017","03","05","12:00","-2.4","","-14.3","","40","","12","","17","","24.1","","102.54","","","","-8","","NA"
"2017-03-05 13:00","2017","03","05","13:00","-1.6","","-14.8","","36","","8","","18","","24.1","","102.42","","","","-7","","Mostly Cloudy"
"2017-03-05 14:00","2017","03","05","14:00","-0.9","","-14.6","","35","","8","","8","","24.1","","102.29","","","","-4","","NA"
"2017-03-05 15:00","2017","03","05","15:00","-0.4","","-14.8","","33","","9","","8","","24.1","","102.22","","","","-3","","NA"
"2017-03-05 16:00","2017","03","05","16:00","0.5","","-13.3","","35","","10","","10","","24.1","","102.14","","","","","","Mostly Cloudy"
"2017-03-05 17:00","2017","03","05","17:00","-0.1","","-11.9","","41","","7","","16","","24.1","","102.05","","","","-5","","NA"
"2017-03-05 18:00","2017","03","05","18:00","-1.8","","-11.2","","49","","7","","16","","24.1","","101.98","","","","-7","","NA"
"2017-03-05 19:00","2017","03","05","19:00","-2.8","","-10.9","","54","","8","","12","","24.1","","101.95","","","","-7","","Mainly Clear"
"2017-03-05 20:00","2017","03","05","20:00","-2.4","","-10.3","","55","","9","","16","","24.1","","101.83","","","","-8","","NA"
"2017-03-05 21:00","2017","03","05","21:00","-2.4","","-10.3","","55","","9","","13","","24.1","","101.76","","","","-7","","NA"
"2017-03-05 22:00","2017","03","05","22:00"
"2017-03-05 23:00","2017","03","05","23:00"
"2017-03-06 00:00","2017","03","06","00:00"
"2017-03-06 01:00","2017","03","06","01:00"
"2017-03-06 02:00","2017","03","06","02:00"
"2017-03-06 03:00","2017","03","06","03:00"
"2017-03-06 04:00","2017","03","06","04:00"
"2017-03-06 05:00","2017","03","06","05:00"
"2017-03-06 06:00","2017","03","06","06:00"
"2017-03-06 07:00","2017","03","06","07:00","0.7","","-6.2","","60","","4","","4","","19.3","","101.27","","","","","","Mostly Cloudy"
"2017-03-06 08:00","2017","03","06","08:00","1.6","","-6.0","","57","","33","","7","","24.1","","101.26","","","","","","NA"
"2017-03-06 09:00","2017","03","06","09:00","2.5","","-5.7","","55","","6","","4","","24.1","","101.24","","","","","","NA"
"2017-03-06 10:00","2017","03","06","10:00","3.9","","-5.9","","49","","11","","7","","24.1","","101.20","","","","","","Cloudy"
"2017-03-06 11:00","2017","03","06","11:00","6.1","","-4.7","","46","","34","","3","","24.1","","101.17","","","","","","NA"
"2017-03-06 12:00","2017","03","06","12:00","9.4","","-2.8","","42","","33","","8","","24.1","","101.09","","","","","","NA"
"2017-03-06 13:00","2017","03","06","13:00","6.4","","-3.0","","51","","36","","8","","24.1","","101.03","","","","","","Cloudy"
"2017-03-06 14:00","2017","03","06","14:00","6.3","","-2.6","","53","","1","","7","","24.1","","100.98","","","","","","NA"
"2017-03-06 15:00","2017","03","06","15:00","7.7","","-1.8","","51","","4","","7","","24.1","","100.93","","","","","","NA"
"2017-03-06 16:00","2017","03","06","16:00","8.1","","-0.1","","56","","35","","5","","24.1","","100.87","","","","","","Cloudy"
"2017-03-06 17:00","2017","03","06","17:00","7.1","","1.6","","68","","36","","3","","24.1","","100.83","","","","","","NA"
"2017-03-06 18:00","2017","03","06","18:00","10.7","","4.4","","65","","20","","13","","24.1","","100.81","","","","","","NA"
"2017-03-06 19:00","2017","03","06","19:00","11.5","","5.2","","65","","21","","30","","24.1","","100.79","","","","","","Cloudy"
"2017-03-06 20:00","2017","03","06","20:00","10.7","","6.7","","76","","20","","25","","24.1","","100.78","","","","","","NA"
"2017-03-06 21:00","2017","03","06","21:00","10.5","","6.9","","78","","19","","22","","24.1","","100.72","","","","","","NA"
"2017-03-06 22:00","2017","03","06","22:00"
"2017-03-06 23:00","2017","03","06","23:00"
"2017-03-07 00:00","2017","03","07","00:00"
"2017-03-07 01:00","2017","03","07","01:00"
"2017-03-07 02:00","2017","03","07","02:00"
"2017-03-07 03:00","2017","03","07","03:00"
"2017-03-07 04:00","2017","03","07","04:00"
"2017-03-07 05:00","2017","03","07","05:00"
"2017-03-07 06:00","2017","03","07","06:00"
"2017-03-07 07:00","2017","03","07","07:00","11.8","","9.7","","87","","18","","32","","19.3","","100.02","","","","","","Rain"
"2017-03-07 08:00","2017","03","07","08:00","11.7","","10.0","","89","","19","","36","","24.1","","100.04","","","","","","NA"
"2017-03-07 09:00","2017","03","07","09:00","11.9","","10.0","","88","","19","","34","","12.9","","100.07","","","","","","Rain"
"2017-03-07 10:00","2017","03","07","10:00","12.1","","10.4","","89","","19","","32","","12.9","","100.03","","","","","","Rain"
"2017-03-07 11:00","2017","03","07","11:00","12.3","","10.6","","89","","20","","45","","8.1","","99.93","","","","","","Rain,Fog"
"2017-03-07 12:00","2017","03","07","12:00","13.6","","10.4","","81","","20","","40","","19.3","","99.85","","","","","","Rain"
"2017-03-07 13:00","2017","03","07","13:00","14.3","","10.0","","75","","21","","45","","19.3","","99.82","","","","","","Rain"
"2017-03-07 14:00","2017","03","07","14:00","13.2","","10.8","","85","","20","","38","","12.9","","99.72","","","","","","Rain"
"2017-03-07 15:00","2017","03","07","15:00","13.6","","10.8","","83","","21","","37","","24.1","","99.73","","","","","","NA"
"2017-03-07 16:00","2017","03","07","16:00","13.3","","10.1","","81","","21","","34","","24.1","","99.71","","","","","","Cloudy"
"2017-03-07 17:00","2017","03","07","17:00","13.6","","10.4","","81","","22","","31","","4.8","","99.72","","","","","","Rain,Fog"
"2017-03-07 18:00","2017","03","07","18:00","11.6","","10.8","","95","","22","","21","","6.4","","99.77","","","","","","Rain,Fog"
"2017-03-07 19:00","2017","03","07","19:00","10.9","","8.8","","87","","22","","26","","19.3","","99.79","","","","","","Rain"
"2017-03-07 20:00","2017","03","07","20:00","8.9","","7.5","","91","","28","","18","","6.4","","99.87","","","","","","Rain,Fog"
"2017-03-07 21:00","2017","03","07","21:00","8.7","","6.3","","85","","24","","12","","24.1","","99.89","","","","","","Rain"
"2017-03-07 22:00","2017","03","07","22:00"
"2017-03-07 23:00","2017","03","07","23:00"
"2017-03-08 00:00","2017","03","08","00:00"
"2017-03-08 01:00","2017","03","08","01:00"
"2017-03-08 02:00","2017","03","08","02:00"
"2017-03-08 03:00","2017","03","08","03:00"
"2017-03-08 04:00","2017","03","08","04:00"
"2017-03-08 05:00","2017","03","08","05:00"
"2017-03-08 06:00","2017","03","08","06:00"
"2017-03-08 07:00","2017","03","08","07:00","4.3","","-1.7","","65","","21","","31","","24.1","","100.00","","","","","","Mainly Clear"
"2017-03-08 08:00","2017","03","08","08:00","6.5","","-1.9","","55","","21","","40","","24.1","","99.92","","","","","","NA"
"2017-03-08 09:00","2017","03","08","09:00","7.3","","-0.9","","56","","23","","44","","24.1","","99.86","","","","","","NA"
"2017-03-08 10:00","2017","03","08","10:00","8.3","","-0.2","","55","","23","","39","","24.1","","99.76","","","","","","Mainly Clear"
"2017-03-08 11:00","2017","03","08","11:00","8.8","","-1.6","","48","","23","","54","","24.1","","99.70","","","","","","NA"
"2017-03-08 12:00","2017","03","08","12:00","9.8","","-3.1","","40","","23","","52","","24.1","","99.60","","","","","","NA"
"2017-03-08 13:00","2017","03","08","13:00","10.4","","-3.6","","37","","24","","58","","24.1","","99.55","","","","","","Mainly Clear"
"2017-03-08 14:00","2017","03","08","14:00","10.5","","-4.3","","35","","24","","73","","24.1","","99.48","","","","","","NA"
"2017-03-08 15:00","2017","03","08","15:00","10.2","","-3.5","","38","","23","","72","","24.1","","99.41","","","","","","NA"
"2017-03-08 16:00","2017","03","08","16:00","10.8","","-4.0","","35","","24","","50","","24.1","","99.40","","","","","","Mostly Cloudy"
"2017-03-08 17:00","2017","03","08","17:00","9.2","","-4.4","","38","","23","","50","","24.1","","99.42","","","","","","NA"
"2017-03-08 18:00","2017","03","08","18:00","7.3","","-4.8","","42","","29","","32","","24.1","","99.60","","","","","","NA"
"2017-03-08 19:00","2017","03","08","19:00","6.5","","-4.3","","46","","27","","25","","24.1","","99.72","","","","","","Mostly Cloudy"
"2017-03-08 20:00","2017","03","08","20:00","6.8","","-6.9","","37","","26","","23","","24.1","","99.77","","","","","","NA"
"2017-03-08 21:00","2017","03","08","21:00","6.3","","-7.4","","37","","26","","39","","24.1","","99.84","","","","","","NA"
"2017-03-08 22:00","2017","03","08","22:00"
"2017-03-08 23:00","2017","03","08","23:00"
"2017-03-09 00:00","2017","03","09","00:00"
"2017-03-09 01:00","2017","03","09","01:00"
"2017-03-09 02:00","2017","03","09","02:00"
"2017-03-09 03:00","2017","03","09","03:00"
"2017-03-09 04:00","2017","03","09","04:00"
"2017-03-09 05:00","2017","03","09","05:00"
"2017-03-09 06:00","2017","03","09","06:00"
"2017-03-09 07:00","2017","03","09","07:00","0.6","","-8.4","","51","","27","","27","","24.1","","100.59","","","","","","Mostly Cloudy"
"2017-03-09 08:00","2017","03","09","08:00","0.7","","-8.6","","50","","29","","34","","24.1","","100.70","","","","","","NA"
"2017-03-09 09:00","2017","03","09","09:00","0.8","","-8.8","","49","","28","","29","","24.1","","100.76","","","","","","NA"
"2017-03-09 10:00","2017","03","09","10:00","1.0","","-8.3","","50","","29","","25","","24.1","","100.77","","","","","","Mostly Cloudy"
"2017-03-09 11:00","2017","03","09","11:00","2.8","","-7.7","","46","","28","","22","","24.1","","100.78","","","","","","NA"
"2017-03-09 12:00","2017","03","09","12:00","3.1","","-6.6","","49","","30","","22","","24.1","","100.75","","","","","","NA"
"2017-03-09 13:00","2017","03","09","13:00","3.1","","-7.7","","45","","28","","26","","24.1","","100.72","","","","","","Cloudy"
"2017-03-09 14:00","2017","03","09","14:00","4.2","","-7.3","","43","","27","","19","","24.1","","100.64","","","","","","NA"
"2017-03-09 15:00","2017","03","09","15:00","3.4","","-6.6","","48","","30","","17","","24.1","","100.67","","","","","","NA"
"2017-03-09 16:00","2017","03","09","16:00","3.6","","-7.0","","46","","29","","19","","24.1","","100.65","","","","","","Cloudy"
"2017-03-09 17:00","2017","03","09","17:00","3.2","","-7.6","","45","","29","","18","","24.1","","100.64","","","","","","NA"
"2017-03-09 18:00","2017","03","09","18:00","2.7","","-8.7","","43","","28","","21","","24.1","","100.66","","","","","","NA"
"2017-03-09 19:00","2017","03","09","19:00","2.1","","-8.1","","47","","27","","14","","24.1","","100.69","","","","","","Cloudy"
"2017-03-09 20:00","2017","03","09","20:00","1.6","","-6.7","","54","","28","","14","","24.1","","100.77","","","","","","NA"
"2017-03-09 21:00","2017","03","09","21:00","1.2","","-6.9","","55","","30","","11","","24.1","","100.71","","","","","","NA"
"2017-03-09 22:00","2017","03","09","22:00"
"2017-03-09 23:00","2017","03","09","23:00"
"2017-03-10 00:00","2017","03","10","00:00"
"2017-03-10 01:00","2017","03","10","01:00"
"2017-03-10 02:00","2017","03","10","02:00"
"2017-03-10 03:00","2017","03","10","03:00"
"2017-03-10 04:00","2017","03","10","04:00"
"2017-03-10 05:00","2017","03","10","05:00"
"2017-03-10 06:00","2017","03","10","06:00"
"2017-03-10 07:00","2017","03","10","07:00","-2.0","","-8.6","","61","","32","","21","","24.1","","100.52","","","","-8","","Mostly Cloudy"
"2017-03-10 08:00","2017","03","10","08:00","-2.5","","-9.9","","57","","34","","29","","24.1","","100.55","","","","-10","","NA"
"2017-03-10 09:00","2017","03","10","09:00","-2.4","","-11.5","","50","","32","","29","","24.1","","100.58","","","","-9","","NA"
"2017-03-10 10:00","2017","03","10","10:00","-3.2","","-9.5","","62","","35","","25","","19.3","","100.61","","","","-10","","Snow"
"2017-03-10 11:00","2017","03","10","11:00","-3.7","","-10.4","","60","","34","","27","","12.9","","100.64","","","","-11","","Snow"
"2017-03-10 12:00","2017","03","10","12:00","-2.3","","-9.5","","58","","33","","24","","16.1","","100.64","","","","-9","","NA"
"2017-03-10 13:00","2017","03","10","13:00","-3.8","","-11.4","","56","","32","","27","","9.7","","100.62","","","","-11","","Snow Showers"
"2017-03-10 14:00","2017","03","10","14:00","-3.2","","-13.5","","45","","31","","40","","16.1","","100.61","","","","-12","","NA"
"2017-03-10 15:00","2017","03","10","15:00","-4.3","","-15.4","","42","","31","","40","","24.1","","100.71","","","","-13","","NA"
"2017-03-10 16:00","2017","03","10","16:00","-5.8","","-16.0","","45","","30","","40","","24.1","","100.80","","","","-15","","Mostly Cloudy"
"2017-03-10 17:00","2017","03","10","17:00","-6.7","","-14.8","","53","","31","","31","","24.1","","100.91","","","","-15","","NA"
"2017-03-10 18:00","2017","03","10","18:00","-7.8","","-16.8","","49","","30","","43","","24.1","","100.95","","","","-18","","NA"
"2017-03-10 19:00","2017","03","10","19:00","-7.9","","-17.6","","46","","30","","30","","24.1","","101.02","","","","-17","","Mostly Cloudy"
"2017-03-10 20:00","2017","03","10","20:00","-8.1","","-16.6","","51","","31","","34","","24.1","","101.10","","","","-18","","NA"
"2017-03-10 21:00","2017","03","10","21:00","-8.4","","-15.3","","58","","32","","26","","24.1","","101.10","","","","-17","","NA"
"2017-03-10 22:00","2017","03","10","22:00"
"2017-03-10 23:00","2017","03","10","23:00"
"2017-03-11 00:00","2017","03","11","00:00"
"2017-03-11 01:00","2017","03","11","01:00"
"2017-03-11 02:00","2017","03","11","02:00"
"2017-03-11 03:00","2017","03","11","03:00"
"2017-03-11 04:00","2017","03","11","04:00"
"2017-03-11 05:00","2017","03","11","05:00"
"2017-03-11 06:00","2017","03","11","06:00"
"2017-03-11 07:00","2017","03","11","07:00","-9.2","","-11.9","","81","","32","","14","","3.2","","101.20","","","","-16","","Snow Showers"
"2017-03-11 08:00","2017","03","11","08:00","-8.9","","-15.1","","61","","30","","26","","9.7","","101.25","","","","-18","","Snow Showers"
"2017-03-11 09:00","2017","03","11","09:00","-8.6","","-15.7","","57","","31","","27","","24.1","","101.30","","","","-17","","NA"
"2017-03-11 10:00","2017","03","11","10:00","-8.2","","-15.3","","57","","31","","20","","24.1","","101.33","","","","-16","","Cloudy"
"2017-03-11 11:00","2017","03","11","11:00","-8.0","","-16.2","","52","","29","","30","","24.1","","101.34","","","","-17","","NA"
"2017-03-11 12:00","2017","03","11","12:00","-7.1","","-15.4","","52","","29","","27","","24.1","","101.37","","","","-15","","NA"
"2017-03-11 13:00","2017","03","11","13:00","-6.2","","-14.8","","51","","28","","36","","24.1","","101.37","","","","-15","","Mostly Cloudy"
"2017-03-11 14:00","2017","03","11","14:00","-7.0","","-13.7","","59","","29","","27","","12.9","","101.34","","","","-15","","Snow Showers"
"2017-03-11 15:00","2017","03","11","15:00","-5.5","","-14.1","","51","","29","","30","","24.1","","101.33","","","","-14","","NA"
"2017-03-11 16:00","2017","03","11","16:00","-6.0","","-14.8","","50","","30","","34","","24.1","","101.33","","","","-15","","Mostly Cloudy"
"2017-03-11 17:00","2017","03","11","17:00","-6.0","","-13.4","","56","","30","","30","","24.1","","101.37","","","","-14","","NA"
"2017-03-11 18:00","2017","03","11","18:00","-6.5","","-12.4","","63","","29","","21","","16.1","","101.42","","","","-14","","NA"
"2017-03-11 19:00","2017","03","11","19:00","-6.4","","-13.8","","56","","30","","27","","24.1","","101.46","","","","-14","","Mostly Cloudy"
"2017-03-11 20:00","2017","03","11","20:00","-6.7","","-12.6","","63","","30","","25","","24.1","","101.53","","","","-15","","Snow"
"2017-03-11 21:00","2017","03","11","21:00","-6.6","","-12.7","","62","","32","","24","","24.1","","101.53","","","","-14","","Snow"
"2017-03-11 22:00","2017","03","11","22:00"
"2017-03-11 23:00","2017","03","11","23:00"
"2017-03-12 00:00","2017","03","12","00:00"
"2017-03-12 01:00","2017","03","12","01:00"
"2017-03-12 02:00","2017","03","12","02:00"
"2017-03-12 03:00","2017","03","12","03:00"
"2017-03-12 04:00","2017","03","12","04:00"
"2017-03-12 05:00","2017","03","12","05:00"
"2017-03-12 06:00","2017","03","12","06:00","-10.0","","-15.8","","63","","2","","13","","24.1","","101.72","","","","-16","","NA"
"2017-03-12 07:00","2017","03","12","07:00","-10.1","","-16.1","","62","","2","","15","","24.1","","101.76","","","","-17","","Mostly Cloudy"
"2017-03-12 08:00","2017","03","12","08:00","-9.2","","-15.8","","59","","35","","12","","24.1","","101.82","","","","-15","","NA"
"2017-03-12 09:00","2017","03","12","09:00","-8.9","","-16.2","","56","","36","","8","","24.1","","101.84","","","","-13","","NA"
"2017-03-12 10:00","2017","03","12","10:00","-7.9","","-15.0","","57","","32","","12","","24.1","","101.85","","","","-13","","Mostly Cloudy"
"2017-03-12 11:00","2017","03","12","11:00","-7.4","","-15.4","","53","","27","","14","","24.1","","101.84","","","","-13","","NA"
"2017-03-12 12:00","2017","03","12","12:00","-6.3","","-14.2","","54","","28","","16","","24.1","","101.87","","","","-12","","NA"
"2017-03-12 13:00","2017","03","12","13:00","-5.2","","-13.4","","53","","29","","12","","24.1","","101.83","","","","-10","","Mainly Clear"
"2017-03-12 14:00","2017","03","12","14:00","-4.3","","-12.8","","52","","28","","25","","24.1","","101.77","","","","-11","","NA"
"2017-03-12 15:00","2017","03","12","15:00","-4.1","","-14.4","","45","","30","","27","","24.1","","101.75","","","","-11","","NA"
"2017-03-12 16:00","2017","03","12","16:00","-4.6","","-14.6","","46","","30","","23","","24.1","","101.75","","","","-12","","Mostly Cloudy"
"2017-03-12 17:00","2017","03","12","17:00","-4.7","","-15.5","","43","","30","","20","","24.1","","101.78","","","","-11","","NA"
"2017-03-12 18:00","2017","03","12","18:00","-5.2","","-15.7","","44","","31","","24","","24.1","","101.85","","","","-12","","NA"
"2017-03-12 19:00","2017","03","12","19:00","-5.7","","-15.1","","48","","30","","20","","24.1","","101.91","","","","-12","","Mainly Clear"
"2017-03-12 20:00","2017","03","12","20:00","-5.8","","-15.4","","47","","29","","19","","24.1","","101.95","","","","-12","","NA"
"2017-03-12 21:00","2017","03","12","21:00"
"2017-03-12 22:00","2017","03","12","22:00"
"2017-03-12 23:00","2017","03","12","23:00"
"2017-03-13 00:00","2017","03","13","00:00"
"2017-03-13 01:00","2017","03","13","01:00"
"2017-03-13 02:00","2017","03","13","02:00"
"2017-03-13 03:00","2017","03","13","03:00"
"2017-03-13 04:00","2017","03","13","04:00"
"2017-03-13 05:00","2017","03","13","05:00"
"2017-03-13 06:00","2017","03","13","06:00","-7.8","","-14.1","","61","","11","","8","","24.1","","102.05","","","","-12","","NA"
"2017-03-13 07:00","2017","03","13","07:00","-7.8","","-14.1","","61","","11","","12","","24.1","","102.06","","","","-13","","Cloudy"
"2017-03-13 08:00","2017","03","13","08:00","-7.4","","-14.3","","58","","12","","10","","24.1","","102.05","","","","-12","","NA"
"2017-03-13 09:00","2017","03","13","09:00","-7.0","","-15.1","","53","","10","","13","","24.1","","101.97","","","","-13","","NA"
"2017-03-13 10:00","2017","03","13","10:00","-6.6","","-14.7","","53","","10","","18","","19.3","","101.88","","","","-13","","Cloudy"
"2017-03-13 11:00","2017","03","13","11:00","-6.9","","-12.8","","63","","12","","18","","8.1","","101.86","","","","-14","","Snow"
"2017-03-13 12:00","2017","03","13","12:00","-6.3","","-12.1","","64","","13","","16","","8.1","","101.81","","","","-12","","Snow"
"2017-03-13 13:00","2017","03","13","13:00","-6.2","","-10.1","","74","","12","","14","","4.8","","101.70","","","","-12","","Snow"
"2017-03-13 14:00","2017","03","13","14:00","-6.0","","-10.1","","73","","9","","17","","4.8","","101.60","","","","-12","","Snow"
"2017-03-13 15:00","2017","03","13","15:00","-6.1","","-9.0","","80","","8","","20","","3.2","","101.51","","","","-13","","Snow"
"2017-03-13 16:00","2017","03","13","16:00","-6.5","","-9.2","","81","","8","","19","","2.4","","101.48","","","","-13","","Snow"
"2017-03-13 17:00","2017","03","13","17:00","-6.5","","-8.5","","86","","7","","14","","2.4","","101.45","","","","-12","","Snow"
"2017-03-13 18:00","2017","03","13","18:00","-7.2","","-9.5","","84","","9","","21","","4.0","","101.44","","","","-15","","Snow"
"2017-03-13 19:00","2017","03","13","19:00","-7.5","","-9.6","","85","","8","","24","","2.4","","101.41","","","","-15","","Snow"
"2017-03-13 20:00","2017","03","13","20:00","-7.4","","-9.5","","85","","7","","22","","3.2","","101.38","","","","-15","","Snow"
"2017-03-13 21:00","2017","03","13","21:00"
"2017-03-13 22:00","2017","03","13","22:00"
"2017-03-13 23:00","2017","03","13","23:00"
"2017-03-14 00:00","2017","03","14","00:00"
"2017-03-14 01:00","2017","03","14","01:00"
"2017-03-14 02:00","2017","03","14","02:00"
"2017-03-14 03:00","2017","03","14","03:00"
"2017-03-14 04:00","2017","03","14","04:00"
"2017-03-14 05:00","2017","03","14","05:00"
"2017-03-14 06:00","2017","03","14","06:00","-6.9","","-8.9","","86","","3","","29","","1.2","","100.75","","","","-15","","Snow,Blowing Snow"
"2017-03-14 07:00","2017","03","14","07:00","-7.0","","-9.0","","86","","3","","26","","1.2","","100.69","","","","-15","","Snow,Blowing Snow"
"2017-03-14 08:00","2017","03","14","08:00","-7.2","","-9.3","","85","","3","","35","","1.2","","100.66","","","","-16","","Snow,Blowing Snow"
"2017-03-14 09:00","2017","03","14","09:00","-7.4","","-9.7","","84","","2","","28","","1.2","","100.60","","","","-16","","Snow,Blowing Snow"
"2017-03-14 10:00","2017","03","14","10:00","-7.4","","-9.7","","84","","2","","25","","1.2","","100.50","","","","-15","","Snow,Blowing Snow"
"2017-03-14 11:00","2017","03","14","11:00","-7.3","","-9.9","","82","","1","","30","","1.2","","100.47","","","","-16","","Snow,Blowing Snow"
"2017-03-14 12:00","2017","03","14","12:00","-7.2","","-9.8","","82","","36","","32","","1.2","","100.37","","","","-16","","Snow,Blowing Snow"
"2017-03-14 13:00","2017","03","14","13:00","-6.9","","-9.3","","83","","36","","33","","1.2","","100.27","","","","-16","","Snow,Blowing Snow"
"2017-03-14 14:00","2017","03","14","14:00","-7.1","","-9.2","","85","","35","","29","","0.6","","100.23","","","","-16","","Moderate Snow,Blowing Snow"
"2017-03-14 15:00","2017","03","14","15:00","-6.9","","-9.8","","80","","35","","31","","1.6","","100.20","","","","-16","","Snow,Blowing Snow"
"2017-03-14 16:00","2017","03","14","16:00","-7.0","","-9.6","","82","","35","","32","","1.6","","100.19","","","","-16","","Snow,Blowing Snow"
"2017-03-14 17:00","2017","03","14","17:00","-7.4","","-9.8","","83","","34","","35","","1.6","","100.16","","","","-17","","Snow,Blowing Snow"
"2017-03-14 18:00","2017","03","14","18:00","-7.4","","-10.0","","82","","35","","37","","1.6","","100.20","","","","-17","","Snow,Blowing Snow"
"2017-03-14 19:00","2017","03","14","19:00","-7.4","","-10.3","","80","","34","","30","","2.0","","100.21","","","","-16","","Snow,Blowing Snow"
"2017-03-14 20:00","2017","03","14","20:00","-7.7","","-10.3","","82","","34","","28","","1.6","","100.23","","","","-16","","Snow,Blowing Snow"
"2017-03-14 21:00","2017","03","14","21:00"
"2017-03-14 22:00","2017","03","14","22:00"
"2017-03-14 23:00","2017","03","14","23:00"
"2017-03-15 00:00","2017","03","15","00:00"
"2017-03-15 01:00","2017","03","15","01:00"
"2017-03-15 02:00","2017","03","15","02:00"
"2017-03-15 03:00","2017","03","15","03:00"
"2017-03-15 04:00","2017","03","15","04:00"
"2017-03-15 05:00","2017","03","15","05:00"
"2017-03-15 06:00","2017","03","15","06:00","-7.9","","-10.5","","82","","33","","33","","1.6","","99.69","","","","-17","","Snow,Blowing Snow"
"2017-03-15 07:00","2017","03","15","07:00","-7.5","","-10.4","","80","","32","","41","","1.6","","99.67","","","","-18","","Snow,Blowing Snow"
"2017-03-15 08:00","2017","03","15","08:00","-7.3","","-10.2","","80","","32","","42","","3.2","","99.67","","","","-17","","Snow,Blowing Snow"
"2017-03-15 09:00","2017","03","15","09:00","-7.0","","-10.2","","78","","32","","39","","3.2","","99.69","","","","-17","","Snow,Blowing Snow"
"2017-03-15 10:00","2017","03","15","10:00","-6.3","","-11.1","","69","","33","","42","","24.1","","99.74","","","","-16","","Blowing Snow"
"2017-03-15 11:00","2017","03","15","11:00","-5.2","","-11.6","","61","","31","","39","","16.1","","99.76","","","","-14","","Blowing Snow"
"2017-03-15 12:00","2017","03","15","12:00","-4.2","","-12.0","","55","","31","","39","","24.1","","99.82","","","","-13","","Blowing Snow"
"2017-03-15 13:00","2017","03","15","13:00","-3.4","","-11.9","","52","","31","","40","","19.3","","99.86","","","","-12","","Cloudy"
"2017-03-15 14:00","2017","03","15","14:00","-3.3","","-12.8","","48","","31","","37","","24.1","","99.88","","","","-12","","NA"
"2017-03-15 15:00","2017","03","15","15:00","-2.9","","-12.2","","49","","30","","34","","24.1","","99.95","","","","-11","","NA"
"2017-03-15 16:00","2017","03","15","16:00","-3.0","","-12.3","","49","","31","","32","","24.1","","100.00","","","","-11","","Mostly Cloudy"
"2017-03-15 17:00","2017","03","15","17:00","-2.6","","-12.7","","46","","31","","41","","24.1","","100.09","","","","-11","","NA"
"2017-03-15 18:00","2017","03","15","18:00","-3.4","","-11.9","","52","","29","","40","","24.1","","100.20","","","","-12","","NA"
"2017-03-15 19:00","2017","03","15","19:00","-4.1","","-11.9","","55","","29","","37","","24.1","","100.31","","","","-13","","Mostly Cloudy"
"2017-03-15 20:00","2017","03","15","20:00","-3.9","","-11.5","","56","","29","","38","","24.1","","100.40","","","","-12","","Blowing Snow"
"2017-03-15 21:00","2017","03","15","21:00"
"2017-03-15 22:00","2017","03","15","22:00"
"2017-03-15 23:00","2017","03","15","23:00"
"2017-03-16 00:00","2017","03","16","00:00"
"2017-03-16 01:00","2017","03","16","01:00"
"2017-03-16 02:00","2017","03","16","02:00"
"2017-03-16 03:00","2017","03","16","03:00"
"2017-03-16 04:00","2017","03","16","04:00"
"2017-03-16 05:00","2017","03","16","05:00"
"2017-03-16 06:00","2017","03","16","06:00","-3.9","","-11.2","","57","","29","","25","","24.1","","100.62","","","","-11","","NA"
"2017-03-16 07:00","2017","03","16","07:00","-5.9","","-11.9","","63","","27","","17","","24.1","","100.69","","","","-12","","Mainly Clear"
"2017-03-16 08:00","2017","03","16","08:00","-3.5","","-11.3","","55","","30","","27","","24.1","","100.73","","","","-11","","NA"
"2017-03-16 09:00","2017","03","16","09:00","-3.1","","-10.5","","57","","31","","22","","24.1","","100.77","","","","-9","","NA"
"2017-03-16 10:00","2017","03","16","10:00","-2.9","","-11.0","","54","","30","","28","","24.1","","100.80","","","","-10","","Mainly Clear"
"2017-03-16 11:00","2017","03","16","11:00","-2.0","","-11.1","","50","","30","","25","","24.1","","100.83","","","","-8","","NA"
"2017-03-16 12:00","2017","03","16","12:00","-1.1","","-11.1","","47","","29","","27","","24.1","","100.81","","","","-8","","NA"
"2017-03-16 13:00","2017","03","16","13:00","-0.2","","-10.5","","46","","26","","29","","24.1","","100.82","","","","-7","","Clear"
"2017-03-16 14:00","2017","03","16","14:00","0.5","","-9.8","","46","","27","","32","","24.1","","100.79","","","","","","NA"
"2017-03-16 15:00","2017","03","16","15:00","1.3","","-9.1","","46","","29","","33","","24.1","","100.78","","","","","","NA"
"2017-03-16 16:00","2017","03","16","16:00","1.6","","-9.1","","45","","29","","37","","24.1","","100.76","","","","","","Mainly Clear"
"2017-03-16 17:00","2017","03","16","17:00","1.4","","-8.7","","47","","28","","31","","24.1","","100.82","","","","","","NA"
"2017-03-16 18:00","2017","03","16","18:00","0.6","","-9.5","","47","","28","","23","","24.1","","100.88","","","","","","NA"
"2017-03-16 19:00","2017","03","16","19:00","-0.2","","-9.2","","51","","29","","27","","24.1","","100.97","","","","-6","","Clear"
"2017-03-16 20:00","2017","03","16","20:00","-0.5","","-10.2","","48","","30","","21","","24.1","","101.04","","","","-6","","NA"
"2017-03-16 21:00","2017","03","16","21:00"
"2017-03-16 22:00","2017","03","16","22:00"
"2017-03-16 23:00","2017","03","16","23:00"
"2017-03-17 00:00","2017","03","17","00:00"
"2017-03-17 01:00","2017","03","17","01:00"
"2017-03-17 02:00","2017","03","17","02:00"
"2017-03-17 03:00","2017","03","17","03:00"
"2017-03-17 04:00","2017","03","17","04:00"
"2017-03-17 05:00","2017","03","17","05:00"
"2017-03-17 06:00","2017","03","17","06:00","-6.6","","-10.7","","73","","22","","13","","24.1","","101.29","","","","-12","","NA"
"2017-03-17 07:00","2017","03","17","07:00","-6.0","","-10.1","","73","","22","","15","","24.1","","101.32","","","","-12","","Clear"
"2017-03-17 08:00","2017","03","17","08:00","-3.3","","-8.6","","67","","22","","9","","24.1","","101.33","","","","-7","","NA"
"2017-03-17 09:00","2017","03","17","09:00","-0.5","","-7.6","","59","","22","","7","","24.1","","101.35","","","","-3","","NA"
"2017-03-17 10:00","2017","03","17","10:00","1.9","","-7.2","","51","","22","","4","","24.1","","101.36","","","","","","Mainly Clear"
"2017-03-17 11:00","2017","03","17","11:00","2.8","","-7.7","","46","","16","","3","","24.1","","101.31","","","","","","NA"
"2017-03-17 12:00","2017","03","17","12:00","3.8","","-8.3","","41","","19","","16","","24.1","","101.25","","","","","","NA"
"2017-03-17 13:00","2017","03","17","13:00","4.6","","-6.3","","45","","20","","19","","24.1","","101.18","","","","","","Mostly Cloudy"
"2017-03-17 14:00","2017","03","17","14:00","4.4","","-4.9","","51","","21","","16","","24.1","","101.09","","","","","","NA"
"2017-03-17 15:00","2017","03","17","15:00","5.2","","-6.7","","42","","23","","16","","24.1","","101.02","","","","","","NA"
"2017-03-17 16:00","2017","03","17","16:00","4.3","","-6.6","","45","","24","","14","","24.1","","100.97","","","","","","Cloudy"
"2017-03-17 17:00","2017","03","17","17:00","4.1","","-6.5","","46","","24","","10","","24.1","","100.92","","","","","","NA"
"2017-03-17 18:00","2017","03","17","18:00","3.5","","-6.8","","47","","36","","1","","24.1","","100.90","","","","","","NA"
"2017-03-17 19:00","2017","03","17","19:00","1.7","","-6.2","","56","","9","","7","","24.1","","100.89","","","","","","Cloudy"
"2017-03-17 20:00","2017","03","17","20:00","0.4","","-6.3","","61","","11","","10","","24.1","","100.90","","","","","","NA"
"2017-03-17 21:00","2017","03","17","21:00"
"2017-03-17 22:00","2017","03","17","22:00"
"2017-03-17 23:00","2017","03","17","23:00"
"2017-03-18 00:00","2017","03","18","00:00"
"2017-03-18 01:00","2017","03","18","01:00"
"2017-03-18 02:00","2017","03","18","02:00"
"2017-03-18 03:00","2017","03","18","03:00"
"2017-03-18 04:00","2017","03","18","04:00"
"2017-03-18 05:00","2017","03","18","05:00"
"2017-03-18 06:00","2017","03","18","06:00","0.2","","-5.6","","65","","9","","6","","16.1","","100.42","","","","","","Ice Pellet Showers"
"2017-03-18 07:00","2017","03","18","07:00","0.3","","-6.2","","62","","36","","3","","9.7","","100.46","","","","","","Snow"
"2017-03-18 08:00","2017","03","18","08:00","-0.6","","-3.3","","82","","9","","4","","1.6","","100.47","","","","-2","","Snow"
"2017-03-18 09:00","2017","03","18","09:00","-0.4","","-1.3","","94","","8","","7","","2.4","","100.47","","","","-3","","Snow"
"2017-03-18 10:00","2017","03","18","10:00","-0.1","","-0.8","","95","","7","","7","","2.4","","100.45","","","","-3","","Snow"
"2017-03-18 11:00","2017","03","18","11:00","0.5","","-0.4","","94","","5","","10","","4.0","","100.42","","","","","","Snow"
"2017-03-18 12:00","2017","03","18","12:00","1.6","","0.1","","90","","4","","10","","8.1","","100.42","","","","","","Fog"
"2017-03-18 13:00","2017","03","18","13:00","2.4","","0.3","","86","","5","","9","","9.7","","100.40","","","","","","Fog"
"2017-03-18 14:00","2017","03","18","14:00","2.2","","0.3","","87","","1","","11","","12.9","","100.40","","","","","","NA"
"2017-03-18 15:00","2017","03","18","15:00","1.6","","0.0","","89","","3","","14","","12.9","","100.43","","","","","","NA"
"2017-03-18 16:00","2017","03","18","16:00","1.6","","0.0","","89","","4","","12","","8.1","","100.45","","","","","","Fog"
"2017-03-18 17:00","2017","03","18","17:00","1.5","","0.3","","92","","4","","8","","8.1","","100.52","","","","","","Rain,Fog"
"2017-03-18 18:00","2017","03","18","18:00","1.5","","0.3","","92","","3","","8","","8.1","","100.61","","","","","","Rain,Fog"
"2017-03-18 19:00","2017","03","18","19:00","1.2","","0.2","","93","","6","","5","","8.1","","100.69","","","","","","Fog"
"2017-03-18 20:00","2017","03","18","20:00","1.0","","0.1","","94","","3","","4","","8.1","","100.74","","","","","","Fog"
"2017-03-18 21:00","2017","03","18","21:00"
"2017-03-18 22:00","2017","03","18","22:00"
"2017-03-18 23:00","2017","03","18","23:00"
"2017-03-19 00:00","2017","03","19","00:00"
"2017-03-19 01:00","2017","03","19","01:00"
"2017-03-19 02:00","2017","03","19","02:00"
"2017-03-19 03:00","2017","03","19","03:00"
"2017-03-19 04:00","2017","03","19","04:00"
"2017-03-19 05:00","2017","03","19","05:00"
"2017-03-19 06:00","2017","03","19","06:00","1.0","","-0.9","","87","","3","","14","","16.1","","101.31","","","","","","NA"
"2017-03-19 07:00","2017","03","19","07:00","1.0","","-1.4","","84","","3","","15","","24.1","","101.42","","","","","","Cloudy"
"2017-03-19 08:00","2017","03","19","08:00","1.3","","-1.4","","82","","4","","12","","24.1","","101.48","","","","","","NA"
"2017-03-19 09:00","2017","03","19","09:00","1.7","","-2.1","","76","","4","","16","","24.1","","101.54","","","","","","NA"
"2017-03-19 10:00","2017","03","19","10:00","2.4","","-1.6","","75","","4","","17","","24.1","","101.55","","","","","","Cloudy"
"2017-03-19 11:00","2017","03","19","11:00","2.7","","-1.8","","72","","6","","10","","24.1","","101.54","","","","","","NA"
"2017-03-19 12:00","2017","03","19","12:00","4.1","","-0.7","","71","","1","","12","","24.1","","101.53","","","","","","NA"
"2017-03-19 13:00","2017","03","19","13:00","3.4","","-1.9","","68","","36","","14","","24.1","","101.53","","","","","","Mostly Cloudy"
"2017-03-19 14:00","2017","03","19","14:00","4.5","","-0.9","","68","","32","","10","","24.1","","101.49","","","","","","NA"
"2017-03-19 15:00","2017","03","19","15:00","3.4","","-2.2","","67","","32","","4","","24.1","","101.46","","","","","","NA"
"2017-03-19 16:00","2017","03","19","16:00","4.5","","-1.9","","63","","25","","7","","24.1","","101.42","","","","","","Mainly Clear"
"2017-03-19 17:00","2017","03","19","17:00","4.9","","-2.4","","59","","25","","9","","24.1","","101.38","","","","","","NA"
"2017-03-19 18:00","2017","03","19","18:00","3.5","","-2.3","","66","","21","","10","","24.1","","101.39","","","","","","NA"
"2017-03-19 19:00","2017","03","19","19:00","1.5","","-2.5","","75","","19","","10","","24.1","","101.37","","","","","","Mainly Clear"
"2017-03-19 20:00","2017","03","19","20:00","0.5","","-2.1","","83","","20","","14","","24.1","","101.37","","","","","","NA"
"2017-03-19 21:00","2017","03","19","21:00"
"2017-03-19 22:00","2017","03","19","22:00"
"2017-03-19 23:00","2017","03","19","23:00"
"2017-03-20 00:00","2017","03","20","00:00"
"2017-03-20 01:00","2017","03","20","01:00"
"2017-03-20 02:00","2017","03","20","02:00"
"2017-03-20 03:00","2017","03","20","03:00"
"2017-03-20 04:00","2017","03","20","04:00"
"2017-03-20 05:00","2017","03","20","05:00"
"2017-03-20 06:00","2017","03","20","06:00","-0.4","","-1.1","","95","","19","","16","","8.1","","101.09","","","","-5","","Fog"
"2017-03-20 07:00","2017","03","20","07:00","0.4","","-0.3","","95","","19","","16","","6.4","","101.01","","","","","","Fog"
"2017-03-20 08:00","2017","03","20","08:00","0.8","","-0.5","","91","","20","","16","","12.9","","100.98","","","","","","NA"
"2017-03-20 09:00","2017","03","20","09:00","1.4","","-0.1","","90","","19","","10","","12.9","","101.02","","","","","","NA"
"2017-03-20 10:00","2017","03","20","10:00","2.5","","-0.3","","82","","21","","12","","16.1","","101.04","","","","","","Cloudy"
"2017-03-20 11:00","2017","03","20","11:00","3.3","","-0.3","","77","","19","","14","","24.1","","100.95","","","","","","NA"
"2017-03-20 12:00","2017","03","20","12:00","4.7","","-0.5","","69","","21","","20","","24.1","","100.92","","","","","","NA"
"2017-03-20 13:00","2017","03","20","13:00","5.1","","-0.3","","68","","22","","16","","19.3","","100.83","","","","","","Cloudy"
"2017-03-20 14:00","2017","03","20","14:00","4.8","","-0.2","","70","","19","","17","","19.3","","100.73","","","","","","NA"
"2017-03-20 15:00","2017","03","20","15:00","5.1","","-0.5","","67","","20","","19","","19.3","","100.64","","","","","","NA"
"2017-03-20 16:00","2017","03","20","16:00","5.2","","-0.4","","67","","20","","16","","19.3","","100.60","","","","","","Cloudy"
"2017-03-20 17:00","2017","03","20","17:00","4.9","","-0.1","","70","","21","","13","","19.3","","100.54","","","","","","NA"
"2017-03-20 18:00","2017","03","20","18:00","4.3","","-0.5","","71","","20","","13","","19.3","","100.53","","","","","","NA"
"2017-03-20 19:00","2017","03","20","19:00","3.9","","-0.3","","74","","20","","10","","16.1","","100.52","","","","","","Cloudy"
"2017-03-20 20:00","2017","03","20","20:00","3.9","","-0.1","","75","","23","","9","","16.1","","100.51","","","","","","NA"
"2017-03-20 21:00","2017","03","20","21:00"
"2017-03-20 22:00","2017","03","20","22:00"
"2017-03-20 23:00","2017","03","20","23:00"
"2017-03-21 00:00","2017","03","21","00:00"
"2017-03-21 01:00","2017","03","21","01:00"
"2017-03-21 02:00","2017","03","21","02:00"
"2017-03-21 03:00","2017","03","21","03:00"
"2017-03-21 04:00","2017","03","21","04:00"
"2017-03-21 05:00","2017","03","21","05:00"
"2017-03-21 06:00","2017","03","21","06:00","4.1","","1.5","","83","","26","","12","","24.1","","100.30","","","","","","NA"
"2017-03-21 07:00","2017","03","21","07:00","3.7","","1.4","","85","","29","","14","","24.1","","100.34","","","","","","Mainly Clear"
"2017-03-21 08:00","2017","03","21","08:00","5.5","","1.8","","77","","26","","12","","16.1","","100.31","","","","","","NA"
"2017-03-21 09:00","2017","03","21","09:00","6.7","","1.0","","67","","26","","16","","19.3","","100.35","","","","","","NA"
"2017-03-21 10:00","2017","03","21","10:00","8.4","","-0.1","","55","","25","","17","","24.1","","100.34","","","","","","Clear"
"2017-03-21 11:00","2017","03","21","11:00","10.1","","0.5","","51","","27","","21","","24.1","","100.31","","","","","","NA"
"2017-03-21 12:00","2017","03","21","12:00","10.9","","-4.7","","33","","26","","23","","24.1","","100.27","","","","","","NA"
"2017-03-21 13:00","2017","03","21","13:00","11.8","","-7.6","","25","","27","","21","","24.1","","100.20","","","","","","Mainly Clear"
"2017-03-21 14:00","2017","03","21","14:00","12.2","","-8.3","","23","","29","","27","","24.1","","100.10","","","","","","NA"
"2017-03-21 15:00","2017","03","21","15:00","12.5","","-6.5","","26","","28","","22","","24.1","","100.03","","","","","","NA"
"2017-03-21 16:00","2017","03","21","16:00","10.9","","-3.6","","36","","29","","32","","24.1","","100.02","","","","","","Mainly Clear"
"2017-03-21 17:00","2017","03","21","17:00","7.7","","-1.5","","52","","31","","36","","24.1","","100.10","","","","","","NA"
"2017-03-21 18:00","2017","03","21","18:00","5.2","","-1.7","","61","","31","","28","","24.1","","100.25","","","","","","NA"
"2017-03-21 19:00","2017","03","21","19:00","3.8","","-3.7","","58","","30","","27","","24.1","","100.37","","","","","","Mainly Clear"
"2017-03-21 20:00","2017","03","21","20:00","2.2","","-5.5","","57","","30","","33","","24.1","","100.47","","","","","","NA"
"2017-03-21 21:00","2017","03","21","21:00"
"2017-03-21 22:00","2017","03","21","22:00"
"2017-03-21 23:00","2017","03","21","23:00"
"2017-03-22 00:00","2017","03","22","00:00"
"2017-03-22 01:00","2017","03","22","01:00"
"2017-03-22 02:00","2017","03","22","02:00"
"2017-03-22 03:00","2017","03","22","03:00"
"2017-03-22 04:00","2017","03","22","04:00"
"2017-03-22 05:00","2017","03","22","05:00"
"2017-03-22 06:00","2017","03","22","06:00","-6.6","","-16.4","","46","","33","","30","","24.1","","101.65","","","","-15","","NA"
"2017-03-22 07:00","2017","03","22","07:00","-6.5","","-16.6","","45","","35","","25","","24.1","","101.80","","","","-14","","Clear"
"2017-03-22 08:00","2017","03","22","08:00","-6.0","","-17.3","","41","","34","","22","","24.1","","101.91","","","","-13","","NA"
"2017-03-22 09:00","2017","03","22","09:00","-5.5","","-16.2","","43","","34","","20","","24.1","","102.04","","","","-12","","NA"
"2017-03-22 10:00","2017","03","22","10:00","-5.5","","-18.7","","35","","33","","26","","24.1","","102.13","","","","-13","","Clear"
"2017-03-22 11:00","2017","03","22","11:00","-4.5","","-16.5","","39","","35","","23","","24.1","","102.16","","","","-11","","NA"
"2017-03-22 12:00","2017","03","22","12:00","-4.2","","-16.2","","39","","33","","17","","24.1","","102.18","","","","-10","","NA"
"2017-03-22 13:00","2017","03","22","13:00","-3.5","","-16.2","","37","","33","","22","","24.1","","102.20","","","","-10","","Clear"
"2017-03-22 14:00","2017","03","22","14:00","-2.4","","-13.7","","42","","31","","21","","24.1","","102.15","","","","-8","","NA"
"2017-03-22 15:00","2017","03","22","15:00","-2.3","","-15.1","","37","","32","","14","","24.1","","102.14","","","","-7","","NA"
"2017-03-22 16:00","2017","03","22","16:00","-1.9","","-14.5","","38","","29","","11","","24.1","","102.14","","","","-6","","Clear"
"2017-03-22 17:00","2017","03","22","17:00","-2.3","","-15.5","","36","","29","","13","","24.1","","102.16","","","","-7","","NA"
"2017-03-22 18:00","2017","03","22","18:00","-2.8","","-14.6","","40","","31","","5","","24.1","","102.16","","","","-5","","NA"
"2017-03-22 19:00","2017","03","22","19:00","-3.2","","-14.4","","42","","23","","3","","24.1","","102.17","","","","-4","","Clear"
"2017-03-22 20:00","2017","03","22","20:00","-3.9","","-13.4","","48","","20","","5","","24.1","","102.16","","","","-6","","NA"
"2017-03-22 21:00","2017","03","22","21:00"
"2017-03-22 22:00","2017","03","22","22:00"
"2017-03-22 23:00","2017","03","22","23:00"
"2017-03-23 00:00","2017","03","23","00:00"
"2017-03-23 01:00","2017","03","23","01:00"
"2017-03-23 02:00","2017","03","23","02:00"
"2017-03-23 03:00","2017","03","23","03:00"
"2017-03-23 04:00","2017","03","23","04:00"
"2017-03-23 05:00","2017","03","23","05:00"
"2017-03-23 06:00","2017","03","23","06:00","-7.5","","-10.7","","78","","23","","7","","24.1","","102.39","","","","-11","","NA"
"2017-03-23 07:00","2017","03","23","07:00","-6.9","","-9.6","","81","","19","","7","","24.1","","102.43","","","","-10","","Clear"
"2017-03-23 08:00","2017","03","23","08:00","-3.9","","-8.4","","71","","21","","9","","24.1","","102.49","","","","-8","","NA"
"2017-03-23 09:00","2017","03","23","09:00","-2.4","","-8.5","","63","","20","","6","","24.1","","102.49","","","","-5","","NA"
"2017-03-23 10:00","2017","03","23","10:00","-1.2","","-9.6","","53","","36","","2","","24.1","","102.48","","","","-2","","Mainly Clear"
"2017-03-23 11:00","2017","03","23","11:00","-0.3","","-11.4","","43","","24","","6","","24.1","","102.43","","","","-2","","NA"
"2017-03-23 12:00","2017","03","23","12:00","1.2","","-11.6","","38","","23","","11","","24.1","","102.38","","","","","","NA"
"2017-03-23 13:00","2017","03","23","13:00","1.9","","-9.4","","43","","19","","8","","24.1","","102.27","","","","","","Mainly Clear"
"2017-03-23 14:00","2017","03","23","14:00","2.3","","-9.7","","41","","18","","9","","24.1","","102.14","","","","","","NA"
"2017-03-23 15:00","2017","03","23","15:00","3.0","","-7.3","","47","","31","","4","","24.1","","102.03","","","","","","NA"
"2017-03-23 16:00","2017","03","23","16:00","2.6","","-6.8","","50","","5","","14","","24.1","","101.94","","","","","","Mainly Clear"
"2017-03-23 17:00","2017","03","23","17:00","2.2","","-6.2","","54","","3","","14","","24.1","","101.87","","","","","","NA"
"2017-03-23 18:00","2017","03","23","18:00","0.4","","-5.4","","65","","5","","15","","24.1","","101.87","","","","","","NA"
"2017-03-23 19:00","2017","03","23","19:00","-0.3","","-5.5","","68","","7","","15","","24.1","","101.82","","","","-5","","Mostly Cloudy"
"2017-03-23 20:00","2017","03","23","20:00","0.0","","-5.2","","68","","9","","14","","24.1","","101.78","","","","-4","","NA"
"2017-03-23 21:00","2017","03","23","21:00"
"2017-03-23 22:00","2017","03","23","22:00"
"2017-03-23 23:00","2017","03","23","23:00"
"2017-03-24 00:00","2017","03","24","00:00"
"2017-03-24 01:00","2017","03","24","01:00"
"2017-03-24 02:00","2017","03","24","02:00"
"2017-03-24 03:00","2017","03","24","03:00"
"2017-03-24 04:00","2017","03","24","04:00"
"2017-03-24 05:00","2017","03","24","05:00"
"2017-03-24 06:00","2017","03","24","06:00","2.2","","1.2","","93","","17","","3","","6.4","","100.89","","","","","","Rain,Fog"
"2017-03-24 07:00","2017","03","24","07:00","3.3","","2.6","","95","","16","","16","","9.7","","100.69","","","","","","Rain,Fog"
"2017-03-24 08:00","2017","03","24","08:00","3.7","","2.2","","90","","13","","4","","16.1","","100.67","","","","","","NA"
"2017-03-24 09:00","2017","03","24","09:00","4.2","","2.6","","89","","21","","6","","19.3","","100.59","","","","","","NA"
"2017-03-24 10:00","2017","03","24","10:00","5.8","","4.1","","89","","20","","8","","24.1","","100.52","","","","","","Cloudy"
"2017-03-24 11:00","2017","03","24","11:00","11.1","","6.1","","71","","23","","30","","24.1","","100.39","","","","","","NA"
"2017-03-24 12:00","2017","03","24","12:00","14.4","","7.0","","61","","24","","32","","24.1","","100.32","","","","","","NA"
"2017-03-24 13:00","2017","03","24","13:00","12.5","","6.6","","67","","32","","17","","24.1","","100.24","","","","","","Cloudy"
"2017-03-24 14:00","2017","03","24","14:00","16.2","","8.8","","61","","23","","33","","24.1","","100.17","","","","","","NA"
"2017-03-24 15:00","2017","03","24","15:00","17.2","","9.9","","62","","22","","25","","24.1","","100.13","","","","","","NA"
"2017-03-24 16:00","2017","03","24","16:00","18.4","","10.8","","61","","26","","27","","19.3","","100.13","","","","","","Mostly Cloudy"
"2017-03-24 17:00","2017","03","24","17:00","18.1","","10.8","","62","","25","","25","","19.3","","100.12","","","","","","NA"
"2017-03-24 18:00","2017","03","24","18:00","10.8","","7.2","","78","","1","","12","","19.3","","100.20","","","","","","NA"
"2017-03-24 19:00","2017","03","24","19:00","8.6","","5.0","","78","","6","","8","","16.1","","100.41","","","","","","Cloudy"
"2017-03-24 20:00","2017","03","24","20:00","7.5","","4.3","","80","","4","","19","","16.1","","100.60","","","","","","NA"
"2017-03-24 21:00","2017","03","24","21:00"
"2017-03-24 22:00","2017","03","24","22:00"
"2017-03-24 23:00","2017","03","24","23:00"
"2017-03-25 00:00","2017","03","25","00:00"
"2017-03-25 01:00","2017","03","25","01:00"
"2017-03-25 02:00","2017","03","25","02:00"
"2017-03-25 03:00","2017","03","25","03:00"
"2017-03-25 04:00","2017","03","25","04:00"
"2017-03-25 05:00","2017","03","25","05:00"
"2017-03-25 06:00","2017","03","25","06:00","2.4","","1.5","","94","","5","","20","","16.1","","100.99","","","","","","Rain"
"2017-03-25 07:00","2017","03","25","07:00","2.1","","1.2","","94","","5","","19","","9.7","","101.14","","","","","","Rain,Fog"
"2017-03-25 08:00","2017","03","25","08:00","2.0","","1.1","","94","","5","","24","","9.7","","101.24","","","","","","Rain,Fog"
"2017-03-25 09:00","2017","03","25","09:00","2.1","","1.2","","94","","6","","23","","9.7","","101.31","","","","","","Rain,Fog"
"2017-03-25 10:00","2017","03","25","10:00","2.1","","0.9","","92","","5","","28","","9.7","","101.43","","","","","","Rain,Fog"
"2017-03-25 11:00","2017","03","25","11:00","2.3","","1.3","","93","","6","","25","","8.1","","101.46","","","","","","Rain,Fog"
"2017-03-25 12:00","2017","03","25","12:00","2.5","","1.5","","93","","6","","15","","9.7","","101.57","","","","","","Rain,Fog"
"2017-03-25 13:00","2017","03","25","13:00","3.0","","1.7","","91","","7","","21","","19.3","","101.56","","","","","","Cloudy"
"2017-03-25 14:00","2017","03","25","14:00","3.0","","1.4","","89","","9","","21","","24.1","","101.53","","","","","","NA"
"2017-03-25 15:00","2017","03","25","15:00","3.4","","1.3","","86","","7","","23","","24.1","","101.54","","","","","","NA"
"2017-03-25 16:00","2017","03","25","16:00","3.2","","1.3","","87","","7","","20","","24.1","","101.52","","","","","","Cloudy"
"2017-03-25 17:00","2017","03","25","17:00","3.5","","0.6","","81","","8","","21","","24.1","","101.54","","","","","","NA"
"2017-03-25 18:00","2017","03","25","18:00","3.3","","0.2","","80","","8","","21","","24.1","","101.53","","","","","","NA"
"2017-03-25 19:00","2017","03","25","19:00","2.9","","0.0","","81","","9","","22","","24.1","","101.53","","","","","","Mostly Cloudy"
"2017-03-25 20:00","2017","03","25","20:00","2.4","","-0.4","","82","","8","","21","","24.1","","101.59","","","","","","NA"
"2017-03-25 21:00","2017","03","25","21:00"
"2017-03-25 22:00","2017","03","25","22:00"
"2017-03-25 23:00","2017","03","25","23:00"
"2017-03-26 00:00","2017","03","26","00:00"
"2017-03-26 01:00","2017","03","26","01:00"
"2017-03-26 02:00","2017","03","26","02:00"
"2017-03-26 03:00","2017","03","26","03:00"
"2017-03-26 04:00","2017","03","26","04:00"
"2017-03-26 05:00","2017","03","26","05:00"
"2017-03-26 06:00","2017","03","26","06:00","2.5","","1.2","","91","","9","","23","","16.1","","101.09","","","","","","NA"
"2017-03-26 07:00","2017","03","26","07:00","3.0","","1.5","","90","","8","","22","","16.1","","101.03","","","","","","Cloudy"
"2017-03-26 08:00","2017","03","26","08:00","3.8","","2.2","","89","","8","","23","","16.1","","100.96","","","","","","NA"
"2017-03-26 09:00","2017","03","26","09:00","5.7","","3.6","","86","","10","","19","","19.3","","100.93","","","","","","NA"
"2017-03-26 10:00","2017","03","26","10:00","6.7","","4.0","","83","","10","","18","","24.1","","100.91","","","","","","Cloudy"
"2017-03-26 11:00","2017","03","26","11:00","8.0","","5.0","","81","","7","","17","","24.1","","100.83","","","","","","NA"
"2017-03-26 12:00","2017","03","26","12:00","10.1","","6.3","","77","","9","","14","","24.1","","100.77","","","","","","NA"
"2017-03-26 13:00","2017","03","26","13:00","9.5","","5.9","","78","","3","","18","","24.1","","100.65","","","","","","Cloudy"
"2017-03-26 14:00","2017","03","26","14:00","9.3","","5.5","","77","","4","","17","","24.1","","100.56","","","","","","NA"
"2017-03-26 15:00","2017","03","26","15:00","8.0","","5.0","","81","","5","","14","","24.1","","100.46","","","","","","NA"
"2017-03-26 16:00","2017","03","26","16:00","8.5","","5.1","","79","","2","","10","","24.1","","100.40","","","","","","Cloudy"
"2017-03-26 17:00","2017","03","26","17:00","8.1","","5.2","","82","","35","","8","","24.1","","100.39","","","","","","NA"
"2017-03-26 18:00","2017","03","26","18:00","7.6","","5.1","","84","","31","","3","","19.3","","100.39","","","","","","NA"
"2017-03-26 19:00","2017","03","26","19:00","7.0","","5.3","","89","","31","","4","","19.3","","100.34","","","","","","Cloudy"
"2017-03-26 20:00","2017","03","26","20:00","6.3","","4.3","","87","","28","","4","","19.3","","100.35","","","","","","NA"
"2017-03-26 21:00","2017","03","26","21:00"
"2017-03-26 22:00","2017","03","26","22:00"
"2017-03-26 23:00","2017","03","26","23:00"
"2017-03-27 00:00","2017","03","27","00:00"
"2017-03-27 01:00","2017","03","27","01:00"
"2017-03-27 02:00","2017","03","27","02:00"
"2017-03-27 03:00","2017","03","27","03:00"
"2017-03-27 04:00","2017","03","27","04:00"
"2017-03-27 05:00","2017","03","27","05:00"
"2017-03-27 06:00","2017","03","27","06:00","9.2","","7.5","","89","","20","","23","","16.1","","100.00","","","","","","NA"
"2017-03-27 07:00","2017","03","27","07:00","9.3","","7.8","","90","","21","","21","","24.1","","100.05","","","","","","Cloudy"
"2017-03-27 08:00","2017","03","27","08:00","9.8","","8.4","","91","","20","","21","","24.1","","100.02","","","","","","NA"
"2017-03-27 09:00","2017","03","27","09:00","10.9","","9.2","","89","","20","","21","","24.1","","100.01","","","","","","NA"
"2017-03-27 10:00","2017","03","27","10:00","11.8","","10.1","","89","","21","","19","","19.3","","100.06","","","","","","Cloudy"
"2017-03-27 11:00","2017","03","27","11:00","13.4","","11.0","","85","","23","","19","","12.9","","100.06","","","","","","NA"
"2017-03-27 12:00","2017","03","27","12:00","14.2","","11.2","","82","","22","","22","","12.9","","100.06","","","","","","NA"
"2017-03-27 13:00","2017","03","27","13:00","15.7","","11.9","","78","","24","","21","","16.1","","100.05","","","","","","Mostly Cloudy"
"2017-03-27 14:00","2017","03","27","14:00","15.7","","11.7","","77","","24","","23","","16.1","","100.04","","","","","","NA"
"2017-03-27 15:00","2017","03","27","15:00","16.2","","11.4","","73","","24","","26","","19.3","","100.04","","","","","","NA"
"2017-03-27 16:00","2017","03","27","16:00","16.8","","11.2","","69","","23","","18","","19.3","","99.98","","","","","","Mostly Cloudy"
"2017-03-27 17:00","2017","03","27","17:00","15.8","","10.4","","70","","26","","17","","19.3","","99.99","","","","","","NA"
"2017-03-27 18:00","2017","03","27","18:00","12.3","","9.5","","83","","19","","20","","19.3","","100.03","","","","","","NA"
"2017-03-27 19:00","2017","03","27","19:00","11.5","","9.1","","85","","20","","13","","19.3","","100.05","","","","","","Mostly Cloudy"
"2017-03-27 20:00","2017","03","27","20:00","10.0","","8.0","","87","","20","","16","","16.1","","100.07","","","","","","NA"
"2017-03-27 21:00","2017","03","27","21:00"
"2017-03-27 22:00","2017","03","27","22:00"
"2017-03-27 23:00","2017","03","27","23:00"
"2017-03-28 00:00","2017","03","28","00:00"
"2017-03-28 01:00","2017","03","28","01:00"
"2017-03-28 02:00","2017","03","28","02:00"
"2017-03-28 03:00","2017","03","28","03:00"
"2017-03-28 04:00","2017","03","28","04:00"
"2017-03-28 05:00","2017","03","28","05:00"
"2017-03-28 06:00","2017","03","28","06:00","6.7","","6.0","","95","","2","","12","","8.1","","100.11","","","","","","Fog"
"2017-03-28 07:00","2017","03","28","07:00","6.7","","5.8","","94","","3","","9","","12.9","","100.20","","","","","","Cloudy"
"2017-03-28 08:00","2017","03","28","08:00","6.0","","4.7","","91","","1","","10","","16.1","","100.29","","","","","","NA"
"2017-03-28 09:00","2017","03","28","09:00","6.1","","4.4","","89","","34","","12","","24.1","","100.31","","","","","","NA"
"2017-03-28 10:00","2017","03","28","10:00","6.0","","3.5","","84","","34","","17","","24.1","","100.37","","","","","","Cloudy"
"2017-03-28 11:00","2017","03","28","11:00","6.7","","3.7","","81","","34","","17","","24.1","","100.39","","","","","","NA"
"2017-03-28 12:00","2017","03","28","12:00","7.1","","3.4","","77","","36","","16","","24.1","","100.37","","","","","","NA"
"2017-03-28 13:00","2017","03","28","13:00","7.9","","4.5","","79","","36","","16","","24.1","","100.39","","","","","","Cloudy"
"2017-03-28 14:00","2017","03","28","14:00","8.0","","3.9","","75","","1","","15","","24.1","","100.40","","","","","","NA"
"2017-03-28 15:00","2017","03","28","15:00","8.0","","4.1","","76","","1","","12","","24.1","","100.44","","","","","","NA"
"2017-03-28 16:00","2017","03","28","16:00","8.5","","4.2","","74","","3","","16","","24.1","","100.49","","","","","","Cloudy"
"2017-03-28 17:00","2017","03","28","17:00","7.6","","4.0","","78","","35","","13","","24.1","","100.57","","","","","","NA"
"2017-03-28 18:00","2017","03","28","18:00","7.0","","3.8","","80","","32","","13","","24.1","","100.65","","","","","","NA"
"2017-03-28 19:00","2017","03","28","19:00","6.2","","3.2","","81","","35","","14","","24.1","","100.74","","","","","","Cloudy"
"2017-03-28 20:00","2017","03","28","20:00","6.4","","2.9","","78","","34","","15","","24.1","","100.83","","","","","","NA"
"2017-03-28 21:00","2017","03","28","21:00"
"2017-03-28 22:00","2017","03","28","22:00"
"2017-03-28 23:00","2017","03","28","23:00"
"2017-03-29 00:00","2017","03","29","00:00"
"2017-03-29 01:00","2017","03","29","01:00"
"2017-03-29 02:00","2017","03","29","02:00"
"2017-03-29 03:00","2017","03","29","03:00"
"2017-03-29 04:00","2017","03","29","04:00"
"2017-03-29 05:00","2017","03","29","05:00"
"2017-03-29 06:00","2017","03","29","06:00","-0.4","","-1.1","","95","","36","","3","","24.1","","101.15","","","","-1","","NA"
"2017-03-29 07:00","2017","03","29","07:00","0.7","","0.0","","95","","27","","7","","24.1","","101.23","","","","","","Clear"
"2017-03-29 08:00","2017","03","29","08:00","5.0","","1.1","","76","","36","","3","","24.1","","101.28","","","","","","NA"
"2017-03-29 09:00","2017","03","29","09:00","5.4","","1.2","","74","","32","","10","","24.1","","101.34","","","","","","NA"
"2017-03-29 10:00","2017","03","29","10:00","6.5","","2.2","","74","","31","","10","","24.1","","101.35","","","","","","Mostly Cloudy"
"2017-03-29 11:00","2017","03","29","11:00","6.5","","1.8","","72","","1","","16","","24.1","","101.38","","","","","","NA"
"2017-03-29 12:00","2017","03","29","12:00","8.0","","2.5","","68","","36","","12","","24.1","","101.34","","","","","","NA"
"2017-03-29 13:00","2017","03","29","13:00","7.9","","2.2","","67","","1","","14","","24.1","","101.35","","","","","","Mainly Clear"
"2017-03-29 14:00","2017","03","29","14:00","8.1","","0.1","","57","","3","","10","","24.1","","101.31","","","","","","NA"
"2017-03-29 15:00","2017","03","29","15:00","9.0","","-0.6","","51","","6","","11","","24.1","","101.35","","","","","","NA"
"2017-03-29 16:00","2017","03","29","16:00","9.6","","-1.7","","45","","3","","10","","24.1","","101.32","","","","","","Mainly Clear"
"2017-03-29 17:00","2017","03","29","17:00","8.1","","-0.9","","53","","4","","15","","24.1","","101.33","","","","","","NA"
"2017-03-29 18:00","2017","03","29","18:00","7.2","","-0.7","","57","","6","","11","","24.1","","101.34","","","","","","NA"
"2017-03-29 19:00","2017","03","29","19:00","6.2","","-0.5","","62","","7","","9","","24.1","","101.39","","","","","","Cloudy"
"2017-03-29 20:00","2017","03","29","20:00","5.3","","-0.5","","66","","5","","9","","24.1","","101.42","","","","","","NA"
"2017-03-29 21:00","2017","03","29","21:00"
"2017-03-29 22:00","2017","03","29","22:00"
"2017-03-29 23:00","2017","03","29","23:00"
"2017-03-30 00:00","2017","03","30","00:00"
"2017-03-30 01:00","2017","03","30","01:00"
"2017-03-30 02:00","2017","03","30","02:00"
"2017-03-30 03:00","2017","03","30","03:00"
"2017-03-30 04:00","2017","03","30","04:00"
"2017-03-30 05:00","2017","03","30","05:00"
"2017-03-30 06:00","2017","03","30","06:00","2.2","","-2.7","","70","","9","","19","","24.1","","101.23","","","","","","NA"
"2017-03-30 07:00","2017","03","30","07:00","2.2","","-2.3","","72","","9","","19","","24.1","","101.22","","","","","","Cloudy"
"2017-03-30 08:00","2017","03","30","08:00","3.1","","-3.1","","64","","10","","20","","24.1","","101.14","","","","","","NA"
"2017-03-30 09:00","2017","03","30","09:00","4.1","","-3.2","","59","","9","","23","","24.1","","101.03","","","","","","NA"
"2017-03-30 10:00","2017","03","30","10:00","4.7","","-3.6","","55","","11","","25","","24.1","","101.09","","","","","","Cloudy"
"2017-03-30 11:00","2017","03","30","11:00","4.8","","-4.2","","52","","10","","26","","24.1","","100.98","","","","","","NA"
"2017-03-30 12:00","2017","03","30","12:00","4.8","","-3.5","","55","","10","","16","","24.1","","100.93","","","","","","NA"
"2017-03-30 13:00","2017","03","30","13:00","5.1","","-3.7","","53","","10","","23","","24.1","","100.82","","","","","","Cloudy"
"2017-03-30 14:00","2017","03","30","14:00","5.5","","-3.3","","53","","9","","27","","24.1","","100.67","","","","","","NA"
"2017-03-30 15:00","2017","03","30","15:00","4.3","","-0.9","","69","","13","","28","","11.3","","100.57","","","","","","Rain"
"2017-03-30 16:00","2017","03","30","16:00","3.1","","0.8","","85","","9","","23","","12.9","","100.48","","","","","","Rain"
"2017-03-30 17:00","2017","03","30","17:00","2.4","","0.6","","88","","8","","27","","12.9","","100.38","","","","","","Rain"
"2017-03-30 18:00","2017","03","30","18:00","2.1","","0.6","","90","","7","","19","","16.1","","100.37","","","","","","Rain"
"2017-03-30 19:00","2017","03","30","19:00","1.6","","0.6","","93","","7","","17","","6.4","","100.37","","","","","","Rain,Fog"
"2017-03-30 20:00","2017","03","30","20:00","1.4","","0.5","","94","","7","","34","","9.7","","100.36","","","","","","Rain,Fog"
"2017-03-30 21:00","2017","03","30","21:00"
"2017-03-30 22:00","2017","03","30","22:00"
"2017-03-30 23:00","2017","03","30","23:00"
"2017-03-31 00:00","2017","03","31","00:00"
"2017-03-31 01:00","2017","03","31","01:00"
"2017-03-31 02:00","2017","03","31","02:00"
"2017-03-31 03:00","2017","03","31","03:00"
"2017-03-31 04:00","2017","03","31","04:00"
"2017-03-31 05:00","2017","03","31","05:00"
"2017-03-31 06:00","2017","03","31","06:00","3.2","","2.6","","96","","7","","20","","16.1","","99.58","","","","","","Rain"
"2017-03-31 07:00","2017","03","31","07:00","3.2","","2.6","","96","","10","","21","","3.2","","99.56","","","","","","Rain,Fog"
"2017-03-31 08:00","2017","03","31","08:00","3.6","","3.0","","96","","9","","18","","4.8","","99.51","","","","","","Rain,Fog"
"2017-03-31 09:00","2017","03","31","09:00","4.1","","3.7","","97","","10","","18","","6.4","","99.51","","","","","","Rain,Fog"
"2017-03-31 10:00","2017","03","31","10:00","4.7","","4.3","","97","","8","","12","","6.4","","99.48","","","","","","Rain,Fog"
"2017-03-31 11:00","2017","03","31","11:00","5.7","","5.3","","97","","8","","11","","6.4","","99.43","","","","","","Rain,Fog"
"2017-03-31 12:00","2017","03","31","12:00","6.5","","6.1","","97","","9","","11","","8.1","","99.38","","","","","","Rain,Fog"
"2017-03-31 13:00","2017","03","31","13:00","6.9","","6.5","","97","","8","","10","","6.4","","99.35","","","","","","Rain,Fog"
"2017-03-31 14:00","2017","03","31","14:00","5.9","","5.5","","97","","1","","11","","1.2","","99.33","","","","","","Rain,Fog"
"2017-03-31 15:00","2017","03","31","15:00","5.0","","4.6","","97","","3","","17","","4.8","","99.31","","","","","","Rain,Fog"
"2017-03-31 16:00","2017","03","31","16:00","4.8","","4.5","","98","","4","","15","","4.8","","99.32","","","","","","Rain,Fog"
"2017-03-31 17:00","2017","03","31","17:00","4.3","","4.0","","98","","4","","18","","6.4","","99.34","","","","","","Rain,Fog"
"2017-03-31 18:00","2017","03","31","18:00","3.9","","3.6","","98","","4","","22","","6.4","","99.41","","","","","","Rain,Fog"
"2017-03-31 19:00","2017","03","31","19:00","3.6","","3.3","","98","","5","","24","","4.8","","99.45","","","","","","Rain,Fog"
"2017-03-31 20:00","2017","03","31","20:00","3.4","","3.1","","98","","5","","24","","6.4","","99.50","","","","","","Rain,Fog"
"2017-03-31 21:00","2017","03","31","21:00"
"2017-03-31 22:00","2017","03","31","22:00"
"2017-03-31 23:00","2017","03","31","23:00"
