"Station Name","ST. CATHARINES / NIAGARA DISTRICT A"
"Province","ONTARIO"
"Latitude","43.19"
"Longitude","-79.17"
"Elevation","97.80"
"Climate Identifier","6137286"
"WMO Identifier",""
"TC Identifier","YSN"
"All times are specified in Local Standard Time (LST). Add 1 hour to adjust for Daylight Saving Time where and when it is observed."

"Legend"
"E","Estimated"
"M","Missing"
"NA","Not Available"

"Date/Time","Year","Month","Day","Time","Temp (°C)","Temp Flag","Dew Point Temp (°C)","Dew Point Temp Flag","Rel Hum (%)","Rel Hum Flag","Wind Dir (10s deg)","Wind Dir Flag","Wind Spd (km/h)","Wind Spd Flag","Visibility (km)","Visibility Flag","Stn Press (kPa)","Stn Press Flag","Hmdx","Hmdx Flag","Wind Chill","Wind Chill Flag","Weather"
"2016-01-01 00:00","2016","01","01","00:00"
"2016-01-01 01:00","2016","01","01","01:00"
"2016-01-01 02:00","2016","01","01","02:00"
"2016-01-01 03:00","2016","01","01","03:00"
"2016-01-01 04:00","2016","01","01","04:00"
"2016-01-01 05:00","2016","01","01","05:00"
"2016-01-01 06:00","2016","01","01","06:00"
"2016-01-01 07:00","2016","01","01","07:00","-0.3","","-5.3","","69","","26","","24","","24.1","","100.48","","","","-6","","Cloudy"
"2016-01-01 08:00","2016","01","01","08:00","-0.6","","-5.4","","70","","25","","24","","9.7","","100.46","","","","-7","","Snow"
"2016-01-01 09:00","2016","01","01","09:00","-0.6","","-5.6","","69","","25","","18","","12.9","","100.41","","","","-6","","NA"
"2016-01-01 10:00","2016","01","01","10:00","-0.2","","-5.2","","69","","25","","27","","19.3","","100.43","","","","-6","","Cloudy"
"2016-01-01 11:00","2016","01","01","11:00","-0.5","","-4.9","","72","","25","","21","","24.1","","100.45","","","","-6","","NA"
"2016-01-01 12:00","2016","01","01","12:00","0.8","","-7.5","","54","","27","","40","","24.1","","100.39","","","","","","NA"
"2016-01-01 13:00","2016","01","01","13:00","0.6","","-7.2","","56","","25","","37","","24.1","","100.37","","","","","","Mostly Cloudy"
"2016-01-01 14:00","2016","01","01","14:00","-0.2","","-6.2","","64","","27","","31","","24.1","","100.32","","","","-7","","NA"
"2016-01-01 15:00","2016","01","01","15:00","-0.4","","-7.0","","61","","27","","35","","24.1","","100.33","","","","-7","","NA"
"2016-01-01 16:00","2016","01","01","16:00","-1.9","","-7.2","","67","","26","","28","","19.3","","100.41","","","","-9","","Mostly Cloudy"
"2016-01-01 17:00","2016","01","01","17:00","-2.5","","-7.6","","68","","26","","31","","24.1","","100.48","","","","-10","","NA"
"2016-01-01 18:00","2016","01","01","18:00","-2.8","","-7.5","","70","","26","","18","","24.1","","100.55","","","","-8","","NA"
"2016-01-01 19:00","2016","01","01","19:00","-2.1","","-7.6","","66","","25","","25","","24.1","","100.56","","","","-9","","Mostly Cloudy"
"2016-01-01 20:00","2016","01","01","20:00","-1.9","","-6.3","","72","","25","","31","","19.3","","100.59","","","","-9","","NA"
"2016-01-01 21:00","2016","01","01","21:00","-2.0","","-5.3","","78","","26","","18","","19.3","","100.61","","","","-7","","NA"
"2016-01-01 22:00","2016","01","01","22:00"
"2016-01-01 23:00","2016","01","01","23:00"
"2016-01-02 00:00","2016","01","02","00:00"
"2016-01-02 01:00","2016","01","02","01:00"
"2016-01-02 02:00","2016","01","02","02:00"
"2016-01-02 03:00","2016","01","02","03:00"
"2016-01-02 04:00","2016","01","02","04:00"
"2016-01-02 05:00","2016","01","02","05:00"
"2016-01-02 06:00","2016","01","02","06:00"
"2016-01-02 07:00","2016","01","02","07:00","-1.4","","-5.6","","73","","25","","19","","16.1","","100.41","","","","-7","","Cloudy"
"2016-01-02 08:00","2016","01","02","08:00","-0.9","","-5.3","","72","","24","","27","","12.9","","100.38","","","","-7","","NA"
"2016-01-02 09:00","2016","01","02","09:00","-0.6","","-5.2","","71","","23","","14","","19.3","","100.36","","","","-5","","NA"
"2016-01-02 10:00","2016","01","02","10:00","0.3","","-5.5","","65","","26","","16","","24.1","","100.38","","","","","","Cloudy"
"2016-01-02 11:00","2016","01","02","11:00","0.1","","-5.1","","68","","26","","27","","24.1","","100.39","","","","","","NA"
"2016-01-02 12:00","2016","01","02","12:00","0.3","","-5.1","","67","","26","","23","","24.1","","100.31","","","","","","NA"
"2016-01-02 13:00","2016","01","02","13:00","0.3","","-5.5","","65","","25","","30","","24.1","","100.23","","","","","","Cloudy"
"2016-01-02 14:00","2016","01","02","14:00","0.3","","-5.5","","65","","25","","23","","16.1","","100.16","","","","","","NA"
"2016-01-02 15:00","2016","01","02","15:00","0.3","","-5.5","","65","","26","","27","","24.1","","100.10","","","","","","NA"
"2016-01-02 16:00","2016","01","02","16:00","0.5","","-4.9","","67","","25","","26","","19.3","","100.06","","","","","","Cloudy"
"2016-01-02 17:00","2016","01","02","17:00","0.6","","-4.4","","69","","24","","19","","16.1","","100.04","","","","","","NA"
"2016-01-02 18:00","2016","01","02","18:00","1.0","","-3.7","","71","","24","","20","","16.1","","100.03","","","","","","NA"
"2016-01-02 19:00","2016","01","02","19:00","1.9","","-2.6","","72","","23","","35","","19.3","","100.00","","","","","","Cloudy"
"2016-01-02 20:00","2016","01","02","20:00","1.9","","-2.3","","74","","23","","30","","19.3","","99.92","","","","","","NA"
"2016-01-02 21:00","2016","01","02","21:00","1.8","","-2.2","","75","","22","","35","","19.3","","99.78","","","","","","NA"
"2016-01-02 22:00","2016","01","02","22:00"
"2016-01-02 23:00","2016","01","02","23:00"
"2016-01-03 00:00","2016","01","03","00:00"
"2016-01-03 01:00","2016","01","03","01:00"
"2016-01-03 02:00","2016","01","03","02:00"
"2016-01-03 03:00","2016","01","03","03:00"
"2016-01-03 04:00","2016","01","03","04:00"
"2016-01-03 05:00","2016","01","03","05:00"
"2016-01-03 06:00","2016","01","03","06:00"
"2016-01-03 07:00","2016","01","03","07:00","1.4","","-3.5","","70","","25","","24","","16.1","","99.60","","","","","","Snow"
"2016-01-03 08:00","2016","01","03","08:00","1.2","","-3.3","","72","","24","","27","","16.1","","99.65","","","","","","Snow"
"2016-01-03 09:00","2016","01","03","09:00","1.0","","-2.8","","76","","23","","30","","16.1","","99.71","","","","","","Snow"
"2016-01-03 10:00","2016","01","03","10:00","1.6","","-2.5","","74","","24","","27","","19.3","","99.75","","","","","","Cloudy"
"2016-01-03 11:00","2016","01","03","11:00","2.3","","-2.2","","72","","25","","27","","19.3","","99.76","","","","","","NA"
"2016-01-03 12:00","2016","01","03","12:00","2.2","","-2.3","","72","","26","","29","","24.1","","99.74","","","","","","NA"
"2016-01-03 13:00","2016","01","03","13:00","1.3","","-2.5","","76","","33","","34","","19.3","","99.75","","","","","","Ice Pellets,Snow Showers"
"2016-01-03 14:00","2016","01","03","14:00","1.0","","-3.3","","73","","32","","23","","24.1","","99.88","","","","","","Snow Showers"
"2016-01-03 15:00","2016","01","03","15:00","0.3","","-6.8","","59","","31","","31","","24.1","","100.00","","","","","","NA"
"2016-01-03 16:00","2016","01","03","16:00","-1.0","","-6.6","","66","","33","","27","","24.1","","100.14","","","","-7","","Mostly Cloudy"
"2016-01-03 17:00","2016","01","03","17:00","-1.4","","-7.4","","64","","32","","23","","24.1","","100.26","","","","-7","","NA"
"2016-01-03 18:00","2016","01","03","18:00","-1.9","","-8.3","","62","","33","","23","","24.1","","100.38","","","","-8","","NA"
"2016-01-03 19:00","2016","01","03","19:00","-3.1","","-8.0","","69","","35","","20","","24.1","","100.49","","","","-9","","Cloudy"
"2016-01-03 20:00","2016","01","03","20:00","-3.6","","-8.9","","67","","34","","24","","24.1","","100.56","","","","-10","","NA"
"2016-01-03 21:00","2016","01","03","21:00","-4.3","","-8.6","","72","","35","","26","","19.3","","100.62","","","","-12","","Snow Showers"
"2016-01-03 22:00","2016","01","03","22:00"
"2016-01-03 23:00","2016","01","03","23:00"
"2016-01-04 00:00","2016","01","04","00:00"
"2016-01-04 01:00","2016","01","04","01:00"
"2016-01-04 02:00","2016","01","04","02:00"
"2016-01-04 03:00","2016","01","04","03:00"
"2016-01-04 04:00","2016","01","04","04:00"
"2016-01-04 05:00","2016","01","04","05:00"
"2016-01-04 06:00","2016","01","04","06:00"
"2016-01-04 07:00","2016","01","04","07:00","-10.6","","-13.9","","77","","2","","21","","3.2","","101.28","","","","-19","","Snow Showers"
"2016-01-04 08:00","2016","01","04","08:00","-10.9","","-14.0","","78","","2","","26","","3.2","","101.40","","","","-20","","Snow Showers"
"2016-01-04 09:00","2016","01","04","09:00","-11.0","","-13.8","","80","","1","","24","","2.4","","101.52","","","","-20","","Snow Showers"
"2016-01-04 10:00","2016","01","04","10:00","-10.8","","-14.1","","77","","2","","25","","2.4","","101.62","","","","-20","","Snow Showers"
"2016-01-04 11:00","2016","01","04","11:00","-11.1","","-14.1","","79","","2","","20","","1.6","","101.72","","","","-19","","Snow Showers"
"2016-01-04 12:00","2016","01","04","12:00","-10.8","","-15.4","","69","","2","","22","","3.2","","101.76","","","","-19","","Snow Showers"
"2016-01-04 13:00","2016","01","04","13:00","-11.1","","-15.4","","71","","2","","22","","3.2","","101.75","","","","-20","","Snow Showers"
"2016-01-04 14:00","2016","01","04","14:00","-10.8","","-16.0","","66","","1","","20","","9.7","","101.84","","","","-19","","Snow Showers"
"2016-01-04 15:00","2016","01","04","15:00","-10.8","","-16.6","","63","","2","","14","","9.7","","101.91","","","","-17","","Snow Showers"
"2016-01-04 16:00","2016","01","04","16:00","-10.6","","-16.4","","63","","2","","13","","24.1","","102.00","","","","-17","","Mostly Cloudy"
"2016-01-04 17:00","2016","01","04","17:00","-10.8","","-17.1","","60","","35","","17","","24.1","","102.09","","","","-18","","NA"
"2016-01-04 18:00","2016","01","04","18:00","-10.6","","-17.2","","59","","1","","14","","24.1","","102.15","","","","-17","","NA"
"2016-01-04 19:00","2016","01","04","19:00","-10.2","","-16.0","","63","","1","","14","","24.1","","102.24","","","","-17","","Mostly Cloudy"
"2016-01-04 20:00","2016","01","04","20:00","-10.0","","-15.4","","65","","1","","11","","24.1","","102.30","","","","-16","","NA"
"2016-01-04 21:00","2016","01","04","21:00","-9.8","","-15.0","","66","","2","","9","","24.1","","102.34","","","","-15","","NA"
"2016-01-04 22:00","2016","01","04","22:00"
"2016-01-04 23:00","2016","01","04","23:00"
"2016-01-05 00:00","2016","01","05","00:00"
"2016-01-05 01:00","2016","01","05","01:00"
"2016-01-05 02:00","2016","01","05","02:00"
"2016-01-05 03:00","2016","01","05","03:00"
"2016-01-05 04:00","2016","01","05","04:00"
"2016-01-05 05:00","2016","01","05","05:00"
"2016-01-05 06:00","2016","01","05","06:00"
"2016-01-05 07:00","2016","01","05","07:00","-11.3","","-13.6","","83","","21","","7","","16.1","","102.57","","","","-16","","Snow Showers"
"2016-01-05 08:00","2016","01","05","08:00","-13.0","","-15.0","","85","","18","","7","","16.1","","102.60","","","","-18","","Snow"
"2016-01-05 09:00","2016","01","05","09:00","-10.1","","-13.4","","77","","18","","9","","24.1","","102.63","","","","-15","","NA"
"2016-01-05 10:00","2016","01","05","10:00","-8.0","","-12.0","","73","","17","","12","","24.1","","102.67","","","","-13","","Mainly Clear"
"2016-01-05 11:00","2016","01","05","11:00","-6.7","","-10.4","","75","","18","","17","","24.1","","102.68","","","","-13","","NA"
"2016-01-05 12:00","2016","01","05","12:00","-5.4","","-8.8","","77","","21","","18","","24.1","","102.59","","","","-12","","NA"
"2016-01-05 13:00","2016","01","05","13:00","-4.1","","-7.7","","76","","20","","17","","24.1","","102.51","","","","-10","","Mostly Cloudy"
"2016-01-05 14:00","2016","01","05","14:00","-3.6","","-7.1","","77","","18","","20","","24.1","","102.43","","","","-10","","NA"
"2016-01-05 15:00","2016","01","05","15:00","-3.3","","-7.7","","72","","22","","17","","24.1","","102.37","","","","-9","","NA"
"2016-01-05 16:00","2016","01","05","16:00","-2.6","","-7.5","","69","","22","","20","","24.1","","102.30","","","","-9","","Mostly Cloudy"
"2016-01-05 17:00","2016","01","05","17:00","-3.8","","-8.1","","72","","22","","20","","24.1","","102.24","","","","-10","","NA"
"2016-01-05 18:00","2016","01","05","18:00","-6.4","","-9.1","","81","","20","","13","","24.1","","102.17","","","","-12","","NA"
"2016-01-05 19:00","2016","01","05","19:00","-6.2","","-8.6","","83","","19","","15","","24.1","","102.10","","","","-12","","Clear"
"2016-01-05 20:00","2016","01","05","20:00","-6.0","","-9.1","","79","","21","","11","","24.1","","102.09","","","","-11","","NA"
"2016-01-05 21:00","2016","01","05","21:00","-5.6","","-9.0","","77","","22","","8","","24.1","","102.09","","","","-9","","NA"
"2016-01-05 22:00","2016","01","05","22:00"
"2016-01-05 23:00","2016","01","05","23:00"
"2016-01-06 00:00","2016","01","06","00:00"
"2016-01-06 01:00","2016","01","06","01:00"
"2016-01-06 02:00","2016","01","06","02:00"
"2016-01-06 03:00","2016","01","06","03:00"
"2016-01-06 04:00","2016","01","06","04:00"
"2016-01-06 05:00","2016","01","06","05:00"
"2016-01-06 06:00","2016","01","06","06:00"
"2016-01-06 07:00","2016","01","06","07:00","-3.2","","-7.7","","71","","36","","2","","24.1","","101.82","","","","-4","","Mostly Cloudy"
"2016-01-06 08:00","2016","01","06","08:00","-5.2","","-8.6","","77","","22","","5","","24.1","","101.86","","","","-7","","NA"
"2016-01-06 09:00","2016","01","06","09:00","-1.7","","-4.9","","79","","19","","8","","24.1","","101.85","","","","-5","","NA"
"2016-01-06 10:00","2016","01","06","10:00","0.9","","-3.4","","73","","22","","16","","24.1","","101.85","","","","","","Mostly Cloudy"
"2016-01-06 11:00","2016","01","06","11:00","2.5","","-3.2","","66","","23","","21","","24.1","","101.81","","","","","","NA"
"2016-01-06 12:00","2016","01","06","12:00","3.0","","-3.2","","64","","22","","27","","24.1","","101.70","","","","","","NA"
"2016-01-06 13:00","2016","01","06","13:00","2.8","","-2.7","","67","","21","","22","","24.1","","101.60","","","","","","Mostly Cloudy"
"2016-01-06 14:00","2016","01","06","14:00","2.3","","-3.0","","68","","23","","23","","24.1","","101.55","","","","","","NA"
"2016-01-06 15:00","2016","01","06","15:00","3.2","","-3.2","","63","","22","","23","","24.1","","101.49","","","","","","NA"
"2016-01-06 16:00","2016","01","06","16:00","1.3","","-4.0","","68","","22","","17","","24.1","","101.49","","","","","","Mostly Cloudy"
"2016-01-06 17:00","2016","01","06","17:00","0.1","","-4.2","","73","","22","","14","","24.1","","101.46","","","","","","NA"
"2016-01-06 18:00","2016","01","06","18:00","0.2","","-4.3","","72","","23","","21","","24.1","","101.48","","","","","","NA"
"2016-01-06 19:00","2016","01","06","19:00","-0.2","","-5.0","","70","","23","","13","","24.1","","101.46","","","","-4","","Mainly Clear"
"2016-01-06 20:00","2016","01","06","20:00","-0.9","","-6.1","","68","","25","","10","","24.1","","101.47","","","","-4","","NA"
"2016-01-06 21:00","2016","01","06","21:00","-1.7","","-6.3","","71","","24","","8","","24.1","","101.47","","","","-5","","NA"
"2016-01-06 22:00","2016","01","06","22:00"
"2016-01-06 23:00","2016","01","06","23:00"
"2016-01-07 00:00","2016","01","07","00:00"
"2016-01-07 01:00","2016","01","07","01:00"
"2016-01-07 02:00","2016","01","07","02:00"
"2016-01-07 03:00","2016","01","07","03:00"
"2016-01-07 04:00","2016","01","07","04:00"
"2016-01-07 05:00","2016","01","07","05:00"
"2016-01-07 06:00","2016","01","07","06:00"
"2016-01-07 07:00","2016","01","07","07:00","-5.7","","-6.9","","91","","36","","2","","24.1","","101.31","","","","-7","","Mainly Clear"
"2016-01-07 08:00","2016","01","07","08:00","-5.5","","-6.7","","91","","21","","5","","24.1","","101.34","","","","-8","","NA"
"2016-01-07 09:00","2016","01","07","09:00","-1.1","","-2.7","","89","","17","","8","","24.1","","101.33","","","","-4","","NA"
"2016-01-07 10:00","2016","01","07","10:00","2.5","","-0.9","","78","","17","","5","","24.1","","101.32","","","","","","Mostly Cloudy"
"2016-01-07 11:00","2016","01","07","11:00","3.9","","-1.7","","67","","18","","8","","24.1","","101.29","","","","","","NA"
"2016-01-07 12:00","2016","01","07","12:00","4.4","","-2.2","","62","","19","","4","","24.1","","101.24","","","","","","NA"
"2016-01-07 13:00","2016","01","07","13:00","5.5","","-1.9","","59","","36","","1","","24.1","","101.15","","","","","","Mostly Cloudy"
"2016-01-07 14:00","2016","01","07","14:00","4.8","","-2.5","","59","","36","","9","","24.1","","101.10","","","","","","NA"
"2016-01-07 15:00","2016","01","07","15:00","3.7","","-2.3","","65","","3","","10","","24.1","","101.07","","","","","","NA"
"2016-01-07 16:00","2016","01","07","16:00","2.4","","-1.8","","74","","3","","6","","24.1","","101.08","","","","","","Mostly Cloudy"
"2016-01-07 17:00","2016","01","07","17:00","0.6","","-2.1","","82","","8","","9","","24.1","","101.07","","","","","","NA"
"2016-01-07 18:00","2016","01","07","18:00","-0.2","","-2.9","","82","","8","","8","","24.1","","101.05","","","","-3","","NA"
"2016-01-07 19:00","2016","01","07","19:00","-3.0","","-4.4","","90","","12","","5","","24.1","","101.09","","","","-5","","Mainly Clear"
"2016-01-07 20:00","2016","01","07","20:00","-3.6","","-4.6","","93","","12","","4","","24.1","","101.10","","","","-5","","NA"
"2016-01-07 21:00","2016","01","07","21:00","-3.5","","-4.2","","95","","9","","5","","24.1","","101.09","","","","-6","","NA"
"2016-01-07 22:00","2016","01","07","22:00"
"2016-01-07 23:00","2016","01","07","23:00"
"2016-01-08 00:00","2016","01","08","00:00"
"2016-01-08 01:00","2016","01","08","01:00"
"2016-01-08 02:00","2016","01","08","02:00"
"2016-01-08 03:00","2016","01","08","03:00"
"2016-01-08 04:00","2016","01","08","04:00"
"2016-01-08 05:00","2016","01","08","05:00"
"2016-01-08 06:00","2016","01","08","06:00"
"2016-01-08 07:00","2016","01","08","07:00","-4.7","","-6.9","","85","","9","","8","","24.1","","100.69","","","","-8","","Mainly Clear"
"2016-01-08 08:00","2016","01","08","08:00","-4.3","","-6.8","","83","","10","","4","","24.1","","100.70","","","","-6","","NA"
"2016-01-08 09:00","2016","01","08","09:00","-4.9","","-6.3","","90","","7","","4","","24.1","","100.67","","","","-7","","NA"
"2016-01-08 10:00","2016","01","08","10:00","-1.7","","-5.0","","78","","12","","8","","19.3","","100.61","","","","-5","","Cloudy"
"2016-01-08 11:00","2016","01","08","11:00","-0.1","","-3.5","","78","","7","","6","","19.3","","100.55","","","","-2","","NA"
"2016-01-08 12:00","2016","01","08","12:00","1.1","","-5.2","","63","","5","","3","","19.3","","100.48","","","","","","NA"
"2016-01-08 13:00","2016","01","08","13:00","2.8","","-4.7","","58","","5","","4","","16.1","","100.38","","","","","","Cloudy"
"2016-01-08 14:00","2016","01","08","14:00","3.9","","-4.3","","55","","4","","5","","16.1","","100.29","","","","","","NA"
"2016-01-08 15:00","2016","01","08","15:00","3.6","","-3.7","","59","","34","","7","","19.3","","100.24","","","","","","NA"
"2016-01-08 16:00","2016","01","08","16:00","2.8","","-2.3","","69","","28","","4","","19.3","","100.24","","","","","","Cloudy"
"2016-01-08 17:00","2016","01","08","17:00","2.6","","-2.5","","69","","36","","2","","16.1","","100.24","","","","","","NA"
"2016-01-08 18:00","2016","01","08","18:00","2.2","","-2.1","","73","","11","","3","","16.1","","100.20","","","","","","NA"
"2016-01-08 19:00","2016","01","08","19:00","2.2","","-2.0","","74","","13","","7","","12.9","","100.19","","","","","","Rain Showers"
"2016-01-08 20:00","2016","01","08","20:00","2.5","","-0.3","","82","","17","","12","","11.3","","100.19","","","","","","Rain Showers"
"2016-01-08 21:00","2016","01","08","21:00","3.0","","1.4","","89","","16","","18","","11.3","","100.13","","","","","","Rain Showers"
"2016-01-08 22:00","2016","01","08","22:00"
"2016-01-08 23:00","2016","01","08","23:00"
"2016-01-09 00:00","2016","01","09","00:00"
"2016-01-09 01:00","2016","01","09","01:00"
"2016-01-09 02:00","2016","01","09","02:00"
"2016-01-09 03:00","2016","01","09","03:00"
"2016-01-09 04:00","2016","01","09","04:00"
"2016-01-09 05:00","2016","01","09","05:00"
"2016-01-09 06:00","2016","01","09","06:00"
"2016-01-09 07:00","2016","01","09","07:00","6.3","","5.1","","92","","18","","25","","11.3","","99.92","","","","","","Rain"
"2016-01-09 08:00","2016","01","09","08:00","6.6","","5.4","","92","","19","","26","","16.1","","99.96","","","","","","Rain"
"2016-01-09 09:00","2016","01","09","09:00","7.3","","5.8","","90","","19","","28","","19.3","","99.99","","","","","","NA"
"2016-01-09 10:00","2016","01","09","10:00","8.1","","6.1","","87","","19","","28","","19.3","","100.04","","","","","","Cloudy"
"2016-01-09 11:00","2016","01","09","11:00","8.5","","6.3","","86","","19","","25","","24.1","","100.07","","","","","","NA"
"2016-01-09 12:00","2016","01","09","12:00","8.9","","6.4","","84","","19","","23","","24.1","","100.04","","","","","","NA"
"2016-01-09 13:00","2016","01","09","13:00","9.5","","7.0","","84","","21","","20","","24.1","","100.00","","","","","","Cloudy"
"2016-01-09 14:00","2016","01","09","14:00","9.1","","6.6","","84","","21","","22","","24.1","","100.00","","","","","","NA"
"2016-01-09 15:00","2016","01","09","15:00","9.0","","6.6","","85","","19","","14","","24.1","","100.02","","","","","","NA"
"2016-01-09 16:00","2016","01","09","16:00","8.7","","6.5","","86","","19","","8","","24.1","","100.04","","","","","","Cloudy"
"2016-01-09 17:00","2016","01","09","17:00","8.4","","6.2","","86","","21","","11","","24.1","","100.07","","","","","","NA"
"2016-01-09 18:00","2016","01","09","18:00","7.7","","6.0","","89","","27","","5","","24.1","","100.06","","","","","","NA"
"2016-01-09 19:00","2016","01","09","19:00","7.2","","5.8","","91","","15","","4","","24.1","","100.05","","","","","","Cloudy"
"2016-01-09 20:00","2016","01","09","20:00","7.5","","5.0","","84","","16","","17","","24.1","","100.01","","","","","","NA"
"2016-01-09 21:00","2016","01","09","21:00","7.1","","4.6","","84","","16","","14","","32.2","","99.94","","","","","","NA"
"2016-01-09 22:00","2016","01","09","22:00"
"2016-01-09 23:00","2016","01","09","23:00"
"2016-01-10 00:00","2016","01","10","00:00"
"2016-01-10 01:00","2016","01","10","01:00"
"2016-01-10 02:00","2016","01","10","02:00"
"2016-01-10 03:00","2016","01","10","03:00"
"2016-01-10 04:00","2016","01","10","04:00"
"2016-01-10 05:00","2016","01","10","05:00"
"2016-01-10 06:00","2016","01","10","06:00"
"2016-01-10 07:00","2016","01","10","07:00","7.1","","6.7","","97","","4","","13","","16.1","","98.42","","","","","","Rain"
"2016-01-10 08:00","2016","01","10","08:00","6.2","","5.9","","98","","7","","10","","4.8","","98.21","","","","","","Rain,Fog"
"2016-01-10 09:00","2016","01","10","09:00","7.1","","6.8","","98","","10","","9","","12.9","","98.03","","","","","","Rain"
"2016-01-10 10:00","2016","01","10","10:00","8.6","","7.7","","94","","13","","13","","4.8","","97.89","","","","","","Rain,Fog"
"2016-01-10 11:00","2016","01","10","11:00","8.8","","8.1","","95","","15","","17","","9.7","","97.73","","","","","","Rain,Fog"
"2016-01-10 12:00","2016","01","10","12:00","9.4","","8.2","","92","","20","","25","","16.1","","97.54","","","","","","Rain"
"2016-01-10 13:00","2016","01","10","13:00","8.8","","7.7","","93","","22","","34","","12.9","","97.47","","","","","","Rain Showers"
"2016-01-10 14:00","2016","01","10","14:00","8.8","","7.3","","90","","23","","32","","16.1","","97.41","","","","","","NA"
"2016-01-10 15:00","2016","01","10","15:00","4.4","","3.1","","91","","28","","39","","4.8","","97.53","","","","","","Rain Showers,Fog"
"2016-01-10 16:00","2016","01","10","16:00","0.8","","-0.2","","93","","27","","46","","3.2","","97.92","","","","","","Snow Showers"
"2016-01-10 17:00","2016","01","10","17:00","0.0","","-1.8","","88","","26","","44","","1.6","","98.32","","","","-8","","Snow"
"2016-01-10 18:00","2016","01","10","18:00","-0.8","","-4.5","","76","","26","","49","","24.1","","98.64","","","","-9","","Snow"
"2016-01-10 19:00","2016","01","10","19:00","-1.5","","-5.7","","73","","25","","52","","24.1","","98.83","","","","-10","","Cloudy"
"2016-01-10 20:00","2016","01","10","20:00","-2.7","","-6.7","","74","","25","","46","","19.3","","98.99","","","","-12","","Snow Showers"
"2016-01-10 21:00","2016","01","10","21:00","-3.4","","-8.3","","69","","26","","39","","24.1","","99.10","","","","-12","","Snow Showers"
"2016-01-10 22:00","2016","01","10","22:00"
"2016-01-10 23:00","2016","01","10","23:00"
"2016-01-11 00:00","2016","01","11","00:00"
"2016-01-11 01:00","2016","01","11","01:00"
"2016-01-11 02:00","2016","01","11","02:00"
"2016-01-11 03:00","2016","01","11","03:00"
"2016-01-11 04:00","2016","01","11","04:00"
"2016-01-11 05:00","2016","01","11","05:00"
"2016-01-11 06:00","2016","01","11","06:00"
"2016-01-11 07:00","2016","01","11","07:00","-8.1","","-15.0","","58","","25","","31","","24.1","","99.99","","","","-17","","Mainly Clear"
"2016-01-11 08:00","2016","01","11","08:00","-8.1","","-15.9","","54","","26","","33","","24.1","","100.04","","","","-17","","NA"
"2016-01-11 09:00","2016","01","11","09:00","-7.3","","-15.6","","52","","25","","33","","24.1","","100.12","","","","-16","","NA"
"2016-01-11 10:00","2016","01","11","10:00","-6.6","","-15.9","","48","","26","","42","","24.1","","100.21","","","","-16","","Mainly Clear"
"2016-01-11 11:00","2016","01","11","11:00","-6.2","","-15.5","","48","","26","","41","","24.1","","100.26","","","","-16","","NA"
"2016-01-11 12:00","2016","01","11","12:00","-5.8","","-14.7","","50","","26","","41","","24.1","","100.25","","","","-15","","NA"
"2016-01-11 13:00","2016","01","11","13:00","-5.7","","-15.1","","48","","25","","39","","24.1","","100.25","","","","-15","","Mainly Clear"
"2016-01-11 14:00","2016","01","11","14:00","-5.6","","-14.7","","49","","24","","33","","24.1","","100.26","","","","-14","","NA"
"2016-01-11 15:00","2016","01","11","15:00","-6.1","","-15.2","","49","","26","","33","","24.1","","100.32","","","","-15","","NA"
"2016-01-11 16:00","2016","01","11","16:00","-7.1","","-15.2","","53","","25","","34","","24.1","","100.38","","","","-16","","Mainly Clear"
"2016-01-11 17:00","2016","01","11","17:00","-8.2","","-14.7","","60","","25","","21","","24.1","","100.42","","","","-16","","NA"
"2016-01-11 18:00","2016","01","11","18:00","-8.7","","-14.5","","63","","25","","19","","24.1","","100.43","","","","-16","","NA"
"2016-01-11 19:00","2016","01","11","19:00","-9.2","","-14.8","","64","","25","","15","","24.1","","100.46","","","","-16","","Mainly Clear"
"2016-01-11 20:00","2016","01","11","20:00","-9.5","","-15.1","","64","","25","","17","","24.1","","100.44","","","","-17","","NA"
"2016-01-11 21:00","2016","01","11","21:00","-9.2","","-14.3","","67","","22","","13","","16.1","","100.41","","","","-15","","Snow Showers"
"2016-01-11 22:00","2016","01","11","22:00"
"2016-01-11 23:00","2016","01","11","23:00"
"2016-01-12 00:00","2016","01","12","00:00"
"2016-01-12 01:00","2016","01","12","01:00"
"2016-01-12 02:00","2016","01","12","02:00"
"2016-01-12 03:00","2016","01","12","03:00"
"2016-01-12 04:00","2016","01","12","04:00"
"2016-01-12 05:00","2016","01","12","05:00"
"2016-01-12 06:00","2016","01","12","06:00"
"2016-01-12 07:00","2016","01","12","07:00","-3.6","","-5.5","","87","","17","","25","","4.0","","99.15","","","","-11","","Snow"
"2016-01-12 08:00","2016","01","12","08:00","-2.8","","-4.4","","89","","17","","25","","4.8","","98.99","","","","-10","","Snow"
"2016-01-12 09:00","2016","01","12","09:00","-1.9","","-2.7","","94","","19","","28","","0.8","","98.93","","","","-9","","Moderate Snow"
"2016-01-12 10:00","2016","01","12","10:00","-2.0","","-2.6","","96","","24","","21","","0.2","","98.89","","","","-8","","Heavy Snow"
"2016-01-12 11:00","2016","01","12","11:00","-2.2","","-2.9","","95","","27","","16","","0.8","","98.83","","","","-7","","Moderate Snow"
"2016-01-12 12:00","2016","01","12","12:00","-1.5","","-3.5","","86","","25","","21","","6.4","","98.75","","","","-7","","Snow"
"2016-01-12 13:00","2016","01","12","13:00","-2.5","","-5.0","","83","","24","","33","","12.9","","98.77","","","","-10","","Snow"
"2016-01-12 14:00","2016","01","12","14:00","-3.6","","-6.6","","80","","25","","36","","12.9","","98.84","","","","-12","","Snow,Blowing Snow"
"2016-01-12 15:00","2016","01","12","15:00","-4.5","","-9.9","","66","","25","","35","","19.3","","98.90","","","","-13","","Snow"
"2016-01-12 16:00","2016","01","12","16:00","-5.9","","-11.7","","64","","25","","34","","19.3","","99.01","","","","-15","","Blowing Snow"
"2016-01-12 17:00","2016","01","12","17:00","-6.9","","-12.2","","66","","24","","30","","19.3","","99.12","","","","-15","","Blowing Snow"
"2016-01-12 18:00","2016","01","12","18:00","-7.3","","-12.2","","68","","23","","31","","19.3","","99.15","","","","-16","","NA"
"2016-01-12 19:00","2016","01","12","19:00","-6.6","","-9.8","","78","","25","","28","","24.1","","99.28","","","","-15","","Mostly Cloudy"
"2016-01-12 20:00","2016","01","12","20:00","-5.2","","-9.1","","74","","27","","41","","24.1","","99.40","","","","-14","","NA"
"2016-01-12 21:00","2016","01","12","21:00","-5.5","","-8.8","","78","","26","","34","","24.1","","99.52","","","","-14","","NA"
"2016-01-12 22:00","2016","01","12","22:00"
"2016-01-12 23:00","2016","01","12","23:00"
"2016-01-13 00:00","2016","01","13","00:00"
"2016-01-13 01:00","2016","01","13","01:00"
"2016-01-13 02:00","2016","01","13","02:00"
"2016-01-13 03:00","2016","01","13","03:00"
"2016-01-13 04:00","2016","01","13","04:00"
"2016-01-13 05:00","2016","01","13","05:00"
"2016-01-13 06:00","2016","01","13","06:00"
"2016-01-13 07:00","2016","01","13","07:00","-9.2","","-13.5","","71","","25","","34","","19.3","","100.41","","","","-19","","Mostly Cloudy"
"2016-01-13 08:00","2016","01","13","08:00","-9.3","","-14.0","","69","","24","","29","","19.3","","100.45","","","","-18","","Blowing Snow"
"2016-01-13 09:00","2016","01","13","09:00","-9.2","","-14.6","","65","","25","","31","","19.3","","100.51","","","","-19","","Blowing Snow"
"2016-01-13 10:00","2016","01","13","10:00","-8.8","","-15.0","","61","","25","","29","","24.1","","100.53","","","","-18","","Blowing Snow"
"2016-01-13 11:00","2016","01","13","11:00","-7.8","","-14.9","","57","","24","","22","","24.1","","100.52","","","","-15","","Blowing Snow"
"2016-01-13 12:00","2016","01","13","12:00","-7.3","","-15.1","","54","","24","","26","","24.1","","100.45","","","","-15","","Blowing Snow"
"2016-01-13 13:00","2016","01","13","13:00","-7.1","","-14.9","","54","","25","","27","","24.1","","100.36","","","","-15","","Blowing Snow"
"2016-01-13 14:00","2016","01","13","14:00","-7.0","","-15.8","","50","","27","","22","","24.1","","100.29","","","","-14","","NA"
"2016-01-13 15:00","2016","01","13","15:00","-7.5","","-15.5","","53","","26","","20","","24.1","","100.28","","","","-15","","Blowing Snow"
"2016-01-13 16:00","2016","01","13","16:00","-8.2","","-15.5","","56","","26","","19","","24.1","","100.25","","","","-15","","Cloudy"
"2016-01-13 17:00","2016","01","13","17:00","-8.3","","-15.0","","59","","26","","17","","24.1","","100.25","","","","-15","","NA"
"2016-01-13 18:00","2016","01","13","18:00","-7.9","","-14.0","","62","","25","","19","","24.1","","100.20","","","","-15","","NA"
"2016-01-13 19:00","2016","01","13","19:00","-7.7","","-13.0","","66","","23","","15","","24.1","","100.14","","","","-14","","Cloudy"
"2016-01-13 20:00","2016","01","13","20:00","-7.5","","-12.3","","69","","25","","17","","24.1","","100.11","","","","-14","","NA"
"2016-01-13 21:00","2016","01","13","21:00","-6.9","","-11.3","","71","","23","","21","","24.1","","100.02","","","","-14","","NA"
"2016-01-13 22:00","2016","01","13","22:00"
"2016-01-13 23:00","2016","01","13","23:00"
"2016-01-14 00:00","2016","01","14","00:00"
"2016-01-14 01:00","2016","01","14","01:00"
"2016-01-14 02:00","2016","01","14","02:00"
"2016-01-14 03:00","2016","01","14","03:00"
"2016-01-14 04:00","2016","01","14","04:00"
"2016-01-14 05:00","2016","01","14","05:00"
"2016-01-14 06:00","2016","01","14","06:00"
"2016-01-14 07:00","2016","01","14","07:00","-6.5","","-10.1","","76","","25","","16","","16.1","","","M","","","-13","","Cloudy"
"2016-01-14 08:00","2016","01","14","08:00","-6.6","","-10.0","","77","","24","","15","","16.1","","99.80","","","","-13","","NA"
"2016-01-14 09:00","2016","01","14","09:00","-6.2","","-9.8","","76","","25","","18","","16.1","","99.89","","","","-13","","NA"
"2016-01-14 10:00","2016","01","14","10:00","-5.5","","-9.6","","73","","24","","22","","24.1","","99.97","","","","-13","","Cloudy"
"2016-01-14 11:00","2016","01","14","11:00","-4.6","","-9.3","","70","","23","","22","","24.1","","99.97","","","","-11","","NA"
"2016-01-14 12:00","2016","01","14","12:00","-3.5","","-9.0","","66","","25","","17","","24.1","","99.89","","","","-9","","NA"
"2016-01-14 13:00","2016","01","14","13:00","-3.4","","-8.9","","66","","26","","15","","24.1","","99.84","","","","-9","","Mostly Cloudy"
"2016-01-14 14:00","2016","01","14","14:00","-3.1","","-8.8","","65","","27","","13","","24.1","","99.81","","","","-8","","NA"
"2016-01-14 15:00","2016","01","14","15:00","-2.8","","-7.9","","68","","30","","6","","24.1","","99.82","","","","-5","","NA"
"2016-01-14 16:00","2016","01","14","16:00","-2.5","","-7.4","","69","","27","","8","","24.1","","99.88","","","","-6","","Cloudy"
"2016-01-14 17:00","2016","01","14","17:00","-2.6","","-7.5","","69","","14","","4","","19.3","","99.92","","","","-4","","NA"
"2016-01-14 18:00","2016","01","14","18:00","-2.7","","-5.2","","83","","17","","7","","12.9","","99.96","","","","-6","","NA"
"2016-01-14 19:00","2016","01","14","19:00","-2.8","","-4.7","","87","","13","","5","","9.7","","100.02","","","","-5","","Snow"
"2016-01-14 20:00","2016","01","14","20:00","-3.0","","-4.4","","90","","14","","8","","9.7","","100.02","","","","-6","","Snow"
"2016-01-14 21:00","2016","01","14","21:00","-3.2","","-4.3","","92","","10","","10","","11.3","","99.93","","","","-7","","Snow"
"2016-01-14 22:00","2016","01","14","22:00"
"2016-01-14 23:00","2016","01","14","23:00"
"2016-01-15 00:00","2016","01","15","00:00"
"2016-01-15 01:00","2016","01","15","01:00"
"2016-01-15 02:00","2016","01","15","02:00"
"2016-01-15 03:00","2016","01","15","03:00"
"2016-01-15 04:00","2016","01","15","04:00"
"2016-01-15 05:00","2016","01","15","05:00"
"2016-01-15 06:00","2016","01","15","06:00"
"2016-01-15 07:00","2016","01","15","07:00","-2.3","","-3.7","","90","","8","","8","","24.1","","99.48","","","","-5","","Mostly Cloudy"
"2016-01-15 08:00","2016","01","15","08:00","-2.1","","-3.2","","92","","7","","6","","11.3","","99.44","","","","-4","","NA"
"2016-01-15 09:00","2016","01","15","09:00","-2.3","","-3.6","","91","","7","","5","","8.1","","99.39","","","","-4","","Fog"
"2016-01-15 10:00","2016","01","15","10:00","-1.0","","-2.9","","87","","10","","8","","8.1","","99.34","","","","-4","","Fog"
"2016-01-15 11:00","2016","01","15","11:00","0.4","","-2.2","","83","","8","","9","","9.7","","99.35","","","","","","Fog"
"2016-01-15 12:00","2016","01","15","12:00","1.4","","-1.5","","81","","9","","9","","12.9","","99.22","","","","","","NA"
"2016-01-15 13:00","2016","01","15","13:00","3.1","","-0.7","","76","","7","","8","","12.9","","99.06","","","","","","Cloudy"
"2016-01-15 14:00","2016","01","15","14:00","4.3","","-0.1","","73","","5","","4","","16.1","","99.00","","","","","","NA"
"2016-01-15 15:00","2016","01","15","15:00","4.0","","0.0","","75","","8","","15","","16.1","","98.87","","","","","","NA"
"2016-01-15 16:00","2016","01","15","16:00","4.0","","0.2","","76","","8","","7","","16.1","","98.82","","","","","","Cloudy"
"2016-01-15 17:00","2016","01","15","17:00","2.8","","-0.1","","81","","8","","7","","12.9","","98.78","","","","","","NA"
"2016-01-15 18:00","2016","01","15","18:00","1.8","","0.0","","88","","36","","1","","19.3","","98.83","","","","","","NA"
"2016-01-15 19:00","2016","01","15","19:00","1.8","","0.6","","92","","11","","9","","19.3","","98.76","","","","","","Cloudy"
"2016-01-15 20:00","2016","01","15","20:00","2.0","","0.8","","92","","11","","11","","19.3","","98.66","","","","","","NA"
"2016-01-15 21:00","2016","01","15","21:00","1.8","","0.9","","94","","19","","4","","19.3","","98.61","","","","","","Rain"
"2016-01-15 22:00","2016","01","15","22:00"
"2016-01-15 23:00","2016","01","15","23:00"
"2016-01-16 00:00","2016","01","16","00:00"
"2016-01-16 01:00","2016","01","16","01:00"
"2016-01-16 02:00","2016","01","16","02:00"
"2016-01-16 03:00","2016","01","16","03:00"
"2016-01-16 04:00","2016","01","16","04:00"
"2016-01-16 05:00","2016","01","16","05:00"
"2016-01-16 06:00","2016","01","16","06:00"
"2016-01-16 07:00","2016","01","16","07:00","2.8","","1.5","","91","","23","","20","","16.1","","98.42","","","","","","Cloudy"
"2016-01-16 08:00","2016","01","16","08:00","2.7","","1.2","","90","","24","","25","","8.1","","98.56","","","","","","Fog"
"2016-01-16 09:00","2016","01","16","09:00","2.0","","-0.8","","82","","25","","32","","12.9","","98.72","","","","","","NA"
"2016-01-16 10:00","2016","01","16","10:00","1.2","","-1.5","","82","","25","","27","","24.1","","98.88","","","","","","Cloudy"
"2016-01-16 11:00","2016","01","16","11:00","0.3","","-3.1","","78","","27","","28","","24.1","","99.00","","","","","","NA"
"2016-01-16 12:00","2016","01","16","12:00","0.2","","-3.4","","77","","28","","26","","24.1","","99.00","","","","","","NA"
"2016-01-16 13:00","2016","01","16","13:00","0.8","","-3.9","","71","","27","","33","","24.1","","99.05","","","","","","Mostly Cloudy"
"2016-01-16 14:00","2016","01","16","14:00","0.5","","-5.1","","66","","28","","30","","24.1","","99.10","","","","","","NA"
"2016-01-16 15:00","2016","01","16","15:00","0.3","","-5.1","","67","","28","","29","","24.1","","99.23","","","","","","NA"
"2016-01-16 16:00","2016","01","16","16:00","-0.9","","-6.3","","67","","27","","32","","24.1","","99.38","","","","-8","","Cloudy"
"2016-01-16 17:00","2016","01","16","17:00","-1.3","","-7.1","","65","","26","","30","","24.1","","99.57","","","","-8","","NA"
"2016-01-16 18:00","2016","01","16","18:00","-1.3","","-7.5","","63","","27","","27","","24.1","","99.63","","","","-8","","NA"
"2016-01-16 19:00","2016","01","16","19:00","-1.2","","-8.2","","59","","26","","30","","24.1","","99.72","","","","-8","","Cloudy"
"2016-01-16 20:00","2016","01","16","20:00","-1.3","","-8.5","","58","","26","","32","","24.1","","99.79","","","","-8","","NA"
"2016-01-16 21:00","2016","01","16","21:00","-1.5","","-8.5","","59","","26","","26","","24.1","","99.80","","","","-8","","NA"
"2016-01-16 22:00","2016","01","16","22:00"
"2016-01-16 23:00","2016","01","16","23:00"
"2016-01-17 00:00","2016","01","17","00:00"
"2016-01-17 01:00","2016","01","17","01:00"
"2016-01-17 02:00","2016","01","17","02:00"
"2016-01-17 03:00","2016","01","17","03:00"
"2016-01-17 04:00","2016","01","17","04:00"
"2016-01-17 05:00","2016","01","17","05:00"
"2016-01-17 06:00","2016","01","17","06:00"
"2016-01-17 07:00","2016","01","17","07:00","-1.5","","-5.0","","77","","18","","13","","24.1","","99.80","","","","-6","","Cloudy"
"2016-01-17 08:00","2016","01","17","08:00","-1.4","","-5.1","","76","","18","","10","","24.1","","99.73","","","","-5","","NA"
"2016-01-17 09:00","2016","01","17","09:00","-1.5","","-4.7","","79","","33","","4","","16.1","","99.71","","","","-3","","Snow Showers"
"2016-01-17 10:00","2016","01","17","10:00","-1.4","","-3.9","","83","","24","","6","","4.8","","99.72","","","","-4","","Snow Showers"
"2016-01-17 11:00","2016","01","17","11:00","-1.4","","-3.1","","88","","24","","14","","4.0","","99.75","","","","-6","","Snow"
"2016-01-17 12:00","2016","01","17","12:00","-1.6","","-3.2","","89","","25","","17","","1.0","","99.68","","","","-7","","Snow"
"2016-01-17 13:00","2016","01","17","13:00","-1.7","","-5.0","","78","","26","","24","","4.8","","99.56","","","","-8","","Snow"
"2016-01-17 14:00","2016","01","17","14:00","-2.6","","-4.3","","88","","28","","18","","2.4","","99.52","","","","-8","","Snow"
"2016-01-17 15:00","2016","01","17","15:00","-2.8","","-6.5","","76","","26","","23","","4.8","","99.53","","","","-9","","Snow"
"2016-01-17 16:00","2016","01","17","16:00","-4.4","","-6.1","","88","","29","","20","","2.4","","99.56","","","","-11","","Snow"
"2016-01-17 17:00","2016","01","17","17:00","-4.8","","-6.5","","88","","28","","20","","2.4","","99.58","","","","-11","","Snow"
"2016-01-17 18:00","2016","01","17","18:00","-6.5","","-10.4","","74","","27","","27","","8.1","","99.65","","","","-15","","Snow"
"2016-01-17 19:00","2016","01","17","19:00","-7.7","","-13.0","","66","","26","","27","","19.3","","99.69","","","","-16","","Mostly Cloudy"
"2016-01-17 20:00","2016","01","17","20:00","-9.4","","-15.4","","62","","26","","24","","24.1","","99.73","","","","-18","","NA"
"2016-01-17 21:00","2016","01","17","21:00","-9.8","","-15.8","","62","","26","","26","","24.1","","99.73","","","","-19","","NA"
"2016-01-17 22:00","2016","01","17","22:00"
"2016-01-17 23:00","2016","01","17","23:00"
"2016-01-18 00:00","2016","01","18","00:00"
"2016-01-18 01:00","2016","01","18","01:00"
"2016-01-18 02:00","2016","01","18","02:00"
"2016-01-18 03:00","2016","01","18","03:00"
"2016-01-18 04:00","2016","01","18","04:00"
"2016-01-18 05:00","2016","01","18","05:00"
"2016-01-18 06:00","2016","01","18","06:00"
"2016-01-18 07:00","2016","01","18","07:00","-9.9","","-13.4","","76","","25","","21","","24.1","","100.00","","","","-18","","Mostly Cloudy"
"2016-01-18 08:00","2016","01","18","08:00","-10.8","","-13.9","","78","","24","","22","","24.1","","100.03","","","","-19","","NA"
"2016-01-18 09:00","2016","01","18","09:00","-9.7","","-13.9","","72","","25","","22","","24.1","","100.06","","","","-18","","NA"
"2016-01-18 10:00","2016","01","18","10:00","-8.0","","-14.5","","60","","26","","39","","24.1","","100.10","","","","-18","","Mostly Cloudy"
"2016-01-18 11:00","2016","01","18","11:00","-7.9","","-14.4","","60","","26","","33","","24.1","","100.12","","","","-17","","NA"
"2016-01-18 12:00","2016","01","18","12:00","-7.6","","-14.5","","58","","26","","40","","24.1","","100.11","","","","-18","","NA"
"2016-01-18 13:00","2016","01","18","13:00","-7.0","","-14.2","","57","","26","","34","","19.3","","100.09","","","","-16","","Mostly Cloudy"
"2016-01-18 14:00","2016","01","18","14:00","-8.5","","-10.6","","85","","29","","30","","1.6","","100.13","","","","-18","","Snow"
"2016-01-18 15:00","2016","01","18","15:00","-7.4","","-12.0","","70","","28","","31","","19.3","","100.20","","","","-16","","Snow,Blowing Snow"
"2016-01-18 16:00","2016","01","18","16:00","-7.8","","-10.4","","82","","25","","27","","4.0","","100.28","","","","-16","","Snow,Blowing Snow"
"2016-01-18 17:00","2016","01","18","17:00","-8.3","","-10.0","","88","","25","","23","","1.6","","100.33","","","","-16","","Snow"
"2016-01-18 18:00","2016","01","18","18:00","-7.7","","-12.4","","69","","26","","26","","6.4","","100.37","","","","-16","","Snow"
"2016-01-18 19:00","2016","01","18","19:00","-8.4","","-13.7","","66","","25","","28","","12.9","","100.45","","","","-17","","Snow"
"2016-01-18 20:00","2016","01","18","20:00","-8.9","","-14.3","","65","","26","","27","","19.3","","100.52","","","","-18","","NA"
"2016-01-18 21:00","2016","01","18","21:00","-9.8","","-15.2","","65","","24","","21","","19.3","","100.56","","","","-18","","NA"
"2016-01-18 22:00","2016","01","18","22:00"
"2016-01-18 23:00","2016","01","18","23:00"
"2016-01-19 00:00","2016","01","19","00:00"
"2016-01-19 01:00","2016","01","19","01:00"
"2016-01-19 02:00","2016","01","19","02:00"
"2016-01-19 03:00","2016","01","19","03:00"
"2016-01-19 04:00","2016","01","19","04:00"
"2016-01-19 05:00","2016","01","19","05:00"
"2016-01-19 06:00","2016","01","19","06:00"
"2016-01-19 07:00","2016","01","19","07:00","-9.1","","-13.8","","69","","29","","24","","24.1","","101.06","","","","-17","","Cloudy"
"2016-01-19 08:00","2016","01","19","08:00","-9.6","","-13.9","","71","","29","","28","","24.1","","101.12","","","","-19","","NA"
"2016-01-19 09:00","2016","01","19","09:00","-8.9","","-12.7","","74","","29","","31","","24.1","","101.19","","","","-18","","NA"
"2016-01-19 10:00","2016","01","19","10:00","-9.4","","-14.1","","69","","26","","24","","24.1","","101.25","","","","-18","","Mostly Cloudy"
"2016-01-19 11:00","2016","01","19","11:00","-7.6","","-13.1","","65","","26","","26","","24.1","","101.25","","","","-16","","NA"
"2016-01-19 12:00","2016","01","19","12:00","-5.5","","-10.3","","69","","28","","32","","24.1","","101.21","","","","-14","","NA"
"2016-01-19 13:00","2016","01","19","13:00","-5.0","","-10.0","","68","","29","","27","","24.1","","101.22","","","","-13","","Mostly Cloudy"
"2016-01-19 14:00","2016","01","19","14:00","-3.8","","-9.9","","63","","28","","36","","24.1","","101.19","","","","-12","","NA"
"2016-01-19 15:00","2016","01","19","15:00","-4.6","","-10.6","","63","","27","","36","","24.1","","101.26","","","","-13","","NA"
"2016-01-19 16:00","2016","01","19","16:00","-4.9","","-10.1","","67","","26","","28","","12.9","","101.33","","","","-13","","Snow Showers"
"2016-01-19 17:00","2016","01","19","17:00","-5.3","","-10.1","","69","","27","","25","","19.3","","101.39","","","","-13","","Snow Showers"
"2016-01-19 18:00","2016","01","19","18:00","-5.4","","-9.9","","71","","25","","28","","12.9","","101.46","","","","-13","","Snow Showers"
"2016-01-19 19:00","2016","01","19","19:00","-5.4","","-9.7","","72","","25","","33","","12.9","","101.49","","","","-14","","Snow Showers"
"2016-01-19 20:00","2016","01","19","20:00","-5.4","","-9.7","","72","","25","","29","","12.9","","101.50","","","","-13","","Snow Showers"
"2016-01-19 21:00","2016","01","19","21:00","-5.5","","-10.0","","71","","25","","33","","12.9","","101.51","","","","-14","","Snow Showers"
"2016-01-19 22:00","2016","01","19","22:00"
"2016-01-19 23:00","2016","01","19","23:00"
"2016-01-20 00:00","2016","01","20","00:00"
"2016-01-20 01:00","2016","01","20","01:00"
"2016-01-20 02:00","2016","01","20","02:00"
"2016-01-20 03:00","2016","01","20","03:00"
"2016-01-20 04:00","2016","01","20","04:00"
"2016-01-20 05:00","2016","01","20","05:00"
"2016-01-20 06:00","2016","01","20","06:00"
"2016-01-20 07:00","2016","01","20","07:00","-6.1","","-10.2","","73","","23","","24","","24.1","","101.47","","","","-14","","Moderate Snow"
"2016-01-20 08:00","2016","01","20","08:00","-6.2","","-10.3","","73","","23","","21","","24.1","","101.47","","","","-13","","Snow"
"2016-01-20 09:00","2016","01","20","09:00","-6.0","","-10.3","","72","","22","","17","","24.1","","101.43","","","","-12","","Snow"
"2016-01-20 10:00","2016","01","20","10:00","-5.4","","-9.7","","72","","23","","12","","24.1","","101.39","","","","-10","","Snow"
"2016-01-20 11:00","2016","01","20","11:00","-4.7","","-9.7","","68","","24","","17","","24.1","","101.34","","","","-11","","NA"
"2016-01-20 12:00","2016","01","20","12:00","-4.1","","-9.6","","66","","23","","15","","24.1","","101.25","","","","-9","","NA"
"2016-01-20 13:00","2016","01","20","13:00","-3.2","","-10.1","","59","","25","","7","","24.1","","101.13","","","","-6","","Cloudy"
"2016-01-20 14:00","2016","01","20","14:00","-3.0","","-10.6","","56","","24","","8","","24.1","","101.01","","","","-6","","NA"
"2016-01-20 15:00","2016","01","20","15:00","-3.5","","-10.2","","60","","25","","8","","24.1","","100.96","","","","-7","","NA"
"2016-01-20 16:00","2016","01","20","16:00","-3.7","","-10.0","","62","","26","","8","","24.1","","100.92","","","","-7","","Cloudy"
"2016-01-20 17:00","2016","01","20","17:00","-4.4","","-9.1","","70","","27","","9","","9.7","","100.94","","","","-8","","Snow"
"2016-01-20 18:00","2016","01","20","18:00","-5.1","","-8.5","","77","","29","","7","","8.1","","100.95","","","","-8","","Snow"
"2016-01-20 19:00","2016","01","20","19:00","-5.1","","-8.7","","76","","25","","10","","8.1","","100.99","","","","-9","","Snow"
"2016-01-20 20:00","2016","01","20","20:00","-5.8","","-8.2","","83","","26","","14","","12.9","","100.99","","","","-11","","Snow"
"2016-01-20 21:00","2016","01","20","21:00","-5.6","","-9.0","","77","","26","","16","","12.9","","101.00","","","","-12","","Snow"
"2016-01-20 22:00","2016","01","20","22:00"
"2016-01-20 23:00","2016","01","20","23:00"
"2016-01-21 00:00","2016","01","21","00:00"
"2016-01-21 01:00","2016","01","21","01:00"
"2016-01-21 02:00","2016","01","21","02:00"
"2016-01-21 03:00","2016","01","21","03:00"
"2016-01-21 04:00","2016","01","21","04:00"
"2016-01-21 05:00","2016","01","21","05:00"
"2016-01-21 06:00","2016","01","21","06:00"
"2016-01-21 07:00","2016","01","21","07:00","-6.2","","-8.5","","84","","24","","15","","9.7","","101.24","","","","-12","","Fog"
"2016-01-21 08:00","2016","01","21","08:00","-5.9","","-8.3","","83","","23","","14","","12.9","","101.27","","","","-11","","NA"
"2016-01-21 09:00","2016","01","21","09:00","-5.3","","-7.1","","87","","24","","13","","2.4","","101.32","","","","-10","","Snow"
"2016-01-21 10:00","2016","01","21","10:00","-4.6","","-6.4","","87","","25","","9","","4.0","","101.36","","","","-8","","Snow"
"2016-01-21 11:00","2016","01","21","11:00","-3.2","","-5.9","","82","","26","","8","","12.9","","101.43","","","","-6","","Snow"
"2016-01-21 12:00","2016","01","21","12:00","-2.3","","-7.4","","68","","33","","9","","19.3","","101.42","","","","-6","","NA"
"2016-01-21 13:00","2016","01","21","13:00","-2.7","","-7.4","","70","","33","","7","","19.3","","101.40","","","","-6","","Cloudy"
"2016-01-21 14:00","2016","01","21","14:00","-2.5","","-7.2","","70","","32","","12","","19.3","","101.36","","","","-7","","NA"
"2016-01-21 15:00","2016","01","21","15:00","-2.9","","-7.3","","72","","32","","10","","24.1","","101.36","","","","-7","","Snow"
"2016-01-21 16:00","2016","01","21","16:00","-2.9","","-7.3","","72","","29","","11","","24.1","","101.38","","","","-7","","Cloudy"
"2016-01-21 17:00","2016","01","21","17:00","-3.2","","-6.9","","76","","34","","5","","4.8","","101.41","","","","-5","","Snow"
"2016-01-21 18:00","2016","01","21","18:00","-3.7","","-5.7","","86","","19","","6","","6.4","","101.45","","","","-6","","Snow"
"2016-01-21 19:00","2016","01","21","19:00","-3.8","","-5.1","","91","","24","","6","","4.8","","101.50","","","","-6","","Snow"
"2016-01-21 20:00","2016","01","21","20:00","-3.4","","-7.4","","74","","2","","12","","9.7","","101.53","","","","-8","","Snow"
"2016-01-21 21:00","2016","01","21","21:00","-4.5","","-6.3","","87","","9","","7","","24.1","","101.53","","","","-8","","NA"
"2016-01-21 22:00","2016","01","21","22:00"
"2016-01-21 23:00","2016","01","21","23:00"
"2016-01-22 00:00","2016","01","22","00:00"
"2016-01-22 01:00","2016","01","22","01:00"
"2016-01-22 02:00","2016","01","22","02:00"
"2016-01-22 03:00","2016","01","22","03:00"
"2016-01-22 04:00","2016","01","22","04:00"
"2016-01-22 05:00","2016","01","22","05:00"
"2016-01-22 06:00","2016","01","22","06:00"
"2016-01-22 07:00","2016","01","22","07:00","-9.7","","-11.2","","89","","19","","8","","24.1","","101.61","","","","-14","","Mainly Clear"
"2016-01-22 08:00","2016","01","22","08:00","-10.4","","-11.5","","92","","36","","2","","24.1","","101.61","","","","-12","","NA"
"2016-01-22 09:00","2016","01","22","09:00","-9.1","","-10.5","","90","","36","","1","","24.1","","101.59","","","","-10","","NA"
"2016-01-22 10:00","2016","01","22","10:00","-6.5","","-9.1","","82","","36","","3","","24.1","","101.60","","","","-8","","Mostly Cloudy"
"2016-01-22 11:00","2016","01","22","11:00","-4.4","","-9.8","","66","","15","","5","","24.1","","101.60","","","","-7","","NA"
"2016-01-22 12:00","2016","01","22","12:00","-3.8","","-9.9","","63","","11","","9","","24.1","","101.49","","","","-8","","NA"
"2016-01-22 13:00","2016","01","22","13:00","-3.8","","-10.1","","62","","9","","12","","24.1","","101.36","","","","-8","","Cloudy"
"2016-01-22 14:00","2016","01","22","14:00","-3.6","","-9.7","","63","","10","","14","","24.1","","101.33","","","","-9","","NA"
"2016-01-22 15:00","2016","01","22","15:00","-3.7","","-9.8","","63","","7","","9","","24.1","","101.30","","","","-7","","NA"
"2016-01-22 16:00","2016","01","22","16:00","-3.9","","-10.0","","63","","8","","9","","24.1","","101.27","","","","-8","","Cloudy"
"2016-01-22 17:00","2016","01","22","17:00","-4.7","","-9.9","","67","","8","","5","","24.1","","101.20","","","","-7","","NA"
"2016-01-22 18:00","2016","01","22","18:00","-5.1","","-9.8","","70","","7","","5","","24.1","","101.20","","","","-7","","NA"
"2016-01-22 19:00","2016","01","22","19:00","-5.4","","-8.8","","77","","36","","3","","24.1","","101.21","","","","-7","","Cloudy"
"2016-01-22 20:00","2016","01","22","20:00","-5.2","","-9.3","","73","","14","","6","","16.1","","101.25","","","","-8","","Snow"
"2016-01-22 21:00","2016","01","22","21:00","-5.2","","-8.6","","77","","4","","5","","16.1","","101.14","","","","-7","","Snow"
"2016-01-22 22:00","2016","01","22","22:00"
"2016-01-22 23:00","2016","01","22","23:00"
"2016-01-23 00:00","2016","01","23","00:00"
"2016-01-23 01:00","2016","01","23","01:00"
"2016-01-23 02:00","2016","01","23","02:00"
"2016-01-23 03:00","2016","01","23","03:00"
"2016-01-23 04:00","2016","01","23","04:00"
"2016-01-23 05:00","2016","01","23","05:00"
"2016-01-23 06:00","2016","01","23","06:00"
"2016-01-23 07:00","2016","01","23","07:00","-5.0","","-8.8","","75","","5","","30","","19.3","","100.72","","","","-13","","Cloudy"
"2016-01-23 08:00","2016","01","23","08:00","-5.0","","-8.4","","77","","6","","30","","8.1","","100.76","","","","-13","","Snow,Blowing Snow"
"2016-01-23 09:00","2016","01","23","09:00","-5.5","","-8.4","","80","","4","","25","","12.9","","100.69","","","","-13","","Snow,Blowing Snow"
"2016-01-23 10:00","2016","01","23","10:00","-5.2","","-8.5","","78","","4","","23","","19.3","","100.72","","","","-12","","Snow"
"2016-01-23 11:00","2016","01","23","11:00","-5.0","","-8.8","","75","","4","","26","","12.9","","100.73","","","","-12","","Snow"
"2016-01-23 12:00","2016","01","23","12:00","-5.0","","-8.9","","74","","5","","23","","24.1","","100.65","","","","-12","","Snow"
"2016-01-23 13:00","2016","01","23","13:00","-5.2","","-9.0","","75","","4","","26","","16.1","","100.60","","","","-13","","Cloudy"
"2016-01-23 14:00","2016","01","23","14:00","-5.2","","-9.0","","75","","4","","19","","24.1","","100.52","","","","-12","","Snow"
"2016-01-23 15:00","2016","01","23","15:00","-5.1","","-8.5","","77","","3","","14","","24.1","","100.50","","","","-10","","NA"
"2016-01-23 16:00","2016","01","23","16:00","-5.4","","-10.4","","68","","5","","14","","24.1","","100.53","","","","-11","","Mainly Clear"
"2016-01-23 17:00","2016","01","23","17:00","-6.6","","-10.7","","73","","10","","7","","24.1","","100.56","","","","-10","","NA"
"2016-01-23 18:00","2016","01","23","18:00","-8.7","","-11.4","","81","","15","","5","","24.1","","100.59","","","","-11","","NA"
"2016-01-23 19:00","2016","01","23","19:00","-10.2","","-11.8","","88","","19","","9","","24.1","","100.62","","","","-15","","Clear"
"2016-01-23 20:00","2016","01","23","20:00","-8.9","","-10.5","","88","","22","","5","","24.1","","100.61","","","","-12","","NA"
"2016-01-23 21:00","2016","01","23","21:00","-12.7","","-14.3","","88","","22","","10","","24.1","","100.61","","","","-18","","NA"
"2016-01-23 22:00","2016","01","23","22:00"
"2016-01-23 23:00","2016","01","23","23:00"
"2016-01-24 00:00","2016","01","24","00:00"
"2016-01-24 01:00","2016","01","24","01:00"
"2016-01-24 02:00","2016","01","24","02:00"
"2016-01-24 03:00","2016","01","24","03:00"
"2016-01-24 04:00","2016","01","24","04:00"
"2016-01-24 05:00","2016","01","24","05:00"
"2016-01-24 06:00","2016","01","24","06:00"
"2016-01-24 07:00","2016","01","24","07:00","-10.7","","-12.6","","86","","22","","15","","24.1","","100.62","","","","-18","","Mainly Clear"
"2016-01-24 08:00","2016","01","24","08:00","-9.9","","-11.8","","86","","18","","12","","24.1","","100.59","","","","-16","","NA"
"2016-01-24 09:00","2016","01","24","09:00","-8.7","","-10.9","","84","","19","","8","","19.3","","100.66","","","","-13","","NA"
"2016-01-24 10:00","2016","01","24","10:00","-6.5","","-8.8","","84","","20","","13","","16.1","","100.70","","","","-12","","Cloudy"
"2016-01-24 11:00","2016","01","24","11:00","-3.8","","-6.8","","80","","23","","20","","19.3","","100.76","","","","-10","","NA"
"2016-01-24 12:00","2016","01","24","12:00","-2.2","","-6.2","","74","","23","","11","","24.1","","100.64","","","","-6","","NA"
"2016-01-24 13:00","2016","01","24","13:00","-0.8","","-4.5","","76","","19","","16","","24.1","","100.52","","","","-6","","Cloudy"
"2016-01-24 14:00","2016","01","24","14:00","-0.2","","-3.8","","77","","22","","23","","19.3","","100.49","","","","-6","","NA"
"2016-01-24 15:00","2016","01","24","15:00","-0.5","","-3.9","","78","","22","","26","","19.3","","100.47","","","","-7","","NA"
"2016-01-24 16:00","2016","01","24","16:00","-0.5","","-4.4","","75","","22","","22","","19.3","","100.47","","","","-6","","Cloudy"
"2016-01-24 17:00","2016","01","24","17:00","-0.6","","-4.3","","76","","22","","19","","24.1","","100.46","","","","-6","","NA"
"2016-01-24 18:00","2016","01","24","18:00","-0.7","","-4.4","","76","","22","","16","","24.1","","100.49","","","","-5","","NA"
"2016-01-24 19:00","2016","01","24","19:00","-1.2","","-5.1","","75","","24","","16","","24.1","","100.56","","","","-6","","Mostly Cloudy"
"2016-01-24 20:00","2016","01","24","20:00","-1.0","","-4.7","","76","","23","","9","","19.3","","100.61","","","","-4","","NA"
"2016-01-24 21:00","2016","01","24","21:00","-1.6","","-4.6","","80","","17","","9","","24.1","","100.63","","","","-5","","NA"
"2016-01-24 22:00","2016","01","24","22:00"
"2016-01-24 23:00","2016","01","24","23:00"
"2016-01-25 00:00","2016","01","25","00:00"
"2016-01-25 01:00","2016","01","25","01:00"
"2016-01-25 02:00","2016","01","25","02:00"
"2016-01-25 03:00","2016","01","25","03:00"
"2016-01-25 04:00","2016","01","25","04:00"
"2016-01-25 05:00","2016","01","25","05:00"
"2016-01-25 06:00","2016","01","25","06:00"
"2016-01-25 07:00","2016","01","25","07:00","-0.2","","-4.1","","75","","18","","15","","24.1","","100.83","","","","-5","","Cloudy"
"2016-01-25 08:00","2016","01","25","08:00","-0.4","","-4.5","","74","","18","","17","","24.1","","100.88","","","","-5","","NA"
"2016-01-25 09:00","2016","01","25","09:00","0.0","","-4.5","","72","","18","","18","","24.1","","100.84","","","","-5","","NA"
"2016-01-25 10:00","2016","01","25","10:00","0.5","","-5.3","","65","","18","","19","","24.1","","100.84","","","","","","Cloudy"
"2016-01-25 11:00","2016","01","25","11:00","1.4","","-5.8","","59","","18","","18","","24.1","","100.83","","","","","","NA"
"2016-01-25 12:00","2016","01","25","12:00","1.6","","-5.6","","59","","17","","20","","24.1","","100.74","","","","","","NA"
"2016-01-25 13:00","2016","01","25","13:00","2.5","","-5.2","","57","","17","","16","","24.1","","100.63","","","","","","Cloudy"
"2016-01-25 14:00","2016","01","25","14:00","3.5","","-5.7","","51","","17","","20","","24.1","","100.52","","","","","","NA"
"2016-01-25 15:00","2016","01","25","15:00","4.2","","-6.1","","47","","18","","17","","24.1","","100.48","","","","","","NA"
"2016-01-25 16:00","2016","01","25","16:00","4.7","","-6.2","","45","","18","","12","","24.1","","100.43","","","","","","Mainly Clear"
"2016-01-25 17:00","2016","01","25","17:00","3.5","","-6.2","","49","","15","","7","","24.1","","100.37","","","","","","NA"
"2016-01-25 18:00","2016","01","25","18:00","2.8","","-7.2","","48","","16","","4","","24.1","","100.33","","","","","","NA"
"2016-01-25 19:00","2016","01","25","19:00","-0.2","","-6.8","","61","","18","","10","","24.1","","100.29","","","","-4","","Mostly Cloudy"
"2016-01-25 20:00","2016","01","25","20:00","1.8","","-6.3","","55","","18","","14","","24.1","","100.22","","","","","","NA"
"2016-01-25 21:00","2016","01","25","21:00","3.6","","-5.6","","51","","18","","27","","24.1","","100.06","","","","","","NA"
"2016-01-25 22:00","2016","01","25","22:00"
"2016-01-25 23:00","2016","01","25","23:00"
"2016-01-26 00:00","2016","01","26","00:00"
"2016-01-26 01:00","2016","01","26","01:00"
"2016-01-26 02:00","2016","01","26","02:00"
"2016-01-26 03:00","2016","01","26","03:00"
"2016-01-26 04:00","2016","01","26","04:00"
"2016-01-26 05:00","2016","01","26","05:00"
"2016-01-26 06:00","2016","01","26","06:00"
"2016-01-26 07:00","2016","01","26","07:00","6.5","","3.5","","81","","21","","32","","24.1","","99.43","","","","","","Rain Showers"
"2016-01-26 08:00","2016","01","26","08:00","6.6","","3.4","","80","","20","","27","","24.1","","99.36","","","","","","NA"
"2016-01-26 09:00","2016","01","26","09:00","7.0","","4.2","","82","","20","","37","","24.1","","99.33","","","","","","Rain Showers"
"2016-01-26 10:00","2016","01","26","10:00","6.9","","4.9","","87","","24","","34","","19.3","","99.41","","","","","","Rain Showers"
"2016-01-26 11:00","2016","01","26","11:00","5.9","","2.7","","80","","23","","40","","12.9","","99.45","","","","","","NA"
"2016-01-26 12:00","2016","01","26","12:00","5.6","","1.5","","75","","24","","40","","16.1","","99.52","","","","","","NA"
"2016-01-26 13:00","2016","01","26","13:00","3.7","","0.4","","79","","24","","50","","19.3","","99.62","","","","","","Cloudy"
"2016-01-26 14:00","2016","01","26","14:00","2.7","","0.4","","85","","22","","40","","12.9","","99.70","","","","","","Drizzle"
"2016-01-26 15:00","2016","01","26","15:00","2.4","","0.0","","84","","23","","34","","12.9","","99.82","","","","","","NA"
"2016-01-26 16:00","2016","01","26","16:00","2.1","","-0.5","","83","","23","","35","","12.9","","99.93","","","","","","Cloudy"
"2016-01-26 17:00","2016","01","26","17:00","2.0","","-0.8","","82","","23","","30","","12.9","","100.01","","","","","","NA"
"2016-01-26 18:00","2016","01","26","18:00","1.9","","-0.9","","82","","24","","31","","9.7","","100.11","","","","","","Snow"
"2016-01-26 19:00","2016","01","26","19:00","1.7","","-1.2","","81","","23","","29","","12.9","","100.19","","","","","","Snow"
"2016-01-26 20:00","2016","01","26","20:00","1.5","","-1.2","","82","","24","","26","","12.9","","100.25","","","","","","Snow"
"2016-01-26 21:00","2016","01","26","21:00","1.5","","-1.4","","81","","23","","25","","16.1","","100.24","","","","","","Snow"
"2016-01-26 22:00","2016","01","26","22:00"
"2016-01-26 23:00","2016","01","26","23:00"
"2016-01-27 00:00","2016","01","27","00:00"
"2016-01-27 01:00","2016","01","27","01:00"
"2016-01-27 02:00","2016","01","27","02:00"
"2016-01-27 03:00","2016","01","27","03:00"
"2016-01-27 04:00","2016","01","27","04:00"
"2016-01-27 05:00","2016","01","27","05:00"
"2016-01-27 06:00","2016","01","27","06:00"
"2016-01-27 07:00","2016","01","27","07:00","0.2","","-3.9","","74","","28","","26","","24.1","","100.64","","","","","","Cloudy"
"2016-01-27 08:00","2016","01","27","08:00","0.2","","-4.1","","73","","27","","26","","24.1","","100.75","","","","","","NA"
"2016-01-27 09:00","2016","01","27","09:00","-0.2","","-4.7","","72","","29","","22","","24.1","","100.81","","","","-6","","Snow Showers"
"2016-01-27 10:00","2016","01","27","10:00","0.1","","-5.1","","68","","29","","19","","24.1","","100.86","","","","","","Mostly Cloudy"
"2016-01-27 11:00","2016","01","27","11:00","0.1","","-5.7","","65","","27","","22","","24.1","","100.92","","","","","","Snow Showers"
"2016-01-27 12:00","2016","01","27","12:00","0.0","","-6.4","","62","","27","","28","","24.1","","100.90","","","","-6","","NA"
"2016-01-27 13:00","2016","01","27","13:00","-0.1","","-5.3","","68","","31","","15","","24.1","","100.90","","","","-5","","Mostly Cloudy"
"2016-01-27 14:00","2016","01","27","14:00","0.2","","-6.0","","63","","31","","19","","24.1","","100.85","","","","","","NA"
"2016-01-27 15:00","2016","01","27","15:00","0.2","","-6.5","","61","","29","","8","","24.1","","100.78","","","","","","NA"
"2016-01-27 16:00","2016","01","27","16:00","0.8","","-7.5","","54","","25","","12","","24.1","","100.75","","","","","","Mostly Cloudy"
"2016-01-27 17:00","2016","01","27","17:00","0.3","","-6.8","","59","","24","","9","","24.1","","100.68","","","","","","NA"
"2016-01-27 18:00","2016","01","27","18:00","0.3","","-7.7","","55","","25","","16","","24.1","","100.69","","","","","","NA"
"2016-01-27 19:00","2016","01","27","19:00","-0.2","","-8.2","","55","","24","","9","","24.1","","100.65","","","","-3","","Cloudy"
"2016-01-27 20:00","2016","01","27","20:00","0.0","","-4.3","","73","","22","","19","","24.1","","100.58","","","","-5","","NA"
"2016-01-27 21:00","2016","01","27","21:00","0.1","","-4.5","","71","","23","","21","","24.1","","100.56","","","","","","NA"
"2016-01-27 22:00","2016","01","27","22:00"
"2016-01-27 23:00","2016","01","27","23:00"
"2016-01-28 00:00","2016","01","28","00:00"
"2016-01-28 01:00","2016","01","28","01:00"
"2016-01-28 02:00","2016","01","28","02:00"
"2016-01-28 03:00","2016","01","28","03:00"
"2016-01-28 04:00","2016","01","28","04:00"
"2016-01-28 05:00","2016","01","28","05:00"
"2016-01-28 06:00","2016","01","28","06:00"
"2016-01-28 07:00","2016","01","28","07:00","-1.7","","-3.4","","88","","20","","29","","4.8","","99.59","","","","-9","","Snow"
"2016-01-28 08:00","2016","01","28","08:00","-1.6","","-3.0","","90","","20","","27","","4.8","","99.50","","","","-8","","Snow,Blowing Snow"
"2016-01-28 09:00","2016","01","28","09:00","-0.9","","-2.6","","88","","20","","31","","11.3","","99.40","","","","-8","","Snow,Blowing Snow"
"2016-01-28 10:00","2016","01","28","10:00","-0.3","","-2.5","","85","","20","","29","","19.3","","99.35","","","","-7","","Snow"
"2016-01-28 11:00","2016","01","28","11:00","1.0","","-2.6","","77","","20","","37","","19.3","","99.23","","","","","","NA"
"2016-01-28 12:00","2016","01","28","12:00","1.9","","-2.4","","73","","21","","38","","24.1","","99.10","","","","","","NA"
"2016-01-28 13:00","2016","01","28","13:00","2.7","","-3.0","","66","","21","","44","","24.1","","98.98","","","","","","Mostly Cloudy"
"2016-01-28 14:00","2016","01","28","14:00","2.7","","-3.0","","66","","21","","35","","24.1","","98.95","","","","","","NA"
"2016-01-28 15:00","2016","01","28","15:00","2.8","","-2.9","","66","","22","","29","","24.1","","98.91","","","","","","NA"
"2016-01-28 16:00","2016","01","28","16:00","3.2","","-3.0","","64","","21","","27","","24.1","","98.91","","","","","","Cloudy"
"2016-01-28 17:00","2016","01","28","17:00","3.5","","-2.3","","66","","22","","25","","24.1","","98.89","","","","","","Rain,Snow"
"2016-01-28 18:00","2016","01","28","18:00","2.8","","-1.0","","76","","23","","22","","12.9","","98.92","","","","","","Rain Showers"
"2016-01-28 19:00","2016","01","28","19:00","2.5","","-0.4","","81","","23","","28","","12.9","","98.92","","","","","","Rain Showers"
"2016-01-28 20:00","2016","01","28","20:00","2.2","","0.6","","89","","23","","23","","12.9","","98.89","","","","","","Rain Showers"
"2016-01-28 21:00","2016","01","28","21:00","2.2","","0.6","","89","","23","","25","","12.9","","98.82","","","","","","NA"
"2016-01-28 22:00","2016","01","28","22:00"
"2016-01-28 23:00","2016","01","28","23:00"
"2016-01-29 00:00","2016","01","29","00:00"
"2016-01-29 01:00","2016","01","29","01:00"
"2016-01-29 02:00","2016","01","29","02:00"
"2016-01-29 03:00","2016","01","29","03:00"
"2016-01-29 04:00","2016","01","29","04:00"
"2016-01-29 05:00","2016","01","29","05:00"
"2016-01-29 06:00","2016","01","29","06:00"
"2016-01-29 07:00","2016","01","29","07:00","-2.8","","-6.1","","78","","31","","31","","9.7","","99.05","","","","-10","","Snow"
"2016-01-29 08:00","2016","01","29","08:00","-4.0","","-7.6","","76","","30","","28","","6.4","","99.16","","","","-11","","Snow"
"2016-01-29 09:00","2016","01","29","09:00","-4.6","","-9.3","","70","","30","","29","","24.1","","99.26","","","","-12","","NA"
"2016-01-29 10:00","2016","01","29","10:00","-5.2","","-9.5","","72","","29","","26","","8.1","","99.38","","","","-13","","Snow Showers"
"2016-01-29 11:00","2016","01","29","11:00","-5.5","","-10.7","","67","","30","","26","","9.7","","99.47","","","","-13","","Snow Showers"
"2016-01-29 12:00","2016","01","29","12:00","-5.7","","-10.7","","68","","29","","27","","12.9","","99.51","","","","-14","","Snow Showers"
"2016-01-29 13:00","2016","01","29","13:00","-5.2","","-10.2","","68","","30","","23","","16.1","","99.56","","","","-12","","Snow Showers"
"2016-01-29 14:00","2016","01","29","14:00","-5.4","","-11.2","","64","","29","","26","","24.1","","99.60","","","","-13","","NA"
"2016-01-29 15:00","2016","01","29","15:00","-4.7","","-10.5","","64","","28","","33","","24.1","","99.71","","","","-13","","NA"
"2016-01-29 16:00","2016","01","29","16:00","-3.8","","-9.9","","63","","27","","32","","24.1","","99.82","","","","-12","","Mostly Cloudy"
"2016-01-29 17:00","2016","01","29","17:00","-4.6","","-10.0","","66","","30","","29","","24.1","","99.90","","","","-12","","NA"
"2016-01-29 18:00","2016","01","29","18:00","-4.8","","-9.7","","69","","30","","26","","24.1","","100.08","","","","-12","","NA"
"2016-01-29 19:00","2016","01","29","19:00","-5.1","","-9.2","","73","","30","","18","","24.1","","100.18","","","","-11","","Mainly Clear"
"2016-01-29 20:00","2016","01","29","20:00","-5.3","","-9.2","","74","","28","","19","","24.1","","100.26","","","","-12","","NA"
"2016-01-29 21:00","2016","01","29","21:00","-5.7","","-9.3","","76","","31","","17","","24.1","","100.25","","","","-12","","NA"
"2016-01-29 22:00","2016","01","29","22:00"
"2016-01-29 23:00","2016","01","29","23:00"
"2016-01-30 00:00","2016","01","30","00:00"
"2016-01-30 01:00","2016","01","30","01:00"
"2016-01-30 02:00","2016","01","30","02:00"
"2016-01-30 03:00","2016","01","30","03:00"
"2016-01-30 04:00","2016","01","30","04:00"
"2016-01-30 05:00","2016","01","30","05:00"
"2016-01-30 06:00","2016","01","30","06:00"
"2016-01-30 07:00","2016","01","30","07:00","-2.3","","-6.3","","74","","17","","21","","19.3","","99.93","","","","-8","","Cloudy"
"2016-01-30 08:00","2016","01","30","08:00","-2.4","","-6.8","","72","","17","","23","","24.1","","99.84","","","","-9","","NA"
"2016-01-30 09:00","2016","01","30","09:00","-0.9","","-5.9","","69","","18","","26","","24.1","","99.72","","","","-7","","NA"
"2016-01-30 10:00","2016","01","30","10:00","1.3","","-5.4","","61","","19","","32","","24.1","","99.56","","","","","","Cloudy"
"2016-01-30 11:00","2016","01","30","11:00","3.0","","-4.7","","57","","20","","34","","24.1","","99.55","","","","","","NA"
"2016-01-30 12:00","2016","01","30","12:00","6.1","","-2.3","","55","","21","","38","","24.1","","99.42","","","","","","NA"
"2016-01-30 13:00","2016","01","30","13:00","7.3","","-1.6","","53","","22","","38","","24.1","","99.29","","","","","","Mostly Cloudy"
"2016-01-30 14:00","2016","01","30","14:00","7.7","","-1.3","","53","","24","","34","","24.1","","99.27","","","","","","NA"
"2016-01-30 15:00","2016","01","30","15:00","7.6","","-0.6","","56","","23","","35","","24.1","","99.22","","","","","","NA"
"2016-01-30 16:00","2016","01","30","16:00","7.6","","-0.4","","57","","24","","22","","24.1","","99.25","","","","","","Cloudy"
"2016-01-30 17:00","2016","01","30","17:00","7.3","","-0.2","","59","","23","","23","","24.1","","99.25","","","","","","NA"
"2016-01-30 18:00","2016","01","30","18:00","5.9","","-0.4","","64","","24","","14","","24.1","","99.38","","","","","","NA"
"2016-01-30 19:00","2016","01","30","19:00","4.6","","-0.6","","69","","24","","14","","24.1","","99.44","","","","","","Mostly Cloudy"
"2016-01-30 20:00","2016","01","30","20:00","4.4","","-0.2","","72","","23","","12","","24.1","","99.48","","","","","","NA"
"2016-01-30 21:00","2016","01","30","21:00","4.9","","0.3","","72","","23","","14","","24.1","","99.47","","","","","","NA"
"2016-01-30 22:00","2016","01","30","22:00"
"2016-01-30 23:00","2016","01","30","23:00"
"2016-01-31 00:00","2016","01","31","00:00"
"2016-01-31 01:00","2016","01","31","01:00"
"2016-01-31 02:00","2016","01","31","02:00"
"2016-01-31 03:00","2016","01","31","03:00"
"2016-01-31 04:00","2016","01","31","04:00"
"2016-01-31 05:00","2016","01","31","05:00"
"2016-01-31 06:00","2016","01","31","06:00"
"2016-01-31 07:00","2016","01","31","07:00","6.8","","1.1","","67","","23","","17","","24.1","","99.57","","","","","","Cloudy"
"2016-01-31 08:00","2016","01","31","08:00","7.0","","1.7","","69","","22","","23","","19.3","","99.60","","","","","","Rain Showers"
"2016-01-31 09:00","2016","01","31","09:00","6.4","","3.4","","81","","22","","10","","24.1","","99.55","","","","","","Rain Showers"
"2016-01-31 10:00","2016","01","31","10:00","7.0","","3.4","","78","","21","","21","","24.1","","99.51","","","","","","Cloudy"
"2016-01-31 11:00","2016","01","31","11:00","8.8","","3.9","","71","","20","","15","","24.1","","99.49","","","","","","NA"
"2016-01-31 12:00","2016","01","31","12:00","11.7","","4.2","","60","","21","","17","","24.1","","99.37","","","","","","NA"
"2016-01-31 13:00","2016","01","31","13:00","11.4","","3.7","","59","","21","","21","","24.1","","99.25","","","","","","Cloudy"
"2016-01-31 14:00","2016","01","31","14:00","10.3","","3.8","","64","","20","","17","","19.3","","99.15","","","","","","Rain Showers"
"2016-01-31 15:00","2016","01","31","15:00","10.6","","4.3","","65","","20","","15","","24.1","","99.07","","","","","","NA"
"2016-01-31 16:00","2016","01","31","16:00","9.4","","5.6","","77","","20","","11","","24.1","","99.04","","","","","","Rain Showers"
"2016-01-31 17:00","2016","01","31","17:00","10.5","","5.5","","71","","19","","21","","24.1","","98.95","","","","","","Rain Showers"
"2016-01-31 18:00","2016","01","31","18:00","10.9","","6.1","","72","","20","","19","","24.1","","98.98","","","","","","NA"
"2016-01-31 19:00","2016","01","31","19:00","12.7","","7.2","","69","","22","","29","","24.1","","99.00","","","","","","Cloudy"
"2016-01-31 20:00","2016","01","31","20:00","12.0","","7.7","","75","","21","","30","","24.1","","98.93","","","","","","Rain Showers"
"2016-01-31 21:00","2016","01","31","21:00","12.6","","6.9","","68","","21","","40","","24.1","","98.79","","","","","","Rain Showers"
"2016-01-31 22:00","2016","01","31","22:00"
"2016-01-31 23:00","2016","01","31","23:00"
