"Station Name","ST CATHARINES A"
"Province","ONTARIO"
"Latitude","43.20"
"Longitude","-79.17"
"Elevation","97.80"
"Climate Identifier","6137287"
"WMO Identifier",""
"TC Identifier","YSN"
"All times are specified in Local Standard Time (LST). Add 1 hour to adjust for Daylight Saving Time where and when it is observed."

"Legend"
"E","Estimated"
"M","Missing"
"NA","Not Available"

"Date/Time","Year","Month","Day","Time","Temp (°C)","Temp Flag","Dew Point Temp (°C)","Dew Point Temp Flag","Rel Hum (%)","Rel Hum Flag","Wind Dir (10s deg)","Wind Dir Flag","Wind Spd (km/h)","Wind Spd Flag","Visibility (km)","Visibility Flag","Stn Press (kPa)","Stn Press Flag","Hmdx","Hmdx Flag","Wind Chill","Wind Chill Flag","Weather"
"2001-12-01 00:00","2001","12","01","00:00"
"2001-12-01 01:00","2001","12","01","01:00"
"2001-12-01 02:00","2001","12","01","02:00"
"2001-12-01 03:00","2001","12","01","03:00"
"2001-12-01 04:00","2001","12","01","04:00"
"2001-12-01 05:00","2001","12","01","05:00"
"2001-12-01 06:00","2001","12","01","06:00","8.3","","6.5","","88","","25","","26","","12.9","","100.13","","","","","","Drizzle"
"2001-12-01 07:00","2001","12","01","07:00","7.8","","5.5","","85","","25","","28","","12.9","","100.20","","","","","","Drizzle"
"2001-12-01 08:00","2001","12","01","08:00","7.4","","5.7","","89","","24","","28","","12.9","","100.31","","","","","","Drizzle"
"2001-12-01 09:00","2001","12","01","09:00","7.9","","4.4","","79","","25","","28","","24.1","","100.41","","","","","","Cloudy"
"2001-12-01 10:00","2001","12","01","10:00","8.4","","3.8","","73","","24","","19","","24.1","","100.47","","","","","","Cloudy"
"2001-12-01 11:00","2001","12","01","11:00","9.1","","3.5","","68","","25","","19","","24.1","","100.55","","","","","","Mostly Cloudy"
"2001-12-01 12:00","2001","12","01","12:00","9.4","","4.1","","69","","25","","19","","24.1","","100.54","","","","","","Mostly Cloudy"
"2001-12-01 13:00","2001","12","01","13:00","9.1","","4.2","","71","","23","","22","","24.1","","100.55","","","","","","Cloudy"
"2001-12-01 14:00","2001","12","01","14:00","9.3","","3.9","","69","","24","","19","","24.1","","100.59","","","","","","Cloudy"
"2001-12-01 15:00","2001","12","01","15:00","9.0","","4.0","","71","","23","","22","","24.1","","100.66","","","","","","Cloudy"
"2001-12-01 16:00","2001","12","01","16:00","8.8","","4.4","","74","","24","","19","","24.1","","100.74","","","","","","Cloudy"
"2001-12-01 17:00","2001","12","01","17:00","8.6","","4.0","","73","","25","","22","","24.1","","100.83","","","","","","Cloudy"
"2001-12-01 18:00","2001","12","01","18:00","8.3","","4.0","","74","","25","","19","","19.3","","100.88","","","","","","Cloudy"
"2001-12-01 19:00","2001","12","01","19:00","8.2","","3.6","","73","","25","","19","","19.3","","100.92","","","","","","Cloudy"
"2001-12-01 20:00","2001","12","01","20:00","8.1","","3.2","","71","","24","","19","","19.3","","100.92","","","","","","Mostly Cloudy"
"2001-12-01 21:00","2001","12","01","21:00","8.0","","3.4","","73","","24","","22","","19.3","","100.97","","","","","","Cloudy"
"2001-12-01 22:00","2001","12","01","22:00","7.9","","3.6","","74","","24","","19","","19.3","","101.02","","","","","","Cloudy"
"2001-12-01 23:00","2001","12","01","23:00"
"2001-12-02 00:00","2001","12","02","00:00"
"2001-12-02 01:00","2001","12","02","01:00"
"2001-12-02 02:00","2001","12","02","02:00"
"2001-12-02 03:00","2001","12","02","03:00"
"2001-12-02 04:00","2001","12","02","04:00"
"2001-12-02 05:00","2001","12","02","05:00"
"2001-12-02 06:00","2001","12","02","06:00","6.2","","2.4","","77","","26","","13","","16.1","","101.25","","","","","","Cloudy"
"2001-12-02 07:00","2001","12","02","07:00","6.1","","1.3","","71","","25","","15","","24.1","","101.29","","","","","","Cloudy"
"2001-12-02 08:00","2001","12","02","08:00","5.9","","1.5","","73","","25","","19","","16.1","","101.37","","","","","","Mostly Cloudy"
"2001-12-02 09:00","2001","12","02","09:00","5.7","","1.7","","75","","24","","15","","16.1","","101.41","","","","","","Mostly Cloudy"
"2001-12-02 10:00","2001","12","02","10:00","6.6","","1.2","","68","","24","","19","","11.3","","101.44","","","","","","Mainly Clear"
"2001-12-02 11:00","2001","12","02","11:00","7.2","","1.5","","67","","23","","19","","16.1","","101.44","","","","","","Clear"
"2001-12-02 12:00","2001","12","02","12:00","8.2","","2.0","","65","","24","","19","","16.1","","101.39","","","","","","Mainly Clear"
"2001-12-02 13:00","2001","12","02","13:00","8.8","","2.6","","65","","26","","19","","16.1","","101.37","","","","","","Mainly Clear"
"2001-12-02 14:00","2001","12","02","14:00","9.1","","2.3","","62","","23","","19","","16.1","","101.35","","","","","","Mainly Clear"
"2001-12-02 15:00","2001","12","02","15:00","9.4","","2.9","","64","","24","","19","","16.1","","101.33","","","","","","Clear"
"2001-12-02 16:00","2001","12","02","16:00","8.6","","3.4","","70","","22","","19","","16.1","","101.36","","","","","","Mainly Clear"
"2001-12-02 17:00","2001","12","02","17:00","6.3","","3.3","","81","","21","","11","","12.9","","101.39","","","","","","Clear"
"2001-12-02 18:00","2001","12","02","18:00","5.0","","2.9","","86","","21","","9","","12.9","","101.38","","","","","","Clear"
"2001-12-02 19:00","2001","12","02","19:00","4.4","","2.9","","90","","24","","9","","12.9","","101.42","","","","","","Clear"
"2001-12-02 20:00","2001","12","02","20:00","3.2","","2.2","","93","","21","","9","","12.9","","101.38","","","","","","Clear"
"2001-12-02 21:00","2001","12","02","21:00","3.5","","2.9","","96","","19","","9","","12.9","","101.33","","","","","","Clear"
"2001-12-02 22:00","2001","12","02","22:00","3.1","","2.4","","95","","21","","7","","12.9","","101.31","","","","","","Mainly Clear"
"2001-12-02 23:00","2001","12","02","23:00"
"2001-12-03 00:00","2001","12","03","00:00"
"2001-12-03 01:00","2001","12","03","01:00"
"2001-12-03 02:00","2001","12","03","02:00"
"2001-12-03 03:00","2001","12","03","03:00"
"2001-12-03 04:00","2001","12","03","04:00"
"2001-12-03 05:00","2001","12","03","05:00"
"2001-12-03 06:00","2001","12","03","06:00","6.2","","2.9","","79","","20","","28","","19.3","","100.77","","","","","","Clear"
"2001-12-03 07:00","2001","12","03","07:00","6.9","","3.0","","76","","20","","28","","16.1","","100.75","","","","","","Mainly Clear"
"2001-12-03 08:00","2001","12","03","08:00","8.1","","3.4","","72","","21","","33","","24.1","","100.71","","","","","","Mainly Clear"
"2001-12-03 09:00","2001","12","03","09:00","9.5","","3.5","","66","","22","","19","","24.1","","100.79","","","","","","Mainly Clear"
"2001-12-03 10:00","2001","12","03","10:00","11.9","","3.3","","56","","24","","19","","24.1","","100.78","","","","","","Mostly Cloudy"
"2001-12-03 11:00","2001","12","03","11:00","11.4","","4.1","","61","","24","","19","","24.1","","100.77","","","","","","Mostly Cloudy"
"2001-12-03 12:00","2001","12","03","12:00","11.7","","5.0","","63","","24","","19","","24.1","","100.74","","","","","","Mostly Cloudy"
"2001-12-03 13:00","2001","12","03","13:00","12.4","","6.2","","66","","23","","19","","24.1","","100.72","","","","","","Mainly Clear"
"2001-12-03 14:00","2001","12","03","14:00","12.8","","6.7","","66","","21","","19","","24.1","","100.72","","","","","","Clear"
"2001-12-03 15:00","2001","12","03","15:00","12.5","","6.7","","68","","23","","28","","24.1","","100.72","","","","","","Clear"
"2001-12-03 16:00","2001","12","03","16:00","11.3","","6.3","","71","","22","","7","","24.1","","100.76","","","","","","Clear"
"2001-12-03 17:00","2001","12","03","17:00","9.4","","5.8","","78","","23","","19","","24.1","","100.83","","","","","","Mainly Clear"
"2001-12-03 18:00","2001","12","03","18:00","8.6","","5.5","","81","","22","","15","","24.1","","100.89","","","","","","Mainly Clear"
"2001-12-03 19:00","2001","12","03","19:00","7.7","","5.6","","87","","23","","19","","24.1","","100.94","","","","","","Clear"
"2001-12-03 20:00","2001","12","03","20:00","5.9","","4.6","","91","","23","","13","","24.1","","101.02","","","","","","Clear"
"2001-12-03 21:00","2001","12","03","21:00","6.4","","5.1","","91","","25","","13","","24.1","","101.07","","","","","","Clear"
"2001-12-03 22:00","2001","12","03","22:00","4.4","","4.2","","99","","15","","9","","24.1","","101.09","","","","","","Clear"
"2001-12-03 23:00","2001","12","03","23:00"
"2001-12-04 00:00","2001","12","04","00:00"
"2001-12-04 01:00","2001","12","04","01:00"
"2001-12-04 02:00","2001","12","04","02:00"
"2001-12-04 03:00","2001","12","04","03:00"
"2001-12-04 04:00","2001","12","04","04:00"
"2001-12-04 05:00","2001","12","04","05:00"
"2001-12-04 06:00","2001","12","04","06:00","2.2","","2.0","","99","","16","","9","","11.3","","101.20","","","","","","Mostly Cloudy"
"2001-12-04 07:00","2001","12","04","07:00","4.0","","4.0","","100","","18","","9","","11.3","","101.22","","","","","","Mainly Clear"
"2001-12-04 08:00","2001","12","04","08:00","5.5","","4.7","","95","","","","0","","12.9","","101.23","","","","","","Mostly Cloudy"
"2001-12-04 09:00","2001","12","04","09:00","7.7","","6.0","","89","","17","","9","","12.9","","101.16","","","","","","Mostly Cloudy"
"2001-12-04 10:00","2001","12","04","10:00","9.6","","5.2","","74","","17","","9","","19.3","","101.14","","","","","","Mostly Cloudy"
"2001-12-04 11:00","2001","12","04","11:00","11.5","","6.8","","73","","17","","9","","19.3","","101.05","","","","","","Mostly Cloudy"
"2001-12-04 12:00","2001","12","04","12:00","12.5","","6.8","","68","","19","","9","","19.3","","100.96","","","","","","Mostly Cloudy"
"2001-12-04 13:00","2001","12","04","13:00","14.4","","6.6","","59","","23","","15","","19.3","","100.78","","","","","","Mostly Cloudy"
"2001-12-04 14:00","2001","12","04","14:00","14.4","","6.6","","59","","23","","15","","19.3","","100.78","","","","","","Mostly Cloudy"
"2001-12-04 15:00","2001","12","04","15:00","15.8","","5.8","","51","","23","","19","","19.3","","100.74","","","","","","Mostly Cloudy"
"2001-12-04 16:00","2001","12","04","16:00","15.1","","6.3","","56","","24","","19","","24.1","","100.76","","","","","","Cloudy"
"2001-12-04 17:00","2001","12","04","17:00","13.8","","9.0","","73","","23","","19","","19.3","","100.83","","","","","","Cloudy"
"2001-12-04 18:00","2001","12","04","18:00","13.4","","9.0","","75","","23","","22","","19.3","","100.84","","","","","","Cloudy"
"2001-12-04 19:00","2001","12","04","19:00","14.2","","8.0","","66","","22","","20","","19.3","","100.84","","","","","","Cloudy"
"2001-12-04 20:00","2001","12","04","20:00","13.8","","8.2","","69","","23","","22","","16.1","","100.88","","","","","","Cloudy"
"2001-12-04 21:00","2001","12","04","21:00","13.8","","8.6","","71","","23","","22","","16.1","","100.92","","","","","","Cloudy"
"2001-12-04 22:00","2001","12","04","22:00","13.7","","8.7","","72","","24","","22","","16.1","","100.94","","","","","","Cloudy"
"2001-12-04 23:00","2001","12","04","23:00"
"2001-12-05 00:00","2001","12","05","00:00"
"2001-12-05 01:00","2001","12","05","01:00"
"2001-12-05 02:00","2001","12","05","02:00"
"2001-12-05 03:00","2001","12","05","03:00"
"2001-12-05 04:00","2001","12","05","04:00"
"2001-12-05 05:00","2001","12","05","05:00"
"2001-12-05 06:00","2001","12","05","06:00","12.8","","9.9","","83","","25","","9","","19.3","","101.16","","","","","","Cloudy"
"2001-12-05 07:00","2001","12","05","07:00","12.5","","10.6","","88","","24","","9","","12.9","","101.16","","","","","","Cloudy"
"2001-12-05 08:00","2001","12","05","08:00","12.8","","10.4","","85","","23","","9","","12.9","","101.17","","","","","","Mostly Cloudy"
"2001-12-05 09:00","2001","12","05","09:00","13.4","","10.2","","81","","21","","15","","16.1","","101.15","","","","","","Mostly Cloudy"
"2001-12-05 10:00","2001","12","05","10:00","14.2","","10.2","","77","","21","","15","","19.3","","101.12","","","","","","Cloudy"
"2001-12-05 11:00","2001","12","05","11:00","14.0","","10.4","","79","","20","","15","","19.3","","101.04","","","","","","Cloudy"
"2001-12-05 12:00","2001","12","05","12:00","17.7","","10.5","","63","","22","","28","","19.3","","100.92","","","","","","Mainly Clear"
"2001-12-05 13:00","2001","12","05","13:00","18.0","","9.9","","59","","22","","22","","19.3","","100.87","","","","","","Mostly Cloudy"
"2001-12-05 14:00","2001","12","05","14:00","18.6","","9.3","","55","","23","","19","","19.3","","100.74","","","","","","Mostly Cloudy"
"2001-12-05 15:00","2001","12","05","15:00","19.6","","9.2","","51","","23","","19","","19.3","","100.66","","","","","","Mostly Cloudy"
"2001-12-05 16:00","2001","12","05","16:00","18.9","","7.2","","47","","22","","19","","24.1","","100.61","","","","","","Mainly Clear"
"2001-12-05 17:00","2001","12","05","17:00","17.5","","7.9","","53","","21","","22","","24.1","","100.56","","","","","","Mainly Clear"
"2001-12-05 18:00","2001","12","05","18:00","16.9","","7.3","","53","","22","","19","","24.1","","100.56","","","","","","Mainly Clear"
"2001-12-05 19:00","2001","12","05","19:00","17.7","","6.2","","47","","23","","19","","24.1","","100.47","","","","","","Mostly Cloudy"
"2001-12-05 20:00","2001","12","05","20:00","18.0","","4.7","","41","","21","","26","","24.1","","100.39","","","","","","Mostly Cloudy"
"2001-12-05 21:00","2001","12","05","21:00","18.7","","4.3","","39","","21","","28","","24.1","","100.35","","","","","","Mostly Cloudy"
"2001-12-05 22:00","2001","12","05","22:00","18.3","","4.3","","39","","21","","28","","24.1","","100.29","","","","","","Mostly Cloudy"
"2001-12-05 23:00","2001","12","05","23:00"
"2001-12-06 00:00","2001","12","06","00:00"
"2001-12-06 01:00","2001","12","06","01:00"
"2001-12-06 02:00","2001","12","06","02:00"
"2001-12-06 03:00","2001","12","06","03:00"
"2001-12-06 04:00","2001","12","06","04:00"
"2001-12-06 05:00","2001","12","06","05:00"
"2001-12-06 06:00","2001","12","06","06:00","13.2","","9.9","","80","","24","","28","","12.9","","100.26","","","","","","Rain Showers"
"2001-12-06 07:00","2001","12","06","07:00","12.4","","9.4","","82","","23","","19","","24.1","","100.32","","","","","","Cloudy"
"2001-12-06 08:00","2001","12","06","08:00","12.1","","9.7","","85","","23","","19","","24.1","","100.39","","","","","","Cloudy"
"2001-12-06 09:00","2001","12","06","09:00","12.0","","8.7","","80","","24","","19","","24.1","","100.41","","","","","","Cloudy"
"2001-12-06 10:00","2001","12","06","10:00","11.2","","-2.1","","39","","25","","22","","24.1","","100.53","","","","","","Cloudy"
"2001-12-06 11:00","2001","12","06","11:00","11.0","","-2.2","","40","","26","","22","","24.1","","100.54","","","","","","Cloudy"
"2001-12-06 12:00","2001","12","06","12:00","11.1","","0.4","","48","","25","","22","","24.1","","100.50","","","","","","Mostly Cloudy"
"2001-12-06 13:00","2001","12","06","13:00","10.6","","-2.6","","40","","24","","24","","24.1","","100.49","","","","","","Mostly Cloudy"
"2001-12-06 14:00","2001","12","06","14:00","10.4","","-1.6","","43","","26","","26","","48.3","","100.46","","","","","","Mostly Cloudy"
"2001-12-06 15:00","2001","12","06","15:00","10.1","","-3.1","","39","","24","","22","","48.3","","100.42","","","","","","Mostly Cloudy"
"2001-12-06 16:00","2001","12","06","16:00","9.0","","-2.3","","45","","23","","20","","48.3","","100.37","","","","","","Mainly Clear"
"2001-12-06 17:00","2001","12","06","17:00","8.0","","-1.8","","50","","25","","19","","48.3","","100.42","","","","","","Mainly Clear"
"2001-12-06 18:00","2001","12","06","18:00","5.8","","-1.5","","59","","24","","11","","48.3","","100.47","","","","","","Clear"
"2001-12-06 19:00","2001","12","06","19:00","4.6","","-1.7","","64","","27","","7","","48.3","","100.49","","","","","","Clear"
"2001-12-06 20:00","2001","12","06","20:00","4.7","","-1.7","","63","","26","","4","","48.3","","100.47","","","","","","Clear"
"2001-12-06 21:00","2001","12","06","21:00","1.9","","-3.2","","69","","28","","7","","24.1","","100.41","","","","","","Clear"
"2001-12-06 22:00","2001","12","06","22:00","1.9","","-1.0","","81","","24","","9","","24.1","","100.28","","","","","","Clear"
"2001-12-06 23:00","2001","12","06","23:00"
"2001-12-07 00:00","2001","12","07","00:00"
"2001-12-07 01:00","2001","12","07","01:00"
"2001-12-07 02:00","2001","12","07","02:00"
"2001-12-07 03:00","2001","12","07","03:00"
"2001-12-07 04:00","2001","12","07","04:00"
"2001-12-07 05:00","2001","12","07","05:00"
"2001-12-07 06:00","2001","12","07","06:00","0.3","","-2.0","","85","","24","","15","","24.1","","100.32","","","","","","Clear"
"2001-12-07 07:00","2001","12","07","07:00","0.3","","-1.9","","85","","23","","19","","24.1","","100.39","","","","","","Clear"
"2001-12-07 08:00","2001","12","07","08:00","-0.2","","-1.9","","88","","23","","15","","24.1","","100.46","","","","-5","","Clear"
"2001-12-07 09:00","2001","12","07","09:00","2.8","","0.0","","82","","24","","11","","24.1","","100.54","","","","","","Mainly Clear"
"2001-12-07 10:00","2001","12","07","10:00","5.8","","1.4","","73","","28","","11","","24.1","","100.59","","","","","","Mainly Clear"
"2001-12-07 11:00","2001","12","07","11:00","7.3","","1.8","","68","","29","","19","","24.1","","100.63","","","","","","Clear"
"2001-12-07 12:00","2001","12","07","12:00","7.7","","1.2","","63","","28","","19","","24.1","","100.65","","","","","","Clear"
"2001-12-07 13:00","2001","12","07","13:00","7.7","","1.3","","64","","28","","17","","24.1","","100.66","","","","","","Mainly Clear"
"2001-12-07 14:00","2001","12","07","14:00","7.6","","2.4","","70","","31","","11","","24.1","","100.70","","","","","","Mainly Clear"
"2001-12-07 15:00","2001","12","07","15:00","7.3","","1.5","","67","","31","","19","","24.1","","100.74","","","","","","Mostly Cloudy"
"2001-12-07 16:00","2001","12","07","16:00","6.3","","1.3","","70","","35","","15","","24.1","","100.80","","","","","","Mostly Cloudy"
"2001-12-07 17:00","2001","12","07","17:00","4.5","","0.6","","76","","34","","7","","24.1","","100.88","","","","","","Mostly Cloudy"
"2001-12-07 18:00","2001","12","07","18:00","4.0","","-0.6","","72","","32","","15","","24.1","","100.94","","","","","","Mainly Clear"
"2001-12-07 19:00","2001","12","07","19:00","4.0","","-0.8","","71","","32","","15","","24.1","","100.99","","","","","","Mainly Clear"
"2001-12-07 20:00","2001","12","07","20:00","3.3","","-2.0","","68","","33","","15","","24.1","","101.04","","","","","","Mainly Clear"
"2001-12-07 21:00","2001","12","07","21:00","2.0","","-1.4","","78","","1","","9","","24.1","","101.08","","","","","","Clear"
"2001-12-07 22:00","2001","12","07","22:00","1.6","","-1.9","","78","","2","","9","","24.1","","101.12","","","","","","Clear"
"2001-12-07 23:00","2001","12","07","23:00"
"2001-12-08 00:00","2001","12","08","00:00"
"2001-12-08 01:00","2001","12","08","01:00"
"2001-12-08 02:00","2001","12","08","02:00"
"2001-12-08 03:00","2001","12","08","03:00"
"2001-12-08 04:00","2001","12","08","04:00"
"2001-12-08 05:00","2001","12","08","05:00"
"2001-12-08 06:00","2001","12","08","06:00","-1.8","","-4.6","","81","","8","","15","","24.1","","101.07","","","","-7","","Mainly Clear"
"2001-12-08 07:00","2001","12","08","07:00","-1.6","","-4.4","","81","","9","","9","","24.1","","101.06","","","","-5","","Mainly Clear"
"2001-12-08 08:00","2001","12","08","08:00","-1.6","","-4.3","","82","","9","","9","","24.1","","101.10","","","","-5","","Mostly Cloudy"
"2001-12-08 09:00","2001","12","08","09:00","-0.2","","-3.5","","78","","9","","19","","24.1","","100.98","","","","-5","","Mainly Clear"
"2001-12-08 10:00","2001","12","08","10:00","0.5","","-3.2","","76","","9","","19","","24.1","","100.95","","","","","","Mostly Cloudy"
"2001-12-08 11:00","2001","12","08","11:00","2.2","","-2.4","","72","","8","","11","","24.1","","100.90","","","","","","Cloudy"
"2001-12-08 12:00","2001","12","08","12:00","2.5","","-2.9","","67","","9","","22","","24.1","","100.75","","","","","","Cloudy"
"2001-12-08 13:00","2001","12","08","13:00","3.0","","-2.6","","67","","8","","19","","24.1","","100.61","","","","","","Mostly Cloudy"
"2001-12-08 14:00","2001","12","08","14:00","3.0","","-2.5","","67","","8","","19","","24.1","","100.51","","","","","","Cloudy"
"2001-12-08 15:00","2001","12","08","15:00","2.7","","-2.6","","68","","8","","19","","24.1","","100.45","","","","","","Cloudy"
"2001-12-08 16:00","2001","12","08","16:00","2.1","","-3.0","","69","","7","","19","","24.1","","100.40","","","","","","Cloudy"
"2001-12-08 17:00","2001","12","08","17:00","1.9","","-2.8","","71","","8","","19","","24.1","","100.38","","","","","","Cloudy"
"2001-12-08 18:00","2001","12","08","18:00","1.9","","-2.6","","72","","7","","19","","24.1","","100.36","","","","","","Cloudy"
"2001-12-08 19:00","2001","12","08","19:00","1.6","","-2.2","","76","","8","","9","","24.1","","100.32","","","","","","Cloudy"
"2001-12-08 20:00","2001","12","08","20:00","1.8","","-2.0","","76","","7","","9","","24.1","","100.33","","","","","","Cloudy"
"2001-12-08 21:00","2001","12","08","21:00","1.6","","-0.9","","83","","8","","9","","24.1","","100.27","","","","","","Cloudy"
"2001-12-08 22:00","2001","12","08","22:00","1.6","","-0.6","","85","","7","","9","","24.1","","100.26","","","","","","Cloudy"
"2001-12-08 23:00","2001","12","08","23:00"
"2001-12-09 00:00","2001","12","09","00:00"
"2001-12-09 01:00","2001","12","09","01:00"
"2001-12-09 02:00","2001","12","09","02:00"
"2001-12-09 03:00","2001","12","09","03:00"
"2001-12-09 04:00","2001","12","09","04:00"
"2001-12-09 05:00","2001","12","09","05:00"
"2001-12-09 06:00","2001","12","09","06:00","1.7","","-0.3","","87","","31","","9","","24.1","","100.65","","","","","","Cloudy"
"2001-12-09 07:00","2001","12","09","07:00","-0.1","","-1.6","","90","","24","","7","","24.1","","100.77","","","","-3","","Mainly Clear"
"2001-12-09 08:00","2001","12","09","08:00","-0.8","","-2.0","","92","","25","","9","","16.1","","100.85","","","","-4","","Mainly Clear"
"2001-12-09 09:00","2001","12","09","09:00","1.2","","-1.0","","85","","24","","15","","16.1","","100.98","","","","","","Mainly Clear"
"2001-12-09 10:00","2001","12","09","10:00","2.2","","-0.8","","81","","24","","9","","16.1","","101.02","","","","","","Mostly Cloudy"
"2001-12-09 11:00","2001","12","09","11:00","3.8","","0.6","","80","","29","","9","","16.1","","101.09","","","","","","Mostly Cloudy"
"2001-12-09 12:00","2001","12","09","12:00","4.9","","0.2","","72","","29","","19","","19.3","","101.08","","","","","","Mainly Clear"
"2001-12-09 13:00","2001","12","09","13:00","5.4","","0.1","","69","","27","","11","","19.3","","101.10","","","","","","Mainly Clear"
"2001-12-09 14:00","2001","12","09","14:00","4.8","","-1.7","","63","","28","","9","","24.1","","101.12","","","","","","Mainly Clear"
"2001-12-09 15:00","2001","12","09","15:00","5.7","","-2.2","","57","","28","","15","","24.1","","101.14","","","","","","Mainly Clear"
"2001-12-09 16:00","2001","12","09","16:00","5.1","","-3.9","","52","","29","","19","","24.1","","101.19","","","","","","Mainly Clear"
"2001-12-09 17:00","2001","12","09","17:00","3.6","","-3.7","","59","","26","","9","","24.1","","101.23","","","","","","Clear"
"2001-12-09 18:00","2001","12","09","18:00","1.1","","-4.0","","69","","23","","9","","24.1","","101.29","","","","","","Clear"
"2001-12-09 19:00","2001","12","09","19:00","0.2","","-3.8","","74","","23","","9","","24.1","","101.33","","","","","","Clear"
"2001-12-09 20:00","2001","12","09","20:00","-0.6","","-3.8","","79","","22","","9","","24.1","","101.35","","","","-4","","Clear"
"2001-12-09 21:00","2001","12","09","21:00","-0.2","","-3.7","","77","","21","","9","","24.1","","101.38","","","","-3","","Clear"
"2001-12-09 22:00","2001","12","09","22:00","-0.9","","-3.8","","81","","20","","9","","24.1","","101.40","","","","-4","","Clear"
"2001-12-09 23:00","2001","12","09","23:00"
"2001-12-10 00:00","2001","12","10","00:00"
"2001-12-10 01:00","2001","12","10","01:00"
"2001-12-10 02:00","2001","12","10","02:00"
"2001-12-10 03:00","2001","12","10","03:00"
"2001-12-10 04:00","2001","12","10","04:00"
"2001-12-10 05:00","2001","12","10","05:00"
"2001-12-10 06:00","2001","12","10","06:00","-0.1","","-1.4","","91","","19","","9","","19.3","","101.26","","","","-3","","Mainly Clear"
"2001-12-10 07:00","2001","12","10","07:00","-0.6","","-1.5","","94","","19","","4","","19.3","","101.27","","","","-2","","Mainly Clear"
"2001-12-10 08:00","2001","12","10","08:00","-0.5","","-1.4","","94","","19","","4","","19.3","","101.25","","","","-2","","Mainly Clear"
"2001-12-10 09:00","2001","12","10","09:00","3.3","","0.6","","82","","18","","7","","19.3","","101.24","","","","","","Mainly Clear"
"2001-12-10 10:00","2001","12","10","10:00","5.6","","1.8","","77","","18","","15","","24.1","","101.24","","","","","","Mainly Clear"
"2001-12-10 11:00","2001","12","10","11:00","7.2","","1.2","","66","","21","","15","","24.1","","101.15","","","","","","Mainly Clear"
"2001-12-10 12:00","2001","12","10","12:00","7.6","","0.0","","59","","20","","20","","24.1","","101.08","","","","","","Mainly Clear"
"2001-12-10 13:00","2001","12","10","13:00","7.8","","-0.2","","57","","21","","22","","24.1","","101.01","","","","","","Mainly Clear"
"2001-12-10 14:00","2001","12","10","14:00","8.1","","0.1","","57","","20","","19","","24.1","","100.96","","","","","","Mainly Clear"
"2001-12-10 15:00","2001","12","10","15:00","7.7","","0.3","","59","","20","","19","","24.1","","100.91","","","","","","Mainly Clear"
"2001-12-10 16:00","2001","12","10","16:00","6.3","","0.0","","64","","20","","15","","24.1","","100.91","","","","","","Mainly Clear"
"2001-12-10 17:00","2001","12","10","17:00","5.1","","-0.3","","68","","20","","15","","24.1","","100.91","","","","","","Mainly Clear"
"2001-12-10 18:00","2001","12","10","18:00","3.4","","-0.6","","75","","19","","7","","24.1","","100.91","","","","","","Mainly Clear"
"2001-12-10 19:00","2001","12","10","19:00","3.4","","-0.3","","77","","19","","19","","24.1","","100.93","","","","","","Mainly Clear"
"2001-12-10 20:00","2001","12","10","20:00","1.2","","-1.0","","85","","21","","9","","24.1","","100.99","","","","","","Clear"
"2001-12-10 21:00","2001","12","10","21:00","1.8","","-0.6","","84","","20","","9","","24.1","","100.97","","","","","","Clear"
"2001-12-10 22:00","2001","12","10","22:00","1.2","","-0.4","","89","","21","","9","","24.1","","100.99","","","","","","Clear"
"2001-12-10 23:00","2001","12","10","23:00"
"2001-12-11 00:00","2001","12","11","00:00"
"2001-12-11 01:00","2001","12","11","01:00"
"2001-12-11 02:00","2001","12","11","02:00"
"2001-12-11 03:00","2001","12","11","03:00"
"2001-12-11 04:00","2001","12","11","04:00"
"2001-12-11 05:00","2001","12","11","05:00"
"2001-12-11 06:00","2001","12","11","06:00","0.2","","-1.3","","90","","20","","9","","24.1","","101.32","","","","","","Clear"
"2001-12-11 07:00","2001","12","11","07:00","-0.7","","-2.0","","91","","21","","9","","12.9","","101.40","","","","-4","","Clear"
"2001-12-11 08:00","2001","12","11","08:00","-1.0","","-1.8","","94","","24","","9","","12.9","","101.47","","","","-4","","Clear"
"2001-12-11 09:00","2001","12","11","09:00","0.8","","-0.7","","90","","24","","9","","12.9","","101.56","","","","","","Clear"
"2001-12-11 10:00","2001","12","11","10:00","3.7","","0.7","","81","","25","","7","","8.0","","101.65","","","","","","Haze"
"2001-12-11 11:00","2001","12","11","11:00","6.0","","1.2","","71","","","","0","","8.0","","101.65","","","","","","Haze"
"2001-12-11 12:00","2001","12","11","12:00","6.1","","1.8","","74","","35","","4","","9.7","","101.62","","","","","","Haze"
"2001-12-11 13:00","2001","12","11","13:00","6.0","","2.3","","77","","34","","9","","9.7","","101.64","","","","","","Haze"
"2001-12-11 14:00","2001","12","11","14:00","5.6","","2.9","","83","","2","","11","","8.0","","101.61","","","","","","Haze"
"2001-12-11 15:00","2001","12","11","15:00","5.8","","2.8","","81","","3","","9","","8.0","","101.65","","","","","","Haze"
"2001-12-11 16:00","2001","12","11","16:00","5.3","","2.8","","84","","5","","9","","6.4","","101.72","","","","","","Haze"
"2001-12-11 17:00","2001","12","11","17:00","3.8","","2.3","","90","","6","","9","","6.4","","101.74","","","","","","Haze"
"2001-12-11 18:00","2001","12","11","18:00","2.3","","1.5","","94","","7","","7","","6.4","","101.78","","","","","","Haze"
"2001-12-11 19:00","2001","12","11","19:00","1.3","","0.9","","97","","8","","9","","6.4","","101.80","","","","","","Haze"
"2001-12-11 20:00","2001","12","11","20:00","0.9","","0.3","","96","","7","","7","","8.0","","101.84","","","","","","Haze"
"2001-12-11 21:00","2001","12","11","21:00","0.8","","0.3","","96","","8","","11","","6.4","","101.81","","","","","","Fog"
"2001-12-11 22:00","2001","12","11","22:00","0.0","","-0.4","","97","","8","","9","","6.4","","101.80","","","","-3","","Fog"
"2001-12-11 23:00","2001","12","11","23:00"
"2001-12-12 00:00","2001","12","12","00:00"
"2001-12-12 01:00","2001","12","12","01:00"
"2001-12-12 02:00","2001","12","12","02:00"
"2001-12-12 03:00","2001","12","12","03:00"
"2001-12-12 04:00","2001","12","12","04:00"
"2001-12-12 05:00","2001","12","12","05:00"
"2001-12-12 06:00","2001","12","12","06:00","-1.3","","-2.3","","93","","9","","9","","24.1","","101.61","","","","-5","","Clear"
"2001-12-12 07:00","2001","12","12","07:00","-0.4","","-1.8","","90","","9","","9","","9.7","","101.54","","","","-4","","Fog"
"2001-12-12 08:00","2001","12","12","08:00","-0.3","","-1.6","","91","","7","","9","","9.7","","101.55","","","","-3","","Fog"
"2001-12-12 09:00","2001","12","12","09:00","0.5","","-1.0","","90","","8","","9","","9.7","","101.50","","","","","","Fog"
"2001-12-12 10:00","2001","12","12","10:00","2.2","","0.0","","85","","","","0","","12.9","","101.48","","","","","","Mostly Cloudy"
"2001-12-12 11:00","2001","12","12","11:00","5.6","","1.6","","75","","2","","7","","16.1","","101.36","","","","","","Cloudy"
"2001-12-12 12:00","2001","12","12","12:00","7.0","","3.9","","81","","33","","7","","16.1","","101.25","","","","","","Cloudy"
"2001-12-12 13:00","2001","12","12","13:00","7.2","","2.9","","74","","35","","9","","11.3","","101.19","","","","","","Cloudy"
"2001-12-12 14:00","2001","12","12","14:00","6.9","","2.5","","74","","","","0","","8.0","","101.12","","","","","","Haze"
"2001-12-12 15:00","2001","12","12","15:00","7.3","","3.7","","78","","","","0","","9.7","","100.98","","","","","","Haze"
"2001-12-12 16:00","2001","12","12","16:00","7.2","","4.2","","81","","","","0","","9.7","","100.96","","","","","","Haze"
"2001-12-12 17:00","2001","12","12","17:00","6.7","","4.4","","85","","10","","4","","8.0","","100.85","","","","","","Haze"
"2001-12-12 18:00","2001","12","12","18:00","6.5","","4.7","","88","","10","","4","","8.0","","100.85","","","","","","Rain Showers,Fog"
"2001-12-12 19:00","2001","12","12","19:00","6.3","","5.1","","92","","","","0","","12.9","","100.81","","","","","","Rain Showers"
"2001-12-12 20:00","2001","12","12","20:00","8.1","","5.3","","82","","21","","11","","11.3","","100.75","","","","","","Rain Showers"
"2001-12-12 21:00","2001","12","12","21:00","8.7","","4.8","","76","","19","","19","","12.9","","100.69","","","","","","Rain Showers"
"2001-12-12 22:00","2001","12","12","22:00","8.5","","4.6","","76","","18","","26","","12.9","","100.61","","","","","","Rain Showers"
"2001-12-12 23:00","2001","12","12","23:00"
"2001-12-13 00:00","2001","12","13","00:00"
"2001-12-13 01:00","2001","12","13","01:00"
"2001-12-13 02:00","2001","12","13","02:00"
"2001-12-13 03:00","2001","12","13","03:00"
"2001-12-13 04:00","2001","12","13","04:00"
"2001-12-13 05:00","2001","12","13","05:00"
"2001-12-13 06:00","2001","12","13","06:00","8.5","","7.8","","95","","18","","19","","4.8","","99.90","","","","","","Rain,Fog"
"2001-12-13 07:00","2001","12","13","07:00","9.1","","8.5","","96","","20","","15","","8.0","","99.84","","","","","","Rain,Fog"
"2001-12-13 08:00","2001","12","13","08:00","9.8","","8.5","","92","","18","","19","","12.9","","99.77","","","","","","Cloudy"
"2001-12-13 09:00","2001","12","13","09:00","10.8","","9.7","","93","","22","","19","","6.4","","99.74","","","","","","Fog"
"2001-12-13 10:00","2001","12","13","10:00","12.2","","10.4","","89","","21","","24","","11.3","","99.70","","","","","","Cloudy"
"2001-12-13 11:00","2001","12","13","11:00","12.5","","10.8","","89","","22","","26","","8.0","","99.67","","","","","","Drizzle,Fog"
"2001-12-13 12:00","2001","12","13","12:00","12.8","","11.6","","92","","23","","24","","6.4","","99.60","","","","","","Drizzle,Fog"
"2001-12-13 13:00","2001","12","13","13:00","13.0","","11.5","","91","","24","","24","","12.9","","99.59","","","","","","Cloudy"
"2001-12-13 14:00","2001","12","13","14:00","13.2","","11.1","","87","","23","","19","","19.3","","99.59","","","","","","Cloudy"
"2001-12-13 15:00","2001","12","13","15:00","13.3","","10.3","","82","","24","","19","","19.3","","99.62","","","","","","Cloudy"
"2001-12-13 16:00","2001","12","13","16:00","12.8","","9.0","","78","","25","","19","","24.1","","99.76","","","","","","Cloudy"
"2001-12-13 17:00","2001","12","13","17:00","11.8","","8.1","","78","","27","","19","","24.1","","99.84","","","","","","Cloudy"
"2001-12-13 18:00","2001","12","13","18:00","11.5","","7.7","","77","","25","","19","","24.1","","99.93","","","","","","Cloudy"
"2001-12-13 19:00","2001","12","13","19:00","11.1","","7.5","","78","","24","","19","","24.1","","99.98","","","","","","Cloudy"
"2001-12-13 20:00","2001","12","13","20:00","10.8","","7.3","","79","","23","","22","","24.1","","100.04","","","","","","Cloudy"
"2001-12-13 21:00","2001","12","13","21:00","9.9","","7.3","","84","","26","","19","","24.1","","100.17","","","","","","Cloudy"
"2001-12-13 22:00","2001","12","13","22:00","9.6","","6.0","","78","","27","","19","","24.1","","100.21","","","","","","Cloudy"
"2001-12-13 23:00","2001","12","13","23:00"
"2001-12-14 00:00","2001","12","14","00:00"
"2001-12-14 01:00","2001","12","14","01:00"
"2001-12-14 02:00","2001","12","14","02:00"
"2001-12-14 03:00","2001","12","14","03:00"
"2001-12-14 04:00","2001","12","14","04:00"
"2001-12-14 05:00","2001","12","14","05:00"
"2001-12-14 06:00","2001","12","14","06:00","5.7","","3.7","","87","","5","","7","","16.1","","100.35","","","","","","Cloudy"
"2001-12-14 07:00","2001","12","14","07:00","5.3","","3.9","","91","","9","","6","","16.1","","100.33","","","","","","Cloudy"
"2001-12-14 08:00","2001","12","14","08:00","5.7","","3.8","","88","","7","","15","","12.9","","100.30","","","","","","Cloudy"
"2001-12-14 09:00","2001","12","14","09:00","5.6","","3.5","","86","","7","","9","","16.1","","100.25","","","","","","Cloudy"
"2001-12-14 10:00","2001","12","14","10:00","5.9","","3.6","","85","","7","","19","","24.1","","100.34","","","","","","Cloudy"
"2001-12-14 11:00","2001","12","14","11:00","5.9","","3.6","","85","","6","","19","","24.1","","100.21","","","","","","Cloudy"
"2001-12-14 12:00","2001","12","14","12:00","6.2","","3.8","","85","","5","","19","","24.1","","99.98","","","","","","Rain Showers"
"2001-12-14 13:00","2001","12","14","13:00","5.3","","3.4","","88","","6","","19","","9.7","","99.81","","","","","","Rain Showers,Fog"
"2001-12-14 14:00","2001","12","14","14:00","4.3","","2.9","","91","","6","","19","","9.7","","99.71","","","","","","Rain Showers,Fog"
"2001-12-14 15:00","2001","12","14","15:00","4.0","","2.6","","91","","6","","28","","8.0","","99.51","","","","","","Rain Showers,Fog"
"2001-12-14 16:00","2001","12","14","16:00","3.6","","2.5","","93","","6","","30","","9.7","","99.37","","","","","","Rain Showers,Fog"
"2001-12-14 17:00","2001","12","14","17:00","3.2","","2.2","","93","","5","","28","","6.4","","99.28","","","","","","Rain Showers,Fog"
"2001-12-14 18:00","2001","12","14","18:00","1.9","","1.1","","94","","6","","28","","12.9","","99.42","","","","","","Rain Showers"
"2001-12-14 19:00","2001","12","14","19:00","1.6","","0.7","","94","","4","","32","","8.0","","99.46","","","","","","Rain Showers,Snow Showers,Fog"
"2001-12-14 20:00","2001","12","14","20:00","1.0","","0.3","","95","","4","","28","","6.4","","99.69","","","","","","Rain Showers,Snow Showers,Fog"
"2001-12-14 21:00","2001","12","14","21:00","0.6","","0.2","","97","","1","","28","","3.2","","99.87","","","","","","Snow Showers"
"2001-12-14 22:00","2001","12","14","22:00","0.5","","0.0","","96","","36","","30","","4.8","","100.13","","","","","","Snow Showers,Fog"
"2001-12-14 23:00","2001","12","14","23:00"
"2001-12-15 00:00","2001","12","15","00:00"
"2001-12-15 01:00","2001","12","15","01:00"
"2001-12-15 02:00","2001","12","15","02:00"
"2001-12-15 03:00","2001","12","15","03:00"
"2001-12-15 04:00","2001","12","15","04:00"
"2001-12-15 05:00","2001","12","15","05:00"
"2001-12-15 06:00","2001","12","15","06:00","1.2","","-0.4","","89","","29","","9","","24.1","","101.19","","","","","","Cloudy"
"2001-12-15 07:00","2001","12","15","07:00","1.3","","-0.3","","89","","31","","15","","24.1","","101.35","","","","","","Cloudy"
"2001-12-15 08:00","2001","12","15","08:00","1.6","","-0.6","","85","","33","","9","","24.1","","101.46","","","","","","Mostly Cloudy"
"2001-12-15 09:00","2001","12","15","09:00","1.8","","-1.8","","77","","34","","9","","24.1","","101.58","","","","","","Mostly Cloudy"
"2001-12-15 10:00","2001","12","15","10:00","1.8","","-2.3","","74","","33","","19","","48.3","","101.70","","","","","","Mostly Cloudy"
"2001-12-15 11:00","2001","12","15","11:00","1.8","","-2.7","","72","","36","","11","","48.3","","101.76","","","","","","Mostly Cloudy"
"2001-12-15 12:00","2001","12","15","12:00","2.1","","-2.0","","74","","35","","4","","24.1","","101.73","","","","","","Mostly Cloudy"
"2001-12-15 13:00","2001","12","15","13:00","2.9","","-2.5","","68","","33","","6","","24.1","","101.73","","","","","","Mainly Clear"
"2001-12-15 14:00","2001","12","15","14:00","2.2","","-2.6","","71","","33","","11","","24.1","","101.77","","","","","","Mainly Clear"
"2001-12-15 15:00","2001","12","15","15:00","2.9","","-2.2","","69","","29","","9","","24.1","","101.87","","","","","","Mainly Clear"
"2001-12-15 16:00","2001","12","15","16:00","2.2","","-2.5","","71","","28","","9","","24.1","","101.95","","","","","","Clear"
"2001-12-15 17:00","2001","12","15","17:00","1.4","","-2.5","","75","","25","","9","","24.1","","102.06","","","","","","Mainly Clear"
"2001-12-15 18:00","2001","12","15","18:00","-0.1","","-2.2","","86","","23","","9","","24.1","","102.10","","","","-3","","Mainly Clear"
"2001-12-15 19:00","2001","12","15","19:00","-0.6","","-2.6","","86","","24","","9","","24.1","","102.07","","","","-4","","Mainly Clear"
"2001-12-15 20:00","2001","12","15","20:00","-0.6","","-2.8","","85","","24","","9","","24.1","","102.12","","","","-4","","Mainly Clear"
"2001-12-15 21:00","2001","12","15","21:00","-1.1","","-2.8","","88","","","","0","","24.1","","102.05","","","","","","Mainly Clear"
"2001-12-15 22:00","2001","12","15","22:00","-1.4","","-3.1","","88","","","","0","","24.1","","101.98","","","","","","Mainly Clear"
"2001-12-15 23:00","2001","12","15","23:00"
"2001-12-16 00:00","2001","12","16","00:00"
"2001-12-16 01:00","2001","12","16","01:00"
"2001-12-16 02:00","2001","12","16","02:00"
"2001-12-16 03:00","2001","12","16","03:00"
"2001-12-16 04:00","2001","12","16","04:00"
"2001-12-16 05:00","2001","12","16","05:00"
"2001-12-16 06:00","2001","12","16","06:00","-2.5","","-3.3","","94","","","","0","","24.1","","102.07","","","","","","Clear"
"2001-12-16 07:00","2001","12","16","07:00","-2.5","","-3.4","","94","","","","0","","24.1","","102.07","","","","","","Mainly Clear"
"2001-12-16 08:00","2001","12","16","08:00","-2.1","","-2.8","","95","","11","","6","","24.1","","102.09","","","","-4","","Mostly Cloudy"
"2001-12-16 09:00","2001","12","16","09:00","-1.4","","-2.1","","95","","","","0","","24.1","","102.10","","","","","","Mostly Cloudy"
"2001-12-16 10:00","2001","12","16","10:00","0.5","","-1.5","","86","","","","0","","24.1","","102.10","","","","","","Cloudy"
"2001-12-16 11:00","2001","12","16","11:00","0.8","","-1.3","","86","","","","0","","24.1","","101.90","","","","","","Cloudy"
"2001-12-16 12:00","2001","12","16","12:00","1.4","","-1.5","","81","","","","0","","24.1","","101.78","","","","","","Cloudy"
"2001-12-16 13:00","2001","12","16","13:00","1.9","","-1.9","","76","","9","","9","","24.1","","101.69","","","","","","Cloudy"
"2001-12-16 14:00","2001","12","16","14:00","2.4","","-1.3","","77","","7","","19","","24.1","","101.57","","","","","","Cloudy"
"2001-12-16 15:00","2001","12","16","15:00","2.3","","-1.2","","78","","9","","19","","24.1","","101.58","","","","","","Cloudy"
"2001-12-16 16:00","2001","12","16","16:00","1.9","","-0.9","","82","","9","","17","","24.1","","101.56","","","","","","Cloudy"
"2001-12-16 17:00","2001","12","16","17:00","1.6","","-0.9","","83","","8","","17","","19.3","","101.52","","","","","","Cloudy"
"2001-12-16 18:00","2001","12","16","18:00","1.3","","-0.7","","87","","8","","13","","19.3","","101.47","","","","","","Cloudy"
"2001-12-16 19:00","2001","12","16","19:00","1.3","","-0.3","","89","","9","","15","","19.3","","101.37","","","","","","Cloudy"
"2001-12-16 20:00","2001","12","16","20:00","1.4","","-0.5","","87","","9","","11","","19.3","","101.23","","","","","","Cloudy"
"2001-12-16 21:00","2001","12","16","21:00","1.5","","-0.6","","86","","7","","13","","24.1","","101.17","","","","","","Cloudy"
"2001-12-16 22:00","2001","12","16","22:00","1.4","","0.0","","90","","8","","9","","19.3","","101.09","","","","","","Rain"
"2001-12-16 23:00","2001","12","16","23:00"
"2001-12-17 00:00","2001","12","17","00:00"
"2001-12-17 01:00","2001","12","17","01:00"
"2001-12-17 02:00","2001","12","17","02:00"
"2001-12-17 03:00","2001","12","17","03:00"
"2001-12-17 04:00","2001","12","17","04:00"
"2001-12-17 05:00","2001","12","17","05:00"
"2001-12-17 06:00","2001","12","17","06:00","2.5","","2.4","","99","","8","","9","","3.2","","100.22","","","","","","Rain Showers,Fog"
"2001-12-17 07:00","2001","12","17","07:00","2.7","","2.7","","100","","7","","9","","3.2","","100.14","","","","","","Rain Showers,Fog"
"2001-12-17 08:00","2001","12","17","08:00","2.9","","2.9","","100","","7","","9","","2.4","","99.98","","","","","","Rain Showers,Fog"
"2001-12-17 09:00","2001","12","17","09:00","3.2","","3.2","","100","","10","","9","","3.2","","99.87","","","","","","Rain,Fog"
"2001-12-17 10:00","2001","12","17","10:00","3.8","","3.8","","100","","11","","9","","3.2","","99.78","","","","","","Rain,Fog"
"2001-12-17 11:00","2001","12","17","11:00","4.6","","4.5","","99","","15","","7","","6.4","","99.64","","","","","","Rain,Fog"
"2001-12-17 12:00","2001","12","17","12:00","4.6","","4.6","","100","","3","","9","","1.6","","99.45","","","","","","Rain,Fog"
"2001-12-17 13:00","2001","12","17","13:00","4.4","","4.4","","100","","4","","9","","1.6","","99.34","","","","","","Rain,Fog"
"2001-12-17 14:00","2001","12","17","14:00","4.8","","4.8","","100","","3","","9","","1.6","","99.27","","","","","","Rain,Fog"
"2001-12-17 15:00","2001","12","17","15:00","4.8","","4.8","","100","","7","","9","","1.6","","99.15","","","","","","Rain,Fog"
"2001-12-17 16:00","2001","12","17","16:00","4.7","","4.6","","99","","7","","9","","1.6","","99.13","","","","","","Rain,Fog"
"2001-12-17 17:00","2001","12","17","17:00","4.5","","4.5","","100","","5","","9","","1.6","","99.10","","","","","","Rain,Fog"
"2001-12-17 18:00","2001","12","17","18:00","4.3","","4.3","","100","","33","","7","","2.4","","99.10","","","","","","Rain,Fog"
"2001-12-17 19:00","2001","12","17","19:00","4.3","","4.3","","100","","3","","9","","6.4","","99.01","","","","","","Rain,Fog"
"2001-12-17 20:00","2001","12","17","20:00","4.5","","4.5","","100","","35","","9","","6.4","","98.93","","","","","","Rain,Fog"
"2001-12-17 21:00","2001","12","17","21:00","4.4","","4.3","","99","","1","","15","","8.0","","98.88","","","","","","Rain,Fog"
"2001-12-17 22:00","2001","12","17","22:00","4.1","","3.9","","99","","35","","9","","9.7","","98.88","","","","","","Rain,Fog"
"2001-12-17 23:00","2001","12","17","23:00"
"2001-12-18 00:00","2001","12","18","00:00"
"2001-12-18 01:00","2001","12","18","01:00"
"2001-12-18 02:00","2001","12","18","02:00"
"2001-12-18 03:00","2001","12","18","03:00"
"2001-12-18 04:00","2001","12","18","04:00"
"2001-12-18 05:00","2001","12","18","05:00"
"2001-12-18 06:00","2001","12","18","06:00","4.5","","3.8","","95","","27","","15","","9.7","","99.04","","","","","","Drizzle,Fog"
"2001-12-18 07:00","2001","12","18","07:00","4.8","","3.7","","93","","30","","19","","11.3","","99.13","","","","","","Cloudy"
"2001-12-18 08:00","2001","12","18","08:00","4.8","","2.7","","86","","30","","19","","24.1","","99.16","","","","","","Cloudy"
"2001-12-18 09:00","2001","12","18","09:00","4.8","","2.5","","85","","29","","22","","24.1","","99.21","","","","","","Cloudy"
"2001-12-18 10:00","2001","12","18","10:00","4.6","","1.6","","81","","29","","22","","24.1","","99.26","","","","","","Cloudy"
"2001-12-18 11:00","2001","12","18","11:00","5.0","","2.0","","81","","27","","19","","24.1","","99.31","","","","","","Mostly Cloudy"
"2001-12-18 12:00","2001","12","18","12:00","5.2","","2.1","","80","","28","","19","","24.1","","99.29","","","","","","Cloudy"
"2001-12-18 13:00","2001","12","18","13:00","5.5","","2.0","","78","","28","","28","","24.1","","99.32","","","","","","Mostly Cloudy"
"2001-12-18 14:00","2001","12","18","14:00","5.7","","1.8","","76","","30","","28","","24.1","","99.37","","","","","","Mostly Cloudy"
"2001-12-18 15:00","2001","12","18","15:00","5.9","","2.2","","77","","27","","28","","24.1","","99.43","","","","","","Mainly Clear"
"2001-12-18 16:00","2001","12","18","16:00","5.9","","2.3","","78","","27","","19","","24.1","","99.47","","","","","","Mostly Cloudy"
"2001-12-18 17:00","2001","12","18","17:00","5.4","","2.3","","80","","26","","22","","24.1","","99.52","","","","","","Mostly Cloudy"
"2001-12-18 18:00","2001","12","18","18:00","4.8","","1.5","","79","","26","","19","","24.1","","99.58","","","","","","Mostly Cloudy"
"2001-12-18 19:00","2001","12","18","19:00","4.3","","0.9","","79","","26","","15","","24.1","","99.66","","","","","","Mostly Cloudy"
"2001-12-18 20:00","2001","12","18","20:00","4.6","","0.9","","77","","25","","22","","24.1","","99.72","","","","","","Mostly Cloudy"
"2001-12-18 21:00","2001","12","18","21:00","3.8","","0.2","","77","","24","","19","","24.1","","99.72","","","","","","Mostly Cloudy"
"2001-12-18 22:00","2001","12","18","22:00","4.2","","0.0","","74","","25","","22","","24.1","","99.75","","","","","","Mostly Cloudy"
"2001-12-18 23:00","2001","12","18","23:00"
"2001-12-19 00:00","2001","12","19","00:00"
"2001-12-19 01:00","2001","12","19","01:00"
"2001-12-19 02:00","2001","12","19","02:00"
"2001-12-19 03:00","2001","12","19","03:00"
"2001-12-19 04:00","2001","12","19","04:00"
"2001-12-19 05:00","2001","12","19","05:00"
"2001-12-19 06:00","2001","12","19","06:00","3.0","","1.5","","90","","24","","7","","11.3","","99.69","","","","","","Mainly Clear"
"2001-12-19 07:00","2001","12","19","07:00","2.9","","2.0","","94","","23","","4","","6.4","","99.70","","","","","","Fog"
"2001-12-19 08:00","2001","12","19","08:00","3.7","","2.4","","91","","19","","9","","6.4","","99.65","","","","","","Fog"
"2001-12-19 09:00","2001","12","19","09:00","5.5","","3.8","","89","","20","","17","","8.0","","99.65","","","","","","Fog"
"2001-12-19 10:00","2001","12","19","10:00","5.9","","3.7","","86","","20","","19","","6.4","","99.64","","","","","","Fog"
"2001-12-19 11:00","2001","12","19","11:00","5.5","","3.4","","86","","20","","19","","6.4","","99.64","","","","","","Rain Showers,Fog"
"2001-12-19 12:00","2001","12","19","12:00","5.9","","3.2","","83","","21","","9","","11.3","","99.49","","","","","","Mostly Cloudy"
"2001-12-19 13:00","2001","12","19","13:00","7.4","","3.4","","76","","22","","19","","11.3","","99.38","","","","","","Cloudy"
"2001-12-19 14:00","2001","12","19","14:00","7.4","","0.9","","63","","21","","19","","16.1","","99.26","","","","","","Mostly Cloudy"
"2001-12-19 15:00","2001","12","19","15:00","7.4","","4.1","","80","","22","","22","","16.1","","99.18","","","","","","Mostly Cloudy"
"2001-12-19 16:00","2001","12","19","16:00","7.2","","1.8","","69","","19","","15","","19.3","","99.16","","","","","","Mostly Cloudy"
"2001-12-19 17:00","2001","12","19","17:00","6.3","","1.5","","71","","16","","9","","19.3","","99.20","","","","","","Mostly Cloudy"
"2001-12-19 18:00","2001","12","19","18:00","6.4","","2.1","","74","","17","","9","","19.3","","99.19","","","","","","Cloudy"
"2001-12-19 19:00","2001","12","19","19:00","6.3","","2.3","","76","","17","","7","","19.3","","99.15","","","","","","Cloudy"
"2001-12-19 20:00","2001","12","19","20:00","6.1","","2.7","","79","","18","","13","","16.1","","99.07","","","","","","Mostly Cloudy"
"2001-12-19 21:00","2001","12","19","21:00","7.0","","3.5","","78","","20","","15","","16.1","","99.01","","","","","","Rain Showers"
"2001-12-19 22:00","2001","12","19","22:00","6.1","","4.7","","91","","24","","13","","16.1","","98.95","","","","","","Rain Showers"
"2001-12-19 23:00","2001","12","19","23:00"
"2001-12-20 00:00","2001","12","20","00:00"
"2001-12-20 01:00","2001","12","20","01:00"
"2001-12-20 02:00","2001","12","20","02:00"
"2001-12-20 03:00","2001","12","20","03:00"
"2001-12-20 04:00","2001","12","20","04:00"
"2001-12-20 05:00","2001","12","20","05:00"
"2001-12-20 06:00","2001","12","20","06:00","1.7","","-2.3","","75","","25","","24","","24.1","","99.52","","","","","","Cloudy"
"2001-12-20 07:00","2001","12","20","07:00","1.3","","-2.3","","77","","26","","26","","24.1","","99.57","","","","","","Cloudy"
"2001-12-20 08:00","2001","12","20","08:00","1.3","","-3.0","","73","","25","","22","","24.1","","99.64","","","","","","Cloudy"
"2001-12-20 09:00","2001","12","20","09:00","1.1","","-3.4","","72","","25","","26","","24.1","","99.65","","","","","","Mostly Cloudy"
"2001-12-20 10:00","2001","12","20","10:00","1.7","","-3.0","","71","","26","","22","","24.1","","99.66","","","","","","Mostly Cloudy"
"2001-12-20 11:00","2001","12","20","11:00","1.8","","-2.5","","73","","25","","22","","24.1","","99.63","","","","","","Mostly Cloudy"
"2001-12-20 12:00","2001","12","20","12:00","2.4","","-2.5","","70","","25","","28","","24.1","","99.60","","","","","","Cloudy"
"2001-12-20 13:00","2001","12","20","13:00","2.3","","-2.3","","72","","26","","28","","24.1","","99.57","","","","","","Cloudy"
"2001-12-20 14:00","2001","12","20","14:00","2.9","","-1.6","","72","","25","","19","","24.1","","99.57","","","","","","Mostly Cloudy"
"2001-12-20 15:00","2001","12","20","15:00","3.0","","-1.6","","72","","25","","22","","24.1","","99.64","","","","","","Cloudy"
"2001-12-20 16:00","2001","12","20","16:00","2.2","","-1.0","","79","","26","","19","","24.1","","99.73","","","","","","Mostly Cloudy"
"2001-12-20 17:00","2001","12","20","17:00","2.2","","-0.7","","81","","27","","19","","24.1","","99.83","","","","","","Mainly Clear"
"2001-12-20 18:00","2001","12","20","18:00","2.1","","-0.5","","83","","27","","28","","24.1","","99.91","","","","","","Mainly Clear"
"2001-12-20 19:00","2001","12","20","19:00","2.2","","-0.2","","84","","27","","28","","24.1","","100.01","","","","","","Mainly Clear"
"2001-12-20 20:00","2001","12","20","20:00","3.0","","-0.6","","77","","28","","19","","24.1","","100.05","","","","","","Mostly Cloudy"
"2001-12-20 21:00","2001","12","20","21:00","2.8","","-1.3","","74","","30","","19","","24.1","","100.09","","","","","","Mostly Cloudy"
"2001-12-20 22:00","2001","12","20","22:00","2.6","","-2.0","","72","","31","","19","","24.1","","100.15","","","","","","Mostly Cloudy"
"2001-12-20 23:00","2001","12","20","23:00"
"2001-12-21 00:00","2001","12","21","00:00"
"2001-12-21 01:00","2001","12","21","01:00"
"2001-12-21 02:00","2001","12","21","02:00"
"2001-12-21 03:00","2001","12","21","03:00"
"2001-12-21 04:00","2001","12","21","04:00"
"2001-12-21 05:00","2001","12","21","05:00"
"2001-12-21 06:00","2001","12","21","06:00","-0.3","","-5.3","","69","","31","","15","","24.1","","100.67","","","","-5","","Mainly Clear"
"2001-12-21 07:00","2001","12","21","07:00","-0.7","","-5.6","","69","","30","","15","","24.1","","100.71","","","","-5","","Mainly Clear"
"2001-12-21 08:00","2001","12","21","08:00","-0.9","","-5.0","","74","","29","","13","","24.1","","100.79","","","","-5","","Mainly Clear"
"2001-12-21 09:00","2001","12","21","09:00","0.2","","-5.0","","68","","29","","20","","24.1","","100.89","","","","","","Mostly Cloudy"
"2001-12-21 10:00","2001","12","21","10:00","0.3","","-4.6","","70","","29","","19","","24.1","","100.98","","","","","","Mainly Clear"
"2001-12-21 11:00","2001","12","21","11:00","1.1","","-4.4","","67","","30","","17","","24.1","","101.02","","","","","","Mainly Clear"
"2001-12-21 12:00","2001","12","21","12:00","0.6","","-4.1","","71","","31","","19","","24.1","","101.04","","","","","","Mostly Cloudy"
"2001-12-21 13:00","2001","12","21","13:00","1.1","","-4.3","","67","","31","","15","","24.1","","101.08","","","","","","Mainly Clear"
"2001-12-21 14:00","2001","12","21","14:00","1.5","","-5.0","","62","","30","","15","","24.1","","101.13","","","","","","Mainly Clear"
"2001-12-21 15:00","2001","12","21","15:00","1.4","","-5.8","","59","","31","","15","","24.1","","101.20","","","","","","Mostly Cloudy"
"2001-12-21 16:00","2001","12","21","16:00","0.1","","-5.1","","68","","33","","15","","24.1","","101.29","","","","","","Mostly Cloudy"
"2001-12-21 17:00","2001","12","21","17:00","0.2","","-4.5","","71","","33","","4","","24.1","","101.36","","","","","","Mostly Cloudy"
"2001-12-21 18:00","2001","12","21","18:00","0.8","","-6.9","","56","","31","","15","","24.1","","101.41","","","","","","Mostly Cloudy"
"2001-12-21 19:00","2001","12","21","19:00","0.0","","-5.6","","66","","26","","19","","24.1","","101.47","","","","-5","","Mainly Clear"
"2001-12-21 20:00","2001","12","21","20:00","-0.4","","-5.7","","67","","27","","7","","24.1","","101.49","","","","-3","","Mostly Cloudy"
"2001-12-21 21:00","2001","12","21","21:00","0.1","","-5.9","","64","","30","","7","","24.1","","101.54","","","","","","Mostly Cloudy"
"2001-12-21 22:00","2001","12","21","22:00","0.5","","-6.9","","58","","30","","11","","24.1","","101.56","","","","","","Cloudy"
"2001-12-21 23:00","2001","12","21","23:00"
"2001-12-22 00:00","2001","12","22","00:00"
"2001-12-22 01:00","2001","12","22","01:00"
"2001-12-22 02:00","2001","12","22","02:00"
"2001-12-22 03:00","2001","12","22","03:00"
"2001-12-22 04:00","2001","12","22","04:00"
"2001-12-22 05:00","2001","12","22","05:00"
"2001-12-22 06:00","2001","12","22","06:00","-0.7","","-3.6","","81","","","","0","","24.1","","101.75","","","","","","Cloudy"
"2001-12-22 07:00","2001","12","22","07:00","-0.7","","-3.4","","82","","","","0","","24.1","","101.80","","","","","","Mostly Cloudy"
"2001-12-22 08:00","2001","12","22","08:00","-1.3","","-3.4","","86","","10","","9","","24.1","","101.83","","","","-5","","Mainly Clear"
"2001-12-22 09:00","2001","12","22","09:00","-0.8","","-3.2","","84","","12","","9","","24.1","","101.82","","","","-4","","Mainly Clear"
"2001-12-22 10:00","2001","12","22","10:00","0.5","","-3.2","","76","","12","","9","","24.1","","101.82","","","","","","Mostly Cloudy"
"2001-12-22 11:00","2001","12","22","11:00","1.9","","-3.4","","68","","14","","19","","24.1","","101.78","","","","","","Mainly Clear"
"2001-12-22 12:00","2001","12","22","12:00","2.1","","-4.7","","61","","17","","7","","24.1","","101.66","","","","","","Mostly Cloudy"
"2001-12-22 13:00","2001","12","22","13:00","3.1","","-4.2","","59","","21","","9","","24.1","","101.58","","","","","","Mostly Cloudy"
"2001-12-22 14:00","2001","12","22","14:00","2.9","","-5.1","","56","","16","","9","","24.1","","101.51","","","","","","Mostly Cloudy"
"2001-12-22 15:00","2001","12","22","15:00","2.4","","-4.2","","62","","18","","11","","24.1","","101.44","","","","","","Mostly Cloudy"
"2001-12-22 16:00","2001","12","22","16:00","2.2","","-4.5","","61","","14","","11","","24.1","","101.34","","","","","","Mostly Cloudy"
"2001-12-22 17:00","2001","12","22","17:00","1.1","","-4.0","","69","","8","","7","","24.1","","101.33","","","","","","Cloudy"
"2001-12-22 18:00","2001","12","22","18:00","1.0","","-3.9","","70","","9","","11","","24.1","","101.23","","","","","","Cloudy"
"2001-12-22 19:00","2001","12","22","19:00","0.4","","-3.3","","76","","9","","11","","24.1","","101.13","","","","","","Cloudy"
"2001-12-22 20:00","2001","12","22","20:00","0.8","","-4.2","","69","","9","","11","","24.1","","100.97","","","","","","Mostly Cloudy"
"2001-12-22 21:00","2001","12","22","21:00","0.9","","-4.2","","69","","9","","11","","24.1","","100.87","","","","","","Cloudy"
"2001-12-22 22:00","2001","12","22","22:00","0.9","","-3.8","","71","","9","","11","","24.1","","100.76","","","","","","Mostly Cloudy"
"2001-12-22 23:00","2001","12","22","23:00"
"2001-12-23 00:00","2001","12","23","00:00"
"2001-12-23 01:00","2001","12","23","01:00"
"2001-12-23 02:00","2001","12","23","02:00"
"2001-12-23 03:00","2001","12","23","03:00"
"2001-12-23 04:00","2001","12","23","04:00"
"2001-12-23 05:00","2001","12","23","05:00"
"2001-12-23 06:00","2001","12","23","06:00","5.8","","-0.1","","66","","20","","15","","24.1","","100.13","","","","","","Rain"
"2001-12-23 07:00","2001","12","23","07:00","5.3","","4.1","","92","","19","","19","","16.1","","100.08","","","","","","Rain"
"2001-12-23 08:00","2001","12","23","08:00","5.2","","4.0","","92","","18","","19","","9.7","","100.03","","","","","","Rain,Fog"
"2001-12-23 09:00","2001","12","23","09:00","5.4","","4.2","","92","","19","","19","","9.7","","99.98","","","","","","Rain,Fog"
"2001-12-23 10:00","2001","12","23","10:00","6.5","","5.3","","92","","21","","28","","12.9","","99.93","","","","","","Rain"
"2001-12-23 11:00","2001","12","23","11:00","7.7","","6.2","","90","","22","","28","","12.9","","99.80","","","","","","Rain Showers"
"2001-12-23 12:00","2001","12","23","12:00","7.5","","5.8","","89","","21","","28","","16.1","","99.69","","","","","","Rain"
"2001-12-23 13:00","2001","12","23","13:00","7.7","","5.7","","87","","21","","28","","16.1","","99.62","","","","","","Cloudy"
"2001-12-23 14:00","2001","12","23","14:00","7.7","","6.1","","90","","22","","19","","12.9","","99.53","","","","","","Rain"
"2001-12-23 15:00","2001","12","23","15:00","7.7","","6.1","","90","","21","","22","","8.0","","99.52","","","","","","Rain,Fog"
"2001-12-23 16:00","2001","12","23","16:00","7.5","","5.8","","89","","19","","19","","19.3","","99.45","","","","","","Rain"
"2001-12-23 17:00","2001","12","23","17:00","7.3","","5.7","","90","","20","","24","","11.3","","99.44","","","","","","Rain"
"2001-12-23 18:00","2001","12","23","18:00","7.1","","5.8","","91","","19","","19","","11.3","","99.36","","","","","","Rain"
"2001-12-23 19:00","2001","12","23","19:00","6.0","","6.0","","100","","17","","15","","11.3","","99.31","","","","","","Rain"
"2001-12-23 20:00","2001","12","23","20:00","5.7","","4.6","","93","","24","","28","","8.0","","99.35","","","","","","Rain,Fog"
"2001-12-23 21:00","2001","12","23","21:00","1.8","","-0.6","","84","","25","","28","","11.3","","99.50","","","","","","Cloudy"
"2001-12-23 22:00","2001","12","23","22:00","1.1","","-4.5","","66","","25","","19","","24.1","","99.56","","","","","","Cloudy"
"2001-12-23 23:00","2001","12","23","23:00"
"2001-12-24 00:00","2001","12","24","00:00"
"2001-12-24 01:00","2001","12","24","01:00"
"2001-12-24 02:00","2001","12","24","02:00"
"2001-12-24 03:00","2001","12","24","03:00"
"2001-12-24 04:00","2001","12","24","04:00"
"2001-12-24 05:00","2001","12","24","05:00"
"2001-12-24 06:00","2001","12","24","06:00","-1.0","","-7.8","","60","","26","","13","","19.3","","99.48","","","","-5","","Cloudy"
"2001-12-24 07:00","2001","12","24","07:00","-1.0","","-7.9","","59","","25","","19","","16.1","","99.49","","","","-6","","Snow Showers"
"2001-12-24 08:00","2001","12","24","08:00","-1.2","","-6.8","","66","","23","","13","","16.1","","99.49","","","","-5","","Snow Showers"
"2001-12-24 09:00","2001","12","24","09:00","-1.9","","-4.6","","82","","18","","15","","24.1","","99.51","","","","-7","","Mostly Cloudy"
"2001-12-24 10:00","2001","12","24","10:00","-2.2","","-3.6","","90","","18","","15","","2.4","","99.50","","","","-7","","Snow Showers"
"2001-12-24 11:00","2001","12","24","11:00","-1.9","","-3.3","","90","","21","","15","","12.9","","99.46","","","","-7","","Mostly Cloudy"
"2001-12-24 12:00","2001","12","24","12:00","-0.7","","-3.8","","79","","23","","15","","12.9","","99.40","","","","-5","","Mostly Cloudy"
"2001-12-24 13:00","2001","12","24","13:00","-0.2","","-4.9","","71","","21","","15","","16.1","","99.40","","","","-5","","Snow Showers"
"2001-12-24 14:00","2001","12","24","14:00","-0.1","","-3.8","","76","","19","","19","","24.1","","99.39","","","","-5","","Mainly Clear"
"2001-12-24 15:00","2001","12","24","15:00","0.7","","-7.2","","55","","23","","22","","24.1","","99.43","","","","","","Mainly Clear"
"2001-12-24 16:00","2001","12","24","16:00","-0.1","","-6.6","","62","","25","","22","","24.1","","99.49","","","","-6","","Mainly Clear"
"2001-12-24 17:00","2001","12","24","17:00","-0.8","","-6.7","","64","","26","","19","","24.1","","99.55","","","","-6","","Mostly Cloudy"
"2001-12-24 18:00","2001","12","24","18:00","-1.5","","-8.0","","61","","25","","19","","24.1","","99.57","","","","-7","","Cloudy"
"2001-12-24 19:00","2001","12","24","19:00","-1.6","","-7.7","","63","","26","","22","","24.1","","99.63","","","","-8","","Cloudy"
"2001-12-24 20:00","2001","12","24","20:00","-1.6","","-7.8","","63","","25","","19","","24.1","","99.67","","","","-7","","Cloudy"
"2001-12-24 21:00","2001","12","24","21:00","-1.6","","-8.0","","62","","25","","28","","24.1","","99.68","","","","-8","","Cloudy"
"2001-12-24 22:00","2001","12","24","22:00","-1.8","","-7.5","","65","","24","","28","","24.1","","99.69","","","","-9","","Cloudy"
"2001-12-24 23:00","2001","12","24","23:00"
"2001-12-25 00:00","2001","12","25","00:00"
"2001-12-25 01:00","2001","12","25","01:00"
"2001-12-25 02:00","2001","12","25","02:00"
"2001-12-25 03:00","2001","12","25","03:00"
"2001-12-25 04:00","2001","12","25","04:00"
"2001-12-25 05:00","2001","12","25","05:00"
"2001-12-25 06:00","2001","12","25","06:00","-2.9","","-6.6","","76","","24","","19","","24.1","","99.94","","","","-9","","Mainly Clear"
"2001-12-25 07:00","2001","12","25","07:00","-2.9","","-6.8","","74","","25","","19","","24.1","","100.01","","","","-9","","Mostly Cloudy"
"2001-12-25 08:00","2001","12","25","08:00","-2.9","","-6.8","","74","","24","","22","","24.1","","100.10","","","","-9","","Mostly Cloudy"
"2001-12-25 09:00","2001","12","25","09:00","-2.5","","-6.6","","73","","24","","15","","24.1","","100.13","","","","-7","","Mostly Cloudy"
"2001-12-25 10:00","2001","12","25","10:00","-1.6","","-6.4","","70","","24","","19","","24.1","","100.18","","","","-7","","Mostly Cloudy"
"2001-12-25 11:00","2001","12","25","11:00","-1.0","","-6.3","","67","","24","","20","","24.1","","100.18","","","","-7","","Mostly Cloudy"
"2001-12-25 12:00","2001","12","25","12:00","-0.8","","-6.0","","68","","23","","19","","19.3","","100.13","","","","-6","","Mostly Cloudy"
"2001-12-25 13:00","2001","12","25","13:00","-1.5","","-3.3","","88","","24","","15","","3.2","","100.11","","","","-6","","Snow Showers,Fog"
"2001-12-25 14:00","2001","12","25","14:00","-2.1","","-2.8","","95","","22","","19","","1.6","","100.12","","","","-8","","Snow,Fog"
"2001-12-25 15:00","2001","12","25","15:00","-2.5","","-3.1","","96","","23","","19","","1.2","","100.15","","","","-8","","Snow Showers,Fog"
"2001-12-25 16:00","2001","12","25","16:00","-2.7","","-3.3","","96","","23","","15","","1.6","","100.15","","","","-8","","Snow Showers,Fog"
"2001-12-25 17:00","2001","12","25","17:00","-2.9","","-3.4","","96","","22","","15","","1.2","","100.19","","","","-8","","Snow Showers,Fog"
"2001-12-25 18:00","2001","12","25","18:00","-2.9","","-3.2","","98","","22","","19","","3.2","","100.22","","","","-9","","Snow Showers"
"2001-12-25 19:00","2001","12","25","19:00","-3.2","","-3.4","","99","","24","","19","","2.4","","100.27","","","","-9","","Snow Showers"
"2001-12-25 20:00","2001","12","25","20:00","-3.9","","-4.3","","97","","24","","15","","1.6","","100.28","","","","-9","","Snow Showers"
"2001-12-25 21:00","2001","12","25","21:00","-3.9","","-4.2","","98","","23","","15","","1.6","","100.23","","","","-9","","Snow Showers"
"2001-12-25 22:00","2001","12","25","22:00","-4.0","","-4.5","","96","","23","","9","","8.0","","100.21","","","","-8","","Snow Showers"
"2001-12-25 23:00","2001","12","25","23:00"
"2001-12-26 00:00","2001","12","26","00:00"
"2001-12-26 01:00","2001","12","26","01:00"
"2001-12-26 02:00","2001","12","26","02:00"
"2001-12-26 03:00","2001","12","26","03:00"
"2001-12-26 04:00","2001","12","26","04:00"
"2001-12-26 05:00","2001","12","26","05:00"
"2001-12-26 06:00","2001","12","26","06:00","-5.4","","-6.2","","94","","20","","9","","12.9","","99.90","","","","-9","","Snow Showers"
"2001-12-26 07:00","2001","12","26","07:00","-5.4","","-6.2","","94","","20","","15","","12.9","","99.88","","","","-11","","Snow Showers"
"2001-12-26 08:00","2001","12","26","08:00","-5.4","","-6.3","","93","","21","","9","","8.0","","99.86","","","","-9","","Snow Showers"
"2001-12-26 09:00","2001","12","26","09:00","-5.0","","-5.2","","98","","24","","9","","3.2","","99.86","","","","-9","","Snow Showers"
"2001-12-26 10:00","2001","12","26","10:00","-3.9","","-5.4","","89","","21","","19","","3.2","","99.77","","","","-10","","Snow Showers"
"2001-12-26 11:00","2001","12","26","11:00","-3.6","","-5.7","","85","","20","","19","","16.1","","99.70","","","","-10","","Snow Showers"
"2001-12-26 12:00","2001","12","26","12:00","-3.4","","-5.1","","88","","21","","19","","4.0","","99.58","","","","-9","","Snow"
"2001-12-26 13:00","2001","12","26","13:00","-3.0","","-4.8","","87","","23","","20","","1.6","","99.49","","","","-9","","Snow Showers"
"2001-12-26 14:00","2001","12","26","14:00","-4.7","","-5.5","","94","","26","","28","","4.0","","99.47","","","","-12","","Snow Showers"
"2001-12-26 15:00","2001","12","26","15:00","-4.8","","-7.4","","82","","23","","15","","19.3","","99.44","","","","-10","","Mostly Cloudy"
"2001-12-26 16:00","2001","12","26","16:00","-4.5","","-8.6","","73","","24","","19","","24.1","","99.41","","","","-11","","Mostly Cloudy"
"2001-12-26 17:00","2001","12","26","17:00","-5.1","","-9.0","","74","","23","","19","","24.1","","99.39","","","","-12","","Mostly Cloudy"
"2001-12-26 18:00","2001","12","26","18:00","-5.5","","-8.5","","79","","22","","9","","24.1","","99.39","","","","-10","","Cloudy"
"2001-12-26 19:00","2001","12","26","19:00","-6.0","","-8.2","","84","","21","","9","","24.1","","99.37","","","","-10","","Cloudy"
"2001-12-26 20:00","2001","12","26","20:00","-7.8","","-10.2","","83","","24","","9","","24.1","","99.33","","","","-12","","Mainly Clear"
"2001-12-26 21:00","2001","12","26","21:00","-8.3","","-10.5","","84","","23","","9","","24.1","","99.29","","","","-13","","Cloudy"
"2001-12-26 22:00","2001","12","26","22:00","-6.9","","-9.6","","81","","26","","9","","24.1","","99.26","","","","-11","","Cloudy"
"2001-12-26 23:00","2001","12","26","23:00"
"2001-12-27 00:00","2001","12","27","00:00"
"2001-12-27 01:00","2001","12","27","01:00"
"2001-12-27 02:00","2001","12","27","02:00"
"2001-12-27 03:00","2001","12","27","03:00"
"2001-12-27 04:00","2001","12","27","04:00"
"2001-12-27 05:00","2001","12","27","05:00"
"2001-12-27 06:00","2001","12","27","06:00","-7.1","","-10.8","","75","","24","","19","","24.1","","98.93","","","","-14","","Cloudy"
"2001-12-27 07:00","2001","12","27","07:00","-7.4","","-10.6","","78","","25","","19","","24.1","","98.95","","","","-14","","Cloudy"
"2001-12-27 08:00","2001","12","27","08:00","-7.3","","-10.4","","78","","24","","19","","19.3","","98.99","","","","-14","","Cloudy"
"2001-12-27 09:00","2001","12","27","09:00","-6.7","","-9.9","","78","","23","","19","","12.9","","98.98","","","","-14","","Cloudy"
"2001-12-27 10:00","2001","12","27","10:00","-6.2","","-9.7","","76","","24","","19","","16.1","","98.96","","","","-13","","Cloudy"
"2001-12-27 11:00","2001","12","27","11:00","-5.7","","-9.4","","75","","25","","15","","16.1","","98.90","","","","-11","","Cloudy"
"2001-12-27 12:00","2001","12","27","12:00","-5.0","","-8.1","","79","","23","","19","","9.7","","98.81","","","","-11","","Snow"
"2001-12-27 13:00","2001","12","27","13:00","-4.4","","-7.5","","79","","24","","22","","8.0","","98.77","","","","-11","","Snow"
"2001-12-27 14:00","2001","12","27","14:00","-4.3","","-7.7","","77","","26","","19","","12.9","","98.77","","","","-10","","Snow"
"2001-12-27 15:00","2001","12","27","15:00","-4.2","","-8.5","","72","","26","","22","","24.1","","98.81","","","","-11","","Cloudy"
"2001-12-27 16:00","2001","12","27","16:00","-4.4","","-8.7","","72","","27","","19","","24.1","","98.85","","","","-11","","Mostly Cloudy"
"2001-12-27 17:00","2001","12","27","17:00","-5.1","","-9.4","","72","","26","","15","","19.3","","98.93","","","","-11","","Mainly Clear"
"2001-12-27 18:00","2001","12","27","18:00","-5.9","","-10.1","","72","","24","","11","","24.1","","98.95","","","","-11","","Mainly Clear"
"2001-12-27 19:00","2001","12","27","19:00","-5.8","","-9.8","","73","","25","","15","","19.3","","98.99","","","","-12","","Mainly Clear"
"2001-12-27 20:00","2001","12","27","20:00","-4.0","","-7.9","","74","","25","","22","","19.3","","98.99","","","","-11","","Cloudy"
"2001-12-27 21:00","2001","12","27","21:00","-4.3","","-8.2","","74","","23","","11","","19.3","","98.98","","","","-9","","Cloudy"
"2001-12-27 22:00","2001","12","27","22:00","-4.1","","-8.0","","74","","19","","9","","24.1","","98.96","","","","-8","","Cloudy"
"2001-12-27 23:00","2001","12","27","23:00"
"2001-12-28 00:00","2001","12","28","00:00"
"2001-12-28 01:00","2001","12","28","01:00"
"2001-12-28 02:00","2001","12","28","02:00"
"2001-12-28 03:00","2001","12","28","03:00"
"2001-12-28 04:00","2001","12","28","04:00"
"2001-12-28 05:00","2001","12","28","05:00"
"2001-12-28 06:00","2001","12","28","06:00","-3.8","","-7.4","","76","","19","","9","","12.9","","98.64","","","","-8","","Cloudy"
"2001-12-28 07:00","2001","12","28","07:00","-3.7","","-4.8","","92","","21","","9","","4.8","","98.66","","","","-7","","Snow Showers"
"2001-12-28 08:00","2001","12","28","08:00","-3.4","","-4.1","","95","","21","","15","","9.7","","98.65","","","","-9","","Snow Showers"
"2001-12-28 09:00","2001","12","28","09:00","-3.1","","-3.7","","96","","21","","19","","4.0","","98.66","","","","-9","","Snow Showers"
"2001-12-28 10:00","2001","12","28","10:00","-1.9","","-4.3","","84","","22","","15","","19.3","","98.63","","","","-7","","Mainly Clear"
"2001-12-28 11:00","2001","12","28","11:00","-1.6","","-5.0","","78","","23","","19","","19.3","","98.58","","","","-7","","Mainly Clear"
"2001-12-28 12:00","2001","12","28","12:00","-1.3","","-5.3","","74","","25","","19","","19.3","","98.54","","","","-7","","Cloudy"
"2001-12-28 13:00","2001","12","28","13:00","-1.0","","-5.1","","74","","24","","15","","19.3","","98.53","","","","-6","","Cloudy"
"2001-12-28 14:00","2001","12","28","14:00","-1.0","","-5.7","","70","","25","","22","","16.1","","98.59","","","","-7","","Snow Showers"
"2001-12-28 15:00","2001","12","28","15:00","-1.9","","-9.4","","56","","27","","19","","24.1","","98.70","","","","-7","","Mainly Clear"
"2001-12-28 16:00","2001","12","28","16:00","-2.9","","-10.5","","56","","25","","19","","24.1","","98.80","","","","-9","","Mainly Clear"
"2001-12-28 17:00","2001","12","28","17:00","-3.7","","-10.4","","60","","26","","26","","24.1","","98.89","","","","-11","","Mainly Clear"
"2001-12-28 18:00","2001","12","28","18:00","-4.7","","-10.0","","66","","26","","22","","24.1","","98.98","","","","-12","","Mainly Clear"
"2001-12-28 19:00","2001","12","28","19:00","-4.8","","-9.6","","69","","24","","28","","24.1","","99.07","","","","-12","","Mainly Clear"
"2001-12-28 20:00","2001","12","28","20:00","-4.4","","-10.2","","64","","26","","19","","24.1","","99.09","","","","-11","","Clear"
"2001-12-28 21:00","2001","12","28","21:00","-4.9","","-10.5","","65","","25","","28","","24.1","","99.11","","","","-13","","Mainly Clear"
"2001-12-28 22:00","2001","12","28","22:00","-5.8","","-10.9","","67","","24","","19","","24.1","","99.12","","","","-12","","Clear"
"2001-12-28 23:00","2001","12","28","23:00"
"2001-12-29 00:00","2001","12","29","00:00"
"2001-12-29 01:00","2001","12","29","01:00"
"2001-12-29 02:00","2001","12","29","02:00"
"2001-12-29 03:00","2001","12","29","03:00"
"2001-12-29 04:00","2001","12","29","04:00"
"2001-12-29 05:00","2001","12","29","05:00"
"2001-12-29 06:00","2001","12","29","06:00","-5.4","","-9.3","","74","","23","","19","","24.1","","99.19","","","","-12","","Cloudy"
"2001-12-29 07:00","2001","12","29","07:00","-5.4","","-9.3","","74","","22","","15","","24.1","","99.25","","","","-11","","Cloudy"
"2001-12-29 08:00","2001","12","29","08:00","-5.9","","-10.3","","71","","23","","15","","24.1","","99.33","","","","-12","","Mainly Clear"
"2001-12-29 09:00","2001","12","29","09:00","-6.5","","-10.5","","73","","23","","15","","24.1","","99.36","","","","-12","","Mainly Clear"
"2001-12-29 10:00","2001","12","29","10:00","-5.1","","-9.9","","69","","24","","15","","24.1","","99.39","","","","-11","","Cloudy"
"2001-12-29 11:00","2001","12","29","11:00","-3.5","","-8.7","","67","","25","","19","","24.1","","99.39","","","","-9","","Cloudy"
"2001-12-29 12:00","2001","12","29","12:00","-3.2","","-8.2","","68","","26","","24","","24.1","","99.38","","","","-10","","Cloudy"
"2001-12-29 13:00","2001","12","29","13:00","-2.8","","-7.7","","69","","27","","24","","24.1","","99.39","","","","-9","","Cloudy"
"2001-12-29 14:00","2001","12","29","14:00","-3.1","","-7.5","","72","","27","","22","","6.4","","99.44","","","","-9","","Snow Showers"
"2001-12-29 15:00","2001","12","29","15:00","-3.0","","-8.1","","68","","25","","28","","24.1","","99.50","","","","-10","","Cloudy"
"2001-12-29 16:00","2001","12","29","16:00","-3.9","","-7.0","","79","","27","","28","","1.6","","99.59","","","","-11","","Snow Showers"
"2001-12-29 17:00","2001","12","29","17:00","-4.7","","-6.3","","89","","25","","19","","12.9","","99.66","","","","-11","","Snow Showers"
"2001-12-29 18:00","2001","12","29","18:00","-4.6","","-7.6","","80","","25","","19","","24.1","","99.73","","","","-11","","Mostly Cloudy"
"2001-12-29 19:00","2001","12","29","19:00","-5.5","","-9.2","","75","","25","","19","","24.1","","99.79","","","","-12","","Mainly Clear"
"2001-12-29 20:00","2001","12","29","20:00","-5.9","","-9.6","","75","","26","","19","","24.1","","99.84","","","","-13","","Mainly Clear"
"2001-12-29 21:00","2001","12","29","21:00","-6.1","","-10.3","","72","","25","","28","","24.1","","99.83","","","","-14","","Mainly Clear"
"2001-12-29 22:00","2001","12","29","22:00","-6.2","","-9.7","","76","","25","","28","","24.1","","99.84","","","","-14","","Clear"
"2001-12-29 23:00","2001","12","29","23:00"
"2001-12-30 00:00","2001","12","30","00:00"
"2001-12-30 01:00","2001","12","30","01:00"
"2001-12-30 02:00","2001","12","30","02:00"
"2001-12-30 03:00","2001","12","30","03:00"
"2001-12-30 04:00","2001","12","30","04:00"
"2001-12-30 05:00","2001","12","30","05:00"
"2001-12-30 06:00","2001","12","30","06:00","-6.6","","-10.2","","76","","25","","19","","24.1","","99.90","","","","-13","","Mainly Clear"
"2001-12-30 07:00","2001","12","30","07:00","-7.1","","-10.8","","75","","25","","22","","24.1","","99.94","","","","-15","","Mainly Clear"
"2001-12-30 08:00","2001","12","30","08:00","-7.4","","-11.0","","75","","25","","22","","24.1","","99.98","","","","-15","","Mainly Clear"
"2001-12-30 09:00","2001","12","30","09:00","-6.9","","-10.8","","74","","25","","22","","24.1","","100.02","","","","-14","","Mainly Clear"
"2001-12-30 10:00","2001","12","30","10:00","-6.3","","-10.5","","72","","24","","24","","24.1","","100.04","","","","-14","","Clear"
"2001-12-30 11:00","2001","12","30","11:00","-5.6","","-10.4","","69","","24","","30","","24.1","","100.01","","","","-14","","Clear"
"2001-12-30 12:00","2001","12","30","12:00","-5.2","","-10.4","","67","","24","","33","","24.1","","99.92","","","","-14","","Mainly Clear"
"2001-12-30 13:00","2001","12","30","13:00","-5.1","","-10.1","","68","","24","","30","","24.1","","99.87","","","","-13","","Mainly Clear"
"2001-12-30 14:00","2001","12","30","14:00","-4.4","","-10.5","","62","","25","","28","","24.1","","99.90","","","","-12","","Mainly Clear"
"2001-12-30 15:00","2001","12","30","15:00","-4.9","","-10.9","","63","","24","","28","","24.1","","99.93","","","","-13","","Mainly Clear"
"2001-12-30 16:00","2001","12","30","16:00","-5.4","","-11.1","","64","","24","","28","","24.1","","100.00","","","","-13","","Mainly Clear"
"2001-12-30 17:00","2001","12","30","17:00","-5.8","","-11.1","","66","","24","","32","","24.1","","100.02","","","","-14","","Mainly Clear"
"2001-12-30 18:00","2001","12","30","18:00","-5.6","","-11.3","","64","","23","","28","","24.1","","100.04","","","","-14","","Mainly Clear"
"2001-12-30 19:00","2001","12","30","19:00","-5.6","","-10.7","","67","","24","","28","","24.1","","100.06","","","","-14","","Mostly Cloudy"
"2001-12-30 20:00","2001","12","30","20:00","-5.3","","-12.1","","59","","24","","28","","24.1","","100.09","","","","-13","","Mostly Cloudy"
"2001-12-30 21:00","2001","12","30","21:00","-5.4","","-11.3","","63","","24","","28","","24.1","","100.11","","","","-13","","Mostly Cloudy"
"2001-12-30 22:00","2001","12","30","22:00","-5.3","","-11.4","","62","","24","","37","","24.1","","100.08","","","","-14","","Cloudy"
"2001-12-30 23:00","2001","12","30","23:00"
"2001-12-31 00:00","2001","12","31","00:00"
"2001-12-31 01:00","2001","12","31","01:00"
"2001-12-31 02:00","2001","12","31","02:00"
"2001-12-31 03:00","2001","12","31","03:00"
"2001-12-31 04:00","2001","12","31","04:00"
"2001-12-31 05:00","2001","12","31","05:00"
"2001-12-31 06:00","2001","12","31","06:00","-5.5","","-10.9","","66","","24","","28","","24.1","","100.11","","","","-13","","Mostly Cloudy"
"2001-12-31 07:00","2001","12","31","07:00","-5.5","","-10.8","","66","","23","","28","","19.3","","100.15","","","","-13","","Cloudy"
"2001-12-31 08:00","2001","12","31","08:00","-5.5","","-11.2","","64","","23","","30","","19.3","","100.22","","","","-14","","Cloudy"
"2001-12-31 09:00","2001","12","31","09:00","-5.5","","-10.8","","66","","23","","28","","19.3","","100.26","","","","-13","","Snow Showers"
"2001-12-31 10:00","2001","12","31","10:00","-5.3","","-10.4","","67","","23","","28","","19.3","","100.32","","","","-13","","Snow Showers"
"2001-12-31 11:00","2001","12","31","11:00","-4.9","","-10.1","","67","","23","","28","","24.1","","100.30","","","","-13","","Mainly Clear"
"2001-12-31 12:00","2001","12","31","12:00","-4.2","","-10.2","","63","","24","","28","","24.1","","100.25","","","","-12","","Mainly Clear"
"2001-12-31 13:00","2001","12","31","13:00","-3.9","","-9.6","","65","","24","","32","","24.1","","100.24","","","","-12","","Mainly Clear"
"2001-12-31 14:00","2001","12","31","14:00","-3.9","","-9.2","","67","","24","","28","","24.1","","100.23","","","","-11","","Mainly Clear"
"2001-12-31 15:00","2001","12","31","15:00","-3.8","","-9.8","","63","","24","","19","","24.1","","100.28","","","","-10","","Mainly Clear"
"2001-12-31 16:00","2001","12","31","16:00","-4.0","","-10.5","","61","","24","","19","","24.1","","100.31","","","","-10","","Mainly Clear"
"2001-12-31 17:00","2001","12","31","17:00","-4.9","","-10.5","","65","","24","","19","","24.1","","100.36","","","","-11","","Mainly Clear"
"2001-12-31 18:00","2001","12","31","18:00","-5.3","","-10.2","","68","","24","","19","","24.1","","100.42","","","","-12","","Mainly Clear"
"2001-12-31 19:00","2001","12","31","19:00","-5.3","","-10.0","","69","","25","","19","","24.1","","100.46","","","","-12","","Mostly Cloudy"
"2001-12-31 20:00","2001","12","31","20:00","-5.4","","-10.1","","69","","24","","19","","24.1","","100.48","","","","-12","","Mainly Clear"
"2001-12-31 21:00","2001","12","31","21:00","-5.4","","-10.3","","68","","26","","15","","24.1","","100.51","","","","-11","","Mainly Clear"
"2001-12-31 22:00","2001","12","31","22:00","-5.9","","-10.0","","73","","24","","19","","24.1","","100.52","","","","-13","","Mostly Cloudy"
"2001-12-31 23:00","2001","12","31","23:00"
