"Station Name","ST CATHARINES A"
"Province","ONTARIO"
"Latitude","43.20"
"Longitude","-79.17"
"Elevation","97.80"
"Climate Identifier","6137287"
"WMO Identifier",""
"TC Identifier","YSN"
"All times are specified in Local Standard Time (LST). Add 1 hour to adjust for Daylight Saving Time where and when it is observed."

"Legend"
"E","Estimated"
"M","Missing"
"NA","Not Available"

"Date/Time","Year","Month","Day","Time","Temp (°C)","Temp Flag","Dew Point Temp (°C)","Dew Point Temp Flag","Rel Hum (%)","Rel Hum Flag","Wind Dir (10s deg)","Wind Dir Flag","Wind Spd (km/h)","Wind Spd Flag","Visibility (km)","Visibility Flag","Stn Press (kPa)","Stn Press Flag","Hmdx","Hmdx Flag","Wind Chill","Wind Chill Flag","Weather"
"1999-11-01 00:00","1999","11","01","00:00","","M","","M","","M","","M","","M","","M","","M","","","","","NA"
"1999-11-01 01:00","1999","11","01","01:00","","M","","M","","M","","M","","M","","M","","M","","","","","NA"
"1999-11-01 02:00","1999","11","01","02:00","","M","","M","","M","","M","","M","","M","","M","","","","","NA"
"1999-11-01 03:00","1999","11","01","03:00","","M","","M","","M","","M","","M","","M","","M","","","","","NA"
"1999-11-01 04:00","1999","11","01","04:00","","M","","M","","M","","M","","M","","M","","M","","","","","NA"
"1999-11-01 05:00","1999","11","01","05:00","","M","","M","","M","","M","","M","","M","","M","","","","","NA"
"1999-11-01 06:00","1999","11","01","06:00","8.2","","8.1","","99","","19","","9","","0.8","","100.96","","","","","","Fog"
"1999-11-01 07:00","1999","11","01","07:00","8.6","","8.6","","100","","19","","15","","0.8","","100.92","","","","","","Fog"
"1999-11-01 08:00","1999","11","01","08:00","8.7","","8.7","","100","","19","","11","","8.0","","100.96","","","","","","Fog"
"1999-11-01 09:00","1999","11","01","09:00","11.2","","9.8","","91","","20","","9","","9.7","","100.92","","","","","","Fog"
"1999-11-01 10:00","1999","11","01","10:00","13.9","","9.2","","73","","20","","15","","11.3","","100.86","","","","","","Clear"
"1999-11-01 11:00","1999","11","01","11:00","16.1","","8.8","","62","","19","","15","","12.9","","100.79","","","","","","Clear"
"1999-11-01 12:00","1999","11","01","12:00","17.1","","9.5","","61","","17","","11","","19.3","","100.69","","","","","","Clear"
"1999-11-01 13:00","1999","11","01","13:00","18.1","","10.1","","60","","21","","11","","16.1","","100.62","","","","","","Clear"
"1999-11-01 14:00","1999","11","01","14:00","18.6","","11.7","","64","","20","","17","","16.1","","100.49","","","","","","Clear"
"1999-11-01 15:00","1999","11","01","15:00","19.0","","12.6","","66","","19","","15","","16.1","","100.39","","","","","","Mainly Clear"
"1999-11-01 16:00","1999","11","01","16:00","18.9","","12.8","","68","","20","","19","","16.1","","100.29","","","","","","Mainly Clear"
"1999-11-01 17:00","1999","11","01","17:00","17.5","","12.7","","73","","19","","9","","16.1","","100.22","","","","","","Mainly Clear"
"1999-11-01 18:00","1999","11","01","18:00","16.7","","12.4","","76","","19","","9","","16.1","","100.18","","","","","","Mainly Clear"
"1999-11-01 19:00","1999","11","01","19:00","16.3","","12.3","","77","","20","","15","","19.3","","100.12","","","","","","Mostly Cloudy"
"1999-11-01 20:00","1999","11","01","20:00","15.7","","12.3","","80","","21","","13","","19.3","","100.08","","","","","","Cloudy"
"1999-11-01 21:00","1999","11","01","21:00","17.0","","12.7","","76","","19","","17","","19.3","","99.95","","","","","","Cloudy"
"1999-11-01 22:00","1999","11","01","22:00","17.6","","12.3","","71","","18","","20","","19.3","","99.85","","","","","","Mainly Clear"
"1999-11-01 23:00","1999","11","01","23:00","","M","","M","","M","","M","","M","","M","","M","","","","","NA"
"1999-11-02 00:00","1999","11","02","00:00","","M","","M","","M","","M","","M","","M","","M","","","","","NA"
"1999-11-02 01:00","1999","11","02","01:00","","M","","M","","M","","M","","M","","M","","M","","","","","NA"
"1999-11-02 02:00","1999","11","02","02:00","","M","","M","","M","","M","","M","","M","","M","","","","","NA"
"1999-11-02 03:00","1999","11","02","03:00","","M","","M","","M","","M","","M","","M","","M","","","","","NA"
"1999-11-02 04:00","1999","11","02","04:00","","M","","M","","M","","M","","M","","M","","M","","","","","NA"
"1999-11-02 05:00","1999","11","02","05:00","","M","","M","","M","","M","","M","","M","","M","","","","","NA"
"1999-11-02 06:00","1999","11","02","06:00","17.4","","11.7","","69","","19","","11","","19.3","","99.28","","","","","","Cloudy"
"1999-11-02 07:00","1999","11","02","07:00","15.9","","12.3","","79","","17","","15","","8.0","","99.35","","","","","","Rain"
"1999-11-02 08:00","1999","11","02","08:00","15.3","","13.9","","91","","19","","22","","8.0","","99.31","","","","","","Rain"
"1999-11-02 09:00","1999","11","02","09:00","15.0","","14.2","","95","","19","","13","","6.4","","99.25","","","","","","Rain,Fog"
"1999-11-02 10:00","1999","11","02","10:00","9.5","","9.0","","97","","3","","20","","6.4","","99.25","","","","","","Rain,Fog"
"1999-11-02 11:00","1999","11","02","11:00","8.9","","8.2","","95","","35","","19","","8.0","","99.21","","","","","","Rain,Fog"
"1999-11-02 12:00","1999","11","02","12:00","8.1","","7.8","","98","","36","","28","","9.7","","99.18","","","","","","Rain,Fog"
"1999-11-02 13:00","1999","11","02","13:00","7.7","","7.1","","96","","36","","22","","8.0","","99.08","","","","","","Rain,Fog"
"1999-11-02 14:00","1999","11","02","14:00","7.7","","7.0","","95","","1","","28","","11.3","","98.84","","","","","","Rain"
"1999-11-02 15:00","1999","11","02","15:00","7.2","","7.2","","100","","35","","20","","4.0","","98.61","","","","","","Moderate Rain,Fog"
"1999-11-02 16:00","1999","11","02","16:00","6.9","","6.9","","100","","1","","26","","4.0","","98.54","","","","","","Moderate Rain,Fog"
"1999-11-02 17:00","1999","11","02","17:00","6.5","","6.5","","100","","35","","22","","4.8","","98.34","","","","","","Moderate Rain,Fog"
"1999-11-02 18:00","1999","11","02","18:00","6.2","","6.2","","100","","35","","30","","11.3","","98.21","","","","","","Rain"
"1999-11-02 19:00","1999","11","02","19:00","5.8","","5.8","","100","","36","","28","","11.3","","97.87","","","","","","Rain"
"1999-11-02 20:00","1999","11","02","20:00","5.4","","5.4","","100","","35","","33","","2.4","","97.67","","","","","","Thunderstorms,Heavy Rain Showers,Fog"
"1999-11-02 21:00","1999","11","02","21:00","4.7","","4.7","","100","","31","","28","","6.4","","97.57","","","","","","Thunderstorms,Moderate Rain Showers,Fog"
"1999-11-02 22:00","1999","11","02","22:00","4.3","","4.3","","100","","29","","28","","8.0","","97.87","","","","","","Moderate Rain Showers,Fog"
"1999-11-02 23:00","1999","11","02","23:00","","M","","M","","M","","M","","M","","M","","M","","","","","NA"
"1999-11-03 00:00","1999","11","03","00:00","","M","","M","","M","","M","","M","","M","","M","","","","","NA"
"1999-11-03 01:00","1999","11","03","01:00","","M","","M","","M","","M","","M","","M","","M","","","","","NA"
"1999-11-03 02:00","1999","11","03","02:00","","M","","M","","M","","M","","M","","M","","M","","","","","NA"
"1999-11-03 03:00","1999","11","03","03:00","","M","","M","","M","","M","","M","","M","","M","","","","","NA"
"1999-11-03 04:00","1999","11","03","04:00","","M","","M","","M","","M","","M","","M","","M","","","","","NA"
"1999-11-03 05:00","1999","11","03","05:00","","M","","M","","M","","M","","M","","M","","M","","","","","NA"
"1999-11-03 06:00","1999","11","03","06:00","1.2","","0.6","","96","","26","","28","","4.8","","98.54","","","","","","Snow"
"1999-11-03 07:00","1999","11","03","07:00","1.2","","0.0","","92","","25","","19","","4.0","","98.61","","","","","","Snow"
"1999-11-03 08:00","1999","11","03","08:00","1.7","","0.2","","90","","27","","28","","4.8","","98.68","","","","","","Snow"
"1999-11-03 09:00","1999","11","03","09:00","2.1","","0.3","","88","","27","","28","","9.7","","98.71","","","","","","Fog"
"1999-11-03 10:00","1999","11","03","10:00","1.9","","0.7","","92","","26","","28","","8.0","","98.81","","","","","","Rain,Snow"
"1999-11-03 11:00","1999","11","03","11:00","2.0","","0.4","","89","","25","","28","","9.7","","98.81","","","","","","Rain,Snow"
"1999-11-03 12:00","1999","11","03","12:00","2.8","","1.1","","89","","25","","28","","12.9","","98.81","","","","","","Rain"
"1999-11-03 13:00","1999","11","03","13:00","2.6","","0.9","","89","","24","","28","","9.7","","98.91","","","","","","Rain,Fog"
"1999-11-03 14:00","1999","11","03","14:00","2.3","","0.7","","89","","25","","30","","9.7","","98.98","","","","","","Rain,Fog"
"1999-11-03 15:00","1999","11","03","15:00","2.2","","0.8","","90","","23","","28","","12.9","","99.08","","","","","","Cloudy"
"1999-11-03 16:00","1999","11","03","16:00","2.0","","0.6","","90","","24","","33","","9.7","","99.28","","","","","","Rain,Fog"
"1999-11-03 17:00","1999","11","03","17:00","2.2","","0.1","","86","","25","","35","","19.3","","99.38","","","","","","Cloudy"
"1999-11-03 18:00","1999","11","03","18:00","1.9","","0.1","","88","","24","","28","","12.9","","99.41","","","","","","Cloudy"
"1999-11-03 19:00","1999","11","03","19:00","2.3","","-0.2","","84","","25","","30","","16.1","","99.51","","","","","","Cloudy"
"1999-11-03 20:00","1999","11","03","20:00","2.4","","-0.3","","82","","25","","26","","24.1","","99.61","","","","","","Cloudy"
"1999-11-03 21:00","1999","11","03","21:00","2.4","","-0.8","","79","","25","","28","","24.1","","99.72","","","","","","Cloudy"
"1999-11-03 22:00","1999","11","03","22:00","2.2","","-1.4","","77","","25","","26","","24.1","","99.75","","","","","","Mainly Clear"
"1999-11-03 23:00","1999","11","03","23:00","","M","","M","","M","","M","","M","","M","","M","","","","","NA"
"1999-11-04 00:00","1999","11","04","00:00","","M","","M","","M","","M","","M","","M","","M","","","","","NA"
"1999-11-04 01:00","1999","11","04","01:00","","M","","M","","M","","M","","M","","M","","M","","","","","NA"
"1999-11-04 02:00","1999","11","04","02:00","","M","","M","","M","","M","","M","","M","","M","","","","","NA"
"1999-11-04 03:00","1999","11","04","03:00","","M","","M","","M","","M","","M","","M","","M","","","","","NA"
"1999-11-04 04:00","1999","11","04","04:00","","M","","M","","M","","M","","M","","M","","M","","","","","NA"
"1999-11-04 05:00","1999","11","04","05:00","","M","","M","","M","","M","","M","","M","","M","","","","","NA"
"1999-11-04 06:00","1999","11","04","06:00","2.9","","-2.6","","67","","24","","28","","48.3","","100.42","","","","","","Cloudy"
"1999-11-04 07:00","1999","11","04","07:00","3.0","","-3.2","","64","","24","","22","","48.3","","100.52","","","","","","Cloudy"
"1999-11-04 08:00","1999","11","04","08:00","2.7","","-3.3","","65","","23","","22","","24.1","","100.62","","","","","","Mainly Clear"
"1999-11-04 09:00","1999","11","04","09:00","3.3","","-2.9","","64","","24","","19","","24.1","","100.76","","","","","","Mainly Clear"
"1999-11-04 10:00","1999","11","04","10:00","5.1","","-3.0","","56","","26","","28","","24.1","","100.82","","","","","","Mainly Clear"
"1999-11-04 11:00","1999","11","04","11:00","6.2","","-2.9","","52","","26","","22","","24.1","","100.89","","","","","","Mainly Clear"
"1999-11-04 12:00","1999","11","04","12:00","7.7","","-3.3","","46","","26","","26","","24.1","","100.89","","","","","","Mainly Clear"
"1999-11-04 13:00","1999","11","04","13:00","8.8","","-5.4","","36","","25","","28","","24.1","","100.82","","","","","","Mainly Clear"
"1999-11-04 14:00","1999","11","04","14:00","9.1","","-5.1","","36","","27","","28","","24.1","","100.79","","","","","","Mainly Clear"
"1999-11-04 15:00","1999","11","04","15:00","9.5","","-5.0","","36","","24","","24","","24.1","","100.79","","","","","","Mainly Clear"
"1999-11-04 16:00","1999","11","04","16:00","9.7","","-3.9","","38","","24","","22","","24.1","","100.82","","","","","","Mainly Clear"
"1999-11-04 17:00","1999","11","04","17:00","8.6","","-0.8","","52","","23","","17","","24.1","","100.82","","","","","","Clear"
"1999-11-04 18:00","1999","11","04","18:00","7.4","","1.9","","68","","22","","11","","24.1","","100.89","","","","","","Clear"
"1999-11-04 19:00","1999","11","04","19:00","6.3","","2.5","","77","","22","","11","","24.1","","100.92","","","","","","Clear"
"1999-11-04 20:00","1999","11","04","20:00","7.8","","2.3","","68","","22","","15","","24.1","","100.92","","","","","","Clear"
"1999-11-04 21:00","1999","11","04","21:00","7.4","","2.1","","69","","22","","17","","24.1","","100.96","","","","","","Clear"
"1999-11-04 22:00","1999","11","04","22:00","6.7","","2.3","","73","","","","0","","24.1","","100.96","","","","","","Clear"
"1999-11-04 23:00","1999","11","04","23:00","","M","","M","","M","","M","","M","","M","","M","","","","","NA"
"1999-11-05 00:00","1999","11","05","00:00","","M","","M","","M","","M","","M","","M","","M","","","","","NA"
"1999-11-05 01:00","1999","11","05","01:00","","M","","M","","M","","M","","M","","M","","M","","","","","NA"
"1999-11-05 02:00","1999","11","05","02:00","","M","","M","","M","","M","","M","","M","","M","","","","","NA"
"1999-11-05 03:00","1999","11","05","03:00","","M","","M","","M","","M","","M","","M","","M","","","","","NA"
"1999-11-05 04:00","1999","11","05","04:00","","M","","M","","M","","M","","M","","M","","M","","","","","NA"
"1999-11-05 05:00","1999","11","05","05:00","","M","","M","","M","","M","","M","","M","","M","","","","","NA"
"1999-11-05 06:00","1999","11","05","06:00","10.6","","3.1","","60","","21","","22","","24.1","","100.86","","","","","","Mostly Cloudy"
"1999-11-05 07:00","1999","11","05","07:00","11.0","","3.1","","58","","22","","28","","24.1","","100.82","","","","","","Mostly Cloudy"
"1999-11-05 08:00","1999","11","05","08:00","11.2","","3.3","","58","","22","","28","","24.1","","100.82","","","","","","Mostly Cloudy"
"1999-11-05 09:00","1999","11","05","09:00","12.4","","3.4","","54","","23","","33","","24.1","","100.76","","","","","","Mostly Cloudy"
"1999-11-05 10:00","1999","11","05","10:00","13.8","","4.2","","52","","22","","33","","24.1","","100.65","","","","","","Mostly Cloudy"
"1999-11-05 11:00","1999","11","05","11:00","14.9","","5.6","","54","","23","","39","","24.1","","100.62","","","","","","Mostly Cloudy"
"1999-11-05 12:00","1999","11","05","12:00","14.7","","5.4","","54","","23","","37","","24.1","","100.52","","","","","","Mostly Cloudy"
"1999-11-05 13:00","1999","11","05","13:00","15.3","","5.7","","53","","23","","33","","24.1","","100.49","","","","","","Mainly Clear"
"1999-11-05 14:00","1999","11","05","14:00","16.2","","5.7","","50","","22","","33","","24.1","","100.32","","","","","","Mainly Clear"
"1999-11-05 15:00","1999","11","05","15:00","16.8","","5.8","","48","","22","","37","","24.1","","100.25","","","","","","Mainly Clear"
"1999-11-05 16:00","1999","11","05","16:00","16.3","","6.1","","51","","25","","28","","24.1","","100.42","","","","","","Mainly Clear"
"1999-11-05 17:00","1999","11","05","17:00","15.3","","6.5","","56","","25","","22","","24.1","","100.49","","","","","","Mainly Clear"
"1999-11-05 18:00","1999","11","05","18:00","15.9","","6.3","","53","","24","","22","","24.1","","100.49","","","","","","Cloudy"
"1999-11-05 19:00","1999","11","05","19:00","15.8","","6.9","","55","","24","","19","","24.1","","100.52","","","","","","Mostly Cloudy"
"1999-11-05 20:00","1999","11","05","20:00","15.6","","7.2","","57","","25","","19","","24.1","","100.55","","","","","","Mostly Cloudy"
"1999-11-05 21:00","1999","11","05","21:00","15.0","","7.0","","59","","25","","28","","24.1","","100.62","","","","","","Mainly Clear"
"1999-11-05 22:00","1999","11","05","22:00","14.2","","6.2","","59","","27","","19","","24.1","","100.69","","","","","","Clear"
"1999-11-05 23:00","1999","11","05","23:00","","M","","M","","M","","M","","M","","M","","M","","","","","NA"
"1999-11-06 00:00","1999","11","06","00:00","","M","","M","","M","","M","","M","","M","","M","","","","","NA"
"1999-11-06 01:00","1999","11","06","01:00","","M","","M","","M","","M","","M","","M","","M","","","","","NA"
"1999-11-06 02:00","1999","11","06","02:00","","M","","M","","M","","M","","M","","M","","M","","","","","NA"
"1999-11-06 03:00","1999","11","06","03:00","","M","","M","","M","","M","","M","","M","","M","","","","","NA"
"1999-11-06 04:00","1999","11","06","04:00","","M","","M","","M","","M","","M","","M","","M","","","","","NA"
"1999-11-06 05:00","1999","11","06","05:00","","M","","M","","M","","M","","M","","M","","M","","","","","NA"
"1999-11-06 06:00","1999","11","06","06:00","5.5","","2.0","","78","","28","","9","","24.1","","101.12","","","","","","Clear"
"1999-11-06 07:00","1999","11","06","07:00","3.5","","1.9","","89","","23","","9","","24.1","","101.16","","","","","","Clear"
"1999-11-06 08:00","1999","11","06","08:00","6.2","","1.5","","72","","24","","9","","24.1","","101.22","","","","","","Clear"
"1999-11-06 09:00","1999","11","06","09:00","8.3","","-1.2","","51","","25","","15","","24.1","","101.22","","","","","","Mainly Clear"
"1999-11-06 10:00","1999","11","06","10:00","9.4","","-1.4","","47","","27","","13","","24.1","","101.22","","","","","","Mostly Cloudy"
"1999-11-06 11:00","1999","11","06","11:00","10.0","","-0.6","","48","","27","","24","","24.1","","101.16","","","","","","Mostly Cloudy"
"1999-11-06 12:00","1999","11","06","12:00","9.8","","-1.4","","46","","26","","22","","24.1","","101.12","","","","","","Mostly Cloudy"
"1999-11-06 13:00","1999","11","06","13:00","9.6","","0.3","","52","","27","","15","","24.1","","100.99","","","","","","Mostly Cloudy"
"1999-11-06 14:00","1999","11","06","14:00","9.1","","0.0","","53","","27","","19","","24.1","","101.02","","","","","","Mostly Cloudy"
"1999-11-06 15:00","1999","11","06","15:00","9.5","","0.8","","55","","30","","22","","24.1","","101.02","","","","","","Mainly Clear"
"1999-11-06 16:00","1999","11","06","16:00","9.4","","-2.3","","44","","30","","22","","24.1","","101.02","","","","","","Mostly Cloudy"
"1999-11-06 17:00","1999","11","06","17:00","8.2","","-1.4","","51","","30","","19","","24.1","","101.09","","","","","","Mostly Cloudy"
"1999-11-06 18:00","1999","11","06","18:00","7.6","","-0.7","","56","","29","","26","","24.1","","101.19","","","","","","Mostly Cloudy"
"1999-11-06 19:00","1999","11","06","19:00","6.5","","-0.8","","60","","30","","26","","24.1","","101.22","","","","","","Mostly Cloudy"
"1999-11-06 20:00","1999","11","06","20:00","5.7","","-1.5","","60","","29","","22","","24.1","","101.26","","","","","","Mainly Clear"
"1999-11-06 21:00","1999","11","06","21:00","5.2","","-1.4","","62","","29","","20","","24.1","","101.26","","","","","","Mainly Clear"
"1999-11-06 22:00","1999","11","06","22:00","5.1","","-0.8","","66","","29","","20","","24.1","","101.36","","","","","","Mainly Clear"
"1999-11-06 23:00","1999","11","06","23:00","","M","","M","","M","","M","","M","","M","","M","","","","","NA"
"1999-11-07 00:00","1999","11","07","00:00","","M","","M","","M","","M","","M","","M","","M","","","","","NA"
"1999-11-07 01:00","1999","11","07","01:00","","M","","M","","M","","M","","M","","M","","M","","","","","NA"
"1999-11-07 02:00","1999","11","07","02:00","","M","","M","","M","","M","","M","","M","","M","","","","","NA"
"1999-11-07 03:00","1999","11","07","03:00","","M","","M","","M","","M","","M","","M","","M","","","","","NA"
"1999-11-07 04:00","1999","11","07","04:00","","M","","M","","M","","M","","M","","M","","M","","","","","NA"
"1999-11-07 05:00","1999","11","07","05:00","","M","","M","","M","","M","","M","","M","","M","","","","","NA"
"1999-11-07 06:00","1999","11","07","06:00","2.1","","-1.7","","76","","30","","15","","24.1","","101.46","","","","","","Mainly Clear"
"1999-11-07 07:00","1999","11","07","07:00","1.6","","-2.0","","77","","31","","19","","24.1","","101.49","","","","","","Clear"
"1999-11-07 08:00","1999","11","07","08:00","3.2","","-1.1","","73","","29","","19","","24.1","","101.56","","","","","","Mainly Clear"
"1999-11-07 09:00","1999","11","07","09:00","3.8","","-1.3","","69","","30","","19","","24.1","","101.59","","","","","","Mainly Clear"
"1999-11-07 10:00","1999","11","07","10:00","4.6","","-1.4","","65","","31","","17","","24.1","","101.66","","","","","","Mainly Clear"
"1999-11-07 11:00","1999","11","07","11:00","5.6","","-1.6","","60","","31","","19","","24.1","","101.63","","","","","","Mostly Cloudy"
"1999-11-07 12:00","1999","11","07","12:00","4.9","","-2.3","","60","","31","","15","","24.1","","101.63","","","","","","Cloudy"
"1999-11-07 13:00","1999","11","07","13:00","5.5","","-2.2","","58","","30","","19","","24.1","","101.56","","","","","","Mostly Cloudy"
"1999-11-07 14:00","1999","11","07","14:00","5.0","","-3.6","","54","","30","","19","","24.1","","101.49","","","","","","Mostly Cloudy"
"1999-11-07 15:00","1999","11","07","15:00","6.1","","-3.3","","51","","30","","19","","24.1","","101.49","","","","","","Mostly Cloudy"
"1999-11-07 16:00","1999","11","07","16:00","5.2","","-3.1","","55","","30","","15","","24.1","","101.46","","","","","","Cloudy"
"1999-11-07 17:00","1999","11","07","17:00","4.3","","-4.2","","54","","30","","19","","24.1","","101.46","","","","","","Mostly Cloudy"
"1999-11-07 18:00","1999","11","07","18:00","3.4","","-3.9","","59","","30","","11","","24.1","","101.43","","","","","","Mostly Cloudy"
"1999-11-07 19:00","1999","11","07","19:00","3.8","","-3.8","","58","","32","","15","","24.1","","101.39","","","","","","Mainly Clear"
"1999-11-07 20:00","1999","11","07","20:00","4.1","","-3.4","","58","","32","","19","","24.1","","101.39","","","","","","Mainly Clear"
"1999-11-07 21:00","1999","11","07","21:00","3.3","","-3.1","","63","","32","","19","","24.1","","101.39","","","","","","Mainly Clear"
"1999-11-07 22:00","1999","11","07","22:00","3.6","","-2.7","","63","","31","","17","","24.1","","101.36","","","","","","Mostly Cloudy"
"1999-11-07 23:00","1999","11","07","23:00","","M","","M","","M","","M","","M","","M","","M","","","","","NA"
"1999-11-08 00:00","1999","11","08","00:00","","M","","M","","M","","M","","M","","M","","M","","","","","NA"
"1999-11-08 01:00","1999","11","08","01:00","","M","","M","","M","","M","","M","","M","","M","","","","","NA"
"1999-11-08 02:00","1999","11","08","02:00","","M","","M","","M","","M","","M","","M","","M","","","","","NA"
"1999-11-08 03:00","1999","11","08","03:00","","M","","M","","M","","M","","M","","M","","M","","","","","NA"
"1999-11-08 04:00","1999","11","08","04:00","","M","","M","","M","","M","","M","","M","","M","","","","","NA"
"1999-11-08 05:00","1999","11","08","05:00","","M","","M","","M","","M","","M","","M","","M","","","","","NA"
"1999-11-08 06:00","1999","11","08","06:00","2.6","","-0.7","","79","","21","","6","","24.1","","101.26","","","","","","Cloudy"
"1999-11-08 07:00","1999","11","08","07:00","2.5","","-0.8","","79","","17","","6","","24.1","","101.26","","","","","","Cloudy"
"1999-11-08 08:00","1999","11","08","08:00","2.9","","-0.6","","78","","20","","6","","24.1","","101.33","","","","","","Mostly Cloudy"
"1999-11-08 09:00","1999","11","08","09:00","4.1","","-1.3","","68","","21","","6","","24.1","","101.33","","","","","","Mostly Cloudy"
"1999-11-08 10:00","1999","11","08","10:00","6.2","","-2.4","","54","","24","","11","","24.1","","101.29","","","","","","Mainly Clear"
"1999-11-08 11:00","1999","11","08","11:00","7.7","","-1.5","","52","","18","","7","","24.1","","101.22","","","","","","Mainly Clear"
"1999-11-08 12:00","1999","11","08","12:00","9.0","","-0.6","","51","","22","","7","","24.1","","101.12","","","","","","Mainly Clear"
"1999-11-08 13:00","1999","11","08","13:00","9.5","","0.9","","55","","21","","19","","24.1","","100.99","","","","","","Mostly Cloudy"
"1999-11-08 14:00","1999","11","08","14:00","9.9","","2.3","","59","","20","","28","","24.1","","100.86","","","","","","Mainly Clear"
"1999-11-08 15:00","1999","11","08","15:00","9.9","","2.7","","61","","22","","19","","24.1","","100.79","","","","","","Mainly Clear"
"1999-11-08 16:00","1999","11","08","16:00","9.4","","0.4","","53","","21","","19","","24.1","","100.76","","","","","","Mostly Cloudy"
"1999-11-08 17:00","1999","11","08","17:00","9.2","","-1.1","","48","","21","","15","","24.1","","100.72","","","","","","Mostly Cloudy"
"1999-11-08 18:00","1999","11","08","18:00","9.3","","0.4","","54","","22","","15","","24.1","","100.69","","","","","","Mostly Cloudy"
"1999-11-08 19:00","1999","11","08","19:00","9.4","","1.9","","59","","20","","19","","24.1","","100.59","","","","","","Cloudy"
"1999-11-08 20:00","1999","11","08","20:00","10.0","","1.3","","55","","20","","15","","24.1","","100.55","","","","","","Mostly Cloudy"
"1999-11-08 21:00","1999","11","08","21:00","10.3","","0.8","","52","","21","","19","","24.1","","100.55","","","","","","Mostly Cloudy"
"1999-11-08 22:00","1999","11","08","22:00","11.3","","1.0","","49","","21","","19","","24.1","","100.52","","","","","","Mostly Cloudy"
"1999-11-08 23:00","1999","11","08","23:00","","M","","M","","M","","M","","M","","M","","M","","","","","NA"
"1999-11-09 00:00","1999","11","09","00:00","","M","","M","","M","","M","","M","","M","","M","","","","","NA"
"1999-11-09 01:00","1999","11","09","01:00","","M","","M","","M","","M","","M","","M","","M","","","","","NA"
"1999-11-09 02:00","1999","11","09","02:00","","M","","M","","M","","M","","M","","M","","M","","","","","NA"
"1999-11-09 03:00","1999","11","09","03:00","","M","","M","","M","","M","","M","","M","","M","","","","","NA"
"1999-11-09 04:00","1999","11","09","04:00","","M","","M","","M","","M","","M","","M","","M","","","","","NA"
"1999-11-09 05:00","1999","11","09","05:00","","M","","M","","M","","M","","M","","M","","M","","","","","NA"
"1999-11-09 06:00","1999","11","09","06:00","13.1","","8.2","","72","","24","","24","","24.1","","100.18","","","","","","Mainly Clear"
"1999-11-09 07:00","1999","11","09","07:00","13.2","","8.9","","75","","22","","28","","24.1","","100.15","","","","","","Mainly Clear"
"1999-11-09 08:00","1999","11","09","08:00","14.2","","9.9","","75","","23","","28","","24.1","","100.18","","","","","","Mostly Cloudy"
"1999-11-09 09:00","1999","11","09","09:00","15.4","","10.5","","73","","21","","28","","19.3","","100.15","","","","","","Mostly Cloudy"
"1999-11-09 10:00","1999","11","09","10:00","17.2","","11.0","","67","","24","","28","","19.3","","100.12","","","","","","Mostly Cloudy"
"1999-11-09 11:00","1999","11","09","11:00","18.1","","11.2","","64","","21","","28","","19.3","","100.05","","","","","","Mostly Cloudy"
"1999-11-09 12:00","1999","11","09","12:00","17.9","","11.2","","65","","22","","37","","19.3","","99.98","","","","","","Mostly Cloudy"
"1999-11-09 13:00","1999","11","09","13:00","19.1","","11.9","","63","","23","","30","","19.3","","99.82","","","","","","Mostly Cloudy"
"1999-11-09 14:00","1999","11","09","14:00","20.1","","11.8","","59","","24","","28","","24.1","","99.75","","","","","","Mostly Cloudy"
"1999-11-09 15:00","1999","11","09","15:00","20.0","","11.6","","58","","23","","28","","24.1","","99.72","","","","","","Mostly Cloudy"
"1999-11-09 16:00","1999","11","09","16:00","19.0","","11.0","","60","","23","","28","","24.1","","99.75","","","","","","Mostly Cloudy"
"1999-11-09 17:00","1999","11","09","17:00","18.2","","10.6","","61","","23","","28","","24.1","","99.78","","","","","","Mostly Cloudy"
"1999-11-09 18:00","1999","11","09","18:00","18.3","","10.5","","60","","24","","28","","24.1","","99.82","","","","","","Mostly Cloudy"
"1999-11-09 19:00","1999","11","09","19:00","18.5","","10.3","","59","","23","","28","","24.1","","99.78","","","","","","Mainly Clear"
"1999-11-09 20:00","1999","11","09","20:00","18.6","","10.2","","58","","24","","22","","24.1","","99.82","","","","","","Mainly Clear"
"1999-11-09 21:00","1999","11","09","21:00","18.1","","10.2","","60","","24","","19","","24.1","","99.85","","","","","","Mainly Clear"
"1999-11-09 22:00","1999","11","09","22:00","17.1","","10.1","","63","","24","","19","","24.1","","99.88","","","","","","Mainly Clear"
"1999-11-09 23:00","1999","11","09","23:00","","M","","M","","M","","M","","M","","M","","M","","","","","NA"
"1999-11-10 00:00","1999","11","10","00:00","","M","","M","","M","","M","","M","","M","","M","","","","","NA"
"1999-11-10 01:00","1999","11","10","01:00","","M","","M","","M","","M","","M","","M","","M","","","","","NA"
"1999-11-10 02:00","1999","11","10","02:00","","M","","M","","M","","M","","M","","M","","M","","","","","NA"
"1999-11-10 03:00","1999","11","10","03:00","","M","","M","","M","","M","","M","","M","","M","","","","","NA"
"1999-11-10 04:00","1999","11","10","04:00","","M","","M","","M","","M","","M","","M","","M","","","","","NA"
"1999-11-10 05:00","1999","11","10","05:00","","M","","M","","M","","M","","M","","M","","M","","","","","NA"
"1999-11-10 06:00","1999","11","10","06:00","15.5","","10.4","","72","","23","","30","","24.1","","99.72","","","","","","Mostly Cloudy"
"1999-11-10 07:00","1999","11","10","07:00","15.3","","10.6","","74","","23","","32","","12.9","","99.68","","","","","","Mostly Cloudy"
"1999-11-10 08:00","1999","11","10","08:00","15.3","","10.6","","74","","23","","28","","12.9","","99.68","","","","","","Cloudy"
"1999-11-10 09:00","1999","11","10","09:00","15.3","","10.7","","74","","24","","28","","11.3","","99.72","","","","","","Cloudy"
"1999-11-10 10:00","1999","11","10","10:00","15.4","","10.7","","74","","23","","30","","11.3","","99.68","","","","","","Cloudy"
"1999-11-10 11:00","1999","11","10","11:00","15.7","","10.8","","73","","23","","37","","11.3","","99.65","","","","","","Cloudy"
"1999-11-10 12:00","1999","11","10","12:00","15.1","","11.0","","76","","25","","19","","11.3","","99.61","","","","","","Cloudy"
"1999-11-10 13:00","1999","11","10","13:00","14.9","","11.2","","79","","23","","19","","9.7","","99.55","","","","","","Rain Showers"
"1999-11-10 14:00","1999","11","10","14:00","13.9","","12.0","","88","","23","","19","","8.0","","99.58","","","","","","Fog"
"1999-11-10 15:00","1999","11","10","15:00","14.1","","12.1","","88","","24","","9","","8.0","","99.61","","","","","","Fog"
"1999-11-10 16:00","1999","11","10","16:00","14.2","","12.1","","87","","25","","9","","4.8","","99.68","","","","","","Rain Showers,Haze"
"1999-11-10 17:00","1999","11","10","17:00","10.8","","10.3","","97","","36","","9","","3.2","","99.85","","","","","","Rain Showers,Fog"
"1999-11-10 18:00","1999","11","10","18:00","7.8","","7.2","","96","","3","","19","","16.1","","100.12","","","","","","Rain Showers"
"1999-11-10 19:00","1999","11","10","19:00","7.2","","5.9","","91","","3","","19","","16.1","","100.29","","","","","","Rain Showers"
"1999-11-10 20:00","1999","11","10","20:00","5.9","","5.1","","95","","3","","19","","4.8","","100.39","","","","","","Rain,Fog"
"1999-11-10 21:00","1999","11","10","21:00","5.4","","4.7","","95","","3","","19","","19.3","","100.49","","","","","","Cloudy"
"1999-11-10 22:00","1999","11","10","22:00","4.9","","3.8","","93","","5","","19","","8.0","","100.59","","","","","","Rain,Fog"
"1999-11-10 23:00","1999","11","10","23:00","","M","","M","","M","","M","","M","","M","","M","","","","","NA"
"1999-11-11 00:00","1999","11","11","00:00","","M","","M","","M","","M","","M","","M","","M","","","","","NA"
"1999-11-11 01:00","1999","11","11","01:00","","M","","M","","M","","M","","M","","M","","M","","","","","NA"
"1999-11-11 02:00","1999","11","11","02:00","","M","","M","","M","","M","","M","","M","","M","","","","","NA"
"1999-11-11 03:00","1999","11","11","03:00","","M","","M","","M","","M","","M","","M","","M","","","","","NA"
"1999-11-11 04:00","1999","11","11","04:00","","M","","M","","M","","M","","M","","M","","M","","","","","NA"
"1999-11-11 05:00","1999","11","11","05:00","","M","","M","","M","","M","","M","","M","","M","","","","","NA"
"1999-11-11 06:00","1999","11","11","06:00","1.8","","-3.9","","66","","4","","28","","24.1","","101.49","","","","","","Cloudy"
"1999-11-11 07:00","1999","11","11","07:00","1.0","","-5.0","","64","","5","","26","","24.1","","101.56","","","","","","Mostly Cloudy"
"1999-11-11 08:00","1999","11","11","08:00","1.0","","-4.9","","65","","7","","26","","24.1","","101.69","","","","","","Mostly Cloudy"
"1999-11-11 09:00","1999","11","11","09:00","1.3","","-4.8","","64","","6","","22","","24.1","","101.76","","","","","","Mostly Cloudy"
"1999-11-11 10:00","1999","11","11","10:00","1.3","","-5.4","","61","","5","","26","","24.1","","101.83","","","","","","Mostly Cloudy"
"1999-11-11 11:00","1999","11","11","11:00","2.1","","-4.3","","63","","5","","24","","24.1","","101.86","","","","","","Mostly Cloudy"
"1999-11-11 12:00","1999","11","11","12:00","2.9","","-4.5","","58","","6","","19","","24.1","","101.83","","","","","","Mostly Cloudy"
"1999-11-11 13:00","1999","11","11","13:00","3.1","","-2.7","","66","","4","","24","","24.1","","101.80","","","","","","Mostly Cloudy"
"1999-11-11 14:00","1999","11","11","14:00","3.1","","-2.9","","65","","4","","19","","24.1","","101.80","","","","","","Mostly Cloudy"
"1999-11-11 15:00","1999","11","11","15:00","3.0","","-3.1","","64","","5","","28","","24.1","","101.80","","","","","","Mainly Clear"
"1999-11-11 16:00","1999","11","11","16:00","2.2","","-3.2","","67","","6","","20","","24.1","","101.80","","","","","","Mainly Clear"
"1999-11-11 17:00","1999","11","11","17:00","1.1","","-3.4","","72","","5","","13","","24.1","","101.86","","","","","","Mainly Clear"
"1999-11-11 18:00","1999","11","11","18:00","0.4","","-3.8","","73","","6","","13","","24.1","","101.86","","","","","","Mainly Clear"
"1999-11-11 19:00","1999","11","11","19:00","-0.1","","-3.9","","76","","7","","19","","24.1","","101.93","","","","-5","","Mainly Clear"
"1999-11-11 20:00","1999","11","11","20:00","-0.8","","-4.1","","78","","8","","15","","24.1","","101.90","","","","-5","","Mainly Clear"
"1999-11-11 21:00","1999","11","11","21:00","0.0","","-3.8","","76","","10","","15","","24.1","","101.83","","","","-4","","Mainly Clear"
"1999-11-11 22:00","1999","11","11","22:00","-0.1","","-4.3","","73","","9","","19","","24.1","","101.73","","","","-5","","Mainly Clear"
"1999-11-11 23:00","1999","11","11","23:00","","M","","M","","M","","M","","M","","M","","M","","","","","NA"
"1999-11-12 00:00","1999","11","12","00:00","","M","","M","","M","","M","","M","","M","","M","","","","","NA"
"1999-11-12 01:00","1999","11","12","01:00","","M","","M","","M","","M","","M","","M","","M","","","","","NA"
"1999-11-12 02:00","1999","11","12","02:00","","M","","M","","M","","M","","M","","M","","M","","","","","NA"
"1999-11-12 03:00","1999","11","12","03:00","","M","","M","","M","","M","","M","","M","","M","","","","","NA"
"1999-11-12 04:00","1999","11","12","04:00","","M","","M","","M","","M","","M","","M","","M","","","","","NA"
"1999-11-12 05:00","1999","11","12","05:00","","M","","M","","M","","M","","M","","M","","M","","","","","NA"
"1999-11-12 06:00","1999","11","12","06:00","0.1","","-2.1","","85","","15","","6","","24.1","","101.33","","","","","","Cloudy"
"1999-11-12 07:00","1999","11","12","07:00","-0.2","","-1.6","","90","","","","0","","24.1","","101.29","","","","","","Cloudy"
"1999-11-12 08:00","1999","11","12","08:00","0.1","","-1.5","","89","","21","","4","","24.1","","101.29","","","","","","Mostly Cloudy"
"1999-11-12 09:00","1999","11","12","09:00","2.9","","-1.2","","74","","20","","9","","24.1","","101.22","","","","","","Mainly Clear"
"1999-11-12 10:00","1999","11","12","10:00","5.6","","0.0","","67","","25","","17","","24.1","","101.16","","","","","","Mostly Cloudy"
"1999-11-12 11:00","1999","11","12","11:00","6.9","","1.1","","67","","23","","17","","24.1","","101.12","","","","","","Cloudy"
"1999-11-12 12:00","1999","11","12","12:00","7.6","","2.4","","70","","25","","15","","24.1","","100.96","","","","","","Cloudy"
"1999-11-12 13:00","1999","11","12","13:00","7.9","","2.7","","70","","25","","19","","24.1","","100.82","","","","","","Cloudy"
"1999-11-12 14:00","1999","11","12","14:00","7.2","","2.3","","71","","23","","19","","24.1","","100.72","","","","","","Cloudy"
"1999-11-12 15:00","1999","11","12","15:00","7.3","","4.2","","81","","23","","19","","12.9","","100.62","","","","","","Cloudy"
"1999-11-12 16:00","1999","11","12","16:00","8.2","","4.8","","79","","24","","19","","24.1","","100.59","","","","","","Cloudy"
"1999-11-12 17:00","1999","11","12","17:00","8.3","","4.9","","79","","25","","15","","19.3","","100.59","","","","","","Cloudy"
"1999-11-12 18:00","1999","11","12","18:00","8.1","","4.0","","75","","27","","19","","19.3","","100.62","","","","","","Cloudy"
"1999-11-12 19:00","1999","11","12","19:00","7.8","","4.2","","78","","25","","19","","19.3","","100.62","","","","","","Cloudy"
"1999-11-12 20:00","1999","11","12","20:00","7.7","","4.7","","81","","24","","15","","19.3","","100.62","","","","","","Cloudy"
"1999-11-12 21:00","1999","11","12","21:00","7.6","","5.0","","84","","24","","15","","19.3","","100.65","","","","","","Cloudy"
"1999-11-12 22:00","1999","11","12","22:00","7.6","","5.2","","85","","25","","15","","19.3","","100.65","","","","","","Cloudy"
"1999-11-12 23:00","1999","11","12","23:00","","M","","M","","M","","M","","M","","M","","M","","","","","NA"
"1999-11-13 00:00","1999","11","13","00:00","","M","","M","","M","","M","","M","","M","","M","","","","","NA"
"1999-11-13 01:00","1999","11","13","01:00","","M","","M","","M","","M","","M","","M","","M","","","","","NA"
"1999-11-13 02:00","1999","11","13","02:00","","M","","M","","M","","M","","M","","M","","M","","","","","NA"
"1999-11-13 03:00","1999","11","13","03:00","","M","","M","","M","","M","","M","","M","","M","","","","","NA"
"1999-11-13 04:00","1999","11","13","04:00","","M","","M","","M","","M","","M","","M","","M","","","","","NA"
"1999-11-13 05:00","1999","11","13","05:00","","M","","M","","M","","M","","M","","M","","M","","","","","NA"
"1999-11-13 06:00","1999","11","13","06:00","6.8","","3.9","","82","","24","","6","","12.9","","100.72","","","","","","Cloudy"
"1999-11-13 07:00","1999","11","13","07:00","6.6","","4.1","","84","","24","","9","","12.9","","100.76","","","","","","Cloudy"
"1999-11-13 08:00","1999","11","13","08:00","6.9","","4.2","","83","","24","","9","","16.1","","100.79","","","","","","Cloudy"
"1999-11-13 09:00","1999","11","13","09:00","7.3","","3.7","","78","","24","","9","","16.1","","100.76","","","","","","Cloudy"
"1999-11-13 10:00","1999","11","13","10:00","8.0","","3.4","","73","","24","","9","","16.1","","100.76","","","","","","Cloudy"
"1999-11-13 11:00","1999","11","13","11:00","8.4","","3.6","","72","","24","","9","","19.3","","100.72","","","","","","Cloudy"
"1999-11-13 12:00","1999","11","13","12:00","9.4","","3.9","","68","","23","","9","","19.3","","100.59","","","","","","Cloudy"
"1999-11-13 13:00","1999","11","13","13:00","10.5","","4.7","","67","","18","","19","","24.1","","100.45","","","","","","Cloudy"
"1999-11-13 14:00","1999","11","13","14:00","10.8","","5.7","","71","","22","","19","","16.1","","100.32","","","","","","Cloudy"
"1999-11-13 15:00","1999","11","13","15:00","11.5","","6.8","","73","","22","","19","","12.9","","100.25","","","","","","Cloudy"
"1999-11-13 16:00","1999","11","13","16:00","11.7","","7.8","","77","","21","","19","","9.7","","100.15","","","","","","Haze"
"1999-11-13 17:00","1999","11","13","17:00","10.6","","7.9","","83","","21","","19","","8.0","","100.08","","","","","","Haze"
"1999-11-13 18:00","1999","11","13","18:00","9.6","","8.0","","90","","19","","19","","8.0","","100.05","","","","","","Haze"
"1999-11-13 19:00","1999","11","13","19:00","9.7","","8.1","","90","","19","","11","","8.0","","99.95","","","","","","Fog"
"1999-11-13 20:00","1999","11","13","20:00","10.0","","8.3","","89","","19","","9","","8.0","","99.88","","","","","","Fog"
"1999-11-13 21:00","1999","11","13","21:00","12.2","","8.5","","78","","20","","19","","12.9","","99.72","","","","","","Mostly Cloudy"
"1999-11-13 22:00","1999","11","13","22:00","12.6","","8.7","","77","","20","","24","","16.1","","99.55","","","","","","Mostly Cloudy"
"1999-11-13 23:00","1999","11","13","23:00","","M","","M","","M","","M","","M","","M","","M","","","","","NA"
"1999-11-14 00:00","1999","11","14","00:00","","M","","M","","M","","M","","M","","M","","M","","","","","NA"
"1999-11-14 01:00","1999","11","14","01:00","","M","","M","","M","","M","","M","","M","","M","","","","","NA"
"1999-11-14 02:00","1999","11","14","02:00","","M","","M","","M","","M","","M","","M","","M","","","","","NA"
"1999-11-14 03:00","1999","11","14","03:00","","M","","M","","M","","M","","M","","M","","M","","","","","NA"
"1999-11-14 04:00","1999","11","14","04:00","","M","","M","","M","","M","","M","","M","","M","","","","","NA"
"1999-11-14 05:00","1999","11","14","05:00","","M","","M","","M","","M","","M","","M","","M","","","","","NA"
"1999-11-14 06:00","1999","11","14","06:00","13.7","","10.2","","79","","24","","22","","11.3","","98.94","","","","","","Cloudy"
"1999-11-14 07:00","1999","11","14","07:00","12.3","","7.3","","71","","28","","26","","11.3","","99.01","","","","","","Cloudy"
"1999-11-14 08:00","1999","11","14","08:00","9.4","","1.3","","57","","29","","32","","24.1","","99.18","","","","","","Mostly Cloudy"
"1999-11-14 09:00","1999","11","14","09:00","8.6","","2.4","","65","","29","","26","","24.1","","99.31","","","","","","Mainly Clear"
"1999-11-14 10:00","1999","11","14","10:00","9.1","","1.8","","60","","30","","33","","24.1","","99.38","","","","","","Mainly Clear"
"1999-11-14 11:00","1999","11","14","11:00","8.8","","1.8","","61","","31","","33","","24.1","","99.45","","","","","","Mostly Cloudy"
"1999-11-14 12:00","1999","11","14","12:00","8.8","","1.7","","61","","29","","37","","24.1","","99.48","","","","","","Mostly Cloudy"
"1999-11-14 13:00","1999","11","14","13:00","7.7","","1.2","","63","","27","","28","","24.1","","99.51","","","","","","Mostly Cloudy"
"1999-11-14 14:00","1999","11","14","14:00","7.1","","0.2","","61","","28","","30","","24.1","","99.61","","","","","","Mostly Cloudy"
"1999-11-14 15:00","1999","11","14","15:00","6.9","","-0.5","","59","","28","","37","","24.1","","99.75","","","","","","Mostly Cloudy"
"1999-11-14 16:00","1999","11","14","16:00","6.7","","-1.2","","57","","29","","28","","24.1","","99.82","","","","","","Mostly Cloudy"
"1999-11-14 17:00","1999","11","14","17:00","6.6","","-1.5","","56","","29","","37","","24.1","","99.95","","","","","","Mostly Cloudy"
"1999-11-14 18:00","1999","11","14","18:00","5.9","","0.2","","67","","32","","28","","24.1","","100.05","","","","","","Mostly Cloudy"
"1999-11-14 19:00","1999","11","14","19:00"
"1999-11-14 20:00","1999","11","14","20:00","5.8","","-0.2","","65","","28","","15","","24.1","","100.22","","","","","","Mostly Cloudy"
"1999-11-14 21:00","1999","11","14","21:00","5.6","","-0.6","","64","","31","","13","","24.1","","100.18","","","","","","Cloudy"
"1999-11-14 22:00","1999","11","14","22:00","5.6","","-0.7","","64","","32","","19","","24.1","","100.18","","","","","","Cloudy"
"1999-11-14 23:00","1999","11","14","23:00","","M","","M","","M","","M","","M","","M","","M","","","","","NA"
"1999-11-15 00:00","1999","11","15","00:00","","M","","M","","M","","M","","M","","M","","M","","","","","NA"
"1999-11-15 01:00","1999","11","15","01:00","","M","","M","","M","","M","","M","","M","","M","","","","","NA"
"1999-11-15 02:00","1999","11","15","02:00","","M","","M","","M","","M","","M","","M","","M","","","","","NA"
"1999-11-15 03:00","1999","11","15","03:00","","M","","M","","M","","M","","M","","M","","M","","","","","NA"
"1999-11-15 04:00","1999","11","15","04:00","","M","","M","","M","","M","","M","","M","","M","","","","","NA"
"1999-11-15 05:00","1999","11","15","05:00","","M","","M","","M","","M","","M","","M","","M","","","","","NA"
"1999-11-15 06:00","1999","11","15","06:00","2.7","","-4.8","","58","","33","","11","","24.1","","100.22","","","","","","Cloudy"
"1999-11-15 07:00","1999","11","15","07:00","2.6","","-3.6","","64","","32","","9","","24.1","","100.18","","","","","","Mostly Cloudy"
"1999-11-15 08:00","1999","11","15","08:00","3.1","","-1.8","","70","","30","","19","","24.1","","100.12","","","","","","Cloudy"
"1999-11-15 09:00","1999","11","15","09:00","4.1","","-2.6","","62","","31","","19","","24.1","","100.12","","","","","","Mostly Cloudy"
"1999-11-15 10:00","1999","11","15","10:00","4.0","","-3.7","","57","","32","","33","","24.1","","100.05","","","","","","Mostly Cloudy"
"1999-11-15 11:00","1999","11","15","11:00","4.1","","-3.7","","57","","29","","28","","24.1","","100.02","","","","","","Mostly Cloudy"
"1999-11-15 12:00","1999","11","15","12:00","4.0","","-3.6","","58","","28","","28","","24.1","","99.95","","","","","","Cloudy"
"1999-11-15 13:00","1999","11","15","13:00","3.7","","-3.8","","58","","30","","28","","24.1","","99.85","","","","","","Cloudy"
"1999-11-15 14:00","1999","11","15","14:00","4.0","","-3.7","","57","","31","","19","","24.1","","99.78","","","","","","Cloudy"
"1999-11-15 15:00","1999","11","15","15:00","4.0","","-3.3","","59","","28","","19","","24.1","","99.75","","","","","","Cloudy"
"1999-11-15 16:00","1999","11","15","16:00","4.1","","-3.8","","56","","32","","28","","24.1","","99.72","","","","","","Cloudy"
"1999-11-15 17:00","1999","11","15","17:00","3.7","","-3.1","","61","","31","","28","","24.1","","99.68","","","","","","Mostly Cloudy"
"1999-11-15 18:00","1999","11","15","18:00","3.7","","-3.1","","61","","33","","22","","24.1","","99.68","","","","","","Mostly Cloudy"
"1999-11-15 19:00","1999","11","15","19:00","2.2","","-3.7","","65","","34","","22","","24.1","","99.78","","","","","","Mostly Cloudy"
"1999-11-15 20:00","1999","11","15","20:00","1.9","","-5.0","","60","","34","","26","","24.1","","99.85","","","","","","Cloudy"
"1999-11-15 21:00","1999","11","15","21:00","0.8","","-5.6","","62","","35","","19","","24.1","","99.88","","","","","","Mostly Cloudy"
"1999-11-15 22:00","1999","11","15","22:00","-0.8","","-7.1","","62","","35","","22","","24.1","","99.88","","","","-7","","Mainly Clear"
"1999-11-15 23:00","1999","11","15","23:00","","M","","M","","M","","M","","M","","M","","M","","","","","NA"
"1999-11-16 00:00","1999","11","16","00:00","","M","","M","","M","","M","","M","","M","","M","","","","","NA"
"1999-11-16 01:00","1999","11","16","01:00","","M","","M","","M","","M","","M","","M","","M","","","","","NA"
"1999-11-16 02:00","1999","11","16","02:00","","M","","M","","M","","M","","M","","M","","M","","","","","NA"
"1999-11-16 03:00","1999","11","16","03:00","","M","","M","","M","","M","","M","","M","","M","","","","","NA"
"1999-11-16 04:00","1999","11","16","04:00","","M","","M","","M","","M","","M","","M","","M","","","","","NA"
"1999-11-16 05:00","1999","11","16","05:00","","M","","M","","M","","M","","M","","M","","M","","","","","NA"
"1999-11-16 06:00","1999","11","16","06:00","-1.7","","-8.0","","62","","33","","24","","24.1","","99.85","","","","-8","","Mainly Clear"
"1999-11-16 07:00","1999","11","16","07:00","-2.0","","-8.1","","63","","29","","28","","24.1","","99.88","","","","-9","","Mainly Clear"
"1999-11-16 08:00","1999","11","16","08:00","-1.5","","-8.4","","59","","29","","28","","24.1","","99.95","","","","-8","","Mainly Clear"
"1999-11-16 09:00","1999","11","16","09:00","-1.2","","-7.2","","64","","29","","24","","24.1","","99.95","","","","-7","","Mainly Clear"
"1999-11-16 10:00","1999","11","16","10:00","-0.7","","-6.1","","67","","32","","22","","24.1","","99.95","","","","-6","","Mostly Cloudy"
"1999-11-16 11:00","1999","11","16","11:00","0.0","","-5.5","","66","","33","","28","","24.1","","99.98","","","","-6","","Mostly Cloudy"
"1999-11-16 12:00","1999","11","16","12:00","0.8","","-4.7","","67","","31","","33","","24.1","","99.95","","","","","","Mostly Cloudy"
"1999-11-16 13:00","1999","11","16","13:00","1.5","","-4.7","","63","","33","","28","","24.1","","99.95","","","","","","Mostly Cloudy"
"1999-11-16 14:00","1999","11","16","14:00","1.9","","-5.8","","57","","34","","28","","24.1","","99.92","","","","","","Mostly Cloudy"
"1999-11-16 15:00","1999","11","16","15:00","2.6","","-5.0","","57","","30","","28","","24.1","","99.95","","","","","","Mostly Cloudy"
"1999-11-16 16:00","1999","11","16","16:00","1.7","","-6.1","","56","","30","","37","","24.1","","100.02","","","","","","Mostly Cloudy"
"1999-11-16 17:00","1999","11","16","17:00","1.2","","-6.0","","59","","33","","28","","24.1","","100.15","","","","","","Mostly Cloudy"
"1999-11-16 18:00","1999","11","16","18:00","1.0","","-6.0","","59","","33","","28","","24.1","","100.18","","","","","","Mostly Cloudy"
"1999-11-16 19:00","1999","11","16","19:00","0.7","","-5.4","","64","","33","","30","","24.1","","100.29","","","","","","Cloudy"
"1999-11-16 20:00","1999","11","16","20:00","0.4","","-4.9","","68","","32","","26","","16.1","","100.35","","","","","","Snow Showers"
"1999-11-16 21:00","1999","11","16","21:00","-0.2","","-3.3","","80","","32","","24","","12.9","","100.39","","","","-6","","Snow Showers"
"1999-11-16 22:00","1999","11","16","22:00","0.1","","-3.5","","77","","33","","22","","24.1","","100.42","","","","","","Mostly Cloudy"
"1999-11-16 23:00","1999","11","16","23:00","","M","","M","","M","","M","","M","","M","","M","","","","","NA"
"1999-11-17 00:00","1999","11","17","00:00","","M","","M","","M","","M","","M","","M","","M","","","","","NA"
"1999-11-17 01:00","1999","11","17","01:00","","M","","M","","M","","M","","M","","M","","M","","","","","NA"
"1999-11-17 02:00","1999","11","17","02:00","","M","","M","","M","","M","","M","","M","","M","","","","","NA"
"1999-11-17 03:00","1999","11","17","03:00","","M","","M","","M","","M","","M","","M","","M","","","","","NA"
"1999-11-17 04:00","1999","11","17","04:00","","M","","M","","M","","M","","M","","M","","M","","","","","NA"
"1999-11-17 05:00","1999","11","17","05:00","","M","","M","","M","","M","","M","","M","","M","","","","","NA"
"1999-11-17 06:00","1999","11","17","06:00","-2.0","","-8.0","","63","","35","","20","","24.1","","100.79","","","","-8","","Mainly Clear"
"1999-11-17 07:00","1999","11","17","07:00","-3.6","","-7.6","","74","","33","","9","","24.1","","100.82","","","","-7","","Mainly Clear"
"1999-11-17 08:00","1999","11","17","08:00","-2.1","","-6.8","","70","","29","","9","","24.1","","100.89","","","","-6","","Mainly Clear"
"1999-11-17 09:00","1999","11","17","09:00","-0.8","","-7.0","","63","","29","","13","","24.1","","100.96","","","","-5","","Mainly Clear"
"1999-11-17 10:00","1999","11","17","10:00","-0.7","","-6.2","","66","","27","","19","","24.1","","100.99","","","","-6","","Mostly Cloudy"
"1999-11-17 11:00","1999","11","17","11:00","0.0","","-5.5","","66","","28","","19","","24.1","","100.99","","","","-5","","Mostly Cloudy"
"1999-11-17 12:00","1999","11","17","12:00","0.8","","-5.4","","63","","27","","17","","24.1","","100.96","","","","","","Mostly Cloudy"
"1999-11-17 13:00","1999","11","17","13:00","1.6","","-5.3","","60","","24","","15","","24.1","","100.92","","","","","","Mostly Cloudy"
"1999-11-17 14:00","1999","11","17","14:00","2.2","","-5.6","","56","","24","","15","","24.1","","100.86","","","","","","Cloudy"
"1999-11-17 15:00","1999","11","17","15:00","3.0","","-6.4","","50","","25","","19","","24.1","","100.86","","","","","","Cloudy"
"1999-11-17 16:00","1999","11","17","16:00","3.5","","-6.3","","49","","23","","19","","24.1","","100.82","","","","","","Mostly Cloudy"
"1999-11-17 17:00","1999","11","17","17:00","2.8","","-5.0","","56","","22","","15","","24.1","","100.79","","","","","","Mainly Clear"
"1999-11-17 18:00","1999","11","17","18:00","1.1","","-4.7","","65","","20","","7","","24.1","","100.79","","","","","","Clear"
"1999-11-17 19:00","1999","11","17","19:00","0.2","","-3.9","","74","","22","","13","","24.1","","100.79","","","","","","Mainly Clear"
"1999-11-17 20:00","1999","11","17","20:00","1.9","","-3.4","","68","","23","","13","","24.1","","100.82","","","","","","Mainly Clear"
"1999-11-17 21:00","1999","11","17","21:00","2.0","","-2.9","","70","","22","","9","","24.1","","100.86","","","","","","Cloudy"
"1999-11-17 22:00","1999","11","17","22:00","2.1","","-2.7","","70","","23","","11","","24.1","","100.89","","","","","","Mostly Cloudy"
"1999-11-17 23:00","1999","11","17","23:00","","M","","M","","M","","M","","M","","M","","M","","","","","NA"
"1999-11-18 00:00","1999","11","18","00:00","","M","","M","","M","","M","","M","","M","","M","","","","","NA"
"1999-11-18 01:00","1999","11","18","01:00","","M","","M","","M","","M","","M","","M","","M","","","","","NA"
"1999-11-18 02:00","1999","11","18","02:00","","M","","M","","M","","M","","M","","M","","M","","","","","NA"
"1999-11-18 03:00","1999","11","18","03:00","","M","","M","","M","","M","","M","","M","","M","","","","","NA"
"1999-11-18 04:00","1999","11","18","04:00","","M","","M","","M","","M","","M","","M","","M","","","","","NA"
"1999-11-18 05:00","1999","11","18","05:00","","M","","M","","M","","M","","M","","M","","M","","","","","NA"
"1999-11-18 06:00","1999","11","18","06:00","1.6","","-6.6","","54","","23","","11","","24.1","","100.89","","","","","","Mainly Clear"
"1999-11-18 07:00","1999","11","18","07:00","0.8","","-5.4","","63","","23","","15","","24.1","","100.92","","","","","","Mainly Clear"
"1999-11-18 08:00","1999","11","18","08:00","0.6","","-3.4","","75","","18","","9","","24.1","","100.96","","","","","","Mainly Clear"
"1999-11-18 09:00","1999","11","18","09:00","5.4","","0.0","","68","","21","","9","","24.1","","100.99","","","","","","Mainly Clear"
"1999-11-18 10:00","1999","11","18","10:00","7.3","","2.0","","69","","20","","20","","24.1","","100.99","","","","","","Mainly Clear"
"1999-11-18 11:00","1999","11","18","11:00","7.3","","2.0","","69","","20","","19","","24.1","","100.96","","","","","","Cloudy"
"1999-11-18 12:00","1999","11","18","12:00","7.2","","1.5","","67","","21","","19","","24.1","","100.92","","","","","","Cloudy"
"1999-11-18 13:00","1999","11","18","13:00","7.4","","1.2","","65","","21","","19","","24.1","","100.86","","","","","","Cloudy"
"1999-11-18 14:00","1999","11","18","14:00","7.8","","-0.6","","55","","20","","19","","24.1","","100.82","","","","","","Mostly Cloudy"
"1999-11-18 15:00","1999","11","18","15:00","7.7","","-0.5","","56","","20","","15","","24.1","","100.82","","","","","","Mostly Cloudy"
"1999-11-18 16:00","1999","11","18","16:00","7.8","","-1.5","","52","","18","","13","","24.1","","100.82","","","","","","Mostly Cloudy"
"1999-11-18 17:00","1999","11","18","17:00","7.2","","-0.8","","57","","15","","7","","24.1","","100.82","","","","","","Cloudy"
"1999-11-18 18:00","1999","11","18","18:00","6.5","","0.0","","63","","15","","7","","24.1","","100.82","","","","","","Mostly Cloudy"
"1999-11-18 19:00","1999","11","18","19:00","5.6","","-0.9","","63","","15","","7","","24.1","","100.86","","","","","","Mostly Cloudy"
"1999-11-18 20:00","1999","11","18","20:00","7.2","","-1.9","","52","","16","","4","","24.1","","100.86","","","","","","Mainly Clear"
"1999-11-18 21:00","1999","11","18","21:00","7.9","","-1.7","","51","","17","","11","","24.1","","100.89","","","","","","Mostly Cloudy"
"1999-11-18 22:00","1999","11","18","22:00","8.0","","-1.8","","50","","15","","7","","24.1","","100.89","","","","","","Mostly Cloudy"
"1999-11-18 23:00","1999","11","18","23:00","","M","","M","","M","","M","","M","","M","","M","","","","","NA"
"1999-11-19 00:00","1999","11","19","00:00","","M","","M","","M","","M","","M","","M","","M","","","","","NA"
"1999-11-19 01:00","1999","11","19","01:00","","M","","M","","M","","M","","M","","M","","M","","","","","NA"
"1999-11-19 02:00","1999","11","19","02:00","","M","","M","","M","","M","","M","","M","","M","","","","","NA"
"1999-11-19 03:00","1999","11","19","03:00","","M","","M","","M","","M","","M","","M","","M","","","","","NA"
"1999-11-19 04:00","1999","11","19","04:00","","M","","M","","M","","M","","M","","M","","M","","","","","NA"
"1999-11-19 05:00","1999","11","19","05:00","","M","","M","","M","","M","","M","","M","","M","","","","","NA"
"1999-11-19 06:00","1999","11","19","06:00","8.9","","-0.3","","52","","19","","19","","24.1","","100.72","","","","","","Clear"
"1999-11-19 07:00","1999","11","19","07:00","10.2","","-1.8","","43","","19","","22","","12.9","","100.69","","","","","","Mainly Clear"
"1999-11-19 08:00","1999","11","19","08:00","10.3","","-1.3","","44","","19","","19","","12.9","","100.65","","","","","","Mostly Cloudy"
"1999-11-19 09:00","1999","11","19","09:00","12.2","","-0.2","","42","","19","","28","","12.9","","100.69","","","","","","Mostly Cloudy"
"1999-11-19 10:00","1999","11","19","10:00","14.3","","0.6","","39","","21","","28","","16.1","","100.65","","","","","","Mostly Cloudy"
"1999-11-19 11:00","1999","11","19","11:00","15.1","","1.5","","40","","21","","28","","16.1","","100.65","","","","","","Mostly Cloudy"
"1999-11-19 12:00","1999","11","19","12:00","15.6","","2.2","","40","","24","","26","","16.1","","100.59","","","","","","Mostly Cloudy"
"1999-11-19 13:00","1999","11","19","13:00","16.1","","1.9","","38","","21","","22","","16.1","","100.45","","","","","","Mostly Cloudy"
"1999-11-19 14:00","1999","11","19","14:00","16.7","","2.1","","37","","21","","22","","19.3","","100.35","","","","","","Mostly Cloudy"
"1999-11-19 15:00","1999","11","19","15:00","17.2","","1.9","","36","","21","","20","","19.3","","100.35","","","","","","Mostly Cloudy"
"1999-11-19 16:00","1999","11","19","16:00","16.4","","3.0","","41","","21","","19","","19.3","","100.32","","","","","","Mostly Cloudy"
"1999-11-19 17:00","1999","11","19","17:00","14.6","","3.7","","48","","21","","15","","19.3","","100.32","","","","","","Mostly Cloudy"
"1999-11-19 18:00","1999","11","19","18:00","14.7","","3.4","","47","","19","","19","","19.3","","100.32","","","","","","Mostly Cloudy"
"1999-11-19 19:00","1999","11","19","19:00","13.9","","3.8","","51","","20","","20","","19.3","","100.32","","","","","","Mostly Cloudy"
"1999-11-19 20:00","1999","11","19","20:00","14.1","","3.0","","47","","21","","20","","19.3","","100.39","","","","","","Mostly Cloudy"
"1999-11-19 21:00","1999","11","19","21:00","14.0","","3.5","","49","","21","","19","","19.3","","100.39","","","","","","Cloudy"
"1999-11-19 22:00","1999","11","19","22:00","14.3","","4.0","","50","","20","","19","","19.3","","100.39","","","","","","Cloudy"
"1999-11-19 23:00","1999","11","19","23:00","","M","","M","","M","","M","","M","","M","","M","","","","","NA"
"1999-11-20 00:00","1999","11","20","00:00","","M","","M","","M","","M","","M","","M","","M","","","","","NA"
"1999-11-20 01:00","1999","11","20","01:00","","M","","M","","M","","M","","M","","M","","M","","","","","NA"
"1999-11-20 02:00","1999","11","20","02:00","","M","","M","","M","","M","","M","","M","","M","","","","","NA"
"1999-11-20 03:00","1999","11","20","03:00","","M","","M","","M","","M","","M","","M","","M","","","","","NA"
"1999-11-20 04:00","1999","11","20","04:00","","M","","M","","M","","M","","M","","M","","M","","","","","NA"
"1999-11-20 05:00","1999","11","20","05:00","","M","","M","","M","","M","","M","","M","","M","","","","","NA"
"1999-11-20 06:00","1999","11","20","06:00","10.7","","9.5","","92","","20","","28","","4.8","","100.22","","","","","","Rain"
"1999-11-20 07:00","1999","11","20","07:00","10.0","","9.2","","95","","21","","22","","4.8","","100.25","","","","","","Rain"
"1999-11-20 08:00","1999","11","20","08:00","9.9","","8.6","","92","","20","","22","","9.7","","100.25","","","","","","Fog"
"1999-11-20 09:00","1999","11","20","09:00","9.4","","8.5","","94","","22","","19","","4.8","","100.32","","","","","","Rain Showers"
"1999-11-20 10:00","1999","11","20","10:00","9.6","","8.4","","92","","22","","20","","8.0","","100.32","","","","","","Rain Showers,Fog"
"1999-11-20 11:00","1999","11","20","11:00","9.4","","5.9","","79","","23","","28","","8.0","","100.32","","","","","","Rain Showers,Fog"
"1999-11-20 12:00","1999","11","20","12:00","8.4","","5.5","","82","","24","","28","","11.3","","100.35","","","","","","Rain Showers"
"1999-11-20 13:00","1999","11","20","13:00","8.1","","5.3","","82","","24","","22","","16.1","","100.35","","","","","","Rain Showers"
"1999-11-20 14:00","1999","11","20","14:00","8.4","","5.2","","80","","24","","28","","24.1","","100.35","","","","","","Mostly Cloudy"
"1999-11-20 15:00","1999","11","20","15:00","8.4","","4.8","","78","","25","","20","","19.3","","100.42","","","","","","Mostly Cloudy"
"1999-11-20 16:00","1999","11","20","16:00","8.4","","4.5","","76","","25","","19","","19.3","","100.49","","","","","","Cloudy"
"1999-11-20 17:00","1999","11","20","17:00","8.2","","4.7","","79","","24","","19","","16.1","","100.55","","","","","","Cloudy"
"1999-11-20 18:00","1999","11","20","18:00","7.4","","5.0","","85","","22","","11","","16.1","","100.62","","","","","","Cloudy"
"1999-11-20 19:00","1999","11","20","19:00","7.5","","5.2","","85","","21","","13","","16.1","","100.65","","","","","","Cloudy"
"1999-11-20 20:00","1999","11","20","20:00","7.5","","5.0","","84","","22","","11","","16.1","","100.69","","","","","","Cloudy"
"1999-11-20 21:00","1999","11","20","21:00","7.1","","5.1","","87","","21","","11","","16.1","","100.76","","","","","","Cloudy"
"1999-11-20 22:00","1999","11","20","22:00","6.8","","4.5","","85","","22","","11","","19.3","","100.79","","","","","","Mostly Cloudy"
"1999-11-20 23:00","1999","11","20","23:00","","M","","M","","M","","M","","M","","M","","M","","","","","NA"
"1999-11-21 00:00","1999","11","21","00:00","","M","","M","","M","","M","","M","","M","","M","","","","","NA"
"1999-11-21 01:00","1999","11","21","01:00","","M","","M","","M","","M","","M","","M","","M","","","","","NA"
"1999-11-21 02:00","1999","11","21","02:00","","M","","M","","M","","M","","M","","M","","M","","","","","NA"
"1999-11-21 03:00","1999","11","21","03:00","","M","","M","","M","","M","","M","","M","","M","","","","","NA"
"1999-11-21 04:00","1999","11","21","04:00","","M","","M","","M","","M","","M","","M","","M","","","","","NA"
"1999-11-21 05:00","1999","11","21","05:00","","M","","M","","M","","M","","M","","M","","M","","","","","NA"
"1999-11-21 06:00","1999","11","21","06:00","7.4","","6.6","","95","","16","","9","","16.1","","100.89","","","","","","Cloudy"
"1999-11-21 07:00","1999","11","21","07:00","7.3","","5.8","","90","","19","","13","","9.7","","100.92","","","","","","Fog"
"1999-11-21 08:00","1999","11","21","08:00","7.3","","5.7","","90","","18","","11","","9.7","","100.96","","","","","","Fog"
"1999-11-21 09:00","1999","11","21","09:00","7.7","","5.9","","88","","17","","11","","12.9","","100.99","","","","","","Mostly Cloudy"
"1999-11-21 10:00","1999","11","21","10:00","8.2","","6.0","","86","","16","","11","","12.9","","100.92","","","","","","Cloudy"
"1999-11-21 11:00","1999","11","21","11:00","9.4","","6.6","","83","","16","","9","","12.9","","100.92","","","","","","Cloudy"
"1999-11-21 12:00","1999","11","21","12:00","10.5","","6.5","","76","","14","","9","","12.9","","100.86","","","","","","Cloudy"
"1999-11-21 13:00","1999","11","21","13:00","11.3","","7.6","","78","","16","","9","","12.9","","100.79","","","","","","Mostly Cloudy"
"1999-11-21 14:00","1999","11","21","14:00","12.4","","7.6","","72","","10","","4","","11.3","","100.76","","","","","","Cloudy"
"1999-11-21 15:00","1999","11","21","15:00","12.1","","7.6","","74","","22","","4","","12.9","","100.76","","","","","","Cloudy"
"1999-11-21 16:00","1999","11","21","16:00","12.2","","8.3","","77","","15","","7","","12.9","","100.76","","","","","","Mostly Cloudy"
"1999-11-21 17:00","1999","11","21","17:00","11.7","","8.4","","80","","","","0","","6.4","","100.79","","","","","","Fog"
"1999-11-21 18:00","1999","11","21","18:00","11.2","","8.2","","82","","10","","7","","9.7","","100.79","","","","","","Fog"
"1999-11-21 19:00","1999","11","21","19:00","10.7","","8.2","","85","","7","","7","","12.9","","100.79","","","","","","Cloudy"
"1999-11-21 20:00","1999","11","21","20:00","9.9","","8.0","","88","","6","","7","","12.9","","100.76","","","","","","Cloudy"
"1999-11-21 21:00","1999","11","21","21:00","9.5","","7.8","","89","","6","","7","","12.9","","100.76","","","","","","Mostly Cloudy"
"1999-11-21 22:00","1999","11","21","22:00","8.4","","7.4","","93","","11","","4","","12.9","","100.76","","","","","","Mostly Cloudy"
"1999-11-21 23:00","1999","11","21","23:00","","M","","M","","M","","M","","M","","M","","M","","","","","NA"
"1999-11-22 00:00","1999","11","22","00:00","","M","","M","","M","","M","","M","","M","","M","","","","","NA"
"1999-11-22 01:00","1999","11","22","01:00","","M","","M","","M","","M","","M","","M","","M","","","","","NA"
"1999-11-22 02:00","1999","11","22","02:00","","M","","M","","M","","M","","M","","M","","M","","","","","NA"
"1999-11-22 03:00","1999","11","22","03:00","","M","","M","","M","","M","","M","","M","","M","","","","","NA"
"1999-11-22 04:00","1999","11","22","04:00","","M","","M","","M","","M","","M","","M","","M","","","","","NA"
"1999-11-22 05:00","1999","11","22","05:00","","M","","M","","M","","M","","M","","M","","M","","","","","NA"
"1999-11-22 06:00","1999","11","22","06:00","7.1","","6.5","","96","","30","","9","","16.1","","100.72","","","","","","Mostly Cloudy"
"1999-11-22 07:00","1999","11","22","07:00","6.9","","6.5","","97","","","","0","","6.4","","100.72","","","","","","Fog"
"1999-11-22 08:00","1999","11","22","08:00","6.5","","6.2","","98","","","","0","","8.0","","100.72","","","","","","Fog"
"1999-11-22 09:00","1999","11","22","09:00","15.0","","11.0","","77","","20","","19","","19.3","","100.72","","","","","","Mostly Cloudy"
"1999-11-22 10:00","1999","11","22","10:00","17.9","","11.9","","68","","20","","19","","19.3","","100.72","","","","","","Mostly Cloudy"
"1999-11-22 11:00","1999","11","22","11:00","17.2","","11.5","","69","","20","","19","","24.1","","100.76","","","","","","Cloudy"
"1999-11-22 12:00","1999","11","22","12:00","17.8","","12.0","","69","","21","","19","","19.3","","100.72","","","","","","Cloudy"
"1999-11-22 13:00","1999","11","22","13:00","18.2","","12.2","","68","","22","","22","","19.3","","100.69","","","","","","Mostly Cloudy"
"1999-11-22 14:00","1999","11","22","14:00","18.7","","12.6","","68","","22","","20","","16.1","","100.65","","","","","","Mainly Clear"
"1999-11-22 15:00","1999","11","22","15:00","18.4","","12.5","","68","","23","","24","","16.1","","100.69","","","","","","Mainly Clear"
"1999-11-22 16:00","1999","11","22","16:00","17.3","","12.2","","72","","23","","22","","16.1","","100.76","","","","","","Mainly Clear"
"1999-11-22 17:00","1999","11","22","17:00","16.1","","11.9","","76","","23","","19","","16.1","","100.79","","","","","","Clear"
"1999-11-22 18:00","1999","11","22","18:00","14.2","","11.4","","83","","22","","15","","12.9","","100.82","","","","","","Clear"
"1999-11-22 19:00","1999","11","22","19:00","13.2","","10.6","","84","","24","","15","","12.9","","100.86","","","","","","Clear"
"1999-11-22 20:00","1999","11","22","20:00","12.2","","10.2","","88","","22","","9","","12.9","","100.92","","","","","","Mainly Clear"
"1999-11-22 21:00","1999","11","22","21:00","11.1","","9.6","","90","","22","","11","","12.9","","100.96","","","","","","Mainly Clear"
"1999-11-22 22:00","1999","11","22","22:00","11.6","","9.9","","89","","22","","11","","24.1","","100.99","","","","","","Mainly Clear"
"1999-11-22 23:00","1999","11","22","23:00","","M","","M","","M","","M","","M","","M","","M","","","","","NA"
"1999-11-23 00:00","1999","11","23","00:00","","M","","M","","M","","M","","M","","M","","M","","","","","NA"
"1999-11-23 01:00","1999","11","23","01:00","","M","","M","","M","","M","","M","","M","","M","","","","","NA"
"1999-11-23 02:00","1999","11","23","02:00","","M","","M","","M","","M","","M","","M","","M","","","","","NA"
"1999-11-23 03:00","1999","11","23","03:00","","M","","M","","M","","M","","M","","M","","M","","","","","NA"
"1999-11-23 04:00","1999","11","23","04:00","","M","","M","","M","","M","","M","","M","","M","","","","","NA"
"1999-11-23 05:00","1999","11","23","05:00","","M","","M","","M","","M","","M","","M","","M","","","","","NA"
"1999-11-23 06:00","1999","11","23","06:00","8.1","","8.1","","100","","","","0","","6.4","","101.16","","","","","","Fog"
"1999-11-23 07:00","1999","11","23","07:00","7.1","","7.1","","100","","","","0","","0.2","","101.26","","","","","","Fog"
"1999-11-23 08:00","1999","11","23","08:00","6.7","","6.7","","100","","","","0","","0.4","","101.26","","","","","","Fog"
"1999-11-23 09:00","1999","11","23","09:00","8.4","","8.4","","100","","","","0","","0.2","","101.26","","","","","","Fog"
"1999-11-23 10:00","1999","11","23","10:00","11.4","","11.2","","99","","6","","11","","4.0","","101.26","","","","","","Fog"
"1999-11-23 11:00","1999","11","23","11:00","14.9","","12.2","","84","","8","","6","","6.4","","101.16","","","","","","Haze"
"1999-11-23 12:00","1999","11","23","12:00","16.5","","12.9","","79","","9","","6","","11.3","","101.09","","","","","","Clear"
"1999-11-23 13:00","1999","11","23","13:00","14.2","","11.0","","81","","32","","9","","11.3","","100.99","","","","","","Mainly Clear"
"1999-11-23 14:00","1999","11","23","14:00","14.0","","10.6","","80","","30","","9","","8.0","","100.89","","","","","","Haze"
"1999-11-23 15:00","1999","11","23","15:00","12.9","","9.9","","82","","30","","9","","8.0","","100.82","","","","","","Haze"
"1999-11-23 16:00","1999","11","23","16:00","10.6","","8.8","","89","","30","","11","","8.0","","100.79","","","","","","Fog"
"1999-11-23 17:00","1999","11","23","17:00","8.4","","7.2","","92","","27","","6","","6.4","","100.76","","","","","","Haze"
"1999-11-23 18:00","1999","11","23","18:00","7.9","","6.9","","93","","25","","6","","4.8","","100.69","","","","","","Haze"
"1999-11-23 19:00","1999","11","23","19:00","7.6","","6.8","","95","","","","0","","6.4","","100.59","","","","","","Haze"
"1999-11-23 20:00","1999","11","23","20:00","7.1","","6.3","","95","","","","0","","6.4","","100.52","","","","","","Haze"
"1999-11-23 21:00","1999","11","23","21:00","15.7","","11.8","","78","","25","","6","","16.1","","100.45","","","","","","Mainly Clear"
"1999-11-23 22:00","1999","11","23","22:00","14.9","","11.7","","81","","17","","22","","24.1","","100.35","","","","","","Mainly Clear"
"1999-11-23 23:00","1999","11","23","23:00","","M","","M","","M","","M","","M","","M","","M","","","","","NA"
"1999-11-24 00:00","1999","11","24","00:00","","M","","M","","M","","M","","M","","M","","M","","","","","NA"
"1999-11-24 01:00","1999","11","24","01:00","","M","","M","","M","","M","","M","","M","","M","","","","","NA"
"1999-11-24 02:00","1999","11","24","02:00","","M","","M","","M","","M","","M","","M","","M","","","","","NA"
"1999-11-24 03:00","1999","11","24","03:00","","M","","M","","M","","M","","M","","M","","M","","","","","NA"
"1999-11-24 04:00","1999","11","24","04:00","","M","","M","","M","","M","","M","","M","","M","","","","","NA"
"1999-11-24 05:00","1999","11","24","05:00","","M","","M","","M","","M","","M","","M","","M","","","","","NA"
"1999-11-24 06:00","1999","11","24","06:00","13.6","","11.0","","84","","21","","28","","24.1","","100.05","","","","","","Rain Showers"
"1999-11-24 07:00","1999","11","24","07:00","13.4","","9.7","","78","","22","","28","","24.1","","100.12","","","","","","Mostly Cloudy"
"1999-11-24 08:00","1999","11","24","08:00","11.9","","8.7","","81","","23","","28","","24.1","","100.29","","","","","","Mainly Clear"
"1999-11-24 09:00","1999","11","24","09:00","11.3","","7.3","","76","","24","","32","","24.1","","100.42","","","","","","Mainly Clear"
"1999-11-24 10:00","1999","11","24","10:00","10.6","","6.0","","73","","24","","37","","24.1","","100.52","","","","","","Mainly Clear"
"1999-11-24 11:00","1999","11","24","11:00","10.3","","4.4","","67","","25","","33","","24.1","","100.62","","","","","","Mostly Cloudy"
"1999-11-24 12:00","1999","11","24","12:00","9.5","","3.8","","68","","25","","28","","24.1","","100.62","","","","","","Mostly Cloudy"
"1999-11-24 13:00","1999","11","24","13:00","9.6","","3.6","","66","","24","","19","","24.1","","100.62","","","","","","Mostly Cloudy"
"1999-11-24 14:00","1999","11","24","14:00","9.5","","2.9","","63","","23","","19","","24.1","","100.69","","","","","","Mostly Cloudy"
"1999-11-24 15:00","1999","11","24","15:00","9.2","","2.9","","65","","24","","19","","24.1","","100.72","","","","","","Mostly Cloudy"
"1999-11-24 16:00","1999","11","24","16:00","9.0","","2.4","","63","","24","","28","","24.1","","100.82","","","","","","Mostly Cloudy"
"1999-11-24 17:00","1999","11","24","17:00","8.4","","3.1","","69","","23","","30","","24.1","","100.92","","","","","","Mostly Cloudy"
"1999-11-24 18:00","1999","11","24","18:00","8.3","","2.8","","68","","24","","22","","24.1","","100.99","","","","","","Mostly Cloudy"
"1999-11-24 19:00","1999","11","24","19:00","8.1","","2.6","","68","","25","","19","","24.1","","101.06","","","","","","Mostly Cloudy"
"1999-11-24 20:00","1999","11","24","20:00","7.7","","3.1","","73","","24","","19","","24.1","","101.09","","","","","","Mostly Cloudy"
"1999-11-24 21:00","1999","11","24","21:00","7.0","","2.9","","75","","24","","11","","24.1","","101.12","","","","","","Mostly Cloudy"
"1999-11-24 22:00","1999","11","24","22:00","7.3","","1.8","","68","","25","","15","","24.1","","101.16","","","","","","Mostly Cloudy"
"1999-11-24 23:00","1999","11","24","23:00","","M","","M","","M","","M","","M","","M","","M","","","","","NA"
"1999-11-25 00:00","1999","11","25","00:00","","M","","M","","M","","M","","M","","M","","M","","","","","NA"
"1999-11-25 01:00","1999","11","25","01:00","","M","","M","","M","","M","","M","","M","","M","","","","","NA"
"1999-11-25 02:00","1999","11","25","02:00","","M","","M","","M","","M","","M","","M","","M","","","","","NA"
"1999-11-25 03:00","1999","11","25","03:00","","M","","M","","M","","M","","M","","M","","M","","","","","NA"
"1999-11-25 04:00","1999","11","25","04:00","","M","","M","","M","","M","","M","","M","","M","","","","","NA"
"1999-11-25 05:00","1999","11","25","05:00","","M","","M","","M","","M","","M","","M","","M","","","","","NA"
"1999-11-25 06:00","1999","11","25","06:00","3.6","","1.1","","84","","30","","9","","24.1","","101.29","","","","","","Cloudy"
"1999-11-25 07:00","1999","11","25","07:00","3.0","","1.0","","87","","30","","9","","24.1","","101.29","","","","","","Cloudy"
"1999-11-25 08:00","1999","11","25","08:00","2.5","","1.1","","90","","","","0","","24.1","","101.33","","","","","","Mostly Cloudy"
"1999-11-25 09:00","1999","11","25","09:00","3.1","","1.6","","90","","","","0","","24.1","","101.36","","","","","","Mostly Cloudy"
"1999-11-25 10:00","1999","11","25","10:00","5.5","","2.5","","81","","","","0","","24.1","","101.39","","","","","","Mostly Cloudy"
"1999-11-25 11:00","1999","11","25","11:00","6.2","","1.6","","72","","5","","4","","24.1","","101.43","","","","","","Mostly Cloudy"
"1999-11-25 12:00","1999","11","25","12:00","6.5","","3.2","","79","","1","","9","","24.1","","101.29","","","","","","Cloudy"
"1999-11-25 13:00","1999","11","25","13:00","7.3","","2.3","","71","","2","","4","","24.1","","101.26","","","","","","Mostly Cloudy"
"1999-11-25 14:00","1999","11","25","14:00","7.1","","3.5","","78","","34","","11","","24.1","","101.22","","","","","","Mainly Clear"
"1999-11-25 15:00","1999","11","25","15:00","6.9","","2.1","","71","","4","","9","","24.1","","101.16","","","","","","Mainly Clear"
"1999-11-25 16:00","1999","11","25","16:00","5.8","","2.1","","77","","3","","13","","24.1","","101.16","","","","","","Mainly Clear"
"1999-11-25 17:00","1999","11","25","17:00","4.8","","2.4","","84","","4","","9","","24.1","","101.16","","","","","","Mostly Cloudy"
"1999-11-25 18:00","1999","11","25","18:00","4.0","","2.3","","89","","8","","7","","24.1","","101.12","","","","","","Mostly Cloudy"
"1999-11-25 19:00","1999","11","25","19:00","4.1","","2.4","","89","","8","","9","","24.1","","101.12","","","","","","Mostly Cloudy"
"1999-11-25 20:00","1999","11","25","20:00","4.2","","2.2","","87","","8","","11","","24.1","","100.99","","","","","","Mostly Cloudy"
"1999-11-25 21:00","1999","11","25","21:00","4.1","","2.3","","88","","8","","15","","24.1","","100.96","","","","","","Cloudy"
"1999-11-25 22:00","1999","11","25","22:00","4.2","","2.3","","87","","7","","15","","24.1","","100.89","","","","","","Cloudy"
"1999-11-25 23:00","1999","11","25","23:00","","M","","M","","M","","M","","M","","M","","M","","","","","NA"
"1999-11-26 00:00","1999","11","26","00:00","","M","","M","","M","","M","","M","","M","","M","","","","","NA"
"1999-11-26 01:00","1999","11","26","01:00","","M","","M","","M","","M","","M","","M","","M","","","","","NA"
"1999-11-26 02:00","1999","11","26","02:00","","M","","M","","M","","M","","M","","M","","M","","","","","NA"
"1999-11-26 03:00","1999","11","26","03:00","","M","","M","","M","","M","","M","","M","","M","","","","","NA"
"1999-11-26 04:00","1999","11","26","04:00","","M","","M","","M","","M","","M","","M","","M","","","","","NA"
"1999-11-26 05:00","1999","11","26","05:00","","M","","M","","M","","M","","M","","M","","M","","","","","NA"
"1999-11-26 06:00","1999","11","26","06:00","5.2","","4.9","","98","","8","","15","","11.3","","99.95","","","","","","Rain"
"1999-11-26 07:00","1999","11","26","07:00","5.5","","5.3","","99","","7","","9","","8.0","","99.82","","","","","","Rain,Fog"
"1999-11-26 08:00","1999","11","26","08:00","5.9","","5.7","","99","","8","","9","","8.0","","99.72","","","","","","Rain,Fog"
"1999-11-26 09:00","1999","11","26","09:00","5.7","","5.4","","98","","8","","11","","11.3","","99.61","","","","","","Rain"
"1999-11-26 10:00","1999","11","26","10:00","6.1","","6.0","","99","","8","","9","","4.8","","99.55","","","","","","Rain,Fog"
"1999-11-26 11:00","1999","11","26","11:00","6.4","","6.4","","100","","10","","9","","6.4","","99.48","","","","","","Rain,Fog"
"1999-11-26 12:00","1999","11","26","12:00","6.6","","6.6","","100","","22","","4","","4.0","","99.38","","","","","","Rain,Fog"
"1999-11-26 13:00","1999","11","26","13:00","7.2","","7.1","","99","","","","0","","6.4","","99.28","","","","","","Fog"
"1999-11-26 14:00","1999","11","26","14:00","6.4","","6.3","","99","","25","","9","","6.4","","99.28","","","","","","Rain,Fog"
"1999-11-26 15:00","1999","11","26","15:00","6.3","","6.1","","99","","28","","13","","6.4","","99.25","","","","","","Rain,Fog"
"1999-11-26 16:00","1999","11","26","16:00","6.6","","6.4","","99","","","","0","","8.0","","99.28","","","","","","Rain,Fog"
"1999-11-26 17:00","1999","11","26","17:00","6.6","","6.6","","100","","27","","11","","4.8","","99.31","","","","","","Rain,Fog"
"1999-11-26 18:00","1999","11","26","18:00","7.0","","7.0","","100","","25","","7","","9.7","","99.38","","","","","","Rain,Fog"
"1999-11-26 19:00","1999","11","26","19:00","7.4","","7.3","","99","","26","","9","","12.9","","99.48","","","","","","Rain"
"1999-11-26 20:00","1999","11","26","20:00","7.3","","6.6","","95","","26","","11","","16.1","","99.51","","","","","","Rain"
"1999-11-26 21:00","1999","11","26","21:00","7.2","","5.3","","88","","25","","11","","24.1","","99.61","","","","","","Cloudy"
"1999-11-26 22:00","1999","11","26","22:00","6.6","","4.5","","86","","26","","19","","24.1","","99.75","","","","","","Cloudy"
"1999-11-26 23:00","1999","11","26","23:00","","M","","M","","M","","M","","M","","M","","M","","","","","NA"
"1999-11-27 00:00","1999","11","27","00:00","","M","","M","","M","","M","","M","","M","","M","","","","","NA"
"1999-11-27 01:00","1999","11","27","01:00","","M","","M","","M","","M","","M","","M","","M","","","","","NA"
"1999-11-27 02:00","1999","11","27","02:00","","M","","M","","M","","M","","M","","M","","M","","","","","NA"
"1999-11-27 03:00","1999","11","27","03:00","","M","","M","","M","","M","","M","","M","","M","","","","","NA"
"1999-11-27 04:00","1999","11","27","04:00","","M","","M","","M","","M","","M","","M","","M","","","","","NA"
"1999-11-27 05:00","1999","11","27","05:00","","M","","M","","M","","M","","M","","M","","M","","","","","NA"
"1999-11-27 06:00","1999","11","27","06:00","8.4","","5.0","","79","","20","","19","","16.1","","99.88","","","","","","Cloudy"
"1999-11-27 07:00","1999","11","27","07:00","6.9","","4.7","","86","","22","","13","","16.1","","99.88","","","","","","Mostly Cloudy"
"1999-11-27 08:00","1999","11","27","08:00","7.6","","5.1","","84","","21","","13","","16.1","","99.88","","","","","","Cloudy"
"1999-11-27 09:00","1999","11","27","09:00","7.9","","4.6","","80","","22","","28","","19.3","","99.92","","","","","","Mostly Cloudy"
"1999-11-27 10:00","1999","11","27","10:00","8.7","","4.9","","77","","23","","28","","16.1","","99.92","","","","","","Mostly Cloudy"
"1999-11-27 11:00","1999","11","27","11:00","8.7","","4.7","","76","","22","","28","","16.1","","99.92","","","","","","Mostly Cloudy"
"1999-11-27 12:00","1999","11","27","12:00","8.6","","4.4","","75","","23","","28","","19.3","","99.85","","","","","","Cloudy"
"1999-11-27 13:00","1999","11","27","13:00","9.1","","4.2","","71","","23","","28","","19.3","","99.85","","","","","","Mostly Cloudy"
"1999-11-27 14:00","1999","11","27","14:00","9.2","","4.4","","72","","24","","28","","19.3","","99.85","","","","","","Mostly Cloudy"
"1999-11-27 15:00","1999","11","27","15:00","9.0","","5.0","","76","","23","","28","","24.1","","99.88","","","","","","Mostly Cloudy"
"1999-11-27 16:00","1999","11","27","16:00","9.1","","3.4","","67","","23","","28","","24.1","","99.92","","","","","","Mostly Cloudy"
"1999-11-27 17:00","1999","11","27","17:00","8.1","","0.8","","60","","26","","19","","24.1","","99.98","","","","","","Mostly Cloudy"
"1999-11-27 18:00","1999","11","27","18:00","7.0","","0.3","","62","","27","","19","","24.1","","100.12","","","","","","Mostly Cloudy"
"1999-11-27 19:00","1999","11","27","19:00","6.6","","0.7","","66","","25","","19","","24.1","","100.18","","","","","","Cloudy"
"1999-11-27 20:00","1999","11","27","20:00","6.2","","0.7","","68","","25","","19","","48.3","","100.25","","","","","","Mostly Cloudy"
"1999-11-27 21:00","1999","11","27","21:00","6.1","","-0.1","","64","","27","","19","","48.3","","100.35","","","","","","Mostly Cloudy"
"1999-11-27 22:00","1999","11","27","22:00","5.5","","-0.8","","64","","27","","26","","48.3","","100.42","","","","","","Mainly Clear"
"1999-11-27 23:00","1999","11","27","23:00","","M","","M","","M","","M","","M","","M","","M","","","","","NA"
"1999-11-28 00:00","1999","11","28","00:00","","M","","M","","M","","M","","M","","M","","M","","","","","NA"
"1999-11-28 01:00","1999","11","28","01:00","","M","","M","","M","","M","","M","","M","","M","","","","","NA"
"1999-11-28 02:00","1999","11","28","02:00","","M","","M","","M","","M","","M","","M","","M","","","","","NA"
"1999-11-28 03:00","1999","11","28","03:00","","M","","M","","M","","M","","M","","M","","M","","","","","NA"
"1999-11-28 04:00","1999","11","28","04:00","","M","","M","","M","","M","","M","","M","","M","","","","","NA"
"1999-11-28 05:00","1999","11","28","05:00","","M","","M","","M","","M","","M","","M","","M","","","","","NA"
"1999-11-28 06:00","1999","11","28","06:00","2.1","","-1.5","","77","","25","","22","","24.1","","100.82","","","","","","Mainly Clear"
"1999-11-28 07:00","1999","11","28","07:00","2.2","","-1.5","","76","","25","","22","","24.1","","100.89","","","","","","Mainly Clear"
"1999-11-28 08:00","1999","11","28","08:00","2.8","","-1.2","","75","","26","","19","","24.1","","100.92","","","","","","Mainly Clear"
"1999-11-28 09:00","1999","11","28","09:00","4.2","","-0.8","","70","","26","","19","","24.1","","101.02","","","","","","Mainly Clear"
"1999-11-28 10:00","1999","11","28","10:00","5.0","","-0.9","","66","","27","","28","","24.1","","101.06","","","","","","Mostly Cloudy"
"1999-11-28 11:00","1999","11","28","11:00","5.4","","-0.9","","64","","27","","22","","24.1","","101.09","","","","","","Mostly Cloudy"
"1999-11-28 12:00","1999","11","28","12:00","5.1","","0.7","","73","","27","","26","","24.1","","101.09","","","","","","Mostly Cloudy"
"1999-11-28 13:00","1999","11","28","13:00","5.7","","-1.9","","58","","26","","24","","24.1","","101.09","","","","","","Mostly Cloudy"
"1999-11-28 14:00","1999","11","28","14:00","5.6","","-1.8","","59","","26","","24","","24.1","","101.09","","","","","","Mostly Cloudy"
"1999-11-28 15:00","1999","11","28","15:00","5.4","","-1.2","","62","","28","","26","","24.1","","101.16","","","","","","Mostly Cloudy"
"1999-11-28 16:00","1999","11","28","16:00","5.3","","-4.2","","50","","28","","28","","24.1","","101.19","","","","","","Mainly Clear"
"1999-11-28 17:00","1999","11","28","17:00","4.9","","-3.7","","54","","28","","19","","24.1","","101.26","","","","","","Mainly Clear"
"1999-11-28 18:00","1999","11","28","18:00","4.4","","-3.2","","58","","27","","19","","24.1","","101.33","","","","","","Mainly Clear"
"1999-11-28 19:00","1999","11","28","19:00","3.0","","-3.9","","60","","25","","9","","48.3","","101.36","","","","","","Mainly Clear"
"1999-11-28 20:00","1999","11","28","20:00","2.3","","-3.5","","65","","24","","11","","48.3","","101.36","","","","","","Mainly Clear"
"1999-11-28 21:00","1999","11","28","21:00","2.2","","-2.8","","69","","25","","19","","48.3","","101.33","","","","","","Mainly Clear"
"1999-11-28 22:00","1999","11","28","22:00","2.9","","-2.4","","68","","25","","19","","48.3","","101.29","","","","","","Mostly Cloudy"
"1999-11-28 23:00","1999","11","28","23:00","","M","","M","","M","","M","","M","","M","","M","","","","","NA"
"1999-11-29 00:00","1999","11","29","00:00","","M","","M","","M","","M","","M","","M","","M","","","","","NA"
"1999-11-29 01:00","1999","11","29","01:00","","M","","M","","M","","M","","M","","M","","M","","","","","NA"
"1999-11-29 02:00","1999","11","29","02:00","","M","","M","","M","","M","","M","","M","","M","","","","","NA"
"1999-11-29 03:00","1999","11","29","03:00","","M","","M","","M","","M","","M","","M","","M","","","","","NA"
"1999-11-29 04:00","1999","11","29","04:00","","M","","M","","M","","M","","M","","M","","M","","","","","NA"
"1999-11-29 05:00","1999","11","29","05:00","","M","","M","","M","","M","","M","","M","","M","","","","","NA"
"1999-11-29 06:00","1999","11","29","06:00","1.2","","-1.8","","80","","26","","15","","24.1","","101.26","","","","","","Mostly Cloudy"
"1999-11-29 07:00","1999","11","29","07:00","1.3","","-1.7","","80","","24","","22","","24.1","","101.29","","","","","","Mostly Cloudy"
"1999-11-29 08:00","1999","11","29","08:00","0.8","","-1.2","","86","","26","","20","","24.1","","101.33","","","","","","Mostly Cloudy"
"1999-11-29 09:00","1999","11","29","09:00","1.5","","-1.0","","83","","27","","22","","24.1","","101.36","","","","","","Mostly Cloudy"
"1999-11-29 10:00","1999","11","29","10:00","1.9","","-1.2","","80","","27","","19","","24.1","","101.39","","","","","","Mostly Cloudy"
"1999-11-29 11:00","1999","11","29","11:00","2.9","","-1.4","","73","","31","","19","","24.1","","101.39","","","","","","Mostly Cloudy"
"1999-11-29 12:00","1999","11","29","12:00","3.2","","-2.0","","69","","31","","19","","24.1","","101.39","","","","","","Mostly Cloudy"
"1999-11-29 13:00","1999","11","29","13:00","3.0","","-3.4","","63","","34","","22","","24.1","","101.46","","","","","","Mostly Cloudy"
"1999-11-29 14:00","1999","11","29","14:00","2.3","","-5.0","","58","","31","","20","","24.1","","101.53","","","","","","Mainly Clear"
"1999-11-29 15:00","1999","11","29","15:00","2.2","","-4.6","","61","","34","","22","","24.1","","101.59","","","","","","Mostly Cloudy"
"1999-11-29 16:00","1999","11","29","16:00","1.7","","-4.4","","64","","34","","20","","24.1","","101.73","","","","","","Mostly Cloudy"
"1999-11-29 17:00","1999","11","29","17:00","1.1","","-5.5","","61","","33","","19","","24.1","","101.76","","","","","","Mostly Cloudy"
"1999-11-29 18:00","1999","11","29","18:00","0.8","","-5.8","","61","","34","","22","","24.1","","101.86","","","","","","Mostly Cloudy"
"1999-11-29 19:00","1999","11","29","19:00","-0.1","","-6.2","","63","","34","","20","","24.1","","101.93","","","","-5","","Mostly Cloudy"
"1999-11-29 20:00","1999","11","29","20:00","-0.3","","-5.9","","66","","35","","19","","24.1","","102.00","","","","-5","","Mostly Cloudy"
"1999-11-29 21:00","1999","11","29","21:00","-0.4","","-6.0","","66","","35","","15","","24.1","","102.03","","","","-5","","Mostly Cloudy"
"1999-11-29 22:00","1999","11","29","22:00","-0.8","","-6.6","","65","","1","","17","","24.1","","102.13","","","","-6","","Mostly Cloudy"
"1999-11-29 23:00","1999","11","29","23:00","","M","","M","","M","","M","","M","","M","","M","","","","","NA"
"1999-11-30 00:00","1999","11","30","00:00","","M","","M","","M","","M","","M","","M","","M","","","","","NA"
"1999-11-30 01:00","1999","11","30","01:00","","M","","M","","M","","M","","M","","M","","M","","","","","NA"
"1999-11-30 02:00","1999","11","30","02:00","","M","","M","","M","","M","","M","","M","","M","","","","","NA"
"1999-11-30 03:00","1999","11","30","03:00","","M","","M","","M","","M","","M","","M","","M","","","","","NA"
"1999-11-30 04:00","1999","11","30","04:00","","M","","M","","M","","M","","M","","M","","M","","","","","NA"
"1999-11-30 05:00","1999","11","30","05:00","","M","","M","","M","","M","","M","","M","","M","","","","","NA"
"1999-11-30 06:00","1999","11","30","06:00","-2.7","","-7.0","","72","","36","","17","","12.9","","102.33","","","","-8","","Mostly Cloudy"
"1999-11-30 07:00","1999","11","30","07:00","-2.5","","-6.8","","72","","2","","15","","24.1","","102.40","","","","-7","","Mostly Cloudy"
"1999-11-30 08:00","1999","11","30","08:00","-2.1","","-6.7","","71","","2","","15","","24.1","","102.43","","","","-7","","Mostly Cloudy"
"1999-11-30 09:00","1999","11","30","09:00","-1.7","","-6.8","","68","","2","","19","","24.1","","102.50","","","","-7","","Snow Showers"
"1999-11-30 10:00","1999","11","30","10:00","-1.4","","-5.3","","75","","1","","19","","24.1","","102.57","","","","-7","","Snow Showers"
"1999-11-30 11:00","1999","11","30","11:00","-0.9","","-6.6","","65","","36","","19","","24.1","","102.57","","","","-6","","Mostly Cloudy"
"1999-11-30 12:00","1999","11","30","12:00","-1.2","","-8.1","","59","","1","","17","","24.1","","102.53","","","","-6","","Mostly Cloudy"
"1999-11-30 13:00","1999","11","30","13:00","-1.1","","-8.2","","58","","3","","19","","24.1","","102.53","","","","-6","","Mainly Clear"
"1999-11-30 14:00","1999","11","30","14:00","-1.5","","-7.8","","62","","3","","19","","24.1","","102.53","","","","-7","","Mainly Clear"
"1999-11-30 15:00","1999","11","30","15:00","-1.4","","-8.9","","57","","33","","19","","24.1","","102.53","","","","-7","","Mainly Clear"
"1999-11-30 16:00","1999","11","30","16:00","-1.8","","-9.0","","58","","1","","15","","24.1","","102.60","","","","-7","","Mainly Clear"
"1999-11-30 17:00","1999","11","30","17:00","-2.5","","-9.3","","60","","4","","9","","24.1","","102.60","","","","-6","","Mainly Clear"
"1999-11-30 18:00","1999","11","30","18:00","-3.8","","-7.8","","74","","","","0","","24.1","","102.60","","","","","","Mainly Clear"
"1999-11-30 19:00","1999","11","30","19:00","-4.9","","-8.3","","77","","","","0","","24.1","","102.60","","","","","","Mainly Clear"
"1999-11-30 20:00","1999","11","30","20:00","-5.3","","-7.6","","84","","21","","4","","24.1","","102.60","","","","-7","","Clear"
"1999-11-30 21:00","1999","11","30","21:00","-5.6","","-8.2","","82","","","","0","","24.1","","102.57","","","","","","Mainly Clear"
"1999-11-30 22:00","1999","11","30","22:00","-5.6","","-7.6","","86","","","","0","","24.1","","102.53","","","","","","Mainly Clear"
"1999-11-30 23:00","1999","11","30","23:00","","M","","M","","M","","M","","M","","M","","M","","","","","NA"
