"Station Name","ST CATHARINES A"
"Province","ONTARIO"
"Latitude","43.20"
"Longitude","-79.17"
"Elevation","97.80"
"Climate Identifier","6137287"
"WMO Identifier",""
"TC Identifier","YSN"
"All times are specified in Local Standard Time (LST). Add 1 hour to adjust for Daylight Saving Time where and when it is observed."

"Legend"
"E","Estimated"
"M","Missing"
"NA","Not Available"

"Date/Time","Year","Month","Day","Time","Temp (°C)","Temp Flag","Dew Point Temp (°C)","Dew Point Temp Flag","Rel Hum (%)","Rel Hum Flag","Wind Dir (10s deg)","Wind Dir Flag","Wind Spd (km/h)","Wind Spd Flag","Visibility (km)","Visibility Flag","Stn Press (kPa)","Stn Press Flag","Hmdx","Hmdx Flag","Wind Chill","Wind Chill Flag","Weather"
"1997-08-01 00:00","1997","08","01","00:00","","M","","M","","M","","M","","M","","M","","M","","","","","NA"
"1997-08-01 01:00","1997","08","01","01:00","","M","","M","","M","","M","","M","","M","","M","","","","","NA"
"1997-08-01 02:00","1997","08","01","02:00","","M","","M","","M","","M","","M","","M","","M","","","","","NA"
"1997-08-01 03:00","1997","08","01","03:00","","M","","M","","M","","M","","M","","M","","M","","","","","NA"
"1997-08-01 04:00","1997","08","01","04:00","","M","","M","","M","","M","","M","","M","","M","","","","","NA"
"1997-08-01 05:00","1997","08","01","05:00","17.1","","12.0","","72","","22","","9","","24.1","","100.96","","","","","","Cloudy"
"1997-08-01 06:00","1997","08","01","06:00","19.2","","12.9","","67","","22","","11","","24.1","","100.99","","","","","","Cloudy"
"1997-08-01 07:00","1997","08","01","07:00","21.0","","13.0","","60","","23","","9","","24.1","","100.99","","","","","","Cloudy"
"1997-08-01 08:00","1997","08","01","08:00","22.4","","13.1","","56","","23","","15","","24.1","","100.99","","25","","","","Cloudy"
"1997-08-01 09:00","1997","08","01","09:00","23.3","","14.1","","56","","24","","19","","24.1","","100.99","","27","","","","Mostly Cloudy"
"1997-08-01 10:00","1997","08","01","10:00","26.8","","15.1","","49","","27","","19","","24.1","","100.92","","31","","","","Mostly Cloudy"
"1997-08-01 11:00","1997","08","01","11:00","27.4","","14.7","","46","","30","","19","","24.1","","100.89","","31","","","","Cloudy"
"1997-08-01 12:00","1997","08","01","12:00","26.6","","14.2","","46","","29","","19","","24.1","","100.82","","30","","","","Mostly Cloudy"
"1997-08-01 13:00","1997","08","01","13:00","26.6","","14.3","","47","","27","","19","","24.1","","100.79","","30","","","","Cloudy"
"1997-08-01 14:00","1997","08","01","14:00","25.6","","17.1","","59","","24","","19","","24.1","","100.76","","31","","","","Rain Showers"
"1997-08-01 15:00","1997","08","01","15:00","26.5","","13.7","","45","","27","","11","","24.1","","100.69","","30","","","","Cloudy"
"1997-08-01 16:00","1997","08","01","16:00","25.3","","17.4","","62","","24","","22","","24.1","","100.62","","31","","","","Mostly Cloudy"
"1997-08-01 17:00","1997","08","01","17:00","25.4","","17.2","","60","","23","","26","","24.1","","100.59","","31","","","","Cloudy"
"1997-08-01 18:00","1997","08","01","18:00","24.6","","17.1","","63","","25","","17","","24.1","","100.55","","30","","","","Rain Showers"
"1997-08-01 19:00","1997","08","01","19:00","24.5","","15.8","","58","","25","","20","","24.1","","100.49","","29","","","","Mostly Cloudy"
"1997-08-01 20:00","1997","08","01","20:00","23.5","","15.1","","59","","24","","15","","24.1","","100.49","","28","","","","Mostly Cloudy"
"1997-08-01 21:00","1997","08","01","21:00","21.0","","15.3","","70","","23","","9","","24.1","","100.49","","25","","","","Mainly Clear"
"1997-08-01 22:00","1997","08","01","22:00","","M","","M","","M","","M","","M","","M","","M","","","","","NA"
"1997-08-01 23:00","1997","08","01","23:00","","M","","M","","M","","M","","M","","M","","M","","","","","NA"
"1997-08-02 00:00","1997","08","02","00:00","","M","","M","","M","","M","","M","","M","","M","","","","","NA"
"1997-08-02 01:00","1997","08","02","01:00","","M","","M","","M","","M","","M","","M","","M","","","","","NA"
"1997-08-02 02:00","1997","08","02","02:00","","M","","M","","M","","M","","M","","M","","M","","","","","NA"
"1997-08-02 03:00","1997","08","02","03:00","","M","","M","","M","","M","","M","","M","","M","","","","","NA"
"1997-08-02 04:00","1997","08","02","04:00","","M","","M","","M","","M","","M","","M","","M","","","","","NA"
"1997-08-02 05:00","1997","08","02","05:00","22.8","","17.0","","70","","23","","11","","12.9","","100.12","","28","","","","Mostly Cloudy"
"1997-08-02 06:00","1997","08","02","06:00","22.5","","16.7","","70","","22","","9","","12.9","","100.12","","28","","","","Mainly Clear"
"1997-08-02 07:00","1997","08","02","07:00","23.3","","16.4","","65","","24","","9","","12.9","","100.15","","28","","","","Mostly Cloudy"
"1997-08-02 08:00","1997","08","02","08:00","23.4","","16.5","","65","","24","","13","","12.9","","100.18","","28","","","","Cloudy"
"1997-08-02 09:00","1997","08","02","09:00","23.5","","16.3","","64","","25","","19","","12.9","","100.15","","28","","","","Cloudy"
"1997-08-02 10:00","1997","08","02","10:00","23.4","","16.8","","66","","24","","9","","12.9","","100.15","","29","","","","Cloudy"
"1997-08-02 11:00","1997","08","02","11:00","24.5","","17.4","","65","","24","","19","","12.9","","100.15","","30","","","","Cloudy"
"1997-08-02 12:00","1997","08","02","12:00","27.8","","17.7","","54","","25","","28","","12.9","","100.15","","34","","","","Mainly Clear"
"1997-08-02 13:00","1997","08","02","13:00","28.7","","18.1","","53","","23","","19","","12.9","","100.08","","35","","","","Mainly Clear"
"1997-08-02 14:00","1997","08","02","14:00","28.0","","19.7","","61","","22","","15","","12.9","","100.05","","35","","","","Mainly Clear"
"1997-08-02 15:00","1997","08","02","15:00","28.9","","20.2","","59","","23","","17","","12.9","","100.02","","37","","","","Mainly Clear"
"1997-08-02 16:00","1997","08","02","16:00","28.8","","20.4","","61","","22","","22","","12.9","","99.98","","37","","","","Mainly Clear"
"1997-08-02 17:00","1997","08","02","17:00","28.2","","20.3","","62","","21","","20","","11.3","","99.95","","36","","","","Mainly Clear"
"1997-08-02 18:00","1997","08","02","18:00","27.3","","20.0","","64","","23","","20","","11.3","","99.95","","35","","","","Mainly Clear"
"1997-08-02 19:00","1997","08","02","19:00","26.1","","20.1","","70","","23","","17","","12.9","","99.95","","34","","","","Mainly Clear"
"1997-08-02 20:00","1997","08","02","20:00","24.8","","20.1","","75","","23","","17","","9.7","","99.98","","32","","","","Haze"
"1997-08-02 21:00","1997","08","02","21:00","24.2","","20.1","","78","","23","","13","","8.0","","99.98","","32","","","","Haze"
"1997-08-02 22:00","1997","08","02","22:00","","M","","M","","M","","M","","M","","M","","M","","","","","NA"
"1997-08-02 23:00","1997","08","02","23:00","","M","","M","","M","","M","","M","","M","","M","","","","","NA"
"1997-08-03 00:00","1997","08","03","00:00","","M","","M","","M","","M","","M","","M","","M","","","","","NA"
"1997-08-03 01:00","1997","08","03","01:00","","M","","M","","M","","M","","M","","M","","M","","","","","NA"
"1997-08-03 02:00","1997","08","03","02:00","","M","","M","","M","","M","","M","","M","","M","","","","","NA"
"1997-08-03 03:00","1997","08","03","03:00","","M","","M","","M","","M","","M","","M","","M","","","","","NA"
"1997-08-03 04:00","1997","08","03","04:00","","M","","M","","M","","M","","M","","M","","M","","","","","NA"
"1997-08-03 05:00","1997","08","03","05:00","20.6","","17.6","","83","","32","","19","","24.1","","100.12","","26","","","","Mainly Clear"
"1997-08-03 06:00","1997","08","03","06:00","20.4","","18.2","","87","","32","","7","","24.1","","100.22","","27","","","","Mostly Cloudy"
"1997-08-03 07:00","1997","08","03","07:00","20.7","","18.1","","85","","35","","6","","24.1","","100.25","","27","","","","Cloudy"
"1997-08-03 08:00","1997","08","03","08:00","21.5","","18.2","","81","","35","","9","","24.1","","100.32","","28","","","","Cloudy"
"1997-08-03 09:00","1997","08","03","09:00","21.3","","17.5","","79","","33","","7","","24.1","","100.32","","27","","","","Cloudy"
"1997-08-03 10:00","1997","08","03","10:00","22.3","","17.1","","72","","32","","11","","24.1","","100.35","","28","","","","Mostly Cloudy"
"1997-08-03 11:00","1997","08","03","11:00","22.2","","16.4","","70","","36","","11","","24.1","","100.39","","27","","","","Mostly Cloudy"
"1997-08-03 12:00","1997","08","03","12:00","22.7","","14.7","","61","","35","","19","","24.1","","100.39","","26","","","","Mostly Cloudy"
"1997-08-03 13:00","1997","08","03","13:00","23.4","","14.5","","57","","34","","11","","24.1","","100.39","","27","","","","Mostly Cloudy"
"1997-08-03 14:00","1997","08","03","14:00","24.2","","15.1","","57","","32","","9","","48.3","","100.39","","28","","","","Mostly Cloudy"
"1997-08-03 15:00","1997","08","03","15:00","24.6","","13.9","","51","","34","","9","","48.3","","100.32","","28","","","","Mostly Cloudy"
"1997-08-03 16:00","1997","08","03","16:00","24.5","","13.8","","51","","4","","7","","48.3","","100.29","","28","","","","Mostly Cloudy"
"1997-08-03 17:00","1997","08","03","17:00","24.0","","13.8","","53","","","","0","","48.3","","100.25","","27","","","","Mostly Cloudy"
"1997-08-03 18:00","1997","08","03","18:00","24.0","","14.6","","56","","","","0","","48.3","","100.25","","28","","","","Mostly Cloudy"
"1997-08-03 19:00","1997","08","03","19:00","23.1","","14.8","","60","","15","","4","","48.3","","100.22","","27","","","","Mostly Cloudy"
"1997-08-03 20:00","1997","08","03","20:00","22.9","","14.8","","60","","7","","4","","48.3","","100.22","","27","","","","Mostly Cloudy"
"1997-08-03 21:00","1997","08","03","21:00","22.2","","14.8","","63","","3","","4","","48.3","","100.29","","26","","","","Cloudy"
"1997-08-03 22:00","1997","08","03","22:00","","M","","M","","M","","M","","M","","M","","M","","","","","NA"
"1997-08-03 23:00","1997","08","03","23:00","","M","","M","","M","","M","","M","","M","","M","","","","","NA"
"1997-08-04 00:00","1997","08","04","00:00","","M","","M","","M","","M","","M","","M","","M","","","","","NA"
"1997-08-04 01:00","1997","08","04","01:00","","M","","M","","M","","M","","M","","M","","M","","","","","NA"
"1997-08-04 02:00","1997","08","04","02:00","","M","","M","","M","","M","","M","","M","","M","","","","","NA"
"1997-08-04 03:00","1997","08","04","03:00","","M","","M","","M","","M","","M","","M","","M","","","","","NA"
"1997-08-04 04:00","1997","08","04","04:00","","M","","M","","M","","M","","M","","M","","M","","","","","NA"
"1997-08-04 05:00","1997","08","04","05:00","18.2","","16.4","","89","","","","0","","24.1","","100.08","","","","","","Mostly Cloudy"
"1997-08-04 06:00","1997","08","04","06:00","17.9","","16.2","","90","","30","","9","","24.1","","100.08","","","","","","Mostly Cloudy"
"1997-08-04 07:00","1997","08","04","07:00","19.0","","15.5","","80","","31","","7","","24.1","","100.12","","","","","","Mostly Cloudy"
"1997-08-04 08:00","1997","08","04","08:00","19.6","","15.8","","79","","33","","6","","24.1","","100.08","","","","","","Mostly Cloudy"
"1997-08-04 09:00","1997","08","04","09:00","20.5","","15.8","","74","","34","","7","","24.1","","100.12","","25","","","","Cloudy"
"1997-08-04 10:00","1997","08","04","10:00","20.8","","14.9","","69","","35","","13","","24.1","","100.08","","25","","","","Mostly Cloudy"
"1997-08-04 11:00","1997","08","04","11:00","20.8","","13.5","","63","","36","","9","","24.1","","100.08","","","","","","Mostly Cloudy"
"1997-08-04 12:00","1997","08","04","12:00","21.3","","12.7","","58","","33","","6","","24.1","","100.08","","","","","","Mostly Cloudy"
"1997-08-04 13:00","1997","08","04","13:00","23.1","","10.3","","44","","1","","11","","24.1","","100.05","","25","","","","Cloudy"
"1997-08-04 14:00","1997","08","04","14:00","23.3","","9.6","","42","","32","","9","","48.3","","99.98","","","","","","Mostly Cloudy"
"1997-08-04 15:00","1997","08","04","15:00","24.2","","8.7","","37","","32","","4","","48.3","","99.95","","25","","","","Mostly Cloudy"
"1997-08-04 16:00","1997","08","04","16:00","24.7","","9.7","","39","","2","","6","","48.3","","99.95","","26","","","","Mostly Cloudy"
"1997-08-04 17:00","1997","08","04","17:00","23.9","","9.7","","41","","","","0","","48.3","","99.95","","25","","","","Mostly Cloudy"
"1997-08-04 18:00","1997","08","04","18:00","24.1","","10.5","","42","","33","","9","","48.3","","99.95","","26","","","","Mostly Cloudy"
"1997-08-04 19:00","1997","08","04","19:00","22.4","","10.8","","48","","33","","6","","48.3","","99.95","","","","","","Mainly Clear"
"1997-08-04 20:00","1997","08","04","20:00","20.8","","10.6","","52","","33","","9","","48.3","","100.02","","","","","","Mostly Cloudy"
"1997-08-04 21:00","1997","08","04","21:00","20.7","","10.9","","53","","34","","22","","48.3","","100.05","","","","","","Mainly Clear"
"1997-08-04 22:00","1997","08","04","22:00","","M","","M","","M","","M","","M","","M","","M","","","","","NA"
"1997-08-04 23:00","1997","08","04","23:00","","M","","M","","M","","M","","M","","M","","M","","","","","NA"
"1997-08-05 00:00","1997","08","05","00:00","","M","","M","","M","","M","","M","","M","","M","","","","","NA"
"1997-08-05 01:00","1997","08","05","01:00","","M","","M","","M","","M","","M","","M","","M","","","","","NA"
"1997-08-05 02:00","1997","08","05","02:00","","M","","M","","M","","M","","M","","M","","M","","","","","NA"
"1997-08-05 03:00","1997","08","05","03:00","","M","","M","","M","","M","","M","","M","","M","","","","","NA"
"1997-08-05 04:00","1997","08","05","04:00","","M","","M","","M","","M","","M","","M","","M","","","","","NA"
"1997-08-05 05:00","1997","08","05","05:00","17.4","","13.0","","75","","2","","13","","24.1","","100.22","","","","","","Mostly Cloudy"
"1997-08-05 06:00","1997","08","05","06:00","16.6","","13.0","","79","","36","","13","","24.1","","100.32","","","","","","Mainly Clear"
"1997-08-05 07:00","1997","08","05","07:00","17.2","","12.6","","74","","3","","15","","24.1","","100.35","","","","","","Mainly Clear"
"1997-08-05 08:00","1997","08","05","08:00","17.6","","12.7","","73","","3","","15","","24.1","","100.39","","","","","","Mostly Cloudy"
"1997-08-05 09:00","1997","08","05","09:00","19.2","","13.7","","70","","3","","13","","24.1","","100.42","","","","","","Mainly Clear"
"1997-08-05 10:00","1997","08","05","10:00","19.3","","12.1","","63","","3","","15","","24.1","","100.45","","","","","","Mainly Clear"
"1997-08-05 11:00","1997","08","05","11:00","20.0","","13.4","","66","","36","","15","","24.1","","100.49","","","","","","Mainly Clear"
"1997-08-05 12:00","1997","08","05","12:00","20.3","","12.0","","59","","1","","11","","24.1","","100.49","","","","","","Mainly Clear"
"1997-08-05 13:00","1997","08","05","13:00","21.0","","10.9","","52","","36","","9","","24.1","","100.45","","","","","","Mainly Clear"
"1997-08-05 14:00","1997","08","05","14:00","21.5","","10.4","","49","","32","","7","","24.1","","100.45","","","","","","Mainly Clear"
"1997-08-05 15:00","1997","08","05","15:00","21.8","","8.8","","43","","33","","13","","24.1","","100.42","","","","","","Mainly Clear"
"1997-08-05 16:00","1997","08","05","16:00","22.4","","9.4","","44","","34","","7","","24.1","","100.42","","","","","","Mainly Clear"
"1997-08-05 17:00","1997","08","05","17:00","22.2","","9.2","","43","","36","","9","","24.1","","100.42","","","","","","Mainly Clear"
"1997-08-05 18:00","1997","08","05","18:00","21.7","","9.8","","47","","34","","9","","24.1","","100.42","","","","","","Mainly Clear"
"1997-08-05 19:00","1997","08","05","19:00","20.0","","9.9","","52","","1","","11","","24.1","","100.45","","","","","","Mainly Clear"
"1997-08-05 20:00","1997","08","05","20:00","19.2","","9.9","","55","","35","","13","","24.1","","100.49","","","","","","Mainly Clear"
"1997-08-05 21:00","1997","08","05","21:00","18.5","","10.1","","58","","36","","15","","24.1","","100.52","","","","","","Mainly Clear"
"1997-08-05 22:00","1997","08","05","22:00","","M","","M","","M","","M","","M","","M","","M","","","","","NA"
"1997-08-05 23:00","1997","08","05","23:00","","M","","M","","M","","M","","M","","M","","M","","","","","NA"
"1997-08-06 00:00","1997","08","06","00:00","","M","","M","","M","","M","","M","","M","","M","","","","","NA"
"1997-08-06 01:00","1997","08","06","01:00","","M","","M","","M","","M","","M","","M","","M","","","","","NA"
"1997-08-06 02:00","1997","08","06","02:00","","M","","M","","M","","M","","M","","M","","M","","","","","NA"
"1997-08-06 03:00","1997","08","06","03:00","","M","","M","","M","","M","","M","","M","","M","","","","","NA"
"1997-08-06 04:00","1997","08","06","04:00","","M","","M","","M","","M","","M","","M","","M","","","","","NA"
"1997-08-06 05:00","1997","08","06","05:00","12.0","","10.4","","90","","","","0","","24.1","","100.69","","","","","","Mainly Clear"
"1997-08-06 06:00","1997","08","06","06:00","13.1","","10.9","","86","","","","0","","24.1","","100.76","","","","","","Mostly Cloudy"
"1997-08-06 07:00","1997","08","06","07:00","16.6","","12.7","","78","","","","0","","24.1","","100.76","","","","","","Mostly Cloudy"
"1997-08-06 08:00","1997","08","06","08:00","18.2","","11.4","","64","","4","","6","","24.1","","100.79","","","","","","Mostly Cloudy"
"1997-08-06 09:00","1997","08","06","09:00","18.9","","11.3","","61","","2","","11","","24.1","","100.79","","","","","","Mostly Cloudy"
"1997-08-06 10:00","1997","08","06","10:00","19.2","","12.2","","64","","31","","9","","24.1","","100.86","","","","","","Mostly Cloudy"
"1997-08-06 11:00","1997","08","06","11:00","20.3","","9.7","","51","","33","","11","","24.1","","100.86","","","","","","Mostly Cloudy"
"1997-08-06 12:00","1997","08","06","12:00","20.7","","7.0","","41","","36","","6","","24.1","","100.86","","","","","","Mostly Cloudy"
"1997-08-06 13:00","1997","08","06","13:00","21.7","","3.6","","30","","31","","7","","24.1","","100.82","","","","","","Mostly Cloudy"
"1997-08-06 14:00","1997","08","06","14:00","22.2","","5.0","","33","","","","0","","24.1","","100.86","","","","","","Mostly Cloudy"
"1997-08-06 15:00","1997","08","06","15:00","22.1","","4.9","","33","","30","","7","","24.1","","100.79","","","","","","Mainly Clear"
"1997-08-06 16:00","1997","08","06","16:00","22.7","","5.2","","32","","35","","6","","24.1","","100.79","","","","","","Mainly Clear"
"1997-08-06 17:00","1997","08","06","17:00"
"1997-08-06 18:00","1997","08","06","18:00","23.1","","6.1","","33","","","","0","","24.1","","100.76","","","","","","Mainly Clear"
"1997-08-06 19:00","1997","08","06","19:00","21.1","","9.1","","46","","23","","15","","24.1","","100.79","","","","","","Mainly Clear"
"1997-08-06 20:00","1997","08","06","20:00","19.4","","10.3","","56","","23","","13","","24.1","","100.82","","","","","","Mainly Clear"
"1997-08-06 21:00","1997","08","06","21:00","18.5","","10.6","","60","","23","","19","","24.1","","100.89","","","","","","Mainly Clear"
"1997-08-06 22:00","1997","08","06","22:00","","M","","M","","M","","M","","M","","M","","M","","","","","NA"
"1997-08-06 23:00","1997","08","06","23:00","","M","","M","","M","","M","","M","","M","","M","","","","","NA"
"1997-08-07 00:00","1997","08","07","00:00","","M","","M","","M","","M","","M","","M","","M","","","","","NA"
"1997-08-07 01:00","1997","08","07","01:00","","M","","M","","M","","M","","M","","M","","M","","","","","NA"
"1997-08-07 02:00","1997","08","07","02:00","","M","","M","","M","","M","","M","","M","","M","","","","","NA"
"1997-08-07 03:00","1997","08","07","03:00","","M","","M","","M","","M","","M","","M","","M","","","","","NA"
"1997-08-07 04:00","1997","08","07","04:00","","M","","M","","M","","M","","M","","M","","M","","","","","NA"
"1997-08-07 05:00","1997","08","07","05:00","12.8","","9.7","","81","","20","","4","","24.1","","100.99","","","","","","Mainly Clear"
"1997-08-07 06:00","1997","08","07","06:00","13.5","","10.6","","83","","21","","9","","24.1","","101.06","","","","","","Clear"
"1997-08-07 07:00","1997","08","07","07:00","17.5","","11.4","","67","","23","","7","","24.1","","101.06","","","","","","Clear"
"1997-08-07 08:00","1997","08","07","08:00","19.6","","12.0","","61","","22","","11","","24.1","","101.09","","","","","","Mainly Clear"
"1997-08-07 09:00","1997","08","07","09:00","22.1","","12.4","","54","","27","","9","","24.1","","101.09","","25","","","","Mainly Clear"
"1997-08-07 10:00","1997","08","07","10:00","23.8","","10.9","","44","","24","","13","","24.1","","101.12","","26","","","","Mainly Clear"
"1997-08-07 11:00","1997","08","07","11:00","25.9","","11.8","","41","","25","","15","","24.1","","101.09","","28","","","","Mainly Clear"
"1997-08-07 12:00","1997","08","07","12:00","25.0","","10.9","","41","","22","","9","","24.1","","101.09","","27","","","","Mainly Clear"
"1997-08-07 13:00","1997","08","07","13:00","25.4","","13.1","","46","","26","","19","","24.1","","101.02","","28","","","","Mainly Clear"
"1997-08-07 14:00","1997","08","07","14:00","26.5","","11.6","","39","","29","","19","","24.1","","100.99","","29","","","","Mainly Clear"
"1997-08-07 15:00","1997","08","07","15:00","26.5","","15.0","","49","","29","","19","","24.1","","100.96","","30","","","","Mainly Clear"
"1997-08-07 16:00","1997","08","07","16:00","26.6","","14.0","","46","","23","","19","","24.1","","100.92","","30","","","","Mainly Clear"
"1997-08-07 17:00","1997","08","07","17:00","25.8","","13.6","","47","","22","","22","","24.1","","100.92","","29","","","","Mainly Clear"
"1997-08-07 18:00","1997","08","07","18:00","24.9","","13.7","","50","","23","","19","","24.1","","100.92","","28","","","","Mainly Clear"
"1997-08-07 19:00","1997","08","07","19:00","23.3","","12.0","","49","","22","","22","","24.1","","100.92","","26","","","","Mainly Clear"
"1997-08-07 20:00","1997","08","07","20:00","21.9","","14.0","","61","","23","","13","","24.1","","100.92","","25","","","","Mainly Clear"
"1997-08-07 21:00","1997","08","07","21:00","21.3","","15.6","","70","","23","","19","","24.1","","100.99","","26","","","","Mainly Clear"
"1997-08-07 22:00","1997","08","07","22:00","","M","","M","","M","","M","","M","","M","","M","","","","","NA"
"1997-08-07 23:00","1997","08","07","23:00","","M","","M","","M","","M","","M","","M","","M","","","","","NA"
"1997-08-08 00:00","1997","08","08","00:00","","M","","M","","M","","M","","M","","M","","M","","","","","NA"
"1997-08-08 01:00","1997","08","08","01:00","","M","","M","","M","","M","","M","","M","","M","","","","","NA"
"1997-08-08 02:00","1997","08","08","02:00","","M","","M","","M","","M","","M","","M","","M","","","","","NA"
"1997-08-08 03:00","1997","08","08","03:00","","M","","M","","M","","M","","M","","M","","M","","","","","NA"
"1997-08-08 04:00","1997","08","08","04:00","","M","","M","","M","","M","","M","","M","","M","","","","","NA"
"1997-08-08 05:00","1997","08","08","05:00","16.4","","15.5","","94","","21","","6","","24.1","","101.09","","","","","","Clear"
"1997-08-08 06:00","1997","08","08","06:00","17.5","","16.4","","93","","19","","6","","16.1","","101.09","","","","","","Clear"
"1997-08-08 07:00","1997","08","08","07:00","20.4","","17.3","","82","","21","","7","","16.1","","101.16","","26","","","","Clear"
"1997-08-08 08:00","1997","08","08","08:00","22.5","","17.4","","73","","24","","13","","19.3","","101.16","","28","","","","Clear"
"1997-08-08 09:00","1997","08","08","09:00","24.2","","17.2","","65","","24","","9","","24.1","","101.16","","30","","","","Clear"
"1997-08-08 10:00","1997","08","08","10:00","25.2","","16.4","","58","","28","","11","","24.1","","101.12","","30","","","","Mainly Clear"
"1997-08-08 11:00","1997","08","08","11:00","26.0","","15.4","","52","","28","","19","","24.1","","101.12","","30","","","","Mainly Clear"
"1997-08-08 12:00","1997","08","08","12:00","27.2","","15.3","","48","","32","","13","","24.1","","101.09","","31","","","","Mainly Clear"
"1997-08-08 13:00","1997","08","08","13:00","27.6","","14.6","","45","","31","","17","","24.1","","101.02","","31","","","","Mainly Clear"
"1997-08-08 14:00","1997","08","08","14:00","27.5","","15.4","","48","","28","","9","","24.1","","100.99","","32","","","","Mainly Clear"
"1997-08-08 15:00","1997","08","08","15:00","27.7","","15.3","","47","","23","","6","","24.1","","100.92","","32","","","","Mainly Clear"
"1997-08-08 16:00","1997","08","08","16:00","27.6","","14.6","","45","","23","","7","","24.1","","100.89","","31","","","","Mainly Clear"
"1997-08-08 17:00","1997","08","08","17:00","27.1","","13.6","","43","","21","","11","","24.1","","100.89","","30","","","","Mainly Clear"
"1997-08-08 18:00","1997","08","08","18:00","26.3","","12.0","","41","","23","","15","","24.1","","100.89","","29","","","","Mainly Clear"
"1997-08-08 19:00","1997","08","08","19:00","24.4","","11.9","","46","","21","","7","","24.1","","100.89","","27","","","","Mainly Clear"
"1997-08-08 20:00","1997","08","08","20:00","21.4","","12.3","","56","","21","","7","","24.1","","100.89","","","","","","Mainly Clear"
"1997-08-08 21:00","1997","08","08","21:00","19.1","","13.4","","70","","","","0","","24.1","","100.89","","","","","","Mainly Clear"
"1997-08-08 22:00","1997","08","08","22:00","","M","","M","","M","","M","","M","","M","","M","","","","","NA"
"1997-08-08 23:00","1997","08","08","23:00","","M","","M","","M","","M","","M","","M","","M","","","","","NA"
"1997-08-09 00:00","1997","08","09","00:00","","M","","M","","M","","M","","M","","M","","M","","","","","NA"
"1997-08-09 01:00","1997","08","09","01:00","","M","","M","","M","","M","","M","","M","","M","","","","","NA"
"1997-08-09 02:00","1997","08","09","02:00","","M","","M","","M","","M","","M","","M","","M","","","","","NA"
"1997-08-09 03:00","1997","08","09","03:00","","M","","M","","M","","M","","M","","M","","M","","","","","NA"
"1997-08-09 04:00","1997","08","09","04:00","","M","","M","","M","","M","","M","","M","","M","","","","","NA"
"1997-08-09 05:00","1997","08","09","05:00","14.9","","14.5","","97","","","","0","","12.9","","100.89","","","","","","Clear"
"1997-08-09 06:00","1997","08","09","06:00","14.5","","14.0","","97","","","","0","","16.1","","100.96","","","","","","Clear"
"1997-08-09 07:00","1997","08","09","07:00","19.0","","16.5","","85","","","","0","","16.1","","100.96","","","","","","Clear"
"1997-08-09 08:00","1997","08","09","08:00","22.5","","15.4","","64","","20","","7","","19.3","","100.96","","27","","","","Clear"
"1997-08-09 09:00","1997","08","09","09:00","25.0","","15.7","","56","","17","","9","","24.1","","100.99","","29","","","","Clear"
"1997-08-09 10:00","1997","08","09","10:00","26.1","","15.2","","51","","24","","6","","24.1","","100.96","","30","","","","Clear"
"1997-08-09 11:00","1997","08","09","11:00","28.4","","14.5","","43","","","","0","","24.1","","100.92","","32","","","","Clear"
"1997-08-09 12:00","1997","08","09","12:00","27.2","","16.8","","53","","2","","19","","24.1","","100.86","","32","","","","Clear"
"1997-08-09 13:00","1997","08","09","13:00","28.5","","14.2","","42","","2","","9","","24.1","","100.82","","32","","","","Clear"
"1997-08-09 14:00","1997","08","09","14:00","30.7","","9.7","","27","","21","","20","","24.1","","100.79","","32","","","","Clear"
"1997-08-09 15:00","1997","08","09","15:00","30.1","","9.3","","27","","23","","13","","24.1","","100.72","","31","","","","Clear"
"1997-08-09 16:00","1997","08","09","16:00","30.4","","11.6","","31","","23","","13","","19.3","","100.69","","32","","","","Clear"
"1997-08-09 17:00","1997","08","09","17:00","29.7","","12.8","","35","","24","","15","","16.1","","100.65","","32","","","","Clear"
"1997-08-09 18:00","1997","08","09","18:00","28.7","","12.6","","37","","22","","11","","16.1","","100.62","","31","","","","Clear"
"1997-08-09 19:00","1997","08","09","19:00","26.6","","12.3","","41","","21","","9","","16.1","","100.62","","29","","","","Clear"
"1997-08-09 20:00","1997","08","09","20:00","24.2","","13.4","","51","","19","","7","","16.1","","100.62","","27","","","","Mainly Clear"
"1997-08-09 21:00","1997","08","09","21:00","22.2","","12.7","","55","","17","","6","","16.1","","100.72","","25","","","","Mainly Clear"
"1997-08-09 22:00","1997","08","09","22:00","","M","","M","","M","","M","","M","","M","","M","","","","","NA"
"1997-08-09 23:00","1997","08","09","23:00","","M","","M","","M","","M","","M","","M","","M","","","","","NA"
"1997-08-10 00:00","1997","08","10","00:00","","M","","M","","M","","M","","M","","M","","M","","","","","NA"
"1997-08-10 01:00","1997","08","10","01:00","","M","","M","","M","","M","","M","","M","","M","","","","","NA"
"1997-08-10 02:00","1997","08","10","02:00","","M","","M","","M","","M","","M","","M","","M","","","","","NA"
"1997-08-10 03:00","1997","08","10","03:00","","M","","M","","M","","M","","M","","M","","M","","","","","NA"
"1997-08-10 04:00","1997","08","10","04:00","","M","","M","","M","","M","","M","","M","","M","","","","","NA"
"1997-08-10 05:00","1997","08","10","05:00","19.0","","17.0","","88","","18","","4","","4.8","","100.59","","","","","","Fog"
"1997-08-10 06:00","1997","08","10","06:00","19.8","","17.6","","87","","18","","9","","6.4","","100.65","","","","","","Haze"
"1997-08-10 07:00","1997","08","10","07:00","22.6","","14.5","","60","","21","","9","","6.4","","100.69","","26","","","","Haze"
"1997-08-10 08:00","1997","08","10","08:00","24.8","","19.9","","74","","23","","15","","6.4","","100.76","","32","","","","Haze"
"1997-08-10 09:00","1997","08","10","09:00","26.0","","19.6","","68","","24","","17","","6.4","","100.76","","33","","","","Haze"
"1997-08-10 10:00","1997","08","10","10:00","27.1","","19.6","","64","","21","","19","","6.4","","100.72","","34","","","","Haze"
"1997-08-10 11:00","1997","08","10","11:00","27.6","","19.1","","60","","23","","19","","8.0","","100.69","","34","","","","Haze"
"1997-08-10 12:00","1997","08","10","12:00","28.8","","18.0","","52","","22","","28","","9.7","","100.69","","35","","","","Haze"
"1997-08-10 13:00","1997","08","10","13:00","29.1","","16.8","","47","","23","","26","","12.9","","100.65","","34","","","","Mainly Clear"
"1997-08-10 14:00","1997","08","10","14:00","28.4","","16.5","","48","","22","","26","","12.9","","100.62","","33","","","","Mostly Cloudy"
"1997-08-10 15:00","1997","08","10","15:00","29.1","","16.6","","47","","22","","20","","12.9","","100.59","","34","","","","Mostly Cloudy"
"1997-08-10 16:00","1997","08","10","16:00","28.8","","16.9","","49","","22","","26","","12.9","","100.55","","34","","","","Mostly Cloudy"
"1997-08-10 17:00","1997","08","10","17:00","28.6","","17.3","","50","","23","","15","","12.9","","100.55","","34","","","","Mostly Cloudy"
"1997-08-10 18:00","1997","08","10","18:00","27.7","","17.2","","53","","21","","17","","16.1","","100.49","","33","","","","Mostly Cloudy"
"1997-08-10 19:00","1997","08","10","19:00","26.9","","17.4","","56","","22","","13","","16.1","","100.49","","32","","","","Mostly Cloudy"
"1997-08-10 20:00","1997","08","10","20:00","25.6","","17.8","","62","","20","","7","","16.1","","100.52","","31","","","","Mostly Cloudy"
"1997-08-10 21:00","1997","08","10","21:00","23.9","","18.8","","73","","20","","9","","16.1","","100.55","","31","","","","Mostly Cloudy"
"1997-08-10 22:00","1997","08","10","22:00","","M","","M","","M","","M","","M","","M","","M","","","","","NA"
"1997-08-10 23:00","1997","08","10","23:00","","M","","M","","M","","M","","M","","M","","M","","","","","NA"
"1997-08-11 00:00","1997","08","11","00:00","","M","","M","","M","","M","","M","","M","","M","","","","","NA"
"1997-08-11 01:00","1997","08","11","01:00","","M","","M","","M","","M","","M","","M","","M","","","","","NA"
"1997-08-11 02:00","1997","08","11","02:00","","M","","M","","M","","M","","M","","M","","M","","","","","NA"
"1997-08-11 03:00","1997","08","11","03:00","","M","","M","","M","","M","","M","","M","","M","","","","","NA"
"1997-08-11 04:00","1997","08","11","04:00","","M","","M","","M","","M","","M","","M","","M","","","","","NA"
"1997-08-11 05:00","1997","08","11","05:00","22.0","","19.3","","85","","26","","7","","11.3","","100.59","","29","","","","Cloudy"
"1997-08-11 06:00","1997","08","11","06:00","20.1","","16.9","","82","","7","","9","","24.1","","100.69","","25","","","","Cloudy"
"1997-08-11 07:00","1997","08","11","07:00","19.7","","15.9","","79","","32","","9","","24.1","","100.76","","","","","","Cloudy"
"1997-08-11 08:00","1997","08","11","08:00","19.8","","15.0","","74","","34","","9","","24.1","","100.79","","","","","","Cloudy"
"1997-08-11 09:00","1997","08","11","09:00","20.0","","14.4","","70","","34","","9","","24.1","","100.82","","","","","","Cloudy"
"1997-08-11 10:00","1997","08","11","10:00","20.4","","13.2","","63","","33","","9","","24.1","","100.79","","","","","","Cloudy"
"1997-08-11 11:00","1997","08","11","11:00","21.5","","13.6","","61","","29","","9","","24.1","","100.86","","25","","","","Cloudy"
"1997-08-11 12:00","1997","08","11","12:00","20.7","","14.2","","66","","31","","7","","24.1","","100.86","","","","","","Cloudy"
"1997-08-11 13:00","1997","08","11","13:00"
"1997-08-11 14:00","1997","08","11","14:00","20.4","","13.7","","65","","32","","9","","40.2","","100.92","","","","","","Cloudy"
"1997-08-11 15:00","1997","08","11","15:00","20.6","","14.0","","66","","32","","9","","40.2","","100.92","","","","","","Cloudy"
"1997-08-11 16:00","1997","08","11","16:00","18.6","","16.3","","86","","27","","4","","12.9","","100.99","","","","","","Rain Showers"
"1997-08-11 17:00","1997","08","11","17:00","18.0","","16.2","","89","","28","","6","","19.3","","100.99","","","","","","Rain Showers"
"1997-08-11 18:00","1997","08","11","18:00","17.8","","16.6","","93","","28","","7","","24.1","","100.99","","","","","","Rain Showers"
"1997-08-11 19:00","1997","08","11","19:00","17.8","","16.6","","93","","26","","6","","24.1","","101.02","","","","","","Mostly Cloudy"
"1997-08-11 20:00","1997","08","11","20:00","16.9","","16.1","","95","","24","","4","","24.1","","101.06","","","","","","Mostly Cloudy"
"1997-08-11 21:00","1997","08","11","21:00","16.8","","16.1","","96","","22","","7","","24.1","","101.09","","","","","","Mostly Cloudy"
"1997-08-11 22:00","1997","08","11","22:00","","M","","M","","M","","M","","M","","M","","M","","","","","NA"
"1997-08-11 23:00","1997","08","11","23:00","","M","","M","","M","","M","","M","","M","","M","","","","","NA"
"1997-08-12 00:00","1997","08","12","00:00","","M","","M","","M","","M","","M","","M","","M","","","","","NA"
"1997-08-12 01:00","1997","08","12","01:00","","M","","M","","M","","M","","M","","M","","M","","","","","NA"
"1997-08-12 02:00","1997","08","12","02:00","","M","","M","","M","","M","","M","","M","","M","","","","","NA"
"1997-08-12 03:00","1997","08","12","03:00","","M","","M","","M","","M","","M","","M","","M","","","","","NA"
"1997-08-12 04:00","1997","08","12","04:00","","M","","M","","M","","M","","M","","M","","M","","","","","NA"
"1997-08-12 05:00","1997","08","12","05:00","14.2","","14.2","","100","","10","","6","","24.1","","101.09","","","","","","Mainly Clear"
"1997-08-12 06:00","1997","08","12","06:00","14.9","","14.9","","100","","10","","4","","24.1","","101.12","","","","","","Mostly Cloudy"
"1997-08-12 07:00","1997","08","12","07:00","16.4","","15.9","","97","","11","","4","","24.1","","101.12","","","","","","Mostly Cloudy"
"1997-08-12 08:00","1997","08","12","08:00","18.0","","14.7","","81","","11","","20","","24.1","","101.06","","","","","","Mostly Cloudy"
"1997-08-12 09:00","1997","08","12","09:00","19.3","","15.4","","78","","9","","11","","24.1","","101.09","","","","","","Mostly Cloudy"
"1997-08-12 10:00","1997","08","12","10:00","20.2","","14.8","","71","","13","","15","","24.1","","101.06","","","","","","Mostly Cloudy"
"1997-08-12 11:00","1997","08","12","11:00","22.4","","15.2","","64","","15","","9","","24.1","","100.99","","26","","","","Mostly Cloudy"
"1997-08-12 12:00","1997","08","12","12:00","22.7","","14.9","","61","","10","","13","","24.1","","100.92","","27","","","","Mostly Cloudy"
"1997-08-12 13:00","1997","08","12","13:00","23.8","","14.7","","57","","14","","9","E","24.1","","100.82","","28","","","","Mostly Cloudy"
"1997-08-12 14:00","1997","08","12","14:00","23.2","","16.8","","67","","3","","22","","40.2","","100.72","","28","","","","Mostly Cloudy"
"1997-08-12 15:00","1997","08","12","15:00","24.0","","16.9","","65","","4","","19","","40.2","","100.62","","29","","","","Mostly Cloudy"
"1997-08-12 16:00","1997","08","12","16:00","22.2","","16.9","","72","","4","","15","","40.2","","100.62","","27","","","","Mostly Cloudy"
"1997-08-12 17:00","1997","08","12","17:00","21.9","","17.0","","74","","5","","19","","24.1","","100.59","","27","","","","Cloudy"
"1997-08-12 18:00","1997","08","12","18:00","21.8","","17.0","","74","","7","","9","","24.1","","100.49","","27","","","","Mostly Cloudy"
"1997-08-12 19:00","1997","08","12","19:00","21.9","","17.0","","74","","9","","9","","24.1","","100.42","","27","","","","Mostly Cloudy"
"1997-08-12 20:00","1997","08","12","20:00","20.9","","16.7","","77","","9","","19","","40.2","","100.35","","26","","","","Mostly Cloudy"
"1997-08-12 21:00","1997","08","12","21:00","20.5","","16.6","","78","","9","","9","","40.2","","100.32","","26","","","","Cloudy"
"1997-08-12 22:00","1997","08","12","22:00","","M","","M","","M","","M","","M","","M","","M","","","","","NA"
"1997-08-12 23:00","1997","08","12","23:00","","M","","M","","M","","M","","M","","M","","M","","","","","NA"
"1997-08-13 00:00","1997","08","13","00:00","","M","","M","","M","","M","","M","","M","","M","","","","","NA"
"1997-08-13 01:00","1997","08","13","01:00","","M","","M","","M","","M","","M","","M","","M","","","","","NA"
"1997-08-13 02:00","1997","08","13","02:00","","M","","M","","M","","M","","M","","M","","M","","","","","NA"
"1997-08-13 03:00","1997","08","13","03:00","","M","","M","","M","","M","","M","","M","","M","","","","","NA"
"1997-08-13 04:00","1997","08","13","04:00","","M","","M","","M","","M","","M","","M","","M","","","","","NA"
"1997-08-13 05:00","1997","08","13","05:00","22.4","","21.6","","95","","21","","13","","6.4","","99.61","","31","","","","Fog"
"1997-08-13 06:00","1997","08","13","06:00","22.5","","21.7","","95","","24","","9","","4.8","","99.61","","32","","","","Fog"
"1997-08-13 07:00","1997","08","13","07:00","21.8","","21.1","","96","","3","","9","","3.2","","99.65","","30","","","","Fog"
"1997-08-13 08:00","1997","08","13","08:00","21.6","","20.4","","93","","28","","22","","6.4","","99.72","","30","","","","Fog"
"1997-08-13 09:00","1997","08","13","09:00","21.6","","19.8","","90","","27","","9","","6.4","","99.75","","29","","","","Fog"
"1997-08-13 10:00","1997","08","13","10:00","22.2","","19.3","","84","","29","","15","","11.3","","99.78","","29","","","","Cloudy"
"1997-08-13 11:00","1997","08","13","11:00","22.8","","18.9","","79","","28","","19","","12.9","","99.82","","29","","","","Cloudy"
"1997-08-13 12:00","1997","08","13","12:00","22.2","","18.9","","82","","33","","9","","24.1","","99.82","","29","","","","Cloudy"
"1997-08-13 13:00","1997","08","13","13:00","21.7","","18.3","","81","","33","","9","","24.1","","99.92","","28","","","","Cloudy"
"1997-08-13 14:00","1997","08","13","14:00","21.5","","18.0","","80","","33","","11","","24.1","","99.88","","28","","","","Cloudy"
"1997-08-13 15:00","1997","08","13","15:00","21.0","","17.5","","80","","32","","17","","24.1","","99.92","","27","","","","Cloudy"
"1997-08-13 16:00","1997","08","13","16:00","20.1","","17.1","","83","","31","","19","","24.1","","99.98","","25","","","","Mostly Cloudy"
"1997-08-13 17:00","1997","08","13","17:00","20.4","","16.7","","79","","32","","13","","24.1","","100.02","","25","","","","Mostly Cloudy"
"1997-08-13 18:00","1997","08","13","18:00","21.1","","16.1","","73","","31","","7","","24.1","","100.05","","26","","","","Mainly Clear"
"1997-08-13 19:00","1997","08","13","19:00","19.9","","16.1","","79","","32","","4","","40.2","","100.08","","","","","","Mainly Clear"
"1997-08-13 20:00","1997","08","13","20:00","17.8","","16.0","","89","","","","0","","40.2","","100.12","","","","","","Mainly Clear"
"1997-08-13 21:00","1997","08","13","21:00","18.9","","16.0","","83","","28","","4","","40.2","","100.18","","","","","","Mainly Clear"
"1997-08-13 22:00","1997","08","13","22:00","","M","","M","","M","","M","","M","","M","","M","","","","","NA"
"1997-08-13 23:00","1997","08","13","23:00","","M","","M","","M","","M","","M","","M","","M","","","","","NA"
"1997-08-14 00:00","1997","08","14","00:00","","M","","M","","M","","M","","M","","M","","M","","","","","NA"
"1997-08-14 01:00","1997","08","14","01:00","","M","","M","","M","","M","","M","","M","","M","","","","","NA"
"1997-08-14 02:00","1997","08","14","02:00","","M","","M","","M","","M","","M","","M","","M","","","","","NA"
"1997-08-14 03:00","1997","08","14","03:00","","M","","M","","M","","M","","M","","M","","M","","","","","NA"
"1997-08-14 04:00","1997","08","14","04:00","","M","","M","","M","","M","","M","","M","","M","","","","","NA"
"1997-08-14 05:00","1997","08","14","05:00","13.3","","9.6","","78","","30","","9","","24.1","","100.32","","","","","","Mainly Clear"
"1997-08-14 06:00","1997","08","14","06:00","10.9","","9.6","","92","","25","","4","","24.1","","100.35","","","","","","Mostly Cloudy"
"1997-08-14 07:00","1997","08","14","07:00","15.5","","10.0","","70","","32","","19","","40.2","","100.42","","","","","","Mainly Clear"
"1997-08-14 08:00","1997","08","14","08:00","16.4","","9.9","","65","","30","","9","","40.2","","100.42","","","","","","Clear"
"1997-08-14 09:00","1997","08","14","09:00","16.8","","9.5","","62","","33","","9","","40.2","","100.42","","","","","","Mainly Clear"
"1997-08-14 10:00","1997","08","14","10:00","17.6","","8.5","","55","","30","","9","","40.2","","100.49","","","","","","Mainly Clear"
"1997-08-14 11:00","1997","08","14","11:00","19.4","","7.3","","45","","30","","9","","40.2","","100.49","","","","","","Mainly Clear"
"1997-08-14 12:00","1997","08","14","12:00","20.0","","6.8","","42","","27","","19","","40.2","","100.42","","","","","","Mostly Cloudy"
"1997-08-14 13:00","1997","08","14","13:00","21.8","","7.8","","41","","30","","9","","40.2","","100.35","","","","","","Mostly Cloudy"
"1997-08-14 14:00","1997","08","14","14:00","22.4","","6.7","","36","","29","","15","","24.1","","100.32","","","","","","Mostly Cloudy"
"1997-08-14 15:00","1997","08","14","15:00","22.6","","6.5","","35","","29","","9","","24.1","","100.29","","","","","","Mostly Cloudy"
"1997-08-14 16:00","1997","08","14","16:00","22.2","","5.7","","34","","29","","7","","24.1","","100.29","","","","","","Mostly Cloudy"
"1997-08-14 17:00","1997","08","14","17:00","23.1","","5.4","","32","","30","","15","","24.1","","100.29","","","","","","Mostly Cloudy"
"1997-08-14 18:00","1997","08","14","18:00","22.0","","6.1","","36","","30","","7","","24.1","","100.22","","","","","","Mostly Cloudy"
"1997-08-14 19:00","1997","08","14","19:00","20.4","","10.6","","53","","22","","9","","24.1","","100.22","","","","","","Mostly Cloudy"
"1997-08-14 20:00","1997","08","14","20:00","17.8","","10.2","","61","","22","","4","","24.1","","100.22","","","","","","Mainly Clear"
"1997-08-14 21:00","1997","08","14","21:00","16.1","","10.5","","69","","","","0","","24.1","","100.22","","","","","","Mainly Clear"
"1997-08-14 22:00","1997","08","14","22:00","","M","","M","","M","","M","","M","","M","","M","","","","","NA"
"1997-08-14 23:00","1997","08","14","23:00","","M","","M","","M","","M","","M","","M","","M","","","","","NA"
"1997-08-15 00:00","1997","08","15","00:00","","M","","M","","M","","M","","M","","M","","M","","","","","NA"
"1997-08-15 01:00","1997","08","15","01:00","","M","","M","","M","","M","","M","","M","","M","","","","","NA"
"1997-08-15 02:00","1997","08","15","02:00","","M","","M","","M","","M","","M","","M","","M","","","","","NA"
"1997-08-15 03:00","1997","08","15","03:00","","M","","M","","M","","M","","M","","M","","M","","","","","NA"
"1997-08-15 04:00","1997","08","15","04:00","","M","","M","","M","","M","","M","","M","","M","","","","","NA"
"1997-08-15 05:00","1997","08","15","05:00","14.0","","12.6","","91","","","","0","","24.1","","99.95","","","","","","Mostly Cloudy"
"1997-08-15 06:00","1997","08","15","06:00","14.5","","12.1","","86","","","","0","","24.1","","99.92","","","","","","Mostly Cloudy"
"1997-08-15 07:00","1997","08","15","07:00","18.9","","13.6","","71","","18","","6","","24.1","","99.95","","","","","","Cloudy"
"1997-08-15 08:00","1997","08","15","08:00","20.3","","14.5","","69","","19","","9","","24.1","","99.92","","","","","","Cloudy"
"1997-08-15 09:00","1997","08","15","09:00","21.8","","15.4","","67","","18","","19","","24.1","","99.82","","26","","","","Cloudy"
"1997-08-15 10:00","1997","08","15","10:00","22.5","","15.4","","64","","17","","19","","24.1","","99.78","","27","","","","Cloudy"
"1997-08-15 11:00","1997","08","15","11:00","23.6","","15.0","","59","","17","","19","","24.1","","99.68","","28","","","","Cloudy"
"1997-08-15 12:00","1997","08","15","12:00","25.9","","15.2","","52","","18","","19","","16.1","","99.55","","30","","","","Mostly Cloudy"
"1997-08-15 13:00","1997","08","15","13:00","25.2","","15.4","","55","","18","","22","","16.1","","99.45","","29","","","","Cloudy"
"1997-08-15 14:00","1997","08","15","14:00","24.4","","15.7","","58","","17","","26","","19.3","","99.35","","29","","","","Cloudy"
"1997-08-15 15:00","1997","08","15","15:00","22.0","","18.0","","78","","17","","19","","11.3","","99.21","","28","","","","Cloudy"
"1997-08-15 16:00","1997","08","15","16:00","21.5","","18.5","","83","","18","","20","","6.4","","99.18","","28","","","","Rain Showers,Fog"
"1997-08-15 17:00","1997","08","15","17:00","22.2","","19.8","","86","","19","","28","","11.3","","99.11","","30","","","","Rain Showers"
"1997-08-15 18:00","1997","08","15","18:00","23.6","","20.4","","82","","20","","33","","12.9","","99.04","","32","","","","Mainly Clear"
"1997-08-15 19:00","1997","08","15","19:00","24.1","","20.5","","80","","20","","32","","16.1","","99.04","","32","","","","Mainly Clear"
"1997-08-15 20:00","1997","08","15","20:00","24.5","","20.6","","79","","21","","22","","12.9","","99.11","","33","","","","Mostly Cloudy"
"1997-08-15 21:00","1997","08","15","21:00","23.4","","21.4","","89","","24","","20","","6.4","","99.15","","32","","","","Thunderstorms,Rain Showers,Fog"
"1997-08-15 22:00","1997","08","15","22:00","","M","","M","","M","","M","","M","","M","","M","","","","","NA"
"1997-08-15 23:00","1997","08","15","23:00","","M","","M","","M","","M","","M","","M","","M","","","","","NA"
"1997-08-16 00:00","1997","08","16","00:00","","M","","M","","M","","M","","M","","M","","M","","","","","NA"
"1997-08-16 01:00","1997","08","16","01:00","","M","","M","","M","","M","","M","","M","","M","","","","","NA"
"1997-08-16 02:00","1997","08","16","02:00","","M","","M","","M","","M","","M","","M","","M","","","","","NA"
"1997-08-16 03:00","1997","08","16","03:00","","M","","M","","M","","M","","M","","M","","M","","","","","NA"
"1997-08-16 04:00","1997","08","16","04:00","","M","","M","","M","","M","","M","","M","","M","","","","","NA"
"1997-08-16 05:00","1997","08","16","05:00","22.0","","20.4","","91","","22","","13","","9.7","","99.58","","30","","","","Fog"
"1997-08-16 06:00","1997","08","16","06:00","22.2","","20.2","","88","","22","","11","","12.9","","99.61","","30","","","","Mainly Clear"
"1997-08-16 07:00","1997","08","16","07:00","23.2","","21.1","","88","","21","","9","","12.9","","99.58","","32","","","","Clear"
"1997-08-16 08:00","1997","08","16","08:00","25.2","","21.8","","81","","21","","19","","14.5","","99.58","","34","","","","Mainly Clear"
"1997-08-16 09:00","1997","08","16","09:00","26.9","","21.7","","73","","21","","33","","19.3","","99.65","","36","","","","Mainly Clear"
"1997-08-16 10:00","1997","08","16","10:00","28.0","","23.1","","75","","21","","33","","16.1","","99.61","","38","","","","Mostly Cloudy"
"1997-08-16 11:00","1997","08","16","11:00","27.6","","22.9","","76","","24","","19","","9.7","","99.61","","38","","","","Haze"
"1997-08-16 12:00","1997","08","16","12:00","26.8","","23.0","","80","","22","","28","","9.7","","99.58","","37","","","","Haze"
"1997-08-16 13:00","1997","08","16","13:00","25.6","","20.8","","75","","23","","28","","19.3","","99.58","","34","","","","Mostly Cloudy"
"1997-08-16 14:00","1997","08","16","14:00","27.0","","19.6","","64","","24","","28","","24.1","","99.61","","34","","","","Mostly Cloudy"
"1997-08-16 15:00","1997","08","16","15:00","27.6","","20.7","","66","","22","","32","","24.1","","99.55","","36","","","","Mainly Clear"
"1997-08-16 16:00","1997","08","16","16:00","29.0","","22.5","","68","","23","","28","","24.1","","99.55","","39","","","","Mainly Clear"
"1997-08-16 17:00","1997","08","16","17:00","27.9","","22.5","","73","","24","","19","","19.3","","99.65","","38","","","","Mostly Cloudy"
"1997-08-16 18:00","1997","08","16","18:00","24.7","","20.2","","76","","21","","9","","24.1","","99.55","","32","","","","Cloudy"
"1997-08-16 19:00","1997","08","16","19:00","25.8","","22.1","","80","","19","","11","","12.9","","99.65","","35","","","","Cloudy"
"1997-08-16 20:00","1997","08","16","20:00","25.2","","22.5","","85","","20","","20","","14.5","","99.75","","35","","","","Cloudy"
"1997-08-16 21:00","1997","08","16","21:00","25.3","","22.2","","83","","23","","19","","14.5","","99.75","","35","","","","Cloudy"
"1997-08-16 22:00","1997","08","16","22:00","","M","","M","","M","","M","","M","","M","","M","","","","","NA"
"1997-08-16 23:00","1997","08","16","23:00","","M","","M","","M","","M","","M","","M","","M","","","","","NA"
"1997-08-17 00:00","1997","08","17","00:00","","M","","M","","M","","M","","M","","M","","M","","","","","NA"
"1997-08-17 01:00","1997","08","17","01:00","","M","","M","","M","","M","","M","","M","","M","","","","","NA"
"1997-08-17 02:00","1997","08","17","02:00","","M","","M","","M","","M","","M","","M","","M","","","","","NA"
"1997-08-17 03:00","1997","08","17","03:00","","M","","M","","M","","M","","M","","M","","M","","","","","NA"
"1997-08-17 04:00","1997","08","17","04:00","","M","","M","","M","","M","","M","","M","","M","","","","","NA"
"1997-08-17 05:00","1997","08","17","05:00","20.4","","17.0","","81","","32","","11","","24.1","","100.05","","26","","","","Cloudy"
"1997-08-17 06:00","1997","08","17","06:00","19.3","","17.1","","87","","32","","7","","24.1","","100.12","","","","","","Rain Showers"
"1997-08-17 07:00","1997","08","17","07:00","19.5","","17.2","","87","","34","","11","","24.1","","100.22","","","","","","Mostly Cloudy"
"1997-08-17 08:00","1997","08","17","08:00","19.4","","17.0","","86","","33","","11","","24.1","","100.22","","","","","","Cloudy"
"1997-08-17 09:00","1997","08","17","09:00","19.0","","16.7","","87","","35","","17","","24.1","","100.32","","","","","","Cloudy"
"1997-08-17 10:00","1997","08","17","10:00","19.2","","15.6","","80","","1","","15","","24.1","","100.35","","","","","","Cloudy"
"1997-08-17 11:00","1997","08","17","11:00","19.9","","15.2","","74","","35","","13","","24.1","","100.39","","","","","","Cloudy"
"1997-08-17 12:00","1997","08","17","12:00","20.5","","14.5","","68","","36","","19","","24.1","","100.29","","","","","","Mainly Clear"
"1997-08-17 13:00","1997","08","17","13:00","20.8","","14.9","","69","","1","","19","","24.1","","100.29","","25","","","","Cloudy"
"1997-08-17 14:00","1997","08","17","14:00","20.0","","14.4","","70","","1","","11","","24.1","","100.32","","","","","","Cloudy"
"1997-08-17 15:00","1997","08","17","15:00","19.5","","14.9","","75","","36","","13","","24.1","","100.32","","","","","","Rain Showers"
"1997-08-17 16:00","1997","08","17","16:00","18.7","","13.8","","73","","36","","13","","24.1","","100.32","","","","","","Cloudy"
"1997-08-17 17:00","1997","08","17","17:00","18.7","","14.3","","76","","2","","13","","24.1","","100.25","","","","","","Cloudy"
"1997-08-17 18:00","1997","08","17","18:00","18.0","","15.3","","84","","4","","6","","19.3","","100.32","","","","","","Rain"
"1997-08-17 19:00","1997","08","17","19:00","17.5","","16.2","","92","","9","","4","","9.7","","100.32","","","","","","Rain"
"1997-08-17 20:00","1997","08","17","20:00","17.0","","15.9","","93","","9","","6","","12.9","","100.25","","","","","","Rain"
"1997-08-17 21:00","1997","08","17","21:00","16.8","","15.7","","93","","8","","6","","19.3","","100.22","","","","","","Mostly Cloudy"
"1997-08-17 22:00","1997","08","17","22:00","","M","","M","","M","","M","","M","","M","","M","","","","","NA"
"1997-08-17 23:00","1997","08","17","23:00","","M","","M","","M","","M","","M","","M","","M","","","","","NA"
"1997-08-18 00:00","1997","08","18","00:00","","M","","M","","M","","M","","M","","M","","M","","","","","NA"
"1997-08-18 01:00","1997","08","18","01:00","","M","","M","","M","","M","","M","","M","","M","","","","","NA"
"1997-08-18 02:00","1997","08","18","02:00","","M","","M","","M","","M","","M","","M","","M","","","","","NA"
"1997-08-18 03:00","1997","08","18","03:00","","M","","M","","M","","M","","M","","M","","M","","","","","NA"
"1997-08-18 04:00","1997","08","18","04:00","","M","","M","","M","","M","","M","","M","","M","","","","","NA"
"1997-08-18 05:00","1997","08","18","05:00","16.8","","11.2","","70","","3","","7","","24.1","","100.42","","","","","","Mainly Clear"
"1997-08-18 06:00","1997","08","18","06:00","16.0","","11.1","","73","","4","","19","","40.2","","100.52","","","","","","Clear"
"1997-08-18 07:00","1997","08","18","07:00","17.2","","10.8","","66","","4","","9","","40.2","","100.59","","","","","","Clear"
"1997-08-18 08:00","1997","08","18","08:00","17.8","","11.5","","67","","4","","9","","40.2","","100.65","","","","","","Clear"
"1997-08-18 09:00","1997","08","18","09:00","18.6","","10.5","","59","","3","","9","","40.2","","100.69","","","","","","Clear"
"1997-08-18 10:00","1997","08","18","10:00","18.8","","10.3","","58","","2","","15","","40.2","","100.69","","","","","","Clear"
"1997-08-18 11:00","1997","08","18","11:00","19.6","","8.6","","49","","2","","15","","40.2","","100.72","","","","","","Clear"
"1997-08-18 12:00","1997","08","18","12:00","19.8","","6.6","","42","","4","","11","","40.2","","100.72","","","","","","Clear"
"1997-08-18 13:00","1997","08","18","13:00","20.4","","6.9","","42","","4","","13","","40.2","","100.72","","","","","","Clear"
"1997-08-18 14:00","1997","08","18","14:00","21.1","","7.5","","41","","35","","7","","40.2","","100.72","","","","","","Mainly Clear"
"1997-08-18 15:00","1997","08","18","15:00","20.9","","7.1","","41","","34","","13","","40.2","","100.69","","","","","","Clear"
"1997-08-18 16:00","1997","08","18","16:00","21.6","","8.1","","42","","","","0","","40.2","","100.69","","","","","","Clear"
"1997-08-18 17:00","1997","08","18","17:00","21.3","","7.5","","41","","30","","11","","40.2","","100.69","","","","","","Clear"
"1997-08-18 18:00","1997","08","18","18:00","21.5","","7.7","","41","","29","","4","","40.2","","100.69","","","","","","Clear"
"1997-08-18 19:00","1997","08","18","19:00","20.6","","7.9","","44","","","","0","","40.2","","100.72","","","","","","Clear"
"1997-08-18 20:00","1997","08","18","20:00","17.0","","8.3","","57","","","","0","","40.2","","100.72","","","","","","Clear"
"1997-08-18 21:00","1997","08","18","21:00","14.9","","9.8","","72","","","","0","","40.2","","100.72","","","","","","Clear"
"1997-08-18 22:00","1997","08","18","22:00","","M","","M","","M","","M","","M","","M","","M","","","","","NA"
"1997-08-18 23:00","1997","08","18","23:00","","M","","M","","M","","M","","M","","M","","M","","","","","NA"
"1997-08-19 00:00","1997","08","19","00:00","","M","","M","","M","","M","","M","","M","","M","","","","","NA"
"1997-08-19 01:00","1997","08","19","01:00","","M","","M","","M","","M","","M","","M","","M","","","","","NA"
"1997-08-19 02:00","1997","08","19","02:00","","M","","M","","M","","M","","M","","M","","M","","","","","NA"
"1997-08-19 03:00","1997","08","19","03:00","","M","","M","","M","","M","","M","","M","","M","","","","","NA"
"1997-08-19 04:00","1997","08","19","04:00","","M","","M","","M","","M","","M","","M","","M","","","","","NA"
"1997-08-19 05:00","1997","08","19","05:00","11.2","","10.1","","93","","20","","4","","24.1","","100.79","","","","","","Clear"
"1997-08-19 06:00","1997","08","19","06:00","11.5","","10.6","","94","","22","","6","","40.2","","100.86","","","","","","Mainly Clear"
"1997-08-19 07:00","1997","08","19","07:00","15.2","","13.3","","88","","24","","4","","40.2","","100.89","","","","","","Mainly Clear"
"1997-08-19 08:00","1997","08","19","08:00","18.7","","15.0","","79","","","","0","","40.2","","100.92","","","","","","Mainly Clear"
"1997-08-19 09:00","1997","08","19","09:00","20.2","","14.7","","71","","","","0","","40.2","","100.92","","","","","","Mostly Cloudy"
"1997-08-19 10:00","1997","08","19","10:00","20.9","","14.6","","67","","32","","4","","40.2","","100.86","","25","","","","Mostly Cloudy"
"1997-08-19 11:00","1997","08","19","11:00","21.3","","11.7","","54","","","","0","","40.2","","100.86","","","","","","Mainly Clear"
"1997-08-19 12:00","1997","08","19","12:00","22.3","","13.7","","58","","36","","19","","40.2","","100.79","","25","","","","Mainly Clear"
"1997-08-19 13:00","1997","08","19","13:00","22.5","","14.1","","59","","2","","17","","40.2","","100.76","","26","","","","Mainly Clear"
"1997-08-19 14:00","1997","08","19","14:00","23.1","","12.5","","51","","3","","22","","40.2","","100.72","","26","","","","Mostly Cloudy"
"1997-08-19 15:00","1997","08","19","15:00","22.9","","10.4","","45","","5","","22","","40.2","","100.72","","","","","","Mostly Cloudy"
"1997-08-19 16:00","1997","08","19","16:00","22.7","","7.6","","38","","3","","22","","40.2","","100.65","","","","","","Mainly Clear"
"1997-08-19 17:00","1997","08","19","17:00","22.4","","6.8","","36","","4","","19","","40.2","","100.62","","","","","","Mainly Clear"
"1997-08-19 18:00","1997","08","19","18:00","21.8","","7.3","","39","","5","","9","","40.2","","100.62","","","","","","Mainly Clear"
"1997-08-19 19:00","1997","08","19","19:00","19.7","","8.0","","47","","6","","7","","40.2","","100.65","","","","","","Mostly Cloudy"
"1997-08-19 20:00","1997","08","19","20:00","17.7","","8.4","","54","","9","","6","","40.2","","100.65","","","","","","Mainly Clear"
"1997-08-19 21:00","1997","08","19","21:00","15.7","","9.1","","65","","9","","6","","40.2","","100.65","","","","","","Mainly Clear"
"1997-08-19 22:00","1997","08","19","22:00","","M","","M","","M","","M","","M","","M","","M","","","","","NA"
"1997-08-19 23:00","1997","08","19","23:00","","M","","M","","M","","M","","M","","M","","M","","","","","NA"
"1997-08-20 00:00","1997","08","20","00:00","","M","","M","","M","","M","","M","","M","","M","","","","","NA"
"1997-08-20 01:00","1997","08","20","01:00","","M","","M","","M","","M","","M","","M","","M","","","","","NA"
"1997-08-20 02:00","1997","08","20","02:00","","M","","M","","M","","M","","M","","M","","M","","","","","NA"
"1997-08-20 03:00","1997","08","20","03:00","","M","","M","","M","","M","","M","","M","","M","","","","","NA"
"1997-08-20 04:00","1997","08","20","04:00","","M","","M","","M","","M","","M","","M","","M","","","","","NA"
"1997-08-20 05:00","1997","08","20","05:00","13.5","","9.8","","78","","9","","9","","24.1","","100.35","","","","","","Mostly Cloudy"
"1997-08-20 06:00","1997","08","20","06:00","13.8","","10.2","","79","","8","","9","","24.1","","100.35","","","","","","Mostly Cloudy"
"1997-08-20 07:00","1997","08","20","07:00","15.7","","11.0","","74","","7","","9","","24.1","","100.32","","","","","","Mostly Cloudy"
"1997-08-20 08:00","1997","08","20","08:00","19.4","","11.7","","61","","9","","17","","24.1","","100.29","","","","","","Mostly Cloudy"
"1997-08-20 09:00","1997","08","20","09:00","21.5","","11.7","","54","","6","","15","","24.1","","100.22","","","","","","Mostly Cloudy"
"1997-08-20 10:00","1997","08","20","10:00","22.5","","11.5","","50","","8","","20","","24.1","","100.18","","25","","","","Cloudy"
"1997-08-20 11:00","1997","08","20","11:00","22.3","","12.0","","52","","9","","28","","24.1","","100.12","","25","","","","Cloudy"
"1997-08-20 12:00","1997","08","20","12:00","22.3","","12.0","","52","","9","","28","","24.1","","100.05","","25","","","","Cloudy"
"1997-08-20 13:00","1997","08","20","13:00","22.5","","12.8","","54","","9","","19","","24.1","","99.98","","25","","","","Cloudy"
"1997-08-20 14:00","1997","08","20","14:00","19.0","","14.7","","76","","13","","15","","4.8","","99.98","","","","","","Rain Showers"
"1997-08-20 15:00","1997","08","20","15:00","17.1","","16.0","","93","","7","","7","","4.0","","99.95","","","","","","Rain Showers,Fog"
"1997-08-20 16:00","1997","08","20","16:00","16.6","","15.6","","94","","7","","11","","6.4","","99.92","","","","","","Rain Showers,Fog"
"1997-08-20 17:00","1997","08","20","17:00","16.1","","15.0","","93","","8","","15","","3.2","","99.88","","","","","","Rain Showers,Fog"
"1997-08-20 18:00","1997","08","20","18:00","16.2","","15.6","","96","","9","","19","","4.0","","99.85","","","","","","Rain Showers,Fog"
"1997-08-20 19:00","1997","08","20","19:00","15.8","","15.0","","95","","11","","26","","4.0","","99.82","","","","","","Rain Showers,Fog"
"1997-08-20 20:00","1997","08","20","20:00","15.0","","14.4","","96","","11","","19","","4.0","","99.78","","","","","","Rain,Fog"
"1997-08-20 21:00","1997","08","20","21:00","15.0","","14.0","","94","","11","","22","","6.4","","99.78","","","","","","Rain,Fog"
"1997-08-20 22:00","1997","08","20","22:00","","M","","M","","M","","M","","M","","M","","M","","","","","NA"
"1997-08-20 23:00","1997","08","20","23:00","","M","","M","","M","","M","","M","","M","","M","","","","","NA"
"1997-08-21 00:00","1997","08","21","00:00","","M","","M","","M","","M","","M","","M","","M","","","","","NA"
"1997-08-21 01:00","1997","08","21","01:00","","M","","M","","M","","M","","M","","M","","M","","","","","NA"
"1997-08-21 02:00","1997","08","21","02:00","","M","","M","","M","","M","","M","","M","","M","","","","","NA"
"1997-08-21 03:00","1997","08","21","03:00","","M","","M","","M","","M","","M","","M","","M","","","","","NA"
"1997-08-21 04:00","1997","08","21","04:00","","M","","M","","M","","M","","M","","M","","M","","","","","NA"
"1997-08-21 05:00","1997","08","21","05:00","15.4","","14.9","","97","","10","","7","","12.9","","99.25","","","","","","Thunderstorms"
"1997-08-21 06:00","1997","08","21","06:00","15.9","","15.3","","96","","","","0","","16.1","","99.21","","","","","","Cloudy"
"1997-08-21 07:00","1997","08","21","07:00","16.5","","15.7","","95","","23","","15","","6.4","","99.25","","","","","","Fog"
"1997-08-21 08:00","1997","08","21","08:00","16.6","","15.3","","92","","22","","11","","8.0","","99.28","","","","","","Fog"
"1997-08-21 09:00","1997","08","21","09:00","18.5","","16.1","","86","","24","","7","","12.9","","99.28","","","","","","Cloudy"
"1997-08-21 10:00","1997","08","21","10:00","19.3","","16.2","","82","","22","","6","","16.1","","99.28","","","","","","Cloudy"
"1997-08-21 11:00","1997","08","21","11:00","21.3","","15.7","","70","","24","","26","","19.3","","99.21","","26","","","","Cloudy"
"1997-08-21 12:00","1997","08","21","12:00","21.6","","15.3","","67","","24","","19","","19.3","","99.21","","26","","","","Mostly Cloudy"
"1997-08-21 13:00","1997","08","21","13:00","19.7","","16.2","","80","","30","","13","","16.1","","99.18","","","","","","Mostly Cloudy"
"1997-08-21 14:00","1997","08","21","14:00","18.9","","17.0","","89","","32","","13","","9.7","","99.21","","","","","","Rain,Fog"
"1997-08-21 15:00","1997","08","21","15:00","18.6","","16.7","","89","","30","","13","","16.1","","99.18","","","","","","Mostly Cloudy"
"1997-08-21 16:00","1997","08","21","16:00","21.1","","15.8","","72","","26","","22","","24.1","","99.18","","26","","","","Mostly Cloudy"
"1997-08-21 17:00","1997","08","21","17:00","20.9","","13.8","","64","","24","","19","","24.1","","99.25","","","","","","Mostly Cloudy"
"1997-08-21 18:00","1997","08","21","18:00","20.7","","13.2","","62","","25","","19","","24.1","","99.25","","","","","","Mostly Cloudy"
"1997-08-21 19:00","1997","08","21","19:00","18.8","","13.2","","70","","25","","19","","24.1","","99.28","","","","","","Mainly Clear"
"1997-08-21 20:00","1997","08","21","20:00","17.8","","13.2","","74","","24","","19","","24.1","","99.35","","","","","","Mainly Clear"
"1997-08-21 21:00","1997","08","21","21:00","16.6","","13.2","","80","","24","","19","","24.1","","99.35","","","","","","Mainly Clear"
"1997-08-21 22:00","1997","08","21","22:00","","M","","M","","M","","M","","M","","M","","M","","","","","NA"
"1997-08-21 23:00","1997","08","21","23:00","","M","","M","","M","","M","","M","","M","","M","","","","","NA"
"1997-08-22 00:00","1997","08","22","00:00","","M","","M","","M","","M","","M","","M","","M","","","","","NA"
"1997-08-22 01:00","1997","08","22","01:00","","M","","M","","M","","M","","M","","M","","M","","","","","NA"
"1997-08-22 02:00","1997","08","22","02:00","","M","","M","","M","","M","","M","","M","","M","","","","","NA"
"1997-08-22 03:00","1997","08","22","03:00","","M","","M","","M","","M","","M","","M","","M","","","","","NA"
"1997-08-22 04:00","1997","08","22","04:00","","M","","M","","M","","M","","M","","M","","M","","","","","NA"
"1997-08-22 05:00","1997","08","22","05:00","13.4","","11.8","","90","","21","","9","","24.1","","99.28","","","","","","Mainly Clear"
"1997-08-22 06:00","1997","08","22","06:00","13.4","","12.0","","91","","19","","6","","24.1","","99.28","","","","","","Mainly Clear"
"1997-08-22 07:00","1997","08","22","07:00","14.5","","12.8","","90","","17","","4","","24.1","","99.31","","","","","","Mainly Clear"
"1997-08-22 08:00","1997","08","22","08:00","18.0","","14.5","","80","","21","","7","","24.1","","99.31","","","","","","Mainly Clear"
"1997-08-22 09:00","1997","08","22","09:00","16.0","","14.4","","90","","19","","13","","8.0","","99.31","","","","","","Rain Showers,Fog"
"1997-08-22 10:00","1997","08","22","10:00","15.5","","14.4","","93","","18","","15","","6.4","","99.31","","","","","","Rain Showers,Fog"
"1997-08-22 11:00","1997","08","22","11:00","15.7","","14.5","","93","","17","","19","","8.0","","99.31","","","","","","Rain Showers,Fog"
"1997-08-22 12:00","1997","08","22","12:00","15.4","","14.3","","93","","15","","19","","6.4","","99.28","","","","","","Rain Showers,Fog"
"1997-08-22 13:00","1997","08","22","13:00","15.1","","14.0","","93","","12","","15","","8.0","","99.28","","","","","","Rain Showers,Fog"
"1997-08-22 14:00","1997","08","22","14:00","16.0","","15.2","","95","","12","","11","","8.0","","99.21","","","","","","Rain Showers,Fog"
"1997-08-22 15:00","1997","08","22","15:00","17.4","","16.3","","93","","8","","6","","24.1","","99.21","","","","","","Mostly Cloudy"
"1997-08-22 16:00","1997","08","22","16:00","16.7","","15.7","","94","","35","","19","","24.1","","99.28","","","","","","Mostly Cloudy"
"1997-08-22 17:00","1997","08","22","17:00","16.6","","14.6","","88","","2","","19","","24.1","","99.45","","","","","","Mainly Clear"
"1997-08-22 18:00","1997","08","22","18:00","16.6","","14.4","","87","","31","","9","","24.1","","99.55","","","","","","Mostly Cloudy"
"1997-08-22 19:00","1997","08","22","19:00","15.2","","14.0","","93","","","","0","","24.1","","99.61","","","","","","Mostly Cloudy"
"1997-08-22 20:00","1997","08","22","20:00","15.8","","14.7","","93","","26","","7","","24.1","","99.65","","","","","","Mostly Cloudy"
"1997-08-22 21:00","1997","08","22","21:00","15.7","","14.7","","94","","24","","9","","24.1","","99.75","","","","","","Cloudy"
"1997-08-22 22:00","1997","08","22","22:00","","M","","M","","M","","M","","M","","M","","M","","","","","NA"
"1997-08-22 23:00","1997","08","22","23:00","","M","","M","","M","","M","","M","","M","","M","","","","","NA"
"1997-08-23 00:00","1997","08","23","00:00","","M","","M","","M","","M","","M","","M","","M","","","","","NA"
"1997-08-23 01:00","1997","08","23","01:00","","M","","M","","M","","M","","M","","M","","M","","","","","NA"
"1997-08-23 02:00","1997","08","23","02:00","","M","","M","","M","","M","","M","","M","","M","","","","","NA"
"1997-08-23 03:00","1997","08","23","03:00","","M","","M","","M","","M","","M","","M","","M","","","","","NA"
"1997-08-23 04:00","1997","08","23","04:00","","M","","M","","M","","M","","M","","M","","M","","","","","NA"
"1997-08-23 05:00","1997","08","23","05:00","13.4","","11.6","","89","","23","","9","","40.2","","100.08","","","","","","Mainly Clear"
"1997-08-23 06:00","1997","08","23","06:00","13.0","","11.4","","90","","25","","9","","40.2","","100.12","","","","","","Mainly Clear"
"1997-08-23 07:00","1997","08","23","07:00","14.2","","11.8","","85","","23","","13","","40.2","","100.18","","","","","","Mainly Clear"
"1997-08-23 08:00","1997","08","23","08:00","16.2","","12.3","","78","","28","","19","","40.2","","100.25","","","","","","Mostly Cloudy"
"1997-08-23 09:00","1997","08","23","09:00","17.0","","12.5","","75","","29","","19","","25.0","","100.29","","","","","","Mostly Cloudy"
"1997-08-23 10:00","1997","08","23","10:00","17.9","","12.3","","70","","28","","24","","25.0","","100.29","","","","","","Mostly Cloudy"
"1997-08-23 11:00","1997","08","23","11:00","17.7","","11.9","","69","","27","","15","","24.1","","100.32","","","","","","Cloudy"
"1997-08-23 12:00","1997","08","23","12:00","18.3","","12.4","","68","","27","","22","","24.1","","100.35","","","","","","Cloudy"
"1997-08-23 13:00","1997","08","23","13:00","19.0","","12.0","","64","","26","","22","","24.1","","100.35","","","","","","Mostly Cloudy"
"1997-08-23 14:00","1997","08","23","14:00","20.5","","11.8","","57","","26","","22","","24.1","","100.32","","","","","","Mostly Cloudy"
"1997-08-23 15:00","1997","08","23","15:00","21.2","","11.8","","55","","27","","19","","24.1","","100.32","","","","","","Mostly Cloudy"
"1997-08-23 16:00","1997","08","23","16:00","21.8","","10.6","","49","","26","","19","","24.1","","100.32","","","","","","Mostly Cloudy"
"1997-08-23 17:00","1997","08","23","17:00","20.8","","11.4","","55","","30","","19","","24.1","","100.32","","","","","","Mostly Cloudy"
"1997-08-23 18:00","1997","08","23","18:00","19.2","","12.6","","66","","32","","7","","24.1","","100.39","","","","","","Mostly Cloudy"
"1997-08-23 19:00","1997","08","23","19:00","18.8","","11.9","","64","","33","","9","","24.1","","100.42","","","","","","Mostly Cloudy"
"1997-08-23 20:00","1997","08","23","20:00","18.0","","12.6","","71","","30","","7","","24.1","","100.52","","","","","","Mainly Clear"
"1997-08-23 21:00","1997","08","23","21:00","16.6","","13.1","","80","","28","","6","","24.1","","100.55","","","","","","Mainly Clear"
"1997-08-23 22:00","1997","08","23","22:00","","M","","M","","M","","M","","M","","M","","M","","","","","NA"
"1997-08-23 23:00","1997","08","23","23:00","","M","","M","","M","","M","","M","","M","","M","","","","","NA"
"1997-08-24 00:00","1997","08","24","00:00","","M","","M","","M","","M","","M","","M","","M","","","","","NA"
"1997-08-24 01:00","1997","08","24","01:00","","M","","M","","M","","M","","M","","M","","M","","","","","NA"
"1997-08-24 02:00","1997","08","24","02:00","","M","","M","","M","","M","","M","","M","","M","","","","","NA"
"1997-08-24 03:00","1997","08","24","03:00","","M","","M","","M","","M","","M","","M","","M","","","","","NA"
"1997-08-24 04:00","1997","08","24","04:00","","M","","M","","M","","M","","M","","M","","M","","","","","NA"
"1997-08-24 05:00","1997","08","24","05:00","11.1","","10.0","","93","","20","","6","","24.1","","100.69","","","","","","Mainly Clear"
"1997-08-24 06:00","1997","08","24","06:00","10.5","","9.7","","95","","20","","4","","24.1","","100.72","","","","","","Mostly Cloudy"
"1997-08-24 07:00","1997","08","24","07:00","13.4","","11.8","","90","","17","","6","","24.1","","100.76","","","","","","Mostly Cloudy"
"1997-08-24 08:00","1997","08","24","08:00","16.1","","13.2","","83","","17","","6","","24.1","","100.76","","","","","","Mainly Clear"
"1997-08-24 09:00","1997","08","24","09:00","18.8","","12.5","","67","","15","","6","","24.1","","100.72","","","","","","Mainly Clear"
"1997-08-24 10:00","1997","08","24","10:00","20.3","","12.5","","61","","15","","6","","24.1","","100.72","","","","","","Mostly Cloudy"
"1997-08-24 11:00","1997","08","24","11:00","21.8","","9.4","","45","","18","","9","","24.1","","100.72","","","","","","Mostly Cloudy"
"1997-08-24 12:00","1997","08","24","12:00","22.9","","10.7","","46","","19","","6","","24.1","","100.69","","25","","","","Mostly Cloudy"
"1997-08-24 13:00","1997","08","24","13:00","21.4","","11.8","","54","","1","","6","","24.1","","100.65","","","","","","Cloudy"
"1997-08-24 14:00","1997","08","24","14:00","20.9","","14.2","","66","","","","0","","40.2","","100.65","","","","","","Mostly Cloudy"
"1997-08-24 15:00","1997","08","24","15:00","20.0","","14.9","","72","","20","","4","","40.2","","100.62","","","","","","Cloudy"
"1997-08-24 16:00","1997","08","24","16:00","19.4","","15.8","","80","","","","0","","40.2","","100.62","","","","","","Cloudy"
"1997-08-24 17:00","1997","08","24","17:00","19.4","","15.6","","79","","18","","9","","24.1","","100.62","","","","","","Cloudy"
"1997-08-24 18:00","1997","08","24","18:00","17.1","","13.9","","81","","23","","28","","19.3","","100.69","","","","","","Cloudy"
"1997-08-24 19:00","1997","08","24","19:00","16.8","","13.9","","83","","22","","9","","19.3","","100.69","","","","","","Cloudy"
"1997-08-24 20:00","1997","08","24","20:00","16.6","","14.2","","86","","20","","9","","19.3","","100.76","","","","","","Cloudy"
"1997-08-24 21:00","1997","08","24","21:00","16.4","","15.0","","91","","18","","9","","19.3","","100.79","","","","","","Cloudy"
"1997-08-24 22:00","1997","08","24","22:00","","M","","M","","M","","M","","M","","M","","M","","","","","NA"
"1997-08-24 23:00","1997","08","24","23:00","","M","","M","","M","","M","","M","","M","","M","","","","","NA"
"1997-08-25 00:00","1997","08","25","00:00","","M","","M","","M","","M","","M","","M","","M","","","","","NA"
"1997-08-25 01:00","1997","08","25","01:00","","M","","M","","M","","M","","M","","M","","M","","","","","NA"
"1997-08-25 02:00","1997","08","25","02:00","","M","","M","","M","","M","","M","","M","","M","","","","","NA"
"1997-08-25 03:00","1997","08","25","03:00","","M","","M","","M","","M","","M","","M","","M","","","","","NA"
"1997-08-25 04:00","1997","08","25","04:00","","M","","M","","M","","M","","M","","M","","M","","","","","NA"
"1997-08-25 05:00","1997","08","25","05:00","13.7","","13.1","","96","","9","","4","","8.0","","100.79","","","","","","Fog"
"1997-08-25 06:00","1997","08","25","06:00","14.2","","13.6","","96","","","","0","","8.0","","100.79","","","","","","Fog"
"1997-08-25 07:00","1997","08","25","07:00","14.9","","13.7","","93","","","","0","","12.9","","100.82","","","","","","Mostly Cloudy"
"1997-08-25 08:00","1997","08","25","08:00","15.7","","13.9","","89","","","","0","","16.1","","100.82","","","","","","Mostly Cloudy"
"1997-08-25 09:00","1997","08","25","09:00","17.1","","14.0","","82","","2","","9","","16.1","","100.82","","","","","","Mostly Cloudy"
"1997-08-25 10:00","1997","08","25","10:00","19.6","","14.2","","71","","6","","9","","19.3","","100.86","","","","","","Mostly Cloudy"
"1997-08-25 11:00","1997","08","25","11:00","21.1","","14.7","","67","","4","","9","","24.1","","100.82","","25","","","","Mostly Cloudy"
"1997-08-25 12:00","1997","08","25","12:00","21.8","","15.2","","66","","2","","15","","24.1","","100.79","","26","","","","Mainly Clear"
"1997-08-25 13:00","1997","08","25","13:00","20.5","","14.8","","70","","3","","15","","24.1","","100.79","","","","","","Mostly Cloudy"
"1997-08-25 14:00","1997","08","25","14:00","21.0","","14.8","","68","","4","","19","","24.1","","100.76","","25","","","","Mainly Clear"
"1997-08-25 15:00","1997","08","25","15:00","21.7","","15.0","","66","","2","","19","","24.1","","100.72","","26","","","","Mainly Clear"
"1997-08-25 16:00","1997","08","25","16:00","21.1","","15.0","","68","","3","","19","","24.1","","100.69","","25","","","","Mainly Clear"
"1997-08-25 17:00","1997","08","25","17:00","20.8","","14.8","","69","","5","","13","","24.1","","100.69","","25","","","","Mainly Clear"
"1997-08-25 18:00","1997","08","25","18:00","20.4","","14.5","","69","","5","","13","","24.1","","100.69","","","","","","Clear"
"1997-08-25 19:00","1997","08","25","19:00","19.0","","14.8","","77","","5","","6","","19.3","","100.72","","","","","","Clear"
"1997-08-25 20:00","1997","08","25","20:00","17.1","","14.8","","86","","6","","6","","19.3","","100.72","","","","","","Clear"
"1997-08-25 21:00","1997","08","25","21:00","16.2","","14.6","","90","","9","","7","","40.2","","100.79","","","","","","Clear"
"1997-08-25 22:00","1997","08","25","22:00","","M","","M","","M","","M","","M","","M","","M","","","","","NA"
"1997-08-25 23:00","1997","08","25","23:00","","M","","M","","M","","M","","M","","M","","M","","","","","NA"
"1997-08-26 00:00","1997","08","26","00:00","","M","","M","","M","","M","","M","","M","","M","","","","","NA"
"1997-08-26 01:00","1997","08","26","01:00","","M","","M","","M","","M","","M","","M","","M","","","","","NA"
"1997-08-26 02:00","1997","08","26","02:00","","M","","M","","M","","M","","M","","M","","M","","","","","NA"
"1997-08-26 03:00","1997","08","26","03:00","","M","","M","","M","","M","","M","","M","","M","","","","","NA"
"1997-08-26 04:00","1997","08","26","04:00","","M","","M","","M","","M","","M","","M","","M","","","","","NA"
"1997-08-26 05:00","1997","08","26","05:00","13.0","","12.4","","96","","","","0","","1.6","","100.65","","","","","","Fog"
"1997-08-26 06:00","1997","08","26","06:00","12.6","","12.5","","99","","","","0","","1.2","","100.69","","","","","","Fog"
"1997-08-26 07:00","1997","08","26","07:00","15.4","","15.3","","99","","","","0","","3.2","","100.69","","","","","","Fog"
"1997-08-26 08:00","1997","08","26","08:00","17.1","","16.2","","94","","","","0","","3.2","","100.72","","","","","","Fog"
"1997-08-26 09:00","1997","08","26","09:00","18.9","","17.0","","89","","","","0","","3.2","","100.72","","","","","","Fog"
"1997-08-26 10:00","1997","08","26","10:00","20.0","","17.1","","83","","","","0","","6.4","","100.69","","25","","","","Haze"
"1997-08-26 11:00","1997","08","26","11:00","21.4","","17.5","","78","","18","","7","","8.0","","100.65","","27","","","","Haze"
"1997-08-26 12:00","1997","08","26","12:00","22.0","","17.5","","76","","21","","6","","8.0","","100.62","","28","","","","Haze"
"1997-08-26 13:00","1997","08","26","13:00","20.5","","17.7","","84","","35","","6","","8.0","","100.62","","26","","","","Haze"
"1997-08-26 14:00","1997","08","26","14:00","21.8","","18.1","","80","","3","","9","","8.0","","100.59","","28","","","","Haze"
"1997-08-26 15:00","1997","08","26","15:00","22.4","","18.4","","78","","5","","9","","8.0","","100.52","","29","","","","Haze"
"1997-08-26 16:00","1997","08","26","16:00","22.4","","18.1","","77","","3","","6","","8.0","","100.52","","28","","","","Haze"
"1997-08-26 17:00","1997","08","26","17:00","21.7","","17.9","","79","","5","","6","","8.0","","100.49","","28","","","","Haze"
"1997-08-26 18:00","1997","08","26","18:00","21.1","","17.5","","80","","","","0","","8.0","","100.45","","27","","","","Haze"
"1997-08-26 19:00","1997","08","26","19:00","20.4","","17.7","","84","","","","0","","8.0","","100.42","","26","","","","Haze"
"1997-08-26 20:00","1997","08","26","20:00","18.9","","17.3","","90","","","","0","","8.0","","100.42","","","","","","Haze"
"1997-08-26 21:00","1997","08","26","21:00","17.9","","17.0","","94","","","","0","","8.0","","100.42","","","","","","Haze"
"1997-08-26 22:00","1997","08","26","22:00","","M","","M","","M","","M","","M","","M","","M","","","","","NA"
"1997-08-26 23:00","1997","08","26","23:00","","M","","M","","M","","M","","M","","M","","M","","","","","NA"
"1997-08-27 00:00","1997","08","27","00:00","","M","","M","","M","","M","","M","","M","","M","","","","","NA"
"1997-08-27 01:00","1997","08","27","01:00","","M","","M","","M","","M","","M","","M","","M","","","","","NA"
"1997-08-27 02:00","1997","08","27","02:00","","M","","M","","M","","M","","M","","M","","M","","","","","NA"
"1997-08-27 03:00","1997","08","27","03:00","","M","","M","","M","","M","","M","","M","","M","","","","","NA"
"1997-08-27 04:00","1997","08","27","04:00","","M","","M","","M","","M","","M","","M","","M","","","","","NA"
"1997-08-27 05:00","1997","08","27","05:00","17.5","","16.6","","94","","","","0","","4.0","","100.22","","","","","","Fog"
"1997-08-27 06:00","1997","08","27","06:00","16.7","","15.9","","95","","21","","7","","4.8","","100.22","","","","","","Fog"
"1997-08-27 07:00","1997","08","27","07:00","18.6","","16.8","","89","","20","","6","","4.8","","100.22","","","","","","Fog"
"1997-08-27 08:00","1997","08","27","08:00","19.9","","17.1","","84","","21","","4","","6.4","","100.22","","","","","","Haze"
"1997-08-27 09:00","1997","08","27","09:00","21.5","","17.8","","79","","22","","7","","6.4","","100.22","","27","","","","Haze"
"1997-08-27 10:00","1997","08","27","10:00","22.5","","17.4","","73","","22","","9","","8.0","","100.18","","28","","","","Haze"
"1997-08-27 11:00","1997","08","27","11:00","23.9","","16.8","","64","","21","","7","","8.0","","100.12","","29","","","","Haze"
"1997-08-27 12:00","1997","08","27","12:00","24.8","","17.5","","64","","23","","24","","9.7","","100.02","","30","","","","Haze"
"1997-08-27 13:00","1997","08","27","13:00","24.8","","17.5","","64","","21","","15","","9.7","","99.98","","30","","","","Haze"
"1997-08-27 14:00","1997","08","27","14:00","25.5","","17.8","","62","","23","","19","","8.0","","99.92","","31","","","","Haze"
"1997-08-27 15:00","1997","08","27","15:00","25.8","","18.3","","63","","21","","11","","8.0","","99.82","","32","","","","Haze"
"1997-08-27 16:00","1997","08","27","16:00","26.1","","19.1","","65","","21","","22","","8.0","","99.75","","33","","","","Haze"
"1997-08-27 17:00","1997","08","27","17:00","25.4","","18.2","","64","","21","","28","","8.0","","99.75","","32","","","","Haze"
"1997-08-27 18:00","1997","08","27","18:00","24.4","","18.0","","68","","21","","19","","8.0","","99.75","","30","","","","Haze"
"1997-08-27 19:00","1997","08","27","19:00","23.1","","17.9","","73","","22","","19","","8.0","","99.75","","29","","","","Haze"
"1997-08-27 20:00","1997","08","27","20:00","22.7","","17.6","","73","","24","","19","","8.0","","99.78","","28","","","","Thunderstorms,Haze"
"1997-08-27 21:00","1997","08","27","21:00","18.6","","16.2","","86","","23","","9","","40.2","","99.85","","","","","","Thunderstorms,Rain Showers"
"1997-08-27 22:00","1997","08","27","22:00","","M","","M","","M","","M","","M","","M","","M","","","","","NA"
"1997-08-27 23:00","1997","08","27","23:00","","M","","M","","M","","M","","M","","M","","M","","","","","NA"
"1997-08-28 00:00","1997","08","28","00:00","","M","","M","","M","","M","","M","","M","","M","","","","","NA"
"1997-08-28 01:00","1997","08","28","01:00","","M","","M","","M","","M","","M","","M","","M","","","","","NA"
"1997-08-28 02:00","1997","08","28","02:00","","M","","M","","M","","M","","M","","M","","M","","","","","NA"
"1997-08-28 03:00","1997","08","28","03:00","","M","","M","","M","","M","","M","","M","","M","","","","","NA"
"1997-08-28 04:00","1997","08","28","04:00","","M","","M","","M","","M","","M","","M","","M","","","","","NA"
"1997-08-28 05:00","1997","08","28","05:00","15.6","","15.0","","96","","23","","6","","6.4","","99.75","","","","","","Fog"
"1997-08-28 06:00","1997","08","28","06:00","15.1","","14.8","","98","","23","","6","","11.3","","99.78","","","","","","Mainly Clear"
"1997-08-28 07:00","1997","08","28","07:00","17.9","","16.9","","94","","28","","6","","12.9","","99.85","","","","","","Clear"
"1997-08-28 08:00","1997","08","28","08:00","18.6","","14.0","","75","","31","","9","","19.3","","99.85","","","","","","Mainly Clear"
"1997-08-28 09:00","1997","08","28","09:00","19.6","","13.3","","67","","25","","9","","24.1","","99.85","","","","","","Clear"
"1997-08-28 10:00","1997","08","28","10:00","20.5","","13.7","","65","","26","","15","","24.1","","99.85","","","","","","Clear"
"1997-08-28 11:00","1997","08","28","11:00","20.6","","14.4","","68","","31","","19","","24.1","","99.85","","","","","","Mainly Clear"
"1997-08-28 12:00","1997","08","28","12:00","21.1","","14.5","","66","","31","","15","","24.1","","99.88","","25","","","","Mainly Clear"
"1997-08-28 13:00","1997","08","28","13:00","22.1","","15.1","","65","","28","","6","","24.1","","99.88","","26","","","","Mainly Clear"
"1997-08-28 14:00","1997","08","28","14:00","22.3","","15.1","","64","","32","","7","","24.1","","99.88","","26","","","","Mainly Clear"
"1997-08-28 15:00","1997","08","28","15:00","23.3","","15.4","","61","","28","","6","","24.1","","99.85","","28","","","","Mainly Clear"
"1997-08-28 16:00","1997","08","28","16:00","22.9","","14.5","","59","","29","","7","","24.1","","99.82","","27","","","","Mostly Cloudy"
"1997-08-28 17:00","1997","08","28","17:00","22.3","","15.9","","67","","31","","6","","24.1","","99.85","","27","","","","Mostly Cloudy"
"1997-08-28 18:00","1997","08","28","18:00","20.7","","15.2","","71","","32","","4","","24.1","","99.88","","25","","","","Mainly Clear"
"1997-08-28 19:00","1997","08","28","19:00","19.6","","16.3","","81","","34","","4","","40.2","","99.92","","","","","","Mainly Clear"
"1997-08-28 20:00","1997","08","28","20:00","19.3","","15.4","","78","","36","","11","","40.2","","99.98","","","","","","Mostly Cloudy"
"1997-08-28 21:00","1997","08","28","21:00","18.2","","13.8","","75","","35","","9","","40.2","","100.02","","","","","","Mainly Clear"
"1997-08-28 22:00","1997","08","28","22:00","","M","","M","","M","","M","","M","","M","","M","","","","","NA"
"1997-08-28 23:00","1997","08","28","23:00","","M","","M","","M","","M","","M","","M","","M","","","","","NA"
"1997-08-29 00:00","1997","08","29","00:00","","M","","M","","M","","M","","M","","M","","M","","","","","NA"
"1997-08-29 01:00","1997","08","29","01:00","","M","","M","","M","","M","","M","","M","","M","","","","","NA"
"1997-08-29 02:00","1997","08","29","02:00","","M","","M","","M","","M","","M","","M","","M","","","","","NA"
"1997-08-29 03:00","1997","08","29","03:00","","M","","M","","M","","M","","M","","M","","M","","","","","NA"
"1997-08-29 04:00","1997","08","29","04:00","","M","","M","","M","","M","","M","","M","","M","","","","","NA"
"1997-08-29 05:00","1997","08","29","05:00","17.3","","15.5","","89","","30","","4","","24.1","","100.08","","","","","","Mostly Cloudy"
"1997-08-29 06:00","1997","08","29","06:00","17.4","","15.3","","87","","36","","6","","24.1","","100.12","","","","","","Mostly Cloudy"
"1997-08-29 07:00","1997","08","29","07:00","17.8","","15.4","","86","","35","","9","","24.1","","100.18","","","","","","Mostly Cloudy"
"1997-08-29 08:00","1997","08","29","08:00","18.3","","15.8","","85","","1","","15","","24.1","","100.22","","","","","","Mostly Cloudy"
"1997-08-29 09:00","1997","08","29","09:00","17.4","","15.2","","87","","35","","11","","24.1","","100.25","","","","","","Mostly Cloudy"
"1997-08-29 10:00","1997","08","29","10:00","18.2","","15.2","","83","","36","","13","","24.1","","100.25","","","","","","Cloudy"
"1997-08-29 11:00","1997","08","29","11:00","19.5","","15.5","","78","","31","","13","","24.1","","100.29","","","","","","Cloudy"
"1997-08-29 12:00","1997","08","29","12:00","19.8","","15.8","","78","","","","0","","24.1","","100.29","","","","","","Mostly Cloudy"
"1997-08-29 13:00","1997","08","29","13:00","20.7","","15.2","","71","","34","","7","","24.1","","100.32","","25","","","","Mostly Cloudy"
"1997-08-29 14:00","1997","08","29","14:00","21.8","","15.0","","65","","29","","7","","24.1","","100.32","","26","","","","Mostly Cloudy"
"1997-08-29 15:00","1997","08","29","15:00","22.3","","15.2","","64","","33","","6","","24.1","","100.29","","26","","","","Mainly Clear"
"1997-08-29 16:00","1997","08","29","16:00","22.8","","15.0","","61","","","","0","","24.1","","100.25","","27","","","","Mainly Clear"
"1997-08-29 17:00","1997","08","29","17:00","22.6","","14.3","","59","","","","0","","24.1","","100.25","","26","","","","Mainly Clear"
"1997-08-29 18:00","1997","08","29","18:00","21.9","","13.7","","60","","","","0","","24.1","","100.29","","25","","","","Mainly Clear"
"1997-08-29 19:00","1997","08","29","19:00","21.8","","13.7","","60","","","","0","","24.1","","100.29","","25","","","","Mostly Cloudy"
"1997-08-29 20:00","1997","08","29","20:00","20.0","","16.5","","80","","21","","6","","24.1","","100.32","","25","","","","Mostly Cloudy"
"1997-08-29 21:00","1997","08","29","21:00","19.4","","16.6","","84","","","","0","","24.1","","100.32","","","","","","Mostly Cloudy"
"1997-08-29 22:00","1997","08","29","22:00","","M","","M","","M","","M","","M","","M","","M","","","","","NA"
"1997-08-29 23:00","1997","08","29","23:00","","M","","M","","M","","M","","M","","M","","M","","","","","NA"
"1997-08-30 00:00","1997","08","30","00:00","","M","","M","","M","","M","","M","","M","","M","","","","","NA"
"1997-08-30 01:00","1997","08","30","01:00","","M","","M","","M","","M","","M","","M","","M","","","","","NA"
"1997-08-30 02:00","1997","08","30","02:00","","M","","M","","M","","M","","M","","M","","M","","","","","NA"
"1997-08-30 03:00","1997","08","30","03:00","","M","","M","","M","","M","","M","","M","","M","","","","","NA"
"1997-08-30 04:00","1997","08","30","04:00","","M","","M","","M","","M","","M","","M","","M","","","","","NA"
"1997-08-30 05:00","1997","08","30","05:00","17.1","","15.8","","92","","","","0","","24.1","","100.42","","","","","","Cloudy"
"1997-08-30 06:00","1997","08","30","06:00","17.0","","15.9","","93","","","","0","","16.1","","100.45","","","","","","Cloudy"
"1997-08-30 07:00","1997","08","30","07:00","17.5","","15.7","","89","","","","0","","16.1","","100.52","","","","","","Cloudy"
"1997-08-30 08:00","1997","08","30","08:00","18.0","","16.1","","89","","","","0","","16.1","","100.55","","","","","","Mostly Cloudy"
"1997-08-30 09:00","1997","08","30","09:00","19.1","","16.0","","82","","27","","7","","12.9","","100.55","","","","","","Mostly Cloudy"
"1997-08-30 10:00","1997","08","30","10:00","19.9","","15.2","","74","","26","","4","","16.1","","100.55","","","","","","Mostly Cloudy"
"1997-08-30 11:00","1997","08","30","11:00","19.7","","16.9","","84","","31","","6","","19.3","","100.55","","","","","","Mostly Cloudy"
"1997-08-30 12:00","1997","08","30","12:00","20.5","","16.9","","80","","36","","9","","19.3","","100.49","","26","","","","Mainly Clear"
"1997-08-30 13:00","1997","08","30","13:00","21.0","","17.1","","78","","32","","9","","19.3","","100.49","","26","","","","Mainly Clear"
"1997-08-30 14:00","1997","08","30","14:00","22.1","","16.5","","71","","1","","7","","19.3","","100.42","","27","","","","Mainly Clear"
"1997-08-30 15:00","1997","08","30","15:00","22.4","","15.9","","67","","1","","7","","19.3","","100.39","","27","","","","Mainly Clear"
"1997-08-30 16:00","1997","08","30","16:00","22.6","","15.5","","64","","2","","7","","19.3","","100.35","","27","","","","Mostly Cloudy"
"1997-08-30 17:00","1997","08","30","17:00","22.6","","14.5","","60","","","","0","","24.1","","100.32","","26","","","","Mostly Cloudy"
"1997-08-30 18:00","1997","08","30","18:00","22.3","","14.1","","60","","","","0","","24.1","","100.32","","26","","","","Cloudy"
"1997-08-30 19:00","1997","08","30","19:00","19.9","","14.5","","71","","","","0","","24.1","","100.32","","","","","","Mostly Cloudy"
"1997-08-30 20:00","1997","08","30","20:00","18.4","","14.0","","76","","18","","4","","24.1","","100.32","","","","","","Mostly Cloudy"
"1997-08-30 21:00","1997","08","30","21:00","18.1","","13.9","","76","","18","","6","","24.1","","100.32","","","","","","Mostly Cloudy"
"1997-08-30 22:00","1997","08","30","22:00","","M","","M","","M","","M","","M","","M","","M","","","","","NA"
"1997-08-30 23:00","1997","08","30","23:00","","M","","M","","M","","M","","M","","M","","M","","","","","NA"
"1997-08-31 00:00","1997","08","31","00:00","","M","","M","","M","","M","","M","","M","","M","","","","","NA"
"1997-08-31 01:00","1997","08","31","01:00","","M","","M","","M","","M","","M","","M","","M","","","","","NA"
"1997-08-31 02:00","1997","08","31","02:00","","M","","M","","M","","M","","M","","M","","M","","","","","NA"
"1997-08-31 03:00","1997","08","31","03:00","","M","","M","","M","","M","","M","","M","","M","","","","","NA"
"1997-08-31 04:00","1997","08","31","04:00","","M","","M","","M","","M","","M","","M","","M","","","","","NA"
"1997-08-31 05:00","1997","08","31","05:00","16.4","","15.3","","93","","","","0","","24.1","","100.29","","","","","","Mostly Cloudy"
"1997-08-31 06:00","1997","08","31","06:00","16.6","","15.5","","93","","","","0","","19.3","","100.32","","","","","","Mostly Cloudy"
"1997-08-31 07:00","1997","08","31","07:00","17.7","","15.9","","89","","","","0","","19.3","","100.32","","","","","","Mostly Cloudy"
"1997-08-31 08:00","1997","08","31","08:00","18.6","","16.4","","87","","","","0","","16.1","","100.35","","","","","","Cloudy"
"1997-08-31 09:00","1997","08","31","09:00","19.4","","16.7","","84","","","","0","","16.1","","100.35","","","","","","Rain Showers"
"1997-08-31 10:00","1997","08","31","10:00","20.3","","16.9","","81","","","","0","","16.1","","100.39","","26","","","","Mostly Cloudy"
"1997-08-31 11:00","1997","08","31","11:00","21.4","","17.2","","77","","33","","4","","12.9","","100.39","","27","","","","Mostly Cloudy"
"1997-08-31 12:00","1997","08","31","12:00","21.0","","16.3","","75","","36","","9","","12.9","","100.39","","26","","","","Rain Showers"
"1997-08-31 13:00","1997","08","31","13:00","20.2","","17.9","","87","","5","","6","","12.9","","100.39","","26","","","","Cloudy"
"1997-08-31 14:00","1997","08","31","14:00","20.7","","16.3","","76","","7","","4","","14.5","","100.42","","26","","","","Cloudy"
"1997-08-31 15:00","1997","08","31","15:00","20.7","","16.9","","79","","","","0","","16.1","","100.42","","26","","","","Cloudy"
"1997-08-31 16:00","1997","08","31","16:00","20.7","","17.0","","79","","","","0","","16.1","","100.45","","26","","","","Cloudy"
"1997-08-31 17:00","1997","08","31","17:00","20.2","","15.7","","75","","7","","6","","16.1","","100.49","","25","","","","Cloudy"
"1997-08-31 18:00","1997","08","31","18:00","19.8","","15.6","","77","","","","0","","16.1","","100.49","","","","","","Cloudy"
"1997-08-31 19:00","1997","08","31","19:00","19.4","","15.8","","80","","","","0","","12.9","","100.52","","","","","","Cloudy"
"1997-08-31 20:00","1997","08","31","20:00","19.0","","16.1","","83","","","","0","","12.9","","100.59","","","","","","Cloudy"
"1997-08-31 21:00","1997","08","31","21:00","18.9","","16.6","","87","","","","0","","12.9","","100.62","","","","","","Cloudy"
"1997-08-31 22:00","1997","08","31","22:00","","M","","M","","M","","M","","M","","M","","M","","","","","NA"
"1997-08-31 23:00","1997","08","31","23:00","","M","","M","","M","","M","","M","","M","","M","","","","","NA"
