"Station Name","ST. CATHARINES / NIAGARA DISTRICT A"
"Province","ONTARIO"
"Current Station Operator","NAV Canada"
"Latitude","43.19"
"Longitude","-79.17"
"Elevation","97.80"
"Climate Identifier","6137286"
"WMO Identifier",""
"TC Identifier","YSN"
"All times are specified in Local Standard Time (LST). Add 1 hour to adjust for Daylight Saving Time where and when it is observed."

"Legend"
"E","Estimated"
"M","Missing"
"NA","Not Available"

"Date/Time","Year","Month","Day","Time","Temp (°C)","Temp Flag","Dew Point Temp (°C)","Dew Point Temp Flag","Rel Hum (%)","Rel Hum Flag","Wind Dir (10s deg)","Wind Dir Flag","Wind Spd (km/h)","Wind Spd Flag","Visibility (km)","Visibility Flag","Stn Press (kPa)","Stn Press Flag","Hmdx","Hmdx Flag","Wind Chill","Wind Chill Flag","Weather"
"2018-07-01 00:00","2018","07","01","00:00"
"2018-07-01 01:00","2018","07","01","01:00"
"2018-07-01 02:00","2018","07","01","02:00"
"2018-07-01 03:00","2018","07","01","03:00"
"2018-07-01 04:00","2018","07","01","04:00"
"2018-07-01 05:00","2018","07","01","05:00"
"2018-07-01 06:00","2018","07","01","06:00","24.3","","21.9","","86","","20","","14","","12.9","","100.42","","34","","","","NA"
"2018-07-01 07:00","2018","07","01","07:00","26.1","","22.0","","78","","21","","16","","12.9","","100.46","","35","","","","Mainly Clear"
"2018-07-01 08:00","2018","07","01","08:00","28.0","","22.5","","72","","21","","18","","12.9","","100.48","","38","","","","NA"
"2018-07-01 09:00","2018","07","01","09:00","30.1","","22.9","","65","","21","","17","","16.1","","100.47","","40","","","","NA"
"2018-07-01 10:00","2018","07","01","10:00","31.1","","22.9","","61","","22","","20","","19.3","","100.45","","41","","","","Mainly Clear"
"2018-07-01 11:00","2018","07","01","11:00","32.2","","22.3","","55","","20","","19","","19.3","","100.41","","42","","","","NA"
"2018-07-01 12:00","2018","07","01","12:00","32.7","","22.5","","54","","23","","19","","19.3","","100.37","","42","","","","NA"
"2018-07-01 13:00","2018","07","01","13:00","33.5","","21.2","","48","","19","","26","","19.3","","100.31","","42","","","","Mainly Clear"
"2018-07-01 14:00","2018","07","01","14:00","33.5","","20.0","","44","","22","","27","","19.3","","100.29","","41","","","","NA"
"2018-07-01 15:00","2018","07","01","15:00","33.8","","19.6","","43","","23","","20","","24.1","","100.27","","41","","","","NA"
"2018-07-01 16:00","2018","07","01","16:00","33.6","","20.5","","46","","25","","19","","19.3","","100.23","","42","","","","Mainly Clear"
"2018-07-01 17:00","2018","07","01","17:00","33.4","","20.0","","45","","20","","21","","19.3","","100.17","","41","","","","NA"
"2018-07-01 18:00","2018","07","01","18:00","32.6","","20.6","","49","","24","","18","","19.3","","100.15","","41","","","","NA"
"2018-07-01 19:00","2018","07","01","19:00","31.1","","20.3","","52","","21","","17","","19.3","","100.16","","39","","","","Mainly Clear"
"2018-07-01 20:00","2018","07","01","20:00","28.7","","20.5","","61","","20","","12","","19.3","","100.17","","37","","","","NA"
"2018-07-01 21:00","2018","07","01","21:00"
"2018-07-01 22:00","2018","07","01","22:00"
"2018-07-01 23:00","2018","07","01","23:00"
"2018-07-02 00:00","2018","07","02","00:00"
"2018-07-02 01:00","2018","07","02","01:00"
"2018-07-02 02:00","2018","07","02","02:00"
"2018-07-02 03:00","2018","07","02","03:00"
"2018-07-02 04:00","2018","07","02","04:00"
"2018-07-02 05:00","2018","07","02","05:00"
"2018-07-02 06:00","2018","07","02","06:00","26.3","","21.8","","76","","20","","20","","24.1","","100.22","","35","","","","NA"
"2018-07-02 07:00","2018","07","02","07:00","28.2","","22.6","","71","","21","","17","","24.1","","100.23","","38","","","","Clear"
"2018-07-02 08:00","2018","07","02","08:00","29.6","","22.0","","63","","22","","28","","24.1","","100.27","","39","","","","NA"
"2018-07-02 09:00","2018","07","02","09:00","30.4","","22.2","","61","","21","","30","","24.1","","100.28","","40","","","","NA"
"2018-07-02 10:00","2018","07","02","10:00","31.0","","23.0","","62","","21","","22","","24.1","","100.30","","41","","","","Mainly Clear"
"2018-07-02 11:00","2018","07","02","11:00","31.2","","23.1","","61","","22","","24","","19.3","","100.32","","42","","","","NA"
"2018-07-02 12:00","2018","07","02","12:00","32.2","","23.2","","58","","23","","25","","19.3","","100.31","","43","","","","NA"
"2018-07-02 13:00","2018","07","02","13:00","32.3","","23.1","","58","","21","","23","","24.1","","100.27","","43","","","","Mainly Clear"
"2018-07-02 14:00","2018","07","02","14:00","32.8","","23.4","","57","","23","","28","","19.3","","100.28","","43","","","","NA"
"2018-07-02 15:00","2018","07","02","15:00","29.2","","21.6","","63","","29","","21","","19.3","","100.33","","38","","","","NA"
"2018-07-02 16:00","2018","07","02","16:00","32.1","","23.9","","61","","22","","23","","19.3","","100.25","","43","","","","Mostly Cloudy"
"2018-07-02 17:00","2018","07","02","17:00","30.3","","23.5","","66","","20","","21","","19.3","","100.30","","41","","","","NA"
"2018-07-02 18:00","2018","07","02","18:00","28.3","","22.6","","71","","22","","23","","24.1","","100.37","","38","","","","NA"
"2018-07-02 19:00","2018","07","02","19:00","26.6","","24.3","","87","","22","","15","","19.3","","100.42","","38","","","","Mostly Cloudy"
"2018-07-02 20:00","2018","07","02","20:00","25.8","","23.7","","88","","22","","12","","19.3","","100.51","","37","","","","NA"
"2018-07-02 21:00","2018","07","02","21:00"
"2018-07-02 22:00","2018","07","02","22:00"
"2018-07-02 23:00","2018","07","02","23:00"
"2018-07-03 00:00","2018","07","03","00:00"
"2018-07-03 01:00","2018","07","03","01:00"
"2018-07-03 02:00","2018","07","03","02:00"
"2018-07-03 03:00","2018","07","03","03:00"
"2018-07-03 04:00","2018","07","03","04:00"
"2018-07-03 05:00","2018","07","03","05:00"
"2018-07-03 06:00","2018","07","03","06:00","19.3","","19.3","","100","","36","","2","","24.1","","101.08","","","","","","NA"
"2018-07-03 07:00","2018","07","03","07:00","22.8","","18.1","","74","","7","","4","","24.1","","101.11","","29","","","","Mostly Cloudy"
"2018-07-03 08:00","2018","07","03","08:00","25.2","","17.1","","60","","3","","9","","24.1","","101.17","","31","","","","NA"
"2018-07-03 09:00","2018","07","03","09:00","26.4","","16.0","","52","","7","","14","","24.1","","101.20","","31","","","","NA"
"2018-07-03 10:00","2018","07","03","10:00","27.9","","17.5","","53","","7","","7","","24.1","","101.22","","34","","","","Mainly Clear"
"2018-07-03 11:00","2018","07","03","11:00","28.9","","18.8","","54","","36","","10","","24.1","","101.24","","36","","","","NA"
"2018-07-03 12:00","2018","07","03","12:00","29.2","","17.6","","49","","2","","14","","24.1","","101.20","","35","","","","NA"
"2018-07-03 13:00","2018","07","03","13:00","29.0","","17.9","","50","","2","","18","","24.1","","101.20","","35","","","","Mainly Clear"
"2018-07-03 14:00","2018","07","03","14:00","29.2","","16.6","","46","","2","","17","","24.1","","101.21","","34","","","","NA"
"2018-07-03 15:00","2018","07","03","15:00","28.9","","16.8","","48","","2","","17","","24.1","","101.18","","34","","","","NA"
"2018-07-03 16:00","2018","07","03","16:00","28.8","","15.9","","45","","4","","18","","24.1","","101.17","","33","","","","Mainly Clear"
"2018-07-03 17:00","2018","07","03","17:00","28.8","","15.5","","44","","5","","17","","24.1","","101.16","","33","","","","NA"
"2018-07-03 18:00","2018","07","03","18:00","28.1","","16.1","","47","","5","","12","","24.1","","101.13","","33","","","","NA"
"2018-07-03 19:00","2018","07","03","19:00","26.7","","16.6","","53","","6","","10","","24.1","","101.13","","32","","","","Mainly Clear"
"2018-07-03 20:00","2018","07","03","20:00","24.3","","16.4","","61","","10","","8","","24.1","","101.13","","29","","","","NA"
"2018-07-03 21:00","2018","07","03","21:00"
"2018-07-03 22:00","2018","07","03","22:00"
"2018-07-03 23:00","2018","07","03","23:00"
"2018-07-04 00:00","2018","07","04","00:00"
"2018-07-04 01:00","2018","07","04","01:00"
"2018-07-04 02:00","2018","07","04","02:00"
"2018-07-04 03:00","2018","07","04","03:00"
"2018-07-04 04:00","2018","07","04","04:00"
"2018-07-04 05:00","2018","07","04","05:00"
"2018-07-04 06:00","2018","07","04","06:00","20.8","","17.3","","80","","2","","4","","24.1","","101.29","","26","","","","NA"
"2018-07-04 07:00","2018","07","04","07:00","23.6","","18.1","","71","","1","","7","","24.1","","101.29","","30","","","","Mainly Clear"
"2018-07-04 08:00","2018","07","04","08:00","25.8","","17.9","","61","","36","","4","","24.1","","101.31","","32","","","","NA"
"2018-07-04 09:00","2018","07","04","09:00","27.8","","19.7","","61","","9","","4","","19.3","","101.29","","35","","","","NA"
"2018-07-04 10:00","2018","07","04","10:00","29.9","","20.1","","55","","2","","8","","24.1","","101.28","","38","","","","Clear"
"2018-07-04 11:00","2018","07","04","11:00","31.1","","22.5","","60","","32","","13","","24.1","","101.26","","41","","","","NA"
"2018-07-04 12:00","2018","07","04","12:00","31.1","","21.7","","57","","34","","13","","19.3","","101.24","","40","","","","NA"
"2018-07-04 13:00","2018","07","04","13:00","30.2","","21.9","","60","","34","","16","","19.3","","101.19","","39","","","","Mainly Clear"
"2018-07-04 14:00","2018","07","04","14:00","29.2","","20.8","","60","","1","","15","","24.1","","101.13","","37","","","","NA"
"2018-07-04 15:00","2018","07","04","15:00","29.9","","20.2","","55","","2","","15","","19.3","","101.14","","38","","","","NA"
"2018-07-04 16:00","2018","07","04","16:00","30.3","","19.0","","50","","1","","16","","24.1","","101.12","","37","","","","Mainly Clear"
"2018-07-04 17:00","2018","07","04","17:00","29.5","","19.0","","53","","2","","14","","24.1","","101.09","","36","","","","NA"
"2018-07-04 18:00","2018","07","04","18:00","29.9","","17.2","","46","","6","","12","","24.1","","101.12","","35","","","","NA"
"2018-07-04 19:00","2018","07","04","19:00","28.9","","17.4","","49","","6","","8","","24.1","","101.10","","34","","","","Clear"
"2018-07-04 20:00","2018","07","04","20:00","27.2","","17.9","","56","","10","","8","","24.1","","101.10","","33","","","","NA"
"2018-07-04 21:00","2018","07","04","21:00"
"2018-07-04 22:00","2018","07","04","22:00"
"2018-07-04 23:00","2018","07","04","23:00"
"2018-07-05 00:00","2018","07","05","00:00"
"2018-07-05 01:00","2018","07","05","01:00"
"2018-07-05 02:00","2018","07","05","02:00"
"2018-07-05 03:00","2018","07","05","03:00"
"2018-07-05 04:00","2018","07","05","04:00"
"2018-07-05 05:00","2018","07","05","05:00"
"2018-07-05 06:00","2018","07","05","06:00","24.3","","22.6","","90","","21","","7","","24.1","","101.13","","34","","","","NA"
"2018-07-05 07:00","2018","07","05","07:00","26.9","","23.8","","83","","21","","11","","19.3","","101.13","","38","","","","Mostly Cloudy"
"2018-07-05 08:00","2018","07","05","08:00","28.8","","24.2","","76","","22","","13","","19.3","","101.10","","40","","","","NA"
"2018-07-05 09:00","2018","07","05","09:00","29.6","","24.3","","72","","23","","14","","24.1","","101.04","","41","","","","NA"
"2018-07-05 10:00","2018","07","05","10:00","31.4","","23.4","","62","","19","","17","","24.1","","100.99","","42","","","","Mainly Clear"
"2018-07-05 11:00","2018","07","05","11:00","32.1","","22.4","","56","","23","","11","","24.1","","100.95","","42","","","","NA"
"2018-07-05 12:00","2018","07","05","12:00","33.1","","22.1","","52","","18","","18","","19.3","","100.88","","43","","","","NA"
"2018-07-05 13:00","2018","07","05","13:00","33.2","","21.5","","50","","20","","10","","19.3","","100.80","","42","","","","Mostly Cloudy"
"2018-07-05 14:00","2018","07","05","14:00","33.8","","21.2","","47","","21","","17","","24.1","","100.68","","42","","","","NA"
"2018-07-05 15:00","2018","07","05","15:00","33.6","","22.6","","52","","22","","15","","24.1","","100.62","","43","","","","NA"
"2018-07-05 16:00","2018","07","05","16:00","31.6","","22.3","","57","","21","","26","","24.1","","100.59","","41","","","","Mostly Cloudy"
"2018-07-05 17:00","2018","07","05","17:00","29.2","","23.7","","72","","20","","25","","24.1","","100.57","","40","","","","NA"
"2018-07-05 18:00","2018","07","05","18:00","28.2","","22.9","","73","","22","","23","","24.1","","100.51","","38","","","","NA"
"2018-07-05 19:00","2018","07","05","19:00","28.0","","22.3","","71","","22","","20","","24.1","","100.61","","38","","","","Cloudy"
"2018-07-05 20:00","2018","07","05","20:00","27.6","","22.1","","72","","23","","16","","24.1","","100.57","","37","","","","NA"
"2018-07-05 21:00","2018","07","05","21:00"
"2018-07-05 22:00","2018","07","05","22:00"
"2018-07-05 23:00","2018","07","05","23:00"
"2018-07-06 00:00","2018","07","06","00:00"
"2018-07-06 01:00","2018","07","06","01:00"
"2018-07-06 02:00","2018","07","06","02:00"
"2018-07-06 03:00","2018","07","06","03:00"
"2018-07-06 04:00","2018","07","06","04:00"
"2018-07-06 05:00","2018","07","06","05:00"
"2018-07-06 06:00","2018","07","06","06:00","19.5","","13.9","","70","","31","","23","","24.1","","100.94","","","","","","NA"
"2018-07-06 07:00","2018","07","06","07:00","20.4","","14.3","","67","","32","","26","","24.1","","101.02","","","","","","Mainly Clear"
"2018-07-06 08:00","2018","07","06","08:00","21.5","","14.2","","63","","34","","21","","24.1","","101.08","","25","","","","NA"
"2018-07-06 09:00","2018","07","06","09:00","21.9","","12.5","","54","","35","","22","","24.1","","101.13","","","","","","NA"
"2018-07-06 10:00","2018","07","06","10:00","22.6","","12.1","","51","","36","","22","","24.1","","101.18","","25","","","","Mainly Clear"
"2018-07-06 11:00","2018","07","06","11:00","22.5","","11.5","","49","","35","","26","","24.1","","101.25","","25","","","","NA"
"2018-07-06 12:00","2018","07","06","12:00","22.9","","12.0","","50","","35","","17","","24.1","","101.28","","25","","","","NA"
"2018-07-06 13:00","2018","07","06","13:00","23.0","","10.2","","44","","36","","17","","24.1","","101.31","","","","","","Mainly Clear"
"2018-07-06 14:00","2018","07","06","14:00","23.1","","10.9","","46","","35","","16","","24.1","","101.29","","25","","","","NA"
"2018-07-06 15:00","2018","07","06","15:00","22.9","","11.2","","47","","32","","18","","24.1","","101.25","","25","","","","NA"
"2018-07-06 16:00","2018","07","06","16:00","22.9","","11.6","","48","","33","","16","","24.1","","101.23","","25","","","","Mainly Clear"
"2018-07-06 17:00","2018","07","06","17:00","22.9","","12.2","","50","","36","","14","","24.1","","101.21","","25","","","","NA"
"2018-07-06 18:00","2018","07","06","18:00","22.4","","11.4","","50","","33","","7","","24.1","","101.21","","","","","","NA"
"2018-07-06 19:00","2018","07","06","19:00","21.4","","11.4","","52","","34","","12","","24.1","","101.24","","","","","","Mainly Clear"
"2018-07-06 20:00","2018","07","06","20:00","20.0","","11.1","","56","","36","","15","","24.1","","101.30","","","","","","NA"
"2018-07-06 21:00","2018","07","06","21:00"
"2018-07-06 22:00","2018","07","06","22:00"
"2018-07-06 23:00","2018","07","06","23:00"
"2018-07-07 00:00","2018","07","07","00:00"
"2018-07-07 01:00","2018","07","07","01:00"
"2018-07-07 02:00","2018","07","07","02:00"
"2018-07-07 03:00","2018","07","07","03:00"
"2018-07-07 04:00","2018","07","07","04:00"
"2018-07-07 05:00","2018","07","07","05:00"
"2018-07-07 06:00","2018","07","07","06:00","15.5","","14.0","","91","","20","","5","","24.1","","101.64","","","","","","NA"
"2018-07-07 07:00","2018","07","07","07:00","19.3","","14.4","","73","","36","","1","","24.1","","101.70","","","","","","Clear"
"2018-07-07 08:00","2018","07","07","08:00","20.8","","13.2","","61","","4","","6","","24.1","","101.72","","","","","","NA"
"2018-07-07 09:00","2018","07","07","09:00","22.2","","10.6","","47","","7","","4","","24.1","","101.76","","","","","","NA"
"2018-07-07 10:00","2018","07","07","10:00","23.0","","8.6","","39","","6","","7","","24.1","","101.73","","","","","","Mainly Clear"
"2018-07-07 11:00","2018","07","07","11:00","24.1","","9.8","","40","","36","","16","","24.1","","101.75","","25","","","","NA"
"2018-07-07 12:00","2018","07","07","12:00","24.8","","11.7","","43","","2","","13","","24.1","","101.71","","27","","","","NA"
"2018-07-07 13:00","2018","07","07","13:00","24.7","","8.9","","36","","36","","14","","24.1","","101.62","","25","","","","Mainly Clear"
"2018-07-07 14:00","2018","07","07","14:00","25.2","","9.7","","37","","33","","19","","24.1","","101.56","","26","","","","NA"
"2018-07-07 15:00","2018","07","07","15:00","24.9","","9.3","","37","","36","","15","","24.1","","101.60","","26","","","","NA"
"2018-07-07 16:00","2018","07","07","16:00","24.9","","8.9","","36","","35","","13","","24.1","","101.55","","26","","","","Clear"
"2018-07-07 17:00","2018","07","07","17:00","24.4","","10.0","","40","","35","","9","","24.1","","101.48","","26","","","","NA"
"2018-07-07 18:00","2018","07","07","18:00","24.0","","10.0","","40","","2","","5","","24.1","","101.44","","25","","","","NA"
"2018-07-07 19:00","2018","07","07","19:00","23.6","","11.4","","46","","7","","7","","24.1","","101.43","","26","","","","Mainly Clear"
"2018-07-07 20:00","2018","07","07","20:00","21.0","","11.3","","54","","11","","6","","24.1","","101.42","","","","","","NA"
"2018-07-07 21:00","2018","07","07","21:00"
"2018-07-07 22:00","2018","07","07","22:00"
"2018-07-07 23:00","2018","07","07","23:00"
"2018-07-08 00:00","2018","07","08","00:00"
"2018-07-08 01:00","2018","07","08","01:00"
"2018-07-08 02:00","2018","07","08","02:00"
"2018-07-08 03:00","2018","07","08","03:00"
"2018-07-08 04:00","2018","07","08","04:00"
"2018-07-08 05:00","2018","07","08","05:00"
"2018-07-08 06:00","2018","07","08","06:00","18.0","","14.5","","80","","26","","4","","24.1","","101.53","","","","","","NA"
"2018-07-08 07:00","2018","07","08","07:00","20.9","","15.1","","69","","20","","11","","24.1","","101.55","","25","","","","Mainly Clear"
"2018-07-08 08:00","2018","07","08","08:00","23.8","","14.5","","56","","21","","17","","24.1","","101.55","","27","","","","NA"
"2018-07-08 09:00","2018","07","08","09:00","25.6","","13.9","","48","","21","","17","","24.1","","101.55","","29","","","","NA"
"2018-07-08 10:00","2018","07","08","10:00","26.9","","13.4","","43","","23","","16","","24.1","","101.52","","30","","","","Mainly Clear"
"2018-07-08 11:00","2018","07","08","11:00","27.1","","13.2","","42","","22","","14","","24.1","","101.49","","30","","","","NA"
"2018-07-08 12:00","2018","07","08","12:00","28.1","","11.9","","36","","19","","19","","24.1","","101.45","","30","","","","NA"
"2018-07-08 13:00","2018","07","08","13:00","28.0","","12.7","","38","","20","","18","","24.1","","101.44","","31","","","","Mainly Clear"
"2018-07-08 14:00","2018","07","08","14:00","28.4","","11.1","","33","","25","","11","","24.1","","101.35","","30","","","","NA"
"2018-07-08 15:00","2018","07","08","15:00","28.5","","9.9","","31","","26","","9","","24.1","","101.31","","30","","","","NA"
"2018-07-08 16:00","2018","07","08","16:00","28.8","","9.6","","30","","18","","22","","24.1","","101.26","","30","","","","Clear"
"2018-07-08 17:00","2018","07","08","17:00","28.3","","11.0","","34","","21","","21","","24.1","","101.24","","30","","","","NA"
"2018-07-08 18:00","2018","07","08","18:00","27.7","","12.0","","37","","20","","19","","24.1","","101.21","","30","","","","NA"
"2018-07-08 19:00","2018","07","08","19:00","26.1","","12.5","","42","","21","","12","","24.1","","101.17","","29","","","","Clear"
"2018-07-08 20:00","2018","07","08","20:00","23.3","","12.4","","50","","22","","12","","24.1","","101.15","","26","","","","NA"
"2018-07-08 21:00","2018","07","08","21:00"
"2018-07-08 22:00","2018","07","08","22:00"
"2018-07-08 23:00","2018","07","08","23:00"
"2018-07-09 00:00","2018","07","09","00:00"
"2018-07-09 01:00","2018","07","09","01:00"
"2018-07-09 02:00","2018","07","09","02:00"
"2018-07-09 03:00","2018","07","09","03:00"
"2018-07-09 04:00","2018","07","09","04:00"
"2018-07-09 05:00","2018","07","09","05:00"
"2018-07-09 06:00","2018","07","09","06:00","20.2","","18.4","","89","","20","","12","","24.1","","101.04","","27","","","","NA"
"2018-07-09 07:00","2018","07","09","07:00","22.4","","18.8","","80","","25","","9","","24.1","","101.00","","29","","","","Clear"
"2018-07-09 08:00","2018","07","09","08:00","25.4","","15.9","","55","","24","","17","","24.1","","101.02","","30","","","","NA"
"2018-07-09 09:00","2018","07","09","09:00","27.6","","16.6","","51","","24","","14","","24.1","","100.99","","33","","","","NA"
"2018-07-09 10:00","2018","07","09","10:00","28.6","","15.4","","44","","21","","13","","24.1","","100.93","","33","","","","Mainly Clear"
"2018-07-09 11:00","2018","07","09","11:00","29.7","","12.3","","34","","25","","20","","24.1","","100.87","","32","","","","NA"
"2018-07-09 12:00","2018","07","09","12:00","31.1","","16.5","","41","","22","","20","","24.1","","100.81","","36","","","","NA"
"2018-07-09 13:00","2018","07","09","13:00","30.6","","18.3","","47","","22","","27","","24.1","","100.76","","37","","","","Clear"
"2018-07-09 14:00","2018","07","09","14:00","30.5","","17.2","","44","","20","","31","","24.1","","100.72","","36","","","","NA"
"2018-07-09 15:00","2018","07","09","15:00","30.3","","15.7","","41","","21","","26","","24.1","","100.66","","35","","","","NA"
"2018-07-09 16:00","2018","07","09","16:00","29.6","","14.1","","38","","21","","29","","24.1","","100.62","","33","","","","Mainly Clear"
"2018-07-09 17:00","2018","07","09","17:00","28.5","","13.5","","39","","22","","27","","24.1","","100.55","","32","","","","NA"
"2018-07-09 18:00","2018","07","09","18:00","27.8","","14.4","","44","","21","","30","","24.1","","100.51","","31","","","","NA"
"2018-07-09 19:00","2018","07","09","19:00","25.6","","15.9","","55","","22","","17","","24.1","","100.51","","30","","","","Mostly Cloudy"
"2018-07-09 20:00","2018","07","09","20:00","24.6","","15.6","","56","","22","","21","","24.1","","100.52","","29","","","","NA"
"2018-07-09 21:00","2018","07","09","21:00"
"2018-07-09 22:00","2018","07","09","22:00"
"2018-07-09 23:00","2018","07","09","23:00"
"2018-07-10 00:00","2018","07","10","00:00"
"2018-07-10 01:00","2018","07","10","01:00"
"2018-07-10 02:00","2018","07","10","02:00"
"2018-07-10 03:00","2018","07","10","03:00"
"2018-07-10 04:00","2018","07","10","04:00"
"2018-07-10 05:00","2018","07","10","05:00"
"2018-07-10 06:00","2018","07","10","06:00","22.8","","17.6","","72","","27","","9","","24.1","","100.31","","29","","","","NA"
"2018-07-10 07:00","2018","07","10","07:00","23.7","","17.6","","68","","27","","12","","24.1","","100.36","","29","","","","Mostly Cloudy"
"2018-07-10 08:00","2018","07","10","08:00","24.6","","16.9","","62","","29","","16","","24.1","","100.36","","30","","","","NA"
"2018-07-10 09:00","2018","07","10","09:00","25.6","","15.5","","53","","30","","11","","24.1","","100.35","","30","","","","NA"
"2018-07-10 10:00","2018","07","10","10:00","27.0","","15.2","","48","","30","","8","","24.1","","100.31","","31","","","","Mainly Clear"
"2018-07-10 11:00","2018","07","10","11:00","28.2","","12.9","","38","","27","","12","","24.1","","100.31","","31","","","","NA"
"2018-07-10 12:00","2018","07","10","12:00","29.5","","11.4","","32","","28","","14","","24.1","","100.30","","31","","","","NA"
"2018-07-10 13:00","2018","07","10","13:00","30.2","","10.4","","29","","31","","14","","24.1","","100.28","","32","","","","Mainly Clear"
"2018-07-10 14:00","2018","07","10","14:00","29.7","","8.6","","26","","35","","14","","24.1","","100.26","","30","","","","NA"
"2018-07-10 15:00","2018","07","10","15:00","29.5","","9.5","","28","","34","","15","","24.1","","100.23","","31","","","","NA"
"2018-07-10 16:00","2018","07","10","16:00","29.1","","11.3","","32","","34","","13","","24.1","","100.20","","31","","","","Mainly Clear"
"2018-07-10 17:00","2018","07","10","17:00","28.2","","10.7","","33","","35","","13","","24.1","","100.20","","30","","","","NA"
"2018-07-10 18:00","2018","07","10","18:00","26.4","","15.5","","51","","35","","18","","24.1","","100.21","","31","","","","NA"
"2018-07-10 19:00","2018","07","10","19:00","24.8","","14.4","","52","","34","","22","","24.1","","100.28","","28","","","","Mostly Cloudy"
"2018-07-10 20:00","2018","07","10","20:00","23.5","","14.6","","57","","34","","23","","24.1","","100.33","","27","","","","NA"
"2018-07-10 21:00","2018","07","10","21:00"
"2018-07-10 22:00","2018","07","10","22:00"
"2018-07-10 23:00","2018","07","10","23:00"
"2018-07-11 00:00","2018","07","11","00:00"
"2018-07-11 01:00","2018","07","11","01:00"
"2018-07-11 02:00","2018","07","11","02:00"
"2018-07-11 03:00","2018","07","11","03:00"
"2018-07-11 04:00","2018","07","11","04:00"
"2018-07-11 05:00","2018","07","11","05:00"
"2018-07-11 06:00","2018","07","11","06:00","17.4","","15.3","","87","","36","","1","","24.1","","100.69","","","","","","NA"
"2018-07-11 07:00","2018","07","11","07:00","21.6","","15.3","","67","","2","","11","","24.1","","100.76","","26","","","","Clear"
"2018-07-11 08:00","2018","07","11","08:00","22.7","","14.9","","61","","1","","8","","24.1","","100.77","","27","","","","NA"
"2018-07-11 09:00","2018","07","11","09:00","23.8","","15.4","","59","","1","","8","","24.1","","100.77","","28","","","","NA"
"2018-07-11 10:00","2018","07","11","10:00","24.3","","15.8","","59","","35","","12","","24.1","","100.81","","29","","","","Mainly Clear"
"2018-07-11 11:00","2018","07","11","11:00","24.3","","15.8","","58","","35","","13","","24.1","","100.83","","29","","","","NA"
"2018-07-11 12:00","2018","07","11","12:00","25.6","","11.1","","40","","34","","13","","24.1","","100.83","","27","","","","NA"
"2018-07-11 13:00","2018","07","11","13:00","25.6","","10.0","","37","","2","","8","","24.1","","100.81","","27","","","","Mostly Cloudy"
"2018-07-11 14:00","2018","07","11","14:00","25.4","","9.7","","36","","2","","8","","24.1","","100.80","","27","","","","NA"
"2018-07-11 15:00","2018","07","11","15:00","26.1","","9.0","","33","","2","","16","","24.1","","100.79","","27","","","","NA"
"2018-07-11 16:00","2018","07","11","16:00","25.9","","9.6","","35","","4","","9","","24.1","","100.78","","27","","","","Mainly Clear"
"2018-07-11 17:00","2018","07","11","17:00","25.7","","9.1","","34","","5","","7","","24.1","","100.79","","27","","","","NA"
"2018-07-11 18:00","2018","07","11","18:00","25.4","","8.9","","35","","3","","5","","24.1","","100.75","","26","","","","NA"
"2018-07-11 19:00","2018","07","11","19:00","24.5","","9.9","","39","","8","","4","","24.1","","100.73","","26","","","","Clear"
"2018-07-11 20:00","2018","07","11","20:00","21.5","","12.2","","55","","34","","5","","24.1","","100.76","","","","","","NA"
"2018-07-11 21:00","2018","07","11","21:00"
"2018-07-11 22:00","2018","07","11","22:00"
"2018-07-11 23:00","2018","07","11","23:00"
"2018-07-12 00:00","2018","07","12","00:00"
"2018-07-12 01:00","2018","07","12","01:00"
"2018-07-12 02:00","2018","07","12","02:00"
"2018-07-12 03:00","2018","07","12","03:00"
"2018-07-12 04:00","2018","07","12","04:00"
"2018-07-12 05:00","2018","07","12","05:00"
"2018-07-12 06:00","2018","07","12","06:00","16.9","","15.1","","88","","20","","8","","24.1","","101.07","","","","","","NA"
"2018-07-12 07:00","2018","07","12","07:00","21.3","","15.8","","71","","25","","9","","24.1","","101.13","","26","","","","Clear"
"2018-07-12 08:00","2018","07","12","08:00","23.3","","15.3","","61","","30","","11","","24.1","","101.18","","27","","","","NA"
"2018-07-12 09:00","2018","07","12","09:00","24.2","","15.0","","56","","30","","11","","24.1","","101.20","","28","","","","NA"
"2018-07-12 10:00","2018","07","12","10:00","24.8","","14.3","","52","","34","","9","","24.1","","101.16","","28","","","","Cloudy"
"2018-07-12 11:00","2018","07","12","11:00","26.3","","14.8","","48","","34","","8","","24.1","","101.15","","30","","","","NA"
"2018-07-12 12:00","2018","07","12","12:00","27.4","","15.0","","46","","34","","11","","24.1","","101.17","","31","","","","NA"
"2018-07-12 13:00","2018","07","12","13:00","27.0","","12.2","","39","","35","","13","","24.1","","101.12","","29","","","","Cloudy"
"2018-07-12 14:00","2018","07","12","14:00","26.9","","12.0","","39","","33","","13","","24.1","","101.09","","29","","","","NA"
"2018-07-12 15:00","2018","07","12","15:00","28.5","","10.4","","32","","6","","4","","24.1","","101.03","","30","","","","NA"
"2018-07-12 16:00","2018","07","12","16:00","28.6","","12.3","","36","","34","","13","","24.1","","101.02","","31","","","","Cloudy"
"2018-07-12 17:00","2018","07","12","17:00","28.0","","11.9","","36","","36","","10","","24.1","","101.00","","30","","","","NA"
"2018-07-12 18:00","2018","07","12","18:00","27.3","","11.7","","37","","36","","11","","24.1","","101.01","","29","","","","NA"
"2018-07-12 19:00","2018","07","12","19:00","25.2","","13.9","","49","","4","","4","","24.1","","101.01","","29","","","","Cloudy"
"2018-07-12 20:00","2018","07","12","20:00","23.9","","15.2","","58","","20","","3","","24.1","","101.01","","28","","","","NA"
"2018-07-12 21:00","2018","07","12","21:00"
"2018-07-12 22:00","2018","07","12","22:00"
"2018-07-12 23:00","2018","07","12","23:00"
"2018-07-13 00:00","2018","07","13","00:00"
"2018-07-13 01:00","2018","07","13","01:00"
"2018-07-13 02:00","2018","07","13","02:00"
"2018-07-13 03:00","2018","07","13","03:00"
"2018-07-13 04:00","2018","07","13","04:00"
"2018-07-13 05:00","2018","07","13","05:00"
"2018-07-13 06:00","2018","07","13","06:00","21.9","","15.6","","67","","20","","8","","24.1","","101.01","","26","","","","NA"
"2018-07-13 07:00","2018","07","13","07:00","24.4","","15.6","","57","","19","","14","","24.1","","101.04","","29","","","","Cloudy"
"2018-07-13 08:00","2018","07","13","08:00","26.6","","16.2","","52","","22","","13","","24.1","","101.03","","31","","","","NA"
"2018-07-13 09:00","2018","07","13","09:00","27.9","","16.4","","49","","21","","14","","24.1","","100.99","","33","","","","NA"
"2018-07-13 10:00","2018","07","13","10:00","28.8","","15.1","","43","","16","","16","","24.1","","100.95","","33","","","","Cloudy"
"2018-07-13 11:00","2018","07","13","11:00","29.5","","14.4","","39","","19","","11","","24.1","","100.92","","33","","","","NA"
"2018-07-13 12:00","2018","07","13","12:00","29.9","","11.8","","32","","20","","24","","24.1","","100.91","","32","","","","NA"
"2018-07-13 13:00","2018","07","13","13:00","29.4","","11.4","","32","","20","","22","","24.1","","100.89","","31","","","","Mostly Cloudy"
"2018-07-13 14:00","2018","07","13","14:00","30.4","","11.1","","30","","17","","14","","24.1","","100.85","","32","","","","NA"
"2018-07-13 15:00","2018","07","13","15:00","30.7","","12.5","","32","","21","","19","","24.1","","100.80","","33","","","","NA"
"2018-07-13 16:00","2018","07","13","16:00","29.6","","13.2","","36","","23","","18","","24.1","","100.73","","33","","","","Mostly Cloudy"
"2018-07-13 17:00","2018","07","13","17:00","30.1","","14.5","","38","","23","","15","","24.1","","100.68","","34","","","","NA"
"2018-07-13 18:00","2018","07","13","18:00","29.6","","14.1","","38","","23","","18","","24.1","","100.66","","33","","","","NA"
"2018-07-13 19:00","2018","07","13","19:00","27.4","","14.2","","44","","23","","14","","24.1","","100.65","","31","","","","Mostly Cloudy"
"2018-07-13 20:00","2018","07","13","20:00","26.0","","14.7","","49","","22","","9","","24.1","","100.65","","30","","","","NA"
"2018-07-13 21:00","2018","07","13","21:00"
"2018-07-13 22:00","2018","07","13","22:00"
"2018-07-13 23:00","2018","07","13","23:00"
"2018-07-14 00:00","2018","07","14","00:00"
"2018-07-14 01:00","2018","07","14","01:00"
"2018-07-14 02:00","2018","07","14","02:00"
"2018-07-14 03:00","2018","07","14","03:00"
"2018-07-14 04:00","2018","07","14","04:00"
"2018-07-14 05:00","2018","07","14","05:00"
"2018-07-14 06:00","2018","07","14","06:00","22.8","","18.3","","75","","29","","5","","19.3","","100.61","","29","","","","NA"
"2018-07-14 07:00","2018","07","14","07:00","24.6","","18.8","","70","","27","","7","","24.1","","100.61","","31","","","","Cloudy"
"2018-07-14 08:00","2018","07","14","08:00","27.1","","18.9","","60","","24","","10","","24.1","","100.60","","34","","","","NA"
"2018-07-14 09:00","2018","07","14","09:00","27.6","","17.9","","55","","25","","14","","24.1","","100.58","","34","","","","NA"
"2018-07-14 10:00","2018","07","14","10:00","29.6","","19.0","","52","","31","","8","","24.1","","100.56","","36","","","","Mostly Cloudy"
"2018-07-14 11:00","2018","07","14","11:00","28.1","","19.1","","57","","35","","5","","24.1","","100.57","","35","","","","NA"
"2018-07-14 12:00","2018","07","14","12:00","27.5","","19.6","","62","","1","","5","","24.1","","100.53","","35","","","","NA"
"2018-07-14 13:00","2018","07","14","13:00","26.9","","20.5","","68","","35","","12","","24.1","","100.56","","35","","","","Cloudy"
"2018-07-14 14:00","2018","07","14","14:00","26.4","","20.4","","69","","29","","4","","12.9","","100.57","","34","","","","Rain"
"2018-07-14 15:00","2018","07","14","15:00","26.5","","22.7","","79","","22","","15","","9.7","","100.58","","36","","","","Rain"
"2018-07-14 16:00","2018","07","14","16:00","25.5","","22.2","","82","","22","","14","","16.1","","100.56","","35","","","","Rain"
"2018-07-14 17:00","2018","07","14","17:00","24.9","","20.5","","76","","20","","15","","24.1","","100.51","","33","","","","NA"
"2018-07-14 18:00","2018","07","14","18:00","24.2","","16.8","","63","","20","","16","","24.1","","100.41","","29","","","","NA"
"2018-07-14 19:00","2018","07","14","19:00","23.6","","18.6","","73","","19","","14","","24.1","","100.39","","30","","","","Cloudy"
"2018-07-14 20:00","2018","07","14","20:00","22.3","","19.1","","82","","19","","11","","24.1","","100.33","","29","","","","NA"
"2018-07-14 21:00","2018","07","14","21:00"
"2018-07-14 22:00","2018","07","14","22:00"
"2018-07-14 23:00","2018","07","14","23:00"
"2018-07-15 00:00","2018","07","15","00:00"
"2018-07-15 01:00","2018","07","15","01:00"
"2018-07-15 02:00","2018","07","15","02:00"
"2018-07-15 03:00","2018","07","15","03:00"
"2018-07-15 04:00","2018","07","15","04:00"
"2018-07-15 05:00","2018","07","15","05:00"
"2018-07-15 06:00","2018","07","15","06:00","22.2","","20.9","","92","","21","","7","","16.1","","100.42","","31","","","","NA"
"2018-07-15 07:00","2018","07","15","07:00","24.5","","20.7","","79","","28","","7","","16.1","","100.42","","33","","","","Mainly Clear"
"2018-07-15 08:00","2018","07","15","08:00","25.3","","21.5","","79","","29","","8","","16.1","","100.39","","34","","","","NA"
"2018-07-15 09:00","2018","07","15","09:00","27.1","","21.8","","72","","32","","7","","16.1","","100.37","","36","","","","NA"
"2018-07-15 10:00","2018","07","15","10:00","27.4","","21.5","","70","","36","","13","","12.9","","100.36","","36","","","","Mainly Clear"
"2018-07-15 11:00","2018","07","15","11:00","27.9","","21.3","","67","","35","","8","","11.3","","100.37","","37","","","","NA"
"2018-07-15 12:00","2018","07","15","12:00","28.2","","21.4","","66","","36","","11","","12.9","","100.37","","37","","","","NA"
"2018-07-15 13:00","2018","07","15","13:00","29.4","","20.8","","59","","34","","14","","16.1","","100.35","","38","","","","Mainly Clear"
"2018-07-15 14:00","2018","07","15","14:00","29.3","","19.8","","56","","36","","14","","19.3","","100.32","","37","","","","NA"
"2018-07-15 15:00","2018","07","15","15:00","30.2","","19.7","","53","","35","","12","","19.3","","100.29","","38","","","","NA"
"2018-07-15 16:00","2018","07","15","16:00","29.8","","19.2","","52","","34","","9","","24.1","","100.25","","37","","","","Mainly Clear"
"2018-07-15 17:00","2018","07","15","17:00","29.3","","18.9","","53","","1","","8","","24.1","","100.20","","36","","","","NA"
"2018-07-15 18:00","2018","07","15","18:00","28.8","","18.6","","53","","3","","7","","24.1","","100.16","","35","","","","NA"
"2018-07-15 19:00","2018","07","15","19:00","26.6","","19.5","","65","","2","","9","","24.1","","100.20","","34","","","","Mostly Cloudy"
"2018-07-15 20:00","2018","07","15","20:00","25.7","","19.6","","69","","14","","5","","24.1","","100.18","","33","","","","NA"
"2018-07-15 21:00","2018","07","15","21:00"
"2018-07-15 22:00","2018","07","15","22:00"
"2018-07-15 23:00","2018","07","15","23:00"
"2018-07-16 00:00","2018","07","16","00:00"
"2018-07-16 01:00","2018","07","16","01:00"
"2018-07-16 02:00","2018","07","16","02:00"
"2018-07-16 03:00","2018","07","16","03:00"
"2018-07-16 04:00","2018","07","16","04:00"
"2018-07-16 05:00","2018","07","16","05:00"
"2018-07-16 06:00","2018","07","16","06:00","23.0","","22.0","","94","","20","","9","","12.9","","100.19","","32","","","","NA"
"2018-07-16 07:00","2018","07","16","07:00","25.7","","22.0","","80","","19","","13","","16.1","","100.20","","35","","","","Mostly Cloudy"
"2018-07-16 08:00","2018","07","16","08:00","27.9","","22.4","","72","","17","","14","","19.3","","100.18","","38","","","","NA"
"2018-07-16 09:00","2018","07","16","09:00","29.9","","22.3","","63","","18","","13","","24.1","","100.16","","40","","","","NA"
"2018-07-16 10:00","2018","07","16","10:00","31.1","","21.0","","54","","17","","10","","19.3","","100.12","","40","","","","Mostly Cloudy"
"2018-07-16 11:00","2018","07","16","11:00","31.7","","21.4","","54","","19","","27","","24.1","","100.10","","40","","","","NA"
"2018-07-16 12:00","2018","07","16","12:00","32.8","","22.1","","53","","23","","20","","24.1","","100.04","","42","","","","NA"
"2018-07-16 13:00","2018","07","16","13:00","32.5","","20.9","","50","","21","","26","","24.1","","99.99","","41","","","","Cloudy"
"2018-07-16 14:00","2018","07","16","14:00","33.8","","18.2","","39","","23","","18","","24.1","","99.90","","40","","","","NA"
"2018-07-16 15:00","2018","07","16","15:00","28.1","","21.4","","66","","8","","19","","19.3","","99.91","","37","","","","NA"
"2018-07-16 16:00","2018","07","16","16:00","31.3","","21.2","","54","","10","","10","","24.1","","99.83","","40","","","","Mostly Cloudy"
"2018-07-16 17:00","2018","07","16","17:00","27.5","","21.2","","68","","4","","12","","19.3","","99.84","","36","","","","NA"
"2018-07-16 18:00","2018","07","16","18:00","27.4","","21.1","","68","","2","","3","","19.3","","99.81","","36","","","","NA"
"2018-07-16 19:00","2018","07","16","19:00","28.5","","20.8","","62","","21","","13","","16.1","","99.81","","37","","","","Cloudy"
"2018-07-16 20:00","2018","07","16","20:00","24.8","","20.9","","79","","32","","7","","16.1","","99.79","","33","","","","NA"
"2018-07-16 21:00","2018","07","16","21:00"
"2018-07-16 22:00","2018","07","16","22:00"
"2018-07-16 23:00","2018","07","16","23:00"
"2018-07-17 00:00","2018","07","17","00:00"
"2018-07-17 01:00","2018","07","17","01:00"
"2018-07-17 02:00","2018","07","17","02:00"
"2018-07-17 03:00","2018","07","17","03:00"
"2018-07-17 04:00","2018","07","17","04:00"
"2018-07-17 05:00","2018","07","17","05:00"
"2018-07-17 06:00","2018","07","17","06:00","21.9","","18.6","","81","","32","","8","","24.1","","99.89","","28","","","","NA"
"2018-07-17 07:00","2018","07","17","07:00","22.6","","15.9","","65","","33","","13","","24.1","","99.95","","27","","","","Mostly Cloudy"
"2018-07-17 08:00","2018","07","17","08:00","24.0","","15.2","","57","","32","","17","","24.1","","99.99","","28","","","","NA"
"2018-07-17 09:00","2018","07","17","09:00","25.1","","14.4","","51","","31","","13","","24.1","","100.00","","29","","","","NA"
"2018-07-17 10:00","2018","07","17","10:00","25.8","","14.9","","50","","31","","13","","24.1","","100.01","","30","","","","Mainly Clear"
"2018-07-17 11:00","2018","07","17","11:00","26.8","","13.1","","42","","30","","19","","24.1","","100.03","","30","","","","NA"
"2018-07-17 12:00","2018","07","17","12:00","27.8","","13.6","","41","","32","","20","","24.1","","100.03","","31","","","","NA"
"2018-07-17 13:00","2018","07","17","13:00","27.4","","12.5","","39","","31","","22","","24.1","","99.99","","30","","","","Mainly Clear"
"2018-07-17 14:00","2018","07","17","14:00","27.4","","11.7","","37","","32","","24","","24.1","","99.99","","30","","","","NA"
"2018-07-17 15:00","2018","07","17","15:00","27.3","","12.9","","40","","32","","23","","24.1","","99.99","","30","","","","NA"
"2018-07-17 16:00","2018","07","17","16:00","27.1","","11.2","","37","","31","","22","","24.1","","99.98","","29","","","","Mainly Clear"
"2018-07-17 17:00","2018","07","17","17:00","26.8","","13.1","","42","","31","","22","","24.1","","99.97","","30","","","","NA"
"2018-07-17 18:00","2018","07","17","18:00","25.8","","13.8","","47","","30","","24","","24.1","","100.00","","29","","","","NA"
"2018-07-17 19:00","2018","07","17","19:00","24.0","","15.2","","58","","33","","16","","24.1","","100.09","","28","","","","Mainly Clear"
"2018-07-17 20:00","2018","07","17","20:00","22.6","","12.1","","51","","35","","24","","24.1","","100.16","","25","","","","NA"
"2018-07-17 21:00","2018","07","17","21:00"
"2018-07-17 22:00","2018","07","17","22:00"
"2018-07-17 23:00","2018","07","17","23:00"
"2018-07-18 00:00","2018","07","18","00:00"
"2018-07-18 01:00","2018","07","18","01:00"
"2018-07-18 02:00","2018","07","18","02:00"
"2018-07-18 03:00","2018","07","18","03:00"
"2018-07-18 04:00","2018","07","18","04:00"
"2018-07-18 05:00","2018","07","18","05:00"
"2018-07-18 06:00","2018","07","18","06:00","19.5","","14.5","","72","","3","","12","","24.1","","100.55","","","","","","NA"
"2018-07-18 07:00","2018","07","18","07:00","19.8","","14.8","","72","","5","","12","","24.1","","100.60","","","","","","Mostly Cloudy"
"2018-07-18 08:00","2018","07","18","08:00","21.4","","13.0","","58","","3","","17","","24.1","","100.65","","","","","","NA"
"2018-07-18 09:00","2018","07","18","09:00","21.5","","12.7","","57","","2","","18","","24.1","","100.65","","","","","","NA"
"2018-07-18 10:00","2018","07","18","10:00","21.8","","12.6","","55","","2","","18","","24.1","","100.66","","","","","","Mostly Cloudy"
"2018-07-18 11:00","2018","07","18","11:00","22.3","","11.8","","51","","1","","9","","24.1","","100.68","","","","","","NA"
"2018-07-18 12:00","2018","07","18","12:00","22.9","","10.9","","46","","36","","14","","24.1","","100.67","","25","","","","NA"
"2018-07-18 13:00","2018","07","18","13:00","22.5","","11.2","","48","","1","","11","","24.1","","100.65","","","","","","Mainly Clear"
"2018-07-18 14:00","2018","07","18","14:00","23.2","","10.6","","44","","4","","5","","24.1","","100.65","","25","","","","NA"
"2018-07-18 15:00","2018","07","18","15:00","23.7","","10.0","","41","","36","","9","","24.1","","100.59","","25","","","","NA"
"2018-07-18 16:00","2018","07","18","16:00","23.8","","10.0","","41","","36","","12","","24.1","","100.54","","25","","","","Clear"
"2018-07-18 17:00","2018","07","18","17:00","23.7","","10.3","","42","","1","","9","","24.1","","100.49","","25","","","","NA"
"2018-07-18 18:00","2018","07","18","18:00","23.4","","9.9","","42","","8","","9","","24.1","","100.50","","25","","","","NA"
"2018-07-18 19:00","2018","07","18","19:00","22.4","","10.4","","46","","9","","9","","24.1","","100.48","","","","","","Mainly Clear"
"2018-07-18 20:00","2018","07","18","20:00","20.9","","10.6","","51","","14","","6","","24.1","","100.49","","","","","","NA"
"2018-07-18 21:00","2018","07","18","21:00"
"2018-07-18 22:00","2018","07","18","22:00"
"2018-07-18 23:00","2018","07","18","23:00"
"2018-07-19 00:00","2018","07","19","00:00"
"2018-07-19 01:00","2018","07","19","01:00"
"2018-07-19 02:00","2018","07","19","02:00"
"2018-07-19 03:00","2018","07","19","03:00"
"2018-07-19 04:00","2018","07","19","04:00"
"2018-07-19 05:00","2018","07","19","05:00"
"2018-07-19 06:00","2018","07","19","06:00","16.2","","12.2","","77","","23","","13","","24.1","","100.72","","","","","","NA"
"2018-07-19 07:00","2018","07","19","07:00","19.1","","12.5","","65","","25","","10","","24.1","","100.72","","","","","","Mainly Clear"
"2018-07-19 08:00","2018","07","19","08:00","21.7","","13.7","","60","","27","","7","","24.1","","100.74","","25","","","","NA"
"2018-07-19 09:00","2018","07","19","09:00","23.2","","14.1","","56","","31","","9","","24.1","","100.73","","27","","","","NA"
"2018-07-19 10:00","2018","07","19","10:00","24.3","","13.5","","50","","31","","11","","24.1","","100.73","","27","","","","Clear"
"2018-07-19 11:00","2018","07","19","11:00","24.5","","12.3","","46","","30","","10","","24.1","","100.74","","27","","","","NA"
"2018-07-19 12:00","2018","07","19","12:00","24.9","","10.5","","40","","29","","7","","24.1","","100.71","","26","","","","NA"
"2018-07-19 13:00","2018","07","19","13:00","26.3","","11.3","","39","","35","","16","","24.1","","100.66","","28","","","","Mainly Clear"
"2018-07-19 14:00","2018","07","19","14:00","26.3","","9.6","","34","","33","","16","","24.1","","100.62","","27","","","","NA"
"2018-07-19 15:00","2018","07","19","15:00","27.0","","10.0","","34","","2","","14","","24.1","","100.59","","28","","","","NA"
"2018-07-19 16:00","2018","07","19","16:00","26.5","","9.7","","34","","35","","14","","24.1","","100.55","","28","","","","Mainly Clear"
"2018-07-19 17:00","2018","07","19","17:00","26.5","","11.2","","38","","36","","10","","24.1","","100.53","","28","","","","NA"
"2018-07-19 18:00","2018","07","19","18:00","26.3","","11.8","","40","","7","","9","","24.1","","100.53","","28","","","","NA"
"2018-07-19 19:00","2018","07","19","19:00","24.7","","11.9","","44","","6","","8","","24.1","","100.50","","27","","","","Mainly Clear"
"2018-07-19 20:00","2018","07","19","20:00","21.1","","12.6","","58","","9","","8","","24.1","","100.51","","","","","","NA"
"2018-07-19 21:00","2018","07","19","21:00"
"2018-07-19 22:00","2018","07","19","22:00"
"2018-07-19 23:00","2018","07","19","23:00"
"2018-07-20 00:00","2018","07","20","00:00"
"2018-07-20 01:00","2018","07","20","01:00"
"2018-07-20 02:00","2018","07","20","02:00"
"2018-07-20 03:00","2018","07","20","03:00"
"2018-07-20 04:00","2018","07","20","04:00"
"2018-07-20 05:00","2018","07","20","05:00"
"2018-07-20 06:00","2018","07","20","06:00","21.8","","15.7","","68","","16","","19","","24.1","","100.42","","26","","","","NA"
"2018-07-20 07:00","2018","07","20","07:00","24.1","","15.8","","59","","16","","20","","24.1","","100.41","","29","","","","Mainly Clear"
"2018-07-20 08:00","2018","07","20","08:00","26.2","","16.0","","53","","18","","24","","24.1","","100.42","","31","","","","NA"
"2018-07-20 09:00","2018","07","20","09:00","28.5","","15.7","","45","","18","","20","","24.1","","100.40","","33","","","","NA"
"2018-07-20 10:00","2018","07","20","10:00","29.4","","15.6","","43","","18","","21","","24.1","","100.36","","34","","","","Mainly Clear"
"2018-07-20 11:00","2018","07","20","11:00","31.4","","15.8","","38","","13","","18","","24.1","","100.31","","36","","","","NA"
"2018-07-20 12:00","2018","07","20","12:00","32.1","","13.5","","32","","18","","14","","24.1","","100.26","","35","","","","NA"
"2018-07-20 13:00","2018","07","20","13:00","33.2","","10.6","","25","","15","","23","","24.1","","100.21","","35","","","","Mostly Cloudy"
"2018-07-20 14:00","2018","07","20","14:00","32.9","","11.2","","26","","18","","25","","24.1","","100.13","","35","","","","NA"
"2018-07-20 15:00","2018","07","20","15:00","32.4","","10.8","","26","","18","","21","","24.1","","100.08","","34","","","","NA"
"2018-07-20 16:00","2018","07","20","16:00","31.9","","12.4","","30","","18","","24","","24.1","","100.04","","34","","","","Cloudy"
"2018-07-20 17:00","2018","07","20","17:00","31.9","","13.0","","31","","16","","19","","24.1","","99.98","","35","","","","NA"
"2018-07-20 18:00","2018","07","20","18:00","30.9","","14.5","","36","","16","","18","","24.1","","99.96","","35","","","","NA"
"2018-07-20 19:00","2018","07","20","19:00","30.0","","15.1","","40","","16","","25","","24.1","","99.97","","34","","","","Cloudy"
"2018-07-20 20:00","2018","07","20","20:00","28.4","","15.4","","45","","15","","22","","24.1","","99.98","","33","","","","NA"
"2018-07-20 21:00","2018","07","20","21:00"
"2018-07-20 22:00","2018","07","20","22:00"
"2018-07-20 23:00","2018","07","20","23:00"
"2018-07-21 00:00","2018","07","21","00:00"
"2018-07-21 01:00","2018","07","21","01:00"
"2018-07-21 02:00","2018","07","21","02:00"
"2018-07-21 03:00","2018","07","21","03:00"
"2018-07-21 04:00","2018","07","21","04:00"
"2018-07-21 05:00","2018","07","21","05:00"
"2018-07-21 06:00","2018","07","21","06:00","22.7","","14.7","","60","","14","","19","","24.1","","99.99","","26","","","","NA"
"2018-07-21 07:00","2018","07","21","07:00","24.6","","15.6","","57","","14","","17","","24.1","","100.01","","29","","","","Mostly Cloudy"
"2018-07-21 08:00","2018","07","21","08:00","25.4","","15.9","","55","","15","","18","","24.1","","100.04","","30","","","","NA"
"2018-07-21 09:00","2018","07","21","09:00","26.0","","16.0","","53","","16","","23","","24.1","","100.04","","31","","","","NA"
"2018-07-21 10:00","2018","07","21","10:00","27.3","","16.3","","50","","17","","19","","24.1","","100.05","","32","","","","Mostly Cloudy"
"2018-07-21 11:00","2018","07","21","11:00","25.7","","16.4","","56","","15","","9","","24.1","","100.07","","31","","","","NA"
"2018-07-21 12:00","2018","07","21","12:00","26.6","","16.7","","54","","14","","13","","24.1","","100.05","","32","","","","NA"
"2018-07-21 13:00","2018","07","21","13:00","27.1","","16.4","","51","","10","","6","","24.1","","100.03","","32","","","","Cloudy"
"2018-07-21 14:00","2018","07","21","14:00","27.3","","18.3","","57","","4","","13","","24.1","","99.97","","34","","","","NA"
"2018-07-21 15:00","2018","07","21","15:00","28.4","","19.0","","56","","5","","18","","24.1","","99.94","","35","","","","NA"
"2018-07-21 16:00","2018","07","21","16:00","27.2","","18.6","","59","","5","","13","","24.1","","99.93","","34","","","","Cloudy"
"2018-07-21 17:00","2018","07","21","17:00","27.4","","16.8","","52","","13","","22","","24.1","","99.91","","33","","","","NA"
"2018-07-21 18:00","2018","07","21","18:00","27.0","","16.1","","51","","13","","25","","24.1","","99.93","","32","","","","NA"
"2018-07-21 19:00","2018","07","21","19:00","25.3","","15.5","","54","","12","","23","","24.1","","99.97","","30","","","","Cloudy"
"2018-07-21 20:00","2018","07","21","20:00","24.2","","15.1","","57","","13","","15","","24.1","","100.02","","28","","","","NA"
"2018-07-21 21:00","2018","07","21","21:00"
"2018-07-21 22:00","2018","07","21","22:00"
"2018-07-21 23:00","2018","07","21","23:00"
"2018-07-22 00:00","2018","07","22","00:00"
"2018-07-22 01:00","2018","07","22","01:00"
"2018-07-22 02:00","2018","07","22","02:00"
"2018-07-22 03:00","2018","07","22","03:00"
"2018-07-22 04:00","2018","07","22","04:00"
"2018-07-22 05:00","2018","07","22","05:00"
"2018-07-22 06:00","2018","07","22","06:00","17.6","","17.5","","100","","3","","13","","3.2","","99.61","","","","","","Rain,Fog"
"2018-07-22 07:00","2018","07","22","07:00","17.9","","17.9","","100","","4","","16","","3.2","","99.52","","","","","","Rain,Fog"
"2018-07-22 08:00","2018","07","22","08:00","18.9","","18.4","","97","","5","","25","","24.1","","99.43","","","","","","NA"
"2018-07-22 09:00","2018","07","22","09:00","19.2","","19.1","","100","","8","","26","","8.1","","99.39","","","","","","Rain,Fog"
"2018-07-22 10:00","2018","07","22","10:00","19.4","","18.7","","96","","10","","18","","9.7","","99.40","","","","","","Drizzle,Fog"
"2018-07-22 11:00","2018","07","22","11:00","21.8","","18.2","","80","","15","","21","","24.1","","99.44","","28","","","","NA"
"2018-07-22 12:00","2018","07","22","12:00","22.7","","17.9","","74","","17","","24","","24.1","","99.47","","29","","","","NA"
"2018-07-22 13:00","2018","07","22","13:00","23.8","","17.3","","66","","19","","27","","24.1","","99.54","","29","","","","Mostly Cloudy"
"2018-07-22 14:00","2018","07","22","14:00","23.5","","17.2","","67","","20","","26","","24.1","","99.61","","29","","","","NA"
"2018-07-22 15:00","2018","07","22","15:00","25.0","","18.1","","65","","20","","20","","24.1","","99.69","","31","","","","NA"
"2018-07-22 16:00","2018","07","22","16:00","24.0","","17.4","","66","","20","","22","","24.1","","99.73","","30","","","","Mostly Cloudy"
"2018-07-22 17:00","2018","07","22","17:00","24.6","","17.8","","65","","20","","10","","24.1","","99.79","","30","","","","NA"
"2018-07-22 18:00","2018","07","22","18:00","24.1","","17.9","","68","","17","","9","","24.1","","99.88","","30","","","","NA"
"2018-07-22 19:00","2018","07","22","19:00","21.9","","18.5","","81","","5","","14","","24.1","","99.93","","28","","","","Mostly Cloudy"
"2018-07-22 20:00","2018","07","22","20:00","20.9","","17.9","","83","","9","","8","","24.1","","99.98","","27","","","","NA"
"2018-07-22 21:00","2018","07","22","21:00"
"2018-07-22 22:00","2018","07","22","22:00"
"2018-07-22 23:00","2018","07","22","23:00"
"2018-07-23 00:00","2018","07","23","00:00"
"2018-07-23 01:00","2018","07","23","01:00"
"2018-07-23 02:00","2018","07","23","02:00"
"2018-07-23 03:00","2018","07","23","03:00"
"2018-07-23 04:00","2018","07","23","04:00"
"2018-07-23 05:00","2018","07","23","05:00"
"2018-07-23 06:00","2018","07","23","06:00","21.0","","19.7","","92","","9","","8","","24.1","","100.13","","28","","","","NA"
"2018-07-23 07:00","2018","07","23","07:00","22.6","","20.1","","86","","10","","7","","24.1","","100.15","","30","","","","Mostly Cloudy"
"2018-07-23 08:00","2018","07","23","08:00","25.6","","19.6","","69","","16","","13","","24.1","","100.17","","33","","","","NA"
"2018-07-23 09:00","2018","07","23","09:00","26.3","","20.0","","68","","17","","10","","24.1","","100.16","","34","","","","NA"
"2018-07-23 10:00","2018","07","23","10:00","27.3","","20.6","","66","","13","","10","","24.1","","100.17","","35","","","","Mostly Cloudy"
"2018-07-23 11:00","2018","07","23","11:00","27.9","","20.4","","63","","19","","14","","24.1","","100.21","","36","","","","NA"
"2018-07-23 12:00","2018","07","23","12:00","27.8","","20.7","","65","","15","","6","","24.1","","100.18","","36","","","","NA"
"2018-07-23 13:00","2018","07","23","13:00","25.9","","21.6","","77","","2","","10","","24.1","","100.19","","35","","","","Cloudy"
"2018-07-23 14:00","2018","07","23","14:00","26.1","","22.1","","78","","2","","9","","24.1","","100.22","","36","","","","NA"
"2018-07-23 15:00","2018","07","23","15:00","27.3","","21.2","","69","","4","","10","","24.1","","100.19","","36","","","","NA"
"2018-07-23 16:00","2018","07","23","16:00","27.2","","21.4","","70","","8","","11","","24.1","","100.15","","36","","","","Cloudy"
"2018-07-23 17:00","2018","07","23","17:00","26.9","","22.4","","76","","8","","17","","24.1","","100.13","","37","","","","NA"
"2018-07-23 18:00","2018","07","23","18:00","25.5","","21.2","","77","","10","","10","","24.1","","100.15","","34","","","","NA"
"2018-07-23 19:00","2018","07","23","19:00","25.3","","21.8","","81","","9","","11","","24.1","","100.17","","34","","","","Cloudy"
"2018-07-23 20:00","2018","07","23","20:00","24.6","","21.8","","84","","9","","13","","24.1","","100.18","","34","","","","NA"
"2018-07-23 21:00","2018","07","23","21:00"
"2018-07-23 22:00","2018","07","23","22:00"
"2018-07-23 23:00","2018","07","23","23:00"
"2018-07-24 00:00","2018","07","24","00:00"
"2018-07-24 01:00","2018","07","24","01:00"
"2018-07-24 02:00","2018","07","24","02:00"
"2018-07-24 03:00","2018","07","24","03:00"
"2018-07-24 04:00","2018","07","24","04:00"
"2018-07-24 05:00","2018","07","24","05:00"
"2018-07-24 06:00","2018","07","24","06:00","23.8","","20.6","","82","","19","","10","","24.1","","100.29","","32","","","","NA"
"2018-07-24 07:00","2018","07","24","07:00","24.4","","20.7","","79","","19","","10","","24.1","","100.29","","33","","","","Cloudy"
"2018-07-24 08:00","2018","07","24","08:00","25.2","","21.0","","77","","18","","16","","24.1","","100.33","","34","","","","NA"
"2018-07-24 09:00","2018","07","24","09:00","26.7","","20.9","","70","","19","","26","","24.1","","100.33","","35","","","","NA"
"2018-07-24 10:00","2018","07","24","10:00","28.1","","21.3","","66","","19","","22","","24.1","","100.33","","37","","","","Mostly Cloudy"
"2018-07-24 11:00","2018","07","24","11:00","29.2","","21.0","","61","","18","","24","","24.1","","100.32","","38","","","","NA"
"2018-07-24 12:00","2018","07","24","12:00","30.0","","21.6","","60","","17","","18","","24.1","","100.29","","39","","","","NA"
"2018-07-24 13:00","2018","07","24","13:00","29.9","","20.8","","58","","20","","18","","24.1","","100.21","","38","","","","Cloudy"
"2018-07-24 14:00","2018","07","24","14:00","31.3","","20.0","","50","","17","","25","","24.1","","100.16","","39","","","","NA"
"2018-07-24 15:00","2018","07","24","15:00","30.6","","20.5","","54","","17","","15","","24.1","","100.10","","39","","","","NA"
"2018-07-24 16:00","2018","07","24","16:00","30.4","","21.1","","57","","18","","11","","24.1","","100.05","","39","","","","Mostly Cloudy"
"2018-07-24 17:00","2018","07","24","17:00","29.3","","20.9","","60","","20","","10","","24.1","","100.03","","38","","","","NA"
"2018-07-24 18:00","2018","07","24","18:00","26.1","","22.9","","83","","24","","14","","24.1","","100.06","","36","","","","NA"
"2018-07-24 19:00","2018","07","24","19:00","22.6","","21.6","","94","","18","","5","","19.3","","100.10","","32","","","","Cloudy"
"2018-07-24 20:00","2018","07","24","20:00","22.9","","22.2","","96","","17","","9","","24.1","","100.07","","32","","","","NA"
"2018-07-24 21:00","2018","07","24","21:00"
"2018-07-24 22:00","2018","07","24","22:00"
"2018-07-24 23:00","2018","07","24","23:00"
"2018-07-25 00:00","2018","07","25","00:00"
"2018-07-25 01:00","2018","07","25","01:00"
"2018-07-25 02:00","2018","07","25","02:00"
"2018-07-25 03:00","2018","07","25","03:00"
"2018-07-25 04:00","2018","07","25","04:00"
"2018-07-25 05:00","2018","07","25","05:00"
"2018-07-25 06:00","2018","07","25","06:00","22.2","","22.2","","100","","27","","8","","8.1","","99.97","","32","","","","Fog"
"2018-07-25 07:00","2018","07","25","07:00","22.5","","22.2","","98","","26","","8","","8.1","","99.96","","32","","","","Fog"
"2018-07-25 08:00","2018","07","25","08:00","22.4","","21.7","","96","","30","","12","","6.4","","100.00","","31","","","","Fog"
"2018-07-25 09:00","2018","07","25","09:00","23.1","","21.3","","89","","30","","14","","9.7","","100.01","","32","","","","Fog"
"2018-07-25 10:00","2018","07","25","10:00","23.4","","21.1","","87","","33","","9","","12.9","","100.03","","32","","","","Cloudy"
"2018-07-25 11:00","2018","07","25","11:00","24.0","","21.0","","83","","33","","9","","12.9","","100.04","","32","","","","NA"
"2018-07-25 12:00","2018","07","25","12:00","25.8","","21.1","","75","","28","","8","","12.9","","100.02","","34","","","","NA"
"2018-07-25 13:00","2018","07","25","13:00","26.7","","20.7","","69","","33","","13","","12.9","","99.99","","35","","","","Mostly Cloudy"
"2018-07-25 14:00","2018","07","25","14:00","28.1","","20.1","","61","","34","","15","","16.1","","99.94","","36","","","","NA"
"2018-07-25 15:00","2018","07","25","15:00","28.0","","20.0","","61","","33","","12","","19.3","","99.91","","36","","","","NA"
"2018-07-25 16:00","2018","07","25","16:00","28.6","","20.3","","60","","32","","7","","19.3","","99.88","","36","","","","Mostly Cloudy"
"2018-07-25 17:00","2018","07","25","17:00","28.9","","17.3","","49","","30","","8","","24.1","","99.86","","34","","","","NA"
"2018-07-25 18:00","2018","07","25","18:00","28.2","","18.6","","55","","35","","5","","24.1","","99.83","","35","","","","NA"
"2018-07-25 19:00","2018","07","25","19:00","26.7","","20.3","","67","","1","","5","","24.1","","99.87","","35","","","","Mostly Cloudy"
"2018-07-25 20:00","2018","07","25","20:00","25.2","","21.2","","78","","6","","3","","24.1","","99.91","","34","","","","NA"
"2018-07-25 21:00","2018","07","25","21:00"
"2018-07-25 22:00","2018","07","25","22:00"
"2018-07-25 23:00","2018","07","25","23:00"
"2018-07-26 00:00","2018","07","26","00:00"
"2018-07-26 01:00","2018","07","26","01:00"
"2018-07-26 02:00","2018","07","26","02:00"
"2018-07-26 03:00","2018","07","26","03:00"
"2018-07-26 04:00","2018","07","26","04:00"
"2018-07-26 05:00","2018","07","26","05:00"
"2018-07-26 06:00","2018","07","26","06:00","18.4","","16.9","","91","","19","","9","","24.1","","99.92","","","","","","NA"
"2018-07-26 07:00","2018","07","26","07:00","22.6","","17.6","","73","","20","","9","","24.1","","99.94","","28","","","","Mainly Clear"
"2018-07-26 08:00","2018","07","26","08:00","25.1","","16.9","","60","","21","","13","","24.1","","99.93","","30","","","","NA"
"2018-07-26 09:00","2018","07","26","09:00","26.8","","16.7","","53","","19","","18","","24.1","","99.91","","32","","","","NA"
"2018-07-26 10:00","2018","07","26","10:00","28.1","","18.7","","56","","21","","20","","24.1","","99.90","","35","","","","Mostly Cloudy"
"2018-07-26 11:00","2018","07","26","11:00","28.2","","19.2","","58","","20","","29","","24.1","","99.87","","35","","","","NA"
"2018-07-26 12:00","2018","07","26","12:00","29.2","","19.4","","55","","19","","24","","24.1","","99.84","","36","","","","NA"
"2018-07-26 13:00","2018","07","26","13:00","27.1","","20.7","","68","","22","","20","","24.1","","99.81","","35","","","","Mostly Cloudy"
"2018-07-26 14:00","2018","07","26","14:00","29.2","","20.2","","58","","23","","26","","24.1","","99.76","","37","","","","NA"
"2018-07-26 15:00","2018","07","26","15:00","29.0","","17.1","","48","","20","","32","","24.1","","99.72","","34","","","","NA"
"2018-07-26 16:00","2018","07","26","16:00","28.6","","17.0","","49","","21","","28","","24.1","","99.75","","34","","","","Mostly Cloudy"
"2018-07-26 17:00","2018","07","26","17:00","21.7","","15.3","","67","","30","","26","","24.1","","99.84","","26","","","","Thunderstorms"
"2018-07-26 18:00","2018","07","26","18:00","18.8","","17.1","","90","","18","","13","","24.1","","99.90","","","","","","Thunderstorms,Rain Showers"
"2018-07-26 19:00","2018","07","26","19:00","20.3","","17.8","","85","","20","","9","","24.1","","99.84","","26","","","","Mostly Cloudy"
"2018-07-26 20:00","2018","07","26","20:00","19.8","","17.4","","86","","20","","12","","24.1","","99.82","","","","","","NA"
"2018-07-26 21:00","2018","07","26","21:00"
"2018-07-26 22:00","2018","07","26","22:00"
"2018-07-26 23:00","2018","07","26","23:00"
"2018-07-27 00:00","2018","07","27","00:00"
"2018-07-27 01:00","2018","07","27","01:00"
"2018-07-27 02:00","2018","07","27","02:00"
"2018-07-27 03:00","2018","07","27","03:00"
"2018-07-27 04:00","2018","07","27","04:00"
"2018-07-27 05:00","2018","07","27","05:00"
"2018-07-27 06:00","2018","07","27","06:00","19.8","","17.5","","87","","23","","14","","24.1","","100.02","","","","","","NA"
"2018-07-27 07:00","2018","07","27","07:00","20.9","","16.8","","77","","26","","16","","24.1","","100.09","","26","","","","Mainly Clear"
"2018-07-27 08:00","2018","07","27","08:00","22.9","","17.3","","70","","24","","12","","24.1","","100.14","","28","","","","NA"
"2018-07-27 09:00","2018","07","27","09:00","24.1","","16.7","","63","","25","","17","","24.1","","100.16","","29","","","","NA"
"2018-07-27 10:00","2018","07","27","10:00","22.9","","14.7","","59","","24","","23","","24.1","","100.17","","27","","","","Mostly Cloudy"
"2018-07-27 11:00","2018","07","27","11:00","24.8","","14.4","","52","","25","","23","","24.1","","100.19","","28","","","","NA"
"2018-07-27 12:00","2018","07","27","12:00","26.0","","14.2","","48","","27","","28","","24.1","","100.19","","29","","","","NA"
"2018-07-27 13:00","2018","07","27","13:00","26.4","","14.1","","46","","23","","22","","24.1","","100.19","","30","","","","Mostly Cloudy"
"2018-07-27 14:00","2018","07","27","14:00","25.9","","14.7","","50","","23","","25","","24.1","","100.19","","30","","","","NA"
"2018-07-27 15:00","2018","07","27","15:00","25.3","","15.0","","52","","23","","25","","24.1","","100.20","","29","","","","NA"
"2018-07-27 16:00","2018","07","27","16:00","26.2","","13.4","","45","","27","","26","","24.1","","100.16","","29","","","","Mainly Clear"
"2018-07-27 17:00","2018","07","27","17:00","25.4","","15.4","","53","","25","","17","","24.1","","100.16","","30","","","","NA"
"2018-07-27 18:00","2018","07","27","18:00","25.0","","15.7","","56","","25","","16","","24.1","","100.16","","29","","","","NA"
"2018-07-27 19:00","2018","07","27","19:00","22.7","","17.4","","71","","28","","4","","24.1","","100.20","","28","","","","Mainly Clear"
"2018-07-27 20:00","2018","07","27","20:00","21.5","","16.4","","72","","21","","12","","24.1","","100.21","","26","","","","NA"
"2018-07-27 21:00","2018","07","27","21:00"
"2018-07-27 22:00","2018","07","27","22:00"
"2018-07-27 23:00","2018","07","27","23:00"
"2018-07-28 00:00","2018","07","28","00:00"
"2018-07-28 01:00","2018","07","28","01:00"
"2018-07-28 02:00","2018","07","28","02:00"
"2018-07-28 03:00","2018","07","28","03:00"
"2018-07-28 04:00","2018","07","28","04:00"
"2018-07-28 05:00","2018","07","28","05:00"
"2018-07-28 06:00","2018","07","28","06:00","17.5","","16.0","","91","","24","","11","","19.3","","100.33","","","","","","NA"
"2018-07-28 07:00","2018","07","28","07:00","19.1","","16.6","","86","","26","","14","","19.3","","100.39","","","","","","Mainly Clear"
"2018-07-28 08:00","2018","07","28","08:00","19.8","","16.3","","80","","26","","14","","24.1","","100.44","","","","","","NA"
"2018-07-28 09:00","2018","07","28","09:00","21.3","","16.1","","72","","30","","19","","24.1","","100.46","","26","","","","NA"
"2018-07-28 10:00","2018","07","28","10:00","22.1","","15.1","","64","","29","","19","","24.1","","100.49","","26","","","","Mainly Clear"
"2018-07-28 11:00","2018","07","28","11:00","22.2","","14.9","","63","","27","","17","","24.1","","100.49","","26","","","","NA"
"2018-07-28 12:00","2018","07","28","12:00","22.3","","15.0","","63","","31","","18","","24.1","","100.45","","26","","","","NA"
"2018-07-28 13:00","2018","07","28","13:00","21.7","","15.7","","68","","31","","22","","24.1","","100.47","","26","","","","Mostly Cloudy"
"2018-07-28 14:00","2018","07","28","14:00","21.3","","14.8","","66","","30","","19","","24.1","","100.48","","25","","","","Rain Showers"
"2018-07-28 15:00","2018","07","28","15:00","22.0","","14.9","","64","","29","","21","","24.1","","100.46","","26","","","","NA"
"2018-07-28 16:00","2018","07","28","16:00","23.5","","14.4","","56","","30","","20","","24.1","","100.45","","27","","","","Mostly Cloudy"
"2018-07-28 17:00","2018","07","28","17:00","22.3","","14.1","","59","","29","","22","","24.1","","100.50","","26","","","","NA"
"2018-07-28 18:00","2018","07","28","18:00","21.7","","14.1","","61","","29","","24","","24.1","","100.52","","25","","","","NA"
"2018-07-28 19:00","2018","07","28","19:00","21.3","","14.1","","63","","29","","17","","24.1","","100.55","","25","","","","Mostly Cloudy"
"2018-07-28 20:00","2018","07","28","20:00","20.3","","14.0","","67","","28","","10","","24.1","","100.57","","","","","","NA"
"2018-07-28 21:00","2018","07","28","21:00"
"2018-07-28 22:00","2018","07","28","22:00"
"2018-07-28 23:00","2018","07","28","23:00"
"2018-07-29 00:00","2018","07","29","00:00"
"2018-07-29 01:00","2018","07","29","01:00"
"2018-07-29 02:00","2018","07","29","02:00"
"2018-07-29 03:00","2018","07","29","03:00"
"2018-07-29 04:00","2018","07","29","04:00"
"2018-07-29 05:00","2018","07","29","05:00"
"2018-07-29 06:00","2018","07","29","06:00","15.1","","14.3","","95","","17","","4","","24.1","","100.81","","","","","","NA"
"2018-07-29 07:00","2018","07","29","07:00","17.4","","14.9","","85","","26","","3","","24.1","","100.84","","","","","","Mostly Cloudy"
"2018-07-29 08:00","2018","07","29","08:00","20.6","","13.9","","65","","27","","9","","24.1","","100.83","","","","","","NA"
"2018-07-29 09:00","2018","07","29","09:00","23.1","","13.0","","53","","28","","8","","24.1","","100.81","","26","","","","NA"
"2018-07-29 10:00","2018","07","29","10:00","24.1","","12.0","","46","","32","","5","","24.1","","100.81","","26","","","","Mainly Clear"
"2018-07-29 11:00","2018","07","29","11:00","24.7","","13.2","","48","","34","","7","","24.1","","100.77","","28","","","","NA"
"2018-07-29 12:00","2018","07","29","12:00","26.2","","14.3","","47","","36","","13","","24.1","","100.72","","30","","","","NA"
"2018-07-29 13:00","2018","07","29","13:00","25.7","","13.8","","47","","1","","12","","24.1","","100.67","","29","","","","Mainly Clear"
"2018-07-29 14:00","2018","07","29","14:00","23.7","","17.0","","66","","21","","17","","24.1","","100.70","","29","","","","NA"
"2018-07-29 15:00","2018","07","29","15:00","25.5","","15.2","","52","","24","","17","","24.1","","100.70","","30","","","","NA"
"2018-07-29 16:00","2018","07","29","16:00","26.4","","15.5","","51","","21","","18","","24.1","","100.67","","31","","","","Cloudy"
"2018-07-29 17:00","2018","07","29","17:00","25.8","","15.2","","52","","24","","15","","24.1","","100.63","","30","","","","NA"
"2018-07-29 18:00","2018","07","29","18:00","25.3","","11.5","","42","","28","","14","","24.1","","100.68","","27","","","","NA"
"2018-07-29 19:00","2018","07","29","19:00","21.9","","17.2","","75","","3","","12","","24.1","","100.71","","27","","","","Mostly Cloudy"
"2018-07-29 20:00","2018","07","29","20:00","21.2","","17.2","","77","","18","","4","","24.1","","100.69","","27","","","","NA"
"2018-07-29 21:00","2018","07","29","21:00"
"2018-07-29 22:00","2018","07","29","22:00"
"2018-07-29 23:00","2018","07","29","23:00"
"2018-07-30 00:00","2018","07","30","00:00"
"2018-07-30 01:00","2018","07","30","01:00"
"2018-07-30 02:00","2018","07","30","02:00"
"2018-07-30 03:00","2018","07","30","03:00"
"2018-07-30 04:00","2018","07","30","04:00"
"2018-07-30 05:00","2018","07","30","05:00"
"2018-07-30 06:00","2018","07","30","06:00","18.0","","16.9","","93","","17","","10","","24.1","","100.78","","","","","","NA"
"2018-07-30 07:00","2018","07","30","07:00","19.5","","17.8","","90","","19","","5","","24.1","","100.79","","","","","","Cloudy"
"2018-07-30 08:00","2018","07","30","08:00","21.2","","17.8","","81","","18","","7","","24.1","","100.78","","27","","","","NA"
"2018-07-30 09:00","2018","07","30","09:00","23.3","","18.0","","72","","36","","1","","24.1","","100.74","","29","","","","NA"
"2018-07-30 10:00","2018","07","30","10:00","23.8","","17.9","","69","","1","","4","","24.1","","100.72","","30","","","","Cloudy"
"2018-07-30 11:00","2018","07","30","11:00","22.7","","18.6","","77","","2","","12","","24.1","","100.75","","29","","","","NA"
"2018-07-30 12:00","2018","07","30","12:00","22.4","","19.0","","81","","2","","10","","24.1","","100.74","","29","","","","NA"
"2018-07-30 13:00","2018","07","30","13:00","22.9","","18.7","","77","","3","","11","","24.1","","100.70","","29","","","","Cloudy"
"2018-07-30 14:00","2018","07","30","14:00","23.0","","19.1","","78","","3","","10","","24.1","","100.72","","30","","","","NA"
"2018-07-30 15:00","2018","07","30","15:00","23.6","","19.2","","76","","4","","10","","24.1","","100.68","","31","","","","NA"
"2018-07-30 16:00","2018","07","30","16:00","25.1","","19.1","","69","","4","","13","","24.1","","100.61","","32","","","","Cloudy"
"2018-07-30 17:00","2018","07","30","17:00","24.6","","19.2","","71","","5","","11","","24.1","","100.59","","32","","","","NA"
"2018-07-30 18:00","2018","07","30","18:00","24.8","","17.1","","62","","12","","12","","24.1","","100.53","","30","","","","NA"
"2018-07-30 19:00","2018","07","30","19:00","23.3","","17.5","","70","","17","","16","","24.1","","100.59","","29","","","","Cloudy"
"2018-07-30 20:00","2018","07","30","20:00","21.2","","17.1","","77","","19","","12","","24.1","","100.56","","27","","","","NA"
"2018-07-30 21:00","2018","07","30","21:00"
"2018-07-30 22:00","2018","07","30","22:00"
"2018-07-30 23:00","2018","07","30","23:00"
"2018-07-31 00:00","2018","07","31","00:00"
"2018-07-31 01:00","2018","07","31","01:00"
"2018-07-31 02:00","2018","07","31","02:00"
"2018-07-31 03:00","2018","07","31","03:00"
"2018-07-31 04:00","2018","07","31","04:00"
"2018-07-31 05:00","2018","07","31","05:00"
"2018-07-31 06:00","2018","07","31","06:00","17.8","","17.8","","100","","13","","3","","19.3","","100.63","","","","","","NA"
"2018-07-31 07:00","2018","07","31","07:00","20.2","","19.7","","97","","7","","3","","24.1","","100.61","","28","","","","Mostly Cloudy"
"2018-07-31 08:00","2018","07","31","08:00","22.6","","19.1","","80","","36","","1","","24.1","","100.62","","29","","","","NA"
"2018-07-31 09:00","2018","07","31","09:00","24.4","","18.9","","71","","4","","9","","24.1","","100.60","","31","","","","NA"
"2018-07-31 10:00","2018","07","31","10:00","24.6","","20.0","","75","","2","","12","","24.1","","100.60","","32","","","","Cloudy"
"2018-07-31 11:00","2018","07","31","11:00","25.5","","20.6","","74","","36","","14","","24.1","","100.60","","34","","","","NA"
"2018-07-31 12:00","2018","07","31","12:00","25.5","","20.5","","74","","2","","16","","24.1","","100.57","","33","","","","NA"
"2018-07-31 13:00","2018","07","31","13:00","25.6","","20.3","","72","","2","","17","","24.1","","100.54","","33","","","","Cloudy"
"2018-07-31 14:00","2018","07","31","14:00","25.2","","19.9","","72","","3","","20","","24.1","","100.50","","33","","","","NA"
"2018-07-31 15:00","2018","07","31","15:00","24.8","","19.5","","72","","3","","21","","24.1","","100.46","","32","","","","NA"
"2018-07-31 16:00","2018","07","31","16:00","24.7","","19.7","","73","","3","","17","","24.1","","100.38","","32","","","","Cloudy"
"2018-07-31 17:00","2018","07","31","17:00","24.6","","19.8","","74","","5","","9","","24.1","","100.35","","32","","","","NA"
"2018-07-31 18:00","2018","07","31","18:00","24.5","","20.2","","77","","6","","11","","24.1","","100.30","","32","","","","NA"
"2018-07-31 19:00","2018","07","31","19:00","24.0","","20.5","","80","","10","","6","","24.1","","100.27","","32","","","","Cloudy"
"2018-07-31 20:00","2018","07","31","20:00","23.3","","20.5","","84","","10","","8","","24.1","","100.23","","31","","","","NA"
"2018-07-31 21:00","2018","07","31","21:00"
"2018-07-31 22:00","2018","07","31","22:00"
"2018-07-31 23:00","2018","07","31","23:00"
