"Station Name","ST CATHARINES A"
"Province","ONTARIO"
"Latitude","43.20"
"Longitude","-79.17"
"Elevation","97.80"
"Climate Identifier","6137287"
"WMO Identifier",""
"TC Identifier","YSN"
"All times are specified in Local Standard Time (LST). Add 1 hour to adjust for Daylight Saving Time where and when it is observed."

"Legend"
"E","Estimated"
"M","Missing"
"NA","Not Available"

"Date/Time","Year","Month","Day","Time","Temp (°C)","Temp Flag","Dew Point Temp (°C)","Dew Point Temp Flag","Rel Hum (%)","Rel Hum Flag","Wind Dir (10s deg)","Wind Dir Flag","Wind Spd (km/h)","Wind Spd Flag","Visibility (km)","Visibility Flag","Stn Press (kPa)","Stn Press Flag","Hmdx","Hmdx Flag","Wind Chill","Wind Chill Flag","Weather"
"2005-08-01 00:00","2005","08","01","00:00"
"2005-08-01 01:00","2005","08","01","01:00"
"2005-08-01 02:00","2005","08","01","02:00"
"2005-08-01 03:00","2005","08","01","03:00"
"2005-08-01 04:00","2005","08","01","04:00"
"2005-08-01 05:00","2005","08","01","05:00","21.4","","16.9","","76","","24","","19","","24.1","","100.67","","27","","","","Mostly Cloudy"
"2005-08-01 06:00","2005","08","01","06:00","21.8","","16.5","","72","","25","","19","","19.3","","100.68","","27","","","","Mostly Cloudy"
"2005-08-01 07:00","2005","08","01","07:00","23.3","","17.6","","70","","24","","19","","24.1","","100.66","","29","","","","Mostly Cloudy"
"2005-08-01 08:00","2005","08","01","08:00","25.5","","19.2","","68","","24","","19","","24.1","","100.66","","32","","","","Mostly Cloudy"
"2005-08-01 09:00","2005","08","01","09:00","27.1","","20.8","","68","","24","","19","","24.1","","100.68","","35","","","","Mainly Clear"
"2005-08-01 10:00","2005","08","01","10:00","28.7","","20.9","","63","","26","","19","","24.1","","100.66","","37","","","","Mainly Clear"
"2005-08-01 11:00","2005","08","01","11:00","30.9","","20.5","","54","","25","","19","","24.1","","100.62","","39","","","","Mostly Cloudy"
"2005-08-01 12:00","2005","08","01","12:00","29.8","","22.5","","65","","25","","22","","24.1","","100.56","","40","","","","Mostly Cloudy"
"2005-08-01 13:00","2005","08","01","13:00","31.2","","22.5","","60","","22","","22","","24.1","","100.52","","41","","","","Mostly Cloudy"
"2005-08-01 14:00","2005","08","01","14:00","31.1","","22.8","","61","","22","","19","","16.1","","100.45","","41","","","","Mostly Cloudy"
"2005-08-01 15:00","2005","08","01","15:00","30.8","","22.5","","61","","23","","24","","16.1","","100.44","","41","","","","Mainly Clear"
"2005-08-01 16:00","2005","08","01","16:00","30.7","","22.2","","61","","24","","22","","16.1","","100.36","","40","","","","Mostly Cloudy"
"2005-08-01 17:00","2005","08","01","17:00","29.7","","22.5","","65","","24","","13","","19.3","","100.39","","39","","","","Mostly Cloudy"
"2005-08-01 18:00","2005","08","01","18:00","29.7","","22.3","","65","","25","","19","","19.3","","100.36","","39","","","","Cloudy"
"2005-08-01 19:00","2005","08","01","19:00","29.1","","22.5","","68","","26","","19","","16.1","","100.41","","39","","","","Mostly Cloudy"
"2005-08-01 20:00","2005","08","01","20:00","27.9","","22.7","","73","","24","","19","","12.9","","100.47","","38","","","","Mostly Cloudy"
"2005-08-01 21:00","2005","08","01","21:00","25.6","","22.5","","83","","8","","9","","12.9","","100.56","","35","","","","Cloudy"
"2005-08-01 22:00","2005","08","01","22:00"
"2005-08-01 23:00","2005","08","01","23:00"
"2005-08-02 00:00","2005","08","02","00:00"
"2005-08-02 01:00","2005","08","02","01:00"
"2005-08-02 02:00","2005","08","02","02:00"
"2005-08-02 03:00","2005","08","02","03:00"
"2005-08-02 04:00","2005","08","02","04:00"
"2005-08-02 05:00","2005","08","02","05:00","21.4","","21.2","","99","","17","","9","","6.4","","100.54","","30","","","","Haze"
"2005-08-02 06:00","2005","08","02","06:00","21.9","","21.4","","97","","21","","9","","8.0","","100.58","","31","","","","Haze"
"2005-08-02 07:00","2005","08","02","07:00","24.3","","22.5","","90","","23","","9","","6.4","","100.62","","34","","","","Haze"
"2005-08-02 08:00","2005","08","02","08:00","26.1","","22.8","","82","","31","","7","","9.7","","100.64","","36","","","","Haze"
"2005-08-02 09:00","2005","08","02","09:00","26.7","","22.3","","77","","26","","9","","12.9","","100.62","","36","","","","Mainly Clear"
"2005-08-02 10:00","2005","08","02","10:00","27.3","","20.8","","68","","26","","13","","16.1","","100.61","","36","","","","Mainly Clear"
"2005-08-02 11:00","2005","08","02","11:00","28.6","","20.0","","60","","30","","15","","19.3","","100.61","","36","","","","Mainly Clear"
"2005-08-02 12:00","2005","08","02","12:00","29.6","","18.2","","50","","28","","15","","16.1","","100.55","","36","","","","Mostly Cloudy"
"2005-08-02 13:00","2005","08","02","13:00","30.3","","20.5","","56","","30","","13","","16.1","","100.49","","38","","","","Mostly Cloudy"
"2005-08-02 14:00","2005","08","02","14:00","27.5","","21.8","","71","","32","","15","E","19.3","","100.49","","37","","","","Thunderstorms,Rain Showers"
"2005-08-02 15:00","2005","08","02","15:00","24.4","","22.7","","90","","21","","19","","19.3","","100.44","","34","","","","Mostly Cloudy"
"2005-08-02 16:00","2005","08","02","16:00","26.1","","22.3","","80","","22","","15","","19.3","","100.49","","36","","","","Cloudy"
"2005-08-02 17:00","2005","08","02","17:00","26.2","","22.2","","79","","27","","9","","16.1","","100.42","","36","","","","Thunderstorms"
"2005-08-02 18:00","2005","08","02","18:00","25.6","","22.7","","84","","30","","6","","16.1","","100.41","","36","","","","Mostly Cloudy"
"2005-08-02 19:00","2005","08","02","19:00","26.2","","23.1","","83","","23","","6","","16.1","","100.41","","37","","","","Cloudy"
"2005-08-02 20:00","2005","08","02","20:00","25.3","","23.1","","88","","23","","4","","12.9","","100.42","","36","","","","Mainly Clear"
"2005-08-02 21:00","2005","08","02","21:00","24.0","","22.9","","94","","21","","4","","12.9","","100.44","","34","","","","Mainly Clear"
"2005-08-02 22:00","2005","08","02","22:00"
"2005-08-02 23:00","2005","08","02","23:00"
"2005-08-03 00:00","2005","08","03","00:00"
"2005-08-03 01:00","2005","08","03","01:00"
"2005-08-03 02:00","2005","08","03","02:00"
"2005-08-03 03:00","2005","08","03","03:00"
"2005-08-03 04:00","2005","08","03","04:00"
"2005-08-03 05:00","2005","08","03","05:00","22.7","","20.6","","88","","21","","9","","6.4","","100.44","","31","","","","Haze"
"2005-08-03 06:00","2005","08","03","06:00","23.3","","20.9","","86","","23","","19","","6.4","","100.46","","32","","","","Haze"
"2005-08-03 07:00","2005","08","03","07:00","24.6","","21.3","","82","","24","","19","","8.0","","100.49","","33","","","","Haze"
"2005-08-03 08:00","2005","08","03","08:00","26.5","","21.6","","75","","25","","9","","8.0","","100.52","","35","","","","Haze"
"2005-08-03 09:00","2005","08","03","09:00","27.7","","22.0","","71","","28","","11","","6.4","","100.52","","37","","","","Haze"
"2005-08-03 10:00","2005","08","03","10:00","28.7","","22.3","","68","","27","","9","","6.4","","100.52","","38","","","","Haze"
"2005-08-03 11:00","2005","08","03","11:00","29.6","","23.1","","68","","29","","9","","6.4","","100.50","","40","","","","Haze"
"2005-08-03 12:00","2005","08","03","12:00","31.3","","22.5","","60","","30","","19","","8.0","","100.48","","41","","","","Haze"
"2005-08-03 13:00","2005","08","03","13:00","32.5","","21.0","","51","","31","","19","","9.7","","100.42","","41","","","","Haze"
"2005-08-03 14:00","2005","08","03","14:00","32.8","","21.6","","52","","27","","17","E","9.7","","100.38","","42","","","","Haze"
"2005-08-03 15:00","2005","08","03","15:00","33.5","","20.3","","46","","28","","17","","9.7","","100.34","","41","","","","Haze"
"2005-08-03 16:00","2005","08","03","16:00","33.1","","19.5","","45","","28","","19","","9.7","","100.33","","40","","","","Haze"
"2005-08-03 17:00","2005","08","03","17:00","31.3","","22.6","","60","","23","","19","E","9.7","","100.32","","41","","","","Haze"
"2005-08-03 18:00","2005","08","03","18:00","30.9","","22.3","","60","","24","","19","","9.7","","100.34","","41","","","","Haze"
"2005-08-03 19:00","2005","08","03","19:00","29.3","","21.8","","64","","24","","13","","9.7","","100.37","","38","","","","Haze"
"2005-08-03 20:00","2005","08","03","20:00","27.2","","21.6","","72","","23","","11","","8.0","","100.36","","36","","","","Haze"
"2005-08-03 21:00","2005","08","03","21:00","26.2","","22.0","","78","","23","","15","","8.0","","100.39","","36","","","","Haze"
"2005-08-03 22:00","2005","08","03","22:00"
"2005-08-03 23:00","2005","08","03","23:00"
"2005-08-04 00:00","2005","08","04","00:00"
"2005-08-04 01:00","2005","08","04","01:00"
"2005-08-04 02:00","2005","08","04","02:00"
"2005-08-04 03:00","2005","08","04","03:00"
"2005-08-04 04:00","2005","08","04","04:00"
"2005-08-04 05:00","2005","08","04","05:00","23.9","","21.6","","87","","20","","15","","6.4","","100.41","","33","","","","Haze"
"2005-08-04 06:00","2005","08","04","06:00","24.1","","21.5","","85","","21","","19","","8.0","","100.42","","33","","","","Haze"
"2005-08-04 07:00","2005","08","04","07:00","25.8","","22.3","","81","","20","","19","","8.0","","100.45","","35","","","","Haze"
"2005-08-04 08:00","2005","08","04","08:00","28.1","","22.5","","72","","22","","19","","8.0","","100.45","","38","","","","Haze"
"2005-08-04 09:00","2005","08","04","09:00","29.3","","22.3","","66","","22","","19","","9.7","","100.44","","39","","","","Haze"
"2005-08-04 10:00","2005","08","04","10:00","30.6","","22.3","","61","","23","","19","","9.7","","100.41","","40","","","","Haze"
"2005-08-04 11:00","2005","08","04","11:00","31.8","","21.7","","55","","23","","19","","9.7","","100.39","","41","","","","Haze"
"2005-08-04 12:00","2005","08","04","12:00","31.7","","20.7","","52","","25","","19","","12.9","","100.36","","40","","","","Mostly Cloudy"
"2005-08-04 13:00","2005","08","04","13:00","32.5","","21.2","","51","","23","","19","","12.9","","100.26","","41","","","","Mostly Cloudy"
"2005-08-04 14:00","2005","08","04","14:00","32.8","","21.3","","51","","24","","19","","12.9","","100.17","","41","","","","Mostly Cloudy"
"2005-08-04 15:00","2005","08","04","15:00","31.5","","22.1","","58","","23","","28","","12.9","","100.22","","41","","","","Mostly Cloudy"
"2005-08-04 16:00","2005","08","04","16:00","29.4","","22.2","","65","","23","","28","","9.7","","100.22","","39","","","","Haze"
"2005-08-04 17:00","2005","08","04","17:00","28.8","","22.0","","67","","24","","19","","9.7","","100.20","","38","","","","Haze"
"2005-08-04 18:00","2005","08","04","18:00","29.2","","21.8","","64","","24","","22","","9.7","","100.18","","38","","","","Haze"
"2005-08-04 19:00","2005","08","04","19:00","29.2","","22.0","","65","","24","","19","","8.0","","100.17","","39","","","","Haze"
"2005-08-04 20:00","2005","08","04","20:00","28.6","","21.3","","65","","23","","19","","8.0","","100.14","","37","","","","Haze"
"2005-08-04 21:00","2005","08","04","21:00","27.8","","21.9","","70","","24","","19","","16.1","","100.15","","37","","","","Mostly Cloudy"
"2005-08-04 22:00","2005","08","04","22:00"
"2005-08-04 23:00","2005","08","04","23:00"
"2005-08-05 00:00","2005","08","05","00:00"
"2005-08-05 01:00","2005","08","05","01:00"
"2005-08-05 02:00","2005","08","05","02:00"
"2005-08-05 03:00","2005","08","05","03:00"
"2005-08-05 04:00","2005","08","05","04:00"
"2005-08-05 05:00","2005","08","05","05:00","20.0","","17.0","","83","","27","","7","","24.1","","100.61","","25","","","","Mostly Cloudy"
"2005-08-05 06:00","2005","08","05","06:00","19.6","","16.7","","83","","26","","9","","24.1","","100.64","","","","","","Mostly Cloudy"
"2005-08-05 07:00","2005","08","05","07:00","21.2","","16.4","","74","","27","","11","","24.1","","100.71","","26","","","","Mainly Clear"
"2005-08-05 08:00","2005","08","05","08:00","23.1","","14.9","","60","","27","","19","","24.1","","100.78","","27","","","","Mainly Clear"
"2005-08-05 09:00","2005","08","05","09:00","24.4","","15.4","","57","","29","","22","","24.1","","100.81","","29","","","","Mainly Clear"
"2005-08-05 10:00","2005","08","05","10:00","25.6","","13.8","","48","","28","","22","","24.1","","100.82","","29","","","","Mainly Clear"
"2005-08-05 11:00","2005","08","05","11:00","26.5","","13.5","","45","","28","","19","","24.1","","100.84","","30","","","","Mainly Clear"
"2005-08-05 12:00","2005","08","05","12:00","27.1","","14.4","","46","","30","","22","","24.1","","100.82","","31","","","","Mostly Cloudy"
"2005-08-05 13:00","2005","08","05","13:00","27.1","","13.4","","43","","29","","19","","24.1","","100.81","","30","","","","Mostly Cloudy"
"2005-08-05 14:00","2005","08","05","14:00","27.3","","12.6","","40","","28","","22","","24.1","","100.79","","30","","","","Mostly Cloudy"
"2005-08-05 15:00","2005","08","05","15:00","27.8","","13.5","","41","","28","","20","","24.1","","100.78","","31","","","","Mostly Cloudy"
"2005-08-05 16:00","2005","08","05","16:00","27.5","","12.8","","40","","30","","19","","24.1","","100.78","","30","","","","Mostly Cloudy"
"2005-08-05 17:00","2005","08","05","17:00","27.2","","12.6","","40","","30","","19","","24.1","","100.76","","30","","","","Mostly Cloudy"
"2005-08-05 18:00","2005","08","05","18:00","25.8","","14.1","","48","","32","","19","","24.1","","100.76","","29","","","","Mostly Cloudy"
"2005-08-05 19:00","2005","08","05","19:00","24.4","","15.7","","58","","30","","11","","24.1","","100.80","","29","","","","Mostly Cloudy"
"2005-08-05 20:00","2005","08","05","20:00","22.6","","15.3","","63","","30","","13","","24.1","","100.85","","27","","","","Mainly Clear"
"2005-08-05 21:00","2005","08","05","21:00","22.2","","14.4","","61","","32","","7","","24.1","","100.92","","26","","","","Mainly Clear"
"2005-08-05 22:00","2005","08","05","22:00"
"2005-08-05 23:00","2005","08","05","23:00"
"2005-08-06 00:00","2005","08","06","00:00"
"2005-08-06 01:00","2005","08","06","01:00"
"2005-08-06 02:00","2005","08","06","02:00"
"2005-08-06 03:00","2005","08","06","03:00"
"2005-08-06 04:00","2005","08","06","04:00"
"2005-08-06 05:00","2005","08","06","05:00","14.4","","12.8","","90","","25","","4","","24.1","","101.08","","","","","","Mainly Clear"
"2005-08-06 06:00","2005","08","06","06:00","15.1","","13.6","","91","","23","","4","","24.1","","101.11","","","","","","Mainly Clear"
"2005-08-06 07:00","2005","08","06","07:00","18.7","","15.0","","79","","27","","7","","24.1","","101.14","","","","","","Mainly Clear"
"2005-08-06 08:00","2005","08","06","08:00","20.5","","15.7","","74","","27","","7","","24.1","","101.16","","25","","","","Mainly Clear"
"2005-08-06 09:00","2005","08","06","09:00","22.3","","15.5","","65","","27","","9","","24.1","","101.15","","27","","","","Mainly Clear"
"2005-08-06 10:00","2005","08","06","10:00","23.6","","15.7","","61","","30","","13","","24.1","","101.12","","28","","","","Mainly Clear"
"2005-08-06 11:00","2005","08","06","11:00","24.0","","13.5","","52","","31","","9","","24.1","","101.09","","27","","","","Mainly Clear"
"2005-08-06 12:00","2005","08","06","12:00","25.4","","13.8","","49","","33","","15","","24.1","","101.05","","29","","","","Mainly Clear"
"2005-08-06 13:00","2005","08","06","13:00","25.7","","9.7","","36","","32","","15","","24.1","","101.00","","27","","","","Mainly Clear"
"2005-08-06 14:00","2005","08","06","14:00","26.5","","8.8","","33","","31","","19","","24.1","","100.99","","27","","","","Mainly Clear"
"2005-08-06 15:00","2005","08","06","15:00","26.3","","9.8","","35","","29","","9","","24.1","","100.93","","27","","","","Mainly Clear"
"2005-08-06 16:00","2005","08","06","16:00","26.7","","10.8","","37","","3","","6","","24.1","","100.88","","28","","","","Mostly Cloudy"
"2005-08-06 17:00","2005","08","06","17:00","26.9","","11.6","","39","","3","","15","","24.1","","100.81","","29","","","","Mostly Cloudy"
"2005-08-06 18:00","2005","08","06","18:00","26.7","","11.0","","37","","8","","9","","24.1","","100.78","","28","","","","Mostly Cloudy"
"2005-08-06 19:00","2005","08","06","19:00","25.2","","12.8","","46","","","","0","","24.1","","100.78","","28","","","","Mostly Cloudy"
"2005-08-06 20:00","2005","08","06","20:00","22.3","","15.8","","67","","22","","9","","24.1","","100.78","","27","","","","Mainly Clear"
"2005-08-06 21:00","2005","08","06","21:00","21.2","","15.7","","71","","23","","11","","24.1","","100.82","","26","","","","Mainly Clear"
"2005-08-06 22:00","2005","08","06","22:00"
"2005-08-06 23:00","2005","08","06","23:00"
"2005-08-07 00:00","2005","08","07","00:00"
"2005-08-07 01:00","2005","08","07","01:00"
"2005-08-07 02:00","2005","08","07","02:00"
"2005-08-07 03:00","2005","08","07","03:00"
"2005-08-07 04:00","2005","08","07","04:00"
"2005-08-07 05:00","2005","08","07","05:00","14.9","","14.4","","97","","11","","7","","19.3","","100.84","","","","","","Clear"
"2005-08-07 06:00","2005","08","07","06:00","16.3","","15.2","","93","","19","","6","","19.3","","100.88","","","","","","Clear"
"2005-08-07 07:00","2005","08","07","07:00","20.6","","17.8","","84","","18","","4","","19.3","","100.92","","26","","","","Clear"
"2005-08-07 08:00","2005","08","07","08:00","23.1","","18.1","","73","","18","","7","","19.3","","100.94","","29","","","","Clear"
"2005-08-07 09:00","2005","08","07","09:00","25.1","","17.6","","63","","17","","4","","19.3","","100.94","","31","","","","Clear"
"2005-08-07 10:00","2005","08","07","10:00","27.1","","16.5","","52","","18","","6","","19.3","","100.91","","32","","","","Mainly Clear"
"2005-08-07 11:00","2005","08","07","11:00","27.8","","15.0","","46","","33","","9","","19.3","","100.90","","32","","","","Mainly Clear"
"2005-08-07 12:00","2005","08","07","12:00","28.8","","15.0","","43","","33","","9","","19.3","","100.85","","33","","","","Clear"
"2005-08-07 13:00","2005","08","07","13:00","28.9","","14.4","","41","","35","","7","","24.1","","100.81","","33","","","","Mainly Clear"
"2005-08-07 14:00","2005","08","07","14:00","29.1","","14.7","","41","","36","","19","","19.3","","100.76","","33","","","","Clear"
"2005-08-07 15:00","2005","08","07","15:00","29.6","","14.3","","39","","35","","15","","19.3","","100.71","","33","","","","Mainly Clear"
"2005-08-07 16:00","2005","08","07","16:00","29.3","","14.0","","39","","36","","17","","19.3","","100.69","","33","","","","Mainly Clear"
"2005-08-07 17:00","2005","08","07","17:00","29.6","","14.6","","40","","33","","9","","19.3","","100.67","","33","","","","Clear"
"2005-08-07 18:00","2005","08","07","18:00","28.9","","15.3","","44","","2","","9","","19.3","","100.66","","33","","","","Clear"
"2005-08-07 19:00","2005","08","07","19:00","27.1","","15.8","","50","","36","","4","","19.3","","100.66","","32","","","","Clear"
"2005-08-07 20:00","2005","08","07","20:00","24.1","","14.9","","56","","20","","11","","19.3","","100.67","","28","","","","Clear"
"2005-08-07 21:00","2005","08","07","21:00","22.0","","15.1","","65","","20","","11","","19.3","","100.72","","26","","","","Clear"
"2005-08-07 22:00","2005","08","07","22:00"
"2005-08-07 23:00","2005","08","07","23:00"
"2005-08-08 00:00","2005","08","08","00:00"
"2005-08-08 01:00","2005","08","08","01:00"
"2005-08-08 02:00","2005","08","08","02:00"
"2005-08-08 03:00","2005","08","08","03:00"
"2005-08-08 04:00","2005","08","08","04:00"
"2005-08-08 05:00","2005","08","08","05:00","18.6","","17.6","","94","","20","","7","","9.7","","100.82","","","","","","Fog"
"2005-08-08 06:00","2005","08","08","06:00","18.9","","18.1","","95","","24","","7","","12.9","","100.84","","","","","","Clear"
"2005-08-08 07:00","2005","08","08","07:00","21.9","","19.0","","84","","","","0","","12.9","","100.87","","29","","","","Clear"
"2005-08-08 08:00","2005","08","08","08:00","24.1","","19.1","","74","","28","","7","","12.9","","100.86","","31","","","","Clear"
"2005-08-08 09:00","2005","08","08","09:00","26.4","","20.1","","68","","35","","7","","16.1","","100.87","","34","","","","Mainly Clear"
"2005-08-08 10:00","2005","08","08","10:00","27.4","","20.0","","64","","","","0","","16.1","","100.88","","35","","","","Mainly Clear"
"2005-08-08 11:00","2005","08","08","11:00","29.2","","18.1","","51","","33","","19","","16.1","","100.85","","35","","","","Mainly Clear"
"2005-08-08 12:00","2005","08","08","12:00","28.5","","20.7","","63","","3","","19","","16.1","","100.77","","37","","","","Mainly Clear"
"2005-08-08 13:00","2005","08","08","13:00","28.7","","18.7","","55","","36","","15","","16.1","","100.75","","35","","","","Mainly Clear"
"2005-08-08 14:00","2005","08","08","14:00","29.6","","18.1","","50","","1","","19","","19.3","","100.72","","36","","","","Mainly Clear"
"2005-08-08 15:00","2005","08","08","15:00","29.7","","17.5","","48","","5","","19","","19.3","","100.68","","35","","","","Mainly Clear"
"2005-08-08 16:00","2005","08","08","16:00","29.8","","17.4","","47","","34","","11","","19.3","","100.62","","35","","","","Mainly Clear"
"2005-08-08 17:00","2005","08","08","17:00","29.6","","11.3","","32","","23","","19","","19.3","","100.62","","32","","","","Mainly Clear"
"2005-08-08 18:00","2005","08","08","18:00","29.2","","14.0","","39","","23","","19","","19.3","","100.59","","33","","","","Mostly Cloudy"
"2005-08-08 19:00","2005","08","08","19:00","27.2","","14.9","","47","","21","","15","","16.1","","100.57","","31","","","","Mainly Clear"
"2005-08-08 20:00","2005","08","08","20:00","24.5","","17.0","","63","","20","","9","","19.3","","100.58","","30","","","","Mainly Clear"
"2005-08-08 21:00","2005","08","08","21:00","23.3","","18.6","","75","","20","","9","","19.3","","100.62","","30","","","","Mainly Clear"
"2005-08-08 22:00","2005","08","08","22:00"
"2005-08-08 23:00","2005","08","08","23:00"
"2005-08-09 00:00","2005","08","09","00:00"
"2005-08-09 01:00","2005","08","09","01:00"
"2005-08-09 02:00","2005","08","09","02:00"
"2005-08-09 03:00","2005","08","09","03:00"
"2005-08-09 04:00","2005","08","09","04:00"
"2005-08-09 05:00","2005","08","09","05:00","21.8","","20.9","","95","","22","","13","","8.0","","100.59","","30","","","","Fog"
"2005-08-09 06:00","2005","08","09","06:00","22.2","","21.3","","95","","22","","11","","8.0","","100.62","","31","","","","Fog"
"2005-08-09 07:00","2005","08","09","07:00","24.4","","22.3","","88","","23","","17","","9.7","","100.62","","34","","","","Haze"
"2005-08-09 08:00","2005","08","09","08:00","26.4","","22.0","","77","","23","","11","","12.9","","100.61","","36","","","","Mainly Clear"
"2005-08-09 09:00","2005","08","09","09:00","28.0","","21.6","","68","","22","","22","","16.1","","100.59","","37","","","","Clear"
"2005-08-09 10:00","2005","08","09","10:00","29.2","","21.2","","62","","22","","20","","16.1","","100.60","","38","","","","Mainly Clear"
"2005-08-09 11:00","2005","08","09","11:00","30.4","","21.6","","59","","23","","22","","16.1","","100.59","","39","","","","Mainly Clear"
"2005-08-09 12:00","2005","08","09","12:00","30.6","","19.4","","51","","23","","22","","16.1","","100.56","","38","","","","Mainly Clear"
"2005-08-09 13:00","2005","08","09","13:00","31.5","","18.2","","45","","22","","24","","16.1","","100.55","","38","","","","Mainly Clear"
"2005-08-09 14:00","2005","08","09","14:00","31.4","","18.0","","45","","22","","24","","16.1","","100.45","","37","","","","Mainly Clear"
"2005-08-09 15:00","2005","08","09","15:00","31.8","","18.3","","45","","21","","19","","16.1","","100.38","","38","","","","Clear"
"2005-08-09 16:00","2005","08","09","16:00","31.1","","17.9","","45","","22","","19","","16.1","","100.35","","37","","","","Clear"
"2005-08-09 17:00","2005","08","09","17:00","30.8","","17.7","","46","","23","","19","","16.1","","100.34","","37","","","","Clear"
"2005-08-09 18:00","2005","08","09","18:00","29.8","","17.2","","47","","22","","19","","16.1","","100.33","","35","","","","Clear"
"2005-08-09 19:00","2005","08","09","19:00","28.3","","17.1","","51","","22","","19","","16.1","","100.28","","34","","","","Mainly Clear"
"2005-08-09 20:00","2005","08","09","20:00","27.1","","17.3","","55","","23","","15","","16.1","","100.30","","33","","","","Mainly Clear"
"2005-08-09 21:00","2005","08","09","21:00","26.1","","17.1","","58","","24","","15","","16.1","","100.37","","31","","","","Mainly Clear"
"2005-08-09 22:00","2005","08","09","22:00"
"2005-08-09 23:00","2005","08","09","23:00"
"2005-08-10 00:00","2005","08","10","00:00"
"2005-08-10 01:00","2005","08","10","01:00"
"2005-08-10 02:00","2005","08","10","02:00"
"2005-08-10 03:00","2005","08","10","03:00"
"2005-08-10 04:00","2005","08","10","04:00"
"2005-08-10 05:00","2005","08","10","05:00","22.9","","21.2","","90","","21","","15","","16.1","","100.22","","31","","","","Clear"
"2005-08-10 06:00","2005","08","10","06:00","23.4","","21.2","","87","","21","","19","","9.7","","100.21","","32","","","","Haze"
"2005-08-10 07:00","2005","08","10","07:00","25.0","","21.0","","78","","21","","19","","9.7","","100.23","","33","","","","Haze"
"2005-08-10 08:00","2005","08","10","08:00","27.1","","21.1","","70","","21","","22","","12.9","","100.24","","36","","","","Mainly Clear"
"2005-08-10 09:00","2005","08","10","09:00","28.6","","21.0","","64","","23","","22","","12.9","","100.24","","37","","","","Mostly Cloudy"
"2005-08-10 10:00","2005","08","10","10:00","29.8","","20.6","","58","","21","","20","","12.9","","100.20","","38","","","","Mainly Clear"
"2005-08-10 11:00","2005","08","10","11:00","30.9","","19.0","","49","","22","","19","","12.9","","100.15","","38","","","","Mainly Clear"
"2005-08-10 12:00","2005","08","10","12:00","32.1","","18.3","","44","","24","","22","","16.1","","100.08","","38","","","","Mainly Clear"
"2005-08-10 13:00","2005","08","10","13:00","32.3","","18.2","","43","","21","","19","","16.1","","100.02","","38","","","","Mainly Clear"
"2005-08-10 14:00","2005","08","10","14:00","32.0","","18.6","","45","","24","","19","","16.1","","99.99","","38","","","","Mostly Cloudy"
"2005-08-10 15:00","2005","08","10","15:00","24.8","","20.7","","78","","25","","19","","8.0","","100.10","","33","","","","Thunderstorms,Rain Showers"
"2005-08-10 16:00","2005","08","10","16:00","22.5","","20.2","","87","","22","","22","","8.0","","100.09","","30","","","","Rain Showers"
"2005-08-10 17:00","2005","08","10","17:00","22.7","","20.1","","85","","22","","19","","12.9","","100.07","","30","","","","Mostly Cloudy"
"2005-08-10 18:00","2005","08","10","18:00","24.4","","19.5","","74","","25","","22","","12.9","","99.99","","32","","","","Mostly Cloudy"
"2005-08-10 19:00","2005","08","10","19:00","23.8","","20.4","","81","","21","","19","","12.9","","100.09","","32","","","","Mostly Cloudy"
"2005-08-10 20:00","2005","08","10","20:00","23.8","","20.2","","80","","23","","19","","12.9","","100.09","","32","","","","Mostly Cloudy"
"2005-08-10 21:00","2005","08","10","21:00","23.5","","20.4","","83","","22","","15","","12.9","","100.14","","31","","","","Mostly Cloudy"
"2005-08-10 22:00","2005","08","10","22:00"
"2005-08-10 23:00","2005","08","10","23:00"
"2005-08-11 00:00","2005","08","11","00:00"
"2005-08-11 01:00","2005","08","11","01:00"
"2005-08-11 02:00","2005","08","11","02:00"
"2005-08-11 03:00","2005","08","11","03:00"
"2005-08-11 04:00","2005","08","11","04:00"
"2005-08-11 05:00","2005","08","11","05:00","19.3","","17.5","","89","","24","","9","","12.9","","100.33","","","","","","Mainly Clear"
"2005-08-11 06:00","2005","08","11","06:00","18.8","","17.2","","90","","22","","9","","16.1","","100.35","","","","","","Mainly Clear"
"2005-08-11 07:00","2005","08","11","07:00","21.6","","17.4","","77","","32","","13","E","16.1","","100.46","","27","","","","Mainly Clear"
"2005-08-11 08:00","2005","08","11","08:00","22.9","","16.9","","69","","30","","11","","16.1","","100.48","","28","","","","Mainly Clear"
"2005-08-11 09:00","2005","08","11","09:00","23.6","","16.6","","65","","31","","15","","16.1","","100.52","","29","","","","Mainly Clear"
"2005-08-11 10:00","2005","08","11","10:00","25.2","","16.4","","58","","34","","9","","16.1","","100.48","","30","","","","Mainly Clear"
"2005-08-11 11:00","2005","08","11","11:00","26.2","","14.0","","47","","31","","7","","19.3","","100.48","","30","","","","Mostly Cloudy"
"2005-08-11 12:00","2005","08","11","12:00","27.1","","12.5","","40","","32","","15","E","19.3","","100.50","","30","","","","Mostly Cloudy"
"2005-08-11 13:00","2005","08","11","13:00","27.4","","10.7","","35","","31","","7","","24.1","","100.46","","29","","","","Mostly Cloudy"
"2005-08-11 14:00","2005","08","11","14:00","27.6","","13.5","","42","","34","","11","","19.3","","100.43","","31","","","","Cloudy"
"2005-08-11 15:00","2005","08","11","15:00","27.5","","12.8","","40","","35","","11","","19.3","","100.43","","30","","","","Cloudy"
"2005-08-11 16:00","2005","08","11","16:00","27.2","","11.4","","37","","36","","9","","19.3","","100.41","","29","","","","Cloudy"
"2005-08-11 17:00","2005","08","11","17:00","27.1","","11.7","","38","","33","","7","","19.3","","100.42","","29","","","","Cloudy"
"2005-08-11 18:00","2005","08","11","18:00","26.8","","13.3","","43","","26","","9","","24.1","","100.47","","30","","","","Cloudy"
"2005-08-11 19:00","2005","08","11","19:00","25.9","","11.2","","40","","26","","11","","24.1","","100.46","","28","","","","Cloudy"
"2005-08-11 20:00","2005","08","11","20:00","24.0","","12.3","","48","","23","","4","","24.1","","100.43","","26","","","","Cloudy"
"2005-08-11 21:00","2005","08","11","21:00","23.9","","12.3","","48","","31","","4","","24.1","","100.46","","26","","","","Cloudy"
"2005-08-11 22:00","2005","08","11","22:00"
"2005-08-11 23:00","2005","08","11","23:00"
"2005-08-12 00:00","2005","08","12","00:00"
"2005-08-12 01:00","2005","08","12","01:00"
"2005-08-12 02:00","2005","08","12","02:00"
"2005-08-12 03:00","2005","08","12","03:00"
"2005-08-12 04:00","2005","08","12","04:00"
"2005-08-12 05:00","2005","08","12","05:00","20.8","","18.6","","87","","10","","6","","12.9","","100.36","","27","","","","Mostly Cloudy"
"2005-08-12 06:00","2005","08","12","06:00","20.4","","18.2","","87","","12","","11","","12.9","","100.28","","27","","","","Mostly Cloudy"
"2005-08-12 07:00","2005","08","12","07:00","23.0","","18.1","","74","","16","","9","","12.9","","100.28","","29","","","","Mostly Cloudy"
"2005-08-12 08:00","2005","08","12","08:00","23.0","","19.5","","81","","18","","19","","9.7","","100.24","","30","","","","Rain Showers,Fog"
"2005-08-12 09:00","2005","08","12","09:00","22.9","","18.9","","78","","22","","9","","12.9","","100.26","","30","","","","Rain Showers"
"2005-08-12 10:00","2005","08","12","10:00","21.4","","19.9","","91","","20","","7","","6.4","","100.29","","29","","","","Rain Showers"
"2005-08-12 11:00","2005","08","12","11:00","21.6","","20.5","","93","","18","","19","E","8.0","","100.16","","30","","","","Rain Showers"
"2005-08-12 12:00","2005","08","12","12:00","23.7","","21.4","","87","","16","","22","","12.9","","100.06","","32","","","","Cloudy"
"2005-08-12 13:00","2005","08","12","13:00","25.0","","21.8","","82","","19","","19","","9.7","","100.02","","34","","","","Haze"
"2005-08-12 14:00","2005","08","12","14:00","25.7","","21.9","","80","","21","","19","","9.7","","99.93","","35","","","","Haze"
"2005-08-12 15:00","2005","08","12","15:00","27.3","","22.0","","73","","22","","22","","11.3","","99.83","","37","","","","Cloudy"
"2005-08-12 16:00","2005","08","12","16:00","28.2","","21.4","","67","","23","","19","","12.9","","99.81","","37","","","","Cloudy"
"2005-08-12 17:00","2005","08","12","17:00","28.8","","21.6","","65","","24","","19","","9.7","","99.80","","38","","","","Haze"
"2005-08-12 18:00","2005","08","12","18:00","28.6","","22.3","","69","","24","","19","","8.0","","99.77","","38","","","","Rain Showers,Haze"
"2005-08-12 19:00","2005","08","12","19:00","27.6","","21.9","","71","","24","","19","","9.7","","99.75","","37","","","","Haze"
"2005-08-12 20:00","2005","08","12","20:00","25.8","","21.5","","77","","23","","15","","12.9","","99.82","","35","","","","Cloudy"
"2005-08-12 21:00","2005","08","12","21:00","25.3","","21.9","","81","","24","","13","","12.9","","99.89","","35","","","","Cloudy"
"2005-08-12 22:00","2005","08","12","22:00"
"2005-08-12 23:00","2005","08","12","23:00"
"2005-08-13 00:00","2005","08","13","00:00"
"2005-08-13 01:00","2005","08","13","01:00"
"2005-08-13 02:00","2005","08","13","02:00"
"2005-08-13 03:00","2005","08","13","03:00"
"2005-08-13 04:00","2005","08","13","04:00"
"2005-08-13 05:00","2005","08","13","05:00","22.8","","20.5","","87","","27","","9","","19.3","","100.07","","31","","","","Mostly Cloudy"
"2005-08-13 06:00","2005","08","13","06:00","22.7","","20.1","","85","","28","","9","","24.1","","100.10","","30","","","","Cloudy"
"2005-08-13 07:00","2005","08","13","07:00","23.2","","20.2","","83","","30","","9","","24.1","","100.14","","31","","","","Cloudy"
"2005-08-13 08:00","2005","08","13","08:00","23.2","","20.3","","84","","31","","9","","24.1","","100.19","","31","","","","Cloudy"
"2005-08-13 09:00","2005","08","13","09:00","23.8","","20.2","","80","","34","","9","","24.1","","100.22","","32","","","","Mostly Cloudy"
"2005-08-13 10:00","2005","08","13","10:00","24.3","","19.4","","74","","2","","19","","24.1","","100.23","","31","","","","Mostly Cloudy"
"2005-08-13 11:00","2005","08","13","11:00","25.7","","19.2","","67","","36","","9","","24.1","","100.21","","33","","","","Mostly Cloudy"
"2005-08-13 12:00","2005","08","13","12:00","25.1","","18.6","","67","","2","","9","","24.1","","100.20","","32","","","","Mostly Cloudy"
"2005-08-13 13:00","2005","08","13","13:00","26.1","","18.4","","63","","36","","9","","24.1","","100.19","","32","","","","Mostly Cloudy"
"2005-08-13 14:00","2005","08","13","14:00","25.6","","17.8","","62","","2","","13","","24.1","","100.14","","31","","","","Mostly Cloudy"
"2005-08-13 15:00","2005","08","13","15:00","27.1","","19.2","","62","","32","","9","","24.1","","100.11","","34","","","","Mostly Cloudy"
"2005-08-13 16:00","2005","08","13","16:00","27.0","","17.4","","56","","2","","15","","24.1","","100.08","","33","","","","Mostly Cloudy"
"2005-08-13 17:00","2005","08","13","17:00","26.5","","17.5","","58","","6","","15","","24.1","","100.03","","32","","","","Mostly Cloudy"
"2005-08-13 18:00","2005","08","13","18:00","25.8","","17.8","","61","","5","","15","","24.1","","100.05","","32","","","","Mostly Cloudy"
"2005-08-13 19:00","2005","08","13","19:00","24.5","","18.3","","68","","6","","15","","24.1","","100.09","","31","","","","Mainly Clear"
"2005-08-13 20:00","2005","08","13","20:00","22.7","","18.9","","79","","9","","9","","24.1","","100.12","","29","","","","Mainly Clear"
"2005-08-13 21:00","2005","08","13","21:00","22.3","","17.8","","76","","11","","9","","24.1","","100.11","","28","","","","Mainly Clear"
"2005-08-13 22:00","2005","08","13","22:00"
"2005-08-13 23:00","2005","08","13","23:00"
"2005-08-14 00:00","2005","08","14","00:00"
"2005-08-14 01:00","2005","08","14","01:00"
"2005-08-14 02:00","2005","08","14","02:00"
"2005-08-14 03:00","2005","08","14","03:00"
"2005-08-14 04:00","2005","08","14","04:00"
"2005-08-14 05:00","2005","08","14","05:00","19.5","","18.4","","93","","1","","9","","9.7","","100.17","","","","","","Rain"
"2005-08-14 06:00","2005","08","14","06:00","18.3","","16.8","","91","","3","","9","","6.4","","100.28","","","","","","Rain,Fog"
"2005-08-14 07:00","2005","08","14","07:00","18.2","","17.2","","94","","6","","19","","6.4","","100.32","","","","","","Rain,Fog"
"2005-08-14 08:00","2005","08","14","08:00","18.2","","17.3","","94","","6","","19","","6.4","","100.33","","","","","","Rain,Fog"
"2005-08-14 09:00","2005","08","14","09:00","18.6","","17.1","","91","","6","","9","","16.1","","100.32","","","","","","Rain"
"2005-08-14 10:00","2005","08","14","10:00","18.8","","17.2","","90","","6","","15","","8.0","","100.38","","","","","","Rain,Fog"
"2005-08-14 11:00","2005","08","14","11:00","18.9","","18.0","","95","","5","","15","","4.0","","100.42","","","","","","Rain,Fog"
"2005-08-14 12:00","2005","08","14","12:00","18.7","","17.7","","94","","7","","15","","6.4","","100.42","","","","","","Rain,Fog"
"2005-08-14 13:00","2005","08","14","13:00","19.3","","18.1","","93","","9","","15","","8.0","","100.43","","","","","","Rain,Fog"
"2005-08-14 14:00","2005","08","14","14:00","19.8","","18.0","","89","","9","","15","","19.3","","100.41","","","","","","Cloudy"
"2005-08-14 15:00","2005","08","14","15:00","20.6","","17.9","","85","","36","","15","","19.3","","100.45","","27","","","","Cloudy"
"2005-08-14 16:00","2005","08","14","16:00","20.4","","18.1","","87","","33","","6","","19.3","","100.51","","26","","","","Cloudy"
"2005-08-14 17:00","2005","08","14","17:00","20.8","","18.5","","87","","35","","7","","19.3","","100.51","","27","","","","Mostly Cloudy"
"2005-08-14 18:00","2005","08","14","18:00","21.2","","18.0","","82","","33","","7","","19.3","","100.55","","27","","","","Mostly Cloudy"
"2005-08-14 19:00","2005","08","14","19:00","20.2","","17.1","","82","","27","","7","","19.3","","100.60","","26","","","","Mostly Cloudy"
"2005-08-14 20:00","2005","08","14","20:00","19.5","","17.8","","90","","","","0","","19.3","","100.61","","","","","","Mostly Cloudy"
"2005-08-14 21:00","2005","08","14","21:00","19.1","","17.6","","91","","20","","4","","19.3","","100.63","","","","","","Mostly Cloudy"
"2005-08-14 22:00","2005","08","14","22:00"
"2005-08-14 23:00","2005","08","14","23:00"
"2005-08-15 00:00","2005","08","15","00:00"
"2005-08-15 01:00","2005","08","15","01:00"
"2005-08-15 02:00","2005","08","15","02:00"
"2005-08-15 03:00","2005","08","15","03:00"
"2005-08-15 04:00","2005","08","15","04:00"
"2005-08-15 05:00","2005","08","15","05:00","16.2","","14.4","","89","","25","","7","","24.1","","100.81","","","","","","Clear"
"2005-08-15 06:00","2005","08","15","06:00","15.0","","14.1","","94","","22","","9","","24.1","","100.85","","","","","","Clear"
"2005-08-15 07:00","2005","08","15","07:00","18.2","","15.8","","86","","24","","9","","24.1","","100.89","","","","","","Clear"
"2005-08-15 08:00","2005","08","15","08:00","19.9","","16.6","","81","","28","","9","","24.1","","100.90","","","","","","Clear"
"2005-08-15 09:00","2005","08","15","09:00","21.2","","15.9","","72","","30","","7","","24.1","","100.91","","26","","","","Mainly Clear"
"2005-08-15 10:00","2005","08","15","10:00","22.2","","16.2","","69","","33","","15","","24.1","","100.92","","27","","","","Mainly Clear"
"2005-08-15 11:00","2005","08","15","11:00","23.0","","17.0","","69","","31","","15","","24.1","","100.93","","28","","","","Mainly Clear"
"2005-08-15 12:00","2005","08","15","12:00","24.1","","15.5","","59","","27","","19","","24.1","","100.92","","28","","","","Mainly Clear"
"2005-08-15 13:00","2005","08","15","13:00","24.7","","15.0","","55","","30","","4","","24.1","","100.89","","29","","","","Mostly Cloudy"
"2005-08-15 14:00","2005","08","15","14:00","26.1","","14.5","","49","","30","","6","","24.1","","100.86","","30","","","","Mostly Cloudy"
"2005-08-15 15:00","2005","08","15","15:00","26.5","","11.5","","39","","","","0","","24.1","","100.82","","29","","","","Mostly Cloudy"
"2005-08-15 16:00","2005","08","15","16:00","26.3","","12.3","","42","","3","","7","","24.1","","100.80","","29","","","","Mostly Cloudy"
"2005-08-15 17:00","2005","08","15","17:00","26.4","","11.8","","40","","22","","9","","24.1","","100.79","","29","","","","Mostly Cloudy"
"2005-08-15 18:00","2005","08","15","18:00","26.3","","12.1","","41","","12","","6","","24.1","","100.77","","29","","","","Mostly Cloudy"
"2005-08-15 19:00","2005","08","15","19:00","24.0","","15.6","","59","","22","","15","","24.1","","100.77","","28","","","","Mostly Cloudy"
"2005-08-15 20:00","2005","08","15","20:00","22.2","","17.0","","72","","20","","11","","24.1","","100.77","","27","","","","Mostly Cloudy"
"2005-08-15 21:00","2005","08","15","21:00","21.3","","17.1","","77","","21","","9","","24.1","","100.81","","27","","","","Mostly Cloudy"
"2005-08-15 22:00","2005","08","15","22:00"
"2005-08-15 23:00","2005","08","15","23:00"
"2005-08-16 00:00","2005","08","16","00:00"
"2005-08-16 01:00","2005","08","16","01:00"
"2005-08-16 02:00","2005","08","16","02:00"
"2005-08-16 03:00","2005","08","16","03:00"
"2005-08-16 04:00","2005","08","16","04:00"
"2005-08-16 05:00","2005","08","16","05:00","15.5","","14.3","","93","","19","","9","","24.1","","100.79","","","","","","Mainly Clear"
"2005-08-16 06:00","2005","08","16","06:00","15.7","","14.8","","94","","18","","7","","24.1","","100.79","","","","","","Mainly Clear"
"2005-08-16 07:00","2005","08","16","07:00","18.9","","16.7","","87","","25","","4","","24.1","","100.81","","","","","","Mainly Clear"
"2005-08-16 08:00","2005","08","16","08:00","21.2","","16.6","","75","","","","0","","24.1","","100.82","","26","","","","Mainly Clear"
"2005-08-16 09:00","2005","08","16","09:00","22.6","","16.4","","68","","33","","4","","24.1","","100.81","","27","","","","Mainly Clear"
"2005-08-16 10:00","2005","08","16","10:00","23.3","","17.2","","69","","29","","6","","24.1","","100.81","","29","","","","Mainly Clear"
"2005-08-16 11:00","2005","08","16","11:00","24.4","","13.3","","50","","31","","7","","24.1","","100.75","","27","","","","Clear"
"2005-08-16 12:00","2005","08","16","12:00","25.1","","15.7","","56","","32","","9","","24.1","","100.70","","30","","","","Clear"
"2005-08-16 13:00","2005","08","16","13:00","25.4","","11.7","","42","","35","","7","","24.1","","100.69","","28","","","","Mainly Clear"
"2005-08-16 14:00","2005","08","16","14:00","27.0","","11.2","","37","","29","","9","","24.1","","100.63","","29","","","","Mainly Clear"
"2005-08-16 15:00","2005","08","16","15:00","27.1","","11.7","","38","","3","","15","","24.1","","100.56","","29","","","","Mostly Cloudy"
"2005-08-16 16:00","2005","08","16","16:00","27.3","","11.6","","38","","5","","13","E","24.1","","100.50","","29","","","","Mainly Clear"
"2005-08-16 17:00","2005","08","16","17:00","27.6","","12.0","","38","","29","","19","","24.1","","100.49","","30","","","","Mainly Clear"
"2005-08-16 18:00","2005","08","16","18:00","26.6","","15.2","","50","","22","","9","","24.1","","100.46","","31","","","","Mainly Clear"
"2005-08-16 19:00","2005","08","16","19:00","25.2","","14.9","","53","","23","","15","","24.1","","100.47","","29","","","","Mostly Cloudy"
"2005-08-16 20:00","2005","08","16","20:00","24.0","","14.8","","56","","23","","19","","24.1","","100.48","","28","","","","Mainly Clear"
"2005-08-16 21:00","2005","08","16","21:00","23.0","","15.3","","62","","23","","19","","24.1","","100.53","","27","","","","Mainly Clear"
"2005-08-16 22:00","2005","08","16","22:00"
"2005-08-16 23:00","2005","08","16","23:00"
"2005-08-17 00:00","2005","08","17","00:00"
"2005-08-17 01:00","2005","08","17","01:00"
"2005-08-17 02:00","2005","08","17","02:00"
"2005-08-17 03:00","2005","08","17","03:00"
"2005-08-17 04:00","2005","08","17","04:00"
"2005-08-17 05:00","2005","08","17","05:00","16.7","","14.2","","85","","19","","4","","24.1","","100.57","","","","","","Clear"
"2005-08-17 06:00","2005","08","17","06:00","16.6","","14.6","","88","","24","","4","","24.1","","100.60","","","","","","Clear"
"2005-08-17 07:00","2005","08","17","07:00","20.0","","16.3","","79","","27","","6","","24.1","","100.61","","25","","","","Mainly Clear"
"2005-08-17 08:00","2005","08","17","08:00","22.0","","13.9","","60","","31","","15","","24.1","","100.60","","25","","","","Mainly Clear"
"2005-08-17 09:00","2005","08","17","09:00","22.7","","13.0","","54","","35","","11","","24.1","","100.60","","25","","","","Mainly Clear"
"2005-08-17 10:00","2005","08","17","10:00","22.5","","11.4","","49","","33","","19","","24.1","","100.63","","","","","","Mainly Clear"
"2005-08-17 11:00","2005","08","17","11:00","24.1","","9.0","","38","","31","","15","","24.1","","100.64","","25","","","","Mainly Clear"
"2005-08-17 12:00","2005","08","17","12:00","24.4","","11.6","","45","","32","","11","","24.1","","100.62","","26","","","","Clear"
"2005-08-17 13:00","2005","08","17","13:00","23.5","","12.3","","49","","2","","15","","24.1","","100.61","","26","","","","Mainly Clear"
"2005-08-17 14:00","2005","08","17","14:00","24.5","","12.3","","47","","9","","9","","24.1","","100.60","","27","","","","Clear"
"2005-08-17 15:00","2005","08","17","15:00","24.8","","13.2","","48","","3","","11","","24.1","","100.56","","28","","","","Mainly Clear"
"2005-08-17 16:00","2005","08","17","16:00","24.7","","12.9","","48","","6","","13","","24.1","","100.57","","27","","","","Mostly Cloudy"
"2005-08-17 17:00","2005","08","17","17:00","24.9","","12.2","","45","","5","","9","","24.1","","100.57","","27","","","","Mainly Clear"
"2005-08-17 18:00","2005","08","17","18:00","24.5","","10.6","","42","","5","","11","","24.1","","100.55","","26","","","","Mainly Clear"
"2005-08-17 19:00","2005","08","17","19:00","22.1","","11.9","","52","","8","","7","","24.1","","100.56","","","","","","Mostly Cloudy"
"2005-08-17 20:00","2005","08","17","20:00","20.7","","11.8","","57","","11","","7","","24.1","","100.57","","","","","","Mostly Cloudy"
"2005-08-17 21:00","2005","08","17","21:00","18.6","","12.3","","67","","16","","6","","24.1","","100.61","","","","","","Mostly Cloudy"
"2005-08-17 22:00","2005","08","17","22:00"
"2005-08-17 23:00","2005","08","17","23:00"
"2005-08-18 00:00","2005","08","18","00:00"
"2005-08-18 01:00","2005","08","18","01:00"
"2005-08-18 02:00","2005","08","18","02:00"
"2005-08-18 03:00","2005","08","18","03:00"
"2005-08-18 04:00","2005","08","18","04:00"
"2005-08-18 05:00","2005","08","18","05:00","15.4","","13.2","","87","","","","0","","24.1","","100.58","","","","","","Mostly Cloudy"
"2005-08-18 06:00","2005","08","18","06:00","15.6","","12.5","","82","","12","","4","","24.1","","100.65","","","","","","Mostly Cloudy"
"2005-08-18 07:00","2005","08","18","07:00","18.6","","13.7","","73","","11","","4","","24.1","","100.66","","","","","","Mostly Cloudy"
"2005-08-18 08:00","2005","08","18","08:00","20.8","","14.5","","67","","8","","9","","24.1","","100.65","","","","","","Mostly Cloudy"
"2005-08-18 09:00","2005","08","18","09:00","23.0","","11.3","","48","","9","","15","","24.1","","100.62","","25","","","","Mostly Cloudy"
"2005-08-18 10:00","2005","08","18","10:00","24.8","","11.8","","44","","9","","15","","24.1","","100.62","","27","","","","Mostly Cloudy"
"2005-08-18 11:00","2005","08","18","11:00","25.9","","13.6","","47","","8","","15","","24.1","","100.59","","29","","","","Mostly Cloudy"
"2005-08-18 12:00","2005","08","18","12:00","26.2","","13.7","","46","","11","","17","","24.1","","100.53","","29","","","","Mostly Cloudy"
"2005-08-18 13:00","2005","08","18","13:00","26.3","","13.8","","46","","9","","19","","24.1","","100.49","","30","","","","Mostly Cloudy"
"2005-08-18 14:00","2005","08","18","14:00","26.9","","13.7","","44","","7","","22","","24.1","","100.44","","30","","","","Mostly Cloudy"
"2005-08-18 15:00","2005","08","18","15:00","27.1","","13.5","","43","","8","","19","","24.1","","100.38","","30","","","","Mostly Cloudy"
"2005-08-18 16:00","2005","08","18","16:00","26.8","","16.7","","54","","4","","15","","24.1","","100.34","","32","","","","Mostly Cloudy"
"2005-08-18 17:00","2005","08","18","17:00","25.7","","17.6","","61","","6","","19","","24.1","","100.29","","31","","","","Mainly Clear"
"2005-08-18 18:00","2005","08","18","18:00","24.0","","17.6","","67","","6","","19","","24.1","","100.25","","30","","","","Mostly Cloudy"
"2005-08-18 19:00","2005","08","18","19:00","22.9","","16.6","","68","","8","","22","","24.1","","100.27","","28","","","","Cloudy"
"2005-08-18 20:00","2005","08","18","20:00","21.9","","16.0","","69","","9","","19","","24.1","","100.28","","27","","","","Cloudy"
"2005-08-18 21:00","2005","08","18","21:00","21.6","","15.7","","69","","8","","19","","24.1","","100.31","","26","","","","Cloudy"
"2005-08-18 22:00","2005","08","18","22:00"
"2005-08-18 23:00","2005","08","18","23:00"
"2005-08-19 00:00","2005","08","19","00:00"
"2005-08-19 01:00","2005","08","19","01:00"
"2005-08-19 02:00","2005","08","19","02:00"
"2005-08-19 03:00","2005","08","19","03:00"
"2005-08-19 04:00","2005","08","19","04:00"
"2005-08-19 05:00","2005","08","19","05:00","19.6","","18.0","","90","","18","","11","","9.7","","100.11","","","","","","Rain Showers"
"2005-08-19 06:00","2005","08","19","06:00","20.5","","19.5","","94","","18","","19","","9.7","","100.10","","28","","","","Rain Showers"
"2005-08-19 07:00","2005","08","19","07:00","20.8","","18.6","","87","","18","","19","","12.9","","100.12","","27","","","","Mostly Cloudy"
"2005-08-19 08:00","2005","08","19","08:00","22.0","","19.1","","84","","9","","9","","12.9","","100.14","","29","","","","Cloudy"
"2005-08-19 09:00","2005","08","19","09:00","23.6","","19.5","","78","","17","","22","","12.9","","100.05","","31","","","","Mostly Cloudy"
"2005-08-19 10:00","2005","08","19","10:00","24.8","","19.8","","74","","18","","28","","12.9","","100.03","","32","","","","Mostly Cloudy"
"2005-08-19 11:00","2005","08","19","11:00","25.9","","20.3","","71","","20","","28","","12.9","","99.95","","34","","","","Mostly Cloudy"
"2005-08-19 12:00","2005","08","19","12:00","26.9","","20.9","","70","","20","","28","","12.9","","99.92","","35","","","","Mostly Cloudy"
"2005-08-19 13:00","2005","08","19","13:00","26.7","","20.6","","69","","20","","28","","12.9","","99.84","","35","","","","Mostly Cloudy"
"2005-08-19 14:00","2005","08","19","14:00","28.2","","20.8","","64","","18","","22","","12.9","","99.68","","36","","","","Mostly Cloudy"
"2005-08-19 15:00","2005","08","19","15:00","28.9","","20.7","","61","","18","","26","","11.3","","99.53","","37","","","","Mostly Cloudy"
"2005-08-19 16:00","2005","08","19","16:00","27.0","","22.3","","76","","21","","19","","9.7","","99.55","","37","","","","Haze"
"2005-08-19 17:00","2005","08","19","17:00","27.5","","21.6","","70","","21","","24","","8.0","","99.57","","36","","","","Thunderstorms,Rain Showers,Haze"
"2005-08-19 18:00","2005","08","19","18:00","25.8","","22.8","","84","","24","","19","","11.3","","99.62","","36","","","","Rain Showers"
"2005-08-19 19:00","2005","08","19","19:00","23.6","","22.3","","92","","23","","15","","12.9","","99.68","","33","","","","Rain Showers"
"2005-08-19 20:00","2005","08","19","20:00","23.4","","21.8","","91","","21","","11","","19.3","","99.73","","33","","","","Mostly Cloudy"
"2005-08-19 21:00","2005","08","19","21:00","23.6","","21.4","","87","","21","","15","","19.3","","99.76","","32","","","","Cloudy"
"2005-08-19 22:00","2005","08","19","22:00"
"2005-08-19 23:00","2005","08","19","23:00"
"2005-08-20 00:00","2005","08","20","00:00"
"2005-08-20 01:00","2005","08","20","01:00"
"2005-08-20 02:00","2005","08","20","02:00"
"2005-08-20 03:00","2005","08","20","03:00"
"2005-08-20 04:00","2005","08","20","04:00"
"2005-08-20 05:00","2005","08","20","05:00","19.8","","17.2","","85","","23","","15","","19.3","","100.11","","","","","","Cloudy"
"2005-08-20 06:00","2005","08","20","06:00","19.7","","17.2","","85","","23","","15","","24.1","","100.21","","","","","","Cloudy"
"2005-08-20 07:00","2005","08","20","07:00","20.3","","17.3","","83","","25","","19","","19.3","","100.25","","26","","","","Cloudy"
"2005-08-20 08:00","2005","08","20","08:00","20.8","","16.5","","76","","27","","9","","19.3","","100.27","","26","","","","Cloudy"
"2005-08-20 09:00","2005","08","20","09:00","21.2","","16.6","","75","","26","","15","","19.3","","100.32","","26","","","","Cloudy"
"2005-08-20 10:00","2005","08","20","10:00","21.9","","16.8","","73","","23","","15","","19.3","","100.33","","27","","","","Cloudy"
"2005-08-20 11:00","2005","08","20","11:00","23.4","","18.0","","72","","23","","15","","24.1","","100.33","","29","","","","Mostly Cloudy"
"2005-08-20 12:00","2005","08","20","12:00","24.7","","19.2","","71","","22","","19","","24.1","","100.15","","32","","","","Mostly Cloudy"
"2005-08-20 13:00","2005","08","20","13:00","24.1","","16.8","","64","","22","","22","","24.1","","100.15","","29","","","","Cloudy"
"2005-08-20 14:00","2005","08","20","14:00","23.8","","19.5","","77","","25","","22","","12.9","","100.19","","31","","","","Rain Showers"
"2005-08-20 15:00","2005","08","20","15:00","23.0","","20.0","","83","","20","","15","","16.1","","100.00","","31","","","","Mostly Cloudy"
"2005-08-20 16:00","2005","08","20","16:00","24.7","","19.9","","75","","20","","6","","16.1","","99.96","","32","","","","Mostly Cloudy"
"2005-08-20 17:00","2005","08","20","17:00","23.1","","20.3","","84","","34","","9","","16.1","","99.97","","31","","","","Cloudy"
"2005-08-20 18:00","2005","08","20","18:00","22.8","","20.2","","85","","6","","6","","12.9","","99.92","","31","","","","Cloudy"
"2005-08-20 19:00","2005","08","20","19:00","22.6","","19.9","","85","","4","","7","","11.3","","99.91","","30","","","","Cloudy"
"2005-08-20 20:00","2005","08","20","20:00","22.2","","20.2","","88","","","","0","","8.0","","99.93","","30","","","","Fog"
"2005-08-20 21:00","2005","08","20","21:00","21.5","","20.5","","94","","","","0","","8.0","","99.91","","29","","","","Fog"
"2005-08-20 22:00","2005","08","20","22:00"
"2005-08-20 23:00","2005","08","20","23:00"
"2005-08-21 00:00","2005","08","21","00:00"
"2005-08-21 01:00","2005","08","21","01:00"
"2005-08-21 02:00","2005","08","21","02:00"
"2005-08-21 03:00","2005","08","21","03:00"
"2005-08-21 04:00","2005","08","21","04:00"
"2005-08-21 05:00","2005","08","21","05:00","21.2","","20.4","","95","","27","","15","","3.2","","99.90","","29","","","","Fog"
"2005-08-21 06:00","2005","08","21","06:00","20.9","","19.9","","94","","25","","19","","4.8","","99.99","","28","","","","Fog"
"2005-08-21 07:00","2005","08","21","07:00","21.2","","19.6","","91","","25","","15","","4.8","","100.06","","28","","","","Fog"
"2005-08-21 08:00","2005","08","21","08:00","22.1","","18.6","","81","","27","","19","","11.3","","100.08","","29","","","","Mainly Clear"
"2005-08-21 09:00","2005","08","21","09:00","23.9","","18.0","","70","","23","","17","","16.1","","100.06","","30","","","","Clear"
"2005-08-21 10:00","2005","08","21","10:00","25.9","","16.4","","56","","21","","19","","24.1","","100.03","","31","","","","Clear"
"2005-08-21 11:00","2005","08","21","11:00","27.2","","15.1","","48","","24","","19","","24.1","","100.02","","31","","","","Mainly Clear"
"2005-08-21 12:00","2005","08","21","12:00","28.1","","14.1","","42","","26","","19","","24.1","","99.99","","32","","","","Mainly Clear"
"2005-08-21 13:00","2005","08","21","13:00","28.3","","15.0","","44","","22","","19","","24.1","","99.95","","32","","","","Mainly Clear"
"2005-08-21 14:00","2005","08","21","14:00","28.6","","16.8","","49","","22","","26","","24.1","","99.90","","34","","","","Mainly Clear"
"2005-08-21 15:00","2005","08","21","15:00","26.5","","16.2","","53","","26","","19","","24.1","","99.87","","31","","","","Mainly Clear"
"2005-08-21 16:00","2005","08","21","16:00","27.0","","14.5","","46","","28","","22","","24.1","","99.85","","31","","","","Mainly Clear"
"2005-08-21 17:00","2005","08","21","17:00","25.9","","14.3","","49","","28","","19","","24.1","","99.86","","29","","","","Mainly Clear"
"2005-08-21 18:00","2005","08","21","18:00","24.9","","13.7","","50","","29","","19","","24.1","","99.88","","28","","","","Mainly Clear"
"2005-08-21 19:00","2005","08","21","19:00","23.3","","14.9","","59","","29","","11","","24.1","","99.88","","27","","","","Clear"
"2005-08-21 20:00","2005","08","21","20:00","22.7","","13.8","","57","","30","","19","","24.1","","99.93","","26","","","","Clear"
"2005-08-21 21:00","2005","08","21","21:00","21.1","","14.5","","66","","29","","11","","24.1","","99.93","","25","","","","Clear"
"2005-08-21 22:00","2005","08","21","22:00"
"2005-08-21 23:00","2005","08","21","23:00"
"2005-08-22 00:00","2005","08","22","00:00"
"2005-08-22 01:00","2005","08","22","01:00"
"2005-08-22 02:00","2005","08","22","02:00"
"2005-08-22 03:00","2005","08","22","03:00"
"2005-08-22 04:00","2005","08","22","04:00"
"2005-08-22 05:00","2005","08","22","05:00","16.5","","13.2","","81","","24","","15","","24.1","","100.04","","","","","","Mostly Cloudy"
"2005-08-22 06:00","2005","08","22","06:00","16.3","","13.5","","83","","25","","15","","24.1","","100.11","","","","","","Mostly Cloudy"
"2005-08-22 07:00","2005","08","22","07:00","17.9","","13.3","","74","","28","","19","","24.1","","100.14","","","","","","Mostly Cloudy"
"2005-08-22 08:00","2005","08","22","08:00","18.3","","12.4","","68","","24","","22","","24.1","","100.15","","","","","","Mostly Cloudy"
"2005-08-22 09:00","2005","08","22","09:00","19.2","","12.4","","65","","24","","22","","24.1","","100.18","","","","","","Mostly Cloudy"
"2005-08-22 10:00","2005","08","22","10:00","20.7","","12.0","","57","","30","","19","","24.1","","100.19","","","","","","Mostly Cloudy"
"2005-08-22 11:00","2005","08","22","11:00","21.3","","12.2","","56","","29","","22","","24.1","","100.20","","","","","","Mostly Cloudy"
"2005-08-22 12:00","2005","08","22","12:00","21.9","","12.2","","54","","28","","22","","24.1","","100.15","","","","","","Mostly Cloudy"
"2005-08-22 13:00","2005","08","22","13:00","21.6","","12.6","","57","","28","","22","","24.1","","100.19","","","","","","Mostly Cloudy"
"2005-08-22 14:00","2005","08","22","14:00","22.3","","13.3","","57","","30","","22","","24.1","","100.20","","25","","","","Mostly Cloudy"
"2005-08-22 15:00","2005","08","22","15:00","21.3","","12.0","","55","","31","","19","","24.1","","100.22","","","","","","Mostly Cloudy"
"2005-08-22 16:00","2005","08","22","16:00","21.1","","12.8","","59","","30","","9","","24.1","","100.25","","","","","","Mostly Cloudy"
"2005-08-22 17:00","2005","08","22","17:00","20.5","","13.4","","64","","28","","9","","24.1","","100.25","","","","","","Mostly Cloudy"
"2005-08-22 18:00","2005","08","22","18:00","20.1","","13.3","","65","","27","","15","","24.1","","100.25","","","","","","Mostly Cloudy"
"2005-08-22 19:00","2005","08","22","19:00","18.5","","14.0","","75","","3","","9","","24.1","","100.26","","","","","","Mostly Cloudy"
"2005-08-22 20:00","2005","08","22","20:00","18.5","","13.8","","74","","1","","19","","24.1","","100.31","","","","","","Cloudy"
"2005-08-22 21:00","2005","08","22","21:00","18.1","","13.5","","74","","35","","19","","24.1","","100.36","","","","","","Cloudy"
"2005-08-22 22:00","2005","08","22","22:00"
"2005-08-22 23:00","2005","08","22","23:00"
"2005-08-23 00:00","2005","08","23","00:00"
"2005-08-23 01:00","2005","08","23","01:00"
"2005-08-23 02:00","2005","08","23","02:00"
"2005-08-23 03:00","2005","08","23","03:00"
"2005-08-23 04:00","2005","08","23","04:00"
"2005-08-23 05:00","2005","08","23","05:00","14.3","","12.5","","89","","","","0","","24.1","","100.53","","","","","","Mainly Clear"
"2005-08-23 06:00","2005","08","23","06:00","13.7","","12.7","","94","","","","0","","24.1","","100.60","","","","","","Mainly Clear"
"2005-08-23 07:00","2005","08","23","07:00","16.4","","13.8","","85","","","","0","","24.1","","100.63","","","","","","Mainly Clear"
"2005-08-23 08:00","2005","08","23","08:00","18.7","","13.8","","73","","36","","7","","24.1","","100.64","","","","","","Mainly Clear"
"2005-08-23 09:00","2005","08","23","09:00","18.5","","14.2","","76","","33","","22","","24.1","","100.69","","","","","","Mostly Cloudy"
"2005-08-23 10:00","2005","08","23","10:00","19.4","","14.2","","72","","35","","19","","24.1","","100.71","","","","","","Mostly Cloudy"
"2005-08-23 11:00","2005","08","23","11:00","19.4","","14.1","","71","","33","","13","","24.1","","100.73","","","","","","Mainly Clear"
"2005-08-23 12:00","2005","08","23","12:00","20.5","","12.2","","59","","35","","19","","24.1","","100.73","","","","","","Mainly Clear"
"2005-08-23 13:00","2005","08","23","13:00","21.0","","11.9","","56","","35","","15","","24.1","","100.73","","","","","","Mainly Clear"
"2005-08-23 14:00","2005","08","23","14:00","21.7","","11.7","","53","","1","","19","","24.1","","100.71","","","","","","Mainly Clear"
"2005-08-23 15:00","2005","08","23","15:00","21.2","","10.4","","50","","2","","19","","24.1","","100.72","","","","","","Mainly Clear"
"2005-08-23 16:00","2005","08","23","16:00","21.5","","11.1","","52","","34","","19","","24.1","","100.73","","","","","","Mainly Clear"
"2005-08-23 17:00","2005","08","23","17:00","21.9","","11.6","","52","","2","","19","","24.1","","100.73","","","","","","Mainly Clear"
"2005-08-23 18:00","2005","08","23","18:00","21.0","","11.6","","55","","1","","19","","24.1","","100.73","","","","","","Mainly Clear"
"2005-08-23 19:00","2005","08","23","19:00","19.8","","11.9","","60","","1","","9","","24.1","","100.73","","","","","","Mainly Clear"
"2005-08-23 20:00","2005","08","23","20:00","19.0","","13.1","","69","","36","","9","","24.1","","100.76","","","","","","Mostly Cloudy"
"2005-08-23 21:00","2005","08","23","21:00","18.3","","14.1","","76","","","","0","","24.1","","100.80","","","","","","Cloudy"
"2005-08-23 22:00","2005","08","23","22:00"
"2005-08-23 23:00","2005","08","23","23:00"
"2005-08-24 00:00","2005","08","24","00:00"
"2005-08-24 01:00","2005","08","24","01:00"
"2005-08-24 02:00","2005","08","24","02:00"
"2005-08-24 03:00","2005","08","24","03:00"
"2005-08-24 04:00","2005","08","24","04:00"
"2005-08-24 05:00","2005","08","24","05:00","14.1","","13.3","","95","","","","0","","24.1","","100.98","","","","","","Clear"
"2005-08-24 06:00","2005","08","24","06:00","13.9","","13.1","","95","","","","0","","24.1","","101.03","","","","","","Clear"
"2005-08-24 07:00","2005","08","24","07:00","18.9","","14.8","","77","","30","","4","","24.1","","101.07","","","","","","Clear"
"2005-08-24 08:00","2005","08","24","08:00","20.2","","14.1","","68","","36","","11","","24.1","","101.12","","","","","","Clear"
"2005-08-24 09:00","2005","08","24","09:00","20.3","","14.9","","71","","33","","11","","24.1","","101.14","","","","","","Clear"
"2005-08-24 10:00","2005","08","24","10:00","21.0","","14.7","","67","","33","","11","","24.1","","101.17","","25","","","","Clear"
"2005-08-24 11:00","2005","08","24","11:00","21.9","","11.4","","51","","2","","13","","24.1","","101.18","","","","","","Mainly Clear"
"2005-08-24 12:00","2005","08","24","12:00","23.1","","12.6","","52","","2","","19","","24.1","","101.17","","26","","","","Clear"
"2005-08-24 13:00","2005","08","24","13:00","23.7","","9.4","","40","","3","","13","","24.1","","101.16","","25","","","","Clear"
"2005-08-24 14:00","2005","08","24","14:00","24.4","","5.6","","30","","7","","19","","24.1","","101.14","","","","","","Clear"
"2005-08-24 15:00","2005","08","24","15:00","24.7","","7.1","","32","","1","","15","","24.1","","101.12","","25","","","","Clear"
"2005-08-24 16:00","2005","08","24","16:00","24.7","","7.4","","33","","8","","15","","24.1","","101.12","","25","","","","Clear"
"2005-08-24 17:00","2005","08","24","17:00","24.7","","8.2","","35","","4","","9","","24.1","","101.10","","25","","","","Clear"
"2005-08-24 18:00","2005","08","24","18:00","24.1","","8.8","","38","","6","","9","","24.1","","101.10","","25","","","","Clear"
"2005-08-24 19:00","2005","08","24","19:00","22.1","","10.1","","46","","8","","15","","24.1","","101.13","","","","","","Clear"
"2005-08-24 20:00","2005","08","24","20:00","18.9","","11.0","","60","","","","0","","24.1","","101.20","","","","","","Clear"
"2005-08-24 21:00","2005","08","24","21:00","17.7","","11.1","","65","","","","0","","24.1","","101.25","","","","","","Clear"
"2005-08-24 22:00","2005","08","24","22:00"
"2005-08-24 23:00","2005","08","24","23:00"
"2005-08-25 00:00","2005","08","25","00:00"
"2005-08-25 01:00","2005","08","25","01:00"
"2005-08-25 02:00","2005","08","25","02:00"
"2005-08-25 03:00","2005","08","25","03:00"
"2005-08-25 04:00","2005","08","25","04:00"
"2005-08-25 05:00","2005","08","25","05:00","11.9","","10.8","","93","","","","0","","24.1","","101.37","","","","","","Clear"
"2005-08-25 06:00","2005","08","25","06:00","12.1","","11.5","","96","","18","","7","","24.1","","101.40","","","","","","Mainly Clear"
"2005-08-25 07:00","2005","08","25","07:00","17.1","","11.7","","71","","20","","9","","24.1","","101.41","","","","","","Mainly Clear"
"2005-08-25 08:00","2005","08","25","08:00","20.1","","12.2","","60","","21","","13","","24.1","","101.41","","","","","","Mainly Clear"
"2005-08-25 09:00","2005","08","25","09:00","21.9","","11.8","","53","","14","","13","","24.1","","101.41","","","","","","Mostly Cloudy"
"2005-08-25 10:00","2005","08","25","10:00","23.6","","12.1","","48","","8","","15","","24.1","","101.41","","26","","","","Mostly Cloudy"
"2005-08-25 11:00","2005","08","25","11:00","24.7","","11.3","","43","","11","","19","","24.1","","101.36","","27","","","","Mostly Cloudy"
"2005-08-25 12:00","2005","08","25","12:00","25.5","","11.7","","42","","11","","20","","24.1","","101.31","","28","","","","Mostly Cloudy"
"2005-08-25 13:00","2005","08","25","13:00","26.4","","12.2","","41","","6","","9","","24.1","","101.23","","29","","","","Mostly Cloudy"
"2005-08-25 14:00","2005","08","25","14:00","24.2","","14.1","","53","","4","","19","","24.1","","101.18","","28","","","","Mostly Cloudy"
"2005-08-25 15:00","2005","08","25","15:00","23.6","","15.3","","60","","3","","22","","24.1","","101.14","","28","","","","Mostly Cloudy"
"2005-08-25 16:00","2005","08","25","16:00","23.6","","14.1","","55","","3","","22","","24.1","","101.11","","27","","","","Mostly Cloudy"
"2005-08-25 17:00","2005","08","25","17:00","24.0","","12.8","","50","","5","","20","","24.1","","101.08","","27","","","","Mostly Cloudy"
"2005-08-25 18:00","2005","08","25","18:00","23.2","","12.4","","51","","5","","15","","24.1","","101.05","","26","","","","Mostly Cloudy"
"2005-08-25 19:00","2005","08","25","19:00","21.5","","13.1","","59","","7","","13","","24.1","","100.99","","","","","","Mostly Cloudy"
"2005-08-25 20:00","2005","08","25","20:00","20.4","","13.0","","62","","12","","15","","24.1","","101.00","","","","","","Mostly Cloudy"
"2005-08-25 21:00","2005","08","25","21:00","20.2","","12.9","","63","","11","","11","","24.1","","100.96","","","","","","Mostly Cloudy"
"2005-08-25 22:00","2005","08","25","22:00"
"2005-08-25 23:00","2005","08","25","23:00"
"2005-08-26 00:00","2005","08","26","00:00"
"2005-08-26 01:00","2005","08","26","01:00"
"2005-08-26 02:00","2005","08","26","02:00"
"2005-08-26 03:00","2005","08","26","03:00"
"2005-08-26 04:00","2005","08","26","04:00"
"2005-08-26 05:00","2005","08","26","05:00","15.1","","13.6","","91","","10","","9","","24.1","","100.78","","","","","","Mostly Cloudy"
"2005-08-26 06:00","2005","08","26","06:00","15.5","","13.4","","87","","18","","11","E","24.1","","100.75","","","","","","Mostly Cloudy"
"2005-08-26 07:00","2005","08","26","07:00","16.9","","13.8","","82","","","","0","","24.1","","100.72","","","","","","Mostly Cloudy"
"2005-08-26 08:00","2005","08","26","08:00","20.5","","15.4","","73","","10","","7","","24.1","","100.68","","25","","","","Mostly Cloudy"
"2005-08-26 09:00","2005","08","26","09:00","23.6","","14.6","","57","","","","0","","24.1","","100.62","","27","","","","Mainly Clear"
"2005-08-26 10:00","2005","08","26","10:00","25.5","","15.0","","52","","36","","9","","24.1","","100.58","","29","","","","Mainly Clear"
"2005-08-26 11:00","2005","08","26","11:00","26.9","","14.6","","47","","3","","9","","24.1","","100.54","","31","","","","Clear"
"2005-08-26 12:00","2005","08","26","12:00","28.0","","14.0","","42","","36","","15","","24.1","","100.48","","31","","","","Clear"
"2005-08-26 13:00","2005","08","26","13:00","28.7","","15.6","","45","","3","","15","","24.1","","100.39","","33","","","","Clear"
"2005-08-26 14:00","2005","08","26","14:00","27.4","","16.6","","52","","4","","22","","24.1","","100.35","","32","","","","Clear"
"2005-08-26 15:00","2005","08","26","15:00","25.9","","16.9","","58","","3","","20","","24.1","","100.32","","31","","","","Clear"
"2005-08-26 16:00","2005","08","26","16:00","26.3","","15.5","","51","","4","","19","","24.1","","100.30","","31","","","","Clear"
"2005-08-26 17:00","2005","08","26","17:00","25.8","","15.1","","52","","6","","19","","24.1","","100.25","","30","","","","Mainly Clear"
"2005-08-26 18:00","2005","08","26","18:00","24.9","","14.9","","54","","3","","15","","24.1","","100.21","","29","","","","Clear"
"2005-08-26 19:00","2005","08","26","19:00","22.3","","17.2","","73","","5","","9","","24.1","","100.20","","28","","","","Mainly Clear"
"2005-08-26 20:00","2005","08","26","20:00","21.2","","18.1","","82","","7","","9","","24.1","","100.20","","27","","","","Mainly Clear"
"2005-08-26 21:00","2005","08","26","21:00","20.9","","17.8","","82","","","","0","","24.1","","100.19","","27","","","","Mostly Cloudy"
"2005-08-26 22:00","2005","08","26","22:00"
"2005-08-26 23:00","2005","08","26","23:00"
"2005-08-27 00:00","2005","08","27","00:00"
"2005-08-27 01:00","2005","08","27","01:00"
"2005-08-27 02:00","2005","08","27","02:00"
"2005-08-27 03:00","2005","08","27","03:00"
"2005-08-27 04:00","2005","08","27","04:00"
"2005-08-27 05:00","2005","08","27","05:00","20.0","","15.8","","77","","","","0","","16.1","","100.01","","","","","","Clear"
"2005-08-27 06:00","2005","08","27","06:00","20.4","","15.2","","72","","18","","19","","16.1","","100.00","","","","","","Clear"
"2005-08-27 07:00","2005","08","27","07:00","21.2","","15.2","","69","","18","","19","","16.1","","100.02","","25","","","","Mainly Clear"
"2005-08-27 08:00","2005","08","27","08:00","22.6","","15.5","","64","","19","","22","","16.1","","99.98","","27","","","","Mainly Clear"
"2005-08-27 09:00","2005","08","27","09:00","23.4","","15.8","","62","","17","","22","","19.3","","99.99","","28","","","","Mainly Clear"
"2005-08-27 10:00","2005","08","27","10:00","25.4","","16.6","","58","","17","","19","","19.3","","99.93","","30","","","","Mainly Clear"
"2005-08-27 11:00","2005","08","27","11:00","24.4","","16.2","","60","","19","","19","","19.3","","99.93","","29","","","","Mostly Cloudy"
"2005-08-27 12:00","2005","08","27","12:00","24.6","","19.7","","74","","18","","19","","19.3","","99.88","","32","","","","Cloudy"
"2005-08-27 13:00","2005","08","27","13:00","24.5","","16.2","","60","","16","","24","","19.3","","99.80","","29","","","","Cloudy"
"2005-08-27 14:00","2005","08","27","14:00","25.0","","16.8","","60","","16","","15","","19.3","","99.77","","30","","","","Cloudy"
"2005-08-27 15:00","2005","08","27","15:00","26.0","","16.9","","57","","17","","19","","19.3","","99.69","","31","","","","Cloudy"
"2005-08-27 16:00","2005","08","27","16:00","24.9","","16.8","","61","","18","","19","","19.3","","99.67","","30","","","","Cloudy"
"2005-08-27 17:00","2005","08","27","17:00","23.5","","18.2","","72","","19","","19","","16.1","","99.66","","30","","","","Rain Showers"
"2005-08-27 18:00","2005","08","27","18:00","21.1","","18.0","","82","","16","","19","","12.9","","99.64","","27","","","","Rain Showers"
"2005-08-27 19:00","2005","08","27","19:00","20.0","","18.5","","91","","17","","19","","9.7","","99.61","","26","","","","Rain Showers,Fog"
"2005-08-27 20:00","2005","08","27","20:00","20.7","","18.3","","86","","17","","19","","12.9","","99.61","","27","","","","Cloudy"
"2005-08-27 21:00","2005","08","27","21:00","21.3","","18.5","","84","","18","","19","","16.1","","99.64","","28","","","","Cloudy"
"2005-08-27 22:00","2005","08","27","22:00"
"2005-08-27 23:00","2005","08","27","23:00"
"2005-08-28 00:00","2005","08","28","00:00"
"2005-08-28 01:00","2005","08","28","01:00"
"2005-08-28 02:00","2005","08","28","02:00"
"2005-08-28 03:00","2005","08","28","03:00"
"2005-08-28 04:00","2005","08","28","04:00"
"2005-08-28 05:00","2005","08","28","05:00","18.6","","18.0","","96","","22","","11","","4.8","","99.89","","","","","","Fog"
"2005-08-28 06:00","2005","08","28","06:00","18.4","","18.0","","98","","23","","9","","4.8","","99.96","","","","","","Fog"
"2005-08-28 07:00","2005","08","28","07:00","20.9","","19.7","","93","","23","","13","E","4.8","","100.02","","28","","","","Fog"
"2005-08-28 08:00","2005","08","28","08:00","22.8","","13.3","","55","","23","","6","E","12.9","","100.06","","26","","","","Clear"
"2005-08-28 09:00","2005","08","28","09:00","24.7","","16.3","","60","","21","","15","","16.1","","100.12","","30","","","","Clear"
"2005-08-28 10:00","2005","08","28","10:00","26.2","","14.3","","48","","21","","19","","24.1","","100.15","","30","","","","Clear"
"2005-08-28 11:00","2005","08","28","11:00","28.1","","14.1","","42","","22","","11","","24.1","","100.14","","32","","","","Clear"
"2005-08-28 12:00","2005","08","28","12:00","28.8","","18.5","","54","","20","","22","","24.1","","100.10","","35","","","","Mainly Clear"
"2005-08-28 13:00","2005","08","28","13:00","28.0","","17.8","","54","","21","","20","","24.1","","100.09","","34","","","","Mainly Clear"
"2005-08-28 14:00","2005","08","28","14:00","29.0","","18.1","","52","","21","","19","","24.1","","100.05","","35","","","","Clear"
"2005-08-28 15:00","2005","08","28","15:00","29.0","","15.4","","44","","22","","19","","24.1","","100.06","","33","","","","Clear"
"2005-08-28 16:00","2005","08","28","16:00","29.0","","17.1","","49","","22","","19","","24.1","","100.07","","34","","","","Mainly Clear"
"2005-08-28 17:00","2005","08","28","17:00","27.8","","14.6","","44","","22","","19","","24.1","","100.05","","32","","","","Mainly Clear"
"2005-08-28 18:00","2005","08","28","18:00","27.2","","14.2","","45","","24","","19","","24.1","","100.07","","31","","","","Mainly Clear"
"2005-08-28 19:00","2005","08","28","19:00","25.0","","12.3","","45","","19","","11","","24.1","","100.05","","27","","","","Mainly Clear"
"2005-08-28 20:00","2005","08","28","20:00","22.5","","12.8","","54","","19","","7","","24.1","","100.11","","25","","","","Mainly Clear"
"2005-08-28 21:00","2005","08","28","21:00","21.9","","13.4","","58","","18","","13","","24.1","","100.13","","25","","","","Mainly Clear"
"2005-08-28 22:00","2005","08","28","22:00"
"2005-08-28 23:00","2005","08","28","23:00"
"2005-08-29 00:00","2005","08","29","00:00"
"2005-08-29 01:00","2005","08","29","01:00"
"2005-08-29 02:00","2005","08","29","02:00"
"2005-08-29 03:00","2005","08","29","03:00"
"2005-08-29 04:00","2005","08","29","04:00"
"2005-08-29 05:00","2005","08","29","05:00","20.2","","16.0","","77","","20","","11","","24.1","","100.12","","25","","","","Mostly Cloudy"
"2005-08-29 06:00","2005","08","29","06:00","20.5","","15.9","","75","","23","","13","E","24.1","","100.17","","25","","","","Mostly Cloudy"
"2005-08-29 07:00","2005","08","29","07:00","22.2","","16.3","","69","","18","","20","","24.1","","100.18","","27","","","","Mostly Cloudy"
"2005-08-29 08:00","2005","08","29","08:00","24.0","","17.0","","65","","21","","9","","24.1","","100.22","","29","","","","Cloudy"
"2005-08-29 09:00","2005","08","29","09:00","25.5","","17.6","","62","","23","","9","","24.1","","100.22","","31","","","","Cloudy"
"2005-08-29 10:00","2005","08","29","10:00","26.7","","17.1","","56","","25","","19","","24.1","","100.23","","32","","","","Mostly Cloudy"
"2005-08-29 11:00","2005","08","29","11:00","27.0","","16.0","","51","","19","","22","","24.1","","100.22","","32","","","","Mostly Cloudy"
"2005-08-29 12:00","2005","08","29","12:00","27.5","","16.2","","50","","22","","22","","24.1","","100.18","","32","","","","Mostly Cloudy"
"2005-08-29 13:00","2005","08","29","13:00","27.8","","16.0","","49","","24","","19","","24.1","","100.17","","32","","","","Mostly Cloudy"
"2005-08-29 14:00","2005","08","29","14:00","27.1","","15.0","","48","","22","","19","","24.1","","100.13","","31","","","","Mostly Cloudy"
"2005-08-29 15:00","2005","08","29","15:00","27.1","","16.0","","51","","24","","19","","24.1","","100.12","","32","","","","Mostly Cloudy"
"2005-08-29 16:00","2005","08","29","16:00","27.1","","15.3","","48","","21","","22","","24.1","","100.09","","31","","","","Mostly Cloudy"
"2005-08-29 17:00","2005","08","29","17:00","27.1","","15.5","","49","","22","","19","","19.3","","100.08","","31","","","","Mostly Cloudy"
"2005-08-29 18:00","2005","08","29","18:00","26.2","","15.1","","50","","21","","22","","19.3","","100.12","","30","","","","Mainly Clear"
"2005-08-29 19:00","2005","08","29","19:00","24.0","","16.2","","62","","20","","11","","19.3","","100.13","","29","","","","Mainly Clear"
"2005-08-29 20:00","2005","08","29","20:00","22.6","","16.7","","69","","20","","9","","19.3","","100.12","","28","","","","Mainly Clear"
"2005-08-29 21:00","2005","08","29","21:00","20.8","","17.0","","79","","17","","6","","19.3","","100.10","","26","","","","Mainly Clear"
"2005-08-29 22:00","2005","08","29","22:00"
"2005-08-29 23:00","2005","08","29","23:00"
"2005-08-30 00:00","2005","08","30","00:00"
"2005-08-30 01:00","2005","08","30","01:00"
"2005-08-30 02:00","2005","08","30","02:00"
"2005-08-30 03:00","2005","08","30","03:00"
"2005-08-30 04:00","2005","08","30","04:00"
"2005-08-30 05:00","2005","08","30","05:00","16.3","","15.5","","95","","17","","7","","24.1","","99.96","","","","","","Mostly Cloudy"
"2005-08-30 06:00","2005","08","30","06:00","16.2","","15.3","","94","","14","","9","","12.9","","99.96","","","","","","Mostly Cloudy"
"2005-08-30 07:00","2005","08","30","07:00","18.7","","17.3","","92","","20","","9","","9.7","","99.99","","","","","","Haze"
"2005-08-30 08:00","2005","08","30","08:00","21.9","","19.3","","85","","24","","9","","9.7","","99.99","","29","","","","Haze"
"2005-08-30 09:00","2005","08","30","09:00","23.0","","16.8","","68","","20","","11","","9.7","","99.98","","28","","","","Haze"
"2005-08-30 10:00","2005","08","30","10:00","24.9","","18.5","","68","","22","","11","","9.7","","99.92","","31","","","","Haze"
"2005-08-30 11:00","2005","08","30","11:00","23.7","","18.6","","73","","2","","9","","9.7","","99.89","","30","","","","Haze"
"2005-08-30 12:00","2005","08","30","12:00","24.7","","18.8","","70","","36","","11","","9.7","","99.84","","31","","","","Haze"
"2005-08-30 13:00","2005","08","30","13:00","24.1","","19.1","","74","","3","","19","","9.7","","99.79","","31","","","","Haze"
"2005-08-30 14:00","2005","08","30","14:00","23.9","","18.8","","73","","2","","19","","9.7","","99.76","","31","","","","Haze"
"2005-08-30 15:00","2005","08","30","15:00","23.6","","18.7","","74","","6","","11","","12.9","","99.67","","30","","","","Cloudy"
"2005-08-30 16:00","2005","08","30","16:00","23.6","","17.8","","70","","8","","19","","16.1","","99.62","","29","","","","Cloudy"
"2005-08-30 17:00","2005","08","30","17:00","23.4","","17.7","","70","","4","","13","","16.1","","99.60","","29","","","","Cloudy"
"2005-08-30 18:00","2005","08","30","18:00","22.3","","18.6","","80","","5","","9","","9.7","","99.55","","29","","","","Rain Showers"
"2005-08-30 19:00","2005","08","30","19:00","21.2","","19.3","","89","","8","","7","","8.0","","99.51","","28","","","","Rain Showers,Fog"
"2005-08-30 20:00","2005","08","30","20:00","20.7","","19.2","","91","","10","","9","","6.4","","99.48","","28","","","","Rain Showers,Fog"
"2005-08-30 21:00","2005","08","30","21:00","20.4","","19.7","","96","","7","","9","","4.8","","99.44","","28","","","","Rain Showers,Fog"
"2005-08-30 22:00","2005","08","30","22:00"
"2005-08-30 23:00","2005","08","30","23:00"
"2005-08-31 00:00","2005","08","31","00:00"
"2005-08-31 01:00","2005","08","31","01:00"
"2005-08-31 02:00","2005","08","31","02:00"
"2005-08-31 03:00","2005","08","31","03:00"
"2005-08-31 04:00","2005","08","31","04:00"
"2005-08-31 05:00","2005","08","31","05:00","19.0","","18.0","","94","","8","","19","","9.7","","98.64","","","","","","Rain"
"2005-08-31 06:00","2005","08","31","06:00","19.0","","17.9","","93","","6","","19","","16.1","","98.64","","","","","","Rain"
"2005-08-31 07:00","2005","08","31","07:00","18.7","","17.5","","93","","4","","28","","6.4","","98.71","","","","","","Rain,Fog"
"2005-08-31 08:00","2005","08","31","08:00","19.1","","18.2","","95","","5","","19","","12.9","","98.78","","","","","","Rain"
"2005-08-31 09:00","2005","08","31","09:00","19.4","","18.0","","92","","4","","19","","8.0","","98.89","","","","","","Rain,Fog"
"2005-08-31 10:00","2005","08","31","10:00","20.2","","18.3","","89","","34","","19","","24.1","","98.93","","26","","","","Mostly Cloudy"
"2005-08-31 11:00","2005","08","31","11:00","21.2","","18.3","","84","","36","","28","","24.1","","98.97","","27","","","","Mostly Cloudy"
"2005-08-31 12:00","2005","08","31","12:00","21.8","","18.9","","84","","33","","19","","24.1","","99.04","","28","","","","Mostly Cloudy"
"2005-08-31 13:00","2005","08","31","13:00","22.2","","18.3","","79","","31","","9","","24.1","","99.12","","28","","","","Mostly Cloudy"
"2005-08-31 14:00","2005","08","31","14:00","23.3","","18.1","","73","","27","","9","","24.1","","99.14","","29","","","","Mostly Cloudy"
"2005-08-31 15:00","2005","08","31","15:00","24.3","","18.3","","69","","28","","15","","24.1","","99.18","","31","","","","Mostly Cloudy"
"2005-08-31 16:00","2005","08","31","16:00","24.8","","18.5","","68","","29","","11","","24.1","","99.19","","31","","","","Mostly Cloudy"
"2005-08-31 17:00","2005","08","31","17:00","24.7","","18.3","","68","","30","","13","","24.1","","99.26","","31","","","","Mostly Cloudy"
"2005-08-31 18:00","2005","08","31","18:00","23.3","","18.6","","75","","30","","15","","24.1","","99.33","","30","","","","Mostly Cloudy"
"2005-08-31 19:00","2005","08","31","19:00","22.1","","16.9","","72","","33","","22","","24.1","","99.41","","27","","","","Mostly Cloudy"
"2005-08-31 20:00","2005","08","31","20:00","20.6","","17.6","","83","","33","","9","","24.1","","99.50","","26","","","","Mainly Clear"
"2005-08-31 21:00","2005","08","31","21:00","20.2","","17.5","","84","","32","","11","","24.1","","99.57","","26","","","","Mainly Clear"
"2005-08-31 22:00","2005","08","31","22:00"
"2005-08-31 23:00","2005","08","31","23:00"
