"Station Name","ST CATHARINES A"
"Province","ONTARIO"
"Latitude","43.20"
"Longitude","-79.17"
"Elevation","97.80"
"Climate Identifier","6137287"
"WMO Identifier",""
"TC Identifier","YSN"
"All times are specified in Local Standard Time (LST). Add 1 hour to adjust for Daylight Saving Time where and when it is observed."

"Legend"
"E","Estimated"
"M","Missing"
"NA","Not Available"

"Date/Time","Year","Month","Day","Time","Temp (°C)","Temp Flag","Dew Point Temp (°C)","Dew Point Temp Flag","Rel Hum (%)","Rel Hum Flag","Wind Dir (10s deg)","Wind Dir Flag","Wind Spd (km/h)","Wind Spd Flag","Visibility (km)","Visibility Flag","Stn Press (kPa)","Stn Press Flag","Hmdx","Hmdx Flag","Wind Chill","Wind Chill Flag","Weather"
"2011-05-01 00:00","2011","05","01","00:00"
"2011-05-01 01:00","2011","05","01","01:00"
"2011-05-01 02:00","2011","05","01","02:00"
"2011-05-01 03:00","2011","05","01","03:00"
"2011-05-01 04:00","2011","05","01","04:00"
"2011-05-01 05:00","2011","05","01","05:00"
"2011-05-01 06:00","2011","05","01","06:00","12.0","","3.4","","56","","8","","9","","24.1","","100.67","","","","","","Mostly Cloudy"
"2011-05-01 07:00","2011","05","01","07:00","13.7","","4.0","","52","","","","0","","24.1","","100.69","","","","","","Mostly Cloudy"
"2011-05-01 08:00","2011","05","01","08:00","15.7","","2.4","","41","","16","","19","","24.1","","100.63","","","","","","Cloudy"
"2011-05-01 09:00","2011","05","01","09:00","16.2","","2.7","","40","","19","","19","","24.1","","100.60","","","","","","Cloudy"
"2011-05-01 10:00","2011","05","01","10:00","17.1","","4.2","","42","","19","","19","","24.1","","100.68","","","","","","Cloudy"
"2011-05-01 11:00","2011","05","01","11:00","16.2","","5.0","","47","","19","","15","","24.1","","100.73","","","","","","Rain Showers"
"2011-05-01 12:00","2011","05","01","12:00","14.9","","7.6","","62","","18","","11","","19.3","","100.77","","","","","","Rain Showers"
"2011-05-01 13:00","2011","05","01","13:00","16.0","","9.6","","66","","17","","28","","24.1","","100.67","","","","","","Rain Showers"
"2011-05-01 14:00","2011","05","01","14:00","16.7","","9.8","","64","","17","","37","","24.1","","100.61","","","","","","Rain Showers"
"2011-05-01 15:00","2011","05","01","15:00","15.9","","9.1","","64","","15","","22","","24.1","","100.50","","","","","","Cloudy"
"2011-05-01 16:00","2011","05","01","16:00","14.8","","10.2","","74","","17","","19","","19.3","","100.48","","","","","","Rain Showers"
"2011-05-01 17:00","2011","05","01","17:00","14.3","","10.1","","76","","17","","22","","16.1","","100.50","","","","","","Rain Showers"
"2011-05-01 18:00","2011","05","01","18:00","13.0","","10.8","","86","","17","","22","","9.7","","100.50","","","","","","Rain,Fog"
"2011-05-01 19:00","2011","05","01","19:00","13.3","","11.1","","87","","17","","20","","9.7","","100.46","","","","","","Rain,Fog"
"2011-05-01 20:00","2011","05","01","20:00","13.8","","11.3","","85","","17","","22","","9.7","","100.47","","","","","","Rain,Fog"
"2011-05-01 21:00","2011","05","01","21:00"
"2011-05-01 22:00","2011","05","01","22:00"
"2011-05-01 23:00","2011","05","01","23:00"
"2011-05-02 00:00","2011","05","02","00:00"
"2011-05-02 01:00","2011","05","02","01:00"
"2011-05-02 02:00","2011","05","02","02:00"
"2011-05-02 03:00","2011","05","02","03:00"
"2011-05-02 04:00","2011","05","02","04:00"
"2011-05-02 05:00","2011","05","02","05:00"
"2011-05-02 06:00","2011","05","02","06:00","13.9","","12.3","","90","","26","","7","","9.7","","100.33","","","","","","Fog"
"2011-05-02 07:00","2011","05","02","07:00","12.5","","11.4","","93","","30","","6","","3.2","","100.38","","","","","","Fog"
"2011-05-02 08:00","2011","05","02","08:00","8.8","","7.6","","92","","31","","13","","1.6","","100.46","","","","","","Rain,Fog"
"2011-05-02 09:00","2011","05","02","09:00","6.9","","5.8","","93","","30","","9","","4.0","","100.54","","","","","","Rain,Fog"
"2011-05-02 10:00","2011","05","02","10:00","6.7","","5.3","","91","","28","","15","","3.2","","100.62","","","","","","Fog"
"2011-05-02 11:00","2011","05","02","11:00","7.0","","5.9","","93","","27","","9","","4.0","","100.69","","","","","","Fog"
"2011-05-02 12:00","2011","05","02","12:00","7.8","","5.8","","87","","28","","13","","16.1","","100.73","","","","","","Cloudy"
"2011-05-02 13:00","2011","05","02","13:00","10.1","","4.3","","67","","","","0","","24.1","","100.55","","","","","","Mostly Cloudy"
"2011-05-02 14:00","2011","05","02","14:00","11.1","","4.6","","64","","30","","11","","24.1","","100.81","","","","","","Cloudy"
"2011-05-02 15:00","2011","05","02","15:00","11.0","","3.3","","59","","30","","6","","24.1","","100.79","","","","","","Cloudy"
"2011-05-02 16:00","2011","05","02","16:00","12.3","","5.2","","62","","","","0","","19.3","","100.79","","","","","","Cloudy"
"2011-05-02 17:00","2011","05","02","17:00","12.5","","8.0","","74","","21","","11","","19.3","","100.85","","","","","","Cloudy"
"2011-05-02 18:00","2011","05","02","18:00","12.4","","8.7","","78","","19","","15","","16.1","","100.85","","","","","","Cloudy"
"2011-05-02 19:00","2011","05","02","19:00","11.2","","8.4","","83","","19","","7","","12.9","","100.91","","","","","","Cloudy"
"2011-05-02 20:00","2011","05","02","20:00","9.9","","7.1","","83","","19","","15","","12.9","","101.04","","","","","","Cloudy"
"2011-05-02 21:00","2011","05","02","21:00"
"2011-05-02 22:00","2011","05","02","22:00"
"2011-05-02 23:00","2011","05","02","23:00"
"2011-05-03 00:00","2011","05","03","00:00"
"2011-05-03 01:00","2011","05","03","01:00"
"2011-05-03 02:00","2011","05","03","02:00"
"2011-05-03 03:00","2011","05","03","03:00"
"2011-05-03 04:00","2011","05","03","04:00"
"2011-05-03 05:00","2011","05","03","05:00"
"2011-05-03 06:00","2011","05","03","06:00","6.1","","2.9","","80","","6","","13","","24.1","","100.83","","","","","","Cloudy"
"2011-05-03 07:00","2011","05","03","07:00","5.8","","3.4","","85","","5","","11","","19.3","","100.83","","","","","","Rain Showers"
"2011-05-03 08:00","2011","05","03","08:00","5.7","","3.7","","87","","3","","9","","6.4","","100.91","","","","","","Rain Showers,Fog"
"2011-05-03 09:00","2011","05","03","09:00","5.1","","3.5","","89","","6","","19","","6.4","","100.80","","","","","","Rain,Fog"
"2011-05-03 10:00","2011","05","03","10:00","4.8","","3.2","","89","","3","","19","","6.4","","100.79","","","","","","Rain,Fog"
"2011-05-03 11:00","2011","05","03","11:00","5.3","","3.8","","90","","3","","19","","8.0","","100.70","","","","","","Rain,Fog"
"2011-05-03 12:00","2011","05","03","12:00","5.4","","3.8","","89","","3","","19","","4.8","","100.64","","","","","","Rain,Fog"
"2011-05-03 13:00","2011","05","03","13:00","6.1","","4.6","","90","","1","","19","","8.0","","100.61","","","","","","Rain,Fog"
"2011-05-03 14:00","2011","05","03","14:00","5.9","","4.8","","93","","4","","22","","8.0","","100.51","","","","","","Rain,Fog"
"2011-05-03 15:00","2011","05","03","15:00","6.3","","4.9","","91","","4","","22","","4.8","","100.48","","","","","","Rain,Fog"
"2011-05-03 16:00","2011","05","03","16:00","6.1","","4.8","","91","","2","","15","","3.6","","100.51","","","","","","Rain,Fog"
"2011-05-03 17:00","2011","05","03","17:00","5.9","","4.9","","93","","2","","15","","3.6","","100.60","","","","","","Rain,Fog"
"2011-05-03 18:00","2011","05","03","18:00","6.1","","5.1","","93","","2","","19","","4.0","","100.54","","","","","","Rain,Fog"
"2011-05-03 19:00","2011","05","03","19:00","6.2","","5.1","","93","","36","","11","","2.4","","100.65","","","","","","Rain,Fog"
"2011-05-03 20:00","2011","05","03","20:00","5.8","","4.6","","92","","33","","19","","4.0","","100.74","","","","","","Rain Showers,Fog"
"2011-05-03 21:00","2011","05","03","21:00"
"2011-05-03 22:00","2011","05","03","22:00"
"2011-05-03 23:00","2011","05","03","23:00"
"2011-05-04 00:00","2011","05","04","00:00"
"2011-05-04 01:00","2011","05","04","01:00"
"2011-05-04 02:00","2011","05","04","02:00"
"2011-05-04 03:00","2011","05","04","03:00"
"2011-05-04 04:00","2011","05","04","04:00"
"2011-05-04 05:00","2011","05","04","05:00"
"2011-05-04 06:00","2011","05","04","06:00","4.9","","2.1","","82","","29","","9","","24.1","","100.93","","","","","","Mostly Cloudy"
"2011-05-04 07:00","2011","05","04","07:00","5.8","","2.2","","78","","29","","9","","24.1","","101.01","","","","","","Mostly Cloudy"
"2011-05-04 08:00","2011","05","04","08:00","6.0","","2.0","","75","","30","","19","","24.1","","101.01","","","","","","Mostly Cloudy"
"2011-05-04 09:00","2011","05","04","09:00","6.8","","2.2","","72","","29","","15","","24.1","","101.03","","","","","","Mostly Cloudy"
"2011-05-04 10:00","2011","05","04","10:00","8.3","","2.7","","68","","30","","9","","24.1","","101.00","","","","","","Mainly Clear"
"2011-05-04 11:00","2011","05","04","11:00","9.4","","1.3","","57","","30","","19","","24.1","","100.98","","","","","","Mostly Cloudy"
"2011-05-04 12:00","2011","05","04","12:00","10.0","","1.1","","54","","29","","9","","24.1","","100.92","","","","","","Cloudy"
"2011-05-04 13:00","2011","05","04","13:00","10.3","","0.3","","50","","30","","9","","24.1","","100.92","","","","","","Cloudy"
"2011-05-04 14:00","2011","05","04","14:00","10.7","","0.2","","48","","31","","11","","24.1","","100.89","","","","","","Cloudy"
"2011-05-04 15:00","2011","05","04","15:00","11.2","","-0.3","","45","","2","","19","","24.1","","100.87","","","","","","Mostly Cloudy"
"2011-05-04 16:00","2011","05","04","16:00","12.0","","0.0","","44","","","","0","","24.1","","100.86","","","","","","Mostly Cloudy"
"2011-05-04 17:00","2011","05","04","17:00","12.8","","1.1","","45","","33","","9","","24.1","","100.88","","","","","","Mainly Clear"
"2011-05-04 18:00","2011","05","04","18:00","12.6","","0.6","","44","","30","","11","","24.1","","100.89","","","","","","Mainly Clear"
"2011-05-04 19:00","2011","05","04","19:00","11.1","","0.8","","49","","30","","9","","24.1","","100.90","","","","","","Mainly Clear"
"2011-05-04 20:00","2011","05","04","20:00","10.8","","0.5","","49","","33","","13","","24.1","","100.94","","","","","","Mostly Cloudy"
"2011-05-04 21:00","2011","05","04","21:00"
"2011-05-04 22:00","2011","05","04","22:00"
"2011-05-04 23:00","2011","05","04","23:00"
"2011-05-05 00:00","2011","05","05","00:00"
"2011-05-05 01:00","2011","05","05","01:00"
"2011-05-05 02:00","2011","05","05","02:00"
"2011-05-05 03:00","2011","05","05","03:00"
"2011-05-05 04:00","2011","05","05","04:00"
"2011-05-05 05:00","2011","05","05","05:00"
"2011-05-05 06:00","2011","05","05","06:00","6.1","","0.0","","65","","28","","11","","24.1","","100.99","","","","","","Mainly Clear"
"2011-05-05 07:00","2011","05","05","07:00","7.9","","-0.3","","56","","28","","11","","24.1","","101.01","","","","","","Clear"
"2011-05-05 08:00","2011","05","05","08:00","8.6","","0.2","","55","","30","","9","","24.1","","101.02","","","","","","Clear"
"2011-05-05 09:00","2011","05","05","09:00","10.1","","1.4","","55","","31","","9","","24.1","","101.01","","","","","","Clear"
"2011-05-05 10:00","2011","05","05","10:00","11.6","","2.0","","52","","32","","9","","24.1","","100.96","","","","","","Clear"
"2011-05-05 11:00","2011","05","05","11:00","13.6","","1.0","","42","","33","","19","","24.1","","100.90","","","","","","Clear"
"2011-05-05 12:00","2011","05","05","12:00","14.1","","0.4","","39","","34","","15","","24.1","","100.82","","","","","","Clear"
"2011-05-05 13:00","2011","05","05","13:00","14.8","","-0.4","","35","","33","","15","","24.1","","100.73","","","","","","Clear"
"2011-05-05 14:00","2011","05","05","14:00","15.0","","-1.6","","32","","30","","11","","24.1","","100.65","","","","","","Mainly Clear"
"2011-05-05 15:00","2011","05","05","15:00","15.4","","-3.8","","26","","32","","19","","24.1","","100.56","","","","","","Clear"
"2011-05-05 16:00","2011","05","05","16:00","15.7","","-4.0","","25","","33","","19","","24.1","","100.47","","","","","","Clear"
"2011-05-05 17:00","2011","05","05","17:00","16.2","","-3.5","","26","","31","","7","","24.1","","100.41","","","","","","Clear"
"2011-05-05 18:00","2011","05","05","18:00","16.2","","-3.3","","26","","32","","4","","24.1","","100.38","","","","","","Clear"
"2011-05-05 19:00","2011","05","05","19:00","15.2","","-1.8","","31","","","","0","","24.1","","100.34","","","","","","Clear"
"2011-05-05 20:00","2011","05","05","20:00","13.5","","0.4","","41","","","","0","","24.1","","100.34","","","","","","Clear"
"2011-05-05 21:00","2011","05","05","21:00"
"2011-05-05 22:00","2011","05","05","22:00"
"2011-05-05 23:00","2011","05","05","23:00"
"2011-05-06 00:00","2011","05","06","00:00"
"2011-05-06 01:00","2011","05","06","01:00"
"2011-05-06 02:00","2011","05","06","02:00"
"2011-05-06 03:00","2011","05","06","03:00"
"2011-05-06 04:00","2011","05","06","04:00"
"2011-05-06 05:00","2011","05","06","05:00"
"2011-05-06 06:00","2011","05","06","06:00","10.2","","2.3","","58","","23","","11","","24.1","","99.99","","","","","","Cloudy"
"2011-05-06 07:00","2011","05","06","07:00","11.2","","3.7","","60","","23","","11","","24.1","","100.01","","","","","","Cloudy"
"2011-05-06 08:00","2011","05","06","08:00","12.4","","5.5","","63","","24","","15","","24.1","","99.97","","","","","","Cloudy"
"2011-05-06 09:00","2011","05","06","09:00","13.1","","5.6","","60","","23","","19","","24.1","","99.94","","","","","","Cloudy"
"2011-05-06 10:00","2011","05","06","10:00","14.2","","3.4","","48","","23","","19","","24.1","","99.92","","","","","","Cloudy"
"2011-05-06 11:00","2011","05","06","11:00","14.1","","2.7","","46","","23","","19","","24.1","","99.89","","","","","","Cloudy"
"2011-05-06 12:00","2011","05","06","12:00","16.1","","3.6","","43","","20","","19","","24.1","","99.81","","","","","","Mostly Cloudy"
"2011-05-06 13:00","2011","05","06","13:00","17.8","","3.1","","37","","23","","19","","24.1","","99.74","","","","","","Mostly Cloudy"
"2011-05-06 14:00","2011","05","06","14:00","18.3","","3.0","","36","","24","","19","","24.1","","99.68","","","","","","Mostly Cloudy"
"2011-05-06 15:00","2011","05","06","15:00","17.8","","2.6","","36","","23","","22","","24.1","","99.64","","","","","","Mostly Cloudy"
"2011-05-06 16:00","2011","05","06","16:00","17.5","","4.4","","42","","23","","22","","24.1","","99.65","","","","","","Cloudy"
"2011-05-06 17:00","2011","05","06","17:00","15.2","","6.7","","57","","26","","28","","24.1","","99.73","","","","","","Cloudy"
"2011-05-06 18:00","2011","05","06","18:00","14.1","","5.3","","55","","24","","15","","24.1","","99.74","","","","","","Cloudy"
"2011-05-06 19:00","2011","05","06","19:00","13.1","","6.7","","65","","23","","19","","12.9","","99.79","","","","","","Rain Showers"
"2011-05-06 20:00","2011","05","06","20:00","10.5","","7.4","","81","","20","","20","","24.1","","99.81","","","","","","Cloudy"
"2011-05-06 21:00","2011","05","06","21:00"
"2011-05-06 22:00","2011","05","06","22:00"
"2011-05-06 23:00","2011","05","06","23:00"
"2011-05-07 00:00","2011","05","07","00:00"
"2011-05-07 01:00","2011","05","07","01:00"
"2011-05-07 02:00","2011","05","07","02:00"
"2011-05-07 03:00","2011","05","07","03:00"
"2011-05-07 04:00","2011","05","07","04:00"
"2011-05-07 05:00","2011","05","07","05:00"
"2011-05-07 06:00","2011","05","07","06:00","8.6","","6.6","","87","","","","0","","24.1","","99.89","","","","","","Rain Showers"
"2011-05-07 07:00","2011","05","07","07:00","9.3","","7.4","","88","","","","0","","24.1","","99.99","","","","","","Rain Showers"
"2011-05-07 08:00","2011","05","07","08:00","10.0","","7.5","","84","","21","","9","","24.1","","100.01","","","","","","Rain Showers"
"2011-05-07 09:00","2011","05","07","09:00","11.7","","8.0","","78","","21","","11","","19.3","","99.99","","","","","","Mostly Cloudy"
"2011-05-07 10:00","2011","05","07","10:00","12.3","","7.1","","71","","","","0","","24.1","","99.98","","","","","","Mainly Clear"
"2011-05-07 11:00","2011","05","07","11:00","14.4","","7.6","","64","","","","0","","24.1","","99.99","","","","","","Mainly Clear"
"2011-05-07 12:00","2011","05","07","12:00","13.9","","6.8","","62","","36","","9","","24.1","","99.99","","","","","","Mostly Cloudy"
"2011-05-07 13:00","2011","05","07","13:00","14.6","","7.0","","60","","33","","7","","24.1","","99.98","","","","","","Mainly Clear"
"2011-05-07 14:00","2011","05","07","14:00","15.4","","5.9","","53","","33","","9","","24.1","","99.98","","","","","","Mainly Clear"
"2011-05-07 15:00","2011","05","07","15:00","15.5","","5.2","","50","","33","","4","","24.1","","99.97","","","","","","Mainly Clear"
"2011-05-07 16:00","2011","05","07","16:00","16.0","","5.3","","49","","","","0","","24.1","","99.99","","","","","","Clear"
"2011-05-07 17:00","2011","05","07","17:00","16.0","","3.9","","44","","","","0","","24.1","","100.00","","","","","","Clear"
"2011-05-07 18:00","2011","05","07","18:00","15.8","","4.6","","47","","","","0","","24.1","","100.02","","","","","","Clear"
"2011-05-07 19:00","2011","05","07","19:00","15.6","","4.7","","48","","","","0","","24.1","","100.03","","","","","","Clear"
"2011-05-07 20:00","2011","05","07","20:00","13.7","","5.2","","56","","","","0","","24.1","","100.07","","","","","","Clear"
"2011-05-07 21:00","2011","05","07","21:00"
"2011-05-07 22:00","2011","05","07","22:00"
"2011-05-07 23:00","2011","05","07","23:00"
"2011-05-08 00:00","2011","05","08","00:00"
"2011-05-08 01:00","2011","05","08","01:00"
"2011-05-08 02:00","2011","05","08","02:00"
"2011-05-08 03:00","2011","05","08","03:00"
"2011-05-08 04:00","2011","05","08","04:00"
"2011-05-08 05:00","2011","05","08","05:00"
"2011-05-08 06:00","2011","05","08","06:00","5.8","","2.9","","82","","","","0","","24.1","","100.44","","","","","","Clear"
"2011-05-08 07:00","2011","05","08","07:00","5.8","","2.9","","82","","","","0","","24.1","","100.50","","","","","","Clear"
"2011-05-08 08:00","2011","05","08","08:00","11.9","","3.9","","58","","5","","9","","24.1","","100.52","","","","","","Clear"
"2011-05-08 09:00","2011","05","08","09:00","11.8","","4.1","","59","","3","","19","","24.1","","100.56","","","","","","Clear"
"2011-05-08 10:00","2011","05","08","10:00","13.8","","5.6","","58","","2","","9","","24.1","","100.55","","","","","","Clear"
"2011-05-08 11:00","2011","05","08","11:00","14.5","","6.0","","57","","36","","9","","24.1","","100.55","","","","","","Clear"
"2011-05-08 12:00","2011","05","08","12:00","16.2","","5.9","","50","","2","","9","","24.1","","100.51","","","","","","Clear"
"2011-05-08 13:00","2011","05","08","13:00","17.0","","6.3","","49","","34","","9","","24.1","","100.50","","","","","","Clear"
"2011-05-08 14:00","2011","05","08","14:00","18.0","","6.9","","48","","4","","7","","24.1","","100.47","","","","","","Clear"
"2011-05-08 15:00","2011","05","08","15:00","18.3","","7.3","","49","","1","","9","","24.1","","100.48","","","","","","Clear"
"2011-05-08 16:00","2011","05","08","16:00","18.1","","6.8","","48","","5","","9","","24.1","","100.51","","","","","","Clear"
"2011-05-08 17:00","2011","05","08","17:00","16.4","","6.4","","52","","6","","11","","24.1","","100.52","","","","","","Clear"
"2011-05-08 18:00","2011","05","08","18:00","16.0","","4.7","","47","","8","","7","","24.1","","100.54","","","","","","Clear"
"2011-05-08 19:00","2011","05","08","19:00","14.9","","6.5","","57","","","","0","","24.1","","100.59","","","","","","Clear"
"2011-05-08 20:00","2011","05","08","20:00","14.4","","6.5","","59","","","","0","","24.1","","100.59","","","","","","Clear"
"2011-05-08 21:00","2011","05","08","21:00"
"2011-05-08 22:00","2011","05","08","22:00"
"2011-05-08 23:00","2011","05","08","23:00"
"2011-05-09 00:00","2011","05","09","00:00"
"2011-05-09 01:00","2011","05","09","01:00"
"2011-05-09 02:00","2011","05","09","02:00"
"2011-05-09 03:00","2011","05","09","03:00"
"2011-05-09 04:00","2011","05","09","04:00"
"2011-05-09 05:00","2011","05","09","05:00"
"2011-05-09 06:00","2011","05","09","06:00","8.8","","6.1","","83","","","","0","","24.1","","100.95","","","","","","Clear"
"2011-05-09 07:00","2011","05","09","07:00","10.3","","5.8","","74","","","","0","","24.1","","101.01","","","","","","Clear"
"2011-05-09 08:00","2011","05","09","08:00","13.7","","7.6","","67","","","","0","","24.1","","101.02","","","","","","Clear"
"2011-05-09 09:00","2011","05","09","09:00","15.1","","7.2","","59","","36","","6","","24.1","","101.04","","","","","","Clear"
"2011-05-09 10:00","2011","05","09","10:00","16.4","","6.4","","52","","36","","13","","24.1","","101.05","","","","","","Mainly Clear"
"2011-05-09 11:00","2011","05","09","11:00","17.0","","5.8","","48","","5","","19","","24.1","","100.98","","","","","","Clear"
"2011-05-09 12:00","2011","05","09","12:00","17.3","","4.0","","41","","3","","19","","24.1","","100.92","","","","","","Clear"
"2011-05-09 13:00","2011","05","09","13:00","18.9","","4.3","","38","","5","","19","","24.1","","100.84","","","","","","Clear"
"2011-05-09 14:00","2011","05","09","14:00","17.7","","0.8","","32","","2","","19","","24.1","","100.77","","","","","","Clear"
"2011-05-09 15:00","2011","05","09","15:00","18.0","","3.2","","37","","2","","15","","24.1","","100.76","","","","","","Clear"
"2011-05-09 16:00","2011","05","09","16:00","17.9","","2.6","","36","","7","","9","","24.1","","100.71","","","","","","Clear"
"2011-05-09 17:00","2011","05","09","17:00","18.4","","2.7","","35","","3","","9","","24.1","","100.74","","","","","","Clear"
"2011-05-09 18:00","2011","05","09","18:00","16.7","","5.8","","49","","1","","9","","24.1","","100.73","","","","","","Clear"
"2011-05-09 19:00","2011","05","09","19:00","11.6","","4.1","","60","","1","","6","","24.1","","100.70","","","","","","Mainly Clear"
"2011-05-09 20:00","2011","05","09","20:00","10.7","","3.6","","61","","","","0","","24.1","","100.66","","","","","","Mainly Clear"
"2011-05-09 21:00","2011","05","09","21:00"
"2011-05-09 22:00","2011","05","09","22:00"
"2011-05-09 23:00","2011","05","09","23:00"
"2011-05-10 00:00","2011","05","10","00:00"
"2011-05-10 01:00","2011","05","10","01:00"
"2011-05-10 02:00","2011","05","10","02:00"
"2011-05-10 03:00","2011","05","10","03:00"
"2011-05-10 04:00","2011","05","10","04:00"
"2011-05-10 05:00","2011","05","10","05:00"
"2011-05-10 06:00","2011","05","10","06:00","8.5","","4.7","","77","","8","","4","","24.1","","100.76","","","","","","Cloudy"
"2011-05-10 07:00","2011","05","10","07:00","10.9","","5.7","","70","","8","","9","","24.1","","100.78","","","","","","Mostly Cloudy"
"2011-05-10 08:00","2011","05","10","08:00","14.4","","5.1","","54","","9","","7","","24.1","","100.77","","","","","","Mostly Cloudy"
"2011-05-10 09:00","2011","05","10","09:00","16.7","","4.0","","43","","8","","15","","24.1","","100.73","","","","","","Mostly Cloudy"
"2011-05-10 10:00","2011","05","10","10:00","18.1","","2.9","","36","","11","","19","","24.1","","100.71","","","","","","Mostly Cloudy"
"2011-05-10 11:00","2011","05","10","11:00","19.3","","3.5","","35","","8","","19","","24.1","","100.65","","","","","","Mostly Cloudy"
"2011-05-10 12:00","2011","05","10","12:00","18.0","","5.2","","43","","2","","19","","24.1","","100.59","","","","","","Mostly Cloudy"
"2011-05-10 13:00","2011","05","10","13:00","19.9","","5.4","","39","","5","","19","","24.1","","100.53","","","","","","Mostly Cloudy"
"2011-05-10 14:00","2011","05","10","14:00","18.2","","2.9","","36","","4","","22","","24.1","","100.52","","","","","","Mostly Cloudy"
"2011-05-10 15:00","2011","05","10","15:00","16.7","","1.2","","35","","4","","19","","24.1","","100.50","","","","","","Cloudy"
"2011-05-10 16:00","2011","05","10","16:00","15.6","","1.3","","38","","5","","19","","24.1","","100.49","","","","","","Cloudy"
"2011-05-10 17:00","2011","05","10","17:00","15.7","","1.8","","39","","3","","15","","24.1","","100.52","","","","","","Cloudy"
"2011-05-10 18:00","2011","05","10","18:00","15.3","","1.2","","38","","7","","22","","24.1","","100.49","","","","","","Cloudy"
"2011-05-10 19:00","2011","05","10","19:00","14.6","","2.0","","42","","8","","19","","24.1","","100.46","","","","","","Cloudy"
"2011-05-10 20:00","2011","05","10","20:00","14.4","","1.8","","42","","8","","19","","24.1","","100.44","","","","","","Mostly Cloudy"
"2011-05-10 21:00","2011","05","10","21:00"
"2011-05-10 22:00","2011","05","10","22:00"
"2011-05-10 23:00","2011","05","10","23:00"
"2011-05-11 00:00","2011","05","11","00:00"
"2011-05-11 01:00","2011","05","11","01:00"
"2011-05-11 02:00","2011","05","11","02:00"
"2011-05-11 03:00","2011","05","11","03:00"
"2011-05-11 04:00","2011","05","11","04:00"
"2011-05-11 05:00","2011","05","11","05:00"
"2011-05-11 06:00","2011","05","11","06:00","8.3","","5.6","","83","","10","","15","","24.1","","100.54","","","","","","Clear"
"2011-05-11 07:00","2011","05","11","07:00","10.5","","6.0","","74","","6","","9","","24.1","","100.63","","","","","","Clear"
"2011-05-11 08:00","2011","05","11","08:00","13.5","","6.9","","64","","9","","9","","24.1","","100.60","","","","","","Mainly Clear"
"2011-05-11 09:00","2011","05","11","09:00","16.7","","7.7","","55","","9","","9","","24.1","","100.60","","","","","","Mainly Clear"
"2011-05-11 10:00","2011","05","11","10:00","17.3","","8.9","","58","","1","","11","","24.1","","100.62","","","","","","Mostly Cloudy"
"2011-05-11 11:00","2011","05","11","11:00","17.6","","9.3","","58","","2","","9","","24.1","","100.64","","","","","","Mostly Cloudy"
"2011-05-11 12:00","2011","05","11","12:00","17.8","","9.5","","58","","3","","19","","24.1","","100.64","","","","","","Mostly Cloudy"
"2011-05-11 13:00","2011","05","11","13:00","18.1","","9.2","","56","","4","","19","","24.1","","100.66","","","","","","Mostly Cloudy"
"2011-05-11 14:00","2011","05","11","14:00","20.8","","8.8","","46","","5","","22","","24.1","","100.63","","","","","","Mainly Clear"
"2011-05-11 15:00","2011","05","11","15:00","20.5","","9.3","","49","","3","","22","","24.1","","100.57","","","","","","Mostly Cloudy"
"2011-05-11 16:00","2011","05","11","16:00","20.8","","9.3","","48","","3","","19","","24.1","","100.50","","","","","","Cloudy"
"2011-05-11 17:00","2011","05","11","17:00","21.6","","10.4","","49","","5","","19","","24.1","","100.45","","","","","","Cloudy"
"2011-05-11 18:00","2011","05","11","18:00","21.2","","9.3","","47","","6","","19","","24.1","","100.41","","","","","","Cloudy"
"2011-05-11 19:00","2011","05","11","19:00","17.7","","9.2","","57","","2","","19","","24.1","","100.48","","","","","","Cloudy"
"2011-05-11 20:00","2011","05","11","20:00","16.2","","8.7","","61","","6","","9","","24.1","","100.44","","","","","","Cloudy"
"2011-05-11 21:00","2011","05","11","21:00"
"2011-05-11 22:00","2011","05","11","22:00"
"2011-05-11 23:00","2011","05","11","23:00"
"2011-05-12 00:00","2011","05","12","00:00"
"2011-05-12 01:00","2011","05","12","01:00"
"2011-05-12 02:00","2011","05","12","02:00"
"2011-05-12 03:00","2011","05","12","03:00"
"2011-05-12 04:00","2011","05","12","04:00"
"2011-05-12 05:00","2011","05","12","05:00"
"2011-05-12 06:00","2011","05","12","06:00","9.0","","6.2","","83","","","","0","","16.1","","100.36","","","","","","Cloudy"
"2011-05-12 07:00","2011","05","12","07:00","10.0","","7.0","","82","","","","0","","16.1","","100.34","","","","","","Mostly Cloudy"
"2011-05-12 08:00","2011","05","12","08:00","11.9","","8.2","","78","","","","0","","16.1","","100.33","","","","","","Mostly Cloudy"
"2011-05-12 09:00","2011","05","12","09:00","14.2","","9.0","","71","","","","0","","19.3","","100.31","","","","","","Mostly Cloudy"
"2011-05-12 10:00","2011","05","12","10:00","15.3","","9.3","","67","","35","","7","","19.3","","100.26","","","","","","Cloudy"
"2011-05-12 11:00","2011","05","12","11:00","11.4","","7.3","","76","","30","","19","","16.1","","100.36","","","","","","Cloudy"
"2011-05-12 12:00","2011","05","12","12:00","13.2","","7.9","","70","","34","","7","","19.3","","100.32","","","","","","Cloudy"
"2011-05-12 13:00","2011","05","12","13:00","11.4","","6.9","","74","","32","","7","","19.3","","100.34","","","","","","Cloudy"
"2011-05-12 14:00","2011","05","12","14:00","10.3","","6.5","","77","","","","0","","24.1","","100.28","","","","","","Cloudy"
"2011-05-12 15:00","2011","05","12","15:00","11.7","","7.4","","75","","","","0","","24.1","","100.21","","","","","","Cloudy"
"2011-05-12 16:00","2011","05","12","16:00","12.0","","8.2","","78","","","","0","","24.1","","100.10","","","","","","Cloudy"
"2011-05-12 17:00","2011","05","12","17:00","11.1","","7.8","","80","","","","0","","24.1","","100.06","","","","","","Cloudy"
"2011-05-12 18:00","2011","05","12","18:00","9.3","","6.0","","80","","33","","9","","24.1","","100.03","","","","","","Cloudy"
"2011-05-12 19:00","2011","05","12","19:00","9.3","","6.0","","80","","","","0","","24.1","","99.97","","","","","","Mostly Cloudy"
"2011-05-12 20:00","2011","05","12","20:00","10.2","","6.2","","76","","","","0","","24.1","","99.97","","","","","","Mostly Cloudy"
"2011-05-12 21:00","2011","05","12","21:00"
"2011-05-12 22:00","2011","05","12","22:00"
"2011-05-12 23:00","2011","05","12","23:00"
"2011-05-13 00:00","2011","05","13","00:00"
"2011-05-13 01:00","2011","05","13","01:00"
"2011-05-13 02:00","2011","05","13","02:00"
"2011-05-13 03:00","2011","05","13","03:00"
"2011-05-13 04:00","2011","05","13","04:00"
"2011-05-13 05:00","2011","05","13","05:00"
"2011-05-13 06:00","2011","05","13","06:00","10.4","","7.3","","81","","23","","7","","16.1","","99.73","","","","","","Mainly Clear"
"2011-05-13 07:00","2011","05","13","07:00","11.8","","7.4","","74","","25","","9","","16.1","","99.77","","","","","","Mostly Cloudy"
"2011-05-13 08:00","2011","05","13","08:00","13.6","","8.0","","69","","","","0","","16.1","","99.72","","","","","","Mostly Cloudy"
"2011-05-13 09:00","2011","05","13","09:00","16.1","","9.9","","67","","26","","6","","16.1","","99.67","","","","","","Mainly Clear"
"2011-05-13 10:00","2011","05","13","10:00","19.0","","11.5","","62","","31","","7","","16.1","","99.64","","","","","","Mainly Clear"
"2011-05-13 11:00","2011","05","13","11:00","20.0","","11.9","","60","","31","","15","","12.9","","99.59","","","","","","Mainly Clear"
"2011-05-13 12:00","2011","05","13","12:00","21.6","","13.2","","59","","22","","11","","12.9","","99.50","","25","","","","Mostly Cloudy"
"2011-05-13 13:00","2011","05","13","13:00","21.1","","13.0","","60","","31","","9","","16.1","","99.43","","","","","","Mostly Cloudy"
"2011-05-13 14:00","2011","05","13","14:00","17.8","","10.2","","61","","2","","9","","16.1","","99.40","","","","","","Mostly Cloudy"
"2011-05-13 15:00","2011","05","13","15:00","21.2","","13.5","","61","","3","","9","","19.3","","99.27","","","","","","Mainly Clear"
"2011-05-13 16:00","2011","05","13","16:00","21.2","","13.0","","59","","3","","9","","19.3","","99.23","","","","","","Mainly Clear"
"2011-05-13 17:00","2011","05","13","17:00","21.7","","13.6","","60","","5","","9","","16.1","","99.22","","25","","","","Mostly Cloudy"
"2011-05-13 18:00","2011","05","13","18:00","21.5","","14.2","","63","","6","","9","","19.3","","99.25","","25","","","","Cloudy"
"2011-05-13 19:00","2011","05","13","19:00","21.5","","13.9","","62","","","","0","","16.1","","99.29","","25","","","","Cloudy"
"2011-05-13 20:00","2011","05","13","20:00","11.5","","7.4","","76","","31","","19","","16.1","","99.43","","","","","","Cloudy"
"2011-05-13 21:00","2011","05","13","21:00"
"2011-05-13 22:00","2011","05","13","22:00"
"2011-05-13 23:00","2011","05","13","23:00"
"2011-05-14 00:00","2011","05","14","00:00"
"2011-05-14 01:00","2011","05","14","01:00"
"2011-05-14 02:00","2011","05","14","02:00"
"2011-05-14 03:00","2011","05","14","03:00"
"2011-05-14 04:00","2011","05","14","04:00"
"2011-05-14 05:00","2011","05","14","05:00"
"2011-05-14 06:00","2011","05","14","06:00","14.0","","12.5","","91","","","","0","","6.4","","99.31","","","","","","Fog"
"2011-05-14 07:00","2011","05","14","07:00","14.4","","12.7","","90","","","","0","","6.4","","99.35","","","","","","Fog"
"2011-05-14 08:00","2011","05","14","08:00","14.8","","12.6","","87","","","","0","","8.0","","99.35","","","","","","Fog"
"2011-05-14 09:00","2011","05","14","09:00","14.3","","11.9","","85","","","","0","","9.7","","99.34","","","","","","Haze"
"2011-05-14 10:00","2011","05","14","10:00","13.4","","11.0","","85","","","","0","","9.7","","99.35","","","","","","Rain Showers,Haze"
"2011-05-14 11:00","2011","05","14","11:00","14.1","","11.7","","85","","","","0","","9.7","","99.35","","","","","","Rain Showers,Haze"
"2011-05-14 12:00","2011","05","14","12:00","14.9","","12.6","","86","","","","0","","8.0","","99.31","","","","","","Rain Showers,Haze"
"2011-05-14 13:00","2011","05","14","13:00","15.3","","13.2","","87","","","","0","","9.7","","99.27","","","","","","Rain Showers,Haze"
"2011-05-14 14:00","2011","05","14","14:00","12.8","","11.4","","91","","34","","4","","1.6","","99.24","","","","","","Rain Showers,Fog"
"2011-05-14 15:00","2011","05","14","15:00","12.4","","11.1","","92","","","","0","","2.4","","99.19","","","","","","Rain Showers,Fog"
"2011-05-14 16:00","2011","05","14","16:00","11.8","","10.8","","94","","31","","7","","4.8","","99.16","","","","","","Rain Showers,Fog"
"2011-05-14 17:00","2011","05","14","17:00","12.1","","10.9","","92","","31","","7","","4.8","","99.13","","","","","","Fog"
"2011-05-14 18:00","2011","05","14","18:00","11.0","","9.9","","93","","30","","7","","1.2","","99.13","","","","","","Fog"
"2011-05-14 19:00","2011","05","14","19:00","10.1","","8.9","","92","","34","","4","","0.0","","99.14","","","","","","Fog"
"2011-05-14 20:00","2011","05","14","20:00","11.3","","10.2","","93","","3","","19","","4.0","","99.18","","","","","","Rain,Fog"
"2011-05-14 21:00","2011","05","14","21:00"
"2011-05-14 22:00","2011","05","14","22:00"
"2011-05-14 23:00","2011","05","14","23:00"
"2011-05-15 00:00","2011","05","15","00:00"
"2011-05-15 01:00","2011","05","15","01:00"
"2011-05-15 02:00","2011","05","15","02:00"
"2011-05-15 03:00","2011","05","15","03:00"
"2011-05-15 04:00","2011","05","15","04:00"
"2011-05-15 05:00","2011","05","15","05:00"
"2011-05-15 06:00","2011","05","15","06:00","9.0","","7.8","","92","","3","","19","","3.2","","99.32","","","","","","Rain,Fog"
"2011-05-15 07:00","2011","05","15","07:00","9.1","","8.0","","93","","4","","19","","4.8","","99.34","","","","","","Rain,Fog"
"2011-05-15 08:00","2011","05","15","08:00","8.7","","7.5","","92","","5","","19","","4.8","","99.39","","","","","","Rain,Fog"
"2011-05-15 09:00","2011","05","15","09:00","8.7","","7.4","","92","","4","","19","","4.8","","99.41","","","","","","Rain,Fog"
"2011-05-15 10:00","2011","05","15","10:00","8.7","","7.5","","92","","4","","19","","4.0","","99.43","","","","","","Rain,Fog"
"2011-05-15 11:00","2011","05","15","11:00","8.0","","6.1","","88","","4","","19","","4.8","","99.47","","","","","","Rain,Fog"
"2011-05-15 12:00","2011","05","15","12:00","7.4","","5.7","","89","","3","","19","","4.0","","99.45","","","","","","Rain,Fog"
"2011-05-15 13:00","2011","05","15","13:00","7.4","","5.7","","89","","3","","19","","4.8","","99.45","","","","","","Rain,Fog"
"2011-05-15 14:00","2011","05","15","14:00","7.6","","6.0","","90","","3","","19","","4.8","","99.44","","","","","","Rain,Fog"
"2011-05-15 15:00","2011","05","15","15:00","7.9","","6.3","","90","","4","","19","","8.0","","99.46","","","","","","Rain,Fog"
"2011-05-15 16:00","2011","05","15","16:00","8.2","","6.5","","89","","3","","22","","8.0","","99.48","","","","","","Rain,Fog"
"2011-05-15 17:00","2011","05","15","17:00","8.3","","6.3","","87","","4","","22","","12.9","","99.51","","","","","","Rain"
"2011-05-15 18:00","2011","05","15","18:00","8.3","","6.3","","87","","4","","19","","12.9","","99.56","","","","","","Rain"
"2011-05-15 19:00","2011","05","15","19:00","8.3","","6.1","","86","","3","","15","","12.9","","99.65","","","","","","Rain"
"2011-05-15 20:00","2011","05","15","20:00","7.9","","5.5","","85","","3","","13","","12.9","","99.69","","","","","","Rain"
"2011-05-15 21:00","2011","05","15","21:00"
"2011-05-15 22:00","2011","05","15","22:00"
"2011-05-15 23:00","2011","05","15","23:00"
"2011-05-16 00:00","2011","05","16","00:00"
"2011-05-16 01:00","2011","05","16","01:00"
"2011-05-16 02:00","2011","05","16","02:00"
"2011-05-16 03:00","2011","05","16","03:00"
"2011-05-16 04:00","2011","05","16","04:00"
"2011-05-16 05:00","2011","05","16","05:00"
"2011-05-16 06:00","2011","05","16","06:00","6.5","","4.9","","89","","5","","19","","6.4","","99.68","","","","","","Rain,Fog"
"2011-05-16 07:00","2011","05","16","07:00","6.9","","5.1","","88","","5","","20","","9.7","","99.74","","","","","","Rain,Fog"
"2011-05-16 08:00","2011","05","16","08:00","6.7","","5.2","","90","","5","","19","","6.4","","99.77","","","","","","Rain,Fog"
"2011-05-16 09:00","2011","05","16","09:00","6.9","","5.5","","91","","4","","19","","4.8","","99.82","","","","","","Rain,Fog"
"2011-05-16 10:00","2011","05","16","10:00","7.0","","5.5","","90","","3","","19","","4.8","","99.87","","","","","","Drizzle,Fog"
"2011-05-16 11:00","2011","05","16","11:00","7.2","","5.7","","90","","3","","19","","4.8","","99.93","","","","","","Drizzle,Fog"
"2011-05-16 12:00","2011","05","16","12:00","7.4","","5.6","","88","","3","","19","","9.7","","99.92","","","","","","Rain,Fog"
"2011-05-16 13:00","2011","05","16","13:00","7.3","","5.6","","89","","3","","15","","8.0","","99.95","","","","","","Rain,Fog"
"2011-05-16 14:00","2011","05","16","14:00","7.5","","6.0","","90","","4","","19","","12.9","","99.98","","","","","","Rain"
"2011-05-16 15:00","2011","05","16","15:00","8.0","","6.4","","90","","5","","19","","16.1","","100.01","","","","","","Rain"
"2011-05-16 16:00","2011","05","16","16:00","8.3","","6.4","","88","","4","","11","","19.3","","100.04","","","","","","Cloudy"
"2011-05-16 17:00","2011","05","16","17:00","8.7","","6.5","","86","","4","","15","","19.3","","100.10","","","","","","Cloudy"
"2011-05-16 18:00","2011","05","16","18:00","8.5","","6.6","","88","","4","","19","","24.1","","100.13","","","","","","Cloudy"
"2011-05-16 19:00","2011","05","16","19:00","8.2","","6.4","","88","","4","","13","","24.1","","100.19","","","","","","Cloudy"
"2011-05-16 20:00","2011","05","16","20:00","7.8","","6.3","","90","","5","","9","","4.8","","100.24","","","","","","Rain,Fog"
"2011-05-16 21:00","2011","05","16","21:00"
"2011-05-16 22:00","2011","05","16","22:00"
"2011-05-16 23:00","2011","05","16","23:00"
"2011-05-17 00:00","2011","05","17","00:00"
"2011-05-17 01:00","2011","05","17","01:00"
"2011-05-17 02:00","2011","05","17","02:00"
"2011-05-17 03:00","2011","05","17","03:00"
"2011-05-17 04:00","2011","05","17","04:00"
"2011-05-17 05:00","2011","05","17","05:00"
"2011-05-17 06:00","2011","05","17","06:00","6.8","","5.5","","91","","5","","19","","4.0","","100.30","","","","","","Fog"
"2011-05-17 07:00","2011","05","17","07:00","7.2","","5.6","","90","","5","","22","","4.0","","100.34","","","","","","Fog"
"2011-05-17 08:00","2011","05","17","08:00","7.1","","5.7","","91","","5","","22","","3.2","","100.39","","","","","","Fog"
"2011-05-17 09:00","2011","05","17","09:00","7.2","","5.8","","91","","5","","19","","4.8","","100.38","","","","","","Fog"
"2011-05-17 10:00","2011","05","17","10:00","7.9","","6.3","","90","","4","","28","","8.0","","100.36","","","","","","Fog"
"2011-05-17 11:00","2011","05","17","11:00","8.3","","6.6","","89","","5","","22","","12.9","","100.34","","","","","","Cloudy"
"2011-05-17 12:00","2011","05","17","12:00","8.2","","6.7","","90","","5","","19","","4.0","","100.33","","","","","","Fog"
"2011-05-17 13:00","2011","05","17","13:00","10.0","","7.7","","86","","6","","28","","16.1","","100.24","","","","","","Cloudy"
"2011-05-17 14:00","2011","05","17","14:00","10.6","","8.3","","86","","5","","19","","9.7","","100.19","","","","","","Rain,Fog"
"2011-05-17 15:00","2011","05","17","15:00","10.9","","9.0","","88","","6","","22","","9.7","","100.14","","","","","","Rain,Fog"
"2011-05-17 16:00","2011","05","17","16:00","10.7","","9.3","","91","","7","","19","","3.2","","100.11","","","","","","Rain,Fog"
"2011-05-17 17:00","2011","05","17","17:00","11.1","","9.8","","92","","7","","22","","3.2","","100.08","","","","","","Rain,Fog"
"2011-05-17 18:00","2011","05","17","18:00","11.3","","9.9","","91","","7","","22","","12.9","","100.09","","","","","","Rain"
"2011-05-17 19:00","2011","05","17","19:00","11.0","","9.4","","90","","6","","24","","12.9","","100.07","","","","","","Cloudy"
"2011-05-17 20:00","2011","05","17","20:00","10.6","","9.1","","90","","7","","19","","8.0","","100.09","","","","","","Fog"
"2011-05-17 21:00","2011","05","17","21:00"
"2011-05-17 22:00","2011","05","17","22:00"
"2011-05-17 23:00","2011","05","17","23:00"
"2011-05-18 00:00","2011","05","18","00:00"
"2011-05-18 01:00","2011","05","18","01:00"
"2011-05-18 02:00","2011","05","18","02:00"
"2011-05-18 03:00","2011","05","18","03:00"
"2011-05-18 04:00","2011","05","18","04:00"
"2011-05-18 05:00","2011","05","18","05:00"
"2011-05-18 06:00","2011","05","18","06:00","11.1","","10.1","","94","","8","","19","","4.8","","100.17","","","","","","Rain,Fog"
"2011-05-18 07:00","2011","05","18","07:00","11.1","","10.1","","94","","6","","19","","6.4","","100.17","","","","","","Rain,Fog"
"2011-05-18 08:00","2011","05","18","08:00","11.7","","10.5","","92","","7","","19","","9.7","","100.17","","","","","","Fog"
"2011-05-18 09:00","2011","05","18","09:00","13.0","","11.5","","91","","7","","19","","12.9","","100.16","","","","","","Rain Showers"
"2011-05-18 10:00","2011","05","18","10:00","13.0","","11.5","","91","","9","","19","","12.9","","100.16","","","","","","Cloudy"
"2011-05-18 11:00","2011","05","18","11:00","14.1","","12.3","","89","","7","","19","","12.9","","100.17","","","","","","Cloudy"
"2011-05-18 12:00","2011","05","18","12:00","14.8","","13.0","","89","","6","","19","","12.9","","100.11","","","","","","Cloudy"
"2011-05-18 13:00","2011","05","18","13:00","15.6","","13.3","","86","","4","","15","","16.1","","100.07","","","","","","Mostly Cloudy"
"2011-05-18 14:00","2011","05","18","14:00","17.6","","14.2","","80","","4","","22","","19.3","","100.02","","","","","","Mostly Cloudy"
"2011-05-18 15:00","2011","05","18","15:00","16.6","","13.2","","80","","4","","19","","19.3","","100.01","","","","","","Mostly Cloudy"
"2011-05-18 16:00","2011","05","18","16:00","17.2","","13.7","","80","","4","","17","","19.3","","99.97","","","","","","Mostly Cloudy"
"2011-05-18 17:00","2011","05","18","17:00","17.2","","13.9","","81","","4","","19","","19.3","","100.00","","","","","","Cloudy"
"2011-05-18 18:00","2011","05","18","18:00","17.8","","14.8","","83","","10","","19","","12.9","","100.02","","","","","","Thunderstorms,Rain Showers"
"2011-05-18 19:00","2011","05","18","19:00","16.7","","14.7","","88","","6","","19","","16.1","","99.99","","","","","","Rain Showers"
"2011-05-18 20:00","2011","05","18","20:00","16.0","","14.6","","91","","8","","19","","8.0","","","M","","","","","Rain Showers,Fog"
"2011-05-18 21:00","2011","05","18","21:00"
"2011-05-18 22:00","2011","05","18","22:00"
"2011-05-18 23:00","2011","05","18","23:00"
"2011-05-19 00:00","2011","05","19","00:00"
"2011-05-19 01:00","2011","05","19","01:00"
"2011-05-19 02:00","2011","05","19","02:00"
"2011-05-19 03:00","2011","05","19","03:00"
"2011-05-19 04:00","2011","05","19","04:00"
"2011-05-19 05:00","2011","05","19","05:00"
"2011-05-19 06:00","2011","05","19","06:00","10.2","","9.2","","94","","","","0","","0.2","","100.15","","","","","","Fog"
"2011-05-19 07:00","2011","05","19","07:00","10.0","","9.1","","94","","","","0","","0.2","","100.25","","","","","","Fog"
"2011-05-19 08:00","2011","05","19","08:00","11.2","","10.5","","95","","","","0","","0.4","","100.31","","","","","","Fog"
"2011-05-19 09:00","2011","05","19","09:00","11.2","","10.6","","96","","","","0","","1.2","","100.36","","","","","","Fog"
"2011-05-19 10:00","2011","05","19","10:00","12.1","","11.4","","95","","","","0","","6.4","","100.36","","","","","","Fog"
"2011-05-19 11:00","2011","05","19","11:00","13.5","","12.6","","94","","31","","6","","9.7","","100.39","","","","","","Fog"
"2011-05-19 12:00","2011","05","19","12:00","14.6","","12.8","","89","","35","","4","","16.1","","100.44","","","","","","Cloudy"
"2011-05-19 13:00","2011","05","19","13:00","14.7","","12.5","","87","","32","","9","","16.1","","100.45","","","","","","Mostly Cloudy"
"2011-05-19 14:00","2011","05","19","14:00","16.6","","13.4","","81","","29","","11","","16.1","","100.43","","","","","","Mostly Cloudy"
"2011-05-19 15:00","2011","05","19","15:00","17.5","","12.4","","72","","31","","13","","19.3","","100.38","","","","","","Mostly Cloudy"
"2011-05-19 16:00","2011","05","19","16:00","18.5","","12.6","","68","","30","","15","","19.3","","100.39","","","","","","Mostly Cloudy"
"2011-05-19 17:00","2011","05","19","17:00","18.2","","12.7","","70","","33","","7","","19.3","","100.37","","","","","","Mainly Clear"
"2011-05-19 18:00","2011","05","19","18:00","18.5","","12.6","","68","","30","","9","","19.3","","100.39","","","","","","Mainly Clear"
"2011-05-19 19:00","2011","05","19","19:00","17.0","","12.5","","75","","29","","6","","19.3","","100.37","","","","","","Mainly Clear"
"2011-05-19 20:00","2011","05","19","20:00","16.6","","12.3","","76","","","","0","","16.1","","100.40","","","","","","Mostly Cloudy"
"2011-05-19 21:00","2011","05","19","21:00"
"2011-05-19 22:00","2011","05","19","22:00"
"2011-05-19 23:00","2011","05","19","23:00"
"2011-05-20 00:00","2011","05","20","00:00"
"2011-05-20 01:00","2011","05","20","01:00"
"2011-05-20 02:00","2011","05","20","02:00"
"2011-05-20 03:00","2011","05","20","03:00"
"2011-05-20 04:00","2011","05","20","04:00"
"2011-05-20 05:00","2011","05","20","05:00"
"2011-05-20 06:00","2011","05","20","06:00","12.0","","10.6","","91","","31","","6","","3.2","","100.47","","","","","","Fog"
"2011-05-20 07:00","2011","05","20","07:00","12.3","","11.2","","93","","30","","6","","0.0","","100.48","","","","","","Fog"
"2011-05-20 08:00","2011","05","20","08:00","12.9","","11.9","","94","","31","","6","","0.0","","100.53","","","","","","Fog"
"2011-05-20 09:00","2011","05","20","09:00","13.1","","12.0","","93","","31","","13","","3.6","","100.51","","","","","","Fog"
"2011-05-20 10:00","2011","05","20","10:00","14.3","","13.1","","92","","30","","11","","9.7","","100.52","","","","","","Fog"
"2011-05-20 11:00","2011","05","20","11:00","17.2","","13.7","","80","","30","","9","","12.9","","100.51","","","","","","Cloudy"
"2011-05-20 12:00","2011","05","20","12:00","18.1","","13.9","","76","","30","","7","","16.1","","100.50","","","","","","Mostly Cloudy"
"2011-05-20 13:00","2011","05","20","13:00","18.8","","13.9","","73","","","","0","","19.3","","100.48","","","","","","Mostly Cloudy"
"2011-05-20 14:00","2011","05","20","14:00","18.8","","15.1","","79","","","","0","","24.1","","100.45","","","","","","Mostly Cloudy"
"2011-05-20 15:00","2011","05","20","15:00","20.5","","15.3","","72","","31","","7","","24.1","","100.40","","25","","","","Mainly Clear"
"2011-05-20 16:00","2011","05","20","16:00","20.8","","15.0","","69","","32","","7","","24.1","","100.38","","25","","","","Mainly Clear"
"2011-05-20 17:00","2011","05","20","17:00","21.5","","14.8","","66","","","","0","","24.1","","100.37","","25","","","","Clear"
"2011-05-20 18:00","2011","05","20","18:00","21.4","","14.8","","66","","","","0","","24.1","","100.35","","25","","","","Clear"
"2011-05-20 19:00","2011","05","20","19:00","19.8","","15.6","","77","","19","","7","","16.1","","100.38","","","","","","Clear"
"2011-05-20 20:00","2011","05","20","20:00","18.0","","14.7","","81","","22","","7","","16.1","","100.44","","","","","","Clear"
"2011-05-20 21:00","2011","05","20","21:00"
"2011-05-20 22:00","2011","05","20","22:00"
"2011-05-20 23:00","2011","05","20","23:00"
"2011-05-21 00:00","2011","05","21","00:00"
"2011-05-21 01:00","2011","05","21","01:00"
"2011-05-21 02:00","2011","05","21","02:00"
"2011-05-21 03:00","2011","05","21","03:00"
"2011-05-21 04:00","2011","05","21","04:00"
"2011-05-21 05:00","2011","05","21","05:00"
"2011-05-21 06:00","2011","05","21","06:00","13.4","","10.9","","85","","22","","6","","12.9","","100.44","","","","","","Mainly Clear"
"2011-05-21 07:00","2011","05","21","07:00","15.9","","12.4","","80","","23","","6","","16.1","","100.51","","","","","","Mainly Clear"
"2011-05-21 08:00","2011","05","21","08:00","17.8","","13.4","","75","","28","","9","","19.3","","100.52","","","","","","Mostly Cloudy"
"2011-05-21 09:00","2011","05","21","09:00","19.3","","13.4","","69","","26","","6","","19.3","","100.54","","","","","","Mostly Cloudy"
"2011-05-21 10:00","2011","05","21","10:00","19.8","","14.1","","70","","33","","6","","24.1","","100.52","","","","","","Mostly Cloudy"
"2011-05-21 11:00","2011","05","21","11:00","20.6","","15.0","","70","","35","","9","","24.1","","100.53","","25","","","","Mostly Cloudy"
"2011-05-21 12:00","2011","05","21","12:00","23.0","","15.9","","64","","","","0","","24.1","","100.50","","28","","","","Mostly Cloudy"
"2011-05-21 13:00","2011","05","21","13:00","24.7","","16.0","","58","","34","","9","","24.1","","100.45","","29","","","","Mainly Clear"
"2011-05-21 14:00","2011","05","21","14:00","24.8","","14.5","","53","","33","","9","","24.1","","100.44","","28","","","","Mostly Cloudy"
"2011-05-21 15:00","2011","05","21","15:00","26.2","","14.5","","49","","","","0","","24.1","","100.39","","30","","","","Mainly Clear"
"2011-05-21 16:00","2011","05","21","16:00","26.1","","14.1","","48","","34","","6","","24.1","","100.33","","30","","","","Mostly Cloudy"
"2011-05-21 17:00","2011","05","21","17:00","25.2","","16.1","","57","","21","","7","","24.1","","100.33","","30","","","","Cloudy"
"2011-05-21 18:00","2011","05","21","18:00","24.8","","15.7","","57","","25","","11","","24.1","","100.31","","29","","","","Mostly Cloudy"
"2011-05-21 19:00","2011","05","21","19:00","22.4","","15.7","","66","","21","","6","","24.1","","100.33","","27","","","","Cloudy"
"2011-05-21 20:00","2011","05","21","20:00","21.2","","14.4","","65","","16","","7","","24.1","","100.34","","25","","","","Cloudy"
"2011-05-21 21:00","2011","05","21","21:00"
"2011-05-21 22:00","2011","05","21","22:00"
"2011-05-21 23:00","2011","05","21","23:00"
"2011-05-22 00:00","2011","05","22","00:00"
"2011-05-22 01:00","2011","05","22","01:00"
"2011-05-22 02:00","2011","05","22","02:00"
"2011-05-22 03:00","2011","05","22","03:00"
"2011-05-22 04:00","2011","05","22","04:00"
"2011-05-22 05:00","2011","05","22","05:00"
"2011-05-22 06:00","2011","05","22","06:00","15.4","","13.0","","86","","","","0","","16.1","","100.33","","","","","","Cloudy"
"2011-05-22 07:00","2011","05","22","07:00","16.1","","13.3","","83","","","","0","","12.9","","100.29","","","","","","Cloudy"
"2011-05-22 08:00","2011","05","22","08:00","17.7","","14.5","","82","","","","0","","16.1","","100.28","","","","","","Mostly Cloudy"
"2011-05-22 09:00","2011","05","22","09:00","16.9","","13.3","","79","","","","0","","19.3","","100.29","","","","","","Cloudy"
"2011-05-22 10:00","2011","05","22","10:00","15.5","","13.2","","86","","32","","6","","12.9","","100.30","","","","","","Rain Showers"
"2011-05-22 11:00","2011","05","22","11:00","16.8","","14.5","","86","","16","","6","","16.1","","100.26","","","","","","Cloudy"
"2011-05-22 12:00","2011","05","22","12:00","19.7","","16.1","","80","","19","","7","","16.1","","100.26","","","","","","Rain Showers"
"2011-05-22 13:00","2011","05","22","13:00","16.2","","14.4","","89","","","","0","","12.9","","100.23","","","","","","Rain Showers"
"2011-05-22 14:00","2011","05","22","14:00","15.0","","13.1","","88","","","","0","","16.1","","100.15","","","","","","Mostly Cloudy"
"2011-05-22 15:00","2011","05","22","15:00","21.8","","17.2","","75","","","","0","","19.3","","100.11","","27","","","","Mainly Clear"
"2011-05-22 16:00","2011","05","22","16:00","23.8","","16.3","","63","","16","","11","","24.1","","100.00","","29","","","","Clear"
"2011-05-22 17:00","2011","05","22","17:00","24.8","","15.8","","57","","18","","19","","24.1","","99.90","","29","","","","Clear"
"2011-05-22 18:00","2011","05","22","18:00","24.8","","16.0","","58","","16","","7","","24.1","","99.81","","29","","","","Mainly Clear"
"2011-05-22 19:00","2011","05","22","19:00","23.8","","16.1","","62","","18","","4","","24.1","","99.82","","28","","","","Mostly Cloudy"
"2011-05-22 20:00","2011","05","22","20:00","21.8","","16.3","","71","","","","0","","24.1","","99.81","","27","","","","Clear"
"2011-05-22 21:00","2011","05","22","21:00"
"2011-05-22 22:00","2011","05","22","22:00"
"2011-05-22 23:00","2011","05","22","23:00"
"2011-05-23 00:00","2011","05","23","00:00"
"2011-05-23 01:00","2011","05","23","01:00"
"2011-05-23 02:00","2011","05","23","02:00"
"2011-05-23 03:00","2011","05","23","03:00"
"2011-05-23 04:00","2011","05","23","04:00"
"2011-05-23 05:00","2011","05","23","05:00"
"2011-05-23 06:00","2011","05","23","06:00","20.8","","15.6","","72","","19","","22","","19.3","","99.59","","25","","","","Mainly Clear"
"2011-05-23 07:00","2011","05","23","07:00","21.9","","15.7","","68","","20","","11","","24.1","","99.54","","26","","","","Mainly Clear"
"2011-05-23 08:00","2011","05","23","08:00","23.0","","15.7","","63","","18","","19","","24.1","","99.48","","27","","","","Mostly Cloudy"
"2011-05-23 09:00","2011","05","23","09:00","23.5","","15.9","","62","","19","","19","","24.1","","99.43","","28","","","","Cloudy"
"2011-05-23 10:00","2011","05","23","10:00","22.4","","15.8","","66","","22","","19","","19.3","","99.48","","27","","","","Rain Showers"
"2011-05-23 11:00","2011","05","23","11:00","23.9","","16.0","","61","","20","","22","","24.1","","99.44","","29","","","","Cloudy"
"2011-05-23 12:00","2011","05","23","12:00","23.0","","15.5","","63","","21","","30","","19.3","","99.38","","27","","","","Cloudy"
"2011-05-23 13:00","2011","05","23","13:00","22.3","","15.7","","66","","21","","22","","19.3","","99.29","","27","","","","Cloudy"
"2011-05-23 14:00","2011","05","23","14:00","24.3","","15.2","","57","","21","","22","","24.1","","99.20","","28","","","","Cloudy"
"2011-05-23 15:00","2011","05","23","15:00","23.7","","15.3","","59","","21","","28","","24.1","","99.16","","28","","","","Mostly Cloudy"
"2011-05-23 16:00","2011","05","23","16:00","24.0","","15.4","","59","","21","","22","","24.1","","99.13","","28","","","","Mainly Clear"
"2011-05-23 17:00","2011","05","23","17:00","24.2","","16.1","","61","","21","","22","","24.1","","99.11","","29","","","","Mostly Cloudy"
"2011-05-23 18:00","2011","05","23","18:00","23.9","","15.8","","61","","21","","22","","24.1","","99.03","","28","","","","Mainly Clear"
"2011-05-23 19:00","2011","05","23","19:00","23.0","","15.7","","63","","21","","22","","24.1","","99.02","","27","","","","Mostly Cloudy"
"2011-05-23 20:00","2011","05","23","20:00","22.9","","15.3","","62","","22","","22","","24.1","","99.02","","27","","","","Rain Showers"
"2011-05-23 21:00","2011","05","23","21:00"
"2011-05-23 22:00","2011","05","23","22:00"
"2011-05-23 23:00","2011","05","23","23:00"
"2011-05-24 00:00","2011","05","24","00:00"
"2011-05-24 01:00","2011","05","24","01:00"
"2011-05-24 02:00","2011","05","24","02:00"
"2011-05-24 03:00","2011","05","24","03:00"
"2011-05-24 04:00","2011","05","24","04:00"
"2011-05-24 05:00","2011","05","24","05:00"
"2011-05-24 06:00","2011","05","24","06:00","17.1","","14.3","","84","","24","","9","","24.1","","99.27","","","","","","Mostly Cloudy"
"2011-05-24 07:00","2011","05","24","07:00","18.4","","14.7","","79","","24","","11","","19.3","","99.39","","","","","","Mostly Cloudy"
"2011-05-24 08:00","2011","05","24","08:00","18.6","","14.8","","79","","24","","15","","24.1","","99.47","","","","","","Mostly Cloudy"
"2011-05-24 09:00","2011","05","24","09:00","19.0","","13.2","","69","","28","","22","","24.1","","99.51","","","","","","Mostly Cloudy"
"2011-05-24 10:00","2011","05","24","10:00","16.9","","11.6","","71","","31","","19","","24.1","","99.62","","","","","","Clear"
"2011-05-24 11:00","2011","05","24","11:00","18.4","","12.0","","66","","29","","19","","24.1","","99.67","","","","","","Clear"
"2011-05-24 12:00","2011","05","24","12:00","18.9","","11.2","","61","","29","","15","","24.1","","99.73","","","","","","Clear"
"2011-05-24 13:00","2011","05","24","13:00","19.3","","11.5","","61","","30","","19","","24.1","","99.79","","","","","","Clear"
"2011-05-24 14:00","2011","05","24","14:00","20.1","","11.3","","57","","31","","19","","24.1","","99.81","","","","","","Clear"
"2011-05-24 15:00","2011","05","24","15:00","20.2","","11.7","","58","","30","","19","","24.1","","99.82","","","","","","Clear"
"2011-05-24 16:00","2011","05","24","16:00","20.2","","11.8","","58","","33","","19","","24.1","","99.87","","","","","","Mainly Clear"
"2011-05-24 17:00","2011","05","24","17:00","19.8","","11.4","","58","","34","","13","","24.1","","99.88","","","","","","Clear"
"2011-05-24 18:00","2011","05","24","18:00","18.8","","11.3","","62","","35","","9","","24.1","","99.88","","","","","","Clear"
"2011-05-24 19:00","2011","05","24","19:00","18.2","","11.1","","63","","","","0","","24.1","","99.95","","","","","","Clear"
"2011-05-24 20:00","2011","05","24","20:00","16.7","","11.8","","73","","1","","7","","24.1","","100.04","","","","","","Mainly Clear"
"2011-05-24 21:00","2011","05","24","21:00"
"2011-05-24 22:00","2011","05","24","22:00"
"2011-05-24 23:00","2011","05","24","23:00"
"2011-05-25 00:00","2011","05","25","00:00"
"2011-05-25 01:00","2011","05","25","01:00"
"2011-05-25 02:00","2011","05","25","02:00"
"2011-05-25 03:00","2011","05","25","03:00"
"2011-05-25 04:00","2011","05","25","04:00"
"2011-05-25 05:00","2011","05","25","05:00"
"2011-05-25 06:00","2011","05","25","06:00","10.7","","6.7","","76","","","","0","","24.1","","100.35","","","","","","Cloudy"
"2011-05-25 07:00","2011","05","25","07:00","11.4","","7.3","","76","","","","0","","24.1","","100.33","","","","","","Mostly Cloudy"
"2011-05-25 08:00","2011","05","25","08:00","12.6","","3.8","","55","","8","","6","","24.1","","100.40","","","","","","Mostly Cloudy"
"2011-05-25 09:00","2011","05","25","09:00","14.4","","9.3","","71","","7","","7","","24.1","","100.41","","","","","","Mostly Cloudy"
"2011-05-25 10:00","2011","05","25","10:00","16.2","","10.5","","69","","4","","4","","24.1","","100.35","","","","","","Mostly Cloudy"
"2011-05-25 11:00","2011","05","25","11:00","17.0","","10.9","","67","","36","","9","","24.1","","100.25","","","","","","Mainly Clear"
"2011-05-25 12:00","2011","05","25","12:00","17.2","","10.3","","64","","2","","19","","24.1","","100.21","","","","","","Mostly Cloudy"
"2011-05-25 13:00","2011","05","25","13:00","17.0","","10.6","","66","","3","","19","","24.1","","100.19","","","","","","Mostly Cloudy"
"2011-05-25 14:00","2011","05","25","14:00","17.8","","10.6","","63","","3","","19","","24.1","","100.10","","","","","","Mostly Cloudy"
"2011-05-25 15:00","2011","05","25","15:00","16.9","","10.2","","65","","4","","19","","24.1","","100.04","","","","","","Mostly Cloudy"
"2011-05-25 16:00","2011","05","25","16:00","16.5","","9.5","","63","","5","","22","","24.1","","99.88","","","","","","Mostly Cloudy"
"2011-05-25 17:00","2011","05","25","17:00","16.5","","9.7","","64","","3","","19","","24.1","","99.75","","","","","","Mostly Cloudy"
"2011-05-25 18:00","2011","05","25","18:00","14.8","","8.7","","67","","4","","15","","24.1","","99.70","","","","","","Cloudy"
"2011-05-25 19:00","2011","05","25","19:00","14.9","","9.0","","68","","5","","15","","24.1","","99.68","","","","","","Cloudy"
"2011-05-25 20:00","2011","05","25","20:00","13.4","","10.1","","80","","4","","19","","19.3","","99.55","","","","","","Cloudy"
"2011-05-25 21:00","2011","05","25","21:00"
"2011-05-25 22:00","2011","05","25","22:00"
"2011-05-25 23:00","2011","05","25","23:00"
"2011-05-26 00:00","2011","05","26","00:00"
"2011-05-26 01:00","2011","05","26","01:00"
"2011-05-26 02:00","2011","05","26","02:00"
"2011-05-26 03:00","2011","05","26","03:00"
"2011-05-26 04:00","2011","05","26","04:00"
"2011-05-26 05:00","2011","05","26","05:00"
"2011-05-26 06:00","2011","05","26","06:00","10.4","","9.1","","92","","36","","13","","4.8","","99.56","","","","","","Rain Showers,Fog"
"2011-05-26 07:00","2011","05","26","07:00","11.5","","10.2","","92","","11","","9","","8.0","","99.52","","","","","","Rain Showers,Fog"
"2011-05-26 08:00","2011","05","26","08:00","12.9","","11.6","","92","","8","","9","","12.9","","99.43","","","","","","Rain Showers"
"2011-05-26 09:00","2011","05","26","09:00","15.1","","13.6","","91","","","","0","","16.1","","99.46","","","","","","Cloudy"
"2011-05-26 10:00","2011","05","26","10:00","18.4","","15.9","","85","","35","","4","","24.1","","99.48","","","","","","Mainly Clear"
"2011-05-26 11:00","2011","05","26","11:00","20.0","","16.7","","81","","27","","4","","24.1","","99.52","","25","","","","Mostly Cloudy"
"2011-05-26 12:00","2011","05","26","12:00","23.0","","15.4","","62","","23","","26","","24.1","","99.52","","27","","","","Cloudy"
"2011-05-26 13:00","2011","05","26","13:00","23.0","","16.3","","66","","23","","22","","24.1","","99.57","","28","","","","Mostly Cloudy"
"2011-05-26 14:00","2011","05","26","14:00","22.9","","15.5","","63","","23","","19","","24.1","","99.57","","27","","","","Mostly Cloudy"
"2011-05-26 15:00","2011","05","26","15:00","24.0","","15.6","","59","","25","","19","","24.1","","99.53","","28","","","","Mostly Cloudy"
"2011-05-26 16:00","2011","05","26","16:00","23.7","","15.8","","61","","26","","19","","24.1","","99.52","","28","","","","Mostly Cloudy"
"2011-05-26 17:00","2011","05","26","17:00","19.7","","16.2","","80","","","","0","","12.9","","99.60","","","","","","Rain Showers"
"2011-05-26 18:00","2011","05","26","18:00","20.3","","17.8","","86","","18","","6","","16.1","","99.59","","26","","","","Rain Showers"
"2011-05-26 19:00","2011","05","26","19:00","19.9","","17.6","","87","","18","","7","","24.1","","99.60","","","","","","Mostly Cloudy"
"2011-05-26 20:00","2011","05","26","20:00","18.1","","15.8","","86","","18","","9","","24.1","","99.62","","","","","","Mostly Cloudy"
"2011-05-26 21:00","2011","05","26","21:00"
"2011-05-26 22:00","2011","05","26","22:00"
"2011-05-26 23:00","2011","05","26","23:00"
"2011-05-27 00:00","2011","05","27","00:00"
"2011-05-27 01:00","2011","05","27","01:00"
"2011-05-27 02:00","2011","05","27","02:00"
"2011-05-27 03:00","2011","05","27","03:00"
"2011-05-27 04:00","2011","05","27","04:00"
"2011-05-27 05:00","2011","05","27","05:00"
"2011-05-27 06:00","2011","05","27","06:00","10.1","","9.0","","93","","1","","19","","0.8","","100.10","","","","","","Drizzle,Fog"
"2011-05-27 07:00","2011","05","27","07:00","10.4","","9.3","","93","","2","","19","","0.8","","100.11","","","","","","Drizzle,Fog"
"2011-05-27 08:00","2011","05","27","08:00","10.7","","9.7","","94","","2","","15","","0.8","","100.21","","","","","","Drizzle,Fog"
"2011-05-27 09:00","2011","05","27","09:00","10.7","","9.7","","94","","3","","15","","0.8","","100.27","","","","","","Drizzle,Fog"
"2011-05-27 10:00","2011","05","27","10:00","10.9","","9.8","","93","","4","","15","","1.6","","100.32","","","","","","Drizzle,Fog"
"2011-05-27 11:00","2011","05","27","11:00","11.5","","10.4","","93","","3","","15","","8.0","","100.32","","","","","","Fog"
"2011-05-27 12:00","2011","05","27","12:00","11.3","","10.1","","92","","3","","19","","8.0","","100.33","","","","","","Fog"
"2011-05-27 13:00","2011","05","27","13:00","11.6","","10.2","","91","","3","","19","","6.4","","100.31","","","","","","Fog"
"2011-05-27 14:00","2011","05","27","14:00","12.4","","11.0","","91","","5","","19","","8.0","","100.29","","","","","","Fog"
"2011-05-27 15:00","2011","05","27","15:00","13.2","","11.5","","89","","5","","19","","12.9","","100.24","","","","","","Cloudy"
"2011-05-27 16:00","2011","05","27","16:00","13.3","","11.5","","89","","4","","19","","9.7","","100.27","","","","","","Fog"
"2011-05-27 17:00","2011","05","27","17:00","13.4","","11.7","","89","","2","","15","","9.7","","100.26","","","","","","Fog"
"2011-05-27 18:00","2011","05","27","18:00","13.5","","11.6","","88","","4","","9","","16.1","","100.26","","","","","","Cloudy"
"2011-05-27 19:00","2011","05","27","19:00","12.9","","11.2","","89","","5","","15","","16.1","","100.28","","","","","","Cloudy"
"2011-05-27 20:00","2011","05","27","20:00","12.5","","11.0","","91","","5","","9","","16.1","","100.29","","","","","","Cloudy"
"2011-05-27 21:00","2011","05","27","21:00"
"2011-05-27 22:00","2011","05","27","22:00"
"2011-05-27 23:00","2011","05","27","23:00"
"2011-05-28 00:00","2011","05","28","00:00"
"2011-05-28 01:00","2011","05","28","01:00"
"2011-05-28 02:00","2011","05","28","02:00"
"2011-05-28 03:00","2011","05","28","03:00"
"2011-05-28 04:00","2011","05","28","04:00"
"2011-05-28 05:00","2011","05","28","05:00"
"2011-05-28 06:00","2011","05","28","06:00","12.0","","11.1","","94","","","","0","","2.4","","100.09","","","","","","Fog"
"2011-05-28 07:00","2011","05","28","07:00","12.3","","11.3","","94","","8","","7","","3.2","","100.10","","","","","","Fog"
"2011-05-28 08:00","2011","05","28","08:00","13.0","","12.1","","94","","","","0","","8.0","","100.12","","","","","","Fog"
"2011-05-28 09:00","2011","05","28","09:00","13.9","","12.5","","91","","26","","4","","8.0","","100.08","","","","","","Fog"
"2011-05-28 10:00","2011","05","28","10:00","16.8","","13.8","","82","","32","","15","","11.3","","100.12","","","","","","Cloudy"
"2011-05-28 11:00","2011","05","28","11:00","13.5","","11.3","","87","","30","","7","","12.9","","100.18","","","","","","Cloudy"
"2011-05-28 12:00","2011","05","28","12:00","18.4","","14.1","","76","","32","","7","","16.1","","100.13","","","","","","Mostly Cloudy"
"2011-05-28 13:00","2011","05","28","13:00","21.4","","13.6","","61","","24","","19","","16.1","","100.10","","25","","","","Mostly Cloudy"
"2011-05-28 14:00","2011","05","28","14:00","22.0","","13.5","","59","","24","","22","","16.1","","100.08","","25","","","","Mostly Cloudy"
"2011-05-28 15:00","2011","05","28","15:00","22.8","","14.6","","60","","20","","19","","19.3","","99.92","","27","","","","Mostly Cloudy"
"2011-05-28 16:00","2011","05","28","16:00","23.3","","14.6","","58","","24","","19","","19.3","","100.05","","27","","","","Mostly Cloudy"
"2011-05-28 17:00","2011","05","28","17:00","23.1","","15.1","","61","","26","","19","","19.3","","100.08","","27","","","","Mainly Clear"
"2011-05-28 18:00","2011","05","28","18:00","20.0","","14.6","","71","","28","","7","","16.1","","100.14","","","","","","Cloudy"
"2011-05-28 19:00","2011","05","28","19:00","18.7","","14.1","","75","","","","0","","12.9","","100.12","","","","","","Cloudy"
"2011-05-28 20:00","2011","05","28","20:00","18.3","","15.0","","81","","","","0","","12.9","","100.13","","","","","","Mostly Cloudy"
"2011-05-28 21:00","2011","05","28","21:00"
"2011-05-28 22:00","2011","05","28","22:00"
"2011-05-28 23:00","2011","05","28","23:00"
"2011-05-29 00:00","2011","05","29","00:00"
"2011-05-29 01:00","2011","05","29","01:00"
"2011-05-29 02:00","2011","05","29","02:00"
"2011-05-29 03:00","2011","05","29","03:00"
"2011-05-29 04:00","2011","05","29","04:00"
"2011-05-29 05:00","2011","05","29","05:00"
"2011-05-29 06:00","2011","05","29","06:00","15.8","","13.6","","87","","","","0","","8.0","","100.23","","","","","","Fog"
"2011-05-29 07:00","2011","05","29","07:00","18.8","","14.5","","76","","18","","6","","9.7","","100.20","","","","","","Fog"
"2011-05-29 08:00","2011","05","29","08:00","21.8","","16.2","","70","","17","","15","","12.9","","100.20","","27","","","","Mainly Clear"
"2011-05-29 09:00","2011","05","29","09:00","24.2","","16.5","","62","","18","","15","","19.3","","100.16","","29","","","","Mostly Cloudy"
"2011-05-29 10:00","2011","05","29","10:00","21.0","","15.8","","72","","33","","11","","19.3","","100.22","","25","","","","Cloudy"
"2011-05-29 11:00","2011","05","29","11:00","18.5","","14.7","","79","","","","0","","6.4","","100.26","","","","","","Haze"
"2011-05-29 12:00","2011","05","29","12:00","23.8","","18.1","","70","","25","","7","","19.3","","100.16","","30","","","","Cloudy"
"2011-05-29 13:00","2011","05","29","13:00","17.6","","14.0","","79","","35","","11","","16.1","","100.22","","","","","","Mostly Cloudy"
"2011-05-29 14:00","2011","05","29","14:00","17.7","","14.6","","82","","1","","11","","16.1","","100.28","","","","","","Cloudy"
"2011-05-29 15:00","2011","05","29","15:00","18.6","","14.9","","79","","","","0","","12.9","","100.32","","","","","","Cloudy"
"2011-05-29 16:00","2011","05","29","16:00","20.1","","15.7","","76","","10","","4","","11.3","","100.31","","25","","","","Cloudy"
"2011-05-29 17:00","2011","05","29","17:00","21.3","","16.9","","76","","","","0","","11.3","","100.31","","27","","","","Cloudy"
"2011-05-29 18:00","2011","05","29","18:00","22.7","","17.8","","74","","","","0","","12.9","","100.28","","29","","","","Cloudy"
"2011-05-29 19:00","2011","05","29","19:00","20.3","","17.2","","82","","36","","6","","12.9","","100.25","","26","","","","Cloudy"
"2011-05-29 20:00","2011","05","29","20:00","18.5","","16.5","","88","","17","","9","","4.8","","100.31","","","","","","Thunderstorms,Rain Showers,Fog"
"2011-05-29 21:00","2011","05","29","21:00"
"2011-05-29 22:00","2011","05","29","22:00"
"2011-05-29 23:00","2011","05","29","23:00"
"2011-05-30 00:00","2011","05","30","00:00"
"2011-05-30 01:00","2011","05","30","01:00"
"2011-05-30 02:00","2011","05","30","02:00"
"2011-05-30 03:00","2011","05","30","03:00"
"2011-05-30 04:00","2011","05","30","04:00"
"2011-05-30 05:00","2011","05","30","05:00"
"2011-05-30 06:00","2011","05","30","06:00","18.9","","17.2","","90","","21","","9","","4.0","","100.76","","","","","","Fog"
"2011-05-30 07:00","2011","05","30","07:00","19.6","","18.6","","94","","18","","6","","6.4","","100.83","","","","","","Fog"
"2011-05-30 08:00","2011","05","30","08:00","20.2","","18.7","","91","","","","0","","8.0","","100.88","","27","","","","Fog"
"2011-05-30 09:00","2011","05","30","09:00","20.8","","19.3","","91","","36","","7","","4.0","","100.90","","28","","","","Fog"
"2011-05-30 10:00","2011","05","30","10:00","20.7","","18.7","","88","","","","0","","4.8","","100.91","","27","","","","Fog"
"2011-05-30 11:00","2011","05","30","11:00","21.0","","18.7","","87","","","","0","","4.8","","100.91","","28","","","","Fog"
"2011-05-30 12:00","2011","05","30","12:00","21.0","","18.5","","86","","36","","9","","4.8","","100.93","","27","","","","Haze"
"2011-05-30 13:00","2011","05","30","13:00","22.7","","19.2","","81","","32","","11","","8.0","","100.91","","30","","","","Haze"
"2011-05-30 14:00","2011","05","30","14:00","23.3","","19.5","","79","","2","","9","","8.0","","100.89","","30","","","","Haze"
"2011-05-30 15:00","2011","05","30","15:00","23.3","","19.5","","79","","2","","19","","8.0","","100.85","","30","","","","Haze"
"2011-05-30 16:00","2011","05","30","16:00","23.0","","19.3","","80","","2","","9","","9.7","","100.84","","30","","","","Haze"
"2011-05-30 17:00","2011","05","30","17:00","23.9","","19.5","","76","","4","","9","","8.0","","100.82","","31","","","","Haze"
"2011-05-30 18:00","2011","05","30","18:00","23.2","","18.6","","75","","3","","9","","8.0","","100.84","","30","","","","Haze"
"2011-05-30 19:00","2011","05","30","19:00","21.9","","17.8","","78","","6","","9","","8.0","","100.84","","28","","","","Haze"
"2011-05-30 20:00","2011","05","30","20:00","21.2","","17.5","","79","","","","0","","9.7","","100.84","","27","","","","Haze"
"2011-05-30 21:00","2011","05","30","21:00"
"2011-05-30 22:00","2011","05","30","22:00"
"2011-05-30 23:00","2011","05","30","23:00"
"2011-05-31 00:00","2011","05","31","00:00"
"2011-05-31 01:00","2011","05","31","01:00"
"2011-05-31 02:00","2011","05","31","02:00"
"2011-05-31 03:00","2011","05","31","03:00"
"2011-05-31 04:00","2011","05","31","04:00"
"2011-05-31 05:00","2011","05","31","05:00"
"2011-05-31 06:00","2011","05","31","06:00","16.2","","13.8","","86","","19","","6","","12.9","","100.98","","","","","","Mainly Clear"
"2011-05-31 07:00","2011","05","31","07:00","19.1","","15.8","","81","","","","0","","12.9","","101.03","","","","","","Mainly Clear"
"2011-05-31 08:00","2011","05","31","08:00","22.6","","18.6","","78","","","","0","","12.9","","101.02","","29","","","","Mainly Clear"
"2011-05-31 09:00","2011","05","31","09:00","21.7","","17.1","","75","","34","","11","","12.9","","101.00","","27","","","","Clear"
"2011-05-31 10:00","2011","05","31","10:00","21.7","","16.4","","72","","","","0","","16.1","","100.96","","27","","","","Clear"
"2011-05-31 11:00","2011","05","31","11:00","26.6","","20.2","","68","","","","0","","16.1","","100.92","","34","","","","Clear"
"2011-05-31 12:00","2011","05","31","12:00","30.7","","22.2","","61","","","","0","","19.3","","100.87","","40","","","","Clear"
"2011-05-31 13:00","2011","05","31","13:00","31.7","","22.1","","57","","21","","9","","24.1","","100.84","","41","","","","Mainly Clear"
"2011-05-31 14:00","2011","05","31","14:00","32.5","","20.8","","50","","24","","19","","24.1","","100.80","","41","","","","Clear"
"2011-05-31 15:00","2011","05","31","15:00","31.7","","20.7","","52","","23","","22","","19.3","","100.76","","40","","","","Clear"
"2011-05-31 16:00","2011","05","31","16:00","31.4","","20.7","","53","","22","","22","","19.3","","100.72","","40","","","","Mainly Clear"
"2011-05-31 17:00","2011","05","31","17:00","30.3","","20.9","","57","","21","","19","","19.3","","100.68","","39","","","","Mainly Clear"
"2011-05-31 18:00","2011","05","31","18:00","29.3","","20.4","","59","","21","","19","","19.3","","100.57","","37","","","","Mainly Clear"
"2011-05-31 19:00","2011","05","31","19:00","27.9","","19.6","","61","","21","","19","","19.3","","100.54","","35","","","","Mainly Clear"
"2011-05-31 20:00","2011","05","31","20:00","26.6","","19.3","","64","","20","","19","","16.1","","100.50","","34","","","","Mainly Clear"
"2011-05-31 21:00","2011","05","31","21:00"
"2011-05-31 22:00","2011","05","31","22:00"
"2011-05-31 23:00","2011","05","31","23:00"
