"Station Name","ST. CATHARINES / NIAGARA DISTRICT A"
"Province","ONTARIO"
"Latitude","43.19"
"Longitude","-79.17"
"Elevation","97.80"
"Climate Identifier","6137286"
"WMO Identifier",""
"TC Identifier","YSN"
"All times are specified in Local Standard Time (LST). Add 1 hour to adjust for Daylight Saving Time where and when it is observed."

"Legend"
"E","Estimated"
"M","Missing"
"NA","Not Available"

"Date/Time","Year","Month","Day","Time","Temp (°C)","Temp Flag","Dew Point Temp (°C)","Dew Point Temp Flag","Rel Hum (%)","Rel Hum Flag","Wind Dir (10s deg)","Wind Dir Flag","Wind Spd (km/h)","Wind Spd Flag","Visibility (km)","Visibility Flag","Stn Press (kPa)","Stn Press Flag","Hmdx","Hmdx Flag","Wind Chill","Wind Chill Flag","Weather"
"2016-04-01 00:00","2016","04","01","00:00"
"2016-04-01 01:00","2016","04","01","01:00"
"2016-04-01 02:00","2016","04","01","02:00"
"2016-04-01 03:00","2016","04","01","03:00"
"2016-04-01 04:00","2016","04","01","04:00"
"2016-04-01 05:00","2016","04","01","05:00"
"2016-04-01 06:00","2016","04","01","06:00","11.5","","8.9","","84","","23","","15","","16.1","","98.67","","","","","","NA"
"2016-04-01 07:00","2016","04","01","07:00","10.6","","8.7","","88","","23","","14","","24.1","","98.72","","","","","","Mostly Cloudy"
"2016-04-01 08:00","2016","04","01","08:00","10.8","","8.2","","84","","21","","19","","24.1","","98.78","","","","","","NA"
"2016-04-01 09:00","2016","04","01","09:00","12.8","","9.1","","78","","26","","23","","24.1","","98.78","","","","","","NA"
"2016-04-01 10:00","2016","04","01","10:00","10.0","","6.2","","77","","30","","20","","24.1","","98.80","","","","","","Mostly Cloudy"
"2016-04-01 11:00","2016","04","01","11:00","8.3","","5.1","","80","","29","","33","","24.1","","98.86","","","","","","NA"
"2016-04-01 12:00","2016","04","01","12:00","7.5","","4.3","","80","","28","","30","","24.1","","98.95","","","","","","NA"
"2016-04-01 13:00","2016","04","01","13:00","7.6","","4.4","","80","","29","","21","","24.1","","99.07","","","","","","Cloudy"
"2016-04-01 14:00","2016","04","01","14:00","8.5","","4.0","","73","","26","","30","","24.1","","99.10","","","","","","NA"
"2016-04-01 15:00","2016","04","01","15:00","6.8","","1.9","","71","","29","","27","","24.1","","99.09","","","","","","NA"
"2016-04-01 16:00","2016","04","01","16:00","6.7","","0.6","","65","","29","","29","","24.1","","99.21","","","","","","Mostly Cloudy"
"2016-04-01 17:00","2016","04","01","17:00","6.9","","0.1","","62","","29","","25","","24.1","","99.29","","","","","","NA"
"2016-04-01 18:00","2016","04","01","18:00","6.5","","0.0","","63","","29","","23","","24.1","","99.37","","","","","","NA"
"2016-04-01 19:00","2016","04","01","19:00","6.0","","0.1","","66","","25","","11","","24.1","","99.40","","","","","","Mostly Cloudy"
"2016-04-01 20:00","2016","04","01","20:00","5.0","","0.2","","71","","25","","5","","24.1","","99.44","","","","","","NA"
"2016-04-01 21:00","2016","04","01","21:00"
"2016-04-01 22:00","2016","04","01","22:00"
"2016-04-01 23:00","2016","04","01","23:00"
"2016-04-02 00:00","2016","04","02","00:00"
"2016-04-02 01:00","2016","04","02","01:00"
"2016-04-02 02:00","2016","04","02","02:00"
"2016-04-02 03:00","2016","04","02","03:00"
"2016-04-02 04:00","2016","04","02","04:00"
"2016-04-02 05:00","2016","04","02","05:00"
"2016-04-02 06:00","2016","04","02","06:00","3.6","","1.0","","83","","29","","26","","9.7","","98.86","","","","","","Rain"
"2016-04-02 07:00","2016","04","02","07:00","1.2","","-0.3","","90","","28","","18","","24.1","","98.94","","","","","","Cloudy"
"2016-04-02 08:00","2016","04","02","08:00","2.2","","-1.2","","78","","27","","22","","24.1","","98.96","","","","","","NA"
"2016-04-02 09:00","2016","04","02","09:00","2.5","","-2.4","","70","","27","","21","","24.1","","98.96","","","","","","NA"
"2016-04-02 10:00","2016","04","02","10:00","3.9","","-2.9","","61","","24","","18","","24.1","","98.94","","","","","","Mostly Cloudy"
"2016-04-02 11:00","2016","04","02","11:00","3.3","","-3.1","","63","","31","","19","","24.1","","98.84","","","","","","NA"
"2016-04-02 12:00","2016","04","02","12:00","4.8","","-1.2","","65","","31","","15","","24.1","","98.74","","","","","","NA"
"2016-04-02 13:00","2016","04","02","13:00","4.5","","-2.8","","59","","26","","12","","24.1","","98.66","","","","","","Cloudy"
"2016-04-02 14:00","2016","04","02","14:00","2.1","","0.5","","89","","23","","29","","2.4","","98.63","","","","","","Snow Showers"
"2016-04-02 15:00","2016","04","02","15:00","2.4","","-1.2","","77","","26","","14","","24.1","","98.53","","","","","","NA"
"2016-04-02 16:00","2016","04","02","16:00","0.3","","-0.3","","96","","29","","11","","1.2","","98.55","","","","","","Snow Showers"
"2016-04-02 17:00","2016","04","02","17:00","0.4","","-0.3","","95","","27","","16","","4.8","","98.52","","","","","","Snow Showers"
"2016-04-02 18:00","2016","04","02","18:00","0.2","","-0.2","","97","","9","","5","","3.2","","98.45","","","","","","Snow Showers"
"2016-04-02 19:00","2016","04","02","19:00","0.4","","0.0","","97","","10","","6","","4.8","","98.40","","","","","","Snow Showers"
"2016-04-02 20:00","2016","04","02","20:00","0.2","","-0.2","","97","","36","","20","","3.2","","98.45","","","","","","Snow Showers"
"2016-04-02 21:00","2016","04","02","21:00"
"2016-04-02 22:00","2016","04","02","22:00"
"2016-04-02 23:00","2016","04","02","23:00"
"2016-04-03 00:00","2016","04","03","00:00"
"2016-04-03 01:00","2016","04","03","01:00"
"2016-04-03 02:00","2016","04","03","02:00"
"2016-04-03 03:00","2016","04","03","03:00"
"2016-04-03 04:00","2016","04","03","04:00"
"2016-04-03 05:00","2016","04","03","05:00"
"2016-04-03 06:00","2016","04","03","06:00","-5.1","","-12.6","","56","","32","","39","","24.1","","99.97","","","","-14","","NA"
"2016-04-03 07:00","2016","04","03","07:00","-5.1","","-11.7","","60","","30","","22","","24.1","","100.16","","","","-12","","Mainly Clear"
"2016-04-03 08:00","2016","04","03","08:00","-4.6","","-12.6","","54","","31","","24","","24.1","","100.26","","","","-12","","NA"
"2016-04-03 09:00","2016","04","03","09:00","-4.2","","-13.4","","49","","30","","27","","24.1","","100.34","","","","-12","","NA"
"2016-04-03 10:00","2016","04","03","10:00","-3.7","","-12.0","","53","","28","","24","","24.1","","100.41","","","","-11","","Mostly Cloudy"
"2016-04-03 11:00","2016","04","03","11:00","-3.0","","-12.6","","48","","29","","25","","24.1","","100.44","","","","-10","","NA"
"2016-04-03 12:00","2016","04","03","12:00","-2.2","","-9.8","","56","","28","","15","","24.1","","100.42","","","","-7","","NA"
"2016-04-03 13:00","2016","04","03","13:00","-1.6","","-9.1","","57","","30","","19","","24.1","","100.38","","","","-7","","Mostly Cloudy"
"2016-04-03 14:00","2016","04","03","14:00","-1.7","","-9.4","","56","","30","","25","","19.3","","100.35","","","","-8","","Snow"
"2016-04-03 15:00","2016","04","03","15:00","-2.3","","-6.5","","73","","25","","22","","6.4","","100.32","","","","-8","","Snow"
"2016-04-03 16:00","2016","04","03","16:00","-2.5","","-6.3","","75","","27","","19","","6.4","","100.31","","","","-8","","Snow"
"2016-04-03 17:00","2016","04","03","17:00","-2.4","","-6.1","","76","","27","","12","","6.4","","100.26","","","","-7","","Snow"
"2016-04-03 18:00","2016","04","03","18:00","-3.2","","-4.6","","90","","26","","6","","1.6","","100.26","","","","-6","","Snow"
"2016-04-03 19:00","2016","04","03","19:00","-3.4","","-4.7","","91","","7","","4","","2.4","","100.28","","","","-5","","Snow"
"2016-04-03 20:00","2016","04","03","20:00","-3.5","","-4.3","","94","","11","","10","","1.6","","100.26","","","","-7","","Snow"
"2016-04-03 21:00","2016","04","03","21:00"
"2016-04-03 22:00","2016","04","03","22:00"
"2016-04-03 23:00","2016","04","03","23:00"
"2016-04-04 00:00","2016","04","04","00:00"
"2016-04-04 01:00","2016","04","04","01:00"
"2016-04-04 02:00","2016","04","04","02:00"
"2016-04-04 03:00","2016","04","04","03:00"
"2016-04-04 04:00","2016","04","04","04:00"
"2016-04-04 05:00","2016","04","04","05:00"
"2016-04-04 06:00","2016","04","04","06:00","-2.6","","-4.0","","90","","5","","34","","3.2","","99.85","","","","-10","","Snow"
"2016-04-04 07:00","2016","04","04","07:00","-3.5","","-5.7","","85","","5","","40","","6.4","","99.93","","","","-12","","Snow,Blowing Snow"
"2016-04-04 08:00","2016","04","04","08:00","-3.8","","-6.3","","83","","6","","40","","16.1","","100.11","","","","-12","","Snow,Blowing Snow"
"2016-04-04 09:00","2016","04","04","09:00","-3.8","","-6.6","","81","","5","","35","","16.1","","100.20","","","","-12","","Snow,Blowing Snow"
"2016-04-04 10:00","2016","04","04","10:00","-4.1","","-7.2","","79","","4","","31","","9.7","","100.33","","","","-12","","Snow,Blowing Snow"
"2016-04-04 11:00","2016","04","04","11:00","-3.8","","-8.0","","73","","4","","33","","12.9","","100.45","","","","-12","","Snow,Blowing Snow"
"2016-04-04 12:00","2016","04","04","12:00","-3.8","","-8.1","","72","","4","","30","","24.1","","100.56","","","","-11","","Snow,Blowing Snow"
"2016-04-04 13:00","2016","04","04","13:00","-3.7","","-8.4","","70","","2","","24","","9.7","","100.65","","","","-11","","Snow"
"2016-04-04 14:00","2016","04","04","14:00","-2.8","","-8.7","","64","","1","","19","","12.9","","100.70","","","","-9","","Snow"
"2016-04-04 15:00","2016","04","04","15:00","-2.9","","-9.0","","63","","3","","19","","19.3","","100.74","","","","-9","","Snow"
"2016-04-04 16:00","2016","04","04","16:00","-2.5","","-10.1","","56","","36","","15","","24.1","","100.79","","","","-7","","Mostly Cloudy"
"2016-04-04 17:00","2016","04","04","17:00","-2.6","","-10.2","","56","","2","","7","","24.1","","100.85","","","","-5","","NA"
"2016-04-04 18:00","2016","04","04","18:00","-2.6","","-10.7","","54","","6","","9","","24.1","","100.93","","","","-6","","NA"
"2016-04-04 19:00","2016","04","04","19:00","-2.5","","-11.6","","50","","35","","9","","24.1","","101.00","","","","-6","","Mostly Cloudy"
"2016-04-04 20:00","2016","04","04","20:00","-2.9","","-11.0","","54","","33","","20","","24.1","","101.09","","","","-9","","NA"
"2016-04-04 21:00","2016","04","04","21:00"
"2016-04-04 22:00","2016","04","04","22:00"
"2016-04-04 23:00","2016","04","04","23:00"
"2016-04-05 00:00","2016","04","05","00:00"
"2016-04-05 01:00","2016","04","05","01:00"
"2016-04-05 02:00","2016","04","05","02:00"
"2016-04-05 03:00","2016","04","05","03:00"
"2016-04-05 04:00","2016","04","05","04:00"
"2016-04-05 05:00","2016","04","05","05:00"
"2016-04-05 06:00","2016","04","05","06:00","-5.1","","-14.0","","50","","1","","14","","24.1","","101.80","","","","-10","","NA"
"2016-04-05 07:00","2016","04","05","07:00","-4.2","","-12.7","","52","","3","","15","","24.1","","101.91","","","","-10","","Clear"
"2016-04-05 08:00","2016","04","05","08:00","-3.6","","-13.1","","48","","3","","17","","24.1","","102.00","","","","-9","","NA"
"2016-04-05 09:00","2016","04","05","09:00","-3.3","","-13.6","","45","","3","","13","","24.1","","102.08","","","","-8","","NA"
"2016-04-05 10:00","2016","04","05","10:00","-3.0","","-15.8","","37","","35","","15","","24.1","","102.10","","","","-8","","Clear"
"2016-04-05 11:00","2016","04","05","11:00","-2.9","","-15.4","","38","","5","","10","","24.1","","102.14","","","","-7","","NA"
"2016-04-05 12:00","2016","04","05","12:00","-2.6","","-15.4","","37","","35","","7","","24.1","","102.07","","","","-5","","NA"
"2016-04-05 13:00","2016","04","05","13:00","-2.1","","-14.0","","40","","36","","8","","24.1","","102.05","","","","-5","","Clear"
"2016-04-05 14:00","2016","04","05","14:00","-1.9","","-15.1","","36","","36","","2","","24.1","","102.04","","","","-3","","NA"
"2016-04-05 15:00","2016","04","05","15:00","-1.0","","-15.8","","32","","27","","9","","24.1","","101.96","","","","-4","","NA"
"2016-04-05 16:00","2016","04","05","16:00","-0.1","","-13.5","","36","","30","","4","","24.1","","101.91","","","","-1","","Clear"
"2016-04-05 17:00","2016","04","05","17:00","-0.2","","-13.6","","36","","23","","15","","24.1","","101.87","","","","-5","","NA"
"2016-04-05 18:00","2016","04","05","18:00","-0.2","","-11.1","","44","","24","","16","","24.1","","101.80","","","","-5","","NA"
"2016-04-05 19:00","2016","04","05","19:00","-1.5","","-9.0","","57","","21","","19","","24.1","","101.72","","","","-7","","Mainly Clear"
"2016-04-05 20:00","2016","04","05","20:00","-2.5","","-8.4","","64","","21","","14","","24.1","","101.72","","","","-7","","NA"
"2016-04-05 21:00","2016","04","05","21:00"
"2016-04-05 22:00","2016","04","05","22:00"
"2016-04-05 23:00","2016","04","05","23:00"
"2016-04-06 00:00","2016","04","06","00:00"
"2016-04-06 01:00","2016","04","06","01:00"
"2016-04-06 02:00","2016","04","06","02:00"
"2016-04-06 03:00","2016","04","06","03:00"
"2016-04-06 04:00","2016","04","06","04:00"
"2016-04-06 05:00","2016","04","06","05:00"
"2016-04-06 06:00","2016","04","06","06:00","-0.7","","-6.7","","64","","16","","8","","24.1","","101.06","","","","-4","","NA"
"2016-04-06 07:00","2016","04","06","07:00","0.2","","-6.5","","61","","17","","19","","24.1","","100.93","","","","","","Cloudy"
"2016-04-06 08:00","2016","04","06","08:00","1.0","","-6.4","","58","","16","","18","","24.1","","100.75","","","","","","NA"
"2016-04-06 09:00","2016","04","06","09:00","0.3","","-3.6","","75","","17","","15","","14.5","","100.61","","","","","","Snow Showers"
"2016-04-06 10:00","2016","04","06","10:00","0.5","","-2.7","","79","","5","","19","","24.1","","100.38","","","","","","Cloudy"
"2016-04-06 11:00","2016","04","06","11:00","1.0","","-2.9","","75","","10","","17","","24.1","","100.36","","","","","","NA"
"2016-04-06 12:00","2016","04","06","12:00","2.5","","-3.8","","63","","11","","26","","24.1","","100.02","","","","","","NA"
"2016-04-06 13:00","2016","04","06","13:00","3.8","","-3.9","","57","","14","","19","","24.1","","99.78","","","","","","Cloudy"
"2016-04-06 14:00","2016","04","06","14:00","4.6","","-3.2","","57","","15","","21","","19.3","","99.54","","","","","","Rain Showers"
"2016-04-06 15:00","2016","04","06","15:00","4.7","","-0.7","","68","","35","","7","","19.3","","99.47","","","","","","Rain Showers"
"2016-04-06 16:00","2016","04","06","16:00","2.4","","0.6","","88","","7","","11","","16.1","","99.40","","","","","","Rain Showers"
"2016-04-06 17:00","2016","04","06","17:00","2.2","","0.9","","91","","8","","12","","16.1","","99.24","","","","","","Rain Showers"
"2016-04-06 18:00","2016","04","06","18:00","2.4","","1.4","","93","","5","","7","","16.1","","99.18","","","","","","Rain Showers"
"2016-04-06 19:00","2016","04","06","19:00","2.5","","1.6","","94","","12","","10","","12.9","","99.11","","","","","","Rain Showers"
"2016-04-06 20:00","2016","04","06","20:00","3.4","","2.7","","95","","14","","6","","12.9","","98.97","","","","","","NA"
"2016-04-06 21:00","2016","04","06","21:00"
"2016-04-06 22:00","2016","04","06","22:00"
"2016-04-06 23:00","2016","04","06","23:00"
"2016-04-07 00:00","2016","04","07","00:00"
"2016-04-07 01:00","2016","04","07","01:00"
"2016-04-07 02:00","2016","04","07","02:00"
"2016-04-07 03:00","2016","04","07","03:00"
"2016-04-07 04:00","2016","04","07","04:00"
"2016-04-07 05:00","2016","04","07","05:00"
"2016-04-07 06:00","2016","04","07","06:00","8.4","","6.0","","85","","21","","51","","16.1","","98.06","","","","","","Rain Showers"
"2016-04-07 07:00","2016","04","07","07:00","7.2","","5.0","","86","","22","","40","","19.3","","98.17","","","","","","Mostly Cloudy"
"2016-04-07 08:00","2016","04","07","08:00","7.6","","5.4","","86","","22","","34","","24.1","","98.26","","","","","","NA"
"2016-04-07 09:00","2016","04","07","09:00","6.7","","4.4","","85","","24","","32","","24.1","","98.34","","","","","","NA"
"2016-04-07 10:00","2016","04","07","10:00","6.2","","3.2","","81","","25","","31","","19.3","","98.40","","","","","","Cloudy"
"2016-04-07 11:00","2016","04","07","11:00","6.2","","3.9","","85","","23","","21","","24.1","","98.42","","","","","","NA"
"2016-04-07 12:00","2016","04","07","12:00","6.4","","3.9","","84","","24","","22","","24.1","","98.39","","","","","","NA"
"2016-04-07 13:00","2016","04","07","13:00","6.8","","2.5","","74","","25","","23","","24.1","","98.39","","","","","","Cloudy"
"2016-04-07 14:00","2016","04","07","14:00","6.0","","2.5","","78","","30","","18","","24.1","","98.35","","","","","","NA"
"2016-04-07 15:00","2016","04","07","15:00","6.5","","1.6","","71","","29","","21","","24.1","","98.30","","","","","","NA"
"2016-04-07 16:00","2016","04","07","16:00","6.4","","0.7","","67","","29","","26","","24.1","","98.30","","","","","","Mostly Cloudy"
"2016-04-07 17:00","2016","04","07","17:00","4.6","","0.7","","76","","30","","22","","24.1","","98.38","","","","","","NA"
"2016-04-07 18:00","2016","04","07","18:00","3.7","","-0.3","","75","","29","","21","","24.1","","98.50","","","","","","NA"
"2016-04-07 19:00","2016","04","07","19:00","2.9","","-0.9","","76","","29","","24","","24.1","","98.58","","","","","","Cloudy"
"2016-04-07 20:00","2016","04","07","20:00","2.3","","-1.5","","76","","29","","29","","24.1","","98.68","","","","","","NA"
"2016-04-07 21:00","2016","04","07","21:00"
"2016-04-07 22:00","2016","04","07","22:00"
"2016-04-07 23:00","2016","04","07","23:00"
"2016-04-08 00:00","2016","04","08","00:00"
"2016-04-08 01:00","2016","04","08","01:00"
"2016-04-08 02:00","2016","04","08","02:00"
"2016-04-08 03:00","2016","04","08","03:00"
"2016-04-08 04:00","2016","04","08","04:00"
"2016-04-08 05:00","2016","04","08","05:00"
"2016-04-08 06:00","2016","04","08","06:00","-2.6","","-5.6","","80","","29","","30","","3.2","","99.02","","","","-10","","Snow,Blowing Snow"
"2016-04-08 07:00","2016","04","08","07:00","-2.4","","-7.0","","71","","29","","33","","6.4","","99.09","","","","-10","","Snow,Blowing Snow"
"2016-04-08 08:00","2016","04","08","08:00","-1.9","","-7.2","","67","","29","","29","","24.1","","99.13","","","","-9","","NA"
"2016-04-08 09:00","2016","04","08","09:00","-1.3","","-6.3","","69","","29","","32","","24.1","","99.18","","","","-8","","NA"
"2016-04-08 10:00","2016","04","08","10:00","-0.3","","-5.5","","68","","28","","25","","24.1","","99.24","","","","-6","","Cloudy"
"2016-04-08 11:00","2016","04","08","11:00","0.8","","-4.6","","67","","28","","28","","24.1","","99.30","","","","","","NA"
"2016-04-08 12:00","2016","04","08","12:00","2.3","","-4.0","","63","","28","","27","","24.1","","99.37","","","","","","NA"
"2016-04-08 13:00","2016","04","08","13:00","2.3","","-5.1","","58","","29","","32","","24.1","","99.41","","","","","","Mostly Cloudy"
"2016-04-08 14:00","2016","04","08","14:00","3.7","","-4.5","","55","","29","","27","","24.1","","99.44","","","","","","NA"
"2016-04-08 15:00","2016","04","08","15:00","4.2","","-4.8","","52","","29","","24","","24.1","","99.46","","","","","","NA"
"2016-04-08 16:00","2016","04","08","16:00","4.1","","-4.1","","55","","31","","19","","24.1","","99.48","","","","","","Mostly Cloudy"
"2016-04-08 17:00","2016","04","08","17:00","4.1","","-4.4","","54","","29","","19","","24.1","","99.53","","","","","","NA"
"2016-04-08 18:00","2016","04","08","18:00","3.6","","-4.9","","54","","30","","14","","24.1","","99.58","","","","","","NA"
"2016-04-08 19:00","2016","04","08","19:00","2.9","","-4.8","","57","","29","","20","","24.1","","99.62","","","","","","Mostly Cloudy"
"2016-04-08 20:00","2016","04","08","20:00","1.9","","-6.0","","56","","29","","13","","24.1","","99.67","","","","","","NA"
"2016-04-08 21:00","2016","04","08","21:00"
"2016-04-08 22:00","2016","04","08","22:00"
"2016-04-08 23:00","2016","04","08","23:00"
"2016-04-09 00:00","2016","04","09","00:00"
"2016-04-09 01:00","2016","04","09","01:00"
"2016-04-09 02:00","2016","04","09","02:00"
"2016-04-09 03:00","2016","04","09","03:00"
"2016-04-09 04:00","2016","04","09","04:00"
"2016-04-09 05:00","2016","04","09","05:00"
"2016-04-09 06:00","2016","04","09","06:00","-2.3","","-7.4","","68","","2","","31","","24.1","","99.83","","","","-10","","NA"
"2016-04-09 07:00","2016","04","09","07:00","-2.7","","-8.0","","67","","2","","32","","24.1","","99.97","","","","-10","","Mostly Cloudy"
"2016-04-09 08:00","2016","04","09","08:00","-3.0","","-8.5","","66","","2","","28","","24.1","","100.08","","","","-10","","Snow Showers"
"2016-04-09 09:00","2016","04","09","09:00","-2.9","","-9.2","","62","","2","","28","","24.1","","100.21","","","","-10","","NA"
"2016-04-09 10:00","2016","04","09","10:00","-2.3","","-9.3","","59","","36","","26","","24.1","","100.32","","","","-9","","Mostly Cloudy"
"2016-04-09 11:00","2016","04","09","11:00","-1.4","","-10.0","","52","","34","","21","","24.1","","100.41","","","","-7","","NA"
"2016-04-09 12:00","2016","04","09","12:00","-0.6","","-8.8","","54","","33","","19","","24.1","","100.48","","","","-6","","NA"
"2016-04-09 13:00","2016","04","09","13:00","-0.4","","-10.1","","48","","31","","13","","24.1","","100.53","","","","-5","","Mostly Cloudy"
"2016-04-09 14:00","2016","04","09","14:00","0.6","","-7.9","","53","","34","","22","","24.1","","100.55","","","","","","NA"
"2016-04-09 15:00","2016","04","09","15:00","0.0","","-9.8","","48","","31","","26","","24.1","","100.60","","","","-6","","NA"
"2016-04-09 16:00","2016","04","09","16:00","-0.3","","-11.4","","43","","34","","30","","24.1","","100.70","","","","-7","","Mostly Cloudy"
"2016-04-09 17:00","2016","04","09","17:00","-0.3","","-11.2","","44","","34","","21","","24.1","","100.77","","","","-6","","NA"
"2016-04-09 18:00","2016","04","09","18:00","-1.2","","-11.4","","46","","35","","23","","24.1","","100.85","","","","-7","","NA"
"2016-04-09 19:00","2016","04","09","19:00","-2.2","","-10.8","","52","","35","","17","","24.1","","100.94","","","","-8","","Mainly Clear"
"2016-04-09 20:00","2016","04","09","20:00","-2.5","","-9.9","","57","","34","","19","","24.1","","101.06","","","","-8","","NA"
"2016-04-09 21:00","2016","04","09","21:00"
"2016-04-09 22:00","2016","04","09","22:00"
"2016-04-09 23:00","2016","04","09","23:00"
"2016-04-10 00:00","2016","04","10","00:00"
"2016-04-10 01:00","2016","04","10","01:00"
"2016-04-10 02:00","2016","04","10","02:00"
"2016-04-10 03:00","2016","04","10","03:00"
"2016-04-10 04:00","2016","04","10","04:00"
"2016-04-10 05:00","2016","04","10","05:00"
"2016-04-10 06:00","2016","04","10","06:00","-6.1","","-9.5","","77","","22","","12","","24.1","","101.45","","","","-11","","NA"
"2016-04-10 07:00","2016","04","10","07:00","-4.2","","-9.3","","68","","23","","10","","24.1","","101.46","","","","-8","","Cloudy"
"2016-04-10 08:00","2016","04","10","08:00","-3.7","","-10.0","","62","","22","","8","","24.1","","101.47","","","","-7","","NA"
"2016-04-10 09:00","2016","04","10","09:00","-3.0","","-10.2","","58","","22","","8","","24.1","","101.45","","","","-6","","NA"
"2016-04-10 10:00","2016","04","10","10:00","-1.9","","-9.6","","56","","23","","10","","24.1","","101.43","","","","-6","","Cloudy"
"2016-04-10 11:00","2016","04","10","11:00","-0.3","","-9.0","","52","","23","","15","","24.1","","101.44","","","","-5","","NA"
"2016-04-10 12:00","2016","04","10","12:00","0.7","","-8.6","","50","","18","","8","","24.1","","101.35","","","","","","NA"
"2016-04-10 13:00","2016","04","10","13:00","0.7","","-9.7","","46","","22","","12","","24.1","","101.31","","","","","","Cloudy"
"2016-04-10 14:00","2016","04","10","14:00","1.0","","-9.7","","45","","15","","13","","24.1","","101.17","","","","","","NA"
"2016-04-10 15:00","2016","04","10","15:00","1.4","","-9.3","","45","","17","","16","","19.3","","101.07","","","","","","NA"
"2016-04-10 16:00","2016","04","10","16:00","0.5","","-6.4","","60","","15","","12","","16.1","","100.94","","","","","","Cloudy"
"2016-04-10 17:00","2016","04","10","17:00","1.4","","-6.0","","58","","18","","27","","9.7","","100.87","","","","","","Snow"
"2016-04-10 18:00","2016","04","10","18:00","-0.9","","-2.0","","92","","12","","14","","3.2","","100.82","","","","-5","","Snow"
"2016-04-10 19:00","2016","04","10","19:00","-0.7","","-1.4","","95","","13","","9","","4.8","","100.74","","","","-4","","Snow"
"2016-04-10 20:00","2016","04","10","20:00","-0.4","","-1.0","","96","","11","","12","","3.2","","100.64","","","","-4","","Snow"
"2016-04-10 21:00","2016","04","10","21:00"
"2016-04-10 22:00","2016","04","10","22:00"
"2016-04-10 23:00","2016","04","10","23:00"
"2016-04-11 00:00","2016","04","11","00:00"
"2016-04-11 01:00","2016","04","11","01:00"
"2016-04-11 02:00","2016","04","11","02:00"
"2016-04-11 03:00","2016","04","11","03:00"
"2016-04-11 04:00","2016","04","11","04:00"
"2016-04-11 05:00","2016","04","11","05:00"
"2016-04-11 06:00","2016","04","11","06:00","8.3","","7.4","","94","","21","","32","","6.4","","99.70","","","","","","Moderate Rain,Fog"
"2016-04-11 07:00","2016","04","11","07:00","8.9","","7.7","","92","","21","","32","","6.4","","99.73","","","","","","Rain,Fog"
"2016-04-11 08:00","2016","04","11","08:00","8.7","","8.0","","95","","21","","25","","6.4","","99.74","","","","","","Rain,Fog"
"2016-04-11 09:00","2016","04","11","09:00","9.2","","8.0","","92","","22","","30","","19.3","","99.72","","","","","","NA"
"2016-04-11 10:00","2016","04","11","10:00","9.3","","8.2","","93","","23","","27","","16.1","","99.73","","","","","","Rain"
"2016-04-11 11:00","2016","04","11","11:00","9.4","","8.7","","95","","23","","24","","9.7","","99.75","","","","","","Rain"
"2016-04-11 12:00","2016","04","11","12:00","9.5","","8.8","","95","","22","","26","","9.7","","99.73","","","","","","Rain,Fog"
"2016-04-11 13:00","2016","04","11","13:00","10.1","","9.0","","93","","22","","27","","19.3","","99.66","","","","","","Rain"
"2016-04-11 14:00","2016","04","11","14:00","10.4","","9.6","","95","","21","","35","","6.4","","99.65","","","","","","Drizzle,Fog"
"2016-04-11 15:00","2016","04","11","15:00","10.9","","9.8","","93","","22","","36","","8.1","","99.65","","","","","","Fog"
"2016-04-11 16:00","2016","04","11","16:00","10.8","","10.0","","95","","22","","28","","4.8","","99.65","","","","","","Fog"
"2016-04-11 17:00","2016","04","11","17:00","10.7","","9.6","","93","","23","","31","","6.4","","99.71","","","","","","Fog"
"2016-04-11 18:00","2016","04","11","18:00","10.5","","9.3","","92","","22","","30","","12.9","","99.66","","","","","","NA"
"2016-04-11 19:00","2016","04","11","19:00","10.3","","9.1","","92","","21","","25","","16.1","","99.62","","","","","","Cloudy"
"2016-04-11 20:00","2016","04","11","20:00","10.6","","9.2","","91","","23","","33","","19.3","","99.71","","","","","","NA"
"2016-04-11 21:00","2016","04","11","21:00"
"2016-04-11 22:00","2016","04","11","22:00"
"2016-04-11 23:00","2016","04","11","23:00"
"2016-04-12 00:00","2016","04","12","00:00"
"2016-04-12 01:00","2016","04","12","01:00"
"2016-04-12 02:00","2016","04","12","02:00"
"2016-04-12 03:00","2016","04","12","03:00"
"2016-04-12 04:00","2016","04","12","04:00"
"2016-04-12 05:00","2016","04","12","05:00"
"2016-04-12 06:00","2016","04","12","06:00","0.6","","-2.6","","79","","24","","15","","24.1","","100.71","","","","","","NA"
"2016-04-12 07:00","2016","04","12","07:00","2.2","","-1.8","","75","","25","","16","","24.1","","100.80","","","","","","Clear"
"2016-04-12 08:00","2016","04","12","08:00","4.0","","-1.4","","68","","27","","25","","24.1","","100.86","","","","","","NA"
"2016-04-12 09:00","2016","04","12","09:00","4.6","","-1.0","","67","","29","","28","","24.1","","100.92","","","","","","NA"
"2016-04-12 10:00","2016","04","12","10:00","5.5","","-0.1","","67","","28","","23","","24.1","","101.01","","","","","","Mostly Cloudy"
"2016-04-12 11:00","2016","04","12","11:00","5.8","","-1.4","","60","","26","","28","","24.1","","101.06","","","","","","NA"
"2016-04-12 12:00","2016","04","12","12:00","5.3","","-0.7","","65","","28","","28","","24.1","","101.10","","","","","","NA"
"2016-04-12 13:00","2016","04","12","13:00","5.8","","-0.3","","65","","28","","26","","24.1","","101.15","","","","","","Mostly Cloudy"
"2016-04-12 14:00","2016","04","12","14:00","7.0","","-1.9","","53","","30","","31","","24.1","","101.20","","","","","","NA"
"2016-04-12 15:00","2016","04","12","15:00","6.4","","-2.0","","55","","30","","25","","24.1","","101.27","","","","","","NA"
"2016-04-12 16:00","2016","04","12","16:00","7.3","","-0.4","","58","","29","","25","","24.1","","101.34","","","","","","Mostly Cloudy"
"2016-04-12 17:00","2016","04","12","17:00","4.9","","-2.7","","58","","31","","25","","24.1","","101.41","","","","","","NA"
"2016-04-12 18:00","2016","04","12","18:00","4.5","","-2.6","","60","","31","","27","","24.1","","101.49","","","","","","NA"
"2016-04-12 19:00","2016","04","12","19:00","3.3","","-3.7","","60","","31","","21","","24.1","","101.57","","","","","","Mostly Cloudy"
"2016-04-12 20:00","2016","04","12","20:00","2.9","","-3.9","","61","","31","","18","","24.1","","101.63","","","","","","NA"
"2016-04-12 21:00","2016","04","12","21:00"
"2016-04-12 22:00","2016","04","12","22:00"
"2016-04-12 23:00","2016","04","12","23:00"
"2016-04-13 00:00","2016","04","13","00:00"
"2016-04-13 01:00","2016","04","13","01:00"
"2016-04-13 02:00","2016","04","13","02:00"
"2016-04-13 03:00","2016","04","13","03:00"
"2016-04-13 04:00","2016","04","13","04:00"
"2016-04-13 05:00","2016","04","13","05:00"
"2016-04-13 06:00","2016","04","13","06:00","-2.0","","-4.2","","85","","20","","4","","24.1","","102.03","","","","-3","","NA"
"2016-04-13 07:00","2016","04","13","07:00","-0.1","","-2.2","","86","","19","","5","","24.1","","102.05","","","","-2","","Mostly Cloudy"
"2016-04-13 08:00","2016","04","13","08:00","2.9","","-2.2","","69","","4","","7","","24.1","","102.09","","","","","","NA"
"2016-04-13 09:00","2016","04","13","09:00","3.5","","-2.7","","64","","9","","7","","24.1","","102.05","","","","","","NA"
"2016-04-13 10:00","2016","04","13","10:00","4.1","","-1.7","","66","","1","","10","","24.1","","102.05","","","","","","Cloudy"
"2016-04-13 11:00","2016","04","13","11:00","4.3","","-0.9","","69","","36","","16","","24.1","","102.01","","","","","","NA"
"2016-04-13 12:00","2016","04","13","12:00","5.3","","-0.3","","67","","1","","17","","24.1","","101.92","","","","","","NA"
"2016-04-13 13:00","2016","04","13","13:00","4.3","","-1.7","","65","","2","","21","","24.1","","101.86","","","","","","Cloudy"
"2016-04-13 14:00","2016","04","13","14:00","4.9","","-2.7","","58","","3","","20","","24.1","","101.82","","","","","","NA"
"2016-04-13 15:00","2016","04","13","15:00","5.4","","-2.9","","55","","3","","23","","24.1","","101.81","","","","","","NA"
"2016-04-13 16:00","2016","04","13","16:00","5.4","","-3.4","","53","","3","","23","","24.1","","101.81","","","","","","Mainly Clear"
"2016-04-13 17:00","2016","04","13","17:00","4.7","","-6.0","","46","","4","","22","","24.1","","101.80","","","","","","NA"
"2016-04-13 18:00","2016","04","13","18:00","3.8","","-5.2","","52","","4","","17","","24.1","","101.78","","","","","","NA"
"2016-04-13 19:00","2016","04","13","19:00","3.7","","-4.8","","54","","5","","12","","24.1","","101.76","","","","","","Mostly Cloudy"
"2016-04-13 20:00","2016","04","13","20:00","1.7","","-3.4","","69","","4","","10","","24.1","","101.75","","","","","","NA"
"2016-04-13 21:00","2016","04","13","21:00"
"2016-04-13 22:00","2016","04","13","22:00"
"2016-04-13 23:00","2016","04","13","23:00"
"2016-04-14 00:00","2016","04","14","00:00"
"2016-04-14 01:00","2016","04","14","01:00"
"2016-04-14 02:00","2016","04","14","02:00"
"2016-04-14 03:00","2016","04","14","03:00"
"2016-04-14 04:00","2016","04","14","04:00"
"2016-04-14 05:00","2016","04","14","05:00"
"2016-04-14 06:00","2016","04","14","06:00","-2.1","","-4.5","","84","","8","","5","","24.1","","101.82","","","","-4","","NA"
"2016-04-14 07:00","2016","04","14","07:00","0.7","","-1.7","","84","","7","","9","","24.1","","101.87","","","","","","Clear"
"2016-04-14 08:00","2016","04","14","08:00","3.5","","-0.2","","77","","8","","16","","24.1","","101.87","","","","","","NA"
"2016-04-14 09:00","2016","04","14","09:00","5.7","","-1.7","","59","","9","","18","","24.1","","101.88","","","","","","NA"
"2016-04-14 10:00","2016","04","14","10:00","7.3","","2.2","","70","","4","","20","","24.1","","101.88","","","","","","Clear"
"2016-04-14 11:00","2016","04","14","11:00","7.7","","0.0","","58","","4","","25","","24.1","","101.85","","","","","","NA"
"2016-04-14 12:00","2016","04","14","12:00","8.2","","-0.8","","53","","4","","27","","24.1","","101.82","","","","","","NA"
"2016-04-14 13:00","2016","04","14","13:00","7.8","","-2.8","","47","","4","","32","","24.1","","101.77","","","","","","Clear"
"2016-04-14 14:00","2016","04","14","14:00","8.4","","-2.2","","47","","3","","29","","24.1","","101.72","","","","","","NA"
"2016-04-14 15:00","2016","04","14","15:00","8.9","","-2.1","","46","","4","","24","","24.1","","101.66","","","","","","NA"
"2016-04-14 16:00","2016","04","14","16:00","8.9","","-3.0","","43","","6","","25","","24.1","","101.61","","","","","","Clear"
"2016-04-14 17:00","2016","04","14","17:00","8.9","","-3.6","","41","","4","","20","","24.1","","101.59","","","","","","NA"
"2016-04-14 18:00","2016","04","14","18:00","8.0","","-4.1","","42","","3","","15","","24.1","","101.57","","","","","","NA"
"2016-04-14 19:00","2016","04","14","19:00","5.6","","-4.8","","47","","4","","11","","24.1","","101.56","","","","","","Clear"
"2016-04-14 20:00","2016","04","14","20:00","4.4","","-6.0","","47","","6","","13","","24.1","","101.58","","","","","","NA"
"2016-04-14 21:00","2016","04","14","21:00"
"2016-04-14 22:00","2016","04","14","22:00"
"2016-04-14 23:00","2016","04","14","23:00"
"2016-04-15 00:00","2016","04","15","00:00"
"2016-04-15 01:00","2016","04","15","01:00"
"2016-04-15 02:00","2016","04","15","02:00"
"2016-04-15 03:00","2016","04","15","03:00"
"2016-04-15 04:00","2016","04","15","04:00"
"2016-04-15 05:00","2016","04","15","05:00"
"2016-04-15 06:00","2016","04","15","06:00","0.4","","-5.4","","65","","9","","6","","24.1","","101.62","","","","","","NA"
"2016-04-15 07:00","2016","04","15","07:00","2.5","","-3.6","","64","","8","","10","","24.1","","101.69","","","","","","Mainly Clear"
"2016-04-15 08:00","2016","04","15","08:00","6.3","","-1.4","","58","","9","","9","","24.1","","101.73","","","","","","NA"
"2016-04-15 09:00","2016","04","15","09:00","9.7","","-0.8","","48","","8","","7","","24.1","","101.75","","","","","","NA"
"2016-04-15 10:00","2016","04","15","10:00","11.6","","2.4","","53","","2","","4","","24.1","","101.78","","","","","","Mostly Cloudy"
"2016-04-15 11:00","2016","04","15","11:00","12.5","","4.5","","58","","35","","13","","24.1","","101.79","","","","","","NA"
"2016-04-15 12:00","2016","04","15","12:00","11.8","","4.6","","61","","2","","18","","24.1","","101.79","","","","","","NA"
"2016-04-15 13:00","2016","04","15","13:00","12.0","","2.5","","52","","3","","20","","24.1","","101.79","","","","","","Cloudy"
"2016-04-15 14:00","2016","04","15","14:00","13.4","","2.4","","47","","2","","19","","24.1","","101.75","","","","","","NA"
"2016-04-15 15:00","2016","04","15","15:00","14.1","","1.5","","42","","2","","18","","24.1","","101.72","","","","","","NA"
"2016-04-15 16:00","2016","04","15","16:00","15.4","","1.2","","38","","4","","18","","24.1","","101.67","","","","","","Mostly Cloudy"
"2016-04-15 17:00","2016","04","15","17:00","15.5","","0.6","","36","","6","","17","","24.1","","101.64","","","","","","NA"
"2016-04-15 18:00","2016","04","15","18:00","14.2","","1.2","","41","","6","","15","","24.1","","101.61","","","","","","NA"
"2016-04-15 19:00","2016","04","15","19:00","10.7","","1.6","","53","","5","","10","","24.1","","101.65","","","","","","Mainly Clear"
"2016-04-15 20:00","2016","04","15","20:00","9.3","","0.0","","52","","7","","10","","24.1","","101.71","","","","","","NA"
"2016-04-15 21:00","2016","04","15","21:00"
"2016-04-15 22:00","2016","04","15","22:00"
"2016-04-15 23:00","2016","04","15","23:00"
"2016-04-16 00:00","2016","04","16","00:00"
"2016-04-16 01:00","2016","04","16","01:00"
"2016-04-16 02:00","2016","04","16","02:00"
"2016-04-16 03:00","2016","04","16","03:00"
"2016-04-16 04:00","2016","04","16","04:00"
"2016-04-16 05:00","2016","04","16","05:00"
"2016-04-16 06:00","2016","04","16","06:00","0.6","","0.0","","96","","31","","4","","24.1","","101.87","","","","","","NA"
"2016-04-16 07:00","2016","04","16","07:00","5.1","","0.7","","73","","36","","1","","24.1","","101.92","","","","","","Mainly Clear"
"2016-04-16 08:00","2016","04","16","08:00","8.6","","-0.2","","54","","10","","8","","24.1","","101.91","","","","","","NA"
"2016-04-16 09:00","2016","04","16","09:00","11.8","","2.6","","53","","36","","1","","24.1","","101.95","","","","","","NA"
"2016-04-16 10:00","2016","04","16","10:00","11.5","","5.2","","65","","31","","14","","24.1","","101.95","","","","","","Mainly Clear"
"2016-04-16 11:00","2016","04","16","11:00","10.8","","4.7","","66","","34","","10","","24.1","","101.98","","","","","","NA"
"2016-04-16 12:00","2016","04","16","12:00","11.4","","5.5","","67","","1","","11","","24.1","","101.97","","","","","","NA"
"2016-04-16 13:00","2016","04","16","13:00","12.5","","6.2","","65","","36","","11","","24.1","","101.97","","","","","","Mainly Clear"
"2016-04-16 14:00","2016","04","16","14:00","15.2","","2.8","","43","","1","","16","","24.1","","101.92","","","","","","NA"
"2016-04-16 15:00","2016","04","16","15:00","17.4","","-0.7","","29","","5","","19","","24.1","","101.87","","","","","","NA"
"2016-04-16 16:00","2016","04","16","16:00","17.9","","-1.3","","27","","6","","17","","24.1","","101.81","","","","","","Clear"
"2016-04-16 17:00","2016","04","16","17:00","16.6","","-1.0","","30","","3","","16","","24.1","","101.81","","","","","","NA"
"2016-04-16 18:00","2016","04","16","18:00","12.9","","2.8","","50","","32","","11","","24.1","","101.80","","","","","","NA"
"2016-04-16 19:00","2016","04","16","19:00","7.5","","3.0","","73","","28","","9","","24.1","","101.81","","","","","","Mainly Clear"
"2016-04-16 20:00","2016","04","16","20:00","5.5","","2.5","","81","","25","","8","","16.1","","101.86","","","","","","NA"
"2016-04-16 21:00","2016","04","16","21:00"
"2016-04-16 22:00","2016","04","16","22:00"
"2016-04-16 23:00","2016","04","16","23:00"
"2016-04-17 00:00","2016","04","17","00:00"
"2016-04-17 01:00","2016","04","17","01:00"
"2016-04-17 02:00","2016","04","17","02:00"
"2016-04-17 03:00","2016","04","17","03:00"
"2016-04-17 04:00","2016","04","17","04:00"
"2016-04-17 05:00","2016","04","17","05:00"
"2016-04-17 06:00","2016","04","17","06:00","1.2","","-0.1","","91","","25","","5","","24.1","","101.92","","","","","","NA"
"2016-04-17 07:00","2016","04","17","07:00","5.1","","3.4","","89","","28","","3","","24.1","","101.98","","","","","","Mainly Clear"
"2016-04-17 08:00","2016","04","17","08:00","9.1","","2.7","","64","","35","","3","","24.1","","102.03","","","","","","NA"
"2016-04-17 09:00","2016","04","17","09:00","12.1","","4.4","","59","","1","","7","","24.1","","102.03","","","","","","NA"
"2016-04-17 10:00","2016","04","17","10:00","13.7","","5.9","","59","","1","","7","","24.1","","102.02","","","","","","Mainly Clear"
"2016-04-17 11:00","2016","04","17","11:00","15.2","","5.2","","51","","35","","11","","24.1","","101.99","","","","","","NA"
"2016-04-17 12:00","2016","04","17","12:00","13.5","","1.9","","45","","1","","17","","24.1","","101.93","","","","","","NA"
"2016-04-17 13:00","2016","04","17","13:00","13.8","","2.1","","45","","1","","11","","24.1","","101.88","","","","","","Mainly Clear"
"2016-04-17 14:00","2016","04","17","14:00","15.1","","1.7","","40","","1","","12","","24.1","","101.84","","","","","","NA"
"2016-04-17 15:00","2016","04","17","15:00","16.6","","-0.1","","32","","1","","10","","24.1","","101.77","","","","","","NA"
"2016-04-17 16:00","2016","04","17","16:00","18.4","","-1.3","","26","","6","","7","","24.1","","101.68","","","","","","Mainly Clear"
"2016-04-17 17:00","2016","04","17","17:00","19.7","","1.3","","29","","10","","6","","24.1","","101.64","","","","","","NA"
"2016-04-17 18:00","2016","04","17","18:00","19.4","","4.5","","37","","18","","4","","24.1","","101.60","","","","","","NA"
"2016-04-17 19:00","2016","04","17","19:00","17.5","","2.4","","36","","21","","4","","24.1","","101.56","","","","","","Mainly Clear"
"2016-04-17 20:00","2016","04","17","20:00","10.7","","2.6","","57","","1","","8","","24.1","","101.55","","","","","","NA"
"2016-04-17 21:00","2016","04","17","21:00"
"2016-04-17 22:00","2016","04","17","22:00"
"2016-04-17 23:00","2016","04","17","23:00"
"2016-04-18 00:00","2016","04","18","00:00"
"2016-04-18 01:00","2016","04","18","01:00"
"2016-04-18 02:00","2016","04","18","02:00"
"2016-04-18 03:00","2016","04","18","03:00"
"2016-04-18 04:00","2016","04","18","04:00"
"2016-04-18 05:00","2016","04","18","05:00"
"2016-04-18 06:00","2016","04","18","06:00","5.3","","0.7","","72","","20","","9","","24.1","","101.48","","","","","","NA"
"2016-04-18 07:00","2016","04","18","07:00","9.9","","5.9","","76","","22","","5","","24.1","","101.51","","","","","","Mostly Cloudy"
"2016-04-18 08:00","2016","04","18","08:00","14.5","","4.8","","52","","24","","5","","24.1","","101.53","","","","","","NA"
"2016-04-18 09:00","2016","04","18","09:00","17.1","","4.2","","42","","28","","5","","24.1","","101.50","","","","","","NA"
"2016-04-18 10:00","2016","04","18","10:00","19.0","","4.1","","37","","28","","5","","24.1","","101.47","","","","","","Mostly Cloudy"
"2016-04-18 11:00","2016","04","18","11:00","20.9","","2.4","","29","","28","","8","","24.1","","101.40","","","","","","NA"
"2016-04-18 12:00","2016","04","18","12:00","22.1","","2.9","","28","","2","","3","","24.1","","101.34","","","","","","NA"
"2016-04-18 13:00","2016","04","18","13:00","23.3","","5.9","","32","","27","","9","","24.1","","101.24","","","","","","Mostly Cloudy"
"2016-04-18 14:00","2016","04","18","14:00","23.9","","7.3","","34","","23","","16","","24.1","","101.16","","","","","","NA"
"2016-04-18 15:00","2016","04","18","15:00","23.2","","5.3","","31","","18","","27","","24.1","","101.04","","","","","","NA"
"2016-04-18 16:00","2016","04","18","16:00","22.3","","3.6","","29","","20","","28","","24.1","","100.98","","","","","","Cloudy"
"2016-04-18 17:00","2016","04","18","17:00","20.3","","4.5","","35","","20","","24","","24.1","","100.93","","","","","","NA"
"2016-04-18 18:00","2016","04","18","18:00","19.5","","5.0","","38","","20","","23","","19.3","","100.88","","","","","","NA"
"2016-04-18 19:00","2016","04","18","19:00","18.3","","4.6","","40","","23","","23","","19.3","","100.82","","","","","","Mostly Cloudy"
"2016-04-18 20:00","2016","04","18","20:00","16.8","","5.2","","46","","23","","18","","19.3","","100.79","","","","","","NA"
"2016-04-18 21:00","2016","04","18","21:00"
"2016-04-18 22:00","2016","04","18","22:00"
"2016-04-18 23:00","2016","04","18","23:00"
"2016-04-19 00:00","2016","04","19","00:00"
"2016-04-19 01:00","2016","04","19","01:00"
"2016-04-19 02:00","2016","04","19","02:00"
"2016-04-19 03:00","2016","04","19","03:00"
"2016-04-19 04:00","2016","04","19","04:00"
"2016-04-19 05:00","2016","04","19","05:00"
"2016-04-19 06:00","2016","04","19","06:00","6.1","","3.8","","85","","2","","21","","24.1","","101.30","","","","","","NA"
"2016-04-19 07:00","2016","04","19","07:00","6.8","","4.0","","82","","3","","13","","24.1","","101.37","","","","","","Mostly Cloudy"
"2016-04-19 08:00","2016","04","19","08:00","8.8","","4.1","","72","","4","","21","","24.1","","101.38","","","","","","NA"
"2016-04-19 09:00","2016","04","19","09:00","9.5","","3.7","","67","","3","","19","","24.1","","101.43","","","","","","NA"
"2016-04-19 10:00","2016","04","19","10:00","9.6","","3.2","","64","","2","","23","","24.1","","101.46","","","","","","Cloudy"
"2016-04-19 11:00","2016","04","19","11:00","10.0","","1.2","","54","","1","","18","","24.1","","101.49","","","","","","NA"
"2016-04-19 12:00","2016","04","19","12:00","10.8","","-0.9","","44","","2","","17","","24.1","","101.49","","","","","","NA"
"2016-04-19 13:00","2016","04","19","13:00","12.9","","-3.8","","31","","35","","10","","24.1","","101.44","","","","","","Mostly Cloudy"
"2016-04-19 14:00","2016","04","19","14:00","13.3","","0.1","","40","","32","","12","","24.1","","101.41","","","","","","NA"
"2016-04-19 15:00","2016","04","19","15:00","14.7","","-0.5","","35","","33","","9","","24.1","","101.35","","","","","","NA"
"2016-04-19 16:00","2016","04","19","16:00","14.8","","0.3","","37","","35","","6","","24.1","","101.29","","","","","","Mostly Cloudy"
"2016-04-19 17:00","2016","04","19","17:00","15.1","","-1.0","","33","","34","","5","","24.1","","101.26","","","","","","NA"
"2016-04-19 18:00","2016","04","19","18:00","14.3","","-1.3","","34","","31","","6","","19.3","","101.26","","","","","","NA"
"2016-04-19 19:00","2016","04","19","19:00","12.8","","-0.1","","41","","32","","6","","19.3","","101.27","","","","","","Mostly Cloudy"
"2016-04-19 20:00","2016","04","19","20:00","9.4","","-0.2","","51","","32","","13","","19.3","","101.33","","","","","","NA"
"2016-04-19 21:00","2016","04","19","21:00"
"2016-04-19 22:00","2016","04","19","22:00"
"2016-04-19 23:00","2016","04","19","23:00"
"2016-04-20 00:00","2016","04","20","00:00"
"2016-04-20 01:00","2016","04","20","01:00"
"2016-04-20 02:00","2016","04","20","02:00"
"2016-04-20 03:00","2016","04","20","03:00"
"2016-04-20 04:00","2016","04","20","04:00"
"2016-04-20 05:00","2016","04","20","05:00"
"2016-04-20 06:00","2016","04","20","06:00","0.6","","-1.5","","86","","25","","5","","24.1","","101.59","","","","","","NA"
"2016-04-20 07:00","2016","04","20","07:00","6.2","","2.7","","78","","36","","2","","24.1","","101.61","","","","","","Clear"
"2016-04-20 08:00","2016","04","20","08:00","9.1","","1.5","","59","","10","","12","","24.1","","101.60","","","","","","NA"
"2016-04-20 09:00","2016","04","20","09:00","11.5","","1.8","","51","","8","","11","","24.1","","101.60","","","","","","NA"
"2016-04-20 10:00","2016","04","20","10:00","11.4","","2.7","","55","","1","","15","","24.1","","101.57","","","","","","Clear"
"2016-04-20 11:00","2016","04","20","11:00","12.1","","3.1","","54","","4","","18","","24.1","","101.52","","","","","","NA"
"2016-04-20 12:00","2016","04","20","12:00","12.1","","3.1","","54","","1","","21","","24.1","","101.47","","","","","","NA"
"2016-04-20 13:00","2016","04","20","13:00","11.3","","3.1","","57","","4","","21","","24.1","","101.41","","","","","","Clear"
"2016-04-20 14:00","2016","04","20","14:00","12.4","","2.9","","52","","5","","20","","24.1","","101.34","","","","","","NA"
"2016-04-20 15:00","2016","04","20","15:00","12.5","","2.1","","49","","4","","19","","24.1","","101.29","","","","","","NA"
"2016-04-20 16:00","2016","04","20","16:00","12.2","","-4.8","","30","","6","","21","","24.1","","101.17","","","","","","Mainly Clear"
"2016-04-20 17:00","2016","04","20","17:00","11.8","","-5.6","","29","","4","","16","","24.1","","101.12","","","","","","NA"
"2016-04-20 18:00","2016","04","20","18:00","9.9","","-3.4","","39","","3","","12","","24.1","","101.07","","","","","","NA"
"2016-04-20 19:00","2016","04","20","19:00","7.7","","-2.6","","48","","7","","9","","24.1","","100.97","","","","","","Mostly Cloudy"
"2016-04-20 20:00","2016","04","20","20:00","7.6","","-2.2","","50","","3","","7","","24.1","","100.91","","","","","","NA"
"2016-04-20 21:00","2016","04","20","21:00"
"2016-04-20 22:00","2016","04","20","22:00"
"2016-04-20 23:00","2016","04","20","23:00"
"2016-04-21 00:00","2016","04","21","00:00"
"2016-04-21 01:00","2016","04","21","01:00"
"2016-04-21 02:00","2016","04","21","02:00"
"2016-04-21 03:00","2016","04","21","03:00"
"2016-04-21 04:00","2016","04","21","04:00"
"2016-04-21 05:00","2016","04","21","05:00"
"2016-04-21 06:00","2016","04","21","06:00","4.2","","3.0","","92","","19","","5","","24.1","","100.42","","","","","","NA"
"2016-04-21 07:00","2016","04","21","07:00","6.7","","4.4","","85","","26","","7","","24.1","","100.43","","","","","","Mostly Cloudy"
"2016-04-21 08:00","2016","04","21","08:00","7.8","","4.4","","79","","29","","9","","24.1","","100.41","","","","","","NA"
"2016-04-21 09:00","2016","04","21","09:00","9.3","","2.9","","64","","32","","6","","24.1","","100.36","","","","","","NA"
"2016-04-21 10:00","2016","04","21","10:00","12.4","","3.1","","53","","32","","6","","24.1","","100.30","","","","","","Mostly Cloudy"
"2016-04-21 11:00","2016","04","21","11:00","13.0","","4.2","","55","","32","","7","","24.1","","100.26","","","","","","NA"
"2016-04-21 12:00","2016","04","21","12:00","13.1","","4.6","","56","","33","","6","","24.1","","100.24","","","","","","NA"
"2016-04-21 13:00","2016","04","21","13:00","10.4","","4.8","","68","","32","","12","","19.3","","100.25","","","","","","Rain Showers"
"2016-04-21 14:00","2016","04","21","14:00","12.8","","5.8","","62","","","","0","","16.1","","100.25","","","","","","Rain Showers"
"2016-04-21 15:00","2016","04","21","15:00","14.0","","8.9","","71","","36","","3","","19.3","","100.20","","","","","","Rain Showers"
"2016-04-21 16:00","2016","04","21","16:00","16.3","","11.5","","73","","21","","12","","19.3","","100.11","","","","","","Rain Showers"
"2016-04-21 17:00","2016","04","21","17:00","17.1","","10.8","","66","","20","","18","","24.1","","100.03","","","","","","NA"
"2016-04-21 18:00","2016","04","21","18:00","15.6","","9.3","","66","","18","","23","","24.1","","99.99","","","","","","NA"
"2016-04-21 19:00","2016","04","21","19:00","15.2","","9.4","","68","","19","","21","","24.1","","99.94","","","","","","Cloudy"
"2016-04-21 20:00","2016","04","21","20:00","16.1","","10.3","","68","","19","","17","","24.1","","99.93","","","","","","NA"
"2016-04-21 21:00","2016","04","21","21:00"
"2016-04-21 22:00","2016","04","21","22:00"
"2016-04-21 23:00","2016","04","21","23:00"
"2016-04-22 00:00","2016","04","22","00:00"
"2016-04-22 01:00","2016","04","22","01:00"
"2016-04-22 02:00","2016","04","22","02:00"
"2016-04-22 03:00","2016","04","22","03:00"
"2016-04-22 04:00","2016","04","22","04:00"
"2016-04-22 05:00","2016","04","22","05:00"
"2016-04-22 06:00","2016","04","22","06:00","14.4","","11.9","","85","","23","","17","","12.9","","99.85","","","","","","Rain Showers"
"2016-04-22 07:00","2016","04","22","07:00","14.8","","12.3","","85","","22","","17","","16.1","","99.89","","","","","","Cloudy"
"2016-04-22 08:00","2016","04","22","08:00","15.4","","12.9","","85","","27","","16","","9.7","","99.94","","","","","","Fog"
"2016-04-22 09:00","2016","04","22","09:00","17.4","","14.0","","80","","29","","12","","9.7","","99.94","","","","","","Fog"
"2016-04-22 10:00","2016","04","22","10:00","17.5","","13.5","","77","","23","","15","","12.9","","99.96","","","","","","Cloudy"
"2016-04-22 11:00","2016","04","22","11:00","19.1","","12.9","","67","","25","","9","","12.9","","99.95","","","","","","NA"
"2016-04-22 12:00","2016","04","22","12:00","19.8","","13.4","","66","","31","","19","","16.1","","99.94","","","","","","NA"
"2016-04-22 13:00","2016","04","22","13:00","18.6","","13.3","","71","","32","","13","","16.1","","99.93","","","","","","Thunderstorms"
"2016-04-22 14:00","2016","04","22","14:00","18.5","","13.0","","70","","34","","6","","12.9","","99.97","","","","","","NA"
"2016-04-22 15:00","2016","04","22","15:00","12.6","","10.3","","86","","35","","7","","9.7","","100.03","","","","","","Rain Showers,Fog"
"2016-04-22 16:00","2016","04","22","16:00","14.1","","12.5","","90","","10","","4","","9.7","","100.04","","","","","","Fog"
"2016-04-22 17:00","2016","04","22","17:00","14.4","","10.3","","76","","2","","10","","16.1","","100.08","","","","","","NA"
"2016-04-22 18:00","2016","04","22","18:00","12.6","","8.3","","75","","35","","13","","19.3","","100.14","","","","","","NA"
"2016-04-22 19:00","2016","04","22","19:00","11.0","","7.5","","79","","36","","23","","24.1","","100.21","","","","","","Mostly Cloudy"
"2016-04-22 20:00","2016","04","22","20:00","9.3","","6.6","","83","","35","","18","","24.1","","100.34","","","","","","NA"
"2016-04-22 21:00","2016","04","22","21:00"
"2016-04-22 22:00","2016","04","22","22:00"
"2016-04-22 23:00","2016","04","22","23:00"
"2016-04-23 00:00","2016","04","23","00:00"
"2016-04-23 01:00","2016","04","23","01:00"
"2016-04-23 02:00","2016","04","23","02:00"
"2016-04-23 03:00","2016","04","23","03:00"
"2016-04-23 04:00","2016","04","23","04:00"
"2016-04-23 05:00","2016","04","23","05:00"
"2016-04-23 06:00","2016","04","23","06:00","4.4","","0.6","","76","","2","","22","","24.1","","100.79","","","","","","NA"
"2016-04-23 07:00","2016","04","23","07:00","4.4","","-0.2","","72","","2","","23","","24.1","","100.89","","","","","","Mostly Cloudy"
"2016-04-23 08:00","2016","04","23","08:00","5.3","","0.1","","69","","1","","23","","24.1","","100.92","","","","","","NA"
"2016-04-23 09:00","2016","04","23","09:00","5.6","","0.2","","68","","3","","16","","24.1","","100.98","","","","","","NA"
"2016-04-23 10:00","2016","04","23","10:00","6.1","","-0.4","","63","","2","","22","","24.1","","100.99","","","","","","Clear"
"2016-04-23 11:00","2016","04","23","11:00","6.8","","-0.4","","60","","1","","21","","24.1","","101.01","","","","","","NA"
"2016-04-23 12:00","2016","04","23","12:00","7.0","","-3.5","","47","","3","","18","","24.1","","100.98","","","","","","NA"
"2016-04-23 13:00","2016","04","23","13:00","9.2","","-4.4","","38","","6","","13","","24.1","","100.97","","","","","","Clear"
"2016-04-23 14:00","2016","04","23","14:00","10.6","","-5.4","","32","","1","","10","","24.1","","100.92","","","","","","NA"
"2016-04-23 15:00","2016","04","23","15:00","10.9","","-5.1","","32","","1","","8","","24.1","","100.89","","","","","","NA"
"2016-04-23 16:00","2016","04","23","16:00","11.6","","-4.9","","31","","33","","3","","24.1","","100.85","","","","","","Mainly Clear"
"2016-04-23 17:00","2016","04","23","17:00","12.2","","-7.2","","25","","1","","5","","24.1","","100.79","","","","","","NA"
"2016-04-23 18:00","2016","04","23","18:00","11.5","","-6.4","","28","","1","","9","","24.1","","100.75","","","","","","NA"
"2016-04-23 19:00","2016","04","23","19:00","10.1","","-6.3","","31","","36","","5","","24.1","","100.75","","","","","","Mostly Cloudy"
"2016-04-23 20:00","2016","04","23","20:00","8.1","","-4.4","","41","","31","","5","","24.1","","100.80","","","","","","NA"
"2016-04-23 21:00","2016","04","23","21:00"
"2016-04-23 22:00","2016","04","23","22:00"
"2016-04-23 23:00","2016","04","23","23:00"
"2016-04-24 00:00","2016","04","24","00:00"
"2016-04-24 01:00","2016","04","24","01:00"
"2016-04-24 02:00","2016","04","24","02:00"
"2016-04-24 03:00","2016","04","24","03:00"
"2016-04-24 04:00","2016","04","24","04:00"
"2016-04-24 05:00","2016","04","24","05:00"
"2016-04-24 06:00","2016","04","24","06:00","1.5","","-1.9","","78","","36","","2","","24.1","","100.98","","","","","","NA"
"2016-04-24 07:00","2016","04","24","07:00","4.6","","0.0","","72","","36","","2","","24.1","","100.99","","","","","","Mainly Clear"
"2016-04-24 08:00","2016","04","24","08:00","6.6","","0.5","","65","","15","","4","","24.1","","101.01","","","","","","NA"
"2016-04-24 09:00","2016","04","24","09:00","8.3","","0.3","","57","","3","","3","","24.1","","101.00","","","","","","NA"
"2016-04-24 10:00","2016","04","24","10:00","10.2","","0.8","","52","","32","","13","","24.1","","100.97","","","","","","Mostly Cloudy"
"2016-04-24 11:00","2016","04","24","11:00","9.4","","1.8","","59","","35","","12","","24.1","","100.94","","","","","","NA"
"2016-04-24 12:00","2016","04","24","12:00","9.3","","2.2","","61","","1","","15","","24.1","","100.89","","","","","","NA"
"2016-04-24 13:00","2016","04","24","13:00","9.3","","0.2","","53","","36","","15","","24.1","","100.86","","","","","","Mostly Cloudy"
"2016-04-24 14:00","2016","04","24","14:00","10.2","","-0.6","","47","","2","","16","","24.1","","100.80","","","","","","NA"
"2016-04-24 15:00","2016","04","24","15:00","9.8","","-4.2","","37","","2","","14","","24.1","","100.78","","","","","","NA"
"2016-04-24 16:00","2016","04","24","16:00","10.4","","-5.2","","33","","4","","9","","24.1","","100.72","","","","","","Cloudy"
"2016-04-24 17:00","2016","04","24","17:00","11.0","","-2.7","","38","","7","","7","","24.1","","100.70","","","","","","NA"
"2016-04-24 18:00","2016","04","24","18:00","10.7","","-0.7","","45","","7","","7","","24.1","","100.66","","","","","","NA"
"2016-04-24 19:00","2016","04","24","19:00","9.9","","-0.3","","49","","6","","10","","24.1","","100.63","","","","","","Cloudy"
"2016-04-24 20:00","2016","04","24","20:00","9.6","","0.0","","51","","11","","6","","24.1","","100.64","","","","","","NA"
"2016-04-24 21:00","2016","04","24","21:00"
"2016-04-24 22:00","2016","04","24","22:00"
"2016-04-24 23:00","2016","04","24","23:00"
"2016-04-25 00:00","2016","04","25","00:00"
"2016-04-25 01:00","2016","04","25","01:00"
"2016-04-25 02:00","2016","04","25","02:00"
"2016-04-25 03:00","2016","04","25","03:00"
"2016-04-25 04:00","2016","04","25","04:00"
"2016-04-25 05:00","2016","04","25","05:00"
"2016-04-25 06:00","2016","04","25","06:00","5.8","","3.0","","82","","7","","13","","24.1","","100.61","","","","","","NA"
"2016-04-25 07:00","2016","04","25","07:00","7.3","","1.0","","64","","8","","23","","24.1","","100.54","","","","","","Cloudy"
"2016-04-25 08:00","2016","04","25","08:00","7.2","","-0.5","","58","","6","","14","","24.1","","100.59","","","","","","NA"
"2016-04-25 09:00","2016","04","25","09:00","6.8","","1.5","","69","","7","","17","","24.1","","100.55","","","","","","NA"
"2016-04-25 10:00","2016","04","25","10:00","7.1","","1.4","","67","","7","","22","","19.3","","100.52","","","","","","Cloudy"
"2016-04-25 11:00","2016","04","25","11:00","8.7","","1.4","","60","","8","","21","","24.1","","100.48","","","","","","NA"
"2016-04-25 12:00","2016","04","25","12:00","9.5","","2.2","","60","","7","","23","","24.1","","100.43","","","","","","NA"
"2016-04-25 13:00","2016","04","25","13:00","8.4","","2.0","","64","","4","","26","","24.1","","100.37","","","","","","Cloudy"
"2016-04-25 14:00","2016","04","25","14:00","8.0","","2.1","","66","","5","","25","","24.1","","100.29","","","","","","NA"
"2016-04-25 15:00","2016","04","25","15:00","7.5","","2.0","","68","","5","","26","","24.1","","100.20","","","","","","NA"
"2016-04-25 16:00","2016","04","25","16:00","7.8","","2.5","","69","","5","","23","","24.1","","100.12","","","","","","Cloudy"
"2016-04-25 17:00","2016","04","25","17:00","6.4","","1.1","","69","","5","","26","","24.1","","100.04","","","","","","NA"
"2016-04-25 18:00","2016","04","25","18:00","6.2","","1.2","","70","","4","","18","","24.1","","99.99","","","","","","NA"
"2016-04-25 19:00","2016","04","25","19:00","5.7","","1.1","","72","","6","","23","","24.1","","99.92","","","","","","Cloudy"
"2016-04-25 20:00","2016","04","25","20:00","6.1","","1.5","","72","","6","","19","","16.1","","99.94","","","","","","Thunderstorms,Rain Showers"
"2016-04-25 21:00","2016","04","25","21:00"
"2016-04-25 22:00","2016","04","25","22:00"
"2016-04-25 23:00","2016","04","25","23:00"
"2016-04-26 00:00","2016","04","26","00:00"
"2016-04-26 01:00","2016","04","26","01:00"
"2016-04-26 02:00","2016","04","26","02:00"
"2016-04-26 03:00","2016","04","26","03:00"
"2016-04-26 04:00","2016","04","26","04:00"
"2016-04-26 05:00","2016","04","26","05:00"
"2016-04-26 06:00","2016","04","26","06:00","3.2","","2.3","","94","","5","","16","","24.1","","99.49","","","","","","NA"
"2016-04-26 07:00","2016","04","26","07:00","3.5","","2.6","","94","","5","","24","","19.3","","99.54","","","","","","Cloudy"
"2016-04-26 08:00","2016","04","26","08:00","2.8","","2.1","","95","","5","","29","","4.8","","99.62","","","","","","Rain,Fog"
"2016-04-26 09:00","2016","04","26","09:00","2.4","","1.7","","95","","4","","30","","4.8","","99.82","","","","","","Rain,Fog"
"2016-04-26 10:00","2016","04","26","10:00","3.6","","2.1","","90","","6","","34","","24.1","","99.79","","","","","","Mostly Cloudy"
"2016-04-26 11:00","2016","04","26","11:00","3.6","","2.1","","90","","5","","21","","24.1","","99.87","","","","","","NA"
"2016-04-26 12:00","2016","04","26","12:00","3.1","","1.5","","89","","6","","23","","24.1","","99.92","","","","","","NA"
"2016-04-26 13:00","2016","04","26","13:00","3.0","","1.1","","87","","4","","26","","24.1","","100.00","","","","","","Cloudy"
"2016-04-26 14:00","2016","04","26","14:00","3.2","","0.9","","85","","4","","21","","24.1","","100.06","","","","","","NA"
"2016-04-26 15:00","2016","04","26","15:00","4.2","","0.7","","78","","4","","20","","24.1","","100.13","","","","","","NA"
"2016-04-26 16:00","2016","04","26","16:00","4.3","","0.6","","77","","5","","15","","24.1","","100.17","","","","","","Cloudy"
"2016-04-26 17:00","2016","04","26","17:00","4.6","","1.5","","80","","7","","11","","24.1","","100.23","","","","","","NA"
"2016-04-26 18:00","2016","04","26","18:00","4.2","","0.9","","79","","6","","7","","24.1","","100.21","","","","","","NA"
"2016-04-26 19:00","2016","04","26","19:00","4.1","","0.6","","78","","36","","2","","24.1","","100.20","","","","","","Mostly Cloudy"
"2016-04-26 20:00","2016","04","26","20:00","3.0","","0.6","","84","","36","","2","","24.1","","100.22","","","","","","NA"
"2016-04-26 21:00","2016","04","26","21:00"
"2016-04-26 22:00","2016","04","26","22:00"
"2016-04-26 23:00","2016","04","26","23:00"
"2016-04-27 00:00","2016","04","27","00:00"
"2016-04-27 01:00","2016","04","27","01:00"
"2016-04-27 02:00","2016","04","27","02:00"
"2016-04-27 03:00","2016","04","27","03:00"
"2016-04-27 04:00","2016","04","27","04:00"
"2016-04-27 05:00","2016","04","27","05:00"
"2016-04-27 06:00","2016","04","27","06:00","-0.9","","-1.3","","97","","4","","4","","24.1","","100.47","","","","-2","","NA"
"2016-04-27 07:00","2016","04","27","07:00","3.8","","1.2","","83","","5","","7","","24.1","","100.47","","","","","","Mainly Clear"
"2016-04-27 08:00","2016","04","27","08:00","5.7","","-1.5","","60","","8","","14","","24.1","","100.49","","","","","","NA"
"2016-04-27 09:00","2016","04","27","09:00","6.7","","1.0","","67","","9","","12","","24.1","","100.42","","","","","","NA"
"2016-04-27 10:00","2016","04","27","10:00","7.2","","1.5","","67","","1","","9","","24.1","","100.43","","","","","","Mainly Clear"
"2016-04-27 11:00","2016","04","27","11:00","7.5","","0.3","","60","","1","","17","","24.1","","100.42","","","","","","NA"
"2016-04-27 12:00","2016","04","27","12:00","7.5","","0.5","","61","","2","","16","","24.1","","100.37","","","","","","NA"
"2016-04-27 13:00","2016","04","27","13:00","8.6","","0.8","","58","","1","","10","","24.1","","100.36","","","","","","Mainly Clear"
"2016-04-27 14:00","2016","04","27","14:00","9.9","","-4.8","","35","","36","","4","","24.1","","100.36","","","","","","NA"
"2016-04-27 15:00","2016","04","27","15:00","11.4","","-3.5","","35","","31","","7","","24.1","","100.31","","","","","","NA"
"2016-04-27 16:00","2016","04","27","16:00","11.5","","-4.2","","33","","4","","6","","24.1","","100.25","","","","","","Mostly Cloudy"
"2016-04-27 17:00","2016","04","27","17:00","12.0","","-3.3","","34","","2","","4","","24.1","","100.23","","","","","","NA"
"2016-04-27 18:00","2016","04","27","18:00","11.9","","-2.7","","36","","36","","3","","24.1","","100.19","","","","","","NA"
"2016-04-27 19:00","2016","04","27","19:00","9.5","","0.9","","55","","3","","11","","24.1","","100.26","","","","","","Mostly Cloudy"
"2016-04-27 20:00","2016","04","27","20:00","6.9","","0.6","","64","","28","","4","","24.1","","100.33","","","","","","NA"
"2016-04-27 21:00","2016","04","27","21:00"
"2016-04-27 22:00","2016","04","27","22:00"
"2016-04-27 23:00","2016","04","27","23:00"
"2016-04-28 00:00","2016","04","28","00:00"
"2016-04-28 01:00","2016","04","28","01:00"
"2016-04-28 02:00","2016","04","28","02:00"
"2016-04-28 03:00","2016","04","28","03:00"
"2016-04-28 04:00","2016","04","28","04:00"
"2016-04-28 05:00","2016","04","28","05:00"
"2016-04-28 06:00","2016","04","28","06:00","0.9","","-1.0","","87","","6","","10","","24.1","","100.64","","","","","","NA"
"2016-04-28 07:00","2016","04","28","07:00","3.8","","0.7","","80","","7","","10","","24.1","","100.69","","","","","","Mostly Cloudy"
"2016-04-28 08:00","2016","04","28","08:00","5.6","","-0.9","","63","","9","","20","","24.1","","100.71","","","","","","NA"
"2016-04-28 09:00","2016","04","28","09:00","8.2","","-1.6","","50","","7","","25","","24.1","","100.67","","","","","","NA"
"2016-04-28 10:00","2016","04","28","10:00","8.7","","-2.3","","46","","10","","20","","24.1","","100.65","","","","","","Mostly Cloudy"
"2016-04-28 11:00","2016","04","28","11:00","7.2","","1.1","","65","","5","","26","","24.1","","100.63","","","","","","NA"
"2016-04-28 12:00","2016","04","28","12:00","7.1","","0.6","","63","","5","","21","","24.1","","100.58","","","","","","NA"
"2016-04-28 13:00","2016","04","28","13:00","8.4","","1.3","","61","","4","","17","","24.1","","100.52","","","","","","Cloudy"
"2016-04-28 14:00","2016","04","28","14:00","7.4","","0.8","","63","","4","","21","","24.1","","100.51","","","","","","NA"
"2016-04-28 15:00","2016","04","28","15:00","7.2","","-0.7","","57","","4","","21","","24.1","","100.44","","","","","","NA"
"2016-04-28 16:00","2016","04","28","16:00","7.7","","-2.6","","48","","5","","21","","24.1","","100.42","","","","","","Cloudy"
"2016-04-28 17:00","2016","04","28","17:00","7.3","","-3.6","","46","","6","","18","","24.1","","100.50","","","","","","NA"
"2016-04-28 18:00","2016","04","28","18:00","6.8","","0.0","","62","","4","","14","","24.1","","100.54","","","","","","NA"
"2016-04-28 19:00","2016","04","28","19:00","6.7","","-1.9","","54","","6","","13","","24.1","","100.58","","","","","","Cloudy"
"2016-04-28 20:00","2016","04","28","20:00","5.3","","0.5","","71","","4","","12","","24.1","","100.60","","","","","","NA"
"2016-04-28 21:00","2016","04","28","21:00"
"2016-04-28 22:00","2016","04","28","22:00"
"2016-04-28 23:00","2016","04","28","23:00"
"2016-04-29 00:00","2016","04","29","00:00"
"2016-04-29 01:00","2016","04","29","01:00"
"2016-04-29 02:00","2016","04","29","02:00"
"2016-04-29 03:00","2016","04","29","03:00"
"2016-04-29 04:00","2016","04","29","04:00"
"2016-04-29 05:00","2016","04","29","05:00"
"2016-04-29 06:00","2016","04","29","06:00","4.7","","-2.9","","58","","6","","16","","24.1","","100.66","","","","","","NA"
"2016-04-29 07:00","2016","04","29","07:00","6.2","","-1.7","","57","","6","","20","","24.1","","100.68","","","","","","Mostly Cloudy"
"2016-04-29 08:00","2016","04","29","08:00","7.2","","0.9","","64","","4","","21","","24.1","","100.65","","","","","","NA"
"2016-04-29 09:00","2016","04","29","09:00","7.3","","-0.2","","59","","6","","26","","24.1","","100.62","","","","","","NA"
"2016-04-29 10:00","2016","04","29","10:00","8.9","","1.1","","58","","2","","24","","24.1","","100.63","","","","","","Mostly Cloudy"
"2016-04-29 11:00","2016","04","29","11:00","7.1","","-0.1","","60","","4","","27","","24.1","","100.62","","","","","","NA"
"2016-04-29 12:00","2016","04","29","12:00","7.1","","-0.4","","59","","5","","25","","24.1","","100.62","","","","","","NA"
"2016-04-29 13:00","2016","04","29","13:00","9.1","","-1.6","","47","","5","","28","","24.1","","100.57","","","","","","Mostly Cloudy"
"2016-04-29 14:00","2016","04","29","14:00","10.5","","-1.2","","44","","3","","21","","24.1","","100.62","","","","","","NA"
"2016-04-29 15:00","2016","04","29","15:00","8.7","","-0.1","","54","","2","","16","","24.1","","100.65","","","","","","NA"
"2016-04-29 16:00","2016","04","29","16:00","10.4","","-1.3","","44","","8","","17","","24.1","","100.61","","","","","","Mostly Cloudy"
"2016-04-29 17:00","2016","04","29","17:00","10.7","","-1.7","","42","","9","","14","","24.1","","100.65","","","","","","NA"
"2016-04-29 18:00","2016","04","29","18:00","8.1","","2.4","","67","","36","","14","","24.1","","100.67","","","","","","NA"
"2016-04-29 19:00","2016","04","29","19:00","6.1","","2.2","","76","","36","","11","","24.1","","100.79","","","","","","Mostly Cloudy"
"2016-04-29 20:00","2016","04","29","20:00","5.8","","3.0","","82","","26","","7","","24.1","","100.92","","","","","","NA"
"2016-04-29 21:00","2016","04","29","21:00"
"2016-04-29 22:00","2016","04","29","22:00"
"2016-04-29 23:00","2016","04","29","23:00"
"2016-04-30 00:00","2016","04","30","00:00"
"2016-04-30 01:00","2016","04","30","01:00"
"2016-04-30 02:00","2016","04","30","02:00"
"2016-04-30 03:00","2016","04","30","03:00"
"2016-04-30 04:00","2016","04","30","04:00"
"2016-04-30 05:00","2016","04","30","05:00"
"2016-04-30 06:00","2016","04","30","06:00","3.7","","2.2","","90","","5","","6","","24.1","","101.03","","","","","","NA"
"2016-04-30 07:00","2016","04","30","07:00","7.8","","3.5","","74","","8","","12","","24.1","","101.10","","","","","","Mainly Clear"
"2016-04-30 08:00","2016","04","30","08:00","10.0","","4.6","","69","","6","","12","","24.1","","101.10","","","","","","NA"
"2016-04-30 09:00","2016","04","30","09:00","12.1","","4.1","","58","","6","","17","","24.1","","101.10","","","","","","NA"
"2016-04-30 10:00","2016","04","30","10:00","12.9","","3.9","","54","","3","","15","","24.1","","101.07","","","","","","Mostly Cloudy"
"2016-04-30 11:00","2016","04","30","11:00","12.7","","0.8","","44","","3","","27","","24.1","","101.02","","","","","","NA"
"2016-04-30 12:00","2016","04","30","12:00","13.4","","0.5","","41","","4","","25","","24.1","","100.98","","","","","","NA"
"2016-04-30 13:00","2016","04","30","13:00","13.4","","-0.6","","38","","5","","34","","24.1","","100.96","","","","","","Mostly Cloudy"
"2016-04-30 14:00","2016","04","30","14:00","13.1","","-1.2","","37","","5","","28","","24.1","","100.91","","","","","","NA"
"2016-04-30 15:00","2016","04","30","15:00","13.8","","0.2","","39","","6","","26","","24.1","","100.85","","","","","","NA"
"2016-04-30 16:00","2016","04","30","16:00","14.1","","0.1","","38","","6","","21","","24.1","","100.84","","","","","","Cloudy"
"2016-04-30 17:00","2016","04","30","17:00","13.1","","-0.1","","40","","5","","18","","24.1","","100.83","","","","","","NA"
"2016-04-30 18:00","2016","04","30","18:00","12.6","","0.4","","43","","7","","16","","24.1","","100.76","","","","","","NA"
"2016-04-30 19:00","2016","04","30","19:00","11.9","","0.4","","45","","7","","14","","24.1","","100.75","","","","","","Cloudy"
"2016-04-30 20:00","2016","04","30","20:00","11.9","","0.4","","45","","8","","16","","24.1","","100.74","","","","","","NA"
"2016-04-30 21:00","2016","04","30","21:00"
"2016-04-30 22:00","2016","04","30","22:00"
"2016-04-30 23:00","2016","04","30","23:00"
