"Station Name","ST CATHARINES A"
"Province","ONTARIO"
"Latitude","43.20"
"Longitude","-79.17"
"Elevation","97.80"
"Climate Identifier","6137287"
"WMO Identifier",""
"TC Identifier","YSN"
"All times are specified in Local Standard Time (LST). Add 1 hour to adjust for Daylight Saving Time where and when it is observed."

"Legend"
"E","Estimated"
"M","Missing"
"NA","Not Available"

"Date/Time","Year","Month","Day","Time","Temp (°C)","Temp Flag","Dew Point Temp (°C)","Dew Point Temp Flag","Rel Hum (%)","Rel Hum Flag","Wind Dir (10s deg)","Wind Dir Flag","Wind Spd (km/h)","Wind Spd Flag","Visibility (km)","Visibility Flag","Stn Press (kPa)","Stn Press Flag","Hmdx","Hmdx Flag","Wind Chill","Wind Chill Flag","Weather"
"1998-12-01 00:00","1998","12","01","00:00"
"1998-12-01 01:00","1998","12","01","01:00"
"1998-12-01 02:00","1998","12","01","02:00","","M","","M","","M","","M","","M","","M","","M","","","","","NA"
"1998-12-01 03:00","1998","12","01","03:00","","M","","M","","M","","M","","M","","M","","M","","","","","NA"
"1998-12-01 04:00","1998","12","01","04:00","","M","","M","","M","","M","","M","","M","","M","","","","","NA"
"1998-12-01 05:00","1998","12","01","05:00","","M","","M","","M","","M","","M","","M","","M","","","","","NA"
"1998-12-01 06:00","1998","12","01","06:00","6.9","","3.0","","76","","28","","19","","24.1","","100.39","","","","","","Mostly Cloudy"
"1998-12-01 07:00","1998","12","01","07:00","5.9","","2.1","","77","","28","","28","","24.1","","100.52","","","","","","Mainly Clear"
"1998-12-01 08:00","1998","12","01","08:00","6.2","","-0.2","","64","","28","","28","","24.1","","100.62","","","","","","Mainly Clear"
"1998-12-01 09:00","1998","12","01","09:00","6.6","","0.3","","64","","28","","19","","24.1","","100.79","","","","","","Mainly Clear"
"1998-12-01 10:00","1998","12","01","10:00","6.8","","1.5","","69","","25","","20","","24.1","","100.92","","","","","","Mostly Cloudy"
"1998-12-01 11:00","1998","12","01","11:00","7.4","","1.9","","68","","25","","19","","24.1","","100.96","","","","","","Mostly Cloudy"
"1998-12-01 12:00","1998","12","01","12:00","8.8","","1.3","","59","","28","","24","","24.1","","100.96","","","","","","Mainly Clear"
"1998-12-01 13:00","1998","12","01","13:00","9.1","","0.6","","55","","25","","20","","24.1","","100.96","","","","","","Mainly Clear"
"1998-12-01 14:00","1998","12","01","14:00","9.7","","1.2","","55","","25","","19","","24.1","","100.96","","","","","","Mainly Clear"
"1998-12-01 15:00","1998","12","01","15:00","9.4","","0.5","","54","","25","","28","","48.3","","100.96","","","","","","Clear"
"1998-12-01 16:00","1998","12","01","16:00","8.2","","2.9","","69","","22","","19","","48.3","","100.96","","","","","","Clear"
"1998-12-01 17:00","1998","12","01","17:00","7.5","","3.4","","75","","22","","22","","19.3","","100.99","","","","","","Clear"
"1998-12-01 18:00","1998","12","01","18:00","7.2","","4.6","","84","","22","","28","","19.3","","100.99","","","","","","Clear"
"1998-12-01 19:00","1998","12","01","19:00"
"1998-12-01 20:00","1998","12","01","20:00","7.7","","5.5","","86","","22","","28","","19.3","","100.99","","","","","","Clear"
"1998-12-01 21:00","1998","12","01","21:00","8.0","","4.8","","80","","22","","22","","19.3","","100.96","","","","","","Clear"
"1998-12-01 22:00","1998","12","01","22:00","8.4","","5.9","","84","","22","","22","","19.3","","100.86","","","","","","Clear"
"1998-12-01 23:00","1998","12","01","23:00","","M","","M","","M","","M","","M","","M","","M","","","","","NA"
"1998-12-02 00:00","1998","12","02","00:00","","M","","M","","M","","M","","M","","M","","M","","","","","NA"
"1998-12-02 01:00","1998","12","02","01:00","","M","","M","","M","","M","","M","","M","","M","","","","","NA"
"1998-12-02 02:00","1998","12","02","02:00","","M","","M","","M","","M","","M","","M","","M","","","","","NA"
"1998-12-02 03:00","1998","12","02","03:00","","M","","M","","M","","M","","M","","M","","M","","","","","NA"
"1998-12-02 04:00","1998","12","02","04:00","","M","","M","","M","","M","","M","","M","","M","","","","","NA"
"1998-12-02 05:00","1998","12","02","05:00","","M","","M","","M","","M","","M","","M","","M","","","","","NA"
"1998-12-02 06:00","1998","12","02","06:00","10.2","","2.5","","59","","21","","28","","24.1","","100.42","","","","","","Clear"
"1998-12-02 07:00","1998","12","02","07:00","9.9","","2.6","","60","","22","","19","","24.1","","100.39","","","","","","Clear"
"1998-12-02 08:00","1998","12","02","08:00","10.2","","2.7","","60","","20","","24","","24.1","","100.32","","","","","","Mainly Clear"
"1998-12-02 09:00","1998","12","02","09:00","11.5","","3.0","","56","","22","","26","","24.1","","100.32","","","","","","Mainly Clear"
"1998-12-02 10:00","1998","12","02","10:00","12.6","","3.8","","55","","22","","37","","24.1","","100.29","","","","","","Mainly Clear"
"1998-12-02 11:00","1998","12","02","11:00","13.5","","3.9","","52","","22","","35","","24.1","","100.22","","","","","","Clear"
"1998-12-02 12:00","1998","12","02","12:00","14.5","","5.8","","56","","21","","26","","24.1","","100.15","","","","","","Clear"
"1998-12-02 13:00","1998","12","02","13:00","14.9","","5.2","","52","","23","","24","","24.1","","100.02","","","","","","Mainly Clear"
"1998-12-02 14:00","1998","12","02","14:00","14.3","","5.8","","57","","20","","24","","24.1","","100.02","","","","","","Mainly Clear"
"1998-12-02 15:00","1998","12","02","15:00","13.7","","5.8","","59","","21","","19","","24.1","","99.95","","","","","","Mostly Cloudy"
"1998-12-02 16:00","1998","12","02","16:00","13.0","","6.0","","62","","22","","13","","24.1","","99.92","","","","","","Mostly Cloudy"
"1998-12-02 17:00","1998","12","02","17:00","11.6","","5.5","","66","","21","","13","","24.1","","99.98","","","","","","Mainly Clear"
"1998-12-02 18:00","1998","12","02","18:00","11.2","","5.4","","67","","23","","11","","24.1","","100.05","","","","","","Mainly Clear"
"1998-12-02 19:00","1998","12","02","19:00","10.6","","5.1","","69","","24","","9","","24.1","","100.05","","","","","","Clear"
"1998-12-02 20:00","1998","12","02","20:00","10.1","","4.6","","69","","22","","9","","24.1","","100.08","","","","","","Mostly Cloudy"
"1998-12-02 21:00","1998","12","02","21:00","9.4","","4.6","","72","","19","","6","","24.1","","100.08","","","","","","Mostly Cloudy"
"1998-12-02 22:00","1998","12","02","22:00","10.5","","4.8","","68","","23","","7","","24.1","","100.08","","","","","","Mainly Clear"
"1998-12-02 23:00","1998","12","02","23:00","","M","","M","","M","","M","","M","","M","","M","","","","","NA"
"1998-12-03 00:00","1998","12","03","00:00","","M","","M","","M","","M","","M","","M","","M","","","","","NA"
"1998-12-03 01:00","1998","12","03","01:00","","M","","M","","M","","M","","M","","M","","M","","","","","NA"
"1998-12-03 02:00","1998","12","03","02:00","","M","","M","","M","","M","","M","","M","","M","","","","","NA"
"1998-12-03 03:00","1998","12","03","03:00","","M","","M","","M","","M","","M","","M","","M","","","","","NA"
"1998-12-03 04:00","1998","12","03","04:00","","M","","M","","M","","M","","M","","M","","M","","","","","NA"
"1998-12-03 05:00","1998","12","03","05:00","","M","","M","","M","","M","","M","","M","","M","","","","","NA"
"1998-12-03 06:00","1998","12","03","06:00","10.8","","6.5","","75","","23","","19","","24.1","","99.85","","","","","","Mostly Cloudy"
"1998-12-03 07:00","1998","12","03","07:00","10.6","","6.9","","78","","22","","22","","24.1","","99.82","","","","","","Mostly Cloudy"
"1998-12-03 08:00","1998","12","03","08:00","11.2","","7.7","","79","","21","","19","","24.1","","99.82","","","","","","Mostly Cloudy"
"1998-12-03 09:00","1998","12","03","09:00","11.8","","8.2","","79","","22","","15","","12.9","","99.82","","","","","","Cloudy"
"1998-12-03 10:00","1998","12","03","10:00","12.4","","8.6","","78","","22","","19","","16.1","","99.75","","","","","","Cloudy"
"1998-12-03 11:00","1998","12","03","11:00","13.1","","9.0","","76","","22","","19","","19.3","","99.72","","","","","","Cloudy"
"1998-12-03 12:00","1998","12","03","12:00","14.4","","8.8","","69","","24","","28","","19.3","","99.68","","","","","","Cloudy"
"1998-12-03 13:00","1998","12","03","13:00","14.5","","9.1","","70","","23","","19","","19.3","","99.61","","","","","","Mostly Cloudy"
"1998-12-03 14:00","1998","12","03","14:00","14.0","","9.6","","75","","22","","19","","19.3","","99.58","","","","","","Cloudy"
"1998-12-03 15:00","1998","12","03","15:00","13.7","","9.8","","77","","22","","19","","16.1","","99.65","","","","","","Cloudy"
"1998-12-03 16:00","1998","12","03","16:00","13.3","","9.8","","79","","22","","24","","16.1","","99.61","","","","","","Mostly Cloudy"
"1998-12-03 17:00","1998","12","03","17:00","13.3","","10.1","","81","","23","","24","","12.9","","99.68","","","","","","Mostly Cloudy"
"1998-12-03 18:00","1998","12","03","18:00","13.6","","10.5","","82","","22","","19","","12.9","","99.78","","","","","","Cloudy"
"1998-12-03 19:00","1998","12","03","19:00","14.1","","11.0","","82","","22","","20","","12.9","","99.78","","","","","","Cloudy"
"1998-12-03 20:00","1998","12","03","20:00","14.7","","11.7","","82","","22","","22","","12.9","","99.78","","","","","","Cloudy"
"1998-12-03 21:00","1998","12","03","21:00","14.5","","11.9","","84","","22","","24","","12.9","","99.75","","","","","","Mainly Clear"
"1998-12-03 22:00","1998","12","03","22:00","13.8","","11.6","","87","","23","","24","","12.9","","99.78","","","","","","Mainly Clear"
"1998-12-03 23:00","1998","12","03","23:00","","M","","M","","M","","M","","M","","M","","M","","","","","NA"
"1998-12-04 00:00","1998","12","04","00:00","","M","","M","","M","","M","","M","","M","","M","","","","","NA"
"1998-12-04 01:00","1998","12","04","01:00","","M","","M","","M","","M","","M","","M","","M","","","","","NA"
"1998-12-04 02:00","1998","12","04","02:00","","M","","M","","M","","M","","M","","M","","M","","","","","NA"
"1998-12-04 03:00","1998","12","04","03:00","","M","","M","","M","","M","","M","","M","","M","","","","","NA"
"1998-12-04 04:00","1998","12","04","04:00","","M","","M","","M","","M","","M","","M","","M","","","","","NA"
"1998-12-04 05:00","1998","12","04","05:00","","M","","M","","M","","M","","M","","M","","M","","","","","NA"
"1998-12-04 06:00","1998","12","04","06:00","11.7","","11.0","","95","","25","","11","","8.0","","100.15","","","","","","Fog"
"1998-12-04 07:00","1998","12","04","07:00","11.3","","10.6","","95","","25","","9","","4.8","","100.22","","","","","","Fog"
"1998-12-04 08:00","1998","12","04","08:00","11.2","","10.2","","94","","24","","9","","6.4","","100.22","","","","","","Fog"
"1998-12-04 09:00","1998","12","04","09:00","12.3","","10.6","","89","","29","","9","","8.0","","100.29","","","","","","Fog"
"1998-12-04 10:00","1998","12","04","10:00","12.8","","10.7","","87","","27","","15","","8.0","","100.39","","","","","","Fog"
"1998-12-04 11:00","1998","12","04","11:00","13.2","","10.1","","81","","26","","15","","8.0","","100.39","","","","","","Haze"
"1998-12-04 12:00","1998","12","04","12:00","14.8","","7.9","","63","","29","","6","","9.7","","100.39","","","","","","Haze"
"1998-12-04 13:00","1998","12","04","13:00","15.6","","7.9","","60","","33","","7","","12.9","","100.35","","","","","","Clear"
"1998-12-04 14:00","1998","12","04","14:00","15.2","","8.7","","65","","31","","7","","11.3","","100.35","","","","","","Clear"
"1998-12-04 15:00","1998","12","04","15:00","15.0","","9.0","","67","","31","","6","","12.9","","100.39","","","","","","Clear"
"1998-12-04 16:00","1998","12","04","16:00","13.9","","9.0","","72","","","","0","","11.3","","100.42","","","","","","Clear"
"1998-12-04 17:00","1998","12","04","17:00","12.3","","8.4","","77","","","","0","","9.7","","100.45","","","","","","Haze"
"1998-12-04 18:00","1998","12","04","18:00","10.9","","9.3","","90","","16","","9","","4.0","","100.55","","","","","","Fog"
"1998-12-04 19:00","1998","12","04","19:00","9.1","","9.1","","100","","18","","7","","0.2","","100.55","","","","","","Fog"
"1998-12-04 20:00","1998","12","04","20:00","9.0","","9.0","","100","","21","","6","","0.0","","100.55","","","","","","Fog"
"1998-12-04 21:00","1998","12","04","21:00","9.1","","9.1","","100","","18","","4","","0.0","","100.55","","","","","","Fog"
"1998-12-04 22:00","1998","12","04","22:00","8.6","","8.6","","100","","4","","6","","0.0","","100.55","","","","","","Fog"
"1998-12-04 23:00","1998","12","04","23:00","","M","","M","","M","","M","","M","","M","","M","","","","","NA"
"1998-12-05 00:00","1998","12","05","00:00","","M","","M","","M","","M","","M","","M","","M","","","","","NA"
"1998-12-05 01:00","1998","12","05","01:00","","M","","M","","M","","M","","M","","M","","M","","","","","NA"
"1998-12-05 02:00","1998","12","05","02:00","","M","","M","","M","","M","","M","","M","","M","","","","","NA"
"1998-12-05 03:00","1998","12","05","03:00","","M","","M","","M","","M","","M","","M","","M","","","","","NA"
"1998-12-05 04:00","1998","12","05","04:00","","M","","M","","M","","M","","M","","M","","M","","","","","NA"
"1998-12-05 05:00","1998","12","05","05:00","","M","","M","","M","","M","","M","","M","","M","","","","","NA"
"1998-12-05 06:00","1998","12","05","06:00","6.9","","4.9","","87","","6","","11","","12.9","","100.49","","","","","","Drizzle"
"1998-12-05 07:00","1998","12","05","07:00","5.9","","5.4","","97","","6","","15","","4.8","","100.52","","","","","","Rain Showers,Fog"
"1998-12-05 08:00","1998","12","05","08:00","5.5","","5.3","","99","","5","","9","","8.0","","100.55","","","","","","Rain Showers,Fog"
"1998-12-05 09:00","1998","12","05","09:00","5.5","","5.1","","97","","6","","9","","24.1","","100.52","","","","","","Cloudy"
"1998-12-05 10:00","1998","12","05","10:00","5.8","","5.4","","97","","9","","15","","24.1","","100.49","","","","","","Cloudy"
"1998-12-05 11:00","1998","12","05","11:00","6.3","","5.9","","97","","8","","13","","19.3","","100.42","","","","","","Cloudy"
"1998-12-05 12:00","1998","12","05","12:00","7.0","","6.4","","96","","8","","9","","11.3","","100.32","","","","","","Cloudy"
"1998-12-05 13:00","1998","12","05","13:00","7.4","","7.3","","99","","6","","9","","6.4","","100.22","","","","","","Fog"
"1998-12-05 14:00","1998","12","05","14:00","7.9","","7.7","","99","","9","","7","","4.0","","100.12","","","","","","Fog"
"1998-12-05 15:00","1998","12","05","15:00","8.0","","7.9","","99","","8","","4","","4.0","","100.12","","","","","","Fog"
"1998-12-05 16:00","1998","12","05","16:00","8.1","","8.0","","99","","9","","9","","4.0","","100.08","","","","","","Fog"
"1998-12-05 17:00","1998","12","05","17:00","8.0","","7.9","","99","","11","","9","","2.4","","100.02","","","","","","Rain,Fog"
"1998-12-05 18:00","1998","12","05","18:00","7.7","","7.6","","99","","6","","13","","4.8","","99.95","","","","","","Fog"
"1998-12-05 19:00","1998","12","05","19:00","7.7","","7.6","","99","","6","","9","","4.8","","99.95","","","","","","Fog"
"1998-12-05 20:00","1998","12","05","20:00","7.7","","7.7","","100","","","","0","","1.6","","99.95","","","","","","Rain,Fog"
"1998-12-05 21:00","1998","12","05","21:00","7.6","","7.6","","100","","","","0","","1.6","","99.92","","","","","","Rain,Fog"
"1998-12-05 22:00","1998","12","05","22:00","7.8","","7.8","","100","","","","0","","1.6","","99.88","","","","","","Rain,Fog"
"1998-12-05 23:00","1998","12","05","23:00","","M","","M","","M","","M","","M","","M","","M","","","","","NA"
"1998-12-06 00:00","1998","12","06","00:00","","M","","M","","M","","M","","M","","M","","M","","","","","NA"
"1998-12-06 01:00","1998","12","06","01:00","","M","","M","","M","","M","","M","","M","","M","","","","","NA"
"1998-12-06 02:00","1998","12","06","02:00","","M","","M","","M","","M","","M","","M","","M","","","","","NA"
"1998-12-06 03:00","1998","12","06","03:00","","M","","M","","M","","M","","M","","M","","M","","","","","NA"
"1998-12-06 04:00","1998","12","06","04:00","","M","","M","","M","","M","","M","","M","","M","","","","","NA"
"1998-12-06 05:00","1998","12","06","05:00","","M","","M","","M","","M","","M","","M","","M","","","","","NA"
"1998-12-06 06:00","1998","12","06","06:00","12.8","","12.5","","98","","20","","9","","16.1","","99.75","","","","","","Cloudy"
"1998-12-06 07:00","1998","12","06","07:00","14.1","","13.1","","94","","21","","19","","9.7","","99.75","","","","","","Fog"
"1998-12-06 08:00","1998","12","06","08:00","14.6","","13.3","","92","","21","","19","","9.7","","99.75","","","","","","Fog"
"1998-12-06 09:00","1998","12","06","09:00","15.6","","14.2","","91","","21","","19","","9.7","","99.68","","","","","","Fog"
"1998-12-06 10:00","1998","12","06","10:00","17.1","","15.0","","87","","21","","19","","9.7","","99.65","","","","","","Haze"
"1998-12-06 11:00","1998","12","06","11:00","18.3","","15.6","","84","","23","","19","","9.7","","99.72","","","","","","Haze"
"1998-12-06 12:00","1998","12","06","12:00","18.9","","15.9","","83","","23","","19","","9.7","","99.58","","","","","","Haze"
"1998-12-06 13:00","1998","12","06","13:00","18.8","","15.8","","83","","23","","19","","16.1","","99.55","","","","","","Cloudy"
"1998-12-06 14:00","1998","12","06","14:00","18.2","","15.5","","84","","22","","19","","16.1","","99.48","","","","","","Cloudy"
"1998-12-06 15:00","1998","12","06","15:00","18.4","","15.3","","82","","22","","19","","16.1","","99.41","","","","","","Cloudy"
"1998-12-06 16:00","1998","12","06","16:00","18.4","","15.3","","82","","22","","19","","12.9","","99.48","","","","","","Cloudy"
"1998-12-06 17:00","1998","12","06","17:00","18.3","","15.2","","82","","22","","19","","9.7","","99.41","","","","","","Haze"
"1998-12-06 18:00","1998","12","06","18:00","18.8","","14.8","","78","","18","","22","","11.3","","99.25","","","","","","Cloudy"
"1998-12-06 19:00","1998","12","06","19:00","18.9","","14.0","","73","","18","","19","","19.3","","99.18","","","","","","Mostly Cloudy"
"1998-12-06 20:00","1998","12","06","20:00","19.6","","14.9","","74","","21","","28","","24.1","","99.18","","","","","","Cloudy"
"1998-12-06 21:00","1998","12","06","21:00","20.0","","14.5","","71","","21","","28","","24.1","","99.08","","","","","","Cloudy"
"1998-12-06 22:00","1998","12","06","22:00","20.3","","14.3","","68","","22","","28","","24.1","","99.04","","","","","","Cloudy"
"1998-12-06 23:00","1998","12","06","23:00","","M","","M","","M","","M","","M","","M","","M","","","","","NA"
"1998-12-07 00:00","1998","12","07","00:00","","M","","M","","M","","M","","M","","M","","M","","","","","NA"
"1998-12-07 01:00","1998","12","07","01:00","","M","","M","","M","","M","","M","","M","","M","","","","","NA"
"1998-12-07 02:00","1998","12","07","02:00","","M","","M","","M","","M","","M","","M","","M","","","","","NA"
"1998-12-07 03:00","1998","12","07","03:00","","M","","M","","M","","M","","M","","M","","M","","","","","NA"
"1998-12-07 04:00","1998","12","07","04:00","","M","","M","","M","","M","","M","","M","","M","","","","","NA"
"1998-12-07 05:00","1998","12","07","05:00","","M","","M","","M","","M","","M","","M","","M","","","","","NA"
"1998-12-07 06:00","1998","12","07","06:00","8.0","","6.3","","89","","32","","13","","24.1","","99.65","","","","","","Cloudy"
"1998-12-07 07:00","1998","12","07","07:00","6.6","","3.6","","81","","33","","11","","48.3","","99.98","","","","","","Cloudy"
"1998-12-07 08:00","1998","12","07","08:00","6.4","","2.9","","78","","31","","19","","48.3","","100.12","","","","","","Mostly Cloudy"
"1998-12-07 09:00","1998","12","07","09:00","6.4","","3.8","","83","","30","","15","","48.3","","100.29","","","","","","Mostly Cloudy"
"1998-12-07 10:00","1998","12","07","10:00","6.8","","2.6","","75","","28","","19","","48.3","","100.45","","","","","","Mostly Cloudy"
"1998-12-07 11:00","1998","12","07","11:00","7.0","","2.0","","70","","29","","19","","48.3","","100.59","","","","","","Mostly Cloudy"
"1998-12-07 12:00","1998","12","07","12:00","6.8","","1.8","","70","","33","","19","","48.3","","100.55","","","","","","Mostly Cloudy"
"1998-12-07 13:00","1998","12","07","13:00","6.4","","1.2","","69","","34","","9","","48.3","","100.59","","","","","","Mostly Cloudy"
"1998-12-07 14:00","1998","12","07","14:00","6.4","","0.4","","65","","33","","9","","48.3","","100.62","","","","","","Mostly Cloudy"
"1998-12-07 15:00","1998","12","07","15:00","6.2","","1.0","","69","","34","","4","","24.1","","100.69","","","","","","Mostly Cloudy"
"1998-12-07 16:00","1998","12","07","16:00","6.0","","1.4","","72","","36","","9","","24.1","","100.79","","","","","","Mostly Cloudy"
"1998-12-07 17:00","1998","12","07","17:00","5.0","","0.8","","74","","4","","7","","24.1","","100.82","","","","","","Mainly Clear"
"1998-12-07 18:00","1998","12","07","18:00","3.0","","0.7","","85","","2","","9","","24.1","","100.89","","","","","","Mainly Clear"
"1998-12-07 19:00","1998","12","07","19:00","3.2","","0.2","","81","","1","","9","","24.1","","100.99","","","","","","Mainly Clear"
"1998-12-07 20:00","1998","12","07","20:00","2.2","","-0.3","","84","","1","","6","","24.1","","101.06","","","","","","Mainly Clear"
"1998-12-07 21:00","1998","12","07","21:00","1.4","","-1.0","","84","","1","","9","","24.1","","100.99","","","","","","Mainly Clear"
"1998-12-07 22:00","1998","12","07","22:00","0.3","","-1.3","","89","","","","0","","24.1","","100.99","","","","","","Mainly Clear"
"1998-12-07 23:00","1998","12","07","23:00","","M","","M","","M","","M","","M","","M","","M","","","","","NA"
"1998-12-08 00:00","1998","12","08","00:00","","M","","M","","M","","M","","M","","M","","M","","","","","NA"
"1998-12-08 01:00","1998","12","08","01:00","","M","","M","","M","","M","","M","","M","","M","","","","","NA"
"1998-12-08 02:00","1998","12","08","02:00","","M","","M","","M","","M","","M","","M","","M","","","","","NA"
"1998-12-08 03:00","1998","12","08","03:00","","M","","M","","M","","M","","M","","M","","M","","","","","NA"
"1998-12-08 04:00","1998","12","08","04:00","","M","","M","","M","","M","","M","","M","","M","","","","","NA"
"1998-12-08 05:00","1998","12","08","05:00","","M","","M","","M","","M","","M","","M","","M","","","","","NA"
"1998-12-08 06:00","1998","12","08","06:00","1.5","","-0.2","","88","","7","","9","","24.1","","100.69","","","","","","Mostly Cloudy"
"1998-12-08 07:00","1998","12","08","07:00","1.9","","0.0","","87","","5","","6","","24.1","","100.62","","","","","","Mostly Cloudy"
"1998-12-08 08:00","1998","12","08","08:00"
"1998-12-08 09:00","1998","12","08","09:00"
"1998-12-08 10:00","1998","12","08","10:00"
"1998-12-08 11:00","1998","12","08","11:00","3.1","","2.2","","94","","2","","19","","19.3","","100.59","","","","","","Cloudy"
"1998-12-08 12:00","1998","12","08","12:00","3.1","","2.3","","94","","3","","9","","19.3","","100.55","","","","","","Cloudy"
"1998-12-08 13:00","1998","12","08","13:00","3.7","","2.5","","92","","36","","7","","16.1","","100.59","","","","","","Cloudy"
"1998-12-08 14:00","1998","12","08","14:00","3.5","","2.3","","92","","2","","6","","16.1","","100.59","","","","","","Cloudy"
"1998-12-08 15:00","1998","12","08","15:00","3.4","","1.8","","89","","35","","4","","16.1","","100.62","","","","","","Cloudy"
"1998-12-08 16:00","1998","12","08","16:00","3.6","","1.7","","87","","24","","6","","19.3","","100.65","","","","","","Cloudy"
"1998-12-08 17:00","1998","12","08","17:00","3.7","","1.9","","88","","23","","6","","19.3","","100.69","","","","","","Mostly Cloudy"
"1998-12-08 18:00","1998","12","08","18:00","3.7","","2.2","","90","","21","","7","","19.3","","100.72","","","","","","Mostly Cloudy"
"1998-12-08 19:00","1998","12","08","19:00","3.3","","1.6","","89","","21","","11","","24.1","","100.79","","","","","","Mostly Cloudy"
"1998-12-08 20:00","1998","12","08","20:00","3.2","","1.4","","88","","24","","4","","19.3","","100.82","","","","","","Mostly Cloudy"
"1998-12-08 21:00","1998","12","08","21:00","3.4","","0.8","","83","","26","","15","","24.1","","100.82","","","","","","Mostly Cloudy"
"1998-12-08 22:00","1998","12","08","22:00","2.3","","-1.2","","78","","28","","15","","24.1","","100.86","","","","","","Mainly Clear"
"1998-12-08 23:00","1998","12","08","23:00","","M","","M","","M","","M","","M","","M","","M","","","","","NA"
"1998-12-09 00:00","1998","12","09","00:00","","M","","M","","M","","M","","M","","M","","M","","","","","NA"
"1998-12-09 01:00","1998","12","09","01:00","","M","","M","","M","","M","","M","","M","","M","","","","","NA"
"1998-12-09 02:00","1998","12","09","02:00","","M","","M","","M","","M","","M","","M","","M","","","","","NA"
"1998-12-09 03:00","1998","12","09","03:00","","M","","M","","M","","M","","M","","M","","M","","","","","NA"
"1998-12-09 04:00","1998","12","09","04:00","","M","","M","","M","","M","","M","","M","","M","","","","","NA"
"1998-12-09 05:00","1998","12","09","05:00","","M","","M","","M","","M","","M","","M","","M","","","","","NA"
"1998-12-09 06:00","1998","12","09","06:00","-1.3","","-2.9","","89","","22","","9","","16.1","","101.12","","","","-5","","Clear"
"1998-12-09 07:00","1998","12","09","07:00","-0.6","","-2.5","","87","","23","","9","","16.1","","101.22","","","","-4","","Clear"
"1998-12-09 08:00","1998","12","09","08:00","-0.2","","-2.0","","88","","23","","9","","9.7","","101.29","","","","-3","","Haze"
"1998-12-09 09:00","1998","12","09","09:00","1.9","","-0.6","","83","","23","","9","","9.7","","101.39","","","","","","Haze"
"1998-12-09 10:00","1998","12","09","10:00","4.5","","1.4","","80","","25","","11","","12.9","","101.46","","","","","","Clear"
"1998-12-09 11:00","1998","12","09","11:00","5.6","","2.4","","80","","29","","19","","12.9","","101.49","","","","","","Mainly Clear"
"1998-12-09 12:00","1998","12","09","12:00","6.4","","2.1","","74","","27","","19","","16.1","","101.49","","","","","","Mainly Clear"
"1998-12-09 13:00","1998","12","09","13:00","7.3","","1.0","","64","","29","","15","","16.1","","101.43","","","","","","Mainly Clear"
"1998-12-09 14:00","1998","12","09","14:00","7.2","","1.7","","68","","28","","13","","16.1","","101.43","","","","","","Mainly Clear"
"1998-12-09 15:00","1998","12","09","15:00","7.6","","-0.7","","56","","28","","20","","24.1","","101.46","","","","","","Mainly Clear"
"1998-12-09 16:00","1998","12","09","16:00","6.9","","-0.8","","58","","27","","11","","24.1","","101.46","","","","","","Mainly Clear"
"1998-12-09 17:00","1998","12","09","17:00","5.7","","-1.7","","59","","26","","9","","24.1","","101.49","","","","","","Mainly Clear"
"1998-12-09 18:00","1998","12","09","18:00","4.7","","-1.5","","64","","25","","9","","24.1","","101.56","","","","","","Clear"
"1998-12-09 19:00","1998","12","09","19:00","3.3","","-1.3","","72","","22","","9","","24.1","","101.56","","","","","","Clear"
"1998-12-09 20:00","1998","12","09","20:00","3.6","","-1.1","","71","","23","","9","","24.1","","101.56","","","","","","Clear"
"1998-12-09 21:00","1998","12","09","21:00","2.5","","-1.5","","75","","21","","9","","24.1","","101.59","","","","","","Clear"
"1998-12-09 22:00","1998","12","09","22:00","1.5","","-1.7","","79","","21","","9","","24.1","","101.59","","","","","","Clear"
"1998-12-09 23:00","1998","12","09","23:00","","M","","M","","M","","M","","M","","M","","M","","","","","NA"
"1998-12-10 00:00","1998","12","10","00:00","","M","","M","","M","","M","","M","","M","","M","","","","","NA"
"1998-12-10 01:00","1998","12","10","01:00","","M","","M","","M","","M","","M","","M","","M","","","","","NA"
"1998-12-10 02:00","1998","12","10","02:00","","M","","M","","M","","M","","M","","M","","M","","","","","NA"
"1998-12-10 03:00","1998","12","10","03:00","","M","","M","","M","","M","","M","","M","","M","","","","","NA"
"1998-12-10 04:00","1998","12","10","04:00","","M","","M","","M","","M","","M","","M","","M","","","","","NA"
"1998-12-10 05:00","1998","12","10","05:00","","M","","M","","M","","M","","M","","M","","M","","","","","NA"
"1998-12-10 06:00","1998","12","10","06:00","4.1","","-1.3","","68","","23","","19","","24.1","","101.33","","","","","","Clear"
"1998-12-10 07:00","1998","12","10","07:00","3.7","","-1.5","","69","","22","","19","","24.1","","101.33","","","","","","Mainly Clear"
"1998-12-10 08:00","1998","12","10","08:00","3.4","","-1.5","","70","","22","","19","","24.1","","101.29","","","","","","Mainly Clear"
"1998-12-10 09:00","1998","12","10","09:00","4.5","","-0.7","","69","","23","","19","","19.3","","101.26","","","","","","Mostly Cloudy"
"1998-12-10 10:00","1998","12","10","10:00","5.8","","0.4","","68","","23","","19","","19.3","","101.22","","","","","","Mostly Cloudy"
"1998-12-10 11:00","1998","12","10","11:00","6.9","","0.8","","65","","24","","19","","19.3","","101.19","","","","","","Mainly Clear"
"1998-12-10 12:00","1998","12","10","12:00","8.4","","0.6","","58","","24","","19","","19.3","","101.09","","","","","","Mostly Cloudy"
"1998-12-10 13:00","1998","12","10","13:00","8.5","","-1.4","","50","","24","","19","","24.1","","101.02","","","","","","Mainly Clear"
"1998-12-10 14:00","1998","12","10","14:00","7.3","","0.9","","64","","28","","19","","19.3","","100.92","","","","","","Mainly Clear"
"1998-12-10 15:00","1998","12","10","15:00","6.6","","0.7","","66","","28","","26","","19.3","","100.96","","","","","","Mostly Cloudy"
"1998-12-10 16:00","1998","12","10","16:00","5.9","","-0.8","","62","","28","","26","","24.1","","100.96","","","","","","Mostly Cloudy"
"1998-12-10 17:00","1998","12","10","17:00","5.4","","-0.6","","65","","27","","22","","19.3","","100.99","","","","","","Mostly Cloudy"
"1998-12-10 18:00","1998","12","10","18:00","4.6","","-1.6","","64","","25","","17","","24.1","","100.99","","","","","","Mostly Cloudy"
"1998-12-10 19:00","1998","12","10","19:00","4.4","","-1.7","","65","","25","","19","","24.1","","101.02","","","","","","Mostly Cloudy"
"1998-12-10 20:00","1998","12","10","20:00","4.5","","-1.3","","66","","26","","15","","24.1","","101.02","","","","","","Mostly Cloudy"
"1998-12-10 21:00","1998","12","10","21:00","4.4","","-1.1","","67","","25","","19","","24.1","","101.02","","","","","","Cloudy"
"1998-12-10 22:00","1998","12","10","22:00","4.1","","-1.2","","68","","24","","15","","24.1","","101.02","","","","","","Cloudy"
"1998-12-10 23:00","1998","12","10","23:00","","M","","M","","M","","M","","M","","M","","M","","","","","NA"
"1998-12-11 00:00","1998","12","11","00:00","","M","","M","","M","","M","","M","","M","","M","","","","","NA"
"1998-12-11 01:00","1998","12","11","01:00","","M","","M","","M","","M","","M","","M","","M","","","","","NA"
"1998-12-11 02:00","1998","12","11","02:00","","M","","M","","M","","M","","M","","M","","M","","","","","NA"
"1998-12-11 03:00","1998","12","11","03:00","","M","","M","","M","","M","","M","","M","","M","","","","","NA"
"1998-12-11 04:00","1998","12","11","04:00","","M","","M","","M","","M","","M","","M","","M","","","","","NA"
"1998-12-11 05:00","1998","12","11","05:00","","M","","M","","M","","M","","M","","M","","M","","","","","NA"
"1998-12-11 06:00","1998","12","11","06:00","0.6","","-2.4","","80","","24","","11","","48.3","","101.36","","","","","","Mainly Clear"
"1998-12-11 07:00","1998","12","11","07:00","0.6","","-2.7","","79","","24","","13","","24.1","","101.43","","","","","","Mainly Clear"
"1998-12-11 08:00","1998","12","11","08:00","0.7","","-2.7","","78","","24","","13","","24.1","","101.43","","","","","","Mainly Clear"
"1998-12-11 09:00","1998","12","11","09:00","2.0","","-2.5","","72","","24","","15","","24.1","","101.49","","","","","","Mainly Clear"
"1998-12-11 10:00","1998","12","11","10:00","3.3","","-2.5","","66","","25","","13","","24.1","","101.56","","","","","","Clear"
"1998-12-11 11:00","1998","12","11","11:00","4.4","","-2.3","","62","","25","","19","","24.1","","101.56","","","","","","Clear"
"1998-12-11 12:00","1998","12","11","12:00","5.6","","-2.5","","56","","26","","19","","24.1","","101.53","","","","","","Clear"
"1998-12-11 13:00","1998","12","11","13:00","5.6","","-2.7","","55","","25","","19","","24.1","","101.49","","","","","","Clear"
"1998-12-11 14:00","1998","12","11","14:00","5.3","","-3.1","","55","","27","","15","","24.1","","101.46","","","","","","Mainly Clear"
"1998-12-11 15:00","1998","12","11","15:00","5.6","","-2.6","","56","","28","","17","","24.1","","101.46","","","","","","Mainly Clear"
"1998-12-11 16:00","1998","12","11","16:00","4.9","","-2.5","","59","","25","","7","","24.1","","101.53","","","","","","Mainly Clear"
"1998-12-11 17:00","1998","12","11","17:00","3.7","","-2.7","","63","","24","","6","","24.1","","101.53","","","","","","Mainly Clear"
"1998-12-11 18:00","1998","12","11","18:00","1.1","","-2.8","","75","","21","","6","","24.1","","101.56","","","","","","Mainly Clear"
"1998-12-11 19:00","1998","12","11","19:00","0.1","","-2.9","","80","","19","","6","","24.1","","101.56","","","","","","Mainly Clear"
"1998-12-11 20:00","1998","12","11","20:00","0.1","","-2.5","","83","","19","","7","","24.1","","101.56","","","","","","Clear"
"1998-12-11 21:00","1998","12","11","21:00","0.8","","-1.3","","86","","21","","9","","24.1","","101.53","","","","","","Clear"
"1998-12-11 22:00","1998","12","11","22:00","1.9","","-0.8","","82","","21","","9","","24.1","","101.53","","","","","","Mainly Clear"
"1998-12-11 23:00","1998","12","11","23:00","","M","","M","","M","","M","","M","","M","","M","","","","","NA"
"1998-12-12 00:00","1998","12","12","00:00","","M","","M","","M","","M","","M","","M","","M","","","","","NA"
"1998-12-12 01:00","1998","12","12","01:00","","M","","M","","M","","M","","M","","M","","M","","","","","NA"
"1998-12-12 02:00","1998","12","12","02:00","","M","","M","","M","","M","","M","","M","","M","","","","","NA"
"1998-12-12 03:00","1998","12","12","03:00","","M","","M","","M","","M","","M","","M","","M","","","","","NA"
"1998-12-12 04:00","1998","12","12","04:00","","M","","M","","M","","M","","M","","M","","M","","","","","NA"
"1998-12-12 05:00","1998","12","12","05:00","","M","","M","","M","","M","","M","","M","","M","","","","","NA"
"1998-12-12 06:00","1998","12","12","06:00","4.9","","3.1","","88","","21","","19","","16.1","","101.29","","","","","","Mainly Clear"
"1998-12-12 07:00","1998","12","12","07:00","4.6","","2.9","","89","","22","","19","","16.1","","101.26","","","","","","Mostly Cloudy"
"1998-12-12 08:00","1998","12","12","08:00","4.8","","3.3","","90","","21","","19","","12.9","","101.29","","","","","","Mostly Cloudy"
"1998-12-12 09:00","1998","12","12","09:00","6.2","","2.3","","76","","22","","20","","24.1","","101.22","","","","","","Mainly Clear"
"1998-12-12 10:00","1998","12","12","10:00","7.8","","0.8","","61","","24","","20","","48.3","","101.22","","","","","","Mainly Clear"
"1998-12-12 11:00","1998","12","12","11:00","8.7","","0.0","","54","","23","","28","","48.3","","101.16","","","","","","Mainly Clear"
"1998-12-12 12:00","1998","12","12","12:00","9.1","","3.0","","66","","24","","19","","48.3","","101.16","","","","","","Mainly Clear"
"1998-12-12 13:00","1998","12","12","13:00","9.1","","2.3","","62","","23","","20","","48.3","","101.09","","","","","","Mainly Clear"
"1998-12-12 14:00","1998","12","12","14:00","9.0","","2.7","","65","","22","","28","","24.1","","101.02","","","","","","Mainly Clear"
"1998-12-12 15:00","1998","12","12","15:00","8.5","","2.0","","64","","22","","24","","48.3","","100.99","","","","","","Mostly Cloudy"
"1998-12-12 16:00","1998","12","12","16:00","8.4","","0.7","","58","","22","","22","","48.3","","100.99","","","","","","Mostly Cloudy"
"1998-12-12 17:00","1998","12","12","17:00","6.6","","0.1","","63","","22","","19","","48.3","","100.99","","","","","","Clear"
"1998-12-12 18:00","1998","12","12","18:00","6.0","","0.4","","67","","22","","24","","48.3","","100.99","","","","","","Clear"
"1998-12-12 19:00","1998","12","12","19:00","5.4","","0.7","","72","","21","","19","","24.1","","100.96","","","","","","Clear"
"1998-12-12 20:00","1998","12","12","20:00","5.1","","0.6","","73","","21","","19","","24.1","","100.96","","","","","","Clear"
"1998-12-12 21:00","1998","12","12","21:00","5.4","","0.2","","69","","23","","19","","24.1","","100.96","","","","","","Mainly Clear"
"1998-12-12 22:00","1998","12","12","22:00","5.2","","0.2","","70","","23","","15","","24.1","","100.92","","","","","","Mainly Clear"
"1998-12-12 23:00","1998","12","12","23:00","","M","","M","","M","","M","","M","","M","","M","","","","","NA"
"1998-12-13 00:00","1998","12","13","00:00","","M","","M","","M","","M","","M","","M","","M","","","","","NA"
"1998-12-13 01:00","1998","12","13","01:00","","M","","M","","M","","M","","M","","M","","M","","","","","NA"
"1998-12-13 02:00","1998","12","13","02:00","","M","","M","","M","","M","","M","","M","","M","","","","","NA"
"1998-12-13 03:00","1998","12","13","03:00","","M","","M","","M","","M","","M","","M","","M","","","","","NA"
"1998-12-13 04:00","1998","12","13","04:00","","M","","M","","M","","M","","M","","M","","M","","","","","NA"
"1998-12-13 05:00","1998","12","13","05:00","","M","","M","","M","","M","","M","","M","","M","","","","","NA"
"1998-12-13 06:00","1998","12","13","06:00","1.2","","-4.1","","68","","23","","11","","24.1","","100.72","","","","","","Clear"
"1998-12-13 07:00","1998","12","13","07:00","-0.1","","-4.7","","71","","22","","7","","24.1","","100.69","","","","-3","","Clear"
"1998-12-13 08:00","1998","12","13","08:00","-2.1","","-5.4","","78","","20","","9","","24.1","","100.79","","","","-6","","Mainly Clear"
"1998-12-13 09:00","1998","12","13","09:00","2.1","","-3.0","","69","","22","","7","","24.1","","100.79","","","","","","Clear"
"1998-12-13 10:00","1998","12","13","10:00","4.0","","-1.3","","68","","27","","9","","19.3","","100.76","","","","","","Clear"
"1998-12-13 11:00","1998","12","13","11:00","5.0","","0.0","","70","","28","","7","","19.3","","100.72","","","","","","Clear"
"1998-12-13 12:00","1998","12","13","12:00","5.0","","0.5","","73","","31","","6","","19.3","","100.69","","","","","","Mainly Clear"
"1998-12-13 13:00","1998","12","13","13:00","6.0","","0.9","","70","","","","0","","19.3","","100.59","","","","","","Clear"
"1998-12-13 14:00","1998","12","13","14:00","6.6","","0.8","","66","","","","0","","19.3","","100.59","","","","","","Mainly Clear"
"1998-12-13 15:00","1998","12","13","15:00","6.7","","1.1","","67","","","","0","","19.3","","100.55","","","","","","Mainly Clear"
"1998-12-13 16:00","1998","12","13","16:00","5.9","","0.8","","70","","","","0","","24.1","","100.59","","","","","","Mainly Clear"
"1998-12-13 17:00","1998","12","13","17:00","3.7","","0.0","","77","","","","0","","16.1","","100.65","","","","","","Mainly Clear"
"1998-12-13 18:00","1998","12","13","18:00","3.3","","0.2","","80","","32","","9","","24.1","","100.72","","","","","","Mainly Clear"
"1998-12-13 19:00","1998","12","13","19:00","3.9","","1.6","","85","","33","","22","","24.1","","100.82","","","","","","Mainly Clear"
"1998-12-13 20:00","1998","12","13","20:00","3.1","","1.0","","86","","35","","15","","24.1","","100.92","","","","","","Clear"
"1998-12-13 21:00","1998","12","13","21:00","2.1","","0.1","","87","","36","","9","","24.1","","100.92","","","","","","Clear"
"1998-12-13 22:00","1998","12","13","22:00","2.8","","-0.7","","78","","36","","13","","24.1","","100.92","","","","","","Mainly Clear"
"1998-12-13 23:00","1998","12","13","23:00","","M","","M","","M","","M","","M","","M","","M","","","","","NA"
"1998-12-14 00:00","1998","12","14","00:00","","M","","M","","M","","M","","M","","M","","M","","","","","NA"
"1998-12-14 01:00","1998","12","14","01:00","","M","","M","","M","","M","","M","","M","","M","","","","","NA"
"1998-12-14 02:00","1998","12","14","02:00","","M","","M","","M","","M","","M","","M","","M","","","","","NA"
"1998-12-14 03:00","1998","12","14","03:00","","M","","M","","M","","M","","M","","M","","M","","","","","NA"
"1998-12-14 04:00","1998","12","14","04:00","","M","","M","","M","","M","","M","","M","","M","","","","","NA"
"1998-12-14 05:00","1998","12","14","05:00","","M","","M","","M","","M","","M","","M","","M","","","","","NA"
"1998-12-14 06:00","1998","12","14","06:00","-5.0","","-6.4","","90","","","","0","","48.3","","101.29","","","","","","Clear"
"1998-12-14 07:00","1998","12","14","07:00","-5.7","","-6.3","","96","","","","0","","48.3","","101.33","","","","","","Mainly Clear"
"1998-12-14 08:00","1998","12","14","08:00","-4.5","","-5.7","","91","","","","0","","24.1","","101.39","","","","","","Mostly Cloudy"
"1998-12-14 09:00","1998","12","14","09:00","-2.2","","-3.6","","90","","","","0","","24.1","","101.46","","","","","","Mostly Cloudy"
"1998-12-14 10:00","1998","12","14","10:00","1.4","","-3.0","","72","","","","0","","24.1","","101.53","","","","","","Mostly Cloudy"
"1998-12-14 11:00","1998","12","14","11:00","1.7","","-3.4","","69","","","","0","","24.1","","101.49","","","","","","Mainly Clear"
"1998-12-14 12:00","1998","12","14","12:00","2.2","","-3.4","","66","","","","0","","24.1","","101.49","","","","","","Mainly Clear"
"1998-12-14 13:00","1998","12","14","13:00","2.8","","-3.3","","64","","30","","11","","24.1","","101.43","","","","","","Mainly Clear"
"1998-12-14 14:00","1998","12","14","14:00","3.2","","-2.7","","65","","32","","6","","24.1","","101.43","","","","","","Mainly Clear"
"1998-12-14 15:00","1998","12","14","15:00","4.2","","-3.3","","58","","21","","7","","32.2","","101.39","","","","","","Mainly Clear"
"1998-12-14 16:00","1998","12","14","16:00","3.8","","-3.7","","58","","22","","15","","32.2","","101.39","","","","","","Mainly Clear"
"1998-12-14 17:00","1998","12","14","17:00","1.6","","-3.3","","70","","21","","9","","32.2","","101.36","","","","","","Mainly Clear"
"1998-12-14 18:00","1998","12","14","18:00","0.9","","-2.9","","76","","20","","9","","48.3","","101.36","","","","","","Mainly Clear"
"1998-12-14 19:00","1998","12","14","19:00","0.8","","-2.5","","79","","22","","9","","48.3","","101.36","","","","","","Mostly Cloudy"
"1998-12-14 20:00","1998","12","14","20:00","1.8","","-1.9","","76","","23","","15","","48.3","","101.33","","","","","","Mainly Clear"
"1998-12-14 21:00","1998","12","14","21:00","1.0","","-2.1","","80","","22","","9","","48.3","","101.29","","","","","","Mainly Clear"
"1998-12-14 22:00","1998","12","14","22:00","1.7","","-1.6","","79","","24","","13","","48.3","","101.29","","","","","","Mainly Clear"
"1998-12-14 23:00","1998","12","14","23:00","","M","","M","","M","","M","","M","","M","","M","","","","","NA"
"1998-12-15 00:00","1998","12","15","00:00","","M","","M","","M","","M","","M","","M","","M","","","","","NA"
"1998-12-15 01:00","1998","12","15","01:00","","M","","M","","M","","M","","M","","M","","M","","","","","NA"
"1998-12-15 02:00","1998","12","15","02:00","","M","","M","","M","","M","","M","","M","","M","","","","","NA"
"1998-12-15 03:00","1998","12","15","03:00","","M","","M","","M","","M","","M","","M","","M","","","","","NA"
"1998-12-15 04:00","1998","12","15","04:00","","M","","M","","M","","M","","M","","M","","M","","","","","NA"
"1998-12-15 05:00","1998","12","15","05:00","","M","","M","","M","","M","","M","","M","","M","","","","","NA"
"1998-12-15 06:00","1998","12","15","06:00","5.6","","2.6","","81","","23","","24","","24.1","","100.99","","","","","","Mainly Clear"
"1998-12-15 07:00","1998","12","15","07:00","5.5","","2.4","","80","","22","","24","","24.1","","100.92","","","","","","Mainly Clear"
"1998-12-15 08:00","1998","12","15","08:00","6.2","","2.3","","76","","21","","22","","24.1","","100.86","","","","","","Clear"
"1998-12-15 09:00","1998","12","15","09:00","6.9","","2.4","","73","","22","","22","","24.1","","100.86","","","","","","Clear"
"1998-12-15 10:00","1998","12","15","10:00","8.4","","2.8","","68","","21","","28","","24.1","","100.79","","","","","","Clear"
"1998-12-15 11:00","1998","12","15","11:00","8.9","","2.8","","66","","21","","28","","24.1","","100.72","","","","","","Clear"
"1998-12-15 12:00","1998","12","15","12:00","9.2","","2.9","","65","","22","","28","","24.1","","100.62","","","","","","Clear"
"1998-12-15 13:00","1998","12","15","13:00","9.6","","3.2","","64","","21","","28","","24.1","","100.55","","","","","","Mostly Cloudy"
"1998-12-15 14:00","1998","12","15","14:00","9.3","","3.4","","67","","22","","30","","24.1","","100.49","","","","","","Mostly Cloudy"
"1998-12-15 15:00","1998","12","15","15:00","8.9","","3.3","","68","","21","","28","","24.1","","100.49","","","","","","Mostly Cloudy"
"1998-12-15 16:00","1998","12","15","16:00","8.2","","2.9","","69","","22","","28","","24.1","","100.49","","","","","","Mostly Cloudy"
"1998-12-15 17:00","1998","12","15","17:00","7.7","","2.7","","71","","24","","19","","24.1","","100.49","","","","","","Mainly Clear"
"1998-12-15 18:00","1998","12","15","18:00","7.5","","2.6","","71","","22","","19","","24.1","","100.52","","","","","","Mainly Clear"
"1998-12-15 19:00","1998","12","15","19:00","7.7","","2.1","","68","","23","","19","","24.1","","100.49","","","","","","Mainly Clear"
"1998-12-15 20:00","1998","12","15","20:00","7.4","","1.8","","68","","23","","15","","24.1","","100.49","","","","","","Mainly Clear"
"1998-12-15 21:00","1998","12","15","21:00","6.7","","1.8","","71","","23","","19","","24.1","","100.45","","","","","","Mainly Clear"
"1998-12-15 22:00","1998","12","15","22:00","6.3","","1.8","","73","","22","","9","","24.1","","100.45","","","","","","Cloudy"
"1998-12-15 23:00","1998","12","15","23:00","","M","","M","","M","","M","","M","","M","","M","","","","","NA"
"1998-12-16 00:00","1998","12","16","00:00","","M","","M","","M","","M","","M","","M","","M","","","","","NA"
"1998-12-16 01:00","1998","12","16","01:00","","M","","M","","M","","M","","M","","M","","M","","","","","NA"
"1998-12-16 02:00","1998","12","16","02:00","","M","","M","","M","","M","","M","","M","","M","","","","","NA"
"1998-12-16 03:00","1998","12","16","03:00","","M","","M","","M","","M","","M","","M","","M","","","","","NA"
"1998-12-16 04:00","1998","12","16","04:00","","M","","M","","M","","M","","M","","M","","M","","","","","NA"
"1998-12-16 05:00","1998","12","16","05:00","","M","","M","","M","","M","","M","","M","","M","","","","","NA"
"1998-12-16 06:00","1998","12","16","06:00","2.6","","1.2","","90","","26","","4","","24.1","","100.35","","","","","","Mostly Cloudy"
"1998-12-16 07:00","1998","12","16","07:00","1.2","","0.7","","96","","","","0","","19.3","","100.32","","","","","","Mainly Clear"
"1998-12-16 08:00","1998","12","16","08:00","0.4","","-0.1","","96","","","","0","","12.9","","100.32","","","","","","Mostly Cloudy"
"1998-12-16 09:00","1998","12","16","09:00","3.3","","2.6","","95","","","","0","","9.7","","100.32","","","","","","Haze"
"1998-12-16 10:00","1998","12","16","10:00","4.6","","2.9","","89","","","","0","","9.7","","100.29","","","","","","Haze"
"1998-12-16 11:00","1998","12","16","11:00","4.9","","2.0","","81","","34","","4","","16.1","","100.22","","","","","","Mostly Cloudy"
"1998-12-16 12:00","1998","12","16","12:00","5.0","","1.5","","78","","","","0","","24.1","","100.15","","","","","","Mostly Cloudy"
"1998-12-16 13:00","1998","12","16","13:00","5.1","","0.9","","74","","","","0","","24.1","","100.08","","","","","","Mostly Cloudy"
"1998-12-16 14:00","1998","12","16","14:00","5.3","","1.4","","76","","","","0","","24.1","","99.95","","","","","","Cloudy"
"1998-12-16 15:00","1998","12","16","15:00","5.2","","1.6","","78","","32","","4","","19.3","","99.95","","","","","","Cloudy"
"1998-12-16 16:00","1998","12","16","16:00","4.4","","1.9","","84","","","","0","","16.1","","99.92","","","","","","Cloudy"
"1998-12-16 17:00","1998","12","16","17:00","3.5","","1.6","","87","","","","0","","14.5","","99.88","","","","","","Cloudy"
"1998-12-16 18:00","1998","12","16","18:00","3.3","","2.1","","92","","34","","4","","24.1","","99.85","","","","","","Cloudy"
"1998-12-16 19:00","1998","12","16","19:00","3.0","","1.7","","91","","","","0","","24.1","","99.82","","","","","","Cloudy"
"1998-12-16 20:00","1998","12","16","20:00","3.7","","0.9","","82","","","","0","","24.1","","99.78","","","","","","Rain"
"1998-12-16 21:00","1998","12","16","21:00","3.5","","0.9","","83","","","","0","","24.1","","99.72","","","","","","Cloudy"
"1998-12-16 22:00","1998","12","16","22:00","3.0","","2.5","","97","","29","","2","","9.7","","99.68","","","","","","Rain,Fog"
"1998-12-16 23:00","1998","12","16","23:00","","M","","M","","M","","M","","M","","M","","M","","","","","NA"
"1998-12-17 00:00","1998","12","17","00:00","","M","","M","","M","","M","","M","","M","","M","","","","","NA"
"1998-12-17 01:00","1998","12","17","01:00","","M","","M","","M","","M","","M","","M","","M","","","","","NA"
"1998-12-17 02:00","1998","12","17","02:00","","M","","M","","M","","M","","M","","M","","M","","","","","NA"
"1998-12-17 03:00","1998","12","17","03:00","","M","","M","","M","","M","","M","","M","","M","","","","","NA"
"1998-12-17 04:00","1998","12","17","04:00","","M","","M","","M","","M","","M","","M","","M","","","","","NA"
"1998-12-17 05:00","1998","12","17","05:00","","M","","M","","M","","M","","M","","M","","M","","","","","NA"
"1998-12-17 06:00","1998","12","17","06:00","1.5","","1.3","","99","","6","","9","","4.8","","99.48","","","","","","Rain Showers,Fog"
"1998-12-17 07:00","1998","12","17","07:00","1.0","","0.2","","94","","2","","19","","6.4","","99.51","","","","","","Rain Showers,Fog"
"1998-12-17 08:00","1998","12","17","08:00","0.1","","-0.3","","97","","2","","19","","0.8","","99.58","","","","","","Snow Showers,Fog"
"1998-12-17 09:00","1998","12","17","09:00","-0.2","","-0.2","","100","","3","","6","","1.6","","99.65","","","","-2","","Snow Showers,Fog"
"1998-12-17 10:00","1998","12","17","10:00","0.2","","0.2","","100","","4","","9","","3.2","","99.68","","","","","","Snow Showers,Fog"
"1998-12-17 11:00","1998","12","17","11:00","0.6","","0.0","","96","","2","","9","","24.1","","99.68","","","","","","Mostly Cloudy"
"1998-12-17 12:00","1998","12","17","12:00","1.1","","-0.8","","87","","33","","6","","24.1","","99.65","","","","","","Mostly Cloudy"
"1998-12-17 13:00","1998","12","17","13:00","1.1","","-1.0","","86","","33","","9","","24.1","","99.65","","","","","","Mostly Cloudy"
"1998-12-17 14:00","1998","12","17","14:00","1.3","","-1.2","","83","","31","","9","","24.1","","99.68","","","","","","Mostly Cloudy"
"1998-12-17 15:00","1998","12","17","15:00","1.5","","-1.8","","79","","32","","11","","24.1","","99.72","","","","","","Mostly Cloudy"
"1998-12-17 16:00","1998","12","17","16:00","1.1","","-2.0","","80","","32","","4","","19.3","","99.78","","","","","","Mostly Cloudy"
"1998-12-17 17:00","1998","12","17","17:00","0.8","","-2.3","","80","","","","0","","19.3","","99.78","","","","","","Cloudy"
"1998-12-17 18:00","1998","12","17","18:00","0.5","","-1.6","","86","","","","0","","24.1","","99.82","","","","","","Cloudy"
"1998-12-17 19:00","1998","12","17","19:00","-0.1","","-1.5","","90","","16","","2","","24.1","","99.85","","","","-1","","Cloudy"
"1998-12-17 20:00","1998","12","17","20:00","0.1","","-1.3","","90","","","","0","","9.7","","99.92","","","","","","Snow"
"1998-12-17 21:00","1998","12","17","21:00","0.0","","-1.7","","88","","","","0","","48.3","","99.95","","","","","","Snow"
"1998-12-17 22:00","1998","12","17","22:00","0.3","","-2.7","","80","","36","","15","","48.3","","100.02","","","","","","Cloudy"
"1998-12-17 23:00","1998","12","17","23:00","","M","","M","","M","","M","","M","","M","","M","","","","","NA"
"1998-12-18 00:00","1998","12","18","00:00","","M","","M","","M","","M","","M","","M","","M","","","","","NA"
"1998-12-18 01:00","1998","12","18","01:00","","M","","M","","M","","M","","M","","M","","M","","","","","NA"
"1998-12-18 02:00","1998","12","18","02:00","","M","","M","","M","","M","","M","","M","","M","","","","","NA"
"1998-12-18 03:00","1998","12","18","03:00","","M","","M","","M","","M","","M","","M","","M","","","","","NA"
"1998-12-18 04:00","1998","12","18","04:00","","M","","M","","M","","M","","M","","M","","M","","","","","NA"
"1998-12-18 05:00","1998","12","18","05:00","","M","","M","","M","","M","","M","","M","","M","","","","","NA"
"1998-12-18 06:00","1998","12","18","06:00","-4.4","","-8.5","","73","","32","","13","","24.1","","100.82","","","","-9","","Mainly Clear"
"1998-12-18 07:00","1998","12","18","07:00","-5.5","","-9.0","","76","","34","","6","","24.1","","100.96","","","","-8","","Clear"
"1998-12-18 08:00","1998","12","18","08:00","-6.1","","-9.2","","79","","","","0","","24.1","","100.99","","","","","","Clear"
"1998-12-18 09:00","1998","12","18","09:00","-4.0","","-8.3","","72","","","","0","","24.1","","101.09","","","","","","Clear"
"1998-12-18 10:00","1998","12","18","10:00","-2.7","","-8.9","","62","","","","0","","24.1","","101.19","","","","","","Mainly Clear"
"1998-12-18 11:00","1998","12","18","11:00","-2.2","","-8.6","","61","","21","","6","","24.1","","101.16","","","","-5","","Mainly Clear"
"1998-12-18 12:00","1998","12","18","12:00","-2.0","","-8.2","","62","","","","0","","24.1","","101.12","","","","","","Mostly Cloudy"
"1998-12-18 13:00","1998","12","18","13:00","-0.9","","-8.2","","58","","","","0","","24.1","","101.06","","","","","","Mainly Clear"
"1998-12-18 14:00","1998","12","18","14:00","-0.1","","-8.2","","54","","17","","13","","24.1","","100.99","","","","-4","","Mainly Clear"
"1998-12-18 15:00","1998","12","18","15:00","-0.2","","-8.5","","54","","12","","7","","24.1","","100.92","","","","-3","","Mostly Cloudy"
"1998-12-18 16:00","1998","12","18","16:00","-0.1","","-6.0","","64","","14","","9","","24.1","","100.89","","","","-3","","Cloudy"
"1998-12-18 17:00","1998","12","18","17:00","0.0","","-6.2","","63","","13","","9","","24.1","","100.86","","","","-3","","Cloudy"
"1998-12-18 18:00","1998","12","18","18:00","0.3","","-6.5","","60","","13","","15","","24.1","","100.69","","","","","","Cloudy"
"1998-12-18 19:00","1998","12","18","19:00","1.0","","-5.6","","61","","15","","19","","24.1","","100.59","","","","","","Cloudy"
"1998-12-18 20:00","1998","12","18","20:00","1.2","","-4.1","","68","","15","","15","","24.1","","100.52","","","","","","Cloudy"
"1998-12-18 21:00","1998","12","18","21:00","1.9","","-4.5","","62","","17","","17","","24.1","","100.45","","","","","","Cloudy"
"1998-12-18 22:00","1998","12","18","22:00","2.3","","-4.1","","63","","16","","17","","24.1","","100.35","","","","","","Cloudy"
"1998-12-18 23:00","1998","12","18","23:00","","M","","M","","M","","M","","M","","M","","M","","","","","NA"
"1998-12-19 00:00","1998","12","19","00:00","","M","","M","","M","","M","","M","","M","","M","","","","","NA"
"1998-12-19 01:00","1998","12","19","01:00","","M","","M","","M","","M","","M","","M","","M","","","","","NA"
"1998-12-19 02:00","1998","12","19","02:00","","M","","M","","M","","M","","M","","M","","M","","","","","NA"
"1998-12-19 03:00","1998","12","19","03:00","","M","","M","","M","","M","","M","","M","","M","","","","","NA"
"1998-12-19 04:00","1998","12","19","04:00","","M","","M","","M","","M","","M","","M","","M","","","","","NA"
"1998-12-19 05:00","1998","12","19","05:00","","M","","M","","M","","M","","M","","M","","M","","","","","NA"
"1998-12-19 06:00","1998","12","19","06:00","5.1","","3.8","","91","","21","","28","","12.9","","100.32","","","","","","Rain"
"1998-12-19 07:00","1998","12","19","07:00","5.7","","4.4","","91","","22","","24","","12.9","","100.32","","","","","","Rain"
"1998-12-19 08:00","1998","12","19","08:00","5.8","","2.9","","82","","21","","19","","19.3","","100.39","","","","","","Cloudy"
"1998-12-19 09:00","1998","12","19","09:00","6.2","","2.7","","78","","22","","19","","19.3","","100.42","","","","","","Rain"
"1998-12-19 10:00","1998","12","19","10:00","6.1","","3.5","","83","","22","","24","","16.1","","100.45","","","","","","Rain"
"1998-12-19 11:00","1998","12","19","11:00","6.6","","3.5","","81","","22","","28","","19.3","","100.45","","","","","","Rain"
"1998-12-19 12:00","1998","12","19","12:00","5.9","","3.1","","82","","21","","24","","19.3","","100.45","","","","","","Rain"
"1998-12-19 13:00","1998","12","19","13:00","6.8","","4.1","","83","","22","","24","","24.1","","100.45","","","","","","Cloudy"
"1998-12-19 14:00","1998","12","19","14:00","7.0","","4.0","","81","","22","","19","","24.1","","100.45","","","","","","Cloudy"
"1998-12-19 15:00","1998","12","19","15:00","7.2","","3.5","","77","","24","","30","","24.1","","100.52","","","","","","Cloudy"
"1998-12-19 16:00","1998","12","19","16:00","6.9","","3.6","","79","","24","","22","","19.3","","100.65","","","","","","Rain Showers"
"1998-12-19 17:00","1998","12","19","17:00","6.6","","3.8","","82","","24","","19","","19.3","","100.72","","","","","","Rain Showers"
"1998-12-19 18:00","1998","12","19","18:00","6.4","","3.9","","84","","25","","19","","19.3","","100.82","","","","","","Cloudy"
"1998-12-19 19:00","1998","12","19","19:00","5.8","","3.8","","87","","27","","19","","19.3","","100.92","","","","","","Cloudy"
"1998-12-19 20:00","1998","12","19","20:00","5.1","","3.3","","88","","27","","17","","12.9","","100.99","","","","","","Rain Showers"
"1998-12-19 21:00","1998","12","19","21:00","5.0","","2.5","","84","","26","","11","","16.1","","101.09","","","","","","Cloudy"
"1998-12-19 22:00","1998","12","19","22:00","4.3","","0.3","","75","","29","","22","","16.1","","101.16","","","","","","Cloudy"
"1998-12-19 23:00","1998","12","19","23:00","","M","","M","","M","","M","","M","","M","","M","","","","","NA"
"1998-12-20 00:00","1998","12","20","00:00","","M","","M","","M","","M","","M","","M","","M","","","","","NA"
"1998-12-20 01:00","1998","12","20","01:00","","M","","M","","M","","M","","M","","M","","M","","","","","NA"
"1998-12-20 02:00","1998","12","20","02:00","","M","","M","","M","","M","","M","","M","","M","","","","","NA"
"1998-12-20 03:00","1998","12","20","03:00","","M","","M","","M","","M","","M","","M","","M","","","","","NA"
"1998-12-20 04:00","1998","12","20","04:00","","M","","M","","M","","M","","M","","M","","M","","","","","NA"
"1998-12-20 05:00","1998","12","20","05:00","","M","","M","","M","","M","","M","","M","","M","","","","","NA"
"1998-12-20 06:00","1998","12","20","06:00","0.3","","-2.4","","82","","1","","20","","24.1","","101.69","","","","","","Cloudy"
"1998-12-20 07:00","1998","12","20","07:00","-0.6","","-3.3","","82","","2","","4","","48.3","","101.80","","","","-2","","Mostly Cloudy"
"1998-12-20 08:00","1998","12","20","08:00","-2.1","","-4.1","","86","","36","","6","","48.3","","101.86","","","","-4","","Mostly Cloudy"
"1998-12-20 09:00","1998","12","20","09:00","0.1","","-2.8","","81","","5","","6","","48.3","","101.90","","","","","","Mostly Cloudy"
"1998-12-20 10:00","1998","12","20","10:00","0.5","","-2.4","","81","","6","","11","","48.3","","101.93","","","","","","Cloudy"
"1998-12-20 11:00","1998","12","20","11:00","1.2","","-2.0","","79","","7","","9","","48.3","","101.93","","","","","","Cloudy"
"1998-12-20 12:00","1998","12","20","12:00","1.8","","-1.9","","76","","12","","4","","48.3","","101.86","","","","","","Cloudy"
"1998-12-20 13:00","1998","12","20","13:00","1.7","","-1.1","","82","","6","","19","","24.1","","101.80","","","","","","Cloudy"
"1998-12-20 14:00","1998","12","20","14:00","0.9","","-1.2","","86","","8","","19","","24.1","","101.73","","","","","","Cloudy"
"1998-12-20 15:00","1998","12","20","15:00","1.0","","-1.0","","86","","8","","17","","24.1","","101.69","","","","","","Cloudy"
"1998-12-20 16:00","1998","12","20","16:00","0.8","","-1.0","","88","","9","","15","","24.1","","101.66","","","","","","Cloudy"
"1998-12-20 17:00","1998","12","20","17:00","0.3","","-1.0","","91","","8","","9","","11.3","","101.66","","","","","","Snow"
"1998-12-20 18:00","1998","12","20","18:00","0.1","","-0.9","","93","","9","","11","","8.0","","101.66","","","","","","Snow"
"1998-12-20 19:00","1998","12","20","19:00","0.0","","-0.8","","94","","9","","15","","9.7","","101.53","","","","-4","","Snow"
"1998-12-20 20:00","1998","12","20","20:00","0.2","","-0.6","","94","","8","","13","","24.1","","101.49","","","","","","Cloudy"
"1998-12-20 21:00","1998","12","20","21:00","0.3","","-0.5","","94","","9","","13","","24.1","","101.43","","","","","","Cloudy"
"1998-12-20 22:00","1998","12","20","22:00","0.5","","-0.4","","94","","8","","11","","19.3","","101.36","","","","","","Cloudy"
"1998-12-20 23:00","1998","12","20","23:00","","M","","M","","M","","M","","M","","M","","M","","","","","NA"
"1998-12-21 00:00","1998","12","21","00:00","","M","","M","","M","","M","","M","","M","","M","","","","","NA"
"1998-12-21 01:00","1998","12","21","01:00","","M","","M","","M","","M","","M","","M","","M","","","","","NA"
"1998-12-21 02:00","1998","12","21","02:00","","M","","M","","M","","M","","M","","M","","M","","","","","NA"
"1998-12-21 03:00","1998","12","21","03:00","","M","","M","","M","","M","","M","","M","","M","","","","","NA"
"1998-12-21 04:00","1998","12","21","04:00","","M","","M","","M","","M","","M","","M","","M","","","","","NA"
"1998-12-21 05:00","1998","12","21","05:00","","M","","M","","M","","M","","M","","M","","M","","","","","NA"
"1998-12-21 06:00","1998","12","21","06:00","2.5","","2.1","","97","","","","0","","16.1","","100.89","","","","","","Cloudy"
"1998-12-21 07:00","1998","12","21","07:00","4.2","","3.7","","97","","","","0","","8.0","","100.86","","","","","","Rain Showers,Fog"
"1998-12-21 08:00","1998","12","21","08:00","5.5","","5.4","","99","","","","0","","8.0","","100.82","","","","","","Drizzle,Fog"
"1998-12-21 09:00","1998","12","21","09:00","6.9","","6.6","","98","","19","","6","","8.0","","100.79","","","","","","Rain,Fog"
"1998-12-21 10:00","1998","12","21","10:00","7.8","","7.2","","96","","19","","13","","9.7","","100.59","","","","","","Rain,Fog"
"1998-12-21 11:00","1998","12","21","11:00","8.2","","7.4","","95","","19","","13","","9.7","","100.49","","","","","","Rain,Fog"
"1998-12-21 12:00","1998","12","21","12:00","8.2","","7.8","","97","","17","","15","","8.0","","100.32","","","","","","Rain,Fog"
"1998-12-21 13:00","1998","12","21","13:00","8.7","","8.4","","98","","18","","4","","4.8","","100.05","","","","","","Rain,Fog"
"1998-12-21 14:00","1998","12","21","14:00","9.0","","8.7","","98","","21","","11","","6.4","","100.02","","","","","","Rain,Fog"
"1998-12-21 15:00","1998","12","21","15:00","9.5","","9.1","","97","","22","","15","","6.4","","99.98","","","","","","Rain,Fog"
"1998-12-21 16:00","1998","12","21","16:00","9.8","","9.5","","98","","22","","9","","8.0","","99.85","","","","","","Fog"
"1998-12-21 17:00","1998","12","21","17:00","9.7","","9.6","","99","","24","","9","","1.6","","99.88","","","","","","Drizzle,Fog"
"1998-12-21 18:00","1998","12","21","18:00","9.4","","9.3","","99","","22","","6","","3.2","","99.72","","","","","","Fog"
"1998-12-21 19:00","1998","12","21","19:00","8.9","","8.9","","100","","24","","4","","2.8","","99.55","","","","","","Drizzle,Fog"
"1998-12-21 20:00","1998","12","21","20:00","6.8","","6.8","","100","","33","","9","","2.4","","99.48","","","","","","Rain,Fog"
"1998-12-21 21:00","1998","12","21","21:00","5.1","","5.1","","100","","31","","24","","2.8","","99.38","","","","","","Rain,Fog"
"1998-12-21 22:00","1998","12","21","22:00","3.2","","3.2","","100","","31","","24","","4.0","","99.45","","","","","","Rain,Fog"
"1998-12-21 23:00","1998","12","21","23:00","","M","","M","","M","","M","","M","","M","","M","","","","","NA"
"1998-12-22 00:00","1998","12","22","00:00","","M","","M","","M","","M","","M","","M","","M","","","","","NA"
"1998-12-22 01:00","1998","12","22","01:00","","M","","M","","M","","M","","M","","M","","M","","","","","NA"
"1998-12-22 02:00","1998","12","22","02:00","","M","","M","","M","","M","","M","","M","","M","","","","","NA"
"1998-12-22 03:00","1998","12","22","03:00","","M","","M","","M","","M","","M","","M","","M","","","","","NA"
"1998-12-22 04:00","1998","12","22","04:00","","M","","M","","M","","M","","M","","M","","M","","","","","NA"
"1998-12-22 05:00","1998","12","22","05:00","","M","","M","","M","","M","","M","","M","","M","","","","","NA"
"1998-12-22 06:00","1998","12","22","06:00","-1.6","","-3.6","","86","","28","","30","","3.2","","99.98","","","","-9","","Snow Showers"
"1998-12-22 07:00","1998","12","22","07:00","-1.8","","-4.4","","82","","28","","28","","4.8","","100.12","","","","-9","","Snow Showers"
"1998-12-22 08:00","1998","12","22","08:00","-2.2","","-6.4","","73","","26","","26","","4.8","","100.29","","","","-9","","Snow Showers"
"1998-12-22 09:00","1998","12","22","09:00","-2.8","","-7.3","","71","","27","","33","","19.3","","100.42","","","","-10","","Mostly Cloudy"
"1998-12-22 10:00","1998","12","22","10:00","-4.0","","-5.4","","90","","26","","28","","9.7","","100.59","","","","-11","","Snow Showers"
"1998-12-22 11:00","1998","12","22","11:00","-4.7","","-8.8","","73","","26","","39","","16.1","","100.62","","","","-14","","Mostly Cloudy"
"1998-12-22 12:00","1998","12","22","12:00","-6.7","","-10.9","","72","","26","","39","","19.3","","100.79","","","","-16","","Snow Showers"
"1998-12-22 13:00","1998","12","22","13:00","-7.2","","-14.1","","58","","25","","44","","24.1","","100.99","","","","-17","","Mainly Clear"
"1998-12-22 14:00","1998","12","22","14:00","-7.8","","-14.5","","59","","25","","41","","24.1","","101.12","","","","-18","","Mostly Cloudy"
"1998-12-22 15:00","1998","12","22","15:00","-8.5","","-15.3","","58","","26","","28","","24.1","","101.33","","","","-17","","Mainly Clear"
"1998-12-22 16:00","1998","12","22","16:00","-9.1","","-15.5","","60","","26","","37","","24.1","","101.49","","","","-19","","Mainly Clear"
"1998-12-22 17:00","1998","12","22","17:00","-9.7","","-15.8","","61","","25","","24","","24.1","","101.69","","","","-18","","Mainly Clear"
"1998-12-22 18:00","1998","12","22","18:00","-10.2","","-16.3","","61","","24","","22","","24.1","","101.83","","","","-18","","Mainly Clear"
"1998-12-22 19:00","1998","12","22","19:00","-10.5","","-16.5","","61","","24","","28","","24.1","","101.96","","","","-20","","Mainly Clear"
"1998-12-22 20:00","1998","12","22","20:00","-10.8","","-16.2","","64","","24","","22","","24.1","","101.96","","","","-19","","Mainly Clear"
"1998-12-22 21:00","1998","12","22","21:00","-10.9","","-16.4","","64","","25","","22","","24.1","","102.03","","","","-19","","Clear"
"1998-12-22 22:00","1998","12","22","22:00","-11.2","","-16.3","","66","","25","","19","","24.1","","102.06","","","","-19","","Clear"
"1998-12-22 23:00","1998","12","22","23:00","","M","","M","","M","","M","","M","","M","","M","","","","","NA"
"1998-12-23 00:00","1998","12","23","00:00","","M","","M","","M","","M","","M","","M","","M","","","","","NA"
"1998-12-23 01:00","1998","12","23","01:00","","M","","M","","M","","M","","M","","M","","M","","","","","NA"
"1998-12-23 02:00","1998","12","23","02:00","","M","","M","","M","","M","","M","","M","","M","","","","","NA"
"1998-12-23 03:00","1998","12","23","03:00","","M","","M","","M","","M","","M","","M","","M","","","","","NA"
"1998-12-23 04:00","1998","12","23","04:00","","M","","M","","M","","M","","M","","M","","M","","","","","NA"
"1998-12-23 05:00","1998","12","23","05:00","","M","","M","","M","","M","","M","","M","","M","","","","","NA"
"1998-12-23 06:00","1998","12","23","06:00","-12.8","","-16.4","","74","","23","","19","","24.1","","102.10","","","","-21","","Mainly Clear"
"1998-12-23 07:00","1998","12","23","07:00","-12.4","","-16.2","","73","","24","","19","","48.3","","102.13","","","","-21","","Mostly Cloudy"
"1998-12-23 08:00","1998","12","23","08:00","-11.4","","-16.0","","69","","22","","19","","48.3","","102.13","","","","-19","","Mostly Cloudy"
"1998-12-23 09:00","1998","12","23","09:00","-10.1","","-15.3","","66","","25","","15","","48.3","","102.13","","","","-17","","Mostly Cloudy"
"1998-12-23 10:00","1998","12","23","10:00","-8.4","","-14.6","","61","","26","","9","","48.3","","102.13","","","","-13","","Mostly Cloudy"
"1998-12-23 11:00","1998","12","23","11:00","-7.1","","-14.4","","56","","23","","15","","48.3","","102.10","","","","-13","","Mostly Cloudy"
"1998-12-23 12:00","1998","12","23","12:00","-6.7","","-13.6","","58","","26","","15","","48.3","","102.00","","","","-13","","Mostly Cloudy"
"1998-12-23 13:00","1998","12","23","13:00","-5.4","","-12.8","","56","","26","","13","","48.3","","101.90","","","","-11","","Mostly Cloudy"
"1998-12-23 14:00","1998","12","23","14:00","-5.4","","-12.5","","57","","24","","9","","48.3","","101.83","","","","-9","","Mostly Cloudy"
"1998-12-23 15:00","1998","12","23","15:00","-5.3","","-12.7","","56","","25","","13","","48.3","","101.80","","","","-10","","Mostly Cloudy"
"1998-12-23 16:00","1998","12","23","16:00","-5.4","","-12.5","","57","","24","","22","","48.3","","101.80","","","","-12","","Mostly Cloudy"
"1998-12-23 17:00","1998","12","23","17:00","-5.7","","-11.8","","62","","24","","11","","24.1","","101.76","","","","-10","","Mostly Cloudy"
"1998-12-23 18:00","1998","12","23","18:00","-6.5","","-11.0","","70","","22","","11","","24.1","","101.69","","","","-11","","Mostly Cloudy"
"1998-12-23 19:00","1998","12","23","19:00","-6.5","","-10.1","","76","","21","","9","","24.1","","101.69","","","","-11","","Mostly Cloudy"
"1998-12-23 20:00","1998","12","23","20:00","-6.5","","-9.3","","80","","23","","6","","24.1","","101.69","","","","-9","","Mostly Cloudy"
"1998-12-23 21:00","1998","12","23","21:00","-6.8","","-9.2","","83","","23","","4","","24.1","","101.66","","","","-9","","Mostly Cloudy"
"1998-12-23 22:00","1998","12","23","22:00","-6.4","","-9.2","","80","","24","","7","","24.1","","101.69","","","","-10","","Mostly Cloudy"
"1998-12-23 23:00","1998","12","23","23:00","","M","","M","","M","","M","","M","","M","","M","","","","","NA"
"1998-12-24 00:00","1998","12","24","00:00","","M","","M","","M","","M","","M","","M","","M","","","","","NA"
"1998-12-24 01:00","1998","12","24","01:00","","M","","M","","M","","M","","M","","M","","M","","","","","NA"
"1998-12-24 02:00","1998","12","24","02:00","","M","","M","","M","","M","","M","","M","","M","","","","","NA"
"1998-12-24 03:00","1998","12","24","03:00","","M","","M","","M","","M","","M","","M","","M","","","","","NA"
"1998-12-24 04:00","1998","12","24","04:00","","M","","M","","M","","M","","M","","M","","M","","","","","NA"
"1998-12-24 05:00","1998","12","24","05:00","","M","","M","","M","","M","","M","","M","","M","","","","","NA"
"1998-12-24 06:00","1998","12","24","06:00","-8.1","","-12.6","","70","","26","","9","","24.1","","101.49","","","","-13","","Mainly Clear"
"1998-12-24 07:00","1998","12","24","07:00","-8.1","","-11.7","","75","","24","","11","","24.1","","101.49","","","","-13","","Mostly Cloudy"
"1998-12-24 08:00","1998","12","24","08:00","-8.7","","-11.7","","79","","24","","11","","24.1","","101.46","","","","-14","","Mostly Cloudy"
"1998-12-24 09:00","1998","12","24","09:00","-7.3","","-10.8","","76","","24","","15","","24.1","","101.46","","","","-13","","Mainly Clear"
"1998-12-24 10:00","1998","12","24","10:00","-5.1","","-10.7","","65","","24","","22","","24.1","","101.49","","","","-12","","Mainly Clear"
"1998-12-24 11:00","1998","12","24","11:00","-4.8","","-11.4","","60","","25","","24","","24.1","","101.49","","","","-12","","Mainly Clear"
"1998-12-24 12:00","1998","12","24","12:00","-4.7","","-13.1","","52","","25","","28","","24.1","","101.39","","","","-12","","Mainly Clear"
"1998-12-24 13:00","1998","12","24","13:00","-4.5","","-12.8","","52","","24","","26","","24.1","","101.39","","","","-12","","Mainly Clear"
"1998-12-24 14:00","1998","12","24","14:00","-4.6","","-12.6","","54","","25","","24","","24.1","","101.36","","","","-12","","Mainly Clear"
"1998-12-24 15:00","1998","12","24","15:00","-4.4","","-12.7","","52","","25","","28","","24.1","","101.39","","","","-12","","Mainly Clear"
"1998-12-24 16:00","1998","12","24","16:00","-4.5","","-13.1","","51","","26","","28","","24.1","","101.46","","","","-12","","Mainly Clear"
"1998-12-24 17:00","1998","12","24","17:00","-5.0","","-12.9","","54","","25","","19","","24.1","","101.46","","","","-11","","Mostly Cloudy"
"1998-12-24 18:00","1998","12","24","18:00","-5.4","","-12.4","","58","","24","","19","","24.1","","101.49","","","","-12","","Mainly Clear"
"1998-12-24 19:00","1998","12","24","19:00","-5.6","","-12.2","","60","","23","","19","","48.3","","101.49","","","","-12","","Mainly Clear"
"1998-12-24 20:00","1998","12","24","20:00","-5.6","","-12.3","","59","","23","","19","","48.3","","101.53","","","","-12","","Clear"
"1998-12-24 21:00","1998","12","24","21:00","-5.6","","-12.4","","59","","25","","19","","48.3","","101.56","","","","-12","","Clear"
"1998-12-24 22:00","1998","12","24","22:00","-5.9","","-12.8","","58","","25","","19","","48.3","","101.59","","","","-13","","Clear"
"1998-12-24 23:00","1998","12","24","23:00","","M","","M","","M","","M","","M","","M","","M","","","","","NA"
"1998-12-25 00:00","1998","12","25","00:00","","M","","M","","M","","M","","M","","M","","M","","","","","NA"
"1998-12-25 01:00","1998","12","25","01:00","","M","","M","","M","","M","","M","","M","","M","","","","","NA"
"1998-12-25 02:00","1998","12","25","02:00","","M","","M","","M","","M","","M","","M","","M","","","","","NA"
"1998-12-25 03:00","1998","12","25","03:00","","M","","M","","M","","M","","M","","M","","M","","","","","NA"
"1998-12-25 04:00","1998","12","25","04:00","","M","","M","","M","","M","","M","","M","","M","","","","","NA"
"1998-12-25 05:00","1998","12","25","05:00","","M","","M","","M","","M","","M","","M","","M","","","","","NA"
"1998-12-25 06:00","1998","12","25","06:00","-7.6","","-12.6","","67","","22","","22","","24.1","","101.56","","","","-15","","Mainly Clear"
"1998-12-25 07:00","1998","12","25","07:00","-6.1","","-12.1","","62","","24","","28","","24.1","","101.56","","","","-14","","Mostly Cloudy"
"1998-12-25 08:00","1998","12","25","08:00","-6.1","","-12.1","","62","","24","","19","","24.1","","101.56","","","","-13","","Mostly Cloudy"
"1998-12-25 09:00","1998","12","25","09:00","-5.4","","-11.5","","62","","23","","15","","24.1","","101.56","","","","-11","","Mostly Cloudy"
"1998-12-25 10:00","1998","12","25","10:00","-2.6","","-10.6","","54","","25","","17","","24.1","","101.63","","","","-8","","Mostly Cloudy"
"1998-12-25 11:00","1998","12","25","11:00","-1.9","","-11.1","","49","","25","","30","","24.1","","101.63","","","","-9","","Mainly Clear"
"1998-12-25 12:00","1998","12","25","12:00","-1.2","","-11.0","","47","","24","","30","","24.1","","101.59","","","","-8","","Mainly Clear"
"1998-12-25 13:00","1998","12","25","13:00","-1.2","","-11.8","","44","","25","","20","","24.1","","101.46","","","","-7","","Mainly Clear"
"1998-12-25 14:00","1998","12","25","14:00","-1.0","","-10.9","","47","","24","","19","","24.1","","101.43","","","","-6","","Mainly Clear"
"1998-12-25 15:00","1998","12","25","15:00","-0.8","","-12.0","","42","","23","","30","","24.1","","101.39","","","","-8","","Mainly Clear"
"1998-12-25 16:00","1998","12","25","16:00","-0.8","","-10.4","","48","","22","","28","","24.1","","101.33","","","","-7","","Mainly Clear"
"1998-12-25 17:00","1998","12","25","17:00","-2.1","","-8.0","","64","","22","","9","","24.1","","101.26","","","","-6","","Mainly Clear"
"1998-12-25 18:00","1998","12","25","18:00","-1.9","","-7.9","","63","","22","","20","","24.1","","101.22","","","","-8","","Mainly Clear"
"1998-12-25 19:00","1998","12","25","19:00","-2.4","","-10.1","","55","","20","","19","","24.1","","101.22","","","","-8","","Mainly Clear"
"1998-12-25 20:00","1998","12","25","20:00","-2.3","","-10.4","","54","","20","","20","","24.1","","101.16","","","","-8","","Mainly Clear"
"1998-12-25 21:00","1998","12","25","21:00","-1.8","","-9.8","","54","","21","","22","","24.1","","101.12","","","","-8","","Mostly Cloudy"
"1998-12-25 22:00","1998","12","25","22:00","-1.6","","-8.9","","57","","22","","30","","24.1","","101.12","","","","-9","","Mostly Cloudy"
"1998-12-25 23:00","1998","12","25","23:00","","M","","M","","M","","M","","M","","M","","M","","","","","NA"
"1998-12-26 00:00","1998","12","26","00:00","","M","","M","","M","","M","","M","","M","","M","","","","","NA"
"1998-12-26 01:00","1998","12","26","01:00","","M","","M","","M","","M","","M","","M","","M","","","","","NA"
"1998-12-26 02:00","1998","12","26","02:00","","M","","M","","M","","M","","M","","M","","M","","","","","NA"
"1998-12-26 03:00","1998","12","26","03:00","","M","","M","","M","","M","","M","","M","","M","","","","","NA"
"1998-12-26 04:00","1998","12","26","04:00","","M","","M","","M","","M","","M","","M","","M","","","","","NA"
"1998-12-26 05:00","1998","12","26","05:00","","M","","M","","M","","M","","M","","M","","M","","","","","NA"
"1998-12-26 06:00","1998","12","26","06:00","-1.8","","-8.0","","63","","19","","19","","24.1","","100.49","","","","-7","","Mostly Cloudy"
"1998-12-26 07:00","1998","12","26","07:00","-1.3","","-7.6","","62","","20","","20","","24.1","","100.39","","","","-7","","Mostly Cloudy"
"1998-12-26 08:00","1998","12","26","08:00","-0.7","","-7.3","","61","","20","","26","","24.1","","100.32","","","","-7","","Mostly Cloudy"
"1998-12-26 09:00","1998","12","26","09:00","-0.8","","-7.1","","62","","21","","28","","24.1","","100.32","","","","-7","","Mostly Cloudy"
"1998-12-26 10:00","1998","12","26","10:00","0.6","","-6.2","","60","","22","","22","","24.1","","100.32","","","","","","Mostly Cloudy"
"1998-12-26 11:00","1998","12","26","11:00","0.8","","-5.3","","64","","22","","30","","24.1","","100.32","","","","","","Mostly Cloudy"
"1998-12-26 12:00","1998","12","26","12:00","1.2","","-5.1","","63","","25","","24","","24.1","","100.25","","","","","","Mainly Clear"
"1998-12-26 13:00","1998","12","26","13:00","1.4","","-5.3","","61","","24","","28","","19.3","","100.22","","","","","","Cloudy"
"1998-12-26 14:00","1998","12","26","14:00","0.5","","-3.9","","72","","26","","28","","19.3","","100.32","","","","","","Snow Showers"
"1998-12-26 15:00","1998","12","26","15:00","0.1","","-6.2","","63","","25","","24","","24.1","","100.39","","","","","","Mostly Cloudy"
"1998-12-26 16:00","1998","12","26","16:00","0.0","","-6.5","","62","","26","","20","","16.1","","100.52","","","","-5","","Mainly Clear"
"1998-12-26 17:00","1998","12","26","17:00","-2.4","","-4.5","","85","","26","","22","","4.8","","100.62","","","","-9","","Snow Showers"
"1998-12-26 18:00","1998","12","26","18:00","-1.6","","-5.1","","77","","26","","19","","19.3","","100.76","","","","-7","","Mostly Cloudy"
"1998-12-26 19:00","1998","12","26","19:00","-2.0","","-7.0","","69","","24","","20","","19.3","","100.86","","","","-8","","Mainly Clear"
"1998-12-26 20:00","1998","12","26","20:00","-2.9","","-7.9","","68","","25","","15","","19.3","","100.92","","","","-8","","Mainly Clear"
"1998-12-26 21:00","1998","12","26","21:00","-3.6","","-8.3","","70","","25","","15","","24.1","","100.96","","","","-9","","Mainly Clear"
"1998-12-26 22:00","1998","12","26","22:00","-3.8","","-8.6","","69","","25","","11","","24.1","","101.02","","","","-8","","Mainly Clear"
"1998-12-26 23:00","1998","12","26","23:00","","M","","M","","M","","M","","M","","M","","M","","","","","NA"
"1998-12-27 00:00","1998","12","27","00:00","","M","","M","","M","","M","","M","","M","","M","","","","","NA"
"1998-12-27 01:00","1998","12","27","01:00","","M","","M","","M","","M","","M","","M","","M","","","","","NA"
"1998-12-27 02:00","1998","12","27","02:00","","M","","M","","M","","M","","M","","M","","M","","","","","NA"
"1998-12-27 03:00","1998","12","27","03:00","","M","","M","","M","","M","","M","","M","","M","","","","","NA"
"1998-12-27 04:00","1998","12","27","04:00","","M","","M","","M","","M","","M","","M","","M","","","","","NA"
"1998-12-27 05:00","1998","12","27","05:00","","M","","M","","M","","M","","M","","M","","M","","","","","NA"
"1998-12-27 06:00","1998","12","27","06:00","-7.7","","-9.8","","85","","12","","4","","24.1","","101.02","","","","-10","","Mainly Clear"
"1998-12-27 07:00","1998","12","27","07:00","-5.4","","-7.8","","83","","11","","6","","24.1","","100.96","","","","-8","","Mostly Cloudy"
"1998-12-27 08:00","1998","12","27","08:00","-5.6","","-7.8","","84","","16","","4","","24.1","","100.96","","","","-7","","Mostly Cloudy"
"1998-12-27 09:00","1998","12","27","09:00","-2.5","","-5.4","","80","","16","","6","","24.1","","100.92","","","","-5","","Cloudy"
"1998-12-27 10:00","1998","12","27","10:00","-1.0","","-4.7","","76","","19","","22","","24.1","","100.89","","","","-7","","Cloudy"
"1998-12-27 11:00","1998","12","27","11:00","-0.1","","-4.6","","72","","16","","17","","24.1","","100.79","","","","-5","","Cloudy"
"1998-12-27 12:00","1998","12","27","12:00","1.0","","-3.9","","70","","17","","24","","24.1","","100.55","","","","","","Cloudy"
"1998-12-27 13:00","1998","12","27","13:00","3.1","","-3.9","","60","","18","","19","","24.1","","100.39","","","","","","Cloudy"
"1998-12-27 14:00","1998","12","27","14:00","4.3","","-4.1","","54","","18","","28","","24.1","","100.22","","","","","","Cloudy"
"1998-12-27 15:00","1998","12","27","15:00","5.1","","-5.3","","47","","18","","26","","24.1","","100.08","","","","","","Mostly Cloudy"
"1998-12-27 16:00","1998","12","27","16:00","5.8","","-4.9","","46","","20","","28","","24.1","","100.08","","","","","","Cloudy"
"1998-12-27 17:00","1998","12","27","17:00","5.9","","-3.7","","50","","21","","33","","24.1","","100.05","","","","","","Cloudy"
"1998-12-27 18:00","1998","12","27","18:00","6.2","","-3.5","","50","","23","","32","","24.1","","100.12","","","","","","Mostly Cloudy"
"1998-12-27 19:00","1998","12","27","19:00","5.9","","-2.5","","55","","23","","30","","24.1","","100.15","","","","","","Mostly Cloudy"
"1998-12-27 20:00","1998","12","27","20:00","6.0","","-2.5","","54","","22","","33","","24.1","","100.18","","","","","","Mostly Cloudy"
"1998-12-27 21:00","1998","12","27","21:00","5.8","","-2.5","","55","","22","","32","","24.1","","100.29","","","","","","Mostly Cloudy"
"1998-12-27 22:00","1998","12","27","22:00","5.3","","-1.4","","62","","23","","28","","24.1","","100.32","","","","","","Cloudy"
"1998-12-27 23:00","1998","12","27","23:00","","M","","M","","M","","M","","M","","M","","M","","","","","NA"
"1998-12-28 00:00","1998","12","28","00:00","","M","","M","","M","","M","","M","","M","","M","","","","","NA"
"1998-12-28 01:00","1998","12","28","01:00","","M","","M","","M","","M","","M","","M","","M","","","","","NA"
"1998-12-28 02:00","1998","12","28","02:00","","M","","M","","M","","M","","M","","M","","M","","","","","NA"
"1998-12-28 03:00","1998","12","28","03:00","","M","","M","","M","","M","","M","","M","","M","","","","","NA"
"1998-12-28 04:00","1998","12","28","04:00","","M","","M","","M","","M","","M","","M","","M","","","","","NA"
"1998-12-28 05:00","1998","12","28","05:00","","M","","M","","M","","M","","M","","M","","M","","","","","NA"
"1998-12-28 06:00","1998","12","28","06:00","1.7","","-1.6","","79","","24","","11","","24.1","","100.65","","","","","","Cloudy"
"1998-12-28 07:00","1998","12","28","07:00","0.9","","-1.9","","82","","23","","11","","24.1","","100.72","","","","","","Mostly Cloudy"
"1998-12-28 08:00","1998","12","28","08:00","0.0","","-2.2","","85","","24","","7","","19.3","","100.72","","","","-2","","Mostly Cloudy"
"1998-12-28 09:00","1998","12","28","09:00","-0.6","","-2.2","","89","","23","","6","","19.3","","100.82","","","","-3","","Mainly Clear"
"1998-12-28 10:00","1998","12","28","10:00","2.0","","-1.4","","78","","28","","7","","19.3","","100.92","","","","","","Mainly Clear"
"1998-12-28 11:00","1998","12","28","11:00","3.2","","-1.2","","73","","27","","11","","16.1","","100.96","","","","","","Mainly Clear"
"1998-12-28 12:00","1998","12","28","12:00","3.2","","-2.3","","67","","31","","11","","19.3","","100.92","","","","","","Mainly Clear"
"1998-12-28 13:00","1998","12","28","13:00","3.1","","-3.5","","62","","31","","7","","24.1","","100.82","","","","","","Mainly Clear"
"1998-12-28 14:00","1998","12","28","14:00","3.0","","-3.4","","63","","35","","4","","24.1","","100.79","","","","","","Mainly Clear"
"1998-12-28 15:00","1998","12","28","15:00","2.7","","-3.6","","63","","35","","4","","24.1","","100.76","","","","","","Mainly Clear"
"1998-12-28 16:00","1998","12","28","16:00","2.3","","-3.6","","65","","1","","4","","24.1","","100.69","","","","","","Mainly Clear"
"1998-12-28 17:00","1998","12","28","17:00","1.0","","-3.6","","71","","","","0","","24.1","","100.65","","","","","","Mainly Clear"
"1998-12-28 18:00","1998","12","28","18:00","-1.8","","-4.0","","85","","10","","4","","24.1","","100.62","","","","-3","","Clear"
"1998-12-28 19:00","1998","12","28","19:00","-2.5","","-4.6","","85","","","","0","","24.1","","100.62","","","","","","Clear"
"1998-12-28 20:00","1998","12","28","20:00","-3.2","","-4.4","","91","","12","","4","","24.1","","100.62","","","","-5","","Clear"
"1998-12-28 21:00","1998","12","28","21:00","-4.3","","-5.6","","91","","10","","4","","24.1","","100.62","","","","-6","","Clear"
"1998-12-28 22:00","1998","12","28","22:00","-1.6","","-3.6","","86","","12","","6","","24.1","","100.59","","","","-4","","Clear"
"1998-12-28 23:00","1998","12","28","23:00","","M","","M","","M","","M","","M","","M","","M","","","","","NA"
"1998-12-29 00:00","1998","12","29","00:00","","M","","M","","M","","M","","M","","M","","M","","","","","NA"
"1998-12-29 01:00","1998","12","29","01:00","","M","","M","","M","","M","","M","","M","","M","","","","","NA"
"1998-12-29 02:00","1998","12","29","02:00","","M","","M","","M","","M","","M","","M","","M","","","","","NA"
"1998-12-29 03:00","1998","12","29","03:00","","M","","M","","M","","M","","M","","M","","M","","","","","NA"
"1998-12-29 04:00","1998","12","29","04:00","","M","","M","","M","","M","","M","","M","","M","","","","","NA"
"1998-12-29 05:00","1998","12","29","05:00","","M","","M","","M","","M","","M","","M","","M","","","","","NA"
"1998-12-29 06:00","1998","12","29","06:00","0.1","","-1.7","","88","","16","","15","","16.1","","99.88","","","","","","Cloudy"
"1998-12-29 07:00","1998","12","29","07:00","0.9","","-1.3","","85","","16","","9","","12.9","","99.78","","","","","","Cloudy"
"1998-12-29 08:00","1998","12","29","08:00","1.2","","-1.6","","82","","15","","15","","11.3","","99.68","","","","","","Cloudy"
"1998-12-29 09:00","1998","12","29","09:00","1.2","","-1.5","","82","","17","","9","","11.3","","99.58","","","","","","Cloudy"
"1998-12-29 10:00","1998","12","29","10:00","2.0","","-0.7","","82","","17","","7","","11.3","","99.51","","","","","","Cloudy"
"1998-12-29 11:00","1998","12","29","11:00","2.5","","-0.3","","82","","17","","9","","12.9","","99.41","","","","","","Cloudy"
"1998-12-29 12:00","1998","12","29","12:00","3.0","","","M","","M","17","","9","","12.9","","99.21","","","","","","Cloudy"
"1998-12-29 13:00","1998","12","29","13:00","3.6","","1.3","","85","","19","","9","","16.1","","99.04","","","","","","Cloudy"
"1998-12-29 14:00","1998","12","29","14:00","4.4","","1.6","","82","","19","","9","","16.1","","98.94","","","","","","Cloudy"
"1998-12-29 15:00","1998","12","29","15:00","4.8","","2.0","","82","","19","","17","","11.3","","98.84","","","","","","Rain"
"1998-12-29 16:00","1998","12","29","16:00","3.8","","2.6","","92","","18","","13","","8.0","","98.81","","","","","","Rain,Fog"
"1998-12-29 17:00","1998","12","29","17:00","3.6","","2.7","","94","","20","","17","","8.0","","98.74","","","","","","Rain,Fog"
"1998-12-29 18:00","1998","12","29","18:00","3.3","","2.7","","96","","21","","11","","8.0","","98.68","","","","","","Rain,Fog"
"1998-12-29 19:00","1998","12","29","19:00","3.6","","2.8","","94","","22","","15","","8.0","","98.61","","","","","","Rain,Fog"
"1998-12-29 20:00","1998","12","29","20:00","2.7","","1.7","","93","","26","","19","","11.3","","98.61","","","","","","Rain"
"1998-12-29 21:00","1998","12","29","21:00","0.6","","-1.2","","88","","30","","28","","6.4","","98.64","","","","","","Snow"
"1998-12-29 22:00","1998","12","29","22:00","-2.4","","-3.5","","92","","33","","28","","4.8","","98.78","","","","-9","","Snow,Fog"
"1998-12-29 23:00","1998","12","29","23:00","","M","","M","","M","","M","","M","","M","","M","","","","","NA"
"1998-12-30 00:00","1998","12","30","00:00","","M","","M","","M","","M","","M","","M","","M","","","","","NA"
"1998-12-30 01:00","1998","12","30","01:00","","M","","M","","M","","M","","M","","M","","M","","","","","NA"
"1998-12-30 02:00","1998","12","30","02:00","","M","","M","","M","","M","","M","","M","","M","","","","","NA"
"1998-12-30 03:00","1998","12","30","03:00","","M","","M","","M","","M","","M","","M","","M","","","","","NA"
"1998-12-30 04:00","1998","12","30","04:00","","M","","M","","M","","M","","M","","M","","M","","","","","NA"
"1998-12-30 05:00","1998","12","30","05:00","","M","","M","","M","","M","","M","","M","","M","","","","","NA"
"1998-12-30 06:00","1998","12","30","06:00","-11.0","","-16.5","","64","","32","","22","","48.3","","99.85","","","","-20","","Mainly Clear"
"1998-12-30 07:00","1998","12","30","07:00","-11.6","","-16.7","","66","","32","","22","","24.1","","100.02","","","","-20","","Mostly Cloudy"
"1998-12-30 08:00","1998","12","30","08:00","-12.1","","-16.7","","69","","33","","28","","24.1","","100.08","","","","-22","","Mostly Cloudy"
"1998-12-30 09:00","1998","12","30","09:00","-12.0","","-15.4","","76","","33","","19","","24.1","","100.22","","","","-20","","Snow Showers"
"1998-12-30 10:00","1998","12","30","10:00","-11.6","","-14.7","","78","","32","","19","","24.1","","100.32","","","","-20","","Snow Showers"
"1998-12-30 11:00","1998","12","30","11:00","-11.6","","-15.0","","76","","32","","6","","4.0","","100.35","","","","-15","","Snow Showers"
"1998-12-30 12:00","1998","12","30","12:00","-10.8","","-15.2","","70","","28","","19","","24.1","","100.32","","","","-19","","Mostly Cloudy"
"1998-12-30 13:00","1998","12","30","13:00","-10.0","","-16.3","","60","","30","","7","","24.1","","100.32","","","","-14","","Mainly Clear"
"1998-12-30 14:00","1998","12","30","14:00","-9.8","","-15.8","","62","","31","","13","","24.1","","100.29","","","","-16","","Mostly Cloudy"
"1998-12-30 15:00","1998","12","30","15:00","-8.5","","-14.1","","64","","30","","22","","24.1","","100.32","","","","-16","","Mostly Cloudy"
"1998-12-30 16:00","1998","12","30","16:00","-8.7","","-14.9","","61","","29","","15","","24.1","","100.42","","","","-15","","Mostly Cloudy"
"1998-12-30 17:00","1998","12","30","17:00","-9.1","","-14.7","","64","","24","","22","","24.1","","100.52","","","","-17","","Mostly Cloudy"
"1998-12-30 18:00","1998","12","30","18:00","-9.4","","-14.9","","64","","24","","15","","24.1","","100.55","","","","-16","","Mostly Cloudy"
"1998-12-30 19:00","1998","12","30","19:00","-9.5","","-14.8","","65","","24","","15","","48.3","","100.55","","","","-16","","Mostly Cloudy"
"1998-12-30 20:00","1998","12","30","20:00","-9.3","","-13.3","","73","","23","","11","","19.3","","100.59","","","","-15","","Snow Showers"
"1998-12-30 21:00","1998","12","30","21:00","-8.7","","-11.4","","81","","23","","22","","19.3","","100.55","","","","-17","","Snow Showers"
"1998-12-30 22:00","1998","12","30","22:00","-8.1","","-11.6","","76","","22","","15","","24.1","","100.55","","","","-14","","Snow Showers"
"1998-12-30 23:00","1998","12","30","23:00","","M","","M","","M","","M","","M","","M","","M","","","","","NA"
"1998-12-31 00:00","1998","12","31","00:00","","M","","M","","M","","M","","M","","M","","M","","","","","NA"
"1998-12-31 01:00","1998","12","31","01:00","","M","","M","","M","","M","","M","","M","","M","","","","","NA"
"1998-12-31 02:00","1998","12","31","02:00","","M","","M","","M","","M","","M","","M","","M","","","","","NA"
"1998-12-31 03:00","1998","12","31","03:00","","M","","M","","M","","M","","M","","M","","M","","","","","NA"
"1998-12-31 04:00","1998","12","31","04:00","","M","","M","","M","","M","","M","","M","","M","","","","","NA"
"1998-12-31 05:00","1998","12","31","05:00","","M","","M","","M","","M","","M","","M","","M","","","","","NA"
"1998-12-31 06:00","1998","12","31","06:00","-7.6","","-13.7","","62","","27","","13","","48.3","","100.42","","","","-13","","Mostly Cloudy"
"1998-12-31 07:00","1998","12","31","07:00","-7.7","","-13.6","","63","","25","","15","","48.3","","100.42","","","","-14","","Mostly Cloudy"
"1998-12-31 08:00","1998","12","31","08:00","-7.8","","-13.1","","66","","26","","19","","24.1","","100.42","","","","-15","","Mostly Cloudy"
"1998-12-31 09:00","1998","12","31","09:00","-7.2","","-13.0","","63","","25","","13","","48.3","","100.42","","","","-13","","Cloudy"
"1998-12-31 10:00","1998","12","31","10:00","-6.7","","-13.0","","61","","25","","19","","48.3","","100.45","","","","-14","","Cloudy"
"1998-12-31 11:00","1998","12","31","11:00","-6.2","","-12.4","","61","","24","","19","","48.3","","100.39","","","","-13","","Cloudy"
"1998-12-31 12:00","1998","12","31","12:00","-5.6","","-12.8","","57","","26","","20","","48.3","","100.32","","","","-12","","Cloudy"
"1998-12-31 13:00","1998","12","31","13:00","-5.3","","-12.5","","57","","25","","20","","48.3","","100.22","","","","-12","","Cloudy"
"1998-12-31 14:00","1998","12","31","14:00","-5.2","","-12.9","","55","","27","","22","","48.3","","100.15","","","","-12","","Cloudy"
"1998-12-31 15:00","1998","12","31","15:00","-5.9","","-12.0","","62","","27","","28","","11.3","","100.15","","","","-14","","Snow Showers"
"1998-12-31 16:00","1998","12","31","16:00","-5.9","","-12.4","","60","","25","","19","","24.1","","100.18","","","","-13","","Cloudy"
"1998-12-31 17:00","1998","12","31","17:00","-5.9","","-13.2","","56","","28","","30","","24.1","","100.22","","","","-14","","Cloudy"
"1998-12-31 18:00","1998","12","31","18:00","-6.5","","-12.9","","60","","25","","28","","24.1","","100.22","","","","-15","","Cloudy"
"1998-12-31 19:00","1998","12","31","19:00","-6.5","","-13.0","","60","","27","","26","","24.1","","100.22","","","","-14","","Mostly Cloudy"
"1998-12-31 20:00","1998","12","31","20:00","-6.8","","-12.8","","62","","24","","28","","24.1","","100.22","","","","-15","","Mostly Cloudy"
"1998-12-31 21:00","1998","12","31","21:00","-7.1","","-12.1","","67","","25","","22","","24.1","","100.22","","","","-15","","Mostly Cloudy"
"1998-12-31 22:00","1998","12","31","22:00","-7.3","","-12.3","","67","","23","","22","","24.1","","100.25","","","","-15","","Mostly Cloudy"
"1998-12-31 23:00","1998","12","31","23:00","","M","","M","","M","","M","","M","","M","","M","","","","","NA"
