"Station Name","ST CATHARINES A"
"Province","ONTARIO"
"Latitude","43.20"
"Longitude","-79.17"
"Elevation","97.80"
"Climate Identifier","6137287"
"WMO Identifier",""
"TC Identifier","YSN"
"All times are specified in Local Standard Time (LST). Add 1 hour to adjust for Daylight Saving Time where and when it is observed."

"Legend"
"E","Estimated"
"M","Missing"
"NA","Not Available"

"Date/Time","Year","Month","Day","Time","Temp (°C)","Temp Flag","Dew Point Temp (°C)","Dew Point Temp Flag","Rel Hum (%)","Rel Hum Flag","Wind Dir (10s deg)","Wind Dir Flag","Wind Spd (km/h)","Wind Spd Flag","Visibility (km)","Visibility Flag","Stn Press (kPa)","Stn Press Flag","Hmdx","Hmdx Flag","Wind Chill","Wind Chill Flag","Weather"
"2005-12-01 00:00","2005","12","01","00:00"
"2005-12-01 01:00","2005","12","01","01:00"
"2005-12-01 02:00","2005","12","01","02:00"
"2005-12-01 03:00","2005","12","01","03:00"
"2005-12-01 04:00","2005","12","01","04:00"
"2005-12-01 05:00","2005","12","01","05:00"
"2005-12-01 06:00","2005","12","01","06:00","1.0","","-1.8","","82","","22","","9","","24.1","","100.63","","","","","","Cloudy"
"2005-12-01 07:00","2005","12","01","07:00","0.8","","-1.8","","83","","18","","9","","19.3","","100.57","","","","","","Cloudy"
"2005-12-01 08:00","2005","12","01","08:00","1.0","","-1.8","","82","","","","0","","19.3","","100.54","","","","","","Cloudy"
"2005-12-01 09:00","2005","12","01","09:00","1.3","","-1.8","","80","","","","0","","19.3","","100.47","","","","","","Cloudy"
"2005-12-01 10:00","2005","12","01","10:00","1.6","","-2.4","","75","","","","0","","19.3","","100.39","","","","","","Cloudy"
"2005-12-01 11:00","2005","12","01","11:00","1.8","","-2.0","","76","","","","0","","19.3","","100.33","","","","","","Cloudy"
"2005-12-01 12:00","2005","12","01","12:00","1.9","","-2.6","","72","","","","0","","16.1","","100.21","","","","","","Cloudy"
"2005-12-01 13:00","2005","12","01","13:00","1.9","","-1.6","","78","","","","0","","12.9","","100.06","","","","","","Cloudy"
"2005-12-01 14:00","2005","12","01","14:00","1.5","","-1.0","","83","","","","0","","12.9","","99.90","","","","","","Cloudy"
"2005-12-01 15:00","2005","12","01","15:00","1.8","","-1.1","","81","","5","","9","","12.9","","99.83","","","","","","Cloudy"
"2005-12-01 16:00","2005","12","01","16:00","1.4","","-0.9","","85","","6","","7","","12.9","","99.71","","","","","","Cloudy"
"2005-12-01 17:00","2005","12","01","17:00","1.6","","-1.2","","82","","20","","11","","12.9","","99.77","","","","","","Cloudy"
"2005-12-01 18:00","2005","12","01","18:00","1.4","","-1.8","","79","","17","","6","","12.9","","99.74","","","","","","Snow Showers"
"2005-12-01 19:00","2005","12","01","19:00","1.0","","-0.3","","91","","2","","11","","12.9","","99.69","","","","","","Snow Showers"
"2005-12-01 20:00","2005","12","01","20:00","0.6","","0.3","","98","","2","","9","","12.9","","99.62","","","","","","Snow Showers"
"2005-12-01 21:00","2005","12","01","21:00","0.5","","0.2","","98","","23","","6","","6.4","","99.54","","","","","","Snow"
"2005-12-01 22:00","2005","12","01","22:00","0.3","","0.2","","99","","25","","7","","4.8","","99.50","","","","","","Snow"
"2005-12-01 23:00","2005","12","01","23:00"
"2005-12-02 00:00","2005","12","02","00:00"
"2005-12-02 01:00","2005","12","02","01:00"
"2005-12-02 02:00","2005","12","02","02:00"
"2005-12-02 03:00","2005","12","02","03:00"
"2005-12-02 04:00","2005","12","02","04:00"
"2005-12-02 05:00","2005","12","02","05:00"
"2005-12-02 06:00","2005","12","02","06:00","-1.2","","-3.4","","85","","25","","19","","12.9","","99.19","","","","-7","","Snow"
"2005-12-02 07:00","2005","12","02","07:00","-1.4","","-3.0","","89","","25","","19","","4.8","","99.18","","","","-7","","Snow"
"2005-12-02 08:00","2005","12","02","08:00","-1.4","","-2.9","","89","","25","","19","","4.8","","99.16","","","","-7","","Snow"
"2005-12-02 09:00","2005","12","02","09:00","-1.5","","-2.2","","95","","25","","19","","1.6","","99.15","","","","-7","","Snow"
"2005-12-02 10:00","2005","12","02","10:00","0.2","","-0.7","","94","","29","","28","","4.8","","99.19","","","","","","Snow"
"2005-12-02 11:00","2005","12","02","11:00","0.3","","-3.9","","73","","29","","37","","24.1","","99.26","","","","","","Mostly Cloudy"
"2005-12-02 12:00","2005","12","02","12:00","0.1","","-5.1","","68","","28","","22","","24.1","","99.33","","","","","","Mostly Cloudy"
"2005-12-02 13:00","2005","12","02","13:00","0.5","","-6.9","","58","","30","","33","","24.1","","99.37","","","","","","Mostly Cloudy"
"2005-12-02 14:00","2005","12","02","14:00","0.3","","-7.0","","58","","28","","33","","24.1","","99.42","","","","","","Mostly Cloudy"
"2005-12-02 15:00","2005","12","02","15:00","0.0","","-7.8","","56","","29","","26","","24.1","","99.55","","","","-6","","Mostly Cloudy"
"2005-12-02 16:00","2005","12","02","16:00","-0.6","","-7.2","","61","","28","","22","","24.1","","99.66","","","","-6","","Mainly Clear"
"2005-12-02 17:00","2005","12","02","17:00","-1.9","","-9.0","","58","","30","","37","","24.1","","99.78","","","","-10","","Snow Showers"
"2005-12-02 18:00","2005","12","02","18:00","-2.0","","-9.0","","59","","29","","28","","24.1","","99.90","","","","-9","","Mostly Cloudy"
"2005-12-02 19:00","2005","12","02","19:00","-2.3","","-7.9","","65","","28","","28","","24.1","","99.94","","","","-9","","Mainly Clear"
"2005-12-02 20:00","2005","12","02","20:00","-2.3","","-8.4","","63","","28","","26","","24.1","","100.00","","","","-9","","Mainly Clear"
"2005-12-02 21:00","2005","12","02","21:00","-2.7","","-8.5","","64","","25","","22","","24.1","","100.06","","","","-9","","Mostly Cloudy"
"2005-12-02 22:00","2005","12","02","22:00","-3.3","","-8.1","","69","","25","","22","","24.1","","100.08","","","","-10","","Mainly Clear"
"2005-12-02 23:00","2005","12","02","23:00"
"2005-12-03 00:00","2005","12","03","00:00"
"2005-12-03 01:00","2005","12","03","01:00"
"2005-12-03 02:00","2005","12","03","02:00"
"2005-12-03 03:00","2005","12","03","03:00"
"2005-12-03 04:00","2005","12","03","04:00"
"2005-12-03 05:00","2005","12","03","05:00"
"2005-12-03 06:00","2005","12","03","06:00","-4.8","","-7.9","","79","","24","","19","","24.1","","100.43","","","","-11","","Mainly Clear"
"2005-12-03 07:00","2005","12","03","07:00","-4.8","","-8.5","","75","","25","","19","","24.1","","100.51","","","","-11","","Mainly Clear"
"2005-12-03 08:00","2005","12","03","08:00","-4.6","","-8.6","","74","","26","","19","","24.1","","100.52","","","","-11","","Mainly Clear"
"2005-12-03 09:00","2005","12","03","09:00","-3.7","","-8.2","","71","","25","","19","","24.1","","100.58","","","","-10","","Clear"
"2005-12-03 10:00","2005","12","03","10:00","-2.3","","-8.0","","65","","27","","19","","24.1","","100.57","","","","-8","","Clear"
"2005-12-03 11:00","2005","12","03","11:00","-1.7","","-7.8","","63","","26","","28","","24.1","","100.57","","","","-8","","Mainly Clear"
"2005-12-03 12:00","2005","12","03","12:00","-1.2","","-7.8","","61","","25","","28","","24.1","","100.51","","","","-8","","Mainly Clear"
"2005-12-03 13:00","2005","12","03","13:00","-0.9","","-7.9","","59","","25","","30","","24.1","","100.48","","","","-8","","Mainly Clear"
"2005-12-03 14:00","2005","12","03","14:00","-1.1","","-7.7","","61","","25","","19","","24.1","","100.51","","","","-6","","Mainly Clear"
"2005-12-03 15:00","2005","12","03","15:00","0.0","","-9.1","","50","","25","","26","","24.1","","100.53","","","","-6","","Mainly Clear"
"2005-12-03 16:00","2005","12","03","16:00","-1.9","","-7.8","","64","","24","","19","","24.1","","100.49","","","","-7","","Mostly Cloudy"
"2005-12-03 17:00","2005","12","03","17:00","-2.8","","-8.3","","66","","25","","19","","24.1","","100.53","","","","-9","","Mainly Clear"
"2005-12-03 18:00","2005","12","03","18:00","-3.5","","-8.3","","69","","24","","15","","24.1","","100.52","","","","-9","","Mainly Clear"
"2005-12-03 19:00","2005","12","03","19:00","-3.8","","-8.3","","71","","25","","15","","24.1","","100.50","","","","-9","","Mostly Cloudy"
"2005-12-03 20:00","2005","12","03","20:00","-3.8","","-7.9","","73","","23","","13","","24.1","","100.42","","","","-9","","Cloudy"
"2005-12-03 21:00","2005","12","03","21:00","-3.2","","-7.9","","70","","24","","9","","24.1","","100.38","","","","-7","","Cloudy"
"2005-12-03 22:00","2005","12","03","22:00","-3.5","","-8.3","","69","","25","","9","","24.1","","100.36","","","","-7","","Cloudy"
"2005-12-03 23:00","2005","12","03","23:00"
"2005-12-04 00:00","2005","12","04","00:00"
"2005-12-04 01:00","2005","12","04","01:00"
"2005-12-04 02:00","2005","12","04","02:00"
"2005-12-04 03:00","2005","12","04","03:00"
"2005-12-04 04:00","2005","12","04","04:00"
"2005-12-04 05:00","2005","12","04","05:00"
"2005-12-04 06:00","2005","12","04","06:00","-4.3","","-5.2","","93","","","","0","","9.7","","99.82","","","","","","Snow Showers"
"2005-12-04 07:00","2005","12","04","07:00","-4.7","","-5.2","","96","","","","0","","9.7","","99.83","","","","","","Snow Showers"
"2005-12-04 08:00","2005","12","04","08:00","-4.2","","-4.8","","96","","","","0","","8.0","","99.85","","","","","","Snow Showers"
"2005-12-04 09:00","2005","12","04","09:00","-3.0","","-4.2","","91","","","","0","","16.1","","99.91","","","","","","Snow Showers"
"2005-12-04 10:00","2005","12","04","10:00","-2.4","","-5.1","","82","","22","","9","","11.3","","99.95","","","","-6","","Snow Showers"
"2005-12-04 11:00","2005","12","04","11:00","-2.1","","-4.6","","83","","25","","9","","19.3","","99.92","","","","-6","","Snow Showers"
"2005-12-04 12:00","2005","12","04","12:00","-1.3","","-4.6","","78","","23","","15","","19.3","","99.96","","","","-6","","Cloudy"
"2005-12-04 13:00","2005","12","04","13:00","-1.0","","-4.4","","78","","25","","19","","24.1","","99.98","","","","-6","","Mainly Clear"
"2005-12-04 14:00","2005","12","04","14:00","-0.1","","-4.4","","73","","24","","19","","24.1","","100.01","","","","-5","","Mainly Clear"
"2005-12-04 15:00","2005","12","04","15:00","-0.4","","-4.5","","74","","26","","19","","24.1","","100.09","","","","-6","","Mostly Cloudy"
"2005-12-04 16:00","2005","12","04","16:00","-0.8","","-5.2","","72","","25","","19","","24.1","","100.16","","","","-6","","Mostly Cloudy"
"2005-12-04 17:00","2005","12","04","17:00","-0.8","","-6.6","","65","","25","","22","","24.1","","100.24","","","","-7","","Mostly Cloudy"
"2005-12-04 18:00","2005","12","04","18:00","-1.9","","-7.9","","63","","25","","19","","24.1","","100.35","","","","-7","","Mainly Clear"
"2005-12-04 19:00","2005","12","04","19:00","-2.5","","-7.5","","68","","24","","22","","24.1","","100.42","","","","-9","","Mainly Clear"
"2005-12-04 20:00","2005","12","04","20:00","-2.8","","-7.4","","71","","24","","19","","24.1","","100.49","","","","-9","","Mostly Cloudy"
"2005-12-04 21:00","2005","12","04","21:00","-2.8","","-7.5","","70","","25","","19","","24.1","","100.54","","","","-9","","Cloudy"
"2005-12-04 22:00","2005","12","04","22:00","-2.8","","-8.1","","67","","24","","22","","24.1","","100.56","","","","-9","","Cloudy"
"2005-12-04 23:00","2005","12","04","23:00"
"2005-12-05 00:00","2005","12","05","00:00"
"2005-12-05 01:00","2005","12","05","01:00"
"2005-12-05 02:00","2005","12","05","02:00"
"2005-12-05 03:00","2005","12","05","03:00"
"2005-12-05 04:00","2005","12","05","04:00"
"2005-12-05 05:00","2005","12","05","05:00"
"2005-12-05 06:00","2005","12","05","06:00","-5.7","","-9.8","","73","","24","","19","","24.1","","100.79","","","","-12","","Clear"
"2005-12-05 07:00","2005","12","05","07:00","-5.7","","-10.2","","71","","26","","19","","24.1","","100.83","","","","-12","","Mainly Clear"
"2005-12-05 08:00","2005","12","05","08:00","-5.6","","-10.0","","71","","26","","19","","24.1","","100.87","","","","-12","","Mainly Clear"
"2005-12-05 09:00","2005","12","05","09:00","-4.1","","-9.8","","64","","27","","22","","24.1","","100.87","","","","-11","","Clear"
"2005-12-05 10:00","2005","12","05","10:00","-3.5","","-9.4","","64","","26","","26","","24.1","","100.89","","","","-11","","Mainly Clear"
"2005-12-05 11:00","2005","12","05","11:00","-2.4","","-8.2","","64","","28","","28","","24.1","","100.85","","","","-9","","Mainly Clear"
"2005-12-05 12:00","2005","12","05","12:00","-2.1","","-8.9","","60","","27","","22","","24.1","","100.79","","","","-8","","Mainly Clear"
"2005-12-05 13:00","2005","12","05","13:00","-1.8","","-8.8","","59","","27","","22","","24.1","","100.71","","","","-8","","Mostly Cloudy"
"2005-12-05 14:00","2005","12","05","14:00","-1.6","","-8.3","","60","","26","","19","","24.1","","100.64","","","","-7","","Mostly Cloudy"
"2005-12-05 15:00","2005","12","05","15:00","-1.8","","-7.7","","64","","26","","19","","24.1","","100.63","","","","-7","","Snow Showers"
"2005-12-05 16:00","2005","12","05","16:00","-2.0","","-8.0","","63","","27","","11","","24.1","","100.65","","","","-6","","Cloudy"
"2005-12-05 17:00","2005","12","05","17:00","-2.3","","-8.0","","65","","26","","9","","24.1","","100.66","","","","-6","","Cloudy"
"2005-12-05 18:00","2005","12","05","18:00","-2.6","","-7.7","","68","","21","","9","","24.1","","100.68","","","","-6","","Cloudy"
"2005-12-05 19:00","2005","12","05","19:00","-2.6","","-8.3","","65","","24","","11","","24.1","","100.70","","","","-7","","Cloudy"
"2005-12-05 20:00","2005","12","05","20:00","-2.8","","-8.9","","63","","23","","15","","19.3","","100.72","","","","-8","","Snow Showers"
"2005-12-05 21:00","2005","12","05","21:00","-3.0","","-7.9","","69","","23","","11","","16.1","","100.69","","","","-7","","Snow Showers"
"2005-12-05 22:00","2005","12","05","22:00","-3.3","","-7.6","","72","","22","","7","","16.1","","100.65","","","","-6","","Snow Showers"
"2005-12-05 23:00","2005","12","05","23:00"
"2005-12-06 00:00","2005","12","06","00:00"
"2005-12-06 01:00","2005","12","06","01:00"
"2005-12-06 02:00","2005","12","06","02:00"
"2005-12-06 03:00","2005","12","06","03:00"
"2005-12-06 04:00","2005","12","06","04:00"
"2005-12-06 05:00","2005","12","06","05:00"
"2005-12-06 06:00","2005","12","06","06:00","-6.0","","-9.1","","79","","24","","15","","24.1","","100.56","","","","-12","","Mainly Clear"
"2005-12-06 07:00","2005","12","06","07:00","-5.7","","-9.8","","73","","24","","19","","19.3","","100.59","","","","-12","","Mostly Cloudy"
"2005-12-06 08:00","2005","12","06","08:00","-4.7","","-9.7","","68","","25","","19","","19.3","","100.62","","","","-11","","Mostly Cloudy"
"2005-12-06 09:00","2005","12","06","09:00","-4.9","","-9.9","","68","","26","","19","","19.3","","100.67","","","","-11","","Mostly Cloudy"
"2005-12-06 10:00","2005","12","06","10:00","-4.5","","-11.0","","60","","24","","19","","19.3","","100.74","","","","-11","","Mostly Cloudy"
"2005-12-06 11:00","2005","12","06","11:00","-4.1","","-11.6","","56","","25","","19","","19.3","","100.75","","","","-10","","Mostly Cloudy"
"2005-12-06 12:00","2005","12","06","12:00","-4.3","","-12.0","","55","","25","","22","","19.3","","100.73","","","","-11","","Mostly Cloudy"
"2005-12-06 13:00","2005","12","06","13:00","-3.9","","-12.2","","52","","25","","22","","19.3","","100.73","","","","-10","","Mostly Cloudy"
"2005-12-06 14:00","2005","12","06","14:00","-4.2","","-12.3","","53","","24","","22","","19.3","","100.75","","","","-11","","Mostly Cloudy"
"2005-12-06 15:00","2005","12","06","15:00","-4.5","","-12.3","","54","","26","","19","","19.3","","100.80","","","","-11","","Mostly Cloudy"
"2005-12-06 16:00","2005","12","06","16:00","-5.0","","-12.5","","56","","26","","19","","24.1","","100.88","","","","-11","","Mostly Cloudy"
"2005-12-06 17:00","2005","12","06","17:00","-5.7","","-12.8","","57","","24","","19","","24.1","","100.94","","","","-12","","Mainly Clear"
"2005-12-06 18:00","2005","12","06","18:00","-6.3","","-12.4","","62","","26","","19","","24.1","","101.01","","","","-13","","Mainly Clear"
"2005-12-06 19:00","2005","12","06","19:00","-6.7","","-13.0","","61","","25","","19","","24.1","","101.05","","","","-14","","Mainly Clear"
"2005-12-06 20:00","2005","12","06","20:00","-6.9","","-12.4","","65","","23","","19","","24.1","","101.08","","","","-14","","Mostly Cloudy"
"2005-12-06 21:00","2005","12","06","21:00","-6.6","","-11.9","","66","","25","","19","","24.1","","101.08","","","","-13","","Cloudy"
"2005-12-06 22:00","2005","12","06","22:00","-6.3","","-11.9","","64","","25","","19","","24.1","","101.11","","","","-13","","Cloudy"
"2005-12-06 23:00","2005","12","06","23:00"
"2005-12-07 00:00","2005","12","07","00:00"
"2005-12-07 01:00","2005","12","07","01:00"
"2005-12-07 02:00","2005","12","07","02:00"
"2005-12-07 03:00","2005","12","07","03:00"
"2005-12-07 04:00","2005","12","07","04:00"
"2005-12-07 05:00","2005","12","07","05:00"
"2005-12-07 06:00","2005","12","07","06:00","-7.5","","-12.3","","68","","27","","28","","24.1","","101.45","","","","-16","","Clear"
"2005-12-07 07:00","2005","12","07","07:00","-8.1","","-12.1","","73","","25","","19","","24.1","","101.53","","","","-15","","Mainly Clear"
"2005-12-07 08:00","2005","12","07","08:00","-8.2","","-12.2","","73","","25","","19","","24.1","","101.56","","","","-15","","Clear"
"2005-12-07 09:00","2005","12","07","09:00","-6.8","","-12.1","","66","","27","","19","","24.1","","101.69","","","","-14","","Mainly Clear"
"2005-12-07 10:00","2005","12","07","10:00","-5.3","","-11.1","","64","","28","","19","","24.1","","101.78","","","","-12","","Mainly Clear"
"2005-12-07 11:00","2005","12","07","11:00","-3.6","","-9.4","","64","","27","","22","","24.1","","101.83","","","","-10","","Mostly Cloudy"
"2005-12-07 12:00","2005","12","07","12:00","-3.5","","-9.1","","65","","27","","19","","24.1","","101.84","","","","-9","","Mostly Cloudy"
"2005-12-07 13:00","2005","12","07","13:00","-2.8","","-9.1","","62","","26","","24","","24.1","","101.86","","","","-9","","Mostly Cloudy"
"2005-12-07 14:00","2005","12","07","14:00","-2.8","","-8.9","","63","","26","","19","","24.1","","101.88","","","","-9","","Mostly Cloudy"
"2005-12-07 15:00","2005","12","07","15:00","-2.6","","-8.7","","63","","27","","19","","24.1","","101.93","","","","-8","","Mostly Cloudy"
"2005-12-07 16:00","2005","12","07","16:00","-2.8","","-8.8","","63","","25","","19","","24.1","","102.04","","","","-9","","Snow Showers"
"2005-12-07 17:00","2005","12","07","17:00","-3.6","","-6.4","","81","","30","","9","","19.3","","102.14","","","","-7","","Snow Showers"
"2005-12-07 18:00","2005","12","07","18:00","-4.1","","-6.7","","82","","27","","19","","24.1","","102.25","","","","-10","","Mostly Cloudy"
"2005-12-07 19:00","2005","12","07","19:00","-4.7","","-10.3","","65","","31","","9","","24.1","","102.33","","","","-9","","Mainly Clear"
"2005-12-07 20:00","2005","12","07","20:00","-5.7","","-8.0","","84","","24","","9","","24.1","","102.41","","","","-10","","Mainly Clear"
"2005-12-07 21:00","2005","12","07","21:00","-6.3","","-8.7","","83","","23","","9","","24.1","","102.47","","","","-11","","Mainly Clear"
"2005-12-07 22:00","2005","12","07","22:00","-7.5","","-9.4","","86","","23","","9","","24.1","","102.55","","","","-12","","Mainly Clear"
"2005-12-07 23:00","2005","12","07","23:00"
"2005-12-08 00:00","2005","12","08","00:00"
"2005-12-08 01:00","2005","12","08","01:00"
"2005-12-08 02:00","2005","12","08","02:00"
"2005-12-08 03:00","2005","12","08","03:00"
"2005-12-08 04:00","2005","12","08","04:00"
"2005-12-08 05:00","2005","12","08","05:00"
"2005-12-08 06:00","2005","12","08","06:00","-10.3","","-12.0","","87","","22","","15","","24.1","","102.68","","","","-17","","Mainly Clear"
"2005-12-08 07:00","2005","12","08","07:00","-10.0","","-11.9","","86","","22","","15","","24.1","","102.72","","","","-17","","Mainly Clear"
"2005-12-08 08:00","2005","12","08","08:00","-9.7","","-11.6","","86","","20","","11","","16.1","","102.71","","","","-15","","Mainly Clear"
"2005-12-08 09:00","2005","12","08","09:00","-6.4","","-9.1","","81","","21","","9","","16.1","","102.67","","","","-11","","Mainly Clear"
"2005-12-08 10:00","2005","12","08","10:00","-4.3","","-9.6","","66","","19","","9","","24.1","","102.63","","","","-8","","Clear"
"2005-12-08 11:00","2005","12","08","11:00","-2.0","","-10.0","","54","","21","","11","","24.1","","102.57","","","","-6","","Mainly Clear"
"2005-12-08 12:00","2005","12","08","12:00","-1.2","","-10.3","","50","","3","","7","","24.1","","102.47","","","","-4","","Clear"
"2005-12-08 13:00","2005","12","08","13:00","-0.8","","-10.4","","48","","","","0","","24.1","","102.33","","","","","","Clear"
"2005-12-08 14:00","2005","12","08","14:00","-0.7","","-10.2","","49","","22","","7","","24.1","","102.19","","","","-3","","Mainly Clear"
"2005-12-08 15:00","2005","12","08","15:00","-0.7","","-10.1","","49","","18","","17","","24.1","","102.11","","","","-6","","Mainly Clear"
"2005-12-08 16:00","2005","12","08","16:00","-2.2","","-9.5","","57","","20","","19","","24.1","","102.06","","","","-8","","Mainly Clear"
"2005-12-08 17:00","2005","12","08","17:00","-3.4","","-8.2","","69","","19","","11","","24.1","","101.99","","","","-8","","Mainly Clear"
"2005-12-08 18:00","2005","12","08","18:00","-3.7","","-8.5","","69","","","","0","","24.1","","101.89","","","","","","Mainly Clear"
"2005-12-08 19:00","2005","12","08","19:00","-3.3","","-8.3","","68","","10","","15","","24.1","","101.71","","","","-8","","Cloudy"
"2005-12-08 20:00","2005","12","08","20:00","-3.6","","-8.4","","69","","8","","19","","24.1","","101.51","","","","-10","","Cloudy"
"2005-12-08 21:00","2005","12","08","21:00","-3.6","","-8.3","","70","","8","","19","","24.1","","101.38","","","","-10","","Cloudy"
"2005-12-08 22:00","2005","12","08","22:00","-3.5","","-9.0","","66","","9","","19","","24.1","","101.26","","","","-9","","Cloudy"
"2005-12-08 23:00","2005","12","08","23:00"
"2005-12-09 00:00","2005","12","09","00:00"
"2005-12-09 01:00","2005","12","09","01:00"
"2005-12-09 02:00","2005","12","09","02:00"
"2005-12-09 03:00","2005","12","09","03:00"
"2005-12-09 04:00","2005","12","09","04:00"
"2005-12-09 05:00","2005","12","09","05:00"
"2005-12-09 06:00","2005","12","09","06:00","-1.2","","-1.5","","98","","24","","22","","4.8","","99.78","","","","-7","","Snow"
"2005-12-09 07:00","2005","12","09","07:00","-0.5","","-1.5","","93","","24","","22","","4.8","","99.90","","","","-6","","Snow"
"2005-12-09 08:00","2005","12","09","08:00","-1.6","","-2.2","","96","","25","","19","","1.6","","99.97","","","","-7","","Snow,Blowing Snow"
"2005-12-09 09:00","2005","12","09","09:00","-2.6","","-3.5","","94","","30","","22","","4.0","","100.17","","","","-9","","Snow,Blowing Snow"
"2005-12-09 10:00","2005","12","09","10:00","-2.5","","-5.0","","83","","30","","19","","24.1","","100.43","","","","-8","","Mostly Cloudy"
"2005-12-09 11:00","2005","12","09","11:00","-2.2","","-5.4","","79","","30","","19","","24.1","","100.59","","","","-8","","Mostly Cloudy"
"2005-12-09 12:00","2005","12","09","12:00","-1.4","","-5.2","","75","","27","","22","","24.1","","100.66","","","","-7","","Mostly Cloudy"
"2005-12-09 13:00","2005","12","09","13:00","-0.2","","-4.8","","71","","28","","19","","24.1","","100.72","","","","-5","","Mostly Cloudy"
"2005-12-09 14:00","2005","12","09","14:00","0.0","","-4.7","","71","","26","","19","","24.1","","100.71","","","","-5","","Cloudy"
"2005-12-09 15:00","2005","12","09","15:00","-0.2","","-4.0","","76","","25","","19","","24.1","","100.72","","","","-5","","Mostly Cloudy"
"2005-12-09 16:00","2005","12","09","16:00","-0.1","","-3.7","","77","","25","","19","","24.1","","100.75","","","","-5","","Cloudy"
"2005-12-09 17:00","2005","12","09","17:00","-0.7","","-4.8","","74","","27","","22","","24.1","","100.77","","","","-6","","Cloudy"
"2005-12-09 18:00","2005","12","09","18:00","-1.1","","-5.2","","74","","24","","24","","24.1","","100.80","","","","-7","","Cloudy"
"2005-12-09 19:00","2005","12","09","19:00","-1.7","","-5.7","","74","","24","","22","","24.1","","100.82","","","","-8","","Cloudy"
"2005-12-09 20:00","2005","12","09","20:00","-1.7","","-5.8","","74","","24","","19","","24.1","","100.78","","","","-7","","Cloudy"
"2005-12-09 21:00","2005","12","09","21:00","-1.4","","-5.2","","75","","24","","19","","19.3","","100.73","","","","-7","","Cloudy"
"2005-12-09 22:00","2005","12","09","22:00","-1.2","","-4.5","","78","","25","","22","","19.3","","100.69","","","","-7","","Cloudy"
"2005-12-09 23:00","2005","12","09","23:00"
"2005-12-10 00:00","2005","12","10","00:00"
"2005-12-10 01:00","2005","12","10","01:00"
"2005-12-10 02:00","2005","12","10","02:00"
"2005-12-10 03:00","2005","12","10","03:00"
"2005-12-10 04:00","2005","12","10","04:00"
"2005-12-10 05:00","2005","12","10","05:00"
"2005-12-10 06:00","2005","12","10","06:00","-1.2","","-4.8","","76","","24","","19","","16.1","","100.29","","","","-7","","Mostly Cloudy"
"2005-12-10 07:00","2005","12","10","07:00","-0.8","","-4.6","","75","","24","","22","","16.1","","100.24","","","","-7","","Mostly Cloudy"
"2005-12-10 08:00","2005","12","10","08:00","-0.9","","-4.8","","75","","23","","28","","16.1","","100.16","","","","-7","","Cloudy"
"2005-12-10 09:00","2005","12","10","09:00","-1.1","","-5.3","","73","","24","","28","","16.1","","100.11","","","","-8","","Cloudy"
"2005-12-10 10:00","2005","12","10","10:00","-1.0","","-5.1","","74","","23","","28","","24.1","","100.07","","","","-8","","Cloudy"
"2005-12-10 11:00","2005","12","10","11:00","-0.6","","-4.9","","73","","22","","28","","19.3","","100.00","","","","-7","","Cloudy"
"2005-12-10 12:00","2005","12","10","12:00","-0.4","","-4.7","","73","","22","","28","","19.3","","99.84","","","","-7","","Cloudy"
"2005-12-10 13:00","2005","12","10","13:00","-0.5","","-5.3","","70","","22","","37","","19.3","","99.74","","","","-8","","Cloudy"
"2005-12-10 14:00","2005","12","10","14:00","-0.6","","-4.8","","73","","21","","37","","24.1","","99.58","","","","-8","","Cloudy"
"2005-12-10 15:00","2005","12","10","15:00","-0.4","","-5.2","","70","","22","","22","","19.3","","99.52","","","","-6","","Mostly Cloudy"
"2005-12-10 16:00","2005","12","10","16:00","-0.5","","-5.5","","69","","21","","19","","16.1","","99.45","","","","-6","","Mostly Cloudy"
"2005-12-10 17:00","2005","12","10","17:00","-1.1","","-5.6","","71","","23","","15","","16.1","","99.47","","","","-6","","Cloudy"
"2005-12-10 18:00","2005","12","10","18:00","-0.9","","-5.4","","71","","21","","11","","16.1","","99.31","","","","-5","","Cloudy"
"2005-12-10 19:00","2005","12","10","19:00","-1.4","","-5.6","","73","","21","","11","","19.3","","99.20","","","","-5","","Mainly Clear"
"2005-12-10 20:00","2005","12","10","20:00","-0.1","","-5.2","","68","","21","","13","","19.3","","99.11","","","","-4","","Cloudy"
"2005-12-10 21:00","2005","12","10","21:00","0.3","","-5.4","","66","","22","","19","","19.3","","99.07","","","","","","Cloudy"
"2005-12-10 22:00","2005","12","10","22:00","0.2","","-5.3","","66","","24","","19","","19.3","","99.03","","","","","","Cloudy"
"2005-12-10 23:00","2005","12","10","23:00"
"2005-12-11 00:00","2005","12","11","00:00"
"2005-12-11 01:00","2005","12","11","01:00"
"2005-12-11 02:00","2005","12","11","02:00"
"2005-12-11 03:00","2005","12","11","03:00"
"2005-12-11 04:00","2005","12","11","04:00"
"2005-12-11 05:00","2005","12","11","05:00"
"2005-12-11 06:00","2005","12","11","06:00","-1.4","","-5.0","","76","","24","","9","","16.1","","98.67","","","","-5","","Cloudy"
"2005-12-11 07:00","2005","12","11","07:00","-0.9","","-4.3","","78","","24","","19","","16.1","","98.68","","","","-6","","Cloudy"
"2005-12-11 08:00","2005","12","11","08:00","-1.2","","-3.4","","85","","24","","9","","6.4","","98.67","","","","-4","","Snow"
"2005-12-11 09:00","2005","12","11","09:00","-1.6","","-2.6","","93","","25","","9","","3.2","","98.68","","","","-5","","Snow"
"2005-12-11 10:00","2005","12","11","10:00","-1.9","","-2.7","","94","","26","","15","","2.4","","98.69","","","","-7","","Snow,Fog"
"2005-12-11 11:00","2005","12","11","11:00","-1.9","","-2.7","","94","","25","","15","","4.0","","98.66","","","","-7","","Snow"
"2005-12-11 12:00","2005","12","11","12:00","-1.5","","-2.4","","94","","25","","9","","2.8","","98.63","","","","-5","","Snow,Fog"
"2005-12-11 13:00","2005","12","11","13:00","-0.5","","-2.8","","84","","23","","9","","16.1","","98.57","","","","-4","","Snow"
"2005-12-11 14:00","2005","12","11","14:00","-0.2","","-3.2","","80","","23","","19","","16.1","","98.60","","","","-5","","Snow"
"2005-12-11 15:00","2005","12","11","15:00","-0.2","","-2.2","","86","","23","","19","","4.0","","98.65","","","","-5","","Snow"
"2005-12-11 16:00","2005","12","11","16:00","0.0","","-2.4","","84","","25","","22","","12.9","","98.69","","","","-6","","Snow"
"2005-12-11 17:00","2005","12","11","17:00","0.1","","-2.2","","84","","24","","19","","9.7","","98.78","","","","","","Snow"
"2005-12-11 18:00","2005","12","11","18:00","0.0","","-2.4","","84","","25","","19","","12.9","","98.86","","","","-5","","Snow"
"2005-12-11 19:00","2005","12","11","19:00","-0.7","","-1.6","","94","","28","","22","","3.2","","98.97","","","","-6","","Snow"
"2005-12-11 20:00","2005","12","11","20:00","-1.2","","-3.4","","85","","26","","19","","9.7","","99.03","","","","-7","","Snow"
"2005-12-11 21:00","2005","12","11","21:00","-1.8","","-5.8","","74","","29","","19","","24.1","","99.09","","","","-7","","Cloudy"
"2005-12-11 22:00","2005","12","11","22:00","-2.6","","-8.0","","66","","30","","22","","24.1","","99.14","","","","-9","","Cloudy"
"2005-12-11 23:00","2005","12","11","23:00"
"2005-12-12 00:00","2005","12","12","00:00"
"2005-12-12 01:00","2005","12","12","01:00"
"2005-12-12 02:00","2005","12","12","02:00"
"2005-12-12 03:00","2005","12","12","03:00"
"2005-12-12 04:00","2005","12","12","04:00"
"2005-12-12 05:00","2005","12","12","05:00"
"2005-12-12 06:00","2005","12","12","06:00","-8.1","","-11.5","","76","","31","","22","","12.9","","99.72","","","","-16","","Snow"
"2005-12-12 07:00","2005","12","12","07:00","-8.7","","-11.8","","78","","31","","19","","16.1","","99.81","","","","-16","","Snow"
"2005-12-12 08:00","2005","12","12","08:00","-8.8","","-12.3","","76","","30","","19","","16.1","","99.88","","","","-16","","Snow"
"2005-12-12 09:00","2005","12","12","09:00","-8.8","","-11.8","","79","","35","","19","","12.9","","99.97","","","","-16","","Snow"
"2005-12-12 10:00","2005","12","12","10:00","-8.9","","-11.6","","81","","33","","19","","12.9","","100.08","","","","-16","","Snow"
"2005-12-12 11:00","2005","12","12","11:00","-8.9","","-11.9","","79","","36","","13","","16.1","","100.12","","","","-15","","Snow"
"2005-12-12 12:00","2005","12","12","12:00","-8.4","","-11.9","","76","","35","","19","","16.1","","100.12","","","","-16","","Snow"
"2005-12-12 13:00","2005","12","12","13:00","-8.3","","-12.8","","70","","33","","19","","24.1","","100.13","","","","-16","","Snow"
"2005-12-12 14:00","2005","12","12","14:00","-8.1","","-13.1","","67","","33","","15","","24.1","","100.20","","","","-14","","Mostly Cloudy"
"2005-12-12 15:00","2005","12","12","15:00","-8.0","","-12.7","","69","","34","","7","","24.1","","100.26","","","","-12","","Mainly Clear"
"2005-12-12 16:00","2005","12","12","16:00","-8.3","","-13.9","","64","","30","","9","","24.1","","100.35","","","","-13","","Mainly Clear"
"2005-12-12 17:00","2005","12","12","17:00","-9.9","","-13.6","","74","","27","","7","","24.1","","100.41","","","","-14","","Clear"
"2005-12-12 18:00","2005","12","12","18:00","-11.1","","-14.6","","75","","36","","7","","24.1","","100.53","","","","-15","","Mainly Clear"
"2005-12-12 19:00","2005","12","12","19:00","-9.8","","-15.1","","65","","36","","15","","24.1","","100.61","","","","-16","","Mainly Clear"
"2005-12-12 20:00","2005","12","12","20:00","-10.8","","-14.4","","75","","36","","11","","24.1","","100.70","","","","-17","","Mainly Clear"
"2005-12-12 21:00","2005","12","12","21:00","-13.5","","-15.7","","83","","36","","4","","24.1","","100.75","","","","-16","","Mainly Clear"
"2005-12-12 22:00","2005","12","12","22:00","-13.4","","-15.8","","82","","","","0","","24.1","","100.77","","","","","","Mostly Cloudy"
"2005-12-12 23:00","2005","12","12","23:00"
"2005-12-13 00:00","2005","12","13","00:00"
"2005-12-13 01:00","2005","12","13","01:00"
"2005-12-13 02:00","2005","12","13","02:00"
"2005-12-13 03:00","2005","12","13","03:00"
"2005-12-13 04:00","2005","12","13","04:00"
"2005-12-13 05:00","2005","12","13","05:00"
"2005-12-13 06:00","2005","12","13","06:00","-13.0","","-14.2","","91","","22","","19","","24.1","","101.16","","","","-21","","Mainly Clear"
"2005-12-13 07:00","2005","12","13","07:00","-11.6","","-13.2","","88","","21","","19","","24.1","","101.25","","","","-20","","Mainly Clear"
"2005-12-13 08:00","2005","12","13","08:00","-10.8","","-12.0","","91","","21","","19","","12.9","","101.30","","","","-19","","Snow"
"2005-12-13 09:00","2005","12","13","09:00","-8.7","","-9.9","","91","","23","","11","","3.2","","101.38","","","","-14","","Snow"
"2005-12-13 10:00","2005","12","13","10:00","-7.6","","-9.2","","88","","23","","15","","11.3","","101.48","","","","-14","","Snow"
"2005-12-13 11:00","2005","12","13","11:00","-6.2","","-9.4","","78","","23","","9","","24.1","","101.50","","","","-10","","Snow"
"2005-12-13 12:00","2005","12","13","12:00","-5.5","","-10.6","","67","","25","","7","","24.1","","101.49","","","","-9","","Snow"
"2005-12-13 13:00","2005","12","13","13:00","-5.4","","-10.6","","67","","34","","7","","24.1","","101.49","","","","-9","","Mainly Clear"
"2005-12-13 14:00","2005","12","13","14:00","-4.8","","-10.8","","63","","1","","7","","24.1","","101.49","","","","-8","","Mainly Clear"
"2005-12-13 15:00","2005","12","13","15:00","-5.1","","-11.4","","61","","3","","4","","24.1","","101.55","","","","-7","","Mainly Clear"
"2005-12-13 16:00","2005","12","13","16:00","-5.3","","-11.4","","62","","","","0","","24.1","","101.61","","","","","","Clear"
"2005-12-13 17:00","2005","12","13","17:00","-6.6","","-11.5","","68","","","","0","","24.1","","101.68","","","","","","Mainly Clear"
"2005-12-13 18:00","2005","12","13","18:00","-10.6","","-12.5","","86","","18","","6","","24.1","","101.73","","","","-14","","Mainly Clear"
"2005-12-13 19:00","2005","12","13","19:00","-8.5","","-10.7","","84","","11","","9","","24.1","","101.78","","","","-13","","Snow"
"2005-12-13 20:00","2005","12","13","20:00","-9.1","","-10.8","","87","","14","","7","","24.1","","101.81","","","","-13","","Snow"
"2005-12-13 21:00","2005","12","13","21:00","-11.8","","-12.8","","92","","14","","4","","24.1","","101.83","","","","-14","","Clear"
"2005-12-13 22:00","2005","12","13","22:00","-11.6","","-12.1","","96","","12","","7","","24.1","","101.81","","","","-16","","Mainly Clear"
"2005-12-13 23:00","2005","12","13","23:00"
"2005-12-14 00:00","2005","12","14","00:00"
"2005-12-14 01:00","2005","12","14","01:00"
"2005-12-14 02:00","2005","12","14","02:00"
"2005-12-14 03:00","2005","12","14","03:00"
"2005-12-14 04:00","2005","12","14","04:00"
"2005-12-14 05:00","2005","12","14","05:00"
"2005-12-14 06:00","2005","12","14","06:00","-11.1","","-13.8","","80","","12","","13","","16.1","","101.97","","","","-18","","Mostly Cloudy"
"2005-12-14 07:00","2005","12","14","07:00","-10.5","","-14.1","","75","","12","","11","","24.1","","102.00","","","","-16","","Mostly Cloudy"
"2005-12-14 08:00","2005","12","14","08:00","-10.6","","-13.9","","77","","10","","22","","24.1","","102.03","","","","-19","","Mostly Cloudy"
"2005-12-14 09:00","2005","12","14","09:00","-9.8","","-14.2","","70","","12","","13","","24.1","","102.02","","","","-16","","Mostly Cloudy"
"2005-12-14 10:00","2005","12","14","10:00","-9.0","","-13.7","","69","","9","","19","","24.1","","102.03","","","","-16","","Cloudy"
"2005-12-14 11:00","2005","12","14","11:00","-7.1","","-13.0","","63","","9","","19","","24.1","","101.91","","","","-14","","Cloudy"
"2005-12-14 12:00","2005","12","14","12:00","-6.7","","-15.9","","48","","10","","22","","24.1","","101.82","","","","-14","","Cloudy"
"2005-12-14 13:00","2005","12","14","13:00","-6.1","","-14.4","","52","","9","","20","","24.1","","101.75","","","","-13","","Cloudy"
"2005-12-14 14:00","2005","12","14","14:00","-6.1","","-14.2","","53","","7","","19","","24.1","","101.62","","","","-13","","Cloudy"
"2005-12-14 15:00","2005","12","14","15:00","-6.1","","-14.4","","52","","8","","22","","24.1","","101.67","","","","-13","","Cloudy"
"2005-12-14 16:00","2005","12","14","16:00","-6.6","","-14.2","","55","","8","","22","","24.1","","101.60","","","","-14","","Cloudy"
"2005-12-14 17:00","2005","12","14","17:00","-6.9","","-14.6","","54","","8","","19","","19.3","","101.52","","","","-14","","Mostly Cloudy"
"2005-12-14 18:00","2005","12","14","18:00","-8.0","","-14.8","","58","","8","","15","","24.1","","101.47","","","","-14","","Mostly Cloudy"
"2005-12-14 19:00","2005","12","14","19:00","-8.3","","-14.9","","59","","8","","19","","24.1","","101.39","","","","-16","","Mostly Cloudy"
"2005-12-14 20:00","2005","12","14","20:00","-9.5","","-15.0","","64","","8","","19","","24.1","","101.35","","","","-17","","Mainly Clear"
"2005-12-14 21:00","2005","12","14","21:00","-9.6","","-14.8","","66","","8","","19","","24.1","","101.31","","","","-17","","Mostly Cloudy"
"2005-12-14 22:00","2005","12","14","22:00","-8.5","","-14.0","","64","","9","","19","","24.1","","101.25","","","","-16","","Mostly Cloudy"
"2005-12-14 23:00","2005","12","14","23:00"
"2005-12-15 00:00","2005","12","15","00:00"
"2005-12-15 01:00","2005","12","15","01:00"
"2005-12-15 02:00","2005","12","15","02:00"
"2005-12-15 03:00","2005","12","15","03:00"
"2005-12-15 04:00","2005","12","15","04:00"
"2005-12-15 05:00","2005","12","15","05:00"
"2005-12-15 06:00","2005","12","15","06:00","-8.5","","-13.9","","65","","7","","19","","24.1","","100.73","","","","-16","","Cloudy"
"2005-12-15 07:00","2005","12","15","07:00","-7.8","","-12.9","","67","","7","","15","","24.1","","100.71","","","","-14","","Mostly Cloudy"
"2005-12-15 08:00","2005","12","15","08:00","-7.5","","-12.2","","69","","8","","15","","24.1","","100.69","","","","-14","","Cloudy"
"2005-12-15 09:00","2005","12","15","09:00","-6.1","","-11.2","","67","","9","","13","","19.3","","100.67","","","","-11","","Cloudy"
"2005-12-15 10:00","2005","12","15","10:00","-4.8","","-10.2","","66","","9","","13","","19.3","","100.62","","","","-10","","Cloudy"
"2005-12-15 11:00","2005","12","15","11:00","-3.8","","-9.4","","65","","8","","19","","19.3","","100.48","","","","-10","","Cloudy"
"2005-12-15 12:00","2005","12","15","12:00","-3.1","","-8.6","","66","","7","","19","","16.1","","100.27","","","","-9","","Snow"
"2005-12-15 13:00","2005","12","15","13:00","-2.6","","-8.0","","66","","9","","15","","16.1","","100.14","","","","-8","","Freezing Rain"
"2005-12-15 14:00","2005","12","15","14:00","-2.8","","-3.7","","94","","8","","19","","4.8","","100.06","","","","-9","","Freezing Rain,Ice Pellets"
"2005-12-15 15:00","2005","12","15","15:00","-1.3","","-2.5","","92","","9","","19","","6.4","","99.94","","","","-7","","Freezing Rain,Ice Pellets"
"2005-12-15 16:00","2005","12","15","16:00","-0.7","","-1.5","","94","","6","","19","","8.0","","99.87","","","","-6","","Freezing Rain"
"2005-12-15 17:00","2005","12","15","17:00","0.2","","-0.4","","96","","8","","15","","6.4","","99.72","","","","","","Rain,Fog"
"2005-12-15 18:00","2005","12","15","18:00","0.4","","-0.7","","92","","11","","11","","8.0","","99.70","","","","","","Rain,Snow"
"2005-12-15 19:00","2005","12","15","19:00","0.3","","-0.1","","97","","14","","7","","4.8","","99.71","","","","","","Snow"
"2005-12-15 20:00","2005","12","15","20:00","-0.6","","-1.0","","97","","14","","11","","6.4","","99.69","","","","-4","","Snow"
"2005-12-15 21:00","2005","12","15","21:00","-0.8","","-1.6","","94","","15","","11","","6.4","","99.65","","","","-5","","Snow"
"2005-12-15 22:00","2005","12","15","22:00","-0.8","","-1.3","","96","","14","","11","","4.8","","99.61","","","","-5","","Snow"
"2005-12-15 23:00","2005","12","15","23:00"
"2005-12-16 00:00","2005","12","16","00:00"
"2005-12-16 01:00","2005","12","16","01:00"
"2005-12-16 02:00","2005","12","16","02:00"
"2005-12-16 03:00","2005","12","16","03:00"
"2005-12-16 04:00","2005","12","16","04:00"
"2005-12-16 05:00","2005","12","16","05:00"
"2005-12-16 06:00","2005","12","16","06:00","1.4","","0.0","","90","","25","","15","","12.9","","99.44","","","","","","Cloudy"
"2005-12-16 07:00","2005","12","16","07:00","0.3","","-1.2","","90","","24","","15","","12.9","","99.51","","","","","","Mostly Cloudy"
"2005-12-16 08:00","2005","12","16","08:00","0.6","","-1.8","","84","","25","","13","","12.9","","99.55","","","","","","Cloudy"
"2005-12-16 09:00","2005","12","16","09:00","0.6","","-1.5","","86","","25","","9","","12.9","","99.60","","","","","","Mostly Cloudy"
"2005-12-16 10:00","2005","12","16","10:00","1.3","","-1.7","","80","","25","","19","","19.3","","99.63","","","","","","Mostly Cloudy"
"2005-12-16 11:00","2005","12","16","11:00","1.6","","-1.5","","80","","23","","15","","8.0","","99.61","","","","","","Snow"
"2005-12-16 12:00","2005","12","16","12:00","0.3","","-0.9","","92","","22","","19","","6.4","","99.62","","","","","","Snow"
"2005-12-16 13:00","2005","12","16","13:00","-0.1","","-2.4","","84","","25","","19","","6.4","","99.69","","","","-5","","Snow"
"2005-12-16 14:00","2005","12","16","14:00","-0.3","","-4.7","","72","","24","","19","","24.1","","99.76","","","","-5","","Mainly Clear"
"2005-12-16 15:00","2005","12","16","15:00","-0.9","","-5.7","","70","","24","","19","","24.1","","99.86","","","","-6","","Mainly Clear"
"2005-12-16 16:00","2005","12","16","16:00","-1.3","","-5.3","","74","","23","","19","","19.3","","99.91","","","","-7","","Mostly Cloudy"
"2005-12-16 17:00","2005","12","16","17:00","-1.2","","-4.9","","76","","24","","22","","19.3","","100.03","","","","-7","","Snow Showers"
"2005-12-16 18:00","2005","12","16","18:00","-2.4","","-5.9","","77","","24","","19","","24.1","","100.15","","","","-8","","Mainly Clear"
"2005-12-16 19:00","2005","12","16","19:00","-2.6","","-6.3","","76","","24","","19","","24.1","","100.27","","","","-8","","Mainly Clear"
"2005-12-16 20:00","2005","12","16","20:00","-2.4","","-6.6","","73","","24","","22","","24.1","","100.37","","","","-9","","Mainly Clear"
"2005-12-16 21:00","2005","12","16","21:00","-2.1","","-6.1","","74","","25","","22","","24.1","","100.44","","","","-8","","Mostly Cloudy"
"2005-12-16 22:00","2005","12","16","22:00","-1.6","","-5.1","","77","","25","","22","","16.1","","100.53","","","","-8","","Snow Showers"
"2005-12-16 23:00","2005","12","16","23:00"
"2005-12-17 00:00","2005","12","17","00:00"
"2005-12-17 01:00","2005","12","17","01:00"
"2005-12-17 02:00","2005","12","17","02:00"
"2005-12-17 03:00","2005","12","17","03:00"
"2005-12-17 04:00","2005","12","17","04:00"
"2005-12-17 05:00","2005","12","17","05:00"
"2005-12-17 06:00","2005","12","17","06:00","-2.9","","-7.5","","71","","25","","19","","19.3","","101.30","","","","-9","","Cloudy"
"2005-12-17 07:00","2005","12","17","07:00","-2.8","","-7.1","","72","","23","","19","","19.3","","101.40","","","","-9","","Cloudy"
"2005-12-17 08:00","2005","12","17","08:00","-2.8","","-7.1","","72","","24","","19","","24.1","","101.49","","","","-9","","Cloudy"
"2005-12-17 09:00","2005","12","17","09:00","-2.6","","-7.7","","68","","24","","19","","24.1","","101.60","","","","-8","","Cloudy"
"2005-12-17 10:00","2005","12","17","10:00","-2.8","","-7.4","","71","","26","","19","","24.1","","101.67","","","","-9","","Cloudy"
"2005-12-17 11:00","2005","12","17","11:00","-2.5","","-6.7","","73","","24","","19","","24.1","","101.71","","","","-8","","Mostly Cloudy"
"2005-12-17 12:00","2005","12","17","12:00","-2.5","","-6.6","","73","","24","","22","","24.1","","101.71","","","","-9","","Mostly Cloudy"
"2005-12-17 13:00","2005","12","17","13:00","-2.4","","-6.2","","75","","26","","19","","19.3","","101.71","","","","-8","","Cloudy"
"2005-12-17 14:00","2005","12","17","14:00","-2.5","","-6.2","","76","","24","","19","","19.3","","101.72","","","","-8","","Cloudy"
"2005-12-17 15:00","2005","12","17","15:00","-2.4","","-6.3","","75","","24","","22","","19.3","","101.77","","","","-9","","Mainly Clear"
"2005-12-17 16:00","2005","12","17","16:00","-2.8","","-7.4","","71","","25","","19","","19.3","","101.82","","","","-9","","Mainly Clear"
"2005-12-17 17:00","2005","12","17","17:00","-2.6","","-7.4","","70","","24","","19","","19.3","","101.94","","","","-8","","Mostly Cloudy"
"2005-12-17 18:00","2005","12","17","18:00","-1.9","","-6.2","","72","","24","","22","","19.3","","101.95","","","","-8","","Cloudy"
"2005-12-17 19:00","2005","12","17","19:00","-2.0","","-5.7","","76","","25","","19","","24.1","","101.93","","","","-8","","Cloudy"
"2005-12-17 20:00","2005","12","17","20:00","-2.0","","-5.6","","76","","25","","15","","19.3","","101.95","","","","-7","","Cloudy"
"2005-12-17 21:00","2005","12","17","21:00","-1.9","","-5.7","","75","","24","","15","","19.3","","101.92","","","","-7","","Cloudy"
"2005-12-17 22:00","2005","12","17","22:00","-2.4","","-5.6","","79","","28","","15","","19.3","","102.00","","","","-7","","Cloudy"
"2005-12-17 23:00","2005","12","17","23:00"
"2005-12-18 00:00","2005","12","18","00:00"
"2005-12-18 01:00","2005","12","18","01:00"
"2005-12-18 02:00","2005","12","18","02:00"
"2005-12-18 03:00","2005","12","18","03:00"
"2005-12-18 04:00","2005","12","18","04:00"
"2005-12-18 05:00","2005","12","18","05:00"
"2005-12-18 06:00","2005","12","18","06:00","-7.8","","-10.2","","83","","22","","9","","19.3","","102.02","","","","-12","","Mostly Cloudy"
"2005-12-18 07:00","2005","12","18","07:00","-6.7","","-9.5","","80","","24","","19","","19.3","","102.02","","","","-14","","Mostly Cloudy"
"2005-12-18 08:00","2005","12","18","08:00","-6.1","","-9.2","","79","","24","","19","","16.1","","102.04","","","","-13","","Mostly Cloudy"
"2005-12-18 09:00","2005","12","18","09:00","-5.6","","-8.3","","81","","24","","19","","19.3","","102.06","","","","-12","","Mostly Cloudy"
"2005-12-18 10:00","2005","12","18","10:00","-4.9","","-8.5","","76","","26","","19","","19.3","","102.04","","","","-11","","Cloudy"
"2005-12-18 11:00","2005","12","18","11:00","-4.6","","-8.0","","77","","26","","19","","19.3","","101.95","","","","-11","","Mostly Cloudy"
"2005-12-18 12:00","2005","12","18","12:00","-4.3","","-7.9","","76","","24","","19","","19.3","","101.86","","","","-10","","Mostly Cloudy"
"2005-12-18 13:00","2005","12","18","13:00","-3.9","","-7.5","","76","","25","","19","","16.1","","101.78","","","","-10","","Cloudy"
"2005-12-18 14:00","2005","12","18","14:00","-3.5","","-7.4","","74","","27","","19","","19.3","","101.73","","","","-9","","Cloudy"
"2005-12-18 15:00","2005","12","18","15:00","-4.3","","-8.3","","74","","26","","19","","16.1","","101.74","","","","-10","","Mostly Cloudy"
"2005-12-18 16:00","2005","12","18","16:00","-4.8","","-8.8","","74","","27","","19","","16.1","","101.71","","","","-11","","Mostly Cloudy"
"2005-12-18 17:00","2005","12","18","17:00","-4.9","","-8.8","","74","","26","","15","","16.1","","101.67","","","","-10","","Cloudy"
"2005-12-18 18:00","2005","12","18","18:00","-5.2","","-8.9","","75","","24","","15","","16.1","","101.66","","","","-11","","Cloudy"
"2005-12-18 19:00","2005","12","18","19:00","-5.0","","-8.5","","76","","23","","19","","16.1","","101.63","","","","-11","","Cloudy"
"2005-12-18 20:00","2005","12","18","20:00","-5.5","","-9.1","","76","","24","","19","","16.1","","101.59","","","","-12","","Mainly Clear"
"2005-12-18 21:00","2005","12","18","21:00","-5.4","","-8.9","","76","","24","","22","","16.1","","101.53","","","","-12","","Mostly Cloudy"
"2005-12-18 22:00","2005","12","18","22:00","-5.6","","-9.0","","77","","24","","19","","16.1","","101.47","","","","-12","","Mainly Clear"
"2005-12-18 23:00","2005","12","18","23:00"
"2005-12-19 00:00","2005","12","19","00:00"
"2005-12-19 01:00","2005","12","19","01:00"
"2005-12-19 02:00","2005","12","19","02:00"
"2005-12-19 03:00","2005","12","19","03:00"
"2005-12-19 04:00","2005","12","19","04:00"
"2005-12-19 05:00","2005","12","19","05:00"
"2005-12-19 06:00","2005","12","19","06:00","-9.4","","-13.0","","75","","24","","19","","24.1","","101.26","","","","-17","","Clear"
"2005-12-19 07:00","2005","12","19","07:00","-9.5","","-13.0","","76","","25","","19","","24.1","","101.23","","","","-17","","Clear"
"2005-12-19 08:00","2005","12","19","08:00","-9.7","","-12.8","","78","","24","","19","","24.1","","101.23","","","","-17","","Clear"
"2005-12-19 09:00","2005","12","19","09:00","-8.9","","-12.1","","78","","24","","19","","24.1","","101.24","","","","-16","","Clear"
"2005-12-19 10:00","2005","12","19","10:00","-7.5","","-11.2","","75","","25","","19","","24.1","","101.30","","","","-15","","Clear"
"2005-12-19 11:00","2005","12","19","11:00","-5.7","","-10.2","","71","","26","","19","","24.1","","101.25","","","","-12","","Mainly Clear"
"2005-12-19 12:00","2005","12","19","12:00","-4.8","","-10.0","","67","","24","","19","","24.1","","101.19","","","","-11","","Mostly Cloudy"
"2005-12-19 13:00","2005","12","19","13:00","-4.7","","-10.0","","66","","25","","19","","24.1","","101.12","","","","-11","","Clear"
"2005-12-19 14:00","2005","12","19","14:00","-4.7","","-11.1","","61","","24","","19","","24.1","","101.06","","","","-11","","Clear"
"2005-12-19 15:00","2005","12","19","15:00","-5.2","","-10.9","","64","","24","","28","","24.1","","101.04","","","","-13","","Mainly Clear"
"2005-12-19 16:00","2005","12","19","16:00","-5.7","","-11.4","","64","","25","","19","","24.1","","101.04","","","","-12","","Clear"
"2005-12-19 17:00","2005","12","19","17:00","-6.4","","-11.9","","65","","24","","19","","24.1","","101.03","","","","-13","","Clear"
"2005-12-19 18:00","2005","12","19","18:00","-6.5","","-10.9","","71","","25","","19","","24.1","","100.95","","","","-13","","Clear"
"2005-12-19 19:00","2005","12","19","19:00","-6.5","","-10.4","","74","","25","","19","","24.1","","100.98","","","","-13","","Clear"
"2005-12-19 20:00","2005","12","19","20:00","-6.4","","-10.4","","73","","24","","19","","24.1","","100.92","","","","-13","","Clear"
"2005-12-19 21:00","2005","12","19","21:00","-6.1","","-9.9","","74","","24","","22","","24.1","","100.85","","","","-13","","Clear"
"2005-12-19 22:00","2005","12","19","22:00","-5.6","","-9.9","","72","","24","","19","","24.1","","100.75","","","","-12","","Clear"
"2005-12-19 23:00","2005","12","19","23:00"
"2005-12-20 00:00","2005","12","20","00:00"
"2005-12-20 01:00","2005","12","20","01:00"
"2005-12-20 02:00","2005","12","20","02:00"
"2005-12-20 03:00","2005","12","20","03:00"
"2005-12-20 04:00","2005","12","20","04:00"
"2005-12-20 05:00","2005","12","20","05:00"
"2005-12-20 06:00","2005","12","20","06:00","-6.3","","-10.1","","74","","23","","28","","12.9","","100.63","","","","-14","","Cloudy"
"2005-12-20 07:00","2005","12","20","07:00","-6.3","","-9.8","","76","","24","","19","","12.9","","100.61","","","","-13","","Cloudy"
"2005-12-20 08:00","2005","12","20","08:00","-6.5","","-9.9","","77","","23","","28","","16.1","","100.65","","","","-15","","Snow"
"2005-12-20 09:00","2005","12","20","09:00","-6.9","","-9.2","","84","","23","","19","","3.2","","100.68","","","","-14","","Snow"
"2005-12-20 10:00","2005","12","20","10:00","-6.4","","-9.3","","80","","24","","19","","19.3","","100.67","","","","-13","","Snow"
"2005-12-20 11:00","2005","12","20","11:00","-5.7","","-9.3","","76","","23","","28","","19.3","","100.62","","","","-14","","Snow"
"2005-12-20 12:00","2005","12","20","12:00","-5.6","","-9.1","","76","","24","","19","","6.4","","100.57","","","","-12","","Snow"
"2005-12-20 13:00","2005","12","20","13:00","-5.1","","-8.1","","79","","24","","22","","16.1","","100.54","","","","-12","","Snow"
"2005-12-20 14:00","2005","12","20","14:00","-4.5","","-8.0","","76","","24","","22","","9.7","","100.54","","","","-11","","Snow"
"2005-12-20 15:00","2005","12","20","15:00","-4.0","","-8.0","","74","","24","","19","","19.3","","100.58","","","","-10","","Cloudy"
"2005-12-20 16:00","2005","12","20","16:00","-3.6","","-7.5","","74","","25","","22","","19.3","","100.65","","","","-10","","Mostly Cloudy"
"2005-12-20 17:00","2005","12","20","17:00","-3.2","","-6.7","","77","","26","","22","","16.1","","100.70","","","","-10","","Mostly Cloudy"
"2005-12-20 18:00","2005","12","20","18:00","-3.4","","-6.4","","80","","25","","19","","16.1","","100.77","","","","-9","","Cloudy"
"2005-12-20 19:00","2005","12","20","19:00","-2.4","","-4.9","","83","","30","","15","","19.3","","100.87","","","","-7","","Mostly Cloudy"
"2005-12-20 20:00","2005","12","20","20:00","-3.4","","-9.6","","62","","30","","15","","24.1","","100.90","","","","-9","","Mainly Clear"
"2005-12-20 21:00","2005","12","20","21:00","-4.2","","-9.2","","68","","29","","15","","24.1","","100.94","","","","-10","","Mainly Clear"
"2005-12-20 22:00","2005","12","20","22:00","-6.8","","-9.7","","80","","24","","11","","24.1","","100.97","","","","-12","","Clear"
"2005-12-20 23:00","2005","12","20","23:00"
"2005-12-21 00:00","2005","12","21","00:00"
"2005-12-21 01:00","2005","12","21","01:00"
"2005-12-21 02:00","2005","12","21","02:00"
"2005-12-21 03:00","2005","12","21","03:00"
"2005-12-21 04:00","2005","12","21","04:00"
"2005-12-21 05:00","2005","12","21","05:00"
"2005-12-21 06:00","2005","12","21","06:00","-5.6","","-8.5","","80","","22","","19","","19.3","","100.82","","","","-12","","Cloudy"
"2005-12-21 07:00","2005","12","21","07:00","-5.4","","-8.3","","80","","24","","9","","16.1","","100.76","","","","-9","","Cloudy"
"2005-12-21 08:00","2005","12","21","08:00","-5.2","","-8.4","","78","","24","","19","","16.1","","100.75","","","","-12","","Cloudy"
"2005-12-21 09:00","2005","12","21","09:00","-4.9","","-7.8","","80","","22","","19","","4.8","","100.69","","","","-11","","Snow Showers"
"2005-12-21 10:00","2005","12","21","10:00","-5.0","","-6.0","","93","","24","","13","","1.6","","100.69","","","","-10","","Snow Showers"
"2005-12-21 11:00","2005","12","21","11:00","-4.4","","-5.6","","91","","25","","13","","2.4","","100.65","","","","-9","","Snow Showers"
"2005-12-21 12:00","2005","12","21","12:00","-3.9","","-5.0","","92","","27","","11","","2.4","","100.53","","","","-8","","Snow Showers"
"2005-12-21 13:00","2005","12","21","13:00","-4.0","","-5.7","","88","","25","","19","","4.8","","100.44","","","","-10","","Snow Showers"
"2005-12-21 14:00","2005","12","21","14:00","-4.1","","-8.3","","73","","25","","22","","9.7","","100.45","","","","-11","","Snow Showers"
"2005-12-21 15:00","2005","12","21","15:00","-3.9","","-8.3","","71","","24","","19","","12.9","","100.51","","","","-10","","Mainly Clear"
"2005-12-21 16:00","2005","12","21","16:00","-4.2","","-8.7","","71","","24","","22","","16.1","","100.58","","","","-11","","Mostly Cloudy"
"2005-12-21 17:00","2005","12","21","17:00","-4.5","","-8.5","","74","","24","","22","","16.1","","100.66","","","","-11","","Mostly Cloudy"
"2005-12-21 18:00","2005","12","21","18:00","-4.6","","-8.0","","77","","23","","24","","16.1","","100.70","","","","-12","","Snow Showers"
"2005-12-21 19:00","2005","12","21","19:00","-4.2","","-7.7","","77","","25","","22","","16.1","","100.78","","","","-11","","Mostly Cloudy"
"2005-12-21 20:00","2005","12","21","20:00","-3.7","","-7.1","","77","","25","","19","","12.9","","100.83","","","","-10","","Snow Showers"
"2005-12-21 21:00","2005","12","21","21:00","-3.2","","-6.6","","77","","24","","19","","12.9","","100.83","","","","-9","","Snow Showers"
"2005-12-21 22:00","2005","12","21","22:00","-2.9","","-6.4","","77","","24","","22","","12.9","","100.82","","","","-9","","Snow Showers"
"2005-12-21 23:00","2005","12","21","23:00"
"2005-12-22 00:00","2005","12","22","00:00"
"2005-12-22 01:00","2005","12","22","01:00"
"2005-12-22 02:00","2005","12","22","02:00"
"2005-12-22 03:00","2005","12","22","03:00"
"2005-12-22 04:00","2005","12","22","04:00"
"2005-12-22 05:00","2005","12","22","05:00"
"2005-12-22 06:00","2005","12","22","06:00","-3.4","","-7.7","","72","","25","","19","","24.1","","100.85","","","","-9","","Cloudy"
"2005-12-22 07:00","2005","12","22","07:00","-3.3","","-7.5","","73","","23","","9","","24.1","","100.80","","","","-7","","Cloudy"
"2005-12-22 08:00","2005","12","22","08:00","-2.8","","-6.1","","78","","21","","19","","19.3","","100.77","","","","-9","","Cloudy"
"2005-12-22 09:00","2005","12","22","09:00","-2.0","","-4.9","","81","","23","","19","","12.9","","100.76","","","","-8","","Cloudy"
"2005-12-22 10:00","2005","12","22","10:00","-1.3","","-4.3","","80","","23","","28","","9.7","","100.72","","","","-8","","Snow"
"2005-12-22 11:00","2005","12","22","11:00","-1.3","","-4.9","","76","","23","","28","","12.9","","100.66","","","","-8","","Snow"
"2005-12-22 12:00","2005","12","22","12:00","-1.6","","-5.2","","76","","22","","28","","12.9","","100.54","","","","-8","","Snow"
"2005-12-22 13:00","2005","12","22","13:00","-0.8","","-4.9","","74","","22","","37","","11.3","","100.37","","","","-8","","Cloudy"
"2005-12-22 14:00","2005","12","22","14:00","-0.1","","-4.2","","74","","23","","28","","12.9","","100.29","","","","-6","","Cloudy"
"2005-12-22 15:00","2005","12","22","15:00","0.7","","-3.4","","74","","22","","26","","12.9","","100.23","","","","","","Mostly Cloudy"
"2005-12-22 16:00","2005","12","22","16:00","1.4","","-2.5","","75","","22","","30","","16.1","","100.18","","","","","","Cloudy"
"2005-12-22 17:00","2005","12","22","17:00","1.8","","-3.4","","68","","22","","30","","16.1","","100.11","","","","","","Mostly Cloudy"
"2005-12-22 18:00","2005","12","22","18:00","2.1","","-3.4","","67","","21","","30","","16.1","","100.10","","","","","","Cloudy"
"2005-12-22 19:00","2005","12","22","19:00","2.4","","-3.6","","65","","22","","30","","16.1","","100.05","","","","","","Cloudy"
"2005-12-22 20:00","2005","12","22","20:00","2.5","","-3.7","","64","","22","","28","","16.1","","99.98","","","","","","Cloudy"
"2005-12-22 21:00","2005","12","22","21:00","2.6","","-3.3","","65","","22","","22","","16.1","","99.93","","","","","","Cloudy"
"2005-12-22 22:00","2005","12","22","22:00","2.6","","-2.9","","67","","22","","24","","16.1","","99.89","","","","","","Cloudy"
"2005-12-22 23:00","2005","12","22","23:00"
"2005-12-23 00:00","2005","12","23","00:00"
"2005-12-23 01:00","2005","12","23","01:00"
"2005-12-23 02:00","2005","12","23","02:00"
"2005-12-23 03:00","2005","12","23","03:00"
"2005-12-23 04:00","2005","12","23","04:00"
"2005-12-23 05:00","2005","12","23","05:00"
"2005-12-23 06:00","2005","12","23","06:00","2.8","","-1.0","","76","","23","","19","","19.3","","99.92","","","","","","Cloudy"
"2005-12-23 07:00","2005","12","23","07:00","2.6","","-0.8","","78","","24","","19","","19.3","","99.91","","","","","","Cloudy"
"2005-12-23 08:00","2005","12","23","08:00","3.1","","-1.2","","73","","21","","22","","16.1","","99.92","","","","","","Cloudy"
"2005-12-23 09:00","2005","12","23","09:00","3.6","","-1.0","","72","","23","","19","","16.1","","99.94","","","","","","Cloudy"
"2005-12-23 10:00","2005","12","23","10:00","3.4","","-0.1","","78","","21","","19","","9.7","","99.96","","","","","","Rain Showers"
"2005-12-23 11:00","2005","12","23","11:00","3.4","","0.3","","80","","21","","19","","9.7","","99.86","","","","","","Rain Showers"
"2005-12-23 12:00","2005","12","23","12:00","3.1","","0.4","","82","","20","","19","","9.7","","99.64","","","","","","Rain"
"2005-12-23 13:00","2005","12","23","13:00","3.1","","0.3","","82","","21","","22","","9.7","","99.60","","","","","","Rain"
"2005-12-23 14:00","2005","12","23","14:00","3.4","","0.0","","78","","22","","15","","16.1","","99.45","","","","","","Cloudy"
"2005-12-23 15:00","2005","12","23","15:00","4.1","","0.0","","75","","22","","19","","16.1","","99.46","","","","","","Mostly Cloudy"
"2005-12-23 16:00","2005","12","23","16:00","4.4","","-0.6","","70","","22","","22","","16.1","","99.47","","","","","","Cloudy"
"2005-12-23 17:00","2005","12","23","17:00","4.2","","-0.5","","71","","23","","22","","16.1","","99.49","","","","","","Cloudy"
"2005-12-23 18:00","2005","12","23","18:00","4.1","","-0.2","","74","","24","","24","","12.9","","99.56","","","","","","Cloudy"
"2005-12-23 19:00","2005","12","23","19:00","3.7","","0.2","","78","","24","","22","","12.9","","99.60","","","","","","Cloudy"
"2005-12-23 20:00","2005","12","23","20:00","3.6","","0.5","","80","","23","","22","","12.9","","99.63","","","","","","Cloudy"
"2005-12-23 21:00","2005","12","23","21:00","3.4","","0.6","","82","","23","","19","","12.9","","99.69","","","","","","Cloudy"
"2005-12-23 22:00","2005","12","23","22:00","3.5","","0.7","","82","","24","","19","","12.9","","99.72","","","","","","Cloudy"
"2005-12-23 23:00","2005","12","23","23:00"
"2005-12-24 00:00","2005","12","24","00:00"
"2005-12-24 01:00","2005","12","24","01:00"
"2005-12-24 02:00","2005","12","24","02:00"
"2005-12-24 03:00","2005","12","24","03:00"
"2005-12-24 04:00","2005","12","24","04:00"
"2005-12-24 05:00","2005","12","24","05:00"
"2005-12-24 06:00","2005","12","24","06:00","2.8","","1.1","","89","","21","","15","","19.3","","99.88","","","","","","Cloudy"
"2005-12-24 07:00","2005","12","24","07:00","3.1","","1.0","","86","","18","","19","","12.9","","99.88","","","","","","Cloudy"
"2005-12-24 08:00","2005","12","24","08:00","2.7","","1.1","","89","","18","","9","","6.4","","99.92","","","","","","Fog"
"2005-12-24 09:00","2005","12","24","09:00","3.0","","1.2","","88","","17","","9","","9.7","","99.97","","","","","","Fog"
"2005-12-24 10:00","2005","12","24","10:00","3.5","","1.6","","87","","17","","6","","9.7","","99.99","","","","","","Fog"
"2005-12-24 11:00","2005","12","24","11:00","3.7","","1.7","","87","","","","0","","8.0","","99.95","","","","","","Fog"
"2005-12-24 12:00","2005","12","24","12:00","4.0","","2.2","","88","","8","","9","","9.7","","99.88","","","","","","Fog"
"2005-12-24 13:00","2005","12","24","13:00","4.8","","2.3","","84","","12","","11","","16.1","","99.78","","","","","","Cloudy"
"2005-12-24 14:00","2005","12","24","14:00","5.8","","1.7","","75","","17","","11","","16.1","","99.76","","","","","","Cloudy"
"2005-12-24 15:00","2005","12","24","15:00","6.0","","1.7","","74","","16","","9","","16.1","","99.76","","","","","","Cloudy"
"2005-12-24 16:00","2005","12","24","16:00","5.5","","1.2","","74","","13","","9","","16.1","","99.79","","","","","","Cloudy"
"2005-12-24 17:00","2005","12","24","17:00","5.1","","1.1","","75","","12","","7","","16.1","","99.80","","","","","","Cloudy"
"2005-12-24 18:00","2005","12","24","18:00","4.1","","0.5","","77","","10","","6","","16.1","","99.78","","","","","","Cloudy"
"2005-12-24 19:00","2005","12","24","19:00","4.1","","0.8","","79","","10","","6","","16.1","","99.78","","","","","","Cloudy"
"2005-12-24 20:00","2005","12","24","20:00","3.5","","0.7","","82","","10","","6","","16.1","","99.75","","","","","","Cloudy"
"2005-12-24 21:00","2005","12","24","21:00","3.4","","0.6","","82","","13","","6","","16.1","","99.71","","","","","","Cloudy"
"2005-12-24 22:00","2005","12","24","22:00","3.2","","0.6","","83","","","","0","","16.1","","99.65","","","","","","Cloudy"
"2005-12-24 23:00","2005","12","24","23:00"
"2005-12-25 00:00","2005","12","25","00:00"
"2005-12-25 01:00","2005","12","25","01:00"
"2005-12-25 02:00","2005","12","25","02:00"
"2005-12-25 03:00","2005","12","25","03:00"
"2005-12-25 04:00","2005","12","25","04:00"
"2005-12-25 05:00","2005","12","25","05:00"
"2005-12-25 06:00","2005","12","25","06:00","0.6","","0.4","","99","","","","0","","9.7","","99.31","","","","","","Fog"
"2005-12-25 07:00","2005","12","25","07:00","1.1","","0.4","","95","","","","0","","8.0","","99.29","","","","","","Fog"
"2005-12-25 08:00","2005","12","25","08:00","1.2","","0.9","","98","","34","","7","","6.4","","99.29","","","","","","Rain Showers,Fog"
"2005-12-25 09:00","2005","12","25","09:00","1.3","","0.9","","97","","","","0","","4.8","","99.24","","","","","","Fog"
"2005-12-25 10:00","2005","12","25","10:00","1.6","","1.2","","97","","","","0","","9.7","","99.21","","","","","","Fog"
"2005-12-25 11:00","2005","12","25","11:00","2.7","","1.3","","90","","","","0","","8.0","","99.17","","","","","","Fog"
"2005-12-25 12:00","2005","12","25","12:00","3.1","","1.3","","88","","8","","9","","8.0","","99.03","","","","","","Fog"
"2005-12-25 13:00","2005","12","25","13:00","4.0","","3.0","","93","","8","","15","","8.0","","98.89","","","","","","Fog"
"2005-12-25 14:00","2005","12","25","14:00","4.0","","2.9","","93","","2","","9","","9.7","","98.79","","","","","","Fog"
"2005-12-25 15:00","2005","12","25","15:00","3.9","","2.6","","91","","2","","7","","9.7","","98.77","","","","","","Rain Showers"
"2005-12-25 16:00","2005","12","25","16:00","2.7","","2.0","","95","","8","","7","","9.7","","98.71","","","","","","Rain Showers"
"2005-12-25 17:00","2005","12","25","17:00","2.2","","1.6","","96","","3","","11","","9.7","","98.63","","","","","","Rain Showers"
"2005-12-25 18:00","2005","12","25","18:00","2.0","","1.7","","98","","5","","6","","9.7","","98.63","","","","","","Rain Showers"
"2005-12-25 19:00","2005","12","25","19:00","2.2","","2.1","","99","","4","","9","","8.0","","98.58","","","","","","Rain Showers"
"2005-12-25 20:00","2005","12","25","20:00","2.4","","2.3","","99","","1","","15","","3.6","","98.55","","","","","","Rain,Fog"
"2005-12-25 21:00","2005","12","25","21:00","2.7","","2.7","","100","","4","","20","","2.8","","98.52","","","","","","Rain,Fog"
"2005-12-25 22:00","2005","12","25","22:00","2.4","","2.4","","100","","2","","9","","1.6","","98.49","","","","","","Rain,Fog"
"2005-12-25 23:00","2005","12","25","23:00"
"2005-12-26 00:00","2005","12","26","00:00"
"2005-12-26 01:00","2005","12","26","01:00"
"2005-12-26 02:00","2005","12","26","02:00"
"2005-12-26 03:00","2005","12","26","03:00"
"2005-12-26 04:00","2005","12","26","04:00"
"2005-12-26 05:00","2005","12","26","05:00"
"2005-12-26 06:00","2005","12","26","06:00","1.9","","1.5","","97","","36","","22","","8.0","","98.54","","","","","","Rain,Fog"
"2005-12-26 07:00","2005","12","26","07:00","1.8","","1.5","","98","","34","","19","","6.4","","98.61","","","","","","Rain,Fog"
"2005-12-26 08:00","2005","12","26","08:00","1.7","","1.2","","96","","36","","19","","8.0","","98.70","","","","","","Rain,Fog"
"2005-12-26 09:00","2005","12","26","09:00","2.0","","1.3","","95","","35","","19","","16.1","","98.80","","","","","","Rain"
"2005-12-26 10:00","2005","12","26","10:00","1.4","","0.6","","94","","35","","19","","6.4","","98.90","","","","","","Rain,Snow"
"2005-12-26 11:00","2005","12","26","11:00","0.4","","-0.6","","93","","32","","28","","4.0","","98.95","","","","","","Snow"
"2005-12-26 12:00","2005","12","26","12:00","0.0","","-0.4","","97","","32","","19","","3.2","","98.96","","","","-5","","Snow"
"2005-12-26 13:00","2005","12","26","13:00","0.2","","-1.1","","91","","32","","19","","24.1","","98.98","","","","","","Cloudy"
"2005-12-26 14:00","2005","12","26","14:00","0.2","","-2.0","","85","","33","","19","","24.1","","99.01","","","","","","Cloudy"
"2005-12-26 15:00","2005","12","26","15:00","0.3","","-1.5","","88","","34","","19","","24.1","","99.11","","","","","","Cloudy"
"2005-12-26 16:00","2005","12","26","16:00","0.3","","-1.7","","86","","35","","28","","24.1","","99.25","","","","","","Cloudy"
"2005-12-26 17:00","2005","12","26","17:00","0.3","","-1.5","","88","","32","","19","","24.1","","99.35","","","","","","Cloudy"
"2005-12-26 18:00","2005","12","26","18:00","0.3","","-1.9","","85","","30","","22","","16.1","","99.47","","","","","","Cloudy"
"2005-12-26 19:00","2005","12","26","19:00","0.6","","-1.7","","85","","31","","19","","16.1","","99.56","","","","","","Cloudy"
"2005-12-26 20:00","2005","12","26","20:00","0.7","","-1.5","","85","","28","","19","","16.1","","99.63","","","","","","Cloudy"
"2005-12-26 21:00","2005","12","26","21:00","0.6","","-1.7","","85","","29","","19","","16.1","","99.67","","","","","","Cloudy"
"2005-12-26 22:00","2005","12","26","22:00","0.6","","-1.6","","85","","27","","19","","16.1","","99.72","","","","","","Cloudy"
"2005-12-26 23:00","2005","12","26","23:00"
"2005-12-27 00:00","2005","12","27","00:00"
"2005-12-27 01:00","2005","12","27","01:00"
"2005-12-27 02:00","2005","12","27","02:00"
"2005-12-27 03:00","2005","12","27","03:00"
"2005-12-27 04:00","2005","12","27","04:00"
"2005-12-27 05:00","2005","12","27","05:00"
"2005-12-27 06:00","2005","12","27","06:00","0.2","","-2.0","","85","","24","","15","","16.1","","100.12","","","","","","Cloudy"
"2005-12-27 07:00","2005","12","27","07:00","-0.1","","-2.0","","87","","22","","13","","16.1","","100.16","","","","-4","","Mostly Cloudy"
"2005-12-27 08:00","2005","12","27","08:00","0.5","","-1.2","","88","","16","","11","","24.1","","100.18","","","","","","Cloudy"
"2005-12-27 09:00","2005","12","27","09:00","0.9","","-1.2","","86","","24","","19","","24.1","","100.23","","","","","","Cloudy"
"2005-12-27 10:00","2005","12","27","10:00","0.9","","-1.4","","85","","23","","15","","24.1","","100.28","","","","","","Cloudy"
"2005-12-27 11:00","2005","12","27","11:00","0.7","","-2.3","","80","","22","","19","","24.1","","100.28","","","","","","Cloudy"
"2005-12-27 12:00","2005","12","27","12:00","1.4","","-2.3","","76","","24","","9","","24.1","","100.18","","","","","","Cloudy"
"2005-12-27 13:00","2005","12","27","13:00","1.5","","-2.7","","74","","21","","9","","24.1","","100.06","","","","","","Cloudy"
"2005-12-27 14:00","2005","12","27","14:00","1.9","","-2.3","","74","","22","","9","","24.1","","100.01","","","","","","Cloudy"
"2005-12-27 15:00","2005","12","27","15:00","2.2","","-1.3","","78","","21","","15","","24.1","","99.98","","","","","","Cloudy"
"2005-12-27 16:00","2005","12","27","16:00","2.4","","-1.4","","76","","21","","19","","24.1","","99.97","","","","","","Cloudy"
"2005-12-27 17:00","2005","12","27","17:00","2.0","","-0.9","","81","","22","","19","","24.1","","99.98","","","","","","Cloudy"
"2005-12-27 18:00","2005","12","27","18:00","1.8","","-1.3","","80","","21","","19","","24.1","","99.98","","","","","","Cloudy"
"2005-12-27 19:00","2005","12","27","19:00","1.5","","-1.6","","80","","15","","9","","24.1","","99.95","","","","","","Cloudy"
"2005-12-27 20:00","2005","12","27","20:00","0.0","","-1.8","","88","","9","","9","","24.1","","99.89","","","","-3","","Clear"
"2005-12-27 21:00","2005","12","27","21:00","-0.3","","-2.2","","87","","9","","9","","24.1","","99.87","","","","-3","","Clear"
"2005-12-27 22:00","2005","12","27","22:00","-0.9","","-2.4","","90","","9","","9","","24.1","","99.85","","","","-4","","Clear"
"2005-12-27 23:00","2005","12","27","23:00"
"2005-12-28 00:00","2005","12","28","00:00"
"2005-12-28 01:00","2005","12","28","01:00"
"2005-12-28 02:00","2005","12","28","02:00"
"2005-12-28 03:00","2005","12","28","03:00"
"2005-12-28 04:00","2005","12","28","04:00"
"2005-12-28 05:00","2005","12","28","05:00"
"2005-12-28 06:00","2005","12","28","06:00","1.4","","-1.0","","84","","11","","9","","16.1","","99.43","","","","","","Cloudy"
"2005-12-28 07:00","2005","12","28","07:00","1.1","","-0.5","","89","","6","","15","","16.1","","99.37","","","","","","Cloudy"
"2005-12-28 08:00","2005","12","28","08:00","1.0","","-0.4","","90","","5","","9","","6.4","","99.35","","","","","","Fog"
"2005-12-28 09:00","2005","12","28","09:00","1.1","","0.0","","92","","6","","11","","8.0","","99.34","","","","","","Fog"
"2005-12-28 10:00","2005","12","28","10:00","1.4","","0.2","","92","","7","","9","","8.0","","99.30","","","","","","Fog"
"2005-12-28 11:00","2005","12","28","11:00","2.1","","0.8","","91","","","","0","","8.0","","99.25","","","","","","Fog"
"2005-12-28 12:00","2005","12","28","12:00","2.6","","1.0","","89","","6","","9","","8.0","","99.04","","","","","","Fog"
"2005-12-28 13:00","2005","12","28","13:00","3.4","","1.4","","87","","4","","9","","8.0","","98.91","","","","","","Fog"
"2005-12-28 14:00","2005","12","28","14:00","5.1","","2.9","","86","","6","","9","","8.0","","98.79","","","","","","Haze"
"2005-12-28 15:00","2005","12","28","15:00","4.4","","2.5","","87","","36","","9","","8.0","","98.79","","","","","","Haze"
"2005-12-28 16:00","2005","12","28","16:00","3.7","","2.3","","91","","3","","9","","8.0","","98.74","","","","","","Fog"
"2005-12-28 17:00","2005","12","28","17:00","3.5","","2.2","","91","","3","","11","","6.4","","98.70","","","","","","Fog"
"2005-12-28 18:00","2005","12","28","18:00","3.4","","2.6","","94","","","","0","","8.0","","98.70","","","","","","Fog"
"2005-12-28 19:00","2005","12","28","19:00","3.3","","2.9","","97","","4","","7","","8.0","","98.62","","","","","","Rain,Fog"
"2005-12-28 20:00","2005","12","28","20:00","3.4","","3.2","","99","","5","","9","","8.0","","98.59","","","","","","Rain,Fog"
"2005-12-28 21:00","2005","12","28","21:00","3.4","","3.3","","99","","6","","9","","8.0","","98.56","","","","","","Rain,Fog"
"2005-12-28 22:00","2005","12","28","22:00","3.4","","3.4","","100","","4","","9","","6.4","","98.52","","","","","","Fog"
"2005-12-28 23:00","2005","12","28","23:00"
"2005-12-29 00:00","2005","12","29","00:00"
"2005-12-29 01:00","2005","12","29","01:00"
"2005-12-29 02:00","2005","12","29","02:00"
"2005-12-29 03:00","2005","12","29","03:00"
"2005-12-29 04:00","2005","12","29","04:00"
"2005-12-29 05:00","2005","12","29","05:00"
"2005-12-29 06:00","2005","12","29","06:00","2.9","","2.9","","100","","","","0","","4.0","","98.49","","","","","","Fog"
"2005-12-29 07:00","2005","12","29","07:00","3.0","","3.0","","100","","","","0","","4.0","","98.50","","","","","","Fog"
"2005-12-29 08:00","2005","12","29","08:00","3.5","","3.5","","100","","1","","11","","0.8","","98.56","","","","","","Fog"
"2005-12-29 09:00","2005","12","29","09:00","3.4","","3.4","","100","","1","","11","","0.8","","98.64","","","","","","Fog"
"2005-12-29 10:00","2005","12","29","10:00","3.0","","3.0","","100","","1","","19","","1.2","","98.72","","","","","","Rain,Fog"
"2005-12-29 11:00","2005","12","29","11:00","2.9","","2.9","","100","","1","","19","","3.2","","98.73","","","","","","Rain,Fog"
"2005-12-29 12:00","2005","12","29","12:00","2.6","","2.6","","100","","2","","15","","3.2","","98.75","","","","","","Rain,Fog"
"2005-12-29 13:00","2005","12","29","13:00","2.5","","2.5","","100","","36","","19","","4.0","","98.74","","","","","","Fog"
"2005-12-29 14:00","2005","12","29","14:00","2.1","","2.1","","100","","36","","22","","4.0","","98.80","","","","","","Fog"
"2005-12-29 15:00","2005","12","29","15:00","1.8","","1.8","","100","","36","","19","","4.0","","98.89","","","","","","Rain,Fog"
"2005-12-29 16:00","2005","12","29","16:00","1.5","","1.4","","99","","36","","19","","4.8","","99.02","","","","","","Rain,Fog"
"2005-12-29 17:00","2005","12","29","17:00","1.1","","0.5","","96","","34","","19","","6.4","","99.12","","","","","","Rain,Fog"
"2005-12-29 18:00","2005","12","29","18:00","1.2","","0.2","","93","","34","","9","","8.0","","99.22","","","","","","Fog"
"2005-12-29 19:00","2005","12","29","19:00","1.1","","0.1","","93","","35","","19","","12.9","","99.32","","","","","","Cloudy"
"2005-12-29 20:00","2005","12","29","20:00","1.2","","-0.3","","90","","33","","19","","12.9","","99.40","","","","","","Cloudy"
"2005-12-29 21:00","2005","12","29","21:00","0.7","","-0.2","","94","","34","","19","","12.9","","99.46","","","","","","Cloudy"
"2005-12-29 22:00","2005","12","29","22:00","0.7","","-0.2","","94","","24","","19","","8.0","","99.51","","","","","","Drizzle,Fog"
"2005-12-29 23:00","2005","12","29","23:00"
"2005-12-30 00:00","2005","12","30","00:00"
"2005-12-30 01:00","2005","12","30","01:00"
"2005-12-30 02:00","2005","12","30","02:00"
"2005-12-30 03:00","2005","12","30","03:00"
"2005-12-30 04:00","2005","12","30","04:00"
"2005-12-30 05:00","2005","12","30","05:00"
"2005-12-30 06:00","2005","12","30","06:00","-1.5","","-4.0","","83","","33","","19","","24.1","","100.05","","","","-7","","Cloudy"
"2005-12-30 07:00","2005","12","30","07:00","-1.7","","-4.2","","83","","32","","17","","24.1","","100.11","","","","-7","","Cloudy"
"2005-12-30 08:00","2005","12","30","08:00","-1.9","","-4.6","","82","","32","","9","","24.1","","100.19","","","","-5","","Cloudy"
"2005-12-30 09:00","2005","12","30","09:00","-1.7","","-4.6","","81","","29","","4","","24.1","","100.25","","","","-3","","Mostly Cloudy"
"2005-12-30 10:00","2005","12","30","10:00","-2.0","","-4.9","","81","","36","","19","E","24.1","","100.30","","","","-8","E","Cloudy"
"2005-12-30 11:00","2005","12","30","11:00","-1.7","","-4.9","","79","","36","","9","","24.1","","100.28","","","","-5","","Mostly Cloudy"
"2005-12-30 12:00","2005","12","30","12:00","-1.7","","-4.7","","80","","2","","4","","24.1","","100.26","","","","-3","","Mostly Cloudy"
"2005-12-30 13:00","2005","12","30","13:00","-1.5","","-4.8","","78","","35","","9","","19.3","","100.24","","","","-5","","Cloudy"
"2005-12-30 14:00","2005","12","30","14:00","-1.6","","-4.1","","83","","36","","9","E","19.3","","100.18","","","","-5","E","Mostly Cloudy"
"2005-12-30 15:00","2005","12","30","15:00","-1.7","","-4.6","","81","","","","0","","16.1","","100.20","","","","","","Cloudy"
"2005-12-30 16:00","2005","12","30","16:00","-1.8","","-4.3","","83","","","","0","","24.1","","100.21","","","","","","Cloudy"
"2005-12-30 17:00","2005","12","30","17:00","-2.0","","-4.4","","84","","7","","9","","24.1","","100.21","","","","-5","","Cloudy"
"2005-12-30 18:00","2005","12","30","18:00","-1.9","","-4.3","","84","","8","","9","","24.1","","100.21","","","","-5","","Cloudy"
"2005-12-30 19:00","2005","12","30","19:00","-2.2","","-4.0","","87","","7","","9","","24.1","","100.18","","","","-6","","Cloudy"
"2005-12-30 20:00","2005","12","30","20:00","-2.3","","-4.3","","86","","7","","9","","24.1","","100.09","","","","-6","","Cloudy"
"2005-12-30 21:00","2005","12","30","21:00","-2.2","","-4.1","","87","","7","","9","","24.1","","100.08","","","","-6","","Cloudy"
"2005-12-30 22:00","2005","12","30","22:00","-2.1","","-4.1","","86","","8","","19","","24.1","","100.06","","","","-8","","Cloudy"
"2005-12-30 23:00","2005","12","30","23:00"
"2005-12-31 00:00","2005","12","31","00:00"
"2005-12-31 01:00","2005","12","31","01:00"
"2005-12-31 02:00","2005","12","31","02:00"
"2005-12-31 03:00","2005","12","31","03:00"
"2005-12-31 04:00","2005","12","31","04:00"
"2005-12-31 05:00","2005","12","31","05:00"
"2005-12-31 06:00","2005","12","31","06:00","-2.3","","-4.3","","86","","7","","26","","24.1","","99.55","","","","-9","","Cloudy"
"2005-12-31 07:00","2005","12","31","07:00","-2.8","","-4.5","","88","","8","","22","","4.8","","99.48","","","","-9","","Snow"
"2005-12-31 08:00","2005","12","31","08:00","-3.2","","-4.1","","93","","8","","22","","3.2","","99.44","","","","-10","","Snow"
"2005-12-31 09:00","2005","12","31","09:00","-3.2","","-4.2","","93","","8","","22","","3.2","","99.41","","","","-10","","Snow"
"2005-12-31 10:00","2005","12","31","10:00","-2.8","","-4.0","","91","","8","","22","","6.4","","99.38","","","","-9","","Snow"
"2005-12-31 11:00","2005","12","31","11:00","-2.8","","-3.6","","94","","7","","15","","1.2","","99.34","","","","-8","","Snow"
"2005-12-31 12:00","2005","12","31","12:00","-2.0","","-3.1","","92","","7","","11","","1.2","","99.27","","","","-6","","Snow"
"2005-12-31 13:00","2005","12","31","13:00","-1.7","","-2.4","","95","","8","","9","","1.6","","99.24","","","","-5","","Snow"
"2005-12-31 14:00","2005","12","31","14:00","-1.3","","-2.2","","94","","7","","9","","2.4","","99.24","","","","-5","","Snow"
"2005-12-31 15:00","2005","12","31","15:00","-1.1","","-1.9","","94","","8","","7","","3.2","","99.26","","","","-4","","Snow"
"2005-12-31 16:00","2005","12","31","16:00","-1.0","","-1.7","","95","","7","","6","","3.2","","99.31","","","","-3","","Snow"
"2005-12-31 17:00","2005","12","31","17:00","-1.3","","-1.7","","97","","31","","6","","3.2","","99.39","","","","-4","","Snow,Fog"
"2005-12-31 18:00","2005","12","31","18:00","-1.4","","-1.7","","98","","","","0","","6.4","","99.44","","","","","","Snow,Fog"
"2005-12-31 19:00","2005","12","31","19:00","-1.2","","-1.5","","98","","26","","6","","8.0","","99.49","","","","-3","","Snow,Fog"
"2005-12-31 20:00","2005","12","31","20:00","-1.6","","-1.9","","98","","24","","4","","9.7","","99.55","","","","-3","","Snow,Fog"
"2005-12-31 21:00","2005","12","31","21:00","-0.8","","-1.3","","96","","21","","7","","12.9","","99.59","","","","-3","","Snow"
"2005-12-31 22:00","2005","12","31","22:00","-0.7","","-1.0","","98","","","","0","","16.1","","99.65","","","","","","Cloudy"
"2005-12-31 23:00","2005","12","31","23:00"
