"Station Name","ST CATHARINES A"
"Province","ONTARIO"
"Latitude","43.20"
"Longitude","-79.17"
"Elevation","97.80"
"Climate Identifier","6137287"
"WMO Identifier",""
"TC Identifier","YSN"
"All times are specified in Local Standard Time (LST). Add 1 hour to adjust for Daylight Saving Time where and when it is observed."

"Legend"
"E","Estimated"
"M","Missing"
"NA","Not Available"

"Date/Time","Year","Month","Day","Time","Temp (°C)","Temp Flag","Dew Point Temp (°C)","Dew Point Temp Flag","Rel Hum (%)","Rel Hum Flag","Wind Dir (10s deg)","Wind Dir Flag","Wind Spd (km/h)","Wind Spd Flag","Visibility (km)","Visibility Flag","Stn Press (kPa)","Stn Press Flag","Hmdx","Hmdx Flag","Wind Chill","Wind Chill Flag","Weather"
"2011-12-01 00:00","2011","12","01","00:00"
"2011-12-01 01:00","2011","12","01","01:00"
"2011-12-01 02:00","2011","12","01","02:00"
"2011-12-01 03:00","2011","12","01","03:00"
"2011-12-01 04:00","2011","12","01","04:00"
"2011-12-01 05:00","2011","12","01","05:00"
"2011-12-01 06:00","2011","12","01","06:00"
"2011-12-01 07:00","2011","12","01","07:00","0.3","","-1.9","","85","","22","","9","","24.1","","101.21","","","","","","Mainly Clear"
"2011-12-01 08:00","2011","12","01","08:00","0.3","","-1.7","","86","","22","","9","","24.1","","101.26","","","","","","Mainly Clear"
"2011-12-01 09:00","2011","12","01","09:00","2.0","","-0.8","","82","","","","0","","24.1","","101.33","","","","","","Clear"
"2011-12-01 10:00","2011","12","01","10:00","4.5","","-1.4","","65","","23","","19","","24.1","","101.38","","","","","","Mainly Clear"
"2011-12-01 11:00","2011","12","01","11:00","6.3","","0.5","","66","","24","","19","","24.1","","101.36","","","","","","Mostly Cloudy"
"2011-12-01 12:00","2011","12","01","12:00","7.0","","1.0","","66","","25","","19","","24.1","","101.30","","","","","","Mostly Cloudy"
"2011-12-01 13:00","2011","12","01","13:00","7.9","","0.3","","59","","25","","19","","24.1","","101.26","","","","","","Mainly Clear"
"2011-12-01 14:00","2011","12","01","14:00","7.1","","0.6","","63","","24","","22","","24.1","","101.24","","","","","","Mainly Clear"
"2011-12-01 15:00","2011","12","01","15:00","7.2","","1.3","","66","","22","","22","","24.1","","101.22","","","","","","Mainly Clear"
"2011-12-01 16:00","2011","12","01","16:00","6.5","","1.3","","69","","21","","19","","24.1","","101.23","","","","","","Mainly Clear"
"2011-12-01 17:00","2011","12","01","17:00","5.1","","1.0","","75","","21","","19","","19.3","","101.24","","","","","","Mainly Clear"
"2011-12-01 18:00","2011","12","01","18:00","4.3","","1.2","","80","","23","","19","","19.3","","101.28","","","","","","Mainly Clear"
"2011-12-01 19:00","2011","12","01","19:00","3.9","","1.4","","84","","23","","15","","16.1","","101.31","","","","","","Mainly Clear"
"2011-12-01 20:00","2011","12","01","20:00","3.7","","1.2","","84","","22","","15","","16.1","","101.29","","","","","","Mostly Cloudy"
"2011-12-01 21:00","2011","12","01","21:00","3.4","","0.9","","84","","21","","15","","16.1","","101.27","","","","","","Mostly Cloudy"
"2011-12-01 22:00","2011","12","01","22:00"
"2011-12-01 23:00","2011","12","01","23:00"
"2011-12-02 00:00","2011","12","02","00:00"
"2011-12-02 01:00","2011","12","02","01:00"
"2011-12-02 02:00","2011","12","02","02:00"
"2011-12-02 03:00","2011","12","02","03:00"
"2011-12-02 04:00","2011","12","02","04:00"
"2011-12-02 05:00","2011","12","02","05:00"
"2011-12-02 06:00","2011","12","02","06:00"
"2011-12-02 07:00","2011","12","02","07:00","3.4","","-0.4","","76","","24","","19","","19.3","","101.15","","","","","","Cloudy"
"2011-12-02 08:00","2011","12","02","08:00","2.5","","0.3","","85","","27","","19","","8.0","","101.22","","","","","","Rain Showers"
"2011-12-02 09:00","2011","12","02","09:00","2.2","","0.9","","91","","25","","19","","6.4","","101.31","","","","","","Rain Showers,Snow Showers,Fog"
"2011-12-02 10:00","2011","12","02","10:00","2.0","","1.3","","95","","25","","19","","6.4","","101.37","","","","","","Rain,Fog"
"2011-12-02 11:00","2011","12","02","11:00","2.3","","1.6","","95","","27","","19","","6.4","","101.44","","","","","","Rain,Fog"
"2011-12-02 12:00","2011","12","02","12:00","2.2","","1.4","","94","","35","","19","","12.9","","101.50","","","","","","Rain"
"2011-12-02 13:00","2011","12","02","13:00","3.5","","1.5","","87","","31","","19","","24.1","","101.58","","","","","","Mostly Cloudy"
"2011-12-02 14:00","2011","12","02","14:00","4.1","","0.8","","79","","31","","15","","24.1","","101.67","","","","","","Mainly Clear"
"2011-12-02 15:00","2011","12","02","15:00","4.3","","1.1","","80","","27","","11","","24.1","","101.72","","","","","","Mainly Clear"
"2011-12-02 16:00","2011","12","02","16:00","4.3","","-1.2","","67","","30","","19","","24.1","","101.83","","","","","","Mainly Clear"
"2011-12-02 17:00","2011","12","02","17:00","3.6","","0.9","","82","","36","","11","","24.1","","101.97","","","","","","Mostly Cloudy"
"2011-12-02 18:00","2011","12","02","18:00","2.4","","-0.1","","84","","36","","6","","24.1","","102.05","","","","","","Mostly Cloudy"
"2011-12-02 19:00","2011","12","02","19:00","1.6","","-0.9","","83","","","","0","","24.1","","102.13","","","","","","Mainly Clear"
"2011-12-02 20:00","2011","12","02","20:00","0.9","","-0.9","","88","","","","0","","24.1","","102.18","","","","","","Mainly Clear"
"2011-12-02 21:00","2011","12","02","21:00","0.8","","-0.6","","90","","","","0","","24.1","","102.24","","","","","","Mostly Cloudy"
"2011-12-02 22:00","2011","12","02","22:00"
"2011-12-02 23:00","2011","12","02","23:00"
"2011-12-03 00:00","2011","12","03","00:00"
"2011-12-03 01:00","2011","12","03","01:00"
"2011-12-03 02:00","2011","12","03","02:00"
"2011-12-03 03:00","2011","12","03","03:00"
"2011-12-03 04:00","2011","12","03","04:00"
"2011-12-03 05:00","2011","12","03","05:00"
"2011-12-03 06:00","2011","12","03","06:00"
"2011-12-03 07:00","2011","12","03","07:00","0.9","","-0.3","","92","","15","","9","","24.1","","102.24","","","","","","Mainly Clear"
"2011-12-03 08:00","2011","12","03","08:00","1.6","","-0.3","","87","","15","","9","","24.1","","102.23","","","","","","Mostly Cloudy"
"2011-12-03 09:00","2011","12","03","09:00","2.0","","-0.1","","86","","17","","9","","24.1","","102.18","","","","","","Mostly Cloudy"
"2011-12-03 10:00","2011","12","03","10:00","3.5","","-0.2","","77","","18","","19","","24.1","","102.16","","","","","","Mostly Cloudy"
"2011-12-03 11:00","2011","12","03","11:00","4.6","","0.4","","74","","18","","19","","24.1","","102.13","","","","","","Mostly Cloudy"
"2011-12-03 12:00","2011","12","03","12:00","6.2","","0.3","","66","","20","","19","","24.1","","102.02","","","","","","Mostly Cloudy"
"2011-12-03 13:00","2011","12","03","13:00","7.2","","0.5","","62","","20","","15","","24.1","","101.96","","","","","","Mostly Cloudy"
"2011-12-03 14:00","2011","12","03","14:00","7.1","","-0.9","","57","","21","","19","","24.1","","101.89","","","","","","Mostly Cloudy"
"2011-12-03 15:00","2011","12","03","15:00","7.0","","-1.1","","56","","17","","9","","24.1","","101.84","","","","","","Mostly Cloudy"
"2011-12-03 16:00","2011","12","03","16:00","6.4","","-1.1","","59","","18","","19","","24.1","","101.81","","","","","","Mostly Cloudy"
"2011-12-03 17:00","2011","12","03","17:00","5.6","","-0.9","","63","","19","","11","","24.1","","101.80","","","","","","Mostly Cloudy"
"2011-12-03 18:00","2011","12","03","18:00","5.1","","-1.4","","63","","13","","7","","24.1","","101.76","","","","","","Mostly Cloudy"
"2011-12-03 19:00","2011","12","03","19:00","6.5","","-0.8","","60","","17","","7","","24.1","","101.69","","","","","","Mostly Cloudy"
"2011-12-03 20:00","2011","12","03","20:00","7.0","","-0.7","","58","","17","","19","","24.1","","101.60","","","","","","Mostly Cloudy"
"2011-12-03 21:00","2011","12","03","21:00","6.9","","-1.3","","56","","17","","22","","24.1","","101.48","","","","","","Mostly Cloudy"
"2011-12-03 22:00","2011","12","03","22:00"
"2011-12-03 23:00","2011","12","03","23:00"
"2011-12-04 00:00","2011","12","04","00:00"
"2011-12-04 01:00","2011","12","04","01:00"
"2011-12-04 02:00","2011","12","04","02:00"
"2011-12-04 03:00","2011","12","04","03:00"
"2011-12-04 04:00","2011","12","04","04:00"
"2011-12-04 05:00","2011","12","04","05:00"
"2011-12-04 06:00","2011","12","04","06:00"
"2011-12-04 07:00","2011","12","04","07:00","8.1","","1.0","","61","","19","","19","","24.1","","100.90","","","","","","Mainly Clear"
"2011-12-04 08:00","2011","12","04","08:00","8.3","","1.6","","63","","19","","19","","24.1","","100.86","","","","","","Mainly Clear"
"2011-12-04 09:00","2011","12","04","09:00","10.0","","0.7","","52","","21","","28","","24.1","","100.88","","","","","","Mainly Clear"
"2011-12-04 10:00","2011","12","04","10:00","11.2","","0.8","","49","","22","","37","","19.3","","100.96","","","","","","Mostly Cloudy"
"2011-12-04 11:00","2011","12","04","11:00","11.7","","1.7","","50","","22","","19","","24.1","","100.94","","","","","","Cloudy"
"2011-12-04 12:00","2011","12","04","12:00","11.8","","2.5","","53","","21","","28","","24.1","","100.81","","","","","","Mostly Cloudy"
"2011-12-04 13:00","2011","12","04","13:00","14.3","","2.1","","44","","20","","28","","24.1","","100.65","","","","","","Mostly Cloudy"
"2011-12-04 14:00","2011","12","04","14:00","14.9","","2.7","","44","","21","","28","","24.1","","100.67","","","","","","Mostly Cloudy"
"2011-12-04 15:00","2011","12","04","15:00","14.0","","3.2","","48","","21","","19","","24.1","","100.75","","","","","","Cloudy"
"2011-12-04 16:00","2011","12","04","16:00","13.7","","4.2","","53","","22","","26","","24.1","","100.85","","","","","","Cloudy"
"2011-12-04 17:00","2011","12","04","17:00","11.2","","8.8","","85","","23","","26","","16.1","","100.91","","","","","","Rain Showers"
"2011-12-04 18:00","2011","12","04","18:00","11.3","","8.5","","83","","22","","26","","8.0","","100.96","","","","","","Rain,Fog"
"2011-12-04 19:00","2011","12","04","19:00","10.9","","9.2","","89","","22","","22","","12.9","","100.94","","","","","","Rain"
"2011-12-04 20:00","2011","12","04","20:00","10.6","","8.9","","89","","21","","26","","16.1","","100.97","","","","","","Rain"
"2011-12-04 21:00","2011","12","04","21:00","10.7","","9.0","","89","","21","","26","","16.1","","100.96","","","","","","Rain"
"2011-12-04 22:00","2011","12","04","22:00"
"2011-12-04 23:00","2011","12","04","23:00"
"2011-12-05 00:00","2011","12","05","00:00"
"2011-12-05 01:00","2011","12","05","01:00"
"2011-12-05 02:00","2011","12","05","02:00"
"2011-12-05 03:00","2011","12","05","03:00"
"2011-12-05 04:00","2011","12","05","04:00"
"2011-12-05 05:00","2011","12","05","05:00"
"2011-12-05 06:00","2011","12","05","06:00"
"2011-12-05 07:00","2011","12","05","07:00","9.7","","9.7","","100","","24","","9","","11.3","","101.06","","","","","","Rain"
"2011-12-05 08:00","2011","12","05","08:00","8.4","","8.4","","100","","30","","9","","6.4","","101.08","","","","","","Rain,Fog"
"2011-12-05 09:00","2011","12","05","09:00","8.1","","8.0","","99","","26","","9","","6.4","","101.14","","","","","","Rain,Fog"
"2011-12-05 10:00","2011","12","05","10:00","7.8","","7.6","","99","","30","","9","","6.4","","101.17","","","","","","Rain,Fog"
"2011-12-05 11:00","2011","12","05","11:00","7.7","","7.7","","100","","","","0","","6.4","","101.14","","","","","","Rain,Fog"
"2011-12-05 12:00","2011","12","05","12:00","8.3","","8.0","","98","","","","0","","6.4","","101.00","","","","","","Rain,Fog"
"2011-12-05 13:00","2011","12","05","13:00","7.5","","7.5","","100","","","","0","","3.2","","100.94","","","","","","Rain,Fog"
"2011-12-05 14:00","2011","12","05","14:00","6.4","","6.3","","99","","35","","15","","6.4","","100.91","","","","","","Rain,Fog"
"2011-12-05 15:00","2011","12","05","15:00","6.4","","6.3","","99","","36","","11","","4.8","","100.92","","","","","","Rain,Fog"
"2011-12-05 16:00","2011","12","05","16:00","5.9","","5.7","","99","","36","","19","","6.4","","100.96","","","","","","Rain,Fog"
"2011-12-05 17:00","2011","12","05","17:00","5.6","","5.2","","97","","2","","11","","8.0","","101.01","","","","","","Rain,Fog"
"2011-12-05 18:00","2011","12","05","18:00","5.1","","4.7","","97","","35","","11","","8.0","","101.04","","","","","","Rain,Fog"
"2011-12-05 19:00","2011","12","05","19:00","5.1","","4.7","","97","","1","","15","","9.7","","101.02","","","","","","Rain,Fog"
"2011-12-05 20:00","2011","12","05","20:00","5.2","","4.9","","98","","2","","15","","9.7","","101.03","","","","","","Rain,Fog"
"2011-12-05 21:00","2011","12","05","21:00","4.6","","4.1","","97","","1","","19","","8.0","","101.00","","","","","","Rain,Fog"
"2011-12-05 22:00","2011","12","05","22:00"
"2011-12-05 23:00","2011","12","05","23:00"
"2011-12-06 00:00","2011","12","06","00:00"
"2011-12-06 01:00","2011","12","06","01:00"
"2011-12-06 02:00","2011","12","06","02:00"
"2011-12-06 03:00","2011","12","06","03:00"
"2011-12-06 04:00","2011","12","06","04:00"
"2011-12-06 05:00","2011","12","06","05:00"
"2011-12-06 06:00","2011","12","06","06:00"
"2011-12-06 07:00","2011","12","06","07:00","3.8","","3.4","","97","","1","","9","","12.9","","100.85","","","","","","Drizzle"
"2011-12-06 08:00","2011","12","06","08:00","3.7","","3.3","","97","","36","","19","","12.9","","100.88","","","","","","Drizzle"
"2011-12-06 09:00","2011","12","06","09:00","3.7","","3.0","","95","","2","","19","","14.5","","100.88","","","","","","Cloudy"
"2011-12-06 10:00","2011","12","06","10:00","3.7","","2.8","","94","","2","","15","","12.9","","100.88","","","","","","Cloudy"
"2011-12-06 11:00","2011","12","06","11:00","3.7","","3.1","","96","","2","","19","","9.7","","100.88","","","","","","Fog"
"2011-12-06 12:00","2011","12","06","12:00","3.2","","2.9","","98","","36","","19","","6.4","","100.85","","","","","","Fog"
"2011-12-06 13:00","2011","12","06","13:00","3.0","","2.7","","98","","1","","19","","6.4","","100.76","","","","","","Drizzle,Fog"
"2011-12-06 14:00","2011","12","06","14:00","3.3","","2.9","","97","","3","","19","","6.4","","100.72","","","","","","Drizzle,Fog"
"2011-12-06 15:00","2011","12","06","15:00","3.4","","2.8","","96","","3","","19","","9.7","","100.66","","","","","","Drizzle,Fog"
"2011-12-06 16:00","2011","12","06","16:00","3.4","","2.9","","97","","3","","7","","12.9","","100.67","","","","","","Drizzle"
"2011-12-06 17:00","2011","12","06","17:00","3.1","","2.8","","98","","5","","9","","8.0","","100.63","","","","","","Drizzle,Fog"
"2011-12-06 18:00","2011","12","06","18:00","3.1","","2.9","","99","","2","","7","","12.9","","100.67","","","","","","Drizzle"
"2011-12-06 19:00","2011","12","06","19:00","3.1","","3.0","","99","","","","0","","8.0","","100.68","","","","","","Drizzle,Fog"
"2011-12-06 20:00","2011","12","06","20:00","3.1","","2.9","","99","","","","0","","8.0","","100.69","","","","","","Drizzle,Fog"
"2011-12-06 21:00","2011","12","06","21:00","3.1","","3.1","","100","","","","0","","8.0","","100.65","","","","","","Drizzle,Fog"
"2011-12-06 22:00","2011","12","06","22:00"
"2011-12-06 23:00","2011","12","06","23:00"
"2011-12-07 00:00","2011","12","07","00:00"
"2011-12-07 01:00","2011","12","07","01:00"
"2011-12-07 02:00","2011","12","07","02:00"
"2011-12-07 03:00","2011","12","07","03:00"
"2011-12-07 04:00","2011","12","07","04:00"
"2011-12-07 05:00","2011","12","07","05:00"
"2011-12-07 06:00","2011","12","07","06:00"
"2011-12-07 07:00","2011","12","07","07:00","1.4","","-1.8","","79","","33","","15","","24.1","","100.41","","","","","","Cloudy"
"2011-12-07 08:00","2011","12","07","08:00","1.4","","-2.5","","75","","33","","19","","24.1","","100.36","","","","","","Mostly Cloudy"
"2011-12-07 09:00","2011","12","07","09:00","1.6","","-2.7","","73","","34","","11","","24.1","","100.29","","","","","","Cloudy"
"2011-12-07 10:00","2011","12","07","10:00","2.3","","-2.3","","72","","36","","9","","24.1","","100.30","","","","","","Cloudy"
"2011-12-07 11:00","2011","12","07","11:00","2.3","","-2.3","","72","","1","","7","","24.1","","100.24","","","","","","Cloudy"
"2011-12-07 12:00","2011","12","07","12:00","2.5","","-2.8","","68","","34","","9","","24.1","","100.11","","","","","","Mostly Cloudy"
"2011-12-07 13:00","2011","12","07","13:00","2.5","","-3.1","","67","","30","","7","","24.1","","100.07","","","","","","Cloudy"
"2011-12-07 14:00","2011","12","07","14:00","2.5","","-2.8","","68","","29","","7","","24.1","","99.99","","","","","","Cloudy"
"2011-12-07 15:00","2011","12","07","15:00","2.3","","-2.6","","70","","33","","7","","24.1","","99.94","","","","","","Cloudy"
"2011-12-07 16:00","2011","12","07","16:00","2.2","","-1.8","","75","","28","","19","","24.1","","99.89","","","","","","Mostly Cloudy"
"2011-12-07 17:00","2011","12","07","17:00","2.1","","-2.8","","70","","24","","19","","24.1","","99.97","","","","","","Mostly Cloudy"
"2011-12-07 18:00","2011","12","07","18:00","2.0","","-2.3","","73","","25","","19","","24.1","","99.85","","","","","","Cloudy"
"2011-12-07 19:00","2011","12","07","19:00","1.3","","-3.6","","70","","26","","19","","24.1","","99.99","","","","","","Mostly Cloudy"
"2011-12-07 20:00","2011","12","07","20:00","0.9","","-4.4","","68","","29","","19","","24.1","","100.01","","","","","","Cloudy"
"2011-12-07 21:00","2011","12","07","21:00","0.2","","-5.2","","67","","30","","19","","24.1","","99.99","","","","","","Mostly Cloudy"
"2011-12-07 22:00","2011","12","07","22:00"
"2011-12-07 23:00","2011","12","07","23:00"
"2011-12-08 00:00","2011","12","08","00:00"
"2011-12-08 01:00","2011","12","08","01:00"
"2011-12-08 02:00","2011","12","08","02:00"
"2011-12-08 03:00","2011","12","08","03:00"
"2011-12-08 04:00","2011","12","08","04:00"
"2011-12-08 05:00","2011","12","08","05:00"
"2011-12-08 06:00","2011","12","08","06:00"
"2011-12-08 07:00","2011","12","08","07:00","1.4","","-2.5","","75","","25","","15","","24.1","","100.48","","","","","","Mostly Cloudy"
"2011-12-08 08:00","2011","12","08","08:00","1.1","","-4.1","","68","","26","","22","","24.1","","100.59","","","","","","Mainly Clear"
"2011-12-08 09:00","2011","12","08","09:00","1.1","","-4.1","","68","","26","","19","","24.1","","100.70","","","","","","Clear"
"2011-12-08 10:00","2011","12","08","10:00","1.6","","-4.5","","64","","24","","19","","24.1","","100.79","","","","","","Clear"
"2011-12-08 11:00","2011","12","08","11:00","2.3","","-5.5","","56","","24","","19","","24.1","","100.82","","","","","","Clear"
"2011-12-08 12:00","2011","12","08","12:00","3.0","","-5.7","","53","","25","","19","","24.1","","100.79","","","","","","Clear"
"2011-12-08 13:00","2011","12","08","13:00","3.7","","-6.5","","47","","24","","26","","24.1","","100.75","","","","","","Clear"
"2011-12-08 14:00","2011","12","08","14:00","4.5","","-7.4","","42","","24","","28","","24.1","","100.69","","","","","","Clear"
"2011-12-08 15:00","2011","12","08","15:00","4.6","","-6.1","","46","","24","","19","","24.1","","100.72","","","","","","Clear"
"2011-12-08 16:00","2011","12","08","16:00","4.3","","-5.6","","49","","24","","22","","24.1","","100.76","","","","","","Mainly Clear"
"2011-12-08 17:00","2011","12","08","17:00","3.6","","-2.8","","63","","24","","19","","24.1","","100.82","","","","","","Mainly Clear"
"2011-12-08 18:00","2011","12","08","18:00","2.9","","-2.5","","68","","24","","28","","24.1","","100.87","","","","","","Mainly Clear"
"2011-12-08 19:00","2011","12","08","19:00","2.9","","-2.5","","68","","23","","22","","24.1","","100.89","","","","","","Mainly Clear"
"2011-12-08 20:00","2011","12","08","20:00","2.7","","-2.3","","70","","23","","22","","24.1","","100.90","","","","","","Mainly Clear"
"2011-12-08 21:00","2011","12","08","21:00","2.9","","-2.3","","69","","24","","19","","24.1","","100.91","","","","","","Mostly Cloudy"
"2011-12-08 22:00","2011","12","08","22:00"
"2011-12-08 23:00","2011","12","08","23:00"
"2011-12-09 00:00","2011","12","09","00:00"
"2011-12-09 01:00","2011","12","09","01:00"
"2011-12-09 02:00","2011","12","09","02:00"
"2011-12-09 03:00","2011","12","09","03:00"
"2011-12-09 04:00","2011","12","09","04:00"
"2011-12-09 05:00","2011","12","09","05:00"
"2011-12-09 06:00","2011","12","09","06:00"
"2011-12-09 07:00","2011","12","09","07:00","0.7","","-0.3","","93","","24","","11","","2.4","","100.99","","","","","","Snow Showers"
"2011-12-09 08:00","2011","12","09","08:00","0.3","","-0.2","","96","","21","","6","","1.6","","100.99","","","","","","Snow Showers,Fog"
"2011-12-09 09:00","2011","12","09","09:00","0.5","","0.0","","96","","19","","17","","1.6","","100.98","","","","","","Snow,Fog"
"2011-12-09 10:00","2011","12","09","10:00","0.6","","0.1","","96","","20","","15","","1.6","","100.98","","","","","","Snow,Fog"
"2011-12-09 11:00","2011","12","09","11:00","1.0","","0.4","","96","","26","","9","","3.2","","100.94","","","","","","Snow,Fog"
"2011-12-09 12:00","2011","12","09","12:00","1.4","","0.7","","95","","25","","9","","4.8","","100.87","","","","","","Snow,Fog"
"2011-12-09 13:00","2011","12","09","13:00","2.1","","0.8","","91","","25","","19","","9.7","","100.83","","","","","","Rain,Fog"
"2011-12-09 14:00","2011","12","09","14:00","2.2","","0.7","","90","","25","","15","","9.7","","100.80","","","","","","Rain,Fog"
"2011-12-09 15:00","2011","12","09","15:00","2.1","","0.8","","91","","25","","19","","9.7","","100.79","","","","","","Rain,Fog"
"2011-12-09 16:00","2011","12","09","16:00","2.0","","0.8","","92","","23","","19","","9.7","","100.83","","","","","","Fog"
"2011-12-09 17:00","2011","12","09","17:00","1.8","","0.5","","91","","23","","9","","9.7","","100.90","","","","","","Fog"
"2011-12-09 18:00","2011","12","09","18:00","1.7","","-0.9","","83","","25","","9","","12.9","","100.95","","","","","","Cloudy"
"2011-12-09 19:00","2011","12","09","19:00","1.2","","-1.3","","83","","28","","19","","8.0","","101.06","","","","","","Snow Showers"
"2011-12-09 20:00","2011","12","09","20:00","0.6","","-2.5","","80","","29","","19","","8.0","","101.14","","","","","","Snow Showers"
"2011-12-09 21:00","2011","12","09","21:00","-0.4","","-3.9","","77","","29","","19","","11.3","","101.19","","","","-6","","Snow Showers"
"2011-12-09 22:00","2011","12","09","22:00"
"2011-12-09 23:00","2011","12","09","23:00"
"2011-12-10 00:00","2011","12","10","00:00"
"2011-12-10 01:00","2011","12","10","01:00"
"2011-12-10 02:00","2011","12","10","02:00"
"2011-12-10 03:00","2011","12","10","03:00"
"2011-12-10 04:00","2011","12","10","04:00"
"2011-12-10 05:00","2011","12","10","05:00"
"2011-12-10 06:00","2011","12","10","06:00"
"2011-12-10 07:00","2011","12","10","07:00","-5.3","","-9.0","","75","","25","","19","","24.1","","101.64","","","","-12","","Mainly Clear"
"2011-12-10 08:00","2011","12","10","08:00","-5.3","","-9.0","","75","","23","","19","","24.1","","101.67","","","","-12","","Mainly Clear"
"2011-12-10 09:00","2011","12","10","09:00","-4.4","","-9.3","","69","","23","","19","","24.1","","101.71","","","","-11","","Mainly Clear"
"2011-12-10 10:00","2011","12","10","10:00","-3.4","","-9.2","","64","","24","","20","","24.1","","101.79","","","","-10","","Mainly Clear"
"2011-12-10 11:00","2011","12","10","11:00","-2.4","","-9.8","","57","","25","","26","","24.1","","101.82","","","","-9","","Mainly Clear"
"2011-12-10 12:00","2011","12","10","12:00","-2.1","","-9.8","","56","","25","","22","","24.1","","101.79","","","","-8","","Mainly Clear"
"2011-12-10 13:00","2011","12","10","13:00","-1.6","","-10.9","","49","","26","","22","","24.1","","101.78","","","","-8","","Mainly Clear"
"2011-12-10 14:00","2011","12","10","14:00","-1.2","","-10.4","","50","","26","","19","","24.1","","101.75","","","","-7","","Mainly Clear"
"2011-12-10 15:00","2011","12","10","15:00","-1.5","","-11.2","","48","","25","","20","","24.1","","101.72","","","","-7","","Mainly Clear"
"2011-12-10 16:00","2011","12","10","16:00","-2.1","","-11.6","","48","","26","","19","","24.1","","101.77","","","","-8","","Mainly Clear"
"2011-12-10 17:00","2011","12","10","17:00","-2.9","","-11.1","","53","","26","","19","","24.1","","101.81","","","","-9","","Mainly Clear"
"2011-12-10 18:00","2011","12","10","18:00","-3.4","","-11.4","","54","","26","","19","","24.1","","101.85","","","","-9","","Mainly Clear"
"2011-12-10 19:00","2011","12","10","19:00","-3.8","","-10.8","","58","","25","","11","","24.1","","101.92","","","","-8","","Mainly Clear"
"2011-12-10 20:00","2011","12","10","20:00","-4.9","","-10.5","","65","","24","","9","","24.1","","101.97","","","","-9","","Clear"
"2011-12-10 21:00","2011","12","10","21:00","-5.3","","-10.1","","69","","24","","9","","24.1","","101.96","","","","-9","","Clear"
"2011-12-10 22:00","2011","12","10","22:00"
"2011-12-10 23:00","2011","12","10","23:00"
"2011-12-11 00:00","2011","12","11","00:00"
"2011-12-11 01:00","2011","12","11","01:00"
"2011-12-11 02:00","2011","12","11","02:00"
"2011-12-11 03:00","2011","12","11","03:00"
"2011-12-11 04:00","2011","12","11","04:00"
"2011-12-11 05:00","2011","12","11","05:00"
"2011-12-11 06:00","2011","12","11","06:00"
"2011-12-11 07:00","2011","12","11","07:00","-4.5","","-10.6","","62","","22","","11","","24.1","","102.11","","","","-9","","Mainly Clear"
"2011-12-11 08:00","2011","12","11","08:00","-4.3","","-9.9","","65","","21","","15","","24.1","","102.14","","","","-10","","Mainly Clear"
"2011-12-11 09:00","2011","12","11","09:00","-2.9","","-7.8","","69","","19","","19","","24.1","","102.18","","","","-9","","Mainly Clear"
"2011-12-11 10:00","2011","12","11","10:00","-1.1","","-6.5","","67","","20","","17","","24.1","","102.19","","","","-6","","Mainly Clear"
"2011-12-11 11:00","2011","12","11","11:00","1.3","","-3.6","","70","","22","","19","","24.1","","102.16","","","","","","Mainly Clear"
"2011-12-11 12:00","2011","12","11","12:00","2.6","","-3.0","","67","","24","","19","","24.1","","102.10","","","","","","Mainly Clear"
"2011-12-11 13:00","2011","12","11","13:00","2.9","","-3.1","","65","","22","","24","","24.1","","102.02","","","","","","Mainly Clear"
"2011-12-11 14:00","2011","12","11","14:00","3.2","","-3.8","","60","","21","","22","","24.1","","101.99","","","","","","Clear"
"2011-12-11 15:00","2011","12","11","15:00","2.8","","-5.0","","56","","22","","22","","24.1","","101.97","","","","","","Mainly Clear"
"2011-12-11 16:00","2011","12","11","16:00","2.6","","-5.6","","55","","22","","26","","24.1","","101.96","","","","","","Mainly Clear"
"2011-12-11 17:00","2011","12","11","17:00","2.0","","-5.6","","57","","21","","22","","24.1","","101.97","","","","","","Clear"
"2011-12-11 18:00","2011","12","11","18:00","1.7","","-6.2","","56","","21","","19","","24.1","","101.95","","","","","","Clear"
"2011-12-11 19:00","2011","12","11","19:00","0.3","","-6.7","","59","","22","","4","","24.1","","101.96","","","","","","Clear"
"2011-12-11 20:00","2011","12","11","20:00","1.0","","-6.2","","59","","21","","7","","24.1","","101.93","","","","","","Clear"
"2011-12-11 21:00","2011","12","11","21:00","2.2","","-6.7","","52","","23","","15","","24.1","","101.93","","","","","","Clear"
"2011-12-11 22:00","2011","12","11","22:00"
"2011-12-11 23:00","2011","12","11","23:00"
"2011-12-12 00:00","2011","12","12","00:00"
"2011-12-12 01:00","2011","12","12","01:00"
"2011-12-12 02:00","2011","12","12","02:00"
"2011-12-12 03:00","2011","12","12","03:00"
"2011-12-12 04:00","2011","12","12","04:00"
"2011-12-12 05:00","2011","12","12","05:00"
"2011-12-12 06:00","2011","12","12","06:00"
"2011-12-12 07:00","2011","12","12","07:00","0.0","","-4.3","","73","","19","","11","","24.1","","101.98","","","","-4","","Clear"
"2011-12-12 08:00","2011","12","12","08:00","-0.5","","-4.4","","75","","19","","9","","24.1","","101.96","","","","-4","","Clear"
"2011-12-12 09:00","2011","12","12","09:00","2.2","","-2.9","","69","","22","","9","","24.1","","101.94","","","","","","Clear"
"2011-12-12 10:00","2011","12","12","10:00","3.9","","-2.2","","64","","22","","15","","24.1","","101.94","","","","","","Clear"
"2011-12-12 11:00","2011","12","12","11:00","5.1","","-1.3","","63","","24","","22","","24.1","","101.94","","","","","","Clear"
"2011-12-12 12:00","2011","12","12","12:00","5.6","","-1.9","","58","","23","","20","","24.1","","101.90","","","","","","Clear"
"2011-12-12 13:00","2011","12","12","13:00","6.2","","-1.9","","56","","22","","22","","24.1","","101.86","","","","","","Clear"
"2011-12-12 14:00","2011","12","12","14:00","6.5","","-1.8","","55","","23","","22","","24.1","","101.81","","","","","","Clear"
"2011-12-12 15:00","2011","12","12","15:00","5.9","","-0.9","","62","","21","","19","","24.1","","101.80","","","","","","Clear"
"2011-12-12 16:00","2011","12","12","16:00","4.9","","-0.6","","68","","21","","15","","24.1","","101.77","","","","","","Mainly Clear"
"2011-12-12 17:00","2011","12","12","17:00","3.1","","-0.7","","76","","21","","11","","24.1","","101.83","","","","","","Mainly Clear"
"2011-12-12 18:00","2011","12","12","18:00","1.7","","-0.9","","83","","21","","9","","24.1","","101.80","","","","","","Mainly Clear"
"2011-12-12 19:00","2011","12","12","19:00","1.7","","-0.7","","84","","21","","9","","24.1","","101.81","","","","","","Clear"
"2011-12-12 20:00","2011","12","12","20:00","0.2","","-1.7","","87","","25","","9","","24.1","","101.85","","","","","","Mainly Clear"
"2011-12-12 21:00","2011","12","12","21:00","0.9","","-1.0","","87","","25","","7","","24.1","","101.85","","","","","","Mainly Clear"
"2011-12-12 22:00","2011","12","12","22:00"
"2011-12-12 23:00","2011","12","12","23:00"
"2011-12-13 00:00","2011","12","13","00:00"
"2011-12-13 01:00","2011","12","13","01:00"
"2011-12-13 02:00","2011","12","13","02:00"
"2011-12-13 03:00","2011","12","13","03:00"
"2011-12-13 04:00","2011","12","13","04:00"
"2011-12-13 05:00","2011","12","13","05:00"
"2011-12-13 06:00","2011","12","13","06:00"
"2011-12-13 07:00","2011","12","13","07:00","1.4","","-3.4","","70","","21","","7","","16.1","","101.85","","","","","","Mostly Cloudy"
"2011-12-13 08:00","2011","12","13","08:00","1.4","","-3.5","","70","","22","","9","","16.1","","101.84","","","","","","Mostly Cloudy"
"2011-12-13 09:00","2011","12","13","09:00","2.4","","-3.2","","66","","23","","15","","16.1","","101.87","","","","","","Mostly Cloudy"
"2011-12-13 10:00","2011","12","13","10:00","4.1","","-2.8","","61","","24","","11","","19.3","","101.89","","","","","","Mostly Cloudy"
"2011-12-13 11:00","2011","12","13","11:00","5.6","","-2.4","","56","","24","","19","","19.3","","101.86","","","","","","Mostly Cloudy"
"2011-12-13 12:00","2011","12","13","12:00","6.4","","-1.9","","55","","24","","13","","19.3","","101.85","","","","","","Mainly Clear"
"2011-12-13 13:00","2011","12","13","13:00","7.5","","-1.2","","54","","23","","11","","19.3","","101.77","","","","","","Mostly Cloudy"
"2011-12-13 14:00","2011","12","13","14:00","7.9","","-0.9","","54","","23","","9","","19.3","","101.70","","","","","","Cloudy"
"2011-12-13 15:00","2011","12","13","15:00","8.1","","-0.5","","55","","23","","9","","19.3","","101.70","","","","","","Mostly Cloudy"
"2011-12-13 16:00","2011","12","13","16:00","7.2","","-0.2","","59","","24","","9","","16.1","","101.74","","","","","","Mostly Cloudy"
"2011-12-13 17:00","2011","12","13","17:00","5.9","","0.6","","69","","18","","9","","16.1","","101.74","","","","","","Cloudy"
"2011-12-13 18:00","2011","12","13","18:00","5.3","","0.8","","73","","22","","9","","16.1","","101.75","","","","","","Cloudy"
"2011-12-13 19:00","2011","12","13","19:00","4.8","","0.9","","76","","22","","9","","16.1","","101.74","","","","","","Cloudy"
"2011-12-13 20:00","2011","12","13","20:00","5.3","","1.0","","74","","21","","9","","19.3","","101.76","","","","","","Cloudy"
"2011-12-13 21:00","2011","12","13","21:00","4.6","","1.0","","77","","22","","9","","19.3","","101.74","","","","","","Cloudy"
"2011-12-13 22:00","2011","12","13","22:00"
"2011-12-13 23:00","2011","12","13","23:00"
"2011-12-14 00:00","2011","12","14","00:00"
"2011-12-14 01:00","2011","12","14","01:00"
"2011-12-14 02:00","2011","12","14","02:00"
"2011-12-14 03:00","2011","12","14","03:00"
"2011-12-14 04:00","2011","12","14","04:00"
"2011-12-14 05:00","2011","12","14","05:00"
"2011-12-14 06:00","2011","12","14","06:00"
"2011-12-14 07:00","2011","12","14","07:00","3.8","","1.9","","87","","17","","11","","9.7","","101.53","","","","","","Fog"
"2011-12-14 08:00","2011","12","14","08:00","3.6","","1.5","","86","","17","","6","","12.9","","101.50","","","","","","Mostly Cloudy"
"2011-12-14 09:00","2011","12","14","09:00","5.2","","2.1","","80","","17","","9","","12.9","","101.48","","","","","","Mostly Cloudy"
"2011-12-14 10:00","2011","12","14","10:00","6.3","","0.9","","68","","15","","9","","14.5","","101.45","","","","","","Mostly Cloudy"
"2011-12-14 11:00","2011","12","14","11:00","7.5","","0.9","","63","","18","","15","","16.1","","101.37","","","","","","Mostly Cloudy"
"2011-12-14 12:00","2011","12","14","12:00","7.5","","-0.2","","58","","17","","9","","16.1","","101.24","","","","","","Cloudy"
"2011-12-14 13:00","2011","12","14","13:00","6.8","","1.6","","69","","18","","13","","14.5","","101.16","","","","","","Rain"
"2011-12-14 14:00","2011","12","14","14:00","6.6","","1.9","","72","","16","","13","","16.1","","101.00","","","","","","Rain"
"2011-12-14 15:00","2011","12","14","15:00","5.8","","3.4","","85","","14","","7","","8.0","","101.04","","","","","","Rain"
"2011-12-14 16:00","2011","12","14","16:00","5.3","","4.1","","92","","12","","9","","6.4","","100.95","","","","","","Rain,Fog"
"2011-12-14 17:00","2011","12","14","17:00","5.5","","4.5","","93","","14","","13","","6.4","","100.78","","","","","","Rain,Fog"
"2011-12-14 18:00","2011","12","14","18:00","6.3","","4.9","","91","","15","","19","","12.9","","100.66","","","","","","Cloudy"
"2011-12-14 19:00","2011","12","14","19:00","6.8","","5.3","","90","","14","","19","","19.3","","100.51","","","","","","Cloudy"
"2011-12-14 20:00","2011","12","14","20:00","7.6","","5.6","","87","","18","","19","","24.1","","100.41","","","","","","Cloudy"
"2011-12-14 21:00","2011","12","14","21:00","8.5","","6.4","","87","","20","","19","","24.1","","100.35","","","","","","Cloudy"
"2011-12-14 22:00","2011","12","14","22:00"
"2011-12-14 23:00","2011","12","14","23:00"
"2011-12-15 00:00","2011","12","15","00:00"
"2011-12-15 01:00","2011","12","15","01:00"
"2011-12-15 02:00","2011","12","15","02:00"
"2011-12-15 03:00","2011","12","15","03:00"
"2011-12-15 04:00","2011","12","15","04:00"
"2011-12-15 05:00","2011","12","15","05:00"
"2011-12-15 06:00","2011","12","15","06:00"
"2011-12-15 07:00","2011","12","15","07:00","12.5","","11.2","","92","","21","","28","","6.4","","99.33","","","","","","Rain,Fog"
"2011-12-15 08:00","2011","12","15","08:00","12.5","","11.4","","93","","21","","28","","6.4","","99.25","","","","","","Rain,Fog"
"2011-12-15 09:00","2011","12","15","09:00","12.6","","11.6","","94","","21","","28","","6.4","","99.21","","","","","","Rain,Fog"
"2011-12-15 10:00","2011","12","15","10:00","13.0","","11.8","","92","","23","","32","","6.4","","99.21","","","","","","Rain,Fog"
"2011-12-15 11:00","2011","12","15","11:00","13.0","","12.1","","94","","23","","37","","6.4","","99.18","","","","","","Rain,Fog"
"2011-12-15 12:00","2011","12","15","12:00","13.3","","12.3","","94","","23","","33","","4.8","","99.08","","","","","","Rain,Fog"
"2011-12-15 13:00","2011","12","15","13:00","13.3","","12.3","","94","","23","","24","","4.0","","98.95","","","","","","Rain,Fog"
"2011-12-15 14:00","2011","12","15","14:00","13.0","","12.5","","97","","26","","22","","9.7","","98.89","","","","","","Rain,Fog"
"2011-12-15 15:00","2011","12","15","15:00","13.1","","11.3","","89","","23","","26","","19.3","","98.86","","","","","","Rain"
"2011-12-15 16:00","2011","12","15","16:00","12.3","","10.5","","89","","23","","19","","24.1","","98.95","","","","","","Mostly Cloudy"
"2011-12-15 17:00","2011","12","15","17:00","12.4","","10.3","","87","","24","","19","","24.1","","99.06","","","","","","Mostly Cloudy"
"2011-12-15 18:00","2011","12","15","18:00","11.7","","7.8","","77","","24","","19","","24.1","","99.17","","","","","","Mostly Cloudy"
"2011-12-15 19:00","2011","12","15","19:00","10.7","","5.7","","71","","26","","19","","24.1","","99.26","","","","","","Mostly Cloudy"
"2011-12-15 20:00","2011","12","15","20:00","10.1","","6.0","","76","","25","","19","","24.1","","99.34","","","","","","Mostly Cloudy"
"2011-12-15 21:00","2011","12","15","21:00","7.8","","5.2","","84","","26","","19","","24.1","","99.45","","","","","","Rain Showers"
"2011-12-15 22:00","2011","12","15","22:00"
"2011-12-15 23:00","2011","12","15","23:00"
"2011-12-16 00:00","2011","12","16","00:00"
"2011-12-16 01:00","2011","12","16","01:00"
"2011-12-16 02:00","2011","12","16","02:00"
"2011-12-16 03:00","2011","12","16","03:00"
"2011-12-16 04:00","2011","12","16","04:00"
"2011-12-16 05:00","2011","12","16","05:00"
"2011-12-16 06:00","2011","12","16","06:00"
"2011-12-16 07:00","2011","12","16","07:00","2.3","","-3.7","","64","","25","","19","","24.1","","100.91","","","","","","Mostly Cloudy"
"2011-12-16 08:00","2011","12","16","08:00","1.7","","-3.6","","68","","24","","19","","24.1","","100.94","","","","","","Mainly Clear"
"2011-12-16 09:00","2011","12","16","09:00","2.2","","-3.4","","66","","23","","19","","24.1","","101.04","","","","","","Mostly Cloudy"
"2011-12-16 10:00","2011","12","16","10:00","2.7","","-2.9","","67","","24","","19","","24.1","","101.07","","","","","","Mainly Clear"
"2011-12-16 11:00","2011","12","16","11:00","3.4","","-2.4","","66","","27","","19","","24.1","","100.97","","","","","","Mostly Cloudy"
"2011-12-16 12:00","2011","12","16","12:00","4.1","","-2.1","","64","","27","","15","","24.1","","100.94","","","","","","Mostly Cloudy"
"2011-12-16 13:00","2011","12","16","13:00","5.0","","-1.6","","62","","26","","19","","24.1","","100.96","","","","","","Mostly Cloudy"
"2011-12-16 14:00","2011","12","16","14:00","4.1","","-1.4","","67","","24","","19","","24.1","","100.99","","","","","","Cloudy"
"2011-12-16 15:00","2011","12","16","15:00","3.4","","-1.6","","70","","25","","19","","24.1","","100.99","","","","","","Cloudy"
"2011-12-16 16:00","2011","12","16","16:00","3.0","","-1.4","","73","","24","","19","","24.1","","101.00","","","","","","Cloudy"
"2011-12-16 17:00","2011","12","16","17:00","2.5","","-1.4","","75","","24","","22","","24.1","","101.00","","","","","","Cloudy"
"2011-12-16 18:00","2011","12","16","18:00","2.3","","-1.2","","78","","24","","19","","24.1","","101.01","","","","","","Cloudy"
"2011-12-16 19:00","2011","12","16","19:00","2.1","","-0.9","","80","","24","","19","","24.1","","100.99","","","","","","Cloudy"
"2011-12-16 20:00","2011","12","16","20:00","2.0","","-1.3","","79","","26","","19","","24.1","","100.99","","","","","","Cloudy"
"2011-12-16 21:00","2011","12","16","21:00","2.0","","-1.2","","79","","26","","19","","24.1","","100.99","","","","","","Cloudy"
"2011-12-16 22:00","2011","12","16","22:00"
"2011-12-16 23:00","2011","12","16","23:00"
"2011-12-17 00:00","2011","12","17","00:00"
"2011-12-17 01:00","2011","12","17","01:00"
"2011-12-17 02:00","2011","12","17","02:00"
"2011-12-17 03:00","2011","12","17","03:00"
"2011-12-17 04:00","2011","12","17","04:00"
"2011-12-17 05:00","2011","12","17","05:00"
"2011-12-17 06:00","2011","12","17","06:00"
"2011-12-17 07:00","2011","12","17","07:00","-2.1","","-6.1","","74","","36","","19","","12.9","","101.27","","","","-8","","Snow Showers"
"2011-12-17 08:00","2011","12","17","08:00","-3.4","","-7.6","","73","","36","","19","","12.9","","101.34","","","","-9","","Snow Showers"
"2011-12-17 09:00","2011","12","17","09:00","-3.3","","-8.8","","66","","35","","19","","24.1","","101.35","","","","-9","","Snow Showers"
"2011-12-17 10:00","2011","12","17","10:00","-3.5","","-10.1","","60","","33","","13","","24.1","","101.41","","","","-8","","Snow Showers"
"2011-12-17 11:00","2011","12","17","11:00","-3.4","","-10.1","","60","","34","","11","","24.1","","101.40","","","","-8","","Snow Showers"
"2011-12-17 12:00","2011","12","17","12:00","-3.4","","-10.3","","59","","35","","19","","24.1","","101.35","","","","-9","","Mostly Cloudy"
"2011-12-17 13:00","2011","12","17","13:00","-3.3","","-10.4","","58","","36","","7","","24.1","","101.30","","","","-6","","Mostly Cloudy"
"2011-12-17 14:00","2011","12","17","14:00","-3.2","","-9.7","","61","","35","","13","","24.1","","101.25","","","","-8","","Mostly Cloudy"
"2011-12-17 15:00","2011","12","17","15:00","-3.5","","-11.2","","55","","36","","9","","24.1","","101.25","","","","-7","","Mostly Cloudy"
"2011-12-17 16:00","2011","12","17","16:00","-3.7","","-11.1","","56","","35","","7","","24.1","","101.27","","","","-7","","Mostly Cloudy"
"2011-12-17 17:00","2011","12","17","17:00","-4.3","","-10.1","","64","","","","0","","24.1","","101.28","","","","","","Mainly Clear"
"2011-12-17 18:00","2011","12","17","18:00","-4.7","","-11.0","","61","","","","0","","24.1","","101.28","","","","","","Mainly Clear"
"2011-12-17 19:00","2011","12","17","19:00","-5.2","","-9.7","","71","","","","0","","24.1","","101.26","","","","","","Mainly Clear"
"2011-12-17 20:00","2011","12","17","20:00","-5.6","","-9.9","","72","","","","0","","24.1","","101.24","","","","","","Clear"
"2011-12-17 21:00","2011","12","17","21:00","-6.0","","-10.2","","72","","","","0","","24.1","","101.24","","","","","","Clear"
"2011-12-17 22:00","2011","12","17","22:00"
"2011-12-17 23:00","2011","12","17","23:00"
"2011-12-18 00:00","2011","12","18","00:00"
"2011-12-18 01:00","2011","12","18","01:00"
"2011-12-18 02:00","2011","12","18","02:00"
"2011-12-18 03:00","2011","12","18","03:00"
"2011-12-18 04:00","2011","12","18","04:00"
"2011-12-18 05:00","2011","12","18","05:00"
"2011-12-18 06:00","2011","12","18","06:00"
"2011-12-18 07:00","2011","12","18","07:00","-4.3","","-9.4","","68","","12","","9","","24.1","","101.07","","","","-8","","Mainly Clear"
"2011-12-18 08:00","2011","12","18","08:00","-3.8","","-9.8","","63","","16","","9","","24.1","","101.06","","","","-8","","Mainly Clear"
"2011-12-18 09:00","2011","12","18","09:00","-2.3","","-7.0","","70","","14","","9","","24.1","","101.04","","","","-6","","Mostly Cloudy"
"2011-12-18 10:00","2011","12","18","10:00","-1.0","","-5.6","","71","","14","","19","","24.1","","101.05","","","","-6","","Mostly Cloudy"
"2011-12-18 11:00","2011","12","18","11:00","0.1","","-4.7","","70","","16","","15","","24.1","","101.06","","","","","","Mostly Cloudy"
"2011-12-18 12:00","2011","12","18","12:00","1.4","","-2.7","","74","","17","","19","","24.1","","101.02","","","","","","Mostly Cloudy"
"2011-12-18 13:00","2011","12","18","13:00","1.9","","-2.1","","75","","21","","15","","24.1","","100.97","","","","","","Mostly Cloudy"
"2011-12-18 14:00","2011","12","18","14:00","1.8","","-3.0","","70","","25","","19","","24.1","","100.98","","","","","","Mostly Cloudy"
"2011-12-18 15:00","2011","12","18","15:00","2.0","","-3.0","","69","","24","","22","","24.1","","100.99","","","","","","Mostly Cloudy"
"2011-12-18 16:00","2011","12","18","16:00","1.3","","-2.8","","74","","24","","15","","24.1","","101.00","","","","","","Mostly Cloudy"
"2011-12-18 17:00","2011","12","18","17:00","0.6","","-2.8","","78","","21","","15","","24.1","","101.00","","","","","","Mostly Cloudy"
"2011-12-18 18:00","2011","12","18","18:00","0.4","","-2.6","","80","","18","","9","","24.1","","100.95","","","","","","Cloudy"
"2011-12-18 19:00","2011","12","18","19:00","0.5","","-8.0","","53","","","","0","","24.1","","100.92","","","","","","Mostly Cloudy"
"2011-12-18 20:00","2011","12","18","20:00","0.4","","-2.8","","79","","","","0","","24.1","","100.86","","","","","","Cloudy"
"2011-12-18 21:00","2011","12","18","21:00","1.3","","-2.8","","74","","","","0","","24.1","","100.77","","","","","","Cloudy"
"2011-12-18 22:00","2011","12","18","22:00"
"2011-12-18 23:00","2011","12","18","23:00"
"2011-12-19 00:00","2011","12","19","00:00"
"2011-12-19 01:00","2011","12","19","01:00"
"2011-12-19 02:00","2011","12","19","02:00"
"2011-12-19 03:00","2011","12","19","03:00"
"2011-12-19 04:00","2011","12","19","04:00"
"2011-12-19 05:00","2011","12","19","05:00"
"2011-12-19 06:00","2011","12","19","06:00"
"2011-12-19 07:00","2011","12","19","07:00","6.4","","0.4","","65","","23","","28","","24.1","","99.92","","","","","","Mostly Cloudy"
"2011-12-19 08:00","2011","12","19","08:00","6.6","","0.8","","66","","22","","28","","24.1","","99.84","","","","","","Mostly Cloudy"
"2011-12-19 09:00","2011","12","19","09:00","7.2","","0.8","","64","","22","","28","","24.1","","99.91","","","","","","Mostly Cloudy"
"2011-12-19 10:00","2011","12","19","10:00","7.5","","1.1","","64","","24","","33","","24.1","","99.90","","","","","","Mostly Cloudy"
"2011-12-19 11:00","2011","12","19","11:00","7.3","","1.5","","67","","23","","28","","24.1","","99.94","","","","","","Cloudy"
"2011-12-19 12:00","2011","12","19","12:00","7.5","","2.2","","69","","22","","28","","24.1","","99.89","","","","","","Cloudy"
"2011-12-19 13:00","2011","12","19","13:00","7.5","","3.2","","74","","23","","28","","24.1","","99.87","","","","","","Drizzle"
"2011-12-19 14:00","2011","12","19","14:00","7.7","","3.7","","76","","23","","30","","19.3","","99.87","","","","","","Cloudy"
"2011-12-19 15:00","2011","12","19","15:00","7.5","","3.8","","77","","23","","22","","19.3","","99.92","","","","","","Cloudy"
"2011-12-19 16:00","2011","12","19","16:00","7.4","","3.8","","78","","24","","19","","19.3","","100.01","","","","","","Cloudy"
"2011-12-19 17:00","2011","12","19","17:00","7.2","","3.6","","78","","25","","19","","19.3","","100.09","","","","","","Cloudy"
"2011-12-19 18:00","2011","12","19","18:00","6.9","","3.9","","81","","25","","19","","19.3","","100.16","","","","","","Cloudy"
"2011-12-19 19:00","2011","12","19","19:00","6.8","","3.3","","78","","27","","19","","19.3","","100.23","","","","","","Cloudy"
"2011-12-19 20:00","2011","12","19","20:00","5.1","","3.1","","87","","29","","15","","16.1","","100.36","","","","","","Cloudy"
"2011-12-19 21:00","2011","12","19","21:00","4.9","","1.1","","76","","30","","19","","19.3","","100.42","","","","","","Cloudy"
"2011-12-19 22:00","2011","12","19","22:00"
"2011-12-19 23:00","2011","12","19","23:00"
"2011-12-20 00:00","2011","12","20","00:00"
"2011-12-20 01:00","2011","12","20","01:00"
"2011-12-20 02:00","2011","12","20","02:00"
"2011-12-20 03:00","2011","12","20","03:00"
"2011-12-20 04:00","2011","12","20","04:00"
"2011-12-20 05:00","2011","12","20","05:00"
"2011-12-20 06:00","2011","12","20","06:00"
"2011-12-20 07:00","2011","12","20","07:00","-0.4","","-5.1","","71","","2","","19","","24.1","","101.21","","","","-6","","Cloudy"
"2011-12-20 08:00","2011","12","20","08:00","-1.0","","-5.1","","74","","6","","19","","24.1","","101.22","","","","-6","","Mostly Cloudy"
"2011-12-20 09:00","2011","12","20","09:00","1.0","","-5.8","","60","","5","","11","","24.1","","101.23","","","","","","Mostly Cloudy"
"2011-12-20 10:00","2011","12","20","10:00","-0.3","","-5.5","","68","","6","","9","","24.1","","101.22","","","","-3","","Mainly Clear"
"2011-12-20 11:00","2011","12","20","11:00","0.2","","-5.4","","66","","8","","19","","24.1","","101.18","","","","","","Mainly Clear"
"2011-12-20 12:00","2011","12","20","12:00","0.9","","-5.3","","63","","12","","9","","24.1","","101.04","","","","","","Mainly Clear"
"2011-12-20 13:00","2011","12","20","13:00","1.4","","-5.4","","61","","12","","11","","24.1","","100.92","","","","","","Mostly Cloudy"
"2011-12-20 14:00","2011","12","20","14:00","2.2","","-5.1","","58","","11","","7","","24.1","","100.80","","","","","","Mostly Cloudy"
"2011-12-20 15:00","2011","12","20","15:00","2.8","","-5.9","","53","","10","","7","","24.1","","100.75","","","","","","Mostly Cloudy"
"2011-12-20 16:00","2011","12","20","16:00","2.6","","-5.5","","55","","36","","6","","24.1","","100.73","","","","","","Mostly Cloudy"
"2011-12-20 17:00","2011","12","20","17:00","1.4","","-2.6","","75","","2","","9","","24.1","","100.69","","","","","","Cloudy"
"2011-12-20 18:00","2011","12","20","18:00","1.4","","-2.6","","75","","36","","4","","24.1","","100.64","","","","","","Cloudy"
"2011-12-20 19:00","2011","12","20","19:00","1.6","","-2.5","","74","","","","0","","24.1","","100.63","","","","","","Cloudy"
"2011-12-20 20:00","2011","12","20","20:00","1.4","","-1.9","","79","","","","0","","24.1","","100.56","","","","","","Cloudy"
"2011-12-20 21:00","2011","12","20","21:00","1.7","","-2.3","","75","","","","0","","24.1","","100.51","","","","","","Cloudy"
"2011-12-20 22:00","2011","12","20","22:00"
"2011-12-20 23:00","2011","12","20","23:00"
"2011-12-21 00:00","2011","12","21","00:00"
"2011-12-21 01:00","2011","12","21","01:00"
"2011-12-21 02:00","2011","12","21","02:00"
"2011-12-21 03:00","2011","12","21","03:00"
"2011-12-21 04:00","2011","12","21","04:00"
"2011-12-21 05:00","2011","12","21","05:00"
"2011-12-21 06:00","2011","12","21","06:00"
"2011-12-21 07:00","2011","12","21","07:00","3.8","","3.0","","95","","4","","9","","16.1","","99.74","","","","","","Drizzle"
"2011-12-21 08:00","2011","12","21","08:00","4.2","","3.8","","97","","8","","9","","4.8","","99.63","","","","","","Drizzle,Fog"
"2011-12-21 09:00","2011","12","21","09:00","5.0","","4.6","","97","","33","","9","","4.0","","99.59","","","","","","Fog"
"2011-12-21 10:00","2011","12","21","10:00","5.5","","5.3","","99","","","","0","","4.0","","99.53","","","","","","Rain,Fog"
"2011-12-21 11:00","2011","12","21","11:00","7.3","","7.3","","100","","35","","7","","4.8","","99.40","","","","","","Rain,Fog"
"2011-12-21 12:00","2011","12","21","12:00","9.9","","9.8","","99","","17","","19","","16.1","","99.13","","","","","","Rain"
"2011-12-21 13:00","2011","12","21","13:00","10.5","","10.1","","97","","23","","13","","16.1","","99.04","","","","","","Cloudy"
"2011-12-21 14:00","2011","12","21","14:00","6.9","","6.9","","100","","3","","4","","1.2","","98.92","","","","","","Rain,Fog"
"2011-12-21 15:00","2011","12","21","15:00","7.5","","7.5","","100","","8","","4","","1.6","","98.79","","","","","","Drizzle,Fog"
"2011-12-21 16:00","2011","12","21","16:00","12.4","","11.7","","95","","21","","19","","24.1","","98.75","","","","","","Cloudy"
"2011-12-21 17:00","2011","12","21","17:00","12.8","","10.5","","86","","22","","26","","24.1","","98.73","","","","","","Mostly Cloudy"
"2011-12-21 18:00","2011","12","21","18:00","11.0","","9.1","","88","","24","","28","","24.1","","98.82","","","","","","Mostly Cloudy"
"2011-12-21 19:00","2011","12","21","19:00","10.9","","9.0","","88","","28","","22","","24.1","","98.98","","","","","","Cloudy"
"2011-12-21 20:00","2011","12","21","20:00","6.9","","6.0","","94","","28","","22","","24.1","","99.31","","","","","","Cloudy"
"2011-12-21 21:00","2011","12","21","21:00","6.9","","6.3","","96","","28","","26","","24.1","","99.52","","","","","","Cloudy"
"2011-12-21 22:00","2011","12","21","22:00"
"2011-12-21 23:00","2011","12","21","23:00"
"2011-12-22 00:00","2011","12","22","00:00"
"2011-12-22 01:00","2011","12","22","01:00"
"2011-12-22 02:00","2011","12","22","02:00"
"2011-12-22 03:00","2011","12","22","03:00"
"2011-12-22 04:00","2011","12","22","04:00"
"2011-12-22 05:00","2011","12","22","05:00"
"2011-12-22 06:00","2011","12","22","06:00"
"2011-12-22 07:00","2011","12","22","07:00","4.5","","3.2","","91","","25","","7","","16.1","","100.48","","","","","","Cloudy"
"2011-12-22 08:00","2011","12","22","08:00","4.8","","3.1","","89","","25","","9","","16.1","","100.54","","","","","","Mostly Cloudy"
"2011-12-22 09:00","2011","12","22","09:00","5.5","","3.4","","86","","25","","11","","16.1","","100.61","","","","","","Mostly Cloudy"
"2011-12-22 10:00","2011","12","22","10:00","5.6","","2.5","","80","","24","","9","","16.1","","100.59","","","","","","Mostly Cloudy"
"2011-12-22 11:00","2011","12","22","11:00","6.0","","2.8","","80","","24","","11","","16.1","","100.65","","","","","","Mostly Cloudy"
"2011-12-22 12:00","2011","12","22","12:00","6.8","","2.4","","73","","25","","19","","16.1","","100.55","","","","","","Mostly Cloudy"
"2011-12-22 13:00","2011","12","22","13:00","6.9","","2.6","","74","","25","","19","","16.1","","100.56","","","","","","Cloudy"
"2011-12-22 14:00","2011","12","22","14:00","6.9","","2.6","","74","","26","","19","","24.1","","100.56","","","","","","Cloudy"
"2011-12-22 15:00","2011","12","22","15:00","6.9","","2.6","","74","","23","","19","","24.1","","100.58","","","","","","Cloudy"
"2011-12-22 16:00","2011","12","22","16:00","6.6","","2.9","","77","","22","","9","","19.3","","100.59","","","","","","Cloudy"
"2011-12-22 17:00","2011","12","22","17:00","6.2","","3.1","","81","","22","","9","","19.3","","100.63","","","","","","Cloudy"
"2011-12-22 18:00","2011","12","22","18:00","5.8","","3.2","","83","","23","","9","","19.3","","100.56","","","","","","Cloudy"
"2011-12-22 19:00","2011","12","22","19:00","4.6","","3.2","","91","","35","","4","","19.3","","100.50","","","","","","Cloudy"
"2011-12-22 20:00","2011","12","22","20:00","4.7","","2.9","","88","","","","0","","19.3","","100.47","","","","","","Cloudy"
"2011-12-22 21:00","2011","12","22","21:00","4.5","","3.6","","94","","","","0","","16.1","","100.52","","","","","","Rain Showers"
"2011-12-22 22:00","2011","12","22","22:00"
"2011-12-22 23:00","2011","12","22","23:00"
"2011-12-23 00:00","2011","12","23","00:00"
"2011-12-23 01:00","2011","12","23","01:00"
"2011-12-23 02:00","2011","12","23","02:00"
"2011-12-23 03:00","2011","12","23","03:00"
"2011-12-23 04:00","2011","12","23","04:00"
"2011-12-23 05:00","2011","12","23","05:00"
"2011-12-23 06:00","2011","12","23","06:00"
"2011-12-23 07:00","2011","12","23","07:00","1.7","","-0.6","","85","","32","","24","","24.1","","100.76","","","","","","Cloudy"
"2011-12-23 08:00","2011","12","23","08:00","0.2","","-2.7","","81","","32","","28","","24.1","","100.92","","","","","","Cloudy"
"2011-12-23 09:00","2011","12","23","09:00","-0.1","","-3.1","","80","","33","","22","","24.1","","101.00","","","","-6","","Cloudy"
"2011-12-23 10:00","2011","12","23","10:00","-0.5","","-4.5","","74","","32","","28","","24.1","","101.10","","","","-7","","Mostly Cloudy"
"2011-12-23 11:00","2011","12","23","11:00","-1.3","","-6.0","","70","","33","","19","","24.1","","101.17","","","","-7","","Mostly Cloudy"
"2011-12-23 12:00","2011","12","23","12:00","-1.2","","-7.8","","61","","31","","19","","24.1","","101.16","","","","-7","","Mainly Clear"
"2011-12-23 13:00","2011","12","23","13:00","-2.1","","-9.7","","56","","33","","19","","24.1","","101.22","","","","-8","","Clear"
"2011-12-23 14:00","2011","12","23","14:00","-2.3","","-9.3","","59","","33","","15","","24.1","","101.25","","","","-7","","Clear"
"2011-12-23 15:00","2011","12","23","15:00","-2.6","","-10.5","","55","","32","","13","","24.1","","101.29","","","","-7","","Mainly Clear"
"2011-12-23 16:00","2011","12","23","16:00","-2.7","","-10.2","","56","","32","","15","","24.1","","101.34","","","","-8","","Mainly Clear"
"2011-12-23 17:00","2011","12","23","17:00","-3.3","","-9.1","","64","","34","","7","","24.1","","101.38","","","","-6","","Mainly Clear"
"2011-12-23 18:00","2011","12","23","18:00","-3.8","","-8.8","","68","","1","","19","","24.1","","101.41","","","","-10","","Clear"
"2011-12-23 19:00","2011","12","23","19:00","-3.7","","-8.6","","69","","1","","9","","24.1","","101.46","","","","-7","","Mainly Clear"
"2011-12-23 20:00","2011","12","23","20:00","-3.6","","-8.1","","71","","2","","9","","24.1","","101.49","","","","-7","","Mostly Cloudy"
"2011-12-23 21:00","2011","12","23","21:00","-3.8","","-8.8","","68","","1","","11","","24.1","","101.49","","","","-8","","Cloudy"
"2011-12-23 22:00","2011","12","23","22:00"
"2011-12-23 23:00","2011","12","23","23:00"
"2011-12-24 00:00","2011","12","24","00:00"
"2011-12-24 01:00","2011","12","24","01:00"
"2011-12-24 02:00","2011","12","24","02:00"
"2011-12-24 03:00","2011","12","24","03:00"
"2011-12-24 04:00","2011","12","24","04:00"
"2011-12-24 05:00","2011","12","24","05:00"
"2011-12-24 06:00","2011","12","24","06:00"
"2011-12-24 07:00","2011","12","24","07:00","-6.4","","-8.6","","84","","","","0","","24.1","","101.86","","","","","","Mainly Clear"
"2011-12-24 08:00","2011","12","24","08:00","-5.8","","-7.7","","86","","19","","6","","24.1","","101.91","","","","-9","","Mainly Clear"
"2011-12-24 09:00","2011","12","24","09:00","-3.8","","-7.0","","78","","19","","6","","24.1","","101.96","","","","-6","","Mainly Clear"
"2011-12-24 10:00","2011","12","24","10:00","-2.5","","-7.8","","67","","16","","9","","24.1","","101.99","","","","-6","","Clear"
"2011-12-24 11:00","2011","12","24","11:00","-1.2","","-8.4","","58","","13","","9","","24.1","","102.03","","","","-4","","Clear"
"2011-12-24 12:00","2011","12","24","12:00","-1.0","","-8.2","","58","","9","","9","","24.1","","101.94","","","","-4","","Clear"
"2011-12-24 13:00","2011","12","24","13:00","-0.4","","-9.0","","52","","14","","9","","24.1","","101.85","","","","-4","","Clear"
"2011-12-24 14:00","2011","12","24","14:00","0.5","","-8.4","","51","","11","","7","","24.1","","101.78","","","","","","Clear"
"2011-12-24 15:00","2011","12","24","15:00","0.3","","-8.9","","50","","12","","7","","24.1","","101.70","","","","","","Clear"
"2011-12-24 16:00","2011","12","24","16:00","-0.2","","-9.4","","50","","12","","13","","24.1","","101.66","","","","-4","","Clear"
"2011-12-24 17:00","2011","12","24","17:00","-1.4","","-8.3","","59","","12","","9","","24.1","","101.66","","","","-5","","Clear"
"2011-12-24 18:00","2011","12","24","18:00","-2.0","","-8.2","","62","","9","","9","","24.1","","101.63","","","","-5","","Clear"
"2011-12-24 19:00","2011","12","24","19:00","-2.0","","-7.4","","66","","9","","19","","24.1","","101.52","","","","-8","","Mostly Cloudy"
"2011-12-24 20:00","2011","12","24","20:00","-1.0","","-6.6","","66","","11","","15","","24.1","","101.45","","","","-6","","Mostly Cloudy"
"2011-12-24 21:00","2011","12","24","21:00","-0.4","","-5.9","","66","","17","","19","","24.1","","101.35","","","","-6","","Cloudy"
"2011-12-24 22:00","2011","12","24","22:00"
"2011-12-24 23:00","2011","12","24","23:00"
"2011-12-25 00:00","2011","12","25","00:00"
"2011-12-25 01:00","2011","12","25","01:00"
"2011-12-25 02:00","2011","12","25","02:00"
"2011-12-25 03:00","2011","12","25","03:00"
"2011-12-25 04:00","2011","12","25","04:00"
"2011-12-25 05:00","2011","12","25","05:00"
"2011-12-25 06:00","2011","12","25","06:00"
"2011-12-25 07:00","2011","12","25","07:00","3.9","","-0.1","","75","","23","","22","","16.1","","100.55","","","","","","Cloudy"
"2011-12-25 08:00","2011","12","25","08:00","3.8","","0.2","","77","","21","","24","","16.1","","100.45","","","","","","Mostly Cloudy"
"2011-12-25 09:00","2011","12","25","09:00","4.0","","0.3","","77","","22","","22","","19.3","","100.42","","","","","","Mostly Cloudy"
"2011-12-25 10:00","2011","12","25","10:00","4.5","","0.1","","73","","22","","24","","19.3","","100.36","","","","","","Mostly Cloudy"
"2011-12-25 11:00","2011","12","25","11:00","4.6","","-0.2","","71","","21","","22","","24.1","","100.25","","","","","","Mostly Cloudy"
"2011-12-25 12:00","2011","12","25","12:00","6.0","","0.0","","65","","22","","28","","24.1","","100.11","","","","","","Mostly Cloudy"
"2011-12-25 13:00","2011","12","25","13:00","6.2","","-0.5","","62","","23","","28","","24.1","","100.01","","","","","","Mostly Cloudy"
"2011-12-25 14:00","2011","12","25","14:00","6.4","","0.1","","64","","24","","26","","24.1","","99.92","","","","","","Mostly Cloudy"
"2011-12-25 15:00","2011","12","25","15:00","6.0","","0.2","","66","","23","","22","","24.1","","99.93","","","","","","Cloudy"
"2011-12-25 16:00","2011","12","25","16:00","5.8","","0.5","","69","","25","","19","","24.1","","99.95","","","","","","Cloudy"
"2011-12-25 17:00","2011","12","25","17:00","5.0","","-0.1","","70","","25","","19","","24.1","","100.01","","","","","","Cloudy"
"2011-12-25 18:00","2011","12","25","18:00","4.8","","-1.1","","66","","25","","26","","24.1","","100.09","","","","","","Cloudy"
"2011-12-25 19:00","2011","12","25","19:00","4.6","","-0.9","","67","","24","","22","","24.1","","100.14","","","","","","Cloudy"
"2011-12-25 20:00","2011","12","25","20:00","3.6","","0.7","","81","","26","","19","","16.1","","100.21","","","","","","Rain Showers"
"2011-12-25 21:00","2011","12","25","21:00","3.6","","0.5","","80","","27","","22","","24.1","","100.26","","","","","","Cloudy"
"2011-12-25 22:00","2011","12","25","22:00"
"2011-12-25 23:00","2011","12","25","23:00"
"2011-12-26 00:00","2011","12","26","00:00"
"2011-12-26 01:00","2011","12","26","01:00"
"2011-12-26 02:00","2011","12","26","02:00"
"2011-12-26 03:00","2011","12","26","03:00"
"2011-12-26 04:00","2011","12","26","04:00"
"2011-12-26 05:00","2011","12","26","05:00"
"2011-12-26 06:00","2011","12","26","06:00"
"2011-12-26 07:00","2011","12","26","07:00","2.7","","-1.0","","77","","26","","15","","24.1","","101.15","","","","","","Cloudy"
"2011-12-26 08:00","2011","12","26","08:00","2.6","","-0.9","","78","","26","","15","","24.1","","101.21","","","","","","Cloudy"
"2011-12-26 09:00","2011","12","26","09:00","2.9","","-1.1","","75","","25","","19","","24.1","","101.36","","","","","","Cloudy"
"2011-12-26 10:00","2011","12","26","10:00","3.1","","-1.5","","72","","25","","19","","24.1","","101.39","","","","","","Cloudy"
"2011-12-26 11:00","2011","12","26","11:00","3.1","","-2.8","","65","","25","","22","","24.1","","101.35","","","","","","Cloudy"
"2011-12-26 12:00","2011","12","26","12:00","3.1","","-3.3","","63","","25","","20","","24.1","","101.22","","","","","","Cloudy"
"2011-12-26 13:00","2011","12","26","13:00","3.1","","-3.1","","64","","24","","22","","24.1","","101.14","","","","","","Mostly Cloudy"
"2011-12-26 14:00","2011","12","26","14:00","4.1","","-3.9","","56","","23","","19","","24.1","","101.04","","","","","","Mainly Clear"
"2011-12-26 15:00","2011","12","26","15:00","4.4","","-2.7","","60","","23","","22","","24.1","","101.00","","","","","","Clear"
"2011-12-26 16:00","2011","12","26","16:00","4.5","","-1.8","","64","","21","","19","","24.1","","100.89","","","","","","Clear"
"2011-12-26 17:00","2011","12","26","17:00","3.7","","-1.6","","68","","23","","22","","24.1","","100.94","","","","","","Clear"
"2011-12-26 18:00","2011","12","26","18:00","3.1","","-1.2","","73","","22","","19","","24.1","","100.99","","","","","","Clear"
"2011-12-26 19:00","2011","12","26","19:00","2.3","","-1.0","","79","","22","","9","","24.1","","100.81","","","","","","Clear"
"2011-12-26 20:00","2011","12","26","20:00","1.4","","-0.9","","85","","","","0","","24.1","","100.76","","","","","","Clear"
"2011-12-26 21:00","2011","12","26","21:00","1.7","","-0.7","","84","","18","","9","","24.1","","100.71","","","","","","Clear"
"2011-12-26 22:00","2011","12","26","22:00"
"2011-12-26 23:00","2011","12","26","23:00"
"2011-12-27 00:00","2011","12","27","00:00"
"2011-12-27 01:00","2011","12","27","01:00"
"2011-12-27 02:00","2011","12","27","02:00"
"2011-12-27 03:00","2011","12","27","03:00"
"2011-12-27 04:00","2011","12","27","04:00"
"2011-12-27 05:00","2011","12","27","05:00"
"2011-12-27 06:00","2011","12","27","06:00"
"2011-12-27 07:00","2011","12","27","07:00","3.0","","-0.5","","78","","17","","7","","24.1","","99.69","","","","","","Cloudy"
"2011-12-27 08:00","2011","12","27","08:00","2.8","","-0.9","","77","","","","0","","24.1","","99.54","","","","","","Cloudy"
"2011-12-27 09:00","2011","12","27","09:00","3.0","","-0.3","","79","","17","","7","","24.1","","99.64","","","","","","Cloudy"
"2011-12-27 10:00","2011","12","27","10:00","3.2","","0.2","","81","","11","","7","","24.1","","99.41","","","","","","Cloudy"
"2011-12-27 11:00","2011","12","27","11:00","4.0","","0.4","","77","","","","0","","24.1","","99.30","","","","","","Cloudy"
"2011-12-27 12:00","2011","12","27","12:00","5.1","","-1.8","","61","","17","","11","","19.3","","99.10","","","","","","Rain"
"2011-12-27 13:00","2011","12","27","13:00","4.5","","0.4","","75","","","","0","","16.1","","98.90","","","","","","Rain"
"2011-12-27 14:00","2011","12","27","14:00","3.7","","2.0","","89","","17","","7","","19.3","","98.71","","","","","","Rain"
"2011-12-27 15:00","2011","12","27","15:00","3.1","","1.7","","91","","11","","9","","9.7","","98.57","","","","","","Rain,Fog"
"2011-12-27 16:00","2011","12","27","16:00","1.6","","1.1","","96","","9","","9","","9.7","","98.41","","","","","","Rain,Fog"
"2011-12-27 17:00","2011","12","27","17:00","1.4","","1.0","","97","","4","","9","","6.4","","98.30","","","","","","Rain,Fog"
"2011-12-27 18:00","2011","12","27","18:00","1.2","","0.9","","98","","5","","9","","8.0","","98.22","","","","","","Rain,Fog"
"2011-12-27 19:00","2011","12","27","19:00","1.3","","1.1","","99","","","","0","","8.0","","98.16","","","","","","Rain,Fog"
"2011-12-27 20:00","2011","12","27","20:00","1.3","","1.1","","99","","20","","9","","6.4","","98.16","","","","","","Rain,Fog"
"2011-12-27 21:00","2011","12","27","21:00","1.8","","1.5","","98","","29","","9","","9.7","","98.18","","","","","","Rain,Fog"
"2011-12-27 22:00","2011","12","27","22:00"
"2011-12-27 23:00","2011","12","27","23:00"
"2011-12-28 00:00","2011","12","28","00:00"
"2011-12-28 01:00","2011","12","28","01:00"
"2011-12-28 02:00","2011","12","28","02:00"
"2011-12-28 03:00","2011","12","28","03:00"
"2011-12-28 04:00","2011","12","28","04:00"
"2011-12-28 05:00","2011","12","28","05:00"
"2011-12-28 06:00","2011","12","28","06:00"
"2011-12-28 07:00","2011","12","28","07:00","-3.7","","-8.3","","70","","30","","22","","24.1","","99.29","","","","-10","","Cloudy"
"2011-12-28 08:00","2011","12","28","08:00","-4.3","","-9.2","","69","","31","","26","","12.9","","99.41","","","","-12","","Snow"
"2011-12-28 09:00","2011","12","28","09:00","-5.0","","-10.4","","66","","29","","33","","12.9","","99.58","","","","-13","","Snow"
"2011-12-28 10:00","2011","12","28","10:00","-5.3","","-11.4","","62","","30","","28","","19.3","","99.69","","","","-13","","Snow"
"2011-12-28 11:00","2011","12","28","11:00","-5.2","","-10.9","","64","","29","","28","","24.1","","99.80","","","","-13","","Cloudy"
"2011-12-28 12:00","2011","12","28","12:00","-4.9","","-10.5","","65","","30","","28","","24.1","","99.80","","","","-13","","Mostly Cloudy"
"2011-12-28 13:00","2011","12","28","13:00","-3.8","","-9.7","","64","","29","","28","","24.1","","99.83","","","","-11","","Mostly Cloudy"
"2011-12-28 14:00","2011","12","28","14:00","-4.3","","-9.7","","66","","28","","26","","24.1","","99.92","","","","-12","","Cloudy"
"2011-12-28 15:00","2011","12","28","15:00","-4.0","","-8.6","","70","","28","","19","","24.1","","100.01","","","","-10","","Mostly Cloudy"
"2011-12-28 16:00","2011","12","28","16:00","-4.0","","-10.2","","62","","30","","19","","24.1","","100.13","","","","-10","","Mostly Cloudy"
"2011-12-28 17:00","2011","12","28","17:00","-5.0","","-12.2","","57","","29","","19","","24.1","","100.24","","","","-11","","Mainly Clear"
"2011-12-28 18:00","2011","12","28","18:00","-5.6","","-12.6","","58","","29","","19","","24.1","","100.31","","","","-12","","Mainly Clear"
"2011-12-28 19:00","2011","12","28","19:00","-6.1","","-12.6","","60","","30","","19","","24.1","","100.39","","","","-13","","Mainly Clear"
"2011-12-28 20:00","2011","12","28","20:00","-6.3","","-12.2","","63","","28","","19","","24.1","","100.46","","","","-13","","Mostly Cloudy"
"2011-12-28 21:00","2011","12","28","21:00","-6.6","","-12.8","","61","","29","","19","","24.1","","100.47","","","","-13","","Mostly Cloudy"
"2011-12-28 22:00","2011","12","28","22:00"
"2011-12-28 23:00","2011","12","28","23:00"
"2011-12-29 00:00","2011","12","29","00:00"
"2011-12-29 01:00","2011","12","29","01:00"
"2011-12-29 02:00","2011","12","29","02:00"
"2011-12-29 03:00","2011","12","29","03:00"
"2011-12-29 04:00","2011","12","29","04:00"
"2011-12-29 05:00","2011","12","29","05:00"
"2011-12-29 06:00","2011","12","29","06:00"
"2011-12-29 07:00","2011","12","29","07:00","-6.9","","-10.1","","78","","16","","4","","24.1","","100.28","","","","-9","","Mostly Cloudy"
"2011-12-29 08:00","2011","12","29","08:00","-6.2","","-9.7","","76","","","","0","","24.1","","100.30","","","","","","Mostly Cloudy"
"2011-12-29 09:00","2011","12","29","09:00","-5.1","","-9.8","","70","","14","","7","","24.1","","100.33","","","","-8","","Mostly Cloudy"
"2011-12-29 10:00","2011","12","29","10:00","-3.8","","-9.6","","64","","14","","9","","24.1","","100.30","","","","-8","","Mostly Cloudy"
"2011-12-29 11:00","2011","12","29","11:00","-2.4","","-8.1","","65","","13","","11","","24.1","","100.18","","","","-6","","Mostly Cloudy"
"2011-12-29 12:00","2011","12","29","12:00","-1.5","","-6.1","","71","","14","","9","","24.1","","100.03","","","","-5","","Mostly Cloudy"
"2011-12-29 13:00","2011","12","29","13:00","-0.8","","-5.3","","72","","12","","9","","24.1","","99.95","","","","-4","","Mostly Cloudy"
"2011-12-29 14:00","2011","12","29","14:00","0.1","","-5.2","","67","","13","","9","","24.1","","99.86","","","","","","Cloudy"
"2011-12-29 15:00","2011","12","29","15:00","0.1","","-5.1","","68","","12","","19","","19.3","","99.81","","","","","","Snow"
"2011-12-29 16:00","2011","12","29","16:00","-0.4","","-4.2","","75","","9","","19","","16.1","","99.80","","","","-6","","Snow"
"2011-12-29 17:00","2011","12","29","17:00","-0.7","","-3.8","","79","","9","","19","","12.9","","99.77","","","","-6","","Snow"
"2011-12-29 18:00","2011","12","29","18:00","-0.9","","-3.5","","82","","8","","19","","16.1","","99.75","","","","-6","","Snow"
"2011-12-29 19:00","2011","12","29","19:00","-1.0","","-3.3","","84","","9","","19","","16.1","","99.72","","","","-6","","Snow"
"2011-12-29 20:00","2011","12","29","20:00","-0.6","","-2.5","","87","","9","","15","","16.1","","99.72","","","","-5","","Snow"
"2011-12-29 21:00","2011","12","29","21:00","-1.1","","-2.1","","93","","9","","9","","16.1","","99.70","","","","-4","","Snow"
"2011-12-29 22:00","2011","12","29","22:00"
"2011-12-29 23:00","2011","12","29","23:00"
"2011-12-30 00:00","2011","12","30","00:00"
"2011-12-30 01:00","2011","12","30","01:00"
"2011-12-30 02:00","2011","12","30","02:00"
"2011-12-30 03:00","2011","12","30","03:00"
"2011-12-30 04:00","2011","12","30","04:00"
"2011-12-30 05:00","2011","12","30","05:00"
"2011-12-30 06:00","2011","12","30","06:00"
"2011-12-30 07:00","2011","12","30","07:00","1.2","","0.8","","97","","","","0","","11.3","","99.77","","","","","","Cloudy"
"2011-12-30 08:00","2011","12","30","08:00","1.5","","1.0","","96","","","","0","","6.4","","99.81","","","","","","Fog"
"2011-12-30 09:00","2011","12","30","09:00","1.4","","1.2","","99","","","","0","","9.7","","99.88","","","","","","Fog"
"2011-12-30 10:00","2011","12","30","10:00","2.6","","2.2","","97","","","","0","","9.7","","99.92","","","","","","Fog"
"2011-12-30 11:00","2011","12","30","11:00","3.6","","2.7","","94","","","","0","","9.7","","99.91","","","","","","Fog"
"2011-12-30 12:00","2011","12","30","12:00","4.1","","3.3","","95","","12","","4","","9.7","","99.84","","","","","","Fog"
"2011-12-30 13:00","2011","12","30","13:00","7.4","","4.4","","81","","22","","15","","19.3","","99.80","","","","","","Mostly Cloudy"
"2011-12-30 14:00","2011","12","30","14:00","7.4","","3.4","","76","","22","","15","","16.1","","99.72","","","","","","Mostly Cloudy"
"2011-12-30 15:00","2011","12","30","15:00","5.1","","3.7","","91","","3","","9","","16.1","","99.68","","","","","","Cloudy"
"2011-12-30 16:00","2011","12","30","16:00","5.2","","3.7","","90","","5","","4","","16.1","","99.71","","","","","","Cloudy"
"2011-12-30 17:00","2011","12","30","17:00","4.7","","3.4","","91","","9","","9","","12.9","","99.64","","","","","","Cloudy"
"2011-12-30 18:00","2011","12","30","18:00","4.1","","3.3","","95","","7","","19","","12.9","","99.60","","","","","","Rain"
"2011-12-30 19:00","2011","12","30","19:00","3.4","","3.0","","97","","8","","19","","19.3","","99.58","","","","","","Cloudy"
"2011-12-30 20:00","2011","12","30","20:00","2.6","","2.1","","96","","6","","9","","24.1","","99.55","","","","","","Mostly Cloudy"
"2011-12-30 21:00","2011","12","30","21:00","2.8","","2.7","","99","","7","","9","","16.1","","99.58","","","","","","Rain"
"2011-12-30 22:00","2011","12","30","22:00"
"2011-12-30 23:00","2011","12","30","23:00"
"2011-12-31 00:00","2011","12","31","00:00"
"2011-12-31 01:00","2011","12","31","01:00"
"2011-12-31 02:00","2011","12","31","02:00"
"2011-12-31 03:00","2011","12","31","03:00"
"2011-12-31 04:00","2011","12","31","04:00"
"2011-12-31 05:00","2011","12","31","05:00"
"2011-12-31 06:00","2011","12","31","06:00"
"2011-12-31 07:00","2011","12","31","07:00","5.8","","5.3","","97","","22","","9","","16.1","","99.54","","","","","","Rain Showers"
"2011-12-31 08:00","2011","12","31","08:00","6.1","","5.6","","97","","19","","9","","19.3","","99.59","","","","","","Mostly Cloudy"
"2011-12-31 09:00","2011","12","31","09:00","6.6","","5.4","","92","","23","","19","","24.1","","99.71","","","","","","Mostly Cloudy"
"2011-12-31 10:00","2011","12","31","10:00","6.5","","5.5","","93","","24","","19","","24.1","","99.77","","","","","","Cloudy"
"2011-12-31 11:00","2011","12","31","11:00","6.8","","5.8","","93","","23","","19","","12.9","","99.81","","","","","","Cloudy"
"2011-12-31 12:00","2011","12","31","12:00","6.5","","5.8","","95","","28","","13","","12.9","","99.85","","","","","","Cloudy"
"2011-12-31 13:00","2011","12","31","13:00","5.2","","4.8","","97","","32","","9","","4.8","","99.87","","","","","","Fog"
"2011-12-31 14:00","2011","12","31","14:00","4.5","","4.4","","99","","30","","7","","0.8","","99.97","","","","","","Fog"
"2011-12-31 15:00","2011","12","31","15:00","4.3","","3.8","","97","","29","","15","","4.8","","100.06","","","","","","Fog"
"2011-12-31 16:00","2011","12","31","16:00","3.8","","2.5","","91","","32","","13","","11.3","","100.21","","","","","","Cloudy"
"2011-12-31 17:00","2011","12","31","17:00","3.6","","2.3","","91","","31","","7","","11.3","","100.30","","","","","","Cloudy"
"2011-12-31 18:00","2011","12","31","18:00","3.7","","2.7","","93","","","","0","","16.1","","100.42","","","","","","Cloudy"
"2011-12-31 19:00","2011","12","31","19:00","3.9","","2.7","","92","","27","","19","","16.1","","100.53","","","","","","Cloudy"
"2011-12-31 20:00","2011","12","31","20:00","3.7","","2.4","","91","","27","","9","","16.1","","100.60","","","","","","Cloudy"
"2011-12-31 21:00","2011","12","31","21:00","3.6","","2.1","","90","","25","","15","","16.1","","100.65","","","","","","Cloudy"
"2011-12-31 22:00","2011","12","31","22:00"
"2011-12-31 23:00","2011","12","31","23:00"
