"Station Name","ST CATHARINES A"
"Province","ONTARIO"
"Latitude","43.20"
"Longitude","-79.17"
"Elevation","97.80"
"Climate Identifier","6137287"
"WMO Identifier",""
"TC Identifier","YSN"
"All times are specified in Local Standard Time (LST). Add 1 hour to adjust for Daylight Saving Time where and when it is observed."

"Legend"
"E","Estimated"
"M","Missing"
"NA","Not Available"

"Date/Time","Year","Month","Day","Time","Temp (°C)","Temp Flag","Dew Point Temp (°C)","Dew Point Temp Flag","Rel Hum (%)","Rel Hum Flag","Wind Dir (10s deg)","Wind Dir Flag","Wind Spd (km/h)","Wind Spd Flag","Visibility (km)","Visibility Flag","Stn Press (kPa)","Stn Press Flag","Hmdx","Hmdx Flag","Wind Chill","Wind Chill Flag","Weather"
"2004-12-01 00:00","2004","12","01","00:00"
"2004-12-01 01:00","2004","12","01","01:00"
"2004-12-01 02:00","2004","12","01","02:00"
"2004-12-01 03:00","2004","12","01","03:00"
"2004-12-01 04:00","2004","12","01","04:00"
"2004-12-01 05:00","2004","12","01","05:00"
"2004-12-01 06:00","2004","12","01","06:00","4.9","","4.9","","100","","12","","9","","8.0","","98.21","","","","","","Rain,Fog"
"2004-12-01 07:00","2004","12","01","07:00","5.2","","5.2","","100","","15","","7","","8.0","","98.10","","","","","","Rain,Fog"
"2004-12-01 08:00","2004","12","01","08:00","8.7","","8.7","","100","","24","","28","","8.0","","98.10","","","","","","Rain,Fog"
"2004-12-01 09:00","2004","12","01","09:00","7.7","","5.3","","85","","24","","33","","24.1","","98.25","","","","","","Cloudy"
"2004-12-01 10:00","2004","12","01","10:00","6.6","","4.9","","89","","24","","30","","12.9","","98.27","","","","","","Rain Showers"
"2004-12-01 11:00","2004","12","01","11:00","3.2","","2.7","","97","","32","","30","","16.1","","98.52","","","","","","Rain Showers"
"2004-12-01 12:00","2004","12","01","12:00","4.3","","2.2","","86","","31","","32","","24.1","","98.90","","","","","","Mostly Cloudy"
"2004-12-01 13:00","2004","12","01","13:00","5.5","","1.9","","78","","30","","33","","24.1","","99.31","","","","","","Mostly Cloudy"
"2004-12-01 14:00","2004","12","01","14:00","5.6","","1.4","","74","","30","","32","","24.1","","99.47","","","","","","Mostly Cloudy"
"2004-12-01 15:00","2004","12","01","15:00","5.6","","1.3","","74","","29","","26","","24.1","","99.66","","","","","","Mostly Cloudy"
"2004-12-01 16:00","2004","12","01","16:00","5.9","","-1.8","","58","","28","","19","","24.1","","99.82","","","","","","Mostly Cloudy"
"2004-12-01 17:00","2004","12","01","17:00","4.8","","-1.1","","66","","26","","22","","24.1","","100.02","","","","","","Mostly Cloudy"
"2004-12-01 18:00","2004","12","01","18:00","3.4","","-1.3","","71","","25","","19","","24.1","","100.11","","","","","","Mainly Clear"
"2004-12-01 19:00","2004","12","01","19:00","2.7","","-1.7","","73","","25","","19","","24.1","","100.17","","","","","","Mostly Cloudy"
"2004-12-01 20:00","2004","12","01","20:00","3.1","","-1.9","","70","","26","","19","","24.1","","100.21","","","","","","Mostly Cloudy"
"2004-12-01 21:00","2004","12","01","21:00","3.9","","-1.7","","67","","25","","19","","24.1","","100.26","","","","","","Cloudy"
"2004-12-01 22:00","2004","12","01","22:00","3.8","","-2.7","","62","","26","","22","","24.1","","100.28","","","","","","Cloudy"
"2004-12-01 23:00","2004","12","01","23:00"
"2004-12-02 00:00","2004","12","02","00:00"
"2004-12-02 01:00","2004","12","02","01:00"
"2004-12-02 02:00","2004","12","02","02:00"
"2004-12-02 03:00","2004","12","02","03:00"
"2004-12-02 04:00","2004","12","02","04:00"
"2004-12-02 05:00","2004","12","02","05:00"
"2004-12-02 06:00","2004","12","02","06:00","1.8","","-2.3","","74","","24","","19","","24.1","","100.48","","","","","","Mainly Clear"
"2004-12-02 07:00","2004","12","02","07:00","1.8","","-1.7","","78","","26","","19","","24.1","","100.52","","","","","","Mostly Cloudy"
"2004-12-02 08:00","2004","12","02","08:00","2.1","","-1.3","","78","","24","","20","","16.1","","100.55","","","","","","Mostly Cloudy"
"2004-12-02 09:00","2004","12","02","09:00","2.6","","-1.1","","77","","26","","19","","16.1","","100.58","","","","","","Mostly Cloudy"
"2004-12-02 10:00","2004","12","02","10:00","3.9","","-1.8","","66","","25","","19","","24.1","","100.58","","","","","","Mostly Cloudy"
"2004-12-02 11:00","2004","12","02","11:00","3.8","","-2.5","","63","","27","","15","","24.1","","100.59","","","","","","Mostly Cloudy"
"2004-12-02 12:00","2004","12","02","12:00","4.5","","-2.3","","61","","27","","19","","24.1","","100.50","","","","","","Mostly Cloudy"
"2004-12-02 13:00","2004","12","02","13:00","4.6","","-2.8","","59","","28","","22","","24.1","","100.39","","","","","","Mostly Cloudy"
"2004-12-02 14:00","2004","12","02","14:00","4.7","","-2.8","","58","","30","","22","","24.1","","100.29","","","","","","Cloudy"
"2004-12-02 15:00","2004","12","02","15:00","4.2","","-2.7","","61","","27","","13","","24.1","","100.24","","","","","","Mostly Cloudy"
"2004-12-02 16:00","2004","12","02","16:00","4.0","","-3.3","","59","","27","","13","","24.1","","100.23","","","","","","Mostly Cloudy"
"2004-12-02 17:00","2004","12","02","17:00","3.4","","-2.9","","63","","26","","13","","19.3","","100.22","","","","","","Cloudy"
"2004-12-02 18:00","2004","12","02","18:00","3.3","","-2.3","","67","","25","","11","","19.3","","100.17","","","","","","Cloudy"
"2004-12-02 19:00","2004","12","02","19:00","2.8","","-1.7","","72","","23","","11","","19.3","","100.14","","","","","","Cloudy"
"2004-12-02 20:00","2004","12","02","20:00","2.8","","-2.0","","71","","26","","11","","16.1","","100.09","","","","","","Cloudy"
"2004-12-02 21:00","2004","12","02","21:00","2.5","","-1.6","","74","","27","","7","","16.1","","100.00","","","","","","Cloudy"
"2004-12-02 22:00","2004","12","02","22:00","2.0","","-1.3","","79","","21","","9","","16.1","","99.94","","","","","","Cloudy"
"2004-12-02 23:00","2004","12","02","23:00"
"2004-12-03 00:00","2004","12","03","00:00"
"2004-12-03 01:00","2004","12","03","01:00"
"2004-12-03 02:00","2004","12","03","02:00"
"2004-12-03 03:00","2004","12","03","03:00"
"2004-12-03 04:00","2004","12","03","04:00"
"2004-12-03 05:00","2004","12","03","05:00"
"2004-12-03 06:00","2004","12","03","06:00","1.7","","-0.1","","88","","25","","28","","16.1","","99.38","","","","","","Cloudy"
"2004-12-03 07:00","2004","12","03","07:00","1.8","","-0.4","","85","","27","","19","","9.7","","99.48","","","","","","Snow Showers"
"2004-12-03 08:00","2004","12","03","08:00","0.8","","-3.8","","71","","30","","28","","24.1","","99.65","","","","","","Mostly Cloudy"
"2004-12-03 09:00","2004","12","03","09:00","0.0","","-5.4","","67","","30","","26","","24.1","","99.81","","","","-6","","Mostly Cloudy"
"2004-12-03 10:00","2004","12","03","10:00","-0.3","","-6.4","","63","","29","","26","","24.1","","99.94","","","","-6","","Mostly Cloudy"
"2004-12-03 11:00","2004","12","03","11:00","-0.3","","-5.3","","69","","30","","33","","24.1","","100.04","","","","-7","","Mostly Cloudy"
"2004-12-03 12:00","2004","12","03","12:00","0.2","","-6.5","","61","","30","","30","","24.1","","100.11","","","","","","Mainly Clear"
"2004-12-03 13:00","2004","12","03","13:00","0.4","","-6.2","","61","","30","","24","","24.1","","100.16","","","","","","Mainly Clear"
"2004-12-03 14:00","2004","12","03","14:00","0.4","","-7.2","","57","","30","","19","","24.1","","100.18","","","","","","Mainly Clear"
"2004-12-03 15:00","2004","12","03","15:00","0.1","","-7.0","","59","","30","","22","","24.1","","100.27","","","","","","Mostly Cloudy"
"2004-12-03 16:00","2004","12","03","16:00","-0.7","","-6.4","","65","","30","","19","","24.1","","100.37","","","","-6","","Mainly Clear"
"2004-12-03 17:00","2004","12","03","17:00","-0.9","","-6.8","","64","","30","","19","","24.1","","100.41","","","","-6","","Mostly Cloudy"
"2004-12-03 18:00","2004","12","03","18:00","-0.9","","-6.6","","65","","29","","15","","24.1","","100.46","","","","-6","","Cloudy"
"2004-12-03 19:00","2004","12","03","19:00","-1.3","","-7.6","","62","","25","","15","","24.1","","100.49","","","","-6","","Cloudy"
"2004-12-03 20:00","2004","12","03","20:00","-1.7","","-7.5","","65","","25","","15","","24.1","","100.56","","","","-7","","Cloudy"
"2004-12-03 21:00","2004","12","03","21:00","-1.8","","-8.3","","61","","25","","15","","24.1","","100.55","","","","-7","","Mostly Cloudy"
"2004-12-03 22:00","2004","12","03","22:00","-2.6","","-8.2","","65","","27","","11","","48.3","","100.55","","","","-7","","Mainly Clear"
"2004-12-03 23:00","2004","12","03","23:00"
"2004-12-04 00:00","2004","12","04","00:00"
"2004-12-04 01:00","2004","12","04","01:00"
"2004-12-04 02:00","2004","12","04","02:00"
"2004-12-04 03:00","2004","12","04","03:00"
"2004-12-04 04:00","2004","12","04","04:00"
"2004-12-04 05:00","2004","12","04","05:00"
"2004-12-04 06:00","2004","12","04","06:00","-0.4","","-2.7","","84","","21","","19","","24.1","","100.04","","","","-6","","Clear"
"2004-12-04 07:00","2004","12","04","07:00","1.3","","-2.2","","77","","22","","19","","24.1","","100.09","","","","","","Mainly Clear"
"2004-12-04 08:00","2004","12","04","08:00","1.8","","-1.6","","78","","21","","28","","24.1","","100.03","","","","","","Mostly Cloudy"
"2004-12-04 09:00","2004","12","04","09:00","2.9","","-0.9","","76","","21","","22","","24.1","","99.92","","","","","","Cloudy"
"2004-12-04 10:00","2004","12","04","10:00","3.8","","-0.3","","75","","20","","26","","19.3","","99.86","","","","","","Cloudy"
"2004-12-04 11:00","2004","12","04","11:00","4.1","","-0.4","","72","","22","","28","","19.3","","99.70","","","","","","Mostly Cloudy"
"2004-12-04 12:00","2004","12","04","12:00","5.0","","-0.1","","70","","22","","19","","19.3","","99.63","","","","","","Cloudy"
"2004-12-04 13:00","2004","12","04","13:00","5.9","","-0.2","","65","","22","","28","","19.3","","99.44","","","","","","Mostly Cloudy"
"2004-12-04 14:00","2004","12","04","14:00","6.3","","0.2","","65","","22","","28","","19.3","","99.31","","","","","","Cloudy"
"2004-12-04 15:00","2004","12","04","15:00","6.8","","-0.4","","60","","24","","28","","16.1","","99.29","","","","","","Cloudy"
"2004-12-04 16:00","2004","12","04","16:00","7.0","","0.6","","64","","23","","37","","12.9","","99.28","","","","","","Rain Showers"
"2004-12-04 17:00","2004","12","04","17:00","6.3","","2.3","","76","","25","","28","","12.9","","99.36","","","","","","Rain Showers"
"2004-12-04 18:00","2004","12","04","18:00","6.7","","3.1","","78","","24","","28","","16.1","","99.39","","","","","","Cloudy"
"2004-12-04 19:00","2004","12","04","19:00","7.5","","2.8","","72","","23","","28","","16.1","","99.50","","","","","","Cloudy"
"2004-12-04 20:00","2004","12","04","20:00","7.5","","2.8","","72","","25","","28","","16.1","","99.54","","","","","","Cloudy"
"2004-12-04 21:00","2004","12","04","21:00","7.4","","2.3","","70","","27","","28","","16.1","","99.62","","","","","","Cloudy"
"2004-12-04 22:00","2004","12","04","22:00","7.1","","2.0","","70","","25","","19","","16.1","","99.71","","","","","","Cloudy"
"2004-12-04 23:00","2004","12","04","23:00"
"2004-12-05 00:00","2004","12","05","00:00"
"2004-12-05 01:00","2004","12","05","01:00"
"2004-12-05 02:00","2004","12","05","02:00"
"2004-12-05 03:00","2004","12","05","03:00"
"2004-12-05 04:00","2004","12","05","04:00"
"2004-12-05 05:00","2004","12","05","05:00"
"2004-12-05 06:00","2004","12","05","06:00","3.3","","-2.6","","65","","30","","19","","24.1","","100.55","","","","","","Mainly Clear"
"2004-12-05 07:00","2004","12","05","07:00","2.4","","-4.3","","61","","31","","28","","24.1","","100.71","","","","","","Mainly Clear"
"2004-12-05 08:00","2004","12","05","08:00","2.1","","-4.8","","60","","30","","19","","24.1","","100.86","","","","","","Mainly Clear"
"2004-12-05 09:00","2004","12","05","09:00","2.5","","-4.3","","61","","33","","19","","24.1","","100.99","","","","","","Mainly Clear"
"2004-12-05 10:00","2004","12","05","10:00","2.8","","-3.9","","61","","32","","19","","24.1","","101.12","","","","","","Mainly Clear"
"2004-12-05 11:00","2004","12","05","11:00","2.0","","-2.9","","70","","6","","15","","24.1","","101.19","","","","","","Mostly Cloudy"
"2004-12-05 12:00","2004","12","05","12:00","1.9","","-3.0","","70","","2","","19","","24.1","","101.24","","","","","","Mostly Cloudy"
"2004-12-05 13:00","2004","12","05","13:00","1.5","","-4.4","","65","","1","","11","","24.1","","101.31","","","","","","Mostly Cloudy"
"2004-12-05 14:00","2004","12","05","14:00","1.6","","-5.1","","61","","3","","15","","24.1","","101.33","","","","","","Mainly Clear"
"2004-12-05 15:00","2004","12","05","15:00","1.1","","-5.5","","61","","4","","9","","24.1","","101.37","","","","","","Mainly Clear"
"2004-12-05 16:00","2004","12","05","16:00","0.5","","-5.7","","63","","4","","19","","24.1","","101.41","","","","","","Mostly Cloudy"
"2004-12-05 17:00","2004","12","05","17:00","-0.3","","-5.8","","66","","6","","9","","24.1","","101.48","","","","-3","","Mainly Clear"
"2004-12-05 18:00","2004","12","05","18:00","-1.1","","-4.6","","77","","9","","9","","24.1","","101.56","","","","-4","","Mainly Clear"
"2004-12-05 19:00","2004","12","05","19:00","-2.1","","-4.7","","82","","9","","11","","24.1","","101.54","","","","-6","","Mainly Clear"
"2004-12-05 20:00","2004","12","05","20:00","-2.1","","-5.4","","78","","10","","9","","24.1","","101.53","","","","-6","","Mainly Clear"
"2004-12-05 21:00","2004","12","05","21:00","-2.4","","-5.4","","80","","10","","9","","24.1","","101.53","","","","-6","","Mainly Clear"
"2004-12-05 22:00","2004","12","05","22:00","-2.6","","-5.3","","82","","11","","9","","24.1","","101.54","","","","-6","","Mainly Clear"
"2004-12-05 23:00","2004","12","05","23:00"
"2004-12-06 00:00","2004","12","06","00:00"
"2004-12-06 01:00","2004","12","06","01:00"
"2004-12-06 02:00","2004","12","06","02:00"
"2004-12-06 03:00","2004","12","06","03:00"
"2004-12-06 04:00","2004","12","06","04:00"
"2004-12-06 05:00","2004","12","06","05:00"
"2004-12-06 06:00","2004","12","06","06:00","-1.4","","-8.1","","60","","7","","19","","24.1","","101.09","","","","-7","","Cloudy"
"2004-12-06 07:00","2004","12","06","07:00","-1.2","","-8.0","","60","","8","","19","","24.1","","101.05","","","","-7","","Cloudy"
"2004-12-06 08:00","2004","12","06","08:00","-0.9","","-8.0","","59","","8","","28","","24.1","","101.08","","","","-7","","Cloudy"
"2004-12-06 09:00","2004","12","06","09:00","-1.9","","-5.4","","77","","9","","19","","4.8","","101.02","","","","-7","","Snow Showers"
"2004-12-06 10:00","2004","12","06","10:00","-1.9","","-4.2","","84","","8","","19","","9.7","","100.92","","","","-7","","Snow Showers"
"2004-12-06 11:00","2004","12","06","11:00","-2.0","","-7.7","","65","","8","","22","","8.0","","100.89","","","","-8","","Snow Showers"
"2004-12-06 12:00","2004","12","06","12:00","-1.9","","-3.6","","88","","9","","19","","19.3","","100.75","","","","-7","","Snow Showers"
"2004-12-06 13:00","2004","12","06","13:00","-1.6","","-3.6","","86","","8","","19","","19.3","","100.64","","","","-7","","Snow Showers"
"2004-12-06 14:00","2004","12","06","14:00","-1.1","","-3.1","","86","","8","","22","","19.3","","100.65","","","","-7","","Cloudy"
"2004-12-06 15:00","2004","12","06","15:00","-1.1","","-3.3","","85","","8","","19","","19.3","","100.63","","","","-6","","Cloudy"
"2004-12-06 16:00","2004","12","06","16:00","-1.0","","-2.8","","88","","8","","22","","19.3","","100.62","","","","-7","","Cloudy"
"2004-12-06 17:00","2004","12","06","17:00","-0.8","","-2.7","","87","","8","","22","","19.3","","100.63","","","","-7","","Cloudy"
"2004-12-06 18:00","2004","12","06","18:00","-0.7","","-2.5","","88","","9","","19","","19.3","","100.61","","","","-6","","Cloudy"
"2004-12-06 19:00","2004","12","06","19:00","-0.6","","-2.1","","90","","10","","22","","16.1","","100.61","","","","-6","","Cloudy"
"2004-12-06 20:00","2004","12","06","20:00","-0.3","","-1.4","","92","","8","","22","","16.1","","100.67","","","","-6","","Cloudy"
"2004-12-06 21:00","2004","12","06","21:00","-0.1","","-1.0","","94","","9","","22","","16.1","","100.64","","","","-6","","Cloudy"
"2004-12-06 22:00","2004","12","06","22:00","0.0","","-0.7","","95","","8","","19","","16.1","","100.61","","","","-5","","Cloudy"
"2004-12-06 23:00","2004","12","06","23:00"
"2004-12-07 00:00","2004","12","07","00:00"
"2004-12-07 01:00","2004","12","07","01:00"
"2004-12-07 02:00","2004","12","07","02:00"
"2004-12-07 03:00","2004","12","07","03:00"
"2004-12-07 04:00","2004","12","07","04:00"
"2004-12-07 05:00","2004","12","07","05:00"
"2004-12-07 06:00","2004","12","07","06:00","1.3","","0.7","","96","","7","","19","","19.3","","100.20","","","","","","Cloudy"
"2004-12-07 07:00","2004","12","07","07:00","1.4","","0.7","","95","","6","","19","","16.1","","100.13","","","","","","Cloudy"
"2004-12-07 08:00","2004","12","07","08:00","1.3","","0.7","","96","","8","","9","","8.0","","100.04","","","","","","Fog"
"2004-12-07 09:00","2004","12","07","09:00","1.7","","1.0","","95","","8","","22","","8.0","","99.87","","","","","","Fog"
"2004-12-07 10:00","2004","12","07","10:00","1.9","","1.5","","97","","9","","24","","6.4","","99.68","","","","","","Rain Showers,Fog"
"2004-12-07 11:00","2004","12","07","11:00","2.4","","2.4","","100","","8","","22","","4.8","","99.41","","","","","","Rain Showers,Fog"
"2004-12-07 12:00","2004","12","07","12:00","3.3","","3.3","","100","","9","","19","","3.2","","99.10","","","","","","Rain Showers,Fog"
"2004-12-07 13:00","2004","12","07","13:00","5.1","","5.1","","100","","9","","19","","3.2","","98.71","","","","","","Rain Showers,Fog"
"2004-12-07 14:00","2004","12","07","14:00","8.1","","8.1","","100","","9","","19","","4.8","","98.37","","","","","","Rain Showers,Fog"
"2004-12-07 15:00","2004","12","07","15:00","9.2","","8.4","","95","","16","","22","","24.1","","98.14","","","","","","Mostly Cloudy"
"2004-12-07 16:00","2004","12","07","16:00","11.7","","9.4","","86","","19","","26","","24.1","","98.04","","","","","","Rain Showers"
"2004-12-07 17:00","2004","12","07","17:00","13.4","","10.2","","81","","20","","26","","24.1","","98.16","","","","","","Rain Showers"
"2004-12-07 18:00","2004","12","07","18:00","13.0","","10.2","","83","","20","","22","","24.1","","98.16","","","","","","Mostly Cloudy"
"2004-12-07 19:00","2004","12","07","19:00","12.3","","11.1","","92","","23","","28","","16.1","","98.22","","","","","","Rain Showers"
"2004-12-07 20:00","2004","12","07","20:00","12.4","","8.8","","79","","23","","44","","24.1","","98.28","","","","","","Mostly Cloudy"
"2004-12-07 21:00","2004","12","07","21:00","10.7","","6.6","","76","","24","","41","","24.1","","98.40","","","","","","Cloudy"
"2004-12-07 22:00","2004","12","07","22:00","9.3","","4.0","","69","","25","","37","","24.1","","98.55","","","","","","Cloudy"
"2004-12-07 23:00","2004","12","07","23:00"
"2004-12-08 00:00","2004","12","08","00:00"
"2004-12-08 01:00","2004","12","08","01:00"
"2004-12-08 02:00","2004","12","08","02:00"
"2004-12-08 03:00","2004","12","08","03:00"
"2004-12-08 04:00","2004","12","08","04:00"
"2004-12-08 05:00","2004","12","08","05:00"
"2004-12-08 06:00","2004","12","08","06:00","5.9","","2.2","","77","","26","","19","","24.1","","99.87","","","","","","Cloudy"
"2004-12-08 07:00","2004","12","08","07:00","6.1","","2.0","","75","","27","","19","","24.1","","100.01","","","","","","Cloudy"
"2004-12-08 08:00","2004","12","08","08:00","6.1","","1.6","","73","","28","","19","","24.1","","100.13","","","","","","Cloudy"
"2004-12-08 09:00","2004","12","08","09:00","6.2","","1.7","","73","","27","","28","","24.1","","100.29","","","","","","Cloudy"
"2004-12-08 10:00","2004","12","08","10:00","6.9","","1.9","","70","","26","","28","","24.1","","100.47","","","","","","Mostly Cloudy"
"2004-12-08 11:00","2004","12","08","11:00","7.1","","1.6","","68","","28","","28","","24.1","","100.59","","","","","","Mostly Cloudy"
"2004-12-08 12:00","2004","12","08","12:00","7.4","","1.6","","67","","29","","28","","24.1","","100.63","","","","","","Mainly Clear"
"2004-12-08 13:00","2004","12","08","13:00","7.6","","1.7","","66","","29","","28","","24.1","","100.69","","","","","","Mainly Clear"
"2004-12-08 14:00","2004","12","08","14:00","6.9","","2.0","","71","","30","","19","","24.1","","100.71","","","","","","Mainly Clear"
"2004-12-08 15:00","2004","12","08","15:00","6.6","","2.7","","76","","30","","15","","24.1","","100.78","","","","","","Mostly Cloudy"
"2004-12-08 16:00","2004","12","08","16:00","7.0","","0.8","","65","","27","","15","","24.1","","100.77","","","","","","Mainly Clear"
"2004-12-08 17:00","2004","12","08","17:00","5.6","","1.4","","74","","25","","11","","24.1","","100.87","","","","","","Mostly Cloudy"
"2004-12-08 18:00","2004","12","08","18:00","6.0","","1.9","","75","","25","","13","","24.1","","100.91","","","","","","Cloudy"
"2004-12-08 19:00","2004","12","08","19:00","5.1","","2.2","","82","","22","","9","","24.1","","100.94","","","","","","Mostly Cloudy"
"2004-12-08 20:00","2004","12","08","20:00","5.2","","1.9","","79","","27","","6","","24.1","","100.99","","","","","","Cloudy"
"2004-12-08 21:00","2004","12","08","21:00","5.3","","1.7","","78","","26","","7","","24.1","","101.01","","","","","","Cloudy"
"2004-12-08 22:00","2004","12","08","22:00","4.9","","2.3","","83","","","","0","","24.1","","100.98","","","","","","Cloudy"
"2004-12-08 23:00","2004","12","08","23:00"
"2004-12-09 00:00","2004","12","09","00:00"
"2004-12-09 01:00","2004","12","09","01:00"
"2004-12-09 02:00","2004","12","09","02:00"
"2004-12-09 03:00","2004","12","09","03:00"
"2004-12-09 04:00","2004","12","09","04:00"
"2004-12-09 05:00","2004","12","09","05:00"
"2004-12-09 06:00","2004","12","09","06:00","3.4","","1.0","","84","","7","","9","","24.1","","100.70","","","","","","Cloudy"
"2004-12-09 07:00","2004","12","09","07:00","2.7","","1.1","","89","","9","","9","","19.3","","100.64","","","","","","Cloudy"
"2004-12-09 08:00","2004","12","09","08:00","3.1","","1.2","","87","","10","","9","","19.3","","100.55","","","","","","Cloudy"
"2004-12-09 09:00","2004","12","09","09:00","3.4","","1.4","","87","","","","0","","19.3","","100.50","","","","","","Cloudy"
"2004-12-09 10:00","2004","12","09","10:00","4.5","","1.8","","83","","10","","9","","19.3","","100.50","","","","","","Cloudy"
"2004-12-09 11:00","2004","12","09","11:00","5.3","","1.6","","77","","10","","9","","19.3","","100.40","","","","","","Cloudy"
"2004-12-09 12:00","2004","12","09","12:00","6.5","","1.8","","72","","23","","4","","19.3","","100.31","","","","","","Cloudy"
"2004-12-09 13:00","2004","12","09","13:00","7.3","","2.2","","70","","18","","4","","19.3","","100.23","","","","","","Cloudy"
"2004-12-09 14:00","2004","12","09","14:00","7.1","","2.4","","72","","","","0","","19.3","","100.16","","","","","","Cloudy"
"2004-12-09 15:00","2004","12","09","15:00","6.3","","3.0","","79","","10","","9","","19.3","","100.09","","","","","","Cloudy"
"2004-12-09 16:00","2004","12","09","16:00","5.9","","2.6","","79","","9","","9","","19.3","","100.02","","","","","","Cloudy"
"2004-12-09 17:00","2004","12","09","17:00","5.3","","2.9","","84","","8","","9","","19.3","","99.95","","","","","","Cloudy"
"2004-12-09 18:00","2004","12","09","18:00","4.4","","2.4","","87","","9","","7","","19.3","","99.91","","","","","","Cloudy"
"2004-12-09 19:00","2004","12","09","19:00","4.8","","2.6","","86","","6","","7","","19.3","","99.86","","","","","","Cloudy"
"2004-12-09 20:00","2004","12","09","20:00","4.8","","2.6","","86","","7","","9","","16.1","","99.81","","","","","","Cloudy"
"2004-12-09 21:00","2004","12","09","21:00","4.3","","2.8","","90","","11","","9","","16.1","","99.80","","","","","","Cloudy"
"2004-12-09 22:00","2004","12","09","22:00","4.3","","2.9","","91","","35","","6","","16.1","","99.77","","","","","","Cloudy"
"2004-12-09 23:00","2004","12","09","23:00"
"2004-12-10 00:00","2004","12","10","00:00"
"2004-12-10 01:00","2004","12","10","01:00"
"2004-12-10 02:00","2004","12","10","02:00"
"2004-12-10 03:00","2004","12","10","03:00"
"2004-12-10 04:00","2004","12","10","04:00"
"2004-12-10 05:00","2004","12","10","05:00"
"2004-12-10 06:00","2004","12","10","06:00","5.3","","5.2","","99","","8","","15","","12.9","","99.45","","","","","","Cloudy"
"2004-12-10 07:00","2004","12","10","07:00","5.4","","5.3","","99","","7","","19","","12.9","","99.43","","","","","","Cloudy"
"2004-12-10 08:00","2004","12","10","08:00","5.3","","5.3","","100","","7","","19","","4.8","","99.37","","","","","","Fog"
"2004-12-10 09:00","2004","12","10","09:00","5.0","","5.0","","100","","6","","22","","4.0","","99.30","","","","","","Rain,Fog"
"2004-12-10 10:00","2004","12","10","10:00","4.4","","4.4","","100","","7","","28","","4.8","","99.26","","","","","","Fog"
"2004-12-10 11:00","2004","12","10","11:00","4.6","","4.6","","100","","6","","28","","4.0","","99.14","","","","","","Rain,Fog"
"2004-12-10 12:00","2004","12","10","12:00","5.2","","5.2","","100","","6","","19","","12.9","","99.03","","","","","","Cloudy"
"2004-12-10 13:00","2004","12","10","13:00","5.3","","5.3","","100","","7","","19","","3.2","","98.89","","","","","","Rain,Fog"
"2004-12-10 14:00","2004","12","10","14:00","5.2","","5.2","","100","","8","","19","","4.8","","98.79","","","","","","Rain,Fog"
"2004-12-10 15:00","2004","12","10","15:00","5.1","","5.1","","100","","8","","22","","4.8","","98.72","","","","","","Rain,Fog"
"2004-12-10 16:00","2004","12","10","16:00","5.2","","5.2","","100","","8","","24","","6.4","","98.70","","","","","","Fog"
"2004-12-10 17:00","2004","12","10","17:00","5.3","","5.3","","100","","7","","19","","6.4","","98.67","","","","","","Fog"
"2004-12-10 18:00","2004","12","10","18:00","5.2","","5.2","","100","","8","","22","","6.4","","98.65","","","","","","Fog"
"2004-12-10 19:00","2004","12","10","19:00","5.1","","4.9","","99","","8","","19","","8.0","","98.63","","","","","","Rain Showers,Fog"
"2004-12-10 20:00","2004","12","10","20:00","5.1","","4.8","","98","","7","","15","","8.0","","98.62","","","","","","Rain Showers,Fog"
"2004-12-10 21:00","2004","12","10","21:00","5.0","","4.8","","99","","7","","19","","8.0","","98.55","","","","","","Rain Showers,Fog"
"2004-12-10 22:00","2004","12","10","22:00","5.1","","4.8","","98","","7","","19","","12.9","","98.52","","","","","","Cloudy"
"2004-12-10 23:00","2004","12","10","23:00"
"2004-12-11 00:00","2004","12","11","00:00"
"2004-12-11 01:00","2004","12","11","01:00"
"2004-12-11 02:00","2004","12","11","02:00"
"2004-12-11 03:00","2004","12","11","03:00"
"2004-12-11 04:00","2004","12","11","04:00"
"2004-12-11 05:00","2004","12","11","05:00"
"2004-12-11 06:00","2004","12","11","06:00","2.2","","2.2","","100","","2","","19","","12.9","","98.46","","","","","","Rain"
"2004-12-11 07:00","2004","12","11","07:00","1.5","","1.5","","100","","1","","19","","9.7","","98.49","","","","","","Rain,Fog"
"2004-12-11 08:00","2004","12","11","08:00","1.1","","1.1","","100","","1","","19","","3.2","","98.51","","","","","","Snow"
"2004-12-11 09:00","2004","12","11","09:00","1.2","","1.2","","100","","36","","19","","6.4","","98.54","","","","","","Snow"
"2004-12-11 10:00","2004","12","11","10:00","1.2","","1.2","","100","","35","","7","","9.7","","98.59","","","","","","Snow"
"2004-12-11 11:00","2004","12","11","11:00","1.2","","1.0","","99","","1","","19","","6.4","","98.57","","","","","","Snow"
"2004-12-11 12:00","2004","12","11","12:00","1.0","","0.9","","99","","34","","7","","4.8","","98.55","","","","","","Snow"
"2004-12-11 13:00","2004","12","11","13:00","1.1","","-0.4","","90","","31","","13","","4.8","","98.55","","","","","","Snow"
"2004-12-11 14:00","2004","12","11","14:00","0.8","","0.7","","99","","33","","15","","4.8","","98.55","","","","","","Snow"
"2004-12-11 15:00","2004","12","11","15:00","0.4","","0.3","","99","","31","","13","","2.4","","98.59","","","","","","Snow"
"2004-12-11 16:00","2004","12","11","16:00","0.0","","0.0","","100","","31","","13","","1.6","","98.68","","","","-4","","Snow"
"2004-12-11 17:00","2004","12","11","17:00","0.0","","0.0","","100","","33","","15","","1.6","","98.74","","","","-4","","Snow"
"2004-12-11 18:00","2004","12","11","18:00","0.0","","0.0","","100","","32","","13","","4.0","","98.80","","","","-4","","Snow"
"2004-12-11 19:00","2004","12","11","19:00","-0.1","","-0.3","","99","","31","","15","","12.9","","98.85","","","","-5","","Cloudy"
"2004-12-11 20:00","2004","12","11","20:00","-0.2","","-1.4","","92","","31","","22","","16.1","","98.94","","","","-6","","Snow Showers"
"2004-12-11 21:00","2004","12","11","21:00","-0.3","","-2.1","","88","","31","","22","","24.1","","99.00","","","","-6","","Cloudy"
"2004-12-11 22:00","2004","12","11","22:00","-0.1","","-2.8","","82","","30","","22","","24.1","","99.06","","","","-6","","Cloudy"
"2004-12-11 23:00","2004","12","11","23:00"
"2004-12-12 00:00","2004","12","12","00:00"
"2004-12-12 01:00","2004","12","12","01:00"
"2004-12-12 02:00","2004","12","12","02:00"
"2004-12-12 03:00","2004","12","12","03:00"
"2004-12-12 04:00","2004","12","12","04:00"
"2004-12-12 05:00","2004","12","12","05:00"
"2004-12-12 06:00","2004","12","12","06:00","0.8","","0.8","","100","","30","","19","","24.1","","99.25","","","","","","Cloudy"
"2004-12-12 07:00","2004","12","12","07:00","0.8","","","M","","M","25","","19","","24.1","","99.30","","","","","","Cloudy"
"2004-12-12 08:00","2004","12","12","08:00","0.7","","","M","","M","26","","28","","24.1","","99.30","","","","","","Mostly Cloudy"
"2004-12-12 09:00","2004","12","12","09:00","0.6","","-3.2","","76","","24","","19","","24.1","","99.31","","","","","","Cloudy"
"2004-12-12 10:00","2004","12","12","10:00","1.0","","-1.6","","83","","24","","22","","24.1","","99.30","","","","","","Mostly Cloudy"
"2004-12-12 11:00","2004","12","12","11:00","1.3","","-2.0","","79","","24","","19","","24.1","","99.20","","","","","","Cloudy"
"2004-12-12 12:00","2004","12","12","12:00","1.7","","-1.1","","82","","23","","19","","24.1","","99.07","","","","","","Cloudy"
"2004-12-12 13:00","2004","12","12","13:00","1.3","","0.4","","94","","24","","19","","2.8","","98.97","","","","","","Snow"
"2004-12-12 14:00","2004","12","12","14:00","1.8","","0.9","","94","","21","","22","","6.4","","98.83","","","","","","Rain,Fog"
"2004-12-12 15:00","2004","12","12","15:00","1.6","","1.0","","96","","21","","22","","8.0","","98.71","","","","","","Rain,Fog"
"2004-12-12 16:00","2004","12","12","16:00","1.6","","0.9","","95","","17","","15","","16.1","","98.52","","","","","","Rain"
"2004-12-12 17:00","2004","12","12","17:00","1.6","","1.2","","97","","20","","22","","4.8","","98.56","","","","","","Rain,Fog"
"2004-12-12 18:00","2004","12","12","18:00","2.1","","1.6","","96","","21","","22","","8.0","","98.47","","","","","","Rain,Fog"
"2004-12-12 19:00","2004","12","12","19:00","2.8","","2.2","","96","","20","","22","","8.0","","98.38","","","","","","Rain,Fog"
"2004-12-12 20:00","2004","12","12","20:00","3.7","","2.9","","94","","22","","22","","8.0","","98.28","","","","","","Rain,Fog"
"2004-12-12 21:00","2004","12","12","21:00","3.5","","2.7","","94","","22","","22","","19.3","","98.24","","","","","","Rain"
"2004-12-12 22:00","2004","12","12","22:00","3.5","","2.9","","96","","22","","19","","19.3","","98.21","","","","","","Cloudy"
"2004-12-12 23:00","2004","12","12","23:00"
"2004-12-13 00:00","2004","12","13","00:00"
"2004-12-13 01:00","2004","12","13","01:00"
"2004-12-13 02:00","2004","12","13","02:00"
"2004-12-13 03:00","2004","12","13","03:00"
"2004-12-13 04:00","2004","12","13","04:00"
"2004-12-13 05:00","2004","12","13","05:00"
"2004-12-13 06:00","2004","12","13","06:00","0.8","","-2.1","","81","","25","","9","","24.1","","98.51","","","","","","Mainly Clear"
"2004-12-13 07:00","2004","12","13","07:00","0.7","","-2.5","","79","","25","","9","","24.1","","98.61","","","","","","Mainly Clear"
"2004-12-13 08:00","2004","12","13","08:00","0.4","","-2.7","","80","","25","","15","","24.1","","98.70","","","","","","Mainly Clear"
"2004-12-13 09:00","2004","12","13","09:00","0.6","","-2.7","","79","","24","","22","","24.1","","98.80","","","","","","Mostly Cloudy"
"2004-12-13 10:00","2004","12","13","10:00","1.0","","-2.2","","79","","28","","19","","24.1","","98.90","","","","","","Mostly Cloudy"
"2004-12-13 11:00","2004","12","13","11:00","1.2","","-3.4","","71","","25","","19","","24.1","","98.94","","","","","","Mostly Cloudy"
"2004-12-13 12:00","2004","12","13","12:00","0.9","","-2.9","","76","","26","","19","","24.1","","98.98","","","","","","Mostly Cloudy"
"2004-12-13 13:00","2004","12","13","13:00","1.0","","-2.8","","76","","27","","22","","24.1","","99.00","","","","","","Mostly Cloudy"
"2004-12-13 14:00","2004","12","13","14:00","1.2","","-2.7","","75","","26","","19","","24.1","","99.05","","","","","","Mostly Cloudy"
"2004-12-13 15:00","2004","12","13","15:00","1.3","","-2.4","","76","","27","","15","","24.1","","99.11","","","","","","Mostly Cloudy"
"2004-12-13 16:00","2004","12","13","16:00","1.3","","-2.5","","76","","27","","19","","19.3","","99.24","","","","","","Cloudy"
"2004-12-13 17:00","2004","12","13","17:00","1.3","","-2.0","","79","","26","","15","","19.3","","99.33","","","","","","Cloudy"
"2004-12-13 18:00","2004","12","13","18:00","1.7","","-1.3","","80","","30","","19","","19.3","","99.46","","","","","","Cloudy"
"2004-12-13 19:00","2004","12","13","19:00","0.1","","-2.7","","81","","34","","22","","16.1","","99.65","","","","","","Snow"
"2004-12-13 20:00","2004","12","13","20:00","-1.2","","-4.2","","80","","33","","19","","16.1","","99.81","","","","-7","","Snow"
"2004-12-13 21:00","2004","12","13","21:00","-2.0","","-5.1","","79","","32","","19","","16.1","","99.95","","","","-8","","Snow"
"2004-12-13 22:00","2004","12","13","22:00","-2.9","","-5.1","","85","","34","","19","","12.9","","100.08","","","","-9","","Snow"
"2004-12-13 23:00","2004","12","13","23:00"
"2004-12-14 00:00","2004","12","14","00:00"
"2004-12-14 01:00","2004","12","14","01:00"
"2004-12-14 02:00","2004","12","14","02:00"
"2004-12-14 03:00","2004","12","14","03:00"
"2004-12-14 04:00","2004","12","14","04:00"
"2004-12-14 05:00","2004","12","14","05:00"
"2004-12-14 06:00","2004","12","14","06:00","-6.6","","-10.6","","73","","33","","19","","24.1","","100.94","","","","-13","","Mostly Cloudy"
"2004-12-14 07:00","2004","12","14","07:00","-6.6","","-10.4","","74","","35","","19","","24.1","","101.05","","","","-13","","Mostly Cloudy"
"2004-12-14 08:00","2004","12","14","08:00","-6.7","","-10.3","","76","","33","","19","","16.1","","101.11","","","","-14","","Snow Showers"
"2004-12-14 09:00","2004","12","14","09:00","-6.3","","-9.5","","78","","32","","19","","11.3","","101.18","","","","-13","","Snow Showers"
"2004-12-14 10:00","2004","12","14","10:00","-5.9","","-9.9","","73","","30","","9","","16.1","","101.25","","","","-10","","Mostly Cloudy"
"2004-12-14 11:00","2004","12","14","11:00","-5.4","","-9.4","","73","","36","","7","","16.1","","101.28","","","","-9","","Snow Showers"
"2004-12-14 12:00","2004","12","14","12:00","-4.9","","-9.0","","73","","30","","13","","19.3","","101.27","","","","-10","","Snow Showers"
"2004-12-14 13:00","2004","12","14","13:00","-4.7","","-8.8","","73","","34","","11","","19.3","","101.24","","","","-9","","Snow Showers"
"2004-12-14 14:00","2004","12","14","14:00","-4.7","","-8.7","","74","","31","","15","","6.4","","101.27","","","","-10","","Snow Showers"
"2004-12-14 15:00","2004","12","14","15:00","-5.0","","-6.8","","87","","25","","13","","1.6","","101.31","","","","-10","","Snow Showers"
"2004-12-14 16:00","2004","12","14","16:00","-4.6","","-9.9","","66","","33","","19","","16.1","","101.37","","","","-11","","Snow Showers"
"2004-12-14 17:00","2004","12","14","17:00","-5.8","","-12.4","","60","","34","","19","","16.1","","101.50","","","","-12","","Mostly Cloudy"
"2004-12-14 18:00","2004","12","14","18:00","-5.7","","-11.3","","65","","33","","19","","16.1","","101.56","","","","-12","","Snow Showers"
"2004-12-14 19:00","2004","12","14","19:00","-5.4","","-11.2","","64","","27","","19","","16.1","","101.62","","","","-12","","Snow Showers"
"2004-12-14 20:00","2004","12","14","20:00","-4.9","","-10.7","","64","","24","","22","","12.9","","101.64","","","","-12","","Snow Showers"
"2004-12-14 21:00","2004","12","14","21:00","-4.6","","-9.8","","67","","33","","15","","19.3","","101.67","","","","-10","","Cloudy"
"2004-12-14 22:00","2004","12","14","22:00","-5.4","","-9.9","","71","","17","","7","","16.1","","101.65","","","","-9","","Snow Showers"
"2004-12-14 23:00","2004","12","14","23:00"
"2004-12-15 00:00","2004","12","15","00:00"
"2004-12-15 01:00","2004","12","15","01:00"
"2004-12-15 02:00","2004","12","15","02:00"
"2004-12-15 03:00","2004","12","15","03:00"
"2004-12-15 04:00","2004","12","15","04:00"
"2004-12-15 05:00","2004","12","15","05:00"
"2004-12-15 06:00","2004","12","15","06:00","-3.1","","-6.1","","80","","25","","19","","24.1","","101.75","","","","-9","","Cloudy"
"2004-12-15 07:00","2004","12","15","07:00","-2.6","","-5.9","","78","","26","","19","","19.3","","101.79","","","","-8","","Snow Showers"
"2004-12-15 08:00","2004","12","15","08:00","-2.3","","-6.4","","73","","27","","15","","19.3","","101.78","","","","-7","","Snow Showers"
"2004-12-15 09:00","2004","12","15","09:00","-2.3","","-6.6","","72","","25","","28","","24.1","","101.79","","","","-9","","Mostly Cloudy"
"2004-12-15 10:00","2004","12","15","10:00","-1.9","","-7.5","","65","","27","","19","","24.1","","101.82","","","","-7","","Mostly Cloudy"
"2004-12-15 11:00","2004","12","15","11:00","-0.8","","-7.7","","59","","24","","19","","24.1","","101.78","","","","-6","","Mainly Clear"
"2004-12-15 12:00","2004","12","15","12:00","-1.0","","-8.4","","57","","23","","19","","24.1","","101.77","","","","-6","","Mainly Clear"
"2004-12-15 13:00","2004","12","15","13:00","0.4","","-6.7","","59","","24","","19","","24.1","","101.70","","","","","","Mainly Clear"
"2004-12-15 14:00","2004","12","15","14:00","0.9","","-5.6","","62","","24","","19","","24.1","","101.60","","","","","","Mainly Clear"
"2004-12-15 15:00","2004","12","15","15:00","1.0","","-5.3","","63","","23","","19","","24.1","","101.54","","","","","","Mainly Clear"
"2004-12-15 16:00","2004","12","15","16:00","0.7","","-5.6","","63","","25","","28","","24.1","","101.55","","","","","","Clear"
"2004-12-15 17:00","2004","12","15","17:00","0.3","","-4.7","","69","","24","","19","","24.1","","101.53","","","","","","Mainly Clear"
"2004-12-15 18:00","2004","12","15","18:00","0.2","","-4.6","","70","","23","","19","","24.1","","101.55","","","","","","Mainly Clear"
"2004-12-15 19:00","2004","12","15","19:00","0.1","","-5.6","","65","","23","","19","","24.1","","101.54","","","","","","Mainly Clear"
"2004-12-15 20:00","2004","12","15","20:00","0.2","","-5.8","","64","","20","","19","","24.1","","101.47","","","","","","Mainly Clear"
"2004-12-15 21:00","2004","12","15","21:00","0.3","","-5.8","","64","","24","","19","","24.1","","101.40","","","","","","Clear"
"2004-12-15 22:00","2004","12","15","22:00","0.2","","-5.5","","65","","22","","19","","24.1","","101.34","","","","","","Clear"
"2004-12-15 23:00","2004","12","15","23:00"
"2004-12-16 00:00","2004","12","16","00:00"
"2004-12-16 01:00","2004","12","16","01:00"
"2004-12-16 02:00","2004","12","16","02:00"
"2004-12-16 03:00","2004","12","16","03:00"
"2004-12-16 04:00","2004","12","16","04:00"
"2004-12-16 05:00","2004","12","16","05:00"
"2004-12-16 06:00","2004","12","16","06:00","0.8","","-4.1","","70","","22","","28","","24.1","","101.03","","","","","","Mainly Clear"
"2004-12-16 07:00","2004","12","16","07:00","1.0","","-4.0","","69","","22","","19","","24.1","","101.00","","","","","","Mostly Cloudy"
"2004-12-16 08:00","2004","12","16","08:00","1.0","","-4.1","","69","","23","","28","","24.1","","100.96","","","","","","Mostly Cloudy"
"2004-12-16 09:00","2004","12","16","09:00","1.6","","-4.3","","65","","21","","28","","24.1","","100.90","","","","","","Mostly Cloudy"
"2004-12-16 10:00","2004","12","16","10:00","2.4","","-4.2","","62","","23","","28","","24.1","","100.88","","","","","","Mostly Cloudy"
"2004-12-16 11:00","2004","12","16","11:00","3.2","","-3.9","","60","","21","","28","","24.1","","100.77","","","","","","Mostly Cloudy"
"2004-12-16 12:00","2004","12","16","12:00","3.7","","-3.7","","58","","22","","37","","24.1","","100.67","","","","","","Cloudy"
"2004-12-16 13:00","2004","12","16","13:00","4.3","","-3.7","","56","","22","","26","","24.1","","100.58","","","","","","Mostly Cloudy"
"2004-12-16 14:00","2004","12","16","14:00","4.6","","-3.6","","55","","23","","33","","24.1","","100.48","","","","","","Cloudy"
"2004-12-16 15:00","2004","12","16","15:00","4.3","","-4.2","","54","","23","","28","","24.1","","100.42","","","","","","Cloudy"
"2004-12-16 16:00","2004","12","16","16:00","4.5","","-4.8","","51","","23","","28","","24.1","","100.37","","","","","","Mostly Cloudy"
"2004-12-16 17:00","2004","12","16","17:00","4.7","","-5.3","","48","","24","","28","","24.1","","100.31","","","","","","Mostly Cloudy"
"2004-12-16 18:00","2004","12","16","18:00","4.8","","-5.1","","49","","23","","28","","24.1","","100.28","","","","","","Cloudy"
"2004-12-16 19:00","2004","12","16","19:00","4.4","","-2.2","","62","","22","","22","","24.1","","100.31","","","","","","Cloudy"
"2004-12-16 20:00","2004","12","16","20:00","1.9","","0.8","","92","","23","","22","","12.9","","100.35","","","","","","Snow Showers"
"2004-12-16 21:00","2004","12","16","21:00","1.4","","0.7","","95","","25","","19","","12.9","","100.33","","","","","","Snow Showers"
"2004-12-16 22:00","2004","12","16","22:00","1.1","","0.5","","96","","24","","22","","11.3","","100.32","","","","","","Rain Showers,Snow Showers"
"2004-12-16 23:00","2004","12","16","23:00"
"2004-12-17 00:00","2004","12","17","00:00"
"2004-12-17 01:00","2004","12","17","01:00"
"2004-12-17 02:00","2004","12","17","02:00"
"2004-12-17 03:00","2004","12","17","03:00"
"2004-12-17 04:00","2004","12","17","04:00"
"2004-12-17 05:00","2004","12","17","05:00"
"2004-12-17 06:00","2004","12","17","06:00","-3.2","","-6.8","","76","","25","","28","","24.1","","100.98","","","","-10","","Mainly Clear"
"2004-12-17 07:00","2004","12","17","07:00","-2.8","","-7.0","","73","","26","","19","","24.1","","101.07","","","","-9","","Mostly Cloudy"
"2004-12-17 08:00","2004","12","17","08:00","-2.4","","-6.6","","73","","30","","37","","24.1","","101.19","","","","-10","","Mostly Cloudy"
"2004-12-17 09:00","2004","12","17","09:00","-2.9","","-8.0","","68","","31","","19","","24.1","","101.29","","","","-9","","Mostly Cloudy"
"2004-12-17 10:00","2004","12","17","10:00","-2.9","","-7.8","","69","","32","","19","","24.1","","101.40","","","","-9","","Mostly Cloudy"
"2004-12-17 11:00","2004","12","17","11:00","-2.6","","-8.0","","66","","32","","19","","24.1","","101.46","","","","-8","","Mainly Clear"
"2004-12-17 12:00","2004","12","17","12:00","-3.1","","-8.3","","67","","30","","19","","24.1","","101.41","","","","-9","","Mainly Clear"
"2004-12-17 13:00","2004","12","17","13:00","-2.9","","-8.7","","64","","32","","22","","24.1","","101.40","","","","-9","","Clear"
"2004-12-17 14:00","2004","12","17","14:00","-2.5","","-8.8","","62","","32","","11","","24.1","","101.41","","","","-7","","Clear"
"2004-12-17 15:00","2004","12","17","15:00","-2.5","","-9.7","","58","","30","","15","E","24.1","","101.41","","","","-7","E","Clear"
"2004-12-17 16:00","2004","12","17","16:00","-2.8","","-9.2","","61","","32","","7","","24.1","","101.43","","","","-6","","Clear"
"2004-12-17 17:00","2004","12","17","17:00","-4.5","","-8.9","","71","","","","0","","24.1","","101.44","","","","","","Mainly Clear"
"2004-12-17 18:00","2004","12","17","18:00","-5.2","","-9.0","","75","","","","0","","24.1","","101.42","","","","","","Mainly Clear"
"2004-12-17 19:00","2004","12","17","19:00","-6.3","","-8.2","","86","","","","0","","24.1","","101.38","","","","","","Mainly Clear"
"2004-12-17 20:00","2004","12","17","20:00","-6.6","","-8.9","","84","","","","0","","24.1","","101.32","","","","","","Mainly Clear"
"2004-12-17 21:00","2004","12","17","21:00","-4.8","","-7.6","","81","","","","0","","24.1","","101.27","","","","","","Mostly Cloudy"
"2004-12-17 22:00","2004","12","17","22:00","-4.2","","-7.8","","76","","","","0","","24.1","","101.22","","","","","","Mostly Cloudy"
"2004-12-17 23:00","2004","12","17","23:00"
"2004-12-18 00:00","2004","12","18","00:00"
"2004-12-18 01:00","2004","12","18","01:00"
"2004-12-18 02:00","2004","12","18","02:00"
"2004-12-18 03:00","2004","12","18","03:00"
"2004-12-18 04:00","2004","12","18","04:00"
"2004-12-18 05:00","2004","12","18","05:00"
"2004-12-18 06:00","2004","12","18","06:00","-2.0","","-4.8","","81","","16","","4","","24.1","","100.52","","","","-3","","Cloudy"
"2004-12-18 07:00","2004","12","18","07:00","-1.8","","-4.7","","81","","","","0","","24.1","","100.45","","","","","","Cloudy"
"2004-12-18 08:00","2004","12","18","08:00","-1.5","","-4.2","","82","","","","0","","19.3","","100.37","","","","","","Cloudy"
"2004-12-18 09:00","2004","12","18","09:00","-1.0","","-3.1","","86","","","","0","","19.3","","100.33","","","","","","Cloudy"
"2004-12-18 10:00","2004","12","18","10:00","2.2","","-1.8","","75","","18","","15","","19.3","","100.21","","","","","","Mostly Cloudy"
"2004-12-18 11:00","2004","12","18","11:00","3.0","","-1.9","","70","","20","","19","","19.3","","100.15","","","","","","Mostly Cloudy"
"2004-12-18 12:00","2004","12","18","12:00","4.0","","-1.3","","68","","20","","28","","19.3","","99.98","","","","","","Mostly Cloudy"
"2004-12-18 13:00","2004","12","18","13:00","4.0","","-0.9","","70","","21","","28","","19.3","","99.89","","","","","","Mostly Cloudy"
"2004-12-18 14:00","2004","12","18","14:00","4.0","","-1.3","","68","","22","","30","","19.3","","99.81","","","","","","Mostly Cloudy"
"2004-12-18 15:00","2004","12","18","15:00","3.9","","-1.8","","66","","24","","19","","19.3","","99.76","","","","","","Cloudy"
"2004-12-18 16:00","2004","12","18","16:00","3.8","","-1.5","","68","","21","","19","","19.3","","99.70","","","","","","Cloudy"
"2004-12-18 17:00","2004","12","18","17:00","4.1","","-2.3","","63","","21","","19","","19.3","","99.66","","","","","","Cloudy"
"2004-12-18 18:00","2004","12","18","18:00","5.0","","-2.5","","58","","22","","19","","19.3","","99.62","","","","","","Cloudy"
"2004-12-18 19:00","2004","12","18","19:00","5.1","","-1.3","","63","","21","","19","","19.3","","99.53","","","","","","Cloudy"
"2004-12-18 20:00","2004","12","18","20:00","4.6","","0.6","","75","","23","","19","","16.1","","99.57","","","","","","Rain Showers"
"2004-12-18 21:00","2004","12","18","21:00","4.0","","1.1","","81","","23","","19","","12.9","","99.54","","","","","","Rain Showers"
"2004-12-18 22:00","2004","12","18","22:00","3.5","","1.6","","87","","22","","19","","11.3","","99.51","","","","","","Rain Showers"
"2004-12-18 23:00","2004","12","18","23:00"
"2004-12-19 00:00","2004","12","19","00:00"
"2004-12-19 01:00","2004","12","19","01:00"
"2004-12-19 02:00","2004","12","19","02:00"
"2004-12-19 03:00","2004","12","19","03:00"
"2004-12-19 04:00","2004","12","19","04:00"
"2004-12-19 05:00","2004","12","19","05:00"
"2004-12-19 06:00","2004","12","19","06:00","-5.5","","-8.0","","83","","33","","28","","16.1","","99.66","","","","-13","","Snow Showers"
"2004-12-19 07:00","2004","12","19","07:00","-7.3","","-8.8","","89","","33","","28","","3.2","","99.77","","","","-16","","Snow Showers"
"2004-12-19 08:00","2004","12","19","08:00","-8.2","","-11.3","","78","","33","","28","","12.9","","99.85","","","","-17","","Snow Showers"
"2004-12-19 09:00","2004","12","19","09:00","-9.5","","-12.6","","78","","36","","19","","8.0","","100.01","","","","-17","","Snow Showers"
"2004-12-19 10:00","2004","12","19","10:00","-10.4","","-13.2","","80","","34","","19","","8.0","","100.17","","","","-18","","Snow Showers"
"2004-12-19 11:00","2004","12","19","11:00","-11.2","","-13.8","","81","","34","","19","","4.8","","100.24","","","","-19","","Snow Showers"
"2004-12-19 12:00","2004","12","19","12:00","-12.1","","-14.0","","86","","33","","19","","2.4","","100.23","","","","-20","","Snow Showers"
"2004-12-19 13:00","2004","12","19","13:00","-12.2","","-14.9","","80","","33","","19","","12.9","","100.27","","","","-20","","Snow"
"2004-12-19 14:00","2004","12","19","14:00","-12.3","","-16.4","","71","","30","","22","","19.3","","100.33","","","","-21","","Cloudy"
"2004-12-19 15:00","2004","12","19","15:00","-13.4","","-18.2","","67","","32","","19","","24.1","","100.42","","","","-22","","Cloudy"
"2004-12-19 16:00","2004","12","19","16:00","-13.2","","-17.6","","69","","31","","19","","24.1","","100.51","","","","-22","","Snow Showers"
"2004-12-19 17:00","2004","12","19","17:00","-14.0","","-18.1","","71","","34","","28","","19.3","","100.62","","","","-24","","Snow Showers"
"2004-12-19 18:00","2004","12","19","18:00","-14.5","","-19.7","","65","","34","","28","","19.3","","100.72","","","","-25","","Snow Showers"
"2004-12-19 19:00","2004","12","19","19:00","-14.4","","-18.6","","70","","33","","19","","19.3","","100.79","","","","-23","","Snow Showers"
"2004-12-19 20:00","2004","12","19","20:00","-15.0","","-18.8","","73","","35","","19","","9.7","","100.86","","","","-24","","Snow Showers"
"2004-12-19 21:00","2004","12","19","21:00","-15.5","","-18.8","","76","","33","","19","","9.7","","100.87","","","","-25","","Snow Showers"
"2004-12-19 22:00","2004","12","19","22:00","-16.0","","-19.4","","75","","33","","22","","9.7","","100.89","","","","-26","","Snow Showers"
"2004-12-19 23:00","2004","12","19","23:00"
"2004-12-20 00:00","2004","12","20","00:00"
"2004-12-20 01:00","2004","12","20","01:00"
"2004-12-20 02:00","2004","12","20","02:00"
"2004-12-20 03:00","2004","12","20","03:00"
"2004-12-20 04:00","2004","12","20","04:00"
"2004-12-20 05:00","2004","12","20","05:00"
"2004-12-20 06:00","2004","12","20","06:00","-17.0","","-20.6","","74","","33","","19","","8.0","","101.03","","","","-26","","Snow"
"2004-12-20 07:00","2004","12","20","07:00","-16.9","","-18.4","","88","","34","","19","","4.8","","101.04","","","","-26","","Snow"
"2004-12-20 08:00","2004","12","20","08:00","-16.6","","-18.8","","83","","36","","19","","9.7","","101.02","","","","-26","","Snow"
"2004-12-20 09:00","2004","12","20","09:00","-16.3","","-19.3","","78","","35","","15","","8.0","","101.02","","","","-25","","Snow"
"2004-12-20 10:00","2004","12","20","10:00","-15.5","","-18.3","","79","","35","","11","","8.0","","101.03","","","","-22","","Snow"
"2004-12-20 11:00","2004","12","20","11:00","-15.5","","-18.4","","78","","34","","15","","4.8","","101.04","","","","-24","","Snow"
"2004-12-20 12:00","2004","12","20","12:00","-13.5","","-17.8","","70","","35","","11","","8.0","","100.97","","","","-20","","Snow"
"2004-12-20 13:00","2004","12","20","13:00","-14.1","","-17.8","","74","","36","","6","","16.1","","100.93","","","","-18","","Snow"
"2004-12-20 14:00","2004","12","20","14:00","-13.7","","-17.2","","75","","34","","4","","24.1","","100.85","","","","-16","","Snow"
"2004-12-20 15:00","2004","12","20","15:00","-11.9","","-16.6","","68","","19","","6","","24.1","","100.81","","","","-16","","Mainly Clear"
"2004-12-20 16:00","2004","12","20","16:00","-12.6","","-18.1","","63","","21","","9","","24.1","","100.80","","","","-18","","Mostly Cloudy"
"2004-12-20 17:00","2004","12","20","17:00","-12.7","","-18.0","","64","","18","","9","","24.1","","100.78","","","","-18","","Mainly Clear"
"2004-12-20 18:00","2004","12","20","18:00","-13.1","","-17.6","","69","","13","","7","","19.3","","100.70","","","","-18","","Mainly Clear"
"2004-12-20 19:00","2004","12","20","19:00","-13.3","","-16.4","","77","","12","","6","","24.1","","100.65","","","","-17","","Mostly Cloudy"
"2004-12-20 20:00","2004","12","20","20:00","-11.8","","-15.0","","77","","12","","19","","24.1","","100.55","","","","-20","","Cloudy"
"2004-12-20 21:00","2004","12","20","21:00","-11.0","","-13.8","","80","","11","","19","","24.1","","100.45","","","","-19","","Cloudy"
"2004-12-20 22:00","2004","12","20","22:00","-9.9","","-14.1","","71","","12","","15","","19.3","","100.42","","","","-17","","Cloudy"
"2004-12-20 23:00","2004","12","20","23:00"
"2004-12-21 00:00","2004","12","21","00:00"
"2004-12-21 01:00","2004","12","21","01:00"
"2004-12-21 02:00","2004","12","21","02:00"
"2004-12-21 03:00","2004","12","21","03:00"
"2004-12-21 04:00","2004","12","21","04:00"
"2004-12-21 05:00","2004","12","21","05:00"
"2004-12-21 06:00","2004","12","21","06:00","-7.2","","-12.9","","64","","15","","17","","24.1","","99.69","","","","-14","","Mainly Clear"
"2004-12-21 07:00","2004","12","21","07:00","-6.5","","-11.2","","69","","15","","17","","24.1","","99.58","","","","-13","","Mostly Cloudy"
"2004-12-21 08:00","2004","12","21","08:00","-2.3","","-7.5","","67","","22","","22","","24.1","","99.56","","","","-8","","Mostly Cloudy"
"2004-12-21 09:00","2004","12","21","09:00","-1.0","","-6.7","","65","","24","","19","","24.1","","99.60","","","","-6","","Cloudy"
"2004-12-21 10:00","2004","12","21","10:00","-0.3","","-5.7","","67","","23","","22","","24.1","","99.62","","","","-6","","Cloudy"
"2004-12-21 11:00","2004","12","21","11:00","1.2","","-4.6","","65","","27","","22","","24.1","","99.70","","","","","","Cloudy"
"2004-12-21 12:00","2004","12","21","12:00","1.7","","-4.1","","65","","26","","19","","24.1","","99.70","","","","","","Mostly Cloudy"
"2004-12-21 13:00","2004","12","21","13:00","2.4","","-3.6","","65","","24","","19","","24.1","","99.73","","","","","","Cloudy"
"2004-12-21 14:00","2004","12","21","14:00","2.3","","-3.5","","65","","24","","24","","24.1","","99.82","","","","","","Cloudy"
"2004-12-21 15:00","2004","12","21","15:00","2.5","","-2.8","","68","","24","","19","","24.1","","99.91","","","","","","Mostly Cloudy"
"2004-12-21 16:00","2004","12","21","16:00","2.7","","-2.2","","70","","24","","19","","24.1","","100.03","","","","","","Mostly Cloudy"
"2004-12-21 17:00","2004","12","21","17:00","2.3","","-1.6","","75","","22","","19","","19.3","","100.04","","","","","","Mostly Cloudy"
"2004-12-21 18:00","2004","12","21","18:00","1.8","","-1.6","","78","","22","","11","","19.3","","100.10","","","","","","Mostly Cloudy"
"2004-12-21 19:00","2004","12","21","19:00","1.1","","-2.0","","80","","21","","7","","19.3","","100.09","","","","","","Mainly Clear"
"2004-12-21 20:00","2004","12","21","20:00","1.8","","-1.6","","78","","","","0","","19.3","","100.16","","","","","","Mainly Clear"
"2004-12-21 21:00","2004","12","21","21:00","2.1","","-1.1","","79","","19","","9","","19.3","","100.17","","","","","","Mainly Clear"
"2004-12-21 22:00","2004","12","21","22:00","2.6","","-0.3","","81","","20","","13","","19.3","","100.18","","","","","","Mostly Cloudy"
"2004-12-21 23:00","2004","12","21","23:00"
"2004-12-22 00:00","2004","12","22","00:00"
"2004-12-22 01:00","2004","12","22","01:00"
"2004-12-22 02:00","2004","12","22","02:00"
"2004-12-22 03:00","2004","12","22","03:00"
"2004-12-22 04:00","2004","12","22","04:00"
"2004-12-22 05:00","2004","12","22","05:00"
"2004-12-22 06:00","2004","12","22","06:00","1.9","","-1.9","","76","","26","","19","","24.1","","100.55","","","","","","Mostly Cloudy"
"2004-12-22 07:00","2004","12","22","07:00","1.9","","-2.6","","72","","25","","9","","24.1","","100.64","","","","","","Mostly Cloudy"
"2004-12-22 08:00","2004","12","22","08:00","1.7","","-2.9","","71","","27","","19","","19.3","","100.67","","","","","","Cloudy"
"2004-12-22 09:00","2004","12","22","09:00","1.6","","-2.8","","73","","25","","9","","19.3","","100.73","","","","","","Cloudy"
"2004-12-22 10:00","2004","12","22","10:00","2.2","","-2.2","","73","","24","","15","","19.3","","100.80","","","","","","Cloudy"
"2004-12-22 11:00","2004","12","22","11:00","1.7","","-2.8","","72","","28","","9","","19.3","","100.83","","","","","","Cloudy"
"2004-12-22 12:00","2004","12","22","12:00","1.8","","-2.9","","71","","27","","15","","19.3","","100.83","","","","","","Cloudy"
"2004-12-22 13:00","2004","12","22","13:00","1.5","","-3.4","","70","","26","","9","","16.1","","100.79","","","","","","Cloudy"
"2004-12-22 14:00","2004","12","22","14:00","-0.2","","-1.3","","92","","25","","15","","4.8","","100.80","","","","-5","","Snow"
"2004-12-22 15:00","2004","12","22","15:00","-0.8","","-1.1","","98","","30","","13","","3.2","","100.85","","","","-5","","Snow"
"2004-12-22 16:00","2004","12","22","16:00","-1.1","","-1.2","","99","","28","","11","","1.2","","100.93","","","","-5","","Snow"
"2004-12-22 17:00","2004","12","22","17:00","-1.4","","-1.5","","99","","29","","15","","1.2","","100.97","","","","-6","","Snow"
"2004-12-22 18:00","2004","12","22","18:00","-1.9","","-2.0","","99","","25","","7","","1.2","","100.99","","","","-5","","Snow"
"2004-12-22 19:00","2004","12","22","19:00","-2.1","","-2.3","","99","","28","","15","","3.2","","101.08","","","","-7","","Snow"
"2004-12-22 20:00","2004","12","22","20:00","-2.4","","-2.5","","99","","27","","13","","1.6","","101.12","","","","-7","","Snow"
"2004-12-22 21:00","2004","12","22","21:00","-2.4","","-2.4","","100","","28","","6","","1.6","","101.10","","","","-5","","Snow"
"2004-12-22 22:00","2004","12","22","22:00","-2.5","","-2.5","","100","","13","","6","","1.6","","101.01","","","","-5","","Snow"
"2004-12-22 23:00","2004","12","22","23:00"
"2004-12-23 00:00","2004","12","23","00:00"
"2004-12-23 01:00","2004","12","23","01:00"
"2004-12-23 02:00","2004","12","23","02:00"
"2004-12-23 03:00","2004","12","23","03:00"
"2004-12-23 04:00","2004","12","23","04:00"
"2004-12-23 05:00","2004","12","23","05:00"
"2004-12-23 06:00","2004","12","23","06:00","0.2","","0.2","","100","","6","","19","","11.3","","99.66","","","","","","Rain"
"2004-12-23 07:00","2004","12","23","07:00","0.4","","0.4","","100","","6","","19","","8.0","","99.34","","","","","","Rain,Fog"
"2004-12-23 08:00","2004","12","23","08:00","0.8","","0.8","","100","","6","","9","","6.4","","99.11","","","","","","Rain,Fog"
"2004-12-23 09:00","2004","12","23","09:00","1.1","","1.1","","100","","5","","19","","8.0","","98.78","","","","","","Rain,Fog"
"2004-12-23 10:00","2004","12","23","10:00","1.2","","1.2","","100","","36","","9","","3.2","","98.56","","","","","","Rain,Fog"
"2004-12-23 11:00","2004","12","23","11:00","1.7","","1.7","","100","","31","","9","","3.2","","98.51","","","","","","Rain,Fog"
"2004-12-23 12:00","2004","12","23","12:00","0.0","","0.0","","100","","28","","20","","8.0","","98.59","","","","-5","","Rain,Fog"
"2004-12-23 13:00","2004","12","23","13:00","-1.5","","-1.7","","99","","29","","28","","16.1","","98.92","","","","-8","","Cloudy"
"2004-12-23 14:00","2004","12","23","14:00","-2.7","","-3.3","","96","","29","","28","","4.8","","99.25","","","","-10","","Snow"
"2004-12-23 15:00","2004","12","23","15:00","-2.7","","-5.6","","80","","29","","28","","24.1","","99.55","","","","-10","","Mostly Cloudy"
"2004-12-23 16:00","2004","12","23","16:00","-3.2","","-6.8","","76","","27","","28","","24.1","","99.84","","","","-10","","Mainly Clear"
"2004-12-23 17:00","2004","12","23","17:00","-4.0","","-7.3","","78","","28","","37","","24.1","","100.10","","","","-12","","Mostly Cloudy"
"2004-12-23 18:00","2004","12","23","18:00","-4.3","","-8.7","","71","","29","","28","","24.1","","100.31","","","","-12","","Mainly Clear"
"2004-12-23 19:00","2004","12","23","19:00","-4.7","","-8.2","","76","","26","","22","","24.1","","100.44","","","","-12","","Mostly Cloudy"
"2004-12-23 20:00","2004","12","23","20:00","-5.1","","-8.3","","78","","26","","19","","24.1","","100.63","","","","-12","","Mostly Cloudy"
"2004-12-23 21:00","2004","12","23","21:00","-5.8","","-8.2","","83","","26","","22","","24.1","","100.75","","","","-13","","Mainly Clear"
"2004-12-23 22:00","2004","12","23","22:00","-6.8","","-9.7","","80","","26","","22","","24.1","","100.80","","","","-14","","Clear"
"2004-12-23 23:00","2004","12","23","23:00"
"2004-12-24 00:00","2004","12","24","00:00"
"2004-12-24 01:00","2004","12","24","01:00"
"2004-12-24 02:00","2004","12","24","02:00"
"2004-12-24 03:00","2004","12","24","03:00"
"2004-12-24 04:00","2004","12","24","04:00"
"2004-12-24 05:00","2004","12","24","05:00"
"2004-12-24 06:00","2004","12","24","06:00","-9.7","","-12.8","","78","","24","","19","","24.1","","101.14","","","","-17","","Clear"
"2004-12-24 07:00","2004","12","24","07:00","-9.7","","-12.9","","77","","24","","19","","24.1","","101.19","","","","-17","","Mainly Clear"
"2004-12-24 08:00","2004","12","24","08:00","-9.7","","-12.6","","79","","22","","19","","24.1","","101.19","","","","-17","","Mainly Clear"
"2004-12-24 09:00","2004","12","24","09:00","-9.0","","-12.6","","75","","25","","19","","24.1","","101.17","","","","-16","","Mainly Clear"
"2004-12-24 10:00","2004","12","24","10:00","-7.7","","-12.7","","67","","28","","11","","24.1","","101.12","","","","-13","","Mostly Cloudy"
"2004-12-24 11:00","2004","12","24","11:00","-7.4","","-12.3","","68","","28","","19","","24.1","","101.11","","","","-14","","Mostly Cloudy"
"2004-12-24 12:00","2004","12","24","12:00","-6.8","","-11.9","","67","","23","","19","","24.1","","101.06","","","","-14","","Mostly Cloudy"
"2004-12-24 13:00","2004","12","24","13:00","-6.4","","-11.8","","65","","24","","19","","24.1","","100.97","","","","-13","","Snow Showers"
"2004-12-24 14:00","2004","12","24","14:00","-6.7","","-11.9","","66","","28","","19","","24.1","","100.94","","","","-14","","Snow Showers"
"2004-12-24 15:00","2004","12","24","15:00","-6.8","","-11.5","","69","","28","","19","","24.1","","100.89","","","","-14","","Mainly Clear"
"2004-12-24 16:00","2004","12","24","16:00","-7.2","","-12.2","","67","","27","","22","","24.1","","100.92","","","","-15","","Mainly Clear"
"2004-12-24 17:00","2004","12","24","17:00","-8.2","","-13.2","","67","","26","","19","","24.1","","100.95","","","","-15","","Mainly Clear"
"2004-12-24 18:00","2004","12","24","18:00","-9.1","","-13.7","","69","","26","","19","","24.1","","100.96","","","","-17","","Mainly Clear"
"2004-12-24 19:00","2004","12","24","19:00","-10.0","","-15.3","","65","","26","","19","","24.1","","101.01","","","","-18","","Clear"
"2004-12-24 20:00","2004","12","24","20:00","-10.7","","-15.3","","69","","26","","19","","24.1","","101.04","","","","-19","","Mainly Clear"
"2004-12-24 21:00","2004","12","24","21:00","-10.9","","-15.1","","71","","26","","22","","24.1","","101.05","","","","-19","","Mainly Clear"
"2004-12-24 22:00","2004","12","24","22:00","-10.9","","-16.4","","64","","29","","28","","24.1","","101.07","","","","-20","","Mainly Clear"
"2004-12-24 23:00","2004","12","24","23:00"
"2004-12-25 00:00","2004","12","25","00:00"
"2004-12-25 01:00","2004","12","25","01:00"
"2004-12-25 02:00","2004","12","25","02:00"
"2004-12-25 03:00","2004","12","25","03:00"
"2004-12-25 04:00","2004","12","25","04:00"
"2004-12-25 05:00","2004","12","25","05:00"
"2004-12-25 06:00","2004","12","25","06:00","-14.8","","-17.4","","81","","26","","9","","24.1","","101.34","","","","-21","","Mainly Clear"
"2004-12-25 07:00","2004","12","25","07:00","-15.2","","-17.4","","83","","23","","9","","24.1","","101.37","","","","-21","","Mainly Clear"
"2004-12-25 08:00","2004","12","25","08:00","-14.6","","-17.2","","81","","23","","9","","24.1","","101.40","","","","-20","","Mostly Cloudy"
"2004-12-25 09:00","2004","12","25","09:00","-13.4","","-16.7","","76","","23","","9","","24.1","","101.51","","","","-19","","Mostly Cloudy"
"2004-12-25 10:00","2004","12","25","10:00","-11.6","","-15.7","","72","","23","","9","","24.1","","101.59","","","","-17","","Mostly Cloudy"
"2004-12-25 11:00","2004","12","25","11:00","-11.3","","-16.0","","68","","19","","7","","24.1","","101.63","","","","-16","","Mostly Cloudy"
"2004-12-25 12:00","2004","12","25","12:00","-10.5","","-15.5","","67","","18","","7","","24.1","","101.57","","","","-15","","Mostly Cloudy"
"2004-12-25 13:00","2004","12","25","13:00","-9.1","","-15.4","","60","","","","0","","24.1","","101.47","","","","","","Mostly Cloudy"
"2004-12-25 14:00","2004","12","25","14:00","-8.7","","-14.9","","61","","9","","6","","24.1","","101.41","","","","-12","","Cloudy"
"2004-12-25 15:00","2004","12","25","15:00","-7.7","","-13.4","","64","","17","","4","","19.3","","101.41","","","","-10","","Mostly Cloudy"
"2004-12-25 16:00","2004","12","25","16:00","-8.4","","-14.4","","62","","12","","9","","24.1","","101.37","","","","-13","","Mostly Cloudy"
"2004-12-25 17:00","2004","12","25","17:00","-8.7","","-13.6","","68","","7","","7","","24.1","","101.42","","","","-13","","Cloudy"
"2004-12-25 18:00","2004","12","25","18:00","-8.7","","-13.5","","68","","8","","11","","19.3","","101.44","","","","-14","","Cloudy"
"2004-12-25 19:00","2004","12","25","19:00","-8.7","","-13.5","","68","","8","","13","","19.3","","101.48","","","","-15","","Cloudy"
"2004-12-25 20:00","2004","12","25","20:00","-8.5","","-13.2","","69","","10","","11","","19.3","","101.47","","","","-14","","Cloudy"
"2004-12-25 21:00","2004","12","25","21:00","-7.9","","-13.2","","66","","10","","9","","19.3","","101.45","","","","-12","","Cloudy"
"2004-12-25 22:00","2004","12","25","22:00","-7.9","","-14.5","","59","","10","","7","","19.3","","101.43","","","","-12","","Cloudy"
"2004-12-25 23:00","2004","12","25","23:00"
"2004-12-26 00:00","2004","12","26","00:00"
"2004-12-26 01:00","2004","12","26","01:00"
"2004-12-26 02:00","2004","12","26","02:00"
"2004-12-26 03:00","2004","12","26","03:00"
"2004-12-26 04:00","2004","12","26","04:00"
"2004-12-26 05:00","2004","12","26","05:00"
"2004-12-26 06:00","2004","12","26","06:00","-7.2","","-11.5","","71","","12","","7","","24.1","","101.32","","","","-11","","Cloudy"
"2004-12-26 07:00","2004","12","26","07:00","-6.9","","-11.5","","70","","12","","4","","24.1","","101.32","","","","-9","","Mostly Cloudy"
"2004-12-26 08:00","2004","12","26","08:00","-7.3","","-10.8","","76","","","","0","","24.1","","101.26","","","","","","Mostly Cloudy"
"2004-12-26 09:00","2004","12","26","09:00","-6.8","","-10.6","","74","","","","0","","24.1","","101.28","","","","","","Cloudy"
"2004-12-26 10:00","2004","12","26","10:00","-6.1","","-10.3","","72","","6","","7","","24.1","","101.34","","","","-9","","Cloudy"
"2004-12-26 11:00","2004","12","26","11:00","-5.6","","-10.3","","69","","6","","9","","24.1","","101.34","","","","-10","","Cloudy"
"2004-12-26 12:00","2004","12","26","12:00","-5.1","","-9.9","","69","","7","","9","","9.7","","101.31","","","","-9","","Snow Showers"
"2004-12-26 13:00","2004","12","26","13:00","-4.9","","-8.7","","75","","12","","9","","16.1","","101.20","","","","-9","","Snow Showers"
"2004-12-26 14:00","2004","12","26","14:00","-4.7","","-8.9","","72","","6","","9","","16.1","","101.21","","","","-9","","Snow Showers"
"2004-12-26 15:00","2004","12","26","15:00","-5.0","","-8.5","","76","","7","","19","","12.9","","101.23","","","","-11","","Snow Showers"
"2004-12-26 16:00","2004","12","26","16:00","-5.4","","-7.3","","86","","8","","19","","4.0","","101.32","","","","-12","","Snow Showers"
"2004-12-26 17:00","2004","12","26","17:00","-5.7","","-6.5","","94","","5","","19","","0.8","","101.39","","","","-12","","Moderate Snow Showers"
"2004-12-26 18:00","2004","12","26","18:00","-6.1","","-8.0","","86","","4","","28","","6.4","","101.47","","","","-14","","Snow Showers"
"2004-12-26 19:00","2004","12","26","19:00","-6.7","","-8.8","","85","","4","","26","","6.4","","101.59","","","","-15","","Snow Showers"
"2004-12-26 20:00","2004","12","26","20:00","-7.2","","-10.1","","80","","3","","26","","9.7","","101.66","","","","-15","","Snow Showers"
"2004-12-26 21:00","2004","12","26","21:00","-7.5","","-10.9","","77","","4","","28","","16.1","","101.70","","","","-16","","Snow Showers"
"2004-12-26 22:00","2004","12","26","22:00","-7.8","","-11.0","","78","","2","","20","","12.9","","101.80","","","","-15","","Snow Showers"
"2004-12-26 23:00","2004","12","26","23:00"
"2004-12-27 00:00","2004","12","27","00:00"
"2004-12-27 01:00","2004","12","27","01:00"
"2004-12-27 02:00","2004","12","27","02:00"
"2004-12-27 03:00","2004","12","27","03:00"
"2004-12-27 04:00","2004","12","27","04:00"
"2004-12-27 05:00","2004","12","27","05:00"
"2004-12-27 06:00","2004","12","27","06:00","-10.1","","-13.2","","78","","36","","15","","24.1","","102.30","","","","-17","","Mostly Cloudy"
"2004-12-27 07:00","2004","12","27","07:00","-10.5","","-13.7","","77","","36","","19","","24.1","","102.40","","","","-18","","Mainly Clear"
"2004-12-27 08:00","2004","12","27","08:00","-11.2","","-14.2","","78","","36","","15","","24.1","","102.44","","","","-18","","Mainly Clear"
"2004-12-27 09:00","2004","12","27","09:00","-9.9","","-16.2","","60","","1","","9","","24.1","","102.54","","","","-15","","Mainly Clear"
"2004-12-27 10:00","2004","12","27","10:00","-8.9","","-15.9","","57","","1","","19","","24.1","","102.57","","","","-16","","Clear"
"2004-12-27 11:00","2004","12","27","11:00","-8.6","","-15.6","","57","","35","","15","","24.1","","102.62","","","","-15","","Clear"
"2004-12-27 12:00","2004","12","27","12:00","-8.2","","-16.2","","52","","34","","11","","24.1","","102.55","","","","-13","","Mainly Clear"
"2004-12-27 13:00","2004","12","27","13:00","-7.9","","-16.0","","52","","31","","11","","24.1","","102.51","","","","-13","","Mainly Clear"
"2004-12-27 14:00","2004","12","27","14:00","-7.6","","-16.1","","51","","31","","11","","24.1","","102.48","","","","-13","","Mainly Clear"
"2004-12-27 15:00","2004","12","27","15:00","-8.0","","-16.4","","51","","26","","19","","24.1","","102.51","","","","-15","","Mainly Clear"
"2004-12-27 16:00","2004","12","27","16:00","-8.7","","-18.1","","47","","24","","17","","24.1","","102.53","","","","-16","","Mostly Cloudy"
"2004-12-27 17:00","2004","12","27","17:00","-10.1","","-18.7","","49","","23","","15","","24.1","","102.52","","","","-17","","Mainly Clear"
"2004-12-27 18:00","2004","12","27","18:00","-10.5","","-17.3","","57","","25","","19","","24.1","","102.55","","","","-18","","Clear"
"2004-12-27 19:00","2004","12","27","19:00","-10.9","","-16.2","","65","","25","","13","","24.1","","102.52","","","","-17","","Clear"
"2004-12-27 20:00","2004","12","27","20:00","-11.9","","-16.7","","67","","24","","15","","24.1","","102.52","","","","-19","","Clear"
"2004-12-27 21:00","2004","12","27","21:00","-13.4","","-17.1","","74","","24","","11","","24.1","","102.46","","","","-20","","Clear"
"2004-12-27 22:00","2004","12","27","22:00","-12.3","","-16.3","","72","","24","","11","","24.1","","102.42","","","","-18","","Clear"
"2004-12-27 23:00","2004","12","27","23:00"
"2004-12-28 00:00","2004","12","28","00:00"
"2004-12-28 01:00","2004","12","28","01:00"
"2004-12-28 02:00","2004","12","28","02:00"
"2004-12-28 03:00","2004","12","28","03:00"
"2004-12-28 04:00","2004","12","28","04:00"
"2004-12-28 05:00","2004","12","28","05:00"
"2004-12-28 06:00","2004","12","28","06:00","-7.4","","-11.9","","70","","21","","9","","24.1","","101.99","","","","-12","","Cloudy"
"2004-12-28 07:00","2004","12","28","07:00","-7.5","","-9.7","","84","","20","","9","","3.2","","101.94","","","","-12","","Snow"
"2004-12-28 08:00","2004","12","28","08:00","-6.1","","-7.0","","93","","20","","19","","4.8","","101.83","","","","-13","","Snow"
"2004-12-28 09:00","2004","12","28","09:00","-3.9","","-7.0","","79","","21","","19","","19.3","","101.75","","","","-10","","Snow"
"2004-12-28 10:00","2004","12","28","10:00","-3.6","","-7.6","","74","","19","","22","","24.1","","101.63","","","","-10","","Cloudy"
"2004-12-28 11:00","2004","12","28","11:00","-2.6","","-8.1","","66","","20","","19","","24.1","","101.45","","","","-8","","Cloudy"
"2004-12-28 12:00","2004","12","28","12:00","-2.2","","-8.4","","62","","19","","19","","24.1","","101.24","","","","-8","","Cloudy"
"2004-12-28 13:00","2004","12","28","13:00","-1.2","","-8.4","","58","","20","","22","","24.1","","101.07","","","","-7","","Cloudy"
"2004-12-28 14:00","2004","12","28","14:00","-0.3","","-7.9","","56","","21","","19","","24.1","","100.91","","","","-5","","Cloudy"
"2004-12-28 15:00","2004","12","28","15:00","1.1","","-8.2","","50","","22","","22","","24.1","","100.77","","","","","","Cloudy"
"2004-12-28 16:00","2004","12","28","16:00","1.5","","-7.7","","50","","25","","22","","24.1","","100.74","","","","","","Cloudy"
"2004-12-28 17:00","2004","12","28","17:00","1.6","","-6.4","","55","","24","","19","","24.1","","100.67","","","","","","Cloudy"
"2004-12-28 18:00","2004","12","28","18:00","2.2","","-5.1","","58","","24","","22","","24.1","","100.59","","","","","","Cloudy"
"2004-12-28 19:00","2004","12","28","19:00","2.5","","-4.2","","61","","24","","24","","24.1","","100.53","","","","","","Cloudy"
"2004-12-28 20:00","2004","12","28","20:00","2.8","","-3.5","","63","","25","","22","","24.1","","100.55","","","","","","Cloudy"
"2004-12-28 21:00","2004","12","28","21:00","2.8","","-2.7","","67","","24","","22","","24.1","","100.52","","","","","","Cloudy"
"2004-12-28 22:00","2004","12","28","22:00","2.7","","-2.1","","71","","25","","24","","19.3","","100.51","","","","","","Cloudy"
"2004-12-28 23:00","2004","12","28","23:00"
"2004-12-29 00:00","2004","12","29","00:00"
"2004-12-29 01:00","2004","12","29","01:00"
"2004-12-29 02:00","2004","12","29","02:00"
"2004-12-29 03:00","2004","12","29","03:00"
"2004-12-29 04:00","2004","12","29","04:00"
"2004-12-29 05:00","2004","12","29","05:00"
"2004-12-29 06:00","2004","12","29","06:00","2.4","","-0.9","","79","","24","","19","","16.1","","100.64","","","","","","Cloudy"
"2004-12-29 07:00","2004","12","29","07:00","2.3","","-0.7","","81","","25","","19","","16.1","","100.73","","","","","","Cloudy"
"2004-12-29 08:00","2004","12","29","08:00","2.3","","-0.3","","83","","25","","19","","12.9","","100.82","","","","","","Cloudy"
"2004-12-29 09:00","2004","12","29","09:00","2.3","","-0.2","","84","","25","","19","","11.3","","100.87","","","","","","Cloudy"
"2004-12-29 10:00","2004","12","29","10:00","2.3","","-0.1","","84","","26","","19","","9.7","","100.93","","","","","","Haze"
"2004-12-29 11:00","2004","12","29","11:00","2.3","","0.0","","85","","26","","15","","8.0","","101.00","","","","","","Haze"
"2004-12-29 12:00","2004","12","29","12:00","2.3","","0.1","","85","","26","","9","","8.0","","100.97","","","","","","Haze"
"2004-12-29 13:00","2004","12","29","13:00","2.1","","0.2","","87","","28","","19","","6.4","","100.97","","","","","","Fog"
"2004-12-29 14:00","2004","12","29","14:00","2.0","","0.4","","89","","27","","15","","8.0","","101.01","","","","","","Fog"
"2004-12-29 15:00","2004","12","29","15:00","2.2","","0.1","","86","","26","","7","","8.0","","101.05","","","","","","Haze"
"2004-12-29 16:00","2004","12","29","16:00","2.2","","-0.7","","81","","28","","17","","9.7","","101.10","","","","","","Haze"
"2004-12-29 17:00","2004","12","29","17:00","1.9","","-0.9","","82","","25","","6","","9.7","","101.17","","","","","","Haze"
"2004-12-29 18:00","2004","12","29","18:00","1.8","","-0.5","","85","","24","","7","","9.7","","101.17","","","","","","Haze"
"2004-12-29 19:00","2004","12","29","19:00","1.7","","-0.5","","85","","27","","6","","9.7","","101.33","","","","","","Haze"
"2004-12-29 20:00","2004","12","29","20:00","1.2","","-0.5","","88","","","","0","","9.7","","101.35","","","","","","Haze"
"2004-12-29 21:00","2004","12","29","21:00","0.8","","-0.6","","90","","","","0","","9.7","","101.38","","","","","","Haze"
"2004-12-29 22:00","2004","12","29","22:00","0.6","","-0.6","","92","","","","0","","9.7","","101.46","","","","","","Fog"
"2004-12-29 23:00","2004","12","29","23:00"
"2004-12-30 00:00","2004","12","30","00:00"
"2004-12-30 01:00","2004","12","30","01:00"
"2004-12-30 02:00","2004","12","30","02:00"
"2004-12-30 03:00","2004","12","30","03:00"
"2004-12-30 04:00","2004","12","30","04:00"
"2004-12-30 05:00","2004","12","30","05:00"
"2004-12-30 06:00","2004","12","30","06:00","0.6","","-1.3","","87","","9","","6","","16.1","","101.57","","","","","","Cloudy"
"2004-12-30 07:00","2004","12","30","07:00","0.8","","-1.0","","88","","8","","9","","16.1","","101.62","","","","","","Cloudy"
"2004-12-30 08:00","2004","12","30","08:00","0.8","","-1.1","","87","","8","","9","","8.0","","101.63","","","","","","Fog"
"2004-12-30 09:00","2004","12","30","09:00","1.5","","-1.1","","83","","18","","9","","8.0","","101.67","","","","","","Haze"
"2004-12-30 10:00","2004","12","30","10:00","2.4","","-1.1","","78","","13","","15","","9.7","","101.68","","","","","","Haze"
"2004-12-30 11:00","2004","12","30","11:00","2.9","","-0.6","","78","","12","","13","","9.7","","101.66","","","","","","Haze"
"2004-12-30 12:00","2004","12","30","12:00","3.5","","-0.4","","76","","10","","9","","9.7","","101.57","","","","","","Haze"
"2004-12-30 13:00","2004","12","30","13:00","3.4","","-0.2","","77","","9","","13","","12.9","","101.46","","","","","","Mostly Cloudy"
"2004-12-30 14:00","2004","12","30","14:00","4.4","","0.0","","73","","7","","13","","12.9","","101.44","","","","","","Mostly Cloudy"
"2004-12-30 15:00","2004","12","30","15:00","4.7","","0.3","","73","","7","","7","","8.0","","101.41","","","","","","Haze"
"2004-12-30 16:00","2004","12","30","16:00","3.4","","0.3","","80","","6","","4","","6.4","","101.40","","","","","","Haze"
"2004-12-30 17:00","2004","12","30","17:00","2.9","","0.4","","84","","6","","7","","6.4","","101.36","","","","","","Haze"
"2004-12-30 18:00","2004","12","30","18:00","2.6","","0.6","","87","","","","0","","8.0","","101.32","","","","","","Fog"
"2004-12-30 19:00","2004","12","30","19:00","5.4","","2.4","","81","","15","","9","","11.3","","101.28","","","","","","Cloudy"
"2004-12-30 20:00","2004","12","30","20:00","5.0","","2.3","","83","","13","","7","","11.3","","101.20","","","","","","Cloudy"
"2004-12-30 21:00","2004","12","30","21:00","5.4","","2.5","","82","","14","","15","","12.9","","101.14","","","","","","Cloudy"
"2004-12-30 22:00","2004","12","30","22:00","4.2","","2.3","","87","","12","","9","","12.9","","101.03","","","","","","Cloudy"
"2004-12-30 23:00","2004","12","30","23:00"
"2004-12-31 00:00","2004","12","31","00:00"
"2004-12-31 01:00","2004","12","31","01:00"
"2004-12-31 02:00","2004","12","31","02:00"
"2004-12-31 03:00","2004","12","31","03:00"
"2004-12-31 04:00","2004","12","31","04:00"
"2004-12-31 05:00","2004","12","31","05:00"
"2004-12-31 06:00","2004","12","31","06:00","9.5","","8.0","","90","","21","","28","","16.1","","100.27","","","","","","Rain"
"2004-12-31 07:00","2004","12","31","07:00","8.9","","8.0","","94","","21","","28","","12.9","","100.33","","","","","","Rain"
"2004-12-31 08:00","2004","12","31","08:00","8.6","","7.7","","94","","22","","28","","11.3","","100.33","","","","","","Rain"
"2004-12-31 09:00","2004","12","31","09:00","8.8","","8.1","","95","","22","","28","","12.9","","100.36","","","","","","Rain"
"2004-12-31 10:00","2004","12","31","10:00","9.3","","8.4","","94","","22","","28","","16.1","","100.37","","","","","","Cloudy"
"2004-12-31 11:00","2004","12","31","11:00","9.5","","8.3","","92","","22","","28","","16.1","","100.35","","","","","","Cloudy"
"2004-12-31 12:00","2004","12","31","12:00","10.4","","8.5","","88","","23","","37","","16.1","","100.25","","","","","","Cloudy"
"2004-12-31 13:00","2004","12","31","13:00","11.3","","8.8","","85","","23","","37","","16.1","","100.18","","","","","","Cloudy"
"2004-12-31 14:00","2004","12","31","14:00","11.2","","9.0","","86","","24","","28","","16.1","","100.17","","","","","","Cloudy"
"2004-12-31 15:00","2004","12","31","15:00","10.4","","9.2","","92","","22","","28","","6.4","","100.18","","","","","","Fog"
"2004-12-31 16:00","2004","12","31","16:00","11.1","","9.6","","90","","22","","28","","4.8","","100.21","","","","","","Drizzle,Fog"
"2004-12-31 17:00","2004","12","31","17:00","11.3","","9.0","","86","","22","","28","","12.9","","100.24","","","","","","Mainly Clear"
"2004-12-31 18:00","2004","12","31","18:00","11.2","","8.9","","86","","23","","28","","16.1","","100.27","","","","","","Mainly Clear"
"2004-12-31 19:00","2004","12","31","19:00","11.5","","8.9","","84","","24","","28","","16.1","","100.30","","","","","","Mostly Cloudy"
"2004-12-31 20:00","2004","12","31","20:00","11.4","","8.8","","84","","23","","37","","16.1","","100.31","","","","","","Cloudy"
"2004-12-31 21:00","2004","12","31","21:00","11.4","","8.8","","84","","23","","33","","12.9","","100.33","","","","","","Cloudy"
"2004-12-31 22:00","2004","12","31","22:00","10.8","","8.7","","87","","24","","33","","16.1","","100.39","","","","","","Cloudy"
"2004-12-31 23:00","2004","12","31","23:00"
