"Station Name","ST CATHARINES A"
"Province","ONTARIO"
"Latitude","43.20"
"Longitude","-79.17"
"Elevation","97.80"
"Climate Identifier","6137287"
"WMO Identifier",""
"TC Identifier","YSN"
"All times are specified in Local Standard Time (LST). Add 1 hour to adjust for Daylight Saving Time where and when it is observed."

"Legend"
"E","Estimated"
"M","Missing"
"NA","Not Available"

"Date/Time","Year","Month","Day","Time","Temp (°C)","Temp Flag","Dew Point Temp (°C)","Dew Point Temp Flag","Rel Hum (%)","Rel Hum Flag","Wind Dir (10s deg)","Wind Dir Flag","Wind Spd (km/h)","Wind Spd Flag","Visibility (km)","Visibility Flag","Stn Press (kPa)","Stn Press Flag","Hmdx","Hmdx Flag","Wind Chill","Wind Chill Flag","Weather"
"2001-02-01 00:00","2001","02","01","00:00"
"2001-02-01 01:00","2001","02","01","01:00"
"2001-02-01 02:00","2001","02","01","02:00"
"2001-02-01 03:00","2001","02","01","03:00"
"2001-02-01 04:00","2001","02","01","04:00"
"2001-02-01 05:00","2001","02","01","05:00"
"2001-02-01 06:00","2001","02","01","06:00","0.4","","-2.3","","82","","30","","9","","24.1","","100.18","","","","","","Cloudy"
"2001-02-01 07:00","2001","02","01","07:00","0.1","","-3.7","","76","","31","","9","","24.1","","100.32","","","","","","Mostly Cloudy"
"2001-02-01 08:00","2001","02","01","08:00","-0.7","","-4.1","","78","","27","","9","","24.1","","100.42","","","","-4","","Mostly Cloudy"
"2001-02-01 09:00","2001","02","01","09:00","0.4","","-3.7","","74","","25","","9","","24.1","","100.52","","","","","","Mostly Cloudy"
"2001-02-01 10:00","2001","02","01","10:00","0.8","","-3.6","","72","","25","","19","","19.3","","100.62","","","","","","Snow Showers"
"2001-02-01 11:00","2001","02","01","11:00","0.7","","-3.1","","76","","26","","11","","16.1","","100.65","","","","","","Snow Showers"
"2001-02-01 12:00","2001","02","01","12:00","1.7","","-3.5","","68","","25","","15","","24.1","","100.65","","","","","","Cloudy"
"2001-02-01 13:00","2001","02","01","13:00","1.8","","-2.4","","74","","31","","7","","24.1","","100.65","","","","","","Cloudy"
"2001-02-01 14:00","2001","02","01","14:00","2.9","","-2.2","","69","","21","","15","","24.1","","100.62","","","","","","Cloudy"
"2001-02-01 15:00","2001","02","01","15:00","3.8","","-2.2","","65","","23","","19","","24.1","","100.62","","","","","","Mostly Cloudy"
"2001-02-01 16:00","2001","02","01","16:00","3.3","","-2.2","","67","","22","","19","","24.1","","100.65","","","","","","Mostly Cloudy"
"2001-02-01 17:00","2001","02","01","17:00","1.5","","-1.5","","80","","21","","19","","16.1","","100.69","","","","","","Mostly Cloudy"
"2001-02-01 18:00","2001","02","01","18:00","1.1","","-1.9","","80","","22","","19","","16.1","","100.72","","","","","","Mostly Cloudy"
"2001-02-01 19:00","2001","02","01","19:00","1.0","","-2.5","","77","","22","","19","","16.1","","100.79","","","","","","Mostly Cloudy"
"2001-02-01 20:00","2001","02","01","20:00","0.1","","-2.4","","83","","21","","19","","16.1","","100.79","","","","","","Mostly Cloudy"
"2001-02-01 21:00","2001","02","01","21:00","0.0","","-2.5","","83","","20","","9","","12.9","","100.72","","","","-3","","Mostly Cloudy"
"2001-02-01 22:00","2001","02","01","22:00","-0.2","","-2.7","","83","","19","","9","","12.9","","100.69","","","","-3","","Mostly Cloudy"
"2001-02-01 23:00","2001","02","01","23:00"
"2001-02-02 00:00","2001","02","02","00:00"
"2001-02-02 01:00","2001","02","02","01:00"
"2001-02-02 02:00","2001","02","02","02:00"
"2001-02-02 03:00","2001","02","02","03:00"
"2001-02-02 04:00","2001","02","02","04:00"
"2001-02-02 05:00","2001","02","02","05:00"
"2001-02-02 06:00","2001","02","02","06:00","0.8","","-2.7","","77","","20","","9","","12.9","","100.08","","","","","","Cloudy"
"2001-02-02 07:00","2001","02","02","07:00","-0.4","","-1.6","","92","","20","","11","","4.8","","100.02","","","","-4","","Snow Showers"
"2001-02-02 08:00","2001","02","02","08:00","-0.3","","-0.9","","96","","23","","19","","2.8","","99.98","","","","-5","","Snow Showers"
"2001-02-02 09:00","2001","02","02","09:00","-0.5","","-1.8","","91","","22","","19","","16.1","","99.95","","","","-6","","Snow Showers"
"2001-02-02 10:00","2001","02","02","10:00","-0.3","","-2.8","","83","","26","","19","","19.3","","99.92","","","","-5","","Mostly Cloudy"
"2001-02-02 11:00","2001","02","02","11:00","-2.7","","-5.2","","83","","28","","19","","19.3","","100.02","","","","-8","","Mostly Cloudy"
"2001-02-02 12:00","2001","02","02","12:00","-4.5","","-9.4","","69","","26","","19","","24.1","","100.05","","","","-11","","Mostly Cloudy"
"2001-02-02 13:00","2001","02","02","13:00","-6.1","","-9.8","","75","","27","","28","","8.0","","100.05","","","","-14","","Snow Showers"
"2001-02-02 14:00","2001","02","02","14:00","-6.2","","-12.5","","61","","25","","19","","24.1","","100.15","","","","-13","","Mostly Cloudy"
"2001-02-02 15:00","2001","02","02","15:00","-5.6","","-12.6","","58","","25","","19","","24.1","","100.18","","","","-12","","Mainly Clear"
"2001-02-02 16:00","2001","02","02","16:00","-5.4","","-11.8","","61","","25","","19","","24.1","","100.22","","","","-12","","Mainly Clear"
"2001-02-02 17:00","2001","02","02","17:00","-5.3","","-10.1","","69","","24","","19","","24.1","","100.25","","","","-12","","Mainly Clear"
"2001-02-02 18:00","2001","02","02","18:00","-5.4","","-10.3","","68","","25","","19","","24.1","","100.35","","","","-12","","Mainly Clear"
"2001-02-02 19:00","2001","02","02","19:00","-5.1","","-10.3","","67","","25","","19","","24.1","","100.45","","","","-12","","Mostly Cloudy"
"2001-02-02 20:00","2001","02","02","20:00","-5.5","","-10.1","","70","","26","","20","","24.1","","100.52","","","","-12","","Mainly Clear"
"2001-02-02 21:00","2001","02","02","21:00","-5.8","","-10.1","","72","","26","","22","","24.1","","100.65","","","","-13","","Mostly Cloudy"
"2001-02-02 22:00","2001","02","02","22:00","-5.9","","-10.2","","72","","26","","22","","24.1","","100.69","","","","-13","","Mostly Cloudy"
"2001-02-02 23:00","2001","02","02","23:00"
"2001-02-03 00:00","2001","02","03","00:00"
"2001-02-03 01:00","2001","02","03","01:00"
"2001-02-03 02:00","2001","02","03","02:00"
"2001-02-03 03:00","2001","02","03","03:00"
"2001-02-03 04:00","2001","02","03","04:00"
"2001-02-03 05:00","2001","02","03","05:00"
"2001-02-03 06:00","2001","02","03","06:00","-7.5","","-11.4","","74","","29","","19","","48.3","","101.12","","","","-15","","Cloudy"
"2001-02-03 07:00","2001","02","03","07:00","-7.7","","-11.8","","72","","30","","15","","48.3","","101.19","","","","-14","","Mostly Cloudy"
"2001-02-03 08:00","2001","02","03","08:00","-7.9","","-11.4","","76","","29","","19","","48.3","","101.29","","","","-15","","Mostly Cloudy"
"2001-02-03 09:00","2001","02","03","09:00","-8.1","","-11.1","","79","","24","","9","","24.1","","101.39","","","","-13","","Snow"
"2001-02-03 10:00","2001","02","03","10:00","-6.8","","-11.0","","72","","26","","15","","16.1","","101.43","","","","-13","","Snow Showers"
"2001-02-03 11:00","2001","02","03","11:00","-6.7","","-11.9","","66","","26","","11","","24.1","","101.46","","","","-12","","Snow Showers"
"2001-02-03 12:00","2001","02","03","12:00","-6.2","","-12.2","","62","","26","","15","","19.3","","101.43","","","","-12","","Snow Showers"
"2001-02-03 13:00","2001","02","03","13:00","-5.4","","-11.7","","61","","27","","7","","24.1","","101.39","","","","-9","","Snow Showers"
"2001-02-03 14:00","2001","02","03","14:00","-5.4","","-11.6","","62","","26","","9","","19.3","","101.36","","","","-9","","Snow Showers"
"2001-02-03 15:00","2001","02","03","15:00","-5.4","","-8.9","","76","","20","","4","","19.3","","101.36","","","","-7","","Snow Showers"
"2001-02-03 16:00","2001","02","03","16:00","-5.0","","-10.2","","67","","20","","9","","24.1","","101.33","","","","-9","","Snow Showers"
"2001-02-03 17:00","2001","02","03","17:00","-5.7","","-8.6","","80","","22","","11","","19.3","","101.39","","","","-10","","Snow Showers"
"2001-02-03 18:00","2001","02","03","18:00","-5.7","","-9.2","","76","","20","","7","","24.1","","101.39","","","","-9","","Mostly Cloudy"
"2001-02-03 19:00","2001","02","03","19:00","-5.9","","-9.7","","74","","","","0","","24.1","","101.43","","","","","","Mostly Cloudy"
"2001-02-03 20:00","2001","02","03","20:00","-6.6","","-10.1","","76","","","","0","","24.1","","101.39","","","","","","Mostly Cloudy"
"2001-02-03 21:00","2001","02","03","21:00","-7.2","","-10.3","","78","","","","0","","24.1","","101.33","","","","","","Mainly Clear"
"2001-02-03 22:00","2001","02","03","22:00","-7.8","","-10.8","","79","","","","0","","24.1","","101.26","","","","","","Mainly Clear"
"2001-02-03 23:00","2001","02","03","23:00"
"2001-02-04 00:00","2001","02","04","00:00"
"2001-02-04 01:00","2001","02","04","01:00"
"2001-02-04 02:00","2001","02","04","02:00"
"2001-02-04 03:00","2001","02","04","03:00"
"2001-02-04 04:00","2001","02","04","04:00"
"2001-02-04 05:00","2001","02","04","05:00"
"2001-02-04 06:00","2001","02","04","06:00","-3.1","","-9.2","","63","","15","","9","","48.3","","100.99","","","","-7","","Cloudy"
"2001-02-04 07:00","2001","02","04","07:00","-2.6","","-9.0","","61","","18","","9","","24.1","","100.99","","","","-6","","Cloudy"
"2001-02-04 08:00","2001","02","04","08:00","-1.6","","-9.1","","57","","18","","19","","24.1","","100.92","","","","-7","","Cloudy"
"2001-02-04 09:00","2001","02","04","09:00","-1.1","","-8.0","","59","","17","","15","","24.1","","100.92","","","","-6","","Snow"
"2001-02-04 10:00","2001","02","04","10:00","-0.8","","-6.5","","65","","16","","2","","12.9","","100.92","","","","-1","","Snow"
"2001-02-04 11:00","2001","02","04","11:00","0.0","","-3.6","","77","","20","","9","","16.1","","100.89","","","","-3","","Snow"
"2001-02-04 12:00","2001","02","04","12:00","1.2","","-4.4","","66","","21","","11","","24.1","","100.79","","","","","","Snow"
"2001-02-04 13:00","2001","02","04","13:00","2.2","","-3.0","","68","","22","","19","","24.1","","100.72","","","","","","Cloudy"
"2001-02-04 14:00","2001","02","04","14:00","2.4","","-3.3","","66","","22","","9","","16.1","","100.65","","","","","","Snow"
"2001-02-04 15:00","2001","02","04","15:00","1.9","","-1.4","","79","","21","","15","","9.7","","100.62","","","","","","Snow"
"2001-02-04 16:00","2001","02","04","16:00","2.4","","-0.7","","80","","15","","7","","24.1","","100.59","","","","","","Cloudy"
"2001-02-04 17:00","2001","02","04","17:00","2.6","","-0.6","","79","","14","","2","","24.1","","100.55","","","","","","Cloudy"
"2001-02-04 18:00","2001","02","04","18:00","2.4","","-0.5","","81","","","","0","","24.1","","100.52","","","","","","Mostly Cloudy"
"2001-02-04 19:00","2001","02","04","19:00","2.3","","-0.5","","82","","","","0","","24.1","","100.52","","","","","","Cloudy"
"2001-02-04 20:00","2001","02","04","20:00","1.5","","-0.3","","88","","10","","4","","24.1","","100.55","","","","","","Cloudy"
"2001-02-04 21:00","2001","02","04","21:00","1.3","","-0.4","","88","","","","0","","19.3","","100.52","","","","","","Mostly Cloudy"
"2001-02-04 22:00","2001","02","04","22:00","2.6","","-0.7","","79","","","","0","","19.3","","100.55","","","","","","Mostly Cloudy"
"2001-02-04 23:00","2001","02","04","23:00"
"2001-02-05 00:00","2001","02","05","00:00"
"2001-02-05 01:00","2001","02","05","01:00"
"2001-02-05 02:00","2001","02","05","02:00"
"2001-02-05 03:00","2001","02","05","03:00"
"2001-02-05 04:00","2001","02","05","04:00"
"2001-02-05 05:00","2001","02","05","05:00"
"2001-02-05 06:00","2001","02","05","06:00","0.3","","-1.5","","88","","","","0","","19.3","","100.25","","","","","","Cloudy"
"2001-02-05 07:00","2001","02","05","07:00","0.0","","-1.6","","89","","","","0","","16.1","","100.22","","","","","","Cloudy"
"2001-02-05 08:00","2001","02","05","08:00","0.3","","-1.7","","86","","","","0","","11.3","","100.22","","","","","","Cloudy"
"2001-02-05 09:00","2001","02","05","09:00","0.9","","-1.9","","82","","","","0","","14.5","","100.22","","","","","","Cloudy"
"2001-02-05 10:00","2001","02","05","10:00","1.5","","-2.3","","76","","","","0","","12.9","","100.18","","","","","","Cloudy"
"2001-02-05 11:00","2001","02","05","11:00","1.9","","-0.9","","82","","","","0","","16.1","","100.18","","","","","","Cloudy"
"2001-02-05 12:00","2001","02","05","12:00","2.0","","-0.3","","85","","24","","4","","11.3","","100.12","","","","","","Cloudy"
"2001-02-05 13:00","2001","02","05","13:00","2.1","","-0.1","","85","","21","","11","","9.7","","100.05","","","","","","Haze"
"2001-02-05 14:00","2001","02","05","14:00","2.2","","0.0","","85","","22","","15","","9.7","","99.98","","","","","","Haze"
"2001-02-05 15:00","2001","02","05","15:00","2.6","","0.1","","84","","25","","19","","9.7","","99.95","","","","","","Haze"
"2001-02-05 16:00","2001","02","05","16:00","2.6","","0.2","","84","","24","","19","","12.9","","99.92","","","","","","Mostly Cloudy"
"2001-02-05 17:00","2001","02","05","17:00","2.6","","-0.3","","81","","24","","19","","12.9","","99.92","","","","","","Cloudy"
"2001-02-05 18:00","2001","02","05","18:00","1.9","","-0.5","","84","","23","","9","","9.7","","99.92","","","","","","Haze"
"2001-02-05 19:00","2001","02","05","19:00","1.8","","-0.5","","85","","24","","9","","9.7","","99.92","","","","","","Haze"
"2001-02-05 20:00","2001","02","05","20:00","1.7","","-0.3","","87","","25","","15","","9.7","","99.92","","","","","","Rain,Haze"
"2001-02-05 21:00","2001","02","05","21:00","1.6","","-0.5","","86","","23","","13","","9.7","","99.88","","","","","","Haze"
"2001-02-05 22:00","2001","02","05","22:00","1.3","","-0.4","","88","","22","","19","","8.0","","99.88","","","","","","Fog"
"2001-02-05 23:00","2001","02","05","23:00"
"2001-02-06 00:00","2001","02","06","00:00"
"2001-02-06 01:00","2001","02","06","01:00"
"2001-02-06 02:00","2001","02","06","02:00"
"2001-02-06 03:00","2001","02","06","03:00"
"2001-02-06 04:00","2001","02","06","04:00"
"2001-02-06 05:00","2001","02","06","05:00"
"2001-02-06 06:00","2001","02","06","06:00","0.7","","-2.5","","79","","23","","19","","19.3","","100.02","","","","","","Cloudy"
"2001-02-06 07:00","2001","02","06","07:00","0.5","","-2.9","","78","","23","","19","","16.1","","100.05","","","","","","Cloudy"
"2001-02-06 08:00","2001","02","06","08:00","-0.1","","-2.6","","83","","24","","19","","6.4","","100.05","","","","-5","","Snow Showers"
"2001-02-06 09:00","2001","02","06","09:00","-0.4","","-1.6","","92","","24","","9","","2.4","","100.05","","","","-4","","Snow Showers"
"2001-02-06 10:00","2001","02","06","10:00","0.0","","-1.2","","92","","24","","7","","4.0","","100.05","","","","-2","","Snow"
"2001-02-06 11:00","2001","02","06","11:00","0.5","","-1.0","","90","","24","","9","","4.0","","100.02","","","","","","Snow"
"2001-02-06 12:00","2001","02","06","12:00","1.1","","-0.4","","90","","24","","19","","4.8","","99.95","","","","","","Snow"
"2001-02-06 13:00","2001","02","06","13:00","1.4","","-0.7","","86","","28","","15","","6.4","","99.92","","","","","","Snow"
"2001-02-06 14:00","2001","02","06","14:00","0.9","","-0.5","","90","","30","","19","","3.2","","99.88","","","","","","Snow"
"2001-02-06 15:00","2001","02","06","15:00","1.1","","-0.8","","87","","27","","15","","4.0","","99.92","","","","","","Snow"
"2001-02-06 16:00","2001","02","06","16:00","1.3","","-0.7","","87","","30","","9","","9.7","","99.98","","","","","","Snow"
"2001-02-06 17:00","2001","02","06","17:00","1.1","","-1.0","","86","","27","","4","","9.7","","100.12","","","","","","Snow"
"2001-02-06 18:00","2001","02","06","18:00","1.5","","-2.8","","73","","30","","19","","11.3","","100.22","","","","","","Cloudy"
"2001-02-06 19:00","2001","02","06","19:00","1.3","","-2.4","","76","","26","","19","","12.9","","100.35","","","","","","Cloudy"
"2001-02-06 20:00","2001","02","06","20:00","1.1","","-2.6","","76","","25","","15","","12.9","","100.45","","","","","","Cloudy"
"2001-02-06 21:00","2001","02","06","21:00","1.1","","-2.4","","77","","25","","15","","12.9","","100.52","","","","","","Cloudy"
"2001-02-06 22:00","2001","02","06","22:00","1.1","","-2.3","","78","","26","","15","","12.9","","100.59","","","","","","Cloudy"
"2001-02-06 23:00","2001","02","06","23:00"
"2001-02-07 00:00","2001","02","07","00:00"
"2001-02-07 01:00","2001","02","07","01:00"
"2001-02-07 02:00","2001","02","07","02:00"
"2001-02-07 03:00","2001","02","07","03:00"
"2001-02-07 04:00","2001","02","07","04:00"
"2001-02-07 05:00","2001","02","07","05:00"
"2001-02-07 06:00","2001","02","07","06:00","0.4","","-3.6","","74","","27","","7","","16.1","","101.09","","","","","","Cloudy"
"2001-02-07 07:00","2001","02","07","07:00","0.3","","-3.0","","78","","25","","11","","12.9","","101.16","","","","","","Cloudy"
"2001-02-07 08:00","2001","02","07","08:00","0.4","","-4.6","","69","","25","","19","","16.1","","101.22","","","","","","Cloudy"
"2001-02-07 09:00","2001","02","07","09:00","0.5","","-4.6","","69","","25","","19","","16.1","","101.29","","","","","","Cloudy"
"2001-02-07 10:00","2001","02","07","10:00","0.2","","-4.2","","72","","25","","19","","8.0","","101.36","","","","","","Snow Showers"
"2001-02-07 11:00","2001","02","07","11:00","1.0","","-3.1","","74","","24","","22","","19.3","","101.43","","","","","","Mostly Cloudy"
"2001-02-07 12:00","2001","02","07","12:00","2.2","","-5.0","","59","","24","","22","","24.1","","101.46","","","","","","Mostly Cloudy"
"2001-02-07 13:00","2001","02","07","13:00","2.1","","-5.2","","58","","27","","22","","24.1","","101.43","","","","","","Mostly Cloudy"
"2001-02-07 14:00","2001","02","07","14:00","2.8","","-6.0","","52","","27","","19","","24.1","","101.49","","","","","","Mostly Cloudy"
"2001-02-07 15:00","2001","02","07","15:00","1.9","","-6.2","","55","","26","","15","","24.1","","101.56","","","","","","Mostly Cloudy"
"2001-02-07 16:00","2001","02","07","16:00","1.7","","-5.7","","58","","25","","19","","24.1","","101.66","","","","","","Mostly Cloudy"
"2001-02-07 17:00","2001","02","07","17:00","1.5","","-5.4","","60","","26","","19","","24.1","","101.69","","","","","","Mostly Cloudy"
"2001-02-07 18:00","2001","02","07","18:00","0.8","","-5.4","","63","","25","","15","","19.3","","101.73","","","","","","Mostly Cloudy"
"2001-02-07 19:00","2001","02","07","19:00","0.2","","-5.4","","66","","24","","9","","19.3","","101.76","","","","","","Mostly Cloudy"
"2001-02-07 20:00","2001","02","07","20:00","-1.2","","-4.8","","76","","22","","9","","19.3","","101.76","","","","-4","","Mostly Cloudy"
"2001-02-07 21:00","2001","02","07","21:00","-1.2","","-4.4","","79","","23","","9","","19.3","","101.83","","","","-4","","Mostly Cloudy"
"2001-02-07 22:00","2001","02","07","22:00","-2.2","","-4.4","","85","","22","","9","","19.3","","101.83","","","","-6","","Cloudy"
"2001-02-07 23:00","2001","02","07","23:00"
"2001-02-08 00:00","2001","02","08","00:00"
"2001-02-08 01:00","2001","02","08","01:00"
"2001-02-08 02:00","2001","02","08","02:00"
"2001-02-08 03:00","2001","02","08","03:00"
"2001-02-08 04:00","2001","02","08","04:00"
"2001-02-08 05:00","2001","02","08","05:00"
"2001-02-08 06:00","2001","02","08","06:00","-1.4","","-4.1","","82","","8","","6","","2.0","","101.73","","","","-4","","Snow Showers"
"2001-02-08 07:00","2001","02","08","07:00","-1.7","","-3.0","","91","","9","","19","","4.0","","101.66","","","","-7","","Ice Pellet Showers"
"2001-02-08 08:00","2001","02","08","08:00","-1.6","","-2.9","","91","","8","","19","","6.4","","101.59","","","","-7","","Snow Showers"
"2001-02-08 09:00","2001","02","08","09:00","-1.4","","-2.9","","89","","9","","22","","12.9","","101.46","","","","-7","","Cloudy"
"2001-02-08 10:00","2001","02","08","10:00","-0.6","","-2.4","","88","","7","","19","","9.7","","101.43","","","","-6","","Freezing Rain,Ice Pellets"
"2001-02-08 11:00","2001","02","08","11:00","0.1","","-2.9","","80","","9","","26","","19.3","","101.36","","","","","","Rain"
"2001-02-08 12:00","2001","02","08","12:00","0.2","","-2.5","","82","","9","","26","","24.1","","101.22","","","","","","Rain"
"2001-02-08 13:00","2001","02","08","13:00","0.4","","-2.4","","81","","10","","15","","8.0","","101.12","","","","","","Rain"
"2001-02-08 14:00","2001","02","08","14:00","0.4","","-1.8","","85","","9","","15","","12.9","","101.02","","","","","","Rain Showers"
"2001-02-08 15:00","2001","02","08","15:00","0.5","","-1.3","","88","","4","","7","","8.0","","101.02","","","","","","Rain Showers"
"2001-02-08 16:00","2001","02","08","16:00","0.2","","-0.9","","92","","","","0","","6.4","","101.06","","","","","","Rain Showers,Fog"
"2001-02-08 17:00","2001","02","08","17:00","0.1","","-1.2","","91","","","","0","","6.4","","101.06","","","","","","Fog"
"2001-02-08 18:00","2001","02","08","18:00","0.1","","-0.9","","93","","","","0","","4.8","","101.06","","","","","","Fog"
"2001-02-08 19:00","2001","02","08","19:00","0.1","","-0.8","","94","","","","0","","4.8","","101.09","","","","","","Fog"
"2001-02-08 20:00","2001","02","08","20:00","0.2","","-0.7","","94","","","","0","","4.8","","101.06","","","","","","Rain Showers,Fog"
"2001-02-08 21:00","2001","02","08","21:00","0.1","","-0.5","","96","","","","0","","6.4","","101.02","","","","","","Rain Showers,Fog"
"2001-02-08 22:00","2001","02","08","22:00","0.2","","-0.5","","95","","","","0","","4.8","","100.96","","","","","","Rain Showers,Fog"
"2001-02-08 23:00","2001","02","08","23:00"
"2001-02-09 00:00","2001","02","09","00:00"
"2001-02-09 01:00","2001","02","09","01:00"
"2001-02-09 02:00","2001","02","09","02:00"
"2001-02-09 03:00","2001","02","09","03:00"
"2001-02-09 04:00","2001","02","09","04:00"
"2001-02-09 05:00","2001","02","09","05:00"
"2001-02-09 06:00","2001","02","09","06:00","7.7","","6.9","","95","","19","","19","","12.9","","99.98","","","","","","Rain"
"2001-02-09 07:00","2001","02","09","07:00","8.0","","6.7","","91","","19","","19","","9.7","","99.92","","","","","","Rain,Fog"
"2001-02-09 08:00","2001","02","09","08:00","8.8","","5.4","","79","","20","","28","","11.3","","99.85","","","","","","Rain"
"2001-02-09 09:00","2001","02","09","09:00","9.8","","6.1","","78","","19","","28","","16.1","","99.72","","","","","","Cloudy"
"2001-02-09 10:00","2001","02","09","10:00","10.0","","5.1","","72","","21","","20","","16.1","","99.78","","","","","","Cloudy"
"2001-02-09 11:00","2001","02","09","11:00","9.9","","7.9","","87","","20","","19","","16.1","","99.58","","","","","","Rain Showers"
"2001-02-09 12:00","2001","02","09","12:00","12.8","","6.4","","65","","19","","24","","19.3","","99.35","","","","","","Cloudy"
"2001-02-09 13:00","2001","02","09","13:00","13.8","","6.7","","62","","20","","24","","19.3","","99.25","","","","","","Cloudy"
"2001-02-09 14:00","2001","02","09","14:00","13.5","","5.3","","58","","21","","26","","19.3","","99.11","","","","","","Rain Showers"
"2001-02-09 15:00","2001","02","09","15:00","12.1","","6.1","","67","","21","","26","","19.3","","99.08","","","","","","Rain Showers"
"2001-02-09 16:00","2001","02","09","16:00","11.2","","6.2","","71","","21","","19","","8.0","","99.04","","","","","","Rain Showers,Fog"
"2001-02-09 17:00","2001","02","09","17:00","11.1","","7.3","","77","","20","","22","","16.1","","98.88","","","","","","Rain Showers"
"2001-02-09 18:00","2001","02","09","18:00","10.2","","7.6","","84","","20","","22","","9.7","","98.81","","","","","","Rain Showers"
"2001-02-09 19:00","2001","02","09","19:00","11.0","","8.0","","82","","20","","26","","9.7","","98.68","","","","","","Rain Showers"
"2001-02-09 20:00","2001","02","09","20:00","11.2","","7.3","","77","","20","","22","","16.1","","98.44","","","","","","Rain Showers"
"2001-02-09 21:00","2001","02","09","21:00","11.1","","7.6","","79","","20","","22","","8.0","","98.27","","","","","","Rain Showers"
"2001-02-09 22:00","2001","02","09","22:00","10.9","","8.2","","83","","22","","22","","11.3","","98.21","","","","","","Rain Showers"
"2001-02-09 23:00","2001","02","09","23:00"
"2001-02-10 00:00","2001","02","10","00:00"
"2001-02-10 01:00","2001","02","10","01:00"
"2001-02-10 02:00","2001","02","10","02:00"
"2001-02-10 03:00","2001","02","10","03:00"
"2001-02-10 04:00","2001","02","10","04:00"
"2001-02-10 05:00","2001","02","10","05:00"
"2001-02-10 06:00","2001","02","10","06:00","-2.3","","-8.0","","65","","27","","37","","19.3","","100.05","","","","-10","","Mostly Cloudy"
"2001-02-10 07:00","2001","02","10","07:00","-2.9","","-10.2","","57","","27","","28","","19.3","","100.25","","","","-10","","Mostly Cloudy"
"2001-02-10 08:00","2001","02","10","08:00","-3.4","","-9.1","","65","","26","","28","","24.1","","100.42","","","","-11","","Snow Showers"
"2001-02-10 09:00","2001","02","10","09:00","-4.2","","-8.6","","71","","28","","37","","8.0","","100.65","","","","-13","","Snow Showers"
"2001-02-10 10:00","2001","02","10","10:00","-3.7","","-11.7","","54","","28","","28","","24.1","","100.82","","","","-11","","Mostly Cloudy"
"2001-02-10 11:00","2001","02","10","11:00","-3.5","","-11.3","","55","","29","","30","","24.1","","100.92","","","","-11","","Mostly Cloudy"
"2001-02-10 12:00","2001","02","10","12:00","-2.9","","-12.8","","46","","28","","33","","24.1","","100.99","","","","-11","","Mostly Cloudy"
"2001-02-10 13:00","2001","02","10","13:00","-2.6","","-14.8","","39","","28","","37","","24.1","","101.06","","","","-11","","Mostly Cloudy"
"2001-02-10 14:00","2001","02","10","14:00","-2.7","","-14.5","","40","","27","","33","","24.1","","101.12","","","","-10","","Mostly Cloudy"
"2001-02-10 15:00","2001","02","10","15:00","-4.4","","-10.4","","63","","30","","26","","24.1","","101.19","","","","-12","","Mostly Cloudy"
"2001-02-10 16:00","2001","02","10","16:00","-4.8","","-11.7","","58","","28","","28","","24.1","","101.29","","","","-12","","Mostly Cloudy"
"2001-02-10 17:00","2001","02","10","17:00","-4.9","","-12.4","","56","","28","","26","","24.1","","101.43","","","","-12","","Mostly Cloudy"
"2001-02-10 18:00","2001","02","10","18:00","-5.3","","-12.7","","56","","29","","22","","24.1","","101.53","","","","-12","","Mostly Cloudy"
"2001-02-10 19:00","2001","02","10","19:00","-5.5","","-13.1","","55","","29","","26","","24.1","","101.63","","","","-13","","Mostly Cloudy"
"2001-02-10 20:00","2001","02","10","20:00","-5.9","","-13.6","","54","","30","","26","","24.1","","101.69","","","","-14","","Mainly Clear"
"2001-02-10 21:00","2001","02","10","21:00","-5.6","","-13.9","","52","","29","","22","","24.1","","101.73","","","","-13","","Mainly Clear"
"2001-02-10 22:00","2001","02","10","22:00","-5.8","","-12.8","","58","","26","","15","","24.1","","101.76","","","","-12","","Mostly Cloudy"
"2001-02-10 23:00","2001","02","10","23:00"
"2001-02-11 00:00","2001","02","11","00:00"
"2001-02-11 01:00","2001","02","11","01:00"
"2001-02-11 02:00","2001","02","11","02:00"
"2001-02-11 03:00","2001","02","11","03:00"
"2001-02-11 04:00","2001","02","11","04:00"
"2001-02-11 05:00","2001","02","11","05:00"
"2001-02-11 06:00","2001","02","11","06:00","-7.2","","-13.3","","62","","32","","19","","48.3","","102.23","","","","-14","","Cloudy"
"2001-02-11 07:00","2001","02","11","07:00","-7.6","","-13.3","","64","","32","","19","","48.3","","102.37","","","","-15","","Mainly Clear"
"2001-02-11 08:00","2001","02","11","08:00","-7.8","","-13.5","","64","","32","","19","","48.3","","102.47","","","","-15","","Mainly Clear"
"2001-02-11 09:00","2001","02","11","09:00","-7.6","","-12.5","","68","","36","","19","","48.3","","102.57","","","","-15","","Mainly Clear"
"2001-02-11 10:00","2001","02","11","10:00","-7.8","","-13.5","","64","","36","","19","","24.1","","102.67","","","","-15","","Mainly Clear"
"2001-02-11 11:00","2001","02","11","11:00","-8.3","","-13.8","","64","","34","","9","","24.1","","102.73","","","","-13","","Mostly Cloudy"
"2001-02-11 12:00","2001","02","11","12:00","-8.5","","-15.7","","56","","31","","15","","24.1","","102.77","","","","-15","","Mainly Clear"
"2001-02-11 13:00","2001","02","11","13:00","-8.5","","-14.8","","60","","33","","15","","24.1","","102.77","","","","-15","","Mainly Clear"
"2001-02-11 14:00","2001","02","11","14:00","-8.3","","-15.2","","57","","31","","9","","48.3","","102.73","","","","-13","","Mainly Clear"
"2001-02-11 15:00","2001","02","11","15:00","-8.1","","-15.7","","54","","32","","9","","48.3","","102.73","","","","-13","","Mainly Clear"
"2001-02-11 16:00","2001","02","11","16:00","-8.1","","-16.5","","51","","36","","9","","48.3","","102.73","","","","-13","","Mainly Clear"
"2001-02-11 17:00","2001","02","11","17:00","-8.0","","-16.2","","52","","3","","7","","48.3","","102.70","","","","-12","","Mainly Clear"
"2001-02-11 18:00","2001","02","11","18:00","-8.3","","-15.3","","57","","6","","7","","24.1","","102.70","","","","-12","","Mainly Clear"
"2001-02-11 19:00","2001","02","11","19:00","-8.9","","-14.6","","63","","","","0","","24.1","","102.80","","","","","","Clear"
"2001-02-11 20:00","2001","02","11","20:00","-9.2","","-14.7","","64","","","","0","","24.1","","102.80","","","","","","Clear"
"2001-02-11 21:00","2001","02","11","21:00","-9.3","","-14.8","","64","","","","0","","24.1","","102.77","","","","","","Clear"
"2001-02-11 22:00","2001","02","11","22:00","-9.2","","-14.4","","66","","","","0","","24.1","","102.70","","","","","","Clear"
"2001-02-11 23:00","2001","02","11","23:00"
"2001-02-12 00:00","2001","02","12","00:00"
"2001-02-12 01:00","2001","02","12","01:00"
"2001-02-12 02:00","2001","02","12","02:00"
"2001-02-12 03:00","2001","02","12","03:00"
"2001-02-12 04:00","2001","02","12","04:00"
"2001-02-12 05:00","2001","02","12","05:00"
"2001-02-12 06:00","2001","02","12","06:00","-9.0","","-15.1","","61","","8","","11","","24.1","","102.30","","","","-14","","Cloudy"
"2001-02-12 07:00","2001","02","12","07:00","-9.3","","-14.8","","64","","8","","19","","24.1","","102.20","","","","-17","","Mostly Cloudy"
"2001-02-12 08:00","2001","02","12","08:00","-8.7","","-14.4","","63","","9","","17","","24.1","","102.13","","","","-16","","Mainly Clear"
"2001-02-12 09:00","2001","02","12","09:00","-6.6","","-14.0","","56","","8","","15","","24.1","","102.06","","","","-13","","Mainly Clear"
"2001-02-12 10:00","2001","02","12","10:00","-4.2","","-13.1","","50","","11","","9","","24.1","","101.93","","","","-8","","Mainly Clear"
"2001-02-12 11:00","2001","02","12","11:00","-1.7","","-12.7","","43","","","","0","","24.1","","101.83","","","","","","Mainly Clear"
"2001-02-12 12:00","2001","02","12","12:00","0.1","","-12.3","","39","","","","0","","24.1","","101.69","","","","","","Mostly Cloudy"
"2001-02-12 13:00","2001","02","12","13:00","1.0","","-11.6","","38","","19","","7","","24.1","","101.56","","","","","","Mostly Cloudy"
"2001-02-12 14:00","2001","02","12","14:00","1.3","","-10.7","","40","","9","","7","","24.1","","101.46","","","","","","Mostly Cloudy"
"2001-02-12 15:00","2001","02","12","15:00","0.3","","-7.6","","55","","5","","9","","24.1","","101.39","","","","","","Mostly Cloudy"
"2001-02-12 16:00","2001","02","12","16:00","0.7","","-7.6","","54","","4","","9","","24.1","","101.33","","","","","","Mostly Cloudy"
"2001-02-12 17:00","2001","02","12","17:00","0.3","","-6.1","","62","","8","","9","","24.1","","101.26","","","","","","Mostly Cloudy"
"2001-02-12 18:00","2001","02","12","18:00","0.0","","-6.8","","60","","","","0","","24.1","","101.29","","","","","","Mostly Cloudy"
"2001-02-12 19:00","2001","02","12","19:00","-1.1","","-6.1","","69","","","","0","","24.1","","101.26","","","","","","Mostly Cloudy"
"2001-02-12 20:00","2001","02","12","20:00","-2.6","","-5.9","","78","","","","0","","24.1","","101.22","","","","","","Mainly Clear"
"2001-02-12 21:00","2001","02","12","21:00","-2.6","","-5.7","","79","","21","","9","","24.1","","101.19","","","","-6","","Clear"
"2001-02-12 22:00","2001","02","12","22:00","-2.1","","-6.1","","74","","","","0","","24.1","","101.19","","","","","","Clear"
"2001-02-12 23:00","2001","02","12","23:00"
"2001-02-13 00:00","2001","02","13","00:00"
"2001-02-13 01:00","2001","02","13","01:00"
"2001-02-13 02:00","2001","02","13","02:00"
"2001-02-13 03:00","2001","02","13","03:00"
"2001-02-13 04:00","2001","02","13","04:00"
"2001-02-13 05:00","2001","02","13","05:00"
"2001-02-13 06:00","2001","02","13","06:00","-1.1","","-4.1","","80","","24","","9","","24.1","","101.53","","","","-4","","Cloudy"
"2001-02-13 07:00","2001","02","13","07:00","-1.2","","-4.2","","80","","24","","9","","24.1","","101.59","","","","-4","","Cloudy"
"2001-02-13 08:00","2001","02","13","08:00","-1.8","","-4.7","","81","","20","","9","","24.1","","101.63","","","","-5","","Mostly Cloudy"
"2001-02-13 09:00","2001","02","13","09:00","0.3","","-3.6","","75","","20","","7","","24.1","","101.69","","","","","","Mostly Cloudy"
"2001-02-13 10:00","2001","02","13","10:00","1.7","","-3.2","","70","","","","0","","24.1","","101.73","","","","","","Mostly Cloudy"
"2001-02-13 11:00","2001","02","13","11:00","2.7","","-3.0","","66","","","","0","","24.1","","101.73","","","","","","Mostly Cloudy"
"2001-02-13 12:00","2001","02","13","12:00","3.6","","-3.1","","62","","","","0","","24.1","","101.63","","","","","","Mainly Clear"
"2001-02-13 13:00","2001","02","13","13:00","3.7","","-3.6","","59","","","","0","","24.1","","101.56","","","","","","Mostly Cloudy"
"2001-02-13 14:00","2001","02","13","14:00","3.5","","-4.4","","56","","32","","7","","19.3","","101.53","","","","","","Cloudy"
"2001-02-13 15:00","2001","02","13","15:00","3.2","","-4.9","","55","","","","0","","19.3","","101.46","","","","","","Cloudy"
"2001-02-13 16:00","2001","02","13","16:00","3.0","","-4.4","","58","","","","0","","24.1","","101.43","","","","","","Mostly Cloudy"
"2001-02-13 17:00","2001","02","13","17:00","2.8","","-4.2","","60","","","","0","","19.3","","101.46","","","","","","Mostly Cloudy"
"2001-02-13 18:00","2001","02","13","18:00","0.8","","-4.2","","69","","","","0","","19.3","","101.39","","","","","","Mainly Clear"
"2001-02-13 19:00","2001","02","13","19:00","-0.1","","-4.1","","74","","","","0","","19.3","","101.39","","","","","","Clear"
"2001-02-13 20:00","2001","02","13","20:00","-0.6","","-4.2","","77","","12","","4","","19.3","","101.36","","","","-2","","Clear"
"2001-02-13 21:00","2001","02","13","21:00","-0.7","","-4.1","","78","","12","","7","","19.3","","101.26","","","","-3","","Clear"
"2001-02-13 22:00","2001","02","13","22:00","0.0","","-3.2","","79","","13","","9","","19.3","","101.16","","","","-3","","Clear"
"2001-02-13 23:00","2001","02","13","23:00"
"2001-02-14 00:00","2001","02","14","00:00"
"2001-02-14 01:00","2001","02","14","01:00"
"2001-02-14 02:00","2001","02","14","02:00"
"2001-02-14 03:00","2001","02","14","03:00"
"2001-02-14 04:00","2001","02","14","04:00"
"2001-02-14 05:00","2001","02","14","05:00"
"2001-02-14 06:00","2001","02","14","06:00","0.4","","-1.3","","88","","","","0","","16.1","","100.55","","","","","","Cloudy"
"2001-02-14 07:00","2001","02","14","07:00","0.4","","-1.2","","89","","","","0","","4.8","","100.45","","","","","","Fog"
"2001-02-14 08:00","2001","02","14","08:00","0.2","","-1.1","","91","","","","0","","1.6","","100.42","","","","","","Drizzle,Fog"
"2001-02-14 09:00","2001","02","14","09:00","0.3","","-0.8","","92","","","","0","","1.6","","100.32","","","","","","Rain,Fog"
"2001-02-14 10:00","2001","02","14","10:00","0.6","","-0.3","","94","","2","","9","","0.8","","100.22","","","","","","Fog"
"2001-02-14 11:00","2001","02","14","11:00","1.1","","0.5","","96","","2","","4","","0.4","","100.18","","","","","","Rain,Fog"
"2001-02-14 12:00","2001","02","14","12:00","1.3","","0.7","","96","","5","","6","","0.8","","100.05","","","","","","Fog"
"2001-02-14 13:00","2001","02","14","13:00","1.4","","0.9","","96","","5","","6","","0.8","","99.95","","","","","","Fog"
"2001-02-14 14:00","2001","02","14","14:00","1.6","","1.1","","96","","2","","7","","0.8","","99.85","","","","","","Rain,Fog"
"2001-02-14 15:00","2001","02","14","15:00","1.7","","1.3","","97","","5","","6","","0.8","","99.67","","","","","","Rain,Fog"
"2001-02-14 16:00","2001","02","14","16:00","1.2","","0.7","","96","","","","0","","0.8","","99.72","","","","","","Rain,Fog"
"2001-02-14 17:00","2001","02","14","17:00","0.6","","0.3","","98","","","","0","","0.4","","99.65","","","","","","Snow,Fog"
"2001-02-14 18:00","2001","02","14","18:00","0.1","","-0.3","","97","","","","0","","0.8","","99.82","","","","","","Snow,Fog"
"2001-02-14 19:00","2001","02","14","19:00","0.1","","-0.3","","97","","","","0","","0.8","","99.78","","","","","","Snow,Fog"
"2001-02-14 20:00","2001","02","14","20:00","0.1","","-0.4","","96","","","","0","","0.8","","99.82","","","","","","Snow,Fog"
"2001-02-14 21:00","2001","02","14","21:00","0.2","","-0.3","","96","","","","0","","1.2","","99.85","","","","","","Snow,Fog"
"2001-02-14 22:00","2001","02","14","22:00","0.3","","-0.3","","96","","31","","7","","1.6","","99.88","","","","","","Snow,Fog"
"2001-02-14 23:00","2001","02","14","23:00"
"2001-02-15 00:00","2001","02","15","00:00"
"2001-02-15 01:00","2001","02","15","01:00"
"2001-02-15 02:00","2001","02","15","02:00"
"2001-02-15 03:00","2001","02","15","03:00"
"2001-02-15 04:00","2001","02","15","04:00"
"2001-02-15 05:00","2001","02","15","05:00"
"2001-02-15 06:00","2001","02","15","06:00","-2.9","","-6.1","","79","","34","","11","","24.1","","100.35","","","","-7","","Mainly Clear"
"2001-02-15 07:00","2001","02","15","07:00","-3.6","","-7.0","","77","","34","","9","","24.1","","100.45","","","","-7","","Mostly Cloudy"
"2001-02-15 08:00","2001","02","15","08:00","-3.9","","-6.7","","81","","34","","9","","24.1","","100.55","","","","-8","","Cloudy"
"2001-02-15 09:00","2001","02","15","09:00","-4.1","","-6.9","","81","","2","","9","","24.1","","100.65","","","","-8","","Cloudy"
"2001-02-15 10:00","2001","02","15","10:00","-4.6","","-6.9","","84","","2","","9","","24.1","","100.72","","","","-8","","Cloudy"
"2001-02-15 11:00","2001","02","15","11:00","-4.8","","-7.4","","82","","2","","9","","24.1","","100.79","","","","-9","","Cloudy"
"2001-02-15 12:00","2001","02","15","12:00","-4.5","","-7.5","","80","","36","","9","","24.1","","100.82","","","","-8","","Cloudy"
"2001-02-15 13:00","2001","02","15","13:00","-4.7","","-7.8","","79","","3","","4","","24.1","","100.76","","","","-6","","Cloudy"
"2001-02-15 14:00","2001","02","15","14:00","-4.5","","-7.8","","78","","","","0","","24.1","","100.76","","","","","","Mostly Cloudy"
"2001-02-15 15:00","2001","02","15","15:00","-4.1","","-7.9","","75","","1","","9","","24.1","","100.76","","","","-8","","Cloudy"
"2001-02-15 16:00","2001","02","15","16:00","-4.3","","-8.2","","74","","","","0","","24.1","","100.79","","","","","","Cloudy"
"2001-02-15 17:00","2001","02","15","17:00","-5.0","","-8.2","","78","","","","0","","24.1","","100.82","","","","","","Mostly Cloudy"
"2001-02-15 18:00","2001","02","15","18:00","-5.7","","-8.2","","82","","","","0","","19.3","","100.86","","","","","","Cloudy"
"2001-02-15 19:00","2001","02","15","19:00","-6.8","","-8.4","","88","","","","0","","19.3","","100.89","","","","","","Mainly Clear"
"2001-02-15 20:00","2001","02","15","20:00","-6.5","","-7.8","","90","","","","0","","19.3","","100.89","","","","","","Cloudy"
"2001-02-15 21:00","2001","02","15","21:00","-5.6","","-7.4","","87","","","","0","","19.3","","100.86","","","","","","Cloudy"
"2001-02-15 22:00","2001","02","15","22:00","-6.4","","-7.8","","90","","","","0","","19.3","","100.86","","","","","","Mainly Clear"
"2001-02-15 23:00","2001","02","15","23:00"
"2001-02-16 00:00","2001","02","16","00:00"
"2001-02-16 01:00","2001","02","16","01:00"
"2001-02-16 02:00","2001","02","16","02:00"
"2001-02-16 03:00","2001","02","16","03:00"
"2001-02-16 04:00","2001","02","16","04:00"
"2001-02-16 05:00","2001","02","16","05:00"
"2001-02-16 06:00","2001","02","16","06:00","-4.3","","-5.4","","92","","","","0","","24.1","","100.62","","","","","","Cloudy"
"2001-02-16 07:00","2001","02","16","07:00","-3.9","","-5.0","","92","","","","0","","6.4","","100.62","","","","","","Fog"
"2001-02-16 08:00","2001","02","16","08:00","-3.3","","-4.4","","92","","","","0","","8.0","","100.59","","","","","","Fog"
"2001-02-16 09:00","2001","02","16","09:00","-2.1","","-3.4","","91","","","","0","","8.0","","100.52","","","","","","Fog"
"2001-02-16 10:00","2001","02","16","10:00","-0.8","","-2.6","","88","","34","","7","","8.0","","100.55","","","","-3","","Fog"
"2001-02-16 11:00","2001","02","16","11:00","-0.3","","-3.1","","81","","","","0","","16.1","","100.52","","","","","","Cloudy"
"2001-02-16 12:00","2001","02","16","12:00","0.0","","-3.5","","77","","","","0","","16.1","","100.52","","","","","","Cloudy"
"2001-02-16 13:00","2001","02","16","13:00","-0.3","","-3.6","","78","","","","0","","16.1","","100.32","","","","","","Cloudy"
"2001-02-16 14:00","2001","02","16","14:00","-0.1","","-5.0","","70","","28","","11","","16.1","","100.35","","","","-4","","Cloudy"
"2001-02-16 15:00","2001","02","16","15:00","0.0","","-3.7","","76","","25","","7","","12.9","","100.32","","","","-2","","Cloudy"
"2001-02-16 16:00","2001","02","16","16:00","0.0","","-3.5","","77","","24","","15","","12.9","","100.29","","","","-4","","Cloudy"
"2001-02-16 17:00","2001","02","16","17:00","-0.3","","-3.5","","79","","24","","9","","12.9","","100.25","","","","-3","","Cloudy"
"2001-02-16 18:00","2001","02","16","18:00","-0.3","","-3.9","","77","","24","","15","","9.7","","100.22","","","","-5","","Haze"
"2001-02-16 19:00","2001","02","16","19:00","-0.4","","-3.3","","81","","24","","17","","12.9","","100.29","","","","-5","","Cloudy"
"2001-02-16 20:00","2001","02","16","20:00","-0.1","","-2.9","","81","","24","","17","","16.1","","100.29","","","","-5","","Cloudy"
"2001-02-16 21:00","2001","02","16","21:00","-0.1","","-3.9","","76","","24","","20","","16.1","","100.25","","","","-5","","Cloudy"
"2001-02-16 22:00","2001","02","16","22:00","-0.1","","-4.2","","74","","25","","15","","16.1","","100.22","","","","-5","","Cloudy"
"2001-02-16 23:00","2001","02","16","23:00"
"2001-02-17 00:00","2001","02","17","00:00"
"2001-02-17 01:00","2001","02","17","01:00"
"2001-02-17 02:00","2001","02","17","02:00"
"2001-02-17 03:00","2001","02","17","03:00"
"2001-02-17 04:00","2001","02","17","04:00"
"2001-02-17 05:00","2001","02","17","05:00"
"2001-02-17 06:00","2001","02","17","06:00","-5.8","","-12.4","","60","","29","","28","","24.1","","100.52","","","","-14","","Mainly Clear"
"2001-02-17 07:00","2001","02","17","07:00","-6.1","","-12.6","","60","","29","","28","","24.1","","100.65","","","","-14","","Mainly Clear"
"2001-02-17 08:00","2001","02","17","08:00","-6.4","","-11.7","","66","","29","","28","","24.1","","100.79","","","","-15","","Mostly Cloudy"
"2001-02-17 09:00","2001","02","17","09:00","-6.0","","-12.3","","61","","30","","28","","24.1","","100.86","","","","-14","","Mainly Clear"
"2001-02-17 10:00","2001","02","17","10:00","-6.1","","-13.9","","54","","30","","28","","24.1","","100.96","","","","-14","","Mainly Clear"
"2001-02-17 11:00","2001","02","17","11:00","-6.8","","-15.6","","50","","30","","28","","24.1","","101.02","","","","-15","","Mainly Clear"
"2001-02-17 12:00","2001","02","17","12:00","-6.4","","-13.9","","55","","30","","28","","24.1","","101.12","","","","-15","","Mostly Cloudy"
"2001-02-17 13:00","2001","02","17","13:00","-6.5","","-14.8","","52","","31","","22","","24.1","","101.19","","","","-14","","Mainly Clear"
"2001-02-17 14:00","2001","02","17","14:00","-6.6","","-13.9","","56","","30","","26","","24.1","","101.22","","","","-15","","Mostly Cloudy"
"2001-02-17 15:00","2001","02","17","15:00","-6.6","","-15.0","","51","","30","","26","","24.1","","101.29","","","","-15","","Mainly Clear"
"2001-02-17 16:00","2001","02","17","16:00","-6.7","","-14.8","","52","","29","","26","","24.1","","101.36","","","","-15","","Mainly Clear"
"2001-02-17 17:00","2001","02","17","17:00","-7.6","","-16.4","","49","","29","","26","","24.1","","101.43","","","","-16","","Mainly Clear"
"2001-02-17 18:00","2001","02","17","18:00","-7.6","","-14.6","","57","","29","","22","","24.1","","101.49","","","","-15","","Mainly Clear"
"2001-02-17 19:00","2001","02","17","19:00","-7.9","","-14.4","","60","","28","","28","","24.1","","101.59","","","","-17","","Mainly Clear"
"2001-02-17 20:00","2001","02","17","20:00","-7.6","","-14.8","","56","","31","","33","","24.1","","101.63","","","","-17","","Mostly Cloudy"
"2001-02-17 21:00","2001","02","17","21:00","-7.3","","-14.7","","55","","29","","28","","24.1","","101.66","","","","-16","","Mostly Cloudy"
"2001-02-17 22:00","2001","02","17","22:00","-8.9","","-14.5","","64","","24","","22","","24.1","","101.69","","","","-17","","Mostly Cloudy"
"2001-02-17 23:00","2001","02","17","23:00"
"2001-02-18 00:00","2001","02","18","00:00"
"2001-02-18 01:00","2001","02","18","01:00"
"2001-02-18 02:00","2001","02","18","02:00"
"2001-02-18 03:00","2001","02","18","03:00"
"2001-02-18 04:00","2001","02","18","04:00"
"2001-02-18 05:00","2001","02","18","05:00"
"2001-02-18 06:00","2001","02","18","06:00","-7.9","","-14.5","","59","","25","","22","","24.1","","101.59","","","","-16","","Mostly Cloudy"
"2001-02-18 07:00","2001","02","18","07:00","-8.7","","-16.2","","55","","25","","22","","24.1","","101.59","","","","-17","","Mostly Cloudy"
"2001-02-18 08:00","2001","02","18","08:00","-8.8","","-15.1","","60","","25","","22","","24.1","","101.63","","","","-17","","Mostly Cloudy"
"2001-02-18 09:00","2001","02","18","09:00","-8.3","","-14.3","","62","","23","","28","","24.1","","101.63","","","","-17","","Mainly Clear"
"2001-02-18 10:00","2001","02","18","10:00","-8.2","","-14.3","","61","","25","","24","","24.1","","101.63","","","","-16","","Clear"
"2001-02-18 11:00","2001","02","18","11:00","-7.0","","-13.6","","59","","24","","30","","24.1","","101.63","","","","-16","","Mainly Clear"
"2001-02-18 12:00","2001","02","18","12:00","-5.6","","-12.6","","58","","25","","30","","24.1","","101.56","","","","-14","","Mainly Clear"
"2001-02-18 13:00","2001","02","18","13:00","-4.3","","-12.5","","53","","26","","30","","24.1","","101.49","","","","-12","","Mainly Clear"
"2001-02-18 14:00","2001","02","18","14:00","-3.7","","-12.5","","50","","26","","33","","24.1","","101.43","","","","-12","","Mainly Clear"
"2001-02-18 15:00","2001","02","18","15:00","-3.4","","-12.0","","51","","24","","28","","24.1","","101.39","","","","-11","","Mainly Clear"
"2001-02-18 16:00","2001","02","18","16:00","-3.2","","-11.6","","52","","23","","28","","24.1","","101.36","","","","-10","","Mainly Clear"
"2001-02-18 17:00","2001","02","18","17:00","-3.6","","-10.8","","57","","24","","24","","24.1","","101.39","","","","-10","","Mainly Clear"
"2001-02-18 18:00","2001","02","18","18:00","-4.0","","-10.9","","59","","24","","24","","24.1","","101.39","","","","-11","","Clear"
"2001-02-18 19:00","2001","02","18","19:00","-4.9","","-9.8","","68","","23","","19","","24.1","","101.39","","","","-11","","Clear"
"2001-02-18 20:00","2001","02","18","20:00","-4.7","","-9.9","","67","","23","","22","","24.1","","101.43","","","","-12","","Clear"
"2001-02-18 21:00","2001","02","18","21:00","-4.7","","-10.0","","66","","24","","28","","24.1","","101.36","","","","-12","","Clear"
"2001-02-18 22:00","2001","02","18","22:00","-4.3","","-10.2","","63","","24","","28","","24.1","","101.33","","","","-12","","Clear"
"2001-02-18 23:00","2001","02","18","23:00"
"2001-02-19 00:00","2001","02","19","00:00"
"2001-02-19 01:00","2001","02","19","01:00"
"2001-02-19 02:00","2001","02","19","02:00"
"2001-02-19 03:00","2001","02","19","03:00"
"2001-02-19 04:00","2001","02","19","04:00"
"2001-02-19 05:00","2001","02","19","05:00"
"2001-02-19 06:00","2001","02","19","06:00","-3.0","","-8.2","","67","","22","","22","","24.1","","100.96","","","","-9","","Cloudy"
"2001-02-19 07:00","2001","02","19","07:00","-3.4","","-9.1","","65","","21","","24","","24.1","","100.92","","","","-10","","Mostly Cloudy"
"2001-02-19 08:00","2001","02","19","08:00","-3.2","","-10.0","","59","","21","","26","","24.1","","100.89","","","","-10","","Mostly Cloudy"
"2001-02-19 09:00","2001","02","19","09:00","-2.2","","-9.5","","57","","21","","30","","24.1","","100.79","","","","-9","","Mostly Cloudy"
"2001-02-19 10:00","2001","02","19","10:00","-0.7","","-9.3","","52","","21","","33","","24.1","","100.69","","","","-8","","Mostly Cloudy"
"2001-02-19 11:00","2001","02","19","11:00","0.5","","-8.4","","51","","21","","32","","24.1","","100.55","","","","","","Mostly Cloudy"
"2001-02-19 12:00","2001","02","19","12:00","1.1","","-8.1","","50","","21","","28","","24.1","","100.45","","","","","","Cloudy"
"2001-02-19 13:00","2001","02","19","13:00","1.8","","-7.6","","50","","21","","19","","24.1","","100.35","","","","","","Cloudy"
"2001-02-19 14:00","2001","02","19","14:00","2.8","","-7.0","","48","","22","","28","","24.1","","100.25","","","","","","Cloudy"
"2001-02-19 15:00","2001","02","19","15:00","3.9","","-6.4","","47","","22","","28","","24.1","","100.18","","","","","","Mostly Cloudy"
"2001-02-19 16:00","2001","02","19","16:00","4.8","","-6.3","","44","","24","","37","","24.1","","100.12","","","","","","Mostly Cloudy"
"2001-02-19 17:00","2001","02","19","17:00","4.5","","-5.7","","47","","24","","37","","24.1","","100.18","","","","","","Mostly Cloudy"
"2001-02-19 18:00","2001","02","19","18:00","4.0","","-5.1","","51","","22","","19","","24.1","","100.18","","","","","","Cloudy"
"2001-02-19 19:00","2001","02","19","19:00","4.0","","-4.1","","55","","23","","19","","24.1","","100.25","","","","","","Cloudy"
"2001-02-19 20:00","2001","02","19","20:00","4.8","","-3.0","","57","","23","","19","","24.1","","100.32","","","","","","Cloudy"
"2001-02-19 21:00","2001","02","19","21:00","5.0","","-2.2","","60","","23","","19","","24.1","","100.32","","","","","","Cloudy"
"2001-02-19 22:00","2001","02","19","22:00","4.3","","-1.9","","64","","23","","15","","24.1","","100.35","","","","","","Cloudy"
"2001-02-19 23:00","2001","02","19","23:00"
"2001-02-20 00:00","2001","02","20","00:00"
"2001-02-20 01:00","2001","02","20","01:00"
"2001-02-20 02:00","2001","02","20","02:00"
"2001-02-20 03:00","2001","02","20","03:00"
"2001-02-20 04:00","2001","02","20","04:00"
"2001-02-20 05:00","2001","02","20","05:00"
"2001-02-20 06:00","2001","02","20","06:00","2.8","","-0.8","","77","","23","","9","","16.1","","100.45","","","","","","Cloudy"
"2001-02-20 07:00","2001","02","20","07:00","2.7","","-0.7","","78","","23","","9","","12.9","","100.45","","","","","","Cloudy"
"2001-02-20 08:00","2001","02","20","08:00","2.5","","-0.8","","79","","23","","9","","16.1","","100.49","","","","","","Mostly Cloudy"
"2001-02-20 09:00","2001","02","20","09:00","3.4","","-0.4","","76","","24","","9","","16.1","","100.52","","","","","","Cloudy"
"2001-02-20 10:00","2001","02","20","10:00","4.2","","-0.6","","71","","23","","19","","16.1","","100.49","","","","","","Cloudy"
"2001-02-20 11:00","2001","02","20","11:00","4.7","","-0.4","","69","","24","","19","","16.1","","100.45","","","","","","Cloudy"
"2001-02-20 12:00","2001","02","20","12:00","5.3","","0.5","","71","","24","","19","","16.1","","100.42","","","","","","Cloudy"
"2001-02-20 13:00","2001","02","20","13:00","5.6","","0.6","","70","","24","","19","","16.1","","100.32","","","","","","Cloudy"
"2001-02-20 14:00","2001","02","20","14:00","5.7","","0.2","","68","","24","","19","","16.1","","100.29","","","","","","Cloudy"
"2001-02-20 15:00","2001","02","20","15:00","5.9","","0.1","","66","","24","","19","","16.1","","100.25","","","","","","Cloudy"
"2001-02-20 16:00","2001","02","20","16:00","5.5","","-0.5","","65","","22","","28","","16.1","","100.22","","","","","","Mostly Cloudy"
"2001-02-20 17:00","2001","02","20","17:00","4.8","","-1.3","","65","","23","","28","","12.9","","100.22","","","","","","Mostly Cloudy"
"2001-02-20 18:00","2001","02","20","18:00","4.2","","-1.1","","68","","24","","19","","11.3","","100.22","","","","","","Mostly Cloudy"
"2001-02-20 19:00","2001","02","20","19:00","3.5","","-1.3","","71","","24","","15","","16.1","","100.29","","","","","","Mainly Clear"
"2001-02-20 20:00","2001","02","20","20:00","2.4","","-1.4","","76","","29","","19","","24.1","","100.32","","","","","","Cloudy"
"2001-02-20 21:00","2001","02","20","21:00","1.9","","-4.9","","61","","28","","19","","24.1","","100.39","","","","","","Cloudy"
"2001-02-20 22:00","2001","02","20","22:00","1.4","","-6.7","","55","","28","","19","","24.1","","100.42","","","","","","Cloudy"
"2001-02-20 23:00","2001","02","20","23:00"
"2001-02-21 00:00","2001","02","21","00:00"
"2001-02-21 01:00","2001","02","21","01:00"
"2001-02-21 02:00","2001","02","21","02:00"
"2001-02-21 03:00","2001","02","21","03:00"
"2001-02-21 04:00","2001","02","21","04:00"
"2001-02-21 05:00","2001","02","21","05:00"
"2001-02-21 06:00","2001","02","21","06:00","-5.4","","-12.5","","57","","28","","26","","48.3","","101.02","","","","-13","","Mostly Cloudy"
"2001-02-21 07:00","2001","02","21","07:00","-6.2","","-15.1","","49","","29","","28","","48.3","","101.12","","","","-14","","Mostly Cloudy"
"2001-02-21 08:00","2001","02","21","08:00","-6.2","","-14.9","","50","","28","","28","","48.3","","101.22","","","","-14","","Mainly Clear"
"2001-02-21 09:00","2001","02","21","09:00","-6.5","","-15.2","","50","","30","","28","","48.3","","101.33","","","","-15","","Mostly Cloudy"
"2001-02-21 10:00","2001","02","21","10:00","-5.9","","-14.0","","53","","31","","20","","24.1","","101.39","","","","-13","","Mostly Cloudy"
"2001-02-21 11:00","2001","02","21","11:00","-6.9","","-12.8","","63","","31","","26","","16.1","","101.53","","","","-15","","Snow Showers"
"2001-02-21 12:00","2001","02","21","12:00","-5.3","","-14.6","","48","","32","","28","","16.1","","101.59","","","","-13","","Snow Showers"
"2001-02-21 13:00","2001","02","21","13:00","-6.5","","-15.9","","47","","31","","28","","24.1","","101.63","","","","-15","","Mostly Cloudy"
"2001-02-21 14:00","2001","02","21","14:00","-7.2","","-14.1","","58","","33","","19","","24.1","","101.66","","","","-14","","Mostly Cloudy"
"2001-02-21 15:00","2001","02","21","15:00","-7.2","","-13.5","","61","","29","","28","","24.1","","101.73","","","","-16","","Mostly Cloudy"
"2001-02-21 16:00","2001","02","21","16:00","-6.7","","-17.1","","43","","28","","22","","24.1","","101.80","","","","-14","","Mostly Cloudy"
"2001-02-21 17:00","2001","02","21","17:00","-7.0","","-16.2","","48","","30","","22","","24.1","","101.83","","","","-14","","Mostly Cloudy"
"2001-02-21 18:00","2001","02","21","18:00","-7.6","","-16.9","","47","","30","","22","","24.1","","101.83","","","","-15","","Mostly Cloudy"
"2001-02-21 19:00","2001","02","21","19:00","-7.8","","-17.6","","45","","28","","22","","24.1","","101.96","","","","-15","","Mostly Cloudy"
"2001-02-21 20:00","2001","02","21","20:00","-8.1","","-16.7","","50","","28","","22","","24.1","","102.00","","","","-16","","Mostly Cloudy"
"2001-02-21 21:00","2001","02","21","21:00","-8.5","","-16.8","","51","","29","","19","","24.1","","101.96","","","","-16","","Mainly Clear"
"2001-02-21 22:00","2001","02","21","22:00","-9.1","","-16.2","","56","","24","","19","","24.1","","102.00","","","","-17","","Mainly Clear"
"2001-02-21 23:00","2001","02","21","23:00"
"2001-02-22 00:00","2001","02","22","00:00"
"2001-02-22 01:00","2001","02","22","01:00"
"2001-02-22 02:00","2001","02","22","02:00"
"2001-02-22 03:00","2001","02","22","03:00"
"2001-02-22 04:00","2001","02","22","04:00"
"2001-02-22 05:00","2001","02","22","05:00"
"2001-02-22 06:00","2001","02","22","06:00","-9.6","","-14.9","","65","","18","","15","","48.3","","101.63","","","","-16","","Cloudy"
"2001-02-22 07:00","2001","02","22","07:00","-9.4","","-14.9","","64","","19","","19","","48.3","","101.63","","","","-17","","Cloudy"
"2001-02-22 08:00","2001","02","22","08:00","-9.1","","-15.6","","59","","19","","19","","24.1","","101.59","","","","-17","","Mostly Cloudy"
"2001-02-22 09:00","2001","02","22","09:00","-8.4","","-15.4","","57","","19","","19","","24.1","","101.53","","","","-16","","Cloudy"
"2001-02-22 10:00","2001","02","22","10:00","-7.5","","-15.6","","52","","18","","15","","24.1","","101.39","","","","-14","","Cloudy"
"2001-02-22 11:00","2001","02","22","11:00","-6.6","","-15.3","","50","","12","","15","","24.1","","101.29","","","","-13","","Cloudy"
"2001-02-22 12:00","2001","02","22","12:00","-6.1","","-15.1","","49","","9","","9","","24.1","","101.26","","","","-10","","Cloudy"
"2001-02-22 13:00","2001","02","22","13:00","-5.7","","-15.0","","48","","11","","9","","24.1","","101.09","","","","-10","","Cloudy"
"2001-02-22 14:00","2001","02","22","14:00","-4.8","","-14.6","","46","","12","","9","","24.1","","100.89","","","","-9","","Cloudy"
"2001-02-22 15:00","2001","02","22","15:00","-4.3","","-15.1","","43","","14","","9","","24.1","","100.76","","","","-8","","Cloudy"
"2001-02-22 16:00","2001","02","22","16:00","-5.4","","-10.4","","68","","17","","19","","6.4","","100.69","","","","-12","","Snow"
"2001-02-22 17:00","2001","02","22","17:00","-5.8","","-8.6","","81","","19","","15","","6.4","","100.62","","","","-12","","Snow"
"2001-02-22 18:00","2001","02","22","18:00","-6.0","","-8.5","","82","","20","","15","","6.4","","100.55","","","","-12","","Snow"
"2001-02-22 19:00","2001","02","22","19:00","-6.6","","-8.6","","86","","17","","9","","16.1","","100.52","","","","-11","","Snow"
"2001-02-22 20:00","2001","02","22","20:00","-6.0","","-8.2","","84","","16","","7","","16.1","","100.45","","","","-9","","Snow"
"2001-02-22 21:00","2001","02","22","21:00","-5.8","","-8.0","","84","","21","","9","","16.1","","100.45","","","","-10","","Snow"
"2001-02-22 22:00","2001","02","22","22:00","-5.6","","-7.8","","84","","20","","9","","16.1","","100.42","","","","-10","","Snow"
"2001-02-22 23:00","2001","02","22","23:00"
"2001-02-23 00:00","2001","02","23","00:00"
"2001-02-23 01:00","2001","02","23","01:00"
"2001-02-23 02:00","2001","02","23","02:00"
"2001-02-23 03:00","2001","02","23","03:00"
"2001-02-23 04:00","2001","02","23","04:00"
"2001-02-23 05:00","2001","02","23","05:00"
"2001-02-23 06:00","2001","02","23","06:00","-1.8","","-4.7","","81","","24","","15","","6.4","","100.32","","","","-7","","Snow Showers"
"2001-02-23 07:00","2001","02","23","07:00","-2.4","","-5.3","","80","","26","","26","","6.4","","100.39","","","","-9","","Snow Showers"
"2001-02-23 08:00","2001","02","23","08:00","-2.8","","-8.2","","66","","27","","22","","19.3","","100.52","","","","-9","","Mainly Clear"
"2001-02-23 09:00","2001","02","23","09:00","-2.5","","-9.4","","59","","26","","26","","19.3","","100.62","","","","-9","","Mostly Cloudy"
"2001-02-23 10:00","2001","02","23","10:00","-1.6","","-9.5","","55","","27","","22","","19.3","","100.69","","","","-8","","Mainly Clear"
"2001-02-23 11:00","2001","02","23","11:00","-0.6","","-10.2","","48","","27","","28","","24.1","","100.76","","","","-7","","Mainly Clear"
"2001-02-23 12:00","2001","02","23","12:00","-0.4","","-9.8","","49","","26","","28","","24.1","","100.86","","","","-7","","Mostly Cloudy"
"2001-02-23 13:00","2001","02","23","13:00","0.4","","-10.0","","46","","25","","28","","24.1","","100.89","","","","","","Mostly Cloudy"
"2001-02-23 14:00","2001","02","23","14:00","-2.7","","-4.9","","85","","27","","28","","4.8","","101.02","","","","-10","","Snow Showers"
"2001-02-23 15:00","2001","02","23","15:00","-1.4","","-8.4","","59","","28","","28","","16.1","","101.12","","","","-8","","Snow Showers"
"2001-02-23 16:00","2001","02","23","16:00","-2.1","","-11.1","","50","","29","","28","","24.1","","101.26","","","","-9","","Mostly Cloudy"
"2001-02-23 17:00","2001","02","23","17:00","-2.0","","-12.3","","45","","29","","37","","24.1","","101.39","","","","-10","","Mainly Clear"
"2001-02-23 18:00","2001","02","23","18:00","-2.9","","-12.3","","48","","27","","28","","24.1","","101.56","","","","-10","","Mostly Cloudy"
"2001-02-23 19:00","2001","02","23","19:00","-3.3","","-12.0","","51","","28","","19","","24.1","","101.69","","","","-9","","Mostly Cloudy"
"2001-02-23 20:00","2001","02","23","20:00","-4.2","","-12.4","","53","","27","","19","","48.3","","101.83","","","","-10","","Mainly Clear"
"2001-02-23 21:00","2001","02","23","21:00","-4.4","","-12.6","","53","","26","","19","","48.3","","101.93","","","","-11","","Mostly Cloudy"
"2001-02-23 22:00","2001","02","23","22:00","-4.8","","-12.0","","57","","27","","9","","48.3","","102.03","","","","-9","","Mostly Cloudy"
"2001-02-23 23:00","2001","02","23","23:00"
"2001-02-24 00:00","2001","02","24","00:00"
"2001-02-24 01:00","2001","02","24","01:00"
"2001-02-24 02:00","2001","02","24","02:00"
"2001-02-24 03:00","2001","02","24","03:00"
"2001-02-24 04:00","2001","02","24","04:00"
"2001-02-24 05:00","2001","02","24","05:00"
"2001-02-24 06:00","2001","02","24","06:00","-8.2","","-10.9","","81","","","","0","","24.1","","102.30","","","","","","Mostly Cloudy"
"2001-02-24 07:00","2001","02","24","07:00","-8.4","","-11.3","","80","","","","0","","24.1","","102.37","","","","","","Mostly Cloudy"
"2001-02-24 08:00","2001","02","24","08:00","-6.6","","-9.7","","79","","","","0","","24.1","","102.40","","","","","","Mostly Cloudy"
"2001-02-24 09:00","2001","02","24","09:00","-4.5","","-9.8","","66","","16","","7","","24.1","","102.47","","","","-8","","Mostly Cloudy"
"2001-02-24 10:00","2001","02","24","10:00","-4.1","","-10.8","","60","","10","","22","","24.1","","102.40","","","","-11","","Cloudy"
"2001-02-24 11:00","2001","02","24","11:00","-3.6","","-10.9","","57","","11","","19","","24.1","","102.33","","","","-10","","Cloudy"
"2001-02-24 12:00","2001","02","24","12:00","-2.8","","-10.9","","54","","12","","19","","24.1","","102.23","","","","-9","","Cloudy"
"2001-02-24 13:00","2001","02","24","13:00","-2.1","","-11.1","","50","","9","","19","","24.1","","102.10","","","","-8","","Cloudy"
"2001-02-24 14:00","2001","02","24","14:00","-1.3","","-10.9","","48","","7","","19","","24.1","","102.00","","","","-7","","Cloudy"
"2001-02-24 15:00","2001","02","24","15:00","-1.0","","-10.3","","49","","7","","19","","24.1","","101.90","","","","-6","","Cloudy"
"2001-02-24 16:00","2001","02","24","16:00","-0.8","","-9.7","","51","","9","","19","","24.1","","101.76","","","","-6","","Cloudy"
"2001-02-24 17:00","2001","02","24","17:00","-0.2","","-9.6","","49","","9","","19","","16.1","","101.63","","","","-5","","Cloudy"
"2001-02-24 18:00","2001","02","24","18:00","-1.4","","-6.1","","70","","8","","19","","2.4","","101.43","","","","-7","","Snow"
"2001-02-24 19:00","2001","02","24","19:00","-1.4","","-4.4","","80","","9","","9","","24.1","","101.33","","","","-5","","Mostly Cloudy"
"2001-02-24 20:00","2001","02","24","20:00","-1.2","","-4.5","","78","","10","","19","","24.1","","101.09","","","","-7","","Cloudy"
"2001-02-24 21:00","2001","02","24","21:00","-0.7","","-3.8","","79","","10","","9","","24.1","","101.06","","","","-4","","Cloudy"
"2001-02-24 22:00","2001","02","24","22:00","-0.6","","-3.3","","82","","8","","9","","16.1","","100.99","","","","-4","","Rain"
"2001-02-24 23:00","2001","02","24","23:00"
"2001-02-25 00:00","2001","02","25","00:00"
"2001-02-25 01:00","2001","02","25","01:00"
"2001-02-25 02:00","2001","02","25","02:00"
"2001-02-25 03:00","2001","02","25","03:00"
"2001-02-25 04:00","2001","02","25","04:00"
"2001-02-25 05:00","2001","02","25","05:00"
"2001-02-25 06:00","2001","02","25","06:00","3.8","","2.4","","91","","16","","7","","11.3","","99.65","","","","","","Rain"
"2001-02-25 07:00","2001","02","25","07:00","5.5","","3.8","","89","","18","","20","","9.7","","99.48","","","","","","Rain,Fog"
"2001-02-25 08:00","2001","02","25","08:00","7.1","","3.9","","80","","18","","26","","14.5","","99.25","","","","","","Rain"
"2001-02-25 09:00","2001","02","25","09:00","9.1","","5.1","","76","","19","","33","","19.3","","99.08","","","","","","Mostly Cloudy"
"2001-02-25 10:00","2001","02","25","10:00","10.5","","6.4","","76","","19","","37","","24.1","","99.08","","","","","","Mostly Cloudy"
"2001-02-25 11:00","2001","02","25","11:00","12.3","","7.4","","72","","20","","28","","24.1","","99.04","","","","","","Mainly Clear"
"2001-02-25 12:00","2001","02","25","12:00","13.8","","8.4","","70","","20","","28","","24.1","","98.94","","","","","","Mainly Clear"
"2001-02-25 13:00","2001","02","25","13:00","14.4","","9.2","","71","","22","","28","","24.1","","98.88","","","","","","Mostly Cloudy"
"2001-02-25 14:00","2001","02","25","14:00","13.0","","6.5","","65","","23","","28","","24.1","","98.81","","","","","","Mostly Cloudy"
"2001-02-25 15:00","2001","02","25","15:00","13.5","","5.4","","58","","23","","37","","24.1","","98.81","","","","","","Mostly Cloudy"
"2001-02-25 16:00","2001","02","25","16:00","12.6","","5.7","","63","","24","","33","","24.1","","98.88","","","","","","Mostly Cloudy"
"2001-02-25 17:00","2001","02","25","17:00","10.2","","4.1","","66","","24","","37","","24.1","","98.94","","","","","","Mostly Cloudy"
"2001-02-25 18:00","2001","02","25","18:00","7.1","","-0.4","","59","","24","","37","","24.1","","99.21","","","","","","Mainly Clear"
"2001-02-25 19:00","2001","02","25","19:00","5.7","","-1.1","","62","","25","","28","","24.1","","99.41","","","","","","Mainly Clear"
"2001-02-25 20:00","2001","02","25","20:00","4.8","","-1.3","","65","","24","","28","","24.1","","99.55","","","","","","Rain Showers"
"2001-02-25 21:00","2001","02","25","21:00","4.0","","-1.7","","66","","24","","19","","24.1","","99.75","","","","","","Cloudy"
"2001-02-25 22:00","2001","02","25","22:00","3.7","","-2.1","","66","","24","","28","","24.1","","99.85","","","","","","Cloudy"
"2001-02-25 23:00","2001","02","25","23:00"
"2001-02-26 00:00","2001","02","26","00:00"
"2001-02-26 01:00","2001","02","26","01:00"
"2001-02-26 02:00","2001","02","26","02:00"
"2001-02-26 03:00","2001","02","26","03:00"
"2001-02-26 04:00","2001","02","26","04:00"
"2001-02-26 05:00","2001","02","26","05:00"
"2001-02-26 06:00","2001","02","26","06:00","1.7","","-4.5","","63","","28","","28","","19.3","","100.69","","","","","","Cloudy"
"2001-02-26 07:00","2001","02","26","07:00","0.9","","-4.5","","67","","29","","37","","24.1","","100.82","","","","","","Cloudy"
"2001-02-26 08:00","2001","02","26","08:00","0.6","","-5.4","","64","","28","","19","","24.1","","100.99","","","","","","Mostly Cloudy"
"2001-02-26 09:00","2001","02","26","09:00","-0.1","","-5.4","","67","","30","","19","","24.1","","101.12","","","","-5","","Mostly Cloudy"
"2001-02-26 10:00","2001","02","26","10:00","-0.4","","-6.3","","64","","29","","28","","24.1","","101.22","","","","-7","","Mostly Cloudy"
"2001-02-26 11:00","2001","02","26","11:00","0.4","","-7.8","","54","","27","","28","","24.1","","101.26","","","","","","Mostly Cloudy"
"2001-02-26 12:00","2001","02","26","12:00","0.5","","-7.0","","57","","27","","28","","24.1","","101.33","","","","","","Mostly Cloudy"
"2001-02-26 13:00","2001","02","26","13:00","1.2","","-6.1","","58","","28","","30","","24.1","","101.36","","","","","","Mostly Cloudy"
"2001-02-26 14:00","2001","02","26","14:00","1.7","","-5.5","","59","","28","","19","","24.1","","101.39","","","","","","Mainly Clear"
"2001-02-26 15:00","2001","02","26","15:00","1.2","","-6.3","","57","","27","","22","","24.1","","101.43","","","","","","Mainly Clear"
"2001-02-26 16:00","2001","02","26","16:00","1.8","","-5.8","","57","","27","","22","","24.1","","101.43","","","","","","Mainly Clear"
"2001-02-26 17:00","2001","02","26","17:00","0.3","","-5.7","","64","","29","","22","","24.1","","101.43","","","","","","Mainly Clear"
"2001-02-26 18:00","2001","02","26","18:00","0.1","","-6.1","","63","","27","","15","","24.1","","101.39","","","","","","Mainly Clear"
"2001-02-26 19:00","2001","02","26","19:00","-1.1","","-6.5","","67","","25","","19","","24.1","","101.43","","","","-6","","Clear"
"2001-02-26 20:00","2001","02","26","20:00","-1.9","","-6.6","","70","","26","","9","","24.1","","101.39","","","","-5","","Mainly Clear"
"2001-02-26 21:00","2001","02","26","21:00","-2.0","","-5.6","","76","","21","","6","","24.1","","101.39","","","","-4","","Cloudy"
"2001-02-26 22:00","2001","02","26","22:00","-1.1","","-5.2","","74","","21","","9","","24.1","","101.36","","","","-4","","Cloudy"
"2001-02-26 23:00","2001","02","26","23:00"
"2001-02-27 00:00","2001","02","27","00:00"
"2001-02-27 01:00","2001","02","27","01:00"
"2001-02-27 02:00","2001","02","27","02:00"
"2001-02-27 03:00","2001","02","27","03:00"
"2001-02-27 04:00","2001","02","27","04:00"
"2001-02-27 05:00","2001","02","27","05:00"
"2001-02-27 06:00","2001","02","27","06:00","1.3","","-2.6","","75","","28","","19","","12.9","","101.12","","","","","","Cloudy"
"2001-02-27 07:00","2001","02","27","07:00","1.0","","-3.4","","72","","27","","19","","12.9","","101.16","","","","","","Mostly Cloudy"
"2001-02-27 08:00","2001","02","27","08:00","0.8","","-3.8","","71","","26","","19","","16.1","","101.22","","","","","","Mostly Cloudy"
"2001-02-27 09:00","2001","02","27","09:00","1.2","","-5.5","","61","","28","","19","","12.9","","101.22","","","","","","Mostly Cloudy"
"2001-02-27 10:00","2001","02","27","10:00","1.3","","-5.1","","62","","28","","22","","19.3","","101.22","","","","","","Mostly Cloudy"
"2001-02-27 11:00","2001","02","27","11:00","-1.7","","-5.3","","76","","34","","19","","12.9","","101.29","","","","-7","","Snow Showers"
"2001-02-27 12:00","2001","02","27","12:00","-1.2","","-6.4","","68","","35","","19","","9.7","","101.33","","","","-7","","Snow Showers"
"2001-02-27 13:00","2001","02","27","13:00","-0.2","","-6.9","","61","","34","","15","","24.1","","101.22","","","","-5","","Mostly Cloudy"
"2001-02-27 14:00","2001","02","27","14:00","0.4","","-7.5","","55","","32","","15","","24.1","","101.16","","","","","","Mainly Clear"
"2001-02-27 15:00","2001","02","27","15:00","-0.3","","-8.0","","56","","28","","19","","24.1","","101.09","","","","-5","","Mostly Cloudy"
"2001-02-27 16:00","2001","02","27","16:00","-0.1","","-8.7","","52","","29","","22","","24.1","","101.06","","","","-6","","Mostly Cloudy"
"2001-02-27 17:00","2001","02","27","17:00","-1.1","","-7.2","","63","","28","","26","","16.1","","101.09","","","","-7","","Mostly Cloudy"
"2001-02-27 18:00","2001","02","27","18:00","0.1","","-10.2","","46","","29","","28","","24.1","","101.12","","","","","","Mainly Clear"
"2001-02-27 19:00","2001","02","27","19:00","-3.2","","-12.7","","48","","28","","28","","24.1","","101.16","","","","-10","","Mainly Clear"
"2001-02-27 20:00","2001","02","27","20:00","-3.3","","-13.6","","45","","29","","22","","24.1","","101.16","","","","-10","","Mainly Clear"
"2001-02-27 21:00","2001","02","27","21:00","-4.0","","-13.1","","49","","30","","22","","24.1","","101.16","","","","-11","","Mainly Clear"
"2001-02-27 22:00","2001","02","27","22:00","-4.4","","-12.8","","52","","32","","24","","24.1","","101.19","","","","-11","","Mainly Clear"
"2001-02-27 23:00","2001","02","27","23:00"
"2001-02-28 00:00","2001","02","28","00:00"
"2001-02-28 01:00","2001","02","28","01:00"
"2001-02-28 02:00","2001","02","28","02:00"
"2001-02-28 03:00","2001","02","28","03:00"
"2001-02-28 04:00","2001","02","28","04:00"
"2001-02-28 05:00","2001","02","28","05:00"
"2001-02-28 06:00","2001","02","28","06:00","-5.7","","-12.4","","59","","31","","19","","24.1","","101.06","","","","-12","","Mostly Cloudy"
"2001-02-28 07:00","2001","02","28","07:00","-6.5","","-11.9","","65","","30","","19","","24.1","","101.06","","","","-13","","Mainly Clear"
"2001-02-28 08:00","2001","02","28","08:00","-5.8","","-11.8","","63","","28","","19","","24.1","","101.06","","","","-12","","Mostly Cloudy"
"2001-02-28 09:00","2001","02","28","09:00","-5.5","","-12.6","","57","","26","","19","","24.1","","101.06","","","","-12","","Mostly Cloudy"
"2001-02-28 10:00","2001","02","28","10:00","-4.5","","-13.8","","48","","27","","26","","24.1","","101.02","","","","-12","","Mostly Cloudy"
"2001-02-28 11:00","2001","02","28","11:00","-4.8","","-13.1","","52","","30","","26","","24.1","","100.99","","","","-12","","Mostly Cloudy"
"2001-02-28 12:00","2001","02","28","12:00","-4.0","","-13.8","","46","","29","","19","","24.1","","100.92","","","","-10","","Mostly Cloudy"
"2001-02-28 13:00","2001","02","28","13:00","-4.3","","-13.8","","47","","27","","22","","24.1","","100.82","","","","-11","","Mainly Clear"
"2001-02-28 14:00","2001","02","28","14:00","-4.2","","-13.6","","48","","29","","24","","24.1","","100.76","","","","-11","","Mostly Cloudy"
"2001-02-28 15:00","2001","02","28","15:00","-4.2","","-12.9","","51","","28","","24","","24.1","","100.65","","","","-11","","Snow Showers"
"2001-02-28 16:00","2001","02","28","16:00","-4.1","","-12.5","","52","","28","","19","","24.1","","100.55","","","","-10","","Cloudy"
"2001-02-28 17:00","2001","02","28","17:00","-4.3","","-13.6","","48","","26","","24","","24.1","","100.52","","","","-11","","Cloudy"
"2001-02-28 18:00","2001","02","28","18:00","-4.8","","-13.8","","49","","28","","19","","24.1","","100.52","","","","-11","","Mostly Cloudy"
"2001-02-28 19:00","2001","02","28","19:00","-5.2","","-12.9","","55","","29","","22","","24.1","","100.45","","","","-12","","Cloudy"
"2001-02-28 20:00","2001","02","28","20:00","-5.1","","-13.1","","53","","28","","19","","24.1","","100.42","","","","-12","","Cloudy"
"2001-02-28 21:00","2001","02","28","21:00","-5.2","","-13.1","","54","","28","","19","","24.1","","100.39","","","","-12","","Cloudy"
"2001-02-28 22:00","2001","02","28","22:00","-5.2","","-12.3","","57","","28","","15","","24.1","","100.32","","","","-11","","Cloudy"
"2001-02-28 23:00","2001","02","28","23:00"
