"Station Name","ST CATHARINES A"
"Province","ONTARIO"
"Latitude","43.20"
"Longitude","-79.17"
"Elevation","97.80"
"Climate Identifier","6137287"
"WMO Identifier",""
"TC Identifier","YSN"
"All times are specified in Local Standard Time (LST). Add 1 hour to adjust for Daylight Saving Time where and when it is observed."

"Legend"
"E","Estimated"
"M","Missing"
"NA","Not Available"

"Date/Time","Year","Month","Day","Time","Temp (°C)","Temp Flag","Dew Point Temp (°C)","Dew Point Temp Flag","Rel Hum (%)","Rel Hum Flag","Wind Dir (10s deg)","Wind Dir Flag","Wind Spd (km/h)","Wind Spd Flag","Visibility (km)","Visibility Flag","Stn Press (kPa)","Stn Press Flag","Hmdx","Hmdx Flag","Wind Chill","Wind Chill Flag","Weather"
"2005-06-01 00:00","2005","06","01","00:00"
"2005-06-01 01:00","2005","06","01","01:00"
"2005-06-01 02:00","2005","06","01","02:00"
"2005-06-01 03:00","2005","06","01","03:00"
"2005-06-01 04:00","2005","06","01","04:00"
"2005-06-01 05:00","2005","06","01","05:00","11.9","","10.3","","90","","22","","9","","19.3","","100.86","","","","","","Clear"
"2005-06-01 06:00","2005","06","01","06:00","13.6","","11.5","","87","","22","","6","","19.3","","100.92","","","","","","Clear"
"2005-06-01 07:00","2005","06","01","07:00","15.4","","12.3","","82","","24","","6","","19.3","","100.98","","","","","","Clear"
"2005-06-01 08:00","2005","06","01","08:00","17.1","","12.2","","73","","34","","9","","16.1","","101.01","","","","","","Clear"
"2005-06-01 09:00","2005","06","01","09:00","19.8","","12.4","","62","","","","0","","19.3","","100.99","","","","","","Clear"
"2005-06-01 10:00","2005","06","01","10:00","22.2","","12.7","","55","","36","","9","","16.1","","100.97","","25","","","","Clear"
"2005-06-01 11:00","2005","06","01","11:00","20.4","","13.6","","65","","36","","19","","19.3","","100.95","","","","","","Clear"
"2005-06-01 12:00","2005","06","01","12:00","22.8","","13.6","","56","","1","","15","","16.1","","100.90","","26","","","","Mainly Clear"
"2005-06-01 13:00","2005","06","01","13:00","22.8","","13.4","","55","","2","","19","","19.3","","100.87","","26","","","","Mainly Clear"
"2005-06-01 14:00","2005","06","01","14:00","23.0","","13.1","","54","","3","","22","","24.1","","100.84","","26","","","","Mainly Clear"
"2005-06-01 15:00","2005","06","01","15:00","23.8","","12.3","","49","","6","","22","","24.1","","100.79","","26","","","","Mainly Clear"
"2005-06-01 16:00","2005","06","01","16:00","23.3","","11.5","","47","","5","","15","","24.1","","100.77","","25","","","","Mainly Clear"
"2005-06-01 17:00","2005","06","01","17:00","23.5","","11.1","","46","","6","","19","","24.1","","100.76","","25","","","","Mainly Clear"
"2005-06-01 18:00","2005","06","01","18:00","23.5","","10.8","","45","","4","","15","","24.1","","100.76","","25","","","","Mainly Clear"
"2005-06-01 19:00","2005","06","01","19:00","22.5","","9.8","","44","","6","","15","","24.1","","100.79","","","","","","Mostly Cloudy"
"2005-06-01 20:00","2005","06","01","20:00","20.1","","9.6","","51","","8","","11","","24.1","","100.80","","","","","","Mostly Cloudy"
"2005-06-01 21:00","2005","06","01","21:00","18.8","","10.3","","58","","8","","9","","24.1","","100.83","","","","","","Mostly Cloudy"
"2005-06-01 22:00","2005","06","01","22:00"
"2005-06-01 23:00","2005","06","01","23:00"
"2005-06-02 00:00","2005","06","02","00:00"
"2005-06-02 01:00","2005","06","02","01:00"
"2005-06-02 02:00","2005","06","02","02:00"
"2005-06-02 03:00","2005","06","02","03:00"
"2005-06-02 04:00","2005","06","02","04:00"
"2005-06-02 05:00","2005","06","02","05:00","12.4","","11.3","","93","","1","","9","","12.9","","100.89","","","","","","Clear"
"2005-06-02 06:00","2005","06","02","06:00","15.4","","13.1","","86","","","","0","","16.1","","100.94","","","","","","Mainly Clear"
"2005-06-02 07:00","2005","06","02","07:00","17.6","","12.2","","71","","21","","9","","16.1","","100.97","","","","","","Mainly Clear"
"2005-06-02 08:00","2005","06","02","08:00","20.2","","11.1","","56","","19","","9","","16.1","","100.96","","","","","","Mainly Clear"
"2005-06-02 09:00","2005","06","02","09:00","22.6","","10.8","","47","","19","","15","","16.1","","100.93","","","","","","Mainly Clear"
"2005-06-02 10:00","2005","06","02","10:00","24.6","","12.9","","48","","21","","9","","19.3","","100.90","","27","","","","Mostly Cloudy"
"2005-06-02 11:00","2005","06","02","11:00","22.7","","13.3","","55","","36","","9","","19.3","","100.89","","26","","","","Mostly Cloudy"
"2005-06-02 12:00","2005","06","02","12:00","23.3","","13.1","","53","","3","","19","","19.3","","100.84","","26","","","","Mostly Cloudy"
"2005-06-02 13:00","2005","06","02","13:00","23.3","","11.8","","48","","4","","19","","19.3","","100.75","","25","","","","Mostly Cloudy"
"2005-06-02 14:00","2005","06","02","14:00","23.8","","11.4","","46","","5","","19","","16.1","","100.66","","26","","","","Mainly Clear"
"2005-06-02 15:00","2005","06","02","15:00","24.2","","11.5","","45","","6","","19","","19.3","","100.60","","26","","","","Mostly Cloudy"
"2005-06-02 16:00","2005","06","02","16:00","23.2","","9.1","","41","","4","","19","","19.3","","100.57","","","","","","Mostly Cloudy"
"2005-06-02 17:00","2005","06","02","17:00","23.1","","9.3","","41","","4","","19","","19.3","","100.52","","","","","","Mostly Cloudy"
"2005-06-02 18:00","2005","06","02","18:00","23.4","","10.8","","45","","4","","15","","19.3","","100.47","","25","","","","Mostly Cloudy"
"2005-06-02 19:00","2005","06","02","19:00","22.4","","11.7","","51","","5","","9","","19.3","","100.48","","25","","","","Mostly Cloudy"
"2005-06-02 20:00","2005","06","02","20:00","19.6","","11.2","","58","","3","","6","","19.3","","100.51","","","","","","Mainly Clear"
"2005-06-02 21:00","2005","06","02","21:00","18.1","","11.4","","65","","22","","6","","19.3","","100.54","","","","","","Mainly Clear"
"2005-06-02 22:00","2005","06","02","22:00"
"2005-06-02 23:00","2005","06","02","23:00"
"2005-06-03 00:00","2005","06","03","00:00"
"2005-06-03 01:00","2005","06","03","01:00"
"2005-06-03 02:00","2005","06","03","02:00"
"2005-06-03 03:00","2005","06","03","03:00"
"2005-06-03 04:00","2005","06","03","04:00"
"2005-06-03 05:00","2005","06","03","05:00","17.4","","10.5","","64","","19","","9","","19.3","","100.61","","","","","","Cloudy"
"2005-06-03 06:00","2005","06","03","06:00","18.1","","10.9","","63","","23","","9","","24.1","","100.64","","","","","","Cloudy"
"2005-06-03 07:00","2005","06","03","07:00","18.6","","11.3","","62","","20","","9","","24.1","","100.67","","","","","","Cloudy"
"2005-06-03 08:00","2005","06","03","08:00","19.2","","11.9","","63","","19","","19","","24.1","","100.66","","","","","","Mostly Cloudy"
"2005-06-03 09:00","2005","06","03","09:00","19.7","","12.4","","63","","21","","19","","24.1","","100.63","","","","","","Mostly Cloudy"
"2005-06-03 10:00","2005","06","03","10:00","20.6","","12.9","","61","","18","","19","","24.1","","100.60","","","","","","Mostly Cloudy"
"2005-06-03 11:00","2005","06","03","11:00","19.4","","12.4","","64","","18","","19","","24.1","","100.57","","","","","","Mostly Cloudy"
"2005-06-03 12:00","2005","06","03","12:00","20.3","","13.3","","64","","16","","19","","24.1","","100.52","","","","","","Cloudy"
"2005-06-03 13:00","2005","06","03","13:00","20.5","","13.5","","64","","15","","19","","24.1","","100.48","","","","","","Cloudy"
"2005-06-03 14:00","2005","06","03","14:00","20.7","","14.5","","68","","19","","19","","24.1","","100.41","","","","","","Cloudy"
"2005-06-03 15:00","2005","06","03","15:00","20.3","","14.3","","68","","15","","19","","24.1","","100.35","","","","","","Cloudy"
"2005-06-03 16:00","2005","06","03","16:00","20.4","","14.3","","68","","18","","15","","24.1","","100.30","","","","","","Cloudy"
"2005-06-03 17:00","2005","06","03","17:00","20.5","","14.5","","68","","19","","17","","24.1","","100.29","","","","","","Cloudy"
"2005-06-03 18:00","2005","06","03","18:00","20.2","","14.8","","71","","16","","9","","24.1","","100.31","","","","","","Cloudy"
"2005-06-03 19:00","2005","06","03","19:00","18.8","","15.8","","83","","12","","9","","24.1","","100.34","","","","","","Cloudy"
"2005-06-03 20:00","2005","06","03","20:00","18.5","","15.5","","83","","12","","9","","24.1","","100.32","","","","","","Cloudy"
"2005-06-03 21:00","2005","06","03","21:00","18.2","","15.7","","85","","19","","7","","24.1","","100.32","","","","","","Cloudy"
"2005-06-03 22:00","2005","06","03","22:00"
"2005-06-03 23:00","2005","06","03","23:00"
"2005-06-04 00:00","2005","06","04","00:00"
"2005-06-04 01:00","2005","06","04","01:00"
"2005-06-04 02:00","2005","06","04","02:00"
"2005-06-04 03:00","2005","06","04","03:00"
"2005-06-04 04:00","2005","06","04","04:00"
"2005-06-04 05:00","2005","06","04","05:00","17.0","","15.1","","89","","","","0","","24.1","","100.21","","","","","","Cloudy"
"2005-06-04 06:00","2005","06","04","06:00","17.5","","15.5","","88","","","","0","","24.1","","100.26","","","","","","Cloudy"
"2005-06-04 07:00","2005","06","04","07:00","18.5","","15.6","","83","","","","0","","24.1","","100.27","","","","","","Cloudy"
"2005-06-04 08:00","2005","06","04","08:00","18.6","","15.3","","81","","20","","6","","16.1","","100.30","","","","","","Cloudy"
"2005-06-04 09:00","2005","06","04","09:00","18.3","","15.5","","84","","","","0","","16.1","","100.33","","","","","","Cloudy"
"2005-06-04 10:00","2005","06","04","10:00","20.8","","15.7","","73","","21","","4","","19.3","","100.35","","25","","","","Mostly Cloudy"
"2005-06-04 11:00","2005","06","04","11:00","21.1","","16.2","","74","","","","0","","19.3","","100.33","","26","","","","Mostly Cloudy"
"2005-06-04 12:00","2005","06","04","12:00","22.6","","16.3","","68","","12","","6","","24.1","","100.28","","27","","","","Mostly Cloudy"
"2005-06-04 13:00","2005","06","04","13:00","20.4","","16.3","","77","","35","","7","","19.3","","100.27","","25","","","","Cloudy"
"2005-06-04 14:00","2005","06","04","14:00","22.4","","16.6","","70","","32","","9","","19.3","","100.24","","27","","","","Cloudy"
"2005-06-04 15:00","2005","06","04","15:00","22.4","","16.4","","69","","35","","9","","16.1","","100.22","","27","","","","Cloudy"
"2005-06-04 16:00","2005","06","04","16:00","22.1","","16.5","","71","","2","","7","","16.1","","100.21","","27","","","","Cloudy"
"2005-06-04 17:00","2005","06","04","17:00","22.9","","16.4","","67","","3","","7","","16.1","","100.17","","28","","","","Cloudy"
"2005-06-04 18:00","2005","06","04","18:00","22.8","","16.5","","68","","5","","6","","16.1","","100.21","","28","","","","Cloudy"
"2005-06-04 19:00","2005","06","04","19:00","21.7","","16.3","","71","","5","","9","","16.1","","100.20","","27","","","","Mainly Clear"
"2005-06-04 20:00","2005","06","04","20:00","20.6","","16.4","","77","","11","","9","","16.1","","100.17","","25","","","","Mainly Clear"
"2005-06-04 21:00","2005","06","04","21:00","19.5","","15.6","","78","","16","","7","","16.1","","100.20","","","","","","Mainly Clear"
"2005-06-04 22:00","2005","06","04","22:00"
"2005-06-04 23:00","2005","06","04","23:00"
"2005-06-05 00:00","2005","06","05","00:00"
"2005-06-05 01:00","2005","06","05","01:00"
"2005-06-05 02:00","2005","06","05","02:00"
"2005-06-05 03:00","2005","06","05","03:00"
"2005-06-05 04:00","2005","06","05","04:00"
"2005-06-05 05:00","2005","06","05","05:00","17.5","","15.7","","89","","18","","9","","9.7","","100.17","","","","","","Fog"
"2005-06-05 06:00","2005","06","05","06:00","18.6","","16.4","","87","","21","","9","","9.7","","100.22","","","","","","Haze"
"2005-06-05 07:00","2005","06","05","07:00","21.1","","16.9","","77","","23","","9","","9.7","","100.20","","26","","","","Haze"
"2005-06-05 08:00","2005","06","05","08:00","23.6","","17.7","","70","","23","","9","","9.7","","100.23","","29","","","","Haze"
"2005-06-05 09:00","2005","06","05","09:00","25.4","","18.4","","65","","24","","9","","9.7","","100.19","","32","","","","Haze"
"2005-06-05 10:00","2005","06","05","10:00","26.9","","18.9","","62","","20","","15","","9.7","","100.18","","34","","","","Haze"
"2005-06-05 11:00","2005","06","05","11:00","28.4","","19.6","","59","","23","","9","","9.7","","100.19","","36","","","","Haze"
"2005-06-05 12:00","2005","06","05","12:00","30.0","","18.9","","51","","21","","19","","11.3","","100.14","","37","","","","Mainly Clear"
"2005-06-05 13:00","2005","06","05","13:00","30.1","","18.1","","49","","22","","19","","12.9","","100.11","","36","","","","Mainly Clear"
"2005-06-05 14:00","2005","06","05","14:00","30.3","","17.8","","47","","23","","19","","12.9","","100.07","","36","","","","Mainly Clear"
"2005-06-05 15:00","2005","06","05","15:00","30.4","","17.7","","47","","21","","22","","16.1","","100.05","","36","","","","Mainly Clear"
"2005-06-05 16:00","2005","06","05","16:00","30.9","","18.2","","47","","22","","22","","16.1","","99.97","","37","","","","Mainly Clear"
"2005-06-05 17:00","2005","06","05","17:00","30.7","","18.7","","49","","23","","19","","16.1","","99.93","","37","","","","Mainly Clear"
"2005-06-05 18:00","2005","06","05","18:00","29.9","","18.6","","51","","24","","11","","16.1","","99.89","","36","","","","Clear"
"2005-06-05 19:00","2005","06","05","19:00","28.6","","18.8","","55","","23","","9","","12.9","","99.94","","35","","","","Mainly Clear"
"2005-06-05 20:00","2005","06","05","20:00","26.7","","18.7","","62","","17","","9","","12.9","","99.91","","33","","","","Clear"
"2005-06-05 21:00","2005","06","05","21:00","25.1","","18.1","","65","","18","","11","","12.9","","99.90","","31","","","","Mainly Clear"
"2005-06-05 22:00","2005","06","05","22:00"
"2005-06-05 23:00","2005","06","05","23:00"
"2005-06-06 00:00","2005","06","06","00:00"
"2005-06-06 01:00","2005","06","06","01:00"
"2005-06-06 02:00","2005","06","06","02:00"
"2005-06-06 03:00","2005","06","06","03:00"
"2005-06-06 04:00","2005","06","06","04:00"
"2005-06-06 05:00","2005","06","06","05:00","21.0","","16.1","","74","","22","","9","","24.1","","99.82","","26","","","","Rain Showers"
"2005-06-06 06:00","2005","06","06","06:00","22.0","","15.8","","68","","22","","19","","24.1","","99.83","","26","","","","Mostly Cloudy"
"2005-06-06 07:00","2005","06","06","07:00","23.4","","16.6","","66","","20","","19","","24.1","","99.85","","28","","","","Cloudy"
"2005-06-06 08:00","2005","06","06","08:00","26.2","","17.7","","60","","24","","19","","24.1","","99.84","","32","","","","Mainly Clear"
"2005-06-06 09:00","2005","06","06","09:00","26.8","","17.9","","58","","23","","26","","24.1","","99.84","","33","","","","Mainly Clear"
"2005-06-06 10:00","2005","06","06","10:00","27.2","","17.9","","57","","23","","19","","16.1","","99.81","","33","","","","Mostly Cloudy"
"2005-06-06 11:00","2005","06","06","11:00","27.8","","18.4","","57","","23","","28","","16.1","","99.78","","34","","","","Mostly Cloudy"
"2005-06-06 12:00","2005","06","06","12:00","29.1","","18.0","","51","","22","","22","","19.3","","99.71","","35","","","","Mainly Clear"
"2005-06-06 13:00","2005","06","06","13:00","29.4","","17.6","","49","","23","","24","","24.1","","99.66","","35","","","","Mainly Clear"
"2005-06-06 14:00","2005","06","06","14:00","29.1","","16.9","","48","","22","","22","","19.3","","99.59","","34","","","","Mainly Clear"
"2005-06-06 15:00","2005","06","06","15:00","29.6","","16.2","","44","","23","","26","","19.3","","99.56","","34","","","","Mainly Clear"
"2005-06-06 16:00","2005","06","06","16:00","28.5","","16.7","","49","","24","","26","","19.3","","99.59","","34","","","","Mostly Cloudy"
"2005-06-06 17:00","2005","06","06","17:00","27.9","","16.8","","51","","23","","19","","19.3","","99.55","","33","","","","Mainly Clear"
"2005-06-06 18:00","2005","06","06","18:00","27.4","","15.9","","49","","24","","19","","24.1","","99.55","","32","","","","Mainly Clear"
"2005-06-06 19:00","2005","06","06","19:00","25.8","","15.6","","53","","22","","19","","24.1","","99.59","","30","","","","Mainly Clear"
"2005-06-06 20:00","2005","06","06","20:00","24.5","","14.9","","55","","23","","15","","24.1","","99.67","","28","","","","Mainly Clear"
"2005-06-06 21:00","2005","06","06","21:00","23.5","","14.8","","58","","23","","19","","24.1","","99.74","","27","","","","Clear"
"2005-06-06 22:00","2005","06","06","22:00"
"2005-06-06 23:00","2005","06","06","23:00"
"2005-06-07 00:00","2005","06","07","00:00"
"2005-06-07 01:00","2005","06","07","01:00"
"2005-06-07 02:00","2005","06","07","02:00"
"2005-06-07 03:00","2005","06","07","03:00"
"2005-06-07 04:00","2005","06","07","04:00"
"2005-06-07 05:00","2005","06","07","05:00","18.2","","14.9","","81","","23","","15","","24.1","","99.77","","","","","","Mainly Clear"
"2005-06-07 06:00","2005","06","07","06:00","20.5","","15.2","","72","","24","","15","","24.1","","99.83","","25","","","","Clear"
"2005-06-07 07:00","2005","06","07","07:00","22.6","","15.6","","65","","26","","15","","24.1","","99.86","","27","","","","Clear"
"2005-06-07 08:00","2005","06","07","08:00","24.4","","15.3","","57","","27","","22","","24.1","","99.86","","29","","","","Clear"
"2005-06-07 09:00","2005","06","07","09:00","25.9","","15.2","","52","","29","","22","","24.1","","99.90","","30","","","","Mainly Clear"
"2005-06-07 10:00","2005","06","07","10:00","27.1","","13.6","","43","","28","","20","","24.1","","99.93","","30","","","","Mainly Clear"
"2005-06-07 11:00","2005","06","07","11:00","27.9","","14.9","","45","","27","","19","","24.1","","99.89","","32","","","","Mainly Clear"
"2005-06-07 12:00","2005","06","07","12:00","28.4","","15.1","","44","","27","","15","","24.1","","99.89","","32","","","","Mainly Clear"
"2005-06-07 13:00","2005","06","07","13:00","29.4","","15.0","","42","","27","","15","","24.1","","99.89","","33","","","","Mainly Clear"
"2005-06-07 14:00","2005","06","07","14:00","30.7","","15.6","","40","","31","","20","","24.1","","99.86","","35","","","","Mainly Clear"
"2005-06-07 15:00","2005","06","07","15:00","30.7","","15.8","","41","","30","","19","","24.1","","99.85","","35","","","","Mainly Clear"
"2005-06-07 16:00","2005","06","07","16:00","30.0","","17.6","","47","","23","","19","","24.1","","99.85","","36","","","","Mainly Clear"
"2005-06-07 17:00","2005","06","07","17:00","29.0","","17.5","","50","","23","","19","","24.1","","99.86","","35","","","","Mostly Cloudy"
"2005-06-07 18:00","2005","06","07","18:00","29.5","","18.2","","51","","24","","19","","24.1","","99.89","","36","","","","Mainly Clear"
"2005-06-07 19:00","2005","06","07","19:00","28.8","","17.2","","50","","26","","9","","24.1","","99.88","","34","","","","Clear"
"2005-06-07 20:00","2005","06","07","20:00","27.1","","16.1","","51","","26","","9","","24.1","","99.89","","32","","","","Mainly Clear"
"2005-06-07 21:00","2005","06","07","21:00","24.3","","16.4","","61","","25","","9","","24.1","","99.91","","29","","","","Clear"
"2005-06-07 22:00","2005","06","07","22:00"
"2005-06-07 23:00","2005","06","07","23:00"
"2005-06-08 00:00","2005","06","08","00:00"
"2005-06-08 01:00","2005","06","08","01:00"
"2005-06-08 02:00","2005","06","08","02:00"
"2005-06-08 03:00","2005","06","08","03:00"
"2005-06-08 04:00","2005","06","08","04:00"
"2005-06-08 05:00","2005","06","08","05:00","18.9","","15.1","","79","","15","","15","","19.3","","99.93","","","","","","Cloudy"
"2005-06-08 06:00","2005","06","08","06:00","20.5","","15.8","","74","","21","","9","","19.3","","99.96","","25","","","","Cloudy"
"2005-06-08 07:00","2005","06","08","07:00","24.0","","16.7","","64","","24","","19","","19.3","","99.96","","29","","","","Cloudy"
"2005-06-08 08:00","2005","06","08","08:00","23.6","","16.4","","64","","28","","15","","19.3","","100.10","","28","","","","Cloudy"
"2005-06-08 09:00","2005","06","08","09:00","24.9","","16.9","","61","","24","","19","","16.1","","100.05","","30","","","","Mostly Cloudy"
"2005-06-08 10:00","2005","06","08","10:00","26.6","","17.3","","57","","20","","9","","16.1","","99.98","","32","","","","Mainly Clear"
"2005-06-08 11:00","2005","06","08","11:00","28.0","","17.7","","54","","27","","9","","16.1","","100.05","","34","","","","Mainly Clear"
"2005-06-08 12:00","2005","06","08","12:00","29.2","","19.3","","55","","22","","19","","16.1","","100.00","","36","","","","Mainly Clear"
"2005-06-08 13:00","2005","06","08","13:00","30.1","","19.1","","52","","22","","19","","16.1","","100.01","","37","","","","Mainly Clear"
"2005-06-08 14:00","2005","06","08","14:00","31.1","","18.2","","46","","31","","19","","16.1","","99.99","","37","","","","Mainly Clear"
"2005-06-08 15:00","2005","06","08","15:00","30.7","","17.8","","46","","25","","6","","19.3","","99.95","","37","","","","Mostly Cloudy"
"2005-06-08 16:00","2005","06","08","16:00","30.9","","17.7","","45","","24","","22","","19.3","","99.93","","37","","","","Mostly Cloudy"
"2005-06-08 17:00","2005","06","08","17:00","31.3","","17.5","","44","","23","","22","","19.3","","99.90","","37","","","","Mostly Cloudy"
"2005-06-08 18:00","2005","06","08","18:00","29.7","","17.7","","49","","23","","22","","16.1","","99.95","","35","","","","Cloudy"
"2005-06-08 19:00","2005","06","08","19:00","29.4","","17.7","","49","","24","","19","","16.1","","99.96","","35","","","","Cloudy"
"2005-06-08 20:00","2005","06","08","20:00","26.6","","17.9","","59","","22","","11","","16.1","","100.00","","33","","","","Cloudy"
"2005-06-08 21:00","2005","06","08","21:00","24.8","","17.7","","65","","22","","11","","16.1","","100.08","","31","","","","Mostly Cloudy"
"2005-06-08 22:00","2005","06","08","22:00"
"2005-06-08 23:00","2005","06","08","23:00"
"2005-06-09 00:00","2005","06","09","00:00"
"2005-06-09 01:00","2005","06","09","01:00"
"2005-06-09 02:00","2005","06","09","02:00"
"2005-06-09 03:00","2005","06","09","03:00"
"2005-06-09 04:00","2005","06","09","04:00"
"2005-06-09 05:00","2005","06","09","05:00","18.9","","17.2","","90","","30","","4","","9.7","","100.22","","","","","","Fog"
"2005-06-09 06:00","2005","06","09","06:00","19.6","","17.6","","88","","","","0","","9.7","","100.31","","","","","","Fog"
"2005-06-09 07:00","2005","06","09","07:00","20.6","","17.7","","83","","","","0","","8.0","","100.38","","26","","","","Fog"
"2005-06-09 08:00","2005","06","09","08:00","21.5","","18.2","","81","","","","0","","8.0","","100.36","","28","","","","Haze"
"2005-06-09 09:00","2005","06","09","09:00","25.3","","18.9","","68","","24","","13","","6.4","","100.36","","32","","","","Haze"
"2005-06-09 10:00","2005","06","09","10:00","27.3","","19.0","","61","","22","","19","","12.9","","100.34","","34","","","","Mostly Cloudy"
"2005-06-09 11:00","2005","06","09","11:00","28.5","","19.5","","58","","17","","9","","9.7","","100.33","","36","","","","Haze"
"2005-06-09 12:00","2005","06","09","12:00","30.1","","20.0","","55","","21","","19","","9.7","","100.34","","38","","","","Haze"
"2005-06-09 13:00","2005","06","09","13:00","30.9","","20.0","","52","","31","","17","","9.7","","100.31","","38","","","","Haze"
"2005-06-09 14:00","2005","06","09","14:00","31.6","","20.6","","52","","27","","9","","12.9","","100.25","","40","","","","Mainly Clear"
"2005-06-09 15:00","2005","06","09","15:00","31.9","","19.8","","49","","25","","22","","12.9","","100.20","","39","","","","Mainly Clear"
"2005-06-09 16:00","2005","06","09","16:00","32.0","","20.0","","49","","24","","15","","12.9","","100.17","","40","","","","Mainly Clear"
"2005-06-09 17:00","2005","06","09","17:00","32.1","","19.9","","49","","25","","13","","12.9","","100.15","","40","","","","Mainly Clear"
"2005-06-09 18:00","2005","06","09","18:00","31.0","","19.1","","49","","3","","15","","16.1","","100.17","","38","","","","Mainly Clear"
"2005-06-09 19:00","2005","06","09","19:00","28.4","","19.2","","57","","7","","15","","16.1","","100.20","","35","","","","Mainly Clear"
"2005-06-09 20:00","2005","06","09","20:00","27.2","","19.6","","63","","10","","11","","16.1","","100.19","","34","","","","Mainly Clear"
"2005-06-09 21:00","2005","06","09","21:00","27.0","","19.9","","65","","14","","6","","16.1","","100.27","","34","","","","Mainly Clear"
"2005-06-09 22:00","2005","06","09","22:00"
"2005-06-09 23:00","2005","06","09","23:00"
"2005-06-10 00:00","2005","06","10","00:00"
"2005-06-10 01:00","2005","06","10","01:00"
"2005-06-10 02:00","2005","06","10","02:00"
"2005-06-10 03:00","2005","06","10","03:00"
"2005-06-10 04:00","2005","06","10","04:00"
"2005-06-10 05:00","2005","06","10","05:00","","","","","","M","15","","9","","8.0","","100.37","","","","","","Haze"
"2005-06-10 06:00","2005","06","10","06:00","","","","","","M","12","","9","","12.9","","100.21","","","","","","Mostly Cloudy"
"2005-06-10 07:00","2005","06","10","07:00","","","","","","M","20","","19","","9.7","","100.20","","","","","","Haze"
"2005-06-10 08:00","2005","06","10","08:00","","","","","","M","23","","19","","9.7","","100.26","","","","","","Haze"
"2005-06-10 09:00","2005","06","10","09:00","26.0","","21.5","","76","","22","","19","","9.7","","100.40","","35","","","","Haze"
"2005-06-10 10:00","2005","06","10","10:00","29.9","","20.6","","57","","22","","19","","12.9","","100.41","","38","","","","Mostly Cloudy"
"2005-06-10 11:00","2005","06","10","11:00","30.0","","22.0","","62","","22","","19","","9.7","","100.41","","39","","","","Haze"
"2005-06-10 12:00","2005","06","10","12:00","30.9","","21.8","","58","","22","","17","","12.9","","100.39","","40","","","","Mainly Clear"
"2005-06-10 13:00","2005","06","10","13:00","31.5","","22.1","","58","","20","","19","","9.7","","100.32","","41","","","","Haze"
"2005-06-10 14:00","2005","06","10","14:00","32.6","","21.2","","51","","18","","15","","9.7","","100.25","","41","","","","Haze"
"2005-06-10 15:00","2005","06","10","15:00","31.7","","21.1","","54","","23","","11","","12.9","","100.19","","40","","","","Mainly Clear"
"2005-06-10 16:00","2005","06","10","16:00","31.5","","21.4","","55","","22","","15","","12.9","","100.18","","40","","","","Mostly Cloudy"
"2005-06-10 17:00","2005","06","10","17:00","30.2","","22.4","","63","","22","","20","","12.9","","100.16","","40","","","","Mostly Cloudy"
"2005-06-10 18:00","2005","06","10","18:00","26.9","","21.4","","72","","21","","19","","12.9","","100.23","","36","","","","Mostly Cloudy"
"2005-06-10 19:00","2005","06","10","19:00","26.5","","22.8","","80","","22","","24","","12.9","","100.26","","37","","","","Mostly Cloudy"
"2005-06-10 20:00","2005","06","10","20:00","25.6","","22.0","","81","","22","","17","","12.9","","100.26","","35","","","","Mostly Cloudy"
"2005-06-10 21:00","2005","06","10","21:00","25.0","","20.6","","77","","23","","17","","12.9","","100.35","","33","","","","Mostly Cloudy"
"2005-06-10 22:00","2005","06","10","22:00"
"2005-06-10 23:00","2005","06","10","23:00"
"2005-06-11 00:00","2005","06","11","00:00"
"2005-06-11 01:00","2005","06","11","01:00"
"2005-06-11 02:00","2005","06","11","02:00"
"2005-06-11 03:00","2005","06","11","03:00"
"2005-06-11 04:00","2005","06","11","04:00"
"2005-06-11 05:00","2005","06","11","05:00","21.9","","19.7","","87","","21","","15","","11.3","","100.39","","29","","","","Mostly Cloudy"
"2005-06-11 06:00","2005","06","11","06:00","23.0","","20.0","","83","","20","","7","","11.3","","100.41","","31","","","","Mostly Cloudy"
"2005-06-11 07:00","2005","06","11","07:00","24.5","","20.8","","80","","21","","19","","11.3","","100.41","","33","","","","Mostly Cloudy"
"2005-06-11 08:00","2005","06","11","08:00","24.5","","20.8","","80","","21","","19","","11.3","","100.42","","33","","","","Mostly Cloudy"
"2005-06-11 09:00","2005","06","11","09:00","26.3","","20.9","","72","","21","","19","","11.3","","100.44","","35","","","","Mostly Cloudy"
"2005-06-11 10:00","2005","06","11","10:00","26.7","","21.3","","72","","24","","19","","9.7","","100.45","","35","","","","Haze"
"2005-06-11 11:00","2005","06","11","11:00","28.5","","22.2","","69","","23","","15","","9.7","","100.46","","38","","","","Haze"
"2005-06-11 12:00","2005","06","11","12:00","29.4","","21.5","","63","","20","","19","","11.3","","100.43","","38","","","","Mainly Clear"
"2005-06-11 13:00","2005","06","11","13:00","30.7","","21.6","","58","","21","","19","","12.9","","100.37","","40","","","","Mainly Clear"
"2005-06-11 14:00","2005","06","11","14:00","30.6","","21.2","","57","","21","","28","","12.9","","100.33","","39","","","","Mostly Cloudy"
"2005-06-11 15:00","2005","06","11","15:00","31.0","","20.4","","53","","21","","22","","12.9","","100.27","","39","","","","Mainly Clear"
"2005-06-11 16:00","2005","06","11","16:00","31.5","","20.5","","52","","22","","28","","12.9","","100.23","","39","","","","Mainly Clear"
"2005-06-11 17:00","2005","06","11","17:00","30.0","","20.0","","55","","22","","19","","16.1","","100.21","","38","","","","Mostly Cloudy"
"2005-06-11 18:00","2005","06","11","18:00","29.0","","19.9","","58","","22","","19","","16.1","","100.24","","36","","","","Mostly Cloudy"
"2005-06-11 19:00","2005","06","11","19:00","28.9","","20.0","","59","","23","","19","","16.1","","100.28","","36","","","","Cloudy"
"2005-06-11 20:00","2005","06","11","20:00","27.5","","20.6","","66","","24","","15","","16.1","","100.27","","36","","","","Mostly Cloudy"
"2005-06-11 21:00","2005","06","11","21:00","26.2","","21.0","","73","","22","","9","","16.1","","100.31","","35","","","","Mostly Cloudy"
"2005-06-11 22:00","2005","06","11","22:00"
"2005-06-11 23:00","2005","06","11","23:00"
"2005-06-12 00:00","2005","06","12","00:00"
"2005-06-12 01:00","2005","06","12","01:00"
"2005-06-12 02:00","2005","06","12","02:00"
"2005-06-12 03:00","2005","06","12","03:00"
"2005-06-12 04:00","2005","06","12","04:00"
"2005-06-12 05:00","2005","06","12","05:00","23.3","","20.6","","85","","","","0","","9.7","","100.28","","31","","","","Haze"
"2005-06-12 06:00","2005","06","12","06:00","23.6","","20.8","","84","","","","0","","9.7","","100.33","","32","","","","Haze"
"2005-06-12 07:00","2005","06","12","07:00","24.4","","20.7","","80","","27","","7","","9.7","","100.38","","33","","","","Haze"
"2005-06-12 08:00","2005","06","12","08:00","23.4","","21.6","","90","","28","","7","","6.4","","100.38","","32","","","","Haze"
"2005-06-12 09:00","2005","06","12","09:00","24.7","","21.9","","84","","19","","9","","6.4","","100.36","","34","","","","Haze"
"2005-06-12 10:00","2005","06","12","10:00","26.3","","22.0","","77","","","","0","","9.7","","100.34","","36","","","","Haze"
"2005-06-12 11:00","2005","06","12","11:00","26.9","","22.6","","77","","12","","11","","9.7","","100.30","","37","","","","Haze"
"2005-06-12 12:00","2005","06","12","12:00","28.5","","22.6","","70","","","","0","","9.7","","100.26","","38","","","","Haze"
"2005-06-12 13:00","2005","06","12","13:00","28.9","","22.1","","67","","20","","9","","9.7","","100.22","","38","","","","Haze"
"2005-06-12 14:00","2005","06","12","14:00","29.7","","23.2","","68","","12","","9","","9.7","","100.16","","40","","","","Haze"
"2005-06-12 15:00","2005","06","12","15:00","29.8","","23.0","","67","","18","","9","","9.7","","100.11","","40","","","","Haze"
"2005-06-12 16:00","2005","06","12","16:00","30.0","","22.2","","63","","36","","9","","9.7","","100.08","","40","","","","Haze"
"2005-06-12 17:00","2005","06","12","17:00","29.4","","22.0","","64","","21","","19","","9.7","","100.03","","39","","","","Haze"
"2005-06-12 18:00","2005","06","12","18:00","28.8","","21.9","","66","","21","","13","","8.0","","100.02","","38","","","","Haze"
"2005-06-12 19:00","2005","06","12","19:00","28.2","","22.0","","69","","17","","15","","8.0","","100.02","","38","","","","Haze"
"2005-06-12 20:00","2005","06","12","20:00","27.0","","21.8","","73","","20","","13","","8.0","","100.01","","36","","","","Haze"
"2005-06-12 21:00","2005","06","12","21:00","26.2","","22.0","","78","","19","","9","","8.0","","100.03","","36","","","","Haze"
"2005-06-12 22:00","2005","06","12","22:00"
"2005-06-12 23:00","2005","06","12","23:00"
"2005-06-13 00:00","2005","06","13","00:00"
"2005-06-13 01:00","2005","06","13","01:00"
"2005-06-13 02:00","2005","06","13","02:00"
"2005-06-13 03:00","2005","06","13","03:00"
"2005-06-13 04:00","2005","06","13","04:00"
"2005-06-13 05:00","2005","06","13","05:00","22.6","","20.9","","90","","","","0","","8.0","","99.82","","31","","","","Haze"
"2005-06-13 06:00","2005","06","13","06:00","24.2","","21.5","","85","","","","0","","8.0","","99.82","","33","","","","Haze"
"2005-06-13 07:00","2005","06","13","07:00","25.2","","20.8","","77","","18","","4","","9.7","","99.78","","33","","","","Haze"
"2005-06-13 08:00","2005","06","13","08:00","25.3","","21.1","","78","","18","","7","","9.7","","99.77","","34","","","","Haze"
"2005-06-13 09:00","2005","06","13","09:00","26.8","","21.4","","72","","22","","13","","9.7","","99.71","","36","","","","Haze"
"2005-06-13 10:00","2005","06","13","10:00","27.9","","20.7","","65","","22","","13","","12.9","","99.64","","36","","","","Mostly Cloudy"
"2005-06-13 11:00","2005","06","13","11:00","29.4","","21.6","","63","","21","","15","","12.9","","99.58","","38","","","","Mostly Cloudy"
"2005-06-13 12:00","2005","06","13","12:00","29.1","","21.1","","62","","18","","20","","12.9","","99.53","","38","","","","Mostly Cloudy"
"2005-06-13 13:00","2005","06","13","13:00","29.9","","21.8","","62","","18","","19","","16.1","","99.44","","39","","","","Mainly Clear"
"2005-06-13 14:00","2005","06","13","14:00","30.3","","21.8","","60","","20","","19","","16.1","","99.36","","39","","","","Mainly Clear"
"2005-06-13 15:00","2005","06","13","15:00","30.5","","21.5","","59","","20","","19","","16.1","","99.25","","39","","","","Mostly Cloudy"
"2005-06-13 16:00","2005","06","13","16:00","24.0","","23.1","","95","","30","","9","","16.1","","99.29","","34","","","","Thunderstorms,Rain Showers"
"2005-06-13 17:00","2005","06","13","17:00","27.1","","23.2","","79","","21","","19","","19.3","","99.27","","38","","","","Cloudy"
"2005-06-13 18:00","2005","06","13","18:00","25.6","","21.5","","78","","24","","22","","12.9","","99.29","","34","","","","Cloudy"
"2005-06-13 19:00","2005","06","13","19:00","24.1","","22.0","","88","","23","","19","","12.9","","99.28","","33","","","","Cloudy"
"2005-06-13 20:00","2005","06","13","20:00","24.1","","21.4","","85","","23","","19","","12.9","","99.24","","33","","","","Cloudy"
"2005-06-13 21:00","2005","06","13","21:00","23.6","","21.4","","87","","24","","19","","16.1","","99.22","","32","","","","Rain Showers"
"2005-06-13 22:00","2005","06","13","22:00"
"2005-06-13 23:00","2005","06","13","23:00"
"2005-06-14 00:00","2005","06","14","00:00"
"2005-06-14 01:00","2005","06","14","01:00"
"2005-06-14 02:00","2005","06","14","02:00"
"2005-06-14 03:00","2005","06","14","03:00"
"2005-06-14 04:00","2005","06","14","04:00"
"2005-06-14 05:00","2005","06","14","05:00","22.5","","19.5","","83","","27","","15","","12.9","","99.38","","30","","","","Mostly Cloudy"
"2005-06-14 06:00","2005","06","14","06:00","22.2","","19.2","","83","","26","","19","","12.9","","99.45","","29","","","","Mostly Cloudy"
"2005-06-14 07:00","2005","06","14","07:00","22.7","","19.2","","81","","27","","19","","12.9","","99.50","","30","","","","Cloudy"
"2005-06-14 08:00","2005","06","14","08:00","23.3","","19.6","","80","","26","","15","","12.9","","99.52","","31","","","","Mostly Cloudy"
"2005-06-14 09:00","2005","06","14","09:00","25.6","","20.2","","72","","26","","15","","11.3","","99.48","","33","","","","Mainly Clear"
"2005-06-14 10:00","2005","06","14","10:00","27.2","","20.6","","67","","25","","13","","11.3","","99.44","","35","","","","Mainly Clear"
"2005-06-14 11:00","2005","06","14","11:00","28.3","","20.6","","63","","27","","19","","16.1","","99.40","","36","","","","Mainly Clear"
"2005-06-14 12:00","2005","06","14","12:00","28.3","","20.9","","64","","22","","15","","16.1","","99.37","","37","","","","Mostly Cloudy"
"2005-06-14 13:00","2005","06","14","13:00","27.9","","21.7","","69","","22","","20","","16.1","","99.37","","37","","","","Mostly Cloudy"
"2005-06-14 14:00","2005","06","14","14:00","28.2","","22.4","","71","","22","","22","","16.1","","99.32","","38","","","","Mainly Clear"
"2005-06-14 15:00","2005","06","14","15:00","29.6","","22.7","","67","","23","","17","","16.1","","99.17","","40","","","","Mainly Clear"
"2005-06-14 16:00","2005","06","14","16:00","30.1","","22.0","","62","","22","","20","","16.1","","99.07","","39","","","","Mainly Clear"
"2005-06-14 17:00","2005","06","14","17:00","30.0","","18.9","","51","","21","","20","","16.1","","98.99","","37","","","","Mostly Cloudy"
"2005-06-14 18:00","2005","06","14","18:00","29.6","","19.1","","53","","20","","19","","16.1","","98.97","","36","","","","Mostly Cloudy"
"2005-06-14 19:00","2005","06","14","19:00","27.6","","18.2","","57","","21","","19","","16.1","","98.96","","34","","","","Cloudy"
"2005-06-14 20:00","2005","06","14","20:00","24.1","","19.0","","73","","23","","19","","16.1","","99.03","","31","","","","Thunderstorms,Rain Showers"
"2005-06-14 21:00","2005","06","14","21:00","20.9","","19.3","","91","","16","","19","","16.1","","98.96","","28","","","","Thunderstorms,Rain Showers"
"2005-06-14 22:00","2005","06","14","22:00"
"2005-06-14 23:00","2005","06","14","23:00"
"2005-06-15 00:00","2005","06","15","00:00"
"2005-06-15 01:00","2005","06","15","01:00"
"2005-06-15 02:00","2005","06","15","02:00"
"2005-06-15 03:00","2005","06","15","03:00"
"2005-06-15 04:00","2005","06","15","04:00"
"2005-06-15 05:00","2005","06","15","05:00","19.8","","18.0","","89","","22","","19","","16.1","","98.87","","","","","","Mostly Cloudy"
"2005-06-15 06:00","2005","06","15","06:00","19.7","","17.6","","88","","22","","19","","19.3","","98.90","","","","","","Mostly Cloudy"
"2005-06-15 07:00","2005","06","15","07:00","21.0","","17.3","","79","","23","","22","","19.3","","98.87","","26","","","","Mainly Clear"
"2005-06-15 08:00","2005","06","15","08:00","22.1","","17.6","","76","","23","","26","","24.1","","98.89","","28","","","","Mainly Clear"
"2005-06-15 09:00","2005","06","15","09:00","23.2","","17.7","","71","","24","","19","","24.1","","98.87","","29","","","","Mostly Cloudy"
"2005-06-15 10:00","2005","06","15","10:00","24.0","","18.4","","71","","23","","20","","24.1","","98.85","","30","","","","Mostly Cloudy"
"2005-06-15 11:00","2005","06","15","11:00","24.4","","17.6","","66","","24","","26","","24.1","","98.82","","30","","","","Mostly Cloudy"
"2005-06-15 12:00","2005","06","15","12:00","23.0","","16.9","","69","","25","","28","","16.1","","98.79","","28","","","","Thunderstorms,Rain Showers"
"2005-06-15 13:00","2005","06","15","13:00","21.9","","18.0","","79","","24","","28","","19.3","","98.78","","28","","","","Mostly Cloudy"
"2005-06-15 14:00","2005","06","15","14:00","23.3","","17.9","","72","","25","","19","","24.1","","98.77","","29","","","","Mostly Cloudy"
"2005-06-15 15:00","2005","06","15","15:00","18.5","","17.4","","93","","24","","37","","1.2","","98.80","","","","","","Thunderstorms,Rain Showers,Fog"
"2005-06-15 16:00","2005","06","15","16:00","21.9","","18.7","","82","","25","","19","","24.1","","98.78","","28","","","","Mostly Cloudy"
"2005-06-15 17:00","2005","06","15","17:00","23.0","","17.2","","70","","24","","19","","24.1","","98.82","","28","","","","Mainly Clear"
"2005-06-15 18:00","2005","06","15","18:00","22.9","","17.9","","73","","24","","19","","24.1","","98.82","","29","","","","Mainly Clear"
"2005-06-15 19:00","2005","06","15","19:00","21.8","","17.8","","78","","24","","19","","24.1","","98.86","","28","","","","Mostly Cloudy"
"2005-06-15 20:00","2005","06","15","20:00","21.2","","17.3","","78","","25","","19","","24.1","","98.88","","27","","","","Cloudy"
"2005-06-15 21:00","2005","06","15","21:00","21.0","","16.2","","74","","26","","19","","24.1","","98.91","","26","","","","Cloudy"
"2005-06-15 22:00","2005","06","15","22:00"
"2005-06-15 23:00","2005","06","15","23:00"
"2005-06-16 00:00","2005","06","16","00:00"
"2005-06-16 01:00","2005","06","16","01:00"
"2005-06-16 02:00","2005","06","16","02:00"
"2005-06-16 03:00","2005","06","16","03:00"
"2005-06-16 04:00","2005","06","16","04:00"
"2005-06-16 05:00","2005","06","16","05:00","16.0","","13.8","","87","","33","","19","","24.1","","99.03","","","","","","Rain"
"2005-06-16 06:00","2005","06","16","06:00","16.0","","13.8","","87","","32","","15","","19.3","","99.07","","","","","","Cloudy"
"2005-06-16 07:00","2005","06","16","07:00","15.9","","13.5","","86","","32","","19","","24.1","","99.13","","","","","","Rain"
"2005-06-16 08:00","2005","06","16","08:00","15.8","","13.4","","86","","28","","22","","6.4","","99.18","","","","","","Rain"
"2005-06-16 09:00","2005","06","16","09:00","14.9","","13.9","","94","","28","","20","","6.4","","99.25","","","","","","Rain,Fog"
"2005-06-16 10:00","2005","06","16","10:00","14.9","","12.6","","86","","31","","22","","19.3","","99.27","","","","","","Rain"
"2005-06-16 11:00","2005","06","16","11:00","15.6","","12.6","","82","","30","","17","","24.1","","99.30","","","","","","Cloudy"
"2005-06-16 12:00","2005","06","16","12:00","16.2","","12.8","","80","","32","","17","","24.1","","99.32","","","","","","Mostly Cloudy"
"2005-06-16 13:00","2005","06","16","13:00","17.5","","13.0","","75","","29","","15","","24.1","","99.30","","","","","","Mostly Cloudy"
"2005-06-16 14:00","2005","06","16","14:00","17.6","","12.7","","73","","33","","11","","24.1","","99.29","","","","","","Mostly Cloudy"
"2005-06-16 15:00","2005","06","16","15:00","18.8","","10.6","","59","","31","","15","","24.1","","99.27","","","","","","Mostly Cloudy"
"2005-06-16 16:00","2005","06","16","16:00","19.1","","9.9","","55","","28","","19","","24.1","","99.29","","","","","","Mostly Cloudy"
"2005-06-16 17:00","2005","06","16","17:00","18.6","","9.7","","56","","27","","19","","24.1","","99.30","","","","","","Mostly Cloudy"
"2005-06-16 18:00","2005","06","16","18:00","18.3","","9.8","","58","","28","","19","","24.1","","99.31","","","","","","Mostly Cloudy"
"2005-06-16 19:00","2005","06","16","19:00","17.8","","10.2","","61","","28","","20","","24.1","","99.31","","","","","","Mainly Clear"
"2005-06-16 20:00","2005","06","16","20:00","16.0","","10.2","","68","","30","","15","","24.1","","99.32","","","","","","Mainly Clear"
"2005-06-16 21:00","2005","06","16","21:00","15.0","","11.3","","79","","34","","7","","24.1","","99.37","","","","","","Mostly Cloudy"
"2005-06-16 22:00","2005","06","16","22:00"
"2005-06-16 23:00","2005","06","16","23:00"
"2005-06-17 00:00","2005","06","17","00:00"
"2005-06-17 01:00","2005","06","17","01:00"
"2005-06-17 02:00","2005","06","17","02:00"
"2005-06-17 03:00","2005","06","17","03:00"
"2005-06-17 04:00","2005","06","17","04:00"
"2005-06-17 05:00","2005","06","17","05:00","14.0","","12.0","","88","","26","","15","","24.1","","99.32","","","","","","Mostly Cloudy"
"2005-06-17 06:00","2005","06","17","06:00","15.0","","12.6","","86","","29","","13","","24.1","","99.34","","","","","","Mostly Cloudy"
"2005-06-17 07:00","2005","06","17","07:00","15.6","","12.7","","83","","31","","19","","24.1","","99.38","","","","","","Mostly Cloudy"
"2005-06-17 08:00","2005","06","17","08:00","16.3","","12.8","","80","","30","","19","","24.1","","99.45","","","","","","Mostly Cloudy"
"2005-06-17 09:00","2005","06","17","09:00","16.7","","12.8","","78","","30","","15","","24.1","","99.48","","","","","","Mostly Cloudy"
"2005-06-17 10:00","2005","06","17","10:00","17.1","","12.5","","74","","28","","19","","24.1","","99.52","","","","","","Cloudy"
"2005-06-17 11:00","2005","06","17","11:00","18.0","","12.1","","68","","30","","19","","24.1","","99.53","","","","","","Cloudy"
"2005-06-17 12:00","2005","06","17","12:00","18.1","","13.0","","72","","30","","19","","24.1","","99.53","","","","","","Rain Showers"
"2005-06-17 13:00","2005","06","17","13:00","19.3","","12.4","","64","","27","","19","","24.1","","99.51","","","","","","Cloudy"
"2005-06-17 14:00","2005","06","17","14:00","20.2","","12.4","","61","","28","","19","","24.1","","99.54","","","","","","Cloudy"
"2005-06-17 15:00","2005","06","17","15:00","19.3","","13.1","","67","","29","","9","","24.1","","99.56","","","","","","Cloudy"
"2005-06-17 16:00","2005","06","17","16:00","18.7","","11.8","","64","","30","","7","","24.1","","99.57","","","","","","Mostly Cloudy"
"2005-06-17 17:00","2005","06","17","17:00","19.2","","13.0","","67","","31","","19","","24.1","","99.58","","","","","","Mostly Cloudy"
"2005-06-17 18:00","2005","06","17","18:00","18.3","","13.4","","73","","31","","19","","24.1","","99.64","","","","","","Mostly Cloudy"
"2005-06-17 19:00","2005","06","17","19:00","18.2","","12.1","","68","","32","","19","","24.1","","99.68","","","","","","Mostly Cloudy"
"2005-06-17 20:00","2005","06","17","20:00","17.8","","13.2","","74","","32","","15","","24.1","","99.74","","","","","","Mostly Cloudy"
"2005-06-17 21:00","2005","06","17","21:00","17.4","","12.8","","74","","31","","15","","24.1","","99.80","","","","","","Mostly Cloudy"
"2005-06-17 22:00","2005","06","17","22:00"
"2005-06-17 23:00","2005","06","17","23:00"
"2005-06-18 00:00","2005","06","18","00:00"
"2005-06-18 01:00","2005","06","18","01:00"
"2005-06-18 02:00","2005","06","18","02:00"
"2005-06-18 03:00","2005","06","18","03:00"
"2005-06-18 04:00","2005","06","18","04:00"
"2005-06-18 05:00","2005","06","18","05:00","15.5","","14.7","","95","","2","","4","","24.1","","100.01","","","","","","Mostly Cloudy"
"2005-06-18 06:00","2005","06","18","06:00","15.8","","14.7","","93","","6","","19","","24.1","","100.09","","","","","","Mostly Cloudy"
"2005-06-18 07:00","2005","06","18","07:00","16.1","","13.8","","86","","6","","15","","24.1","","100.16","","","","","","Mostly Cloudy"
"2005-06-18 08:00","2005","06","18","08:00","17.0","","13.3","","79","","5","","19","","24.1","","100.22","","","","","","Mostly Cloudy"
"2005-06-18 09:00","2005","06","18","09:00","17.2","","13.2","","77","","6","","15","","24.1","","100.27","","","","","","Mostly Cloudy"
"2005-06-18 10:00","2005","06","18","10:00","18.4","","12.4","","68","","3","","19","","24.1","","100.33","","","","","","Mainly Clear"
"2005-06-18 11:00","2005","06","18","11:00","18.4","","13.2","","72","","2","","19","","24.1","","100.39","","","","","","Mostly Cloudy"
"2005-06-18 12:00","2005","06","18","12:00","17.9","","12.3","","70","","6","","19","","24.1","","100.41","","","","","","Mostly Cloudy"
"2005-06-18 13:00","2005","06","18","13:00","18.1","","11.7","","66","","3","","17","","24.1","","100.43","","","","","","Cloudy"
"2005-06-18 14:00","2005","06","18","14:00","18.4","","12.2","","67","","2","","19","","24.1","","100.46","","","","","","Cloudy"
"2005-06-18 15:00","2005","06","18","15:00","17.7","","12.6","","72","","4","","11","","24.1","","100.49","","","","","","Cloudy"
"2005-06-18 16:00","2005","06","18","16:00","18.0","","12.5","","70","","5","","19","","24.1","","100.49","","","","","","Cloudy"
"2005-06-18 17:00","2005","06","18","17:00","17.7","","11.9","","69","","7","","15","","24.1","","100.56","","","","","","Cloudy"
"2005-06-18 18:00","2005","06","18","18:00","17.5","","11.3","","67","","7","","15","","24.1","","100.59","","","","","","Cloudy"
"2005-06-18 19:00","2005","06","18","19:00","16.9","","11.3","","70","","7","","11","","24.1","","100.66","","","","","","Cloudy"
"2005-06-18 20:00","2005","06","18","20:00","16.4","","11.3","","72","","8","","15","","24.1","","100.72","","","","","","Cloudy"
"2005-06-18 21:00","2005","06","18","21:00","16.1","","11.5","","74","","8","","9","","24.1","","100.80","","","","","","Cloudy"
"2005-06-18 22:00","2005","06","18","22:00"
"2005-06-18 23:00","2005","06","18","23:00"
"2005-06-19 00:00","2005","06","19","00:00"
"2005-06-19 01:00","2005","06","19","01:00"
"2005-06-19 02:00","2005","06","19","02:00"
"2005-06-19 03:00","2005","06","19","03:00"
"2005-06-19 04:00","2005","06","19","04:00"
"2005-06-19 05:00","2005","06","19","05:00","14.5","","12.6","","88","","4","","11","","24.1","","100.99","","","","","","Mostly Cloudy"
"2005-06-19 06:00","2005","06","19","06:00","14.7","","12.8","","88","","26","","6","","24.1","","101.04","","","","","","Mostly Cloudy"
"2005-06-19 07:00","2005","06","19","07:00","15.0","","12.3","","84","","5","","15","","24.1","","101.15","","","","","","Mostly Cloudy"
"2005-06-19 08:00","2005","06","19","08:00","15.2","","12.5","","84","","8","","15","","24.1","","101.20","","","","","","Cloudy"
"2005-06-19 09:00","2005","06","19","09:00","15.9","","13.0","","83","","9","","9","","24.1","","101.23","","","","","","Cloudy"
"2005-06-19 10:00","2005","06","19","10:00","16.2","","12.8","","80","","7","","15","","24.1","","101.24","","","","","","Cloudy"
"2005-06-19 11:00","2005","06","19","11:00","16.8","","12.0","","73","","6","","15","","24.1","","101.26","","","","","","Cloudy"
"2005-06-19 12:00","2005","06","19","12:00","18.0","","11.8","","67","","4","","19","","24.1","","101.27","","","","","","Cloudy"
"2005-06-19 13:00","2005","06","19","13:00","17.7","","12.1","","70","","5","","19","","24.1","","101.28","","","","","","Mostly Cloudy"
"2005-06-19 14:00","2005","06","19","14:00","18.3","","11.3","","64","","9","","19","","24.1","","101.24","","","","","","Mostly Cloudy"
"2005-06-19 15:00","2005","06","19","15:00","19.1","","10.3","","57","","3","","19","","24.1","","101.21","","","","","","Mostly Cloudy"
"2005-06-19 16:00","2005","06","19","16:00","19.1","","10.2","","56","","4","","7","","24.1","","101.22","","","","","","Mainly Clear"
"2005-06-19 17:00","2005","06","19","17:00","18.6","","9.8","","57","","3","","15","","24.1","","101.22","","","","","","Mainly Clear"
"2005-06-19 18:00","2005","06","19","18:00","18.2","","9.1","","55","","6","","11","","24.1","","101.23","","","","","","Mainly Clear"
"2005-06-19 19:00","2005","06","19","19:00","18.0","","9.7","","58","","6","","9","","24.1","","101.25","","","","","","Clear"
"2005-06-19 20:00","2005","06","19","20:00","16.3","","10.6","","69","","8","","7","","24.1","","101.21","","","","","","Clear"
"2005-06-19 21:00","2005","06","19","21:00","14.7","","10.9","","78","","12","","9","","24.1","","101.23","","","","","","Clear"
"2005-06-19 22:00","2005","06","19","22:00"
"2005-06-19 23:00","2005","06","19","23:00"
"2005-06-20 00:00","2005","06","20","00:00"
"2005-06-20 01:00","2005","06","20","01:00"
"2005-06-20 02:00","2005","06","20","02:00"
"2005-06-20 03:00","2005","06","20","03:00"
"2005-06-20 04:00","2005","06","20","04:00"
"2005-06-20 05:00","2005","06","20","05:00","9.7","","9.3","","97","","","","0","","11.3","","101.26","","","","","","Clear"
"2005-06-20 06:00","2005","06","20","06:00","11.8","","11.3","","97","","19","","9","","16.1","","101.29","","","","","","Clear"
"2005-06-20 07:00","2005","06","20","07:00","15.9","","13.1","","83","","","","0","","19.3","","101.28","","","","","","Mainly Clear"
"2005-06-20 08:00","2005","06","20","08:00","18.0","","13.1","","73","","","","0","","19.3","","101.28","","","","","","Mainly Clear"
"2005-06-20 09:00","2005","06","20","09:00","18.4","","13.7","","74","","36","","9","","24.1","","101.27","","","","","","Mostly Cloudy"
"2005-06-20 10:00","2005","06","20","10:00","19.2","","14.4","","74","","36","","19","","24.1","","101.21","","","","","","Mostly Cloudy"
"2005-06-20 11:00","2005","06","20","11:00","20.1","","14.2","","69","","35","","9","","24.1","","101.19","","","","","","Cloudy"
"2005-06-20 12:00","2005","06","20","12:00","20.4","","14.4","","68","","35","","19","","19.3","","101.19","","","","","","Cloudy"
"2005-06-20 13:00","2005","06","20","13:00","20.7","","14.8","","69","","3","","9","","19.3","","101.13","","25","","","","Mostly Cloudy"
"2005-06-20 14:00","2005","06","20","14:00","21.8","","14.6","","64","","2","","13","","19.3","","101.08","","26","","","","Mainly Clear"
"2005-06-20 15:00","2005","06","20","15:00","22.6","","15.2","","63","","36","","19","","19.3","","100.99","","27","","","","Mainly Clear"
"2005-06-20 16:00","2005","06","20","16:00","23.3","","15.0","","60","","35","","9","","19.3","","100.91","","27","","","","Mostly Cloudy"
"2005-06-20 17:00","2005","06","20","17:00","25.1","","13.7","","49","","20","","15","","19.3","","100.82","","28","","","","Mostly Cloudy"
"2005-06-20 18:00","2005","06","20","18:00","25.2","","12.5","","45","","22","","19","","19.3","","100.76","","28","","","","Mainly Clear"
"2005-06-20 19:00","2005","06","20","19:00","23.4","","14.7","","58","","5","","9","","19.3","","100.75","","27","","","","Mainly Clear"
"2005-06-20 20:00","2005","06","20","20:00","20.5","","15.2","","72","","10","","6","","24.1","","100.79","","25","","","","Mainly Clear"
"2005-06-20 21:00","2005","06","20","21:00","19.1","","14.2","","73","","20","","19","","24.1","","100.78","","","","","","Mainly Clear"
"2005-06-20 22:00","2005","06","20","22:00"
"2005-06-20 23:00","2005","06","20","23:00"
"2005-06-21 00:00","2005","06","21","00:00"
"2005-06-21 01:00","2005","06","21","01:00"
"2005-06-21 02:00","2005","06","21","02:00"
"2005-06-21 03:00","2005","06","21","03:00"
"2005-06-21 04:00","2005","06","21","04:00"
"2005-06-21 05:00","2005","06","21","05:00","14.9","","12.9","","88","","20","","19","","24.1","","100.59","","","","","","Clear"
"2005-06-21 06:00","2005","06","21","06:00","16.9","","14.1","","84","","25","","9","","24.1","","100.62","","","","","","Clear"
"2005-06-21 07:00","2005","06","21","07:00","19.2","","15.3","","78","","24","","19","","24.1","","100.59","","","","","","Mainly Clear"
"2005-06-21 08:00","2005","06","21","08:00","21.8","","13.4","","59","","24","","19","","24.1","","100.55","","25","","","","Mainly Clear"
"2005-06-21 09:00","2005","06","21","09:00","23.2","","12.8","","52","","25","","19","","24.1","","100.52","","26","","","","Mainly Clear"
"2005-06-21 10:00","2005","06","21","10:00","25.1","","13.8","","49","","28","","19","","24.1","","100.45","","28","","","","Mainly Clear"
"2005-06-21 11:00","2005","06","21","11:00","26.8","","15.2","","49","","25","","19","","24.1","","100.38","","31","","","","Cloudy"
"2005-06-21 12:00","2005","06","21","12:00","26.3","","12.8","","43","","27","","19","","24.1","","100.41","","29","","","","Mostly Cloudy"
"2005-06-21 13:00","2005","06","21","13:00","26.2","","16.7","","56","","27","","15","","24.1","","100.35","","31","","","","Mostly Cloudy"
"2005-06-21 14:00","2005","06","21","14:00","26.1","","17.6","","60","","23","","19","","24.1","","100.32","","32","","","","Mostly Cloudy"
"2005-06-21 15:00","2005","06","21","15:00","26.4","","16.1","","53","","22","","19","","16.1","","100.27","","31","","","","Mostly Cloudy"
"2005-06-21 16:00","2005","06","21","16:00","25.3","","16.2","","57","","23","","22","","16.1","","100.21","","30","","","","Mostly Cloudy"
"2005-06-21 17:00","2005","06","21","17:00","24.7","","16.1","","59","","23","","19","","16.1","","100.17","","29","","","","Cloudy"
"2005-06-21 18:00","2005","06","21","18:00","24.0","","16.2","","62","","24","","22","","16.1","","100.14","","29","","","","Cloudy"
"2005-06-21 19:00","2005","06","21","19:00","23.6","","16.1","","63","","24","","22","","16.1","","100.15","","28","","","","Mostly Cloudy"
"2005-06-21 20:00","2005","06","21","20:00","21.0","","16.4","","75","","34","","17","","16.1","","100.15","","26","","","","Mostly Cloudy"
"2005-06-21 21:00","2005","06","21","21:00","20.5","","16.1","","76","","24","","13","","16.1","","100.21","","25","","","","Mostly Cloudy"
"2005-06-21 22:00","2005","06","21","22:00"
"2005-06-21 23:00","2005","06","21","23:00"
"2005-06-22 00:00","2005","06","22","00:00"
"2005-06-22 01:00","2005","06","22","01:00"
"2005-06-22 02:00","2005","06","22","02:00"
"2005-06-22 03:00","2005","06","22","03:00"
"2005-06-22 04:00","2005","06","22","04:00"
"2005-06-22 05:00","2005","06","22","05:00","17.4","","16.3","","93","","","","0","","8.0","","100.27","","","","","","Fog"
"2005-06-22 06:00","2005","06","22","06:00","18.3","","16.8","","91","","1","","9","","11.3","","100.37","","","","","","Mostly Cloudy"
"2005-06-22 07:00","2005","06","22","07:00","18.8","","15.3","","80","","4","","22","","16.1","","100.46","","","","","","Cloudy"
"2005-06-22 08:00","2005","06","22","08:00","18.7","","13.8","","73","","5","","22","","24.1","","100.58","","","","","","Mostly Cloudy"
"2005-06-22 09:00","2005","06","22","09:00","18.9","","11.2","","61","","7","","19","","24.1","","100.63","","","","","","Mostly Cloudy"
"2005-06-22 10:00","2005","06","22","10:00","19.9","","11.4","","58","","5","","19","","24.1","","100.69","","","","","","Clear"
"2005-06-22 11:00","2005","06","22","11:00","20.0","","11.2","","57","","6","","19","","24.1","","100.73","","","","","","Clear"
"2005-06-22 12:00","2005","06","22","12:00","21.2","","11.9","","55","","3","","19","","24.1","","100.74","","","","","","Clear"
"2005-06-22 13:00","2005","06","22","13:00","22.7","","10.1","","45","","6","","19","","24.1","","100.74","","","","","","Clear"
"2005-06-22 14:00","2005","06","22","14:00","22.7","","9.9","","44","","5","","15","","24.1","","100.72","","","","","","Clear"
"2005-06-22 15:00","2005","06","22","15:00","23.1","","8.5","","39","","35","","19","","24.1","","100.70","","","","","","Clear"
"2005-06-22 16:00","2005","06","22","16:00","22.9","","8.0","","38","","2","","13","","24.1","","100.70","","","","","","Mainly Clear"
"2005-06-22 17:00","2005","06","22","17:00","23.2","","7.4","","36","","5","","11","","24.1","","100.67","","","","","","Mainly Clear"
"2005-06-22 18:00","2005","06","22","18:00","22.6","","6.4","","35","","4","","15","","24.1","","100.73","","","","","","Mainly Clear"
"2005-06-22 19:00","2005","06","22","19:00","21.8","","6.9","","38","","6","","7","","24.1","","100.76","","","","","","Mainly Clear"
"2005-06-22 20:00","2005","06","22","20:00","19.9","","7.8","","46","","","","0","","24.1","","100.76","","","","","","Clear"
"2005-06-22 21:00","2005","06","22","21:00","16.5","","8.2","","58","","","","0","","24.1","","100.80","","","","","","Clear"
"2005-06-22 22:00","2005","06","22","22:00"
"2005-06-22 23:00","2005","06","22","23:00"
"2005-06-23 00:00","2005","06","23","00:00"
"2005-06-23 01:00","2005","06","23","01:00"
"2005-06-23 02:00","2005","06","23","02:00"
"2005-06-23 03:00","2005","06","23","03:00"
"2005-06-23 04:00","2005","06","23","04:00"
"2005-06-23 05:00","2005","06","23","05:00","12.3","","10.8","","91","","20","","7","","24.1","","100.91","","","","","","Clear"
"2005-06-23 06:00","2005","06","23","06:00","13.8","","11.6","","87","","","","0","","24.1","","100.91","","","","","","Clear"
"2005-06-23 07:00","2005","06","23","07:00","16.6","","12.9","","79","","20","","9","","24.1","","100.97","","","","","","Clear"
"2005-06-23 08:00","2005","06","23","08:00","20.7","","12.3","","59","","20","","19","","24.1","","100.99","","","","","","Clear"
"2005-06-23 09:00","2005","06","23","09:00","21.7","","10.6","","49","","22","","22","","24.1","","100.93","","","","","","Clear"
"2005-06-23 10:00","2005","06","23","10:00","22.8","","10.7","","46","","20","","19","","24.1","","100.93","","","","","","Mainly Clear"
"2005-06-23 11:00","2005","06","23","11:00","23.8","","10.8","","44","","24","","19","","24.1","","100.93","","25","","","","Mainly Clear"
"2005-06-23 12:00","2005","06","23","12:00","24.6","","9.7","","39","","24","","19","","24.1","","100.88","","26","","","","Mainly Clear"
"2005-06-23 13:00","2005","06","23","13:00","25.1","","9.8","","38","","27","","19","","24.1","","100.84","","26","","","","Mainly Clear"
"2005-06-23 14:00","2005","06","23","14:00","25.6","","9.9","","37","","24","","19","","24.1","","100.79","","27","","","","Mainly Clear"
"2005-06-23 15:00","2005","06","23","15:00","25.9","","11.0","","39","","22","","19","","24.1","","100.76","","28","","","","Mainly Clear"
"2005-06-23 16:00","2005","06","23","16:00","25.7","","11.0","","40","","23","","19","","24.1","","100.67","","27","","","","Mostly Cloudy"
"2005-06-23 17:00","2005","06","23","17:00","24.7","","9.8","","39","","22","","19","","24.1","","100.65","","26","","","","Mostly Cloudy"
"2005-06-23 18:00","2005","06","23","18:00","24.1","","9.5","","40","","23","","19","","24.1","","100.61","","25","","","","Mostly Cloudy"
"2005-06-23 19:00","2005","06","23","19:00","23.3","","10.4","","44","","21","","9","","24.1","","100.60","","25","","","","Mostly Cloudy"
"2005-06-23 20:00","2005","06","23","20:00","20.7","","11.2","","54","","21","","9","","24.1","","100.62","","","","","","Mainly Clear"
"2005-06-23 21:00","2005","06","23","21:00","19.5","","11.1","","58","","20","","9","","24.1","","100.65","","","","","","Mainly Clear"
"2005-06-23 22:00","2005","06","23","22:00"
"2005-06-23 23:00","2005","06","23","23:00"
"2005-06-24 00:00","2005","06","24","00:00"
"2005-06-24 01:00","2005","06","24","01:00"
"2005-06-24 02:00","2005","06","24","02:00"
"2005-06-24 03:00","2005","06","24","03:00"
"2005-06-24 04:00","2005","06","24","04:00"
"2005-06-24 05:00","2005","06","24","05:00","17.8","","14.0","","78","","21","","11","","19.3","","100.59","","","","","","Mainly Clear"
"2005-06-24 06:00","2005","06","24","06:00","19.9","","14.4","","71","","21","","19","","19.3","","100.55","","","","","","Mainly Clear"
"2005-06-24 07:00","2005","06","24","07:00","23.4","","14.1","","56","","23","","22","","19.3","","100.54","","27","","","","Mainly Clear"
"2005-06-24 08:00","2005","06","24","08:00","24.8","","14.6","","53","","23","","22","","19.3","","100.56","","29","","","","Mainly Clear"
"2005-06-24 09:00","2005","06","24","09:00","26.6","","14.1","","46","","23","","22","","19.3","","100.55","","30","","","","Mostly Cloudy"
"2005-06-24 10:00","2005","06","24","10:00","27.7","","14.1","","43","","23","","22","","19.3","","100.48","","31","","","","Mostly Cloudy"
"2005-06-24 11:00","2005","06","24","11:00","28.8","","14.2","","41","","23","","22","","19.3","","100.48","","32","","","","Mostly Cloudy"
"2005-06-24 12:00","2005","06","24","12:00","30.7","","15.9","","41","","23","","22","","19.3","","100.50","","35","","","","Mainly Clear"
"2005-06-24 13:00","2005","06","24","13:00","30.9","","16.0","","41","","23","","28","","19.3","","100.45","","36","","","","Mainly Clear"
"2005-06-24 14:00","2005","06","24","14:00","31.6","","17.2","","42","","23","","28","","19.3","","100.42","","37","","","","Mainly Clear"
"2005-06-24 15:00","2005","06","24","15:00","31.3","","17.1","","43","","22","","22","","16.1","","100.41","","37","","","","Mainly Clear"
"2005-06-24 16:00","2005","06","24","16:00","31.0","","17.8","","45","","24","","28","","16.1","","100.37","","37","","","","Mainly Clear"
"2005-06-24 17:00","2005","06","24","17:00","30.4","","17.6","","46","","24","","28","","16.1","","100.35","","36","","","","Clear"
"2005-06-24 18:00","2005","06","24","18:00","30.0","","17.5","","47","","22","","19","","19.3","","100.37","","36","","","","Clear"
"2005-06-24 19:00","2005","06","24","19:00","29.0","","18.4","","53","","21","","19","","16.1","","100.36","","35","","","","Mainly Clear"
"2005-06-24 20:00","2005","06","24","20:00","27.9","","18.2","","56","","24","","19","","12.9","","100.33","","34","","","","Mainly Clear"
"2005-06-24 21:00","2005","06","24","21:00","26.9","","18.3","","59","","23","","19","","12.9","","100.34","","33","","","","Clear"
"2005-06-24 22:00","2005","06","24","22:00"
"2005-06-24 23:00","2005","06","24","23:00"
"2005-06-25 00:00","2005","06","25","00:00"
"2005-06-25 01:00","2005","06","25","01:00"
"2005-06-25 02:00","2005","06","25","02:00"
"2005-06-25 03:00","2005","06","25","03:00"
"2005-06-25 04:00","2005","06","25","04:00"
"2005-06-25 05:00","2005","06","25","05:00","24.6","","15.3","","56","","24","","19","","16.1","","100.33","","29","","","","Mostly Cloudy"
"2005-06-25 06:00","2005","06","25","06:00","25.5","","15.5","","54","","24","","19","","16.1","","100.35","","30","","","","Mostly Cloudy"
"2005-06-25 07:00","2005","06","25","07:00","25.8","","16.6","","57","","24","","19","","16.1","","100.41","","31","","","","Mostly Cloudy"
"2005-06-25 08:00","2005","06","25","08:00","27.2","","18.1","","58","","23","","22","","16.1","","100.41","","33","","","","Mostly Cloudy"
"2005-06-25 09:00","2005","06","25","09:00","28.5","","19.2","","57","","23","","22","","16.1","","100.43","","35","","","","Mostly Cloudy"
"2005-06-25 10:00","2005","06","25","10:00","29.8","","19.9","","55","","21","","19","","12.9","","100.40","","37","","","","Cloudy"
"2005-06-25 11:00","2005","06","25","11:00","30.6","","20.5","","55","","21","","22","","12.9","","100.42","","39","","","","Mostly Cloudy"
"2005-06-25 12:00","2005","06","25","12:00","30.5","","20.9","","57","","22","","22","","12.9","","100.42","","39","","","","Cloudy"
"2005-06-25 13:00","2005","06","25","13:00","32.0","","20.9","","52","","21","","24","","12.9","","100.39","","40","","","","Cloudy"
"2005-06-25 14:00","2005","06","25","14:00","33.1","","21.6","","51","","24","","22","","11.3","","100.36","","42","","","","Mostly Cloudy"
"2005-06-25 15:00","2005","06","25","15:00","29.6","","20.6","","58","","30","","9","","11.3","","100.41","","38","","","","Thunderstorms,Rain Showers"
"2005-06-25 16:00","2005","06","25","16:00","22.3","","19.1","","82","","15","","19","","19.3","","100.43","","29","","","","Rain Showers"
"2005-06-25 17:00","2005","06","25","17:00","25.9","","22.1","","80","","21","","9","","16.1","","100.39","","35","","","","Cloudy"
"2005-06-25 18:00","2005","06","25","18:00","26.8","","22.5","","77","","21","","9","","19.3","","100.37","","37","","","","Mostly Cloudy"
"2005-06-25 19:00","2005","06","25","19:00","24.5","","21.6","","84","","24","","9","","12.9","","100.45","","33","","","","Cloudy"
"2005-06-25 20:00","2005","06","25","20:00","24.6","","22.3","","87","","","","0","","11.3","","100.51","","34","","","","Cloudy"
"2005-06-25 21:00","2005","06","25","21:00","23.4","","22.0","","92","","","","0","","11.3","","100.58","","33","","","","Mostly Cloudy"
"2005-06-25 22:00","2005","06","25","22:00"
"2005-06-25 23:00","2005","06","25","23:00"
"2005-06-26 00:00","2005","06","26","00:00"
"2005-06-26 01:00","2005","06","26","01:00"
"2005-06-26 02:00","2005","06","26","02:00"
"2005-06-26 03:00","2005","06","26","03:00"
"2005-06-26 04:00","2005","06","26","04:00"
"2005-06-26 05:00","2005","06","26","05:00","17.0","","15.3","","90","","16","","7","","24.1","","100.83","","","","","","Mainly Clear"
"2005-06-26 06:00","2005","06","26","06:00","18.8","","16.7","","88","","23","","9","","19.3","","100.88","","","","","","Mainly Clear"
"2005-06-26 07:00","2005","06","26","07:00","21.5","","16.3","","72","","","","0","","19.3","","100.90","","26","","","","Mainly Clear"
"2005-06-26 08:00","2005","06","26","08:00","22.3","","15.8","","67","","36","","9","","24.1","","100.95","","27","","","","Mainly Clear"
"2005-06-26 09:00","2005","06","26","09:00","24.1","","14.7","","56","","2","","9","","24.1","","100.91","","28","","","","Mainly Clear"
"2005-06-26 10:00","2005","06","26","10:00","25.8","","15.5","","53","","6","","4","","24.1","","100.91","","30","","","","Mainly Clear"
"2005-06-26 11:00","2005","06","26","11:00","25.5","","16.4","","57","","3","","9","","24.1","","100.90","","30","","","","Clear"
"2005-06-26 12:00","2005","06","26","12:00","27.0","","17.5","","56","","35","","7","","24.1","","100.90","","33","","","","Mainly Clear"
"2005-06-26 13:00","2005","06","26","13:00","26.4","","16.0","","53","","6","","7","","24.1","","100.90","","31","","","","Clear"
"2005-06-26 14:00","2005","06","26","14:00","28.9","","13.1","","38","","1","","4","","24.1","","100.87","","32","","","","Mainly Clear"
"2005-06-26 15:00","2005","06","26","15:00","30.1","","11.3","","31","","4","","7","","24.1","","100.82","","32","","","","Mainly Clear"
"2005-06-26 16:00","2005","06","26","16:00","29.7","","11.4","","32","","2","","7","","24.1","","100.79","","32","","","","Clear"
"2005-06-26 17:00","2005","06","26","17:00","30.1","","10.9","","31","","4","","9","","24.1","","100.78","","32","","","","Clear"
"2005-06-26 18:00","2005","06","26","18:00","29.2","","11.2","","33","","7","","7","","24.1","","100.78","","31","","","","Clear"
"2005-06-26 19:00","2005","06","26","19:00","27.7","","13.4","","41","","6","","7","","24.1","","100.77","","31","","","","Clear"
"2005-06-26 20:00","2005","06","26","20:00","26.1","","14.6","","49","","10","","6","","24.1","","100.80","","30","","","","Clear"
"2005-06-26 21:00","2005","06","26","21:00","23.7","","16.5","","64","","10","","4","","24.1","","100.85","","29","","","","Clear"
"2005-06-26 22:00","2005","06","26","22:00"
"2005-06-26 23:00","2005","06","26","23:00"
"2005-06-27 00:00","2005","06","27","00:00"
"2005-06-27 01:00","2005","06","27","01:00"
"2005-06-27 02:00","2005","06","27","02:00"
"2005-06-27 03:00","2005","06","27","03:00"
"2005-06-27 04:00","2005","06","27","04:00"
"2005-06-27 05:00","2005","06","27","05:00","19.4","","18.6","","95","","23","","9","","6.4","","100.90","","","","","","Haze"
"2005-06-27 06:00","2005","06","27","06:00","20.6","","19.4","","93","","22","","6","","8.0","","100.93","","28","","","","Haze"
"2005-06-27 07:00","2005","06","27","07:00","23.0","","20.2","","84","","23","","9","","12.9","","100.95","","31","","","","Clear"
"2005-06-27 08:00","2005","06","27","08:00","25.4","","20.2","","73","","","","0","","16.1","","100.98","","33","","","","Clear"
"2005-06-27 09:00","2005","06","27","09:00","27.1","","20.3","","66","","31","","11","","16.1","","100.97","","35","","","","Mainly Clear"
"2005-06-27 10:00","2005","06","27","10:00","26.5","","21.6","","75","","33","","9","","19.3","","100.99","","35","","","","Mainly Clear"
"2005-06-27 11:00","2005","06","27","11:00","27.5","","22.3","","73","","1","","15","","19.3","","100.98","","37","","","","Mainly Clear"
"2005-06-27 12:00","2005","06","27","12:00","28.6","","21.4","","65","","36","","4","","19.3","","100.94","","37","","","","Mainly Clear"
"2005-06-27 13:00","2005","06","27","13:00","29.4","","21.1","","61","","35","","15","","19.3","","100.88","","38","","","","Mainly Clear"
"2005-06-27 14:00","2005","06","27","14:00","31.4","","20.9","","54","","2","","15","","19.3","","100.82","","40","","","","Mainly Clear"
"2005-06-27 15:00","2005","06","27","15:00","31.7","","18.2","","45","","3","","15","","24.1","","100.79","","38","","","","Mostly Cloudy"
"2005-06-27 16:00","2005","06","27","16:00","30.7","","20.1","","53","","4","","11","","19.3","","100.75","","38","","","","Mostly Cloudy"
"2005-06-27 17:00","2005","06","27","17:00","29.5","","19.1","","54","","5","","11","","19.3","","100.71","","36","","","","Mostly Cloudy"
"2005-06-27 18:00","2005","06","27","18:00","30.0","","19.9","","55","","8","","9","","16.1","","100.68","","37","","","","Mostly Cloudy"
"2005-06-27 19:00","2005","06","27","19:00","30.3","","19.4","","52","","5","","6","","16.1","","100.66","","37","","","","Mostly Cloudy"
"2005-06-27 20:00","2005","06","27","20:00","28.6","","21.1","","64","","10","","7","","16.1","","100.62","","37","","","","Mostly Cloudy"
"2005-06-27 21:00","2005","06","27","21:00","27.4","","21.8","","72","","19","","7","","16.1","","100.63","","37","","","","Cloudy"
"2005-06-27 22:00","2005","06","27","22:00"
"2005-06-27 23:00","2005","06","27","23:00"
"2005-06-28 00:00","2005","06","28","00:00"
"2005-06-28 01:00","2005","06","28","01:00"
"2005-06-28 02:00","2005","06","28","02:00"
"2005-06-28 03:00","2005","06","28","03:00"
"2005-06-28 04:00","2005","06","28","04:00"
"2005-06-28 05:00","2005","06","28","05:00","23.5","","20.1","","81","","","","0","","8.0","","100.54","","31","","","","Haze"
"2005-06-28 06:00","2005","06","28","06:00","24.2","","20.8","","81","","19","","6","","8.0","","100.53","","32","","","","Haze"
"2005-06-28 07:00","2005","06","28","07:00","24.7","","20.8","","79","","19","","9","","8.0","","100.54","","33","","","","Haze"
"2005-06-28 08:00","2005","06","28","08:00","26.7","","20.7","","70","","20","","11","","6.4","","100.49","","35","","","","Haze"
"2005-06-28 09:00","2005","06","28","09:00","28.3","","21.0","","65","","22","","19","","8.0","","100.49","","37","","","","Haze"
"2005-06-28 10:00","2005","06","28","10:00","29.3","","20.6","","60","","21","","19","","9.7","","100.44","","37","","","","Haze"
"2005-06-28 11:00","2005","06","28","11:00","30.3","","21.0","","58","","20","","11","","12.9","","100.40","","39","","","","Mainly Clear"
"2005-06-28 12:00","2005","06","28","12:00","31.7","","20.2","","51","","22","","19","","12.9","","100.41","","39","","","","Mostly Cloudy"
"2005-06-28 13:00","2005","06","28","13:00","31.7","","19.6","","49","","22","","19","","12.9","","100.32","","39","","","","Mostly Cloudy"
"2005-06-28 14:00","2005","06","28","14:00","32.4","","19.2","","46","","23","","22","","12.9","","100.26","","39","","","","Mostly Cloudy"
"2005-06-28 15:00","2005","06","28","15:00","32.2","","20.5","","50","","21","","19","","12.9","","100.15","","40","","","","Mostly Cloudy"
"2005-06-28 16:00","2005","06","28","16:00","32.0","","19.2","","47","","22","","28","","19.3","","100.12","","39","","","","Mainly Clear"
"2005-06-28 17:00","2005","06","28","17:00","31.8","","16.8","","41","","22","","19","","24.1","","100.11","","37","","","","Mainly Clear"
"2005-06-28 18:00","2005","06","28","18:00","31.0","","18.3","","47","","22","","22","","19.3","","100.10","","37","","","","Mainly Clear"
"2005-06-28 19:00","2005","06","28","19:00","29.0","","17.8","","51","","22","","19","","16.1","","100.14","","35","","","","Mainly Clear"
"2005-06-28 20:00","2005","06","28","20:00","25.9","","19.8","","69","","23","","15","","16.1","","100.16","","33","","","","Mostly Cloudy"
"2005-06-28 21:00","2005","06","28","21:00","25.6","","19.8","","70","","23","","19","","12.9","","100.22","","33","","","","Mostly Cloudy"
"2005-06-28 22:00","2005","06","28","22:00"
"2005-06-28 23:00","2005","06","28","23:00"
"2005-06-29 00:00","2005","06","29","00:00"
"2005-06-29 01:00","2005","06","29","01:00"
"2005-06-29 02:00","2005","06","29","02:00"
"2005-06-29 03:00","2005","06","29","03:00"
"2005-06-29 04:00","2005","06","29","04:00"
"2005-06-29 05:00","2005","06","29","05:00","22.6","","20.6","","88","","24","","11","","8.0","","100.27","","31","","","","Haze"
"2005-06-29 06:00","2005","06","29","06:00","24.2","","19.7","","76","","27","","11","","8.0","","100.27","","32","","","","Haze"
"2005-06-29 07:00","2005","06","29","07:00","24.7","","19.6","","73","","26","","19","","8.0","","100.28","","32","","","","Haze"
"2005-06-29 08:00","2005","06","29","08:00","23.5","","20.3","","82","","22","","17","","8.0","","100.29","","31","","","","Haze"
"2005-06-29 09:00","2005","06","29","09:00","23.8","","20.3","","81","","24","","15","","8.0","","100.31","","32","","","","Haze"
"2005-06-29 10:00","2005","06","29","10:00","25.8","","19.9","","70","","23","","13","","8.0","","100.32","","33","","","","Haze"
"2005-06-29 11:00","2005","06","29","11:00","27.5","","20.4","","65","","24","","9","","8.0","","100.28","","35","","","","Haze"
"2005-06-29 12:00","2005","06","29","12:00","27.3","","20.5","","66","","29","","7","","9.7","","100.29","","35","","","","Haze"
"2005-06-29 13:00","2005","06","29","13:00","28.4","","21.6","","67","","21","","19","","9.7","","100.24","","37","","","","Haze"
"2005-06-29 14:00","2005","06","29","14:00","29.0","","21.4","","64","","24","","9","","9.7","","100.20","","38","","","","Haze"
"2005-06-29 15:00","2005","06","29","15:00","28.7","","22.0","","67","","24","","15","","8.0","","100.19","","38","","","","Haze"
"2005-06-29 16:00","2005","06","29","16:00","28.7","","22.1","","68","","22","","11","","8.0","","100.17","","38","","","","Haze"
"2005-06-29 17:00","2005","06","29","17:00","28.2","","21.7","","68","","22","","11","","8.0","","100.12","","37","","","","Haze"
"2005-06-29 18:00","2005","06","29","18:00","28.8","","21.8","","66","","19","","9","","8.0","","100.16","","38","","","","Haze"
"2005-06-29 19:00","2005","06","29","19:00","27.5","","22.0","","72","","19","","9","","8.0","","100.21","","37","","","","Haze"
"2005-06-29 20:00","2005","06","29","20:00","25.5","","20.5","","74","","21","","15","","8.0","","100.18","","33","","","","Haze"
"2005-06-29 21:00","2005","06","29","21:00","24.2","","20.6","","80","","20","","15","","8.0","","100.25","","32","","","","Haze"
"2005-06-29 22:00","2005","06","29","22:00"
"2005-06-29 23:00","2005","06","29","23:00"
"2005-06-30 00:00","2005","06","30","00:00"
"2005-06-30 01:00","2005","06","30","01:00"
"2005-06-30 02:00","2005","06","30","02:00"
"2005-06-30 03:00","2005","06","30","03:00"
"2005-06-30 04:00","2005","06","30","04:00"
"2005-06-30 05:00","2005","06","30","05:00","19.9","","19.3","","96","","","","0","","2.4","","100.23","","","","","","Fog"
"2005-06-30 06:00","2005","06","30","06:00","21.4","","20.3","","93","","","","0","","4.0","","100.27","","29","","","","Fog"
"2005-06-30 07:00","2005","06","30","07:00","23.3","","20.9","","86","","","","0","","4.0","","100.27","","32","","","","Haze"
"2005-06-30 08:00","2005","06","30","08:00","24.8","","20.6","","78","","","","0","","8.0","","100.25","","33","","","","Haze"
"2005-06-30 09:00","2005","06","30","09:00","26.2","","20.7","","72","","15","","9","","8.0","","100.18","","34","","","","Haze"
"2005-06-30 10:00","2005","06","30","10:00","28.3","","22.0","","69","","18","","7","","9.7","","100.15","","38","","","","Haze"
"2005-06-30 11:00","2005","06","30","11:00","28.9","","21.5","","64","","20","","9","","9.7","","100.12","","38","","","","Haze"
"2005-06-30 12:00","2005","06","30","12:00","28.9","","23.1","","71","","36","","9","","9.7","","100.07","","39","","","","Haze"
"2005-06-30 13:00","2005","06","30","13:00","29.9","","23.2","","67","","7","","15","","9.7","","100.00","","40","","","","Haze"
"2005-06-30 14:00","2005","06","30","14:00","30.0","","22.9","","66","","1","","9","","9.7","","99.94","","40","","","","Haze"
"2005-06-30 15:00","2005","06","30","15:00","31.0","","20.1","","52","","24","","9","","16.1","","99.89","","39","","","","Mainly Clear"
"2005-06-30 16:00","2005","06","30","16:00","31.0","","18.5","","47","","23","","28","","16.1","","99.77","","37","","","","Mainly Clear"
"2005-06-30 17:00","2005","06","30","17:00","30.1","","17.8","","48","","21","","22","","16.1","","99.66","","36","","","","Mostly Cloudy"
"2005-06-30 18:00","2005","06","30","18:00","29.4","","19.4","","55","","20","","19","","16.1","","99.56","","36","","","","Mostly Cloudy"
"2005-06-30 19:00","2005","06","30","19:00","28.3","","20.8","","64","","23","","19","","16.1","","99.61","","37","","","","Mostly Cloudy"
"2005-06-30 20:00","2005","06","30","20:00","26.7","","20.3","","68","","22","","19","","9.7","","99.61","","35","","","","Haze"
"2005-06-30 21:00","2005","06","30","21:00","25.9","","19.9","","70","","20","","19","","16.1","","99.56","","33","","","","Cloudy"
"2005-06-30 22:00","2005","06","30","22:00"
"2005-06-30 23:00","2005","06","30","23:00"
