"Station Name","ST CATHARINES A"
"Province","ONTARIO"
"Latitude","43.20"
"Longitude","-79.17"
"Elevation","97.80"
"Climate Identifier","6137287"
"WMO Identifier",""
"TC Identifier","YSN"
"All times are specified in Local Standard Time (LST). Add 1 hour to adjust for Daylight Saving Time where and when it is observed."

"Legend"
"E","Estimated"
"M","Missing"
"NA","Not Available"

"Date/Time","Year","Month","Day","Time","Temp (°C)","Temp Flag","Dew Point Temp (°C)","Dew Point Temp Flag","Rel Hum (%)","Rel Hum Flag","Wind Dir (10s deg)","Wind Dir Flag","Wind Spd (km/h)","Wind Spd Flag","Visibility (km)","Visibility Flag","Stn Press (kPa)","Stn Press Flag","Hmdx","Hmdx Flag","Wind Chill","Wind Chill Flag","Weather"
"2006-04-01 00:00","2006","04","01","00:00"
"2006-04-01 01:00","2006","04","01","01:00"
"2006-04-01 02:00","2006","04","01","02:00"
"2006-04-01 03:00","2006","04","01","03:00"
"2006-04-01 04:00","2006","04","01","04:00"
"2006-04-01 05:00","2006","04","01","05:00"
"2006-04-01 06:00","2006","04","01","06:00","10.3","","7.2","","81","","25","","19","","19.3","","99.36","","","","","","Cloudy"
"2006-04-01 07:00","2006","04","01","07:00","10.1","","6.7","","79","","24","","19","","19.3","","99.41","","","","","","Cloudy"
"2006-04-01 08:00","2006","04","01","08:00","10.1","","7.0","","81","","24","","28","","24.1","","99.46","","","","","","Mostly Cloudy"
"2006-04-01 09:00","2006","04","01","09:00","10.0","","5.7","","75","","26","","28","","24.1","","99.56","","","","","","Cloudy"
"2006-04-01 10:00","2006","04","01","10:00","11.1","","5.7","","69","","26","","22","","24.1","","99.63","","","","","","Mostly Cloudy"
"2006-04-01 11:00","2006","04","01","11:00","11.2","","5.7","","69","","25","","26","","24.1","","99.67","","","","","","Mostly Cloudy"
"2006-04-01 12:00","2006","04","01","12:00","12.0","","7.0","","71","","27","","28","","24.1","","99.72","","","","","","Mostly Cloudy"
"2006-04-01 13:00","2006","04","01","13:00","12.5","","7.0","","69","","27","","28","","24.1","","99.78","","","","","","Mostly Cloudy"
"2006-04-01 14:00","2006","04","01","14:00","11.9","","6.9","","71","","28","","28","","24.1","","99.85","","","","","","Mostly Cloudy"
"2006-04-01 15:00","2006","04","01","15:00","11.6","","7.0","","73","","28","","28","","24.1","","99.95","","","","","","Mostly Cloudy"
"2006-04-01 16:00","2006","04","01","16:00","9.9","","5.9","","76","","28","","22","","24.1","","100.08","","","","","","Cloudy"
"2006-04-01 17:00","2006","04","01","17:00","9.2","","5.4","","77","","28","","19","","24.1","","100.20","","","","","","Mostly Cloudy"
"2006-04-01 18:00","2006","04","01","18:00","8.1","","4.9","","80","","29","","22","","24.1","","100.32","","","","","","Mostly Cloudy"
"2006-04-01 19:00","2006","04","01","19:00","6.7","","4.4","","85","","31","","19","","24.1","","100.45","","","","","","Mostly Cloudy"
"2006-04-01 20:00","2006","04","01","20:00","6.6","","4.3","","85","","31","","19","","24.1","","100.54","","","","","","Cloudy"
"2006-04-01 21:00","2006","04","01","21:00","6.0","","2.9","","80","","32","","19","","24.1","","100.64","","","","","","Cloudy"
"2006-04-01 22:00","2006","04","01","22:00","5.8","","2.7","","80","","35","","19","","24.1","","100.70","","","","","","Cloudy"
"2006-04-01 23:00","2006","04","01","23:00"
"2006-04-02 00:00","2006","04","02","00:00"
"2006-04-02 01:00","2006","04","02","01:00"
"2006-04-02 02:00","2006","04","02","02:00"
"2006-04-02 03:00","2006","04","02","03:00"
"2006-04-02 04:00","2006","04","02","04:00"
"2006-04-02 05:00","2006","04","02","05:00","0.8","","-0.6","","90","","","","0","","24.1","","100.89","","","","","","Clear"
"2006-04-02 06:00","2006","04","02","06:00","0.3","","-1.2","","90","","","","0","","24.1","","100.98","","","","","","Clear"
"2006-04-02 07:00","2006","04","02","07:00","3.0","","0.0","","81","","","","0","","24.1","","100.98","","","","","","Clear"
"2006-04-02 08:00","2006","04","02","08:00","5.2","","0.6","","72","","4","","6","","24.1","","101.04","","","","","","Clear"
"2006-04-02 09:00","2006","04","02","09:00","5.8","","-0.1","","66","","5","","4","","24.1","","101.06","","","","","","Clear"
"2006-04-02 10:00","2006","04","02","10:00","6.2","","0.7","","68","","35","","19","","24.1","","101.04","","","","","","Clear"
"2006-04-02 11:00","2006","04","02","11:00","7.0","","1.5","","68","","2","","11","","24.1","","100.97","","","","","","Mainly Clear"
"2006-04-02 12:00","2006","04","02","12:00","7.2","","0.8","","64","","36","","15","","24.1","","100.93","","","","","","Mainly Clear"
"2006-04-02 13:00","2006","04","02","13:00","8.3","","1.2","","61","","2","","19","","24.1","","100.84","","","","","","Mainly Clear"
"2006-04-02 14:00","2006","04","02","14:00","8.2","","0.5","","58","","3","","19","","24.1","","100.73","","","","","","Mostly Cloudy"
"2006-04-02 15:00","2006","04","02","15:00","8.3","","-1.2","","51","","3","","19","","24.1","","100.69","","","","","","Mostly Cloudy"
"2006-04-02 16:00","2006","04","02","16:00","7.4","","-2.4","","50","","3","","19","","24.1","","100.61","","","","","","Mostly Cloudy"
"2006-04-02 17:00","2006","04","02","17:00","6.7","","-2.1","","53","","5","","19","","24.1","","100.50","","","","","","Mostly Cloudy"
"2006-04-02 18:00","2006","04","02","18:00","6.4","","-3.8","","48","","5","","19","","24.1","","100.42","","","","","","Mostly Cloudy"
"2006-04-02 19:00","2006","04","02","19:00","5.2","","-3.8","","52","","6","","19","","24.1","","100.38","","","","","","Mostly Cloudy"
"2006-04-02 20:00","2006","04","02","20:00","5.5","","-4.1","","50","","8","","19","","24.1","","100.28","","","","","","Mainly Clear"
"2006-04-02 21:00","2006","04","02","21:00","6.1","","-5.6","","43","","8","","19","","24.1","","100.17","","","","","","Mostly Cloudy"
"2006-04-02 22:00","2006","04","02","22:00"
"2006-04-02 23:00","2006","04","02","23:00"
"2006-04-03 00:00","2006","04","03","00:00"
"2006-04-03 01:00","2006","04","03","01:00"
"2006-04-03 02:00","2006","04","03","02:00"
"2006-04-03 03:00","2006","04","03","03:00"
"2006-04-03 04:00","2006","04","03","04:00"
"2006-04-03 05:00","2006","04","03","05:00","6.3","","4.3","","87","","7","","13","","16.1","","99.21","","","","","","Rain Showers"
"2006-04-03 06:00","2006","04","03","06:00","6.5","","4.9","","89","","8","","13","","16.1","","99.09","","","","","","Rain Showers"
"2006-04-03 07:00","2006","04","03","07:00","7.7","","6.7","","93","","8","","13","","16.1","","99.06","","","","","","Rain Showers"
"2006-04-03 08:00","2006","04","03","08:00","11.4","","8.6","","83","","19","","17","","19.3","","98.99","","","","","","Cloudy"
"2006-04-03 09:00","2006","04","03","09:00","14.7","","10.5","","76","","20","","19","","19.3","","98.94","","","","","","Mainly Clear"
"2006-04-03 10:00","2006","04","03","10:00","17.4","","11.4","","68","","21","","24","","19.3","","98.86","","","","","","Mainly Clear"
"2006-04-03 11:00","2006","04","03","11:00","19.4","","10.5","","56","","21","","19","","19.3","","98.80","","","","","","Mostly Cloudy"
"2006-04-03 12:00","2006","04","03","12:00","19.6","","10.1","","54","","20","","19","","19.3","","98.68","","","","","","Mostly Cloudy"
"2006-04-03 13:00","2006","04","03","13:00","20.8","","9.8","","49","","18","","19","","24.1","","98.49","","","","","","Mostly Cloudy"
"2006-04-03 14:00","2006","04","03","14:00","15.5","","11.0","","75","","22","","37","","6.4","","98.52","","","","","","Thunderstorms,Rain Showers"
"2006-04-03 15:00","2006","04","03","15:00","12.9","","10.1","","83","","25","","28","","12.9","","98.49","","","","","","Rain Showers"
"2006-04-03 16:00","2006","04","03","16:00","12.0","","11.0","","94","","19","","19","","19.3","","98.49","","","","","","Rain Showers"
"2006-04-03 17:00","2006","04","03","17:00","11.3","","9.5","","89","","20","","22","","16.1","","98.55","","","","","","Mostly Cloudy"
"2006-04-03 18:00","2006","04","03","18:00","10.4","","8.3","","87","","22","","28","","16.1","","98.62","","","","","","Mostly Cloudy"
"2006-04-03 19:00","2006","04","03","19:00","8.7","","7.4","","92","","24","","22","","16.1","","98.73","","","","","","Mostly Cloudy"
"2006-04-03 20:00","2006","04","03","20:00","5.2","","2.6","","83","","27","","28","","24.1","","98.96","","","","","","Mostly Cloudy"
"2006-04-03 21:00","2006","04","03","21:00","4.9","","2.0","","81","","28","","28","","16.1","","99.23","","","","","","Rain Showers"
"2006-04-03 22:00","2006","04","03","22:00"
"2006-04-03 23:00","2006","04","03","23:00"
"2006-04-04 00:00","2006","04","04","00:00"
"2006-04-04 01:00","2006","04","04","01:00"
"2006-04-04 02:00","2006","04","04","02:00"
"2006-04-04 03:00","2006","04","04","03:00"
"2006-04-04 04:00","2006","04","04","04:00"
"2006-04-04 05:00","2006","04","04","05:00","1.8","","-4.4","","63","","30","","22","","24.1","","99.73","","","","","","Mostly Cloudy"
"2006-04-04 06:00","2006","04","04","06:00","1.6","","-4.3","","65","","28","","19","","24.1","","99.77","","","","","","Mainly Clear"
"2006-04-04 07:00","2006","04","04","07:00","2.1","","-4.3","","63","","28","","28","","24.1","","99.80","","","","","","Mostly Cloudy"
"2006-04-04 08:00","2006","04","04","08:00","2.6","","-3.6","","64","","28","","30","","24.1","","99.81","","","","","","Mostly Cloudy"
"2006-04-04 09:00","2006","04","04","09:00","3.6","","-3.9","","58","","27","","28","","24.1","","99.77","","","","","","Mainly Clear"
"2006-04-04 10:00","2006","04","04","10:00","4.4","","-3.6","","56","","28","","37","","24.1","","99.79","","","","","","Mainly Clear"
"2006-04-04 11:00","2006","04","04","11:00","6.2","","-3.3","","51","","27","","19","","24.1","","99.75","","","","","","Mainly Clear"
"2006-04-04 12:00","2006","04","04","12:00","4.7","","-4.5","","51","","27","","11","","24.1","","99.70","","","","","","Cloudy"
"2006-04-04 13:00","2006","04","04","13:00","5.1","","-2.8","","57","","22","","19","","24.1","","99.63","","","","","","Cloudy"
"2006-04-04 14:00","2006","04","04","14:00","5.0","","-3.2","","55","","22","","19","","24.1","","99.54","","","","","","Mostly Cloudy"
"2006-04-04 15:00","2006","04","04","15:00","5.7","","-2.3","","56","","24","","19","","24.1","","99.41","","","","","","Rain Showers"
"2006-04-04 16:00","2006","04","04","16:00","0.4","","0.4","","100","","29","","22","","1.6","","99.48","","","","","","Snow Showers"
"2006-04-04 17:00","2006","04","04","17:00","0.9","","-3.2","","74","","31","","28","","24.1","","99.57","","","","","","Cloudy"
"2006-04-04 18:00","2006","04","04","18:00","0.2","","-3.9","","74","","27","","19","","24.1","","99.65","","","","","","Mostly Cloudy"
"2006-04-04 19:00","2006","04","04","19:00","-0.2","","-6.6","","62","","28","","19","","24.1","","99.63","","","","-5","","Mostly Cloudy"
"2006-04-04 20:00","2006","04","04","20:00","-0.5","","-6.8","","62","","24","","22","","24.1","","99.66","","","","-6","","Mostly Cloudy"
"2006-04-04 21:00","2006","04","04","21:00","-1.3","","-6.9","","66","","25","","22","","24.1","","99.66","","","","-7","","Mainly Clear"
"2006-04-04 22:00","2006","04","04","22:00"
"2006-04-04 23:00","2006","04","04","23:00"
"2006-04-05 00:00","2006","04","05","00:00"
"2006-04-05 01:00","2006","04","05","01:00"
"2006-04-05 02:00","2006","04","05","02:00"
"2006-04-05 03:00","2006","04","05","03:00"
"2006-04-05 04:00","2006","04","05","04:00"
"2006-04-05 05:00","2006","04","05","05:00","-1.2","","-3.9","","82","","31","","19","","24.1","","99.59","","","","-7","","Cloudy"
"2006-04-05 06:00","2006","04","05","06:00","0.3","","-3.1","","78","","31","","19","","24.1","","99.67","","","","","","Cloudy"
"2006-04-05 07:00","2006","04","05","07:00","0.2","","-3.3","","77","","30","","17","","24.1","","99.74","","","","","","Mostly Cloudy"
"2006-04-05 08:00","2006","04","05","08:00","0.8","","-4.3","","69","","29","","22","","24.1","","99.74","","","","","","Mostly Cloudy"
"2006-04-05 09:00","2006","04","05","09:00","1.1","","-2.7","","76","","26","","19","","24.1","","99.75","","","","","","Mostly Cloudy"
"2006-04-05 10:00","2006","04","05","10:00","1.8","","-2.9","","71","","24","","22","","24.1","","99.79","","","","","","Cloudy"
"2006-04-05 11:00","2006","04","05","11:00","1.3","","-0.2","","90","","24","","19","","1.6","","99.79","","","","","","Snow Showers"
"2006-04-05 12:00","2006","04","05","12:00","2.0","","1.6","","97","","23","","22","","4.0","","99.76","","","","","","Snow Showers"
"2006-04-05 13:00","2006","04","05","13:00","2.9","","1.9","","93","","25","","19","","19.3","","99.73","","","","","","Rain Showers"
"2006-04-05 14:00","2006","04","05","14:00","4.2","","1.4","","82","","27","","28","","24.1","","99.67","","","","","","Cloudy"
"2006-04-05 15:00","2006","04","05","15:00","4.3","","1.3","","81","","27","","19","","24.1","","99.67","","","","","","Cloudy"
"2006-04-05 16:00","2006","04","05","16:00","4.5","","0.4","","75","","28","","19","","24.1","","99.70","","","","","","Cloudy"
"2006-04-05 17:00","2006","04","05","17:00","3.7","","0.4","","79","","32","","19","","24.1","","99.77","","","","","","Mostly Cloudy"
"2006-04-05 18:00","2006","04","05","18:00","3.4","","-0.1","","78","","34","","15","","24.1","","99.83","","","","","","Mostly Cloudy"
"2006-04-05 19:00","2006","04","05","19:00","3.0","","-0.6","","77","","32","","15","","24.1","","99.88","","","","","","Cloudy"
"2006-04-05 20:00","2006","04","05","20:00","3.0","","0.1","","81","","29","","13","","24.1","","99.96","","","","","","Cloudy"
"2006-04-05 21:00","2006","04","05","21:00","3.6","","0.4","","80","","30","","19","","24.1","","99.98","","","","","","Cloudy"
"2006-04-05 22:00","2006","04","05","22:00"
"2006-04-05 23:00","2006","04","05","23:00"
"2006-04-06 00:00","2006","04","06","00:00"
"2006-04-06 01:00","2006","04","06","01:00"
"2006-04-06 02:00","2006","04","06","02:00"
"2006-04-06 03:00","2006","04","06","03:00"
"2006-04-06 04:00","2006","04","06","04:00"
"2006-04-06 05:00","2006","04","06","05:00","2.0","","-0.1","","86","","26","","11","","24.1","","100.12","","","","","","Mainly Clear"
"2006-04-06 06:00","2006","04","06","06:00","1.1","","-0.6","","88","","21","","7","","24.1","","100.14","","","","","","Mainly Clear"
"2006-04-06 07:00","2006","04","06","07:00","2.9","","0.5","","84","","23","","7","","24.1","","100.17","","","","","","Clear"
"2006-04-06 08:00","2006","04","06","08:00","5.4","","1.6","","76","","28","","17","","24.1","","100.17","","","","","","Clear"
"2006-04-06 09:00","2006","04","06","09:00","6.0","","1.7","","74","","28","","19","","24.1","","100.17","","","","","","Clear"
"2006-04-06 10:00","2006","04","06","10:00","6.8","","1.5","","69","","31","","19","","24.1","","100.20","","","","","","Clear"
"2006-04-06 11:00","2006","04","06","11:00","8.1","","0.9","","60","","28","","19","","24.1","","100.20","","","","","","Clear"
"2006-04-06 12:00","2006","04","06","12:00","9.8","","1.4","","56","","29","","19","","24.1","","100.15","","","","","","Mainly Clear"
"2006-04-06 13:00","2006","04","06","13:00","11.2","","1.2","","50","","30","","19","","24.1","","100.10","","","","","","Mainly Clear"
"2006-04-06 14:00","2006","04","06","14:00","11.4","","3.7","","59","","21","","19","","24.1","","100.05","","","","","","Mainly Clear"
"2006-04-06 15:00","2006","04","06","15:00","11.7","","3.6","","58","","17","","19","","24.1","","99.99","","","","","","Mainly Clear"
"2006-04-06 16:00","2006","04","06","16:00","11.9","","2.9","","54","","22","","19","","24.1","","99.91","","","","","","Mainly Clear"
"2006-04-06 17:00","2006","04","06","17:00","11.4","","1.8","","52","","20","","22","","24.1","","99.87","","","","","","Mostly Cloudy"
"2006-04-06 18:00","2006","04","06","18:00","9.7","","0.6","","53","","22","","22","","24.1","","99.91","","","","","","Mainly Clear"
"2006-04-06 19:00","2006","04","06","19:00","8.0","","0.5","","59","","20","","19","","24.1","","99.90","","","","","","Mainly Clear"
"2006-04-06 20:00","2006","04","06","20:00","6.8","","0.6","","65","","18","","19","","24.1","","99.90","","","","","","Mainly Clear"
"2006-04-06 21:00","2006","04","06","21:00","6.3","","-0.5","","62","","20","","15","","24.1","","99.81","","","","","","Mainly Clear"
"2006-04-06 22:00","2006","04","06","22:00"
"2006-04-06 23:00","2006","04","06","23:00"
"2006-04-07 00:00","2006","04","07","00:00"
"2006-04-07 01:00","2006","04","07","01:00"
"2006-04-07 02:00","2006","04","07","02:00"
"2006-04-07 03:00","2006","04","07","03:00"
"2006-04-07 04:00","2006","04","07","04:00"
"2006-04-07 05:00","2006","04","07","05:00","6.4","","1.3","","70","","","","0","","24.1","","99.12","","","","","","Mostly Cloudy"
"2006-04-07 06:00","2006","04","07","06:00","6.8","","1.6","","69","","17","","7","","24.1","","98.97","","","","","","Mostly Cloudy"
"2006-04-07 07:00","2006","04","07","07:00","8.2","","3.1","","70","","18","","13","","9.7","","98.98","","","","","","Rain,Fog"
"2006-04-07 08:00","2006","04","07","08:00","6.8","","5.4","","91","","27","","4","","4.8","","98.96","","","","","","Rain,Fog"
"2006-04-07 09:00","2006","04","07","09:00","6.3","","6.3","","100","","","","0","","4.8","","98.92","","","","","","Rain,Fog"
"2006-04-07 10:00","2006","04","07","10:00","5.9","","5.9","","100","","34","","4","","2.8","","98.87","","","","","","Rain,Fog"
"2006-04-07 11:00","2006","04","07","11:00","6.2","","6.2","","100","","30","","7","","4.0","","98.83","","","","","","Rain,Fog"
"2006-04-07 12:00","2006","04","07","12:00","5.7","","5.7","","100","","36","","9","","4.0","","98.77","","","","","","Rain,Fog"
"2006-04-07 13:00","2006","04","07","13:00","5.5","","5.5","","100","","33","","9","","3.2","","98.82","","","","","","Rain,Fog"
"2006-04-07 14:00","2006","04","07","14:00","5.4","","5.4","","100","","3","","13","","4.8","","98.74","","","","","","Rain,Fog"
"2006-04-07 15:00","2006","04","07","15:00","5.4","","5.4","","100","","1","","9","","4.8","","98.82","","","","","","Rain,Fog"
"2006-04-07 16:00","2006","04","07","16:00","4.7","","4.7","","100","","34","","9","","3.2","","99.03","","","","","","Rain,Fog"
"2006-04-07 17:00","2006","04","07","17:00","4.9","","4.9","","100","","32","","15","","4.8","","99.12","","","","","","Fog"
"2006-04-07 18:00","2006","04","07","18:00","5.0","","4.9","","99","","33","","11","","8.0","","99.25","","","","","","Fog"
"2006-04-07 19:00","2006","04","07","19:00","4.1","","3.9","","99","","34","","22","","8.0","","99.40","","","","","","Fog"
"2006-04-07 20:00","2006","04","07","20:00","2.9","","2.0","","94","","2","","19","","8.0","","99.55","","","","","","Fog"
"2006-04-07 21:00","2006","04","07","21:00","2.4","","1.4","","93","","5","","19","","8.0","","99.63","","","","","","Fog"
"2006-04-07 22:00","2006","04","07","22:00"
"2006-04-07 23:00","2006","04","07","23:00"
"2006-04-08 00:00","2006","04","08","00:00"
"2006-04-08 01:00","2006","04","08","01:00"
"2006-04-08 02:00","2006","04","08","02:00"
"2006-04-08 03:00","2006","04","08","03:00"
"2006-04-08 04:00","2006","04","08","04:00"
"2006-04-08 05:00","2006","04","08","05:00","1.0","","-5.9","","60","","1","","22","","24.1","","100.15","","","","","","Mostly Cloudy"
"2006-04-08 06:00","2006","04","08","06:00","-1.5","","-6.3","","70","","1","","22","","24.1","","100.22","","","","-7","","Mainly Clear"
"2006-04-08 07:00","2006","04","08","07:00","-1.0","","-6.3","","67","","1","","22","","24.1","","100.35","","","","-7","","Mainly Clear"
"2006-04-08 08:00","2006","04","08","08:00","-0.4","","-5.9","","66","","1","","15","","24.1","","100.44","","","","-5","","Mainly Clear"
"2006-04-08 09:00","2006","04","08","09:00","0.1","","-5.4","","66","","36","","19","","24.1","","100.57","","","","","","Mostly Cloudy"
"2006-04-08 10:00","2006","04","08","10:00","-0.9","","-6.2","","67","","2","","19","","24.1","","100.55","","","","-6","","Mainly Clear"
"2006-04-08 11:00","2006","04","08","11:00","0.0","","-5.7","","65","","2","","19","","24.1","","100.59","","","","-5","","Mainly Clear"
"2006-04-08 12:00","2006","04","08","12:00","0.2","","-7.2","","57","","34","","9","","24.1","","100.62","","","","","","Clear"
"2006-04-08 13:00","2006","04","08","13:00","0.8","","-6.7","","57","","32","","22","","24.1","","100.60","","","","","","Clear"
"2006-04-08 14:00","2006","04","08","14:00","2.0","","-5.9","","56","","33","","11","","24.1","","100.60","","","","","","Clear"
"2006-04-08 15:00","2006","04","08","15:00","3.3","","-6.1","","50","","33","","19","","24.1","","100.59","","","","","","Clear"
"2006-04-08 16:00","2006","04","08","16:00","3.6","","-6.3","","48","","33","","15","","24.1","","100.67","","","","","","Clear"
"2006-04-08 17:00","2006","04","08","17:00","4.0","","-4.3","","55","","32","","13","","24.1","","100.73","","","","","","Clear"
"2006-04-08 18:00","2006","04","08","18:00","3.1","","-4.5","","57","","30","","9","","24.1","","100.76","","","","","","Clear"
"2006-04-08 19:00","2006","04","08","19:00","2.0","","-3.4","","67","","34","","15","","24.1","","100.81","","","","","","Clear"
"2006-04-08 20:00","2006","04","08","20:00","1.4","","-4.1","","67","","34","","19","","24.1","","100.87","","","","","","Clear"
"2006-04-08 21:00","2006","04","08","21:00","1.1","","-4.2","","68","","34","","15","","24.1","","100.95","","","","","","Mainly Clear"
"2006-04-08 22:00","2006","04","08","22:00"
"2006-04-08 23:00","2006","04","08","23:00"
"2006-04-09 00:00","2006","04","09","00:00"
"2006-04-09 01:00","2006","04","09","01:00"
"2006-04-09 02:00","2006","04","09","02:00"
"2006-04-09 03:00","2006","04","09","03:00"
"2006-04-09 04:00","2006","04","09","04:00"
"2006-04-09 05:00","2006","04","09","05:00","-1.8","","-4.4","","82","","26","","4","","24.1","","101.14","","","","-3","","Clear"
"2006-04-09 06:00","2006","04","09","06:00","-2.4","","-4.4","","86","","20","","6","","24.1","","101.19","","","","-5","","Clear"
"2006-04-09 07:00","2006","04","09","07:00","-0.2","","-2.6","","84","","22","","6","","24.1","","101.27","","","","-2","","Clear"
"2006-04-09 08:00","2006","04","09","08:00","2.8","","-2.1","","70","","28","","9","","24.1","","101.31","","","","","","Clear"
"2006-04-09 09:00","2006","04","09","09:00","3.7","","-1.6","","68","","28","","11","","24.1","","101.38","","","","","","Clear"
"2006-04-09 10:00","2006","04","09","10:00","4.4","","-2.7","","60","","","","0","","24.1","","101.35","","","","","","Clear"
"2006-04-09 11:00","2006","04","09","11:00","5.9","","-3.1","","52","","30","","15","","24.1","","101.31","","","","","","Mainly Clear"
"2006-04-09 12:00","2006","04","09","12:00","5.8","","-4.0","","49","","31","","19","","24.1","","101.28","","","","","","Clear"
"2006-04-09 13:00","2006","04","09","13:00","6.8","","-3.6","","47","","33","","19","","24.1","","101.23","","","","","","Clear"
"2006-04-09 14:00","2006","04","09","14:00","7.6","","-3.6","","45","","36","","15","","24.1","","101.18","","","","","","Mainly Clear"
"2006-04-09 15:00","2006","04","09","15:00","8.8","","-3.3","","42","","34","","9","","24.1","","101.11","","","","","","Mainly Clear"
"2006-04-09 16:00","2006","04","09","16:00","9.7","","-1.5","","46","","26","","15","","24.1","","101.09","","","","","","Clear"
"2006-04-09 17:00","2006","04","09","17:00","8.5","","-1.0","","51","","27","","19","","24.1","","101.09","","","","","","Clear"
"2006-04-09 18:00","2006","04","09","18:00","7.2","","-1.4","","54","","23","","17","","24.1","","101.10","","","","","","Mainly Clear"
"2006-04-09 19:00","2006","04","09","19:00","5.0","","-2.1","","60","","20","","17","","24.1","","101.13","","","","","","Mainly Clear"
"2006-04-09 20:00","2006","04","09","20:00","3.9","","-2.9","","61","","21","","19","","24.1","","101.17","","","","","","Mainly Clear"
"2006-04-09 21:00","2006","04","09","21:00","3.0","","-2.8","","66","","21","","15","","24.1","","101.19","","","","","","Mainly Clear"
"2006-04-09 22:00","2006","04","09","22:00"
"2006-04-09 23:00","2006","04","09","23:00"
"2006-04-10 00:00","2006","04","10","00:00"
"2006-04-10 01:00","2006","04","10","01:00"
"2006-04-10 02:00","2006","04","10","02:00"
"2006-04-10 03:00","2006","04","10","03:00"
"2006-04-10 04:00","2006","04","10","04:00"
"2006-04-10 05:00","2006","04","10","05:00","0.4","","-0.4","","94","","21","","13","","24.1","","101.30","","","","","","Clear"
"2006-04-10 06:00","2006","04","10","06:00","0.2","","-1.2","","90","","21","","15","","24.1","","101.37","","","","","","Clear"
"2006-04-10 07:00","2006","04","10","07:00","2.6","","0.1","","84","","21","","15","","24.1","","101.42","","","","","","Clear"
"2006-04-10 08:00","2006","04","10","08:00","6.2","","0.3","","66","","22","","15","","24.1","","101.44","","","","","","Mainly Clear"
"2006-04-10 09:00","2006","04","10","09:00","8.6","","-0.6","","52","","22","","19","","24.1","","101.42","","","","","","Mainly Clear"
"2006-04-10 10:00","2006","04","10","10:00","10.0","","0.8","","53","","23","","15","","24.1","","101.42","","","","","","Mostly Cloudy"
"2006-04-10 11:00","2006","04","10","11:00","11.4","","1.0","","49","","22","","19","","24.1","","101.38","","","","","","Mainly Clear"
"2006-04-10 12:00","2006","04","10","12:00","12.8","","1.1","","45","","21","","22","","24.1","","101.31","","","","","","Mainly Clear"
"2006-04-10 13:00","2006","04","10","13:00","14.8","","1.2","","40","","24","","19","","24.1","","101.25","","","","","","Mainly Clear"
"2006-04-10 14:00","2006","04","10","14:00","14.6","","-0.7","","35","","19","","19","","24.1","","101.21","","","","","","Mostly Cloudy"
"2006-04-10 15:00","2006","04","10","15:00","14.5","","-2.0","","32","","23","","19","","24.1","","101.17","","","","","","Mostly Cloudy"
"2006-04-10 16:00","2006","04","10","16:00","14.2","","-2.8","","31","","18","","13","","24.1","","101.14","","","","","","Cloudy"
"2006-04-10 17:00","2006","04","10","17:00","14.4","","-4.6","","26","","21","","19","","24.1","","101.14","","","","","","Cloudy"
"2006-04-10 18:00","2006","04","10","18:00","13.2","","-4.5","","29","","22","","15","","24.1","","101.15","","","","","","Cloudy"
"2006-04-10 19:00","2006","04","10","19:00","11.7","","-5.4","","30","","21","","15","","24.1","","101.15","","","","","","Cloudy"
"2006-04-10 20:00","2006","04","10","20:00","9.7","","-0.8","","48","","18","","13","","24.1","","101.16","","","","","","Cloudy"
"2006-04-10 21:00","2006","04","10","21:00","8.3","","0.5","","58","","20","","11","","24.1","","101.22","","","","","","Mostly Cloudy"
"2006-04-10 22:00","2006","04","10","22:00"
"2006-04-10 23:00","2006","04","10","23:00"
"2006-04-11 00:00","2006","04","11","00:00"
"2006-04-11 01:00","2006","04","11","01:00"
"2006-04-11 02:00","2006","04","11","02:00"
"2006-04-11 03:00","2006","04","11","03:00"
"2006-04-11 04:00","2006","04","11","04:00"
"2006-04-11 05:00","2006","04","11","05:00","3.3","","0.4","","81","","15","","7","","24.1","","101.30","","","","","","Mainly Clear"
"2006-04-11 06:00","2006","04","11","06:00","2.8","","0.8","","87","","20","","9","","24.1","","101.33","","","","","","Mainly Clear"
"2006-04-11 07:00","2006","04","11","07:00","4.2","","1.6","","83","","17","","9","","24.1","","101.38","","","","","","Mainly Clear"
"2006-04-11 08:00","2006","04","11","08:00","9.4","","0.5","","54","","5","","11","","24.1","","101.39","","","","","","Mainly Clear"
"2006-04-11 09:00","2006","04","11","09:00","11.4","","0.6","","47","","2","","9","","24.1","","101.44","","","","","","Mostly Cloudy"
"2006-04-11 10:00","2006","04","11","10:00","14.2","","1.9","","43","","11","","9","","24.1","","101.39","","","","","","Mostly Cloudy"
"2006-04-11 11:00","2006","04","11","11:00","16.3","","3.9","","44","","21","","9","","24.1","","101.35","","","","","","Mostly Cloudy"
"2006-04-11 12:00","2006","04","11","12:00","15.4","","4.8","","49","","2","","19","","24.1","","101.30","","","","","","Mostly Cloudy"
"2006-04-11 13:00","2006","04","11","13:00","15.5","","3.5","","45","","2","","15","","24.1","","101.27","","","","","","Mostly Cloudy"
"2006-04-11 14:00","2006","04","11","14:00","16.6","","4.0","","43","","2","","19","","24.1","","101.22","","","","","","Mostly Cloudy"
"2006-04-11 15:00","2006","04","11","15:00","17.9","","3.9","","39","","3","","19","","24.1","","101.13","","","","","","Cloudy"
"2006-04-11 16:00","2006","04","11","16:00","16.9","","3.8","","42","","4","","15","","24.1","","101.06","","","","","","Cloudy"
"2006-04-11 17:00","2006","04","11","17:00","16.6","","4.0","","43","","5","","15","","24.1","","101.03","","","","","","Mostly Cloudy"
"2006-04-11 18:00","2006","04","11","18:00","15.4","","4.6","","48","","6","","9","","24.1","","100.99","","","","","","Mostly Cloudy"
"2006-04-11 19:00","2006","04","11","19:00","13.0","","4.4","","56","","4","","7","","19.3","","100.96","","","","","","Cloudy"
"2006-04-11 20:00","2006","04","11","20:00","9.6","","5.0","","73","","","","0","","19.3","","100.99","","","","","","Mostly Cloudy"
"2006-04-11 21:00","2006","04","11","21:00","8.6","","5.1","","79","","","","0","","19.3","","100.98","","","","","","Mostly Cloudy"
"2006-04-11 22:00","2006","04","11","22:00"
"2006-04-11 23:00","2006","04","11","23:00"
"2006-04-12 00:00","2006","04","12","00:00"
"2006-04-12 01:00","2006","04","12","01:00"
"2006-04-12 02:00","2006","04","12","02:00"
"2006-04-12 03:00","2006","04","12","03:00"
"2006-04-12 04:00","2006","04","12","04:00"
"2006-04-12 05:00","2006","04","12","05:00","7.6","","4.4","","80","","16","","9","","24.1","","100.57","","","","","","Cloudy"
"2006-04-12 06:00","2006","04","12","06:00","13.2","","4.1","","54","","18","","19","","24.1","","100.59","","","","","","Cloudy"
"2006-04-12 07:00","2006","04","12","07:00","15.1","","4.0","","47","","32","","9","","16.1","","100.66","","","","","","Cloudy"
"2006-04-12 08:00","2006","04","12","08:00","17.0","","4.7","","44","","22","","19","","16.1","","100.66","","","","","","Cloudy"
"2006-04-12 09:00","2006","04","12","09:00","16.0","","6.8","","54","","23","","19","","16.1","","100.65","","","","","","Rain Showers"
"2006-04-12 10:00","2006","04","12","10:00","16.6","","6.6","","52","","21","","22","","24.1","","100.62","","","","","","Cloudy"
"2006-04-12 11:00","2006","04","12","11:00","17.7","","8.5","","55","","20","","19","","19.3","","100.48","","","","","","Rain Showers"
"2006-04-12 12:00","2006","04","12","12:00","18.0","","8.2","","53","","18","","19","","19.3","","100.31","","","","","","Rain Showers"
"2006-04-12 13:00","2006","04","12","13:00","19.1","","8.1","","49","","20","","22","","24.1","","100.33","","","","","","Cloudy"
"2006-04-12 14:00","2006","04","12","14:00","19.2","","9.3","","53","","21","","26","","24.1","","100.12","","","","","","Cloudy"
"2006-04-12 15:00","2006","04","12","15:00","18.8","","8.7","","52","","23","","22","","19.3","","100.12","","","","","","Cloudy"
"2006-04-12 16:00","2006","04","12","16:00","16.0","","11.7","","76","","21","","19","","19.3","","100.08","","","","","","Rain Showers"
"2006-04-12 17:00","2006","04","12","17:00","16.6","","11.4","","71","","16","","19","","19.3","","99.83","","","","","","Cloudy"
"2006-04-12 18:00","2006","04","12","18:00","16.2","","10.6","","69","","16","","19","","8.0","","99.74","","","","","","Thunderstorms,Rain Showers"
"2006-04-12 19:00","2006","04","12","19:00","12.8","","11.9","","94","","20","","24","","9.7","","99.85","","","","","","Rain Showers"
"2006-04-12 20:00","2006","04","12","20:00","12.8","","12.1","","96","","21","","28","","16.1","","99.89","","","","","","Cloudy"
"2006-04-12 21:00","2006","04","12","21:00","13.8","","11.9","","88","","21","","22","","16.1","","99.95","","","","","","Cloudy"
"2006-04-12 22:00","2006","04","12","22:00"
"2006-04-12 23:00","2006","04","12","23:00"
"2006-04-13 00:00","2006","04","13","00:00"
"2006-04-13 01:00","2006","04","13","01:00"
"2006-04-13 02:00","2006","04","13","02:00"
"2006-04-13 03:00","2006","04","13","03:00"
"2006-04-13 04:00","2006","04","13","04:00"
"2006-04-13 05:00","2006","04","13","05:00","9.6","","7.0","","84","","25","","19","","24.1","","100.49","","","","","","Mainly Clear"
"2006-04-13 06:00","2006","04","13","06:00","9.0","","6.9","","87","","25","","19","","24.1","","100.55","","","","","","Mostly Cloudy"
"2006-04-13 07:00","2006","04","13","07:00","9.5","","7.2","","86","","24","","19","","24.1","","100.62","","","","","","Mostly Cloudy"
"2006-04-13 08:00","2006","04","13","08:00","10.4","","7.1","","80","","23","","19","","24.1","","100.63","","","","","","Mostly Cloudy"
"2006-04-13 09:00","2006","04","13","09:00","11.2","","7.3","","77","","24","","19","","24.1","","100.64","","","","","","Mostly Cloudy"
"2006-04-13 10:00","2006","04","13","10:00","13.2","","7.4","","68","","23","","19","","24.1","","100.61","","","","","","Mostly Cloudy"
"2006-04-13 11:00","2006","04","13","11:00","15.2","","8.3","","63","","22","","22","","24.1","","100.54","","","","","","Cloudy"
"2006-04-13 12:00","2006","04","13","12:00","16.3","","10.7","","69","","22","","28","","19.3","","100.47","","","","","","Mostly Cloudy"
"2006-04-13 13:00","2006","04","13","13:00","18.4","","11.6","","65","","23","","28","","16.1","","100.37","","","","","","Mainly Clear"
"2006-04-13 14:00","2006","04","13","14:00","19.5","","12.2","","63","","25","","19","","16.1","","100.31","","","","","","Mainly Clear"
"2006-04-13 15:00","2006","04","13","15:00","19.0","","11.8","","63","","17","","19","","16.1","","100.19","","","","","","Mostly Cloudy"
"2006-04-13 16:00","2006","04","13","16:00","19.6","","12.2","","62","","22","","15","","16.1","","100.19","","","","","","Mostly Cloudy"
"2006-04-13 17:00","2006","04","13","17:00","18.6","","5.8","","43","","28","","19","","16.1","","100.21","","","","","","Mainly Clear"
"2006-04-13 18:00","2006","04","13","18:00","16.8","","6.4","","50","","28","","22","","16.1","","100.21","","","","","","Mainly Clear"
"2006-04-13 19:00","2006","04","13","19:00","14.3","","5.4","","55","","28","","19","","24.1","","100.25","","","","","","Mainly Clear"
"2006-04-13 20:00","2006","04","13","20:00","11.2","","5.2","","67","","27","","9","","24.1","","100.32","","","","","","Mostly Cloudy"
"2006-04-13 21:00","2006","04","13","21:00","12.2","","5.4","","63","","25","","9","","24.1","","100.29","","","","","","Mostly Cloudy"
"2006-04-13 22:00","2006","04","13","22:00"
"2006-04-13 23:00","2006","04","13","23:00"
"2006-04-14 00:00","2006","04","14","00:00"
"2006-04-14 01:00","2006","04","14","01:00"
"2006-04-14 02:00","2006","04","14","02:00"
"2006-04-14 03:00","2006","04","14","03:00"
"2006-04-14 04:00","2006","04","14","04:00"
"2006-04-14 05:00","2006","04","14","05:00","9.6","","8.0","","90","","23","","9","","24.1","","99.90","","","","","","Mostly Cloudy"
"2006-04-14 06:00","2006","04","14","06:00","9.3","","8.9","","97","","9","","9","","9.7","","99.76","","","","","","Rain Showers,Fog"
"2006-04-14 07:00","2006","04","14","07:00","9.4","","9.3","","99","","8","","9","","8.0","","99.79","","","","","","Rain Showers,Fog"
"2006-04-14 08:00","2006","04","14","08:00","9.7","","9.7","","100","","25","","7","","4.8","","99.71","","","","","","Rain Showers,Fog"
"2006-04-14 09:00","2006","04","14","09:00","10.4","","10.4","","100","","4","","7","","6.4","","99.61","","","","","","Rain Showers,Fog"
"2006-04-14 10:00","2006","04","14","10:00","11.1","","11.0","","99","","","","0","","4.8","","99.59","","","","","","Rain Showers,Fog"
"2006-04-14 11:00","2006","04","14","11:00","11.9","","11.8","","99","","8","","9","","4.8","","99.46","","","","","","Fog"
"2006-04-14 12:00","2006","04","14","12:00","13.2","","12.8","","97","","9","","15","","6.4","","99.35","","","","","","Fog"
"2006-04-14 13:00","2006","04","14","13:00","14.5","","13.6","","94","","9","","15","","9.7","","99.25","","","","","","Fog"
"2006-04-14 14:00","2006","04","14","14:00","9.7","","9.4","","98","","30","","15","","4.8","","99.27","","","","","","Fog"
"2006-04-14 15:00","2006","04","14","15:00","10.4","","9.6","","95","","","","0","","9.7","","99.12","","","","","","Fog"
"2006-04-14 16:00","2006","04","14","16:00","12.4","","11.0","","91","","31","","7","","9.7","","99.06","","","","","","Fog"
"2006-04-14 17:00","2006","04","14","17:00","8.0","","7.3","","95","","32","","15","","9.7","","99.03","","","","","","Fog"
"2006-04-14 18:00","2006","04","14","18:00","6.8","","6.2","","96","","27","","13","","9.7","","99.03","","","","","","Fog"
"2006-04-14 19:00","2006","04","14","19:00","6.7","","5.9","","95","","26","","15","","8.0","","98.97","","","","","","Fog"
"2006-04-14 20:00","2006","04","14","20:00","5.6","","5.2","","97","","24","","9","","6.4","","98.89","","","","","","Fog"
"2006-04-14 21:00","2006","04","14","21:00","6.6","","6.3","","98","","23","","7","","6.4","","98.84","","","","","","Fog"
"2006-04-14 22:00","2006","04","14","22:00"
"2006-04-14 23:00","2006","04","14","23:00"
"2006-04-15 00:00","2006","04","15","00:00"
"2006-04-15 01:00","2006","04","15","01:00"
"2006-04-15 02:00","2006","04","15","02:00"
"2006-04-15 03:00","2006","04","15","03:00"
"2006-04-15 04:00","2006","04","15","04:00"
"2006-04-15 05:00","2006","04","15","05:00","9.0","","5.8","","80","","28","","22","","24.1","","98.86","","","","","","Mainly Clear"
"2006-04-15 06:00","2006","04","15","06:00","8.9","","5.7","","80","","30","","24","","24.1","","98.90","","","","","","Mostly Cloudy"
"2006-04-15 07:00","2006","04","15","07:00","9.6","","6.1","","79","","27","","22","","24.1","","98.97","","","","","","Mainly Clear"
"2006-04-15 08:00","2006","04","15","08:00","10.7","","6.4","","75","","27","","19","","24.1","","99.05","","","","","","Mainly Clear"
"2006-04-15 09:00","2006","04","15","09:00","11.5","","6.8","","73","","26","","24","","24.1","","99.10","","","","","","Mainly Clear"
"2006-04-15 10:00","2006","04","15","10:00","13.5","","7.5","","67","","27","","22","","24.1","","99.13","","","","","","Mainly Clear"
"2006-04-15 11:00","2006","04","15","11:00","14.9","","7.3","","60","","27","","24","","24.1","","99.17","","","","","","Mainly Clear"
"2006-04-15 12:00","2006","04","15","12:00","14.2","","7.2","","63","","31","","20","","24.1","","99.21","","","","","","Mainly Clear"
"2006-04-15 13:00","2006","04","15","13:00","14.6","","7.2","","61","","30","","20","","24.1","","99.22","","","","","","Mostly Cloudy"
"2006-04-15 14:00","2006","04","15","14:00","15.3","","6.5","","56","","33","","19","","24.1","","99.25","","","","","","Mainly Clear"
"2006-04-15 15:00","2006","04","15","15:00","15.5","","6.7","","56","","33","","19","","24.1","","99.27","","","","","","Mainly Clear"
"2006-04-15 16:00","2006","04","15","16:00","14.8","","6.7","","58","","35","","19","","24.1","","99.27","","","","","","Mainly Clear"
"2006-04-15 17:00","2006","04","15","17:00","14.2","","6.1","","58","","31","","19","","24.1","","99.37","","","","","","Clear"
"2006-04-15 18:00","2006","04","15","18:00","11.8","","6.2","","69","","32","","15","","24.1","","99.43","","","","","","Clear"
"2006-04-15 19:00","2006","04","15","19:00","10.0","","5.6","","74","","32","","15","","24.1","","99.52","","","","","","Clear"
"2006-04-15 20:00","2006","04","15","20:00","8.7","","3.9","","72","","33","","13","","24.1","","99.61","","","","","","Clear"
"2006-04-15 21:00","2006","04","15","21:00","9.6","","3.6","","66","","34","","19","","24.1","","99.72","","","","","","Clear"
"2006-04-15 22:00","2006","04","15","22:00"
"2006-04-15 23:00","2006","04","15","23:00"
"2006-04-16 00:00","2006","04","16","00:00"
"2006-04-16 01:00","2006","04","16","01:00"
"2006-04-16 02:00","2006","04","16","02:00"
"2006-04-16 03:00","2006","04","16","03:00"
"2006-04-16 04:00","2006","04","16","04:00"
"2006-04-16 05:00","2006","04","16","05:00","3.1","","2.2","","94","","36","","13","","24.1","","99.95","","","","","","Clear"
"2006-04-16 06:00","2006","04","16","06:00","3.9","","2.4","","90","","36","","15","","24.1","","100.02","","","","","","Mainly Clear"
"2006-04-16 07:00","2006","04","16","07:00","5.9","","3.7","","86","","36","","13","","24.1","","100.10","","","","","","Mainly Clear"
"2006-04-16 08:00","2006","04","16","08:00","7.1","","3.3","","77","","36","","19","","24.1","","100.12","","","","","","Mostly Cloudy"
"2006-04-16 09:00","2006","04","16","09:00","7.3","","2.9","","74","","36","","19","","24.1","","100.20","","","","","","Mostly Cloudy"
"2006-04-16 10:00","2006","04","16","10:00","7.7","","3.4","","74","","34","","19","","24.1","","100.21","","","","","","Mostly Cloudy"
"2006-04-16 11:00","2006","04","16","11:00","8.9","","2.6","","65","","36","","19","","24.1","","100.09","","","","","","Mostly Cloudy"
"2006-04-16 12:00","2006","04","16","12:00","8.7","","3.0","","67","","33","","19","","24.1","","100.04","","","","","","Mostly Cloudy"
"2006-04-16 13:00","2006","04","16","13:00","10.0","","2.0","","57","","33","","19","","24.1","","100.01","","","","","","Mostly Cloudy"
"2006-04-16 14:00","2006","04","16","14:00","11.3","","2.5","","55","","33","","11","","24.1","","99.99","","","","","","Mainly Clear"
"2006-04-16 15:00","2006","04","16","15:00","11.5","","1.9","","52","","3","","15","","24.1","","99.94","","","","","","Mostly Cloudy"
"2006-04-16 16:00","2006","04","16","16:00","12.2","","1.9","","49","","34","","6","","24.1","","99.93","","","","","","Mostly Cloudy"
"2006-04-16 17:00","2006","04","16","17:00","12.6","","0.3","","43","","5","","17","","24.1","","99.90","","","","","","Mainly Clear"
"2006-04-16 18:00","2006","04","16","18:00","12.0","","0.3","","45","","5","","9","","24.1","","99.93","","","","","","Mainly Clear"
"2006-04-16 19:00","2006","04","16","19:00","10.4","","0.4","","50","","9","","7","","24.1","","99.92","","","","","","Mainly Clear"
"2006-04-16 20:00","2006","04","16","20:00","8.1","","1.3","","62","","","","0","","24.1","","99.96","","","","","","Clear"
"2006-04-16 21:00","2006","04","16","21:00","6.5","","1.8","","72","","","","0","","24.1","","100.03","","","","","","Clear"
"2006-04-16 22:00","2006","04","16","22:00"
"2006-04-16 23:00","2006","04","16","23:00"
"2006-04-17 00:00","2006","04","17","00:00"
"2006-04-17 01:00","2006","04","17","01:00"
"2006-04-17 02:00","2006","04","17","02:00"
"2006-04-17 03:00","2006","04","17","03:00"
"2006-04-17 04:00","2006","04","17","04:00"
"2006-04-17 05:00","2006","04","17","05:00","3.1","","1.2","","87","","5","","13","","24.1","","100.03","","","","","","Clear"
"2006-04-17 06:00","2006","04","17","06:00","3.4","","1.7","","89","","5","","19","","24.1","","100.09","","","","","","Clear"
"2006-04-17 07:00","2006","04","17","07:00","6.3","","2.9","","79","","5","","15","","24.1","","100.18","","","","","","Clear"
"2006-04-17 08:00","2006","04","17","08:00","7.5","","3.4","","75","","4","","22","","24.1","","100.22","","","","","","Clear"
"2006-04-17 09:00","2006","04","17","09:00","7.6","","3.6","","76","","5","","22","","24.1","","100.27","","","","","","Mainly Clear"
"2006-04-17 10:00","2006","04","17","10:00","8.3","","3.8","","73","","4","","22","","24.1","","100.29","","","","","","Mainly Clear"
"2006-04-17 11:00","2006","04","17","11:00","9.5","","4.4","","70","","3","","19","","24.1","","100.29","","","","","","Mainly Clear"
"2006-04-17 12:00","2006","04","17","12:00","9.1","","3.6","","68","","3","","19","","24.1","","100.32","","","","","","Mainly Clear"
"2006-04-17 13:00","2006","04","17","13:00","11.1","","3.1","","58","","9","","20","","24.1","","100.29","","","","","","Mainly Clear"
"2006-04-17 14:00","2006","04","17","14:00","12.3","","3.9","","56","","8","","22","","24.1","","100.28","","","","","","Mainly Clear"
"2006-04-17 15:00","2006","04","17","15:00","12.4","","3.2","","53","","5","","19","","24.1","","100.27","","","","","","Clear"
"2006-04-17 16:00","2006","04","17","16:00","11.8","","3.9","","58","","4","","22","","24.1","","100.26","","","","","","Clear"
"2006-04-17 17:00","2006","04","17","17:00","12.5","","3.7","","55","","3","","11","","24.1","","100.28","","","","","","Clear"
"2006-04-17 18:00","2006","04","17","18:00","12.1","","2.9","","53","","5","","9","","24.1","","100.29","","","","","","Clear"
"2006-04-17 19:00","2006","04","17","19:00","10.3","","2.9","","60","","36","","7","","24.1","","100.32","","","","","","Clear"
"2006-04-17 20:00","2006","04","17","20:00","5.8","","3.4","","85","","29","","6","","24.1","","100.39","","","","","","Mainly Clear"
"2006-04-17 21:00","2006","04","17","21:00","6.2","","3.6","","83","","","","0","","24.1","","100.45","","","","","","Mainly Clear"
"2006-04-17 22:00","2006","04","17","22:00"
"2006-04-17 23:00","2006","04","17","23:00"
"2006-04-18 00:00","2006","04","18","00:00"
"2006-04-18 01:00","2006","04","18","01:00"
"2006-04-18 02:00","2006","04","18","02:00"
"2006-04-18 03:00","2006","04","18","03:00"
"2006-04-18 04:00","2006","04","18","04:00"
"2006-04-18 05:00","2006","04","18","05:00","3.4","","2.4","","93","","2","","7","","24.1","","100.62","","","","","","Clear"
"2006-04-18 06:00","2006","04","18","06:00","2.4","","1.7","","95","","","","0","","24.1","","100.70","","","","","","Clear"
"2006-04-18 07:00","2006","04","18","07:00","6.9","","4.9","","87","","6","","7","","24.1","","100.75","","","","","","Clear"
"2006-04-18 08:00","2006","04","18","08:00","9.8","","4.7","","71","","6","","19","","24.1","","100.77","","","","","","Clear"
"2006-04-18 09:00","2006","04","18","09:00","12.1","","4.9","","61","","5","","15","","24.1","","100.75","","","","","","Clear"
"2006-04-18 10:00","2006","04","18","10:00","12.3","","5.0","","61","","4","","19","","24.1","","100.72","","","","","","Clear"
"2006-04-18 11:00","2006","04","18","11:00","12.7","","5.0","","59","","3","","20","","24.1","","100.71","","","","","","Clear"
"2006-04-18 12:00","2006","04","18","12:00","13.9","","5.3","","56","","5","","19","","24.1","","100.73","","","","","","Clear"
"2006-04-18 13:00","2006","04","18","13:00","14.2","","5.5","","56","","7","","19","","24.1","","100.68","","","","","","Clear"
"2006-04-18 14:00","2006","04","18","14:00","15.1","","5.0","","51","","3","","22","","24.1","","100.64","","","","","","Clear"
"2006-04-18 15:00","2006","04","18","15:00","16.0","","5.5","","50","","3","","20","","24.1","","100.58","","","","","","Clear"
"2006-04-18 16:00","2006","04","18","16:00","15.3","","6.3","","55","","36","","15","","24.1","","100.56","","","","","","Clear"
"2006-04-18 17:00","2006","04","18","17:00","14.1","","6.1","","59","","36","","9","","24.1","","100.54","","","","","","Clear"
"2006-04-18 18:00","2006","04","18","18:00","13.1","","5.9","","62","","33","","6","","24.1","","100.51","","","","","","Clear"
"2006-04-18 19:00","2006","04","18","19:00","12.2","","5.1","","62","","","","0","","24.1","","100.50","","","","","","Clear"
"2006-04-18 20:00","2006","04","18","20:00","10.0","","4.8","","70","","","","0","","24.1","","100.49","","","","","","Clear"
"2006-04-18 21:00","2006","04","18","21:00","9.0","","5.2","","77","","","","0","","24.1","","100.49","","","","","","Clear"
"2006-04-18 22:00","2006","04","18","22:00"
"2006-04-18 23:00","2006","04","18","23:00"
"2006-04-19 00:00","2006","04","19","00:00"
"2006-04-19 01:00","2006","04","19","01:00"
"2006-04-19 02:00","2006","04","19","02:00"
"2006-04-19 03:00","2006","04","19","03:00"
"2006-04-19 04:00","2006","04","19","04:00"
"2006-04-19 05:00","2006","04","19","05:00","5.5","","3.5","","87","","","","0","","24.1","","100.45","","","","","","Clear"
"2006-04-19 06:00","2006","04","19","06:00","4.5","","3.2","","91","","24","","9","","24.1","","100.46","","","","","","Clear"
"2006-04-19 07:00","2006","04","19","07:00","8.4","","6.0","","85","","30","","6","","24.1","","100.51","","","","","","Clear"
"2006-04-19 08:00","2006","04","19","08:00","11.0","","7.0","","76","","35","","4","","24.1","","100.52","","","","","","Clear"
"2006-04-19 09:00","2006","04","19","09:00","12.1","","6.8","","70","","34","","13","","24.1","","100.53","","","","","","Clear"
"2006-04-19 10:00","2006","04","19","10:00","12.8","","6.5","","65","","2","","19","","24.1","","100.55","","","","","","Clear"
"2006-04-19 11:00","2006","04","19","11:00","14.2","","6.2","","59","","35","","15","","24.1","","100.55","","","","","","Clear"
"2006-04-19 12:00","2006","04","19","12:00","15.2","","7.4","","60","","3","","17","","24.1","","100.49","","","","","","Clear"
"2006-04-19 13:00","2006","04","19","13:00","16.4","","7.5","","56","","2","","11","","24.1","","100.48","","","","","","Clear"
"2006-04-19 14:00","2006","04","19","14:00","18.3","","4.2","","39","","3","","15","","24.1","","100.45","","","","","","Clear"
"2006-04-19 15:00","2006","04","19","15:00","19.6","","5.0","","38","","4","","15","","24.1","","100.38","","","","","","Clear"
"2006-04-19 16:00","2006","04","19","16:00","18.9","","4.9","","40","","1","","9","","24.1","","100.34","","","","","","Clear"
"2006-04-19 17:00","2006","04","19","17:00","19.5","","5.2","","39","","2","","7","","24.1","","100.33","","","","","","Clear"
"2006-04-19 18:00","2006","04","19","18:00","17.9","","7.2","","50","","34","","6","","24.1","","100.32","","","","","","Clear"
"2006-04-19 19:00","2006","04","19","19:00","14.2","","7.9","","66","","30","","4","","24.1","","100.31","","","","","","Clear"
"2006-04-19 20:00","2006","04","19","20:00","11.5","","7.4","","76","","19","","7","","24.1","","100.32","","","","","","Clear"
"2006-04-19 21:00","2006","04","19","21:00","12.1","","6.6","","69","","24","","6","","24.1","","100.33","","","","","","Clear"
"2006-04-19 22:00","2006","04","19","22:00"
"2006-04-19 23:00","2006","04","19","23:00"
"2006-04-20 00:00","2006","04","20","00:00"
"2006-04-20 01:00","2006","04","20","01:00"
"2006-04-20 02:00","2006","04","20","02:00"
"2006-04-20 03:00","2006","04","20","03:00"
"2006-04-20 04:00","2006","04","20","04:00"
"2006-04-20 05:00","2006","04","20","05:00","7.3","","3.5","","77","","","","0","","24.1","","100.37","","","","","","Clear"
"2006-04-20 06:00","2006","04","20","06:00","6.8","","3.8","","81","","27","","7","","24.1","","100.44","","","","","","Clear"
"2006-04-20 07:00","2006","04","20","07:00","9.7","","6.7","","82","","28","","11","","24.1","","100.52","","","","","","Clear"
"2006-04-20 08:00","2006","04","20","08:00","12.6","","5.7","","63","","2","","7","","24.1","","100.49","","","","","","Clear"
"2006-04-20 09:00","2006","04","20","09:00","14.7","","6.1","","56","","6","","11","","24.1","","100.48","","","","","","Clear"
"2006-04-20 10:00","2006","04","20","10:00","15.6","","7.0","","57","","4","","9","","24.1","","100.56","","","","","","Clear"
"2006-04-20 11:00","2006","04","20","11:00","16.3","","7.5","","56","","36","","19","","24.1","","100.57","","","","","","Clear"
"2006-04-20 12:00","2006","04","20","12:00","18.0","","7.2","","49","","30","","15","","24.1","","100.54","","","","","","Mainly Clear"
"2006-04-20 13:00","2006","04","20","13:00","18.6","","7.1","","47","","36","","15","","24.1","","100.46","","","","","","Mostly Cloudy"
"2006-04-20 14:00","2006","04","20","14:00","20.0","","5.2","","38","","34","","9","","24.1","","100.44","","","","","","Cloudy"
"2006-04-20 15:00","2006","04","20","15:00","20.9","","2.3","","29","","33","","9","","24.1","","100.40","","","","","","Cloudy"
"2006-04-20 16:00","2006","04","20","16:00","21.0","","2.8","","30","","3","","13","","24.1","","100.33","","","","","","Cloudy"
"2006-04-20 17:00","2006","04","20","17:00","20.1","","2.5","","31","","7","","19","","24.1","","100.32","","","","","","Cloudy"
"2006-04-20 18:00","2006","04","20","18:00","19.7","","-0.3","","26","","9","","7","","24.1","","100.33","","","","","","Cloudy"
"2006-04-20 19:00","2006","04","20","19:00","18.4","","-0.5","","28","","12","","7","","24.1","","100.37","","","","","","Cloudy"
"2006-04-20 20:00","2006","04","20","20:00","16.4","","-0.8","","31","","10","","7","","24.1","","100.34","","","","","","Cloudy"
"2006-04-20 21:00","2006","04","20","21:00","15.9","","-0.9","","32","","11","","9","","24.1","","100.32","","","","","","Cloudy"
"2006-04-20 22:00","2006","04","20","22:00"
"2006-04-20 23:00","2006","04","20","23:00"
"2006-04-21 00:00","2006","04","21","00:00"
"2006-04-21 01:00","2006","04","21","01:00"
"2006-04-21 02:00","2006","04","21","02:00"
"2006-04-21 03:00","2006","04","21","03:00"
"2006-04-21 04:00","2006","04","21","04:00"
"2006-04-21 05:00","2006","04","21","05:00","7.2","","3.6","","78","","","","0","","19.3","","100.37","","","","","","Mostly Cloudy"
"2006-04-21 06:00","2006","04","21","06:00","6.9","","2.0","","71","","4","","7","","19.3","","100.38","","","","","","Cloudy"
"2006-04-21 07:00","2006","04","21","07:00","9.9","","3.4","","64","","10","","6","","24.1","","100.41","","","","","","Mostly Cloudy"
"2006-04-21 08:00","2006","04","21","08:00","13.8","","3.3","","49","","4","","9","","24.1","","100.42","","","","","","Cloudy"
"2006-04-21 09:00","2006","04","21","09:00","15.3","","8.1","","62","","33","","9","","24.1","","100.42","","","","","","Cloudy"
"2006-04-21 10:00","2006","04","21","10:00","16.0","","9.2","","64","","31","","15","","24.1","","100.42","","","","","","Cloudy"
"2006-04-21 11:00","2006","04","21","11:00","16.1","","8.4","","60","","","","0","","24.1","","100.39","","","","","","Cloudy"
"2006-04-21 12:00","2006","04","21","12:00","15.3","","9.4","","68","","31","","15","","24.1","","100.35","","","","","","Cloudy"
"2006-04-21 13:00","2006","04","21","13:00","14.4","","8.3","","67","","32","","9","","24.1","","100.36","","","","","","Cloudy"
"2006-04-21 14:00","2006","04","21","14:00","14.1","","7.9","","66","","1","","15","","24.1","","100.33","","","","","","Cloudy"
"2006-04-21 15:00","2006","04","21","15:00","14.6","","7.9","","64","","36","","13","","24.1","","100.29","","","","","","Cloudy"
"2006-04-21 16:00","2006","04","21","16:00","13.6","","7.4","","66","","2","","11","","24.1","","100.23","","","","","","Cloudy"
"2006-04-21 17:00","2006","04","21","17:00","12.9","","7.4","","69","","33","","6","","24.1","","100.20","","","","","","Cloudy"
"2006-04-21 18:00","2006","04","21","18:00","11.4","","6.4","","71","","2","","13","","24.1","","100.16","","","","","","Cloudy"
"2006-04-21 19:00","2006","04","21","19:00","11.0","","5.4","","68","","3","","11","","24.1","","100.06","","","","","","Cloudy"
"2006-04-21 20:00","2006","04","21","20:00","10.0","","5.8","","75","","7","","9","","24.1","","100.01","","","","","","Cloudy"
"2006-04-21 21:00","2006","04","21","21:00","10.9","","7.1","","77","","22","","6","","19.3","","100.08","","","","","","Rain Showers"
"2006-04-21 22:00","2006","04","21","22:00"
"2006-04-21 23:00","2006","04","21","23:00"
"2006-04-22 00:00","2006","04","22","00:00"
"2006-04-22 01:00","2006","04","22","01:00"
"2006-04-22 02:00","2006","04","22","02:00"
"2006-04-22 03:00","2006","04","22","03:00"
"2006-04-22 04:00","2006","04","22","04:00"
"2006-04-22 05:00","2006","04","22","05:00","11.2","","11.2","","100","","9","","15","","9.7","","100.03","","","","","","Rain Showers,Fog"
"2006-04-22 06:00","2006","04","22","06:00","11.3","","11.1","","99","","11","","19","","9.7","","100.06","","","","","","Rain Showers,Fog"
"2006-04-22 07:00","2006","04","22","07:00","11.1","","11.1","","100","","10","","11","","12.9","","100.09","","","","","","Rain Showers"
"2006-04-22 08:00","2006","04","22","08:00","11.8","","10.0","","89","","12","","15","","16.1","","100.09","","","","","","Cloudy"
"2006-04-22 09:00","2006","04","22","09:00","12.0","","11.1","","94","","9","","9","","16.1","","100.13","","","","","","Rain Showers"
"2006-04-22 10:00","2006","04","22","10:00","12.0","","10.8","","92","","15","","13","","16.1","","100.16","","","","","","Cloudy"
"2006-04-22 11:00","2006","04","22","11:00","13.0","","11.0","","88","","10","","7","","19.3","","100.14","","","","","","Cloudy"
"2006-04-22 12:00","2006","04","22","12:00","14.2","","10.1","","76","","17","","22","","19.3","","100.11","","","","","","Cloudy"
"2006-04-22 13:00","2006","04","22","13:00","14.3","","10.8","","79","","20","","19","","19.3","","100.09","","","","","","Cloudy"
"2006-04-22 14:00","2006","04","22","14:00","14.2","","10.8","","80","","20","","19","","24.1","","100.09","","","","","","Cloudy"
"2006-04-22 15:00","2006","04","22","15:00","14.1","","10.5","","79","","21","","17","","19.3","","100.08","","","","","","Cloudy"
"2006-04-22 16:00","2006","04","22","16:00","14.4","","11.0","","80","","19","","19","","16.1","","100.05","","","","","","Cloudy"
"2006-04-22 17:00","2006","04","22","17:00","14.6","","11.2","","80","","20","","19","","24.1","","100.10","","","","","","Mostly Cloudy"
"2006-04-22 18:00","2006","04","22","18:00","14.9","","10.2","","73","","19","","19","","24.1","","100.11","","","","","","Mostly Cloudy"
"2006-04-22 19:00","2006","04","22","19:00","8.2","","7.5","","95","","30","","13","","19.3","","100.18","","","","","","Mostly Cloudy"
"2006-04-22 20:00","2006","04","22","20:00","7.0","","6.7","","98","","28","","9","","24.1","","100.21","","","","","","Mostly Cloudy"
"2006-04-22 21:00","2006","04","22","21:00","6.7","","6.5","","99","","25","","6","","16.1","","100.19","","","","","","Mostly Cloudy"
"2006-04-22 22:00","2006","04","22","22:00"
"2006-04-22 23:00","2006","04","22","23:00"
"2006-04-23 00:00","2006","04","23","00:00"
"2006-04-23 01:00","2006","04","23","01:00"
"2006-04-23 02:00","2006","04","23","02:00"
"2006-04-23 03:00","2006","04","23","03:00"
"2006-04-23 04:00","2006","04","23","04:00"
"2006-04-23 05:00","2006","04","23","05:00","6.0","","6.0","","100","","29","","15","","0.8","","99.82","","","","","","Fog"
"2006-04-23 06:00","2006","04","23","06:00","6.2","","6.2","","100","","5","","7","","1.2","","99.83","","","","","","Fog"
"2006-04-23 07:00","2006","04","23","07:00","6.7","","6.7","","100","","21","","4","","4.0","","99.84","","","","","","Fog"
"2006-04-23 08:00","2006","04","23","08:00","7.6","","7.6","","100","","9","","11","","4.8","","99.78","","","","","","Fog"
"2006-04-23 09:00","2006","04","23","09:00","9.5","","8.8","","95","","29","","19","","4.8","","99.81","","","","","","Rain,Fog"
"2006-04-23 10:00","2006","04","23","10:00","6.9","","6.9","","100","","27","","17","","8.0","","99.82","","","","","","Rain,Fog"
"2006-04-23 11:00","2006","04","23","11:00","7.1","","7.1","","100","","32","","6","","8.0","","99.77","","","","","","Rain,Fog"
"2006-04-23 12:00","2006","04","23","12:00","7.8","","7.8","","100","","5","","7","","8.0","","99.68","","","","","","Rain,Fog"
"2006-04-23 13:00","2006","04","23","13:00","7.8","","7.8","","100","","25","","19","","6.4","","99.74","","","","","","Rain,Fog"
"2006-04-23 14:00","2006","04","23","14:00","6.7","","6.7","","100","","27","","19","","8.0","","99.77","","","","","","Rain,Fog"
"2006-04-23 15:00","2006","04","23","15:00","6.0","","6.0","","100","","27","","19","","8.0","","99.78","","","","","","Rain,Fog"
"2006-04-23 16:00","2006","04","23","16:00","5.2","","5.1","","99","","27","","19","","8.0","","99.78","","","","","","Rain,Fog"
"2006-04-23 17:00","2006","04","23","17:00","5.1","","5.1","","100","","26","","9","","8.0","","99.81","","","","","","Rain,Fog"
"2006-04-23 18:00","2006","04","23","18:00","5.7","","5.5","","99","","19","","9","","9.7","","99.77","","","","","","Rain,Fog"
"2006-04-23 19:00","2006","04","23","19:00","5.9","","5.7","","99","","","","0","","24.1","","99.78","","","","","","Cloudy"
"2006-04-23 20:00","2006","04","23","20:00","6.2","","5.7","","97","","33","","6","","19.3","","99.79","","","","","","Cloudy"
"2006-04-23 21:00","2006","04","23","21:00","6.1","","5.7","","97","","3","","6","","19.3","","99.78","","","","","","Cloudy"
"2006-04-23 22:00","2006","04","23","22:00"
"2006-04-23 23:00","2006","04","23","23:00"
"2006-04-24 00:00","2006","04","24","00:00"
"2006-04-24 01:00","2006","04","24","01:00"
"2006-04-24 02:00","2006","04","24","02:00"
"2006-04-24 03:00","2006","04","24","03:00"
"2006-04-24 04:00","2006","04","24","04:00"
"2006-04-24 05:00","2006","04","24","05:00","5.4","","5.4","","100","","21","","9","","12.9","","99.73","","","","","","Cloudy"
"2006-04-24 06:00","2006","04","24","06:00","5.8","","5.8","","100","","23","","9","","12.9","","99.80","","","","","","Cloudy"
"2006-04-24 07:00","2006","04","24","07:00","6.6","","6.3","","98","","22","","11","","12.9","","99.82","","","","","","Mostly Cloudy"
"2006-04-24 08:00","2006","04","24","08:00","8.7","","7.8","","94","","24","","20","","12.9","","99.90","","","","","","Cloudy"
"2006-04-24 09:00","2006","04","24","09:00","10.0","","7.3","","83","","28","","22","","16.1","","99.93","","","","","","Cloudy"
"2006-04-24 10:00","2006","04","24","10:00","10.8","","7.9","","82","","27","","22","","16.1","","99.94","","","","","","Cloudy"
"2006-04-24 11:00","2006","04","24","11:00","12.3","","9.0","","80","","28","","22","","12.9","","99.93","","","","","","Cloudy"
"2006-04-24 12:00","2006","04","24","12:00","12.1","","8.2","","77","","29","","26","","16.1","","99.90","","","","","","Cloudy"
"2006-04-24 13:00","2006","04","24","13:00","12.9","","8.8","","76","","28","","24","","16.1","","99.87","","","","","","Cloudy"
"2006-04-24 14:00","2006","04","24","14:00","12.2","","8.3","","77","","27","","28","","12.9","","99.82","","","","","","Mostly Cloudy"
"2006-04-24 15:00","2006","04","24","15:00","12.4","","8.7","","78","","29","","28","","12.9","","99.86","","","","","","Cloudy"
"2006-04-24 16:00","2006","04","24","16:00","12.9","","8.3","","74","","28","","28","","12.9","","99.89","","","","","","Cloudy"
"2006-04-24 17:00","2006","04","24","17:00","12.1","","7.7","","74","","26","","19","","16.1","","99.93","","","","","","Cloudy"
"2006-04-24 18:00","2006","04","24","18:00","11.9","","8.3","","79","","26","","19","","19.3","","99.94","","","","","","Cloudy"
"2006-04-24 19:00","2006","04","24","19:00","11.8","","7.7","","76","","25","","19","","12.9","","99.92","","","","","","Mostly Cloudy"
"2006-04-24 20:00","2006","04","24","20:00","10.4","","8.7","","89","","23","","19","","19.3","","99.95","","","","","","Cloudy"
"2006-04-24 21:00","2006","04","24","21:00","9.8","","8.4","","91","","24","","19","","24.1","","99.95","","","","","","Mainly Clear"
"2006-04-24 22:00","2006","04","24","22:00"
"2006-04-24 23:00","2006","04","24","23:00"
"2006-04-25 00:00","2006","04","25","00:00"
"2006-04-25 01:00","2006","04","25","01:00"
"2006-04-25 02:00","2006","04","25","02:00"
"2006-04-25 03:00","2006","04","25","03:00"
"2006-04-25 04:00","2006","04","25","04:00"
"2006-04-25 05:00","2006","04","25","05:00","10.4","","8.0","","85","","28","","28","","12.9","","99.67","","","","","","Cloudy"
"2006-04-25 06:00","2006","04","25","06:00","9.0","","6.4","","84","","29","","17","","19.3","","99.77","","","","","","Cloudy"
"2006-04-25 07:00","2006","04","25","07:00","9.0","","6.3","","83","","29","","19","","24.1","","99.83","","","","","","Cloudy"
"2006-04-25 08:00","2006","04","25","08:00","4.4","","2.9","","90","","33","","28","","16.1","","99.98","","","","","","Rain Showers"
"2006-04-25 09:00","2006","04","25","09:00","3.4","","1.5","","87","","33","","28","","16.1","","100.11","","","","","","Rain Showers"
"2006-04-25 10:00","2006","04","25","10:00","3.7","","0.6","","80","","33","","33","","24.1","","100.23","","","","","","Cloudy"
"2006-04-25 11:00","2006","04","25","11:00","3.9","","-0.2","","75","","34","","22","","24.1","","100.32","","","","","","Mostly Cloudy"
"2006-04-25 12:00","2006","04","25","12:00","4.8","","-1.2","","65","","33","","26","","24.1","","100.35","","","","","","Mostly Cloudy"
"2006-04-25 13:00","2006","04","25","13:00","5.9","","-1.4","","59","","32","","19","","24.1","","100.32","","","","","","Mostly Cloudy"
"2006-04-25 14:00","2006","04","25","14:00","6.2","","-3.0","","52","","32","","19","","24.1","","100.32","","","","","","Mostly Cloudy"
"2006-04-25 15:00","2006","04","25","15:00","6.7","","-3.2","","49","","35","","15","","24.1","","100.28","","","","","","Mostly Cloudy"
"2006-04-25 16:00","2006","04","25","16:00","6.9","","-5.9","","40","","34","","17","","24.1","","100.31","","","","","","Mostly Cloudy"
"2006-04-25 17:00","2006","04","25","17:00","7.2","","-4.9","","42","","34","","20","","24.1","","100.31","","","","","","Mostly Cloudy"
"2006-04-25 18:00","2006","04","25","18:00","6.6","","-7.3","","36","","34","","15","","24.1","","100.31","","","","","","Mostly Cloudy"
"2006-04-25 19:00","2006","04","25","19:00","5.9","","-4.6","","47","","","","0","","24.1","","100.33","","","","","","Mainly Clear"
"2006-04-25 20:00","2006","04","25","20:00","3.7","","-1.8","","67","","","","0","","24.1","","100.38","","","","","","Mainly Clear"
"2006-04-25 21:00","2006","04","25","21:00","2.8","","-2.8","","67","","","","0","","24.1","","100.44","","","","","","Mainly Clear"
"2006-04-25 22:00","2006","04","25","22:00"
"2006-04-25 23:00","2006","04","25","23:00"
"2006-04-26 00:00","2006","04","26","00:00"
"2006-04-26 01:00","2006","04","26","01:00"
"2006-04-26 02:00","2006","04","26","02:00"
"2006-04-26 03:00","2006","04","26","03:00"
"2006-04-26 04:00","2006","04","26","04:00"
"2006-04-26 05:00","2006","04","26","05:00","0.6","","-4.8","","67","","22","","15","","24.1","","100.29","","","","","","Clear"
"2006-04-26 06:00","2006","04","26","06:00","0.2","","-4.2","","72","","23","","17","","24.1","","100.35","","","","","","Clear"
"2006-04-26 07:00","2006","04","26","07:00","2.9","","-3.2","","64","","24","","20","","24.1","","100.44","","","","","","Clear"
"2006-04-26 08:00","2006","04","26","08:00","5.8","","-3.8","","50","","24","","22","","24.1","","100.42","","","","","","Clear"
"2006-04-26 09:00","2006","04","26","09:00","8.1","","-3.4","","44","","24","","22","","24.1","","100.33","","","","","","Clear"
"2006-04-26 10:00","2006","04","26","10:00","9.5","","-2.3","","43","","24","","28","","24.1","","100.23","","","","","","Clear"
"2006-04-26 11:00","2006","04","26","11:00","10.9","","0.4","","48","","23","","24","","24.1","","100.16","","","","","","Clear"
"2006-04-26 12:00","2006","04","26","12:00","11.2","","0.9","","49","","22","","28","","24.1","","100.06","","","","","","Clear"
"2006-04-26 13:00","2006","04","26","13:00","11.9","","2.3","","52","","23","","28","","24.1","","99.98","","","","","","Clear"
"2006-04-26 14:00","2006","04","26","14:00","12.2","","2.2","","50","","22","","28","","24.1","","99.88","","","","","","Clear"
"2006-04-26 15:00","2006","04","26","15:00","12.1","","1.4","","48","","23","","28","","24.1","","99.82","","","","","","Clear"
"2006-04-26 16:00","2006","04","26","16:00","11.7","","0.0","","44","","22","","30","","24.1","","99.77","","","","","","Mainly Clear"
"2006-04-26 17:00","2006","04","26","17:00","12.3","","0.7","","45","","23","","28","","24.1","","99.71","","","","","","Clear"
"2006-04-26 18:00","2006","04","26","18:00","11.4","","-0.2","","45","","23","","28","","24.1","","99.70","","","","","","Mainly Clear"
"2006-04-26 19:00","2006","04","26","19:00","10.0","","-0.8","","47","","23","","28","","24.1","","99.71","","","","","","Mainly Clear"
"2006-04-26 20:00","2006","04","26","20:00","9.6","","-1.4","","46","","23","","19","","24.1","","99.75","","","","","","Mainly Clear"
"2006-04-26 21:00","2006","04","26","21:00","9.4","","-0.5","","50","","23","","28","","24.1","","99.78","","","","","","Mainly Clear"
"2006-04-26 22:00","2006","04","26","22:00"
"2006-04-26 23:00","2006","04","26","23:00"
"2006-04-27 00:00","2006","04","27","00:00"
"2006-04-27 01:00","2006","04","27","01:00"
"2006-04-27 02:00","2006","04","27","02:00"
"2006-04-27 03:00","2006","04","27","03:00"
"2006-04-27 04:00","2006","04","27","04:00"
"2006-04-27 05:00","2006","04","27","05:00","8.2","","0.2","","57","","28","","19","","24.1","","99.85","","","","","","Mostly Cloudy"
"2006-04-27 06:00","2006","04","27","06:00","6.8","","-0.5","","60","","30","","19","","24.1","","99.97","","","","","","Mostly Cloudy"
"2006-04-27 07:00","2006","04","27","07:00","6.3","","4.1","","86","","3","","7","","24.1","","100.06","","","","","","Mostly Cloudy"
"2006-04-27 08:00","2006","04","27","08:00","7.2","","3.2","","76","","4","","7","","24.1","","100.14","","","","","","Mostly Cloudy"
"2006-04-27 09:00","2006","04","27","09:00","7.1","","3.9","","80","","2","","15","","24.1","","100.23","","","","","","Mostly Cloudy"
"2006-04-27 10:00","2006","04","27","10:00","7.4","","3.9","","78","","3","","15","","24.1","","100.29","","","","","","Mostly Cloudy"
"2006-04-27 11:00","2006","04","27","11:00","8.0","","3.2","","72","","2","","19","","24.1","","100.36","","","","","","Mostly Cloudy"
"2006-04-27 12:00","2006","04","27","12:00","8.6","","4.1","","73","","1","","19","","24.1","","100.40","","","","","","Mostly Cloudy"
"2006-04-27 13:00","2006","04","27","13:00","10.7","","-0.1","","47","","3","","11","","24.1","","100.40","","","","","","Mainly Clear"
"2006-04-27 14:00","2006","04","27","14:00","11.8","","-0.4","","43","","3","","15","","24.1","","100.41","","","","","","Mainly Clear"
"2006-04-27 15:00","2006","04","27","15:00","12.2","","-1.3","","39","","5","","15","","24.1","","100.42","","","","","","Mainly Clear"
"2006-04-27 16:00","2006","04","27","16:00","12.3","","-3.1","","34","","3","","9","","24.1","","100.45","","","","","","Clear"
"2006-04-27 17:00","2006","04","27","17:00","11.8","","-5.2","","30","","6","","4","","24.1","","100.49","","","","","","Clear"
"2006-04-27 18:00","2006","04","27","18:00","11.3","","-5.3","","31","","3","","9","","24.1","","100.53","","","","","","Clear"
"2006-04-27 19:00","2006","04","27","19:00","9.6","","-5.3","","34","","3","","9","","24.1","","100.59","","","","","","Clear"
"2006-04-27 20:00","2006","04","27","20:00","7.2","","-3.4","","47","","1","","7","","24.1","","100.68","","","","","","Clear"
"2006-04-27 21:00","2006","04","27","21:00","5.7","","0.8","","71","","34","","7","","24.1","","100.77","","","","","","Clear"
"2006-04-27 22:00","2006","04","27","22:00"
"2006-04-27 23:00","2006","04","27","23:00"
"2006-04-28 00:00","2006","04","28","00:00"
"2006-04-28 01:00","2006","04","28","01:00"
"2006-04-28 02:00","2006","04","28","02:00"
"2006-04-28 03:00","2006","04","28","03:00"
"2006-04-28 04:00","2006","04","28","04:00"
"2006-04-28 05:00","2006","04","28","05:00","0.3","","-1.8","","86","","22","","7","","24.1","","101.30","","","","","","Clear"
"2006-04-28 06:00","2006","04","28","06:00","0.8","","-1.3","","86","","14","","7","","24.1","","101.39","","","","","","Clear"
"2006-04-28 07:00","2006","04","28","07:00","5.6","","1.5","","75","","7","","9","","24.1","","101.47","","","","","","Clear"
"2006-04-28 08:00","2006","04","28","08:00","8.1","","0.9","","60","","2","","15","","24.1","","101.53","","","","","","Clear"
"2006-04-28 09:00","2006","04","28","09:00","7.7","","0.8","","62","","1","","19","","24.1","","101.61","","","","","","Clear"
"2006-04-28 10:00","2006","04","28","10:00","8.7","","0.4","","56","","2","","19","","24.1","","101.69","","","","","","Clear"
"2006-04-28 11:00","2006","04","28","11:00","9.6","","-0.1","","51","","3","","19","","24.1","","101.72","","","","","","Clear"
"2006-04-28 12:00","2006","04","28","12:00","10.1","","-4.6","","35","","2","","19","","24.1","","101.73","","","","","","Clear"
"2006-04-28 13:00","2006","04","28","13:00","10.0","","-4.8","","35","","3","","19","","24.1","","101.77","","","","","","Clear"
"2006-04-28 14:00","2006","04","28","14:00","12.2","","-3.2","","34","","4","","9","","24.1","","101.73","","","","","","Clear"
"2006-04-28 15:00","2006","04","28","15:00","11.9","","-4.1","","32","","6","","19","","24.1","","101.67","","","","","","Clear"
"2006-04-28 16:00","2006","04","28","16:00","12.1","","-4.4","","31","","5","","19","","24.1","","101.65","","","","","","Clear"
"2006-04-28 17:00","2006","04","28","17:00","12.1","","-4.0","","32","","4","","9","","24.1","","101.65","","","","","","Clear"
"2006-04-28 18:00","2006","04","28","18:00","11.4","","-3.5","","35","","8","","19","","24.1","","101.66","","","","","","Clear"
"2006-04-28 19:00","2006","04","28","19:00","9.3","","-3.2","","41","","3","","9","","24.1","","101.67","","","","","","Clear"
"2006-04-28 20:00","2006","04","28","20:00","7.4","","-3.0","","48","","8","","9","","24.1","","101.72","","","","","","Clear"
"2006-04-28 21:00","2006","04","28","21:00","6.0","","-2.6","","54","","9","","9","","24.1","","101.74","","","","","","Clear"
"2006-04-28 22:00","2006","04","28","22:00"
"2006-04-28 23:00","2006","04","28","23:00"
"2006-04-29 00:00","2006","04","29","00:00"
"2006-04-29 01:00","2006","04","29","01:00"
"2006-04-29 02:00","2006","04","29","02:00"
"2006-04-29 03:00","2006","04","29","03:00"
"2006-04-29 04:00","2006","04","29","04:00"
"2006-04-29 05:00","2006","04","29","05:00","1.1","","-2.4","","77","","9","","15","","24.1","","101.91","","","","","","Clear"
"2006-04-29 06:00","2006","04","29","06:00","0.4","","-2.0","","84","","12","","7","","24.1","","102.04","","","","","","Clear"
"2006-04-29 07:00","2006","04","29","07:00","5.1","","-0.6","","67","","9","","9","","24.1","","102.11","","","","","","Clear"
"2006-04-29 08:00","2006","04","29","08:00","9.6","","-2.8","","42","","8","","15","","24.1","","102.05","","","","","","Clear"
"2006-04-29 09:00","2006","04","29","09:00","11.4","","-2.7","","37","","9","","22","","24.1","","101.99","","","","","","Mainly Clear"
"2006-04-29 10:00","2006","04","29","10:00","13.1","","-3.4","","32","","11","","19","","24.1","","101.98","","","","","","Mainly Clear"
"2006-04-29 11:00","2006","04","29","11:00","14.2","","-3.6","","29","","11","","19","","24.1","","101.92","","","","","","Mainly Clear"
"2006-04-29 12:00","2006","04","29","12:00","14.3","","1.4","","41","","5","","19","","24.1","","101.93","","","","","","Mainly Clear"
"2006-04-29 13:00","2006","04","29","13:00","12.7","","0.8","","44","","4","","19","","24.1","","101.90","","","","","","Mainly Clear"
"2006-04-29 14:00","2006","04","29","14:00","13.3","","1.4","","44","","5","","22","","24.1","","101.84","","","","","","Mostly Cloudy"
"2006-04-29 15:00","2006","04","29","15:00","13.0","","","M","","M","4","","22","","24.1","","101.84","","","","","","Mainly Clear"
"2006-04-29 16:00","2006","04","29","16:00","13.7","","-0.4","","38","","4","","19","","24.1","","101.81","","","","","","Mostly Cloudy"
"2006-04-29 17:00","2006","04","29","17:00","14.2","","-1.2","","35","","6","","22","","24.1","","101.77","","","","","","Mainly Clear"
"2006-04-29 18:00","2006","04","29","18:00","13.5","","-1.2","","36","","4","","15","","24.1","","101.71","","","","","","Mainly Clear"
"2006-04-29 19:00","2006","04","29","19:00","10.8","","-3.0","","38","","6","","19","","24.1","","101.66","","","","","","Mainly Clear"
"2006-04-29 20:00","2006","04","29","20:00","8.6","","-3.0","","44","","8","","15","","24.1","","101.68","","","","","","Mainly Clear"
"2006-04-29 21:00","2006","04","29","21:00","7.4","","-3.2","","47","","8","","9","","24.1","","101.73","","","","","","Mainly Clear"
"2006-04-29 22:00","2006","04","29","22:00"
"2006-04-29 23:00","2006","04","29","23:00"
"2006-04-30 00:00","2006","04","30","00:00"
"2006-04-30 01:00","2006","04","30","01:00"
"2006-04-30 02:00","2006","04","30","02:00"
"2006-04-30 03:00","2006","04","30","03:00"
"2006-04-30 04:00","2006","04","30","04:00"
"2006-04-30 05:00","2006","04","30","05:00","4.0","","-2.1","","64","","6","","15","","24.1","","101.71","","","","","","Mainly Clear"
"2006-04-30 06:00","2006","04","30","06:00","6.7","","-2.4","","52","","9","","9","","24.1","","101.73","","","","","","Mostly Cloudy"
"2006-04-30 07:00","2006","04","30","07:00","10.4","","0.5","","50","","7","","13","","24.1","","101.76","","","","","","Mostly Cloudy"
"2006-04-30 08:00","2006","04","30","08:00","14.5","","-0.2","","36","","8","","15","","24.1","","101.74","","","","","","Mostly Cloudy"
"2006-04-30 09:00","2006","04","30","09:00","16.8","","0.3","","33","","7","","19","","24.1","","101.74","","","","","","Mainly Clear"
"2006-04-30 10:00","2006","04","30","10:00","19.0","","-1.2","","25","","10","","19","","24.1","","101.73","","","","","","Mainly Clear"
"2006-04-30 11:00","2006","04","30","11:00","18.4","","6.4","","45","","4","","19","","24.1","","101.71","","","","","","Mostly Cloudy"
"2006-04-30 12:00","2006","04","30","12:00","17.5","","5.4","","45","","4","","19","","24.1","","101.63","","","","","","Mostly Cloudy"
"2006-04-30 13:00","2006","04","30","13:00","19.5","","4.5","","37","","4","","22","","24.1","","101.57","","","","","","Mostly Cloudy"
"2006-04-30 14:00","2006","04","30","14:00","18.1","","3.1","","37","","5","","22","","24.1","","101.53","","","","","","Mostly Cloudy"
"2006-04-30 15:00","2006","04","30","15:00","18.8","","3.6","","36","","5","","28","","24.1","","101.46","","","","","","Mainly Clear"
"2006-04-30 16:00","2006","04","30","16:00","18.4","","2.9","","36","","5","","24","","24.1","","101.39","","","","","","Mostly Cloudy"
"2006-04-30 17:00","2006","04","30","17:00","18.1","","3.4","","38","","5","","19","","24.1","","101.33","","","","","","Mainly Clear"
"2006-04-30 18:00","2006","04","30","18:00","16.4","","2.7","","40","","5","","19","","24.1","","101.30","","","","","","Mostly Cloudy"
"2006-04-30 19:00","2006","04","30","19:00","16.3","","0.8","","35","","6","","22","","24.1","","101.31","","","","","","Mostly Cloudy"
"2006-04-30 20:00","2006","04","30","20:00","14.8","","-0.1","","36","","8","","19","","24.1","","101.35","","","","","","Mainly Clear"
"2006-04-30 21:00","2006","04","30","21:00","12.6","","0.3","","43","","8","","19","","24.1","","101.40","","","","","","Mainly Clear"
"2006-04-30 22:00","2006","04","30","22:00"
"2006-04-30 23:00","2006","04","30","23:00"
