"Station Name","ST CATHARINES A"
"Province","ONTARIO"
"Latitude","43.20"
"Longitude","-79.17"
"Elevation","97.80"
"Climate Identifier","6137287"
"WMO Identifier",""
"TC Identifier","YSN"
"All times are specified in Local Standard Time (LST). Add 1 hour to adjust for Daylight Saving Time where and when it is observed."

"Legend"
"E","Estimated"
"M","Missing"
"NA","Not Available"

"Date/Time","Year","Month","Day","Time","Temp (°C)","Temp Flag","Dew Point Temp (°C)","Dew Point Temp Flag","Rel Hum (%)","Rel Hum Flag","Wind Dir (10s deg)","Wind Dir Flag","Wind Spd (km/h)","Wind Spd Flag","Visibility (km)","Visibility Flag","Stn Press (kPa)","Stn Press Flag","Hmdx","Hmdx Flag","Wind Chill","Wind Chill Flag","Weather"
"2004-11-01 00:00","2004","11","01","00:00"
"2004-11-01 01:00","2004","11","01","01:00"
"2004-11-01 02:00","2004","11","01","02:00"
"2004-11-01 03:00","2004","11","01","03:00"
"2004-11-01 04:00","2004","11","01","04:00"
"2004-11-01 05:00","2004","11","01","05:00"
"2004-11-01 06:00","2004","11","01","06:00","8.5","","4.9","","78","","31","","9","","24.1","","100.84","","","","","","Cloudy"
"2004-11-01 07:00","2004","11","01","07:00","8.2","","4.2","","76","","32","","9","","24.1","","100.92","","","","","","Mostly Cloudy"
"2004-11-01 08:00","2004","11","01","08:00","8.5","","5.2","","80","","32","","11","","24.1","","101.04","","","","","","Mostly Cloudy"
"2004-11-01 09:00","2004","11","01","09:00","8.7","","4.6","","75","","3","","19","","24.1","","101.04","","","","","","Cloudy"
"2004-11-01 10:00","2004","11","01","10:00","9.0","","5.9","","81","","2","","9","","24.1","","101.08","","","","","","Cloudy"
"2004-11-01 11:00","2004","11","01","11:00","9.2","","5.3","","77","","6","","9","","24.1","","101.07","","","","","","Mostly Cloudy"
"2004-11-01 12:00","2004","11","01","12:00","9.3","","4.9","","74","","2","","6","","24.1","","101.07","","","","","","Mostly Cloudy"
"2004-11-01 13:00","2004","11","01","13:00","9.5","","4.6","","71","","3","","9","","24.1","","101.04","","","","","","Mostly Cloudy"
"2004-11-01 14:00","2004","11","01","14:00","8.9","","4.1","","72","","3","","9","","24.1","","101.01","","","","","","Mostly Cloudy"
"2004-11-01 15:00","2004","11","01","15:00","9.1","","4.0","","70","","6","","11","","24.1","","101.03","","","","","","Mostly Cloudy"
"2004-11-01 16:00","2004","11","01","16:00","9.5","","4.1","","69","","5","","6","","24.1","","101.01","","","","","","Mostly Cloudy"
"2004-11-01 17:00","2004","11","01","17:00","8.8","","4.5","","74","","7","","11","","24.1","","100.98","","","","","","Mostly Cloudy"
"2004-11-01 18:00","2004","11","01","18:00","7.8","","4.7","","81","","8","","13","","24.1","","101.00","","","","","","Mostly Cloudy"
"2004-11-01 19:00","2004","11","01","19:00","7.5","","4.3","","80","","9","","9","","24.1","","101.01","","","","","","Mostly Cloudy"
"2004-11-01 20:00","2004","11","01","20:00","7.3","","4.1","","80","","9","","19","","24.1","","100.91","","","","","","Cloudy"
"2004-11-01 21:00","2004","11","01","21:00","7.3","","4.0","","80","","10","","15","","24.1","","100.91","","","","","","Cloudy"
"2004-11-01 22:00","2004","11","01","22:00","7.2","","4.6","","84","","9","","11","","24.1","","100.90","","","","","","Cloudy"
"2004-11-01 23:00","2004","11","01","23:00"
"2004-11-02 00:00","2004","11","02","00:00"
"2004-11-02 01:00","2004","11","02","01:00"
"2004-11-02 02:00","2004","11","02","02:00"
"2004-11-02 03:00","2004","11","02","03:00"
"2004-11-02 04:00","2004","11","02","04:00"
"2004-11-02 05:00","2004","11","02","05:00"
"2004-11-02 06:00","2004","11","02","06:00","7.1","","6.8","","98","","6","","9","","8.0","","100.18","","","","","","Rain Showers,Fog"
"2004-11-02 07:00","2004","11","02","07:00","7.0","","7.0","","100","","6","","9","","6.4","","100.09","","","","","","Rain Showers,Fog"
"2004-11-02 08:00","2004","11","02","08:00","7.3","","7.3","","100","","1","","9","","6.4","","100.15","","","","","","Rain Showers,Fog"
"2004-11-02 09:00","2004","11","02","09:00","7.7","","7.7","","100","","","","0","","4.8","","100.09","","","","","","Rain Showers,Fog"
"2004-11-02 10:00","2004","11","02","10:00","8.3","","8.3","","100","","","","0","","4.0","","99.98","","","","","","Rain Showers,Fog"
"2004-11-02 11:00","2004","11","02","11:00","9.3","","9.2","","99","","31","","6","","4.8","","99.94","","","","","","Fog"
"2004-11-02 12:00","2004","11","02","12:00","8.8","","8.8","","100","","28","","9","","4.8","","99.96","","","","","","Rain Showers,Fog"
"2004-11-02 13:00","2004","11","02","13:00","9.0","","9.0","","100","","30","","15","","4.8","","99.91","","","","","","Rain Showers,Fog"
"2004-11-02 14:00","2004","11","02","14:00","9.3","","9.3","","100","","30","","7","","4.8","","99.86","","","","","","Drizzle,Fog"
"2004-11-02 15:00","2004","11","02","15:00","9.3","","9.3","","100","","","","0","","4.0","","99.85","","","","","","Rain Showers,Fog"
"2004-11-02 16:00","2004","11","02","16:00","9.1","","9.1","","100","","32","","7","","4.0","","99.95","","","","","","Rain Showers,Fog"
"2004-11-02 17:00","2004","11","02","17:00","9.2","","9.2","","100","","34","","15","","4.0","","100.02","","","","","","Rain Showers,Fog"
"2004-11-02 18:00","2004","11","02","18:00","9.1","","9.1","","100","","35","","15","","2.8","","100.10","","","","","","Rain Showers,Fog"
"2004-11-02 19:00","2004","11","02","19:00","8.4","","8.0","","97","","35","","15","","6.4","","100.13","","","","","","Rain Showers,Fog"
"2004-11-02 20:00","2004","11","02","20:00","8.1","","7.8","","98","","35","","9","","8.0","","100.31","","","","","","Rain Showers,Fog"
"2004-11-02 21:00","2004","11","02","21:00","7.7","","6.9","","95","","33","","15","","24.1","","100.39","","","","","","Mostly Cloudy"
"2004-11-02 22:00","2004","11","02","22:00","7.7","","6.9","","95","","33","","11","","24.1","","100.48","","","","","","Cloudy"
"2004-11-02 23:00","2004","11","02","23:00"
"2004-11-03 00:00","2004","11","03","00:00"
"2004-11-03 01:00","2004","11","03","01:00"
"2004-11-03 02:00","2004","11","03","02:00"
"2004-11-03 03:00","2004","11","03","03:00"
"2004-11-03 04:00","2004","11","03","04:00"
"2004-11-03 05:00","2004","11","03","05:00"
"2004-11-03 06:00","2004","11","03","06:00","5.6","","2.1","","78","","36","","19","","24.1","","101.22","","","","","","Mostly Cloudy"
"2004-11-03 07:00","2004","11","03","07:00","5.3","","1.5","","76","","36","","19","","24.1","","101.30","","","","","","Mostly Cloudy"
"2004-11-03 08:00","2004","11","03","08:00","5.0","","1.3","","77","","35","","19","","24.1","","101.38","","","","","","Mostly Cloudy"
"2004-11-03 09:00","2004","11","03","09:00","5.2","","1.3","","76","","34","","11","","24.1","","101.43","","","","","","Mostly Cloudy"
"2004-11-03 10:00","2004","11","03","10:00","5.7","","1.6","","75","","36","","11","","24.1","","101.45","","","","","","Mostly Cloudy"
"2004-11-03 11:00","2004","11","03","11:00","5.5","","0.9","","72","","4","","7","","24.1","","101.50","","","","","","Mostly Cloudy"
"2004-11-03 12:00","2004","11","03","12:00","6.2","","1.3","","71","","36","","6","","24.1","","101.47","","","","","","Mainly Clear"
"2004-11-03 13:00","2004","11","03","13:00","7.2","","1.3","","66","","3","","7","","24.1","","101.42","","","","","","Mainly Clear"
"2004-11-03 14:00","2004","11","03","14:00","8.3","","1.6","","63","","33","","7","","24.1","","101.39","","","","","","Mainly Clear"
"2004-11-03 15:00","2004","11","03","15:00","8.2","","1.2","","61","","31","","6","","24.1","","101.34","","","","","","Mainly Clear"
"2004-11-03 16:00","2004","11","03","16:00","7.9","","0.8","","61","","2","","4","","24.1","","101.31","","","","","","Mainly Clear"
"2004-11-03 17:00","2004","11","03","17:00","6.4","","1.0","","68","","8","","4","","24.1","","101.33","","","","","","Mainly Clear"
"2004-11-03 18:00","2004","11","03","18:00","4.1","","1.3","","82","","14","","6","","24.1","","101.33","","","","","","Clear"
"2004-11-03 19:00","2004","11","03","19:00","3.4","","0.6","","82","","14","","6","","24.1","","101.34","","","","","","Clear"
"2004-11-03 20:00","2004","11","03","20:00","3.3","","0.4","","81","","","","0","","24.1","","101.28","","","","","","Clear"
"2004-11-03 21:00","2004","11","03","21:00","1.7","","0.1","","89","","","","0","","24.1","","101.22","","","","","","Clear"
"2004-11-03 22:00","2004","11","03","22:00","0.8","","-0.2","","93","","","","0","","24.1","","101.19","","","","","","Clear"
"2004-11-03 23:00","2004","11","03","23:00"
"2004-11-04 00:00","2004","11","04","00:00"
"2004-11-04 01:00","2004","11","04","01:00"
"2004-11-04 02:00","2004","11","04","02:00"
"2004-11-04 03:00","2004","11","04","03:00"
"2004-11-04 04:00","2004","11","04","04:00"
"2004-11-04 05:00","2004","11","04","05:00"
"2004-11-04 06:00","2004","11","04","06:00","1.4","","-0.8","","85","","11","","9","","24.1","","100.21","","","","","","Mainly Clear"
"2004-11-04 07:00","2004","11","04","07:00","2.0","","-1.0","","80","","11","","9","","24.1","","100.09","","","","","","Mostly Cloudy"
"2004-11-04 08:00","2004","11","04","08:00","4.5","","-1.0","","67","","12","","19","","24.1","","99.87","","","","","","Mostly Cloudy"
"2004-11-04 09:00","2004","11","04","09:00","5.3","","0.3","","70","","10","","7","","24.1","","99.73","","","","","","Cloudy"
"2004-11-04 10:00","2004","11","04","10:00","5.1","","1.3","","76","","10","","13","","8.0","","99.57","","","","","","Rain Showers,Fog"
"2004-11-04 11:00","2004","11","04","11:00","4.4","","4.0","","97","","10","","15","","6.4","","99.41","","","","","","Rain Showers,Fog"
"2004-11-04 12:00","2004","11","04","12:00","6.1","","5.6","","97","","14","","15","","4.8","","99.18","","","","","","Rain Showers,Fog"
"2004-11-04 13:00","2004","11","04","13:00","6.4","","6.2","","99","","15","","19","","3.2","","98.89","","","","","","Rain Showers,Fog"
"2004-11-04 14:00","2004","11","04","14:00","7.1","","6.9","","99","","16","","15","","3.2","","98.70","","","","","","Rain Showers,Fog"
"2004-11-04 15:00","2004","11","04","15:00","8.2","","8.2","","100","","18","","19","","6.4","","98.52","","","","","","Fog"
"2004-11-04 16:00","2004","11","04","16:00","10.1","","9.6","","97","","20","","22","","6.4","","98.38","","","","","","Rain Showers,Fog"
"2004-11-04 17:00","2004","11","04","17:00","12.0","","11.1","","94","","23","","22","","19.3","","98.30","","","","","","Cloudy"
"2004-11-04 18:00","2004","11","04","18:00","11.7","","9.8","","88","","25","","26","","19.3","","98.33","","","","","","Cloudy"
"2004-11-04 19:00","2004","11","04","19:00","9.1","","7.2","","88","","28","","30","","24.1","","98.45","","","","","","Cloudy"
"2004-11-04 20:00","2004","11","04","20:00","7.5","","4.9","","84","","28","","24","","24.1","","98.56","","","","","","Rain Showers"
"2004-11-04 21:00","2004","11","04","21:00","6.6","","4.7","","88","","26","","22","","24.1","","98.66","","","","","","Rain Showers"
"2004-11-04 22:00","2004","11","04","22:00","7.1","","4.9","","86","","26","","20","","24.1","","98.67","","","","","","Cloudy"
"2004-11-04 23:00","2004","11","04","23:00"
"2004-11-05 00:00","2004","11","05","00:00"
"2004-11-05 01:00","2004","11","05","01:00"
"2004-11-05 02:00","2004","11","05","02:00"
"2004-11-05 03:00","2004","11","05","03:00"
"2004-11-05 04:00","2004","11","05","04:00"
"2004-11-05 05:00","2004","11","05","05:00"
"2004-11-05 06:00","2004","11","05","06:00","5.9","","1.3","","72","","30","","28","","24.1","","99.33","","","","","","Mostly Cloudy"
"2004-11-05 07:00","2004","11","05","07:00","5.9","","1.2","","72","","29","","28","","24.1","","99.43","","","","","","Mostly Cloudy"
"2004-11-05 08:00","2004","11","05","08:00","6.0","","1.4","","72","","29","","28","","24.1","","99.53","","","","","","Mostly Cloudy"
"2004-11-05 09:00","2004","11","05","09:00","6.1","","1.3","","71","","30","","28","","24.1","","99.62","","","","","","Mostly Cloudy"
"2004-11-05 10:00","2004","11","05","10:00","7.0","","0.8","","65","","29","","28","","24.1","","99.65","","","","","","Mostly Cloudy"
"2004-11-05 11:00","2004","11","05","11:00","8.1","","0.0","","57","","28","","28","","24.1","","99.66","","","","","","Mostly Cloudy"
"2004-11-05 12:00","2004","11","05","12:00","8.0","","-1.1","","53","","28","","28","","24.1","","99.68","","","","","","Mostly Cloudy"
"2004-11-05 13:00","2004","11","05","13:00","9.0","","-1.7","","47","","29","","22","","24.1","","99.71","","","","","","Mostly Cloudy"
"2004-11-05 14:00","2004","11","05","14:00","8.7","","-2.2","","46","","27","","26","","24.1","","99.76","","","","","","Mostly Cloudy"
"2004-11-05 15:00","2004","11","05","15:00","8.9","","-2.4","","45","","28","","24","","24.1","","99.77","","","","","","Mainly Clear"
"2004-11-05 16:00","2004","11","05","16:00","7.9","","-1.7","","51","","26","","24","","24.1","","99.82","","","","","","Mainly Clear"
"2004-11-05 17:00","2004","11","05","17:00","7.1","","-2.3","","51","","26","","19","","24.1","","99.81","","","","","","Mainly Clear"
"2004-11-05 18:00","2004","11","05","18:00","6.4","","-1.6","","57","","25","","19","","24.1","","99.82","","","","","","Mostly Cloudy"
"2004-11-05 19:00","2004","11","05","19:00","5.9","","-1.1","","61","","23","","19","","24.1","","99.78","","","","","","Cloudy"
"2004-11-05 20:00","2004","11","05","20:00","7.2","","-1.5","","54","","23","","19","","24.1","","99.73","","","","","","Cloudy"
"2004-11-05 21:00","2004","11","05","21:00","8.1","","-0.3","","55","","23","","22","","24.1","","99.66","","","","","","Cloudy"
"2004-11-05 22:00","2004","11","05","22:00","9.1","","0.8","","56","","24","","26","","24.1","","99.63","","","","","","Cloudy"
"2004-11-05 23:00","2004","11","05","23:00"
"2004-11-06 00:00","2004","11","06","00:00"
"2004-11-06 01:00","2004","11","06","01:00"
"2004-11-06 02:00","2004","11","06","02:00"
"2004-11-06 03:00","2004","11","06","03:00"
"2004-11-06 04:00","2004","11","06","04:00"
"2004-11-06 05:00","2004","11","06","05:00"
"2004-11-06 06:00","2004","11","06","06:00","8.2","","0.7","","59","","23","","19","","24.1","","99.43","","","","","","Mostly Cloudy"
"2004-11-06 07:00","2004","11","06","07:00","7.8","","1.0","","62","","24","","15","","24.1","","99.42","","","","","","Mostly Cloudy"
"2004-11-06 08:00","2004","11","06","08:00","8.8","","1.7","","61","","24","","19","","24.1","","99.40","","","","","","Mainly Clear"
"2004-11-06 09:00","2004","11","06","09:00","10.4","","2.9","","60","","25","","22","","24.1","","99.38","","","","","","Mainly Clear"
"2004-11-06 10:00","2004","11","06","10:00","11.9","","3.9","","58","","26","","28","","24.1","","99.33","","","","","","Mainly Clear"
"2004-11-06 11:00","2004","11","06","11:00","12.6","","5.4","","61","","26","","28","","24.1","","99.33","","","","","","Mostly Cloudy"
"2004-11-06 12:00","2004","11","06","12:00","12.8","","6.0","","63","","25","","28","","24.1","","99.28","","","","","","Mostly Cloudy"
"2004-11-06 13:00","2004","11","06","13:00","12.5","","6.4","","66","","25","","28","","24.1","","99.28","","","","","","Mostly Cloudy"
"2004-11-06 14:00","2004","11","06","14:00","12.5","","6.8","","68","","23","","28","","24.1","","99.30","","","","","","Mostly Cloudy"
"2004-11-06 15:00","2004","11","06","15:00","12.8","","6.9","","67","","23","","24","","24.1","","99.33","","","","","","Mostly Cloudy"
"2004-11-06 16:00","2004","11","06","16:00","12.7","","7.4","","70","","23","","19","","24.1","","99.33","","","","","","Mostly Cloudy"
"2004-11-06 17:00","2004","11","06","17:00","12.1","","7.3","","72","","23","","19","","24.1","","99.39","","","","","","Mostly Cloudy"
"2004-11-06 18:00","2004","11","06","18:00","11.6","","7.6","","76","","24","","19","","24.1","","99.46","","","","","","Mostly Cloudy"
"2004-11-06 19:00","2004","11","06","19:00","11.7","","7.3","","74","","23","","19","","24.1","","99.50","","","","","","Cloudy"
"2004-11-06 20:00","2004","11","06","20:00","12.0","","6.8","","70","","23","","19","","24.1","","99.52","","","","","","Cloudy"
"2004-11-06 21:00","2004","11","06","21:00","11.5","","6.3","","70","","23","","9","","24.1","","99.58","","","","","","Cloudy"
"2004-11-06 22:00","2004","11","06","22:00","9.5","","5.9","","78","","21","","11","","24.1","","99.59","","","","","","Mostly Cloudy"
"2004-11-06 23:00","2004","11","06","23:00"
"2004-11-07 00:00","2004","11","07","00:00"
"2004-11-07 01:00","2004","11","07","01:00"
"2004-11-07 02:00","2004","11","07","02:00"
"2004-11-07 03:00","2004","11","07","03:00"
"2004-11-07 04:00","2004","11","07","04:00"
"2004-11-07 05:00","2004","11","07","05:00"
"2004-11-07 06:00","2004","11","07","06:00","11.7","","8.3","","80","","22","","22","","24.1","","99.21","","","","","","Cloudy"
"2004-11-07 07:00","2004","11","07","07:00","12.2","","8.9","","80","","22","","28","","24.1","","99.19","","","","","","Mostly Cloudy"
"2004-11-07 08:00","2004","11","07","08:00","12.9","","9.1","","78","","23","","28","","24.1","","99.23","","","","","","Mostly Cloudy"
"2004-11-07 09:00","2004","11","07","09:00","13.0","","9.4","","79","","23","","19","","24.1","","99.29","","","","","","Mostly Cloudy"
"2004-11-07 10:00","2004","11","07","10:00","14.2","","10.2","","77","","24","","28","","16.1","","99.29","","","","","","Mainly Clear"
"2004-11-07 11:00","2004","11","07","11:00","15.3","","9.1","","66","","26","","28","","19.3","","99.33","","","","","","Mostly Cloudy"
"2004-11-07 12:00","2004","11","07","12:00","16.4","","7.6","","56","","27","","28","","19.3","","99.31","","","","","","Mostly Cloudy"
"2004-11-07 13:00","2004","11","07","13:00","15.9","","7.3","","57","","26","","19","","24.1","","99.35","","","","","","Mostly Cloudy"
"2004-11-07 14:00","2004","11","07","14:00","14.8","","6.6","","58","","30","","19","","24.1","","99.40","","","","","","Mostly Cloudy"
"2004-11-07 15:00","2004","11","07","15:00","12.7","","3.9","","55","","30","","19","","24.1","","99.55","","","","","","Mostly Cloudy"
"2004-11-07 16:00","2004","11","07","16:00","10.8","","2.0","","54","","31","","28","","24.1","","99.68","","","","","","Mostly Cloudy"
"2004-11-07 17:00","2004","11","07","17:00","9.5","","1.2","","56","","29","","28","","24.1","","99.91","","","","","","Mostly Cloudy"
"2004-11-07 18:00","2004","11","07","18:00","8.0","","-0.3","","56","","31","","28","","24.1","","100.03","","","","","","Mainly Clear"
"2004-11-07 19:00","2004","11","07","19:00","7.0","","-0.2","","60","","31","","28","","24.1","","100.24","","","","","","Mainly Clear"
"2004-11-07 20:00","2004","11","07","20:00","6.3","","0.2","","65","","29","","19","","24.1","","100.30","","","","","","Mainly Clear"
"2004-11-07 21:00","2004","11","07","21:00","6.2","","-0.9","","60","","30","","22","","24.1","","100.36","","","","","","Mainly Clear"
"2004-11-07 22:00","2004","11","07","22:00","5.6","","-0.6","","64","","31","","22","","24.1","","100.45","","","","","","Mainly Clear"
"2004-11-07 23:00","2004","11","07","23:00"
"2004-11-08 00:00","2004","11","08","00:00"
"2004-11-08 01:00","2004","11","08","01:00"
"2004-11-08 02:00","2004","11","08","02:00"
"2004-11-08 03:00","2004","11","08","03:00"
"2004-11-08 04:00","2004","11","08","04:00"
"2004-11-08 05:00","2004","11","08","05:00"
"2004-11-08 06:00","2004","11","08","06:00","3.0","","-1.6","","72","","30","","22","","24.1","","100.86","","","","","","Mainly Clear"
"2004-11-08 07:00","2004","11","08","07:00","3.2","","-2.7","","65","","31","","22","","24.1","","100.98","","","","","","Mainly Clear"
"2004-11-08 08:00","2004","11","08","08:00","3.3","","-3.3","","62","","31","","22","","24.1","","101.08","","","","","","Mainly Clear"
"2004-11-08 09:00","2004","11","08","09:00","4.3","","-5.6","","49","","30","","28","","24.1","","101.15","","","","","","Clear"
"2004-11-08 10:00","2004","11","08","10:00","5.1","","-6.4","","43","","30","","28","","24.1","","101.23","","","","","","Clear"
"2004-11-08 11:00","2004","11","08","11:00","6.1","","-7.4","","37","","33","","19","","24.1","","101.26","","","","","","Mostly Cloudy"
"2004-11-08 12:00","2004","11","08","12:00","5.3","","-6.7","","42","","33","","19","","24.1","","101.28","","","","","","Mostly Cloudy"
"2004-11-08 13:00","2004","11","08","13:00","4.5","","-6.1","","46","","33","","19","","24.1","","101.27","","","","","","Mostly Cloudy"
"2004-11-08 14:00","2004","11","08","14:00","4.6","","-4.8","","50","","33","","19","","24.1","","101.25","","","","","","Mostly Cloudy"
"2004-11-08 15:00","2004","11","08","15:00","4.3","","-4.1","","54","","27","","20","","24.1","","101.27","","","","","","Snow Showers"
"2004-11-08 16:00","2004","11","08","16:00","3.1","","-1.1","","74","","24","","19","","24.1","","101.31","","","","","","Cloudy"
"2004-11-08 17:00","2004","11","08","17:00","1.2","","0.3","","94","","25","","19","","8.0","","101.36","","","","","","Snow Showers"
"2004-11-08 18:00","2004","11","08","18:00","1.8","","-0.6","","84","","25","","15","","16.1","","101.44","","","","","","Mostly Cloudy"
"2004-11-08 19:00","2004","11","08","19:00","2.5","","-3.7","","64","","31","","19","","24.1","","101.51","","","","","","Cloudy"
"2004-11-08 20:00","2004","11","08","20:00","1.7","","-4.1","","65","","31","","22","","24.1","","101.55","","","","","","Cloudy"
"2004-11-08 21:00","2004","11","08","21:00","1.5","","-3.7","","68","","32","","22","","24.1","","101.62","","","","","","Mostly Cloudy"
"2004-11-08 22:00","2004","11","08","22:00","1.1","","-4.8","","65","","32","","22","","24.1","","101.65","","","","","","Mostly Cloudy"
"2004-11-08 23:00","2004","11","08","23:00"
"2004-11-09 00:00","2004","11","09","00:00"
"2004-11-09 01:00","2004","11","09","01:00"
"2004-11-09 02:00","2004","11","09","02:00"
"2004-11-09 03:00","2004","11","09","03:00"
"2004-11-09 04:00","2004","11","09","04:00"
"2004-11-09 05:00","2004","11","09","05:00"
"2004-11-09 06:00","2004","11","09","06:00","-2.0","","-4.1","","86","","18","","4","","24.1","","101.99","","","","-3","","Mostly Cloudy"
"2004-11-09 07:00","2004","11","09","07:00","-2.0","","-4.1","","86","","","","0","","24.1","","102.04","","","","","","Mostly Cloudy"
"2004-11-09 08:00","2004","11","09","08:00","-1.0","","-3.2","","85","","","","0","","24.1","","102.15","","","","","","Mostly Cloudy"
"2004-11-09 09:00","2004","11","09","09:00","0.2","","-3.9","","74","","4","","7","","24.1","","102.23","","","","","","Mostly Cloudy"
"2004-11-09 10:00","2004","11","09","10:00","0.4","","-5.1","","67","","4","","9","","24.1","","102.24","","","","","","Mostly Cloudy"
"2004-11-09 11:00","2004","11","09","11:00","1.0","","-6.3","","58","","6","","9","","24.1","","102.29","","","","","","Mainly Clear"
"2004-11-09 12:00","2004","11","09","12:00","1.1","","-6.4","","57","","","","0","","24.1","","102.27","","","","","","Mainly Clear"
"2004-11-09 13:00","2004","11","09","13:00","1.2","","-5.5","","61","","1","","9","","24.1","","102.24","","","","","","Mainly Clear"
"2004-11-09 14:00","2004","11","09","14:00","1.8","","-5.6","","58","","5","","9","","24.1","","102.18","","","","","","Mainly Clear"
"2004-11-09 15:00","2004","11","09","15:00","1.9","","-5.3","","59","","7","","9","","24.1","","102.17","","","","","","Mostly Cloudy"
"2004-11-09 16:00","2004","11","09","16:00","1.2","","-5.9","","59","","7","","9","","24.1","","102.11","","","","","","Mostly Cloudy"
"2004-11-09 17:00","2004","11","09","17:00","1.2","","-5.4","","61","","10","","9","","24.1","","102.14","","","","","","Mostly Cloudy"
"2004-11-09 18:00","2004","11","09","18:00","0.8","","-4.8","","66","","11","","9","","24.1","","102.10","","","","","","Mostly Cloudy"
"2004-11-09 19:00","2004","11","09","19:00","-0.2","","-4.4","","73","","13","","7","","24.1","","102.11","","","","-3","","Mostly Cloudy"
"2004-11-09 20:00","2004","11","09","20:00","-0.7","","-5.5","","70","","13","","9","","24.1","","102.09","","","","-4","","Mainly Clear"
"2004-11-09 21:00","2004","11","09","21:00","-0.6","","-4.8","","73","","11","","13","","24.1","","102.05","","","","-5","","Mostly Cloudy"
"2004-11-09 22:00","2004","11","09","22:00","-0.5","","-5.0","","72","","11","","9","","24.1","","102.01","","","","-4","","Mostly Cloudy"
"2004-11-09 23:00","2004","11","09","23:00"
"2004-11-10 00:00","2004","11","10","00:00"
"2004-11-10 01:00","2004","11","10","01:00"
"2004-11-10 02:00","2004","11","10","02:00"
"2004-11-10 03:00","2004","11","10","03:00"
"2004-11-10 04:00","2004","11","10","04:00"
"2004-11-10 05:00","2004","11","10","05:00"
"2004-11-10 06:00","2004","11","10","06:00","2.6","","-1.6","","74","","17","","9","","24.1","","101.63","","","","","","Mainly Clear"
"2004-11-10 07:00","2004","11","10","07:00","2.4","","-1.2","","77","","18","","9","","24.1","","101.61","","","","","","Mainly Clear"
"2004-11-10 08:00","2004","11","10","08:00","5.1","","-0.1","","69","","18","","19","","24.1","","101.56","","","","","","Mainly Clear"
"2004-11-10 09:00","2004","11","10","09:00","7.9","","0.2","","58","","20","","19","","24.1","","101.51","","","","","","Mostly Cloudy"
"2004-11-10 10:00","2004","11","10","10:00","9.4","","0.4","","53","","21","","24","","24.1","","101.42","","","","","","Mostly Cloudy"
"2004-11-10 11:00","2004","11","10","11:00","10.2","","-0.2","","48","","23","","19","","24.1","","101.36","","","","","","Mostly Cloudy"
"2004-11-10 12:00","2004","11","10","12:00","11.8","","0.4","","45","","21","","28","","24.1","","101.17","","","","","","Mostly Cloudy"
"2004-11-10 13:00","2004","11","10","13:00","12.4","","0.7","","45","","20","","28","","24.1","","101.05","","","","","","Cloudy"
"2004-11-10 14:00","2004","11","10","14:00","12.9","","2.2","","48","","23","","26","","24.1","","101.00","","","","","","Mostly Cloudy"
"2004-11-10 15:00","2004","11","10","15:00","13.2","","2.3","","48","","22","","26","","24.1","","100.91","","","","","","Mostly Cloudy"
"2004-11-10 16:00","2004","11","10","16:00","14.0","","2.6","","46","","21","","28","","24.1","","100.85","","","","","","Mostly Cloudy"
"2004-11-10 17:00","2004","11","10","17:00","13.3","","2.4","","48","","22","","28","","24.1","","100.82","","","","","","Mostly Cloudy"
"2004-11-10 18:00","2004","11","10","18:00","13.5","","3.2","","50","","22","","28","","24.1","","100.78","","","","","","Mostly Cloudy"
"2004-11-10 19:00","2004","11","10","19:00","13.8","","1.9","","44","","23","","28","","24.1","","100.79","","","","","","Mostly Cloudy"
"2004-11-10 20:00","2004","11","10","20:00","13.3","","2.4","","48","","22","","28","","24.1","","100.75","","","","","","Cloudy"
"2004-11-10 21:00","2004","11","10","21:00","13.7","","1.8","","44","","23","","28","","24.1","","100.73","","","","","","Cloudy"
"2004-11-10 22:00","2004","11","10","22:00","13.6","","3.6","","51","","21","","28","","24.1","","100.70","","","","","","Mostly Cloudy"
"2004-11-10 23:00","2004","11","10","23:00"
"2004-11-11 00:00","2004","11","11","00:00"
"2004-11-11 01:00","2004","11","11","01:00"
"2004-11-11 02:00","2004","11","11","02:00"
"2004-11-11 03:00","2004","11","11","03:00"
"2004-11-11 04:00","2004","11","11","04:00"
"2004-11-11 05:00","2004","11","11","05:00"
"2004-11-11 06:00","2004","11","11","06:00","12.4","","6.5","","67","","26","","19","","19.3","","100.68","","","","","","Cloudy"
"2004-11-11 07:00","2004","11","11","07:00","11.8","","6.0","","68","","27","","9","","19.3","","100.74","","","","","","Cloudy"
"2004-11-11 08:00","2004","11","11","08:00","8.6","","4.7","","76","","33","","19","","24.1","","101.01","","","","","","Cloudy"
"2004-11-11 09:00","2004","11","11","09:00","6.7","","3.1","","78","","33","","19","","24.1","","101.18","","","","","","Cloudy"
"2004-11-11 10:00","2004","11","11","10:00","5.7","","-0.3","","65","","34","","19","","24.1","","101.35","","","","","","Mostly Cloudy"
"2004-11-11 11:00","2004","11","11","11:00","5.3","","-3.3","","54","","35","","19","","24.1","","101.51","","","","","","Mostly Cloudy"
"2004-11-11 12:00","2004","11","11","12:00","5.5","","-2.0","","58","","36","","28","","24.1","","101.53","","","","","","Mostly Cloudy"
"2004-11-11 13:00","2004","11","11","13:00","5.6","","-2.1","","58","","2","","19","","24.1","","101.59","","","","","","Mostly Cloudy"
"2004-11-11 14:00","2004","11","11","14:00","5.1","","-3.1","","55","","36","","19","","24.1","","101.63","","","","","","Mostly Cloudy"
"2004-11-11 15:00","2004","11","11","15:00","4.6","","-4.6","","51","","2","","19","","24.1","","101.67","","","","","","Mostly Cloudy"
"2004-11-11 16:00","2004","11","11","16:00","4.0","","-4.7","","53","","2","","11","","24.1","","101.67","","","","","","Mostly Cloudy"
"2004-11-11 17:00","2004","11","11","17:00","3.1","","-3.9","","60","","5","","7","","24.1","","101.66","","","","","","Mostly Cloudy"
"2004-11-11 18:00","2004","11","11","18:00","2.0","","-3.6","","66","","","","0","","24.1","","101.71","","","","","","Cloudy"
"2004-11-11 19:00","2004","11","11","19:00","2.2","","-4.4","","62","","7","","4","","24.1","","101.72","","","","","","Cloudy"
"2004-11-11 20:00","2004","11","11","20:00","1.6","","-4.8","","62","","4","","7","","24.1","","101.72","","","","","","Cloudy"
"2004-11-11 21:00","2004","11","11","21:00","2.4","","-4.9","","59","","4","","9","","24.1","","101.71","","","","","","Cloudy"
"2004-11-11 22:00","2004","11","11","22:00","2.1","","-4.3","","63","","4","","7","","24.1","","101.71","","","","","","Cloudy"
"2004-11-11 23:00","2004","11","11","23:00"
"2004-11-12 00:00","2004","11","12","00:00"
"2004-11-12 01:00","2004","11","12","01:00"
"2004-11-12 02:00","2004","11","12","02:00"
"2004-11-12 03:00","2004","11","12","03:00"
"2004-11-12 04:00","2004","11","12","04:00"
"2004-11-12 05:00","2004","11","12","05:00"
"2004-11-12 06:00","2004","11","12","06:00","-1.0","","-3.2","","85","","8","","9","","24.1","","101.65","","","","-4","","Mainly Clear"
"2004-11-12 07:00","2004","11","12","07:00","-1.8","","-3.4","","89","","9","","9","","24.1","","101.64","","","","-5","","Mostly Cloudy"
"2004-11-12 08:00","2004","11","12","08:00","-1.2","","-3.1","","87","","8","","9","","24.1","","101.72","","","","-4","","Mostly Cloudy"
"2004-11-12 09:00","2004","11","12","09:00","1.1","","-2.9","","75","","8","","15","","24.1","","101.77","","","","","","Mostly Cloudy"
"2004-11-12 10:00","2004","11","12","10:00","3.3","","-2.4","","66","","9","","19","","24.1","","101.83","","","","","","Mostly Cloudy"
"2004-11-12 11:00","2004","11","12","11:00","4.3","","-3.1","","59","","7","","19","","24.1","","101.85","","","","","","Mainly Clear"
"2004-11-12 12:00","2004","11","12","12:00","5.2","","-2.7","","57","","6","","19","","24.1","","101.75","","","","","","Mainly Clear"
"2004-11-12 13:00","2004","11","12","13:00","5.5","","-2.5","","56","","4","","22","","24.1","","101.71","","","","","","Clear"
"2004-11-12 14:00","2004","11","12","14:00","5.0","","-2.3","","59","","4","","22","","24.1","","101.68","","","","","","Clear"
"2004-11-12 15:00","2004","11","12","15:00","4.3","","-3.3","","58","","4","","22","","24.1","","101.73","","","","","","Clear"
"2004-11-12 16:00","2004","11","12","16:00","3.6","","-4.9","","54","","6","","22","","24.1","","101.82","","","","","","Clear"
"2004-11-12 17:00","2004","11","12","17:00","2.6","","-5.0","","57","","5","","13","","24.1","","101.83","","","","","","Clear"
"2004-11-12 18:00","2004","11","12","18:00","0.6","","-6.3","","60","","7","","7","","24.1","","101.87","","","","","","Clear"
"2004-11-12 19:00","2004","11","12","19:00","-0.7","","-5.5","","70","","","","0","","24.1","","101.93","","","","","","Clear"
"2004-11-12 20:00","2004","11","12","20:00","-3.1","","-5.9","","81","","","","0","","24.1","","101.99","","","","","","Clear"
"2004-11-12 21:00","2004","11","12","21:00","-3.4","","-6.0","","82","","","","0","","24.1","","102.03","","","","","","Clear"
"2004-11-12 22:00","2004","11","12","22:00","-3.8","","-6.4","","82","","18","","4","","24.1","","102.06","","","","-5","","Clear"
"2004-11-12 23:00","2004","11","12","23:00"
"2004-11-13 00:00","2004","11","13","00:00"
"2004-11-13 01:00","2004","11","13","01:00"
"2004-11-13 02:00","2004","11","13","02:00"
"2004-11-13 03:00","2004","11","13","03:00"
"2004-11-13 04:00","2004","11","13","04:00"
"2004-11-13 05:00","2004","11","13","05:00"
"2004-11-13 06:00","2004","11","13","06:00","2.0","","-1.7","","76","","3","","22","","24.1","","102.41","","","","","","Cloudy"
"2004-11-13 07:00","2004","11","13","07:00","1.7","","-1.5","","79","","3","","19","","24.1","","102.48","","","","","","Mostly Cloudy"
"2004-11-13 08:00","2004","11","13","08:00","1.6","","-2.3","","75","","4","","15","","24.1","","102.55","","","","","","Mostly Cloudy"
"2004-11-13 09:00","2004","11","13","09:00","1.9","","-1.9","","76","","2","","22","","24.1","","102.63","","","","","","Mostly Cloudy"
"2004-11-13 10:00","2004","11","13","10:00","3.5","","-1.9","","68","","3","","19","","24.1","","102.67","","","","","","Mostly Cloudy"
"2004-11-13 11:00","2004","11","13","11:00","2.3","","-2.6","","70","","3","","19","","24.1","","102.73","","","","","","Mainly Clear"
"2004-11-13 12:00","2004","11","13","12:00","3.4","","-2.5","","65","","36","","22","","24.1","","102.72","","","","","","Mainly Clear"
"2004-11-13 13:00","2004","11","13","13:00","2.9","","-4.3","","59","","1","","19","","24.1","","102.70","","","","","","Mainly Clear"
"2004-11-13 14:00","2004","11","13","14:00","3.1","","-8.9","","41","","1","","19","","24.1","","102.70","","","","","","Clear"
"2004-11-13 15:00","2004","11","13","15:00","3.3","","-9.2","","39","","1","","15","","24.1","","102.70","","","","","","Clear"
"2004-11-13 16:00","2004","11","13","16:00","3.2","","-9.9","","38","","4","","15","","24.1","","102.73","","","","","","Clear"
"2004-11-13 17:00","2004","11","13","17:00","1.9","","-8.9","","45","","","","0","","24.1","","102.76","","","","","","Clear"
"2004-11-13 18:00","2004","11","13","18:00","0.4","","-8.2","","52","","","","0","","24.1","","102.80","","","","","","Clear"
"2004-11-13 19:00","2004","11","13","19:00","-2.0","","-7.9","","64","","17","","4","","24.1","","102.83","","","","-3","","Clear"
"2004-11-13 20:00","2004","11","13","20:00","-2.6","","-7.4","","70","","19","","6","","24.1","","102.83","","","","-5","","Clear"
"2004-11-13 21:00","2004","11","13","21:00","-3.0","","-7.6","","71","","26","","7","","24.1","","102.85","","","","-6","","Clear"
"2004-11-13 22:00","2004","11","13","22:00","-3.1","","-6.4","","78","","23","","7","","24.1","","102.87","","","","-6","","Clear"
"2004-11-13 23:00","2004","11","13","23:00"
"2004-11-14 00:00","2004","11","14","00:00"
"2004-11-14 01:00","2004","11","14","01:00"
"2004-11-14 02:00","2004","11","14","02:00"
"2004-11-14 03:00","2004","11","14","03:00"
"2004-11-14 04:00","2004","11","14","04:00"
"2004-11-14 05:00","2004","11","14","05:00"
"2004-11-14 06:00","2004","11","14","06:00","-3.9","","-8.2","","72","","20","","13","","24.1","","103.03","","","","-9","","Clear"
"2004-11-14 07:00","2004","11","14","07:00","-3.7","","-8.1","","71","","23","","13","","24.1","","103.06","","","","-9","","Clear"
"2004-11-14 08:00","2004","11","14","08:00","-0.3","","-7.3","","59","","22","","13","","24.1","","103.10","","","","-4","","Clear"
"2004-11-14 09:00","2004","11","14","09:00","2.1","","-6.9","","51","","24","","11","","24.1","","103.10","","","","","","Clear"
"2004-11-14 10:00","2004","11","14","10:00","5.2","","-5.8","","45","","27","","19","","24.1","","103.10","","","","","","Clear"
"2004-11-14 11:00","2004","11","14","11:00","7.1","","-4.6","","43","","27","","19","","24.1","","103.06","","","","","","Clear"
"2004-11-14 12:00","2004","11","14","12:00","7.8","","-3.9","","43","","28","","19","","24.1","","102.95","","","","","","Clear"
"2004-11-14 13:00","2004","11","14","13:00","9.3","","-2.7","","43","","28","","19","","24.1","","102.87","","","","","","Clear"
"2004-11-14 14:00","2004","11","14","14:00","9.7","","-3.8","","38","","27","","19","","24.1","","102.83","","","","","","Clear"
"2004-11-14 15:00","2004","11","14","15:00","9.8","","-3.7","","38","","26","","19","","24.1","","102.80","","","","","","Clear"
"2004-11-14 16:00","2004","11","14","16:00","9.4","","-3.1","","41","","28","","15","","24.1","","102.78","","","","","","Clear"
"2004-11-14 17:00","2004","11","14","17:00","7.7","","-2.7","","48","","25","","19","","24.1","","102.78","","","","","","Clear"
"2004-11-14 18:00","2004","11","14","18:00","3.5","","-2.9","","63","","22","","11","","24.1","","102.75","","","","","","Clear"
"2004-11-14 19:00","2004","11","14","19:00","4.5","","1.0","","78","","24","","15","","24.1","","102.72","","","","","","Clear"
"2004-11-14 20:00","2004","11","14","20:00","3.5","","0.8","","82","","23","","11","","24.1","","102.74","","","","","","Clear"
"2004-11-14 21:00","2004","11","14","21:00","2.2","","0.2","","87","","23","","11","","24.1","","102.72","","","","","","Clear"
"2004-11-14 22:00","2004","11","14","22:00","1.1","","-0.7","","88","","21","","11","","24.1","","102.72","","","","","","Clear"
"2004-11-14 23:00","2004","11","14","23:00"
"2004-11-15 00:00","2004","11","15","00:00"
"2004-11-15 01:00","2004","11","15","01:00"
"2004-11-15 02:00","2004","11","15","02:00"
"2004-11-15 03:00","2004","11","15","03:00"
"2004-11-15 04:00","2004","11","15","04:00"
"2004-11-15 05:00","2004","11","15","05:00"
"2004-11-15 06:00","2004","11","15","06:00","2.1","","-2.3","","73","","23","","15","","24.1","","102.57","","","","","","Mainly Clear"
"2004-11-15 07:00","2004","11","15","07:00","0.1","","-2.6","","82","","22","","13","","24.1","","102.51","","","","","","Mainly Clear"
"2004-11-15 08:00","2004","11","15","08:00","2.5","","-1.5","","75","","24","","15","","24.1","","102.54","","","","","","Mostly Cloudy"
"2004-11-15 09:00","2004","11","15","09:00","4.9","","-0.5","","68","","26","","19","","24.1","","102.57","","","","","","Mostly Cloudy"
"2004-11-15 10:00","2004","11","15","10:00","6.6","","0.3","","64","","24","","13","","24.1","","102.51","","","","","","Mostly Cloudy"
"2004-11-15 11:00","2004","11","15","11:00","8.5","","0.4","","57","","24","","15","","24.1","","102.47","","","","","","Mostly Cloudy"
"2004-11-15 12:00","2004","11","15","12:00","10.2","","-0.2","","48","","23","","22","","24.1","","102.42","","","","","","Mostly Cloudy"
"2004-11-15 13:00","2004","11","15","13:00","12.2","","-4.4","","31","","25","","19","","24.1","","102.34","","","","","","Mostly Cloudy"
"2004-11-15 14:00","2004","11","15","14:00","13.2","","-3.6","","31","","26","","22","","24.1","","102.26","","","","","","Mostly Cloudy"
"2004-11-15 15:00","2004","11","15","15:00","12.3","","-2.8","","35","","24","","19","","24.1","","102.24","","","","","","Mostly Cloudy"
"2004-11-15 16:00","2004","11","15","16:00","10.6","","-1.8","","42","","22","","19","","24.1","","102.21","","","","","","Mostly Cloudy"
"2004-11-15 17:00","2004","11","15","17:00","8.6","","-0.9","","51","","23","","19","","24.1","","102.17","","","","","","Mostly Cloudy"
"2004-11-15 18:00","2004","11","15","18:00","7.1","","-1.6","","54","","23","","15","","24.1","","102.13","","","","","","Mostly Cloudy"
"2004-11-15 19:00","2004","11","15","19:00","7.4","","-1.7","","52","","25","","15","","24.1","","102.09","","","","","","Mostly Cloudy"
"2004-11-15 20:00","2004","11","15","20:00","7.3","","-1.6","","53","","24","","15","","24.1","","102.07","","","","","","Cloudy"
"2004-11-15 21:00","2004","11","15","21:00","6.9","","0.0","","61","","25","","15","","19.3","","102.04","","","","","","Cloudy"
"2004-11-15 22:00","2004","11","15","22:00","6.1","","1.0","","70","","25","","7","","19.3","","101.98","","","","","","Cloudy"
"2004-11-15 23:00","2004","11","15","23:00"
"2004-11-16 00:00","2004","11","16","00:00"
"2004-11-16 01:00","2004","11","16","01:00"
"2004-11-16 02:00","2004","11","16","02:00"
"2004-11-16 03:00","2004","11","16","03:00"
"2004-11-16 04:00","2004","11","16","04:00"
"2004-11-16 05:00","2004","11","16","05:00"
"2004-11-16 06:00","2004","11","16","06:00","3.2","","2.1","","92","","24","","19","","24.1","","101.76","","","","","","Clear"
"2004-11-16 07:00","2004","11","16","07:00","2.6","","0.9","","89","","24","","9","","16.1","","101.76","","","","","","Mainly Clear"
"2004-11-16 08:00","2004","11","16","08:00","3.2","","1.5","","89","","23","","9","","16.1","","101.79","","","","","","Mainly Clear"
"2004-11-16 09:00","2004","11","16","09:00","5.7","","3.9","","88","","27","","6","","16.1","","101.80","","","","","","Mainly Clear"
"2004-11-16 10:00","2004","11","16","10:00","9.3","","2.6","","63","","26","","15","","16.1","","101.79","","","","","","Mainly Clear"
"2004-11-16 11:00","2004","11","16","11:00","10.8","","1.1","","51","","24","","15","","19.3","","101.74","","","","","","Mostly Cloudy"
"2004-11-16 12:00","2004","11","16","12:00","11.7","","0.6","","46","","26","","9","","19.3","","101.64","","","","","","Mostly Cloudy"
"2004-11-16 13:00","2004","11","16","13:00","12.4","","0.8","","45","","30","","9","","19.3","","101.58","","","","","","Mostly Cloudy"
"2004-11-16 14:00","2004","11","16","14:00","13.3","","0.2","","41","","24","","19","","19.3","","101.52","","","","","","Mostly Cloudy"
"2004-11-16 15:00","2004","11","16","15:00","13.6","","0.0","","39","","24","","19","","16.1","","101.51","","","","","","Mostly Cloudy"
"2004-11-16 16:00","2004","11","16","16:00","11.9","","0.4","","45","","23","","15","","19.3","","101.50","","","","","","Mostly Cloudy"
"2004-11-16 17:00","2004","11","16","17:00","10.5","","2.1","","56","","22","","19","","19.3","","101.52","","","","","","Mostly Cloudy"
"2004-11-16 18:00","2004","11","16","18:00","7.6","","4.5","","81","","22","","19","","16.1","","101.51","","","","","","Mainly Clear"
"2004-11-16 19:00","2004","11","16","19:00","8.5","","5.9","","84","","23","","17","","16.1","","101.49","","","","","","Mostly Cloudy"
"2004-11-16 20:00","2004","11","16","20:00","9.3","","6.7","","84","","22","","17","","16.1","","101.47","","","","","","Cloudy"
"2004-11-16 21:00","2004","11","16","21:00","9.6","","7.1","","84","","24","","17","","16.1","","101.46","","","","","","Cloudy"
"2004-11-16 22:00","2004","11","16","22:00","9.8","","8.1","","89","","23","","20","","16.1","","101.45","","","","","","Cloudy"
"2004-11-16 23:00","2004","11","16","23:00"
"2004-11-17 00:00","2004","11","17","00:00"
"2004-11-17 01:00","2004","11","17","01:00"
"2004-11-17 02:00","2004","11","17","02:00"
"2004-11-17 03:00","2004","11","17","03:00"
"2004-11-17 04:00","2004","11","17","04:00"
"2004-11-17 05:00","2004","11","17","05:00"
"2004-11-17 06:00","2004","11","17","06:00","9.5","","8.6","","94","","24","","9","","12.9","","101.34","","","","","","Cloudy"
"2004-11-17 07:00","2004","11","17","07:00","9.4","","8.6","","95","","24","","9","","6.4","","101.38","","","","","","Fog"
"2004-11-17 08:00","2004","11","17","08:00","10.2","","9.2","","94","","21","","9","","6.4","","101.37","","","","","","Fog"
"2004-11-17 09:00","2004","11","17","09:00","11.0","","9.4","","90","","21","","15","","6.4","","101.36","","","","","","Fog"
"2004-11-17 10:00","2004","11","17","10:00","11.4","","9.4","","87","","20","","19","","6.4","","101.36","","","","","","Fog"
"2004-11-17 11:00","2004","11","17","11:00","11.8","","9.0","","83","","21","","19","","11.3","","101.32","","","","","","Cloudy"
"2004-11-17 12:00","2004","11","17","12:00","12.4","","8.9","","79","","22","","19","","11.3","","101.21","","","","","","Mostly Cloudy"
"2004-11-17 13:00","2004","11","17","13:00","12.7","","9.1","","79","","23","","19","","11.3","","101.18","","","","","","Mostly Cloudy"
"2004-11-17 14:00","2004","11","17","14:00","12.2","","9.4","","83","","23","","19","","8.0","","101.13","","","","","","Haze"
"2004-11-17 15:00","2004","11","17","15:00","11.7","","9.3","","85","","21","","19","","6.4","","101.11","","","","","","Haze"
"2004-11-17 16:00","2004","11","17","16:00","10.9","","10.1","","95","","23","","15","","4.8","","101.13","","","","","","Rain Showers,Fog"
"2004-11-17 17:00","2004","11","17","17:00","10.9","","10.1","","95","","22","","19","","6.4","","101.11","","","","","","Fog"
"2004-11-17 18:00","2004","11","17","18:00","10.9","","10.2","","95","","21","","17","","8.0","","101.09","","","","","","Fog"
"2004-11-17 19:00","2004","11","17","19:00","10.5","","10.4","","99","","21","","13","","6.4","","101.10","","","","","","Rain Showers,Fog"
"2004-11-17 20:00","2004","11","17","20:00","10.6","","10.3","","98","","21","","13","","9.7","","101.08","","","","","","Fog"
"2004-11-17 21:00","2004","11","17","21:00","10.7","","10.4","","98","","22","","13","","9.7","","101.05","","","","","","Fog"
"2004-11-17 22:00","2004","11","17","22:00","10.7","","10.6","","99","","21","","13","","4.8","","101.02","","","","","","Rain Showers,Fog"
"2004-11-17 23:00","2004","11","17","23:00"
"2004-11-18 00:00","2004","11","18","00:00"
"2004-11-18 01:00","2004","11","18","01:00"
"2004-11-18 02:00","2004","11","18","02:00"
"2004-11-18 03:00","2004","11","18","03:00"
"2004-11-18 04:00","2004","11","18","04:00"
"2004-11-18 05:00","2004","11","18","05:00"
"2004-11-18 06:00","2004","11","18","06:00","10.8","","10.4","","97","","23","","9","","12.9","","100.88","","","","","","Cloudy"
"2004-11-18 07:00","2004","11","18","07:00","10.8","","10.4","","97","","24","","9","","6.4","","100.89","","","","","","Fog"
"2004-11-18 08:00","2004","11","18","08:00","10.9","","10.5","","97","","24","","9","","4.8","","100.89","","","","","","Fog"
"2004-11-18 09:00","2004","11","18","09:00","11.3","","10.7","","96","","24","","9","","4.8","","100.86","","","","","","Fog"
"2004-11-18 10:00","2004","11","18","10:00","11.8","","11.1","","95","","23","","15","","6.4","","100.83","","","","","","Fog"
"2004-11-18 11:00","2004","11","18","11:00","11.9","","11.0","","94","","24","","19","","6.4","","100.83","","","","","","Fog"
"2004-11-18 12:00","2004","11","18","12:00","12.3","","11.4","","94","","24","","9","","6.4","","100.77","","","","","","Fog"
"2004-11-18 13:00","2004","11","18","13:00","13.5","","11.4","","87","","24","","9","","8.0","","100.73","","","","","","Fog"
"2004-11-18 14:00","2004","11","18","14:00","14.0","","11.1","","83","","24","","15","","8.0","","100.72","","","","","","Fog"
"2004-11-18 15:00","2004","11","18","15:00","14.1","","11.3","","83","","24","","9","","9.7","","100.73","","","","","","Haze"
"2004-11-18 16:00","2004","11","18","16:00","14.0","","11.2","","83","","25","","15","","8.0","","100.76","","","","","","Haze"
"2004-11-18 17:00","2004","11","18","17:00","12.8","","11.1","","89","","24","","9","","8.0","","100.76","","","","","","Fog"
"2004-11-18 18:00","2004","11","18","18:00","10.1","","9.6","","97","","22","","15","","12.9","","100.78","","","","","","Mainly Clear"
"2004-11-18 19:00","2004","11","18","19:00","9.2","","9.0","","99","","21","","15","","12.9","","100.77","","","","","","Mainly Clear"
"2004-11-18 20:00","2004","11","18","20:00","8.3","","8.3","","100","","23","","9","","12.9","","100.81","","","","","","Mainly Clear"
"2004-11-18 21:00","2004","11","18","21:00","9.2","","9.2","","100","","26","","9","","9.7","","100.86","","","","","","Fog"
"2004-11-18 22:00","2004","11","18","22:00","9.7","","9.4","","98","","26","","9","","9.7","","100.89","","","","","","Fog"
"2004-11-18 23:00","2004","11","18","23:00"
"2004-11-19 00:00","2004","11","19","00:00"
"2004-11-19 01:00","2004","11","19","01:00"
"2004-11-19 02:00","2004","11","19","02:00"
"2004-11-19 03:00","2004","11","19","03:00"
"2004-11-19 04:00","2004","11","19","04:00"
"2004-11-19 05:00","2004","11","19","05:00"
"2004-11-19 06:00","2004","11","19","06:00","7.8","","6.4","","91","","4","","9","","16.1","","101.04","","","","","","Cloudy"
"2004-11-19 07:00","2004","11","19","07:00","7.9","","6.0","","88","","","","0","","16.1","","101.07","","","","","","Cloudy"
"2004-11-19 08:00","2004","11","19","08:00","7.7","","6.5","","92","","","","0","","16.1","","101.11","","","","","","Cloudy"
"2004-11-19 09:00","2004","11","19","09:00","8.6","","6.6","","87","","","","0","","16.1","","101.16","","","","","","Cloudy"
"2004-11-19 10:00","2004","11","19","10:00","9.3","","6.5","","83","","3","","19","","19.3","","101.16","","","","","","Cloudy"
"2004-11-19 11:00","2004","11","19","11:00","9.7","","6.3","","79","","5","","15","","19.3","","101.14","","","","","","Cloudy"
"2004-11-19 12:00","2004","11","19","12:00","9.5","","6.7","","83","","4","","15","","16.1","","101.06","","","","","","Cloudy"
"2004-11-19 13:00","2004","11","19","13:00","9.8","","5.9","","77","","5","","15","","16.1","","101.01","","","","","","Cloudy"
"2004-11-19 14:00","2004","11","19","14:00","9.4","","5.5","","77","","6","","19","","16.1","","100.95","","","","","","Cloudy"
"2004-11-19 15:00","2004","11","19","15:00","9.5","","5.3","","75","","4","","15","","19.3","","100.95","","","","","","Cloudy"
"2004-11-19 16:00","2004","11","19","16:00","8.6","","6.0","","84","","5","","15","","19.3","","100.96","","","","","","Cloudy"
"2004-11-19 17:00","2004","11","19","17:00","8.2","","5.7","","84","","6","","19","","19.3","","100.95","","","","","","Cloudy"
"2004-11-19 18:00","2004","11","19","18:00","7.8","","6.1","","89","","8","","11","","19.3","","100.95","","","","","","Cloudy"
"2004-11-19 19:00","2004","11","19","19:00","7.8","","6.0","","88","","7","","15","","19.3","","100.94","","","","","","Cloudy"
"2004-11-19 20:00","2004","11","19","20:00","7.7","","6.0","","89","","8","","17","","16.1","","100.95","","","","","","Cloudy"
"2004-11-19 21:00","2004","11","19","21:00","7.6","","5.9","","89","","8","","15","","16.1","","100.94","","","","","","Cloudy"
"2004-11-19 22:00","2004","11","19","22:00","8.0","","3.5","","73","","10","","20","","19.3","","100.91","","","","","","Cloudy"
"2004-11-19 23:00","2004","11","19","23:00"
"2004-11-20 00:00","2004","11","20","00:00"
"2004-11-20 01:00","2004","11","20","01:00"
"2004-11-20 02:00","2004","11","20","02:00"
"2004-11-20 03:00","2004","11","20","03:00"
"2004-11-20 04:00","2004","11","20","04:00"
"2004-11-20 05:00","2004","11","20","05:00"
"2004-11-20 06:00","2004","11","20","06:00","5.9","","5.6","","98","","9","","19","","8.0","","100.46","","","","","","Fog"
"2004-11-20 07:00","2004","11","20","07:00","6.4","","6.2","","99","","9","","9","","8.0","","100.43","","","","","","Fog"
"2004-11-20 08:00","2004","11","20","08:00","6.9","","6.8","","99","","8","","9","","8.0","","100.42","","","","","","Fog"
"2004-11-20 09:00","2004","11","20","09:00","7.5","","7.1","","97","","8","","15","","8.0","","100.43","","","","","","Fog"
"2004-11-20 10:00","2004","11","20","10:00","7.9","","7.7","","99","","9","","11","","8.0","","100.39","","","","","","Rain Showers,Fog"
"2004-11-20 11:00","2004","11","20","11:00","8.2","","8.2","","100","","6","","9","","4.8","","100.35","","","","","","Rain Showers,Fog"
"2004-11-20 12:00","2004","11","20","12:00","8.5","","8.5","","100","","5","","9","","3.2","","100.30","","","","","","Rain Showers,Fog"
"2004-11-20 13:00","2004","11","20","13:00","8.6","","8.6","","100","","","","0","","1.6","","100.27","","","","","","Rain Showers,Fog"
"2004-11-20 14:00","2004","11","20","14:00","8.8","","8.8","","100","","","","0","","2.4","","100.24","","","","","","Rain Showers,Fog"
"2004-11-20 15:00","2004","11","20","15:00","9.0","","9.0","","100","","","","0","","4.0","","100.27","","","","","","Rain Showers,Fog"
"2004-11-20 16:00","2004","11","20","16:00","9.0","","9.0","","100","","","","0","","2.8","","100.33","","","","","","Rain Showers,Fog"
"2004-11-20 17:00","2004","11","20","17:00","8.8","","8.8","","100","","","","0","","3.2","","100.39","","","","","","Fog"
"2004-11-20 18:00","2004","11","20","18:00","8.9","","8.9","","100","","","","0","","4.0","","100.44","","","","","","Fog"
"2004-11-20 19:00","2004","11","20","19:00","9.1","","9.1","","100","","23","","6","","2.8","","100.45","","","","","","Fog"
"2004-11-20 20:00","2004","11","20","20:00","9.1","","9.1","","100","","","","0","","2.0","","100.48","","","","","","Fog"
"2004-11-20 21:00","2004","11","20","21:00","8.3","","8.3","","100","","","","0","","4.0","","100.49","","","","","","Fog"
"2004-11-20 22:00","2004","11","20","22:00","11.3","","11.0","","98","","23","","9","","4.8","","100.51","","","","","","Fog"
"2004-11-20 23:00","2004","11","20","23:00"
"2004-11-21 00:00","2004","11","21","00:00"
"2004-11-21 01:00","2004","11","21","01:00"
"2004-11-21 02:00","2004","11","21","02:00"
"2004-11-21 03:00","2004","11","21","03:00"
"2004-11-21 04:00","2004","11","21","04:00"
"2004-11-21 05:00","2004","11","21","05:00"
"2004-11-21 06:00","2004","11","21","06:00","9.9","","7.3","","84","","27","","19","","24.1","","100.97","","","","","","Cloudy"
"2004-11-21 07:00","2004","11","21","07:00","9.3","","7.0","","86","","25","","19","","24.1","","101.06","","","","","","Mostly Cloudy"
"2004-11-21 08:00","2004","11","21","08:00","9.2","","7.1","","87","","27","","19","","24.1","","101.15","","","","","","Mostly Cloudy"
"2004-11-21 09:00","2004","11","21","09:00","9.5","","6.8","","83","","26","","11","","24.1","","101.20","","","","","","Mostly Cloudy"
"2004-11-21 10:00","2004","11","21","10:00","9.8","","6.3","","79","","27","","9","","24.1","","101.22","","","","","","Mostly Cloudy"
"2004-11-21 11:00","2004","11","21","11:00","9.7","","6.1","","78","","28","","19","","24.1","","101.26","","","","","","Mostly Cloudy"
"2004-11-21 12:00","2004","11","21","12:00","9.9","","6.1","","77","","28","","19","","24.1","","101.25","","","","","","Mostly Cloudy"
"2004-11-21 13:00","2004","11","21","13:00","9.8","","3.8","","66","","29","","19","","24.1","","101.20","","","","","","Mostly Cloudy"
"2004-11-21 14:00","2004","11","21","14:00","9.6","","3.3","","65","","31","","19","","24.1","","101.20","","","","","","Mostly Cloudy"
"2004-11-21 15:00","2004","11","21","15:00","9.3","","3.0","","65","","30","","15","","24.1","","101.14","","","","","","Mostly Cloudy"
"2004-11-21 16:00","2004","11","21","16:00","9.1","","3.3","","67","","33","","4","","24.1","","101.21","","","","","","Mostly Cloudy"
"2004-11-21 17:00","2004","11","21","17:00","8.5","","3.6","","71","","","","0","","24.1","","101.21","","","","","","Mostly Cloudy"
"2004-11-21 18:00","2004","11","21","18:00","8.9","","3.6","","69","","25","","15","","24.1","","101.26","","","","","","Mostly Cloudy"
"2004-11-21 19:00","2004","11","21","19:00","8.1","","3.7","","74","","24","","11","","24.1","","101.23","","","","","","Mostly Cloudy"
"2004-11-21 20:00","2004","11","21","20:00","6.6","","3.2","","79","","25","","9","","24.1","","101.24","","","","","","Mostly Cloudy"
"2004-11-21 21:00","2004","11","21","21:00","5.9","","3.6","","85","","23","","7","","24.1","","101.23","","","","","","Mostly Cloudy"
"2004-11-21 22:00","2004","11","21","22:00","5.2","","2.3","","82","","23","","9","","24.1","","101.21","","","","","","Mainly Clear"
"2004-11-21 23:00","2004","11","21","23:00"
"2004-11-22 00:00","2004","11","22","00:00"
"2004-11-22 01:00","2004","11","22","01:00"
"2004-11-22 02:00","2004","11","22","02:00"
"2004-11-22 03:00","2004","11","22","03:00"
"2004-11-22 04:00","2004","11","22","04:00"
"2004-11-22 05:00","2004","11","22","05:00"
"2004-11-22 06:00","2004","11","22","06:00","4.6","","2.5","","86","","24","","9","","19.3","","101.00","","","","","","Cloudy"
"2004-11-22 07:00","2004","11","22","07:00","3.5","","2.1","","91","","22","","9","","19.3","","100.98","","","","","","Mainly Clear"
"2004-11-22 08:00","2004","11","22","08:00","3.7","","2.3","","91","","24","","9","","16.1","","101.02","","","","","","Mostly Cloudy"
"2004-11-22 09:00","2004","11","22","09:00","5.7","","2.8","","82","","26","","11","","12.9","","101.04","","","","","","Cloudy"
"2004-11-22 10:00","2004","11","22","10:00","6.6","","2.8","","77","","28","","15","","12.9","","101.03","","","","","","Cloudy"
"2004-11-22 11:00","2004","11","22","11:00","7.3","","1.2","","65","","26","","19","","16.1","","100.99","","","","","","Mostly Cloudy"
"2004-11-22 12:00","2004","11","22","12:00","6.9","","1.5","","68","","32","","15","","16.1","","100.92","","","","","","Mostly Cloudy"
"2004-11-22 13:00","2004","11","22","13:00","7.1","","1.2","","66","","27","","13","","19.3","","100.83","","","","","","Mainly Clear"
"2004-11-22 14:00","2004","11","22","14:00","7.3","","1.5","","67","","32","","11","","24.1","","100.80","","","","","","Mostly Cloudy"
"2004-11-22 15:00","2004","11","22","15:00","7.7","","1.2","","63","","33","","9","","24.1","","100.78","","","","","","Mostly Cloudy"
"2004-11-22 16:00","2004","11","22","16:00","7.3","","0.3","","61","","","","0","","24.1","","100.77","","","","","","Mostly Cloudy"
"2004-11-22 17:00","2004","11","22","17:00","6.1","","0.4","","67","","","","0","","24.1","","100.75","","","","","","Mainly Clear"
"2004-11-22 18:00","2004","11","22","18:00","3.5","","-1.5","","70","","22","","9","","24.1","","100.73","","","","","","Mainly Clear"
"2004-11-22 19:00","2004","11","22","19:00","3.2","","-2.1","","68","","21","","6","","24.1","","100.71","","","","","","Clear"
"2004-11-22 20:00","2004","11","22","20:00","1.1","","-2.1","","79","","20","","9","","24.1","","100.72","","","","","","Clear"
"2004-11-22 21:00","2004","11","22","21:00","1.7","","-0.9","","83","","21","","9","","24.1","","100.69","","","","","","Clear"
"2004-11-22 22:00","2004","11","22","22:00","1.7","","-0.6","","85","","22","","6","","24.1","","100.65","","","","","","Clear"
"2004-11-22 23:00","2004","11","22","23:00"
"2004-11-23 00:00","2004","11","23","00:00"
"2004-11-23 01:00","2004","11","23","01:00"
"2004-11-23 02:00","2004","11","23","02:00"
"2004-11-23 03:00","2004","11","23","03:00"
"2004-11-23 04:00","2004","11","23","04:00"
"2004-11-23 05:00","2004","11","23","05:00"
"2004-11-23 06:00","2004","11","23","06:00","4.8","","4.0","","95","","18","","7","","24.1","","100.41","","","","","","Cloudy"
"2004-11-23 07:00","2004","11","23","07:00","5.7","","4.1","","89","","18","","15","","24.1","","100.40","","","","","","Cloudy"
"2004-11-23 08:00","2004","11","23","08:00","5.3","","4.1","","92","","18","","11","","24.1","","100.37","","","","","","Mostly Cloudy"
"2004-11-23 09:00","2004","11","23","09:00","6.4","","4.6","","88","","19","","9","","16.1","","100.35","","","","","","Cloudy"
"2004-11-23 10:00","2004","11","23","10:00","7.8","","5.3","","84","","22","","13","","16.1","","100.34","","","","","","Cloudy"
"2004-11-23 11:00","2004","11","23","11:00","7.5","","5.4","","87","","22","","19","","16.1","","100.27","","","","","","Cloudy"
"2004-11-23 12:00","2004","11","23","12:00","6.9","","4.9","","87","","22","","28","","12.9","","100.23","","","","","","Cloudy"
"2004-11-23 13:00","2004","11","23","13:00","7.5","","5.6","","88","","23","","19","","11.3","","100.20","","","","","","Cloudy"
"2004-11-23 14:00","2004","11","23","14:00","8.4","","6.1","","85","","21","","22","","16.1","","100.16","","","","","","Cloudy"
"2004-11-23 15:00","2004","11","23","15:00","8.8","","6.3","","84","","21","","20","","16.1","","100.11","","","","","","Mostly Cloudy"
"2004-11-23 16:00","2004","11","23","16:00","8.9","","6.3","","84","","21","","19","","12.9","","100.14","","","","","","Cloudy"
"2004-11-23 17:00","2004","11","23","17:00","9.3","","6.7","","84","","19","","19","","12.9","","100.09","","","","","","Mostly Cloudy"
"2004-11-23 18:00","2004","11","23","18:00","9.5","","6.9","","84","","19","","22","","16.1","","100.09","","","","","","Mostly Cloudy"
"2004-11-23 19:00","2004","11","23","19:00","9.5","","7.1","","85","","19","","15","","16.1","","100.13","","","","","","Cloudy"
"2004-11-23 20:00","2004","11","23","20:00","9.8","","7.3","","84","","21","","9","","16.1","","100.14","","","","","","Cloudy"
"2004-11-23 21:00","2004","11","23","21:00","9.9","","7.4","","84","","21","","9","","16.1","","100.16","","","","","","Cloudy"
"2004-11-23 22:00","2004","11","23","22:00","10.2","","7.5","","83","","21","","9","","16.1","","100.15","","","","","","Cloudy"
"2004-11-23 23:00","2004","11","23","23:00"
"2004-11-24 00:00","2004","11","24","00:00"
"2004-11-24 01:00","2004","11","24","01:00"
"2004-11-24 02:00","2004","11","24","02:00"
"2004-11-24 03:00","2004","11","24","03:00"
"2004-11-24 04:00","2004","11","24","04:00"
"2004-11-24 05:00","2004","11","24","05:00"
"2004-11-24 06:00","2004","11","24","06:00","8.5","","8.1","","97","","2","","9","","16.1","","100.20","","","","","","Cloudy"
"2004-11-24 07:00","2004","11","24","07:00","7.3","","5.8","","90","","3","","19","","12.9","","100.18","","","","","","Cloudy"
"2004-11-24 08:00","2004","11","24","08:00","6.4","","5.4","","93","","5","","19","","6.4","","100.18","","","","","","Rain,Fog"
"2004-11-24 09:00","2004","11","24","09:00","6.7","","6.5","","99","","3","","19","","4.0","","100.11","","","","","","Rain,Fog"
"2004-11-24 10:00","2004","11","24","10:00","6.2","","6.0","","99","","5","","19","","6.4","","99.96","","","","","","Rain,Fog"
"2004-11-24 11:00","2004","11","24","11:00","5.5","","5.3","","99","","4","","19","","4.8","","99.82","","","","","","Rain,Fog"
"2004-11-24 12:00","2004","11","24","12:00","4.9","","4.7","","99","","3","","28","","3.2","","99.70","","","","","","Rain,Fog"
"2004-11-24 13:00","2004","11","24","13:00","4.4","","4.2","","99","","4","","28","","6.4","","99.56","","","","","","Rain,Fog"
"2004-11-24 14:00","2004","11","24","14:00","4.3","","4.3","","100","","3","","19","","4.0","","99.42","","","","","","Rain,Fog"
"2004-11-24 15:00","2004","11","24","15:00","4.0","","3.9","","99","","3","","19","","6.4","","99.25","","","","","","Rain,Fog"
"2004-11-24 16:00","2004","11","24","16:00","3.8","","3.5","","98","","4","","24","","4.0","","99.00","","","","","","Rain,Fog"
"2004-11-24 17:00","2004","11","24","17:00","3.7","","3.6","","99","","5","","28","","3.2","","98.81","","","","","","Rain,Fog"
"2004-11-24 18:00","2004","11","24","18:00","4.0","","3.8","","99","","5","","24","","4.0","","98.64","","","","","","Rain,Fog"
"2004-11-24 19:00","2004","11","24","19:00","4.0","","3.8","","99","","6","","22","","6.4","","98.51","","","","","","Rain,Fog"
"2004-11-24 20:00","2004","11","24","20:00","4.4","","4.2","","99","","5","","22","","6.4","","98.36","","","","","","Rain,Fog"
"2004-11-24 21:00","2004","11","24","21:00","4.7","","4.5","","99","","3","","22","","8.0","","98.25","","","","","","Rain,Fog"
"2004-11-24 22:00","2004","11","24","22:00","4.4","","4.2","","99","","1","","22","","6.4","","98.21","","","","","","Rain Showers,Fog"
"2004-11-24 23:00","2004","11","24","23:00"
"2004-11-25 00:00","2004","11","25","00:00"
"2004-11-25 01:00","2004","11","25","01:00"
"2004-11-25 02:00","2004","11","25","02:00"
"2004-11-25 03:00","2004","11","25","03:00"
"2004-11-25 04:00","2004","11","25","04:00"
"2004-11-25 05:00","2004","11","25","05:00"
"2004-11-25 06:00","2004","11","25","06:00","0.7","","0.3","","97","","33","","22","","8.0","","98.28","","","","","","Snow Showers"
"2004-11-25 07:00","2004","11","25","07:00","0.1","","-0.8","","94","","34","","19","","4.8","","98.50","","","","","","Snow Showers"
"2004-11-25 08:00","2004","11","25","08:00","-0.6","","-1.3","","95","","33","","19","","8.0","","98.62","","","","-6","","Snow Showers"
"2004-11-25 09:00","2004","11","25","09:00","-0.7","","-2.3","","89","","32","","19","","12.9","","98.76","","","","-6","","Snow Showers"
"2004-11-25 10:00","2004","11","25","10:00","-0.7","","-3.2","","83","","33","","28","","12.9","","98.85","","","","-7","","Snow Showers"
"2004-11-25 11:00","2004","11","25","11:00","-0.2","","-3.0","","81","","33","","22","","24.1","","98.96","","","","-6","","Snow Showers"
"2004-11-25 12:00","2004","11","25","12:00","0.3","","-3.2","","77","","33","","19","","24.1","","99.00","","","","","","Snow Showers"
"2004-11-25 13:00","2004","11","25","13:00","0.5","","-3.6","","74","","33","","19","","24.1","","99.15","","","","","","Mostly Cloudy"
"2004-11-25 14:00","2004","11","25","14:00","0.9","","-4.6","","67","","33","","28","","24.1","","99.27","","","","","","Mostly Cloudy"
"2004-11-25 15:00","2004","11","25","15:00","1.0","","-4.5","","67","","33","","28","","24.1","","99.36","","","","","","Snow Showers"
"2004-11-25 16:00","2004","11","25","16:00","0.8","","-6.5","","58","","30","","19","","24.1","","99.50","","","","","","Mostly Cloudy"
"2004-11-25 17:00","2004","11","25","17:00","0.4","","-7.2","","57","","32","","19","","24.1","","99.62","","","","","","Mostly Cloudy"
"2004-11-25 18:00","2004","11","25","18:00","-0.3","","-7.3","","59","","31","","19","","24.1","","99.72","","","","-5","","Mostly Cloudy"
"2004-11-25 19:00","2004","11","25","19:00","-0.3","","-6.5","","63","","29","","19","","24.1","","99.83","","","","-5","","Mostly Cloudy"
"2004-11-25 20:00","2004","11","25","20:00","-0.1","","-6.7","","61","","28","","28","","24.1","","99.91","","","","-6","","Mostly Cloudy"
"2004-11-25 21:00","2004","11","25","21:00","0.1","","-6.9","","59","","30","","19","","24.1","","99.99","","","","","","Mainly Clear"
"2004-11-25 22:00","2004","11","25","22:00","-0.8","","-5.9","","68","","25","","19","","24.1","","100.03","","","","-6","","Mostly Cloudy"
"2004-11-25 23:00","2004","11","25","23:00"
"2004-11-26 00:00","2004","11","26","00:00"
"2004-11-26 01:00","2004","11","26","01:00"
"2004-11-26 02:00","2004","11","26","02:00"
"2004-11-26 03:00","2004","11","26","03:00"
"2004-11-26 04:00","2004","11","26","04:00"
"2004-11-26 05:00","2004","11","26","05:00"
"2004-11-26 06:00","2004","11","26","06:00","0.2","","-3.3","","77","","26","","15","","24.1","","100.24","","","","","","Mainly Clear"
"2004-11-26 07:00","2004","11","26","07:00","0.2","","-3.3","","77","","25","","11","","24.1","","100.33","","","","","","Mainly Clear"
"2004-11-26 08:00","2004","11","26","08:00","0.6","","-2.8","","78","","25","","19","","24.1","","100.43","","","","","","Mostly Cloudy"
"2004-11-26 09:00","2004","11","26","09:00","1.0","","-2.8","","76","","26","","19","","24.1","","100.49","","","","","","Mostly Cloudy"
"2004-11-26 10:00","2004","11","26","10:00","1.4","","-2.6","","75","","26","","19","","24.1","","100.58","","","","","","Mostly Cloudy"
"2004-11-26 11:00","2004","11","26","11:00","2.0","","-2.3","","73","","26","","15","","24.1","","100.63","","","","","","Cloudy"
"2004-11-26 12:00","2004","11","26","12:00","2.7","","-2.4","","69","","24","","19","","24.1","","100.62","","","","","","Cloudy"
"2004-11-26 13:00","2004","11","26","13:00","3.8","","-2.7","","62","","24","","9","","24.1","","100.60","","","","","","Cloudy"
"2004-11-26 14:00","2004","11","26","14:00","4.2","","-3.4","","58","","25","","19","","24.1","","100.60","","","","","","Cloudy"
"2004-11-26 15:00","2004","11","26","15:00","4.5","","-3.3","","57","","27","","19","","24.1","","100.63","","","","","","Cloudy"
"2004-11-26 16:00","2004","11","26","16:00","4.3","","-2.3","","62","","24","","9","","24.1","","100.67","","","","","","Mostly Cloudy"
"2004-11-26 17:00","2004","11","26","17:00","4.0","","-1.3","","68","","23","","6","","24.1","","100.69","","","","","","Mostly Cloudy"
"2004-11-26 18:00","2004","11","26","18:00","2.7","","-1.3","","75","","","","0","","24.1","","100.69","","","","","","Mostly Cloudy"
"2004-11-26 19:00","2004","11","26","19:00","1.3","","-1.2","","83","","10","","9","","24.1","","100.73","","","","","","Mostly Cloudy"
"2004-11-26 20:00","2004","11","26","20:00","1.1","","-0.8","","87","","15","","7","","24.1","","100.75","","","","","","Mostly Cloudy"
"2004-11-26 21:00","2004","11","26","21:00","3.3","","-0.4","","77","","18","","9","","24.1","","100.76","","","","","","Cloudy"
"2004-11-26 22:00","2004","11","26","22:00","2.9","","-1.0","","75","","14","","9","","24.1","","100.77","","","","","","Cloudy"
"2004-11-26 23:00","2004","11","26","23:00"
"2004-11-27 00:00","2004","11","27","00:00"
"2004-11-27 01:00","2004","11","27","01:00"
"2004-11-27 02:00","2004","11","27","02:00"
"2004-11-27 03:00","2004","11","27","03:00"
"2004-11-27 04:00","2004","11","27","04:00"
"2004-11-27 05:00","2004","11","27","05:00"
"2004-11-27 06:00","2004","11","27","06:00","4.4","","2.9","","90","","16","","4","","24.1","","100.64","","","","","","Cloudy"
"2004-11-27 07:00","2004","11","27","07:00","4.4","","2.8","","89","","15","","4","","24.1","","100.63","","","","","","Cloudy"
"2004-11-27 08:00","2004","11","27","08:00","4.8","","2.6","","86","","17","","15","","24.1","","100.58","","","","","","Cloudy"
"2004-11-27 09:00","2004","11","27","09:00","6.2","","2.0","","74","","16","","15","","24.1","","100.53","","","","","","Mostly Cloudy"
"2004-11-27 10:00","2004","11","27","10:00","8.0","","1.2","","62","","16","","19","","24.1","","100.48","","","","","","Mostly Cloudy"
"2004-11-27 11:00","2004","11","27","11:00","9.0","","2.3","","63","","16","","9","","24.1","","100.43","","","","","","Mostly Cloudy"
"2004-11-27 12:00","2004","11","27","12:00","9.8","","0.9","","54","","15","","19","","24.1","","100.23","","","","","","Mostly Cloudy"
"2004-11-27 13:00","2004","11","27","13:00","11.7","","0.7","","47","","17","","19","","24.1","","100.16","","","","","","Mostly Cloudy"
"2004-11-27 14:00","2004","11","27","14:00","12.4","","0.0","","42","","17","","19","","24.1","","100.07","","","","","","Mainly Clear"
"2004-11-27 15:00","2004","11","27","15:00","12.8","","-1.6","","37","","18","","19","","24.1","","99.99","","","","","","Mostly Cloudy"
"2004-11-27 16:00","2004","11","27","16:00","11.3","","-1.8","","40","","18","","19","","24.1","","99.91","","","","","","Mostly Cloudy"
"2004-11-27 17:00","2004","11","27","17:00","9.9","","-2.1","","43","","18","","19","","24.1","","99.91","","","","","","Cloudy"
"2004-11-27 18:00","2004","11","27","18:00","9.8","","-4.6","","36","","20","","22","","24.1","","99.87","","","","","","Cloudy"
"2004-11-27 19:00","2004","11","27","19:00","9.4","","-4.7","","37","","20","","19","","24.1","","99.81","","","","","","Cloudy"
"2004-11-27 20:00","2004","11","27","20:00","9.2","","-1.8","","46","","21","","28","","24.1","","99.76","","","","","","Cloudy"
"2004-11-27 21:00","2004","11","27","21:00","9.5","","1.8","","59","","20","","19","","24.1","","99.67","","","","","","Mostly Cloudy"
"2004-11-27 22:00","2004","11","27","22:00","9.7","","2.8","","62","","20","","19","","24.1","","99.63","","","","","","Mostly Cloudy"
"2004-11-27 23:00","2004","11","27","23:00"
"2004-11-28 00:00","2004","11","28","00:00"
"2004-11-28 01:00","2004","11","28","01:00"
"2004-11-28 02:00","2004","11","28","02:00"
"2004-11-28 03:00","2004","11","28","03:00"
"2004-11-28 04:00","2004","11","28","04:00"
"2004-11-28 05:00","2004","11","28","05:00"
"2004-11-28 06:00","2004","11","28","06:00","9.2","","8.9","","98","","23","","19","","8.0","","99.08","","","","","","Rain Showers,Fog"
"2004-11-28 07:00","2004","11","28","07:00","7.7","","7.2","","97","","24","","19","","8.0","","99.16","","","","","","Rain Showers,Fog"
"2004-11-28 08:00","2004","11","28","08:00","7.0","","5.7","","91","","24","","19","","19.3","","99.27","","","","","","Rain Showers"
"2004-11-28 09:00","2004","11","28","09:00","5.5","","4.1","","91","","25","","19","","24.1","","99.44","","","","","","Rain Showers"
"2004-11-28 10:00","2004","11","28","10:00","5.9","","3.1","","82","","24","","24","","24.1","","99.51","","","","","","Cloudy"
"2004-11-28 11:00","2004","11","28","11:00","6.1","","3.8","","85","","23","","26","","24.1","","99.57","","","","","","Mostly Cloudy"
"2004-11-28 12:00","2004","11","28","12:00","6.6","","1.7","","71","","25","","30","","24.1","","99.59","","","","","","Mostly Cloudy"
"2004-11-28 13:00","2004","11","28","13:00","7.4","","0.9","","63","","27","","28","","24.1","","99.64","","","","","","Mostly Cloudy"
"2004-11-28 14:00","2004","11","28","14:00","7.0","","-1.4","","55","","26","","26","","24.1","","99.78","","","","","","Mostly Cloudy"
"2004-11-28 15:00","2004","11","28","15:00","5.9","","0.2","","67","","25","","28","","24.1","","99.98","","","","","","Mostly Cloudy"
"2004-11-28 16:00","2004","11","28","16:00","6.0","","-0.9","","61","","24","","28","","24.1","","100.18","","","","","","Mostly Cloudy"
"2004-11-28 17:00","2004","11","28","17:00","5.8","","-0.6","","63","","26","","26","","24.1","","100.29","","","","","","Mostly Cloudy"
"2004-11-28 18:00","2004","11","28","18:00","5.7","","-0.9","","62","","26","","22","","24.1","","100.45","","","","","","Cloudy"
"2004-11-28 19:00","2004","11","28","19:00","5.5","","-1.4","","61","","27","","19","","24.1","","100.65","","","","","","Cloudy"
"2004-11-28 20:00","2004","11","28","20:00","4.8","","-2.1","","61","","27","","19","","24.1","","100.81","","","","","","Mainly Clear"
"2004-11-28 21:00","2004","11","28","21:00","3.7","","-3.2","","61","","27","","19","","24.1","","100.94","","","","","","Mainly Clear"
"2004-11-28 22:00","2004","11","28","22:00","3.7","","-3.7","","58","","26","","19","","24.1","","101.02","","","","","","Mainly Clear"
"2004-11-28 23:00","2004","11","28","23:00"
"2004-11-29 00:00","2004","11","29","00:00"
"2004-11-29 01:00","2004","11","29","01:00"
"2004-11-29 02:00","2004","11","29","02:00"
"2004-11-29 03:00","2004","11","29","03:00"
"2004-11-29 04:00","2004","11","29","04:00"
"2004-11-29 05:00","2004","11","29","05:00"
"2004-11-29 06:00","2004","11","29","06:00","2.7","","-4.2","","60","","29","","9","","24.1","","101.44","","","","","","Cloudy"
"2004-11-29 07:00","2004","11","29","07:00","2.5","","-3.2","","66","","26","","9","","24.1","","101.52","","","","","","Cloudy"
"2004-11-29 08:00","2004","11","29","08:00","2.4","","-2.8","","68","","21","","19","","24.1","","101.58","","","","","","Cloudy"
"2004-11-29 09:00","2004","11","29","09:00","2.9","","-2.8","","66","","21","","11","","24.1","","101.60","","","","","","Cloudy"
"2004-11-29 10:00","2004","11","29","10:00","3.2","","-2.6","","66","","21","","11","","24.1","","101.64","","","","","","Cloudy"
"2004-11-29 11:00","2004","11","29","11:00","3.9","","-2.4","","63","","24","","9","","24.1","","101.59","","","","","","Cloudy"
"2004-11-29 12:00","2004","11","29","12:00","4.4","","-2.7","","60","","23","","7","","24.1","","101.51","","","","","","Mostly Cloudy"
"2004-11-29 13:00","2004","11","29","13:00","5.4","","-3.1","","54","","23","","9","","24.1","","101.45","","","","","","Mainly Clear"
"2004-11-29 14:00","2004","11","29","14:00","5.1","","-2.8","","57","","23","","9","E","24.1","","101.43","","","","","","Mostly Cloudy"
"2004-11-29 15:00","2004","11","29","15:00","5.0","","-3.1","","56","","","","0","","24.1","","101.37","","","","","","Mostly Cloudy"
"2004-11-29 16:00","2004","11","29","16:00","4.8","","-2.1","","61","","17","","7","","24.1","","101.38","","","","","","Cloudy"
"2004-11-29 17:00","2004","11","29","17:00","4.3","","-1.5","","66","","19","","15","","24.1","","101.39","","","","","","Cloudy"
"2004-11-29 18:00","2004","11","29","18:00","3.8","","-1.1","","70","","19","","9","","24.1","","101.37","","","","","","Cloudy"
"2004-11-29 19:00","2004","11","29","19:00","3.6","","-0.6","","74","","18","","7","","24.1","","101.34","","","","","","Cloudy"
"2004-11-29 20:00","2004","11","29","20:00","3.3","","-0.8","","74","","19","","11","","24.1","","101.26","","","","","","Cloudy"
"2004-11-29 21:00","2004","11","29","21:00","3.1","","-0.9","","75","","19","","7","","24.1","","101.27","","","","","","Mostly Cloudy"
"2004-11-29 22:00","2004","11","29","22:00","2.7","","-0.6","","79","","","","0","","24.1","","101.26","","","","","","Cloudy"
"2004-11-29 23:00","2004","11","29","23:00"
"2004-11-30 00:00","2004","11","30","00:00"
"2004-11-30 01:00","2004","11","30","01:00"
"2004-11-30 02:00","2004","11","30","02:00"
"2004-11-30 03:00","2004","11","30","03:00"
"2004-11-30 04:00","2004","11","30","04:00"
"2004-11-30 05:00","2004","11","30","05:00"
"2004-11-30 06:00","2004","11","30","06:00","1.5","","0.2","","91","","24","","6","","24.1","","101.11","","","","","","Mostly Cloudy"
"2004-11-30 07:00","2004","11","30","07:00","0.1","","-0.5","","96","","24","","6","","16.1","","101.16","","","","","","Mainly Clear"
"2004-11-30 08:00","2004","11","30","08:00","-0.6","","-1.1","","96","","23","","9","","16.1","","101.20","","","","-4","","Mainly Clear"
"2004-11-30 09:00","2004","11","30","09:00","1.5","","0.7","","94","","22","","4","","12.9","","101.21","","","","","","Mostly Cloudy"
"2004-11-30 10:00","2004","11","30","10:00","4.9","","2.2","","83","","23","","6","","12.9","","101.11","","","","","","Mainly Clear"
"2004-11-30 11:00","2004","11","30","11:00","4.3","","1.9","","84","","","","0","","16.1","","101.07","","","","","","Mostly Cloudy"
"2004-11-30 12:00","2004","11","30","12:00","4.9","","2.2","","83","","26","","2","","16.1","","101.04","","","","","","Cloudy"
"2004-11-30 13:00","2004","11","30","13:00","4.6","","1.9","","83","","28","","4","","16.1","","100.96","","","","","","Cloudy"
"2004-11-30 14:00","2004","11","30","14:00","4.8","","1.8","","81","","","","0","","16.1","","100.88","","","","","","Cloudy"
"2004-11-30 15:00","2004","11","30","15:00","5.0","","1.9","","80","","","","0","","16.1","","100.84","","","","","","Cloudy"
"2004-11-30 16:00","2004","11","30","16:00","4.8","","2.0","","82","","6","","4","","16.1","","100.77","","","","","","Cloudy"
"2004-11-30 17:00","2004","11","30","17:00","4.5","","2.4","","86","","6","","7","","16.1","","100.65","","","","","","Cloudy"
"2004-11-30 18:00","2004","11","30","18:00","4.4","","2.9","","90","","8","","7","","16.1","","100.61","","","","","","Cloudy"
"2004-11-30 19:00","2004","11","30","19:00","4.5","","3.1","","91","","8","","7","","19.3","","100.52","","","","","","Cloudy"
"2004-11-30 20:00","2004","11","30","20:00","4.8","","3.2","","89","","8","","11","","19.3","","100.42","","","","","","Cloudy"
"2004-11-30 21:00","2004","11","30","21:00","4.7","","3.2","","90","","8","","15","","19.3","","100.22","","","","","","Rain Showers"
"2004-11-30 22:00","2004","11","30","22:00","4.5","","2.9","","89","","8","","13","","19.3","","100.04","","","","","","Cloudy"
"2004-11-30 23:00","2004","11","30","23:00"
