"Station Name","ST. CATHARINES / NIAGARA DISTRICT A"
"Province","ONTARIO"
"Latitude","43.19"
"Longitude","-79.17"
"Elevation","97.80"
"Climate Identifier","6137286"
"WMO Identifier",""
"TC Identifier","YSN"
"All times are specified in Local Standard Time (LST). Add 1 hour to adjust for Daylight Saving Time where and when it is observed."

"Legend"
"E","Estimated"
"M","Missing"
"NA","Not Available"

"Date/Time","Year","Month","Day","Time","Temp (°C)","Temp Flag","Dew Point Temp (°C)","Dew Point Temp Flag","Rel Hum (%)","Rel Hum Flag","Wind Dir (10s deg)","Wind Dir Flag","Wind Spd (km/h)","Wind Spd Flag","Visibility (km)","Visibility Flag","Stn Press (kPa)","Stn Press Flag","Hmdx","Hmdx Flag","Wind Chill","Wind Chill Flag","Weather"
"2014-02-01 00:00","2014","02","01","00:00"
"2014-02-01 01:00","2014","02","01","01:00"
"2014-02-01 02:00","2014","02","01","02:00"
"2014-02-01 03:00","2014","02","01","03:00"
"2014-02-01 04:00","2014","02","01","04:00"
"2014-02-01 05:00","2014","02","01","05:00"
"2014-02-01 06:00","2014","02","01","06:00"
"2014-02-01 07:00","2014","02","01","07:00","-2.0","","-2.7","","95","","17","","13","","8.1","","100.95","","","","-6","","Snow"
"2014-02-01 08:00","2014","02","01","08:00","-1.4","","-2.5","","92","","11","","9","","4.8","","100.92","","","","-5","","Snow"
"2014-02-01 09:00","2014","02","01","09:00","-1.1","","-2.2","","92","","11","","10","","4.8","","100.90","","","","-5","","Snow"
"2014-02-01 10:00","2014","02","01","10:00","-1.0","","-2.1","","92","","10","","7","","4.8","","100.85","","","","-4","","Snow"
"2014-02-01 11:00","2014","02","01","11:00","-0.1","","-1.7","","89","","10","","7","","6.4","","100.74","","","","-3","","Snow"
"2014-02-01 12:00","2014","02","01","12:00","0.2","","-1.9","","86","","7","","9","","8.1","","100.58","","","","","","Snow Showers"
"2014-02-01 13:00","2014","02","01","13:00","-0.1","","-0.8","","95","","10","","8","","3.2","","100.46","","","","-3","","Snow,Snow Showers,Fog"
"2014-02-01 14:00","2014","02","01","14:00","0.2","","-0.1","","98","","9","","10","","2.4","","100.29","","","","","","Snow,Fog"
"2014-02-01 15:00","2014","02","01","15:00","0.3","","0.2","","99","","11","","13","","3.2","","100.11","","","","","","Snow,Fog"
"2014-02-01 16:00","2014","02","01","16:00","1.1","","0.5","","96","","13","","11","","6.4","","99.95","","","","","","Rain,Fog"
"2014-02-01 17:00","2014","02","01","17:00","2.0","","1.3","","95","","17","","19","","6.4","","99.82","","","","","","Rain,Fog"
"2014-02-01 18:00","2014","02","01","18:00","2.2","","1.8","","97","","23","","7","","6.4","","99.82","","","","","","Rain,Fog"
"2014-02-01 19:00","2014","02","01","19:00","1.4","","1.3","","99","","29","","5","","4.8","","99.88","","","","","","Rain,Fog"
"2014-02-01 20:00","2014","02","01","20:00","3.9","","2.7","","92","","23","","26","","9.7","","99.81","","","","","","Rain,Fog"
"2014-02-01 21:00","2014","02","01","21:00","3.9","","2.9","","93","","23","","25","","12.9","","99.83","","","","","","Rain"
"2014-02-01 22:00","2014","02","01","22:00"
"2014-02-01 23:00","2014","02","01","23:00"
"2014-02-02 00:00","2014","02","02","00:00"
"2014-02-02 01:00","2014","02","02","01:00"
"2014-02-02 02:00","2014","02","02","02:00"
"2014-02-02 03:00","2014","02","02","03:00"
"2014-02-02 04:00","2014","02","02","04:00"
"2014-02-02 05:00","2014","02","02","05:00"
"2014-02-02 06:00","2014","02","02","06:00"
"2014-02-02 07:00","2014","02","02","07:00","-0.4","","-2.3","","87","","32","","13","","19.3","","100.38","","","","-5","","Cloudy"
"2014-02-02 08:00","2014","02","02","08:00","-0.6","","-3.1","","83","","32","","14","","16.1","","100.42","","","","-5","","NA"
"2014-02-02 09:00","2014","02","02","09:00","-1.0","","-3.2","","85","","29","","17","","16.1","","100.55","","","","-6","","NA"
"2014-02-02 10:00","2014","02","02","10:00","-1.2","","-3.7","","83","","31","","15","","24.1","","100.59","","","","-6","","Cloudy"
"2014-02-02 11:00","2014","02","02","11:00","-1.3","","-4.0","","82","","31","","15","","24.1","","100.61","","","","-6","","NA"
"2014-02-02 12:00","2014","02","02","12:00","-1.3","","-4.2","","81","","30","","11","","24.1","","100.65","","","","-5","","NA"
"2014-02-02 13:00","2014","02","02","13:00","-1.3","","-4.2","","81","","29","","13","","24.1","","100.63","","","","-6","","Cloudy"
"2014-02-02 14:00","2014","02","02","14:00","-1.0","","-3.7","","82","","28","","17","","24.1","","100.67","","","","-6","","NA"
"2014-02-02 15:00","2014","02","02","15:00","-1.2","","-3.9","","82","","29","","17","","24.1","","100.67","","","","-6","","NA"
"2014-02-02 16:00","2014","02","02","16:00","-1.3","","-4.8","","77","","29","","19","","24.1","","100.75","","","","-7","","Cloudy"
"2014-02-02 17:00","2014","02","02","17:00","-1.7","","-5.6","","75","","30","","20","","24.1","","100.86","","","","-7","","NA"
"2014-02-02 18:00","2014","02","02","18:00","-2.4","","-6.2","","75","","29","","20","","24.1","","100.96","","","","-8","","NA"
"2014-02-02 19:00","2014","02","02","19:00","-2.6","","-6.4","","75","","27","","18","","24.1","","101.05","","","","-8","","Cloudy"
"2014-02-02 20:00","2014","02","02","20:00","-2.9","","-7.3","","72","","29","","17","","24.1","","101.06","","","","-8","","NA"
"2014-02-02 21:00","2014","02","02","21:00","-3.4","","-7.9","","71","","29","","17","","24.1","","101.12","","","","-9","","NA"
"2014-02-02 22:00","2014","02","02","22:00"
"2014-02-02 23:00","2014","02","02","23:00"
"2014-02-03 00:00","2014","02","03","00:00"
"2014-02-03 01:00","2014","02","03","01:00"
"2014-02-03 02:00","2014","02","03","02:00"
"2014-02-03 03:00","2014","02","03","03:00"
"2014-02-03 04:00","2014","02","03","04:00"
"2014-02-03 05:00","2014","02","03","05:00"
"2014-02-03 06:00","2014","02","03","06:00"
"2014-02-03 07:00","2014","02","03","07:00","-5.0","","-8.8","","75","","2","","13","","24.1","","101.21","","","","-10","","Snow Showers"
"2014-02-03 08:00","2014","02","03","08:00","-5.4","","-9.2","","75","","2","","15","","24.1","","101.31","","","","-11","","Snow Showers"
"2014-02-03 09:00","2014","02","03","09:00","-5.4","","-10.0","","70","","4","","10","","11.3","","101.41","","","","-10","","Snow Showers"
"2014-02-03 10:00","2014","02","03","10:00","-4.9","","-9.6","","70","","2","","14","","14.5","","101.42","","","","-10","","Snow Showers"
"2014-02-03 11:00","2014","02","03","11:00","-4.8","","-10.0","","67","","3","","13","","24.1","","101.47","","","","-10","","Snow Showers"
"2014-02-03 12:00","2014","02","03","12:00","-4.7","","-10.1","","66","","4","","10","","24.1","","101.45","","","","-9","","NA"
"2014-02-03 13:00","2014","02","03","13:00","-4.6","","-10.8","","62","","36","","12","","24.1","","101.41","","","","-9","","Mostly Cloudy"
"2014-02-03 14:00","2014","02","03","14:00","-4.2","","-10.9","","60","","35","","8","","24.1","","101.37","","","","-8","","NA"
"2014-02-03 15:00","2014","02","03","15:00","-4.0","","-10.9","","59","","34","","5","","24.1","","101.38","","","","-6","","NA"
"2014-02-03 16:00","2014","02","03","16:00","-4.0","","-10.9","","59","","31","","8","","24.1","","101.43","","","","-7","","Mainly Clear"
"2014-02-03 17:00","2014","02","03","17:00","-4.4","","-10.4","","63","","30","","6","","24.1","","101.48","","","","-7","","NA"
"2014-02-03 18:00","2014","02","03","18:00","-5.6","","-10.1","","71","","23","","7","","24.1","","101.54","","","","-9","","NA"
"2014-02-03 19:00","2014","02","03","19:00","-5.9","","-9.6","","75","","23","","9","","24.1","","101.61","","","","-10","","Clear"
"2014-02-03 20:00","2014","02","03","20:00","-6.1","","-11.1","","68","","27","","9","","24.1","","101.62","","","","-10","","NA"
"2014-02-03 21:00","2014","02","03","21:00","-6.5","","-10.8","","72","","24","","8","","24.1","","101.59","","","","-10","","NA"
"2014-02-03 22:00","2014","02","03","22:00"
"2014-02-03 23:00","2014","02","03","23:00"
"2014-02-04 00:00","2014","02","04","00:00"
"2014-02-04 01:00","2014","02","04","01:00"
"2014-02-04 02:00","2014","02","04","02:00"
"2014-02-04 03:00","2014","02","04","03:00"
"2014-02-04 04:00","2014","02","04","04:00"
"2014-02-04 05:00","2014","02","04","05:00"
"2014-02-04 06:00","2014","02","04","06:00"
"2014-02-04 07:00","2014","02","04","07:00","-10.2","","-12.3","","85","","22","","8","","16.1","","101.92","","","","-15","","Mostly Cloudy"
"2014-02-04 08:00","2014","02","04","08:00","-9.5","","-11.7","","84","","22","","9","","16.1","","102.02","","","","-14","","NA"
"2014-02-04 09:00","2014","02","04","09:00","-8.4","","-11.3","","80","","20","","10","","19.3","","102.00","","","","-13","","NA"
"2014-02-04 10:00","2014","02","04","10:00","-6.8","","-10.5","","75","","20","","8","","19.3","","102.01","","","","-11","","Mostly Cloudy"
"2014-02-04 11:00","2014","02","04","11:00","-5.2","","-9.9","","70","","20","","10","","19.3","","102.05","","","","-10","","NA"
"2014-02-04 12:00","2014","02","04","12:00","-5.2","","-10.8","","65","","27","","3","","24.1","","101.96","","","","-7","","NA"
"2014-02-04 13:00","2014","02","04","13:00","-4.8","","-10.6","","64","","22","","4","","19.3","","101.86","","","","-7","","Cloudy"
"2014-02-04 14:00","2014","02","04","14:00","-3.9","","-9.6","","65","","2","","8","","19.3","","101.71","","","","-7","","NA"
"2014-02-04 15:00","2014","02","04","15:00","-3.9","","-9.4","","66","","3","","5","","19.3","","101.70","","","","-6","","NA"
"2014-02-04 16:00","2014","02","04","16:00","-4.5","","-8.8","","72","","1","","9","","19.3","","101.68","","","","-8","","Cloudy"
"2014-02-04 17:00","2014","02","04","17:00","-4.6","","-9.1","","71","","4","","8","","19.3","","101.68","","","","-8","","NA"
"2014-02-04 18:00","2014","02","04","18:00","-4.7","","-9.2","","71","","5","","11","","16.1","","101.67","","","","-9","","NA"
"2014-02-04 19:00","2014","02","04","19:00","-4.6","","-8.9","","72","","8","","9","","16.1","","101.66","","","","-8","","Cloudy"
"2014-02-04 20:00","2014","02","04","20:00","-4.6","","-8.7","","73","","7","","9","","16.1","","101.62","","","","-8","","NA"
"2014-02-04 21:00","2014","02","04","21:00","-4.6","","-8.7","","73","","7","","10","","16.1","","101.54","","","","-9","","NA"
"2014-02-04 22:00","2014","02","04","22:00"
"2014-02-04 23:00","2014","02","04","23:00"
"2014-02-05 00:00","2014","02","05","00:00"
"2014-02-05 01:00","2014","02","05","01:00"
"2014-02-05 02:00","2014","02","05","02:00"
"2014-02-05 03:00","2014","02","05","03:00"
"2014-02-05 04:00","2014","02","05","04:00"
"2014-02-05 05:00","2014","02","05","05:00"
"2014-02-05 06:00","2014","02","05","06:00"
"2014-02-05 07:00","2014","02","05","07:00","-4.5","","-5.8","","91","","7","","27","","12.9","","100.29","","","","-12","","Cloudy"
"2014-02-05 08:00","2014","02","05","08:00","-4.1","","-6.1","","86","","6","","40","","9.7","","100.12","","","","-13","","Snow"
"2014-02-05 09:00","2014","02","05","09:00","-4.0","","-5.7","","88","","7","","40","","6.4","","99.92","","","","-13","","Snow"
"2014-02-05 10:00","2014","02","05","10:00","-4.1","","-5.4","","91","","6","","36","","1.2","","99.90","","","","-12","","Snow,Blowing Snow"
"2014-02-05 11:00","2014","02","05","11:00","-4.3","","-5.1","","94","","5","","34","","0.8","","99.95","","","","-13","","Moderate Snow,Blowing Snow"
"2014-02-05 12:00","2014","02","05","12:00","-4.5","","-5.6","","92","","5","","33","","0.4","","99.80","","","","-13","","Heavy Snow,Blowing Snow"
"2014-02-05 13:00","2014","02","05","13:00","-4.3","","-5.6","","91","","4","","31","","1.2","","99.75","","","","-12","","Snow,Blowing Snow"
"2014-02-05 14:00","2014","02","05","14:00","-4.8","","-6.2","","90","","2","","38","","0.8","","99.89","","","","-14","","Moderate Snow,Blowing Snow"
"2014-02-05 15:00","2014","02","05","15:00","-5.2","","-6.4","","91","","1","","35","","0.8","","100.04","","","","-14","","Moderate Snow,Blowing Snow"
"2014-02-05 16:00","2014","02","05","16:00","-5.9","","-7.3","","90","","1","","24","","1.6","","100.20","","","","-13","","Snow,Blowing Snow"
"2014-02-05 17:00","2014","02","05","17:00","-5.9","","-7.7","","87","","1","","27","","2.4","","100.40","","","","-14","","Snow,Blowing Snow"
"2014-02-05 18:00","2014","02","05","18:00","-6.2","","-8.0","","87","","35","","23","","1.6","","100.61","","","","-14","","Snow,Blowing Snow"
"2014-02-05 19:00","2014","02","05","19:00","-6.4","","-9.5","","79","","36","","22","","6.4","","100.74","","","","-14","","Snow"
"2014-02-05 20:00","2014","02","05","20:00","-6.7","","-11.7","","68","","36","","24","","24.1","","100.89","","","","-14","","Snow"
"2014-02-05 21:00","2014","02","05","21:00","-6.9","","-11.5","","70","","33","","19","","24.1","","101.07","","","","-14","","Snow"
"2014-02-05 22:00","2014","02","05","22:00"
"2014-02-05 23:00","2014","02","05","23:00"
"2014-02-06 00:00","2014","02","06","00:00"
"2014-02-06 01:00","2014","02","06","01:00"
"2014-02-06 02:00","2014","02","06","02:00"
"2014-02-06 03:00","2014","02","06","03:00"
"2014-02-06 04:00","2014","02","06","04:00"
"2014-02-06 05:00","2014","02","06","05:00"
"2014-02-06 06:00","2014","02","06","06:00"
"2014-02-06 07:00","2014","02","06","07:00","-13.7","","-16.3","","81","","22","","13","","24.1","","101.48","","","","-21","","Mainly Clear"
"2014-02-06 08:00","2014","02","06","08:00","-13.5","","-16.9","","76","","23","","16","","24.1","","101.55","","","","-21","","NA"
"2014-02-06 09:00","2014","02","06","09:00","-11.7","","-15.3","","75","","23","","13","","24.1","","101.58","","","","-18","","NA"
"2014-02-06 10:00","2014","02","06","10:00","-9.2","","-13.2","","73","","23","","18","","24.1","","101.52","","","","-16","","Mostly Cloudy"
"2014-02-06 11:00","2014","02","06","11:00","-8.3","","-12.0","","75","","24","","23","","24.1","","101.54","","","","-16","","NA"
"2014-02-06 12:00","2014","02","06","12:00","-7.3","","-11.4","","73","","22","","28","","24.1","","101.48","","","","-16","","Snow Showers"
"2014-02-06 13:00","2014","02","06","13:00","-7.1","","-11.2","","73","","23","","27","","8.1","","101.38","","","","-15","","Snow Showers"
"2014-02-06 14:00","2014","02","06","14:00","-6.9","","-11.0","","73","","23","","27","","8.1","","101.29","","","","-15","","Snow Showers,Blowing Snow"
"2014-02-06 15:00","2014","02","06","15:00","-7.3","","-10.8","","76","","24","","24","","8.1","","101.28","","","","-15","","Snow Showers"
"2014-02-06 16:00","2014","02","06","16:00","-7.4","","-12.7","","66","","25","","20","","19.3","","101.28","","","","-15","","Cloudy"
"2014-02-06 17:00","2014","02","06","17:00","-7.9","","-11.1","","78","","23","","22","","16.1","","101.23","","","","-16","","Snow Showers"
"2014-02-06 18:00","2014","02","06","18:00","-8.2","","-10.9","","81","","23","","20","","12.9","","101.22","","","","-16","","Snow Showers"
"2014-02-06 19:00","2014","02","06","19:00","-7.8","","-10.4","","82","","22","","24","","12.9","","101.16","","","","-16","","Snow Showers"
"2014-02-06 20:00","2014","02","06","20:00","-7.2","","-9.9","","81","","23","","23","","16.1","","101.12","","","","-15","","Snow Showers"
"2014-02-06 21:00","2014","02","06","21:00","-7.0","","-9.3","","84","","23","","24","","6.4","","101.09","","","","-15","","Snow Showers"
"2014-02-06 22:00","2014","02","06","22:00"
"2014-02-06 23:00","2014","02","06","23:00"
"2014-02-07 00:00","2014","02","07","00:00"
"2014-02-07 01:00","2014","02","07","01:00"
"2014-02-07 02:00","2014","02","07","02:00"
"2014-02-07 03:00","2014","02","07","03:00"
"2014-02-07 04:00","2014","02","07","04:00"
"2014-02-07 05:00","2014","02","07","05:00"
"2014-02-07 06:00","2014","02","07","06:00"
"2014-02-07 07:00","2014","02","07","07:00","-12.4","","-17.0","","69","","25","","33","","19.3","","101.33","","","","-23","","Cloudy"
"2014-02-07 08:00","2014","02","07","08:00","-12.1","","-16.3","","71","","23","","19","","8.1","","101.34","","","","-20","","Snow Showers"
"2014-02-07 09:00","2014","02","07","09:00","-12.6","","-16.3","","74","","23","","32","","9.7","","101.40","","","","-23","","Snow Showers,Blowing Snow"
"2014-02-07 10:00","2014","02","07","10:00","-12.8","","-17.0","","71","","23","","31","","16.1","","101.41","","","","-23","","Blowing Snow"
"2014-02-07 11:00","2014","02","07","11:00","-12.7","","-16.9","","71","","23","","46","","12.9","","101.44","","","","-25","","Blowing Snow"
"2014-02-07 12:00","2014","02","07","12:00","-12.0","","-16.3","","71","","23","","32","","16.1","","101.35","","","","-22","","Snow Showers,Blowing Snow"
"2014-02-07 13:00","2014","02","07","13:00","-11.9","","-16.3","","70","","23","","35","","12.9","","101.29","","","","-23","","Snow Showers,Blowing Snow"
"2014-02-07 14:00","2014","02","07","14:00","-12.1","","-16.0","","73","","23","","42","","12.9","","101.25","","","","-24","","Snow Showers,Blowing Snow"
"2014-02-07 15:00","2014","02","07","15:00","-11.6","","-15.5","","73","","23","","38","","12.9","","101.23","","","","-23","","Snow Showers,Blowing Snow"
"2014-02-07 16:00","2014","02","07","16:00","-11.6","","-15.7","","72","","23","","40","","12.9","","101.27","","","","-23","","Snow Showers,Blowing Snow"
"2014-02-07 17:00","2014","02","07","17:00","-11.9","","-15.8","","73","","24","","34","","12.9","","101.32","","","","-23","","Snow Showers,Blowing Snow"
"2014-02-07 18:00","2014","02","07","18:00","-12.3","","-16.0","","74","","23","","37","","12.9","","101.36","","","","-23","","Blowing Snow"
"2014-02-07 19:00","2014","02","07","19:00","-12.2","","-15.5","","77","","24","","29","","12.9","","101.39","","","","-22","","Snow Showers,Blowing Snow"
"2014-02-07 20:00","2014","02","07","20:00","-12.1","","-15.8","","74","","23","","36","","12.9","","101.38","","","","-23","","Snow Showers,Blowing Snow"
"2014-02-07 21:00","2014","02","07","21:00","-12.2","","-15.8","","75","","24","","35","","16.1","","101.37","","","","-23","","Snow Showers,Blowing Snow"
"2014-02-07 22:00","2014","02","07","22:00"
"2014-02-07 23:00","2014","02","07","23:00"
"2014-02-08 00:00","2014","02","08","00:00"
"2014-02-08 01:00","2014","02","08","01:00"
"2014-02-08 02:00","2014","02","08","02:00"
"2014-02-08 03:00","2014","02","08","03:00"
"2014-02-08 04:00","2014","02","08","04:00"
"2014-02-08 05:00","2014","02","08","05:00"
"2014-02-08 06:00","2014","02","08","06:00"
"2014-02-08 07:00","2014","02","08","07:00","-15.0","","-17.7","","80","","22","","10","","19.3","","101.47","","","","-21","","Mostly Cloudy"
"2014-02-08 08:00","2014","02","08","08:00","-16.6","","-18.4","","86","","18","","12","","19.3","","101.49","","","","-24","","NA"
"2014-02-08 09:00","2014","02","08","09:00","-14.3","","-16.7","","82","","20","","9","","24.1","","101.50","","","","-20","","NA"
"2014-02-08 10:00","2014","02","08","10:00","-11.9","","-15.5","","75","","23","","13","","24.1","","101.50","","","","-19","","Mostly Cloudy"
"2014-02-08 11:00","2014","02","08","11:00","-10.8","","-14.7","","73","","23","","14","","24.1","","101.46","","","","-17","","NA"
"2014-02-08 12:00","2014","02","08","12:00","-9.8","","-14.1","","71","","24","","18","","24.1","","101.38","","","","-17","","NA"
"2014-02-08 13:00","2014","02","08","13:00","-9.2","","-13.7","","70","","22","","20","","24.1","","101.30","","","","-17","","Cloudy"
"2014-02-08 14:00","2014","02","08","14:00","-8.6","","-13.5","","68","","24","","18","","24.1","","101.22","","","","-16","","NA"
"2014-02-08 15:00","2014","02","08","15:00","-8.4","","-13.1","","69","","24","","15","","24.1","","101.21","","","","-15","","NA"
"2014-02-08 16:00","2014","02","08","16:00","-8.6","","-13.0","","71","","23","","23","","24.1","","101.22","","","","-17","","Cloudy"
"2014-02-08 17:00","2014","02","08","17:00","-8.8","","-12.6","","74","","23","","20","","24.1","","101.19","","","","-16","","NA"
"2014-02-08 18:00","2014","02","08","18:00","-9.1","","-12.4","","77","","22","","17","","24.1","","101.18","","","","-16","","NA"
"2014-02-08 19:00","2014","02","08","19:00","-9.5","","-12.0","","82","","22","","12","","24.1","","101.17","","","","-15","","Cloudy"
"2014-02-08 20:00","2014","02","08","20:00","-9.3","","-12.1","","80","","23","","15","","24.1","","101.14","","","","-16","","NA"
"2014-02-08 21:00","2014","02","08","21:00","-9.4","","-12.4","","79","","24","","12","","24.1","","101.15","","","","-15","","NA"
"2014-02-08 22:00","2014","02","08","22:00"
"2014-02-08 23:00","2014","02","08","23:00"
"2014-02-09 00:00","2014","02","09","00:00"
"2014-02-09 01:00","2014","02","09","01:00"
"2014-02-09 02:00","2014","02","09","02:00"
"2014-02-09 03:00","2014","02","09","03:00"
"2014-02-09 04:00","2014","02","09","04:00"
"2014-02-09 05:00","2014","02","09","05:00"
"2014-02-09 06:00","2014","02","09","06:00"
"2014-02-09 07:00","2014","02","09","07:00","-11.4","","-12.9","","89","","20","","13","","12.9","","100.88","","","","-18","","Cloudy"
"2014-02-09 08:00","2014","02","09","08:00","-10.7","","-12.3","","88","","21","","7","","9.7","","100.93","","","","-15","","Snow"
"2014-02-09 09:00","2014","02","09","09:00","-10.1","","-12.2","","85","","19","","10","","9.7","","100.81","","","","-15","","Snow"
"2014-02-09 10:00","2014","02","09","10:00","-8.9","","-11.6","","81","","15","","10","","12.9","","100.71","","","","-14","","Snow"
"2014-02-09 11:00","2014","02","09","11:00","-8.2","","-11.6","","77","","14","","9","","6.4","","100.65","","","","-13","","Snow"
"2014-02-09 12:00","2014","02","09","12:00","-8.4","","-10.3","","86","","10","","10","","1.6","","100.50","","","","-13","","Snow,Fog"
"2014-02-09 13:00","2014","02","09","13:00","-8.3","","-10.1","","87","","9","","8","","1.6","","100.39","","","","-12","","Snow,Fog"
"2014-02-09 14:00","2014","02","09","14:00","-8.0","","-9.9","","86","","5","","4","","1.2","","100.32","","","","-10","","Snow,Fog"
"2014-02-09 15:00","2014","02","09","15:00","-7.6","","-9.3","","88","","31","","4","","1.6","","100.32","","","","-10","","Snow,Fog"
"2014-02-09 16:00","2014","02","09","16:00","-7.6","","-9.7","","85","","30","","4","","4.0","","100.33","","","","-10","","Snow,Fog"
"2014-02-09 17:00","2014","02","09","17:00","-7.5","","-9.6","","85","","25","","7","","4.0","","100.37","","","","-11","","Snow,Fog"
"2014-02-09 18:00","2014","02","09","18:00","-7.5","","-8.6","","92","","26","","6","","1.6","","100.44","","","","-11","","Snow,Fog"
"2014-02-09 19:00","2014","02","09","19:00","-7.2","","-8.7","","89","","26","","13","","4.0","","100.53","","","","-13","","Snow,Fog"
"2014-02-09 20:00","2014","02","09","20:00","-7.7","","-10.1","","83","","25","","15","","8.1","","100.59","","","","-14","","Snow"
"2014-02-09 21:00","2014","02","09","21:00","-8.2","","-11.6","","77","","25","","21","","8.1","","100.69","","","","-16","","Snow"
"2014-02-09 22:00","2014","02","09","22:00"
"2014-02-09 23:00","2014","02","09","23:00"
"2014-02-10 00:00","2014","02","10","00:00"
"2014-02-10 01:00","2014","02","10","01:00"
"2014-02-10 02:00","2014","02","10","02:00"
"2014-02-10 03:00","2014","02","10","03:00"
"2014-02-10 04:00","2014","02","10","04:00"
"2014-02-10 05:00","2014","02","10","05:00"
"2014-02-10 06:00","2014","02","10","06:00"
"2014-02-10 07:00","2014","02","10","07:00","-11.8","","-13.7","","86","","23","","14","","8.1","","100.96","","","","-19","","Snow"
"2014-02-10 08:00","2014","02","10","08:00","-11.9","","-13.8","","86","","22","","16","","1.6","","101.02","","","","-19","","Snow"
"2014-02-10 09:00","2014","02","10","09:00","-11.7","","-14.3","","81","","22","","17","","9.7","","101.08","","","","-19","","Snow"
"2014-02-10 10:00","2014","02","10","10:00","-10.4","","-13.5","","78","","24","","15","","9.7","","101.12","","","","-17","","Snow"
"2014-02-10 11:00","2014","02","10","11:00","-7.2","","-12.5","","66","","28","","21","","24.1","","101.15","","","","-15","","Snow"
"2014-02-10 12:00","2014","02","10","12:00","-7.1","","-13.0","","63","","30","","19","","24.1","","101.16","","","","-14","","NA"
"2014-02-10 13:00","2014","02","10","13:00","-6.5","","-14.1","","55","","31","","18","","24.1","","101.12","","","","-13","","Mostly Cloudy"
"2014-02-10 14:00","2014","02","10","14:00","-7.4","","-14.5","","57","","28","","21","","24.1","","101.10","","","","-15","","NA"
"2014-02-10 15:00","2014","02","10","15:00","-7.0","","-15.1","","53","","28","","24","","24.1","","101.12","","","","-15","","NA"
"2014-02-10 16:00","2014","02","10","16:00","-7.0","","-14.6","","55","","28","","17","","24.1","","101.17","","","","-13","","Mostly Cloudy"
"2014-02-10 17:00","2014","02","10","17:00","-7.1","","-14.5","","56","","28","","22","","24.1","","101.22","","","","-15","","NA"
"2014-02-10 18:00","2014","02","10","18:00","-8.9","","-15.1","","61","","26","","19","","24.1","","101.32","","","","-16","","NA"
"2014-02-10 19:00","2014","02","10","19:00","-9.2","","-15.4","","61","","26","","21","","24.1","","101.38","","","","-17","","Mostly Cloudy"
"2014-02-10 20:00","2014","02","10","20:00","-9.6","","-15.2","","64","","27","","19","","24.1","","101.41","","","","-17","","Snow Showers"
"2014-02-10 21:00","2014","02","10","21:00","-9.2","","-15.6","","60","","29","","27","","24.1","","101.45","","","","-18","","Snow Showers"
"2014-02-10 22:00","2014","02","10","22:00"
"2014-02-10 23:00","2014","02","10","23:00"
"2014-02-11 00:00","2014","02","11","00:00"
"2014-02-11 01:00","2014","02","11","01:00"
"2014-02-11 02:00","2014","02","11","02:00"
"2014-02-11 03:00","2014","02","11","03:00"
"2014-02-11 04:00","2014","02","11","04:00"
"2014-02-11 05:00","2014","02","11","05:00"
"2014-02-11 06:00","2014","02","11","06:00"
"2014-02-11 07:00","2014","02","11","07:00","-10.2","","-15.4","","66","","28","","8","","19.3","","101.71","","","","-15","","Cloudy"
"2014-02-11 08:00","2014","02","11","08:00","-10.5","","-14.6","","72","","25","","10","","19.3","","101.80","","","","-16","","NA"
"2014-02-11 09:00","2014","02","11","09:00","-10.2","","-14.7","","70","","25","","13","","16.1","","101.84","","","","-16","","Snow Showers"
"2014-02-11 10:00","2014","02","11","10:00","-10.7","","-13.5","","80","","25","","19","","4.0","","101.90","","","","-19","","Snow Showers"
"2014-02-11 11:00","2014","02","11","11:00","-9.9","","-15.7","","63","","26","","17","","19.3","","101.96","","","","-17","","Snow Showers"
"2014-02-11 12:00","2014","02","11","12:00","-9.7","","-14.9","","66","","26","","24","","24.1","","101.99","","","","-18","","Snow Showers"
"2014-02-11 13:00","2014","02","11","13:00","-8.9","","-16.0","","57","","26","","22","","24.1","","101.97","","","","-17","","Snow Showers"
"2014-02-11 14:00","2014","02","11","14:00","-9.2","","-16.5","","56","","24","","13","","24.1","","101.94","","","","-15","","NA"
"2014-02-11 15:00","2014","02","11","15:00","-9.6","","-15.2","","64","","26","","15","","24.1","","101.96","","","","-16","","NA"
"2014-02-11 16:00","2014","02","11","16:00","-9.5","","-16.3","","58","","27","","15","","24.1","","101.98","","","","-16","","Mainly Clear"
"2014-02-11 17:00","2014","02","11","17:00","-10.1","","-17.1","","57","","24","","17","","24.1","","102.02","","","","-17","","NA"
"2014-02-11 18:00","2014","02","11","18:00","-11.4","","-17.7","","60","","24","","12","","24.1","","102.07","","","","-18","","NA"
"2014-02-11 19:00","2014","02","11","19:00","-13.0","","-18.1","","66","","23","","13","","24.1","","102.09","","","","-20","","Mainly Clear"
"2014-02-11 20:00","2014","02","11","20:00","-13.9","","-18.3","","70","","22","","13","","24.1","","102.12","","","","-21","","NA"
"2014-02-11 21:00","2014","02","11","21:00","-14.5","","-18.3","","73","","22","","15","","24.1","","102.14","","","","-22","","NA"
"2014-02-11 22:00","2014","02","11","22:00"
"2014-02-11 23:00","2014","02","11","23:00"
"2014-02-12 00:00","2014","02","12","00:00"
"2014-02-12 01:00","2014","02","12","01:00"
"2014-02-12 02:00","2014","02","12","02:00"
"2014-02-12 03:00","2014","02","12","03:00"
"2014-02-12 04:00","2014","02","12","04:00"
"2014-02-12 05:00","2014","02","12","05:00"
"2014-02-12 06:00","2014","02","12","06:00"
"2014-02-12 07:00","2014","02","12","07:00","-18.8","","-20.7","","85","","9","","7","","24.1","","101.95","","","","-24","","Mainly Clear"
"2014-02-12 08:00","2014","02","12","08:00","-17.7","","-20.2","","81","","20","","13","","24.1","","102.03","","","","-26","","NA"
"2014-02-12 09:00","2014","02","12","09:00","-14.0","","-18.2","","71","","18","","5","","24.1","","101.90","","","","-17","","NA"
"2014-02-12 10:00","2014","02","12","10:00","-11.7","","-17.0","","65","","18","","15","","24.1","","101.81","","","","-19","","Mainly Clear"
"2014-02-12 11:00","2014","02","12","11:00","-9.7","","-16.1","","60","","18","","13","","24.1","","101.85","","","","-16","","NA"
"2014-02-12 12:00","2014","02","12","12:00","-8.4","","-15.9","","55","","19","","4","","24.1","","101.72","","","","-11","","NA"
"2014-02-12 13:00","2014","02","12","13:00","-7.4","","-15.7","","52","","20","","4","","24.1","","101.57","","","","-9","","Mainly Clear"
"2014-02-12 14:00","2014","02","12","14:00","-6.7","","-15.5","","50","","7","","4","","24.1","","101.43","","","","-9","","NA"
"2014-02-12 15:00","2014","02","12","15:00","-6.3","","-15.9","","47","","17","","4","","24.1","","101.31","","","","-8","","NA"
"2014-02-12 16:00","2014","02","12","16:00","-6.4","","-16.2","","46","","16","","6","","24.1","","101.19","","","","-9","","Mainly Clear"
"2014-02-12 17:00","2014","02","12","17:00","-6.4","","-16.5","","45","","1","","4","","24.1","","101.08","","","","-8","","NA"
"2014-02-12 18:00","2014","02","12","18:00","-8.7","","-17.1","","51","","2","","8","","24.1","","101.04","","","","-13","","NA"
"2014-02-12 19:00","2014","02","12","19:00","-10.9","","-16.8","","62","","","","0","","24.1","","101.04","","","","","","Mainly Clear"
"2014-02-12 20:00","2014","02","12","20:00","-13.9","","-18.1","","71","","19","","6","","24.1","","101.02","","","","-18","","NA"
"2014-02-12 21:00","2014","02","12","21:00","-14.9","","-17.6","","80","","23","","6","","24.1","","101.02","","","","-19","","NA"
"2014-02-12 22:00","2014","02","12","22:00"
"2014-02-12 23:00","2014","02","12","23:00"
"2014-02-13 00:00","2014","02","13","00:00"
"2014-02-13 01:00","2014","02","13","01:00"
"2014-02-13 02:00","2014","02","13","02:00"
"2014-02-13 03:00","2014","02","13","03:00"
"2014-02-13 04:00","2014","02","13","04:00"
"2014-02-13 05:00","2014","02","13","05:00"
"2014-02-13 06:00","2014","02","13","06:00"
"2014-02-13 07:00","2014","02","13","07:00","-15.1","","-18.4","","76","","14","","6","","19.3","","100.59","","","","-19","","Cloudy"
"2014-02-13 08:00","2014","02","13","08:00","-15.1","","-18.3","","77","","5","","5","","19.3","","100.57","","","","-19","","NA"
"2014-02-13 09:00","2014","02","13","09:00","-12.4","","-16.0","","75","","6","","4","","24.1","","100.42","","","","-15","","NA"
"2014-02-13 10:00","2014","02","13","10:00","-10.0","","-14.8","","68","","8","","8","","24.1","","100.38","","","","-14","","Mostly Cloudy"
"2014-02-13 11:00","2014","02","13","11:00","-7.1","","-13.4","","61","","6","","8","","24.1","","100.31","","","","-11","","NA"
"2014-02-13 12:00","2014","02","13","12:00","-4.2","","-11.1","","59","","7","","21","","24.1","","100.15","","","","-11","","NA"
"2014-02-13 13:00","2014","02","13","13:00","-3.6","","-11.4","","55","","6","","22","","24.1","","100.01","","","","-10","","Mostly Cloudy"
"2014-02-13 14:00","2014","02","13","14:00","-3.3","","-10.7","","57","","7","","18","","24.1","","99.87","","","","-9","","NA"
"2014-02-13 15:00","2014","02","13","15:00","-3.2","","-7.7","","71","","7","","15","","24.1","","99.73","","","","-8","","NA"
"2014-02-13 16:00","2014","02","13","16:00","-3.3","","-6.8","","77","","5","","17","","24.1","","99.59","","","","-9","","Cloudy"
"2014-02-13 17:00","2014","02","13","17:00","-3.5","","-6.1","","82","","7","","19","","24.1","","99.51","","","","-9","","NA"
"2014-02-13 18:00","2014","02","13","18:00","-3.8","","-6.4","","82","","7","","16","","24.1","","99.47","","","","-9","","NA"
"2014-02-13 19:00","2014","02","13","19:00","-4.0","","-6.6","","82","","8","","9","","24.1","","99.40","","","","-8","","Cloudy"
"2014-02-13 20:00","2014","02","13","20:00","-4.4","","-6.9","","83","","10","","5","","24.1","","99.31","","","","-7","","NA"
"2014-02-13 21:00","2014","02","13","21:00","-5.1","","-7.1","","86","","28","","4","","24.1","","99.21","","","","-7","","NA"
"2014-02-13 22:00","2014","02","13","22:00"
"2014-02-13 23:00","2014","02","13","23:00"
"2014-02-14 00:00","2014","02","14","00:00"
"2014-02-14 01:00","2014","02","14","01:00"
"2014-02-14 02:00","2014","02","14","02:00"
"2014-02-14 03:00","2014","02","14","03:00"
"2014-02-14 04:00","2014","02","14","04:00"
"2014-02-14 05:00","2014","02","14","05:00"
"2014-02-14 06:00","2014","02","14","06:00"
"2014-02-14 07:00","2014","02","14","07:00","-4.3","","-6.8","","83","","23","","13","","14.5","","98.61","","","","-9","","Cloudy"
"2014-02-14 08:00","2014","02","14","08:00","-4.3","","-6.5","","85","","23","","14","","4.8","","98.64","","","","-9","","Snow Showers"
"2014-02-14 09:00","2014","02","14","09:00","-4.6","","-6.1","","89","","24","","10","","4.8","","98.66","","","","-9","","Snow Showers"
"2014-02-14 10:00","2014","02","14","10:00","-4.0","","-5.7","","88","","24","","12","","6.4","","98.72","","","","-9","","Snow Showers"
"2014-02-14 11:00","2014","02","14","11:00","-3.7","","-6.2","","83","","24","","11","","11.3","","98.76","","","","-8","","Snow Showers"
"2014-02-14 12:00","2014","02","14","12:00","-2.5","","-6.2","","76","","24","","18","","16.1","","98.81","","","","-8","","NA"
"2014-02-14 13:00","2014","02","14","13:00","-2.0","","-6.0","","74","","24","","24","","14.5","","98.88","","","","-8","","Cloudy"
"2014-02-14 14:00","2014","02","14","14:00","-2.0","","-5.9","","75","","23","","26","","16.1","","98.95","","","","-9","","NA"
"2014-02-14 15:00","2014","02","14","15:00","-2.0","","-6.2","","73","","23","","24","","16.1","","99.01","","","","-8","","NA"
"2014-02-14 16:00","2014","02","14","16:00","-1.3","","-6.3","","69","","24","","32","","12.9","","99.08","","","","-8","","Mostly Cloudy"
"2014-02-14 17:00","2014","02","14","17:00","-2.0","","-6.8","","70","","27","","31","","12.9","","99.18","","","","-9","","NA"
"2014-02-14 18:00","2014","02","14","18:00","-2.2","","-6.4","","73","","25","","18","","11.3","","99.29","","","","-8","","NA"
"2014-02-14 19:00","2014","02","14","19:00","-2.8","","-6.8","","74","","25","","15","","11.3","","99.35","","","","-8","","Cloudy"
"2014-02-14 20:00","2014","02","14","20:00","-3.3","","-5.8","","83","","23","","10","","11.3","","99.38","","","","-7","","NA"
"2014-02-14 21:00","2014","02","14","21:00","-3.0","","-4.9","","87","","23","","12","","11.3","","99.40","","","","-7","","NA"
"2014-02-14 22:00","2014","02","14","22:00"
"2014-02-14 23:00","2014","02","14","23:00"
"2014-02-15 00:00","2014","02","15","00:00"
"2014-02-15 01:00","2014","02","15","01:00"
"2014-02-15 02:00","2014","02","15","02:00"
"2014-02-15 03:00","2014","02","15","03:00"
"2014-02-15 04:00","2014","02","15","04:00"
"2014-02-15 05:00","2014","02","15","05:00"
"2014-02-15 06:00","2014","02","15","06:00"
"2014-02-15 07:00","2014","02","15","07:00","-3.7","","-7.7","","74","","30","","17","","9.7","","99.72","","","","-9","","Snow Showers"
"2014-02-15 08:00","2014","02","15","08:00","-4.0","","-8.2","","73","","30","","15","","16.1","","99.83","","","","-9","","NA"
"2014-02-15 09:00","2014","02","15","09:00","-4.6","","-8.0","","77","","31","","19","","19.3","","99.92","","","","-11","","NA"
"2014-02-15 10:00","2014","02","15","10:00","-5.3","","-8.7","","77","","30","","21","","19.3","","99.98","","","","-12","","Mostly Cloudy"
"2014-02-15 11:00","2014","02","15","11:00","-4.7","","-8.7","","74","","29","","13","","24.1","","100.03","","","","-10","","NA"
"2014-02-15 12:00","2014","02","15","12:00","-3.6","","-8.5","","69","","27","","15","","24.1","","100.05","","","","-9","","NA"
"2014-02-15 13:00","2014","02","15","13:00","-3.8","","-8.9","","68","","28","","19","","24.1","","100.02","","","","-10","","Mainly Clear"
"2014-02-15 14:00","2014","02","15","14:00","-4.2","","-9.8","","65","","28","","20","","24.1","","100.03","","","","-11","","NA"
"2014-02-15 15:00","2014","02","15","15:00","-3.7","","-10.2","","61","","31","","19","","24.1","","100.08","","","","-10","","NA"
"2014-02-15 16:00","2014","02","15","16:00","-3.8","","-9.9","","63","","29","","25","","19.3","","100.14","","","","-11","","Mostly Cloudy"
"2014-02-15 17:00","2014","02","15","17:00","-4.2","","-10.0","","64","","26","","17","","24.1","","100.20","","","","-10","","Snow Showers"
"2014-02-15 18:00","2014","02","15","18:00","-4.8","","-10.4","","65","","26","","21","","24.1","","100.24","","","","-11","","NA"
"2014-02-15 19:00","2014","02","15","19:00","-6.5","","-11.5","","68","","23","","26","","24.1","","100.33","","","","-14","","Mostly Cloudy"
"2014-02-15 20:00","2014","02","15","20:00","-7.0","","-11.4","","71","","25","","20","","24.1","","100.41","","","","-14","","NA"
"2014-02-15 21:00","2014","02","15","21:00","-8.0","","-12.2","","72","","25","","24","","24.1","","100.50","","","","-16","","NA"
"2014-02-15 22:00","2014","02","15","22:00"
"2014-02-15 23:00","2014","02","15","23:00"
"2014-02-16 00:00","2014","02","16","00:00"
"2014-02-16 01:00","2014","02","16","01:00"
"2014-02-16 02:00","2014","02","16","02:00"
"2014-02-16 03:00","2014","02","16","03:00"
"2014-02-16 04:00","2014","02","16","04:00"
"2014-02-16 05:00","2014","02","16","05:00"
"2014-02-16 06:00","2014","02","16","06:00"
"2014-02-16 07:00","2014","02","16","07:00","-12.7","","-15.0","","83","","23","","19","","12.9","","100.52","","","","-21","","Snow Showers"
"2014-02-16 08:00","2014","02","16","08:00","-12.3","","-14.5","","84","","23","","15","","4.0","","100.58","","","","-20","","Snow Showers"
"2014-02-16 09:00","2014","02","16","09:00","-11.6","","-13.5","","86","","23","","14","","4.8","","100.62","","","","-18","","Snow Showers"
"2014-02-16 10:00","2014","02","16","10:00","-10.7","","-12.8","","85","","22","","12","","4.8","","100.61","","","","-17","","Snow Showers"
"2014-02-16 11:00","2014","02","16","11:00","-9.7","","-12.1","","83","","22","","12","","4.8","","100.63","","","","-16","","Snow"
"2014-02-16 12:00","2014","02","16","12:00","-8.6","","-11.0","","83","","24","","13","","1.6","","100.62","","","","-15","","Snow"
"2014-02-16 13:00","2014","02","16","13:00","-7.6","","-10.6","","79","","33","","11","","3.2","","100.58","","","","-13","","Snow"
"2014-02-16 14:00","2014","02","16","14:00","-7.6","","-10.5","","80","","33","","12","","4.8","","100.55","","","","-13","","Snow"
"2014-02-16 15:00","2014","02","16","15:00","-7.4","","-10.6","","78","","34","","16","","2.4","","100.58","","","","-14","","Snow"
"2014-02-16 16:00","2014","02","16","16:00","-7.7","","-11.7","","73","","33","","14","","16.1","","100.67","","","","-14","","Snow Showers"
"2014-02-16 17:00","2014","02","16","17:00","-7.3","","-12.2","","68","","32","","11","","19.3","","100.76","","","","-12","","NA"
"2014-02-16 18:00","2014","02","16","18:00","-7.7","","-12.6","","68","","33","","17","","19.3","","100.88","","","","-14","","NA"
"2014-02-16 19:00","2014","02","16","19:00","-8.2","","-13.3","","67","","33","","24","","24.1","","101.01","","","","-16","","Mainly Clear"
"2014-02-16 20:00","2014","02","16","20:00","-8.8","","-14.8","","62","","33","","17","","24.1","","101.13","","","","-16","","NA"
"2014-02-16 21:00","2014","02","16","21:00","-10.0","","-17.0","","57","","34","","24","","24.1","","101.28","","","","-19","","NA"
"2014-02-16 22:00","2014","02","16","22:00"
"2014-02-16 23:00","2014","02","16","23:00"
"2014-02-17 00:00","2014","02","17","00:00"
"2014-02-17 01:00","2014","02","17","01:00"
"2014-02-17 02:00","2014","02","17","02:00"
"2014-02-17 03:00","2014","02","17","03:00"
"2014-02-17 04:00","2014","02","17","04:00"
"2014-02-17 05:00","2014","02","17","05:00"
"2014-02-17 06:00","2014","02","17","06:00"
"2014-02-17 07:00","2014","02","17","07:00","-20.3","","-22.3","","84","","22","","8","","24.1","","101.83","","","","-27","","Clear"
"2014-02-17 08:00","2014","02","17","08:00","-19.9","","-22.1","","83","","20","","10","","24.1","","101.91","","","","-27","","NA"
"2014-02-17 09:00","2014","02","17","09:00","-16.0","","-19.6","","74","","18","","12","","24.1","","101.95","","","","-23","","NA"
"2014-02-17 10:00","2014","02","17","10:00","-13.1","","-17.7","","69","","17","","11","","14.5","","101.95","","","","-19","","Haze"
"2014-02-17 11:00","2014","02","17","11:00","-10.5","","-15.7","","66","","18","","13","","19.3","","101.87","","","","-17","","NA"
"2014-02-17 12:00","2014","02","17","12:00","-8.9","","-14.9","","62","","19","","10","","24.1","","101.81","","","","-14","","NA"
"2014-02-17 13:00","2014","02","17","13:00","-7.6","","-14.5","","58","","9","","13","","24.1","","101.66","","","","-13","","Mostly Cloudy"
"2014-02-17 14:00","2014","02","17","14:00","-6.7","","-15.0","","52","","11","","5","","24.1","","101.57","","","","-9","","NA"
"2014-02-17 15:00","2014","02","17","15:00","-6.4","","-15.2","","50","","8","","13","","24.1","","101.42","","","","-12","","NA"
"2014-02-17 16:00","2014","02","17","16:00","-5.8","","-14.9","","49","","8","","17","","24.1","","101.29","","","","-12","","Cloudy"
"2014-02-17 17:00","2014","02","17","17:00","-5.8","","-14.7","","50","","8","","25","","24.1","","101.11","","","","-13","","NA"
"2014-02-17 18:00","2014","02","17","18:00","-6.2","","-14.1","","54","","8","","23","","24.1","","100.95","","","","-14","","NA"
"2014-02-17 19:00","2014","02","17","19:00","-6.5","","-13.3","","59","","8","","26","","24.1","","100.73","","","","-14","","Cloudy"
"2014-02-17 20:00","2014","02","17","20:00","-6.0","","-13.2","","57","","9","","26","","24.1","","100.53","","","","-14","","NA"
"2014-02-17 21:00","2014","02","17","21:00","-5.6","","-12.8","","57","","9","","23","","24.1","","100.41","","","","-13","","NA"
"2014-02-17 22:00","2014","02","17","22:00"
"2014-02-17 23:00","2014","02","17","23:00"
"2014-02-18 00:00","2014","02","18","00:00"
"2014-02-18 01:00","2014","02","18","01:00"
"2014-02-18 02:00","2014","02","18","02:00"
"2014-02-18 03:00","2014","02","18","03:00"
"2014-02-18 04:00","2014","02","18","04:00"
"2014-02-18 05:00","2014","02","18","05:00"
"2014-02-18 06:00","2014","02","18","06:00"
"2014-02-18 07:00","2014","02","18","07:00","-1.7","","-4.2","","83","","22","","34","","8.1","","99.48","","","","-9","","Snow"
"2014-02-18 08:00","2014","02","18","08:00","-2.4","","-4.7","","84","","22","","24","","9.7","","99.63","","","","-9","","Snow"
"2014-02-18 09:00","2014","02","18","09:00","-2.6","","-5.1","","83","","23","","27","","8.1","","99.74","","","","-10","","Snow"
"2014-02-18 10:00","2014","02","18","10:00","-3.3","","-6.1","","81","","24","","28","","3.2","","99.86","","","","-11","","Snow"
"2014-02-18 11:00","2014","02","18","11:00","-3.7","","-5.9","","85","","23","","33","","1.2","","100.00","","","","-12","","Snow Showers,Blowing Snow"
"2014-02-18 12:00","2014","02","18","12:00","-3.7","","-6.2","","83","","23","","31","","2.4","","100.12","","","","-11","","Snow Showers,Blowing Snow"
"2014-02-18 13:00","2014","02","18","13:00","-3.2","","-6.2","","80","","24","","35","","4.0","","100.20","","","","-11","","Snow Showers,Blowing Snow"
"2014-02-18 14:00","2014","02","18","14:00","-2.3","","-7.2","","69","","23","","34","","24.1","","100.28","","","","-10","","NA"
"2014-02-18 15:00","2014","02","18","15:00","-2.4","","-7.9","","66","","23","","25","","24.1","","100.30","","","","-9","","NA"
"2014-02-18 16:00","2014","02","18","16:00","-2.7","","-7.8","","68","","23","","26","","24.1","","100.42","","","","-10","","Mainly Clear"
"2014-02-18 17:00","2014","02","18","17:00","-2.9","","-8.6","","65","","23","","23","","24.1","","100.38","","","","-9","","NA"
"2014-02-18 18:00","2014","02","18","18:00","-3.7","","-7.9","","73","","24","","12","","24.1","","100.42","","","","-8","","NA"
"2014-02-18 19:00","2014","02","18","19:00","-3.9","","-7.2","","78","","22","","14","","24.1","","100.38","","","","-9","","Mainly Clear"
"2014-02-18 20:00","2014","02","18","20:00","-4.7","","-6.7","","86","","15","","9","","24.1","","100.26","","","","-9","","NA"
"2014-02-18 21:00","2014","02","18","21:00","-5.8","","-7.0","","91","","14","","3","","24.1","","100.17","","","","-7","","NA"
"2014-02-18 22:00","2014","02","18","22:00"
"2014-02-18 23:00","2014","02","18","23:00"
"2014-02-19 00:00","2014","02","19","00:00"
"2014-02-19 01:00","2014","02","19","01:00"
"2014-02-19 02:00","2014","02","19","02:00"
"2014-02-19 03:00","2014","02","19","03:00"
"2014-02-19 04:00","2014","02","19","04:00"
"2014-02-19 05:00","2014","02","19","05:00"
"2014-02-19 06:00","2014","02","19","06:00"
"2014-02-19 07:00","2014","02","19","07:00","3.8","","-3.3","","60","","22","","21","","24.1","","99.01","","","","","","Mainly Clear"
"2014-02-19 08:00","2014","02","19","08:00","3.5","","-3.3","","61","","22","","11","","24.1","","99.10","","","","","","NA"
"2014-02-19 09:00","2014","02","19","09:00","5.5","","-2.3","","57","","23","","19","","24.1","","99.11","","","","","","NA"
"2014-02-19 10:00","2014","02","19","10:00","5.6","","-1.8","","59","","25","","19","","24.1","","99.12","","","","","","Mostly Cloudy"
"2014-02-19 11:00","2014","02","19","11:00","5.7","","-1.7","","59","","24","","15","","24.1","","99.14","","","","","","NA"
"2014-02-19 12:00","2014","02","19","12:00","6.2","","-1.2","","59","","28","","14","","24.1","","99.15","","","","","","NA"
"2014-02-19 13:00","2014","02","19","13:00","6.6","","-1.1","","58","","27","","14","","24.1","","99.14","","","","","","Mostly Cloudy"
"2014-02-19 14:00","2014","02","19","14:00","5.8","","-1.4","","60","","26","","19","","24.1","","99.21","","","","","","NA"
"2014-02-19 15:00","2014","02","19","15:00","4.5","","-1.3","","66","","29","","32","","16.1","","99.38","","","","","","Rain Showers"
"2014-02-19 16:00","2014","02","19","16:00","1.5","","0.6","","94","","27","","17","","6.4","","99.59","","","","","","Rain Showers,Fog"
"2014-02-19 17:00","2014","02","19","17:00","2.5","","0.7","","88","","24","","21","","8.1","","99.80","","","","","","Fog"
"2014-02-19 18:00","2014","02","19","18:00","2.3","","-0.8","","80","","25","","18","","12.9","","100.01","","","","","","NA"
"2014-02-19 19:00","2014","02","19","19:00","1.5","","-1.9","","78","","25","","26","","24.1","","100.26","","","","","","Clear"
"2014-02-19 20:00","2014","02","19","20:00","0.7","","-2.7","","78","","24","","22","","24.1","","100.41","","","","","","NA"
"2014-02-19 21:00","2014","02","19","21:00","0.4","","-2.5","","81","","23","","21","","24.1","","100.52","","","","","","NA"
"2014-02-19 22:00","2014","02","19","22:00"
"2014-02-19 23:00","2014","02","19","23:00"
"2014-02-20 00:00","2014","02","20","00:00"
"2014-02-20 01:00","2014","02","20","01:00"
"2014-02-20 02:00","2014","02","20","02:00"
"2014-02-20 03:00","2014","02","20","03:00"
"2014-02-20 04:00","2014","02","20","04:00"
"2014-02-20 05:00","2014","02","20","05:00"
"2014-02-20 06:00","2014","02","20","06:00"
"2014-02-20 07:00","2014","02","20","07:00","-1.1","","-2.4","","91","","20","","13","","16.1","","100.82","","","","-5","","Cloudy"
"2014-02-20 08:00","2014","02","20","08:00","-0.7","","-2.4","","88","","18","","13","","16.1","","100.81","","","","-5","","NA"
"2014-02-20 09:00","2014","02","20","09:00","0.3","","-1.9","","85","","18","","9","","16.1","","100.79","","","","","","NA"
"2014-02-20 10:00","2014","02","20","10:00","1.2","","-1.5","","82","","16","","8","","19.3","","100.71","","","","","","Cloudy"
"2014-02-20 11:00","2014","02","20","11:00","1.8","","-0.9","","82","","4","","3","","19.3","","100.67","","","","","","NA"
"2014-02-20 12:00","2014","02","20","12:00","2.4","","-0.9","","79","","8","","13","","11.3","","100.52","","","","","","NA"
"2014-02-20 13:00","2014","02","20","13:00","3.4","","-0.8","","74","","36","","2","","12.9","","100.51","","","","","","Cloudy"
"2014-02-20 14:00","2014","02","20","14:00","2.1","","-0.5","","83","","5","","16","","12.9","","100.27","","","","","","NA"
"2014-02-20 15:00","2014","02","20","15:00","2.2","","-0.6","","82","","4","","13","","16.1","","100.24","","","","","","NA"
"2014-02-20 16:00","2014","02","20","16:00","2.3","","-0.3","","83","","15","","8","","6.4","","100.25","","","","","","Rain Showers,Snow Showers"
"2014-02-20 17:00","2014","02","20","17:00","0.4","","0.1","","98","","9","","15","","2.4","","100.20","","","","","","Snow Showers"
"2014-02-20 18:00","2014","02","20","18:00","0.6","","0.5","","99","","8","","21","","3.2","","100.01","","","","","","Rain Showers,Fog"
"2014-02-20 19:00","2014","02","20","19:00","0.9","","0.6","","98","","7","","21","","4.0","","99.92","","","","","","Rain,Fog"
"2014-02-20 20:00","2014","02","20","20:00","1.2","","0.8","","97","","8","","22","","9.7","","99.76","","","","","","Rain,Fog"
"2014-02-20 21:00","2014","02","20","21:00","1.2","","0.9","","98","","10","","25","","4.8","","99.58","","","","","","Rain,Fog"
"2014-02-20 22:00","2014","02","20","22:00"
"2014-02-20 23:00","2014","02","20","23:00"
"2014-02-21 00:00","2014","02","21","00:00"
"2014-02-21 01:00","2014","02","21","01:00"
"2014-02-21 02:00","2014","02","21","02:00"
"2014-02-21 03:00","2014","02","21","03:00"
"2014-02-21 04:00","2014","02","21","04:00"
"2014-02-21 05:00","2014","02","21","05:00"
"2014-02-21 06:00","2014","02","21","06:00"
"2014-02-21 07:00","2014","02","21","07:00","7.3","","6.3","","93","","20","","21","","12.9","","98.68","","","","","","Rain Showers"
"2014-02-21 08:00","2014","02","21","08:00","4.1","","3.4","","95","","24","","22","","12.9","","98.79","","","","","","Rain Showers"
"2014-02-21 09:00","2014","02","21","09:00","2.7","","0.9","","88","","25","","40","","12.9","","99.04","","","","","","Rain Showers,Ice Pellets"
"2014-02-21 10:00","2014","02","21","10:00","1.8","","0.6","","92","","25","","31","","11.3","","99.12","","","","","","Rain Showers,Snow Showers"
"2014-02-21 11:00","2014","02","21","11:00","2.5","","0.6","","87","","23","","33","","11.3","","99.10","","","","","","Rain Showers"
"2014-02-21 12:00","2014","02","21","12:00","3.5","","0.0","","78","","22","","32","","19.3","","99.11","","","","","","NA"
"2014-02-21 13:00","2014","02","21","13:00","4.8","","-1.0","","66","","23","","43","","24.1","","99.06","","","","","","Mostly Cloudy"
"2014-02-21 14:00","2014","02","21","14:00","4.7","","-1.3","","65","","22","","39","","24.1","","99.04","","","","","","NA"
"2014-02-21 15:00","2014","02","21","15:00","4.4","","-2.5","","61","","23","","58","","24.1","","99.04","","","","","","NA"
"2014-02-21 16:00","2014","02","21","16:00","4.2","","-2.9","","60","","24","","45","","24.1","","99.13","","","","","","Mainly Clear"
"2014-02-21 17:00","2014","02","21","17:00","3.8","","-3.7","","58","","24","","45","","24.1","","99.19","","","","","","NA"
"2014-02-21 18:00","2014","02","21","18:00","2.8","","-2.5","","68","","24","","43","","24.1","","99.23","","","","","","NA"
"2014-02-21 19:00","2014","02","21","19:00","2.5","","-3.8","","63","","23","","49","","24.1","","99.30","","","","","","Mainly Clear"
"2014-02-21 20:00","2014","02","21","20:00","2.6","","-3.3","","65","","24","","51","","24.1","","99.37","","","","","","NA"
"2014-02-21 21:00","2014","02","21","21:00","2.3","","-4.7","","60","","24","","46","","24.1","","99.44","","","","","","NA"
"2014-02-21 22:00","2014","02","21","22:00"
"2014-02-21 23:00","2014","02","21","23:00"
"2014-02-22 00:00","2014","02","22","00:00"
"2014-02-22 01:00","2014","02","22","01:00"
"2014-02-22 02:00","2014","02","22","02:00"
"2014-02-22 03:00","2014","02","22","03:00"
"2014-02-22 04:00","2014","02","22","04:00"
"2014-02-22 05:00","2014","02","22","05:00"
"2014-02-22 06:00","2014","02","22","06:00"
"2014-02-22 07:00","2014","02","22","07:00","3.2","","-4.1","","59","","23","","34","","24.1","","99.52","","","","","","Mostly Cloudy"
"2014-02-22 08:00","2014","02","22","08:00","3.6","","-4.4","","56","","22","","45","","24.1","","99.51","","","","","","NA"
"2014-02-22 09:00","2014","02","22","09:00","3.9","","-3.2","","60","","24","","40","","24.1","","99.61","","","","","","NA"
"2014-02-22 10:00","2014","02","22","10:00","4.2","","-4.8","","52","","24","","42","","24.1","","99.67","","","","","","Clear"
"2014-02-22 11:00","2014","02","22","11:00","3.9","","-3.9","","57","","24","","40","","24.1","","99.76","","","","","","NA"
"2014-02-22 12:00","2014","02","22","12:00","4.0","","-3.5","","58","","22","","39","","24.1","","99.82","","","","","","NA"
"2014-02-22 13:00","2014","02","22","13:00","3.7","","-4.3","","56","","23","","34","","24.1","","99.86","","","","","","Mainly Clear"
"2014-02-22 14:00","2014","02","22","14:00","3.2","","-5.2","","54","","23","","41","","24.1","","99.89","","","","","","NA"
"2014-02-22 15:00","2014","02","22","15:00","3.2","","-4.3","","58","","23","","34","","24.1","","99.93","","","","","","NA"
"2014-02-22 16:00","2014","02","22","16:00","1.9","","-5.5","","58","","22","","46","","24.1","","99.97","","","","","","Mainly Clear"
"2014-02-22 17:00","2014","02","22","17:00","1.5","","-5.2","","61","","24","","41","","24.1","","99.98","","","","","","NA"
"2014-02-22 18:00","2014","02","22","18:00","1.4","","-5.3","","61","","23","","40","","24.1","","100.01","","","","","","NA"
"2014-02-22 19:00","2014","02","22","19:00","1.5","","-5.4","","60","","23","","39","","24.1","","100.06","","","","","","Mostly Cloudy"
"2014-02-22 20:00","2014","02","22","20:00","1.7","","-5.7","","58","","23","","35","","24.1","","100.08","","","","","","NA"
"2014-02-22 21:00","2014","02","22","21:00","1.9","","-5.5","","58","","23","","36","","24.1","","100.11","","","","","","NA"
"2014-02-22 22:00","2014","02","22","22:00"
"2014-02-22 23:00","2014","02","22","23:00"
"2014-02-23 00:00","2014","02","23","00:00"
"2014-02-23 01:00","2014","02","23","01:00"
"2014-02-23 02:00","2014","02","23","02:00"
"2014-02-23 03:00","2014","02","23","03:00"
"2014-02-23 04:00","2014","02","23","04:00"
"2014-02-23 05:00","2014","02","23","05:00"
"2014-02-23 06:00","2014","02","23","06:00"
"2014-02-23 07:00","2014","02","23","07:00","-3.1","","-8.8","","65","","24","","12","","24.1","","100.31","","","","-8","","Mainly Clear"
"2014-02-23 08:00","2014","02","23","08:00","-1.4","","-9.3","","55","","26","","20","","24.1","","100.38","","","","-7","","NA"
"2014-02-23 09:00","2014","02","23","09:00","-0.6","","-8.3","","56","","25","","18","","24.1","","100.39","","","","-6","","NA"
"2014-02-23 10:00","2014","02","23","10:00","0.3","","-9.0","","50","","25","","32","","24.1","","100.40","","","","","","Mostly Cloudy"
"2014-02-23 11:00","2014","02","23","11:00","0.6","","-8.4","","51","","25","","23","","24.1","","100.37","","","","","","NA"
"2014-02-23 12:00","2014","02","23","12:00","0.5","","-9.3","","48","","26","","24","","24.1","","100.31","","","","","","NA"
"2014-02-23 13:00","2014","02","23","13:00","1.1","","-8.7","","48","","24","","23","","24.1","","100.25","","","","","","Mostly Cloudy"
"2014-02-23 14:00","2014","02","23","14:00","1.7","","-9.3","","44","","26","","31","","24.1","","100.16","","","","","","NA"
"2014-02-23 15:00","2014","02","23","15:00","1.6","","-9.1","","45","","25","","32","","24.1","","100.13","","","","","","NA"
"2014-02-23 16:00","2014","02","23","16:00","1.0","","-9.4","","46","","26","","28","","24.1","","100.15","","","","","","Mainly Clear"
"2014-02-23 17:00","2014","02","23","17:00","0.2","","-9.1","","50","","26","","28","","24.1","","100.15","","","","","","NA"
"2014-02-23 18:00","2014","02","23","18:00","-1.5","","-9.7","","54","","27","","20","","24.1","","100.21","","","","-7","","NA"
"2014-02-23 19:00","2014","02","23","19:00","-2.3","","-9.3","","59","","27","","17","","24.1","","100.28","","","","-8","","Mainly Clear"
"2014-02-23 20:00","2014","02","23","20:00","-3.6","","-8.9","","67","","25","","12","","24.1","","100.28","","","","-8","","NA"
"2014-02-23 21:00","2014","02","23","21:00","-4.1","","-9.0","","69","","27","","9","","24.1","","100.28","","","","-8","","NA"
"2014-02-23 22:00","2014","02","23","22:00"
"2014-02-23 23:00","2014","02","23","23:00"
"2014-02-24 00:00","2014","02","24","00:00"
"2014-02-24 01:00","2014","02","24","01:00"
"2014-02-24 02:00","2014","02","24","02:00"
"2014-02-24 03:00","2014","02","24","03:00"
"2014-02-24 04:00","2014","02","24","04:00"
"2014-02-24 05:00","2014","02","24","05:00"
"2014-02-24 06:00","2014","02","24","06:00"
"2014-02-24 07:00","2014","02","24","07:00","-5.7","","-8.6","","80","","26","","22","","12.9","","100.26","","","","-13","","Snow Showers"
"2014-02-24 08:00","2014","02","24","08:00","-6.2","","-10.5","","72","","30","","32","","16.1","","100.32","","","","-15","","Snow Showers,Blowing Snow"
"2014-02-24 09:00","2014","02","24","09:00","-6.3","","-12.1","","64","","30","","29","","24.1","","100.41","","","","-15","","Snow Showers,Blowing Snow"
"2014-02-24 10:00","2014","02","24","10:00","-5.5","","-11.9","","61","","29","","23","","24.1","","100.46","","","","-13","","Mostly Cloudy"
"2014-02-24 11:00","2014","02","24","11:00","-6.2","","-9.8","","76","","30","","26","","4.8","","100.48","","","","-14","","Moderate Snow Showers"
"2014-02-24 12:00","2014","02","24","12:00","-6.4","","-9.1","","81","","29","","28","","4.8","","100.51","","","","-15","","Snow Showers"
"2014-02-24 13:00","2014","02","24","13:00","-5.9","","-10.0","","73","","29","","26","","8.1","","100.48","","","","-14","","Snow Showers"
"2014-02-24 14:00","2014","02","24","14:00","-5.4","","-13.3","","54","","28","","38","","24.1","","100.48","","","","-14","","Snow Showers"
"2014-02-24 15:00","2014","02","24","15:00","-5.6","","-12.6","","58","","28","","26","","24.1","","100.53","","","","-13","","NA"
"2014-02-24 16:00","2014","02","24","16:00","-5.7","","-13.2","","56","","26","","34","","24.1","","100.59","","","","-14","","Mostly Cloudy"
"2014-02-24 17:00","2014","02","24","17:00","-5.9","","-12.9","","58","","27","","32","","24.1","","100.66","","","","-14","","NA"
"2014-02-24 18:00","2014","02","24","18:00","-6.2","","-13.4","","57","","27","","27","","24.1","","100.71","","","","-14","","NA"
"2014-02-24 19:00","2014","02","24","19:00","-6.3","","-13.7","","56","","26","","24","","24.1","","100.76","","","","-14","","Mostly Cloudy"
"2014-02-24 20:00","2014","02","24","20:00","-6.7","","-12.4","","64","","25","","24","","24.1","","100.77","","","","-14","","NA"
"2014-02-24 21:00","2014","02","24","21:00","-7.1","","-11.0","","74","","25","","19","","24.1","","100.76","","","","-14","","NA"
"2014-02-24 22:00","2014","02","24","22:00"
"2014-02-24 23:00","2014","02","24","23:00"
"2014-02-25 00:00","2014","02","25","00:00"
"2014-02-25 01:00","2014","02","25","01:00"
"2014-02-25 02:00","2014","02","25","02:00"
"2014-02-25 03:00","2014","02","25","03:00"
"2014-02-25 04:00","2014","02","25","04:00"
"2014-02-25 05:00","2014","02","25","05:00"
"2014-02-25 06:00","2014","02","25","06:00"
"2014-02-25 07:00","2014","02","25","07:00","-9.0","","-14.1","","67","","25","","18","","19.3","","100.63","","","","-16","","Snow Showers"
"2014-02-25 08:00","2014","02","25","08:00","-9.3","","-14.9","","64","","26","","23","","24.1","","100.68","","","","-18","","NA"
"2014-02-25 09:00","2014","02","25","09:00","-9.4","","-12.7","","77","","26","","24","","6.4","","100.72","","","","-18","","Snow Showers"
"2014-02-25 10:00","2014","02","25","10:00","-8.2","","-13.7","","65","","27","","18","","24.1","","100.71","","","","-15","","Cloudy"
"2014-02-25 11:00","2014","02","25","11:00","-7.2","","-13.9","","59","","25","","26","","24.1","","100.70","","","","-15","","NA"
"2014-02-25 12:00","2014","02","25","12:00","-6.8","","-13.5","","59","","25","","22","","24.1","","100.68","","","","-14","","NA"
"2014-02-25 13:00","2014","02","25","13:00","-6.1","","-13.5","","56","","25","","22","","24.1","","100.59","","","","-13","","Mostly Cloudy"
"2014-02-25 14:00","2014","02","25","14:00","-5.7","","-12.7","","58","","24","","22","","24.1","","100.54","","","","-13","","NA"
"2014-02-25 15:00","2014","02","25","15:00","-6.4","","-13.0","","60","","23","","27","","24.1","","100.53","","","","-14","","NA"
"2014-02-25 16:00","2014","02","25","16:00","-6.7","","-12.8","","62","","24","","28","","24.1","","100.46","","","","-15","","Snow Showers"
"2014-02-25 17:00","2014","02","25","17:00","-6.8","","-13.5","","59","","25","","25","","24.1","","100.42","","","","-15","","NA"
"2014-02-25 18:00","2014","02","25","18:00","-6.9","","-13.6","","59","","25","","22","","19.3","","100.42","","","","-14","","NA"
"2014-02-25 19:00","2014","02","25","19:00","-7.1","","-12.6","","65","","25","","23","","16.1","","100.39","","","","-15","","Cloudy"
"2014-02-25 20:00","2014","02","25","20:00","-7.6","","-10.5","","80","","21","","21","","19.3","","100.31","","","","-15","","NA"
"2014-02-25 21:00","2014","02","25","21:00","-7.1","","-11.3","","72","","22","","19","","19.3","","100.20","","","","-14","","NA"
"2014-02-25 22:00","2014","02","25","22:00"
"2014-02-25 23:00","2014","02","25","23:00"
"2014-02-26 00:00","2014","02","26","00:00"
"2014-02-26 01:00","2014","02","26","01:00"
"2014-02-26 02:00","2014","02","26","02:00"
"2014-02-26 03:00","2014","02","26","03:00"
"2014-02-26 04:00","2014","02","26","04:00"
"2014-02-26 05:00","2014","02","26","05:00"
"2014-02-26 06:00","2014","02","26","06:00"
"2014-02-26 07:00","2014","02","26","07:00","-13.6","","-19.8","","60","","25","","25","","24.1","","100.32","","","","-23","","Mainly Clear"
"2014-02-26 08:00","2014","02","26","08:00","-13.4","","-19.8","","59","","25","","27","","24.1","","100.39","","","","-23","","NA"
"2014-02-26 09:00","2014","02","26","09:00","-12.5","","-19.4","","57","","26","","31","","24.1","","100.48","","","","-23","","NA"
"2014-02-26 10:00","2014","02","26","10:00","-11.9","","-19.5","","54","","27","","30","","24.1","","100.47","","","","-22","","Mostly Cloudy"
"2014-02-26 11:00","2014","02","26","11:00","-11.6","","-19.6","","52","","28","","34","","19.3","","100.49","","","","-22","","NA"
"2014-02-26 12:00","2014","02","26","12:00","-11.0","","-20.3","","47","","27","","31","","24.1","","100.44","","","","-21","","NA"
"2014-02-26 13:00","2014","02","26","13:00","-10.5","","-20.3","","45","","26","","33","","24.1","","100.38","","","","-21","","Mostly Cloudy"
"2014-02-26 14:00","2014","02","26","14:00","-10.8","","-20.6","","45","","27","","27","","24.1","","100.26","","","","-20","","NA"
"2014-02-26 15:00","2014","02","26","15:00","-10.5","","-20.3","","45","","23","","40","","24.1","","100.21","","","","-21","","NA"
"2014-02-26 16:00","2014","02","26","16:00","-10.6","","-20.9","","43","","24","","33","","24.1","","100.14","","","","-21","","Mainly Clear"
"2014-02-26 17:00","2014","02","26","17:00","-11.1","","-19.4","","51","","23","","34","","24.1","","100.07","","","","-22","","NA"
"2014-02-26 18:00","2014","02","26","18:00","-11.6","","-18.1","","59","","24","","23","","24.1","","99.97","","","","-20","","NA"
"2014-02-26 19:00","2014","02","26","19:00","-11.5","","-16.5","","67","","23","","23","","24.1","","99.91","","","","-20","","Mainly Clear"
"2014-02-26 20:00","2014","02","26","20:00","-11.5","","-16.3","","68","","22","","21","","24.1","","99.79","","","","-20","","NA"
"2014-02-26 21:00","2014","02","26","21:00","-10.8","","-14.9","","72","","22","","24","","24.1","","99.65","","","","-20","","NA"
"2014-02-26 22:00","2014","02","26","22:00"
"2014-02-26 23:00","2014","02","26","23:00"
"2014-02-27 00:00","2014","02","27","00:00"
"2014-02-27 01:00","2014","02","27","01:00"
"2014-02-27 02:00","2014","02","27","02:00"
"2014-02-27 03:00","2014","02","27","03:00"
"2014-02-27 04:00","2014","02","27","04:00"
"2014-02-27 05:00","2014","02","27","05:00"
"2014-02-27 06:00","2014","02","27","06:00"
"2014-02-27 07:00","2014","02","27","07:00","-10.4","","-15.6","","66","","24","","20","","24.1","","98.78","","","","-18","","Mostly Cloudy"
"2014-02-27 08:00","2014","02","27","08:00","-9.9","","-14.0","","72","","23","","19","","24.1","","98.78","","","","-18","","NA"
"2014-02-27 09:00","2014","02","27","09:00","-8.7","","-13.4","","69","","26","","20","","24.1","","98.82","","","","-16","","NA"
"2014-02-27 10:00","2014","02","27","10:00","-8.4","","-14.7","","61","","26","","26","","24.1","","98.87","","","","-17","","Cloudy"
"2014-02-27 11:00","2014","02","27","11:00","-8.9","","-13.1","","72","","30","","39","","6.4","","98.95","","","","-19","","Snow Showers,Blowing Snow"
"2014-02-27 12:00","2014","02","27","12:00","-10.9","","-17.4","","59","","31","","37","","19.3","","99.27","","","","-22","","Snow Showers"
"2014-02-27 13:00","2014","02","27","13:00","-9.8","","-19.4","","46","","29","","47","","19.3","","99.46","","","","-21","","Mostly Cloudy"
"2014-02-27 14:00","2014","02","27","14:00","-10.7","","-21.6","","41","","28","","37","","19.3","","99.65","","","","-21","","NA"
"2014-02-27 15:00","2014","02","27","15:00","-12.3","","-19.6","","55","","28","","41","","24.1","","99.86","","","","-24","","NA"
"2014-02-27 16:00","2014","02","27","16:00","-12.4","","-21.1","","49","","28","","46","","24.1","","100.00","","","","-25","","Mostly Cloudy"
"2014-02-27 17:00","2014","02","27","17:00","-12.4","","-21.6","","47","","29","","48","","19.3","","100.16","","","","-25","","NA"
"2014-02-27 18:00","2014","02","27","18:00","-12.5","","-21.4","","48","","29","","42","","24.1","","100.37","","","","-24","","NA"
"2014-02-27 19:00","2014","02","27","19:00","-12.8","","-21.7","","48","","29","","38","","24.1","","100.51","","","","-24","","Mostly Cloudy"
"2014-02-27 20:00","2014","02","27","20:00","-13.1","","-22.2","","47","","29","","37","","24.1","","100.64","","","","-25","","NA"
"2014-02-27 21:00","2014","02","27","21:00","-13.4","","-21.3","","52","","30","","32","","24.1","","100.74","","","","-24","","NA"
"2014-02-27 22:00","2014","02","27","22:00"
"2014-02-27 23:00","2014","02","27","23:00"
"2014-02-28 00:00","2014","02","28","00:00"
"2014-02-28 01:00","2014","02","28","01:00"
"2014-02-28 02:00","2014","02","28","02:00"
"2014-02-28 03:00","2014","02","28","03:00"
"2014-02-28 04:00","2014","02","28","04:00"
"2014-02-28 05:00","2014","02","28","05:00"
"2014-02-28 06:00","2014","02","28","06:00"
"2014-02-28 07:00","2014","02","28","07:00","-16.6","","-20.2","","74","","24","","16","","24.1","","101.53","","","","-25","","Mainly Clear"
"2014-02-28 08:00","2014","02","28","08:00","-15.3","","-19.6","","70","","24","","17","","24.1","","101.62","","","","-24","","NA"
"2014-02-28 09:00","2014","02","28","09:00","-13.7","","-19.0","","65","","23","","20","","24.1","","101.72","","","","-23","","NA"
"2014-02-28 10:00","2014","02","28","10:00","-13.2","","-22.3","","47","","23","","15","","24.1","","101.76","","","","-21","","Mainly Clear"
"2014-02-28 11:00","2014","02","28","11:00","-12.2","","-21.9","","45","","","","","M","24.1","","101.79","","","","","","NA"
"2014-02-28 12:00","2014","02","28","12:00","-11.5","","-21.0","","46","","24","","12","","24.1","","101.78","","","","-18","","NA"
"2014-02-28 13:00","2014","02","28","13:00","-10.9","","-21.2","","43","","16","","12","","24.1","","101.73","","","","-17","","Mainly Clear"
"2014-02-28 14:00","2014","02","28","14:00","-10.8","","-22.0","","40","","23","","6","","24.1","","101.65","","","","-14","","NA"
"2014-02-28 15:00","2014","02","28","15:00","-10.1","","-21.9","","38","","18","","17","","24.1","","101.56","","","","-17","","NA"
"2014-02-28 16:00","2014","02","28","16:00","-9.9","","-23.7","","32","","17","","9","","24.1","","101.54","","","","-15","","Clear"
"2014-02-28 17:00","2014","02","28","17:00","-9.8","","-26.4","","25","","18","","7","","24.1","","101.48","","","","-14","","NA"
"2014-02-28 18:00","2014","02","28","18:00","-10.4","","-26.5","","26","","36","","3","","24.1","","101.48","","","","-12","","NA"
"2014-02-28 19:00","2014","02","28","19:00","-10.8","","-23.2","","36","","10","","5","","24.1","","101.41","","","","-14","","Mainly Clear"
"2014-02-28 20:00","2014","02","28","20:00","-11.7","","-19.5","","53","","36","","6","","24.1","","101.42","","","","-15","","NA"
"2014-02-28 21:00","2014","02","28","21:00","-11.1","","-19.4","","51","","11","","9","","24.1","","101.38","","","","-16","","NA"
"2014-02-28 22:00","2014","02","28","22:00"
"2014-02-28 23:00","2014","02","28","23:00"
