"Station Name","ST. CATHARINES / NIAGARA DISTRICT A"
"Province","ONTARIO"
"Latitude","43.19"
"Longitude","-79.17"
"Elevation","97.80"
"Climate Identifier","6137286"
"WMO Identifier",""
"TC Identifier","YSN"
"All times are specified in Local Standard Time (LST). Add 1 hour to adjust for Daylight Saving Time where and when it is observed."

"Legend"
"E","Estimated"
"M","Missing"
"NA","Not Available"

"Date/Time","Year","Month","Day","Time","Temp (°C)","Temp Flag","Dew Point Temp (°C)","Dew Point Temp Flag","Rel Hum (%)","Rel Hum Flag","Wind Dir (10s deg)","Wind Dir Flag","Wind Spd (km/h)","Wind Spd Flag","Visibility (km)","Visibility Flag","Stn Press (kPa)","Stn Press Flag","Hmdx","Hmdx Flag","Wind Chill","Wind Chill Flag","Weather"
"2017-11-01 00:00","2017","11","01","00:00"
"2017-11-01 01:00","2017","11","01","01:00"
"2017-11-01 02:00","2017","11","01","02:00"
"2017-11-01 03:00","2017","11","01","03:00"
"2017-11-01 04:00","2017","11","01","04:00"
"2017-11-01 05:00","2017","11","01","05:00"
"2017-11-01 06:00","2017","11","01","06:00","4.0","","0.7","","79","","18","","7","","24.1","","101.01","","","","","","NA"
"2017-11-01 07:00","2017","11","01","07:00","3.8","","0.9","","81","","36","","1","","24.1","","101.04","","","","","","Cloudy"
"2017-11-01 08:00","2017","11","01","08:00","4.3","","1.5","","82","","15","","8","","24.1","","101.12","","","","","","NA"
"2017-11-01 09:00","2017","11","01","09:00","6.2","","1.5","","72","","12","","5","","24.1","","101.11","","","","","","NA"
"2017-11-01 10:00","2017","11","01","10:00","6.6","","0.5","","65","","16","","16","","24.1","","101.08","","","","","","Cloudy"
"2017-11-01 11:00","2017","11","01","11:00","8.0","","2.0","","66","","16","","11","","24.1","","101.04","","","","","","NA"
"2017-11-01 12:00","2017","11","01","12:00","8.2","","3.1","","70","","17","","14","","24.1","","100.92","","","","","","NA"
"2017-11-01 13:00","2017","11","01","13:00","8.8","","4.0","","72","","17","","16","","24.1","","100.86","","","","","","Cloudy"
"2017-11-01 14:00","2017","11","01","14:00","7.7","","3.7","","76","","17","","18","","24.1","","100.85","","","","","","NA"
"2017-11-01 15:00","2017","11","01","15:00","7.2","","3.7","","78","","17","","13","","24.1","","100.84","","","","","","NA"
"2017-11-01 16:00","2017","11","01","16:00","7.3","","3.9","","79","","17","","9","","24.1","","100.84","","","","","","Cloudy"
"2017-11-01 17:00","2017","11","01","17:00","7.2","","4.0","","80","","15","","11","","24.1","","100.82","","","","","","NA"
"2017-11-01 18:00","2017","11","01","18:00","7.0","","3.9","","81","","11","","8","","24.1","","100.79","","","","","","NA"
"2017-11-01 19:00","2017","11","01","19:00","6.8","","3.6","","80","","13","","8","","24.1","","100.77","","","","","","Cloudy"
"2017-11-01 20:00","2017","11","01","20:00","6.2","","3.4","","83","","14","","6","","24.1","","100.81","","","","","","NA"
"2017-11-01 21:00","2017","11","01","21:00"
"2017-11-01 22:00","2017","11","01","22:00"
"2017-11-01 23:00","2017","11","01","23:00"
"2017-11-02 00:00","2017","11","02","00:00"
"2017-11-02 01:00","2017","11","02","01:00"
"2017-11-02 02:00","2017","11","02","02:00"
"2017-11-02 03:00","2017","11","02","03:00"
"2017-11-02 04:00","2017","11","02","04:00"
"2017-11-02 05:00","2017","11","02","05:00"
"2017-11-02 06:00","2017","11","02","06:00","13.7","","12.6","","93","","21","","28","","24.1","","100.26","","","","","","Rain"
"2017-11-02 07:00","2017","11","02","07:00","14.0","","12.7","","91","","21","","27","","24.1","","100.30","","","","","","Rain"
"2017-11-02 08:00","2017","11","02","08:00","14.2","","13.0","","92","","21","","27","","19.3","","100.35","","","","","","Rain"
"2017-11-02 09:00","2017","11","02","09:00","14.6","","12.9","","90","","21","","23","","19.3","","100.38","","","","","","Rain"
"2017-11-02 10:00","2017","11","02","10:00","15.7","","12.7","","82","","21","","28","","24.1","","100.40","","","","","","Cloudy"
"2017-11-02 11:00","2017","11","02","11:00","16.0","","12.4","","79","","21","","30","","24.1","","100.43","","","","","","NA"
"2017-11-02 12:00","2017","11","02","12:00","16.3","","12.6","","78","","21","","25","","24.1","","100.36","","","","","","NA"
"2017-11-02 13:00","2017","11","02","13:00","16.7","","12.5","","76","","21","","24","","24.1","","100.35","","","","","","Cloudy"
"2017-11-02 14:00","2017","11","02","14:00","16.7","","12.5","","76","","22","","26","","24.1","","100.37","","","","","","NA"
"2017-11-02 15:00","2017","11","02","15:00","16.9","","13.0","","77","","20","","24","","24.1","","100.32","","","","","","NA"
"2017-11-02 16:00","2017","11","02","16:00","16.8","","12.9","","77","","20","","18","","24.1","","100.34","","","","","","Cloudy"
"2017-11-02 17:00","2017","11","02","17:00","16.6","","12.7","","77","","20","","23","","24.1","","100.32","","","","","","NA"
"2017-11-02 18:00","2017","11","02","18:00","16.6","","12.6","","77","","19","","27","","24.1","","100.30","","","","","","NA"
"2017-11-02 19:00","2017","11","02","19:00","16.7","","12.6","","77","","19","","25","","24.1","","100.29","","","","","","Cloudy"
"2017-11-02 20:00","2017","11","02","20:00","17.0","","12.8","","76","","20","","23","","24.1","","100.26","","","","","","NA"
"2017-11-02 21:00","2017","11","02","21:00"
"2017-11-02 22:00","2017","11","02","22:00"
"2017-11-02 23:00","2017","11","02","23:00"
"2017-11-03 00:00","2017","11","03","00:00"
"2017-11-03 01:00","2017","11","03","01:00"
"2017-11-03 02:00","2017","11","03","02:00"
"2017-11-03 03:00","2017","11","03","03:00"
"2017-11-03 04:00","2017","11","03","04:00"
"2017-11-03 05:00","2017","11","03","05:00"
"2017-11-03 06:00","2017","11","03","06:00","9.9","","9.1","","94","","34","","16","","9.7","","100.53","","","","","","Rain Showers"
"2017-11-03 07:00","2017","11","03","07:00","9.4","","8.5","","94","","34","","6","","16.1","","100.58","","","","","","Cloudy"
"2017-11-03 08:00","2017","11","03","08:00","9.7","","8.6","","93","","30","","10","","24.1","","100.74","","","","","","NA"
"2017-11-03 09:00","2017","11","03","09:00","10.6","","7.9","","84","","31","","19","","24.1","","100.83","","","","","","NA"
"2017-11-03 10:00","2017","11","03","10:00","10.5","","6.8","","78","","29","","23","","24.1","","100.91","","","","","","Mostly Cloudy"
"2017-11-03 11:00","2017","11","03","11:00","11.3","","6.9","","74","","30","","18","","24.1","","100.98","","","","","","NA"
"2017-11-03 12:00","2017","11","03","12:00","10.5","","6.2","","75","","31","","18","","24.1","","100.99","","","","","","NA"
"2017-11-03 13:00","2017","11","03","13:00","10.9","","3.8","","61","","30","","19","","24.1","","101.06","","","","","","Mostly Cloudy"
"2017-11-03 14:00","2017","11","03","14:00","11.2","","3.6","","60","","31","","22","","24.1","","101.14","","","","","","NA"
"2017-11-03 15:00","2017","11","03","15:00","10.9","","2.7","","57","","30","","15","","24.1","","101.23","","","","","","NA"
"2017-11-03 16:00","2017","11","03","16:00","9.7","","2.5","","61","","31","","16","","24.1","","101.30","","","","","","Mostly Cloudy"
"2017-11-03 17:00","2017","11","03","17:00","7.8","","1.9","","66","","31","","18","","24.1","","101.40","","","","","","NA"
"2017-11-03 18:00","2017","11","03","18:00","7.1","","1.6","","68","","32","","18","","24.1","","101.47","","","","","","NA"
"2017-11-03 19:00","2017","11","03","19:00","6.0","","1.3","","71","","32","","13","","24.1","","101.51","","","","","","Mainly Clear"
"2017-11-03 20:00","2017","11","03","20:00","5.8","","0.7","","70","","35","","10","","24.1","","101.57","","","","","","NA"
"2017-11-03 21:00","2017","11","03","21:00"
"2017-11-03 22:00","2017","11","03","22:00"
"2017-11-03 23:00","2017","11","03","23:00"
"2017-11-04 00:00","2017","11","04","00:00"
"2017-11-04 01:00","2017","11","04","01:00"
"2017-11-04 02:00","2017","11","04","02:00"
"2017-11-04 03:00","2017","11","04","03:00"
"2017-11-04 04:00","2017","11","04","04:00"
"2017-11-04 05:00","2017","11","04","05:00"
"2017-11-04 06:00","2017","11","04","06:00","0.5","","-0.7","","91","","9","","7","","24.1","","101.58","","","","","","NA"
"2017-11-04 07:00","2017","11","04","07:00","2.2","","1.0","","91","","10","","10","","24.1","","101.52","","","","","","Cloudy"
"2017-11-04 08:00","2017","11","04","08:00","3.9","","2.1","","88","","7","","7","","24.1","","101.56","","","","","","NA"
"2017-11-04 09:00","2017","11","04","09:00","5.5","","2.2","","79","","9","","15","","24.1","","101.55","","","","","","NA"
"2017-11-04 10:00","2017","11","04","10:00","6.9","","2.6","","74","","8","","14","","24.1","","101.50","","","","","","Cloudy"
"2017-11-04 11:00","2017","11","04","11:00","7.9","","2.5","","69","","7","","25","","24.1","","101.44","","","","","","NA"
"2017-11-04 12:00","2017","11","04","12:00","8.6","","3.5","","70","","10","","23","","24.1","","101.37","","","","","","NA"
"2017-11-04 13:00","2017","11","04","13:00","8.7","","2.5","","65","","9","","28","","24.1","","101.24","","","","","","Cloudy"
"2017-11-04 14:00","2017","11","04","14:00","8.4","","2.0","","64","","9","","28","","24.1","","101.13","","","","","","NA"
"2017-11-04 15:00","2017","11","04","15:00","8.6","","2.5","","65","","8","","28","","24.1","","101.05","","","","","","NA"
"2017-11-04 16:00","2017","11","04","16:00","7.6","","2.7","","71","","8","","29","","24.1","","101.00","","","","","","Mostly Cloudy"
"2017-11-04 17:00","2017","11","04","17:00","6.4","","2.1","","74","","7","","21","","24.1","","100.98","","","","","","NA"
"2017-11-04 18:00","2017","11","04","18:00","6.9","","2.3","","73","","7","","17","","24.1","","100.95","","","","","","NA"
"2017-11-04 19:00","2017","11","04","19:00","7.0","","2.3","","72","","8","","17","","24.1","","100.89","","","","","","Cloudy"
"2017-11-04 20:00","2017","11","04","20:00","7.0","","1.9","","70","","10","","34","","24.1","","100.70","","","","","","NA"
"2017-11-04 21:00","2017","11","04","21:00"
"2017-11-04 22:00","2017","11","04","22:00"
"2017-11-04 23:00","2017","11","04","23:00"
"2017-11-05 00:00","2017","11","05","00:00"
"2017-11-05 01:00","2017","11","05","01:00"
"2017-11-05 02:00","2017","11","05","02:00"
"2017-11-05 03:00","2017","11","05","03:00"
"2017-11-05 04:00","2017","11","05","04:00"
"2017-11-05 05:00","2017","11","05","05:00"
"2017-11-05 06:00","2017","11","05","06:00"
"2017-11-05 07:00","2017","11","05","07:00","11.8","","10.2","","90","","17","","27","","24.1","","100.03","","","","","","Cloudy"
"2017-11-05 08:00","2017","11","05","08:00","12.6","","10.4","","87","","17","","26","","24.1","","99.96","","","","","","NA"
"2017-11-05 09:00","2017","11","05","09:00","12.7","","11.1","","90","","19","","30","","12.9","","99.98","","","","","","NA"
"2017-11-05 10:00","2017","11","05","10:00","13.8","","12.0","","89","","19","","34","","24.1","","99.88","","","","","","Cloudy"
"2017-11-05 11:00","2017","11","05","11:00","13.8","","12.6","","92","","18","","39","","8.1","","99.81","","","","","","Fog"
"2017-11-05 12:00","2017","11","05","12:00","14.1","","12.5","","90","","18","","33","","8.1","","99.77","","","","","","Rain,Fog"
"2017-11-05 13:00","2017","11","05","13:00","15.7","","13.4","","86","","19","","35","","19.3","","99.72","","","","","","Cloudy"
"2017-11-05 14:00","2017","11","05","14:00","16.4","","13.4","","83","","19","","35","","24.1","","99.66","","","","","","NA"
"2017-11-05 15:00","2017","11","05","15:00","16.2","","13.4","","83","","19","","32","","16.1","","99.67","","","","","","Rain Showers"
"2017-11-05 16:00","2017","11","05","16:00","16.3","","13.7","","84","","19","","30","","12.9","","99.55","","","","","","Rain Showers"
"2017-11-05 17:00","2017","11","05","17:00","15.9","","14.2","","90","","19","","33","","19.3","","99.59","","","","","","Rain"
"2017-11-05 18:00","2017","11","05","18:00","15.8","","14.8","","93","","18","","43","","12.9","","99.45","","","","","","Rain"
"2017-11-05 19:00","2017","11","05","19:00","15.9","","14.8","","94","","19","","21","","16.1","","99.45","","","","","","Rain"
"2017-11-05 20:00","2017","11","05","20:00","16.4","","15.1","","92","","20","","24","","24.1","","99.45","","","","","","Rain"
"2017-11-05 21:00","2017","11","05","21:00","16.1","","14.4","","89","","21","","27","","24.1","","99.50","","","","","","Rain"
"2017-11-05 22:00","2017","11","05","22:00"
"2017-11-05 23:00","2017","11","05","23:00"
"2017-11-06 00:00","2017","11","06","00:00"
"2017-11-06 01:00","2017","11","06","01:00"
"2017-11-06 02:00","2017","11","06","02:00"
"2017-11-06 03:00","2017","11","06","03:00"
"2017-11-06 04:00","2017","11","06","04:00"
"2017-11-06 05:00","2017","11","06","05:00"
"2017-11-06 06:00","2017","11","06","06:00"
"2017-11-06 07:00","2017","11","06","07:00","7.8","","5.5","","85","","34","","18","","24.1","","100.25","","","","","","Cloudy"
"2017-11-06 08:00","2017","11","06","08:00","7.7","","4.6","","81","","33","","25","","24.1","","100.39","","","","","","NA"
"2017-11-06 09:00","2017","11","06","09:00","7.4","","3.0","","73","","31","","23","","24.1","","100.49","","","","","","NA"
"2017-11-06 10:00","2017","11","06","10:00","7.4","","1.8","","67","","32","","25","","24.1","","100.59","","","","","","Mostly Cloudy"
"2017-11-06 11:00","2017","11","06","11:00","7.9","","1.8","","65","","33","","19","","24.1","","100.65","","","","","","NA"
"2017-11-06 12:00","2017","11","06","12:00","8.6","","1.6","","61","","32","","23","","24.1","","100.70","","","","","","NA"
"2017-11-06 13:00","2017","11","06","13:00","8.5","","2.3","","65","","32","","18","","24.1","","100.81","","","","","","Mostly Cloudy"
"2017-11-06 14:00","2017","11","06","14:00","9.7","","1.7","","57","","33","","18","","24.1","","100.84","","","","","","NA"
"2017-11-06 15:00","2017","11","06","15:00","7.9","","0.6","","60","","35","","13","","24.1","","100.89","","","","","","NA"
"2017-11-06 16:00","2017","11","06","16:00","7.4","","0.4","","61","","35","","12","","24.1","","100.97","","","","","","Mostly Cloudy"
"2017-11-06 17:00","2017","11","06","17:00","6.7","","-0.1","","62","","35","","11","","24.1","","101.04","","","","","","NA"
"2017-11-06 18:00","2017","11","06","18:00","6.4","","-0.4","","62","","35","","16","","24.1","","101.13","","","","","","NA"
"2017-11-06 19:00","2017","11","06","19:00","5.9","","-0.5","","64","","35","","11","","24.1","","101.24","","","","","","Cloudy"
"2017-11-06 20:00","2017","11","06","20:00","5.6","","-1.2","","62","","35","","11","","24.1","","101.24","","","","","","NA"
"2017-11-06 21:00","2017","11","06","21:00","5.2","","-1.8","","61","","35","","10","","24.1","","101.24","","","","","","NA"
"2017-11-06 22:00","2017","11","06","22:00"
"2017-11-06 23:00","2017","11","06","23:00"
"2017-11-07 00:00","2017","11","07","00:00"
"2017-11-07 01:00","2017","11","07","01:00"
"2017-11-07 02:00","2017","11","07","02:00"
"2017-11-07 03:00","2017","11","07","03:00"
"2017-11-07 04:00","2017","11","07","04:00"
"2017-11-07 05:00","2017","11","07","05:00"
"2017-11-07 06:00","2017","11","07","06:00"
"2017-11-07 07:00","2017","11","07","07:00","2.7","","0.3","","84","","20","","4","","24.1","","101.42","","","","","","Cloudy"
"2017-11-07 08:00","2017","11","07","08:00","3.2","","0.7","","83","","17","","7","","24.1","","101.43","","","","","","NA"
"2017-11-07 09:00","2017","11","07","09:00","4.9","","0.6","","74","","15","","6","","24.1","","101.41","","","","","","NA"
"2017-11-07 10:00","2017","11","07","10:00","6.0","","-0.4","","63","","11","","8","","24.1","","101.39","","","","","","Cloudy"
"2017-11-07 11:00","2017","11","07","11:00","6.9","","0.8","","65","","7","","8","","24.1","","101.33","","","","","","NA"
"2017-11-07 12:00","2017","11","07","12:00","6.6","","-0.2","","62","","10","","9","","24.1","","101.28","","","","","","NA"
"2017-11-07 13:00","2017","11","07","13:00","6.9","","0.0","","61","","8","","5","","24.1","","101.23","","","","","","Mostly Cloudy"
"2017-11-07 14:00","2017","11","07","14:00","6.6","","-0.9","","59","","4","","7","","24.1","","101.20","","","","","","NA"
"2017-11-07 15:00","2017","11","07","15:00","6.3","","-0.6","","61","","9","","8","","24.1","","101.19","","","","","","NA"
"2017-11-07 16:00","2017","11","07","16:00","6.2","","-0.6","","61","","4","","8","","24.1","","101.19","","","","","","Mostly Cloudy"
"2017-11-07 17:00","2017","11","07","17:00","4.8","","-0.8","","67","","10","","6","","24.1","","101.24","","","","","","NA"
"2017-11-07 18:00","2017","11","07","18:00","2.8","","-0.7","","78","","36","","3","","24.1","","101.29","","","","","","NA"
"2017-11-07 19:00","2017","11","07","19:00","1.8","","-1.3","","80","","17","","7","","24.1","","101.29","","","","","","Mostly Cloudy"
"2017-11-07 20:00","2017","11","07","20:00","1.6","","-0.8","","84","","18","","3","","24.1","","101.32","","","","","","NA"
"2017-11-07 21:00","2017","11","07","21:00","0.4","","-2.3","","83","","15","","5","","24.1","","101.32","","","","","","NA"
"2017-11-07 22:00","2017","11","07","22:00"
"2017-11-07 23:00","2017","11","07","23:00"
"2017-11-08 00:00","2017","11","08","00:00"
"2017-11-08 01:00","2017","11","08","01:00"
"2017-11-08 02:00","2017","11","08","02:00"
"2017-11-08 03:00","2017","11","08","03:00"
"2017-11-08 04:00","2017","11","08","04:00"
"2017-11-08 05:00","2017","11","08","05:00"
"2017-11-08 06:00","2017","11","08","06:00"
"2017-11-08 07:00","2017","11","08","07:00","-0.5","","-1.8","","91","","20","","9","","24.1","","101.43","","","","-4","","Mostly Cloudy"
"2017-11-08 08:00","2017","11","08","08:00","0.5","","-1.2","","88","","21","","6","","24.1","","101.47","","","","","","NA"
"2017-11-08 09:00","2017","11","08","09:00","3.6","","1.0","","83","","22","","7","","24.1","","101.49","","","","","","NA"
"2017-11-08 10:00","2017","11","08","10:00","6.4","","-0.9","","59","","26","","8","","24.1","","101.47","","","","","","Mainly Clear"
"2017-11-08 11:00","2017","11","08","11:00","7.4","","-2.8","","48","","26","","11","","24.1","","101.43","","","","","","NA"
"2017-11-08 12:00","2017","11","08","12:00"
"2017-11-08 13:00","2017","11","08","13:00"
"2017-11-08 14:00","2017","11","08","14:00","8.8","","-3.5","","42","","26","","22","","24.1","","101.19","","","","","","NA"
"2017-11-08 15:00","2017","11","08","15:00","8.9","","-3.1","","43","","25","","17","","24.1","","101.17","","","","","","NA"
"2017-11-08 16:00","2017","11","08","16:00","7.9","","-3.0","","46","","22","","15","","24.1","","101.14","","","","","","Clear"
"2017-11-08 17:00","2017","11","08","17:00","4.3","","-2.7","","61","","20","","13","","24.1","","101.14","","","","","","NA"
"2017-11-08 18:00","2017","11","08","18:00","3.1","","-2.0","","69","","19","","10","","24.1","","101.17","","","","","","NA"
"2017-11-08 19:00","2017","11","08","19:00","2.2","","-1.4","","77","","19","","11","","24.1","","101.16","","","","","","Mainly Clear"
"2017-11-08 20:00","2017","11","08","20:00","0.9","","-1.8","","82","","21","","10","","24.1","","101.14","","","","","","NA"
"2017-11-08 21:00","2017","11","08","21:00","2.5","","-1.7","","74","","22","","12","","24.1","","101.11","","","","","","NA"
"2017-11-08 22:00","2017","11","08","22:00"
"2017-11-08 23:00","2017","11","08","23:00"
"2017-11-09 00:00","2017","11","09","00:00"
"2017-11-09 01:00","2017","11","09","01:00"
"2017-11-09 02:00","2017","11","09","02:00"
"2017-11-09 03:00","2017","11","09","03:00"
"2017-11-09 04:00","2017","11","09","04:00"
"2017-11-09 05:00","2017","11","09","05:00"
"2017-11-09 06:00","2017","11","09","06:00"
"2017-11-09 07:00","2017","11","09","07:00","3.9","","-0.3","","74","","24","","7","","24.1","","100.76","","","","","","Cloudy"
"2017-11-09 08:00","2017","11","09","08:00","4.0","","0.3","","77","","23","","7","","24.1","","100.72","","","","","","NA"
"2017-11-09 09:00","2017","11","09","09:00","5.0","","0.9","","75","","22","","7","","24.1","","100.69","","","","","","NA"
"2017-11-09 10:00","2017","11","09","10:00","5.5","","1.2","","74","","20","","12","","24.1","","100.59","","","","","","Cloudy"
"2017-11-09 11:00","2017","11","09","11:00","6.3","","1.4","","71","","20","","12","","24.1","","100.50","","","","","","NA"
"2017-11-09 12:00","2017","11","09","12:00","7.6","","0.7","","61","","24","","17","","24.1","","100.36","","","","","","NA"
"2017-11-09 13:00","2017","11","09","13:00","8.6","","2.4","","65","","22","","18","","24.1","","100.19","","","","","","Cloudy"
"2017-11-09 14:00","2017","11","09","14:00","9.1","","3.2","","67","","21","","22","","24.1","","100.06","","","","","","NA"
"2017-11-09 15:00","2017","11","09","15:00","9.4","","3.3","","65","","23","","31","","24.1","","100.02","","","","","","NA"
"2017-11-09 16:00","2017","11","09","16:00","9.1","","1.9","","60","","23","","41","","24.1","","99.98","","","","","","Cloudy"
"2017-11-09 17:00","2017","11","09","17:00","8.1","","2.5","","68","","24","","24","","24.1","","99.97","","","","","","NA"
"2017-11-09 18:00","2017","11","09","18:00","8.3","","0.6","","58","","24","","31","","24.1","","99.95","","","","","","NA"
"2017-11-09 19:00","2017","11","09","19:00","5.0","","1.8","","80","","28","","39","","24.1","","100.07","","","","","","Rain"
"2017-11-09 20:00","2017","11","09","20:00","3.3","","0.6","","82","","29","","38","","24.1","","100.18","","","","","","Rain"
"2017-11-09 21:00","2017","11","09","21:00","2.3","","-1.3","","77","","29","","31","","19.3","","100.35","","","","","","Snow"
"2017-11-09 22:00","2017","11","09","22:00"
"2017-11-09 23:00","2017","11","09","23:00"
"2017-11-10 00:00","2017","11","10","00:00"
"2017-11-10 01:00","2017","11","10","01:00"
"2017-11-10 02:00","2017","11","10","02:00"
"2017-11-10 03:00","2017","11","10","03:00"
"2017-11-10 04:00","2017","11","10","04:00"
"2017-11-10 05:00","2017","11","10","05:00"
"2017-11-10 06:00","2017","11","10","06:00"
"2017-11-10 07:00","2017","11","10","07:00","-6.2","","-14.7","","51","","32","","33","","24.1","","101.74","","","","-15","","Mainly Clear"
"2017-11-10 08:00","2017","11","10","08:00","-6.1","","-13.8","","55","","32","","25","","24.1","","101.89","","","","-14","","NA"
"2017-11-10 09:00","2017","11","10","09:00","-6.5","","-11.7","","66","","1","","22","","24.1","","102.05","","","","-14","","Snow Showers"
"2017-11-10 10:00","2017","11","10","10:00","-5.5","","-13.7","","53","","32","","29","","24.1","","102.18","","","","-14","","Mostly Cloudy"
"2017-11-10 11:00","2017","11","10","11:00","-5.7","","-14.2","","51","","34","","33","","24.1","","102.28","","","","-14","","NA"
"2017-11-10 12:00","2017","11","10","12:00","-4.9","","-14.1","","49","","34","","24","","24.1","","102.30","","","","-12","","NA"
"2017-11-10 13:00","2017","11","10","13:00","-4.5","","-15.4","","43","","33","","25","","24.1","","102.27","","","","-12","","Mainly Clear"
"2017-11-10 14:00","2017","11","10","14:00","-4.0","","-14.7","","44","","33","","23","","24.1","","102.28","","","","-11","","NA"
"2017-11-10 15:00","2017","11","10","15:00","-4.2","","-12.6","","52","","33","","18","","24.1","","102.30","","","","-10","","NA"
"2017-11-10 16:00","2017","11","10","16:00","-4.0","","-12.7","","51","","33","","15","","24.1","","102.33","","","","-9","","Mainly Clear"
"2017-11-10 17:00","2017","11","10","17:00","-4.4","","-12.1","","55","","31","","16","","24.1","","102.35","","","","-10","","NA"
"2017-11-10 18:00","2017","11","10","18:00","-4.4","","-12.3","","54","","29","","12","","24.1","","102.40","","","","-9","","NA"
"2017-11-10 19:00","2017","11","10","19:00","-4.5","","-11.5","","58","","33","","15","","24.1","","102.42","","","","-10","","Mainly Clear"
"2017-11-10 20:00","2017","11","10","20:00","-4.5","","-10.6","","63","","30","","12","","24.1","","102.45","","","","-9","","NA"
"2017-11-10 21:00","2017","11","10","21:00","-4.9","","-11.1","","62","","31","","15","","24.1","","102.44","","","","-10","","NA"
"2017-11-10 22:00","2017","11","10","22:00"
"2017-11-10 23:00","2017","11","10","23:00"
"2017-11-11 00:00","2017","11","11","00:00"
"2017-11-11 01:00","2017","11","11","01:00"
"2017-11-11 02:00","2017","11","11","02:00"
"2017-11-11 03:00","2017","11","11","03:00"
"2017-11-11 04:00","2017","11","11","04:00"
"2017-11-11 05:00","2017","11","11","05:00"
"2017-11-11 06:00","2017","11","11","06:00"
"2017-11-11 07:00","2017","11","11","07:00","-7.5","","-10.6","","79","","18","","6","","24.1","","102.49","","","","-11","","Mostly Cloudy"
"2017-11-11 08:00","2017","11","11","08:00","-5.2","","-8.2","","80","","15","","5","","24.1","","102.52","","","","-7","","NA"
"2017-11-11 09:00","2017","11","11","09:00","-2.5","","-8.1","","65","","14","","9","","24.1","","102.56","","","","-6","","NA"
"2017-11-11 10:00","2017","11","11","10:00","-1.3","","-9.7","","53","","13","","24","","24.1","","102.46","","","","-7","","Mostly Cloudy"
"2017-11-11 11:00","2017","11","11","11:00","-0.4","","-10.0","","49","","13","","21","","24.1","","102.39","","","","-6","","NA"
"2017-11-11 12:00","2017","11","11","12:00","0.6","","-9.3","","48","","12","","17","","24.1","","102.24","","","","","","NA"
"2017-11-11 13:00","2017","11","11","13:00","1.5","","-9.8","","43","","11","","19","","24.1","","102.13","","","","","","Mostly Cloudy"
"2017-11-11 14:00","2017","11","11","14:00","1.1","","-9.8","","44","","12","","10","","24.1","","102.06","","","","","","NA"
"2017-11-11 15:00","2017","11","11","15:00","1.4","","-10.3","","42","","11","","14","","24.1","","101.97","","","","","","NA"
"2017-11-11 16:00","2017","11","11","16:00","0.6","","-10.0","","45","","9","","10","","24.1","","101.92","","","","","","Mostly Cloudy"
"2017-11-11 17:00","2017","11","11","17:00","-1.3","","-8.6","","58","","7","","11","","24.1","","101.87","","","","-5","","NA"
"2017-11-11 18:00","2017","11","11","18:00","-1.6","","-8.7","","59","","9","","11","","24.1","","101.81","","","","-5","","NA"
"2017-11-11 19:00","2017","11","11","19:00","-1.2","","-9.2","","55","","8","","15","","24.1","","101.78","","","","-6","","Cloudy"
"2017-11-11 20:00","2017","11","11","20:00","-1.5","","-8.5","","59","","6","","4","","24.1","","101.77","","","","-3","","NA"
"2017-11-11 21:00","2017","11","11","21:00","-2.0","","-7.8","","65","","7","","7","","24.1","","101.69","","","","-5","","NA"
"2017-11-11 22:00","2017","11","11","22:00"
"2017-11-11 23:00","2017","11","11","23:00"
"2017-11-12 00:00","2017","11","12","00:00"
"2017-11-12 01:00","2017","11","12","01:00"
"2017-11-12 02:00","2017","11","12","02:00"
"2017-11-12 03:00","2017","11","12","03:00"
"2017-11-12 04:00","2017","11","12","04:00"
"2017-11-12 05:00","2017","11","12","05:00"
"2017-11-12 06:00","2017","11","12","06:00"
"2017-11-12 07:00","2017","11","12","07:00","2.0","","-3.6","","66","","16","","8","","24.1","","101.62","","","","","","Cloudy"
"2017-11-12 08:00","2017","11","12","08:00","3.0","","-3.1","","65","","16","","9","","24.1","","101.62","","","","","","NA"
"2017-11-12 09:00","2017","11","12","09:00","3.4","","-3.0","","63","","17","","12","","24.1","","101.65","","","","","","NA"
"2017-11-12 10:00","2017","11","12","10:00","4.5","","-2.3","","61","","18","","12","","24.1","","101.65","","","","","","Cloudy"
"2017-11-12 11:00","2017","11","12","11:00","5.2","","-2.2","","59","","18","","18","","24.1","","101.64","","","","","","NA"
"2017-11-12 12:00","2017","11","12","12:00","5.7","","-1.7","","59","","18","","11","","24.1","","101.62","","","","","","NA"
"2017-11-12 13:00","2017","11","12","13:00","5.4","","-1.8","","59","","17","","13","","24.1","","101.56","","","","","","Cloudy"
"2017-11-12 14:00","2017","11","12","14:00","6.4","","-1.1","","59","","15","","10","","24.1","","101.52","","","","","","NA"
"2017-11-12 15:00","2017","11","12","15:00","6.7","","-0.5","","60","","15","","11","","24.1","","101.49","","","","","","NA"
"2017-11-12 16:00","2017","11","12","16:00","6.5","","-0.5","","61","","15","","9","","24.1","","101.49","","","","","","Cloudy"
"2017-11-12 17:00","2017","11","12","17:00","5.5","","-1.3","","62","","12","","9","","24.1","","101.51","","","","","","NA"
"2017-11-12 18:00","2017","11","12","18:00","4.8","","-2.0","","62","","10","","8","","24.1","","101.56","","","","","","NA"
"2017-11-12 19:00","2017","11","12","19:00","4.5","","-2.1","","62","","15","","3","","24.1","","101.61","","","","","","Cloudy"
"2017-11-12 20:00","2017","11","12","20:00","4.2","","-2.0","","64","","36","","1","","19.3","","101.59","","","","","","Rain"
"2017-11-12 21:00","2017","11","12","21:00","3.0","","0.7","","85","","22","","7","","19.3","","101.59","","","","","","Rain"
"2017-11-12 22:00","2017","11","12","22:00"
"2017-11-12 23:00","2017","11","12","23:00"
"2017-11-13 00:00","2017","11","13","00:00"
"2017-11-13 01:00","2017","11","13","01:00"
"2017-11-13 02:00","2017","11","13","02:00"
"2017-11-13 03:00","2017","11","13","03:00"
"2017-11-13 04:00","2017","11","13","04:00"
"2017-11-13 05:00","2017","11","13","05:00"
"2017-11-13 06:00","2017","11","13","06:00"
"2017-11-13 07:00","2017","11","13","07:00","1.4","","0.8","","96","","8","","3","","12.9","","101.56","","","","","","Cloudy"
"2017-11-13 08:00","2017","11","13","08:00","1.6","","1.1","","96","","21","","4","","12.9","","101.60","","","","","","NA"
"2017-11-13 09:00","2017","11","13","09:00","2.8","","2.0","","95","","25","","4","","12.9","","101.65","","","","","","NA"
"2017-11-13 10:00","2017","11","13","10:00","3.6","","2.4","","92","","28","","7","","12.9","","101.66","","","","","","Cloudy"
"2017-11-13 11:00","2017","11","13","11:00","4.0","","2.7","","91","","28","","5","","9.7","","101.69","","","","","","Fog"
"2017-11-13 12:00","2017","11","13","12:00","4.5","","3.1","","91","","31","","12","","9.7","","101.65","","","","","","Fog"
"2017-11-13 13:00","2017","11","13","13:00","4.4","","2.5","","87","","31","","11","","11.3","","101.63","","","","","","Cloudy"
"2017-11-13 14:00","2017","11","13","14:00","5.0","","2.6","","85","","29","","8","","12.9","","101.64","","","","","","NA"
"2017-11-13 15:00","2017","11","13","15:00","5.2","","2.4","","82","","27","","6","","12.9","","101.63","","","","","","NA"
"2017-11-13 16:00","2017","11","13","16:00","4.8","","2.2","","83","","28","","12","","12.9","","101.67","","","","","","Cloudy"
"2017-11-13 17:00","2017","11","13","17:00","4.5","","2.0","","84","","26","","5","","11.3","","101.68","","","","","","NA"
"2017-11-13 18:00","2017","11","13","18:00","4.4","","2.2","","85","","21","","5","","12.9","","101.68","","","","","","NA"
"2017-11-13 19:00","2017","11","13","19:00","3.9","","2.2","","89","","20","","8","","12.9","","101.67","","","","","","Cloudy"
"2017-11-13 20:00","2017","11","13","20:00","4.6","","2.2","","85","","24","","8","","12.9","","101.69","","","","","","NA"
"2017-11-13 21:00","2017","11","13","21:00","4.4","","2.2","","86","","24","","11","","12.9","","101.70","","","","","","NA"
"2017-11-13 22:00","2017","11","13","22:00"
"2017-11-13 23:00","2017","11","13","23:00"
"2017-11-14 00:00","2017","11","14","00:00"
"2017-11-14 01:00","2017","11","14","01:00"
"2017-11-14 02:00","2017","11","14","02:00"
"2017-11-14 03:00","2017","11","14","03:00"
"2017-11-14 04:00","2017","11","14","04:00"
"2017-11-14 05:00","2017","11","14","05:00"
"2017-11-14 06:00","2017","11","14","06:00"
"2017-11-14 07:00","2017","11","14","07:00","3.4","","2.2","","92","","24","","7","","8.1","","101.66","","","","","","Fog"
"2017-11-14 08:00","2017","11","14","08:00","3.8","","2.3","","90","","24","","6","","9.7","","101.69","","","","","","Fog"
"2017-11-14 09:00","2017","11","14","09:00","4.4","","2.4","","87","","24","","8","","12.9","","101.72","","","","","","NA"
"2017-11-14 10:00","2017","11","14","10:00","5.0","","2.5","","84","","27","","6","","12.9","","101.70","","","","","","Cloudy"
"2017-11-14 11:00","2017","11","14","11:00","5.7","","2.5","","80","","28","","7","","24.1","","101.68","","","","","","NA"
"2017-11-14 12:00","2017","11","14","12:00","6.0","","1.8","","74","","29","","7","","24.1","","101.60","","","","","","NA"
"2017-11-14 13:00","2017","11","14","13:00","7.0","","2.4","","73","","36","","1","","24.1","","101.55","","","","","","Cloudy"
"2017-11-14 14:00","2017","11","14","14:00","6.4","","1.4","","70","","35","","8","","24.1","","101.52","","","","","","NA"
"2017-11-14 15:00","2017","11","14","15:00","6.2","","1.5","","72","","32","","8","","24.1","","101.51","","","","","","NA"
"2017-11-14 16:00","2017","11","14","16:00","6.2","","-0.1","","64","","1","","6","","24.1","","101.51","","","","","","Mostly Cloudy"
"2017-11-14 17:00","2017","11","14","17:00","4.5","","0.4","","74","","0","","1","","24.1","","101.51","","","","","","NA"
"2017-11-14 18:00","2017","11","14","18:00","2.4","","0.0","","84","","15","","4","","24.1","","101.47","","","","","","NA"
"2017-11-14 19:00","2017","11","14","19:00","-0.5","","-1.8","","91","","15","","6","","24.1","","101.43","","","","-3","","Mainly Clear"
"2017-11-14 20:00","2017","11","14","20:00","1.1","","-0.3","","91","","14","","10","","24.1","","101.38","","","","","","NA"
"2017-11-14 21:00","2017","11","14","21:00","0.6","","-0.3","","94","","36","","2","","24.1","","101.40","","","","","","NA"
"2017-11-14 22:00","2017","11","14","22:00"
"2017-11-14 23:00","2017","11","14","23:00"
"2017-11-15 00:00","2017","11","15","00:00"
"2017-11-15 01:00","2017","11","15","01:00"
"2017-11-15 02:00","2017","11","15","02:00"
"2017-11-15 03:00","2017","11","15","03:00"
"2017-11-15 04:00","2017","11","15","04:00"
"2017-11-15 05:00","2017","11","15","05:00"
"2017-11-15 06:00","2017","11","15","06:00"
"2017-11-15 07:00","2017","11","15","07:00","2.6","","0.6","","87","","14","","13","","24.1","","101.03","","","","","","Cloudy"
"2017-11-15 08:00","2017","11","15","08:00","3.1","","0.5","","83","","17","","10","","24.1","","101.02","","","","","","NA"
"2017-11-15 09:00","2017","11","15","09:00","5.0","","0.5","","73","","17","","15","","24.1","","100.95","","","","","","NA"
"2017-11-15 10:00","2017","11","15","10:00","5.5","","0.3","","69","","17","","18","","19.3","","100.82","","","","","","Cloudy"
"2017-11-15 11:00","2017","11","15","11:00","6.5","","0.2","","64","","17","","21","","19.3","","100.66","","","","","","NA"
"2017-11-15 12:00","2017","11","15","12:00","6.6","","-0.7","","59","","16","","21","","24.1","","100.49","","","","","","NA"
"2017-11-15 13:00","2017","11","15","13:00","6.9","","-0.8","","58","","16","","14","","16.1","","100.39","","","","","","Cloudy"
"2017-11-15 14:00","2017","11","15","14:00","7.4","","-0.1","","59","","12","","9","","24.1","","100.28","","","","","","NA"
"2017-11-15 15:00","2017","11","15","15:00","7.0","","0.2","","62","","11","","12","","16.1","","100.13","","","","","","NA"
"2017-11-15 16:00","2017","11","15","16:00","6.6","","0.5","","65","","11","","8","","19.3","","100.07","","","","","","Cloudy"
"2017-11-15 17:00","2017","11","15","17:00","6.0","","0.9","","70","","10","","13","","19.3","","99.90","","","","","","NA"
"2017-11-15 18:00","2017","11","15","18:00","7.8","","0.1","","58","","17","","19","","19.3","","99.82","","","","","","NA"
"2017-11-15 19:00","2017","11","15","19:00","8.4","","0.5","","57","","18","","22","","24.1","","99.72","","","","","","Cloudy"
"2017-11-15 20:00","2017","11","15","20:00","8.3","","3.0","","69","","19","","28","","19.3","","99.60","","","","","","Rain"
"2017-11-15 21:00","2017","11","15","21:00","7.6","","3.5","","75","","20","","39","","19.3","","99.48","","","","","","Rain"
"2017-11-15 22:00","2017","11","15","22:00"
"2017-11-15 23:00","2017","11","15","23:00"
"2017-11-16 00:00","2017","11","16","00:00"
"2017-11-16 01:00","2017","11","16","01:00"
"2017-11-16 02:00","2017","11","16","02:00"
"2017-11-16 03:00","2017","11","16","03:00"
"2017-11-16 04:00","2017","11","16","04:00"
"2017-11-16 05:00","2017","11","16","05:00"
"2017-11-16 06:00","2017","11","16","06:00"
"2017-11-16 07:00","2017","11","16","07:00","6.0","","3.3","","83","","25","","26","","24.1","","99.43","","","","","","Mostly Cloudy"
"2017-11-16 08:00","2017","11","16","08:00","6.0","","2.4","","78","","27","","33","","24.1","","99.47","","","","","","NA"
"2017-11-16 09:00","2017","11","16","09:00","6.7","","2.2","","73","","27","","35","","24.1","","99.54","","","","","","NA"
"2017-11-16 10:00","2017","11","16","10:00","6.5","","2.0","","73","","25","","28","","24.1","","99.60","","","","","","Mostly Cloudy"
"2017-11-16 11:00","2017","11","16","11:00","6.2","","2.0","","74","","25","","32","","24.1","","99.68","","","","","","NA"
"2017-11-16 12:00","2017","11","16","12:00","6.6","","2.2","","74","","26","","34","","24.1","","99.71","","","","","","NA"
"2017-11-16 13:00","2017","11","16","13:00","6.3","","2.4","","76","","27","","32","","24.1","","99.78","","","","","","Rain"
"2017-11-16 14:00","2017","11","16","14:00","6.4","","2.4","","76","","29","","28","","24.1","","99.90","","","","","","NA"
"2017-11-16 15:00","2017","11","16","15:00","6.3","","1.9","","74","","29","","28","","24.1","","100.02","","","","","","NA"
"2017-11-16 16:00","2017","11","16","16:00","5.8","","1.4","","73","","29","","23","","24.1","","100.16","","","","","","Mostly Cloudy"
"2017-11-16 17:00","2017","11","16","17:00","5.2","","0.8","","73","","29","","33","","24.1","","100.28","","","","","","NA"
"2017-11-16 18:00","2017","11","16","18:00","4.7","","-0.7","","68","","30","","26","","24.1","","100.41","","","","","","NA"
"2017-11-16 19:00","2017","11","16","19:00","4.4","","-2.0","","63","","31","","31","","24.1","","100.55","","","","","","Cloudy"
"2017-11-16 20:00","2017","11","16","20:00","3.6","","-3.0","","62","","31","","34","","24.1","","100.64","","","","","","NA"
"2017-11-16 21:00","2017","11","16","21:00","3.1","","-3.5","","62","","33","","33","","24.1","","100.72","","","","","","NA"
"2017-11-16 22:00","2017","11","16","22:00"
"2017-11-16 23:00","2017","11","16","23:00"
"2017-11-17 00:00","2017","11","17","00:00"
"2017-11-17 01:00","2017","11","17","01:00"
"2017-11-17 02:00","2017","11","17","02:00"
"2017-11-17 03:00","2017","11","17","03:00"
"2017-11-17 04:00","2017","11","17","04:00"
"2017-11-17 05:00","2017","11","17","05:00"
"2017-11-17 06:00","2017","11","17","06:00"
"2017-11-17 07:00","2017","11","17","07:00","-0.6","","-5.6","","69","","35","","12","","24.1","","101.32","","","","-5","","Cloudy"
"2017-11-17 08:00","2017","11","17","08:00","-0.2","","-4.9","","70","","36","","6","","24.1","","101.37","","","","-2","","NA"
"2017-11-17 09:00","2017","11","17","09:00","0.0","","-4.7","","71","","33","","10","","24.1","","101.41","","","","-3","","NA"
"2017-11-17 10:00","2017","11","17","10:00","-0.1","","-5.6","","66","","28","","6","","24.1","","101.38","","","","-2","","Cloudy"
"2017-11-17 11:00","2017","11","17","11:00","1.1","","-5.5","","62","","23","","10","","24.1","","101.34","","","","","","NA"
"2017-11-17 12:00","2017","11","17","12:00","1.6","","-4.3","","65","","30","","4","","24.1","","101.23","","","","","","NA"
"2017-11-17 13:00","2017","11","17","13:00","1.4","","-4.9","","63","","23","","8","","24.1","","101.14","","","","","","Mostly Cloudy"
"2017-11-17 14:00","2017","11","17","14:00","1.8","","-5.3","","59","","21","","7","","24.1","","101.07","","","","","","NA"
"2017-11-17 15:00","2017","11","17","15:00","2.6","","-4.0","","62","","21","","14","","24.1","","100.99","","","","","","NA"
"2017-11-17 16:00","2017","11","17","16:00","2.1","","-2.8","","70","","19","","11","","24.1","","100.85","","","","","","Mostly Cloudy"
"2017-11-17 17:00","2017","11","17","17:00","1.8","","-2.6","","73","","13","","9","","24.1","","100.72","","","","","","NA"
"2017-11-17 18:00","2017","11","17","18:00","1.2","","-2.1","","79","","8","","5","","24.1","","100.71","","","","","","NA"
"2017-11-17 19:00","2017","11","17","19:00","1.3","","-1.7","","81","","11","","11","","24.1","","100.56","","","","","","Cloudy"
"2017-11-17 20:00","2017","11","17","20:00","0.1","","-2.5","","83","","8","","8","","24.1","","100.46","","","","","","NA"
"2017-11-17 21:00","2017","11","17","21:00","0.5","","-2.1","","83","","9","","9","","24.1","","100.34","","","","","","NA"
"2017-11-17 22:00","2017","11","17","22:00"
"2017-11-17 23:00","2017","11","17","23:00"
"2017-11-18 00:00","2017","11","18","00:00"
"2017-11-18 01:00","2017","11","18","01:00"
"2017-11-18 02:00","2017","11","18","02:00"
"2017-11-18 03:00","2017","11","18","03:00"
"2017-11-18 04:00","2017","11","18","04:00"
"2017-11-18 05:00","2017","11","18","05:00"
"2017-11-18 06:00","2017","11","18","06:00"
"2017-11-18 07:00","2017","11","18","07:00","6.3","","3.5","","82","","16","","13","","16.1","","99.00","","","","","","Rain"
"2017-11-18 08:00","2017","11","18","08:00","8.1","","5.3","","83","","21","","26","","24.1","","98.95","","","","","","NA"
"2017-11-18 09:00","2017","11","18","09:00","8.3","","6.0","","86","","21","","17","","24.1","","98.93","","","","","","NA"
"2017-11-18 10:00","2017","11","18","10:00","9.3","","6.9","","85","","23","","18","","24.1","","98.88","","","","","","Cloudy"
"2017-11-18 11:00","2017","11","18","11:00","8.7","","7.7","","93","","20","","15","","8.1","","98.76","","","","","","Rain,Fog"
"2017-11-18 12:00","2017","11","18","12:00","9.4","","8.1","","91","","21","","14","","8.1","","98.63","","","","","","Fog"
"2017-11-18 13:00","2017","11","18","13:00","9.3","","8.1","","92","","22","","13","","6.4","","98.57","","","","","","Fog"
"2017-11-18 14:00","2017","11","18","14:00","8.9","","8.3","","96","","19","","13","","4.0","","98.38","","","","","","Fog"
"2017-11-18 15:00","2017","11","18","15:00","8.9","","8.3","","96","","17","","8","","6.4","","98.22","","","","","","Drizzle,Fog"
"2017-11-18 16:00","2017","11","18","16:00","8.8","","7.9","","94","","13","","10","","4.8","","98.15","","","","","","Rain,Fog"
"2017-11-18 17:00","2017","11","18","17:00","8.5","","7.8","","95","","12","","6","","4.8","","98.10","","","","","","Rain,Fog"
"2017-11-18 18:00","2017","11","18","18:00","8.2","","7.8","","97","","10","","13","","8.1","","97.89","","","","","","Rain,Fog"
"2017-11-18 19:00","2017","11","18","19:00","8.3","","7.9","","97","","8","","8","","4.8","","97.77","","","","","","Rain,Fog"
"2017-11-18 20:00","2017","11","18","20:00","8.3","","8.0","","98","","7","","6","","2.4","","97.62","","","","","","Rain,Fog"
"2017-11-18 21:00","2017","11","18","21:00","8.0","","7.7","","98","","2","","6","","1.2","","97.53","","","","","","Rain,Fog"
"2017-11-18 22:00","2017","11","18","22:00"
"2017-11-18 23:00","2017","11","18","23:00"
"2017-11-19 00:00","2017","11","19","00:00"
"2017-11-19 01:00","2017","11","19","01:00"
"2017-11-19 02:00","2017","11","19","02:00"
"2017-11-19 03:00","2017","11","19","03:00"
"2017-11-19 04:00","2017","11","19","04:00"
"2017-11-19 05:00","2017","11","19","05:00"
"2017-11-19 06:00","2017","11","19","06:00"
"2017-11-19 07:00","2017","11","19","07:00","3.3","","-0.3","","77","","29","","28","","24.1","","98.83","","","","","","Cloudy"
"2017-11-19 08:00","2017","11","19","08:00","3.4","","-0.6","","75","","29","","29","","24.1","","98.97","","","","","","NA"
"2017-11-19 09:00","2017","11","19","09:00","3.6","","-1.2","","71","","29","","24","","24.1","","99.08","","","","","","NA"
"2017-11-19 10:00","2017","11","19","10:00","4.7","","-1.3","","65","","28","","31","","24.1","","99.16","","","","","","Mainly Clear"
"2017-11-19 11:00","2017","11","19","11:00","4.2","","-0.9","","70","","28","","22","","24.1","","99.27","","","","","","NA"
"2017-11-19 12:00","2017","11","19","12:00","4.2","","-0.9","","69","","29","","24","","24.1","","99.27","","","","","","NA"
"2017-11-19 13:00","2017","11","19","13:00","4.0","","-0.6","","72","","32","","25","","24.1","","99.28","","","","","","Mostly Cloudy"
"2017-11-19 14:00","2017","11","19","14:00","4.1","","-1.6","","66","","29","","25","","24.1","","99.30","","","","","","Rain,Ice Pellets"
"2017-11-19 15:00","2017","11","19","15:00","2.2","","-0.9","","80","","28","","30","","16.1","","99.39","","","","","","Rain Showers,Snow Showers"
"2017-11-19 16:00","2017","11","19","16:00","2.5","","-2.2","","71","","29","","31","","24.1","","99.49","","","","","","Cloudy"
"2017-11-19 17:00","2017","11","19","17:00","1.9","","-3.5","","67","","29","","30","","24.1","","99.58","","","","","","NA"
"2017-11-19 18:00","2017","11","19","18:00","0.9","","-4.2","","69","","28","","29","","24.1","","99.69","","","","","","NA"
"2017-11-19 19:00","2017","11","19","19:00","0.9","","-6.0","","60","","30","","24","","24.1","","99.76","","","","","","Mostly Cloudy"
"2017-11-19 20:00","2017","11","19","20:00","0.6","","-5.0","","66","","30","","20","","24.1","","99.85","","","","","","NA"
"2017-11-19 21:00","2017","11","19","21:00","0.6","","-4.8","","67","","29","","25","","24.1","","99.90","","","","","","NA"
"2017-11-19 22:00","2017","11","19","22:00"
"2017-11-19 23:00","2017","11","19","23:00"
"2017-11-20 00:00","2017","11","20","00:00"
"2017-11-20 01:00","2017","11","20","01:00"
"2017-11-20 02:00","2017","11","20","02:00"
"2017-11-20 03:00","2017","11","20","03:00"
"2017-11-20 04:00","2017","11","20","04:00"
"2017-11-20 05:00","2017","11","20","05:00"
"2017-11-20 06:00","2017","11","20","06:00"
"2017-11-20 07:00","2017","11","20","07:00","-1.8","","-6.0","","73","","23","","17","","24.1","","100.38","","","","-7","","Mostly Cloudy"
"2017-11-20 08:00","2017","11","20","08:00","-0.9","","-5.9","","69","","23","","25","","24.1","","100.42","","","","-7","","NA"
"2017-11-20 09:00","2017","11","20","09:00","0.2","","-5.4","","66","","24","","24","","24.1","","100.44","","","","","","NA"
"2017-11-20 10:00","2017","11","20","10:00","1.9","","-4.4","","63","","24","","25","","24.1","","100.42","","","","","","Mostly Cloudy"
"2017-11-20 11:00","2017","11","20","11:00","2.9","","-2.9","","66","","24","","26","","24.1","","100.38","","","","","","NA"
"2017-11-20 12:00","2017","11","20","12:00","4.4","","-1.4","","66","","25","","23","","24.1","","100.31","","","","","","NA"
"2017-11-20 13:00","2017","11","20","13:00","5.9","","0.5","","68","","24","","26","","24.1","","100.23","","","","","","Cloudy"
"2017-11-20 14:00","2017","11","20","14:00","6.7","","1.6","","70","","24","","33","","24.1","","100.18","","","","","","NA"
"2017-11-20 15:00","2017","11","20","15:00","6.1","","0.7","","68","","23","","27","","24.1","","100.17","","","","","","NA"
"2017-11-20 16:00","2017","11","20","16:00","6.5","","0.6","","66","","23","","28","","24.1","","100.12","","","","","","Mostly Cloudy"
"2017-11-20 17:00","2017","11","20","17:00","5.8","","0.2","","67","","21","","21","","24.1","","100.10","","","","","","NA"
"2017-11-20 18:00","2017","11","20","18:00","5.9","","-0.7","","62","","22","","30","","24.1","","100.08","","","","","","NA"
"2017-11-20 19:00","2017","11","20","19:00","6.7","","-0.9","","58","","22","","32","","24.1","","100.04","","","","","","Mainly Clear"
"2017-11-20 20:00","2017","11","20","20:00","6.2","","0.1","","65","","21","","25","","24.1","","100.04","","","","","","NA"
"2017-11-20 21:00","2017","11","20","21:00","6.5","","-0.2","","63","","21","","30","","24.1","","100.00","","","","","","NA"
"2017-11-20 22:00","2017","11","20","22:00"
"2017-11-20 23:00","2017","11","20","23:00"
"2017-11-21 00:00","2017","11","21","00:00"
"2017-11-21 01:00","2017","11","21","01:00"
"2017-11-21 02:00","2017","11","21","02:00"
"2017-11-21 03:00","2017","11","21","03:00"
"2017-11-21 04:00","2017","11","21","04:00"
"2017-11-21 05:00","2017","11","21","05:00"
"2017-11-21 06:00","2017","11","21","06:00"
"2017-11-21 07:00","2017","11","21","07:00","7.0","","-1.5","","55","","21","","32","","24.1","","99.54","","","","","","Mainly Clear"
"2017-11-21 08:00","2017","11","21","08:00","7.8","","-1.7","","51","","21","","35","","24.1","","99.48","","","","","","NA"
"2017-11-21 09:00","2017","11","21","09:00","9.4","","-0.8","","49","","21","","31","","24.1","","99.46","","","","","","NA"
"2017-11-21 10:00","2017","11","21","10:00","10.6","","-0.5","","46","","21","","43","","24.1","","99.48","","","","","","Mostly Cloudy"
"2017-11-21 11:00","2017","11","21","11:00","10.7","","-0.4","","46","","22","","50","","24.1","","99.46","","","","","","NA"
"2017-11-21 12:00","2017","11","21","12:00","11.1","","0.1","","47","","22","","49","","24.1","","99.37","","","","","","NA"
"2017-11-21 13:00","2017","11","21","13:00","11.9","","0.4","","45","","23","","42","","24.1","","99.44","","","","","","Mainly Clear"
"2017-11-21 14:00","2017","11","21","14:00","11.6","","-0.1","","44","","23","","62","","24.1","","99.51","","","","","","NA"
"2017-11-21 15:00","2017","11","21","15:00","11.5","","0.4","","46","","22","","45","","24.1","","99.54","","","","","","NA"
"2017-11-21 16:00","2017","11","21","16:00","10.6","","0.0","","47","","23","","39","","24.1","","99.64","","","","","","Mostly Cloudy"
"2017-11-21 17:00","2017","11","21","17:00","9.7","","1.6","","57","","24","","30","","24.1","","99.72","","","","","","NA"
"2017-11-21 18:00","2017","11","21","18:00","9.3","","2.1","","61","","23","","23","","24.1","","99.76","","","","","","NA"
"2017-11-21 19:00","2017","11","21","19:00","9.0","","1.7","","60","","23","","19","","24.1","","99.80","","","","","","Cloudy"
"2017-11-21 20:00","2017","11","21","20:00","9.7","","2.4","","60","","24","","25","","24.1","","99.83","","","","","","NA"
"2017-11-21 21:00","2017","11","21","21:00","6.8","","3.7","","80","","29","","31","","16.1","","99.90","","","","","","Rain Showers"
"2017-11-21 22:00","2017","11","21","22:00"
"2017-11-21 23:00","2017","11","21","23:00"
"2017-11-22 00:00","2017","11","22","00:00"
"2017-11-22 01:00","2017","11","22","01:00"
"2017-11-22 02:00","2017","11","22","02:00"
"2017-11-22 03:00","2017","11","22","03:00"
"2017-11-22 04:00","2017","11","22","04:00"
"2017-11-22 05:00","2017","11","22","05:00"
"2017-11-22 06:00","2017","11","22","06:00"
"2017-11-22 07:00","2017","11","22","07:00","1.8","","-3.8","","67","","31","","31","","24.1","","100.65","","","","","","Cloudy"
"2017-11-22 08:00","2017","11","22","08:00","1.6","","-4.2","","65","","31","","31","","24.1","","100.76","","","","","","NA"
"2017-11-22 09:00","2017","11","22","09:00","1.1","","-4.5","","66","","32","","27","","24.1","","100.85","","","","","","NA"
"2017-11-22 10:00","2017","11","22","10:00","0.4","","-5.2","","66","","31","","23","","24.1","","100.94","","","","","","Cloudy"
"2017-11-22 11:00","2017","11","22","11:00","0.6","","-5.7","","63","","31","","21","","24.1","","100.97","","","","","","NA"
"2017-11-22 12:00","2017","11","22","12:00","0.4","","-5.8","","63","","30","","21","","24.1","","100.96","","","","","","NA"
"2017-11-22 13:00","2017","11","22","13:00","0.2","","-7.5","","56","","30","","23","","24.1","","101.00","","","","","","Mostly Cloudy"
"2017-11-22 14:00","2017","11","22","14:00","0.1","","-7.3","","57","","32","","24","","24.1","","101.00","","","","","","NA"
"2017-11-22 15:00","2017","11","22","15:00","0.1","","-7.9","","55","","30","","22","","24.1","","101.05","","","","","","NA"
"2017-11-22 16:00","2017","11","22","16:00","-0.3","","-7.8","","57","","30","","14","","24.1","","101.15","","","","-5","","Mostly Cloudy"
"2017-11-22 17:00","2017","11","22","17:00","-0.3","","-8.3","","55","","31","","18","","24.1","","101.17","","","","-5","","NA"
"2017-11-22 18:00","2017","11","22","18:00","-0.7","","-8.1","","58","","32","","20","","24.1","","101.22","","","","-6","","NA"
"2017-11-22 19:00","2017","11","22","19:00","-1.2","","-8.2","","59","","31","","23","","24.1","","101.25","","","","-7","","Cloudy"
"2017-11-22 20:00","2017","11","22","20:00","-1.8","","-8.6","","60","","30","","18","","24.1","","101.23","","","","-7","","NA"
"2017-11-22 21:00","2017","11","22","21:00","-1.4","","-7.8","","62","","28","","16","","24.1","","101.18","","","","-6","","NA"
"2017-11-22 22:00","2017","11","22","22:00"
"2017-11-22 23:00","2017","11","22","23:00"
"2017-11-23 00:00","2017","11","23","00:00"
"2017-11-23 01:00","2017","11","23","01:00"
"2017-11-23 02:00","2017","11","23","02:00"
"2017-11-23 03:00","2017","11","23","03:00"
"2017-11-23 04:00","2017","11","23","04:00"
"2017-11-23 05:00","2017","11","23","05:00"
"2017-11-23 06:00","2017","11","23","06:00"
"2017-11-23 07:00","2017","11","23","07:00","-1.2","","-6.2","","69","","22","","7","","24.1","","100.80","","","","-4","","Cloudy"
"2017-11-23 08:00","2017","11","23","08:00","-0.2","","-6.8","","61","","24","","10","","24.1","","100.82","","","","-4","","NA"
"2017-11-23 09:00","2017","11","23","09:00","0.4","","-6.3","","61","","24","","14","","24.1","","100.81","","","","","","NA"
"2017-11-23 10:00","2017","11","23","10:00","1.2","","-6.1","","58","","23","","19","","24.1","","100.71","","","","","","Mostly Cloudy"
"2017-11-23 11:00","2017","11","23","11:00","2.2","","-5.7","","56","","24","","18","","24.1","","100.64","","","","","","NA"
"2017-11-23 12:00","2017","11","23","12:00","2.5","","-4.7","","59","","24","","22","","24.1","","100.53","","","","","","NA"
"2017-11-23 13:00","2017","11","23","13:00","2.7","","-3.0","","66","","24","","21","","24.1","","100.44","","","","","","Cloudy"
"2017-11-23 14:00","2017","11","23","14:00","3.6","","-2.0","","67","","21","","22","","24.1","","100.34","","","","","","NA"
"2017-11-23 15:00","2017","11","23","15:00","4.1","","-1.1","","69","","22","","26","","24.1","","100.26","","","","","","NA"
"2017-11-23 16:00","2017","11","23","16:00","4.1","","-0.7","","71","","23","","23","","24.1","","100.24","","","","","","Cloudy"
"2017-11-23 17:00","2017","11","23","17:00","4.0","","-1.8","","66","","24","","21","","24.1","","100.21","","","","","","NA"
"2017-11-23 18:00","2017","11","23","18:00","4.1","","-1.0","","70","","24","","23","","24.1","","100.26","","","","","","NA"
"2017-11-23 19:00","2017","11","23","19:00","4.1","","-1.2","","69","","23","","22","","24.1","","100.27","","","","","","Cloudy"
"2017-11-23 20:00","2017","11","23","20:00","4.2","","-1.7","","65","","24","","20","","24.1","","100.27","","","","","","NA"
"2017-11-23 21:00","2017","11","23","21:00","4.4","","-1.6","","65","","24","","19","","24.1","","100.24","","","","","","NA"
"2017-11-23 22:00","2017","11","23","22:00"
"2017-11-23 23:00","2017","11","23","23:00"
"2017-11-24 00:00","2017","11","24","00:00"
"2017-11-24 01:00","2017","11","24","01:00"
"2017-11-24 02:00","2017","11","24","02:00"
"2017-11-24 03:00","2017","11","24","03:00"
"2017-11-24 04:00","2017","11","24","04:00"
"2017-11-24 05:00","2017","11","24","05:00"
"2017-11-24 06:00","2017","11","24","06:00"
"2017-11-24 07:00","2017","11","24","07:00","2.4","","-2.0","","72","","20","","9","","24.1","","100.06","","","","","","Cloudy"
"2017-11-24 08:00","2017","11","24","08:00","5.1","","1.0","","75","","20","","23","","24.1","","100.01","","","","","","NA"
"2017-11-24 09:00","2017","11","24","09:00","6.0","","1.2","","71","","21","","24","","24.1","","99.97","","","","","","NA"
"2017-11-24 10:00","2017","11","24","10:00","7.5","","0.8","","63","","21","","27","","24.1","","99.93","","","","","","Mainly Clear"
"2017-11-24 11:00","2017","11","24","11:00","8.5","","-1.6","","49","","22","","39","","24.1","","99.88","","","","","","NA"
"2017-11-24 12:00","2017","11","24","12:00","9.6","","-1.3","","46","","23","","36","","24.1","","99.77","","","","","","NA"
"2017-11-24 13:00","2017","11","24","13:00","9.8","","-0.9","","47","","21","","36","","24.1","","99.66","","","","","","Mainly Clear"
"2017-11-24 14:00","2017","11","24","14:00","10.2","","-1.7","","43","","23","","40","","24.1","","99.53","","","","","","NA"
"2017-11-24 15:00","2017","11","24","15:00","10.5","","-2.1","","41","","22","","27","","24.1","","99.49","","","","","","NA"
"2017-11-24 16:00","2017","11","24","16:00","10.2","","-1.0","","46","","22","","26","","24.1","","99.42","","","","","","Mostly Cloudy"
"2017-11-24 17:00","2017","11","24","17:00","9.8","","-0.2","","50","","21","","22","","24.1","","99.35","","","","","","NA"
"2017-11-24 18:00","2017","11","24","18:00","9.5","","0.7","","54","","21","","25","","24.1","","99.34","","","","","","NA"
"2017-11-24 19:00","2017","11","24","19:00","9.3","","0.1","","53","","20","","27","","24.1","","99.30","","","","","","Mainly Clear"
"2017-11-24 20:00","2017","11","24","20:00","9.5","","-0.1","","51","","20","","31","","24.1","","99.27","","","","","","NA"
"2017-11-24 21:00","2017","11","24","21:00","9.5","","0.0","","51","","20","","27","","24.1","","99.19","","","","","","NA"
"2017-11-24 22:00","2017","11","24","22:00"
"2017-11-24 23:00","2017","11","24","23:00"
"2017-11-25 00:00","2017","11","25","00:00"
"2017-11-25 01:00","2017","11","25","01:00"
"2017-11-25 02:00","2017","11","25","02:00"
"2017-11-25 03:00","2017","11","25","03:00"
"2017-11-25 04:00","2017","11","25","04:00"
"2017-11-25 05:00","2017","11","25","05:00"
"2017-11-25 06:00","2017","11","25","06:00"
"2017-11-25 07:00","2017","11","25","07:00","9.4","","4.3","","70","","23","","29","","19.3","","98.87","","","","","","Rain"
"2017-11-25 08:00","2017","11","25","08:00","8.6","","5.3","","80","","24","","18","","19.3","","98.97","","","","","","Rain"
"2017-11-25 09:00","2017","11","25","09:00","8.4","","5.3","","81","","24","","21","","24.1","","99.04","","","","","","NA"
"2017-11-25 10:00","2017","11","25","10:00","8.2","","5.7","","84","","25","","20","","12.9","","99.09","","","","","","Rain"
"2017-11-25 11:00","2017","11","25","11:00","8.5","","6.1","","85","","25","","19","","16.1","","99.19","","","","","","NA"
"2017-11-25 12:00","2017","11","25","12:00","8.6","","5.8","","83","","26","","14","","16.1","","99.19","","","","","","Rain"
"2017-11-25 13:00","2017","11","25","13:00","9.3","","6.1","","80","","27","","21","","24.1","","99.27","","","","","","Cloudy"
"2017-11-25 14:00","2017","11","25","14:00","8.8","","4.8","","76","","29","","19","","24.1","","99.34","","","","","","NA"
"2017-11-25 15:00","2017","11","25","15:00","8.0","","2.5","","68","","29","","22","","24.1","","99.39","","","","","","NA"
"2017-11-25 16:00","2017","11","25","16:00","7.5","","1.9","","67","","28","","22","","24.1","","99.48","","","","","","Cloudy"
"2017-11-25 17:00","2017","11","25","17:00","7.1","","1.1","","66","","28","","22","","24.1","","99.57","","","","","","NA"
"2017-11-25 18:00","2017","11","25","18:00","6.7","","-0.9","","58","","31","","28","","24.1","","99.65","","","","","","NA"
"2017-11-25 19:00","2017","11","25","19:00","6.5","","-1.0","","59","","28","","21","","24.1","","99.74","","","","","","Cloudy"
"2017-11-25 20:00","2017","11","25","20:00","6.0","","0.3","","67","","27","","15","","24.1","","99.79","","","","","","NA"
"2017-11-25 21:00","2017","11","25","21:00","5.9","","0.4","","68","","26","","13","","24.1","","99.80","","","","","","NA"
"2017-11-25 22:00","2017","11","25","22:00"
"2017-11-25 23:00","2017","11","25","23:00"
"2017-11-26 00:00","2017","11","26","00:00"
"2017-11-26 01:00","2017","11","26","01:00"
"2017-11-26 02:00","2017","11","26","02:00"
"2017-11-26 03:00","2017","11","26","03:00"
"2017-11-26 04:00","2017","11","26","04:00"
"2017-11-26 05:00","2017","11","26","05:00"
"2017-11-26 06:00","2017","11","26","06:00"
"2017-11-26 07:00","2017","11","26","07:00","2.1","","-3.7","","66","","28","","21","","24.1","","100.59","","","","","","Cloudy"
"2017-11-26 08:00","2017","11","26","08:00","1.7","","-4.7","","62","","30","","23","","24.1","","100.68","","","","","","NA"
"2017-11-26 09:00","2017","11","26","09:00","1.5","","-4.9","","62","","27","","25","","24.1","","100.72","","","","","","NA"
"2017-11-26 10:00","2017","11","26","10:00","1.4","","-5.3","","61","","29","","24","","24.1","","100.80","","","","","","Cloudy"
"2017-11-26 11:00","2017","11","26","11:00","1.7","","-4.6","","63","","30","","14","","24.1","","100.72","","","","","","NA"
"2017-11-26 12:00","2017","11","26","12:00","2.0","","-4.0","","65","","25","","11","","24.1","","100.64","","","","","","NA"
"2017-11-26 13:00","2017","11","26","13:00","2.2","","-4.1","","63","","25","","27","","24.1","","100.54","","","","","","Cloudy"
"2017-11-26 14:00","2017","11","26","14:00","2.1","","-4.5","","62","","24","","20","","24.1","","100.45","","","","","","NA"
"2017-11-26 15:00","2017","11","26","15:00","2.3","","-4.3","","62","","24","","27","","24.1","","100.40","","","","","","NA"
"2017-11-26 16:00","2017","11","26","16:00","2.3","","-4.5","","61","","24","","22","","24.1","","100.30","","","","","","Mostly Cloudy"
"2017-11-26 17:00","2017","11","26","17:00","1.6","","-3.9","","67","","24","","19","","24.1","","100.27","","","","","","NA"
"2017-11-26 18:00","2017","11","26","18:00","2.0","","-3.3","","68","","24","","25","","24.1","","100.18","","","","","","NA"
"2017-11-26 19:00","2017","11","26","19:00","2.4","","-2.1","","72","","23","","26","","24.1","","100.08","","","","","","Mainly Clear"
"2017-11-26 20:00","2017","11","26","20:00","4.1","","-0.8","","70","","24","","41","","24.1","","100.12","","","","","","NA"
"2017-11-26 21:00","2017","11","26","21:00","4.8","","-0.7","","68","","24","","40","","24.1","","100.13","","","","","","NA"
"2017-11-26 22:00","2017","11","26","22:00"
"2017-11-26 23:00","2017","11","26","23:00"
"2017-11-27 00:00","2017","11","27","00:00"
"2017-11-27 01:00","2017","11","27","01:00"
"2017-11-27 02:00","2017","11","27","02:00"
"2017-11-27 03:00","2017","11","27","03:00"
"2017-11-27 04:00","2017","11","27","04:00"
"2017-11-27 05:00","2017","11","27","05:00"
"2017-11-27 06:00","2017","11","27","06:00"
"2017-11-27 07:00","2017","11","27","07:00","3.4","","-4.2","","58","","30","","21","","24.1","","100.62","","","","","","Mostly Cloudy"
"2017-11-27 08:00","2017","11","27","08:00","3.5","","-3.9","","58","","31","","21","","24.1","","100.68","","","","","","NA"
"2017-11-27 09:00","2017","11","27","09:00","2.9","","-1.4","","73","","35","","9","","24.1","","100.80","","","","","","NA"
"2017-11-27 10:00","2017","11","27","10:00","3.9","","-1.9","","66","","34","","13","","24.1","","100.85","","","","","","Mostly Cloudy"
"2017-11-27 11:00","2017","11","27","11:00","3.6","","-2.3","","66","","1","","17","","24.1","","100.97","","","","","","NA"
"2017-11-27 12:00","2017","11","27","12:00","3.7","","-2.2","","65","","2","","10","","24.1","","100.96","","","","","","NA"
"2017-11-27 13:00","2017","11","27","13:00","3.7","","-2.4","","64","","1","","13","","24.1","","100.98","","","","","","Mainly Clear"
"2017-11-27 14:00","2017","11","27","14:00","3.7","","-3.0","","62","","1","","10","","24.1","","100.96","","","","","","NA"
"2017-11-27 15:00","2017","11","27","15:00","3.9","","-2.9","","61","","4","","3","","24.1","","100.99","","","","","","NA"
"2017-11-27 16:00","2017","11","27","16:00","2.0","","-3.1","","69","","7","","8","","24.1","","101.02","","","","","","Mostly Cloudy"
"2017-11-27 17:00","2017","11","27","17:00","0.0","","-2.8","","82","","8","","11","","24.1","","101.06","","","","-4","","NA"
"2017-11-27 18:00","2017","11","27","18:00","0.2","","-3.2","","78","","10","","13","","24.1","","101.07","","","","","","NA"
"2017-11-27 19:00","2017","11","27","19:00","-0.6","","-3.6","","81","","9","","15","","24.1","","101.07","","","","-5","","Mostly Cloudy"
"2017-11-27 20:00","2017","11","27","20:00","-1.5","","-3.9","","84","","9","","12","","24.1","","101.08","","","","-6","","NA"
"2017-11-27 21:00","2017","11","27","21:00","-2.1","","-4.0","","87","","9","","12","","24.1","","101.09","","","","-6","","NA"
"2017-11-27 22:00","2017","11","27","22:00"
"2017-11-27 23:00","2017","11","27","23:00"
"2017-11-28 00:00","2017","11","28","00:00"
"2017-11-28 01:00","2017","11","28","01:00"
"2017-11-28 02:00","2017","11","28","02:00"
"2017-11-28 03:00","2017","11","28","03:00"
"2017-11-28 04:00","2017","11","28","04:00"
"2017-11-28 05:00","2017","11","28","05:00"
"2017-11-28 06:00","2017","11","28","06:00"
"2017-11-28 07:00","2017","11","28","07:00","5.8","","2.9","","81","","20","","17","","24.1","","100.71","","","","","","Mainly Clear"
"2017-11-28 08:00","2017","11","28","08:00","7.4","","2.8","","72","","19","","25","","24.1","","100.61","","","","","","NA"
"2017-11-28 09:00","2017","11","28","09:00","10.6","","3.0","","59","","20","","30","","24.1","","100.58","","","","","","NA"
"2017-11-28 10:00","2017","11","28","10:00","13.1","","2.8","","49","","20","","36","","24.1","","100.57","","","","","","Mainly Clear"
"2017-11-28 11:00","2017","11","28","11:00","15.2","","2.0","","41","","21","","36","","24.1","","100.47","","","","","","NA"
"2017-11-28 12:00","2017","11","28","12:00","16.6","","1.4","","36","","22","","38","","24.1","","100.43","","","","","","NA"
"2017-11-28 13:00","2017","11","28","13:00","17.3","","1.4","","34","","22","","44","","24.1","","100.38","","","","","","Mainly Clear"
"2017-11-28 14:00","2017","11","28","14:00","17.5","","1.9","","35","","22","","43","","24.1","","100.28","","","","","","NA"
"2017-11-28 15:00","2017","11","28","15:00","17.8","","1.7","","34","","22","","53","","24.1","","100.22","","","","","","NA"
"2017-11-28 16:00","2017","11","28","16:00","17.3","","2.0","","35","","21","","42","","24.1","","100.19","","","","","","Mainly Clear"
"2017-11-28 17:00","2017","11","28","17:00","15.2","","2.8","","43","","21","","29","","24.1","","100.16","","","","","","NA"
"2017-11-28 18:00","2017","11","28","18:00","15.3","","2.9","","43","","21","","35","","24.1","","100.14","","","","","","NA"
"2017-11-28 19:00","2017","11","28","19:00","15.1","","3.0","","44","","21","","31","","24.1","","100.14","","","","","","Mostly Cloudy"
"2017-11-28 20:00","2017","11","28","20:00","14.9","","3.0","","44","","21","","40","","24.1","","100.12","","","","","","NA"
"2017-11-28 21:00","2017","11","28","21:00","15.3","","1.6","","39","","22","","41","","24.1","","100.11","","","","","","NA"
"2017-11-28 22:00","2017","11","28","22:00"
"2017-11-28 23:00","2017","11","28","23:00"
"2017-11-29 00:00","2017","11","29","00:00"
"2017-11-29 01:00","2017","11","29","01:00"
"2017-11-29 02:00","2017","11","29","02:00"
"2017-11-29 03:00","2017","11","29","03:00"
"2017-11-29 04:00","2017","11","29","04:00"
"2017-11-29 05:00","2017","11","29","05:00"
"2017-11-29 06:00","2017","11","29","06:00"
"2017-11-29 07:00","2017","11","29","07:00","6.6","","-0.8","","59","","28","","28","","24.1","","100.80","","","","","","Mainly Clear"
"2017-11-29 08:00","2017","11","29","08:00","6.0","","0.2","","67","","28","","20","","24.1","","100.94","","","","","","NA"
"2017-11-29 09:00","2017","11","29","09:00","6.9","","-0.2","","61","","28","","27","","24.1","","101.06","","","","","","NA"
"2017-11-29 10:00","2017","11","29","10:00","6.7","","-0.1","","62","","29","","26","","24.1","","101.21","","","","","","Mostly Cloudy"
"2017-11-29 11:00","2017","11","29","11:00","5.9","","-1.3","","60","","32","","30","","24.1","","101.35","","","","","","NA"
"2017-11-29 12:00","2017","11","29","12:00","5.7","","-2.1","","57","","32","","27","","24.1","","101.40","","","","","","NA"
"2017-11-29 13:00","2017","11","29","13:00","6.0","","-2.9","","53","","30","","21","","24.1","","101.44","","","","","","Mainly Clear"
"2017-11-29 14:00","2017","11","29","14:00","5.7","","-3.0","","53","","31","","19","","24.1","","101.47","","","","","","NA"
"2017-11-29 15:00","2017","11","29","15:00","5.5","","-4.2","","50","","28","","11","","24.1","","101.44","","","","","","NA"
"2017-11-29 16:00","2017","11","29","16:00","4.9","","-4.4","","51","","25","","6","","24.1","","101.52","","","","","","Mainly Clear"
"2017-11-29 17:00","2017","11","29","17:00","3.9","","-4.7","","53","","36","","1","","24.1","","101.53","","","","","","NA"
"2017-11-29 18:00","2017","11","29","18:00","0.8","","-4.9","","66","","0","","1","","24.1","","101.59","","","","","","NA"
"2017-11-29 19:00","2017","11","29","19:00","-0.5","","-4.8","","73","","16","","4","","24.1","","101.60","","","","-2","","Mainly Clear"
"2017-11-29 20:00","2017","11","29","20:00","-2.0","","-4.8","","81","","18","","7","","24.1","","101.58","","","","-5","","NA"
"2017-11-29 21:00","2017","11","29","21:00","-1.4","","-4.7","","79","","16","","4","","24.1","","101.55","","","","-3","","NA"
"2017-11-29 22:00","2017","11","29","22:00"
"2017-11-29 23:00","2017","11","29","23:00"
"2017-11-30 00:00","2017","11","30","00:00"
"2017-11-30 01:00","2017","11","30","01:00"
"2017-11-30 02:00","2017","11","30","02:00"
"2017-11-30 03:00","2017","11","30","03:00"
"2017-11-30 04:00","2017","11","30","04:00"
"2017-11-30 05:00","2017","11","30","05:00"
"2017-11-30 06:00","2017","11","30","06:00"
"2017-11-30 07:00","2017","11","30","07:00","-0.3","","-2.7","","84","","19","","14","","24.1","","100.65","","","","-5","","Mainly Clear"
"2017-11-30 08:00","2017","11","30","08:00","1.5","","-1.2","","82","","18","","18","","24.1","","100.51","","","","","","NA"
"2017-11-30 09:00","2017","11","30","09:00","5.1","","1.2","","76","","19","","15","","24.1","","100.42","","","","","","NA"
"2017-11-30 10:00","2017","11","30","10:00","5.8","","0.6","","69","","18","","22","","24.1","","100.26","","","","","","Cloudy"
"2017-11-30 11:00","2017","11","30","11:00","8.0","","1.8","","65","","20","","18","","24.1","","100.12","","","","","","NA"
"2017-11-30 12:00","2017","11","30","12:00","10.4","","2.3","","57","","20","","35","","24.1","","99.92","","","","","","NA"
"2017-11-30 13:00","2017","11","30","13:00","11.5","","3.0","","56","","21","","27","","24.1","","99.87","","","","","","Cloudy"
"2017-11-30 14:00","2017","11","30","14:00","9.3","","5.3","","76","","24","","32","","12.9","","99.85","","","","","","Rain Showers"
"2017-11-30 15:00","2017","11","30","15:00","8.0","","6.2","","88","","22","","19","","6.4","","99.82","","","","","","Rain Showers"
"2017-11-30 16:00","2017","11","30","16:00","8.1","","6.8","","91","","23","","31","","11.3","","99.85","","","","","","Mostly Cloudy"
"2017-11-30 17:00","2017","11","30","17:00","8.1","","6.2","","88","","25","","34","","12.9","","99.97","","","","","","NA"
"2017-11-30 18:00","2017","11","30","18:00","6.9","","4.6","","86","","27","","22","","9.7","","100.12","","","","","","Fog"
"2017-11-30 19:00","2017","11","30","19:00","6.6","","3.3","","79","","26","","18","","12.9","","100.23","","","","","","Cloudy"
"2017-11-30 20:00","2017","11","30","20:00","6.4","","3.5","","81","","24","","16","","16.1","","100.35","","","","","","NA"
"2017-11-30 21:00","2017","11","30","21:00","6.3","","3.8","","84","","23","","19","","24.1","","100.40","","","","","","NA"
"2017-11-30 22:00","2017","11","30","22:00"
"2017-11-30 23:00","2017","11","30","23:00"
