"Station Name","ST. CATHARINES / NIAGARA DISTRICT A"
"Province","ONTARIO"
"Latitude","43.19"
"Longitude","-79.17"
"Elevation","97.80"
"Climate Identifier","6137286"
"WMO Identifier",""
"TC Identifier","YSN"
"All times are specified in Local Standard Time (LST). Add 1 hour to adjust for Daylight Saving Time where and when it is observed."

"Legend"
"E","Estimated"
"M","Missing"
"NA","Not Available"

"Date/Time","Year","Month","Day","Time","Temp (°C)","Temp Flag","Dew Point Temp (°C)","Dew Point Temp Flag","Rel Hum (%)","Rel Hum Flag","Wind Dir (10s deg)","Wind Dir Flag","Wind Spd (km/h)","Wind Spd Flag","Visibility (km)","Visibility Flag","Stn Press (kPa)","Stn Press Flag","Hmdx","Hmdx Flag","Wind Chill","Wind Chill Flag","Weather"
"2014-12-01 00:00","2014","12","01","00:00"
"2014-12-01 01:00","2014","12","01","01:00"
"2014-12-01 02:00","2014","12","01","02:00"
"2014-12-01 03:00","2014","12","01","03:00"
"2014-12-01 04:00","2014","12","01","04:00"
"2014-12-01 05:00","2014","12","01","05:00"
"2014-12-01 06:00","2014","12","01","06:00"
"2014-12-01 07:00","2014","12","01","07:00","1.9","","-3.2","","69","","29","","17","","24.1","","101.17","","","","","","Mainly Clear"
"2014-12-01 08:00","2014","12","01","08:00","1.8","","-3.5","","68","","29","","21","","24.1","","101.28","","","","","","NA"
"2014-12-01 09:00","2014","12","01","09:00","1.9","","-4.0","","65","","30","","21","","24.1","","101.40","","","","","","NA"
"2014-12-01 10:00","2014","12","01","10:00","1.7","","-4.4","","64","","30","","23","","24.1","","101.49","","","","","","Cloudy"
"2014-12-01 11:00","2014","12","01","11:00","1.9","","-4.2","","64","","28","","26","","24.1","","101.56","","","","","","NA"
"2014-12-01 12:00","2014","12","01","12:00","1.6","","-5.6","","59","","28","","22","","24.1","","101.63","","","","","","NA"
"2014-12-01 13:00","2014","12","01","13:00","2.0","","-5.7","","57","","29","","26","","24.1","","101.63","","","","","","Cloudy"
"2014-12-01 14:00","2014","12","01","14:00","2.0","","-5.7","","57","","27","","19","","24.1","","101.70","","","","","","NA"
"2014-12-01 15:00","2014","12","01","15:00","1.4","","-7.9","","50","","31","","29","","24.1","","101.78","","","","","","NA"
"2014-12-01 16:00","2014","12","01","16:00","0.3","","-8.2","","53","","31","","26","","24.1","","101.94","","","","","","Mostly Cloudy"
"2014-12-01 17:00","2014","12","01","17:00","-0.9","","-9.1","","54","","31","","22","","24.1","","102.09","","","","-7","","NA"
"2014-12-01 18:00","2014","12","01","18:00","-2.0","","-10.1","","54","","33","","25","","24.1","","102.25","","","","-8","","NA"
"2014-12-01 19:00","2014","12","01","19:00","-2.4","","-10.0","","56","","32","","26","","24.1","","102.35","","","","-9","","Mostly Cloudy"
"2014-12-01 20:00","2014","12","01","20:00","-3.0","","-10.2","","58","","34","","25","","24.1","","102.46","","","","-10","","NA"
"2014-12-01 21:00","2014","12","01","21:00","-3.0","","-9.9","","59","","34","","20","","24.1","","102.52","","","","-9","","NA"
"2014-12-01 22:00","2014","12","01","22:00"
"2014-12-01 23:00","2014","12","01","23:00"
"2014-12-02 00:00","2014","12","02","00:00"
"2014-12-02 01:00","2014","12","02","01:00"
"2014-12-02 02:00","2014","12","02","02:00"
"2014-12-02 03:00","2014","12","02","03:00"
"2014-12-02 04:00","2014","12","02","04:00"
"2014-12-02 05:00","2014","12","02","05:00"
"2014-12-02 06:00","2014","12","02","06:00"
"2014-12-02 07:00","2014","12","02","07:00","-7.0","","-10.9","","74","","9","","14","","24.1","","102.51","","","","-13","","Mostly Cloudy"
"2014-12-02 08:00","2014","12","02","08:00","-6.6","","-10.5","","74","","8","","18","","24.1","","102.47","","","","-13","","NA"
"2014-12-02 09:00","2014","12","02","09:00","-5.2","","-9.9","","70","","8","","12","","24.1","","102.35","","","","-10","","NA"
"2014-12-02 10:00","2014","12","02","10:00","-3.5","","-8.8","","67","","7","","20","","24.1","","102.21","","","","-10","","Mostly Cloudy"
"2014-12-02 11:00","2014","12","02","11:00","-2.2","","-8.1","","64","","9","","22","","24.1","","102.06","","","","-8","","NA"
"2014-12-02 12:00","2014","12","02","12:00","-1.8","","-7.3","","66","","6","","23","","24.1","","101.86","","","","-8","","NA"
"2014-12-02 13:00","2014","12","02","13:00","-0.9","","-7.3","","62","","8","","21","","24.1","","101.65","","","","-7","","Cloudy"
"2014-12-02 14:00","2014","12","02","14:00","-0.3","","-7.2","","60","","9","","17","","24.1","","101.52","","","","-5","","NA"
"2014-12-02 15:00","2014","12","02","15:00","-0.4","","-6.6","","63","","7","","17","","24.1","","101.36","","","","-5","","NA"
"2014-12-02 16:00","2014","12","02","16:00","-0.3","","-5.5","","68","","9","","13","","8.1","","101.29","","","","-4","","Snow"
"2014-12-02 17:00","2014","12","02","17:00","-0.6","","-5.0","","72","","8","","12","","16.1","","101.16","","","","-5","","NA"
"2014-12-02 18:00","2014","12","02","18:00","-0.5","","-2.4","","87","","11","","10","","12.9","","101.08","","","","-4","","Snow"
"2014-12-02 19:00","2014","12","02","19:00","0.1","","-0.9","","93","","12","","11","","11.3","","100.98","","","","","","Snow"
"2014-12-02 20:00","2014","12","02","20:00","0.2","","-0.4","","96","","12","","11","","6.4","","100.88","","","","","","Drizzle,Fog"
"2014-12-02 21:00","2014","12","02","21:00","0.4","","-0.3","","95","","12","","9","","9.7","","100.78","","","","","","Fog"
"2014-12-02 22:00","2014","12","02","22:00"
"2014-12-02 23:00","2014","12","02","23:00"
"2014-12-03 00:00","2014","12","03","00:00"
"2014-12-03 01:00","2014","12","03","01:00"
"2014-12-03 02:00","2014","12","03","02:00"
"2014-12-03 03:00","2014","12","03","03:00"
"2014-12-03 04:00","2014","12","03","04:00"
"2014-12-03 05:00","2014","12","03","05:00"
"2014-12-03 06:00","2014","12","03","06:00"
"2014-12-03 07:00","2014","12","03","07:00","3.1","","1.6","","90","","24","","25","","9.7","","100.37","","","","","","Snow,Fog"
"2014-12-03 08:00","2014","12","03","08:00","2.8","","1.5","","91","","24","","20","","8.1","","100.36","","","","","","Snow,Fog"
"2014-12-03 09:00","2014","12","03","09:00","2.7","","0.4","","85","","26","","23","","9.7","","100.35","","","","","","Fog"
"2014-12-03 10:00","2014","12","03","10:00","2.5","","-0.1","","83","","26","","22","","14.5","","100.37","","","","","","Cloudy"
"2014-12-03 11:00","2014","12","03","11:00","2.1","","-0.3","","84","","25","","25","","8.1","","100.39","","","","","","Snow"
"2014-12-03 12:00","2014","12","03","12:00","2.3","","-0.5","","82","","26","","27","","12.9","","100.35","","","","","","NA"
"2014-12-03 13:00","2014","12","03","13:00","2.9","","-0.6","","78","","25","","35","","12.9","","100.32","","","","","","Cloudy"
"2014-12-03 14:00","2014","12","03","14:00","3.9","","-1.1","","70","","25","","35","","16.1","","100.34","","","","","","NA"
"2014-12-03 15:00","2014","12","03","15:00","3.1","","-1.7","","71","","25","","26","","16.1","","100.42","","","","","","NA"
"2014-12-03 16:00","2014","12","03","16:00","2.3","","-2.4","","71","","25","","37","","16.1","","100.53","","","","","","Mostly Cloudy"
"2014-12-03 17:00","2014","12","03","17:00","1.7","","-3.2","","70","","24","","30","","16.1","","100.62","","","","","","NA"
"2014-12-03 18:00","2014","12","03","18:00","1.3","","-3.8","","69","","23","","28","","16.1","","100.74","","","","","","NA"
"2014-12-03 19:00","2014","12","03","19:00","1.3","","-4.2","","67","","24","","27","","16.1","","100.85","","","","","","Mainly Clear"
"2014-12-03 20:00","2014","12","03","20:00","1.8","","-4.3","","64","","23","","27","","19.3","","100.88","","","","","","NA"
"2014-12-03 21:00","2014","12","03","21:00","1.5","","-4.4","","65","","25","","27","","24.1","","100.95","","","","","","NA"
"2014-12-03 22:00","2014","12","03","22:00"
"2014-12-03 23:00","2014","12","03","23:00"
"2014-12-04 00:00","2014","12","04","00:00"
"2014-12-04 01:00","2014","12","04","01:00"
"2014-12-04 02:00","2014","12","04","02:00"
"2014-12-04 03:00","2014","12","04","03:00"
"2014-12-04 04:00","2014","12","04","04:00"
"2014-12-04 05:00","2014","12","04","05:00"
"2014-12-04 06:00","2014","12","04","06:00"
"2014-12-04 07:00","2014","12","04","07:00","-3.1","","-7.1","","74","","24","","19","","24.1","","101.69","","","","-9","","Mainly Clear"
"2014-12-04 08:00","2014","12","04","08:00","-2.9","","-7.4","","71","","25","","17","","24.1","","101.74","","","","-8","","NA"
"2014-12-04 09:00","2014","12","04","09:00","-2.3","","-6.9","","71","","25","","16","","24.1","","101.84","","","","-7","","NA"
"2014-12-04 10:00","2014","12","04","10:00","-0.5","","-6.9","","62","","27","","13","","24.1","","101.92","","","","-5","","Cloudy"
"2014-12-04 11:00","2014","12","04","11:00","0.0","","-6.4","","62","","29","","18","","24.1","","101.93","","","","-5","","NA"
"2014-12-04 12:00","2014","12","04","12:00","0.4","","-7.6","","55","","26","","16","","24.1","","101.89","","","","","","NA"
"2014-12-04 13:00","2014","12","04","13:00","1.3","","-7.8","","51","","31","","10","","24.1","","101.85","","","","","","Mostly Cloudy"
"2014-12-04 14:00","2014","12","04","14:00","1.2","","-8.4","","49","","34","","12","","24.1","","101.85","","","","","","NA"
"2014-12-04 15:00","2014","12","04","15:00","0.3","","-8.2","","53","","2","","10","","24.1","","101.86","","","","","","NA"
"2014-12-04 16:00","2014","12","04","16:00","-0.4","","-9.1","","52","","1","","6","","24.1","","101.90","","","","-2","","Mainly Clear"
"2014-12-04 17:00","2014","12","04","17:00","-1.4","","-9.1","","56","","4","","4","","24.1","","101.93","","","","-3","","NA"
"2014-12-04 18:00","2014","12","04","18:00","-4.1","","-7.2","","79","","10","","11","","24.1","","101.96","","","","-9","","NA"
"2014-12-04 19:00","2014","12","04","19:00","-4.1","","-6.7","","82","","10","","9","","24.1","","101.99","","","","-8","","Mainly Clear"
"2014-12-04 20:00","2014","12","04","20:00","-4.1","","-7.1","","80","","10","","10","","24.1","","101.99","","","","-8","","NA"
"2014-12-04 21:00","2014","12","04","21:00","-4.1","","-6.7","","82","","11","","9","","24.1","","102.02","","","","-8","","NA"
"2014-12-04 22:00","2014","12","04","22:00"
"2014-12-04 23:00","2014","12","04","23:00"
"2014-12-05 00:00","2014","12","05","00:00"
"2014-12-05 01:00","2014","12","05","01:00"
"2014-12-05 02:00","2014","12","05","02:00"
"2014-12-05 03:00","2014","12","05","03:00"
"2014-12-05 04:00","2014","12","05","04:00"
"2014-12-05 05:00","2014","12","05","05:00"
"2014-12-05 06:00","2014","12","05","06:00"
"2014-12-05 07:00","2014","12","05","07:00","-1.9","","-5.2","","78","","12","","6","","24.1","","101.72","","","","-4","","Mostly Cloudy"
"2014-12-05 08:00","2014","12","05","08:00","-1.2","","-4.9","","76","","12","","13","","24.1","","101.67","","","","-5","","NA"
"2014-12-05 09:00","2014","12","05","09:00","-0.6","","-4.9","","73","","11","","12","","24.1","","101.66","","","","-5","","NA"
"2014-12-05 10:00","2014","12","05","10:00","0.5","","-4.2","","71","","9","","9","","24.1","","101.65","","","","","","Cloudy"
"2014-12-05 11:00","2014","12","05","11:00","2.0","","-3.9","","65","","12","","10","","24.1","","101.57","","","","","","NA"
"2014-12-05 12:00","2014","12","05","12:00","3.7","","-3.4","","60","","16","","10","","24.1","","101.46","","","","","","NA"
"2014-12-05 13:00","2014","12","05","13:00","4.2","","-3.1","","59","","19","","11","","24.1","","101.34","","","","","","Cloudy"
"2014-12-05 14:00","2014","12","05","14:00","4.8","","-2.5","","59","","17","","6","","24.1","","101.26","","","","","","NA"
"2014-12-05 15:00","2014","12","05","15:00","5.2","","-1.5","","62","","18","","7","","24.1","","101.25","","","","","","NA"
"2014-12-05 16:00","2014","12","05","16:00","4.6","","-1.2","","66","","17","","6","","19.3","","101.27","","","","","","Cloudy"
"2014-12-05 17:00","2014","12","05","17:00","4.5","","0.1","","73","","18","","12","","19.3","","101.22","","","","","","NA"
"2014-12-05 18:00","2014","12","05","18:00","3.7","","0.8","","81","","17","","4","","19.3","","101.22","","","","","","NA"
"2014-12-05 19:00","2014","12","05","19:00","3.7","","0.9","","82","","18","","12","","16.1","","101.24","","","","","","Cloudy"
"2014-12-05 20:00","2014","12","05","20:00","3.2","","1.6","","89","","17","","6","","12.9","","101.25","","","","","","NA"
"2014-12-05 21:00","2014","12","05","21:00","3.0","","1.7","","91","","36","","3","","11.3","","101.19","","","","","","NA"
"2014-12-05 22:00","2014","12","05","22:00"
"2014-12-05 23:00","2014","12","05","23:00"
"2014-12-06 00:00","2014","12","06","00:00"
"2014-12-06 01:00","2014","12","06","01:00"
"2014-12-06 02:00","2014","12","06","02:00"
"2014-12-06 03:00","2014","12","06","03:00"
"2014-12-06 04:00","2014","12","06","04:00"
"2014-12-06 05:00","2014","12","06","05:00"
"2014-12-06 06:00","2014","12","06","06:00"
"2014-12-06 07:00","2014","12","06","07:00","3.2","","1.1","","86","","1","","11","","12.9","","101.17","","","","","","Cloudy"
"2014-12-06 08:00","2014","12","06","08:00","3.0","","-0.1","","80","","2","","14","","11.3","","101.22","","","","","","NA"
"2014-12-06 09:00","2014","12","06","09:00","3.1","","-0.5","","77","","2","","18","","11.3","","101.29","","","","","","NA"
"2014-12-06 10:00","2014","12","06","10:00","3.6","","-0.4","","75","","3","","18","","16.1","","101.33","","","","","","Cloudy"
"2014-12-06 11:00","2014","12","06","11:00","3.7","","-0.5","","74","","2","","20","","16.1","","101.36","","","","","","NA"
"2014-12-06 12:00","2014","12","06","12:00","4.6","","-0.4","","70","","1","","22","","16.1","","101.37","","","","","","NA"
"2014-12-06 13:00","2014","12","06","13:00","4.1","","-0.3","","73","","2","","20","","19.3","","101.34","","","","","","Cloudy"
"2014-12-06 14:00","2014","12","06","14:00","5.1","","0.3","","71","","2","","19","","19.3","","101.36","","","","","","NA"
"2014-12-06 15:00","2014","12","06","15:00","4.3","","0.5","","76","","36","","13","","19.3","","101.46","","","","","","NA"
"2014-12-06 16:00","2014","12","06","16:00","4.0","","0.0","","75","","1","","10","","19.3","","101.57","","","","","","Cloudy"
"2014-12-06 17:00","2014","12","06","17:00","4.1","","-2.5","","62","","36","","28","","19.3","","101.70","","","","","","NA"
"2014-12-06 18:00","2014","12","06","18:00","3.7","","-3.8","","58","","35","","25","","24.1","","101.83","","","","","","NA"
"2014-12-06 19:00","2014","12","06","19:00","3.4","","-4.3","","57","","36","","22","","24.1","","101.97","","","","","","Cloudy"
"2014-12-06 20:00","2014","12","06","20:00","3.2","","-4.5","","57","","2","","22","","24.1","","102.05","","","","","","NA"
"2014-12-06 21:00","2014","12","06","21:00","2.0","","-5.4","","58","","1","","17","","24.1","","102.12","","","","","","NA"
"2014-12-06 22:00","2014","12","06","22:00"
"2014-12-06 23:00","2014","12","06","23:00"
"2014-12-07 00:00","2014","12","07","00:00"
"2014-12-07 01:00","2014","12","07","01:00"
"2014-12-07 02:00","2014","12","07","02:00"
"2014-12-07 03:00","2014","12","07","03:00"
"2014-12-07 04:00","2014","12","07","04:00"
"2014-12-07 05:00","2014","12","07","05:00"
"2014-12-07 06:00","2014","12","07","06:00"
"2014-12-07 07:00","2014","12","07","07:00","-3.5","","-8.4","","69","","4","","12","","24.1","","102.74","","","","-8","","Clear"
"2014-12-07 08:00","2014","12","07","08:00","-3.0","","-9.1","","63","","5","","16","","24.1","","102.84","","","","-8","","NA"
"2014-12-07 09:00","2014","12","07","09:00","-2.3","","-9.5","","58","","6","","22","","24.1","","102.92","","","","-8","","NA"
"2014-12-07 10:00","2014","12","07","10:00","-1.4","","-8.0","","61","","5","","20","","24.1","","102.96","","","","-7","","Clear"
"2014-12-07 11:00","2014","12","07","11:00","-1.2","","-8.9","","56","","5","","21","","24.1","","102.98","","","","-7","","NA"
"2014-12-07 12:00","2014","12","07","12:00","-1.0","","-8.3","","58","","4","","22","","24.1","","102.88","","","","-7","","NA"
"2014-12-07 13:00","2014","12","07","13:00","-0.8","","-8.3","","57","","3","","17","","24.1","","102.79","","","","-6","","Mainly Clear"
"2014-12-07 14:00","2014","12","07","14:00","-0.8","","-7.8","","59","","3","","17","","24.1","","102.74","","","","-6","","NA"
"2014-12-07 15:00","2014","12","07","15:00","-2.0","","-8.3","","62","","4","","17","","24.1","","102.73","","","","-7","","NA"
"2014-12-07 16:00","2014","12","07","16:00","-2.5","","-7.8","","67","","5","","12","","24.1","","102.72","","","","-7","","Cloudy"
"2014-12-07 17:00","2014","12","07","17:00","-3.6","","-8.9","","67","","6","","14","","24.1","","102.76","","","","-9","","NA"
"2014-12-07 18:00","2014","12","07","18:00","-4.3","","-9.2","","69","","6","","14","","24.1","","102.76","","","","-9","","NA"
"2014-12-07 19:00","2014","12","07","19:00","-4.4","","-8.9","","71","","8","","19","","24.1","","102.71","","","","-11","","Cloudy"
"2014-12-07 20:00","2014","12","07","20:00","-4.6","","-8.7","","73","","9","","17","","24.1","","102.66","","","","-10","","NA"
"2014-12-07 21:00","2014","12","07","21:00","-4.8","","-8.6","","75","","10","","14","","24.1","","102.61","","","","-10","","NA"
"2014-12-07 22:00","2014","12","07","22:00"
"2014-12-07 23:00","2014","12","07","23:00"
"2014-12-08 00:00","2014","12","08","00:00"
"2014-12-08 01:00","2014","12","08","01:00"
"2014-12-08 02:00","2014","12","08","02:00"
"2014-12-08 03:00","2014","12","08","03:00"
"2014-12-08 04:00","2014","12","08","04:00"
"2014-12-08 05:00","2014","12","08","05:00"
"2014-12-08 06:00","2014","12","08","06:00"
"2014-12-08 07:00","2014","12","08","07:00","-5.3","","-8.9","","76","","11","","9","","24.1","","102.01","","","","-9","","Cloudy"
"2014-12-08 08:00","2014","12","08","08:00","-5.1","","-8.5","","77","","10","","16","","24.1","","101.91","","","","-11","","NA"
"2014-12-08 09:00","2014","12","08","09:00","-3.7","","-8.4","","70","","9","","17","","24.1","","101.84","","","","-9","","NA"
"2014-12-08 10:00","2014","12","08","10:00","-2.4","","-7.9","","66","","8","","14","","24.1","","101.79","","","","-7","","Cloudy"
"2014-12-08 11:00","2014","12","08","11:00","-0.2","","-7.7","","57","","9","","12","","24.1","","101.69","","","","-4","","NA"
"2014-12-08 12:00","2014","12","08","12:00","2.1","","-8.1","","47","","10","","11","","24.1","","101.53","","","","","","NA"
"2014-12-08 13:00","2014","12","08","13:00","4.1","","-9.7","","36","","12","","10","","24.1","","101.41","","","","","","Cloudy"
"2014-12-08 14:00","2014","12","08","14:00","5.1","","-9.5","","34","","11","","9","","24.1","","101.29","","","","","","NA"
"2014-12-08 15:00","2014","12","08","15:00","5.4","","-11.3","","29","","16","","17","","24.1","","101.27","","","","","","NA"
"2014-12-08 16:00","2014","12","08","16:00","4.2","","-11.1","","32","","16","","13","","24.1","","101.22","","","","","","Mostly Cloudy"
"2014-12-08 17:00","2014","12","08","17:00","3.8","","-10.3","","35","","16","","17","","24.1","","101.17","","","","","","NA"
"2014-12-08 18:00","2014","12","08","18:00","3.4","","-9.3","","39","","17","","25","","24.1","","101.12","","","","","","NA"
"2014-12-08 19:00","2014","12","08","19:00","2.8","","-6.6","","50","","16","","17","","24.1","","101.11","","","","","","Cloudy"
"2014-12-08 20:00","2014","12","08","20:00","3.1","","-4.8","","56","","15","","14","","24.1","","101.04","","","","","","NA"
"2014-12-08 21:00","2014","12","08","21:00","3.3","","-3.5","","61","","17","","16","","24.1","","101.02","","","","","","NA"
"2014-12-08 22:00","2014","12","08","22:00"
"2014-12-08 23:00","2014","12","08","23:00"
"2014-12-09 00:00","2014","12","09","00:00"
"2014-12-09 01:00","2014","12","09","01:00"
"2014-12-09 02:00","2014","12","09","02:00"
"2014-12-09 03:00","2014","12","09","03:00"
"2014-12-09 04:00","2014","12","09","04:00"
"2014-12-09 05:00","2014","12","09","05:00"
"2014-12-09 06:00","2014","12","09","06:00"
"2014-12-09 07:00","2014","12","09","07:00","3.6","","-0.4","","75","","16","","6","","24.1","","100.86","","","","","","Cloudy"
"2014-12-09 08:00","2014","12","09","08:00","3.5","","0.0","","78","","9","","7","","24.1","","100.83","","","","","","NA"
"2014-12-09 09:00","2014","12","09","09:00","4.1","","0.1","","75","","14","","4","","24.1","","100.87","","","","","","NA"
"2014-12-09 10:00","2014","12","09","10:00","5.1","","0.5","","72","","17","","6","","24.1","","100.88","","","","","","Mostly Cloudy"
"2014-12-09 11:00","2014","12","09","11:00","5.6","","0.4","","69","","19","","7","","24.1","","100.84","","","","","","NA"
"2014-12-09 12:00","2014","12","09","12:00","7.2","","1.5","","67","","34","","8","","24.1","","100.77","","","","","","NA"
"2014-12-09 13:00","2014","12","09","13:00","4.8","","0.4","","73","","36","","11","","24.1","","100.73","","","","","","Mostly Cloudy"
"2014-12-09 14:00","2014","12","09","14:00","4.7","","0.3","","73","","2","","10","","24.1","","100.70","","","","","","NA"
"2014-12-09 15:00","2014","12","09","15:00","4.3","","1.2","","80","","36","","11","","24.1","","100.72","","","","","","NA"
"2014-12-09 16:00","2014","12","09","16:00","3.7","","1.4","","85","","3","","9","","24.1","","100.74","","","","","","Cloudy"
"2014-12-09 17:00","2014","12","09","17:00","3.3","","1.5","","88","","4","","12","","24.1","","100.73","","","","","","NA"
"2014-12-09 18:00","2014","12","09","18:00","3.0","","1.5","","90","","3","","5","","24.1","","100.73","","","","","","NA"
"2014-12-09 19:00","2014","12","09","19:00","2.8","","1.5","","91","","5","","8","","19.3","","100.75","","","","","","Cloudy"
"2014-12-09 20:00","2014","12","09","20:00","2.3","","1.9","","97","","35","","4","","8.1","","100.76","","","","","","Rain,Fog"
"2014-12-09 21:00","2014","12","09","21:00","2.5","","2.2","","98","","1","","7","","6.4","","100.74","","","","","","Rain,Fog"
"2014-12-09 22:00","2014","12","09","22:00"
"2014-12-09 23:00","2014","12","09","23:00"
"2014-12-10 00:00","2014","12","10","00:00"
"2014-12-10 01:00","2014","12","10","01:00"
"2014-12-10 02:00","2014","12","10","02:00"
"2014-12-10 03:00","2014","12","10","03:00"
"2014-12-10 04:00","2014","12","10","04:00"
"2014-12-10 05:00","2014","12","10","05:00"
"2014-12-10 06:00","2014","12","10","06:00"
"2014-12-10 07:00","2014","12","10","07:00","-0.5","","-3.4","","81","","35","","26","","24.1","","100.78","","","","-7","","Cloudy"
"2014-12-10 08:00","2014","12","10","08:00","-0.8","","-3.5","","82","","34","","25","","24.1","","100.77","","","","-7","","NA"
"2014-12-10 09:00","2014","12","10","09:00","-1.2","","-4.4","","79","","35","","28","","24.1","","100.81","","","","-8","","NA"
"2014-12-10 10:00","2014","12","10","10:00","-1.6","","-4.8","","79","","34","","23","","24.1","","100.80","","","","-8","","Cloudy"
"2014-12-10 11:00","2014","12","10","11:00","-1.9","","-5.2","","78","","36","","21","","24.1","","100.75","","","","-8","","NA"
"2014-12-10 12:00","2014","12","10","12:00","-2.2","","-5.2","","80","","34","","22","","24.1","","100.59","","","","-8","","NA"
"2014-12-10 13:00","2014","12","10","13:00","-1.9","","-5.2","","78","","32","","21","","24.1","","100.47","","","","-8","","Cloudy"
"2014-12-10 14:00","2014","12","10","14:00","-2.0","","-5.9","","75","","33","","25","","24.1","","100.42","","","","-8","","NA"
"2014-12-10 15:00","2014","12","10","15:00","-1.8","","-5.3","","77","","31","","25","","24.1","","100.35","","","","-8","","NA"
"2014-12-10 16:00","2014","12","10","16:00","-1.4","","-5.3","","75","","33","","15","","24.1","","100.34","","","","-6","","Cloudy"
"2014-12-10 17:00","2014","12","10","17:00","-1.5","","-5.9","","72","","33","","21","","24.1","","100.32","","","","-7","","NA"
"2014-12-10 18:00","2014","12","10","18:00","-1.4","","-5.8","","72","","33","","24","","24.1","","100.29","","","","-8","","NA"
"2014-12-10 19:00","2014","12","10","19:00","-2.0","","-5.5","","77","","32","","22","","8.1","","100.26","","","","-8","","Snow"
"2014-12-10 20:00","2014","12","10","20:00","-2.6","","-4.6","","86","","33","","28","","4.8","","100.19","","","","-10","","Snow"
"2014-12-10 21:00","2014","12","10","21:00","-3.1","","-4.7","","89","","33","","28","","3.2","","100.08","","","","-10","","Snow"
"2014-12-10 22:00","2014","12","10","22:00"
"2014-12-10 23:00","2014","12","10","23:00"
"2014-12-11 00:00","2014","12","11","00:00"
"2014-12-11 01:00","2014","12","11","01:00"
"2014-12-11 02:00","2014","12","11","02:00"
"2014-12-11 03:00","2014","12","11","03:00"
"2014-12-11 04:00","2014","12","11","04:00"
"2014-12-11 05:00","2014","12","11","05:00"
"2014-12-11 06:00","2014","12","11","06:00"
"2014-12-11 07:00","2014","12","11","07:00","-3.8","","-5.1","","91","","34","","23","","2.4","","99.73","","","","-11","","Snow"
"2014-12-11 08:00","2014","12","11","08:00","-3.9","","-4.9","","93","","34","","19","","1.6","","99.77","","","","-10","","Snow"
"2014-12-11 09:00","2014","12","11","09:00","-4.0","","-5.3","","91","","33","","21","","1.6","","99.79","","","","-10","","Snow"
"2014-12-11 10:00","2014","12","11","10:00","-3.7","","-5.0","","91","","31","","14","","1.6","","99.83","","","","-9","","Snow"
"2014-12-11 11:00","2014","12","11","11:00","-3.5","","-4.9","","90","","31","","18","","1.2","","99.83","","","","-9","","Snow"
"2014-12-11 12:00","2014","12","11","12:00","-3.6","","-5.6","","86","","32","","23","","1.2","","99.80","","","","-10","","Snow"
"2014-12-11 13:00","2014","12","11","13:00","-3.7","","-5.1","","90","","34","","21","","1.6","","99.79","","","","-10","","Snow,Blowing Snow"
"2014-12-11 14:00","2014","12","11","14:00","-3.2","","-4.3","","92","","33","","22","","1.2","","99.78","","","","-10","","Snow,Blowing Snow"
"2014-12-11 15:00","2014","12","11","15:00","-3.1","","-4.2","","92","","34","","19","","1.2","","99.81","","","","-9","","Snow,Blowing Snow"
"2014-12-11 16:00","2014","12","11","16:00","-3.0","","-4.1","","92","","35","","15","","1.2","","99.87","","","","-8","","Snow,Blowing Snow"
"2014-12-11 17:00","2014","12","11","17:00","-2.8","","-4.1","","91","","33","","7","","4.0","","99.92","","","","-6","","Snow"
"2014-12-11 18:00","2014","12","11","18:00","-2.5","","-3.6","","92","","27","","7","","4.8","","100.00","","","","-5","","Snow"
"2014-12-11 19:00","2014","12","11","19:00","-1.9","","-2.9","","93","","33","","10","","19.3","","100.09","","","","-6","","Snow"
"2014-12-11 20:00","2014","12","11","20:00","-1.7","","-3.0","","91","","33","","21","","4.8","","100.11","","","","-8","","Snow"
"2014-12-11 21:00","2014","12","11","21:00","-1.8","","-3.1","","91","","34","","21","","8.1","","100.18","","","","-8","","Snow"
"2014-12-11 22:00","2014","12","11","22:00"
"2014-12-11 23:00","2014","12","11","23:00"
"2014-12-12 00:00","2014","12","12","00:00"
"2014-12-12 01:00","2014","12","12","01:00"
"2014-12-12 02:00","2014","12","12","02:00"
"2014-12-12 03:00","2014","12","12","03:00"
"2014-12-12 04:00","2014","12","12","04:00"
"2014-12-12 05:00","2014","12","12","05:00"
"2014-12-12 06:00","2014","12","12","06:00"
"2014-12-12 07:00","2014","12","12","07:00","-1.1","","-4.0","","81","","34","","15","","12.9","","100.63","","","","-6","","Cloudy"
"2014-12-12 08:00","2014","12","12","08:00","-0.9","","-3.6","","82","","32","","10","","12.9","","100.69","","","","-4","","NA"
"2014-12-12 09:00","2014","12","12","09:00","-0.7","","-3.4","","82","","30","","6","","12.9","","100.77","","","","-3","","NA"
"2014-12-12 10:00","2014","12","12","10:00","0.0","","-3.2","","79","","26","","5","","12.9","","100.77","","","","-2","","Cloudy"
"2014-12-12 11:00","2014","12","12","11:00","0.4","","-3.2","","77","","27","","12","","12.9","","100.74","","","","","","NA"
"2014-12-12 12:00","2014","12","12","12:00","0.5","","-3.1","","77","","28","","20","","12.9","","100.75","","","","","","NA"
"2014-12-12 13:00","2014","12","12","13:00","1.1","","-2.7","","76","","28","","23","","24.1","","100.72","","","","","","Mostly Cloudy"
"2014-12-12 14:00","2014","12","12","14:00","1.5","","-4.6","","64","","26","","12","","24.1","","100.71","","","","","","NA"
"2014-12-12 15:00","2014","12","12","15:00","1.8","","-5.8","","57","","24","","13","","24.1","","100.71","","","","","","NA"
"2014-12-12 16:00","2014","12","12","16:00","0.7","","-4.9","","66","","22","","7","","24.1","","100.71","","","","","","Mostly Cloudy"
"2014-12-12 17:00","2014","12","12","17:00","-2.1","","-5.4","","78","","23","","8","","24.1","","100.71","","","","-5","","NA"
"2014-12-12 18:00","2014","12","12","18:00","0.1","","-4.2","","73","","26","","13","","24.1","","100.79","","","","","","NA"
"2014-12-12 19:00","2014","12","12","19:00","-0.6","","-3.0","","84","","25","","9","","24.1","","100.84","","","","-4","","Cloudy"
"2014-12-12 20:00","2014","12","12","20:00","2.9","","-0.9","","76","","29","","17","","24.1","","100.86","","","","","","NA"
"2014-12-12 21:00","2014","12","12","21:00","1.3","","-1.1","","84","","23","","12","","24.1","","100.86","","","","","","NA"
"2014-12-12 22:00","2014","12","12","22:00"
"2014-12-12 23:00","2014","12","12","23:00"
"2014-12-13 00:00","2014","12","13","00:00"
"2014-12-13 01:00","2014","12","13","01:00"
"2014-12-13 02:00","2014","12","13","02:00"
"2014-12-13 03:00","2014","12","13","03:00"
"2014-12-13 04:00","2014","12","13","04:00"
"2014-12-13 05:00","2014","12","13","05:00"
"2014-12-13 06:00","2014","12","13","06:00"
"2014-12-13 07:00","2014","12","13","07:00","0.4","","-0.8","","92","","23","","16","","9.7","","100.80","","","","","","Drizzle,Fog"
"2014-12-13 08:00","2014","12","13","08:00","0.7","","-0.9","","89","","25","","21","","4.8","","100.80","","","","","","Fog"
"2014-12-13 09:00","2014","12","13","09:00","0.6","","-0.9","","90","","25","","17","","4.8","","100.82","","","","","","Fog"
"2014-12-13 10:00","2014","12","13","10:00","0.5","","-1.0","","90","","26","","23","","4.8","","100.76","","","","","","Fog"
"2014-12-13 11:00","2014","12","13","11:00","0.6","","-1.2","","88","","25","","19","","4.8","","100.73","","","","","","Fog"
"2014-12-13 12:00","2014","12","13","12:00","0.7","","-1.2","","87","","24","","26","","6.4","","100.60","","","","","","Fog"
"2014-12-13 13:00","2014","12","13","13:00","0.9","","-1.0","","87","","25","","24","","6.4","","100.53","","","","","","Fog"
"2014-12-13 14:00","2014","12","13","14:00","1.2","","-0.9","","86","","24","","19","","8.1","","100.49","","","","","","Fog"
"2014-12-13 15:00","2014","12","13","15:00","1.6","","-0.7","","85","","25","","22","","9.7","","100.48","","","","","","Fog"
"2014-12-13 16:00","2014","12","13","16:00","1.7","","0.1","","89","","25","","23","","9.7","","100.48","","","","","","Fog"
"2014-12-13 17:00","2014","12","13","17:00","1.9","","0.3","","89","","25","","24","","9.7","","100.44","","","","","","Fog"
"2014-12-13 18:00","2014","12","13","18:00","2.0","","0.1","","87","","25","","21","","12.9","","100.38","","","","","","NA"
"2014-12-13 19:00","2014","12","13","19:00","1.9","","0.0","","87","","25","","21","","12.9","","100.39","","","","","","Cloudy"
"2014-12-13 20:00","2014","12","13","20:00","2.0","","0.1","","87","","25","","16","","8.1","","100.37","","","","","","Fog"
"2014-12-13 21:00","2014","12","13","21:00","2.1","","0.2","","87","","25","","19","","8.1","","100.36","","","","","","Fog"
"2014-12-13 22:00","2014","12","13","22:00"
"2014-12-13 23:00","2014","12","13","23:00"
"2014-12-14 00:00","2014","12","14","00:00"
"2014-12-14 01:00","2014","12","14","01:00"
"2014-12-14 02:00","2014","12","14","02:00"
"2014-12-14 03:00","2014","12","14","03:00"
"2014-12-14 04:00","2014","12","14","04:00"
"2014-12-14 05:00","2014","12","14","05:00"
"2014-12-14 06:00","2014","12","14","06:00"
"2014-12-14 07:00","2014","12","14","07:00","2.4","","1.4","","93","","24","","15","","11.3","","100.34","","","","","","Rain"
"2014-12-14 08:00","2014","12","14","08:00","2.5","","1.5","","93","","25","","14","","8.1","","100.40","","","","","","Fog"
"2014-12-14 09:00","2014","12","14","09:00","2.4","","1.7","","95","","24","","10","","6.4","","100.44","","","","","","Fog"
"2014-12-14 10:00","2014","12","14","10:00","2.5","","1.8","","95","","25","","10","","6.4","","100.49","","","","","","Fog"
"2014-12-14 11:00","2014","12","14","11:00","2.9","","2.0","","94","","25","","11","","6.4","","100.47","","","","","","Drizzle,Fog"
"2014-12-14 12:00","2014","12","14","12:00","3.2","","2.0","","92","","24","","12","","6.4","","100.41","","","","","","Drizzle,Fog"
"2014-12-14 13:00","2014","12","14","13:00","3.4","","2.1","","91","","24","","14","","6.4","","100.39","","","","","","Drizzle,Fog"
"2014-12-14 14:00","2014","12","14","14:00","3.3","","2.1","","92","","25","","10","","6.4","","100.39","","","","","","Drizzle,Fog"
"2014-12-14 15:00","2014","12","14","15:00","3.1","","2.1","","93","","25","","9","","8.1","","100.44","","","","","","Moderate Drizzle,Fog"
"2014-12-14 16:00","2014","12","14","16:00","3.1","","2.1","","93","","24","","8","","9.7","","100.47","","","","","","Drizzle,Fog"
"2014-12-14 17:00","2014","12","14","17:00","3.2","","2.0","","92","","25","","5","","12.9","","100.52","","","","","","NA"
"2014-12-14 18:00","2014","12","14","18:00","3.0","","1.5","","90","","23","","9","","12.9","","100.54","","","","","","NA"
"2014-12-14 19:00","2014","12","14","19:00","2.3","","1.1","","92","","23","","7","","24.1","","100.60","","","","","","Cloudy"
"2014-12-14 20:00","2014","12","14","20:00","2.9","","1.6","","91","","25","","6","","24.1","","100.63","","","","","","NA"
"2014-12-14 21:00","2014","12","14","21:00","2.9","","1.6","","91","","27","","7","","24.1","","100.63","","","","","","NA"
"2014-12-14 22:00","2014","12","14","22:00"
"2014-12-14 23:00","2014","12","14","23:00"
"2014-12-15 00:00","2014","12","15","00:00"
"2014-12-15 01:00","2014","12","15","01:00"
"2014-12-15 02:00","2014","12","15","02:00"
"2014-12-15 03:00","2014","12","15","03:00"
"2014-12-15 04:00","2014","12","15","04:00"
"2014-12-15 05:00","2014","12","15","05:00"
"2014-12-15 06:00","2014","12","15","06:00"
"2014-12-15 07:00","2014","12","15","07:00","1.4","","0.5","","94","","20","","7","","24.1","","100.72","","","","","","Cloudy"
"2014-12-15 08:00","2014","12","15","08:00","1.5","","0.6","","94","","20","","6","","16.1","","100.73","","","","","","NA"
"2014-12-15 09:00","2014","12","15","09:00","2.0","","1.0","","93","","19","","8","","12.9","","100.76","","","","","","NA"
"2014-12-15 10:00","2014","12","15","10:00","2.8","","1.5","","91","","17","","9","","11.3","","100.75","","","","","","Cloudy"
"2014-12-15 11:00","2014","12","15","11:00","3.4","","2.1","","91","","18","","7","","8.1","","100.74","","","","","","Fog"
"2014-12-15 12:00","2014","12","15","12:00","3.4","","2.5","","94","","17","","8","","4.8","","100.66","","","","","","Fog"
"2014-12-15 13:00","2014","12","15","13:00","3.9","","2.9","","93","","17","","9","","6.4","","100.56","","","","","","Fog"
"2014-12-15 14:00","2014","12","15","14:00","3.9","","2.9","","93","","14","","9","","6.4","","100.52","","","","","","Fog"
"2014-12-15 15:00","2014","12","15","15:00","3.9","","2.9","","93","","14","","9","","6.4","","100.52","","","","","","Fog"
"2014-12-15 16:00","2014","12","15","16:00","3.7","","2.8","","94","","13","","5","","8.1","","100.52","","","","","","Fog"
"2014-12-15 17:00","2014","12","15","17:00","3.2","","2.6","","96","","11","","8","","6.4","","100.51","","","","","","Fog"
"2014-12-15 18:00","2014","12","15","18:00","3.2","","2.6","","96","","8","","8","","9.7","","100.49","","","","","","Fog"
"2014-12-15 19:00","2014","12","15","19:00","3.2","","2.6","","96","","7","","7","","8.1","","100.49","","","","","","Fog"
"2014-12-15 20:00","2014","12","15","20:00","3.1","","2.7","","97","","10","","8","","8.1","","100.46","","","","","","Fog"
"2014-12-15 21:00","2014","12","15","21:00","3.2","","2.8","","97","","11","","8","","2.0","","100.39","","","","","","Fog"
"2014-12-15 22:00","2014","12","15","22:00"
"2014-12-15 23:00","2014","12","15","23:00"
"2014-12-16 00:00","2014","12","16","00:00"
"2014-12-16 01:00","2014","12","16","01:00"
"2014-12-16 02:00","2014","12","16","02:00"
"2014-12-16 03:00","2014","12","16","03:00"
"2014-12-16 04:00","2014","12","16","04:00"
"2014-12-16 05:00","2014","12","16","05:00"
"2014-12-16 06:00","2014","12","16","06:00"
"2014-12-16 07:00","2014","12","16","07:00","1.1","","1.0","","99","","7","","17","","4.8","","99.87","","","","","","Rain,Fog"
"2014-12-16 08:00","2014","12","16","08:00","1.3","","1.0","","98","","9","","11","","4.8","","99.89","","","","","","Rain,Fog"
"2014-12-16 09:00","2014","12","16","09:00","1.8","","1.4","","97","","11","","5","","6.4","","99.82","","","","","","Fog"
"2014-12-16 10:00","2014","12","16","10:00","2.1","","1.7","","97","","9","","14","","4.8","","99.71","","","","","","Rain,Fog"
"2014-12-16 11:00","2014","12","16","11:00","2.5","","2.2","","98","","11","","7","","6.4","","99.74","","","","","","Rain,Fog"
"2014-12-16 12:00","2014","12","16","12:00","3.8","","3.4","","97","","10","","8","","6.4","","99.56","","","","","","Fog"
"2014-12-16 13:00","2014","12","16","13:00","4.7","","4.1","","96","","8","","9","","8.1","","99.46","","","","","","Fog"
"2014-12-16 14:00","2014","12","16","14:00","4.9","","4.5","","97","","6","","8","","4.0","","99.43","","","","","","Rain,Fog"
"2014-12-16 15:00","2014","12","16","15:00","4.5","","4.1","","97","","7","","9","","3.2","","99.43","","","","","","Rain,Fog"
"2014-12-16 16:00","2014","12","16","16:00","4.6","","4.3","","98","","8","","5","","2.4","","99.45","","","","","","Rain,Fog"
"2014-12-16 17:00","2014","12","16","17:00","4.5","","4.2","","98","","9","","9","","2.0","","99.46","","","","","","Rain,Fog"
"2014-12-16 18:00","2014","12","16","18:00","4.7","","4.6","","99","","11","","7","","4.0","","99.48","","","","","","Rain,Fog"
"2014-12-16 19:00","2014","12","16","19:00","7.1","","6.5","","96","","20","","17","","9.7","","99.50","","","","","","Rain,Fog"
"2014-12-16 20:00","2014","12","16","20:00","7.2","","6.3","","94","","21","","22","","9.7","","99.53","","","","","","Rain,Fog"
"2014-12-16 21:00","2014","12","16","21:00","6.8","","6.1","","95","","21","","21","","8.1","","99.54","","","","","","Fog"
"2014-12-16 22:00","2014","12","16","22:00"
"2014-12-16 23:00","2014","12","16","23:00"
"2014-12-17 00:00","2014","12","17","00:00"
"2014-12-17 01:00","2014","12","17","01:00"
"2014-12-17 02:00","2014","12","17","02:00"
"2014-12-17 03:00","2014","12","17","03:00"
"2014-12-17 04:00","2014","12","17","04:00"
"2014-12-17 05:00","2014","12","17","05:00"
"2014-12-17 06:00","2014","12","17","06:00"
"2014-12-17 07:00","2014","12","17","07:00","5.2","","4.5","","95","","23","","15","","12.9","","99.80","","","","","","Rain"
"2014-12-17 08:00","2014","12","17","08:00","4.4","","2.8","","89","","25","","30","","12.9","","99.91","","","","","","Rain"
"2014-12-17 09:00","2014","12","17","09:00","3.1","","1.5","","89","","26","","30","","11.3","","100.02","","","","","","Rain"
"2014-12-17 10:00","2014","12","17","10:00","2.4","","0.8","","89","","25","","22","","9.7","","100.10","","","","","","Rain,Snow,Fog"
"2014-12-17 11:00","2014","12","17","11:00","1.5","","0.6","","94","","24","","26","","6.4","","100.13","","","","","","Rain,Snow,Fog"
"2014-12-17 12:00","2014","12","17","12:00","1.6","","0.6","","93","","25","","27","","8.1","","100.11","","","","","","Rain,Snow,Fog"
"2014-12-17 13:00","2014","12","17","13:00","1.9","","0.1","","88","","25","","24","","9.7","","100.08","","","","","","Rain,Snow,Fog"
"2014-12-17 14:00","2014","12","17","14:00","1.9","","0.0","","87","","26","","30","","6.4","","100.10","","","","","","Snow"
"2014-12-17 15:00","2014","12","17","15:00","1.6","","-0.3","","87","","25","","28","","12.9","","100.16","","","","","","NA"
"2014-12-17 16:00","2014","12","17","16:00","1.4","","-0.4","","88","","24","","29","","16.1","","100.20","","","","","","Cloudy"
"2014-12-17 17:00","2014","12","17","17:00","1.3","","-0.8","","86","","25","","24","","19.3","","100.25","","","","","","NA"
"2014-12-17 18:00","2014","12","17","18:00","1.2","","-1.4","","83","","25","","26","","24.1","","100.28","","","","","","NA"
"2014-12-17 19:00","2014","12","17","19:00","0.9","","-1.8","","82","","25","","24","","24.1","","100.35","","","","","","Cloudy"
"2014-12-17 20:00","2014","12","17","20:00","0.3","","-1.3","","89","","25","","24","","19.3","","100.41","","","","","","NA"
"2014-12-17 21:00","2014","12","17","21:00","-0.1","","-1.4","","91","","25","","22","","24.1","","100.42","","","","-6","","NA"
"2014-12-17 22:00","2014","12","17","22:00"
"2014-12-17 23:00","2014","12","17","23:00"
"2014-12-18 00:00","2014","12","18","00:00"
"2014-12-18 01:00","2014","12","18","01:00"
"2014-12-18 02:00","2014","12","18","02:00"
"2014-12-18 03:00","2014","12","18","03:00"
"2014-12-18 04:00","2014","12","18","04:00"
"2014-12-18 05:00","2014","12","18","05:00"
"2014-12-18 06:00","2014","12","18","06:00"
"2014-12-18 07:00","2014","12","18","07:00","-0.2","","-2.3","","86","","26","","21","","16.1","","100.74","","","","-6","","Cloudy"
"2014-12-18 08:00","2014","12","18","08:00","-0.2","","-2.0","","88","","26","","17","","16.1","","100.75","","","","-5","","NA"
"2014-12-18 09:00","2014","12","18","09:00","0.5","","-2.4","","81","","31","","22","","19.3","","100.75","","","","","","NA"
"2014-12-18 10:00","2014","12","18","10:00","0.5","","-2.9","","78","","31","","18","","19.3","","100.80","","","","","","Cloudy"
"2014-12-18 11:00","2014","12","18","11:00","0.6","","-2.6","","79","","31","","14","","19.3","","100.78","","","","","","NA"
"2014-12-18 12:00","2014","12","18","12:00","0.6","","-3.0","","77","","30","","14","","24.1","","100.74","","","","","","NA"
"2014-12-18 13:00","2014","12","18","13:00","0.5","","-2.7","","79","","28","","16","","24.1","","100.70","","","","","","Cloudy"
"2014-12-18 14:00","2014","12","18","14:00","0.2","","-2.4","","83","","25","","22","","16.1","","100.66","","","","","","Snow Grains"
"2014-12-18 15:00","2014","12","18","15:00","0.0","","-2.4","","84","","26","","20","","24.1","","100.67","","","","-5","","NA"
"2014-12-18 16:00","2014","12","18","16:00","0.1","","-2.3","","84","","29","","17","","24.1","","100.72","","","","","","Cloudy"
"2014-12-18 17:00","2014","12","18","17:00","-0.3","","-2.8","","83","","30","","18","","24.1","","100.74","","","","-5","","NA"
"2014-12-18 18:00","2014","12","18","18:00","-0.6","","-3.3","","82","","30","","18","","24.1","","100.78","","","","-6","","NA"
"2014-12-18 19:00","2014","12","18","19:00","-0.7","","-3.7","","80","","30","","19","","24.1","","100.80","","","","-6","","Cloudy"
"2014-12-18 20:00","2014","12","18","20:00","-1.0","","-4.0","","80","","31","","19","","24.1","","100.79","","","","-6","","NA"
"2014-12-18 21:00","2014","12","18","21:00","-1.3","","-4.3","","80","","32","","14","","24.1","","100.75","","","","-6","","NA"
"2014-12-18 22:00","2014","12","18","22:00"
"2014-12-18 23:00","2014","12","18","23:00"
"2014-12-19 00:00","2014","12","19","00:00"
"2014-12-19 01:00","2014","12","19","01:00"
"2014-12-19 02:00","2014","12","19","02:00"
"2014-12-19 03:00","2014","12","19","03:00"
"2014-12-19 04:00","2014","12","19","04:00"
"2014-12-19 05:00","2014","12","19","05:00"
"2014-12-19 06:00","2014","12","19","06:00"
"2014-12-19 07:00","2014","12","19","07:00","-2.8","","-6.1","","78","","30","","17","","16.1","","100.96","","","","-8","","Snow"
"2014-12-19 08:00","2014","12","19","08:00","-2.8","","-6.0","","79","","30","","16","","19.3","","101.02","","","","-8","","Snow"
"2014-12-19 09:00","2014","12","19","09:00","-2.8","","-5.6","","81","","31","","21","","24.1","","101.07","","","","-9","","NA"
"2014-12-19 10:00","2014","12","19","10:00","-2.6","","-6.3","","76","","29","","14","","24.1","","101.13","","","","-7","","Cloudy"
"2014-12-19 11:00","2014","12","19","11:00","-2.2","","-6.2","","74","","29","","20","","24.1","","101.14","","","","-8","","NA"
"2014-12-19 12:00","2014","12","19","12:00","-1.1","","-5.3","","73","","29","","16","","24.1","","101.07","","","","-6","","NA"
"2014-12-19 13:00","2014","12","19","13:00","-1.8","","-6.2","","72","","29","","14","","24.1","","101.04","","","","-6","","Mostly Cloudy"
"2014-12-19 14:00","2014","12","19","14:00","-1.2","","-6.4","","68","","29","","17","","24.1","","101.08","","","","-6","","NA"
"2014-12-19 15:00","2014","12","19","15:00","-0.9","","-5.3","","72","","28","","19","","24.1","","101.10","","","","-6","","NA"
"2014-12-19 16:00","2014","12","19","16:00","-0.8","","-4.9","","74","","28","","11","","24.1","","101.09","","","","-5","","Mostly Cloudy"
"2014-12-19 17:00","2014","12","19","17:00","-1.1","","-5.5","","72","","24","","16","","24.1","","101.17","","","","-6","","NA"
"2014-12-19 18:00","2014","12","19","18:00","-1.0","","-5.2","","73","","24","","19","","24.1","","101.24","","","","-6","","NA"
"2014-12-19 19:00","2014","12","19","19:00","-1.0","","-5.1","","74","","25","","14","","24.1","","101.29","","","","-5","","Cloudy"
"2014-12-19 20:00","2014","12","19","20:00","-1.3","","-5.4","","74","","26","","16","","24.1","","101.29","","","","-6","","NA"
"2014-12-19 21:00","2014","12","19","21:00","-1.6","","-5.5","","75","","25","","15","","24.1","","101.33","","","","-6","","NA"
"2014-12-19 22:00","2014","12","19","22:00"
"2014-12-19 23:00","2014","12","19","23:00"
"2014-12-20 00:00","2014","12","20","00:00"
"2014-12-20 01:00","2014","12","20","01:00"
"2014-12-20 02:00","2014","12","20","02:00"
"2014-12-20 03:00","2014","12","20","03:00"
"2014-12-20 04:00","2014","12","20","04:00"
"2014-12-20 05:00","2014","12","20","05:00"
"2014-12-20 06:00","2014","12","20","06:00"
"2014-12-20 07:00","2014","12","20","07:00","-5.1","","-6.4","","91","","23","","8","","24.1","","101.44","","","","-9","","Mostly Cloudy"
"2014-12-20 08:00","2014","12","20","08:00","-5.5","","-6.3","","94","","24","","7","","24.1","","101.43","","","","-9","","NA"
"2014-12-20 09:00","2014","12","20","09:00","-3.4","","-4.8","","90","","25","","8","","24.1","","101.45","","","","-7","","NA"
"2014-12-20 10:00","2014","12","20","10:00","-2.0","","-5.0","","80","","28","","13","","24.1","","101.48","","","","-6","","Mostly Cloudy"
"2014-12-20 11:00","2014","12","20","11:00","-1.5","","-5.0","","77","","31","","5","","24.1","","101.44","","","","-3","","NA"
"2014-12-20 12:00","2014","12","20","12:00","-1.2","","-5.3","","74","","32","","5","","24.1","","101.38","","","","-3","","NA"
"2014-12-20 13:00","2014","12","20","13:00","-0.8","","-5.8","","69","","36","","1","","24.1","","101.32","","","","-1","","Mostly Cloudy"
"2014-12-20 14:00","2014","12","20","14:00","0.0","","-6.0","","64","","18","","6","","24.1","","101.30","","","","-2","","NA"
"2014-12-20 15:00","2014","12","20","15:00","-0.1","","-4.9","","70","","34","","8","","24.1","","101.28","","","","-3","","NA"
"2014-12-20 16:00","2014","12","20","16:00","-1.1","","-5.3","","73","","34","","7","","24.1","","101.30","","","","-4","","Mostly Cloudy"
"2014-12-20 17:00","2014","12","20","17:00","-1.9","","-5.4","","77","","3","","4","","24.1","","101.34","","","","-3","","NA"
"2014-12-20 18:00","2014","12","20","18:00","-2.9","","-5.4","","83","","36","","3","","24.1","","101.35","","","","-4","","NA"
"2014-12-20 19:00","2014","12","20","19:00","-3.7","","-5.0","","91","","18","","5","","24.1","","101.38","","","","-6","","Clear"
"2014-12-20 20:00","2014","12","20","20:00","-3.5","","-5.2","","88","","18","","3","","24.1","","101.38","","","","-5","","NA"
"2014-12-20 21:00","2014","12","20","21:00","-4.8","","-5.8","","93","","18","","5","","24.1","","101.36","","","","-7","","NA"
"2014-12-20 22:00","2014","12","20","22:00"
"2014-12-20 23:00","2014","12","20","23:00"
"2014-12-21 00:00","2014","12","21","00:00"
"2014-12-21 01:00","2014","12","21","01:00"
"2014-12-21 02:00","2014","12","21","02:00"
"2014-12-21 03:00","2014","12","21","03:00"
"2014-12-21 04:00","2014","12","21","04:00"
"2014-12-21 05:00","2014","12","21","05:00"
"2014-12-21 06:00","2014","12","21","06:00"
"2014-12-21 07:00","2014","12","21","07:00","-2.5","","-4.4","","87","","23","","8","","19.3","","101.45","","","","-6","","Mostly Cloudy"
"2014-12-21 08:00","2014","12","21","08:00","-2.5","","-4.4","","87","","22","","10","","16.1","","101.51","","","","-6","","NA"
"2014-12-21 09:00","2014","12","21","09:00","-1.4","","-4.6","","79","","24","","10","","16.1","","101.52","","","","-5","","NA"
"2014-12-21 10:00","2014","12","21","10:00","-0.3","","-3.5","","79","","25","","8","","19.3","","101.54","","","","-3","","Mainly Clear"
"2014-12-21 11:00","2014","12","21","11:00","1.0","","-3.5","","72","","27","","9","","19.3","","101.51","","","","","","NA"
"2014-12-21 12:00","2014","12","21","12:00","1.0","","-3.7","","71","","32","","12","","24.1","","101.46","","","","","","NA"
"2014-12-21 13:00","2014","12","21","13:00","1.2","","-3.3","","72","","31","","5","","24.1","","101.42","","","","","","Mostly Cloudy"
"2014-12-21 14:00","2014","12","21","14:00","1.1","","-4.0","","69","","33","","7","","24.1","","101.38","","","","","","NA"
"2014-12-21 15:00","2014","12","21","15:00","1.0","","-5.1","","64","","31","","8","","24.1","","101.38","","","","","","NA"
"2014-12-21 16:00","2014","12","21","16:00","0.8","","-5.5","","63","","18","","5","","24.1","","101.40","","","","","","Mostly Cloudy"
"2014-12-21 17:00","2014","12","21","17:00","0.4","","-5.2","","66","","23","","8","","24.1","","101.43","","","","","","NA"
"2014-12-21 18:00","2014","12","21","18:00","0.2","","-5.6","","65","","19","","10","","24.1","","101.45","","","","","","NA"
"2014-12-21 19:00","2014","12","21","19:00","-1.2","","-5.4","","73","","18","","7","","24.1","","101.47","","","","-4","","Cloudy"
"2014-12-21 20:00","2014","12","21","20:00","-1.4","","-4.6","","79","","19","","7","","24.1","","101.47","","","","-4","","NA"
"2014-12-21 21:00","2014","12","21","21:00","-1.0","","-5.2","","73","","19","","4","","24.1","","101.46","","","","-2","","NA"
"2014-12-21 22:00","2014","12","21","22:00"
"2014-12-21 23:00","2014","12","21","23:00"
"2014-12-22 00:00","2014","12","22","00:00"
"2014-12-22 01:00","2014","12","22","01:00"
"2014-12-22 02:00","2014","12","22","02:00"
"2014-12-22 03:00","2014","12","22","03:00"
"2014-12-22 04:00","2014","12","22","04:00"
"2014-12-22 05:00","2014","12","22","05:00"
"2014-12-22 06:00","2014","12","22","06:00"
"2014-12-22 07:00","2014","12","22","07:00","-2.7","","-4.6","","87","","9","","10","","19.3","","101.13","","","","-7","","Mostly Cloudy"
"2014-12-22 08:00","2014","12","22","08:00","-2.8","","-4.7","","87","","8","","9","","19.3","","101.13","","","","-6","","NA"
"2014-12-22 09:00","2014","12","22","09:00","-1.8","","-4.0","","85","","8","","11","","19.3","","101.09","","","","-6","","NA"
"2014-12-22 10:00","2014","12","22","10:00","-0.3","","-4.2","","75","","12","","12","","19.3","","101.06","","","","-4","","Mostly Cloudy"
"2014-12-22 11:00","2014","12","22","11:00","1.3","","-4.4","","66","","15","","7","","19.3","","101.01","","","","","","NA"
"2014-12-22 12:00","2014","12","22","12:00","2.4","","-4.2","","62","","19","","3","","19.3","","100.88","","","","","","NA"
"2014-12-22 13:00","2014","12","22","13:00","3.2","","-3.6","","61","","6","","4","","19.3","","100.80","","","","","","Mainly Clear"
"2014-12-22 14:00","2014","12","22","14:00","4.2","","-3.3","","58","","9","","9","","19.3","","100.75","","","","","","NA"
"2014-12-22 15:00","2014","12","22","15:00","1.6","","-2.5","","74","","3","","9","","24.1","","100.69","","","","","","NA"
"2014-12-22 16:00","2014","12","22","16:00","1.4","","-2.4","","76","","4","","9","","24.1","","100.69","","","","","","Mostly Cloudy"
"2014-12-22 17:00","2014","12","22","17:00","0.5","","-2.1","","83","","4","","10","","16.1","","100.65","","","","","","NA"
"2014-12-22 18:00","2014","12","22","18:00","-0.8","","-2.5","","88","","4","","8","","16.1","","100.62","","","","-4","","NA"
"2014-12-22 19:00","2014","12","22","19:00","-1.0","","-2.9","","87","","7","","7","","24.1","","100.62","","","","-4","","Mostly Cloudy"
"2014-12-22 20:00","2014","12","22","20:00","-0.7","","-2.6","","87","","9","","9","","24.1","","100.56","","","","-4","","NA"
"2014-12-22 21:00","2014","12","22","21:00","-0.4","","-2.6","","85","","10","","7","","24.1","","100.54","","","","-3","","NA"
"2014-12-22 22:00","2014","12","22","22:00"
"2014-12-22 23:00","2014","12","22","23:00"
"2014-12-23 00:00","2014","12","23","00:00"
"2014-12-23 01:00","2014","12","23","01:00"
"2014-12-23 02:00","2014","12","23","02:00"
"2014-12-23 03:00","2014","12","23","03:00"
"2014-12-23 04:00","2014","12","23","04:00"
"2014-12-23 05:00","2014","12","23","05:00"
"2014-12-23 06:00","2014","12","23","06:00"
"2014-12-23 07:00","2014","12","23","07:00","0.7","","-0.3","","93","","8","","12","","16.1","","100.32","","","","","","Cloudy"
"2014-12-23 08:00","2014","12","23","08:00","0.4","","-0.5","","94","","9","","8","","12.9","","100.24","","","","","","NA"
"2014-12-23 09:00","2014","12","23","09:00","1.2","","0.2","","93","","6","","7","","16.1","","100.24","","","","","","NA"
"2014-12-23 10:00","2014","12","23","10:00","2.6","","1.3","","91","","9","","9","","19.3","","100.19","","","","","","Mostly Cloudy"
"2014-12-23 11:00","2014","12","23","11:00","4.8","","2.3","","84","","9","","4","","24.1","","100.24","","","","","","NA"
"2014-12-23 12:00","2014","12","23","12:00","6.6","","3.4","","80","","10","","11","","24.1","","100.11","","","","","","NA"
"2014-12-23 13:00","2014","12","23","13:00","7.4","","4.2","","80","","10","","5","","24.1","","100.05","","","","","","Cloudy"
"2014-12-23 14:00","2014","12","23","14:00","8.1","","4.7","","79","","4","","5","","19.3","","100.02","","","","","","NA"
"2014-12-23 15:00","2014","12","23","15:00","7.8","","4.8","","81","","5","","3","","19.3","","100.07","","","","","","NA"
"2014-12-23 16:00","2014","12","23","16:00","7.0","","4.3","","83","","36","","2","","19.3","","100.07","","","","","","Cloudy"
"2014-12-23 17:00","2014","12","23","17:00","6.4","","4.2","","86","","26","","3","","19.3","","100.07","","","","","","NA"
"2014-12-23 18:00","2014","12","23","18:00","6.2","","4.4","","88","","36","","2","","19.3","","100.08","","","","","","NA"
"2014-12-23 19:00","2014","12","23","19:00","5.2","","3.5","","89","","34","","7","","19.3","","100.06","","","","","","Cloudy"
"2014-12-23 20:00","2014","12","23","20:00","4.9","","3.3","","89","","36","","3","","19.3","","100.05","","","","","","NA"
"2014-12-23 21:00","2014","12","23","21:00","5.0","","3.3","","89","","36","","2","","19.3","","100.00","","","","","","NA"
"2014-12-23 22:00","2014","12","23","22:00"
"2014-12-23 23:00","2014","12","23","23:00"
"2014-12-24 00:00","2014","12","24","00:00"
"2014-12-24 01:00","2014","12","24","01:00"
"2014-12-24 02:00","2014","12","24","02:00"
"2014-12-24 03:00","2014","12","24","03:00"
"2014-12-24 04:00","2014","12","24","04:00"
"2014-12-24 05:00","2014","12","24","05:00"
"2014-12-24 06:00","2014","12","24","06:00"
"2014-12-24 07:00","2014","12","24","07:00","9.6","","8.4","","92","","17","","11","","16.1","","99.33","","","","","","Rain"
"2014-12-24 08:00","2014","12","24","08:00","5.2","","4.8","","97","","22","","7","","6.4","","99.23","","","","","","Rain,Fog"
"2014-12-24 09:00","2014","12","24","09:00","6.0","","5.7","","98","","34","","6","","9.7","","99.22","","","","","","Rain,Fog"
"2014-12-24 10:00","2014","12","24","10:00","7.1","","6.5","","96","","11","","3","","12.9","","99.24","","","","","","Cloudy"
"2014-12-24 11:00","2014","12","24","11:00","9.0","","8.4","","96","","13","","5","","19.3","","99.08","","","","","","NA"
"2014-12-24 12:00","2014","12","24","12:00","11.2","","9.6","","90","","36","","2","","24.1","","98.91","","","","","","NA"
"2014-12-24 13:00","2014","12","24","13:00","9.8","","8.9","","94","","6","","5","","24.1","","98.78","","","","","","Cloudy"
"2014-12-24 14:00","2014","12","24","14:00","11.1","","9.5","","90","","31","","3","","24.1","","98.66","","","","","","NA"
"2014-12-24 15:00","2014","12","24","15:00","12.7","","9.9","","83","","17","","8","","24.1","","98.56","","","","","","NA"
"2014-12-24 16:00","2014","12","24","16:00","12.3","","9.7","","84","","17","","13","","24.1","","98.42","","","","","","Cloudy"
"2014-12-24 17:00","2014","12","24","17:00","11.7","","9.3","","85","","14","","10","","24.1","","98.24","","","","","","NA"
"2014-12-24 18:00","2014","12","24","18:00","11.7","","9.1","","84","","17","","12","","24.1","","98.17","","","","","","Rain"
"2014-12-24 19:00","2014","12","24","19:00","11.6","","9.2","","85","","17","","18","","24.1","","98.05","","","","","","Mostly Cloudy"
"2014-12-24 20:00","2014","12","24","20:00","12.8","","9.8","","82","","17","","22","","24.1","","97.86","","","","","","NA"
"2014-12-24 21:00","2014","12","24","21:00","13.2","","9.9","","80","","16","","27","","24.1","","97.67","","","","","","NA"
"2014-12-24 22:00","2014","12","24","22:00"
"2014-12-24 23:00","2014","12","24","23:00"
"2014-12-25 00:00","2014","12","25","00:00"
"2014-12-25 01:00","2014","12","25","01:00"
"2014-12-25 02:00","2014","12","25","02:00"
"2014-12-25 03:00","2014","12","25","03:00"
"2014-12-25 04:00","2014","12","25","04:00"
"2014-12-25 05:00","2014","12","25","05:00"
"2014-12-25 06:00","2014","12","25","06:00"
"2014-12-25 07:00","2014","12","25","07:00","4.8","","1.5","","79","","25","","30","","24.1","","99.09","","","","","","Cloudy"
"2014-12-25 08:00","2014","12","25","08:00","4.7","","1.4","","79","","24","","27","","24.1","","99.20","","","","","","NA"
"2014-12-25 09:00","2014","12","25","09:00","4.8","","1.8","","81","","24","","34","","24.1","","99.36","","","","","","NA"
"2014-12-25 10:00","2014","12","25","10:00","4.8","","2.0","","82","","25","","33","","24.1","","99.53","","","","","","Cloudy"
"2014-12-25 11:00","2014","12","25","11:00","5.3","","1.6","","77","","25","","33","","24.1","","99.67","","","","","","NA"
"2014-12-25 12:00","2014","12","25","12:00","5.4","","1.0","","73","","26","","34","","24.1","","99.74","","","","","","NA"
"2014-12-25 13:00","2014","12","25","13:00","5.9","","1.1","","71","","27","","25","","24.1","","99.85","","","","","","Mostly Cloudy"
"2014-12-25 14:00","2014","12","25","14:00","5.6","","-0.5","","65","","27","","28","","24.1","","99.97","","","","","","NA"
"2014-12-25 15:00","2014","12","25","15:00","5.3","","-1.6","","61","","25","","41","","24.1","","100.13","","","","","","NA"
"2014-12-25 16:00","2014","12","25","16:00","4.9","","-1.1","","65","","26","","27","","24.1","","100.30","","","","","","Cloudy"
"2014-12-25 17:00","2014","12","25","17:00","4.8","","-1.0","","66","","26","","26","","24.1","","100.41","","","","","","NA"
"2014-12-25 18:00","2014","12","25","18:00","4.7","","-0.1","","71","","24","","25","","24.1","","100.49","","","","","","NA"
"2014-12-25 19:00","2014","12","25","19:00","4.4","","0.9","","78","","24","","24","","24.1","","100.56","","","","","","Cloudy"
"2014-12-25 20:00","2014","12","25","20:00","4.4","","0.9","","78","","23","","27","","24.1","","100.65","","","","","","NA"
"2014-12-25 21:00","2014","12","25","21:00","4.0","","0.0","","75","","23","","28","","24.1","","100.69","","","","","","NA"
"2014-12-25 22:00","2014","12","25","22:00"
"2014-12-25 23:00","2014","12","25","23:00"
"2014-12-26 00:00","2014","12","26","00:00"
"2014-12-26 01:00","2014","12","26","01:00"
"2014-12-26 02:00","2014","12","26","02:00"
"2014-12-26 03:00","2014","12","26","03:00"
"2014-12-26 04:00","2014","12","26","04:00"
"2014-12-26 05:00","2014","12","26","05:00"
"2014-12-26 06:00","2014","12","26","06:00"
"2014-12-26 07:00","2014","12","26","07:00","3.0","","0.2","","82","","21","","22","","24.1","","101.05","","","","","","Mostly Cloudy"
"2014-12-26 08:00","2014","12","26","08:00","3.2","","0.1","","80","","22","","21","","24.1","","101.03","","","","","","NA"
"2014-12-26 09:00","2014","12","26","09:00","4.4","","0.6","","76","","22","","30","","24.1","","101.06","","","","","","NA"
"2014-12-26 10:00","2014","12","26","10:00","5.4","","1.0","","73","","22","","25","","24.1","","101.10","","","","","","Mostly Cloudy"
"2014-12-26 11:00","2014","12","26","11:00","6.7","","1.6","","70","","22","","25","","24.1","","101.05","","","","","","NA"
"2014-12-26 12:00","2014","12","26","12:00","7.2","","1.5","","67","","21","","27","","24.1","","100.95","","","","","","NA"
"2014-12-26 13:00","2014","12","26","13:00","7.2","","1.3","","66","","22","","28","","24.1","","100.86","","","","","","Mostly Cloudy"
"2014-12-26 14:00","2014","12","26","14:00","8.3","","1.7","","63","","21","","20","","24.1","","100.80","","","","","","NA"
"2014-12-26 15:00","2014","12","26","15:00","7.9","","1.1","","62","","22","","24","","24.1","","100.73","","","","","","NA"
"2014-12-26 16:00","2014","12","26","16:00","7.6","","0.8","","62","","23","","27","","24.1","","100.78","","","","","","Mainly Clear"
"2014-12-26 17:00","2014","12","26","17:00","5.7","","0.9","","71","","23","","14","","24.1","","100.80","","","","","","NA"
"2014-12-26 18:00","2014","12","26","18:00","5.5","","1.1","","73","","24","","16","","24.1","","100.85","","","","","","NA"
"2014-12-26 19:00","2014","12","26","19:00","4.7","","1.0","","77","","23","","14","","24.1","","100.86","","","","","","Clear"
"2014-12-26 20:00","2014","12","26","20:00","4.4","","1.1","","79","","24","","13","","24.1","","100.83","","","","","","NA"
"2014-12-26 21:00","2014","12","26","21:00","4.5","","1.4","","80","","24","","14","","24.1","","100.82","","","","","","NA"
"2014-12-26 22:00","2014","12","26","22:00"
"2014-12-26 23:00","2014","12","26","23:00"
"2014-12-27 00:00","2014","12","27","00:00"
"2014-12-27 01:00","2014","12","27","01:00"
"2014-12-27 02:00","2014","12","27","02:00"
"2014-12-27 03:00","2014","12","27","03:00"
"2014-12-27 04:00","2014","12","27","04:00"
"2014-12-27 05:00","2014","12","27","05:00"
"2014-12-27 06:00","2014","12","27","06:00"
"2014-12-27 07:00","2014","12","27","07:00","6.1","","2.9","","80","","20","","13","","24.1","","100.87","","","","","","Cloudy"
"2014-12-27 08:00","2014","12","27","08:00","6.6","","2.9","","77","","21","","23","","24.1","","100.86","","","","","","NA"
"2014-12-27 09:00","2014","12","27","09:00","7.2","","3.5","","77","","21","","15","","24.1","","100.85","","","","","","NA"
"2014-12-27 10:00","2014","12","27","10:00","8.4","","3.5","","71","","20","","26","","24.1","","100.83","","","","","","Mostly Cloudy"
"2014-12-27 11:00","2014","12","27","11:00","9.3","","3.7","","68","","22","","23","","24.1","","100.81","","","","","","NA"
"2014-12-27 12:00","2014","12","27","12:00","10.3","","4.1","","65","","20","","35","","24.1","","100.64","","","","","","NA"
"2014-12-27 13:00","2014","12","27","13:00","10.2","","4.4","","67","","21","","23","","24.1","","100.51","","","","","","Cloudy"
"2014-12-27 14:00","2014","12","27","14:00","11.9","","5.1","","63","","21","","28","","24.1","","100.34","","","","","","NA"
"2014-12-27 15:00","2014","12","27","15:00","11.4","","5.3","","66","","20","","21","","24.1","","100.24","","","","","","NA"
"2014-12-27 16:00","2014","12","27","16:00","11.8","","5.5","","65","","21","","28","","24.1","","100.22","","","","","","Mostly Cloudy"
"2014-12-27 17:00","2014","12","27","17:00","12.0","","4.5","","60","","22","","28","","24.1","","100.20","","","","","","NA"
"2014-12-27 18:00","2014","12","27","18:00","11.6","","3.2","","56","","23","","28","","24.1","","100.16","","","","","","NA"
"2014-12-27 19:00","2014","12","27","19:00","10.3","","5.9","","74","","23","","29","","24.1","","100.19","","","","","","Cloudy"
"2014-12-27 20:00","2014","12","27","20:00","10.1","","6.1","","76","","23","","32","","24.1","","100.13","","","","","","NA"
"2014-12-27 21:00","2014","12","27","21:00","10.5","","5.7","","72","","23","","37","","24.1","","100.08","","","","","","NA"
"2014-12-27 22:00","2014","12","27","22:00"
"2014-12-27 23:00","2014","12","27","23:00"
"2014-12-28 00:00","2014","12","28","00:00"
"2014-12-28 01:00","2014","12","28","01:00"
"2014-12-28 02:00","2014","12","28","02:00"
"2014-12-28 03:00","2014","12","28","03:00"
"2014-12-28 04:00","2014","12","28","04:00"
"2014-12-28 05:00","2014","12","28","05:00"
"2014-12-28 06:00","2014","12","28","06:00"
"2014-12-28 07:00","2014","12","28","07:00","2.6","","-1.4","","75","","31","","26","","24.1","","100.29","","","","","","Cloudy"
"2014-12-28 08:00","2014","12","28","08:00","2.2","","-2.1","","73","","30","","22","","24.1","","100.38","","","","","","NA"
"2014-12-28 09:00","2014","12","28","09:00","2.2","","-2.3","","72","","30","","18","","24.1","","100.46","","","","","","NA"
"2014-12-28 10:00","2014","12","28","10:00","1.8","","-2.9","","71","","30","","21","","24.1","","100.53","","","","","","Cloudy"
"2014-12-28 11:00","2014","12","28","11:00","1.7","","-3.6","","68","","31","","25","","24.1","","100.53","","","","","","NA"
"2014-12-28 12:00","2014","12","28","12:00","1.9","","-4.2","","64","","29","","17","","24.1","","100.54","","","","","","NA"
"2014-12-28 13:00","2014","12","28","13:00","2.4","","-4.2","","62","","29","","17","","24.1","","100.48","","","","","","Cloudy"
"2014-12-28 14:00","2014","12","28","14:00","3.1","","-3.7","","61","","28","","15","","24.1","","100.48","","","","","","NA"
"2014-12-28 15:00","2014","12","28","15:00","3.2","","-4.3","","58","","27","","17","","24.1","","100.48","","","","","","NA"
"2014-12-28 16:00","2014","12","28","16:00","2.9","","-3.3","","64","","24","","15","","24.1","","100.52","","","","","","Cloudy"
"2014-12-28 17:00","2014","12","28","17:00","3.0","","-3.6","","62","","26","","20","","24.1","","100.59","","","","","","NA"
"2014-12-28 18:00","2014","12","28","18:00","2.3","","-3.4","","66","","26","","18","","24.1","","100.64","","","","","","NA"
"2014-12-28 19:00","2014","12","28","19:00","1.4","","-4.7","","64","","26","","19","","24.1","","100.70","","","","","","Mainly Clear"
"2014-12-28 20:00","2014","12","28","20:00","0.4","","-4.8","","68","","26","","16","","24.1","","100.76","","","","","","NA"
"2014-12-28 21:00","2014","12","28","21:00","-1.0","","-5.1","","74","","25","","12","","24.1","","100.78","","","","-5","","NA"
"2014-12-28 22:00","2014","12","28","22:00"
"2014-12-28 23:00","2014","12","28","23:00"
"2014-12-29 00:00","2014","12","29","00:00"
"2014-12-29 01:00","2014","12","29","01:00"
"2014-12-29 02:00","2014","12","29","02:00"
"2014-12-29 03:00","2014","12","29","03:00"
"2014-12-29 04:00","2014","12","29","04:00"
"2014-12-29 05:00","2014","12","29","05:00"
"2014-12-29 06:00","2014","12","29","06:00"
"2014-12-29 07:00","2014","12","29","07:00","-1.5","","-7.5","","64","","33","","18","","24.1","","101.09","","","","-7","","Mostly Cloudy"
"2014-12-29 08:00","2014","12","29","08:00","-1.0","","-6.4","","67","","36","","17","","24.1","","101.14","","","","-6","","NA"
"2014-12-29 09:00","2014","12","29","09:00","-0.8","","-7.2","","62","","35","","16","","24.1","","101.20","","","","-6","","NA"
"2014-12-29 10:00","2014","12","29","10:00","-0.5","","-7.6","","59","","34","","15","","24.1","","101.28","","","","-5","","Mostly Cloudy"
"2014-12-29 11:00","2014","12","29","11:00","-0.2","","-8.2","","55","","34","","14","","24.1","","101.31","","","","-4","","NA"
"2014-12-29 12:00","2014","12","29","12:00","-0.4","","-8.6","","54","","32","","14","","24.1","","101.30","","","","-5","","NA"
"2014-12-29 13:00","2014","12","29","13:00","-1.0","","-7.0","","64","","35","","7","","16.1","","101.27","","","","-4","","Snow Showers"
"2014-12-29 14:00","2014","12","29","14:00","-1.7","","-5.9","","73","","36","","1","","6.4","","101.27","","","","-2","","Snow Showers"
"2014-12-29 15:00","2014","12","29","15:00","-2.0","","-4.4","","84","","30","","13","","8.1","","101.31","","","","-6","","Snow Showers"
"2014-12-29 16:00","2014","12","29","16:00","-2.2","","-4.9","","82","","20","","4","","19.3","","101.33","","","","-4","","Mostly Cloudy"
"2014-12-29 17:00","2014","12","29","17:00","-2.8","","-4.7","","87","","24","","5","","24.1","","101.34","","","","-5","","NA"
"2014-12-29 18:00","2014","12","29","18:00","-2.7","","-5.5","","81","","25","","12","","24.1","","101.37","","","","-7","","NA"
"2014-12-29 19:00","2014","12","29","19:00","-3.0","","-9.3","","62","","25","","13","","24.1","","101.43","","","","-8","","Mostly Cloudy"
"2014-12-29 20:00","2014","12","29","20:00","-1.7","","-9.8","","54","","30","","20","","24.1","","101.45","","","","-7","","NA"
"2014-12-29 21:00","2014","12","29","21:00","-2.3","","-11.4","","50","","30","","23","","24.1","","101.49","","","","-9","","NA"
"2014-12-29 22:00","2014","12","29","22:00"
"2014-12-29 23:00","2014","12","29","23:00"
"2014-12-30 00:00","2014","12","30","00:00"
"2014-12-30 01:00","2014","12","30","01:00"
"2014-12-30 02:00","2014","12","30","02:00"
"2014-12-30 03:00","2014","12","30","03:00"
"2014-12-30 04:00","2014","12","30","04:00"
"2014-12-30 05:00","2014","12","30","05:00"
"2014-12-30 06:00","2014","12","30","06:00"
"2014-12-30 07:00","2014","12","30","07:00","-4.1","","-9.2","","68","","35","","8","","24.1","","101.80","","","","-8","","Mostly Cloudy"
"2014-12-30 08:00","2014","12","30","08:00","-4.2","","-8.7","","71","","36","","2","","24.1","","101.88","","","","-5","","NA"
"2014-12-30 09:00","2014","12","30","09:00","-4.2","","-8.3","","73","","10","","7","","24.1","","101.95","","","","-7","","NA"
"2014-12-30 10:00","2014","12","30","10:00","-4.4","","-7.2","","81","","11","","4","","11.3","","102.00","","","","-6","","Snow Showers"
"2014-12-30 11:00","2014","12","30","11:00","-3.4","","-10.5","","58","","30","","15","","19.3","","101.98","","","","-9","","NA"
"2014-12-30 12:00","2014","12","30","12:00","-3.8","","-9.3","","66","","32","","18","","19.3","","101.87","","","","-10","","NA"
"2014-12-30 13:00","2014","12","30","13:00","-3.4","","-11.4","","54","","30","","11","","24.1","","101.77","","","","-8","","Mostly Cloudy"
"2014-12-30 14:00","2014","12","30","14:00","-2.2","","-12.6","","45","","25","","14","","24.1","","101.72","","","","-7","","NA"
"2014-12-30 15:00","2014","12","30","15:00","-2.8","","-12.1","","49","","26","","18","","19.3","","101.72","","","","-8","","NA"
"2014-12-30 16:00","2014","12","30","16:00","-3.2","","-10.3","","58","","27","","22","","19.3","","101.72","","","","-10","","Mostly Cloudy"
"2014-12-30 17:00","2014","12","30","17:00","-3.7","","-11.5","","55","","26","","22","","19.3","","101.70","","","","-10","","NA"
"2014-12-30 18:00","2014","12","30","18:00","-4.8","","-14.2","","48","","26","","25","","24.1","","101.75","","","","-12","","NA"
"2014-12-30 19:00","2014","12","30","19:00","-4.9","","-13.8","","50","","25","","22","","24.1","","101.79","","","","-12","","Mostly Cloudy"
"2014-12-30 20:00","2014","12","30","20:00","-5.3","","-13.0","","55","","27","","27","","24.1","","101.80","","","","-13","","NA"
"2014-12-30 21:00","2014","12","30","21:00","-5.7","","-13.6","","54","","25","","24","","24.1","","101.77","","","","-13","","NA"
"2014-12-30 22:00","2014","12","30","22:00"
"2014-12-30 23:00","2014","12","30","23:00"
"2014-12-31 00:00","2014","12","31","00:00"
"2014-12-31 01:00","2014","12","31","01:00"
"2014-12-31 02:00","2014","12","31","02:00"
"2014-12-31 03:00","2014","12","31","03:00"
"2014-12-31 04:00","2014","12","31","04:00"
"2014-12-31 05:00","2014","12","31","05:00"
"2014-12-31 06:00","2014","12","31","06:00"
"2014-12-31 07:00","2014","12","31","07:00","-9.3","","-14.0","","69","","24","","18","","24.1","","101.63","","","","-17","","Mainly Clear"
"2014-12-31 08:00","2014","12","31","08:00","-9.6","","-13.9","","71","","24","","17","","24.1","","101.61","","","","-17","","NA"
"2014-12-31 09:00","2014","12","31","09:00","-8.4","","-14.1","","64","","24","","27","","24.1","","101.63","","","","-17","","NA"
"2014-12-31 10:00","2014","12","31","10:00","-6.8","","-14.6","","54","","24","","31","","24.1","","101.61","","","","-15","","Mainly Clear"
"2014-12-31 11:00","2014","12","31","11:00","-5.3","","-15.2","","46","","25","","26","","24.1","","101.53","","","","-13","","NA"
"2014-12-31 12:00","2014","12","31","12:00","-4.9","","-15.7","","43","","24","","22","","24.1","","101.38","","","","-12","","NA"
"2014-12-31 13:00","2014","12","31","13:00","-5.1","","-16.4","","41","","26","","31","","24.1","","101.25","","","","-13","","Mainly Clear"
"2014-12-31 14:00","2014","12","31","14:00","-4.6","","-14.8","","45","","25","","30","","24.1","","101.17","","","","-12","","NA"
"2014-12-31 15:00","2014","12","31","15:00","-4.8","","-14.5","","47","","25","","23","","24.1","","101.05","","","","-12","","NA"
"2014-12-31 16:00","2014","12","31","16:00","-5.4","","-14.0","","51","","25","","28","","24.1","","100.97","","","","-13","","Mainly Clear"
"2014-12-31 17:00","2014","12","31","17:00","-6.2","","-13.6","","56","","25","","30","","24.1","","100.88","","","","-15","","NA"
"2014-12-31 18:00","2014","12","31","18:00","-7.0","","-12.5","","65","","25","","19","","24.1","","100.85","","","","-14","","NA"
"2014-12-31 19:00","2014","12","31","19:00","-6.7","","-13.9","","57","","25","","26","","24.1","","100.76","","","","-15","","Mostly Cloudy"
"2014-12-31 20:00","2014","12","31","20:00","-6.3","","-13.5","","57","","25","","29","","24.1","","100.69","","","","-15","","NA"
"2014-12-31 21:00","2014","12","31","21:00","-5.8","","-14.2","","52","","25","","27","","24.1","","100.60","","","","-14","","NA"
"2014-12-31 22:00","2014","12","31","22:00"
"2014-12-31 23:00","2014","12","31","23:00"
