"Station Name","ST. CATHARINES / NIAGARA DISTRICT A"
"Province","ONTARIO"
"Latitude","43.19"
"Longitude","-79.17"
"Elevation","97.80"
"Climate Identifier","6137286"
"WMO Identifier",""
"TC Identifier","YSN"
"All times are specified in Local Standard Time (LST). Add 1 hour to adjust for Daylight Saving Time where and when it is observed."

"Legend"
"E","Estimated"
"M","Missing"
"NA","Not Available"

"Date/Time","Year","Month","Day","Time","Temp (°C)","Temp Flag","Dew Point Temp (°C)","Dew Point Temp Flag","Rel Hum (%)","Rel Hum Flag","Wind Dir (10s deg)","Wind Dir Flag","Wind Spd (km/h)","Wind Spd Flag","Visibility (km)","Visibility Flag","Stn Press (kPa)","Stn Press Flag","Hmdx","Hmdx Flag","Wind Chill","Wind Chill Flag","Weather"
"2015-11-01 00:00","2015","11","01","00:00"
"2015-11-01 01:00","2015","11","01","01:00"
"2015-11-01 02:00","2015","11","01","02:00"
"2015-11-01 03:00","2015","11","01","03:00"
"2015-11-01 04:00","2015","11","01","04:00"
"2015-11-01 05:00","2015","11","01","05:00"
"2015-11-01 06:00","2015","11","01","06:00"
"2015-11-01 07:00","2015","11","01","07:00","12.3","","10.6","","89","","24","","19","","24.1","","99.34","","","","","","Mostly Cloudy"
"2015-11-01 08:00","2015","11","01","08:00","12.5","","9.9","","84","","25","","24","","24.1","","99.42","","","","","","NA"
"2015-11-01 09:00","2015","11","01","09:00","13.8","","9.1","","73","","25","","30","","24.1","","99.46","","","","","","NA"
"2015-11-01 10:00","2015","11","01","10:00","14.8","","8.1","","64","","24","","35","","24.1","","99.49","","","","","","Mainly Clear"
"2015-11-01 11:00","2015","11","01","11:00","15.5","","7.6","","59","","25","","33","","24.1","","99.53","","","","","","NA"
"2015-11-01 12:00","2015","11","01","12:00","15.9","","7.2","","56","","24","","37","","24.1","","99.52","","","","","","NA"
"2015-11-01 13:00","2015","11","01","13:00","16.2","","6.4","","52","","25","","30","","24.1","","99.59","","","","","","Mostly Cloudy"
"2015-11-01 14:00","2015","11","01","14:00","16.0","","9.0","","63","","23","","34","","24.1","","99.65","","","","","","NA"
"2015-11-01 15:00","2015","11","01","15:00","15.3","","7.7","","60","","26","","19","","24.1","","99.76","","","","","","NA"
"2015-11-01 16:00","2015","11","01","16:00","15.0","","8.1","","63","","25","","22","","24.1","","99.83","","","","","","Mostly Cloudy"
"2015-11-01 17:00","2015","11","01","17:00","13.9","","8.8","","71","","23","","14","","24.1","","99.93","","","","","","NA"
"2015-11-01 18:00","2015","11","01","18:00","13.7","","8.6","","71","","23","","21","","24.1","","100.04","","","","","","NA"
"2015-11-01 19:00","2015","11","01","19:00","13.5","","8.6","","72","","24","","22","","24.1","","100.14","","","","","","Mostly Cloudy"
"2015-11-01 20:00","2015","11","01","20:00","13.1","","8.6","","74","","25","","14","","24.1","","100.17","","","","","","NA"
"2015-11-01 21:00","2015","11","01","21:00","10.7","","8.3","","85","","29","","11","","19.3","","100.21","","","","","","NA"
"2015-11-01 22:00","2015","11","01","22:00"
"2015-11-01 23:00","2015","11","01","23:00"
"2015-11-02 00:00","2015","11","02","00:00"
"2015-11-02 01:00","2015","11","02","01:00"
"2015-11-02 02:00","2015","11","02","02:00"
"2015-11-02 03:00","2015","11","02","03:00"
"2015-11-02 04:00","2015","11","02","04:00"
"2015-11-02 05:00","2015","11","02","05:00"
"2015-11-02 06:00","2015","11","02","06:00"
"2015-11-02 07:00","2015","11","02","07:00","3.7","","2.7","","93","","19","","9","","24.1","","100.71","","","","","","Mainly Clear"
"2015-11-02 08:00","2015","11","02","08:00","6.8","","5.6","","92","","21","","7","","24.1","","100.75","","","","","","NA"
"2015-11-02 09:00","2015","11","02","09:00","11.1","","6.3","","72","","25","","5","","24.1","","100.74","","","","","","NA"
"2015-11-02 10:00","2015","11","02","10:00","12.9","","5.9","","62","","24","","4","","24.1","","100.72","","","","","","Mainly Clear"
"2015-11-02 11:00","2015","11","02","11:00","14.1","","5.3","","55","","36","","3","","24.1","","100.72","","","","","","NA"
"2015-11-02 12:00","2015","11","02","12:00","15.2","","6.3","","55","","36","","2","","24.1","","100.67","","","","","","NA"
"2015-11-02 13:00","2015","11","02","13:00","15.9","","6.4","","53","","21","","13","","24.1","","100.62","","","","","","Mainly Clear"
"2015-11-02 14:00","2015","11","02","14:00","16.0","","7.6","","57","","31","","4","","24.1","","100.60","","","","","","NA"
"2015-11-02 15:00","2015","11","02","15:00","16.0","","7.1","","55","","21","","14","","24.1","","100.57","","","","","","NA"
"2015-11-02 16:00","2015","11","02","16:00","14.6","","6.0","","56","","19","","16","","24.1","","100.57","","","","","","Mainly Clear"
"2015-11-02 17:00","2015","11","02","17:00","12.0","","6.1","","67","","20","","11","","24.1","","100.61","","","","","","NA"
"2015-11-02 18:00","2015","11","02","18:00","10.6","","6.0","","73","","21","","6","","24.1","","100.64","","","","","","NA"
"2015-11-02 19:00","2015","11","02","19:00","8.4","","5.7","","83","","18","","5","","24.1","","100.64","","","","","","Mainly Clear"
"2015-11-02 20:00","2015","11","02","20:00","9.3","","5.9","","79","","17","","9","","24.1","","100.60","","","","","","NA"
"2015-11-02 21:00","2015","11","02","21:00","9.9","","6.8","","81","","18","","9","","24.1","","100.58","","","","","","NA"
"2015-11-02 22:00","2015","11","02","22:00"
"2015-11-02 23:00","2015","11","02","23:00"
"2015-11-03 00:00","2015","11","03","00:00"
"2015-11-03 01:00","2015","11","03","01:00"
"2015-11-03 02:00","2015","11","03","02:00"
"2015-11-03 03:00","2015","11","03","03:00"
"2015-11-03 04:00","2015","11","03","04:00"
"2015-11-03 05:00","2015","11","03","05:00"
"2015-11-03 06:00","2015","11","03","06:00"
"2015-11-03 07:00","2015","11","03","07:00","13.0","","7.7","","70","","24","","16","","24.1","","100.84","","","","","","Clear"
"2015-11-03 08:00","2015","11","03","08:00","14.3","","9.0","","70","","23","","19","","24.1","","100.86","","","","","","NA"
"2015-11-03 09:00","2015","11","03","09:00","16.6","","9.8","","64","","24","","16","","24.1","","100.93","","","","","","NA"
"2015-11-03 10:00","2015","11","03","10:00","18.3","","10.0","","58","","25","","15","","24.1","","100.98","","","","","","Clear"
"2015-11-03 11:00","2015","11","03","11:00","19.9","","9.9","","52","","26","","15","","24.1","","100.98","","","","","","NA"
"2015-11-03 12:00","2015","11","03","12:00","21.0","","10.9","","52","","26","","12","","24.1","","100.96","","","","","","NA"
"2015-11-03 13:00","2015","11","03","13:00","19.1","","11.3","","60","","34","","12","","24.1","","100.95","","","","","","Clear"
"2015-11-03 14:00","2015","11","03","14:00","19.3","","9.9","","54","","2","","7","","24.1","","100.94","","","","","","NA"
"2015-11-03 15:00","2015","11","03","15:00","19.7","","9.4","","51","","4","","5","","24.1","","100.96","","","","","","NA"
"2015-11-03 16:00","2015","11","03","16:00","18.8","","11.2","","61","","8","","9","","24.1","","100.98","","","","","","Clear"
"2015-11-03 17:00","2015","11","03","17:00","16.9","","10.6","","66","","18","","13","","24.1","","101.03","","","","","","NA"
"2015-11-03 18:00","2015","11","03","18:00","15.3","","10.3","","72","","17","","8","","24.1","","101.09","","","","","","NA"
"2015-11-03 19:00","2015","11","03","19:00","13.6","","10.3","","80","","14","","5","","24.1","","101.12","","","","","","Clear"
"2015-11-03 20:00","2015","11","03","20:00","13.1","","9.0","","76","","17","","9","","24.1","","101.13","","","","","","NA"
"2015-11-03 21:00","2015","11","03","21:00","10.9","","7.8","","81","","14","","4","","24.1","","101.17","","","","","","NA"
"2015-11-03 22:00","2015","11","03","22:00"
"2015-11-03 23:00","2015","11","03","23:00"
"2015-11-04 00:00","2015","11","04","00:00"
"2015-11-04 01:00","2015","11","04","01:00"
"2015-11-04 02:00","2015","11","04","02:00"
"2015-11-04 03:00","2015","11","04","03:00"
"2015-11-04 04:00","2015","11","04","04:00"
"2015-11-04 05:00","2015","11","04","05:00"
"2015-11-04 06:00","2015","11","04","06:00"
"2015-11-04 07:00","2015","11","04","07:00","3.4","","3.3","","99","","23","","8","","16.1","","101.19","","","","","","Clear"
"2015-11-04 08:00","2015","11","04","08:00","6.9","","6.8","","99","","20","","4","","6.4","","101.22","","","","","","Fog"
"2015-11-04 09:00","2015","11","04","09:00","10.7","","9.5","","92","","22","","5","","6.4","","101.23","","","","","","Fog"
"2015-11-04 10:00","2015","11","04","10:00","11.5","","9.6","","88","","26","","10","","8.1","","101.24","","","","","","Fog"
"2015-11-04 11:00","2015","11","04","11:00","12.8","","10.9","","88","","28","","8","","8.1","","101.22","","","","","","Fog"
"2015-11-04 12:00","2015","11","04","12:00","13.9","","11.5","","85","","31","","14","","8.1","","101.15","","","","","","Fog"
"2015-11-04 13:00","2015","11","04","13:00","12.8","","10.7","","87","","30","","9","","8.1","","101.09","","","","","","Fog"
"2015-11-04 14:00","2015","11","04","14:00","14.0","","11.0","","82","","32","","7","","8.1","","101.03","","","","","","Fog"
"2015-11-04 15:00","2015","11","04","15:00","13.6","","10.8","","83","","30","","5","","9.7","","100.98","","","","","","Haze"
"2015-11-04 16:00","2015","11","04","16:00","13.8","","10.8","","82","","36","","6","","9.7","","100.98","","","","","","Haze"
"2015-11-04 17:00","2015","11","04","17:00","10.0","","8.8","","92","","33","","5","","9.7","","100.98","","","","","","Haze"
"2015-11-04 18:00","2015","11","04","18:00","9.2","","8.8","","97","","36","","3","","16.1","","100.96","","","","","","NA"
"2015-11-04 19:00","2015","11","04","19:00","8.9","","8.5","","97","","0","","1","","24.1","","100.95","","","","","","Clear"
"2015-11-04 20:00","2015","11","04","20:00","8.0","","7.7","","98","","25","","4","","24.1","","100.94","","","","","","NA"
"2015-11-04 21:00","2015","11","04","21:00","7.3","","6.9","","97","","33","","4","","24.1","","100.95","","","","","","NA"
"2015-11-04 22:00","2015","11","04","22:00"
"2015-11-04 23:00","2015","11","04","23:00"
"2015-11-05 00:00","2015","11","05","00:00"
"2015-11-05 01:00","2015","11","05","01:00"
"2015-11-05 02:00","2015","11","05","02:00"
"2015-11-05 03:00","2015","11","05","03:00"
"2015-11-05 04:00","2015","11","05","04:00"
"2015-11-05 05:00","2015","11","05","05:00"
"2015-11-05 06:00","2015","11","05","06:00"
"2015-11-05 07:00","2015","11","05","07:00","11.4","","10.6","","95","","7","","3","","24.1","","100.88","","","","","","Cloudy"
"2015-11-05 08:00","2015","11","05","08:00","12.3","","11.1","","92","","10","","4","","24.1","","100.91","","","","","","NA"
"2015-11-05 09:00","2015","11","05","09:00","14.8","","13.2","","90","","36","","1","","24.1","","100.90","","","","","","NA"
"2015-11-05 10:00","2015","11","05","10:00","17.7","","14.6","","82","","18","","11","","24.1","","100.86","","","","","","Mostly Cloudy"
"2015-11-05 11:00","2015","11","05","11:00","20.1","","15.2","","73","","22","","18","","24.1","","100.84","","","","","","NA"
"2015-11-05 12:00","2015","11","05","12:00","20.7","","14.9","","69","","20","","21","","24.1","","100.75","","25","","","","NA"
"2015-11-05 13:00","2015","11","05","13:00","22.4","","15.1","","63","","20","","19","","24.1","","100.65","","26","","","","Mainly Clear"
"2015-11-05 14:00","2015","11","05","14:00","23.4","","15.6","","61","","20","","22","","24.1","","100.57","","28","","","","NA"
"2015-11-05 15:00","2015","11","05","15:00","22.8","","15.8","","64","","20","","23","","24.1","","100.52","","27","","","","NA"
"2015-11-05 16:00","2015","11","05","16:00","21.2","","15.4","","69","","19","","19","","24.1","","100.45","","25","","","","Mostly Cloudy"
"2015-11-05 17:00","2015","11","05","17:00","19.3","","15.2","","77","","21","","14","","24.1","","100.44","","","","","","NA"
"2015-11-05 18:00","2015","11","05","18:00","17.7","","15.0","","84","","20","","14","","24.1","","100.43","","","","","","NA"
"2015-11-05 19:00","2015","11","05","19:00","17.4","","15.1","","86","","20","","16","","24.1","","100.38","","","","","","Mostly Cloudy"
"2015-11-05 20:00","2015","11","05","20:00","16.2","","14.6","","90","","21","","12","","24.1","","100.36","","","","","","NA"
"2015-11-05 21:00","2015","11","05","21:00","15.2","","14.1","","93","","19","","11","","24.1","","100.36","","","","","","NA"
"2015-11-05 22:00","2015","11","05","22:00"
"2015-11-05 23:00","2015","11","05","23:00"
"2015-11-06 00:00","2015","11","06","00:00"
"2015-11-06 01:00","2015","11","06","01:00"
"2015-11-06 02:00","2015","11","06","02:00"
"2015-11-06 03:00","2015","11","06","03:00"
"2015-11-06 04:00","2015","11","06","04:00"
"2015-11-06 05:00","2015","11","06","05:00"
"2015-11-06 06:00","2015","11","06","06:00"
"2015-11-06 07:00","2015","11","06","07:00","19.5","","14.6","","73","","20","","30","","24.1","","99.48","","","","","","Cloudy"
"2015-11-06 08:00","2015","11","06","08:00","17.6","","16.1","","91","","20","","38","","11.3","","99.44","","","","","","Rain Showers"
"2015-11-06 09:00","2015","11","06","09:00","18.1","","16.3","","89","","20","","34","","24.1","","99.28","","","","","","NA"
"2015-11-06 10:00","2015","11","06","10:00","19.3","","16.2","","82","","23","","37","","24.1","","99.39","","","","","","Rain Showers"
"2015-11-06 11:00","2015","11","06","11:00","18.3","","16.5","","89","","24","","39","","11.3","","99.42","","","","","","Rain Showers"
"2015-11-06 12:00","2015","11","06","12:00","19.0","","15.3","","79","","25","","39","","24.1","","99.46","","","","","","NA"
"2015-11-06 13:00","2015","11","06","13:00","19.0","","11.2","","60","","26","","44","","24.1","","99.52","","","","","","Mostly Cloudy"
"2015-11-06 14:00","2015","11","06","14:00","18.0","","11.2","","64","","28","","30","","24.1","","99.66","","","","","","NA"
"2015-11-06 15:00","2015","11","06","15:00","17.5","","10.0","","61","","28","","26","","24.1","","99.77","","","","","","NA"
"2015-11-06 16:00","2015","11","06","16:00","17.7","","9.4","","58","","26","","26","","24.1","","99.83","","","","","","Mostly Cloudy"
"2015-11-06 17:00","2015","11","06","17:00","13.7","","9.2","","74","","30","","21","","24.1","","99.95","","","","","","NA"
"2015-11-06 18:00","2015","11","06","18:00","13.0","","8.5","","74","","28","","21","","24.1","","100.10","","","","","","NA"
"2015-11-06 19:00","2015","11","06","19:00","12.5","","7.6","","72","","27","","20","","24.1","","100.21","","","","","","Mostly Cloudy"
"2015-11-06 20:00","2015","11","06","20:00","12.1","","6.4","","68","","28","","24","","24.1","","100.28","","","","","","NA"
"2015-11-06 21:00","2015","11","06","21:00","11.0","","5.8","","70","","26","","15","","24.1","","100.32","","","","","","NA"
"2015-11-06 22:00","2015","11","06","22:00"
"2015-11-06 23:00","2015","11","06","23:00"
"2015-11-07 00:00","2015","11","07","00:00"
"2015-11-07 01:00","2015","11","07","01:00"
"2015-11-07 02:00","2015","11","07","02:00"
"2015-11-07 03:00","2015","11","07","03:00"
"2015-11-07 04:00","2015","11","07","04:00"
"2015-11-07 05:00","2015","11","07","05:00"
"2015-11-07 06:00","2015","11","07","06:00"
"2015-11-07 07:00","2015","11","07","07:00","8.4","","5.4","","81","","22","","10","","24.1","","100.72","","","","","","Cloudy"
"2015-11-07 08:00","2015","11","07","08:00","9.0","","5.9","","81","","24","","11","","24.1","","100.78","","","","","","NA"
"2015-11-07 09:00","2015","11","07","09:00","9.7","","5.1","","73","","25","","14","","24.1","","100.80","","","","","","NA"
"2015-11-07 10:00","2015","11","07","10:00","10.4","","4.8","","68","","27","","20","","24.1","","100.77","","","","","","Mostly Cloudy"
"2015-11-07 11:00","2015","11","07","11:00","11.1","","4.4","","63","","29","","19","","24.1","","100.78","","","","","","NA"
"2015-11-07 12:00","2015","11","07","12:00","10.9","","4.8","","66","","29","","16","","24.1","","100.71","","","","","","NA"
"2015-11-07 13:00","2015","11","07","13:00","11.6","","2.7","","54","","25","","21","","24.1","","100.64","","","","","","Mostly Cloudy"
"2015-11-07 14:00","2015","11","07","14:00","12.1","","3.1","","54","","30","","17","","24.1","","100.60","","","","","","NA"
"2015-11-07 15:00","2015","11","07","15:00","11.7","","3.3","","56","","28","","25","","24.1","","100.61","","","","","","NA"
"2015-11-07 16:00","2015","11","07","16:00","11.0","","1.3","","51","","28","","28","","24.1","","100.68","","","","","","Mostly Cloudy"
"2015-11-07 17:00","2015","11","07","17:00","8.4","","3.5","","71","","30","","20","","24.1","","100.77","","","","","","NA"
"2015-11-07 18:00","2015","11","07","18:00","8.2","","2.5","","67","","31","","29","","24.1","","100.88","","","","","","NA"
"2015-11-07 19:00","2015","11","07","19:00","6.8","","2.3","","73","","29","","19","","24.1","","100.98","","","","","","Mainly Clear"
"2015-11-07 20:00","2015","11","07","20:00","6.6","","2.5","","75","","28","","15","","24.1","","101.04","","","","","","NA"
"2015-11-07 21:00","2015","11","07","21:00","6.9","","2.6","","74","","28","","16","","24.1","","101.11","","","","","","NA"
"2015-11-07 22:00","2015","11","07","22:00"
"2015-11-07 23:00","2015","11","07","23:00"
"2015-11-08 00:00","2015","11","08","00:00"
"2015-11-08 01:00","2015","11","08","01:00"
"2015-11-08 02:00","2015","11","08","02:00"
"2015-11-08 03:00","2015","11","08","03:00"
"2015-11-08 04:00","2015","11","08","04:00"
"2015-11-08 05:00","2015","11","08","05:00"
"2015-11-08 06:00","2015","11","08","06:00"
"2015-11-08 07:00","2015","11","08","07:00","1.7","","0.1","","89","","24","","10","","24.1","","101.67","","","","","","Clear"
"2015-11-08 08:00","2015","11","08","08:00","3.8","","1.5","","85","","25","","9","","24.1","","101.75","","","","","","NA"
"2015-11-08 09:00","2015","11","08","09:00","6.4","","3.0","","79","","30","","21","","24.1","","101.82","","","","","","NA"
"2015-11-08 10:00","2015","11","08","10:00","7.4","","3.1","","74","","29","","14","","24.1","","101.80","","","","","","Clear"
"2015-11-08 11:00","2015","11","08","11:00","8.5","","2.5","","66","","29","","10","","24.1","","101.81","","","","","","NA"
"2015-11-08 12:00","2015","11","08","12:00","9.2","","2.8","","64","","32","","13","","24.1","","101.77","","","","","","NA"
"2015-11-08 13:00","2015","11","08","13:00","9.4","","0.3","","53","","29","","13","","24.1","","101.76","","","","","","Mainly Clear"
"2015-11-08 14:00","2015","11","08","14:00","9.8","","0.2","","51","","20","","7","","24.1","","101.70","","","","","","NA"
"2015-11-08 15:00","2015","11","08","15:00","10.3","","2.4","","58","","20","","14","","24.1","","101.66","","","","","","NA"
"2015-11-08 16:00","2015","11","08","16:00","9.4","","1.3","","57","","23","","22","","24.1","","101.65","","","","","","Mainly Clear"
"2015-11-08 17:00","2015","11","08","17:00","7.9","","1.3","","63","","23","","18","","24.1","","101.65","","","","","","NA"
"2015-11-08 18:00","2015","11","08","18:00","6.4","","1.3","","70","","22","","15","","24.1","","101.66","","","","","","NA"
"2015-11-08 19:00","2015","11","08","19:00","5.8","","0.6","","69","","23","","14","","24.1","","101.67","","","","","","Clear"
"2015-11-08 20:00","2015","11","08","20:00","4.9","","0.5","","73","","23","","11","","24.1","","101.66","","","","","","NA"
"2015-11-08 21:00","2015","11","08","21:00","4.1","","-0.1","","74","","23","","13","","24.1","","101.66","","","","","","NA"
"2015-11-08 22:00","2015","11","08","22:00"
"2015-11-08 23:00","2015","11","08","23:00"
"2015-11-09 00:00","2015","11","09","00:00"
"2015-11-09 01:00","2015","11","09","01:00"
"2015-11-09 02:00","2015","11","09","02:00"
"2015-11-09 03:00","2015","11","09","03:00"
"2015-11-09 04:00","2015","11","09","04:00"
"2015-11-09 05:00","2015","11","09","05:00"
"2015-11-09 06:00","2015","11","09","06:00"
"2015-11-09 07:00","2015","11","09","07:00","-0.9","","-1.9","","93","","20","","7","","24.1","","101.66","","","","-3","","Clear"
"2015-11-09 08:00","2015","11","09","08:00","0.8","","-0.1","","94","","22","","5","","24.1","","101.69","","","","","","NA"
"2015-11-09 09:00","2015","11","09","09:00","6.8","","4.3","","84","","17","","4","","24.1","","101.70","","","","","","NA"
"2015-11-09 10:00","2015","11","09","10:00","9.4","","3.4","","66","","9","","3","","24.1","","101.67","","","","","","Mainly Clear"
"2015-11-09 11:00","2015","11","09","11:00","10.8","","5.8","","71","","15","","7","","24.1","","101.63","","","","","","NA"
"2015-11-09 12:00","2015","11","09","12:00","12.1","","5.1","","62","","21","","12","","24.1","","101.53","","","","","","NA"
"2015-11-09 13:00","2015","11","09","13:00","12.0","","4.8","","61","","34","","10","","24.1","","101.38","","","","","","Clear"
"2015-11-09 14:00","2015","11","09","14:00","11.4","","4.7","","63","","36","","10","","24.1","","101.37","","","","","","NA"
"2015-11-09 15:00","2015","11","09","15:00","11.0","","4.3","","63","","2","","14","","24.1","","101.34","","","","","","NA"
"2015-11-09 16:00","2015","11","09","16:00","10.1","","4.5","","68","","4","","9","","24.1","","101.32","","","","","","Mainly Clear"
"2015-11-09 17:00","2015","11","09","17:00","8.1","","4.0","","75","","4","","8","","24.1","","101.31","","","","","","NA"
"2015-11-09 18:00","2015","11","09","18:00","5.6","","3.3","","85","","8","","9","","24.1","","101.26","","","","","","NA"
"2015-11-09 19:00","2015","11","09","19:00","5.1","","3.3","","88","","9","","9","","24.1","","101.28","","","","","","Mainly Clear"
"2015-11-09 20:00","2015","11","09","20:00","4.6","","3.4","","92","","10","","8","","24.1","","101.26","","","","","","NA"
"2015-11-09 21:00","2015","11","09","21:00","4.0","","3.1","","94","","7","","9","","24.1","","101.23","","","","","","NA"
"2015-11-09 22:00","2015","11","09","22:00"
"2015-11-09 23:00","2015","11","09","23:00"
"2015-11-10 00:00","2015","11","10","00:00"
"2015-11-10 01:00","2015","11","10","01:00"
"2015-11-10 02:00","2015","11","10","02:00"
"2015-11-10 03:00","2015","11","10","03:00"
"2015-11-10 04:00","2015","11","10","04:00"
"2015-11-10 05:00","2015","11","10","05:00"
"2015-11-10 06:00","2015","11","10","06:00"
"2015-11-10 07:00","2015","11","10","07:00","3.7","","3.6","","99","","14","","3","","12.9","","100.75","","","","","","Cloudy"
"2015-11-10 08:00","2015","11","10","08:00","5.6","","4.9","","95","","7","","4","","12.9","","100.75","","","","","","NA"
"2015-11-10 09:00","2015","11","10","09:00"
"2015-11-10 10:00","2015","11","10","10:00","8.1","","5.2","","82","","7","","9","","6.4","","100.70","","","","","","Fog"
"2015-11-10 11:00","2015","11","10","11:00","8.2","","6.7","","90","","6","","7","","6.4","","100.62","","","","","","Drizzle,Fog"
"2015-11-10 12:00","2015","11","10","12:00","9.2","","7.3","","88","","7","","8","","6.4","","100.51","","","","","","Drizzle,Fog"
"2015-11-10 13:00","2015","11","10","13:00","9.1","","8.5","","96","","8","","10","","4.8","","100.40","","","","","","Drizzle,Fog"
"2015-11-10 14:00","2015","11","10","14:00","9.7","","9.3","","97","","8","","10","","4.8","","100.30","","","","","","Rain,Drizzle,Fog"
"2015-11-10 15:00","2015","11","10","15:00","10.2","","9.9","","98","","6","","10","","3.2","","100.26","","","","","","Rain,Drizzle,Fog"
"2015-11-10 16:00","2015","11","10","16:00","10.2","","9.9","","98","","6","","5","","1.6","","100.25","","","","","","Rain,Drizzle,Fog"
"2015-11-10 17:00","2015","11","10","17:00","10.4","","10.3","","99","","8","","8","","1.2","","100.20","","","","","","Rain,Fog"
"2015-11-10 18:00","2015","11","10","18:00","10.5","","10.4","","99","","9","","13","","3.2","","100.21","","","","","","Rain,Fog"
"2015-11-10 19:00","2015","11","10","19:00","10.5","","10.4","","99","","10","","16","","2.4","","100.18","","","","","","Rain,Fog"
"2015-11-10 20:00","2015","11","10","20:00","10.5","","10.4","","99","","10","","13","","8.1","","100.14","","","","","","Rain,Fog"
"2015-11-10 21:00","2015","11","10","21:00","10.5","","10.4","","99","","9","","10","","4.8","","100.09","","","","","","Rain,Fog"
"2015-11-10 22:00","2015","11","10","22:00"
"2015-11-10 23:00","2015","11","10","23:00"
"2015-11-11 00:00","2015","11","11","00:00"
"2015-11-11 01:00","2015","11","11","01:00"
"2015-11-11 02:00","2015","11","11","02:00"
"2015-11-11 03:00","2015","11","11","03:00"
"2015-11-11 04:00","2015","11","11","04:00"
"2015-11-11 05:00","2015","11","11","05:00"
"2015-11-11 06:00","2015","11","11","06:00"
"2015-11-11 07:00","2015","11","11","07:00","8.7","","8.6","","99","","28","","11","","1.6","","100.23","","","","","","Drizzle,Fog"
"2015-11-11 08:00","2015","11","11","08:00","8.9","","8.8","","99","","27","","10","","1.6","","100.30","","","","","","Drizzle,Fog"
"2015-11-11 09:00","2015","11","11","09:00","9.1","","9.0","","99","","28","","17","","2.4","","100.36","","","","","","Drizzle,Fog"
"2015-11-11 10:00","2015","11","11","10:00","9.3","","8.9","","97","","28","","18","","4.8","","100.37","","","","","","Fog"
"2015-11-11 11:00","2015","11","11","11:00","9.4","","8.7","","95","","25","","18","","4.8","","100.38","","","","","","Drizzle,Fog"
"2015-11-11 12:00","2015","11","11","12:00","11.0","","7.3","","78","","27","","15","","12.9","","100.33","","","","","","NA"
"2015-11-11 13:00","2015","11","11","13:00","10.7","","7.2","","79","","28","","19","","12.9","","100.27","","","","","","Mostly Cloudy"
"2015-11-11 14:00","2015","11","11","14:00","11.7","","7.8","","77","","24","","17","","12.9","","100.26","","","","","","NA"
"2015-11-11 15:00","2015","11","11","15:00","11.7","","8.2","","79","","22","","11","","16.1","","100.22","","","","","","NA"
"2015-11-11 16:00","2015","11","11","16:00","11.9","","7.8","","76","","22","","12","","19.3","","100.21","","","","","","Mostly Cloudy"
"2015-11-11 17:00","2015","11","11","17:00","9.7","","6.8","","82","","22","","14","","12.9","","100.22","","","","","","NA"
"2015-11-11 18:00","2015","11","11","18:00","7.0","","5.3","","89","","20","","12","","12.9","","100.25","","","","","","NA"
"2015-11-11 19:00","2015","11","11","19:00","6.1","","4.4","","89","","20","","12","","12.9","","100.24","","","","","","Mainly Clear"
"2015-11-11 20:00","2015","11","11","20:00","6.6","","5.1","","90","","21","","12","","12.9","","100.20","","","","","","NA"
"2015-11-11 21:00","2015","11","11","21:00","6.8","","5.3","","90","","18","","10","","12.9","","100.16","","","","","","NA"
"2015-11-11 22:00","2015","11","11","22:00"
"2015-11-11 23:00","2015","11","11","23:00"
"2015-11-12 00:00","2015","11","12","00:00"
"2015-11-12 01:00","2015","11","12","01:00"
"2015-11-12 02:00","2015","11","12","02:00"
"2015-11-12 03:00","2015","11","12","03:00"
"2015-11-12 04:00","2015","11","12","04:00"
"2015-11-12 05:00","2015","11","12","05:00"
"2015-11-12 06:00","2015","11","12","06:00"
"2015-11-12 07:00","2015","11","12","07:00","7.1","","5.7","","91","","9","","9","","14.5","","98.92","","","","","","Cloudy"
"2015-11-12 08:00","2015","11","12","08:00","7.6","","6.2","","91","","2","","4","","16.1","","98.76","","","","","","Rain Showers"
"2015-11-12 09:00","2015","11","12","09:00","8.9","","7.0","","88","","14","","8","","11.3","","98.66","","","","","","Rain Showers"
"2015-11-12 10:00","2015","11","12","10:00","11.2","","8.3","","82","","20","","22","","19.3","","98.53","","","","","","Cloudy"
"2015-11-12 11:00","2015","11","12","11:00","13.0","","9.5","","79","","20","","36","","19.3","","98.37","","","","","","NA"
"2015-11-12 12:00","2015","11","12","12:00","14.2","","11.2","","82","","18","","29","","16.1","","98.22","","","","","","NA"
"2015-11-12 13:00","2015","11","12","13:00","13.3","","9.6","","78","","22","","55","","12.9","","98.20","","","","","","Rain Showers"
"2015-11-12 14:00","2015","11","12","14:00","11.5","","6.5","","71","","25","","41","","19.3","","98.28","","","","","","Rain Showers"
"2015-11-12 15:00","2015","11","12","15:00","10.3","","6.3","","76","","23","","51","","12.9","","98.37","","","","","","Rain Showers"
"2015-11-12 16:00","2015","11","12","16:00","9.8","","6.7","","81","","24","","41","","19.3","","98.38","","","","","","Rain Showers"
"2015-11-12 17:00","2015","11","12","17:00","10.1","","6.7","","79","","23","","45","","19.3","","98.37","","","","","","Rain Showers"
"2015-11-12 18:00","2015","11","12","18:00","9.4","","7.7","","89","","23","","37","","19.3","","98.40","","","","","","Rain Showers"
"2015-11-12 19:00","2015","11","12","19:00","10.3","","7.2","","81","","24","","35","","19.3","","98.40","","","","","","Rain Showers"
"2015-11-12 20:00","2015","11","12","20:00","10.7","","6.7","","76","","24","","50","","24.1","","98.41","","","","","","NA"
"2015-11-12 21:00","2015","11","12","21:00","10.6","","6.0","","73","","24","","43","","24.1","","98.44","","","","","","NA"
"2015-11-12 22:00","2015","11","12","22:00"
"2015-11-12 23:00","2015","11","12","23:00"
"2015-11-13 00:00","2015","11","13","00:00"
"2015-11-13 01:00","2015","11","13","01:00"
"2015-11-13 02:00","2015","11","13","02:00"
"2015-11-13 03:00","2015","11","13","03:00"
"2015-11-13 04:00","2015","11","13","04:00"
"2015-11-13 05:00","2015","11","13","05:00"
"2015-11-13 06:00","2015","11","13","06:00"
"2015-11-13 07:00","2015","11","13","07:00","8.0","","2.5","","68","","26","","42","","19.3","","99.04","","","","","","Cloudy"
"2015-11-13 08:00","2015","11","13","08:00","7.8","","1.4","","64","","25","","47","","19.3","","99.11","","","","","","NA"
"2015-11-13 09:00","2015","11","13","09:00","7.4","","1.5","","66","","24","","32","","24.1","","99.17","","","","","","NA"
"2015-11-13 10:00","2015","11","13","10:00","7.4","","1.1","","64","","26","","40","","24.1","","99.21","","","","","","Mostly Cloudy"
"2015-11-13 11:00","2015","11","13","11:00","7.6","","1.3","","64","","25","","33","","24.1","","99.26","","","","","","NA"
"2015-11-13 12:00","2015","11","13","12:00","8.2","","0.5","","58","","26","","38","","24.1","","99.20","","","","","","NA"
"2015-11-13 13:00","2015","11","13","13:00","6.9","","-0.5","","59","","26","","31","","24.1","","99.23","","","","","","Mostly Cloudy"
"2015-11-13 14:00","2015","11","13","14:00","7.3","","0.1","","60","","25","","43","","24.1","","99.24","","","","","","NA"
"2015-11-13 15:00","2015","11","13","15:00","6.6","","-0.2","","62","","27","","37","","24.1","","99.29","","","","","","NA"
"2015-11-13 16:00","2015","11","13","16:00","6.3","","-0.4","","62","","25","","33","","24.1","","99.39","","","","","","Mostly Cloudy"
"2015-11-13 17:00","2015","11","13","17:00","5.5","","-0.1","","67","","26","","34","","24.1","","99.50","","","","","","NA"
"2015-11-13 18:00","2015","11","13","18:00","4.9","","0.1","","71","","26","","30","","24.1","","99.57","","","","","","NA"
"2015-11-13 19:00","2015","11","13","19:00","5.1","","0.3","","71","","26","","30","","24.1","","99.64","","","","","","Cloudy"
"2015-11-13 20:00","2015","11","13","20:00","5.0","","0.4","","72","","26","","36","","24.1","","99.70","","","","","","NA"
"2015-11-13 21:00","2015","11","13","21:00","5.1","","1.0","","75","","26","","35","","24.1","","99.81","","","","","","NA"
"2015-11-13 22:00","2015","11","13","22:00"
"2015-11-13 23:00","2015","11","13","23:00"
"2015-11-14 00:00","2015","11","14","00:00"
"2015-11-14 01:00","2015","11","14","01:00"
"2015-11-14 02:00","2015","11","14","02:00"
"2015-11-14 03:00","2015","11","14","03:00"
"2015-11-14 04:00","2015","11","14","04:00"
"2015-11-14 05:00","2015","11","14","05:00"
"2015-11-14 06:00","2015","11","14","06:00"
"2015-11-14 07:00","2015","11","14","07:00","3.4","","-2.4","","66","","30","","19","","24.1","","100.83","","","","","","Cloudy"
"2015-11-14 08:00","2015","11","14","08:00","3.7","","-1.5","","69","","29","","17","","24.1","","100.94","","","","","","NA"
"2015-11-14 09:00","2015","11","14","09:00","3.6","","-0.2","","76","","26","","19","","24.1","","101.03","","","","","","NA"
"2015-11-14 10:00","2015","11","14","10:00","4.3","","-0.5","","71","","28","","21","","24.1","","101.05","","","","","","Mostly Cloudy"
"2015-11-14 11:00","2015","11","14","11:00","5.2","","-1.5","","62","","28","","23","","24.1","","101.09","","","","","","NA"
"2015-11-14 12:00","2015","11","14","12:00","5.2","","-1.9","","60","","28","","31","","24.1","","101.10","","","","","","NA"
"2015-11-14 13:00","2015","11","14","13:00","5.3","","-2.3","","58","","27","","24","","24.1","","101.13","","","","","","Mostly Cloudy"
"2015-11-14 14:00","2015","11","14","14:00","5.8","","-1.8","","58","","28","","25","","24.1","","101.14","","","","","","NA"
"2015-11-14 15:00","2015","11","14","15:00","6.2","","-1.2","","59","","26","","19","","24.1","","101.13","","","","","","NA"
"2015-11-14 16:00","2015","11","14","16:00","6.1","","-0.4","","63","","26","","17","","24.1","","101.19","","","","","","Cloudy"
"2015-11-14 17:00","2015","11","14","17:00","5.8","","-0.7","","63","","25","","27","","24.1","","101.22","","","","","","NA"
"2015-11-14 18:00","2015","11","14","18:00","5.6","","-0.5","","65","","25","","18","","24.1","","101.26","","","","","","NA"
"2015-11-14 19:00","2015","11","14","19:00","3.7","","-0.9","","72","","24","","13","","24.1","","101.29","","","","","","Mainly Clear"
"2015-11-14 20:00","2015","11","14","20:00","1.4","","-1.3","","82","","22","","13","","24.1","","101.23","","","","","","NA"
"2015-11-14 21:00","2015","11","14","21:00","1.8","","-1.6","","78","","20","","7","","24.1","","101.25","","","","","","NA"
"2015-11-14 22:00","2015","11","14","22:00"
"2015-11-14 23:00","2015","11","14","23:00"
"2015-11-15 00:00","2015","11","15","00:00"
"2015-11-15 01:00","2015","11","15","01:00"
"2015-11-15 02:00","2015","11","15","02:00"
"2015-11-15 03:00","2015","11","15","03:00"
"2015-11-15 04:00","2015","11","15","04:00"
"2015-11-15 05:00","2015","11","15","05:00"
"2015-11-15 06:00","2015","11","15","06:00"
"2015-11-15 07:00","2015","11","15","07:00","8.5","","4.2","","74","","23","","21","","24.1","","100.93","","","","","","Mainly Clear"
"2015-11-15 08:00","2015","11","15","08:00","9.3","","4.5","","72","","23","","16","","24.1","","101.02","","","","","","NA"
"2015-11-15 09:00","2015","11","15","09:00","10.8","","3.9","","62","","24","","17","","24.1","","101.02","","","","","","NA"
"2015-11-15 10:00","2015","11","15","10:00","12.0","","3.3","","55","","24","","21","","24.1","","101.00","","","","","","Mainly Clear"
"2015-11-15 11:00","2015","11","15","11:00","13.3","","4.0","","53","","23","","20","","24.1","","100.99","","","","","","NA"
"2015-11-15 12:00","2015","11","15","12:00","14.1","","3.9","","50","","23","","25","","24.1","","100.93","","","","","","NA"
"2015-11-15 13:00","2015","11","15","13:00","15.1","","4.6","","49","","25","","25","","24.1","","100.93","","","","","","Mostly Cloudy"
"2015-11-15 14:00","2015","11","15","14:00","15.6","","5.3","","50","","23","","23","","24.1","","100.89","","","","","","NA"
"2015-11-15 15:00","2015","11","15","15:00","14.8","","7.2","","60","","22","","21","","24.1","","100.87","","","","","","NA"
"2015-11-15 16:00","2015","11","15","16:00","13.6","","7.2","","65","","23","","21","","24.1","","100.88","","","","","","Mainly Clear"
"2015-11-15 17:00","2015","11","15","17:00","11.2","","7.0","","75","","23","","17","","24.1","","100.90","","","","","","NA"
"2015-11-15 18:00","2015","11","15","18:00","9.8","","6.7","","81","","22","","16","","24.1","","100.95","","","","","","NA"
"2015-11-15 19:00","2015","11","15","19:00","10.3","","6.8","","79","","23","","18","","24.1","","100.96","","","","","","Clear"
"2015-11-15 20:00","2015","11","15","20:00","9.9","","6.3","","78","","23","","15","","24.1","","100.97","","","","","","NA"
"2015-11-15 21:00","2015","11","15","21:00","9.5","","5.9","","78","","23","","12","","24.1","","100.99","","","","","","NA"
"2015-11-15 22:00","2015","11","15","22:00"
"2015-11-15 23:00","2015","11","15","23:00"
"2015-11-16 00:00","2015","11","16","00:00"
"2015-11-16 01:00","2015","11","16","01:00"
"2015-11-16 02:00","2015","11","16","02:00"
"2015-11-16 03:00","2015","11","16","03:00"
"2015-11-16 04:00","2015","11","16","04:00"
"2015-11-16 05:00","2015","11","16","05:00"
"2015-11-16 06:00","2015","11","16","06:00"
"2015-11-16 07:00","2015","11","16","07:00","6.6","","2.1","","73","","23","","11","","24.1","","101.19","","","","","","Mainly Clear"
"2015-11-16 08:00","2015","11","16","08:00","6.8","","2.7","","75","","23","","12","","24.1","","101.23","","","","","","NA"
"2015-11-16 09:00","2015","11","16","09:00","9.5","","3.1","","64","","25","","13","","24.1","","101.26","","","","","","NA"
"2015-11-16 10:00","2015","11","16","10:00","11.4","","4.2","","61","","28","","9","","24.1","","101.29","","","","","","Clear"
"2015-11-16 11:00","2015","11","16","11:00","12.0","","4.0","","58","","31","","10","","24.1","","101.33","","","","","","NA"
"2015-11-16 12:00","2015","11","16","12:00","11.8","","3.4","","56","","32","","10","","24.1","","101.31","","","","","","NA"
"2015-11-16 13:00","2015","11","16","13:00","11.4","","4.4","","62","","35","","7","","24.1","","101.30","","","","","","Mainly Clear"
"2015-11-16 14:00","2015","11","16","14:00","11.4","","5.7","","68","","2","","9","","19.3","","101.28","","","","","","NA"
"2015-11-16 15:00","2015","11","16","15:00","11.7","","6.2","","69","","3","","9","","19.3","","101.32","","","","","","NA"
"2015-11-16 16:00","2015","11","16","16:00","10.1","","6.8","","80","","4","","12","","19.3","","101.36","","","","","","Clear"
"2015-11-16 17:00","2015","11","16","17:00","8.1","","6.6","","90","","3","","10","","16.1","","101.37","","","","","","NA"
"2015-11-16 18:00","2015","11","16","18:00","7.1","","6.1","","93","","9","","7","","16.1","","101.41","","","","","","NA"
"2015-11-16 19:00","2015","11","16","19:00","5.8","","5.1","","95","","9","","8","","16.1","","101.45","","","","","","Clear"
"2015-11-16 20:00","2015","11","16","20:00","5.1","","4.5","","96","","7","","11","","16.1","","101.49","","","","","","NA"
"2015-11-16 21:00","2015","11","16","21:00","4.6","","3.7","","94","","8","","11","","16.1","","101.54","","","","","","NA"
"2015-11-16 22:00","2015","11","16","22:00"
"2015-11-16 23:00","2015","11","16","23:00"
"2015-11-17 00:00","2015","11","17","00:00"
"2015-11-17 01:00","2015","11","17","01:00"
"2015-11-17 02:00","2015","11","17","02:00"
"2015-11-17 03:00","2015","11","17","03:00"
"2015-11-17 04:00","2015","11","17","04:00"
"2015-11-17 05:00","2015","11","17","05:00"
"2015-11-17 06:00","2015","11","17","06:00"
"2015-11-17 07:00","2015","11","17","07:00","1.9","","-2.1","","75","","8","","16","","24.1","","101.74","","","","","","Mainly Clear"
"2015-11-17 08:00","2015","11","17","08:00"
"2015-11-17 09:00","2015","11","17","09:00","5.0","","-1.0","","65","","9","","22","","24.1","","101.69","","","","","","NA"
"2015-11-17 10:00","2015","11","17","10:00","7.0","","-0.2","","60","","9","","18","","24.1","","101.71","","","","","","Mostly Cloudy"
"2015-11-17 11:00","2015","11","17","11:00","8.9","","-0.1","","53","","8","","18","","24.1","","101.66","","","","","","NA"
"2015-11-17 12:00","2015","11","17","12:00","10.8","","1.1","","51","","8","","13","","24.1","","101.57","","","","","","NA"
"2015-11-17 13:00","2015","11","17","13:00","11.7","","2.0","","51","","7","","9","","24.1","","101.48","","","","","","Mostly Cloudy"
"2015-11-17 14:00","2015","11","17","14:00","12.1","","1.8","","49","","7","","11","","24.1","","101.40","","","","","","NA"
"2015-11-17 15:00","2015","11","17","15:00","10.2","","5.2","","71","","4","","13","","24.1","","101.33","","","","","","NA"
"2015-11-17 16:00","2015","11","17","16:00","9.5","","4.9","","73","","7","","10","","24.1","","101.30","","","","","","Mostly Cloudy"
"2015-11-17 17:00","2015","11","17","17:00","9.1","","3.3","","67","","9","","14","","24.1","","101.27","","","","","","NA"
"2015-11-17 18:00","2015","11","17","18:00","7.9","","2.8","","70","","8","","14","","24.1","","101.32","","","","","","NA"
"2015-11-17 19:00","2015","11","17","19:00","6.6","","2.9","","77","","8","","16","","24.1","","101.29","","","","","","Mostly Cloudy"
"2015-11-17 20:00","2015","11","17","20:00","6.1","","2.6","","78","","9","","15","","24.1","","101.21","","","","","","NA"
"2015-11-17 21:00","2015","11","17","21:00","8.2","","2.9","","69","","11","","12","","24.1","","101.23","","","","","","NA"
"2015-11-17 22:00","2015","11","17","22:00"
"2015-11-17 23:00","2015","11","17","23:00"
"2015-11-18 00:00","2015","11","18","00:00"
"2015-11-18 01:00","2015","11","18","01:00"
"2015-11-18 02:00","2015","11","18","02:00"
"2015-11-18 03:00","2015","11","18","03:00"
"2015-11-18 04:00","2015","11","18","04:00"
"2015-11-18 05:00","2015","11","18","05:00"
"2015-11-18 06:00","2015","11","18","06:00"
"2015-11-18 07:00","2015","11","18","07:00","12.4","","6.9","","69","","16","","17","","24.1","","100.91","","","","","","Mostly Cloudy"
"2015-11-18 08:00","2015","11","18","08:00","12.5","","6.6","","67","","16","","25","","24.1","","100.89","","","","","","NA"
"2015-11-18 09:00","2015","11","18","09:00","12.6","","6.7","","67","","16","","21","","24.1","","100.86","","","","","","NA"
"2015-11-18 10:00","2015","11","18","10:00","13.6","","6.5","","62","","17","","26","","24.1","","100.79","","","","","","Cloudy"
"2015-11-18 11:00","2015","11","18","11:00","14.6","","6.8","","59","","17","","19","","24.1","","100.74","","","","","","NA"
"2015-11-18 12:00","2015","11","18","12:00","14.9","","6.8","","58","","14","","27","","24.1","","100.63","","","","","","NA"
"2015-11-18 13:00","2015","11","18","13:00","15.5","","6.8","","56","","15","","21","","24.1","","100.56","","","","","","Cloudy"
"2015-11-18 14:00","2015","11","18","14:00","17.0","","8.5","","57","","16","","13","","24.1","","100.46","","","","","","NA"
"2015-11-18 15:00","2015","11","18","15:00","16.9","","8.9","","59","","17","","22","","24.1","","100.42","","","","","","NA"
"2015-11-18 16:00","2015","11","18","16:00","16.2","","9.0","","62","","16","","19","","24.1","","100.37","","","","","","Cloudy"
"2015-11-18 17:00","2015","11","18","17:00","15.2","","10.0","","71","","14","","19","","16.1","","100.24","","","","","","Rain Showers"
"2015-11-18 18:00","2015","11","18","18:00","15.5","","9.7","","68","","16","","29","","24.1","","100.16","","","","","","NA"
"2015-11-18 19:00","2015","11","18","19:00","16.1","","8.7","","61","","17","","46","","24.1","","100.04","","","","","","Cloudy"
"2015-11-18 20:00","2015","11","18","20:00","16.1","","8.9","","62","","17","","39","","24.1","","100.02","","","","","","NA"
"2015-11-18 21:00","2015","11","18","21:00","16.8","","10.3","","65","","19","","37","","24.1","","100.14","","","","","","NA"
"2015-11-18 22:00","2015","11","18","22:00"
"2015-11-18 23:00","2015","11","18","23:00"
"2015-11-19 00:00","2015","11","19","00:00"
"2015-11-19 01:00","2015","11","19","01:00"
"2015-11-19 02:00","2015","11","19","02:00"
"2015-11-19 03:00","2015","11","19","03:00"
"2015-11-19 04:00","2015","11","19","04:00"
"2015-11-19 05:00","2015","11","19","05:00"
"2015-11-19 06:00","2015","11","19","06:00"
"2015-11-19 07:00","2015","11","19","07:00","16.3","","13.3","","82","","19","","28","","24.1","","99.74","","","","","","Mostly Cloudy"
"2015-11-19 08:00","2015","11","19","08:00","16.1","","13.4","","84","","18","","26","","24.1","","99.76","","","","","","NA"
"2015-11-19 09:00","2015","11","19","09:00","16.9","","14.0","","83","","19","","35","","24.1","","99.77","","","","","","NA"
"2015-11-19 10:00","2015","11","19","10:00","15.5","","12.1","","80","","23","","29","","24.1","","99.83","","","","","","Mostly Cloudy"
"2015-11-19 11:00","2015","11","19","11:00","15.5","","9.7","","68","","24","","26","","24.1","","99.83","","","","","","NA"
"2015-11-19 12:00","2015","11","19","12:00","16.5","","8.0","","57","","24","","42","","24.1","","99.80","","","","","","NA"
"2015-11-19 13:00","2015","11","19","13:00","15.9","","7.5","","57","","24","","38","","24.1","","99.84","","","","","","Mainly Clear"
"2015-11-19 14:00","2015","11","19","14:00","16.3","","8.6","","60","","23","","41","","24.1","","99.82","","","","","","NA"
"2015-11-19 15:00","2015","11","19","15:00","15.6","","6.9","","56","","24","","32","","24.1","","99.81","","","","","","NA"
"2015-11-19 16:00","2015","11","19","16:00","14.7","","5.8","","55","","24","","32","","24.1","","99.84","","","","","","Mostly Cloudy"
"2015-11-19 17:00","2015","11","19","17:00","14.0","","5.9","","58","","25","","39","","24.1","","99.90","","","","","","NA"
"2015-11-19 18:00","2015","11","19","18:00","12.7","","5.7","","62","","25","","38","","24.1","","99.97","","","","","","NA"
"2015-11-19 19:00","2015","11","19","19:00","11.5","","4.1","","60","","25","","42","","24.1","","100.05","","","","","","Mostly Cloudy"
"2015-11-19 20:00","2015","11","19","20:00","9.9","","3.2","","63","","25","","28","","24.1","","100.15","","","","","","NA"
"2015-11-19 21:00","2015","11","19","21:00","9.3","","0.5","","54","","24","","30","","24.1","","100.24","","","","","","NA"
"2015-11-19 22:00","2015","11","19","22:00"
"2015-11-19 23:00","2015","11","19","23:00"
"2015-11-20 00:00","2015","11","20","00:00"
"2015-11-20 01:00","2015","11","20","01:00"
"2015-11-20 02:00","2015","11","20","02:00"
"2015-11-20 03:00","2015","11","20","03:00"
"2015-11-20 04:00","2015","11","20","04:00"
"2015-11-20 05:00","2015","11","20","05:00"
"2015-11-20 06:00","2015","11","20","06:00"
"2015-11-20 07:00","2015","11","20","07:00","2.5","","-5.2","","57","","24","","17","","24.1","","100.77","","","","","","Clear"
"2015-11-20 08:00","2015","11","20","08:00","3.5","","-5.0","","54","","24","","16","","24.1","","100.79","","","","","","NA"
"2015-11-20 09:00","2015","11","20","09:00","5.0","","-5.1","","48","","25","","30","","24.1","","100.83","","","","","","NA"
"2015-11-20 10:00","2015","11","20","10:00","6.1","","-6.2","","41","","26","","38","","24.1","","100.88","","","","","","Clear"
"2015-11-20 11:00","2015","11","20","11:00","7.1","","-6.6","","37","","25","","28","","24.1","","100.91","","","","","","NA"
"2015-11-20 12:00","2015","11","20","12:00","7.5","","-6.3","","37","","25","","27","","24.1","","100.91","","","","","","NA"
"2015-11-20 13:00","2015","11","20","13:00","6.8","","-6.9","","37","","25","","33","","24.1","","100.93","","","","","","Mainly Clear"
"2015-11-20 14:00","2015","11","20","14:00","6.9","","-6.1","","39","","27","","24","","24.1","","100.97","","","","","","NA"
"2015-11-20 15:00","2015","11","20","15:00","6.6","","-7.1","","37","","26","","26","","24.1","","101.01","","","","","","NA"
"2015-11-20 16:00","2015","11","20","16:00","6.0","","-6.6","","40","","25","","20","","24.1","","101.08","","","","","","Mainly Clear"
"2015-11-20 17:00","2015","11","20","17:00","4.7","","-6.2","","45","","24","","18","","24.1","","101.15","","","","","","NA"
"2015-11-20 18:00","2015","11","20","18:00","3.4","","-6.1","","50","","24","","11","","24.1","","101.19","","","","","","NA"
"2015-11-20 19:00","2015","11","20","19:00","1.8","","-6.1","","56","","21","","9","","24.1","","101.20","","","","","","Mainly Clear"
"2015-11-20 20:00","2015","11","20","20:00","1.4","","-5.1","","62","","23","","13","","24.1","","101.23","","","","","","NA"
"2015-11-20 21:00","2015","11","20","21:00","0.6","","-5.2","","65","","20","","8","","24.1","","101.19","","","","","","NA"
"2015-11-20 22:00","2015","11","20","22:00"
"2015-11-20 23:00","2015","11","20","23:00"
"2015-11-21 00:00","2015","11","21","00:00"
"2015-11-21 01:00","2015","11","21","01:00"
"2015-11-21 02:00","2015","11","21","02:00"
"2015-11-21 03:00","2015","11","21","03:00"
"2015-11-21 04:00","2015","11","21","04:00"
"2015-11-21 05:00","2015","11","21","05:00"
"2015-11-21 06:00","2015","11","21","06:00"
"2015-11-21 07:00","2015","11","21","07:00","2.1","","0.5","","89","","27","","3","","12.9","","101.24","","","","","","Rain Showers"
"2015-11-21 08:00","2015","11","21","08:00","1.9","","0.7","","92","","17","","5","","16.1","","101.20","","","","","","Rain Showers"
"2015-11-21 09:00","2015","11","21","09:00","2.6","","1.4","","92","","11","","6","","19.3","","101.13","","","","","","NA"
"2015-11-21 10:00","2015","11","21","10:00","3.3","","1.5","","88","","10","","8","","16.1","","101.07","","","","","","Cloudy"
"2015-11-21 11:00","2015","11","21","11:00"
"2015-11-21 12:00","2015","11","21","12:00","4.4","","1.8","","83","","8","","17","","19.3","","100.63","","","","","","NA"
"2015-11-21 13:00","2015","11","21","13:00","4.7","","1.6","","80","","5","","11","","24.1","","100.48","","","","","","Cloudy"
"2015-11-21 14:00","2015","11","21","14:00","5.6","","0.4","","69","","8","","17","","24.1","","100.27","","","","","","NA"
"2015-11-21 15:00","2015","11","21","15:00","5.9","","0.5","","68","","8","","13","","24.1","","100.13","","","","","","NA"
"2015-11-21 16:00","2015","11","21","16:00","5.8","","-0.1","","66","","9","","16","","24.1","","99.94","","","","","","Cloudy"
"2015-11-21 17:00","2015","11","21","17:00","5.2","","-0.8","","65","","9","","16","","24.1","","99.76","","","","","","NA"
"2015-11-21 18:00","2015","11","21","18:00","5.4","","-1.3","","62","","9","","12","","24.1","","99.62","","","","","","NA"
"2015-11-21 19:00","2015","11","21","19:00","5.9","","-0.8","","62","","19","","29","","19.3","","99.56","","","","","","Rain"
"2015-11-21 20:00","2015","11","21","20:00","6.4","","-0.8","","60","","15","","7","","24.1","","99.33","","","","","","NA"
"2015-11-21 21:00","2015","11","21","21:00","5.2","","-0.2","","68","","6","","8","","24.1","","99.21","","","","","","NA"
"2015-11-21 22:00","2015","11","21","22:00"
"2015-11-21 23:00","2015","11","21","23:00"
"2015-11-22 00:00","2015","11","22","00:00"
"2015-11-22 01:00","2015","11","22","01:00"
"2015-11-22 02:00","2015","11","22","02:00"
"2015-11-22 03:00","2015","11","22","03:00"
"2015-11-22 04:00","2015","11","22","04:00"
"2015-11-22 05:00","2015","11","22","05:00"
"2015-11-22 06:00","2015","11","22","06:00"
"2015-11-22 07:00","2015","11","22","07:00","0.4","","-2.3","","82","","25","","17","","24.1","","100.22","","","","","","Mainly Clear"
"2015-11-22 08:00","2015","11","22","08:00","1.2","","-2.0","","79","","26","","22","","24.1","","100.32","","","","","","NA"
"2015-11-22 09:00","2015","11","22","09:00","2.0","","-1.6","","77","","28","","27","","24.1","","100.36","","","","","","NA"
"2015-11-22 10:00","2015","11","22","10:00","3.3","","-1.8","","69","","25","","25","","24.1","","100.45","","","","","","Mostly Cloudy"
"2015-11-22 11:00","2015","11","22","11:00","3.0","","-3.4","","63","","25","","28","","24.1","","100.51","","","","","","NA"
"2015-11-22 12:00","2015","11","22","12:00","2.7","","-4.8","","58","","26","","26","","24.1","","100.50","","","","","","NA"
"2015-11-22 13:00","2015","11","22","13:00","2.4","","-4.6","","60","","27","","25","","24.1","","100.49","","","","","","Mostly Cloudy"
"2015-11-22 14:00","2015","11","22","14:00","3.9","","-4.8","","53","","24","","21","","24.1","","100.51","","","","","","NA"
"2015-11-22 15:00","2015","11","22","15:00","1.4","","-5.5","","60","","26","","18","","24.1","","100.56","","","","","","NA"
"2015-11-22 16:00","2015","11","22","16:00","2.1","","-5.8","","56","","26","","23","","24.1","","100.62","","","","","","Mostly Cloudy"
"2015-11-22 17:00","2015","11","22","17:00","0.5","","-4.2","","71","","27","","14","","24.1","","100.69","","","","","","NA"
"2015-11-22 18:00","2015","11","22","18:00","0.0","","-5.6","","66","","26","","23","","24.1","","100.72","","","","-6","","NA"
"2015-11-22 19:00","2015","11","22","19:00","0.2","","-4.5","","71","","29","","26","","24.1","","100.75","","","","","","Mostly Cloudy"
"2015-11-22 20:00","2015","11","22","20:00","-0.6","","-4.7","","74","","27","","25","","24.1","","100.75","","","","-7","","NA"
"2015-11-22 21:00","2015","11","22","21:00","-1.6","","-5.1","","77","","26","","16","","24.1","","100.79","","","","-7","","NA"
"2015-11-22 22:00","2015","11","22","22:00"
"2015-11-22 23:00","2015","11","22","23:00"
"2015-11-23 00:00","2015","11","23","00:00"
"2015-11-23 01:00","2015","11","23","01:00"
"2015-11-23 02:00","2015","11","23","02:00"
"2015-11-23 03:00","2015","11","23","03:00"
"2015-11-23 04:00","2015","11","23","04:00"
"2015-11-23 05:00","2015","11","23","05:00"
"2015-11-23 06:00","2015","11","23","06:00"
"2015-11-23 07:00","2015","11","23","07:00","-5.1","","-9.0","","74","","25","","10","","24.1","","100.93","","","","-9","","Mainly Clear"
"2015-11-23 08:00","2015","11","23","08:00","-4.4","","-8.5","","73","","23","","15","","24.1","","100.94","","","","-10","","NA"
"2015-11-23 09:00","2015","11","23","09:00","-2.7","","-8.8","","63","","24","","12","","24.1","","100.98","","","","-7","","NA"
"2015-11-23 10:00","2015","11","23","10:00","0.0","","-8.2","","54","","24","","13","","24.1","","100.98","","","","-4","","Mostly Cloudy"
"2015-11-23 11:00","2015","11","23","11:00","1.9","","-9.1","","44","","22","","10","","24.1","","100.95","","","","","","NA"
"2015-11-23 12:00","2015","11","23","12:00","1.9","","-9.4","","43","","23","","10","","24.1","","100.88","","","","","","NA"
"2015-11-23 13:00","2015","11","23","13:00","2.4","","-9.0","","43","","22","","7","","24.1","","100.81","","","","","","Mostly Cloudy"
"2015-11-23 14:00","2015","11","23","14:00","2.6","","-7.9","","46","","21","","15","","24.1","","100.77","","","","","","NA"
"2015-11-23 15:00","2015","11","23","15:00","0.1","","-2.0","","86","","20","","16","","9.7","","100.80","","","","","","Snow Showers"
"2015-11-23 16:00","2015","11","23","16:00","0.0","","-1.1","","92","","15","","11","","16.1","","100.78","","","","-4","","Snow Showers"
"2015-11-23 17:00","2015","11","23","17:00","-0.4","","-1.8","","90","","14","","11","","19.3","","100.74","","","","-4","","NA"
"2015-11-23 18:00","2015","11","23","18:00","0.0","","-1.6","","89","","14","","10","","19.3","","100.79","","","","-3","","NA"
"2015-11-23 19:00","2015","11","23","19:00","0.9","","-1.8","","82","","18","","14","","19.3","","100.82","","","","","","Cloudy"
"2015-11-23 20:00","2015","11","23","20:00","0.6","","-1.2","","88","","17","","24","","12.9","","100.84","","","","","","Snow Showers"
"2015-11-23 21:00","2015","11","23","21:00","1.1","","-1.3","","84","","20","","18","","16.1","","100.83","","","","","","Snow Showers"
"2015-11-23 22:00","2015","11","23","22:00"
"2015-11-23 23:00","2015","11","23","23:00"
"2015-11-24 00:00","2015","11","24","00:00"
"2015-11-24 01:00","2015","11","24","01:00"
"2015-11-24 02:00","2015","11","24","02:00"
"2015-11-24 03:00","2015","11","24","03:00"
"2015-11-24 04:00","2015","11","24","04:00"
"2015-11-24 05:00","2015","11","24","05:00"
"2015-11-24 06:00","2015","11","24","06:00"
"2015-11-24 07:00","2015","11","24","07:00","1.1","","-1.5","","83","","23","","9","","12.9","","101.15","","","","","","Cloudy"
"2015-11-24 08:00","2015","11","24","08:00","1.2","","-1.5","","82","","24","","15","","11.3","","101.25","","","","","","NA"
"2015-11-24 09:00","2015","11","24","09:00","1.8","","-0.9","","82","","23","","11","","11.3","","101.30","","","","","","NA"
"2015-11-24 10:00","2015","11","24","10:00","2.6","","-0.5","","80","","25","","16","","11.3","","101.38","","","","","","Cloudy"
"2015-11-24 11:00","2015","11","24","11:00","4.1","","0.3","","76","","26","","12","","12.9","","101.43","","","","","","NA"
"2015-11-24 12:00","2015","11","24","12:00","3.9","","-0.1","","75","","26","","14","","12.9","","101.44","","","","","","NA"
"2015-11-24 13:00","2015","11","24","13:00","5.7","","0.1","","67","","27","","20","","16.1","","101.45","","","","","","Mostly Cloudy"
"2015-11-24 14:00","2015","11","24","14:00","6.2","","-0.1","","64","","28","","23","","19.3","","101.47","","","","","","NA"
"2015-11-24 15:00","2015","11","24","15:00","6.1","","0.0","","65","","29","","16","","19.3","","101.50","","","","","","NA"
"2015-11-24 16:00","2015","11","24","16:00","5.4","","-0.4","","66","","27","","19","","24.1","","101.58","","","","","","Mainly Clear"
"2015-11-24 17:00","2015","11","24","17:00","4.4","","-0.4","","71","","26","","11","","24.1","","101.66","","","","","","NA"
"2015-11-24 18:00","2015","11","24","18:00","3.3","","-0.9","","74","","25","","13","","24.1","","101.72","","","","","","NA"
"2015-11-24 19:00","2015","11","24","19:00","2.0","","-1.4","","78","","24","","11","","24.1","","101.79","","","","","","Mainly Clear"
"2015-11-24 20:00","2015","11","24","20:00","0.7","","-1.9","","83","","23","","11","","24.1","","101.84","","","","","","NA"
"2015-11-24 21:00","2015","11","24","21:00","0.7","","-1.9","","83","","22","","11","","24.1","","101.89","","","","","","NA"
"2015-11-24 22:00","2015","11","24","22:00"
"2015-11-24 23:00","2015","11","24","23:00"
"2015-11-25 00:00","2015","11","25","00:00"
"2015-11-25 01:00","2015","11","25","01:00"
"2015-11-25 02:00","2015","11","25","02:00"
"2015-11-25 03:00","2015","11","25","03:00"
"2015-11-25 04:00","2015","11","25","04:00"
"2015-11-25 05:00","2015","11","25","05:00"
"2015-11-25 06:00","2015","11","25","06:00"
"2015-11-25 07:00","2015","11","25","07:00","-0.8","","-1.7","","94","","12","","9","","19.3","","102.27","","","","-4","","Mostly Cloudy"
"2015-11-25 08:00","2015","11","25","08:00","-0.3","","-1.4","","92","","13","","7","","19.3","","102.32","","","","-3","","NA"
"2015-11-25 09:00","2015","11","25","09:00","3.9","","0.1","","76","","15","","14","","24.1","","102.35","","","","","","NA"
"2015-11-25 10:00","2015","11","25","10:00","6.1","","0.0","","65","","16","","17","","24.1","","102.37","","","","","","Mainly Clear"
"2015-11-25 11:00","2015","11","25","11:00","7.7","","-0.3","","57","","16","","14","","24.1","","102.34","","","","","","NA"
"2015-11-25 12:00","2015","11","25","12:00","8.8","","-0.8","","51","","14","","8","","24.1","","102.25","","","","","","NA"
"2015-11-25 13:00","2015","11","25","13:00","10.2","","0.0","","49","","16","","13","","24.1","","102.19","","","","","","Mainly Clear"
"2015-11-25 14:00","2015","11","25","14:00","10.6","","0.1","","48","","17","","17","","24.1","","102.12","","","","","","NA"
"2015-11-25 15:00","2015","11","25","15:00","11.1","","0.3","","47","","18","","18","","24.1","","102.09","","","","","","NA"
"2015-11-25 16:00","2015","11","25","16:00","10.1","","0.2","","50","","17","","12","","24.1","","102.01","","","","","","Mainly Clear"
"2015-11-25 17:00","2015","11","25","17:00","6.9","","-0.1","","61","","12","","7","","24.1","","101.95","","","","","","NA"
"2015-11-25 18:00","2015","11","25","18:00","5.7","","-0.2","","66","","8","","9","","24.1","","102.00","","","","","","NA"
"2015-11-25 19:00","2015","11","25","19:00","1.8","","-1.3","","80","","14","","5","","24.1","","101.98","","","","","","Mainly Clear"
"2015-11-25 20:00","2015","11","25","20:00","4.7","","-0.3","","70","","18","","17","","24.1","","102.02","","","","","","NA"
"2015-11-25 21:00","2015","11","25","21:00","6.7","","-0.3","","61","","18","","18","","24.1","","101.97","","","","","","NA"
"2015-11-25 22:00","2015","11","25","22:00"
"2015-11-25 23:00","2015","11","25","23:00"
"2015-11-26 00:00","2015","11","26","00:00"
"2015-11-26 01:00","2015","11","26","01:00"
"2015-11-26 02:00","2015","11","26","02:00"
"2015-11-26 03:00","2015","11","26","03:00"
"2015-11-26 04:00","2015","11","26","04:00"
"2015-11-26 05:00","2015","11","26","05:00"
"2015-11-26 06:00","2015","11","26","06:00"
"2015-11-26 07:00","2015","11","26","07:00","9.3","","1.7","","59","","20","","25","","24.1","","102.03","","","","","","Mostly Cloudy"
"2015-11-26 08:00","2015","11","26","08:00","9.8","","2.7","","61","","19","","21","","24.1","","102.04","","","","","","NA"
"2015-11-26 09:00","2015","11","26","09:00","11.1","","3.0","","57","","20","","27","","24.1","","102.04","","","","","","NA"
"2015-11-26 10:00","2015","11","26","10:00","12.4","","3.1","","53","","21","","32","","24.1","","102.08","","","","","","Cloudy"
"2015-11-26 11:00","2015","11","26","11:00","13.6","","4.0","","52","","21","","34","","24.1","","102.05","","","","","","NA"
"2015-11-26 12:00","2015","11","26","12:00","15.0","","4.2","","48","","21","","36","","24.1","","101.96","","","","","","NA"
"2015-11-26 13:00","2015","11","26","13:00","15.4","","5.1","","50","","22","","37","","24.1","","101.88","","","","","","Cloudy"
"2015-11-26 14:00","2015","11","26","14:00","16.1","","6.1","","51","","21","","31","","24.1","","101.81","","","","","","NA"
"2015-11-26 15:00","2015","11","26","15:00","16.4","","6.3","","51","","21","","26","","24.1","","101.77","","","","","","NA"
"2015-11-26 16:00","2015","11","26","16:00","16.1","","6.3","","52","","21","","20","","24.1","","101.77","","","","","","Cloudy"
"2015-11-26 17:00","2015","11","26","17:00","14.9","","7.0","","59","","19","","21","","24.1","","101.70","","","","","","NA"
"2015-11-26 18:00","2015","11","26","18:00","14.1","","7.0","","62","","20","","20","","24.1","","101.68","","","","","","NA"
"2015-11-26 19:00","2015","11","26","19:00","14.7","","6.8","","59","","19","","24","","24.1","","101.66","","","","","","Mainly Clear"
"2015-11-26 20:00","2015","11","26","20:00","15.4","","6.2","","54","","19","","30","","24.1","","101.62","","","","","","NA"
"2015-11-26 21:00","2015","11","26","21:00","15.2","","6.3","","55","","19","","33","","24.1","","101.56","","","","","","NA"
"2015-11-26 22:00","2015","11","26","22:00"
"2015-11-26 23:00","2015","11","26","23:00"
"2015-11-27 00:00","2015","11","27","00:00"
"2015-11-27 01:00","2015","11","27","01:00"
"2015-11-27 02:00","2015","11","27","02:00"
"2015-11-27 03:00","2015","11","27","03:00"
"2015-11-27 04:00","2015","11","27","04:00"
"2015-11-27 05:00","2015","11","27","05:00"
"2015-11-27 06:00","2015","11","27","06:00"
"2015-11-27 07:00","2015","11","27","07:00","15.0","","6.6","","57","","21","","34","","24.1","","101.20","","","","","","Mostly Cloudy"
"2015-11-27 08:00","2015","11","27","08:00","14.8","","6.9","","59","","21","","34","","24.1","","101.18","","","","","","NA"
"2015-11-27 09:00","2015","11","27","09:00","14.9","","7.5","","61","","21","","36","","24.1","","101.19","","","","","","NA"
"2015-11-27 10:00","2015","11","27","10:00","15.5","","8.1","","61","","22","","36","","24.1","","101.13","","","","","","Cloudy"
"2015-11-27 11:00","2015","11","27","11:00","16.1","","8.2","","59","","22","","38","","24.1","","101.09","","","","","","NA"
"2015-11-27 12:00","2015","11","27","12:00","14.1","","9.8","","75","","23","","42","","12.9","","101.08","","","","","","Rain Showers"
"2015-11-27 13:00","2015","11","27","13:00","13.3","","10.7","","84","","23","","35","","16.1","","101.03","","","","","","Rain Showers"
"2015-11-27 14:00","2015","11","27","14:00","13.4","","10.8","","84","","22","","45","","16.1","","100.99","","","","","","NA"
"2015-11-27 15:00","2015","11","27","15:00","13.2","","10.9","","86","","23","","28","","16.1","","100.98","","","","","","Rain Showers"
"2015-11-27 16:00","2015","11","27","16:00","12.8","","11.4","","91","","24","","25","","12.9","","100.98","","","","","","Rain Showers"
"2015-11-27 17:00","2015","11","27","17:00","8.4","","7.2","","92","","33","","21","","6.4","","101.09","","","","","","Rain Showers,Fog"
"2015-11-27 18:00","2015","11","27","18:00","5.4","","5.0","","97","","34","","25","","8.1","","101.26","","","","","","Rain Showers,Fog"
"2015-11-27 19:00","2015","11","27","19:00","4.3","","3.6","","95","","34","","25","","9.7","","101.37","","","","","","Rain Showers,Fog"
"2015-11-27 20:00","2015","11","27","20:00","3.3","","2.7","","96","","33","","21","","6.4","","101.42","","","","","","Rain Showers,Fog"
"2015-11-27 21:00","2015","11","27","21:00","3.0","","2.1","","94","","33","","21","","8.1","","101.45","","","","","","Rain Showers,Fog"
"2015-11-27 22:00","2015","11","27","22:00"
"2015-11-27 23:00","2015","11","27","23:00"
"2015-11-28 00:00","2015","11","28","00:00"
"2015-11-28 01:00","2015","11","28","01:00"
"2015-11-28 02:00","2015","11","28","02:00"
"2015-11-28 03:00","2015","11","28","03:00"
"2015-11-28 04:00","2015","11","28","04:00"
"2015-11-28 05:00","2015","11","28","05:00"
"2015-11-28 06:00","2015","11","28","06:00"
"2015-11-28 07:00","2015","11","28","07:00","2.4","","0.5","","87","","1","","16","","24.1","","101.53","","","","","","Cloudy"
"2015-11-28 08:00","2015","11","28","08:00","2.4","","0.5","","87","","2","","11","","24.1","","101.55","","","","","","NA"
"2015-11-28 09:00","2015","11","28","09:00","2.5","","0.6","","87","","3","","10","","24.1","","101.54","","","","","","NA"
"2015-11-28 10:00","2015","11","28","10:00","2.7","","0.4","","85","","1","","17","","24.1","","101.56","","","","","","Cloudy"
"2015-11-28 11:00","2015","11","28","11:00","2.2","","0.1","","86","","1","","15","","24.1","","101.54","","","","","","NA"
"2015-11-28 12:00","2015","11","28","12:00","2.0","","-0.1","","86","","36","","17","","24.1","","101.45","","","","","","NA"
"2015-11-28 13:00","2015","11","28","13:00","1.9","","-0.2","","86","","1","","15","","24.1","","101.45","","","","","","Cloudy"
"2015-11-28 14:00","2015","11","28","14:00"
"2015-11-28 15:00","2015","11","28","15:00","1.4","","-1.0","","84","","1","","17","","24.1","","101.42","","","","","","NA"
"2015-11-28 16:00","2015","11","28","16:00","1.2","","-1.2","","84","","3","","12","","24.1","","101.41","","","","","","Mostly Cloudy"
"2015-11-28 17:00","2015","11","28","17:00","0.9","","-1.0","","87","","36","","2","","24.1","","101.48","","","","","","NA"
"2015-11-28 18:00","2015","11","28","18:00","0.5","","-1.1","","89","","25","","3","","24.1","","101.46","","","","","","NA"
"2015-11-28 19:00","2015","11","28","19:00","-0.1","","-1.4","","91","","36","","2","","24.1","","101.49","","","","-1","","Mostly Cloudy"
"2015-11-28 20:00","2015","11","28","20:00","-0.7","","-2.0","","91","","0","","1","","24.1","","101.51","","","","-1","","NA"
"2015-11-28 21:00","2015","11","28","21:00","-2.6","","-3.2","","96","","36","","1","","24.1","","101.50","","","","-3","","NA"
"2015-11-28 22:00","2015","11","28","22:00"
"2015-11-28 23:00","2015","11","28","23:00"
"2015-11-29 00:00","2015","11","29","00:00"
"2015-11-29 01:00","2015","11","29","01:00"
"2015-11-29 02:00","2015","11","29","02:00"
"2015-11-29 03:00","2015","11","29","03:00"
"2015-11-29 04:00","2015","11","29","04:00"
"2015-11-29 05:00","2015","11","29","05:00"
"2015-11-29 06:00","2015","11","29","06:00"
"2015-11-29 07:00","2015","11","29","07:00","-0.8","","-3.5","","82","","36","","2","","24.1","","101.57","","","","-1","","Mostly Cloudy"
"2015-11-29 08:00","2015","11","29","08:00","-0.2","","-3.1","","81","","36","","3","","24.1","","101.61","","","","-1","","NA"
"2015-11-29 09:00","2015","11","29","09:00","1.0","","-2.8","","76","","36","","6","","24.1","","101.64","","","","","","NA"
"2015-11-29 10:00","2015","11","29","10:00","1.9","","-1.9","","76","","33","","7","","24.1","","101.66","","","","","","Mostly Cloudy"
"2015-11-29 11:00","2015","11","29","11:00","2.0","","-2.2","","74","","32","","5","","24.1","","101.68","","","","","","NA"
"2015-11-29 12:00","2015","11","29","12:00","2.4","","-2.9","","68","","9","","4","","24.1","","101.64","","","","","","NA"
"2015-11-29 13:00","2015","11","29","13:00"
"2015-11-29 14:00","2015","11","29","14:00","3.3","","-1.7","","70","","1","","13","","24.1","","101.57","","","","","","NA"
"2015-11-29 15:00","2015","11","29","15:00","3.1","","-1.8","","70","","2","","9","","24.1","","101.61","","","","","","NA"
"2015-11-29 16:00","2015","11","29","16:00","2.0","","-2.7","","71","","10","","7","","24.1","","101.66","","","","","","Mostly Cloudy"
"2015-11-29 17:00","2015","11","29","17:00","1.3","","-3.0","","73","","7","","8","","24.1","","101.65","","","","","","NA"
"2015-11-29 18:00","2015","11","29","18:00","1.6","","-2.0","","77","","8","","7","","24.1","","101.66","","","","","","NA"
"2015-11-29 19:00","2015","11","29","19:00","2.0","","-1.8","","76","","5","","5","","24.1","","101.67","","","","","","Mostly Cloudy"
"2015-11-29 20:00","2015","11","29","20:00","3.0","","-2.7","","66","","5","","15","","24.1","","101.77","","","","","","NA"
"2015-11-29 21:00","2015","11","29","21:00","2.9","","-3.3","","64","","5","","14","","24.1","","101.76","","","","","","NA"
"2015-11-29 22:00","2015","11","29","22:00"
"2015-11-29 23:00","2015","11","29","23:00"
"2015-11-30 00:00","2015","11","30","00:00"
"2015-11-30 01:00","2015","11","30","01:00"
"2015-11-30 02:00","2015","11","30","02:00"
"2015-11-30 03:00","2015","11","30","03:00"
"2015-11-30 04:00","2015","11","30","04:00"
"2015-11-30 05:00","2015","11","30","05:00"
"2015-11-30 06:00","2015","11","30","06:00"
"2015-11-30 07:00","2015","11","30","07:00","-0.8","","-4.2","","78","","12","","9","","24.1","","101.69","","","","-4","","Mainly Clear"
"2015-11-30 08:00","2015","11","30","08:00","-1.2","","-3.9","","82","","10","","8","","24.1","","101.69","","","","-4","","NA"
"2015-11-30 09:00","2015","11","30","09:00","0.7","","-3.2","","75","","10","","11","","24.1","","101.65","","","","","","NA"
"2015-11-30 10:00","2015","11","30","10:00","2.1","","-3.6","","66","","9","","15","","24.1","","101.63","","","","","","Mainly Clear"
"2015-11-30 11:00","2015","11","30","11:00","3.2","","-3.4","","62","","11","","12","","24.1","","101.59","","","","","","NA"
"2015-11-30 12:00","2015","11","30","12:00","4.3","","-3.2","","58","","7","","9","","24.1","","101.50","","","","","","NA"
"2015-11-30 13:00","2015","11","30","13:00","5.1","","-3.2","","55","","7","","7","","24.1","","101.40","","","","","","Mainly Clear"
"2015-11-30 14:00","2015","11","30","14:00","5.1","","-1.1","","64","","3","","17","","24.1","","101.34","","","","","","NA"
"2015-11-30 15:00","2015","11","30","15:00","4.4","","-1.2","","67","","4","","22","","24.1","","101.30","","","","","","NA"
"2015-11-30 16:00","2015","11","30","16:00","3.5","","-1.3","","71","","6","","21","","24.1","","101.30","","","","","","Mainly Clear"
"2015-11-30 17:00","2015","11","30","17:00","1.7","","-1.7","","78","","5","","11","","24.1","","101.30","","","","","","NA"
"2015-11-30 18:00","2015","11","30","18:00","0.6","","-2.1","","82","","7","","14","","24.1","","101.30","","","","","","NA"
"2015-11-30 19:00","2015","11","30","19:00","0.6","","-2.3","","81","","8","","13","","24.1","","101.28","","","","","","Mainly Clear"
"2015-11-30 20:00","2015","11","30","20:00","-0.1","","-2.3","","85","","8","","11","","24.1","","101.27","","","","-4","","NA"
"2015-11-30 21:00","2015","11","30","21:00","-1.0","","-2.6","","89","","10","","10","","24.1","","101.21","","","","-5","","NA"
"2015-11-30 22:00","2015","11","30","22:00"
"2015-11-30 23:00","2015","11","30","23:00"
