"Station Name","ST CATHARINES A"
"Province","ONTARIO"
"Latitude","43.20"
"Longitude","-79.17"
"Elevation","97.80"
"Climate Identifier","6137287"
"WMO Identifier",""
"TC Identifier","YSN"
"All times are specified in Local Standard Time (LST). Add 1 hour to adjust for Daylight Saving Time where and when it is observed."

"Legend"
"E","Estimated"
"M","Missing"
"NA","Not Available"

"Date/Time","Year","Month","Day","Time","Temp (°C)","Temp Flag","Dew Point Temp (°C)","Dew Point Temp Flag","Rel Hum (%)","Rel Hum Flag","Wind Dir (10s deg)","Wind Dir Flag","Wind Spd (km/h)","Wind Spd Flag","Visibility (km)","Visibility Flag","Stn Press (kPa)","Stn Press Flag","Hmdx","Hmdx Flag","Wind Chill","Wind Chill Flag","Weather"
"1994-11-01 00:00","1994","11","01","00:00","","M","","M","","M","8","","17","","","M","","M","","","","","NA"
"1994-11-01 01:00","1994","11","01","01:00","","M","","M","","M","7","","19","","","M","","M","","","","","NA"
"1994-11-01 02:00","1994","11","01","02:00","","M","","M","","M","8","","15","","","M","","M","","","","","NA"
"1994-11-01 03:00","1994","11","01","03:00","","M","","M","","M","8","","15","","","M","","M","","","","","NA"
"1994-11-01 04:00","1994","11","01","04:00","","M","","M","","M","7","","20","","","M","","M","","","","","NA"
"1994-11-01 05:00","1994","11","01","05:00","","M","","M","","M","7","","20","","","M","","M","","","","","NA"
"1994-11-01 06:00","1994","11","01","06:00","9.8","","9.8","","100","","7","","24","","3.2","","98.47","","","","","","Rain,Fog"
"1994-11-01 07:00","1994","11","01","07:00","10.2","","10.2","","100","","35","","28","","2.4","","98.54","","","","","","Thunderstorms,Heavy Rain Showers,Fog"
"1994-11-01 08:00","1994","11","01","08:00","8.1","","8.1","","100","","4","","20","","8.0","","98.47","","","","","","Rain Showers,Fog"
"1994-11-01 09:00","1994","11","01","09:00","8.5","","8.5","","100","","6","","19","","19.3","","98.37","","","","","","Cloudy"
"1994-11-01 10:00","1994","11","01","10:00","8.8","","8.8","","100","","7","","9","","19.3","","98.37","","","","","","Cloudy"
"1994-11-01 11:00","1994","11","01","11:00","9.3","","9.1","","99","","8","","9","","19.3","","98.27","","","","","","Cloudy"
"1994-11-01 12:00","1994","11","01","12:00","9.6","","9.2","","97","","","","0","","24.1","","98.37","","","","","","Cloudy"
"1994-11-01 13:00","1994","11","01","13:00","9.6","","9.3","","98","","4","","7","","24.1","","98.27","","","","","","Cloudy"
"1994-11-01 14:00","1994","11","01","14:00","10.0","","8.6","","91","","4","","11","","24.1","","98.21","","","","","","Cloudy"
"1994-11-01 15:00","1994","11","01","15:00","8.5","","8.5","","100","","3","","9","","4.8","","98.24","","","","","","Rain Showers,Fog"
"1994-11-01 16:00","1994","11","01","16:00","8.4","","8.4","","100","","33","","9","","6.4","","98.34","","","","","","Rain Showers,Fog"
"1994-11-01 17:00","1994","11","01","17:00","8.7","","8.7","","100","","26","","9","","6.4","","98.44","","","","","","Rain Showers,Fog"
"1994-11-01 18:00","1994","11","01","18:00","8.4","","8.4","","100","","28","","9","","6.4","","98.44","","","","","","Rain Showers,Fog"
"1994-11-01 19:00","1994","11","01","19:00","8.5","","8.5","","100","","28","","11","","8.0","","98.47","","","","","","Rain Showers,Fog"
"1994-11-01 20:00","1994","11","01","20:00","7.4","","7.4","","100","","31","","15","","16.1","","98.54","","","","","","Rain Showers"
"1994-11-01 21:00","1994","11","01","21:00","7.2","","7.0","","99","","30","","15","","16.1","","98.64","","","","","","Rain Showers"
"1994-11-01 22:00","1994","11","01","22:00","6.6","","6.3","","98","","29","","15","","16.1","","98.71","","","","","","Rain Showers"
"1994-11-01 23:00","1994","11","01","23:00","","M","","M","","M","33","","19","","","M","","M","","","","","NA"
"1994-11-02 00:00","1994","11","02","00:00","","M","","M","","M","32","","20","","","M","","M","","","","","NA"
"1994-11-02 01:00","1994","11","02","01:00","","M","","M","","M","32","","28","","","M","","M","","","","","NA"
"1994-11-02 02:00","1994","11","02","02:00","","M","","M","","M","32","","24","","","M","","M","","","","","NA"
"1994-11-02 03:00","1994","11","02","03:00","","M","","M","","M","32","","19","","","M","","M","","","","","NA"
"1994-11-02 04:00","1994","11","02","04:00","","M","","M","","M","31","","22","","","M","","M","","","","","NA"
"1994-11-02 05:00","1994","11","02","05:00","","M","","M","","M","30","","24","","","M","","M","","","","","NA"
"1994-11-02 06:00","1994","11","02","06:00","6.9","","3.2","","77","","28","","22","","25.0","","99.68","","","","","","Cloudy"
"1994-11-02 07:00","1994","11","02","07:00","6.5","","2.8","","77","","28","","26","","24.1","","99.85","","","","","","Mostly Cloudy"
"1994-11-02 08:00","1994","11","02","08:00","7.0","","2.1","","71","","26","","22","","24.1","","100.05","","","","","","Mostly Cloudy"
"1994-11-02 09:00","1994","11","02","09:00","6.9","","2.1","","71","","28","","19","","24.1","","100.18","","","","","","Mainly Clear"
"1994-11-02 10:00","1994","11","02","10:00","9.3","","3.0","","65","","28","","19","","24.1","","100.25","","","","","","Mainly Clear"
"1994-11-02 11:00","1994","11","02","11:00","8.9","","2.8","","66","","26","","22","","24.1","","100.35","","","","","","Mainly Clear"
"1994-11-02 12:00","1994","11","02","12:00","9.6","","2.8","","63","","26","","20","","24.1","","100.35","","","","","","Mainly Clear"
"1994-11-02 13:00","1994","11","02","13:00","10.2","","2.6","","59","","26","","26","","24.1","","100.35","","","","","","Mainly Clear"
"1994-11-02 14:00","1994","11","02","14:00","11.1","","3.4","","59","","28","","22","","40.2","","100.35","","","","","","Mainly Clear"
"1994-11-02 15:00","1994","11","02","15:00","11.2","","3.2","","58","","27","","17","","40.2","","100.39","","","","","","Mainly Clear"
"1994-11-02 16:00","1994","11","02","16:00","11.0","","2.7","","57","","28","","13","","40.2","","100.49","","","","","","Mainly Clear"
"1994-11-02 17:00","1994","11","02","17:00","9.8","","3.0","","63","","26","","7","","40.2","","100.55","","","","","","Mainly Clear"
"1994-11-02 18:00","1994","11","02","18:00","9.3","","2.8","","64","","25","","11","","40.2","","100.69","","","","","","Mainly Clear"
"1994-11-02 19:00","1994","11","02","19:00","8.0","","2.7","","69","","23","","9","","40.2","","100.72","","","","","","Mainly Clear"
"1994-11-02 20:00","1994","11","02","20:00","7.4","","2.5","","71","","22","","9","","40.2","","100.76","","","","","","Clear"
"1994-11-02 21:00","1994","11","02","21:00","5.8","","2.7","","80","","22","","7","","40.2","","100.79","","","","","","Clear"
"1994-11-02 22:00","1994","11","02","22:00","4.7","","2.5","","86","","21","","6","","40.2","","100.76","","","","","","Clear"
"1994-11-02 23:00","1994","11","02","23:00","","M","","M","","M","17","","4","","","M","","M","","","","","NA"
"1994-11-03 00:00","1994","11","03","00:00","","M","","M","","M","19","","4","","","M","","M","","","","","NA"
"1994-11-03 01:00","1994","11","03","01:00","","M","","M","","M","17","","6","","","M","","M","","","","","NA"
"1994-11-03 02:00","1994","11","03","02:00","","M","","M","","M","14","","4","","","M","","M","","","","","NA"
"1994-11-03 03:00","1994","11","03","03:00","","M","","M","","M","19","","6","","","M","","M","","","","","NA"
"1994-11-03 04:00","1994","11","03","04:00","","M","","M","","M","15","","9","","","M","","M","","","","","NA"
"1994-11-03 05:00","1994","11","03","05:00","","M","","M","","M","18","","11","","","M","","M","","","","","NA"
"1994-11-03 06:00","1994","11","03","06:00","7.7","","5.1","","84","","17","","13","","24.1","","100.55","","","","","","Mainly Clear"
"1994-11-03 07:00","1994","11","03","07:00","8.2","","4.0","","75","","18","","15","","24.1","","100.52","","","","","","Mostly Cloudy"
"1994-11-03 08:00","1994","11","03","08:00","9.5","","2.6","","62","","17","","22","","24.1","","100.49","","","","","","Mostly Cloudy"
"1994-11-03 09:00","1994","11","03","09:00","11.0","","3.7","","61","","18","","19","","24.1","","100.49","","","","","","Mostly Cloudy"
"1994-11-03 10:00","1994","11","03","10:00","12.4","","4.5","","59","","18","","19","","24.1","","100.45","","","","","","Mostly Cloudy"
"1994-11-03 11:00","1994","11","03","11:00","14.4","","5.8","","56","","19","","15","","24.1","","100.49","","","","","","Mostly Cloudy"
"1994-11-03 12:00","1994","11","03","12:00","14.9","","5.0","","51","","21","","13","","24.1","","100.45","","","","","","Cloudy"
"1994-11-03 13:00","1994","11","03","13:00","14.7","","4.9","","52","","22","","22","","24.1","","100.45","","","","","","Cloudy"
"1994-11-03 14:00","1994","11","03","14:00","15.2","","5.5","","52","","22","","22","","24.1","","100.39","","","","","","Cloudy"
"1994-11-03 15:00","1994","11","03","15:00","14.9","","6.1","","56","","22","","13","","24.1","","100.35","","","","","","Cloudy"
"1994-11-03 16:00","1994","11","03","16:00","14.9","","6.7","","58","","21","","17","","24.1","","100.39","","","","","","Mostly Cloudy"
"1994-11-03 17:00","1994","11","03","17:00","15.2","","6.9","","58","","21","","11","","24.1","","100.32","","","","","","Mostly Cloudy"
"1994-11-03 18:00","1994","11","03","18:00","15.0","","7.9","","62","","21","","15","","24.1","","100.39","","","","","","Cloudy"
"1994-11-03 19:00","1994","11","03","19:00","15.3","","7.6","","60","","21","","6","","24.1","","100.45","","","","","","Cloudy"
"1994-11-03 20:00","1994","11","03","20:00","15.7","","7.6","","59","","21","","11","","40.2","","100.49","","","","","","Cloudy"
"1994-11-03 21:00","1994","11","03","21:00","15.2","","8.2","","63","","19","","13","","25.0","","100.39","","","","","","Mostly Cloudy"
"1994-11-03 22:00","1994","11","03","22:00","15.3","","8.6","","64","","21","","11","","25.0","","100.39","","","","","","Mostly Cloudy"
"1994-11-03 23:00","1994","11","03","23:00","","M","","M","","M","23","","13","","","M","","M","","","","","NA"
"1994-11-04 00:00","1994","11","04","00:00","","M","","M","","M","21","","11","","","M","","M","","","","","NA"
"1994-11-04 01:00","1994","11","04","01:00","","M","","M","","M","19","","13","","","M","","M","","","","","NA"
"1994-11-04 02:00","1994","11","04","02:00","","M","","M","","M","22","","17","","","M","","M","","","","","NA"
"1994-11-04 03:00","1994","11","04","03:00","","M","","M","","M","23","","15","","","M","","M","","","","","NA"
"1994-11-04 04:00","1994","11","04","04:00","","M","","M","","M","21","","19","","","M","","M","","","","","NA"
"1994-11-04 05:00","1994","11","04","05:00","","M","","M","","M","22","","20","","","M","","M","","","","","NA"
"1994-11-04 06:00","1994","11","04","06:00","13.9","","13.6","","98","","20","","11","","6.4","","100.35","","","","","","Rain Showers,Fog"
"1994-11-04 07:00","1994","11","04","07:00","14.0","","13.4","","96","","19","","15","","8.0","","100.35","","","","","","Rain Showers,Fog"
"1994-11-04 08:00","1994","11","04","08:00","14.4","","14.3","","99","","19","","19","","11.3","","100.42","","","","","","Rain Showers"
"1994-11-04 09:00","1994","11","04","09:00","15.1","","13.5","","90","","19","","19","","16.1","","100.42","","","","","","Cloudy"
"1994-11-04 10:00","1994","11","04","10:00","15.9","","13.9","","88","","19","","19","","19.3","","100.35","","","","","","Cloudy"
"1994-11-04 11:00","1994","11","04","11:00","20.0","","14.6","","71","","22","","19","","19.3","","100.35","","","","","","Cloudy"
"1994-11-04 12:00","1994","11","04","12:00","18.9","","13.7","","72","","20","","15","","24.1","","100.29","","","","","","Cloudy"
"1994-11-04 13:00","1994","11","04","13:00","19.1","","13.7","","71","","20","","19","","24.1","","100.25","","","","","","Rain Showers"
"1994-11-04 14:00","1994","11","04","14:00","17.9","","14.5","","80","","21","","19","","12.9","","100.15","","","","","","Rain Showers"
"1994-11-04 15:00","1994","11","04","15:00","17.6","","15.3","","86","","20","","19","","12.9","","100.08","","","","","","Cloudy"
"1994-11-04 16:00","1994","11","04","16:00","17.0","","15.6","","91","","20","","20","","12.9","","100.08","","","","","","Rain"
"1994-11-04 17:00","1994","11","04","17:00","17.2","","15.3","","89","","21","","19","","12.9","","100.08","","","","","","Rain"
"1994-11-04 18:00","1994","11","04","18:00","16.9","","15.1","","89","","22","","7","","12.9","","100.08","","","","","","Rain Showers"
"1994-11-04 19:00","1994","11","04","19:00","17.0","","14.9","","87","","19","","9","","19.3","","99.98","","","","","","Cloudy"
"1994-11-04 20:00","1994","11","04","20:00","19.2","","14.7","","75","","22","","28","","24.1","","100.02","","","","","","Cloudy"
"1994-11-04 21:00","1994","11","04","21:00","18.7","","14.8","","78","","22","","22","","24.1","","99.98","","","","","","Cloudy"
"1994-11-04 22:00","1994","11","04","22:00","18.4","","14.4","","78","","22","","22","","24.1","","100.02","","","","","","Mostly Cloudy"
"1994-11-04 23:00","1994","11","04","23:00","","M","","M","","M","24","","17","","","M","","M","","","","","NA"
"1994-11-05 00:00","1994","11","05","00:00","","M","","M","","M","24","","20","","","M","","M","","","","","NA"
"1994-11-05 01:00","1994","11","05","01:00","","M","","M","","M","24","","20","","","M","","M","","","","","NA"
"1994-11-05 02:00","1994","11","05","02:00","","M","","M","","M","23","","28","","","M","","M","","","","","NA"
"1994-11-05 03:00","1994","11","05","03:00","","M","","M","","M","22","","28","","","M","","M","","","","","NA"
"1994-11-05 04:00","1994","11","05","04:00","","M","","M","","M","23","","22","","","M","","M","","","","","NA"
"1994-11-05 05:00","1994","11","05","05:00","","M","","M","","M","23","","22","","","M","","M","","","","","NA"
"1994-11-05 06:00","1994","11","05","06:00","15.2","","14.4","","95","","22","","22","","8.0","","100.08","","","","","","Rain Showers,Fog"
"1994-11-05 07:00","1994","11","05","07:00","15.1","","14.1","","94","","22","","22","","9.7","","100.12","","","","","","Rain Showers"
"1994-11-05 08:00","1994","11","05","08:00","14.8","","13.8","","94","","21","","17","","12.9","","100.15","","","","","","Rain Showers"
"1994-11-05 09:00","1994","11","05","09:00","14.3","","14.0","","98","","21","","20","","4.0","","100.18","","","","","","Rain,Fog"
"1994-11-05 10:00","1994","11","05","10:00","14.5","","14.2","","98","","21","","19","","4.8","","100.22","","","","","","Drizzle,Fog"
"1994-11-05 11:00","1994","11","05","11:00","14.8","","14.2","","96","","22","","11","","8.0","","100.25","","","","","","Rain,Drizzle,Fog"
"1994-11-05 12:00","1994","11","05","12:00","14.8","","14.1","","96","","22","","11","","9.7","","100.25","","","","","","Drizzle,Fog"
"1994-11-05 13:00","1994","11","05","13:00","14.6","","13.6","","94","","22","","11","","6.4","","100.29","","","","","","Drizzle,Fog"
"1994-11-05 14:00","1994","11","05","14:00","14.5","","14.3","","99","","21","","9","","4.8","","100.29","","","","","","Drizzle,Fog"
"1994-11-05 15:00","1994","11","05","15:00","14.4","","14.2","","99","","20","","11","","4.8","","100.29","","","","","","Rain,Fog"
"1994-11-05 16:00","1994","11","05","16:00","14.4","","14.1","","98","","20","","11","","4.8","","100.29","","","","","","Rain,Fog"
"1994-11-05 17:00","1994","11","05","17:00","14.4","","14.0","","97","","21","","6","","4.8","","100.32","","","","","","Rain,Fog"
"1994-11-05 18:00","1994","11","05","18:00","14.1","","13.8","","98","","21","","4","","4.8","","100.32","","","","","","Rain,Fog"
"1994-11-05 19:00","1994","11","05","19:00","13.6","","13.6","","100","","","","0","","6.4","","100.25","","","","","","Rain,Fog"
"1994-11-05 20:00","1994","11","05","20:00","13.3","","13.3","","100","","12","","6","","6.4","","100.15","","","","","","Fog"
"1994-11-05 21:00","1994","11","05","21:00","13.0","","13.0","","100","","9","","6","","4.0","","100.05","","","","","","Fog"
"1994-11-05 22:00","1994","11","05","22:00","13.2","","13.2","","100","","8","","7","","3.2","","99.95","","","","","","Fog"
"1994-11-05 23:00","1994","11","05","23:00","","M","","M","","M","8","","7","","","M","","M","","","","","NA"
"1994-11-06 00:00","1994","11","06","00:00","","M","","M","","M","9","","7","","","M","","M","","","","","NA"
"1994-11-06 01:00","1994","11","06","01:00","","M","","M","","M","9","","7","","","M","","M","","","","","NA"
"1994-11-06 02:00","1994","11","06","02:00","","M","","M","","M","10","","9","","","M","","M","","","","","NA"
"1994-11-06 03:00","1994","11","06","03:00","","M","","M","","M","10","","4","","","M","","M","","","","","NA"
"1994-11-06 04:00","1994","11","06","04:00","","M","","M","","M","18","","15","","","M","","M","","","","","NA"
"1994-11-06 05:00","1994","11","06","05:00","","M","","M","","M","17","","19","","","M","","M","","","","","NA"
"1994-11-06 06:00","1994","11","06","06:00","15.0","","13.5","","91","","15","","17","","19.3","","98.94","","","","","","Mainly Clear"
"1994-11-06 07:00","1994","11","06","07:00","16.4","","13.4","","82","","18","","28","","16.1","","98.84","","","","","","Cloudy"
"1994-11-06 08:00","1994","11","06","08:00","17.0","","13.1","","78","","18","","28","","19.3","","98.81","","","","","","Cloudy"
"1994-11-06 09:00","1994","11","06","09:00","15.2","","13.7","","91","","22","","19","","12.9","","98.84","","","","","","Rain Showers"
"1994-11-06 10:00","1994","11","06","10:00","15.2","","12.6","","84","","23","","37","","19.3","","98.91","","","","","","Cloudy"
"1994-11-06 11:00","1994","11","06","11:00","14.5","","12.2","","86","","22","","41","","12.9","","98.91","","","","","","Rain Showers"
"1994-11-06 12:00","1994","11","06","12:00","14.1","","12.3","","89","","23","","39","","4.8","","98.91","","","","","","Rain Showers,Fog"
"1994-11-06 13:00","1994","11","06","13:00","13.7","","11.7","","88","","22","","39","","6.4","","98.91","","","","","","Rain Showers"
"1994-11-06 14:00","1994","11","06","14:00","12.0","","10.1","","88","","26","","33","","19.3","","99.01","","","","","","Rain Showers"
"1994-11-06 15:00","1994","11","06","15:00","11.5","","8.2","","80","","27","","33","","24.1","","99.35","","","","","","Cloudy"
"1994-11-06 16:00","1994","11","06","16:00","10.6","","7.1","","79","","27","","32","","24.1","","99.61","","","","","","Mostly Cloudy"
"1994-11-06 17:00","1994","11","06","17:00","10.4","","6.2","","75","","28","","32","","24.1","","99.85","","","","","","Cloudy"
"1994-11-06 18:00","1994","11","06","18:00","8.9","","6.0","","82","","27","","30","","24.1","","99.92","","","","","","Rain Showers"
"1994-11-06 19:00","1994","11","06","19:00","8.6","","4.1","","73","","28","","24","","24.1","","100.12","","","","","","Cloudy"
"1994-11-06 20:00","1994","11","06","20:00","8.0","","3.5","","73","","27","","19","","24.1","","100.18","","","","","","Mainly Clear"
"1994-11-06 21:00","1994","11","06","21:00","7.9","","2.9","","71","","27","","26","","24.1","","100.32","","","","","","Mostly Cloudy"
"1994-11-06 22:00","1994","11","06","22:00","7.7","","3.6","","75","","28","","20","","24.1","","100.45","","","","","","Mostly Cloudy"
"1994-11-06 23:00","1994","11","06","23:00","","M","","M","","M","29","","28","","","M","","M","","","","","NA"
"1994-11-07 00:00","1994","11","07","00:00","","M","","M","","M","29","","28","","","M","","M","","","","","NA"
"1994-11-07 01:00","1994","11","07","01:00","","M","","M","","M","30","","26","","","M","","M","","","","","NA"
"1994-11-07 02:00","1994","11","07","02:00","","M","","M","","M","31","","28","","","M","","M","","","","","NA"
"1994-11-07 03:00","1994","11","07","03:00","","M","","M","","M","31","","22","","","M","","M","","","","","NA"
"1994-11-07 04:00","1994","11","07","04:00","","M","","M","","M","30","","20","","","M","","M","","","","","NA"
"1994-11-07 05:00","1994","11","07","05:00","","M","","M","","M","28","","11","","","M","","M","","","","","NA"
"1994-11-07 06:00","1994","11","07","06:00","5.1","","-2.1","","60","","26","","13","","40.2","","101.43","","","","","","Clear"
"1994-11-07 07:00","1994","11","07","07:00","2.6","","-1.5","","74","","23","","7","","40.2","","101.53","","","","","","Clear"
"1994-11-07 08:00","1994","11","07","08:00","4.0","","0.2","","76","","21","","9","","40.2","","101.63","","","","","","Clear"
"1994-11-07 09:00","1994","11","07","09:00","5.8","","1.9","","76","","23","","11","","40.2","","101.69","","","","","","Clear"
"1994-11-07 10:00","1994","11","07","10:00","7.7","","2.6","","70","","25","","19","","40.2","","101.76","","","","","","Mainly Clear"
"1994-11-07 11:00","1994","11","07","11:00","9.4","","2.4","","62","","25","","15","","40.2","","101.73","","","","","","Mainly Clear"
"1994-11-07 12:00","1994","11","07","12:00","10.4","","1.1","","52","","24","","13","","40.2","","101.69","","","","","","Mainly Clear"
"1994-11-07 13:00","1994","11","07","13:00","10.7","","2.1","","55","","26","","11","","40.2","","101.63","","","","","","Mostly Cloudy"
"1994-11-07 14:00","1994","11","07","14:00","10.9","","2.9","","58","","21","","7","","40.2","","101.56","","","","","","Mostly Cloudy"
"1994-11-07 15:00","1994","11","07","15:00","11.0","","2.4","","55","","21","","9","","40.2","","101.53","","","","","","Mostly Cloudy"
"1994-11-07 16:00","1994","11","07","16:00","9.5","","4.2","","69","","20","","11","","25.0","","101.53","","","","","","Mostly Cloudy"
"1994-11-07 17:00","1994","11","07","17:00","8.9","","4.2","","72","","20","","9","","24.1","","101.46","","","","","","Mostly Cloudy"
"1994-11-07 18:00","1994","11","07","18:00","8.3","","4.1","","75","","20","","9","","24.1","","101.39","","","","","","Mostly Cloudy"
"1994-11-07 19:00","1994","11","07","19:00","8.2","","4.0","","75","","20","","7","","24.1","","101.22","","","","","","Mostly Cloudy"
"1994-11-07 20:00","1994","11","07","20:00","7.9","","4.4","","79","","19","","6","","24.1","","101.12","","","","","","Cloudy"
"1994-11-07 21:00","1994","11","07","21:00","8.0","","4.7","","80","","","","0","","24.1","","101.02","","","","","","Cloudy"
"1994-11-07 22:00","1994","11","07","22:00","8.6","","5.7","","82","","16","","6","","24.1","","100.99","","","","","","Cloudy"
"1994-11-07 23:00","1994","11","07","23:00","","M","","M","","M","17","","11","","","M","","M","","","","","NA"
"1994-11-08 00:00","1994","11","08","00:00","","M","","M","","M","17","","7","","","M","","M","","","","","NA"
"1994-11-08 01:00","1994","11","08","01:00","","M","","M","","M","20","","7","","","M","","M","","","","","NA"
"1994-11-08 02:00","1994","11","08","02:00","","M","","M","","M","23","","9","","","M","","M","","","","","NA"
"1994-11-08 03:00","1994","11","08","03:00","","M","","M","","M","20","","15","","","M","","M","","","","","NA"
"1994-11-08 04:00","1994","11","08","04:00","","M","","M","","M","23","","19","","","M","","M","","","","","NA"
"1994-11-08 05:00","1994","11","08","05:00","","M","","M","","M","22","","19","","","M","","M","","","","","NA"
"1994-11-08 06:00","1994","11","08","06:00","11.7","","4.0","","59","","22","","20","","24.1","","100.45","","","","","","Cloudy"
"1994-11-08 07:00","1994","11","08","07:00","11.7","","4.9","","63","","22","","20","","24.1","","100.49","","","","","","Mostly Cloudy"
"1994-11-08 08:00","1994","11","08","08:00","11.7","","6.2","","69","","22","","15","","24.1","","100.39","","","","","","Mostly Cloudy"
"1994-11-08 09:00","1994","11","08","09:00","12.2","","7.2","","71","","22","","15","","24.1","","100.35","","","","","","Mostly Cloudy"
"1994-11-08 10:00","1994","11","08","10:00","12.9","","7.5","","70","","22","","15","","24.1","","100.35","","","","","","Cloudy"
"1994-11-08 11:00","1994","11","08","11:00","13.9","","7.9","","67","","22","","15","","24.1","","100.29","","","","","","Mostly Cloudy"
"1994-11-08 12:00","1994","11","08","12:00","14.6","","9.0","","69","","23","","19","","24.1","","100.22","","","","","","Mostly Cloudy"
"1994-11-08 13:00","1994","11","08","13:00","14.2","","9.0","","71","","21","","19","","24.1","","100.18","","","","","","Mostly Cloudy"
"1994-11-08 14:00","1994","11","08","14:00","14.3","","9.3","","72","","21","","15","","24.1","","100.12","","","","","","Cloudy"
"1994-11-08 15:00","1994","11","08","15:00","13.9","","8.8","","71","","21","","19","","24.1","","100.08","","","","","","Cloudy"
"1994-11-08 16:00","1994","11","08","16:00","14.0","","8.0","","67","","23","","22","","24.1","","99.98","","","","","","Cloudy"
"1994-11-08 17:00","1994","11","08","17:00","14.1","","7.9","","66","","23","","22","","19.3","","99.95","","","","","","Cloudy"
"1994-11-08 18:00","1994","11","08","18:00","14.1","","7.8","","66","","22","","24","","19.3","","99.95","","","","","","Cloudy"
"1994-11-08 19:00","1994","11","08","19:00","13.9","","8.3","","69","","24","","19","","19.3","","99.95","","","","","","Cloudy"
"1994-11-08 20:00","1994","11","08","20:00","13.5","","9.0","","74","","21","","15","","19.3","","99.88","","","","","","Rain"
"1994-11-08 21:00","1994","11","08","21:00","14.1","","9.0","","71","","23","","15","","19.3","","99.95","","","","","","Cloudy"
"1994-11-08 22:00","1994","11","08","22:00","13.5","","9.2","","75","","23","","9","","19.3","","99.95","","","","","","Cloudy"
"1994-11-08 23:00","1994","11","08","23:00","","M","","M","","M","25","","6","","","M","","M","","","","","NA"
"1994-11-09 00:00","1994","11","09","00:00","","M","","M","","M","26","","7","","","M","","M","","","","","NA"
"1994-11-09 01:00","1994","11","09","01:00","","M","","M","","M","26","","13","","","M","","M","","","","","NA"
"1994-11-09 02:00","1994","11","09","02:00","","M","","M","","M","27","","13","","","M","","M","","","","","NA"
"1994-11-09 03:00","1994","11","09","03:00","","M","","M","","M","28","","11","","","M","","M","","","","","NA"
"1994-11-09 04:00","1994","11","09","04:00","","M","","M","","M","28","","7","","","M","","M","","","","","NA"
"1994-11-09 05:00","1994","11","09","05:00","","M","","M","","M","31","","4","","","M","","M","","","","","NA"
"1994-11-09 06:00","1994","11","09","06:00","9.5","","9.5","","100","","30","","6","","12.9","","100.12","","","","","","Rain"
"1994-11-09 07:00","1994","11","09","07:00","9.1","","9.1","","100","","29","","7","","4.0","","100.22","","","","","","Rain,Fog"
"1994-11-09 08:00","1994","11","09","08:00","8.9","","8.8","","99","","31","","9","","6.4","","100.25","","","","","","Rain,Fog"
"1994-11-09 09:00","1994","11","09","09:00","8.7","","8.5","","99","","29","","7","","8.0","","100.32","","","","","","Rain,Fog"
"1994-11-09 10:00","1994","11","09","10:00","8.9","","8.1","","95","","34","","9","","8.0","","100.32","","","","","","Rain,Fog"
"1994-11-09 11:00","1994","11","09","11:00","9.1","","8.3","","95","","33","","6","","16.1","","100.35","","","","","","Cloudy"
"1994-11-09 12:00","1994","11","09","12:00","9.4","","8.1","","92","","34","","15","","16.1","","100.29","","","","","","Cloudy"
"1994-11-09 13:00","1994","11","09","13:00","9.2","","7.9","","92","","1","","11","","16.1","","100.29","","","","","","Cloudy"
"1994-11-09 14:00","1994","11","09","14:00","9.7","","7.1","","84","","1","","9","","19.3","","100.29","","","","","","Cloudy"
"1994-11-09 15:00","1994","11","09","15:00","9.3","","5.2","","76","","36","","13","","24.1","","100.35","","","","","","Cloudy"
"1994-11-09 16:00","1994","11","09","16:00","9.0","","5.7","","80","","1","","15","","24.1","","100.35","","","","","","Cloudy"
"1994-11-09 17:00","1994","11","09","17:00","8.6","","5.7","","82","","1","","13","","24.1","","100.39","","","","","","Cloudy"
"1994-11-09 18:00","1994","11","09","18:00","8.4","","1.9","","64","","1","","15","","25.0","","100.45","","","","","","Cloudy"
"1994-11-09 19:00","1994","11","09","19:00","8.0","","0.6","","59","","2","","24","","25.0","","100.49","","","","","","Cloudy"
"1994-11-09 20:00","1994","11","09","20:00","7.8","","1.5","","64","","2","","19","","25.0","","100.59","","","","","","Cloudy"
"1994-11-09 21:00","1994","11","09","21:00","7.4","","1.5","","66","","1","","9","","25.0","","100.69","","","","","","Cloudy"
"1994-11-09 22:00","1994","11","09","22:00","7.0","","1.8","","69","","36","","9","","25.0","","100.69","","","","","","Cloudy"
"1994-11-09 23:00","1994","11","09","23:00","","M","","M","","M","36","","6","","","M","","M","","","","","NA"
"1994-11-10 00:00","1994","11","10","00:00","","M","","M","","M","1","","7","","","M","","M","","","","","NA"
"1994-11-10 01:00","1994","11","10","01:00","","M","","M","","M","34","","7","","","M","","M","","","","","NA"
"1994-11-10 02:00","1994","11","10","02:00","","M","","M","","M","35","","6","","","M","","M","","","","","NA"
"1994-11-10 03:00","1994","11","10","03:00","","M","","M","","M","30","","4","","","M","","M","","","","","NA"
"1994-11-10 04:00","1994","11","10","04:00","","M","","M","","M","29","","4","","","M","","M","","","","","NA"
"1994-11-10 05:00","1994","11","10","05:00","","M","","M","","M","25","","7","","","M","","M","","","","","NA"
"1994-11-10 06:00","1994","11","10","06:00","2.8","","2.4","","97","","30","","7","","24.1","","100.96","","","","","","Clear"
"1994-11-10 07:00","1994","11","10","07:00","1.9","","1.4","","96","","30","","6","","24.1","","101.02","","","","","","Clear"
"1994-11-10 08:00","1994","11","10","08:00","5.7","","3.6","","86","","29","","9","","24.1","","101.16","","","","","","Clear"
"1994-11-10 09:00","1994","11","10","09:00","7.0","","3.9","","81","","31","","19","","24.1","","101.22","","","","","","Clear"
"1994-11-10 10:00","1994","11","10","10:00","7.3","","1.6","","67","","33","","13","","24.1","","101.26","","","","","","Mainly Clear"
"1994-11-10 11:00","1994","11","10","11:00","7.3","","0.2","","61","","32","","19","","24.1","","101.33","","","","","","Mainly Clear"
"1994-11-10 12:00","1994","11","10","12:00","6.6","","1.2","","68","","35","","22","","24.1","","101.36","","","","","","Mainly Clear"
"1994-11-10 13:00","1994","11","10","13:00","6.5","","-0.9","","59","","33","","22","","24.1","","101.33","","","","","","Clear"
"1994-11-10 14:00","1994","11","10","14:00","6.9","","-1.3","","56","","33","","19","","24.1","","101.33","","","","","","Clear"
"1994-11-10 15:00","1994","11","10","15:00","6.9","","-1.7","","54","","33","","19","","24.1","","101.33","","","","","","Clear"
"1994-11-10 16:00","1994","11","10","16:00","6.6","","-1.3","","57","","32","","11","","24.1","","101.36","","","","","","Clear"
"1994-11-10 17:00","1994","11","10","17:00","4.4","","-1.8","","64","","34","","9","","24.1","","101.39","","","","","","Mainly Clear"
"1994-11-10 18:00","1994","11","10","18:00","5.0","","-1.3","","64","","35","","19","","24.1","","101.49","","","","","","Mainly Clear"
"1994-11-10 19:00","1994","11","10","19:00","4.1","","-2.3","","63","","35","","19","","25.0","","101.56","","","","","","Mainly Clear"
"1994-11-10 20:00","1994","11","10","20:00","3.9","","-2.6","","63","","35","","22","","25.0","","101.59","","","","","","Mainly Clear"
"1994-11-10 21:00","1994","11","10","21:00","3.4","","-2.6","","65","","33","","19","","25.0","","101.66","","","","","","Mainly Clear"
"1994-11-10 22:00","1994","11","10","22:00","4.0","","-2.0","","65","","32","","11","","25.0","","101.69","","","","","","Mostly Cloudy"
"1994-11-10 23:00","1994","11","10","23:00","","M","","M","","M","33","","13","","","M","","M","","","","","NA"
"1994-11-11 00:00","1994","11","11","00:00","","M","","M","","M","5","","11","","","M","","M","","","","","NA"
"1994-11-11 01:00","1994","11","11","01:00","","M","","M","","M","1","","11","","","M","","M","","","","","NA"
"1994-11-11 02:00","1994","11","11","02:00","","M","","M","","M","34","","15","","","M","","M","","","","","NA"
"1994-11-11 03:00","1994","11","11","03:00","","M","","M","","M","36","","7","","","M","","M","","","","","NA"
"1994-11-11 04:00","1994","11","11","04:00","","M","","M","","M","36","","7","","","M","","M","","","","","NA"
"1994-11-11 05:00","1994","11","11","05:00","","M","","M","","M","34","","15","","","M","","M","","","","","NA"
"1994-11-11 06:00","1994","11","11","06:00","1.0","","-3.6","","71","","35","","9","","40.2","","101.90","","","","","","Mainly Clear"
"1994-11-11 07:00","1994","11","11","07:00","0.7","","-2.9","","77","","1","","11","","40.2","","101.93","","","","","","Mainly Clear"
"1994-11-11 08:00","1994","11","11","08:00","1.4","","-3.0","","72","","2","","7","","40.2","","102.00","","","","","","Mainly Clear"
"1994-11-11 09:00","1994","11","11","09:00","3.0","","-3.9","","60","","3","","13","","40.2","","102.03","","","","","","Mainly Clear"
"1994-11-11 10:00","1994","11","11","10:00","3.4","","-2.7","","64","","2","","19","","40.2","","102.10","","","","","","Mainly Clear"
"1994-11-11 11:00","1994","11","11","11:00","3.4","","-2.7","","64","","2","","13","","40.2","","102.06","","","","","","Mainly Clear"
"1994-11-11 12:00","1994","11","11","12:00","3.1","","-3.0","","64","","2","","9","","25.0","","101.96","","","","","","Clear"
"1994-11-11 13:00","1994","11","11","13:00","3.6","","-2.9","","62","","2","","9","","25.0","","101.93","","","","","","Mainly Clear"
"1994-11-11 14:00","1994","11","11","14:00","4.1","","-3.4","","58","","1","","6","","25.0","","101.93","","","","","","Clear"
"1994-11-11 15:00","1994","11","11","15:00","4.4","","-2.8","","59","","","","0","","24.1","","101.93","","","","","","Mainly Clear"
"1994-11-11 16:00","1994","11","11","16:00","4.4","","-3.4","","57","","","","0","","24.1","","101.93","","","","","","Mainly Clear"
"1994-11-11 17:00","1994","11","11","17:00","3.3","","-4.0","","59","","","","0","","24.1","","101.86","","","","","","Mainly Clear"
"1994-11-11 18:00","1994","11","11","18:00","1.7","","-3.4","","69","","","","0","","24.1","","101.86","","","","","","Clear"
"1994-11-11 19:00","1994","11","11","19:00","0.9","","-3.8","","71","","","","0","","24.1","","101.86","","","","","","Clear"
"1994-11-11 20:00","1994","11","11","20:00","-1.1","","-3.0","","87","","","","0","","24.1","","101.86","","","","","","Clear"
"1994-11-11 21:00","1994","11","11","21:00","0.3","","-4.3","","71","","10","","4","","24.1","","101.80","","","","","","Clear"
"1994-11-11 22:00","1994","11","11","22:00","-1.8","","-4.3","","83","","","","0","","24.1","","101.76","","","","","","Clear"
"1994-11-11 23:00","1994","11","11","23:00","","M","","M","","M","","","0","","","M","","M","","","","","NA"
"1994-11-12 00:00","1994","11","12","00:00","","M","","M","","M","12","","4","","","M","","M","","","","","NA"
"1994-11-12 01:00","1994","11","12","01:00","","M","","M","","M","13","","7","","","M","","M","","","","","NA"
"1994-11-12 02:00","1994","11","12","02:00","","M","","M","","M","10","","6","","","M","","M","","","","","NA"
"1994-11-12 03:00","1994","11","12","03:00","","M","","M","","M","14","","7","","","M","","M","","","","","NA"
"1994-11-12 04:00","1994","11","12","04:00","","M","","M","","M","13","","4","","","M","","M","","","","","NA"
"1994-11-12 05:00","1994","11","12","05:00","","M","","M","","M","","","0","","","M","","M","","","","","NA"
"1994-11-12 06:00","1994","11","12","06:00","-1.6","","-3.4","","87","","8","","9","","24.1","","101.39","","","","-5","","Mainly Clear"
"1994-11-12 07:00","1994","11","12","07:00","-0.6","","-2.8","","85","","10","","4","","24.1","","101.33","","","","-2","","Mainly Clear"
"1994-11-12 08:00","1994","11","12","08:00","0.0","","-2.6","","83","","14","","7","","24.1","","101.29","","","","-2","","Mainly Clear"
"1994-11-12 09:00","1994","11","12","09:00","6.1","","0.3","","66","","18","","9","","24.1","","101.19","","","","","","Mainly Clear"
"1994-11-12 10:00","1994","11","12","10:00","8.0","","0.0","","57","","19","","9","","25.0","","101.16","","","","","","Mostly Cloudy"
"1994-11-12 11:00","1994","11","12","11:00","10.8","","-0.8","","45","","20","","19","","25.0","","101.09","","","","","","Mostly Cloudy"
"1994-11-12 12:00","1994","11","12","12:00","11.2","","0.2","","47","","21","","19","","25.0","","100.99","","","","","","Mostly Cloudy"
"1994-11-12 13:00","1994","11","12","13:00","11.4","","0.9","","48","","21","","19","","25.0","","100.89","","","","","","Mostly Cloudy"
"1994-11-12 14:00","1994","11","12","14:00","11.5","","2.2","","53","","19","","26","","24.1","","100.76","","","","","","Mostly Cloudy"
"1994-11-12 15:00","1994","11","12","15:00","11.5","","4.4","","62","","22","","20","","24.1","","100.76","","","","","","Mostly Cloudy"
"1994-11-12 16:00","1994","11","12","16:00","11.6","","5.0","","64","","22","","13","","24.1","","100.76","","","","","","Mostly Cloudy"
"1994-11-12 17:00","1994","11","12","17:00","11.4","","6.2","","70","","22","","19","","24.1","","100.79","","","","","","Cloudy"
"1994-11-12 18:00","1994","11","12","18:00","11.1","","7.3","","77","","24","","24","","24.1","","100.79","","","","","","Cloudy"
"1994-11-12 19:00","1994","11","12","19:00","11.0","","7.7","","80","","23","","19","","24.1","","100.89","","","","","","Cloudy"
"1994-11-12 20:00","1994","11","12","20:00","10.3","","7.1","","81","","24","","15","","24.1","","100.89","","","","","","Cloudy"
"1994-11-12 21:00","1994","11","12","21:00","9.5","","6.5","","82","","24","","13","","24.1","","100.99","","","","","","Mostly Cloudy"
"1994-11-12 22:00","1994","11","12","22:00","8.7","","6.0","","83","","27","","13","","24.1","","101.02","","","","","","Mostly Cloudy"
"1994-11-12 23:00","1994","11","12","23:00","","M","","M","","M","24","","9","","","M","","M","","","","","NA"
"1994-11-13 00:00","1994","11","13","00:00","","M","","M","","M","30","","11","","","M","","M","","","","","NA"
"1994-11-13 01:00","1994","11","13","01:00","","M","","M","","M","27","","9","","","M","","M","","","","","NA"
"1994-11-13 02:00","1994","11","13","02:00","","M","","M","","M","21","","7","","","M","","M","","","","","NA"
"1994-11-13 03:00","1994","11","13","03:00","","M","","M","","M","21","","4","","","M","","M","","","","","NA"
"1994-11-13 04:00","1994","11","13","04:00","","M","","M","","M","19","","4","","","M","","M","","","","","NA"
"1994-11-13 05:00","1994","11","13","05:00","","M","","M","","M","","","0","","","M","","M","","","","","NA"
"1994-11-13 06:00","1994","11","13","06:00","8.5","","6.7","","88","","","","0","","16.1","","100.99","","","","","","Cloudy"
"1994-11-13 07:00","1994","11","13","07:00","9.0","","7.1","","88","","15","","4","","8.0","","100.99","","","","","","Fog"
"1994-11-13 08:00","1994","11","13","08:00","9.2","","7.5","","89","","","","0","","8.0","","101.09","","","","","","Fog"
"1994-11-13 09:00","1994","11","13","09:00","9.6","","8.3","","92","","","","0","","8.0","","101.09","","","","","","Fog"
"1994-11-13 10:00","1994","11","13","10:00","10.9","","9.4","","90","","","","0","","8.0","","101.09","","","","","","Fog"
"1994-11-13 11:00","1994","11","13","11:00","12.1","","8.6","","79","","","","0","","8.0","","101.09","","","","","","Haze"
"1994-11-13 12:00","1994","11","13","12:00","12.6","","9.9","","84","","","","0","","8.0","","101.06","","","","","","Haze"
"1994-11-13 13:00","1994","11","13","13:00","13.6","","10.3","","80","","23","","17","","9.7","","100.99","","","","","","Haze"
"1994-11-13 14:00","1994","11","13","14:00","13.7","","10.3","","80","","22","","7","","11.3","","100.92","","","","","","Cloudy"
"1994-11-13 15:00","1994","11","13","15:00","14.0","","10.1","","77","","19","","11","","11.3","","100.89","","","","","","Cloudy"
"1994-11-13 16:00","1994","11","13","16:00","13.8","","9.6","","76","","18","","9","","11.3","","100.89","","","","","","Cloudy"
"1994-11-13 17:00","1994","11","13","17:00","12.9","","9.0","","77","","17","","7","","11.3","","100.89","","","","","","Cloudy"
"1994-11-13 18:00","1994","11","13","18:00","12.9","","9.0","","77","","16","","7","","16.1","","100.89","","","","","","Cloudy"
"1994-11-13 19:00","1994","11","13","19:00","12.6","","9.4","","81","","","","0","","16.1","","100.89","","","","","","Cloudy"
"1994-11-13 20:00","1994","11","13","20:00","13.0","","9.9","","81","","18","","6","","16.1","","100.82","","","","","","Cloudy"
"1994-11-13 21:00","1994","11","13","21:00","12.9","","10.0","","83","","18","","9","","16.1","","100.82","","","","","","Cloudy"
"1994-11-13 22:00","1994","11","13","22:00","13.3","","10.1","","81","","18","","7","","16.1","","100.79","","","","","","Cloudy"
"1994-11-13 23:00","1994","11","13","23:00","","M","","M","","M","18","","11","","","M","","M","","","","","NA"
"1994-11-14 00:00","1994","11","14","00:00","","M","","M","","M","19","","15","","","M","","M","","","","","NA"
"1994-11-14 01:00","1994","11","14","01:00","","M","","M","","M","19","","17","","","M","","M","","","","","NA"
"1994-11-14 02:00","1994","11","14","02:00","","M","","M","","M","20","","15","","","M","","M","","","","","NA"
"1994-11-14 03:00","1994","11","14","03:00","","M","","M","","M","19","","15","","","M","","M","","","","","NA"
"1994-11-14 04:00","1994","11","14","04:00","","M","","M","","M","19","","19","","","M","","M","","","","","NA"
"1994-11-14 05:00","1994","11","14","05:00","","M","","M","","M","19","","20","","","M","","M","","","","","NA"
"1994-11-14 06:00","1994","11","14","06:00","14.2","","9.8","","75","","20","","15","","24.1","","100.59","","","","","","Mostly Cloudy"
"1994-11-14 07:00","1994","11","14","07:00","14.7","","9.2","","70","","18","","15","","24.1","","100.59","","","","","","Mostly Cloudy"
"1994-11-14 08:00","1994","11","14","08:00","14.1","","9.0","","71","","19","","13","","24.1","","100.55","","","","","","Mainly Clear"
"1994-11-14 09:00","1994","11","14","09:00","16.7","","10.0","","65","","21","","15","","24.1","","100.52","","","","","","Mostly Cloudy"
"1994-11-14 10:00","1994","11","14","10:00","17.5","","11.8","","69","","21","","20","","24.1","","100.55","","","","","","Mostly Cloudy"
"1994-11-14 11:00","1994","11","14","11:00","20.0","","12.8","","63","","21","","20","","24.1","","100.45","","","","","","Mostly Cloudy"
"1994-11-14 12:00","1994","11","14","12:00","19.3","","11.7","","61","","22","","33","","24.1","","100.39","","","","","","Mostly Cloudy"
"1994-11-14 13:00","1994","11","14","13:00","18.5","","11.8","","65","","23","","28","","24.1","","100.45","","","","","","Cloudy"
"1994-11-14 14:00","1994","11","14","14:00","18.5","","12.7","","69","","23","","33","","24.1","","100.39","","","","","","Mostly Cloudy"
"1994-11-14 15:00","1994","11","14","15:00","18.2","","13.1","","72","","22","","30","","24.1","","100.42","","","","","","Cloudy"
"1994-11-14 16:00","1994","11","14","16:00","17.7","","13.2","","75","","23","","26","","24.1","","100.39","","","","","","Mostly Cloudy"
"1994-11-14 17:00","1994","11","14","17:00","17.3","","13.7","","79","","23","","22","","24.1","","100.45","","","","","","Cloudy"
"1994-11-14 18:00","1994","11","14","18:00","17.1","","13.9","","81","","23","","20","","24.1","","100.52","","","","","","Cloudy"
"1994-11-14 19:00","1994","11","14","19:00","16.5","","14.2","","86","","23","","19","","12.9","","100.59","","","","","","Rain Showers"
"1994-11-14 20:00","1994","11","14","20:00","16.3","","14.0","","86","","23","","20","","19.3","","100.59","","","","","","Cloudy"
"1994-11-14 21:00","1994","11","14","21:00","16.0","","13.4","","85","","23","","19","","19.3","","100.59","","","","","","Rain Showers"
"1994-11-14 22:00","1994","11","14","22:00","15.6","","13.3","","86","","22","","17","","19.3","","100.62","","","","","","Cloudy"
"1994-11-14 23:00","1994","11","14","23:00","","M","","M","","M","23","","19","","","M","","M","","","","","NA"
"1994-11-15 00:00","1994","11","15","00:00","","M","","M","","M","23","","17","","","M","","M","","","","","NA"
"1994-11-15 01:00","1994","11","15","01:00","","M","","M","","M","25","","17","","","M","","M","","","","","NA"
"1994-11-15 02:00","1994","11","15","02:00","","M","","M","","M","29","","28","","","M","","M","","","","","NA"
"1994-11-15 03:00","1994","11","15","03:00","","M","","M","","M","31","","26","","","M","","M","","","","","NA"
"1994-11-15 04:00","1994","11","15","04:00","","M","","M","","M","30","","17","","","M","","M","","","","","NA"
"1994-11-15 05:00","1994","11","15","05:00","","M","","M","","M","30","","17","","","M","","M","","","","","NA"
"1994-11-15 06:00","1994","11","15","06:00","9.4","","5.3","","76","","27","","9","","24.1","","101.12","","","","","","Mainly Clear"
"1994-11-15 07:00","1994","11","15","07:00","9.4","","4.9","","73","","26","","9","","24.1","","101.22","","","","","","Mostly Cloudy"
"1994-11-15 08:00","1994","11","15","08:00","9.3","","4.3","","71","","25","","9","","24.1","","101.16","","","","","","Mostly Cloudy"
"1994-11-15 09:00","1994","11","15","09:00","9.7","","4.9","","72","","27","","15","","24.1","","101.39","","","","","","Mostly Cloudy"
"1994-11-15 10:00","1994","11","15","10:00","11.5","","4.3","","61","","28","","13","","24.1","","101.43","","","","","","Mostly Cloudy"
"1994-11-15 11:00","1994","11","15","11:00","9.9","","4.2","","68","","29","","15","","25.0","","101.46","","","","","","Mostly Cloudy"
"1994-11-15 12:00","1994","11","15","12:00","9.9","","3.6","","65","","31","","11","","25.0","","101.46","","","","","","Mostly Cloudy"
"1994-11-15 13:00","1994","11","15","13:00","9.8","","3.6","","65","","30","","15","","25.0","","101.46","","","","","","Mostly Cloudy"
"1994-11-15 14:00","1994","11","15","14:00","9.8","","2.5","","60","","30","","11","","25.0","","101.43","","","","","","Mostly Cloudy"
"1994-11-15 15:00","1994","11","15","15:00","9.7","","1.2","","55","","33","","9","","25.0","","101.46","","","","","","Mostly Cloudy"
"1994-11-15 16:00","1994","11","15","16:00","9.0","","1.8","","61","","31","","7","","40.2","","101.49","","","","","","Mainly Clear"
"1994-11-15 17:00","1994","11","15","17:00","7.2","","1.7","","68","","","","0","","40.2","","101.49","","","","","","Mainly Clear"
"1994-11-15 18:00","1994","11","15","18:00","4.8","","1.9","","81","","","","0","","40.2","","101.49","","","","","","Mainly Clear"
"1994-11-15 19:00","1994","11","15","19:00","3.8","","1.4","","84","","","","0","","40.2","","101.53","","","","","","Mainly Clear"
"1994-11-15 20:00","1994","11","15","20:00","5.4","","2.0","","79","","","","0","","40.2","","101.56","","","","","","Mainly Clear"
"1994-11-15 21:00","1994","11","15","21:00","4.6","","1.7","","81","","34","","6","","40.2","","101.56","","","","","","Mostly Cloudy"
"1994-11-15 22:00","1994","11","15","22:00","4.0","","1.8","","86","","1","","6","","40.2","","101.59","","","","","","Mostly Cloudy"
"1994-11-15 23:00","1994","11","15","23:00","","M","","M","","M","36","","6","","","M","","M","","","","","NA"
"1994-11-16 00:00","1994","11","16","00:00","","M","","M","","M","36","","7","","","M","","M","","","","","NA"
"1994-11-16 01:00","1994","11","16","01:00","","M","","M","","M","","","0","","","M","","M","","","","","NA"
"1994-11-16 02:00","1994","11","16","02:00","","M","","M","","M","","","0","","","M","","M","","","","","NA"
"1994-11-16 03:00","1994","11","16","03:00","","M","","M","","M","","","0","","","M","","M","","","","","NA"
"1994-11-16 04:00","1994","11","16","04:00","","M","","M","","M","","","0","","","M","","M","","","","","NA"
"1994-11-16 05:00","1994","11","16","05:00","","M","","M","","M","","","0","","","M","","M","","","","","NA"
"1994-11-16 06:00","1994","11","16","06:00","1.8","","1.5","","98","","36","","6","","24.1","","101.63","","","","","","Mainly Clear"
"1994-11-16 07:00","1994","11","16","07:00","1.5","","1.5","","100","","","","0","","24.1","","101.63","","","","","","Mostly Cloudy"
"1994-11-16 08:00","1994","11","16","08:00","1.7","","1.5","","99","","","","0","","24.1","","101.69","","","","","","Mostly Cloudy"
"1994-11-16 09:00","1994","11","16","09:00","4.0","","3.1","","94","","12","","4","","25.0","","101.69","","","","","","Mostly Cloudy"
"1994-11-16 10:00","1994","11","16","10:00","5.6","","3.0","","83","","6","","6","","25.0","","101.69","","","","","","Mostly Cloudy"
"1994-11-16 11:00","1994","11","16","11:00","7.0","","3.5","","78","","8","","6","","25.0","","101.73","","","","","","Mostly Cloudy"
"1994-11-16 12:00","1994","11","16","12:00","8.0","","2.6","","69","","6","","7","","25.0","","101.69","","","","","","Mostly Cloudy"
"1994-11-16 13:00","1994","11","16","13:00","8.4","","1.6","","62","","6","","4","","25.0","","101.69","","","","","","Mainly Clear"
"1994-11-16 14:00","1994","11","16","14:00","9.2","","0.6","","55","","3","","17","","25.0","","101.53","","","","","","Mainly Clear"
"1994-11-16 15:00","1994","11","16","15:00","9.4","","0.8","","55","","6","","11","","25.0","","101.56","","","","","","Mainly Clear"
"1994-11-16 16:00","1994","11","16","16:00","8.3","","2.9","","69","","4","","19","","25.0","","101.53","","","","","","Mainly Clear"
"1994-11-16 17:00","1994","11","16","17:00","6.6","","2.6","","76","","5","","9","","40.2","","101.56","","","","","","Mainly Clear"
"1994-11-16 18:00","1994","11","16","18:00","4.5","","1.7","","82","","6","","6","","40.2","","101.59","","","","","","Mainly Clear"
"1994-11-16 19:00","1994","11","16","19:00","3.5","","1.4","","86","","6","","6","","40.2","","101.66","","","","","","Clear"
"1994-11-16 20:00","1994","11","16","20:00","3.0","","1.0","","87","","9","","9","","40.2","","101.63","","","","","","Clear"
"1994-11-16 21:00","1994","11","16","21:00","2.1","","-0.2","","85","","9","","7","","40.2","","101.63","","","","","","Clear"
"1994-11-16 22:00","1994","11","16","22:00","2.5","","-0.9","","78","","7","","11","","40.2","","101.56","","","","","","Clear"
"1994-11-16 23:00","1994","11","16","23:00","","M","","M","","M","10","","7","","","M","","M","","","","","NA"
"1994-11-17 00:00","1994","11","17","00:00","","M","","M","","M","10","","6","","","M","","M","","","","","NA"
"1994-11-17 01:00","1994","11","17","01:00","","M","","M","","M","","","0","","","M","","M","","","","","NA"
"1994-11-17 02:00","1994","11","17","02:00","","M","","M","","M","","","0","","","M","","M","","","","","NA"
"1994-11-17 03:00","1994","11","17","03:00","","M","","M","","M","","","0","","","M","","M","","","","","NA"
"1994-11-17 04:00","1994","11","17","04:00","","M","","M","","M","12","","4","","","M","","M","","","","","NA"
"1994-11-17 05:00","1994","11","17","05:00","","M","","M","","M","10","","7","","","M","","M","","","","","NA"
"1994-11-17 06:00","1994","11","17","06:00","0.0","","-1.6","","89","","10","","4","","40.2","","101.43","","","","-1","","Mainly Clear"
"1994-11-17 07:00","1994","11","17","07:00","0.3","","-2.5","","81","","","","0","","24.1","","101.49","","","","","","Mainly Clear"
"1994-11-17 08:00","1994","11","17","08:00","1.9","","0.1","","88","","","","0","","24.1","","101.53","","","","","","Mainly Clear"
"1994-11-17 09:00","1994","11","17","09:00","4.5","","1.4","","80","","","","0","","40.2","","101.53","","","","","","Mainly Clear"
"1994-11-17 10:00","1994","11","17","10:00","8.0","","2.2","","67","","1","","6","","40.2","","101.53","","","","","","Clear"
"1994-11-17 11:00","1994","11","17","11:00","10.0","","1.2","","54","","4","","4","","40.2","","101.43","","","","","","Clear"
"1994-11-17 12:00","1994","11","17","12:00","11.8","","1.7","","50","","7","","6","","40.2","","101.33","","","","","","Clear"
"1994-11-17 13:00","1994","11","17","13:00","12.1","","3.3","","55","","3","","13","","40.2","","101.26","","","","","","Clear"
"1994-11-17 14:00","1994","11","17","14:00","11.8","","3.0","","55","","3","","9","","40.2","","101.19","","","","","","Mainly Clear"
"1994-11-17 15:00","1994","11","17","15:00","10.9","","3.9","","62","","3","","19","","25.0","","101.09","","","","","","Mainly Clear"
"1994-11-17 16:00","1994","11","17","16:00","9.5","","5.2","","75","","6","","13","","25.0","","101.09","","","","","","Mainly Clear"
"1994-11-17 17:00","1994","11","17","17:00","","M","","M","","M","","","0","","25.0","","101.06","","","","","","Mainly Clear"
"1994-11-17 18:00","1994","11","17","18:00","","M","","M","","M","13","","6","","25.0","","101.02","","","","","","Mainly Clear"
"1994-11-17 19:00","1994","11","17","19:00","5.6","","4.0","","89","","","","0","","25.0","","101.02","","","","","","Mainly Clear"
"1994-11-17 20:00","1994","11","17","20:00","7.7","","3.0","","72","","","","0","","25.0","","100.99","","","","","","Mainly Clear"
"1994-11-17 21:00","1994","11","17","21:00","9.6","","4.9","","72","","11","","9","","25.0","","100.99","","","","","","Mostly Cloudy"
"1994-11-17 22:00","1994","11","17","22:00","9.1","","3.6","","68","","11","","7","","25.0","","100.92","","","","","","Mostly Cloudy"
"1994-11-17 23:00","1994","11","17","23:00","","M","","M","","M","9","","9","","","M","","M","","","","","NA"
"1994-11-18 00:00","1994","11","18","00:00","","M","","M","","M","10","","11","","","M","","M","","","","","NA"
"1994-11-18 01:00","1994","11","18","01:00","","M","","M","","M","10","","11","","","M","","M","","","","","NA"
"1994-11-18 02:00","1994","11","18","02:00","","M","","M","","M","11","","7","","","M","","M","","","","","NA"
"1994-11-18 03:00","1994","11","18","03:00","","M","","M","","M","6","","6","","","M","","M","","","","","NA"
"1994-11-18 04:00","1994","11","18","04:00","","M","","M","","M","7","","6","","","M","","M","","","","","NA"
"1994-11-18 05:00","1994","11","18","05:00","","M","","M","","M","12","","7","","","M","","M","","","","","NA"
"1994-11-18 06:00","1994","11","18","06:00","4.3","","3.0","","91","","","","0","","40.2","","100.55","","","","","","Mostly Cloudy"
"1994-11-18 07:00","1994","11","18","07:00","7.8","","7.3","","97","","34","","4","","24.1","","100.52","","","","","","Mostly Cloudy"
"1994-11-18 08:00","1994","11","18","08:00","12.0","","10.4","","90","","19","","9","","16.1","","100.52","","","","","","Rain Showers"
"1994-11-18 09:00","1994","11","18","09:00","12.8","","11.8","","94","","17","","15","","8.0","","100.49","","","","","","Rain Showers,Fog"
"1994-11-18 10:00","1994","11","18","10:00","13.2","","12.3","","94","","19","","22","","8.0","","100.49","","","","","","Rain,Fog"
"1994-11-18 11:00","1994","11","18","11:00","14.6","","12.0","","84","","18","","33","","24.1","","100.35","","","","","","Mostly Cloudy"
"1994-11-18 12:00","1994","11","18","12:00","16.7","","12.2","","75","","19","","28","","24.1","","100.29","","","","","","Mostly Cloudy"
"1994-11-18 13:00","1994","11","18","13:00","15.6","","11.7","","78","","21","","28","","40.2","","100.29","","","","","","Cloudy"
"1994-11-18 14:00","1994","11","18","14:00","15.7","","11.9","","78","","21","","33","","40.2","","100.25","","","","","","Mostly Cloudy"
"1994-11-18 15:00","1994","11","18","15:00","15.7","","10.5","","71","","22","","32","","40.2","","100.25","","","","","","Mainly Clear"
"1994-11-18 16:00","1994","11","18","16:00","14.0","","9.5","","74","","22","","30","","25.0","","100.29","","","","","","Mainly Clear"
"1994-11-18 17:00","1994","11","18","17:00","13.2","","9.2","","77","","21","","28","","25.0","","100.29","","","","","","Mainly Clear"
"1994-11-18 18:00","1994","11","18","18:00","13.1","","8.9","","76","","21","","30","","19.3","","100.32","","","","","","Clear"
"1994-11-18 19:00","1994","11","18","19:00","11.6","","8.8","","83","","21","","30","","19.3","","100.29","","","","","","Clear"
"1994-11-18 20:00","1994","11","18","20:00","12.9","","6.6","","66","","21","","28","","19.3","","100.39","","","","","","Clear"
"1994-11-18 21:00","1994","11","18","21:00","13.1","","6.0","","62","","22","","28","","19.3","","100.39","","","","","","Clear"
"1994-11-18 22:00","1994","11","18","22:00","12.6","","5.8","","63","","22","","30","","19.3","","100.42","","","","","","Clear"
"1994-11-18 23:00","1994","11","18","23:00","","M","","M","","M","25","","30","","","M","","M","","","","","NA"
"1994-11-19 00:00","1994","11","19","00:00","","M","","M","","M","26","","28","","","M","","M","","","","","NA"
"1994-11-19 01:00","1994","11","19","01:00","","M","","M","","M","25","","22","","","M","","M","","","","","NA"
"1994-11-19 02:00","1994","11","19","02:00","","M","","M","","M","25","","19","","","M","","M","","","","","NA"
"1994-11-19 03:00","1994","11","19","03:00","","M","","M","","M","25","","20","","","M","","M","","","","","NA"
"1994-11-19 04:00","1994","11","19","04:00","","M","","M","","M","25","","19","","","M","","M","","","","","NA"
"1994-11-19 05:00","1994","11","19","05:00","","M","","M","","M","26","","11","","","M","","M","","","","","NA"
"1994-11-19 06:00","1994","11","19","06:00","6.4","","0.9","","68","","28","","22","","40.2","","101.06","","","","","","Mostly Cloudy"
"1994-11-19 07:00","1994","11","19","07:00","6.5","","0.8","","67","","27","","22","","24.1","","101.12","","","","","","Mostly Cloudy"
"1994-11-19 08:00","1994","11","19","08:00","6.5","","1.1","","68","","26","","15","","24.1","","101.19","","","","","","Mostly Cloudy"
"1994-11-19 09:00","1994","11","19","09:00","6.6","","0.6","","65","","29","","19","","40.2","","101.29","","","","","","Mostly Cloudy"
"1994-11-19 10:00","1994","11","19","10:00","7.0","","-0.2","","60","","29","","19","","40.2","","101.36","","","","","","Mostly Cloudy"
"1994-11-19 11:00","1994","11","19","11:00","7.1","","0.4","","62","","25","","24","","40.2","","101.39","","","","","","Mostly Cloudy"
"1994-11-19 12:00","1994","11","19","12:00","7.7","","0.9","","62","","27","","9","","40.2","","101.36","","","","","","Mainly Clear"
"1994-11-19 13:00","1994","11","19","13:00","8.1","","0.9","","60","","27","","13","","40.2","","101.29","","","","","","Mainly Clear"
"1994-11-19 14:00","1994","11","19","14:00","8.9","","1.3","","59","","28","","11","","40.2","","101.22","","","","","","Mainly Clear"
"1994-11-19 15:00","1994","11","19","15:00","8.8","","1.2","","59","","28","","15","","40.2","","101.19","","","","","","Mainly Clear"
"1994-11-19 16:00","1994","11","19","16:00","9.1","","1.0","","57","","25","","19","","40.2","","101.26","","","","","","Mainly Clear"
"1994-11-19 17:00","1994","11","19","17:00","6.6","","2.8","","77","","21","","15","","40.2","","101.26","","","","","","Mainly Clear"
"1994-11-19 18:00","1994","11","19","18:00","6.5","","3.2","","79","","22","","9","","40.2","","101.29","","","","","","Clear"
"1994-11-19 19:00","1994","11","19","19:00","5.4","","3.2","","86","","23","","11","","40.2","","101.39","","","","","","Clear"
"1994-11-19 20:00","1994","11","19","20:00","4.7","","1.9","","82","","27","","9","","40.2","","101.43","","","","","","Clear"
"1994-11-19 21:00","1994","11","19","21:00","5.1","","1.6","","78","","28","","13","","40.2","","101.49","","","","","","Clear"
"1994-11-19 22:00","1994","11","19","22:00","4.2","","1.2","","81","","28","","9","","40.2","","101.56","","","","","","Clear"
"1994-11-19 23:00","1994","11","19","23:00","","M","","M","","M","27","","7","","","M","","M","","","","","NA"
"1994-11-20 00:00","1994","11","20","00:00","","M","","M","","M","22","","4","","","M","","M","","","","","NA"
"1994-11-20 01:00","1994","11","20","01:00","","M","","M","","M","23","","6","","","M","","M","","","","","NA"
"1994-11-20 02:00","1994","11","20","02:00","","M","","M","","M","22","","6","","","M","","M","","","","","NA"
"1994-11-20 03:00","1994","11","20","03:00","","M","","M","","M","21","","4","","","M","","M","","","","","NA"
"1994-11-20 04:00","1994","11","20","04:00","","M","","M","","M","20","","6","","","M","","M","","","","","NA"
"1994-11-20 05:00","1994","11","20","05:00","","M","","M","","M","19","","6","","","M","","M","","","","","NA"
"1994-11-20 06:00","1994","11","20","06:00","-1.9","","-1.9","","100","","10","","6","","19.3","","101.66","","","","-4","","Mainly Clear"
"1994-11-20 07:00","1994","11","20","07:00","-1.1","","-1.1","","100","","14","","4","","19.3","","101.73","","","","-2","","Mainly Clear"
"1994-11-20 08:00","1994","11","20","08:00","0.7","","-0.2","","94","","19","","9","","19.3","","101.76","","","","","","Mostly Cloudy"
"1994-11-20 09:00","1994","11","20","09:00","3.8","","3.0","","95","","","","0","","16.1","","101.80","","","","","","Mostly Cloudy"
"1994-11-20 10:00","1994","11","20","10:00","6.5","","3.2","","79","","11","","7","","19.3","","101.80","","","","","","Mostly Cloudy"
"1994-11-20 11:00","1994","11","20","11:00","6.9","","1.5","","68","","12","","15","","19.3","","101.76","","","","","","Mostly Cloudy"
"1994-11-20 12:00","1994","11","20","12:00","7.9","","2.2","","67","","8","","11","","24.1","","101.66","","","","","","Mostly Cloudy"
"1994-11-20 13:00","1994","11","20","13:00","8.6","","2.4","","65","","11","","9","","24.1","","101.63","","","","","","Mostly Cloudy"
"1994-11-20 14:00","1994","11","20","14:00","9.6","","1.6","","57","","9","","11","","24.1","","101.53","","","","","","Mostly Cloudy"
"1994-11-20 15:00","1994","11","20","15:00","9.7","","2.8","","62","","7","","9","","24.1","","101.46","","","","","","Mostly Cloudy"
"1994-11-20 16:00","1994","11","20","16:00","9.1","","3.5","","68","","7","","9","","24.1","","101.39","","","","","","Mostly Cloudy"
"1994-11-20 17:00","1994","11","20","17:00","7.6","","3.9","","77","","7","","7","","24.1","","101.33","","","","","","Cloudy"
"1994-11-20 18:00","1994","11","20","18:00","7.5","","2.9","","73","","7","","13","","40.2","","101.22","","","","","","Cloudy"
"1994-11-20 19:00","1994","11","20","19:00","7.0","","3.0","","76","","7","","13","","40.2","","101.16","","","","","","Cloudy"
"1994-11-20 20:00","1994","11","20","20:00","6.6","","3.0","","78","","7","","13","","40.2","","101.09","","","","","","Cloudy"
"1994-11-20 21:00","1994","11","20","21:00","6.2","","2.9","","79","","8","","13","","40.2","","101.02","","","","","","Mostly Cloudy"
"1994-11-20 22:00","1994","11","20","22:00","5.8","","2.9","","82","","8","","13","","40.2","","100.89","","","","","","Mostly Cloudy"
"1994-11-20 23:00","1994","11","20","23:00","","M","","M","","M","9","","7","","","M","","M","","","","","NA"
"1994-11-21 00:00","1994","11","21","00:00","","M","","M","","M","9","","7","","","M","","M","","","","","NA"
"1994-11-21 01:00","1994","11","21","01:00","","M","","M","","M","10","","9","","","M","","M","","","","","NA"
"1994-11-21 02:00","1994","11","21","02:00","","M","","M","","M","14","","11","","","M","","M","","","","","NA"
"1994-11-21 03:00","1994","11","21","03:00","","M","","M","","M","20","","4","","","M","","M","","","","","NA"
"1994-11-21 04:00","1994","11","21","04:00","","M","","M","","M","10","","7","","","M","","M","","","","","NA"
"1994-11-21 05:00","1994","11","21","05:00","","M","","M","","M","17","","22","","","M","","M","","","","","NA"
"1994-11-21 06:00","1994","11","21","06:00","12.7","","4.9","","59","","17","","22","","25.0","","99.88","","","","","","Cloudy"
"1994-11-21 07:00","1994","11","21","07:00","11.7","","8.0","","78","","18","","37","","8.0","","99.88","","","","","","Moderate Rain Showers"
"1994-11-21 08:00","1994","11","21","08:00","9.8","","9.4","","97","","16","","41","","6.4","","99.72","","","","","","Rain Showers"
"1994-11-21 09:00","1994","11","21","09:00","10.6","","9.7","","94","","15","","43","","12.9","","99.48","","","","","","Rain Showers"
"1994-11-21 10:00","1994","11","21","10:00","11.2","","9.3","","88","","16","","43","","24.1","","99.25","","","","","","Mostly Cloudy"
"1994-11-21 11:00","1994","11","21","11:00","11.6","","10.7","","94","","17","","33","","11.3","","99.18","","","","","","Rain Showers"
"1994-11-21 12:00","1994","11","21","12:00","13.8","","10.6","","81","","18","","46","","19.3","","99.04","","","","","","Rain Showers"
"1994-11-21 13:00","1994","11","21","13:00","12.3","","12.2","","99","","21","","39","","6.4","","99.18","","","","","","Rain Showers,Fog"
"1994-11-21 14:00","1994","11","21","14:00","12.0","","9.8","","86","","21","","32","","40.2","","99.15","","","","","","Mainly Clear"
"1994-11-21 15:00","1994","11","21","15:00","14.1","","7.2","","63","","23","","30","","40.2","","99.15","","","","","","Mainly Clear"
"1994-11-21 16:00","1994","11","21","16:00","13.4","","5.4","","58","","24","","24","","40.2","","99.21","","","","","","Mainly Clear"
"1994-11-21 17:00","1994","11","21","17:00","12.0","","5.5","","64","","23","","24","","40.2","","99.28","","","","","","Mainly Clear"
"1994-11-21 18:00","1994","11","21","18:00","11.7","","2.8","","54","","24","","33","","40.2","","99.41","","","","","","Mainly Clear"
"1994-11-21 19:00","1994","11","21","19:00","12.5","","3.0","","52","","24","","43","","40.2","","99.41","","","","","","Mostly Cloudy"
"1994-11-21 20:00","1994","11","21","20:00","11.4","","4.3","","62","","24","","41","","40.2","","99.51","","","","","","Mostly Cloudy"
"1994-11-21 21:00","1994","11","21","21:00","10.2","","4.7","","69","","24","","32","","40.2","","99.61","","","","","","Cloudy"
"1994-11-21 22:00","1994","11","21","22:00","9.8","","4.9","","72","","23","","28","","40.2","","99.61","","","","","","Cloudy"
"1994-11-21 23:00","1994","11","21","23:00","","M","","M","","M","26","","32","","","M","","M","","","","","NA"
"1994-11-22 00:00","1994","11","22","00:00","","M","","M","","M","26","","26","","","M","","M","","","","","NA"
"1994-11-22 01:00","1994","11","22","01:00","","M","","M","","M","27","","26","","","M","","M","","","","","NA"
"1994-11-22 02:00","1994","11","22","02:00","","M","","M","","M","26","","24","","","M","","M","","","","","NA"
"1994-11-22 03:00","1994","11","22","03:00","","M","","M","","M","28","","24","","","M","","M","","","","","NA"
"1994-11-22 04:00","1994","11","22","04:00","","M","","M","","M","28","","37","","","M","","M","","","","","NA"
"1994-11-22 05:00","1994","11","22","05:00","","M","","M","","M","27","","26","","","M","","M","","","","","NA"
"1994-11-22 06:00","1994","11","22","06:00","5.1","","-2.7","","57","","24","","24","","40.2","","100.22","","","","","","Mostly Cloudy"
"1994-11-22 07:00","1994","11","22","07:00","4.5","","-3.0","","58","","25","","32","","40.2","","100.29","","","","","","Mostly Cloudy"
"1994-11-22 08:00","1994","11","22","08:00","3.5","","-4.7","","55","","26","","26","","40.2","","100.39","","","","","","Mostly Cloudy"
"1994-11-22 09:00","1994","11","22","09:00","3.2","","-3.9","","60","","24","","28","","40.2","","100.49","","","","","","Mostly Cloudy"
"1994-11-22 10:00","1994","11","22","10:00","3.0","","-4.1","","60","","25","","32","","40.2","","100.52","","","","","","Mostly Cloudy"
"1994-11-22 11:00","1994","11","22","11:00","3.5","","-6.0","","50","","26","","32","","40.2","","100.52","","","","","","Mostly Cloudy"
"1994-11-22 12:00","1994","11","22","12:00","3.3","","-4.7","","56","","27","","41","","40.2","","100.52","","","","","","Mostly Cloudy"
"1994-11-22 13:00","1994","11","22","13:00","3.3","","-4.7","","56","","24","","30","","40.2","","100.65","","","","","","Mostly Cloudy"
"1994-11-22 14:00","1994","11","22","14:00","3.6","","-8.0","","42","","27","","39","","40.2","","100.62","","","","","","Mostly Cloudy"
"1994-11-22 15:00","1994","11","22","15:00","2.2","","-4.9","","59","","26","","28","","40.2","","100.72","","","","","","Mainly Clear"
"1994-11-22 16:00","1994","11","22","16:00","1.8","","-6.2","","55","","25","","30","","40.2","","100.76","","","","","","Mainly Clear"
"1994-11-22 17:00","1994","11","22","17:00","","M","","M","","M","25","","28","","40.2","","100.76","","","","","","Mainly Clear"
"1994-11-22 18:00","1994","11","22","18:00","1.0","","-7.9","","51","","24","","19","","40.2","","100.79","","","","","","Mainly Clear"
"1994-11-22 19:00","1994","11","22","19:00","0.5","","-8.1","","52","","22","","15","","40.2","","100.79","","","","","","Clear"
"1994-11-22 20:00","1994","11","22","20:00","","M","","M","","M","23","","17","","40.2","","100.72","","","","","","Clear"
"1994-11-22 21:00","1994","11","22","21:00","0.8","","-10.0","","44","","24","","24","","40.2","","100.69","","","","","","Clear"
"1994-11-22 22:00","1994","11","22","22:00","0.9","","-10.0","","44","","24","","26","","40.2","","100.62","","","","","","Clear"
"1994-11-22 23:00","1994","11","22","23:00","","M","","M","","M","26","","24","","","M","","M","","","","","NA"
"1994-11-23 00:00","1994","11","23","00:00","","M","","M","","M","27","","30","","","M","","M","","","","","NA"
"1994-11-23 01:00","1994","11","23","01:00","","M","","M","","M","26","","37","","","M","","M","","","","","NA"
"1994-11-23 02:00","1994","11","23","02:00","","M","","M","","M","26","","33","","","M","","M","","","","","NA"
"1994-11-23 03:00","1994","11","23","03:00","","M","","M","","M","26","","35","","","M","","M","","","","","NA"
"1994-11-23 04:00","1994","11","23","04:00","","M","","M","","M","26","","32","","","M","","M","","","","","NA"
"1994-11-23 05:00","1994","11","23","05:00","","M","","M","","M","25","","41","","","M","","M","","","","","NA"
"1994-11-23 06:00","1994","11","23","06:00","1.0","","-5.1","","64","","24","","32","","25.0","","100.08","","","","","","Mostly Cloudy"
"1994-11-23 07:00","1994","11","23","07:00","0.8","","-4.6","","67","","24","","32","","19.3","","100.08","","","","","","Mostly Cloudy"
"1994-11-23 08:00","1994","11","23","08:00","-0.9","","-0.9","","100","","30","","28","","0.4","","100.18","","","","-7","","Heavy Snow Showers"
"1994-11-23 09:00","1994","11","23","09:00","-0.3","","-1.0","","95","","29","","26","","4.0","","100.18","","","","-6","","Snow"
"1994-11-23 10:00","1994","11","23","10:00","-0.9","","-2.5","","89","","31","","26","","1.6","","100.29","","","","-7","","Snow Showers"
"1994-11-23 11:00","1994","11","23","11:00","-0.3","","-7.5","","58","","31","","32","","19.3","","100.35","","","","-7","","Mostly Cloudy"
"1994-11-23 12:00","1994","11","23","12:00","-1.2","","-4.8","","76","","33","","28","","24.1","","100.39","","","","-8","","Mostly Cloudy"
"1994-11-23 13:00","1994","11","23","13:00","-1.4","","-7.1","","65","","32","","30","","25.0","","100.42","","","","-8","","Mostly Cloudy"
"1994-11-23 14:00","1994","11","23","14:00","-1.4","","-10.5","","50","","30","","30","","40.2","","100.49","","","","-8","","Mostly Cloudy"
"1994-11-23 15:00","1994","11","23","15:00","-1.5","","-10.2","","51","","30","","26","","40.2","","100.59","","","","-8","","Mostly Cloudy"
"1994-11-23 16:00","1994","11","23","16:00","-1.5","","-10.3","","51","","30","","28","","40.2","","100.69","","","","-8","","Mostly Cloudy"
"1994-11-23 17:00","1994","11","23","17:00","-2.6","","-11.7","","50","","30","","22","","40.2","","100.79","","","","-9","","Mainly Clear"
"1994-11-23 18:00","1994","11","23","18:00","-2.8","","-9.8","","58","","30","","20","","40.2","","100.89","","","","-9","","Mainly Clear"
"1994-11-23 19:00","1994","11","23","19:00","-3.6","","-9.0","","66","","30","","20","","24.1","","100.99","","","","-10","","Mainly Clear"
"1994-11-23 20:00","1994","11","23","20:00","-3.2","","-9.5","","62","","30","","26","","40.2","","100.99","","","","-10","","Mainly Clear"
"1994-11-23 21:00","1994","11","23","21:00","-3.4","","-8.5","","68","","30","","19","","40.2","","100.99","","","","-9","","Mainly Clear"
"1994-11-23 22:00","1994","11","23","22:00","-3.5","","-8.5","","68","","29","","22","","40.2","","101.02","","","","-10","","Mainly Clear"
"1994-11-23 23:00","1994","11","23","23:00","","M","","M","","M","25","","17","","","M","","M","","","","","NA"
"1994-11-24 00:00","1994","11","24","00:00","","M","","M","","M","25","","19","","","M","","M","","","","","NA"
"1994-11-24 01:00","1994","11","24","01:00","","M","","M","","M","25","","19","","","M","","M","","","","","NA"
"1994-11-24 02:00","1994","11","24","02:00","","M","","M","","M","26","","22","","","M","","M","","","","","NA"
"1994-11-24 03:00","1994","11","24","03:00","","M","","M","","M","25","","20","","","M","","M","","","","","NA"
"1994-11-24 04:00","1994","11","24","04:00","","M","","M","","M","25","","17","","","M","","M","","","","","NA"
"1994-11-24 05:00","1994","11","24","05:00","","M","","M","","M","25","","15","","","M","","M","","","","","NA"
"1994-11-24 06:00","1994","11","24","06:00","-3.2","","-6.1","","80","","23","","13","","25.0","","101.12","","","","-8","","Mostly Cloudy"
"1994-11-24 07:00","1994","11","24","07:00","-3.1","","-6.3","","79","","23","","19","","25.0","","101.12","","","","-9","","Mostly Cloudy"
"1994-11-24 08:00","1994","11","24","08:00","-2.8","","-6.6","","75","","23","","15","","25.0","","101.12","","","","-8","","Mostly Cloudy"
"1994-11-24 09:00","1994","11","24","09:00","-2.1","","-6.9","","70","","22","","13","","25.0","","101.12","","","","-7","","Mostly Cloudy"
"1994-11-24 10:00","1994","11","24","10:00","-1.0","","-6.9","","64","","23","","19","","40.2","","101.02","","","","-6","","Cloudy"
"1994-11-24 11:00","1994","11","24","11:00","0.7","","-5.9","","61","","22","","19","","40.2","","100.89","","","","","","Mostly Cloudy"
"1994-11-24 12:00","1994","11","24","12:00","2.5","","-4.2","","61","","21","","13","","40.2","","100.72","","","","","","Mostly Cloudy"
"1994-11-24 13:00","1994","11","24","13:00","3.4","","-1.0","","73","","20","","20","","40.2","","100.55","","","","","","Cloudy"
"1994-11-24 14:00","1994","11","24","14:00","3.4","","-1.5","","70","","20","","26","","40.2","","100.35","","","","","","Cloudy"
"1994-11-24 15:00","1994","11","24","15:00","3.9","","-1.6","","67","","19","","28","","24.1","","100.15","","","","","","Mostly Cloudy"
"1994-11-24 16:00","1994","11","24","16:00","5.2","","-1.1","","64","","21","","28","","24.1","","100.02","","","","","","Mostly Cloudy"
"1994-11-24 17:00","1994","11","24","17:00","5.4","","-1.8","","60","","21","","28","","24.1","","99.98","","","","","","Mostly Cloudy"
"1994-11-24 18:00","1994","11","24","18:00","5.5","","-1.5","","61","","21","","32","","40.2","","99.98","","","","","","Mainly Clear"
"1994-11-24 19:00","1994","11","24","19:00","5.9","","-1.0","","61","","21","","30","","40.2","","99.88","","","","","","Mostly Cloudy"
"1994-11-24 20:00","1994","11","24","20:00","7.0","","0.0","","61","","21","","32","","40.2","","99.82","","","","","","Cloudy"
"1994-11-24 21:00","1994","11","24","21:00","8.2","","0.3","","57","","23","","24","","40.2","","99.82","","","","","","Cloudy"
"1994-11-24 22:00","1994","11","24","22:00","8.1","","-0.8","","53","","24","","24","","25.0","","99.78","","","","","","Cloudy"
"1994-11-24 23:00","1994","11","24","23:00","","M","","M","","M","27","","24","","","M","","M","","","","","NA"
"1994-11-25 00:00","1994","11","25","00:00","","M","","M","","M","25","","24","","","M","","M","","","","","NA"
"1994-11-25 01:00","1994","11","25","01:00","","M","","M","","M","23","","19","","","M","","M","","","","","NA"
"1994-11-25 02:00","1994","11","25","02:00","","M","","M","","M","23","","15","","","M","","M","","","","","NA"
"1994-11-25 03:00","1994","11","25","03:00","","M","","M","","M","23","","19","","","M","","M","","","","","NA"
"1994-11-25 04:00","1994","11","25","04:00","","M","","M","","M","24","","19","","","M","","M","","","","","NA"
"1994-11-25 05:00","1994","11","25","05:00","","M","","M","","M","24","","15","","","M","","M","","","","","NA"
"1994-11-25 06:00","1994","11","25","06:00","3.9","","1.4","","84","","24","","19","","19.3","","100.08","","","","","","Mostly Cloudy"
"1994-11-25 07:00","1994","11","25","07:00","2.9","","1.3","","89","","24","","15","","19.3","","100.18","","","","","","Mainly Clear"
"1994-11-25 08:00","1994","11","25","08:00","2.9","","1.0","","87","","24","","13","","16.1","","100.25","","","","","","Mainly Clear"
"1994-11-25 09:00","1994","11","25","09:00","4.1","","0.7","","78","","24","","13","","19.3","","100.32","","","","","","Mainly Clear"
"1994-11-25 10:00","1994","11","25","10:00","4.1","","-1.4","","67","","26","","20","","25.0","","100.39","","","","","","Clear"
"1994-11-25 11:00","1994","11","25","11:00","6.3","","-2.4","","54","","27","","19","","25.0","","100.39","","","","","","Mainly Clear"
"1994-11-25 12:00","1994","11","25","12:00","6.6","","-3.1","","50","","25","","17","","25.0","","100.29","","","","","","Mainly Clear"
"1994-11-25 13:00","1994","11","25","13:00","6.9","","-3.7","","47","","25","","22","","25.0","","100.25","","","","","","Mainly Clear"
"1994-11-25 14:00","1994","11","25","14:00","7.1","","-5.2","","41","","26","","32","","40.2","","100.25","","","","","","Mainly Clear"
"1994-11-25 15:00","1994","11","25","15:00","7.2","","-5.6","","40","","23","","26","","40.2","","100.29","","","","","","Mainly Clear"
"1994-11-25 16:00","1994","11","25","16:00","6.1","","-6.2","","41","","25","","24","","40.2","","100.29","","","","","","Mainly Clear"
"1994-11-25 17:00","1994","11","25","17:00","4.7","","-6.7","","43","","25","","19","","40.2","","100.32","","","","","","Mainly Clear"
"1994-11-25 18:00","1994","11","25","18:00","3.7","","-6.0","","49","","25","","15","","40.2","","100.39","","","","","","Mainly Clear"
"1994-11-25 19:00","1994","11","25","19:00","3.1","","-6.7","","49","","24","","17","","40.2","","100.39","","","","","","Clear"
"1994-11-25 20:00","1994","11","25","20:00","2.1","","-6.8","","52","","23","","13","","40.2","","100.42","","","","","","Clear"
"1994-11-25 21:00","1994","11","25","21:00","2.2","","-7.1","","50","","23","","15","","40.2","","100.45","","","","","","Clear"
"1994-11-25 22:00","1994","11","25","22:00","2.2","","-7.0","","51","","24","","15","","40.2","","100.49","","","","","","Mainly Clear"
"1994-11-25 23:00","1994","11","25","23:00","","M","","M","","M","29","","22","","","M","","M","","","","","NA"
"1994-11-26 00:00","1994","11","26","00:00","","M","","M","","M","25","","20","","","M","","M","","","","","NA"
"1994-11-26 01:00","1994","11","26","01:00","","M","","M","","M","26","","17","","","M","","M","","","","","NA"
"1994-11-26 02:00","1994","11","26","02:00","","M","","M","","M","33","","9","","","M","","M","","","","","NA"
"1994-11-26 03:00","1994","11","26","03:00","","M","","M","","M","32","","17","","","M","","M","","","","","NA"
"1994-11-26 04:00","1994","11","26","04:00","","M","","M","","M","31","","13","","","M","","M","","","","","NA"
"1994-11-26 05:00","1994","11","26","05:00","","M","","M","","M","32","","15","","","M","","M","","","","","NA"
"1994-11-26 06:00","1994","11","26","06:00","-0.2","","-5.9","","65","","29","","19","","19.3","","101.12","","","","-5","","Mostly Cloudy"
"1994-11-26 07:00","1994","11","26","07:00","-1.5","","-6.0","","71","","30","","19","","19.3","","101.22","","","","-7","","Mainly Clear"
"1994-11-26 08:00","1994","11","26","08:00","-0.9","","-5.7","","70","","35","","9","","24.1","","101.36","","","","-4","","Mostly Cloudy"
"1994-11-26 09:00","1994","11","26","09:00","-0.8","","-6.9","","63","","34","","19","","40.2","","101.46","","","","-6","","Mainly Clear"
"1994-11-26 10:00","1994","11","26","10:00","-1.4","","-6.0","","71","","1","","20","","40.2","","101.53","","","","-7","","Mainly Clear"
"1994-11-26 11:00","1994","11","26","11:00","-1.0","","-7.2","","63","","3","","15","","40.2","","101.63","","","","-6","","Mainly Clear"
"1994-11-26 12:00","1994","11","26","12:00","-1.0","","-7.4","","62","","5","","19","","40.2","","101.66","","","","-6","","Mainly Clear"
"1994-11-26 13:00","1994","11","26","13:00","-1.2","","-8.0","","60","","5","","11","","40.2","","101.66","","","","-5","","Mainly Clear"
"1994-11-26 14:00","1994","11","26","14:00","-0.8","","-8.1","","58","","2","","17","","40.2","","101.66","","","","-6","","Mainly Clear"
"1994-11-26 15:00","1994","11","26","15:00","-0.8","","-8.2","","57","","5","","9","","40.2","","101.69","","","","-4","","Mainly Clear"
"1994-11-26 16:00","1994","11","26","16:00","-1.2","","-7.9","","60","","4","","7","","40.2","","101.76","","","","-4","","Mainly Clear"
"1994-11-26 17:00","1994","11","26","17:00","-2.4","","-8.0","","65","","4","","7","","25.0","","101.83","","","","-5","","Mainly Clear"
"1994-11-26 18:00","1994","11","26","18:00","-3.5","","-7.7","","73","","8","","6","","25.0","","101.90","","","","-6","","Clear"
"1994-11-26 19:00","1994","11","26","19:00","-4.3","","-8.2","","74","","8","","7","","25.0","","101.86","","","","-7","","Clear"
"1994-11-26 20:00","1994","11","26","20:00","-4.4","","-8.3","","74","","9","","9","","25.0","","101.93","","","","-8","","Clear"
"1994-11-26 21:00","1994","11","26","21:00","-4.6","","-8.2","","76","","11","","9","","25.0","","102.00","","","","-8","","Clear"
"1994-11-26 22:00","1994","11","26","22:00","-5.1","","-8.3","","78","","9","","9","","25.0","","101.96","","","","-9","","Clear"
"1994-11-26 23:00","1994","11","26","23:00","","M","","M","","M","9","","9","","","M","","M","","","","","NA"
"1994-11-27 00:00","1994","11","27","00:00","","M","","M","","M","9","","7","","","M","","M","","","","","NA"
"1994-11-27 01:00","1994","11","27","01:00","","M","","M","","M","9","","9","","","M","","M","","","","","NA"
"1994-11-27 02:00","1994","11","27","02:00","","M","","M","","M","11","","11","","","M","","M","","","","","NA"
"1994-11-27 03:00","1994","11","27","03:00","","M","","M","","M","9","","15","","","M","","M","","","","","NA"
"1994-11-27 04:00","1994","11","27","04:00","","M","","M","","M","9","","13","","","M","","M","","","","","NA"
"1994-11-27 05:00","1994","11","27","05:00","","M","","M","","M","9","","15","","","M","","M","","","","","NA"
"1994-11-27 06:00","1994","11","27","06:00","-3.9","","-9.3","","66","","9","","11","","40.2","","101.80","","","","-8","","Mainly Clear"
"1994-11-27 07:00","1994","11","27","07:00","-4.5","","-8.8","","72","","9","","19","","40.2","","101.76","","","","-11","","Mainly Clear"
"1994-11-27 08:00","1994","11","27","08:00","-4.4","","-8.6","","72","","8","","11","","40.2","","101.76","","","","-9","","Mainly Clear"
"1994-11-27 09:00","1994","11","27","09:00","-3.1","","-9.4","","62","","8","","19","","40.2","","101.69","","","","-9","","Mostly Cloudy"
"1994-11-27 10:00","1994","11","27","10:00","-1.1","","-10.1","","50","","8","","19","","40.2","","101.59","","","","-6","","Mostly Cloudy"
"1994-11-27 11:00","1994","11","27","11:00","0.9","","-9.2","","47","","9","","19","","40.2","","101.49","","","","","","Cloudy"
"1994-11-27 12:00","1994","11","27","12:00","1.1","","-8.8","","48","","10","","28","","40.2","","101.33","","","","","","Cloudy"
"1994-11-27 13:00","1994","11","27","13:00","1.7","","-8.3","","47","","8","","20","","40.2","","101.16","","","","","","Cloudy"
"1994-11-27 14:00","1994","11","27","14:00","1.8","","-7.6","","50","","9","","19","","40.2","","100.99","","","","","","Cloudy"
"1994-11-27 15:00","1994","11","27","15:00","2.6","","-7.6","","47","","9","","19","","25.0","","100.89","","","","","","Cloudy"
"1994-11-27 16:00","1994","11","27","16:00","2.8","","-6.5","","50","","9","","26","","25.0","","100.69","","","","","","Cloudy"
"1994-11-27 17:00","1994","11","27","17:00","3.0","","-4.1","","60","","11","","19","","9.7","","100.59","","","","","","Rain Showers"
"1994-11-27 18:00","1994","11","27","18:00","0.4","","-1.1","","90","","8","","22","","12.9","","100.52","","","","","","Rain"
"1994-11-27 19:00","1994","11","27","19:00","0.2","","-0.2","","97","","9","","22","","8.0","","100.29","","","","","","Rain,Freezing Rain"
"1994-11-27 20:00","1994","11","27","20:00","0.3","","0.0","","98","","8","","19","","9.7","","100.02","","","","","","Rain,Fog"
"1994-11-27 21:00","1994","11","27","21:00","0.6","","0.6","","100","","7","","19","","8.0","","99.82","","","","","","Rain,Fog"
"1994-11-27 22:00","1994","11","27","22:00","1.9","","1.9","","100","","7","","9","","12.9","","99.55","","","","","","Rain"
"1994-11-27 23:00","1994","11","27","23:00","","M","","M","","M","12","","11","","","M","","M","","","","","NA"
"1994-11-28 00:00","1994","11","28","00:00","","M","","M","","M","9","","6","","","M","","M","","","","","NA"
"1994-11-28 01:00","1994","11","28","01:00","","M","","M","","M","16","","24","","","M","","M","","","","","NA"
"1994-11-28 02:00","1994","11","28","02:00","","M","","M","","M","18","","22","","","M","","M","","","","","NA"
"1994-11-28 03:00","1994","11","28","03:00","","M","","M","","M","17","","20","","","M","","M","","","","","NA"
"1994-11-28 04:00","1994","11","28","04:00","","M","","M","","M","19","","28","","","M","","M","","","","","NA"
"1994-11-28 05:00","1994","11","28","05:00","","M","","M","","M","18","","32","","","M","","M","","","","","NA"
"1994-11-28 06:00","1994","11","28","06:00","11.2","","9.6","","90","","18","","41","","25.0","","98.21","","","","","","Mostly Cloudy"
"1994-11-28 07:00","1994","11","28","07:00","12.8","","10.2","","84","","19","","41","","24.1","","98.21","","","","","","Mostly Cloudy"
"1994-11-28 08:00","1994","11","28","08:00","11.3","","9.5","","89","","22","","19","","24.1","","98.31","","","","","","Mostly Cloudy"
"1994-11-28 09:00","1994","11","28","09:00","9.9","","7.0","","82","","24","","26","","24.1","","98.34","","","","","","Rain Showers"
"1994-11-28 10:00","1994","11","28","10:00","8.1","","5.2","","82","","24","","26","","25.0","","98.41","","","","","","Mostly Cloudy"
"1994-11-28 11:00","1994","11","28","11:00","9.0","","3.8","","70","","23","","37","","40.2","","98.47","","","","","","Mainly Clear"
"1994-11-28 12:00","1994","11","28","12:00","9.3","","3.1","","65","","22","","52","","40.2","","98.47","","","","","","Mostly Cloudy"
"1994-11-28 13:00","1994","11","28","13:00","8.1","","2.4","","67","","23","","44","","40.2","","98.47","","","","","","Mostly Cloudy"
"1994-11-28 14:00","1994","11","28","14:00","6.8","","2.1","","72","","24","","54","","40.2","","98.64","","","","","","Rain Showers"
"1994-11-28 15:00","1994","11","28","15:00","6.3","","0.7","","67","","24","","41","","25.0","","98.71","","","","","","Rain Showers"
"1994-11-28 16:00","1994","11","28","16:00","5.9","","0.2","","67","","24","","33","","25.0","","98.78","","","","","","Rain Showers"
"1994-11-28 17:00","1994","11","28","17:00","5.7","","-0.6","","64","","24","","37","","25.0","","98.91","","","","","","Rain Showers"
"1994-11-28 18:00","1994","11","28","18:00","4.7","","0.2","","73","","24","","26","","25.0","","99.01","","","","","","Rain Showers"
"1994-11-28 19:00","1994","11","28","19:00","5.0","","0.7","","74","","23","","32","","25.0","","99.08","","","","","","Rain Showers"
"1994-11-28 20:00","1994","11","28","20:00","5.1","","-1.6","","62","","23","","33","","25.0","","99.15","","","","","","Cloudy"
"1994-11-28 21:00","1994","11","28","21:00","4.6","","-1.8","","63","","24","","30","","25.0","","99.25","","","","","","Mostly Cloudy"
"1994-11-28 22:00","1994","11","28","22:00","4.7","","-3.3","","56","","24","","33","","25.0","","99.31","","","","","","Mostly Cloudy"
"1994-11-28 23:00","1994","11","28","23:00","","M","","M","","M","25","","50","","","M","","M","","","","","NA"
"1994-11-29 00:00","1994","11","29","00:00","","M","","M","","M","25","","46","","","M","","M","","","","","NA"
"1994-11-29 01:00","1994","11","29","01:00","","M","","M","","M","25","","41","","","M","","M","","","","","NA"
"1994-11-29 02:00","1994","11","29","02:00","","M","","M","","M","25","","37","","","M","","M","","","","","NA"
"1994-11-29 03:00","1994","11","29","03:00","","M","","M","","M","25","","33","","","M","","M","","","","","NA"
"1994-11-29 04:00","1994","11","29","04:00","","M","","M","","M","26","","44","","","M","","M","","","","","NA"
"1994-11-29 05:00","1994","11","29","05:00","","M","","M","","M","26","","39","","","M","","M","","","","","NA"
"1994-11-29 06:00","1994","11","29","06:00","5.1","","-3.7","","53","","23","","37","","40.2","","99.75","","","","","","Cloudy"
"1994-11-29 07:00","1994","11","29","07:00","4.8","","-2.8","","58","","24","","32","","40.2","","99.88","","","","","","Cloudy"
"1994-11-29 08:00","1994","11","29","08:00","3.5","","-2.1","","67","","26","","30","","40.2","","99.98","","","","","","Cloudy"
"1994-11-29 09:00","1994","11","29","09:00","3.5","","-3.8","","59","","25","","28","","25.0","","100.12","","","","","","Mostly Cloudy"
"1994-11-29 10:00","1994","11","29","10:00","4.1","","-4.3","","54","","25","","32","","25.0","","100.18","","","","","","Mostly Cloudy"
"1994-11-29 11:00","1994","11","29","11:00","3.8","","-5.9","","49","","26","","33","","40.2","","100.29","","","","","","Mainly Clear"
"1994-11-29 12:00","1994","11","29","12:00","4.6","","-6.0","","46","","26","","32","","40.2","","100.35","","","","","","Mostly Cloudy"
"1994-11-29 13:00","1994","11","29","13:00","4.6","","-4.5","","52","","26","","28","","40.2","","100.39","","","","","","Mostly Cloudy"
"1994-11-29 14:00","1994","11","29","14:00","5.5","","-4.5","","48","","26","","20","","24.1","","100.35","","","","","","Mostly Cloudy"
"1994-11-29 15:00","1994","11","29","15:00","5.3","","-4.1","","51","","24","","22","","24.1","","100.42","","","","","","Mostly Cloudy"
"1994-11-29 16:00","1994","11","29","16:00","4.8","","-3.8","","54","","25","","24","","24.1","","100.45","","","","","","Mostly Cloudy"
"1994-11-29 17:00","1994","11","29","17:00","4.2","","-2.9","","60","","25","","13","","24.1","","100.52","","","","","","Mostly Cloudy"
"1994-11-29 18:00","1994","11","29","18:00","3.8","","-2.5","","63","","24","","13","","24.1","","100.59","","","","","","Mostly Cloudy"
"1994-11-29 19:00","1994","11","29","19:00","3.7","","-2.2","","65","","22","","11","","24.1","","100.62","","","","","","Mostly Cloudy"
"1994-11-29 20:00","1994","11","29","20:00","4.0","","-1.7","","66","","23","","19","","24.1","","100.62","","","","","","Mostly Cloudy"
"1994-11-29 21:00","1994","11","29","21:00","3.8","","-1.4","","69","","25","","20","","24.1","","100.62","","","","","","Cloudy"
"1994-11-29 22:00","1994","11","29","22:00","3.6","","-1.5","","69","","26","","19","","24.1","","100.62","","","","","","Mostly Cloudy"
"1994-11-29 23:00","1994","11","29","23:00","","M","","M","","M","26","","19","","","M","","M","","","","","NA"
"1994-11-30 00:00","1994","11","30","00:00","","M","","M","","M","26","","17","","","M","","M","","","","","NA"
"1994-11-30 01:00","1994","11","30","01:00","","M","","M","","M","25","","17","","","M","","M","","","","","NA"
"1994-11-30 02:00","1994","11","30","02:00","","M","","M","","M","25","","15","","","M","","M","","","","","NA"
"1994-11-30 03:00","1994","11","30","03:00","","M","","M","","M","24","","15","","","M","","M","","","","","NA"
"1994-11-30 04:00","1994","11","30","04:00","","M","","M","","M","24","","17","","","M","","M","","","","","NA"
"1994-11-30 05:00","1994","11","30","05:00","","M","","M","","M","24","","17","","","M","","M","","","","","NA"
"1994-11-30 06:00","1994","11","30","06:00","1.6","","-1.6","","79","","22","","15","","40.2","","100.65","","","","","","Cloudy"
"1994-11-30 07:00","1994","11","30","07:00","1.3","","-2.7","","75","","26","","19","","24.1","","100.69","","","","","","Cloudy"
"1994-11-30 08:00","1994","11","30","08:00","1.1","","-2.9","","75","","25","","19","","24.1","","100.72","","","","","","Cloudy"
"1994-11-30 09:00","1994","11","30","09:00","1.0","","-3.6","","71","","25","","24","","24.1","","100.79","","","","","","Cloudy"
"1994-11-30 10:00","1994","11","30","10:00","1.2","","-4.4","","66","","25","","22","","25.0","","100.86","","","","","","Mostly Cloudy"
"1994-11-30 11:00","1994","11","30","11:00","2.3","","-3.6","","65","","25","","20","","25.0","","100.89","","","","","","Mainly Clear"
"1994-11-30 12:00","1994","11","30","12:00","3.2","","-3.1","","63","","27","","30","","25.0","","100.89","","","","","","Mainly Clear"
"1994-11-30 13:00","1994","11","30","13:00","2.6","","-3.1","","66","","26","","28","","25.0","","100.89","","","","","","Mostly Cloudy"
"1994-11-30 14:00","1994","11","30","14:00","2.4","","-2.6","","70","","27","","26","","25.0","","100.92","","","","","","Mostly Cloudy"
"1994-11-30 15:00","1994","11","30","15:00","2.6","","-1.6","","74","","27","","19","","25.0","","100.99","","","","","","Cloudy"
"1994-11-30 16:00","1994","11","30","16:00","2.4","","-1.2","","77","","31","","17","","24.1","","100.99","","","","","","Cloudy"
"1994-11-30 17:00","1994","11","30","17:00","2.2","","-0.9","","80","","29","","9","","24.1","","101.06","","","","","","Mostly Cloudy"
"1994-11-30 18:00","1994","11","30","18:00","2.2","","-3.8","","64","","25","","9","","25.0","","101.12","","","","","","Mostly Cloudy"
"1994-11-30 19:00","1994","11","30","19:00","1.7","","-4.3","","64","","24","","17","","25.0","","101.19","","","","","","Mostly Cloudy"
"1994-11-30 20:00","1994","11","30","20:00","1.3","","-4.8","","64","","24","","13","","25.0","","101.29","","","","","","Mostly Cloudy"
"1994-11-30 21:00","1994","11","30","21:00","0.8","","-5.0","","65","","25","","13","","25.0","","101.33","","","","","","Mostly Cloudy"
"1994-11-30 22:00","1994","11","30","22:00","-0.3","","-5.1","","70","","24","","7","","25.0","","101.39","","","","-3","","Mainly Clear"
"1994-11-30 23:00","1994","11","30","23:00","","M","","M","","M","23","","9","","","M","","M","","","","","NA"
