"Station Name","TORONTO LESTER B. PEARSON INT'L A"
"Province","ONTARIO"
"Latitude","43.68"
"Longitude","-79.63"
"Elevation","173.40"
"Climate Identifier","6158733"
"WMO Identifier","71624"
"TC Identifier","YYZ"
"All times are specified in Local Standard Time (LST). Add 1 hour to adjust for Daylight Saving Time where and when it is observed."

"Legend"
"E","Estimated"
"M","Missing"
"NA","Not Available"

"Date/Time","Year","Month","Day","Time","Temp (°C)","Temp Flag","Dew Point Temp (°C)","Dew Point Temp Flag","Rel Hum (%)","Rel Hum Flag","Wind Dir (10s deg)","Wind Dir Flag","Wind Spd (km/h)","Wind Spd Flag","Visibility (km)","Visibility Flag","Stn Press (kPa)","Stn Press Flag","Hmdx","Hmdx Flag","Wind Chill","Wind Chill Flag","Weather"
"1996-11-01 00:00","1996","11","01","00:00","1.1","","-5.3","","62","","26","","30","","25.0","","98.79","","","","","","Mostly Cloudy"
"1996-11-01 01:00","1996","11","01","01:00","0.9","","-6.0","","60","","25","","28","","25.0","","98.82","","","","","","Mainly Clear"
"1996-11-01 02:00","1996","11","01","02:00","0.5","","-5.2","","66","","24","","22","","25.0","","98.79","","","","","","Mostly Cloudy"
"1996-11-01 03:00","1996","11","01","03:00","0.5","","-5.2","","66","","24","","20","","25.0","","98.76","","","","","","Mainly Clear"
"1996-11-01 04:00","1996","11","01","04:00","0.0","","-5.0","","69","","22","","17","","25.0","","98.72","","","","-5","","Clear"
"1996-11-01 05:00","1996","11","01","05:00","0.0","","-5.6","","66","","24","","26","","25.0","","98.72","","","","-6","","Clear"
"1996-11-01 06:00","1996","11","01","06:00","-0.4","","-5.2","","70","","22","","20","","25.0","","98.72","","","","-6","","Mainly Clear"
"1996-11-01 07:00","1996","11","01","07:00","-0.8","","-4.8","","74","","23","","26","","24.1","","98.69","","","","-7","","Mainly Clear"
"1996-11-01 08:00","1996","11","01","08:00","0.2","","-4.1","","73","","24","","22","","32.2","","98.72","","","","","","Mainly Clear"
"1996-11-01 09:00","1996","11","01","09:00","1.5","","-3.2","","71","","23","","26","","32.2","","98.69","","","","","","Mainly Clear"
"1996-11-01 10:00","1996","11","01","10:00","1.8","","-2.8","","71","","25","","30","","32.2","","98.66","","","","","","Mostly Cloudy"
"1996-11-01 11:00","1996","11","01","11:00","2.4","","-3.7","","64","","26","","33","","32.2","","98.66","","","","","","Mostly Cloudy"
"1996-11-01 12:00","1996","11","01","12:00","2.0","","-3.4","","67","","25","","26","","32.2","","98.62","","","","","","Cloudy"
"1996-11-01 13:00","1996","11","01","13:00","2.0","","-3.2","","68","","26","","22","","32.2","","98.59","","","","","","Cloudy"
"1996-11-01 14:00","1996","11","01","14:00","2.0","","-2.9","","70","","25","","22","","32.2","","98.59","","","","","","Cloudy"
"1996-11-01 15:00","1996","11","01","15:00","2.3","","-3.5","","65","","25","","26","","24.1","","98.59","","","","","","Cloudy"
"1996-11-01 16:00","1996","11","01","16:00","1.4","","-1.9","","79","","24","","19","","16.1","","98.59","","","","","","Snow Showers"
"1996-11-01 17:00","1996","11","01","17:00","1.1","","-1.2","","85","","24","","13","","11.3","","98.62","","","","","","Snow Showers"
"1996-11-01 18:00","1996","11","01","18:00","0.9","","-1.1","","86","","24","","20","","11.3","","98.66","","","","","","Snow Showers"
"1996-11-01 19:00","1996","11","01","19:00","0.9","","-1.1","","86","","24","","15","","19.3","","98.69","","","","","","Mostly Cloudy"
"1996-11-01 20:00","1996","11","01","20:00","0.8","","-0.9","","88","","24","","11","","19.3","","98.69","","","","","","Snow Showers"
"1996-11-01 21:00","1996","11","01","21:00","1.3","","-1.7","","80","","26","","19","","19.3","","98.69","","","","","","Cloudy"
"1996-11-01 22:00","1996","11","01","22:00","1.6","","-2.5","","74","","27","","19","","19.3","","98.69","","","","","","Snow Showers"
"1996-11-01 23:00","1996","11","01","23:00","1.0","","-4.2","","68","","27","","24","","24.1","","98.66","","","","","","Cloudy"
"1996-11-02 00:00","1996","11","02","00:00","0.5","","-4.0","","72","","25","","13","","25.0","","98.66","","","","","","Mostly Cloudy"
"1996-11-02 01:00","1996","11","02","01:00","0.5","","-4.9","","67","","24","","15","","25.0","","98.62","","","","","","Mostly Cloudy"
"1996-11-02 02:00","1996","11","02","02:00","0.1","","-5.1","","68","","25","","20","","25.0","","98.62","","","","","","Mainly Clear"
"1996-11-02 03:00","1996","11","02","03:00","0.3","","-5.2","","67","","24","","22","","25.0","","98.62","","","","","","Mainly Clear"
"1996-11-02 04:00","1996","11","02","04:00","0.0","","-2.6","","83","","25","","11","","25.0","","98.66","","","","-4","","Snow Showers"
"1996-11-02 05:00","1996","11","02","05:00","-0.6","","-3.6","","80","","24","","17","","25.0","","98.69","","","","-6","","Snow Showers"
"1996-11-02 06:00","1996","11","02","06:00","-1.5","","-3.0","","89","","33","","15","","4.8","","98.76","","","","-6","","Snow Grains,Snow Showers"
"1996-11-02 07:00","1996","11","02","07:00","-1.1","","-3.1","","86","","26","","13","","16.1","","98.79","","","","-5","","Snow Showers"
"1996-11-02 08:00","1996","11","02","08:00","-0.9","","-4.0","","79","","28","","15","","40.2","","98.86","","","","-6","","Mostly Cloudy"
"1996-11-02 09:00","1996","11","02","09:00","0.0","","-6.6","","61","","30","","13","","40.2","","98.89","","","","-4","","Mostly Cloudy"
"1996-11-02 10:00","1996","11","02","10:00","0.8","","-5.1","","65","","28","","19","","40.2","","98.89","","","","","","Mostly Cloudy"
"1996-11-02 11:00","1996","11","02","11:00","1.6","","-5.3","","60","","28","","24","","40.2","","98.89","","","","","","Mostly Cloudy"
"1996-11-02 12:00","1996","11","02","12:00","2.0","","-5.0","","60","","30","","22","","40.2","","98.89","","","","","","Mostly Cloudy"
"1996-11-02 13:00","1996","11","02","13:00","2.4","","-5.4","","56","","30","","22","","40.2","","98.89","","","","","","Snow Showers"
"1996-11-02 14:00","1996","11","02","14:00","1.6","","-5.9","","57","","28","","22","","40.2","","98.92","","","","","","Mostly Cloudy"
"1996-11-02 15:00","1996","11","02","15:00","1.9","","-6.9","","52","","29","","28","","32.2","","98.96","","","","","","Mostly Cloudy"
"1996-11-02 16:00","1996","11","02","16:00","1.6","","-4.9","","62","","28","","22","","32.2","","99.02","","","","","","Mainly Clear"
"1996-11-02 17:00","1996","11","02","17:00","1.6","","-5.3","","60","","29","","33","","32.2","","99.09","","","","","","Mainly Clear"
"1996-11-02 18:00","1996","11","02","18:00","0.4","","-5.4","","65","","28","","26","","25.0","","99.19","","","","","","Mainly Clear"
"1996-11-02 19:00","1996","11","02","19:00","-0.3","","-4.1","","75","","27","","19","","25.0","","99.22","","","","-5","","Mainly Clear"
"1996-11-02 20:00","1996","11","02","20:00","-0.9","","-3.1","","85","","27","","19","","24.1","","99.32","","","","-6","","Mainly Clear"
"1996-11-02 21:00","1996","11","02","21:00","-0.9","","-2.9","","86","","26","","19","","24.1","","99.35","","","","-6","","Mainly Clear"
"1996-11-02 22:00","1996","11","02","22:00","-0.4","","-1.7","","91","","27","","28","","4.8","","99.39","","","","-7","","Snow Showers"
"1996-11-02 23:00","1996","11","02","23:00","-0.2","","-2.8","","83","","26","","22","","12.9","","99.42","","","","-6","","Mostly Cloudy"
"1996-11-03 00:00","1996","11","03","00:00","-1.0","","-3.8","","81","","26","","22","","24.1","","99.42","","","","-7","","Mainly Clear"
"1996-11-03 01:00","1996","11","03","01:00","-1.6","","-3.7","","86","","26","","15","","24.1","","99.45","","","","-6","","Mainly Clear"
"1996-11-03 02:00","1996","11","03","02:00","-1.0","","-2.4","","90","","26","","17","","24.1","","99.49","","","","-6","","Mainly Clear"
"1996-11-03 03:00","1996","11","03","03:00","-1.0","","-1.9","","94","","26","","13","","16.1","","99.49","","","","-5","","Mostly Cloudy"
"1996-11-03 04:00","1996","11","03","04:00","-0.5","","-2.6","","86","","26","","11","","16.1","","99.52","","","","-4","","Mostly Cloudy"
"1996-11-03 05:00","1996","11","03","05:00","0.0","","-2.3","","84","","26","","11","","19.3","","99.55","","","","-4","","Mostly Cloudy"
"1996-11-03 06:00","1996","11","03","06:00","0.5","","-1.7","","85","","26","","20","","19.3","","99.62","","","","","","Mostly Cloudy"
"1996-11-03 07:00","1996","11","03","07:00","0.4","","-1.0","","90","","25","","20","","32.2","","99.65","","","","","","Mostly Cloudy"
"1996-11-03 08:00","1996","11","03","08:00","1.0","","-2.2","","79","","27","","19","","40.2","","99.72","","","","","","Mainly Clear"
"1996-11-03 09:00","1996","11","03","09:00","2.9","","-2.1","","70","","26","","28","","40.2","","99.75","","","","","","Mostly Cloudy"
"1996-11-03 10:00","1996","11","03","10:00","3.8","","-1.9","","66","","27","","26","","40.2","","99.79","","","","","","Mainly Clear"
"1996-11-03 11:00","1996","11","03","11:00","4.0","","-1.9","","65","","26","","33","","40.2","","99.82","","","","","","Mainly Clear"
"1996-11-03 12:00","1996","11","03","12:00","5.0","","-1.5","","63","","26","","37","","40.2","","99.85","","","","","","Mainly Clear"
"1996-11-03 13:00","1996","11","03","13:00","5.0","","-2.4","","59","","27","","33","","40.2","","99.82","","","","","","Mainly Clear"
"1996-11-03 14:00","1996","11","03","14:00","4.7","","-1.9","","62","","27","","37","","40.2","","99.85","","","","","","Mainly Clear"
"1996-11-03 15:00","1996","11","03","15:00","4.6","","-1.5","","65","","27","","35","","32.2","","99.89","","","","","","Mainly Clear"
"1996-11-03 16:00","1996","11","03","16:00","3.9","","-2.4","","63","","27","","33","","32.2","","99.99","","","","","","Mainly Clear"
"1996-11-03 17:00","1996","11","03","17:00","2.6","","-2.5","","69","","27","","19","","32.2","","100.02","","","","","","Mainly Clear"
"1996-11-03 18:00","1996","11","03","18:00","3.1","","-3.4","","62","","26","","20","","25.0","","100.09","","","","","","Mostly Cloudy"
"1996-11-03 19:00","1996","11","03","19:00","2.7","","-3.3","","65","","25","","15","","25.0","","100.12","","","","","","Mostly Cloudy"
"1996-11-03 20:00","1996","11","03","20:00","2.4","","-3.1","","67","","24","","15","","24.1","","100.15","","","","","","Mostly Cloudy"
"1996-11-03 21:00","1996","11","03","21:00","2.3","","-2.9","","68","","24","","15","","24.1","","100.19","","","","","","Mostly Cloudy"
"1996-11-03 22:00","1996","11","03","22:00","1.9","","-3.1","","69","","24","","9","","24.1","","100.19","","","","","","Mostly Cloudy"
"1996-11-03 23:00","1996","11","03","23:00","2.0","","-2.6","","72","","20","","9","","24.1","","100.15","","","","","","Mostly Cloudy"
"1996-11-04 00:00","1996","11","04","00:00","1.7","","-2.4","","74","","19","","7","","19.3","","100.15","","","","","","Mostly Cloudy"
"1996-11-04 01:00","1996","11","04","01:00","2.1","","-2.2","","73","","19","","11","","19.3","","100.19","","","","","","Cloudy"
"1996-11-04 02:00","1996","11","04","02:00","2.0","","-1.8","","76","","22","","7","","16.1","","100.15","","","","","","Cloudy"
"1996-11-04 03:00","1996","11","04","03:00","2.4","","-1.9","","73","","24","","19","","16.1","","100.15","","","","","","Mostly Cloudy"
"1996-11-04 04:00","1996","11","04","04:00","2.0","","-1.8","","76","","22","","17","","16.1","","100.15","","","","","","Cloudy"
"1996-11-04 05:00","1996","11","04","05:00","1.8","","-2.3","","74","","23","","15","","19.3","","100.22","","","","","","Mostly Cloudy"
"1996-11-04 06:00","1996","11","04","06:00","1.3","","-2.3","","77","","21","","15","","19.3","","100.22","","","","","","Mainly Clear"
"1996-11-04 07:00","1996","11","04","07:00","0.9","","-6.3","","59","","21","","11","","19.3","","100.25","","","","","","Mainly Clear"
"1996-11-04 08:00","1996","11","04","08:00","2.1","","-3.1","","68","","19","","9","","19.3","","100.25","","","","","","Mostly Cloudy"
"1996-11-04 09:00","1996","11","04","09:00","4.0","","-3.5","","58","","20","","19","","19.3","","100.25","","","","","","Mostly Cloudy"
"1996-11-04 10:00","1996","11","04","10:00","6.4","","-4.0","","47","","23","","22","","24.1","","100.22","","","","","","Mostly Cloudy"
"1996-11-04 11:00","1996","11","04","11:00","8.5","","-4.9","","38","","21","","30","","32.2","","100.19","","","","","","Mainly Clear"
"1996-11-04 12:00","1996","11","04","12:00","10.6","","-5.4","","32","","22","","28","","32.2","","100.09","","","","","","Mostly Cloudy"
"1996-11-04 13:00","1996","11","04","13:00","11.5","","-4.5","","32","","22","","33","","32.2","","100.09","","","","","","Mostly Cloudy"
"1996-11-04 14:00","1996","11","04","14:00","11.0","","-3.6","","36","","21","","24","","40.2","","100.05","","","","","","Mostly Cloudy"
"1996-11-04 15:00","1996","11","04","15:00","10.5","","-2.3","","41","","21","","20","","40.2","","100.05","","","","","","Mostly Cloudy"
"1996-11-04 16:00","1996","11","04","16:00","10.1","","-1.0","","46","","21","","28","","40.2","","100.02","","","","","","Mostly Cloudy"
"1996-11-04 17:00","1996","11","04","17:00","9.0","","-1.1","","49","","21","","17","","24.1","","100.09","","","","","","Mostly Cloudy"
"1996-11-04 18:00","1996","11","04","18:00","8.4","","-0.5","","53","","21","","19","","25.0","","100.15","","","","","","Cloudy"
"1996-11-04 19:00","1996","11","04","19:00","8.0","","0.4","","59","","21","","13","","24.1","","100.15","","","","","","Cloudy"
"1996-11-04 20:00","1996","11","04","20:00","8.0","","0.4","","59","","22","","17","","24.1","","100.22","","","","","","Cloudy"
"1996-11-04 21:00","1996","11","04","21:00","7.9","","0.8","","61","","23","","9","","24.1","","100.29","","","","","","Cloudy"
"1996-11-04 22:00","1996","11","04","22:00","7.5","","1.1","","64","","25","","11","","16.1","","100.32","","","","","","Rain Showers"
"1996-11-04 23:00","1996","11","04","23:00","7.2","","1.5","","67","","27","","4","","16.1","","100.32","","","","","","Rain"
"1996-11-05 00:00","1996","11","05","00:00","6.0","","3.4","","83","","29","","4","","12.9","","100.35","","","","","","Rain"
"1996-11-05 01:00","1996","11","05","01:00","5.6","","4.1","","90","","35","","6","","11.3","","100.39","","","","","","Rain"
"1996-11-05 02:00","1996","11","05","02:00","5.5","","4.2","","91","","2","","7","","12.9","","100.39","","","","","","Cloudy"
"1996-11-05 03:00","1996","11","05","03:00","5.6","","4.3","","91","","7","","4","","11.3","","100.39","","","","","","Rain"
"1996-11-05 04:00","1996","11","05","04:00","5.5","","4.5","","93","","8","","4","","9.7","","100.39","","","","","","Fog"
"1996-11-05 05:00","1996","11","05","05:00","5.8","","4.1","","89","","6","","13","","11.3","","100.35","","","","","","Cloudy"
"1996-11-05 06:00","1996","11","05","06:00","5.7","","3.8","","88","","5","","15","","11.3","","100.35","","","","","","Cloudy"
"1996-11-05 07:00","1996","11","05","07:00","5.6","","3.7","","88","","11","","4","","9.7","","100.39","","","","","","Fog"
"1996-11-05 08:00","1996","11","05","08:00","5.5","","3.8","","89","","12","","2","","9.7","","100.42","","","","","","Fog"
"1996-11-05 09:00","1996","11","05","09:00","6.5","","4.4","","86","","9","","7","","9.7","","100.42","","","","","","Haze"
"1996-11-05 10:00","1996","11","05","10:00","7.0","","3.9","","81","","9","","13","","9.7","","100.42","","","","","","Haze"
"1996-11-05 11:00","1996","11","05","11:00","7.4","","4.5","","82","","8","","13","","11.3","","100.42","","","","","","Mostly Cloudy"
"1996-11-05 12:00","1996","11","05","12:00","7.7","","4.4","","80","","10","","9","","9.7","","100.39","","","","","","Haze"
"1996-11-05 13:00","1996","11","05","13:00","7.7","","4.9","","82","","11","","11","","11.3","","100.35","","","","","","Mostly Cloudy"
"1996-11-05 14:00","1996","11","05","14:00","7.5","","5.3","","86","","10","","13","","11.3","","100.32","","","","","","Mostly Cloudy"
"1996-11-05 15:00","1996","11","05","15:00","7.5","","4.6","","82","","9","","11","","9.7","","100.32","","","","","","Haze"
"1996-11-05 16:00","1996","11","05","16:00","7.3","","5.1","","86","","11","","11","","8.0","","100.35","","","","","","Haze"
"1996-11-05 17:00","1996","11","05","17:00","7.0","","5.0","","87","","10","","15","","8.0","","100.39","","","","","","Fog"
"1996-11-05 18:00","1996","11","05","18:00","5.9","","4.0","","88","","9","","13","","6.4","","100.42","","","","","","Fog"
"1996-11-05 19:00","1996","11","05","19:00","6.0","","4.6","","91","","10","","11","","6.4","","100.49","","","","","","Fog"
"1996-11-05 20:00","1996","11","05","20:00","6.3","","4.7","","89","","10","","9","","6.4","","100.52","","","","","","Fog"
"1996-11-05 21:00","1996","11","05","21:00","6.5","","5.1","","91","","10","","11","","6.4","","100.52","","","","","","Fog"
"1996-11-05 22:00","1996","11","05","22:00","6.0","","4.6","","91","","10","","13","","6.4","","100.52","","","","","","Fog"
"1996-11-05 23:00","1996","11","05","23:00","5.8","","4.6","","92","","10","","11","","6.4","","100.52","","","","","","Fog"
"1996-11-06 00:00","1996","11","06","00:00","5.5","","4.5","","93","","10","","17","","6.4","","100.52","","","","","","Fog"
"1996-11-06 01:00","1996","11","06","01:00","5.4","","4.6","","95","","9","","11","","6.4","","100.52","","","","","","Fog"
"1996-11-06 02:00","1996","11","06","02:00","5.3","","4.7","","96","","9","","11","","4.8","","100.52","","","","","","Fog"
"1996-11-06 03:00","1996","11","06","03:00","4.8","","4.4","","97","","7","","11","","2.4","","100.55","","","","","","Fog"
"1996-11-06 04:00","1996","11","06","04:00","4.6","","4.4","","99","","7","","11","","1.2","","100.52","","","","","","Rain,Fog"
"1996-11-06 05:00","1996","11","06","05:00","4.5","","4.3","","99","","8","","11","","1.0","","100.55","","","","","","Fog"
"1996-11-06 06:00","1996","11","06","06:00","4.5","","4.3","","99","","8","","15","","0.4","","100.49","","","","","","Fog"
"1996-11-06 07:00","1996","11","06","07:00","4.3","","4.3","","100","","8","","15","","0.2","","100.52","","","","","","Fog"
"1996-11-06 08:00","1996","11","06","08:00","4.4","","4.4","","100","","9","","17","","0.2","","100.52","","","","","","Fog"
"1996-11-06 09:00","1996","11","06","09:00","4.6","","4.6","","100","","10","","15","","0.2","","100.52","","","","","","Fog"
"1996-11-06 10:00","1996","11","06","10:00","4.9","","4.9","","100","","8","","15","","1.2","","100.49","","","","","","Fog"
"1996-11-06 11:00","1996","11","06","11:00","5.1","","5.1","","100","","9","","11","","1.2","","100.42","","","","","","Fog"
"1996-11-06 12:00","1996","11","06","12:00","5.7","","5.5","","99","","9","","9","","2.4","","100.32","","","","","","Fog"
"1996-11-06 13:00","1996","11","06","13:00","6.3","","5.9","","97","","9","","15","","4.0","","100.22","","","","","","Fog"
"1996-11-06 14:00","1996","11","06","14:00","7.2","","6.4","","95","","8","","9","","4.0","","100.12","","","","","","Fog"
"1996-11-06 15:00","1996","11","06","15:00","7.4","","6.2","","92","","8","","11","","4.8","","100.09","","","","","","Fog"
"1996-11-06 16:00","1996","11","06","16:00","7.4","","5.8","","90","","7","","4","","4.8","","100.09","","","","","","Fog"
"1996-11-06 17:00","1996","11","06","17:00","7.0","","5.8","","92","","12","","7","","4.8","","100.02","","","","","","Fog"
"1996-11-06 18:00","1996","11","06","18:00","6.9","","5.3","","90","","8","","4","","6.4","","99.99","","","","","","Fog"
"1996-11-06 19:00","1996","11","06","19:00","6.7","","5.3","","91","","","","0","","6.4","","99.92","","","","","","Fog"
"1996-11-06 20:00","1996","11","06","20:00","6.7","","5.3","","91","","","","0","","6.4","","99.89","","","","","","Fog"
"1996-11-06 21:00","1996","11","06","21:00","6.8","","5.6","","92","","","","0","","6.4","","99.79","","","","","","Fog"
"1996-11-06 22:00","1996","11","06","22:00","8.2","","6.8","","91","","","","0","","6.4","","99.72","","","","","","Fog"
"1996-11-06 23:00","1996","11","06","23:00","8.3","","6.9","","91","","","","0","","8.0","","99.62","","","","","","Fog"
"1996-11-07 00:00","1996","11","07","00:00","9.7","","8.4","","92","","11","","7","","4.0","","99.52","","","","","","Drizzle,Fog"
"1996-11-07 01:00","1996","11","07","01:00","9.9","","9.4","","97","","12","","7","","4.0","","99.45","","","","","","Fog"
"1996-11-07 02:00","1996","11","07","02:00","9.8","","9.3","","97","","13","","9","","4.0","","99.39","","","","","","Drizzle,Fog"
"1996-11-07 03:00","1996","11","07","03:00","10.1","","9.7","","97","","14","","6","","4.0","","99.35","","","","","","Fog"
"1996-11-07 04:00","1996","11","07","04:00","10.5","","10.0","","97","","12","","9","","4.0","","99.22","","","","","","Fog"
"1996-11-07 05:00","1996","11","07","05:00","10.5","","10.1","","97","","13","","6","","4.0","","99.26","","","","","","Fog"
"1996-11-07 06:00","1996","11","07","06:00","11.7","","11.2","","97","","12","","11","","4.0","","99.12","","","","","","Fog"
"1996-11-07 07:00","1996","11","07","07:00","12.0","","11.5","","97","","14","","15","","4.8","","99.09","","","","","","Fog"
"1996-11-07 08:00","1996","11","07","08:00","12.2","","11.2","","94","","13","","15","","6.4","","99.06","","","","","","Fog"
"1996-11-07 09:00","1996","11","07","09:00","13.1","","11.4","","89","","14","","17","","8.0","","98.89","","","","","","Fog"
"1996-11-07 10:00","1996","11","07","10:00","13.7","","12.0","","89","","19","","11","","1.6","","98.89","","","","","","Heavy Rain Showers,Fog"
"1996-11-07 11:00","1996","11","07","11:00","14.6","","13.6","","94","","16","","11","","8.0","","98.82","","","","","","Fog"
"1996-11-07 12:00","1996","11","07","12:00","18.1","","14.3","","78","","19","","24","","14.5","","98.69","","","","","","Cloudy"
"1996-11-07 13:00","1996","11","07","13:00","18.6","","13.8","","74","","19","","24","","14.5","","98.56","","","","","","Cloudy"
"1996-11-07 14:00","1996","11","07","14:00","18.6","","13.6","","73","","18","","28","","14.5","","98.49","","","","","","Rain Showers"
"1996-11-07 15:00","1996","11","07","15:00","18.5","","14.2","","76","","19","","32","","19.3","","98.39","","","","","","Cloudy"
"1996-11-07 16:00","1996","11","07","16:00","18.2","","13.7","","75","","17","","22","","19.3","","98.29","","","","","","Cloudy"
"1996-11-07 17:00","1996","11","07","17:00","18.2","","13.5","","74","","17","","24","","19.3","","98.22","","","","","","Cloudy"
"1996-11-07 18:00","1996","11","07","18:00","18.0","","13.3","","74","","17","","20","","19.3","","98.12","","","","","","Cloudy"
"1996-11-07 19:00","1996","11","07","19:00","18.1","","13.2","","73","","17","","17","","19.3","","98.02","","","","","","Cloudy"
"1996-11-07 20:00","1996","11","07","20:00","17.9","","13.0","","73","","19","","7","","19.3","","97.99","","","","","","Rain Showers"
"1996-11-07 21:00","1996","11","07","21:00","8.3","","7.7","","96","","34","","37","","12.9","","98.09","","","","","","Rain Showers"
"1996-11-07 22:00","1996","11","07","22:00","6.4","","6.2","","99","","35","","20","","6.4","","98.19","","","","","","Moderate Rain,Fog"
"1996-11-07 23:00","1996","11","07","23:00","6.7","","6.3","","97","","33","","17","","16.1","","98.16","","","","","","Rain"
"1996-11-08 00:00","1996","11","08","00:00","6.5","","5.9","","96","","32","","24","","12.9","","98.29","","","","","","Rain"
"1996-11-08 01:00","1996","11","08","01:00","6.4","","5.4","","93","","34","","17","","11.3","","98.36","","","","","","Rain"
"1996-11-08 02:00","1996","11","08","02:00","6.5","","5.5","","93","","32","","17","","24.1","","98.46","","","","","","Cloudy"
"1996-11-08 03:00","1996","11","08","03:00","6.5","","5.1","","91","","31","","19","","24.1","","98.52","","","","","","Cloudy"
"1996-11-08 04:00","1996","11","08","04:00","6.5","","4.4","","86","","31","","13","","24.1","","98.59","","","","","","Cloudy"
"1996-11-08 05:00","1996","11","08","05:00","6.4","","4.8","","89","","33","","11","","24.1","","98.56","","","","","","Cloudy"
"1996-11-08 06:00","1996","11","08","06:00","6.4","","4.8","","89","","34","","15","","24.1","","98.52","","","","","","Cloudy"
"1996-11-08 07:00","1996","11","08","07:00","6.3","","4.4","","88","","34","","20","","24.1","","98.62","","","","","","Cloudy"
"1996-11-08 08:00","1996","11","08","08:00","6.1","","4.0","","86","","33","","13","","19.3","","98.69","","","","","","Cloudy"
"1996-11-08 09:00","1996","11","08","09:00","6.0","","4.1","","88","","33","","11","","19.3","","98.69","","","","","","Cloudy"
"1996-11-08 10:00","1996","11","08","10:00","6.1","","4.2","","88","","32","","9","","16.1","","98.62","","","","","","Cloudy"
"1996-11-08 11:00","1996","11","08","11:00","6.2","","4.1","","86","","35","","11","","16.1","","98.59","","","","","","Cloudy"
"1996-11-08 12:00","1996","11","08","12:00","6.6","","4.8","","88","","32","","7","","14.5","","98.59","","","","","","Cloudy"
"1996-11-08 13:00","1996","11","08","13:00","6.8","","3.9","","82","","32","","7","","19.3","","98.56","","","","","","Cloudy"
"1996-11-08 14:00","1996","11","08","14:00","6.7","","3.5","","80","","36","","11","","19.3","","98.52","","","","","","Cloudy"
"1996-11-08 15:00","1996","11","08","15:00","6.6","","3.2","","79","","33","","7","","19.3","","98.59","","","","","","Cloudy"
"1996-11-08 16:00","1996","11","08","16:00","6.4","","2.5","","76","","36","","11","","19.3","","98.52","","","","","","Cloudy"
"1996-11-08 17:00","1996","11","08","17:00","6.2","","3.4","","82","","34","","13","","19.3","","98.49","","","","","","Cloudy"
"1996-11-08 18:00","1996","11","08","18:00","6.0","","3.9","","86","","33","","9","","24.1","","98.52","","","","","","Cloudy"
"1996-11-08 19:00","1996","11","08","19:00","6.0","","3.4","","83","","31","","11","","24.1","","98.56","","","","","","Cloudy"
"1996-11-08 20:00","1996","11","08","20:00","6.0","","3.0","","81","","34","","19","","19.3","","98.52","","","","","","Cloudy"
"1996-11-08 21:00","1996","11","08","21:00","6.0","","3.0","","81","","32","","11","","19.3","","98.52","","","","","","Cloudy"
"1996-11-08 22:00","1996","11","08","22:00","5.7","","3.1","","83","","33","","7","","24.1","","98.49","","","","","","Mostly Cloudy"
"1996-11-08 23:00","1996","11","08","23:00","5.3","","2.0","","79","","32","","13","","24.1","","98.42","","","","","","Cloudy"
"1996-11-09 00:00","1996","11","09","00:00","5.6","","0.8","","71","","32","","15","","24.1","","98.39","","","","","","Rain Showers"
"1996-11-09 01:00","1996","11","09","01:00","5.4","","1.4","","75","","31","","9","","24.1","","98.36","","","","","","Cloudy"
"1996-11-09 02:00","1996","11","09","02:00","4.9","","1.8","","80","","36","","15","","19.3","","98.32","","","","","","Rain Showers"
"1996-11-09 03:00","1996","11","09","03:00","4.0","","1.7","","85","","35","","11","","24.1","","98.29","","","","","","Rain Showers"
"1996-11-09 04:00","1996","11","09","04:00","3.7","","1.2","","84","","33","","6","","24.1","","98.22","","","","","","Cloudy"
"1996-11-09 05:00","1996","11","09","05:00","3.1","","1.7","","91","","30","","6","","24.1","","98.16","","","","","","Mostly Cloudy"
"1996-11-09 06:00","1996","11","09","06:00","3.4","","0.1","","79","","31","","11","","24.1","","98.19","","","","","","Mostly Cloudy"
"1996-11-09 07:00","1996","11","09","07:00","2.8","","0.9","","87","","28","","4","","19.3","","98.22","","","","","","Cloudy"
"1996-11-09 08:00","1996","11","09","08:00","3.0","","0.9","","86","","28","","6","","19.3","","98.26","","","","","","Cloudy"
"1996-11-09 09:00","1996","11","09","09:00","3.4","","1.3","","86","","32","","24","","16.1","","98.29","","","","","","Rain Showers"
"1996-11-09 10:00","1996","11","09","10:00","2.6","","1.0","","89","","32","","15","","16.1","","98.36","","","","","","Rain Showers,Ice Pellet Showers"
"1996-11-09 11:00","1996","11","09","11:00","5.0","","-0.2","","69","","29","","19","","24.1","","98.36","","","","","","Mostly Cloudy"
"1996-11-09 12:00","1996","11","09","12:00","5.1","","-1.4","","63","","29","","24","","32.2","","98.39","","","","","","Mostly Cloudy"
"1996-11-09 13:00","1996","11","09","13:00","6.3","","-1.3","","58","","29","","22","","32.2","","98.39","","","","","","Mostly Cloudy"
"1996-11-09 14:00","1996","11","09","14:00","7.2","","-3.1","","48","","29","","24","","32.2","","98.46","","","","","","Mostly Cloudy"
"1996-11-09 15:00","1996","11","09","15:00","6.0","","-3.6","","50","","27","","19","","32.2","","98.52","","","","","","Mostly Cloudy"
"1996-11-09 16:00","1996","11","09","16:00","5.5","","-4.0","","50","","28","","19","","40.2","","98.62","","","","","","Mostly Cloudy"
"1996-11-09 17:00","1996","11","09","17:00","4.0","","-2.5","","63","","29","","15","","32.2","","98.72","","","","","","Mostly Cloudy"
"1996-11-09 18:00","1996","11","09","18:00","3.0","","-2.9","","65","","29","","15","","25.0","","98.82","","","","","","Mostly Cloudy"
"1996-11-09 19:00","1996","11","09","19:00","2.1","","-2.8","","70","","29","","9","","25.0","","98.89","","","","","","Mostly Cloudy"
"1996-11-09 20:00","1996","11","09","20:00","1.8","","-3.4","","68","","29","","7","","25.0","","98.92","","","","","","Mainly Clear"
"1996-11-09 21:00","1996","11","09","21:00","1.0","","-3.6","","71","","","","0","","25.0","","98.99","","","","","","Mainly Clear"
"1996-11-09 22:00","1996","11","09","22:00","0.6","","-3.2","","76","","","","0","","25.0","","98.99","","","","","","Mainly Clear"
"1996-11-09 23:00","1996","11","09","23:00","0.2","","-3.5","","76","","","","0","","25.0","","98.99","","","","","","Mostly Cloudy"
"1996-11-10 00:00","1996","11","10","00:00","-0.1","","-2.2","","86","","","","0","","25.0","","99.02","","","","","","Mostly Cloudy"
"1996-11-10 01:00","1996","11","10","01:00","0.4","","-2.6","","80","","33","","4","","25.0","","99.06","","","","","","Cloudy"
"1996-11-10 02:00","1996","11","10","02:00","0.0","","-2.3","","84","","32","","2","","25.0","","99.06","","","","-1","","Cloudy"
"1996-11-10 03:00","1996","11","10","03:00","0.5","","-2.0","","83","","","","0","","25.0","","99.02","","","","","","Cloudy"
"1996-11-10 04:00","1996","11","10","04:00","0.6","","-2.9","","77","","31","","6","","25.0","","99.02","","","","","","Cloudy"
"1996-11-10 05:00","1996","11","10","05:00","1.0","","-2.7","","76","","30","","4","","25.0","","99.02","","","","","","Cloudy"
"1996-11-10 06:00","1996","11","10","06:00"
"1996-11-10 07:00","1996","11","10","07:00","0.7","","-3.7","","72","","","","0","","24.1","","99.09","","","","","","Cloudy"
"1996-11-10 08:00","1996","11","10","08:00","1.0","","-3.3","","73","","","","0","","40.2","","99.12","","","","","","Mostly Cloudy"
"1996-11-10 09:00","1996","11","10","09:00","2.0","","-3.2","","68","","","","0","","40.2","","99.16","","","","","","Mostly Cloudy"
"1996-11-10 10:00","1996","11","10","10:00","3.0","","-2.9","","65","","29","","7","","40.2","","99.16","","","","","","Mostly Cloudy"
"1996-11-10 11:00","1996","11","10","11:00","3.2","","-2.4","","67","","","","0","","40.2","","99.19","","","","","","Mostly Cloudy"
"1996-11-10 12:00","1996","11","10","12:00","4.6","","-3.6","","55","","30","","13","","40.2","","99.16","","","","","","Snow Showers"
"1996-11-10 13:00","1996","11","10","13:00","4.0","","-4.1","","55","","29","","15","","40.2","","99.12","","","","","","Snow Showers"
"1996-11-10 14:00","1996","11","10","14:00","4.3","","-5.0","","51","","29","","11","","40.2","","99.09","","","","","","Mostly Cloudy"
"1996-11-10 15:00","1996","11","10","15:00","4.9","","-5.6","","47","","28","","22","","40.2","","99.09","","","","","","Mainly Clear"
"1996-11-10 16:00","1996","11","10","16:00","3.5","","-4.8","","55","","27","","15","","40.2","","99.12","","","","","","Mostly Cloudy"
"1996-11-10 17:00","1996","11","10","17:00","2.0","","-3.2","","68","","30","","13","","32.2","","99.22","","","","","","Mostly Cloudy"
"1996-11-10 18:00","1996","11","10","18:00","1.4","","-3.1","","72","","30","","7","","25.0","","99.29","","","","","","Mostly Cloudy"
"1996-11-10 19:00","1996","11","10","19:00","0.1","","-2.7","","81","","27","","7","","25.0","","99.29","","","","","","Mainly Clear"
"1996-11-10 20:00","1996","11","10","20:00","-0.2","","-2.8","","83","","27","","9","","25.0","","99.32","","","","-3","","Mostly Cloudy"
"1996-11-10 21:00","1996","11","10","21:00","-0.4","","-3.1","","82","","26","","7","","25.0","","99.32","","","","-3","","Mostly Cloudy"
"1996-11-10 22:00","1996","11","10","22:00","-0.8","","-3.6","","81","","28","","4","","25.0","","99.32","","","","-2","","Mostly Cloudy"
"1996-11-10 23:00","1996","11","10","23:00","-0.8","","-3.6","","81","","27","","7","","25.0","","99.32","","","","-3","","Mostly Cloudy"
"1996-11-11 00:00","1996","11","11","00:00","-0.7","","-3.5","","81","","27","","4","","25.0","","99.32","","","","-2","","Cloudy"
"1996-11-11 01:00","1996","11","11","01:00","-0.4","","-3.4","","80","","28","","11","","25.0","","99.32","","","","-4","","Cloudy"
"1996-11-11 02:00","1996","11","11","02:00","-0.4","","-3.4","","80","","27","","7","","25.0","","99.35","","","","-3","","Mostly Cloudy"
"1996-11-11 03:00","1996","11","11","03:00","-1.0","","-3.5","","83","","26","","7","","25.0","","99.39","","","","-4","","Mostly Cloudy"
"1996-11-11 04:00","1996","11","11","04:00","-1.7","","-4.1","","84","","24","","7","","25.0","","99.39","","","","-4","","Mostly Cloudy"
"1996-11-11 05:00","1996","11","11","05:00","-2.0","","-3.9","","87","","25","","11","","25.0","","99.42","","","","-6","","Mainly Clear"
"1996-11-11 06:00","1996","11","11","06:00","-2.0","","-3.9","","87","","27","","9","","25.0","","99.49","","","","-5","","Mostly Cloudy"
"1996-11-11 07:00","1996","11","11","07:00","-1.7","","-4.4","","82","","26","","11","","32.2","","99.55","","","","-6","","Mostly Cloudy"
"1996-11-11 08:00","1996","11","11","08:00","-1.5","","-4.5","","80","","27","","4","","40.2","","99.59","","","","-3","","Mostly Cloudy"
"1996-11-11 09:00","1996","11","11","09:00","0.0","","-4.0","","74","","26","","19","","40.2","","99.62","","","","-5","","Mostly Cloudy"
"1996-11-11 10:00","1996","11","11","10:00","1.5","","-2.6","","74","","27","","24","","32.2","","99.65","","","","","","Mostly Cloudy"
"1996-11-11 11:00","1996","11","11","11:00","1.4","","-2.2","","77","","27","","24","","40.2","","99.69","","","","","","Mostly Cloudy"
"1996-11-11 12:00","1996","11","11","12:00","2.5","","-4.2","","61","","29","","24","","40.2","","99.69","","","","","","Mostly Cloudy"
"1996-11-11 13:00","1996","11","11","13:00","2.9","","-4.9","","56","","28","","19","","40.2","","99.72","","","","","","Mostly Cloudy"
"1996-11-11 14:00","1996","11","11","14:00","2.8","","-5.1","","56","","26","","26","","40.2","","99.75","","","","","","Mostly Cloudy"
"1996-11-11 15:00","1996","11","11","15:00","2.8","","-4.8","","57","","26","","33","","32.2","","99.79","","","","","","Mostly Cloudy"
"1996-11-11 16:00","1996","11","11","16:00","1.3","","-2.0","","79","","30","","15","","12.9","","99.92","","","","","","Snow Showers"
"1996-11-11 17:00","1996","11","11","17:00","0.3","","-2.8","","80","","27","","30","","24.1","","99.99","","","","","","Snow Showers"
"1996-11-11 18:00","1996","11","11","18:00","-0.5","","-3.5","","80","","27","","15","","25.0","","100.09","","","","-5","","Mostly Cloudy"
"1996-11-11 19:00","1996","11","11","19:00","-0.9","","-4.0","","79","","27","","19","","25.0","","100.15","","","","-6","","Mostly Cloudy"
"1996-11-11 20:00","1996","11","11","20:00","-0.8","","-3.3","","83","","27","","15","","25.0","","100.19","","","","-5","","Mostly Cloudy"
"1996-11-11 21:00","1996","11","11","21:00","-0.8","","-3.9","","79","","27","","26","","25.0","","100.25","","","","-7","","Mostly Cloudy"
"1996-11-11 22:00","1996","11","11","22:00","-1.0","","-4.1","","79","","29","","15","","25.0","","100.29","","","","-6","","Mostly Cloudy"
"1996-11-11 23:00","1996","11","11","23:00","-1.6","","-4.6","","80","","28","","15","","24.1","","100.32","","","","-6","","Mostly Cloudy"
"1996-11-12 00:00","1996","11","12","00:00","-1.6","","-4.0","","84","","28","","19","","24.1","","100.32","","","","-7","","Mostly Cloudy"
"1996-11-12 01:00","1996","11","12","01:00","-2.0","","-4.5","","83","","28","","11","","24.1","","100.35","","","","-6","","Mostly Cloudy"
"1996-11-12 02:00","1996","11","12","02:00","-2.6","","-4.0","","90","","27","","11","","24.1","","100.39","","","","-7","","Mainly Clear"
"1996-11-12 03:00","1996","11","12","03:00","-2.5","","-4.5","","86","","27","","9","","24.1","","100.45","","","","-6","","Mainly Clear"
"1996-11-12 04:00","1996","11","12","04:00","-3.1","","-4.9","","87","","25","","7","","24.1","","100.49","","","","-6","","Mainly Clear"
"1996-11-12 05:00","1996","11","12","05:00","-2.6","","-5.2","","82","","27","","11","","24.1","","100.55","","","","-7","","Mostly Cloudy"
"1996-11-12 06:00","1996","11","12","06:00","-3.2","","-5.1","","87","","28","","11","","24.1","","100.62","","","","-7","","Mainly Clear"
"1996-11-12 07:00","1996","11","12","07:00","-3.0","","-4.8","","87","","32","","9","","24.1","","100.72","","","","-7","","Mostly Cloudy"
"1996-11-12 08:00","1996","11","12","08:00","-3.4","","-5.6","","85","","32","","7","","24.1","","100.82","","","","-6","","Mainly Clear"
"1996-11-12 09:00","1996","11","12","09:00","-2.4","","-4.7","","84","","33","","6","","40.2","","100.85","","","","-5","","Mostly Cloudy"
"1996-11-12 10:00","1996","11","12","10:00","-1.6","","-5.5","","75","","33","","13","","40.2","","100.89","","","","-6","","Mostly Cloudy"
"1996-11-12 11:00","1996","11","12","11:00","-1.4","","-5.9","","71","","34","","11","","40.2","","100.92","","","","-5","","Mostly Cloudy"
"1996-11-12 12:00","1996","11","12","12:00","-1.6","","-4.6","","80","","31","","11","","19.3","","100.92","","","","-5","","Snow Showers"
"1996-11-12 13:00","1996","11","12","13:00","-0.6","","-5.5","","69","","25","","13","","12.9","","100.92","","","","-5","","Snow Showers"
"1996-11-12 14:00","1996","11","12","14:00","-1.0","","-5.4","","72","","30","","11","","19.3","","100.95","","","","-5","","Snow Showers"
"1996-11-12 15:00","1996","11","12","15:00","-1.0","","-4.4","","78","","31","","17","","32.2","","100.99","","","","-6","","Snow Showers"
"1996-11-12 16:00","1996","11","12","16:00","-1.0","","-7.0","","64","","28","","19","","24.1","","101.05","","","","-6","","Snow Showers"
"1996-11-12 17:00","1996","11","12","17:00","-2.0","","-6.4","","72","","29","","13","","40.2","","101.09","","","","-6","","Mostly Cloudy"
"1996-11-12 18:00","1996","11","12","18:00","-2.1","","-4.6","","83","","28","","15","","25.0","","101.12","","","","-7","","Mostly Cloudy"
"1996-11-12 19:00","1996","11","12","19:00","-2.5","","-7.4","","69","","28","","11","","25.0","","101.15","","","","-7","","Mostly Cloudy"
"1996-11-12 20:00","1996","11","12","20:00","-3.0","","-7.0","","74","","27","","9","","25.0","","101.19","","","","-7","","Mainly Clear"
"1996-11-12 21:00","1996","11","12","21:00","-2.8","","-6.1","","78","","24","","13","","24.1","","101.19","","","","-7","","Mostly Cloudy"
"1996-11-12 22:00","1996","11","12","22:00","-2.9","","-5.3","","83","","25","","9","","19.3","","101.15","","","","-6","","Snow Showers"
"1996-11-12 23:00","1996","11","12","23:00","-3.1","","-5.2","","85","","22","","11","","19.3","","101.09","","","","-7","","Mainly Clear"
"1996-11-13 00:00","1996","11","13","00:00","-3.4","","-5.6","","85","","23","","17","","19.3","","101.09","","","","-9","","Snow Showers"
"1996-11-13 01:00","1996","11","13","01:00","-3.2","","-5.4","","85","","26","","22","","19.3","","101.05","","","","-10","","Mostly Cloudy"
"1996-11-13 02:00","1996","11","13","02:00","-3.1","","-5.2","","85","","27","","17","","24.1","","101.05","","","","-9","","Mostly Cloudy"
"1996-11-13 03:00","1996","11","13","03:00","-2.9","","-5.3","","83","","26","","19","","24.1","","101.09","","","","-9","","Mostly Cloudy"
"1996-11-13 04:00","1996","11","13","04:00","-3.5","","-5.7","","85","","26","","15","","24.1","","101.12","","","","-9","","Mainly Clear"
"1996-11-13 05:00","1996","11","13","05:00","-3.9","","-5.9","","86","","27","","15","","24.1","","101.15","","","","-9","","Mainly Clear"
"1996-11-13 06:00","1996","11","13","06:00","-4.4","","-6.2","","87","","26","","11","","25.0","","101.19","","","","-9","","Clear"
"1996-11-13 07:00","1996","11","13","07:00","-5.0","","-7.2","","85","","34","","11","","24.1","","101.29","","","","-10","","Mostly Cloudy"
"1996-11-13 08:00","1996","11","13","08:00","-5.0","","-6.9","","86","","34","","9","","40.2","","101.35","","","","-9","","Mostly Cloudy"
"1996-11-13 09:00","1996","11","13","09:00","-4.4","","-6.8","","83","","36","","9","","40.2","","101.39","","","","-8","","Clear"
"1996-11-13 10:00","1996","11","13","10:00","-3.5","","-7.3","","75","","","","0","","40.2","","101.42","","","","","","Mainly Clear"
"1996-11-13 11:00","1996","11","13","11:00","-2.2","","-7.0","","70","","","","0","","40.2","","101.45","","","","","","Mainly Clear"
"1996-11-13 12:00","1996","11","13","12:00","-1.1","","-7.9","","60","","29","","6","","40.2","","101.39","","","","-3","","Mainly Clear"
"1996-11-13 13:00","1996","11","13","13:00","-0.7","","-9.6","","51","","34","","7","","40.2","","101.32","","","","-3","","Mostly Cloudy"
"1996-11-13 14:00","1996","11","13","14:00","-0.6","","-6.4","","65","","","","0","","40.2","","101.29","","","","","","Snow Showers"
"1996-11-13 15:00","1996","11","13","15:00","-0.5","","-9.3","","51","","26","","13","","40.2","","101.29","","","","-5","","Mostly Cloudy"
"1996-11-13 16:00","1996","11","13","16:00","-0.5","","-8.9","","53","","25","","7","","40.2","","101.29","","","","-3","","Mostly Cloudy"
"1996-11-13 17:00","1996","11","13","17:00","-1.7","","-4.7","","80","","26","","7","","24.1","","101.29","","","","-4","","Mostly Cloudy"
"1996-11-13 18:00","1996","11","13","18:00","-1.8","","-6.8","","69","","27","","13","","24.1","","101.32","","","","-6","","Mostly Cloudy"
"1996-11-13 19:00","1996","11","13","19:00","-2.3","","-7.8","","66","","27","","13","","24.1","","101.32","","","","-7","","Mostly Cloudy"
"1996-11-13 20:00","1996","11","13","20:00","-2.5","","-6.0","","77","","26","","13","","24.1","","101.32","","","","-7","","Mostly Cloudy"
"1996-11-13 21:00","1996","11","13","21:00","-2.5","","-7.4","","69","","27","","13","","24.1","","101.29","","","","-7","","Mostly Cloudy"
"1996-11-13 22:00","1996","11","13","22:00","-3.9","","-7.2","","78","","27","","9","","24.1","","101.25","","","","-8","","Mainly Clear"
"1996-11-13 23:00","1996","11","13","23:00","-3.9","","-8.2","","72","","26","","7","","24.1","","101.22","","","","-7","","Mainly Clear"
"1996-11-14 00:00","1996","11","14","00:00","-4.6","","-8.4","","75","","26","","7","","25.0","","101.19","","","","-8","","Mainly Clear"
"1996-11-14 01:00","1996","11","14","01:00","-4.9","","-7.4","","83","","26","","7","","25.0","","101.15","","","","-8","","Clear"
"1996-11-14 02:00","1996","11","14","02:00","-5.6","","-7.6","","86","","27","","11","","24.1","","101.15","","","","-10","","Clear"
"1996-11-14 03:00","1996","11","14","03:00","-5.0","","-7.5","","83","","25","","4","","24.1","","101.15","","","","-7","","Clear"
"1996-11-14 04:00","1996","11","14","04:00","-6.0","","-7.7","","88","","","","0","","19.3","","101.12","","","","","","Mainly Clear"
"1996-11-14 05:00","1996","11","14","05:00","-5.4","","-7.4","","86","","","","0","","19.3","","101.15","","","","","","Mostly Cloudy"
"1996-11-14 06:00","1996","11","14","06:00","-5.9","","-7.6","","88","","24","","4","","16.1","","101.15","","","","-8","","Mainly Clear"
"1996-11-14 07:00","1996","11","14","07:00","-6.2","","-8.3","","85","","27","","7","","16.1","","101.15","","","","-10","","Mainly Clear"
"1996-11-14 08:00","1996","11","14","08:00","-5.3","","-7.2","","86","","29","","7","","19.3","","101.22","","","","-9","","Clear"
"1996-11-14 09:00","1996","11","14","09:00","-3.4","","-6.9","","77","","26","","11","","24.1","","101.22","","","","-8","","Clear"
"1996-11-14 10:00","1996","11","14","10:00","-2.0","","-5.7","","76","","28","","11","","32.2","","101.25","","","","-6","","Clear"
"1996-11-14 11:00","1996","11","14","11:00","-1.0","","-5.7","","70","","31","","11","","32.2","","101.29","","","","-5","","Mainly Clear"
"1996-11-14 12:00","1996","11","14","12:00","-1.4","","-5.6","","73","","33","","17","","32.2","","101.32","","","","-7","","Mostly Cloudy"
"1996-11-14 13:00","1996","11","14","13:00","0.0","","-7.7","","56","","36","","15","","32.2","","101.32","","","","-4","","Mainly Clear"
"1996-11-14 14:00","1996","11","14","14:00","0.6","","-6.1","","61","","36","","17","","32.2","","101.32","","","","","","Mostly Cloudy"
"1996-11-14 15:00","1996","11","14","15:00","-0.3","","-8.5","","54","","34","","17","","40.2","","101.39","","","","-5","","Mostly Cloudy"
"1996-11-14 16:00","1996","11","14","16:00","-0.8","","-7.1","","62","","34","","22","","40.2","","101.49","","","","-7","","Mainly Clear"
"1996-11-14 17:00","1996","11","14","17:00","-2.0","","-7.0","","69","","34","","20","","40.2","","101.62","","","","-8","","Clear"
"1996-11-14 18:00","1996","11","14","18:00","-2.9","","-7.6","","70","","34","","19","","25.0","","101.72","","","","-9","","Clear"
"1996-11-14 19:00","1996","11","14","19:00","-3.5","","-8.0","","71","","34","","15","","25.0","","101.79","","","","-9","","Clear"
"1996-11-14 20:00","1996","11","14","20:00","-4.4","","-8.5","","73","","35","","13","","25.0","","101.89","","","","-9","","Clear"
"1996-11-14 21:00","1996","11","14","21:00","-5.0","","-8.2","","78","","34","","11","","25.0","","101.92","","","","-10","","Clear"
"1996-11-14 22:00","1996","11","14","22:00","-5.4","","-8.0","","82","","34","","17","","25.0","","101.95","","","","-11","","Clear"
"1996-11-14 23:00","1996","11","14","23:00","-5.6","","-7.6","","86","","36","","11","","25.0","","102.02","","","","-10","","Clear"
"1996-11-15 00:00","1996","11","15","00:00","-6.4","","-7.5","","92","","1","","11","","25.0","","102.09","","","","-11","","Clear"
"1996-11-15 01:00","1996","11","15","01:00","-6.6","","-8.1","","89","","35","","7","","25.0","","102.12","","","","-10","","Clear"
"1996-11-15 02:00","1996","11","15","02:00","-7.2","","-8.8","","88","","35","","7","","25.0","","102.19","","","","-11","","Clear"
"1996-11-15 03:00","1996","11","15","03:00","-7.5","","-8.8","","90","","2","","7","","25.0","","102.19","","","","-11","","Clear"
"1996-11-15 04:00","1996","11","15","04:00","-7.6","","-9.2","","88","","2","","4","","25.0","","102.19","","","","-10","","Clear"
"1996-11-15 05:00","1996","11","15","05:00","-8.0","","-9.3","","90","","3","","7","","25.0","","102.22","","","","-12","","Clear"
"1996-11-15 06:00","1996","11","15","06:00","-8.1","","-9.5","","90","","5","","11","","25.0","","102.25","","","","-13","","Clear"
"1996-11-15 07:00","1996","11","15","07:00","-7.8","","-10.2","","83","","3","","11","","24.1","","102.32","","","","-13","","Clear"
"1996-11-15 08:00","1996","11","15","08:00","-7.4","","-10.1","","81","","2","","7","","24.1","","102.35","","","","-11","","Clear"
"1996-11-15 09:00","1996","11","15","09:00","-5.7","","-9.1","","77","","5","","11","","24.1","","102.39","","","","-10","","Mainly Clear"
"1996-11-15 10:00","1996","11","15","10:00","-4.0","","-7.6","","76","","7","","13","","32.2","","102.39","","","","-9","","Mainly Clear"
"1996-11-15 11:00","1996","11","15","11:00","-3.0","","-7.4","","72","","7","","11","","32.2","","102.39","","","","-7","","Mainly Clear"
"1996-11-15 12:00","1996","11","15","12:00","-2.1","","-6.2","","73","","11","","15","","32.2","","102.32","","","","-7","","Mostly Cloudy"
"1996-11-15 13:00","1996","11","15","13:00","-1.5","","-6.0","","71","","14","","15","","32.2","","102.25","","","","-6","","Mostly Cloudy"
"1996-11-15 14:00","1996","11","15","14:00","-1.5","","-6.0","","71","","13","","19","","32.2","","102.22","","","","-7","","Mostly Cloudy"
"1996-11-15 15:00","1996","11","15","15:00","-1.7","","-5.3","","76","","12","","19","","32.2","","102.12","","","","-7","","Mostly Cloudy"
"1996-11-15 16:00","1996","11","15","16:00","-1.8","","-7.1","","67","","10","","22","","32.2","","102.09","","","","-8","","Mostly Cloudy"
"1996-11-15 17:00","1996","11","15","17:00","-1.5","","-6.7","","68","","9","","17","","32.2","","102.05","","","","-7","","Mostly Cloudy"
"1996-11-15 18:00","1996","11","15","18:00","-0.9","","-5.9","","69","","12","","15","","25.0","","102.05","","","","-6","","Mostly Cloudy"
"1996-11-15 19:00","1996","11","15","19:00","-0.6","","-6.1","","66","","13","","15","","25.0","","101.99","","","","-5","","Mainly Clear"
"1996-11-15 20:00","1996","11","15","20:00","-0.8","","-5.1","","73","","13","","24","","25.0","","101.99","","","","-7","","Mostly Cloudy"
"1996-11-15 21:00","1996","11","15","21:00","-1.2","","-5.3","","74","","13","","19","","25.0","","101.95","","","","-7","","Clear"
"1996-11-15 22:00","1996","11","15","22:00","-1.0","","-4.7","","76","","13","","17","","25.0","","101.95","","","","-6","","Clear"
"1996-11-15 23:00","1996","11","15","23:00","-0.8","","-1.2","","97","","14","","20","","25.0","","101.85","","","","-6","","Clear"
"1996-11-16 00:00","1996","11","16","00:00","-1.0","","-3.8","","81","","15","","15","","25.0","","101.85","","","","-6","","Clear"
"1996-11-16 01:00","1996","11","16","01:00","-1.6","","-4.3","","82","","15","","7","","25.0","","101.79","","","","-4","","Clear"
"1996-11-16 02:00","1996","11","16","02:00","-1.5","","-3.0","","89","","15","","7","","24.1","","101.75","","","","-4","","Clear"
"1996-11-16 03:00","1996","11","16","03:00","-0.5","","-3.5","","80","","16","","7","","24.1","","101.72","","","","-3","","Mainly Clear"
"1996-11-16 04:00","1996","11","16","04:00","-1.1","","-4.0","","81","","15","","7","","24.1","","101.69","","","","-4","","Mainly Clear"
"1996-11-16 05:00","1996","11","16","05:00","-1.2","","-3.8","","82","","14","","7","","24.1","","101.65","","","","-4","","Mainly Clear"
"1996-11-16 06:00","1996","11","16","06:00","-1.4","","-3.8","","84","","15","","7","","24.1","","101.62","","","","-4","","Clear"
"1996-11-16 07:00","1996","11","16","07:00","-1.2","","-3.5","","84","","14","","7","","24.1","","101.65","","","","-4","","Mainly Clear"
"1996-11-16 08:00","1996","11","16","08:00","-0.6","","-3.3","","82","","14","","6","","24.1","","101.69","","","","-3","","Mainly Clear"
"1996-11-16 09:00","1996","11","16","09:00","1.6","","-2.0","","77","","14","","9","","24.1","","101.65","","","","","","Clear"
"1996-11-16 10:00","1996","11","16","10:00","3.6","","-1.6","","69","","14","","11","","24.1","","101.65","","","","","","Clear"
"1996-11-16 11:00","1996","11","16","11:00","4.4","","-2.6","","60","","14","","11","","32.2","","101.62","","","","","","Clear"
"1996-11-16 12:00","1996","11","16","12:00","5.0","","-2.4","","59","","16","","15","","32.2","","101.55","","","","","","Mainly Clear"
"1996-11-16 13:00","1996","11","16","13:00","5.1","","-2.6","","57","","16","","11","","32.2","","101.49","","","","","","Mostly Cloudy"
"1996-11-16 14:00","1996","11","16","14:00","5.6","","-1.6","","60","","14","","17","","24.1","","101.45","","","","","","Mostly Cloudy"
"1996-11-16 15:00","1996","11","16","15:00","5.1","","-2.0","","60","","12","","17","","19.3","","101.42","","","","","","Mainly Clear"
"1996-11-16 16:00","1996","11","16","16:00","4.6","","-2.1","","62","","12","","17","","19.3","","101.39","","","","","","Mostly Cloudy"
"1996-11-16 17:00","1996","11","16","17:00","3.6","","-2.7","","63","","10","","19","","19.3","","101.35","","","","","","Mostly Cloudy"
"1996-11-16 18:00","1996","11","16","18:00","2.3","","-2.9","","68","","9","","9","","19.3","","101.39","","","","","","Mainly Clear"
"1996-11-16 19:00","1996","11","16","19:00","1.6","","-2.0","","77","","9","","9","","19.3","","101.42","","","","","","Mostly Cloudy"
"1996-11-16 20:00","1996","11","16","20:00","1.9","","-2.2","","74","","8","","11","","19.3","","101.39","","","","","","Mainly Clear"
"1996-11-16 21:00","1996","11","16","21:00","1.8","","-1.5","","79","","8","","7","","19.3","","101.35","","","","","","Mainly Clear"
"1996-11-16 22:00","1996","11","16","22:00","2.1","","-0.3","","84","","7","","9","","19.3","","101.32","","","","","","Mainly Clear"
"1996-11-16 23:00","1996","11","16","23:00","-1.0","","-2.7","","88","","36","","4","","19.3","","101.25","","","","-2","","Clear"
"1996-11-17 00:00","1996","11","17","00:00","-2.0","","-3.9","","87","","35","","6","","19.3","","101.25","","","","-4","","Clear"
"1996-11-17 01:00","1996","11","17","01:00","-2.0","","-3.9","","87","","34","","6","","19.3","","101.25","","","","-4","","Clear"
"1996-11-17 02:00","1996","11","17","02:00","-2.5","","-3.4","","94","","3","","4","","12.9","","101.15","","","","-4","","Mainly Clear"
"1996-11-17 03:00","1996","11","17","03:00","-2.5","","-3.6","","92","","30","","4","","12.9","","101.12","","","","-4","","Mostly Cloudy"
"1996-11-17 04:00","1996","11","17","04:00","-2.5","","-3.4","","94","","34","","4","","11.3","","101.12","","","","-4","","Mostly Cloudy"
"1996-11-17 05:00","1996","11","17","05:00","-1.0","","-1.6","","96","","","","0","","9.7","","101.05","","","","","","Fog"
"1996-11-17 06:00","1996","11","17","06:00","-3.0","","-3.7","","95","","","","0","","8.0","","101.02","","","","","","Fog"
"1996-11-17 07:00","1996","11","17","07:00","-2.2","","-2.8","","96","","32","","4","","6.4","","100.99","","","","-4","","Fog"
"1996-11-17 08:00","1996","11","17","08:00","-1.5","","-2.0","","96","","","","0","","4.8","","100.95","","","","","","Fog"
"1996-11-17 09:00","1996","11","17","09:00","0.4","","-0.1","","96","","","","0","","4.8","","100.92","","","","","","Fog"
"1996-11-17 10:00","1996","11","17","10:00","3.0","","1.9","","92","","","","0","","4.8","","100.92","","","","","","Fog"
"1996-11-17 11:00","1996","11","17","11:00","6.0","","3.4","","83","","14","","7","","9.7","","100.85","","","","","","Haze"
"1996-11-17 12:00","1996","11","17","12:00","6.8","","2.2","","72","","14","","11","","16.1","","100.75","","","","","","Mostly Cloudy"
"1996-11-17 13:00","1996","11","17","13:00","6.7","","1.4","","69","","13","","17","","19.3","","100.65","","","","","","Mostly Cloudy"
"1996-11-17 14:00","1996","11","17","14:00","7.0","","0.7","","64","","13","","15","","19.3","","100.52","","","","","","Cloudy"
"1996-11-17 15:00","1996","11","17","15:00","7.0","","-0.7","","58","","12","","17","","19.3","","100.42","","","","","","Cloudy"
"1996-11-17 16:00","1996","11","17","16:00","7.2","","-1.9","","52","","11","","15","","19.3","","100.39","","","","","","Cloudy"
"1996-11-17 17:00","1996","11","17","17:00","6.7","","-2.6","","51","","11","","6","","16.1","","100.35","","","","","","Cloudy"
"1996-11-17 18:00","1996","11","17","18:00","6.2","","-1.4","","58","","10","","11","","16.1","","100.29","","","","","","Cloudy"
"1996-11-17 19:00","1996","11","17","19:00","6.1","","0.6","","68","","11","","6","","16.1","","100.22","","","","","","Cloudy"
"1996-11-17 20:00","1996","11","17","20:00","5.4","","1.1","","74","","","","0","","16.1","","100.19","","","","","","Cloudy"
"1996-11-17 21:00","1996","11","17","21:00","6.2","","1.3","","71","","14","","9","","16.1","","100.15","","","","","","Cloudy"
"1996-11-17 22:00","1996","11","17","22:00","6.0","","3.7","","85","","14","","7","","11.3","","100.12","","","","","","Rain"
"1996-11-17 23:00","1996","11","17","23:00","5.6","","4.8","","95","","14","","7","","9.7","","100.05","","","","","","Rain,Fog"
"1996-11-18 00:00","1996","11","18","00:00","5.9","","5.1","","95","","15","","7","","6.4","","100.02","","","","","","Rain,Fog"
"1996-11-18 01:00","1996","11","18","01:00","6.5","","6.1","","97","","17","","4","","4.8","","100.02","","","","","","Fog"
"1996-11-18 02:00","1996","11","18","02:00","7.0","","6.6","","97","","18","","9","","4.0","","99.99","","","","","","Fog"
"1996-11-18 03:00","1996","11","18","03:00","7.4","","7.0","","97","","20","","9","","4.0","","99.95","","","","","","Fog"
"1996-11-18 04:00","1996","11","18","04:00","7.2","","6.8","","97","","22","","7","","2.4","","99.95","","","","","","Fog"
"1996-11-18 05:00","1996","11","18","05:00","6.5","","6.5","","100","","22","","13","","0.2","","99.99","","","","","","Fog"
"1996-11-18 06:00","1996","11","18","06:00","4.5","","4.5","","100","","27","","7","","6.4","","99.95","","","","","","Fog"
"1996-11-18 07:00","1996","11","18","07:00","1.8","","0.9","","94","","32","","17","","9.7","","99.99","","","","","","Fog"
"1996-11-18 08:00","1996","11","18","08:00","1.7","","0.5","","92","","31","","11","","16.1","","99.99","","","","","","Mostly Cloudy"
"1996-11-18 09:00","1996","11","18","09:00","2.2","","0.5","","89","","30","","11","","16.1","","99.95","","","","","","Mostly Cloudy"
"1996-11-18 10:00","1996","11","18","10:00","3.1","","0.3","","82","","30","","11","","19.3","","99.95","","","","","","Cloudy"
"1996-11-18 11:00","1996","11","18","11:00","4.1","","0.4","","77","","31","","9","","19.3","","99.92","","","","","","Mostly Cloudy"
"1996-11-18 12:00","1996","11","18","12:00","4.1","","0.4","","77","","31","","9","","19.3","","99.79","","","","","","Mostly Cloudy"
"1996-11-18 13:00","1996","11","18","13:00","4.7","","0.5","","74","","29","","4","","19.3","","99.69","","","","","","Mostly Cloudy"
"1996-11-18 14:00","1996","11","18","14:00","5.3","","0.7","","72","","24","","7","","16.1","","99.65","","","","","","Cloudy"
"1996-11-18 15:00","1996","11","18","15:00","5.1","","0.5","","72","","","","0","","14.5","","99.59","","","","","","Cloudy"
"1996-11-18 16:00","1996","11","18","16:00","5.2","","1.4","","76","","","","0","","12.9","","99.55","","","","","","Cloudy"
"1996-11-18 17:00","1996","11","18","17:00","4.5","","1.3","","80","","24","","6","","9.7","","99.52","","","","","","Haze"
"1996-11-18 18:00","1996","11","18","18:00","4.0","","1.0","","81","","","","0","","11.3","","99.52","","","","","","Cloudy"
"1996-11-18 19:00","1996","11","18","19:00","3.7","","0.9","","82","","27","","4","","12.9","","99.42","","","","","","Cloudy"
"1996-11-18 20:00","1996","11","18","20:00","3.1","","0.5","","83","","29","","9","","14.5","","99.39","","","","","","Cloudy"
"1996-11-18 21:00","1996","11","18","21:00","3.0","","0.4","","83","","31","","15","","14.5","","99.42","","","","","","Cloudy"
"1996-11-18 22:00","1996","11","18","22:00","2.7","","0.1","","83","","34","","9","","12.9","","99.39","","","","","","Cloudy"
"1996-11-18 23:00","1996","11","18","23:00","2.0","","-0.4","","84","","32","","9","","16.1","","99.35","","","","","","Cloudy"
"1996-11-19 00:00","1996","11","19","00:00","2.0","","-0.7","","82","","32","","11","","12.9","","99.39","","","","","","Cloudy"
"1996-11-19 01:00","1996","11","19","01:00","1.6","","-1.4","","80","","30","","6","","16.1","","99.32","","","","","","Cloudy"
"1996-11-19 02:00","1996","11","19","02:00","1.3","","-1.5","","82","","33","","4","","16.1","","99.29","","","","","","Cloudy"
"1996-11-19 03:00","1996","11","19","03:00","1.1","","-1.7","","82","","","","0","","12.9","","99.29","","","","","","Cloudy"
"1996-11-19 04:00","1996","11","19","04:00","1.4","","-1.4","","82","","26","","7","","16.1","","99.29","","","","","","Cloudy"
"1996-11-19 05:00","1996","11","19","05:00","1.4","","-1.1","","83","","25","","9","","12.9","","99.26","","","","","","Cloudy"
"1996-11-19 06:00","1996","11","19","06:00","1.0","","-1.5","","83","","27","","7","","12.9","","99.26","","","","","","Cloudy"
"1996-11-19 07:00","1996","11","19","07:00","1.4","","-0.8","","85","","27","","11","","12.9","","99.26","","","","","","Mostly Cloudy"
"1996-11-19 08:00","1996","11","19","08:00","1.2","","-0.8","","86","","27","","11","","12.9","","99.26","","","","","","Mostly Cloudy"
"1996-11-19 09:00","1996","11","19","09:00","2.5","","-0.7","","79","","27","","15","","16.1","","99.22","","","","","","Mostly Cloudy"
"1996-11-19 10:00","1996","11","19","10:00","3.0","","-1.2","","74","","27","","15","","19.3","","99.22","","","","","","Mostly Cloudy"
"1996-11-19 11:00","1996","11","19","11:00","3.7","","-1.5","","69","","28","","15","","19.3","","99.22","","","","","","Mostly Cloudy"
"1996-11-19 12:00","1996","11","19","12:00","4.2","","-1.1","","68","","29","","22","","24.1","","99.12","","","","","","Mostly Cloudy"
"1996-11-19 13:00","1996","11","19","13:00","3.4","","-2.7","","64","","28","","30","","32.2","","99.09","","","","","","Mostly Cloudy"
"1996-11-19 14:00","1996","11","19","14:00","3.5","","-3.2","","61","","28","","20","","32.2","","99.09","","","","","","Mostly Cloudy"
"1996-11-19 15:00","1996","11","19","15:00","4.1","","-3.6","","57","","28","","19","","19.3","","99.09","","","","","","Mostly Cloudy"
"1996-11-19 16:00","1996","11","19","16:00","3.1","","-2.5","","67","","29","","28","","19.3","","99.09","","","","","","Mostly Cloudy"
"1996-11-19 17:00","1996","11","19","17:00","2.1","","-1.9","","75","","27","","15","","16.1","","99.16","","","","","","Mostly Cloudy"
"1996-11-19 18:00","1996","11","19","18:00","0.9","","-1.1","","86","","33","","22","","12.9","","99.19","","","","","","Snow Showers"
"1996-11-19 19:00","1996","11","19","19:00","0.4","","-0.8","","92","","33","","17","","14.5","","99.19","","","","","","Snow Showers"
"1996-11-19 20:00","1996","11","19","20:00","0.0","","-0.2","","99","","32","","13","","8.0","","99.19","","","","-4","","Snow Showers"
"1996-11-19 21:00","1996","11","19","21:00","0.1","","-0.4","","96","","29","","7","","14.5","","99.19","","","","","","Cloudy"
"1996-11-19 22:00","1996","11","19","22:00","0.2","","-1.8","","86","","31","","7","","16.1","","99.16","","","","","","Cloudy"
"1996-11-19 23:00","1996","11","19","23:00","-0.3","","-1.9","","89","","29","","6","","19.3","","99.12","","","","-2","","Cloudy"
"1996-11-20 00:00","1996","11","20","00:00","-0.4","","-2.8","","84","","30","","11","","24.1","","99.12","","","","-4","","Mostly Cloudy"
"1996-11-20 01:00","1996","11","20","01:00","-1.0","","-3.8","","81","","30","","11","","24.1","","99.09","","","","-5","","Mainly Clear"
"1996-11-20 02:00","1996","11","20","02:00","-2.0","","-4.5","","83","","31","","13","","24.1","","99.09","","","","-6","","Mainly Clear"
"1996-11-20 03:00","1996","11","20","03:00","-2.5","","-4.5","","86","","29","","11","","24.1","","99.12","","","","-7","","Mostly Cloudy"
"1996-11-20 04:00","1996","11","20","04:00","-2.5","","-4.2","","88","","30","","13","","24.1","","99.12","","","","-7","","Mostly Cloudy"
"1996-11-20 05:00","1996","11","20","05:00","-2.2","","-4.7","","83","","29","","11","","25.0","","99.12","","","","-6","","Mainly Clear"
"1996-11-20 06:00","1996","11","20","06:00","-3.3","","-5.2","","87","","30","","11","","25.0","","99.19","","","","-8","","Mainly Clear"
"1996-11-20 07:00","1996","11","20","07:00","-3.5","","-5.4","","87","","29","","15","","25.0","","99.22","","","","-9","","Clear"
"1996-11-20 08:00","1996","11","20","08:00","-2.5","","-4.5","","86","","31","","15","","32.2","","99.26","","","","-7","","Clear"
"1996-11-20 09:00","1996","11","20","09:00","-1.1","","-4.0","","81","","31","","19","","32.2","","99.29","","","","-6","","Clear"
"1996-11-20 10:00","1996","11","20","10:00","-0.1","","-3.9","","76","","30","","17","","40.2","","99.29","","","","-5","","Clear"
"1996-11-20 11:00","1996","11","20","11:00","0.4","","-4.7","","69","","33","","24","","40.2","","99.29","","","","","","Mostly Cloudy"
"1996-11-20 12:00","1996","11","20","12:00","1.6","","-5.3","","60","","33","","22","","40.2","","99.26","","","","","","Mostly Cloudy"
"1996-11-20 13:00","1996","11","20","13:00","1.8","","-6.1","","56","","32","","20","","40.2","","99.22","","","","","","Mainly Clear"
"1996-11-20 14:00","1996","11","20","14:00","1.5","","-6.1","","57","","33","","20","","40.2","","99.22","","","","","","Mainly Clear"
"1996-11-20 15:00","1996","11","20","15:00","1.1","","-5.9","","60","","32","","17","","40.2","","99.26","","","","","","Mostly Cloudy"
"1996-11-20 16:00","1996","11","20","16:00","0.7","","-5.8","","62","","31","","20","","40.2","","99.32","","","","","","Mostly Cloudy"
"1996-11-20 17:00","1996","11","20","17:00","0.0","","-6.4","","62","","32","","19","","40.2","","99.35","","","","-5","","Mostly Cloudy"
"1996-11-20 18:00","1996","11","20","18:00","-0.1","","-5.7","","66","","30","","15","","25.0","","99.35","","","","-5","","Mostly Cloudy"
"1996-11-20 19:00","1996","11","20","19:00","-0.7","","-5.1","","72","","30","","17","","25.0","","99.42","","","","-6","","Cloudy"
"1996-11-20 20:00","1996","11","20","20:00","-0.9","","-5.7","","70","","31","","19","","25.0","","99.42","","","","-6","","Cloudy"
"1996-11-20 21:00","1996","11","20","21:00","-0.9","","-6.1","","68","","30","","15","","25.0","","99.39","","","","-6","","Cloudy"
"1996-11-20 22:00","1996","11","20","22:00","-0.9","","-7.1","","63","","29","","26","","25.0","","99.39","","","","-7","","Cloudy"
"1996-11-20 23:00","1996","11","20","23:00","-1.1","","-7.4","","62","","29","","22","","25.0","","99.39","","","","-7","","Cloudy"
"1996-11-21 00:00","1996","11","21","00:00","-1.1","","-6.6","","66","","29","","24","","25.0","","99.39","","","","-7","","Cloudy"
"1996-11-21 01:00","1996","11","21","01:00","-1.2","","-6.8","","66","","28","","19","","25.0","","99.32","","","","-7","","Cloudy"
"1996-11-21 02:00","1996","11","21","02:00","-1.2","","-6.5","","67","","28","","22","","25.0","","99.32","","","","-7","","Cloudy"
"1996-11-21 03:00","1996","11","21","03:00","-1.3","","-6.4","","68","","28","","22","","25.0","","99.35","","","","-7","","Cloudy"
"1996-11-21 04:00","1996","11","21","04:00","-1.5","","-6.4","","69","","28","","26","","25.0","","99.32","","","","-8","","Cloudy"
"1996-11-21 05:00","1996","11","21","05:00","-1.6","","-6.1","","71","","27","","22","","25.0","","99.32","","","","-8","","Cloudy"
"1996-11-21 06:00","1996","11","21","06:00","-1.6","","-6.5","","69","","28","","22","","25.0","","99.32","","","","-8","","Cloudy"
"1996-11-21 07:00","1996","11","21","07:00","-1.4","","-6.2","","70","","29","","19","","25.0","","99.32","","","","-7","","Mostly Cloudy"
"1996-11-21 08:00","1996","11","21","08:00","-0.9","","-5.7","","70","","30","","17","","40.2","","99.32","","","","-6","","Mostly Cloudy"
"1996-11-21 09:00","1996","11","21","09:00","-0.4","","-5.1","","71","","31","","19","","40.2","","99.35","","","","-6","","Mostly Cloudy"
"1996-11-21 10:00","1996","11","21","10:00","0.1","","-4.7","","70","","32","","19","","40.2","","99.32","","","","","","Mostly Cloudy"
"1996-11-21 11:00","1996","11","21","11:00","0.6","","-4.1","","71","","32","","20","","40.2","","99.29","","","","","","Mostly Cloudy"
"1996-11-21 12:00","1996","11","21","12:00","1.6","","-3.6","","68","","32","","22","","40.2","","99.22","","","","","","Mostly Cloudy"
"1996-11-21 13:00","1996","11","21","13:00","2.0","","-3.5","","67","","34","","28","","40.2","","99.19","","","","","","Mostly Cloudy"
"1996-11-21 14:00","1996","11","21","14:00","2.3","","-3.0","","68","","35","","20","","40.2","","99.19","","","","","","Mostly Cloudy"
"1996-11-21 15:00","1996","11","21","15:00","1.6","","-2.8","","73","","34","","24","","40.2","","99.22","","","","","","Mostly Cloudy"
"1996-11-21 16:00","1996","11","21","16:00","1.1","","-2.8","","75","","33","","22","","40.2","","99.29","","","","","","Mostly Cloudy"
"1996-11-21 17:00","1996","11","21","17:00","1.0","","-2.7","","76","","32","","17","","24.1","","99.29","","","","","","Cloudy"
"1996-11-21 18:00","1996","11","21","18:00","1.2","","-2.7","","75","","32","","17","","24.1","","99.35","","","","","","Cloudy"
"1996-11-21 19:00","1996","11","21","19:00","1.1","","-2.6","","76","","32","","17","","24.1","","99.39","","","","","","Cloudy"
"1996-11-21 20:00","1996","11","21","20:00","1.0","","-2.6","","77","","31","","20","","24.1","","99.42","","","","","","Cloudy"
"1996-11-21 21:00","1996","11","21","21:00","1.0","","-2.5","","77","","31","","17","","24.1","","99.42","","","","","","Cloudy"
"1996-11-21 22:00","1996","11","21","22:00","1.2","","-2.3","","77","","30","","19","","24.1","","99.45","","","","","","Cloudy"
"1996-11-21 23:00","1996","11","21","23:00","1.4","","-2.3","","76","","32","","19","","24.1","","99.45","","","","","","Cloudy"
"1996-11-22 00:00","1996","11","22","00:00","1.2","","-1.9","","80","","34","","19","","24.1","","99.52","","","","","","Cloudy"
"1996-11-22 01:00","1996","11","22","01:00","0.8","","-1.5","","85","","32","","22","","24.1","","99.52","","","","","","Cloudy"
"1996-11-22 02:00","1996","11","22","02:00","0.7","","-3.0","","76","","34","","26","","24.1","","99.55","","","","","","Cloudy"
"1996-11-22 03:00","1996","11","22","03:00","0.4","","-3.4","","76","","32","","19","","24.1","","99.65","","","","","","Cloudy"
"1996-11-22 04:00","1996","11","22","04:00","0.3","","-2.8","","80","","32","","9","","24.1","","99.69","","","","","","Cloudy"
"1996-11-22 05:00","1996","11","22","05:00","0.4","","-1.5","","87","","33","","9","","24.1","","99.72","","","","","","Snow Showers"
"1996-11-22 06:00","1996","11","22","06:00","0.6","","-0.7","","91","","1","","9","","24.1","","99.75","","","","","","Snow"
"1996-11-22 07:00","1996","11","22","07:00","0.2","","-1.1","","91","","34","","15","","24.1","","99.82","","","","","","Snow"
"1996-11-22 08:00","1996","11","22","08:00","0.2","","-0.5","","95","","33","","7","","12.9","","99.89","","","","","","Snow Showers"
"1996-11-22 09:00","1996","11","22","09:00","0.8","","0.0","","94","","31","","7","","16.1","","99.99","","","","","","Snow Grains"
"1996-11-22 10:00","1996","11","22","10:00","1.9","","-1.2","","80","","33","","11","","24.1","","100.02","","","","","","Mostly Cloudy"
"1996-11-22 11:00","1996","11","22","11:00","2.6","","-1.8","","73","","33","","19","","24.1","","100.05","","","","","","Mostly Cloudy"
"1996-11-22 12:00","1996","11","22","12:00","2.5","","-3.3","","66","","32","","22","","32.2","","100.09","","","","","","Mostly Cloudy"
"1996-11-22 13:00","1996","11","22","13:00","3.5","","-3.9","","58","","30","","28","","32.2","","100.05","","","","","","Mostly Cloudy"
"1996-11-22 14:00","1996","11","22","14:00","3.1","","-4.7","","57","","32","","24","","32.2","","100.02","","","","","","Mainly Clear"
"1996-11-22 15:00","1996","11","22","15:00","2.6","","-5.5","","55","","34","","28","","32.2","","100.05","","","","","","Clear"
"1996-11-22 16:00","1996","11","22","16:00","1.9","","-5.0","","60","","32","","17","","40.2","","100.12","","","","","","Clear"
"1996-11-22 17:00","1996","11","22","17:00","0.0","","-5.6","","66","","33","","9","","32.2","","100.12","","","","-3","","Clear"
"1996-11-22 18:00","1996","11","22","18:00","-0.3","","-5.4","","68","","30","","4","","25.0","","100.22","","","","-2","","Clear"
"1996-11-22 19:00","1996","11","22","19:00","-1.9","","-5.6","","76","","31","","11","","25.0","","100.19","","","","-6","","Clear"
"1996-11-22 20:00","1996","11","22","20:00","-1.1","","-5.1","","74","","29","","6","","25.0","","100.19","","","","-3","","Mainly Clear"
"1996-11-22 21:00","1996","11","22","21:00","-1.0","","-5.1","","74","","22","","4","","25.0","","100.15","","","","-2","","Mostly Cloudy"
"1996-11-22 22:00","1996","11","22","22:00","-1.4","","-4.9","","77","","18","","6","","25.0","","100.15","","","","-4","","Mostly Cloudy"
"1996-11-22 23:00","1996","11","22","23:00","-1.8","","-4.5","","82","","19","","6","","24.1","","100.12","","","","-4","","Mostly Cloudy"
"1996-11-23 00:00","1996","11","23","00:00","-1.7","","-4.0","","84","","20","","7","","24.1","","100.05","","","","-4","","Cloudy"
"1996-11-23 01:00","1996","11","23","01:00","-1.4","","-3.6","","85","","20","","6","","24.1","","100.05","","","","-4","","Cloudy"
"1996-11-23 02:00","1996","11","23","02:00","-1.0","","-3.3","","84","","23","","7","","24.1","","100.02","","","","-4","","Cloudy"
"1996-11-23 03:00","1996","11","23","03:00","-0.1","","-3.3","","79","","26","","7","","24.1","","99.99","","","","-3","","Cloudy"
"1996-11-23 04:00","1996","11","23","04:00","0.7","","-3.8","","72","","25","","19","","24.1","","99.89","","","","","","Cloudy"
"1996-11-23 05:00","1996","11","23","05:00"
"1996-11-23 06:00","1996","11","23","06:00","1.2","","-3.5","","71","","21","","17","","24.1","","99.79","","","","","","Cloudy"
"1996-11-23 07:00","1996","11","23","07:00","1.2","","-3.6","","70","","24","","17","","19.3","","99.79","","","","","","Cloudy"
"1996-11-23 08:00","1996","11","23","08:00","1.3","","-3.5","","70","","24","","19","","16.1","","99.75","","","","","","Cloudy"
"1996-11-23 09:00","1996","11","23","09:00","0.8","","-1.4","","85","","23","","15","","12.9","","99.72","","","","","","Cloudy"
"1996-11-23 10:00","1996","11","23","10:00","1.5","","-1.1","","83","","23","","17","","14.5","","99.65","","","","","","Cloudy"
"1996-11-23 11:00","1996","11","23","11:00","1.4","","-0.1","","90","","24","","19","","6.4","","99.55","","","","","","Ice Pellet Showers,Fog"
"1996-11-23 12:00","1996","11","23","12:00","1.6","","0.3","","91","","24","","26","","4.8","","99.45","","","","","","Ice Pellet Showers,Snow Showers"
"1996-11-23 13:00","1996","11","23","13:00","1.5","","0.4","","92","","24","","19","","6.4","","99.39","","","","","","Rain Showers,Ice Pellet Showers,Fog"
"1996-11-23 14:00","1996","11","23","14:00","2.1","","0.0","","86","","26","","17","","12.9","","99.32","","","","","","Cloudy"
"1996-11-23 15:00","1996","11","23","15:00","2.2","","-0.3","","84","","27","","17","","16.1","","99.39","","","","","","Cloudy"
"1996-11-23 16:00","1996","11","23","16:00","2.1","","-1.0","","80","","25","","11","","16.1","","99.39","","","","","","Cloudy"
"1996-11-23 17:00","1996","11","23","17:00","1.5","","-2.1","","77","","25","","17","","11.3","","99.42","","","","","","Cloudy"
"1996-11-23 18:00","1996","11","23","18:00","1.2","","-1.7","","81","","27","","19","","9.7","","99.55","","","","","","Snow,Haze"
"1996-11-23 19:00","1996","11","23","19:00","1.1","","-1.0","","86","","33","","20","","9.7","","99.69","","","","","","Snow,Haze"
"1996-11-23 20:00","1996","11","23","20:00","0.1","","-2.9","","80","","35","","19","","25.0","","99.79","","","","","","Mostly Cloudy"
"1996-11-23 21:00","1996","11","23","21:00","-0.5","","-4.4","","75","","35","","28","","25.0","","99.89","","","","-7","","Mostly Cloudy"
"1996-11-23 22:00","1996","11","23","22:00","-2.2","","-7.9","","65","","36","","22","","25.0","","99.99","","","","-8","","Clear"
"1996-11-23 23:00","1996","11","23","23:00","-3.8","","-8.2","","71","","35","","17","","25.0","","100.09","","","","-10","","Clear"
"1996-11-24 00:00","1996","11","24","00:00","-4.9","","-11.0","","62","","2","","19","","25.0","","100.22","","","","-11","","Clear"
"1996-11-24 01:00","1996","11","24","01:00","-5.7","","-10.5","","69","","1","","17","","25.0","","100.22","","","","-12","","Mainly Clear"
"1996-11-24 02:00","1996","11","24","02:00","-6.6","","-9.7","","79","","35","","13","","25.0","","100.32","","","","-12","","Clear"
"1996-11-24 03:00","1996","11","24","03:00","-7.1","","-10.4","","77","","1","","13","","25.0","","100.35","","","","-13","","Mainly Clear"
"1996-11-24 04:00","1996","11","24","04:00","-7.0","","-12.7","","64","","2","","17","","25.0","","100.35","","","","-13","","Mostly Cloudy"
"1996-11-24 05:00","1996","11","24","05:00","-7.7","","-13.1","","65","","2","","13","","25.0","","100.39","","","","-13","","Mostly Cloudy"
"1996-11-24 06:00","1996","11","24","06:00","-8.0","","-14.2","","61","","6","","13","","25.0","","100.42","","","","-14","","Mostly Cloudy"
"1996-11-24 07:00","1996","11","24","07:00","-8.1","","-13.6","","65","","4","","17","","25.0","","100.42","","","","-15","","Mostly Cloudy"
"1996-11-24 08:00","1996","11","24","08:00","-8.2","","-13.1","","68","","5","","13","","32.2","","100.42","","","","-14","","Cloudy"
"1996-11-24 09:00","1996","11","24","09:00","-7.4","","-11.6","","72","","5","","13","","40.2","","100.45","","","","-13","","Cloudy"
"1996-11-24 10:00","1996","11","24","10:00","-6.5","","-10.6","","73","","3","","15","","32.2","","100.42","","","","-12","","Cloudy"
"1996-11-24 11:00","1996","11","24","11:00","-6.0","","-10.3","","72","","2","","11","","32.2","","100.52","","","","-11","","Cloudy"
"1996-11-24 12:00","1996","11","24","12:00","-5.0","","-9.0","","73","","6","","9","","32.2","","100.35","","","","-9","","Cloudy"
"1996-11-24 13:00","1996","11","24","13:00","-4.3","","-8.2","","74","","5","","11","","32.2","","100.25","","","","-9","","Cloudy"
"1996-11-24 14:00","1996","11","24","14:00","-3.9","","-7.6","","75","","4","","11","","24.1","","100.25","","","","-8","","Cloudy"
"1996-11-24 15:00","1996","11","24","15:00","-3.9","","-6.6","","81","","5","","11","","3.2","","100.25","","","","-8","","Snow,Snow Grains"
"1996-11-24 16:00","1996","11","24","16:00","-4.3","","-6.4","","85","","2","","13","","3.2","","100.22","","","","-9","","Snow,Snow Grains"
"1996-11-24 17:00","1996","11","24","17:00","-4.2","","-6.7","","83","","2","","13","","8.0","","100.22","","","","-9","","Snow"
"1996-11-24 18:00","1996","11","24","18:00","-3.9","","-7.2","","78","","2","","7","","11.3","","100.25","","","","-7","","Snow"
"1996-11-24 19:00","1996","11","24","19:00"
"1996-11-24 20:00","1996","11","24","20:00"
"1996-11-24 21:00","1996","11","24","21:00","-4.7","","-6.9","","85","","5","","9","","8.0","","100.19","","","","-9","","Snow"
"1996-11-24 22:00","1996","11","24","22:00","-5.1","","-7.0","","86","","7","","11","","3.2","","100.22","","","","-10","","Snow"
"1996-11-24 23:00","1996","11","24","23:00","-5.4","","-6.8","","90","","1","","15","","6.4","","100.15","","","","-11","","Snow"
"1996-11-25 00:00","1996","11","25","00:00","-5.2","","-8.1","","80","","2","","13","","19.3","","100.12","","","","-10","","Cloudy"
"1996-11-25 01:00","1996","11","25","01:00","-5.1","","-9.6","","71","","35","","15","","12.9","","100.09","","","","-11","","Snow"
"1996-11-25 02:00","1996","11","25","02:00","-5.1","","-7.6","","83","","36","","17","","4.8","","100.09","","","","-11","","Snow"
"1996-11-25 03:00","1996","11","25","03:00","-4.9","","-6.4","","89","","35","","15","","4.8","","100.12","","","","-10","","Snow"
"1996-11-25 04:00","1996","11","25","04:00","-4.9","","-6.7","","87","","35","","13","","16.1","","100.12","","","","-10","","Cloudy"
"1996-11-25 05:00","1996","11","25","05:00","-4.7","","-7.2","","83","","34","","13","","8.0","","100.12","","","","-10","","Snow"
"1996-11-25 06:00","1996","11","25","06:00","-4.6","","-6.5","","87","","35","","11","","12.9","","100.15","","","","-9","","Cloudy"
"1996-11-25 07:00","1996","11","25","07:00","-4.4","","-6.5","","85","","34","","7","","16.1","","100.15","","","","-8","","Mostly Cloudy"
"1996-11-25 08:00","1996","11","25","08:00","-5.0","","-6.9","","86","","34","","13","","19.3","","100.19","","","","-10","","Mostly Cloudy"
"1996-11-25 09:00","1996","11","25","09:00","-3.9","","-6.5","","82","","34","","7","","24.1","","100.22","","","","-7","","Mostly Cloudy"
"1996-11-25 10:00","1996","11","25","10:00","-3.4","","-6.6","","78","","36","","6","","16.1","","100.25","","","","-6","","Mainly Clear"
"1996-11-25 11:00","1996","11","25","11:00","-2.0","","-6.1","","73","","1","","13","","19.3","","100.19","","","","-6","","Mostly Cloudy"
"1996-11-25 12:00","1996","11","25","12:00","-0.7","","-6.9","","63","","5","","4","","24.1","","100.12","","","","-2","","Mostly Cloudy"
"1996-11-25 13:00","1996","11","25","13:00","0.1","","-7.7","","56","","4","","6","","24.1","","100.05","","","","","","Mostly Cloudy"
"1996-11-25 14:00","1996","11","25","14:00","0.2","","-8.6","","52","","5","","4","","24.1","","99.99","","","","","","Cloudy"
"1996-11-25 15:00","1996","11","25","15:00","-0.3","","-6.4","","63","","15","","11","","24.1","","99.99","","","","-4","","Cloudy"
"1996-11-25 16:00","1996","11","25","16:00","-0.6","","-7.0","","62","","14","","9","","24.1","","99.92","","","","-4","","Cloudy"
"1996-11-25 17:00","1996","11","25","17:00","-0.8","","-7.0","","63","","14","","7","","24.1","","99.95","","","","-3","","Cloudy"
"1996-11-25 18:00","1996","11","25","18:00","-1.1","","-7.4","","62","","8","","9","","24.1","","99.89","","","","-4","","Cloudy"
"1996-11-25 19:00","1996","11","25","19:00","-1.0","","-8.3","","58","","4","","9","","19.3","","99.82","","","","-4","","Cloudy"
"1996-11-25 20:00","1996","11","25","20:00","-0.9","","-8.3","","57","","4","","11","","19.3","","99.79","","","","-5","","Cloudy"
"1996-11-25 21:00","1996","11","25","21:00","-0.9","","-7.0","","63","","3","","11","","19.3","","99.72","","","","-5","","Cloudy"
"1996-11-25 22:00","1996","11","25","22:00","-1.0","","-7.4","","62","","5","","19","","16.1","","99.52","","","","-6","","Snow"
"1996-11-25 23:00","1996","11","25","23:00","-2.9","","-5.4","","83","","4","","15","","2.4","","99.55","","","","-8","","Snow"
"1996-11-26 00:00","1996","11","26","00:00","-3.5","","-4.5","","93","","3","","11","","2.0","","99.55","","","","-8","","Snow"
"1996-11-26 01:00","1996","11","26","01:00","-3.2","","-4.7","","89","","2","","15","","4.8","","99.45","","","","-8","","Snow"
"1996-11-26 02:00","1996","11","26","02:00","-3.0","","-5.0","","86","","36","","17","","16.1","","99.39","","","","-9","","Snow"
"1996-11-26 03:00","1996","11","26","03:00","-3.2","","-5.5","","84","","2","","20","","16.1","","99.32","","","","-9","","Cloudy"
"1996-11-26 04:00","1996","11","26","04:00","-3.3","","-5.6","","84","","36","","15","","16.1","","99.32","","","","-8","","Snow"
"1996-11-26 05:00","1996","11","26","05:00","-3.6","","-5.3","","88","","33","","13","","4.8","","99.35","","","","-8","","Snow"
"1996-11-26 06:00","1996","11","26","06:00","-3.6","","-5.1","","89","","35","","17","","8.0","","99.39","","","","-9","","Snow"
"1996-11-26 07:00","1996","11","26","07:00","-3.4","","-5.7","","84","","34","","19","","19.3","","99.39","","","","-9","","Mostly Cloudy"
"1996-11-26 08:00","1996","11","26","08:00","-3.2","","-5.8","","82","","33","","19","","32.2","","99.42","","","","-9","","Mostly Cloudy"
"1996-11-26 09:00","1996","11","26","09:00","-2.8","","-5.5","","82","","32","","15","","32.2","","99.49","","","","-8","","Mostly Cloudy"
"1996-11-26 10:00","1996","11","26","10:00","-1.6","","-5.0","","78","","32","","11","","24.1","","99.52","","","","-5","","Mostly Cloudy"
"1996-11-26 11:00","1996","11","26","11:00","-0.9","","-4.8","","75","","31","","15","","24.1","","99.59","","","","-6","","Snow Showers"
"1996-11-26 12:00","1996","11","26","12:00","0.1","","-3.2","","78","","30","","11","","24.1","","99.59","","","","","","Snow Showers"
"1996-11-26 13:00","1996","11","26","13:00","0.5","","-4.1","","71","","31","","20","","24.1","","99.59","","","","","","Cloudy"
"1996-11-26 14:00","1996","11","26","14:00","-0.6","","-3.2","","83","","33","","37","","9.7","","99.65","","","","-8","","Snow Showers"
"1996-11-26 15:00","1996","11","26","15:00","-0.4","","-4.7","","73","","34","","32","","32.2","","99.75","","","","-7","","Mostly Cloudy"
"1996-11-26 16:00","1996","11","26","16:00","-1.1","","-6.5","","67","","33","","33","","32.2","","99.89","","","","-8","","Cloudy"
"1996-11-26 17:00","1996","11","26","17:00","-2.0","","-6.6","","71","","32","","41","","32.2","","99.99","","","","-10","","Cloudy"
"1996-11-26 18:00","1996","11","26","18:00","-2.8","","-5.3","","83","","33","","33","","16.1","","100.05","","","","-10","","Snow Showers"
"1996-11-26 19:00","1996","11","26","19:00","-3.1","","-5.0","","87","","35","","26","","3.2","","100.15","","","","-10","","Snow Showers"
"1996-11-26 20:00","1996","11","26","20:00","-3.7","","-6.6","","80","","34","","30","","19.3","","100.25","","","","-11","","Mostly Cloudy"
"1996-11-26 21:00","1996","11","26","21:00","-4.9","","-7.8","","80","","35","","26","","24.1","","100.32","","","","-12","","Mainly Clear"
"1996-11-26 22:00","1996","11","26","22:00","-6.0","","-8.9","","80","","34","","26","","25.0","","100.42","","","","-14","","Clear"
"1996-11-26 23:00","1996","11","26","23:00","-7.2","","-10.7","","76","","34","","22","","24.1","","100.52","","","","-15","","Mainly Clear"
"1996-11-27 00:00","1996","11","27","00:00","-7.8","","-10.8","","79","","34","","22","","24.1","","100.59","","","","-15","","Clear"
"1996-11-27 01:00","1996","11","27","01:00","-8.1","","-11.3","","78","","34","","19","","24.1","","100.69","","","","-15","","Clear"
"1996-11-27 02:00","1996","11","27","02:00","-8.9","","-11.6","","81","","34","","15","","24.1","","100.79","","","","-15","","Clear"
"1996-11-27 03:00","1996","11","27","03:00","-9.0","","-11.2","","84","","34","","15","","24.1","","100.89","","","","-16","","Clear"
"1996-11-27 04:00","1996","11","27","04:00","-9.4","","-11.5","","85","","33","","15","","24.1","","100.95","","","","-16","","Mostly Cloudy"
"1996-11-27 05:00","1996","11","27","05:00","-7.9","","-10.6","","81","","34","","19","","24.1","","101.02","","","","-15","","Cloudy"
"1996-11-27 06:00","1996","11","27","06:00","-7.9","","-10.6","","81","","34","","15","","24.1","","101.09","","","","-14","","Mostly Cloudy"
"1996-11-27 07:00","1996","11","27","07:00","-8.4","","-10.7","","83","","32","","13","","25.0","","101.19","","","","-14","","Mostly Cloudy"
"1996-11-27 08:00","1996","11","27","08:00","-8.3","","-10.7","","83","","32","","13","","40.2","","101.22","","","","-14","","Mainly Clear"
"1996-11-27 09:00","1996","11","27","09:00","-6.6","","-10.0","","77","","33","","15","","40.2","","101.29","","","","-13","","Clear"
"1996-11-27 10:00","1996","11","27","10:00","-5.6","","-9.4","","75","","34","","11","","40.2","","101.35","","","","-10","","Clear"
"1996-11-27 11:00","1996","11","27","11:00","-4.7","","-9.5","","69","","34","","13","","40.2","","101.42","","","","-10","","Clear"
"1996-11-27 12:00","1996","11","27","12:00","-3.9","","-9.5","","65","","33","","9","","40.2","","101.39","","","","-8","","Mainly Clear"
"1996-11-27 13:00","1996","11","27","13:00","-3.1","","-10.5","","57","","33","","7","","40.2","","101.35","","","","-6","","Mainly Clear"
"1996-11-27 14:00","1996","11","27","14:00","-2.7","","-11.2","","52","","29","","17","","40.2","","101.32","","","","-8","","Mainly Clear"
"1996-11-27 15:00","1996","11","27","15:00","-2.9","","-11.2","","53","","34","","7","","40.2","","101.32","","","","-6","","Mainly Clear"
"1996-11-27 16:00","1996","11","27","16:00","-3.0","","-10.8","","55","","29","","6","","32.2","","101.35","","","","-5","","Mainly Clear"
"1996-11-27 17:00","1996","11","27","17:00","-4.2","","-10.3","","62","","27","","4","","32.2","","101.35","","","","-6","","Clear"
"1996-11-27 18:00","1996","11","27","18:00","-4.9","","-9.7","","69","","25","","6","","25.0","","101.35","","","","-8","","Clear"
"1996-11-27 19:00","1996","11","27","19:00","-5.4","","-9.4","","73","","25","","7","","25.0","","101.35","","","","-9","","Clear"
"1996-11-27 20:00","1996","11","27","20:00","-6.3","","-9.7","","77","","27","","11","","25.0","","101.39","","","","-11","","Mainly Clear"
"1996-11-27 21:00","1996","11","27","21:00","-7.1","","-10.1","","79","","26","","6","","25.0","","101.32","","","","-10","","Mainly Clear"
"1996-11-27 22:00","1996","11","27","22:00","-7.4","","-10.6","","78","","27","","6","","25.0","","101.29","","","","-11","","Mainly Clear"
"1996-11-27 23:00","1996","11","27","23:00","-7.0","","-10.2","","78","","27","","6","","25.0","","101.25","","","","-10","","Mostly Cloudy"
"1996-11-28 00:00","1996","11","28","00:00","-6.5","","-10.7","","72","","27","","6","","25.0","","101.22","","","","-9","","Mostly Cloudy"
"1996-11-28 01:00","1996","11","28","01:00","-6.8","","-10.1","","77","","","","0","","24.1","","101.15","","","","","","Mostly Cloudy"
"1996-11-28 02:00","1996","11","28","02:00","-5.6","","-9.4","","75","","","","0","","24.1","","101.12","","","","","","Mostly Cloudy"
"1996-11-28 03:00","1996","11","28","03:00","-4.9","","-9.5","","70","","24","","6","","24.1","","101.05","","","","-8","","Mostly Cloudy"
"1996-11-28 04:00","1996","11","28","04:00","-4.8","","-8.9","","73","","","","0","","24.1","","100.99","","","","","","Mostly Cloudy"
"1996-11-28 05:00","1996","11","28","05:00","-4.6","","-8.5","","74","","","","0","","24.1","","100.92","","","","","","Cloudy"
"1996-11-28 06:00","1996","11","28","06:00","-4.5","","-7.9","","77","","23","","13","","16.1","","100.85","","","","-10","","Snow Showers"
"1996-11-28 07:00","1996","11","28","07:00","-4.9","","-6.5","","89","","24","","6","","9.7","","100.82","","","","-8","","Snow"
"1996-11-28 08:00","1996","11","28","08:00","-4.6","","-6.1","","89","","20","","6","","2.0","","100.79","","","","-7","","Snow"
"1996-11-28 09:00","1996","11","28","09:00","-4.5","","-5.9","","90","","19","","6","","2.4","","100.75","","","","-7","","Snow"
"1996-11-28 10:00","1996","11","28","10:00","-3.8","","-5.4","","89","","18","","6","","4.0","","100.72","","","","-6","","Snow"
"1996-11-28 11:00","1996","11","28","11:00","-3.3","","-5.8","","83","","22","","7","","6.4","","100.65","","","","-6","","Snow"
"1996-11-28 12:00","1996","11","28","12:00","-2.9","","-5.3","","83","","25","","9","","11.3","","100.55","","","","-6","","Snow"
"1996-11-28 13:00","1996","11","28","13:00","-2.3","","-5.0","","82","","25","","7","","6.4","","100.49","","","","-5","","Snow"
"1996-11-28 14:00","1996","11","28","14:00","-1.4","","-5.7","","72","","27","","15","","16.1","","100.42","","","","-6","","Snow"
"1996-11-28 15:00","1996","11","28","15:00","-1.2","","-6.0","","70","","26","","20","","19.3","","100.42","","","","-7","","Mostly Cloudy"
"1996-11-28 16:00","1996","11","28","16:00","-1.7","","-6.1","","72","","26","","11","","19.3","","100.45","","","","-6","","Mainly Clear"
"1996-11-28 17:00","1996","11","28","17:00","-2.3","","-5.5","","79","","25","","13","","19.3","","100.49","","","","-7","","Mainly Clear"
"1996-11-28 18:00","1996","11","28","18:00","-3.0","","-5.3","","84","","23","","13","","12.9","","100.49","","","","-8","","Mainly Clear"
"1996-11-28 19:00","1996","11","28","19:00","-2.0","","-4.2","","85","","24","","17","","11.3","","100.55","","","","-7","","Cloudy"
"1996-11-28 20:00","1996","11","28","20:00","-1.9","","-4.3","","84","","24","","15","","11.3","","100.59","","","","-7","","Cloudy"
"1996-11-28 21:00","1996","11","28","21:00","-1.7","","-4.5","","81","","24","","13","","11.3","","100.55","","","","-6","","Cloudy"
"1996-11-28 22:00","1996","11","28","22:00","-1.7","","-5.1","","78","","27","","13","","12.9","","100.55","","","","-6","","Cloudy"
"1996-11-28 23:00","1996","11","28","23:00","-1.4","","-5.1","","76","","23","","6","","19.3","","100.52","","","","-4","","Cloudy"
"1996-11-29 00:00","1996","11","29","00:00","-1.5","","-4.7","","79","","20","","11","","16.1","","100.52","","","","-5","","Cloudy"
"1996-11-29 01:00","1996","11","29","01:00","-1.6","","-4.4","","81","","22","","11","","12.9","","100.55","","","","-5","","Cloudy"
"1996-11-29 02:00","1996","11","29","02:00","-1.8","","-4.7","","81","","20","","9","","12.9","","100.55","","","","-5","","Cloudy"
"1996-11-29 03:00","1996","11","29","03:00","-1.4","","-5.0","","76","","21","","13","","12.9","","100.55","","","","-6","","Cloudy"
"1996-11-29 04:00","1996","11","29","04:00","-1.6","","-5.0","","78","","21","","6","","12.9","","100.55","","","","-4","","Cloudy"
"1996-11-29 05:00","1996","11","29","05:00","-1.7","","-5.1","","78","","20","","6","","12.9","","100.52","","","","-4","","Cloudy"
"1996-11-29 06:00","1996","11","29","06:00","-2.0","","-5.2","","79","","22","","9","","16.1","","100.55","","","","-5","","Mostly Cloudy"
"1996-11-29 07:00","1996","11","29","07:00","-1.7","","-5.1","","78","","19","","9","","16.1","","100.55","","","","-5","","Mostly Cloudy"
"1996-11-29 08:00","1996","11","29","08:00","-1.4","","-5.2","","75","","19","","9","","11.3","","100.59","","","","-5","","Mostly Cloudy"
"1996-11-29 09:00","1996","11","29","09:00","-0.9","","-5.4","","71","","19","","7","","11.3","","100.55","","","","-3","","Mostly Cloudy"
"1996-11-29 10:00","1996","11","29","10:00","0.1","","-4.8","","70","","21","","15","","12.9","","100.62","","","","","","Mostly Cloudy"
"1996-11-29 11:00","1996","11","29","11:00","0.9","","-4.2","","69","","19","","9","","12.9","","100.55","","","","","","Mostly Cloudy"
"1996-11-29 12:00","1996","11","29","12:00","1.9","","-2.6","","72","","20","","19","","16.1","","100.45","","","","","","Mostly Cloudy"
"1996-11-29 13:00","1996","11","29","13:00","3.1","","-1.2","","73","","20","","22","","16.1","","100.35","","","","","","Mostly Cloudy"
"1996-11-29 14:00","1996","11","29","14:00","3.3","","-1.3","","72","","21","","15","","16.1","","100.32","","","","","","Mostly Cloudy"
"1996-11-29 15:00","1996","11","29","15:00","3.6","","-1.2","","71","","20","","15","","24.1","","100.32","","","","","","Mostly Cloudy"
"1996-11-29 16:00","1996","11","29","16:00","3.4","","-2.1","","67","","18","","11","","24.1","","100.29","","","","","","Mostly Cloudy"
"1996-11-29 17:00","1996","11","29","17:00","2.9","","-2.8","","66","","18","","11","","19.3","","100.25","","","","","","Mostly Cloudy"
"1996-11-29 18:00","1996","11","29","18:00","2.6","","-3.2","","66","","19","","9","","19.3","","100.29","","","","","","Mostly Cloudy"
"1996-11-29 19:00","1996","11","29","19:00","2.2","","-3.6","","65","","19","","7","","19.3","","100.25","","","","","","Mostly Cloudy"
"1996-11-29 20:00","1996","11","29","20:00","1.5","","-3.4","","70","","14","","7","","19.3","","100.25","","","","","","Mainly Clear"
"1996-11-29 21:00","1996","11","29","21:00","1.8","","-2.5","","73","","14","","7","","16.1","","100.22","","","","","","Mostly Cloudy"
"1996-11-29 22:00","1996","11","29","22:00","1.6","","-1.4","","80","","13","","7","","16.1","","100.15","","","","","","Mainly Clear"
"1996-11-29 23:00","1996","11","29","23:00","1.2","","-1.4","","83","","13","","9","","19.3","","100.05","","","","","","Mostly Cloudy"
"1996-11-30 00:00","1996","11","30","00:00","1.3","","-0.9","","85","","15","","6","","24.1","","100.02","","","","","","Cloudy"
"1996-11-30 01:00","1996","11","30","01:00","1.1","","-0.7","","88","","16","","6","","19.3","","99.99","","","","","","Cloudy"
"1996-11-30 02:00","1996","11","30","02:00","1.4","","-0.7","","86","","13","","7","","16.1","","99.99","","","","","","Cloudy"
"1996-11-30 03:00","1996","11","30","03:00","1.9","","-0.2","","86","","14","","7","","16.1","","99.92","","","","","","Cloudy"
"1996-11-30 04:00","1996","11","30","04:00","1.6","","-0.5","","86","","12","","11","","16.1","","99.85","","","","","","Cloudy"
"1996-11-30 05:00","1996","11","30","05:00","2.1","","-0.9","","80","","12","","13","","16.1","","99.75","","","","","","Cloudy"
"1996-11-30 06:00","1996","11","30","06:00","2.5","","-0.6","","80","","13","","13","","16.1","","99.72","","","","","","Cloudy"
"1996-11-30 07:00","1996","11","30","07:00","2.4","","-0.4","","82","","11","","11","","16.1","","99.69","","","","","","Cloudy"
"1996-11-30 08:00","1996","11","30","08:00","2.7","","-0.9","","77","","12","","15","","19.3","","99.62","","","","","","Rain"
"1996-11-30 09:00","1996","11","30","09:00","2.8","","-0.6","","78","","12","","15","","12.9","","99.55","","","","","","Rain"
"1996-11-30 10:00","1996","11","30","10:00","3.4","","-0.2","","77","","12","","19","","16.1","","99.49","","","","","","Drizzle"
"1996-11-30 11:00","1996","11","30","11:00","3.6","","-0.2","","76","","14","","19","","16.1","","99.39","","","","","","Cloudy"
"1996-11-30 12:00","1996","11","30","12:00","2.6","","1.8","","94","","14","","13","","2.0","","99.32","","","","","","Rain,Fog"
"1996-11-30 13:00","1996","11","30","13:00","2.8","","1.9","","94","","14","","13","","3.2","","99.26","","","","","","Rain,Fog"
"1996-11-30 14:00","1996","11","30","14:00","3.2","","2.8","","97","","13","","15","","1.6","","99.19","","","","","","Drizzle,Fog"
"1996-11-30 15:00","1996","11","30","15:00","3.3","","3.0","","98","","13","","17","","2.0","","99.12","","","","","","Drizzle,Fog"
"1996-11-30 16:00","1996","11","30","16:00","3.6","","3.3","","98","","12","","20","","1.6","","99.06","","","","","","Rain,Drizzle,Fog"
"1996-11-30 17:00","1996","11","30","17:00","4.3","","4.2","","99","","12","","15","","0.4","","99.06","","","","","","Drizzle,Fog"
"1996-11-30 18:00","1996","11","30","18:00","4.8","","4.7","","99","","13","","15","","1.2","","99.09","","","","","","Drizzle,Fog"
"1996-11-30 19:00","1996","11","30","19:00","4.8","","4.7","","99","","13","","15","","1.6","","99.09","","","","","","Drizzle,Fog"
"1996-11-30 20:00","1996","11","30","20:00","4.8","","4.7","","99","","13","","15","","0.2","","99.06","","","","","","Drizzle,Fog"
"1996-11-30 21:00","1996","11","30","21:00","4.8","","4.8","","100","","13","","15","","1.2","","98.99","","","","","","Drizzle,Fog"
"1996-11-30 22:00","1996","11","30","22:00","5.1","","5.0","","99","","13","","13","","0.2","","98.99","","","","","","Drizzle,Fog"
"1996-11-30 23:00","1996","11","30","23:00","5.2","","5.1","","99","","14","","11","","0.2","","98.92","","","","","","Drizzle,Fog"
