"Station Name","TORONTO LESTER B. PEARSON INT'L A"
"Province","ONTARIO"
"Latitude","43.68"
"Longitude","-79.63"
"Elevation","173.40"
"Climate Identifier","6158733"
"WMO Identifier","71624"
"TC Identifier","YYZ"
"All times are specified in Local Standard Time (LST). Add 1 hour to adjust for Daylight Saving Time where and when it is observed."

"Legend"
"E","Estimated"
"M","Missing"
"NA","Not Available"

"Date/Time","Year","Month","Day","Time","Temp (°C)","Temp Flag","Dew Point Temp (°C)","Dew Point Temp Flag","Rel Hum (%)","Rel Hum Flag","Wind Dir (10s deg)","Wind Dir Flag","Wind Spd (km/h)","Wind Spd Flag","Visibility (km)","Visibility Flag","Stn Press (kPa)","Stn Press Flag","Hmdx","Hmdx Flag","Wind Chill","Wind Chill Flag","Weather"
"2001-01-01 00:00","2001","01","01","00:00","-8.5","","-11.3","","80","","1","","15","","24.1","","99.85","","","","-15","","Mainly Clear"
"2001-01-01 01:00","2001","01","01","01:00","-9.8","","-12.2","","83","","34","","9","","24.1","","99.92","","","","-15","","Clear"
"2001-01-01 02:00","2001","01","01","02:00","-10.0","","-12.0","","85","","27","","7","","6.4","","100.02","","","","-14","","Snow Showers"
"2001-01-01 03:00","2001","01","01","03:00","-11.8","","-14.0","","84","","28","","11","","24.1","","100.12","","","","-18","","Mainly Clear"
"2001-01-01 04:00","2001","01","01","04:00","-13.2","","-15.0","","86","","31","","9","","24.1","","100.15","","","","-19","","Clear"
"2001-01-01 05:00","2001","01","01","05:00","-12.9","","-15.3","","82","","32","","19","","24.1","","100.15","","","","-21","","Mainly Clear"
"2001-01-01 06:00","2001","01","01","06:00","-12.5","","-15.3","","80","","32","","19","","24.1","","100.22","","","","-21","","Mostly Cloudy"
"2001-01-01 07:00","2001","01","01","07:00","-11.7","","-15.1","","76","","32","","22","","24.1","","100.29","","","","-20","","Mostly Cloudy"
"2001-01-01 08:00","2001","01","01","08:00","-13.0","","-15.7","","80","","5","","9","","24.1","","100.39","","","","-18","","Mostly Cloudy"
"2001-01-01 09:00","2001","01","01","09:00","-13.3","","-16.2","","79","","36","","13","","24.1","","100.45","","","","-20","","Mainly Clear"
"2001-01-01 10:00","2001","01","01","10:00","-13.2","","-16.5","","76","","35","","17","","24.1","","100.52","","","","-21","","Mainly Clear"
"2001-01-01 11:00","2001","01","01","11:00","-12.4","","-16.2","","73","","35","","17","","24.1","","100.49","","","","-20","","Mainly Clear"
"2001-01-01 12:00","2001","01","01","12:00","-11.6","","-15.8","","71","","31","","11","","24.1","","100.45","","","","-18","","Mostly Cloudy"
"2001-01-01 13:00","2001","01","01","13:00","-10.5","","-15.4","","67","","34","","6","","24.1","","100.39","","","","-14","","Mostly Cloudy"
"2001-01-01 14:00","2001","01","01","14:00","-10.2","","-15.3","","66","","4","","6","","24.1","","100.35","","","","-14","","Mostly Cloudy"
"2001-01-01 15:00","2001","01","01","15:00","-10.0","","-15.2","","66","","4","","9","","24.1","","100.35","","","","-15","","Mostly Cloudy"
"2001-01-01 16:00","2001","01","01","16:00","-10.7","","-15.9","","66","","36","","17","","24.1","","100.39","","","","-18","","Mainly Clear"
"2001-01-01 17:00","2001","01","01","17:00","-11.4","","-16.4","","66","","35","","15","","24.1","","100.42","","","","-18","","Mainly Clear"
"2001-01-01 18:00","2001","01","01","18:00","-11.6","","-16.6","","66","","31","","7","","24.1","","100.45","","","","-16","","Mainly Clear"
"2001-01-01 19:00","2001","01","01","19:00","-12.6","","-16.5","","73","","32","","13","","24.1","","100.49","","","","-19","","Clear"
"2001-01-01 20:00","2001","01","01","20:00","-12.1","","-15.9","","73","","32","","17","","24.1","","100.49","","","","-20","","Mainly Clear"
"2001-01-01 21:00","2001","01","01","21:00","-13.0","","-16.2","","77","","35","","19","","24.1","","100.55","","","","-21","","Clear"
"2001-01-01 22:00","2001","01","01","22:00","-13.7","","-17.0","","76","","34","","19","","24.1","","100.55","","","","-22","","Mainly Clear"
"2001-01-01 23:00","2001","01","01","23:00","-14.6","","-18.2","","74","","35","","19","","24.1","","100.59","","","","-23","","Clear"
"2001-01-02 00:00","2001","01","02","00:00","-15.8","","-19.4","","74","","34","","19","","24.1","","100.62","","","","-25","","Clear"
"2001-01-02 01:00","2001","01","02","01:00","-16.3","","-19.9","","74","","33","","19","","24.1","","100.62","","","","-26","","Clear"
"2001-01-02 02:00","2001","01","02","02:00","-17.2","","-20.4","","76","","32","","19","","24.1","","100.65","","","","-27","","Clear"
"2001-01-02 03:00","2001","01","02","03:00","-17.6","","-20.4","","79","","32","","15","","24.1","","100.72","","","","-26","","Clear"
"2001-01-02 04:00","2001","01","02","04:00","-17.5","","-20.3","","79","","32","","15","","24.1","","100.72","","","","-26","","Clear"
"2001-01-02 05:00","2001","01","02","05:00","-17.6","","-20.2","","80","","31","","15","","24.1","","100.72","","","","-26","","Clear"
"2001-01-02 06:00","2001","01","02","06:00","-18.2","","-20.2","","84","","27","","9","","24.1","","100.75","","","","-25","","Clear"
"2001-01-02 07:00","2001","01","02","07:00","-18.5","","-20.7","","83","","27","","7","","24.1","","100.82","","","","-24","","Clear"
"2001-01-02 08:00","2001","01","02","08:00","-19.3","","-20.9","","87","","27","","11","","24.1","","100.89","","","","-27","","Clear"
"2001-01-02 09:00","2001","01","02","09:00","-17.4","","-19.2","","86","","27","","6","","24.1","","100.92","","","","-22","","Clear"
"2001-01-02 10:00","2001","01","02","10:00","-14.5","","-17.5","","78","","28","","6","","24.1","","100.92","","","","-19","","Clear"
"2001-01-02 11:00","2001","01","02","11:00","-11.6","","-15.8","","71","","18","","7","","24.1","","100.89","","","","-16","","Mainly Clear"
"2001-01-02 12:00","2001","01","02","12:00","-9.1","","-13.3","","72","","25","","9","","19.3","","100.85","","","","-14","","Mostly Cloudy"
"2001-01-02 13:00","2001","01","02","13:00","-5.7","","-11.3","","65","","24","","11","","16.1","","100.79","","","","-10","","Snow Showers"
"2001-01-02 14:00","2001","01","02","14:00","-5.2","","-9.8","","70","","26","","24","","19.3","","100.72","","","","-12","","Snow Showers"
"2001-01-02 15:00","2001","01","02","15:00","-4.9","","-9.0","","73","","26","","19","","19.3","","100.69","","","","-11","","Snow Showers"
"2001-01-02 16:00","2001","01","02","16:00","-4.6","","-9.0","","71","","25","","19","","19.3","","100.65","","","","-11","","Mostly Cloudy"
"2001-01-02 17:00","2001","01","02","17:00","-4.4","","-10.0","","65","","27","","20","","24.1","","100.65","","","","-11","","Mostly Cloudy"
"2001-01-02 18:00","2001","01","02","18:00","-4.7","","-10.2","","65","","29","","30","","24.1","","100.65","","","","-13","","Mostly Cloudy"
"2001-01-02 19:00","2001","01","02","19:00","-5.2","","-9.7","","71","","28","","19","","24.1","","100.62","","","","-12","","Mostly Cloudy"
"2001-01-02 20:00","2001","01","02","20:00","-5.2","","-9.8","","70","","27","","19","","24.1","","100.59","","","","-12","","Cloudy"
"2001-01-02 21:00","2001","01","02","21:00","-5.0","","-9.3","","72","","26","","20","","24.1","","100.55","","","","-12","","Cloudy"
"2001-01-02 22:00","2001","01","02","22:00","-5.7","","-9.9","","72","","24","","15","","24.1","","100.49","","","","-11","","Mostly Cloudy"
"2001-01-02 23:00","2001","01","02","23:00","-6.7","","-10.8","","73","","25","","17","","24.1","","100.49","","","","-13","","Mainly Clear"
"2001-01-03 00:00","2001","01","03","00:00","-8.1","","-10.9","","80","","27","","15","","24.1","","100.42","","","","-14","","Clear"
"2001-01-03 01:00","2001","01","03","01:00","-6.7","","-9.9","","78","","27","","20","","24.1","","100.35","","","","-14","","Clear"
"2001-01-03 02:00","2001","01","03","02:00","-7.0","","-10.1","","79","","27","","19","","24.1","","100.29","","","","-14","","Clear"
"2001-01-03 03:00","2001","01","03","03:00","-8.1","","-10.6","","82","","25","","13","","24.1","","100.29","","","","-14","","Clear"
"2001-01-03 04:00","2001","01","03","04:00","-8.0","","-10.7","","81","","22","","13","","24.1","","100.22","","","","-14","","Clear"
"2001-01-03 05:00","2001","01","03","05:00","-8.8","","-11.3","","82","","20","","9","","24.1","","100.15","","","","-13","","Mainly Clear"
"2001-01-03 06:00","2001","01","03","06:00","-9.8","","-11.6","","87","","24","","15","","24.1","","100.15","","","","-16","","Clear"
"2001-01-03 07:00","2001","01","03","07:00","-8.5","","-10.9","","83","","23","","19","","24.1","","100.09","","","","-16","","Clear"
"2001-01-03 08:00","2001","01","03","08:00","-8.9","","-12.6","","75","","23","","24","","19.3","","99.99","","","","-17","","Mostly Cloudy"
"2001-01-03 09:00","2001","01","03","09:00","-9.2","","-13.1","","73","","22","","15","","16.1","","99.99","","","","-16","","Mostly Cloudy"
"2001-01-03 10:00","2001","01","03","10:00","-7.1","","-11.8","","69","","23","","35","","19.3","","99.85","","","","-16","","Mostly Cloudy"
"2001-01-03 11:00","2001","01","03","11:00","-6.2","","-10.3","","73","","22","","33","","19.3","","99.75","","","","-15","","Mostly Cloudy"
"2001-01-03 12:00","2001","01","03","12:00","-5.2","","-10.4","","67","","22","","32","","24.1","","99.59","","","","-13","","Mostly Cloudy"
"2001-01-03 13:00","2001","01","03","13:00","-5.6","","-10.4","","69","","22","","39","","8.0","","99.42","","","","-15","","Snow"
"2001-01-03 14:00","2001","01","03","14:00","-6.2","","-10.0","","74","","23","","33","","4.0","","99.35","","","","-15","","Snow"
"2001-01-03 15:00","2001","01","03","15:00","-6.9","","-9.7","","80","","22","","32","","3.2","","99.29","","","","-16","","Snow"
"2001-01-03 16:00","2001","01","03","16:00","-6.5","","-9.7","","78","","23","","30","","4.8","","99.19","","","","-15","","Snow"
"2001-01-03 17:00","2001","01","03","17:00","-6.4","","-9.4","","79","","24","","28","","2.4","","99.19","","","","-15","","Snow"
"2001-01-03 18:00","2001","01","03","18:00","-6.9","","-10.0","","79","","24","","28","","4.0","","99.22","","","","-15","","Snow"
"2001-01-03 19:00","2001","01","03","19:00","-7.2","","-10.6","","77","","25","","28","","9.7","","99.19","","","","-16","","Snow"
"2001-01-03 20:00","2001","01","03","20:00","-6.9","","-10.4","","76","","25","","32","","9.7","","99.16","","","","-16","","Snow"
"2001-01-03 21:00","2001","01","03","21:00","-6.8","","-10.5","","75","","26","","24","","12.9","","99.16","","","","-14","","Cloudy"
"2001-01-03 22:00","2001","01","03","22:00","-6.9","","-10.7","","74","","25","","24","","16.1","","99.12","","","","-15","","Cloudy"
"2001-01-03 23:00","2001","01","03","23:00","-6.4","","-10.1","","75","","25","","26","","16.1","","99.09","","","","-14","","Cloudy"
"2001-01-04 00:00","2001","01","04","00:00","-5.7","","-9.1","","77","","27","","35","","12.9","","99.06","","","","-14","","Cloudy"
"2001-01-04 01:00","2001","01","04","01:00","-5.8","","-8.9","","79","","25","","30","","8.0","","99.02","","","","-14","","Snow"
"2001-01-04 02:00","2001","01","04","02:00","-5.7","","-8.9","","78","","25","","28","","8.0","","98.99","","","","-14","","Snow"
"2001-01-04 03:00","2001","01","04","03:00","-5.2","","-8.3","","79","","25","","30","","6.4","","99.06","","","","-13","","Snow"
"2001-01-04 04:00","2001","01","04","04:00","-4.8","","-7.8","","79","","26","","26","","6.4","","99.06","","","","-12","","Snow"
"2001-01-04 05:00","2001","01","04","05:00","-4.6","","-7.2","","82","","26","","30","","6.4","","99.09","","","","-12","","Snow"
"2001-01-04 06:00","2001","01","04","06:00","-4.3","","-7.0","","81","","25","","24","","4.8","","99.12","","","","-11","","Snow"
"2001-01-04 07:00","2001","01","04","07:00","-4.2","","-6.6","","83","","26","","15","","8.0","","99.19","","","","-10","","Snow"
"2001-01-04 08:00","2001","01","04","08:00","-3.4","","-7.5","","73","","30","","17","","6.4","","99.19","","","","-9","","Snow"
"2001-01-04 09:00","2001","01","04","09:00","-4.0","","-6.6","","82","","26","","11","","3.2","","99.26","","","","-8","","Snow"
"2001-01-04 10:00","2001","01","04","10:00","-3.5","","-5.9","","83","","27","","9","","6.4","","99.29","","","","-7","","Snow"
"2001-01-04 11:00","2001","01","04","11:00","-3.3","","-7.1","","75","","33","","17","","9.7","","99.35","","","","-9","","Snow"
"2001-01-04 12:00","2001","01","04","12:00","-3.0","","-8.0","","68","","30","","30","","19.3","","99.35","","","","-10","","Cloudy"
"2001-01-04 13:00","2001","01","04","13:00","-2.8","","-8.6","","64","","30","","33","","24.1","","99.32","","","","-10","","Cloudy"
"2001-01-04 14:00","2001","01","04","14:00","-2.8","","-8.9","","63","","31","","26","","24.1","","99.32","","","","-10","","Mostly Cloudy"
"2001-01-04 15:00","2001","01","04","15:00","-2.9","","-8.4","","66","","26","","17","","24.1","","99.32","","","","-8","","Mostly Cloudy"
"2001-01-04 16:00","2001","01","04","16:00","-2.7","","-7.8","","68","","25","","15","","24.1","","99.29","","","","-8","","Cloudy"
"2001-01-04 17:00","2001","01","04","17:00","-2.6","","-6.9","","72","","24","","13","","24.1","","99.26","","","","-7","","Cloudy"
"2001-01-04 18:00","2001","01","04","18:00","-3.0","","-7.4","","72","","25","","20","","24.1","","99.22","","","","-9","","Cloudy"
"2001-01-04 19:00","2001","01","04","19:00","-3.3","","-7.9","","70","","23","","24","","19.3","","99.19","","","","-10","","Cloudy"
"2001-01-04 20:00","2001","01","04","20:00","-4.0","","-8.6","","70","","23","","17","","24.1","","99.09","","","","-10","","Cloudy"
"2001-01-04 21:00","2001","01","04","21:00","-3.9","","-8.3","","71","","23","","19","","24.1","","98.96","","","","-10","","Cloudy"
"2001-01-04 22:00","2001","01","04","22:00","-3.6","","-7.6","","74","","21","","19","","24.1","","98.89","","","","-10","","Cloudy"
"2001-01-04 23:00","2001","01","04","23:00","-3.3","","-6.9","","76","","22","","20","","19.3","","98.79","","","","-9","","Cloudy"
"2001-01-05 00:00","2001","01","05","00:00","-2.9","","-6.5","","76","","21","","17","","16.1","","98.59","","","","-8","","Cloudy"
"2001-01-05 01:00","2001","01","05","01:00","-3.2","","-6.3","","79","","21","","28","","6.4","","98.46","","","","-10","","Snow"
"2001-01-05 02:00","2001","01","05","02:00","-3.5","","-5.6","","85","","19","","24","","4.0","","98.22","","","","-10","","Snow"
"2001-01-05 03:00","2001","01","05","03:00","-3.2","","-4.8","","89","","19","","22","","1.0","","98.12","","","","-10","","Snow"
"2001-01-05 04:00","2001","01","05","04:00","-2.8","","-4.6","","87","","19","","33","","2.8","","97.82","","","","-10","","Snow"
"2001-01-05 05:00","2001","01","05","05:00","-2.5","","-4.1","","89","","19","","28","","1.6","","97.69","","","","-10","","Snow"
"2001-01-05 06:00","2001","01","05","06:00","-2.2","","-4.0","","87","","19","","22","","4.0","","97.59","","","","-8","","Snow"
"2001-01-05 07:00","2001","01","05","07:00","-2.1","","-3.7","","89","","18","","19","","2.0","","97.49","","","","-8","","Snow,Blowing Snow"
"2001-01-05 08:00","2001","01","05","08:00","-1.7","","-3.2","","89","","20","","20","","1.2","","97.39","","","","-7","","Snow,Blowing Snow"
"2001-01-05 09:00","2001","01","05","09:00","-1.6","","-3.2","","89","","21","","24","","2.4","","97.32","","","","-8","","Snow"
"2001-01-05 10:00","2001","01","05","10:00","-1.3","","-3.1","","88","","21","","19","","3.2","","97.29","","","","-7","","Snow"
"2001-01-05 11:00","2001","01","05","11:00","-1.1","","-2.7","","89","","21","","17","","3.2","","97.22","","","","-6","","Snow"
"2001-01-05 12:00","2001","01","05","12:00","-0.6","","-2.6","","86","","22","","17","","4.8","","97.16","","","","-6","","Snow"
"2001-01-05 13:00","2001","01","05","13:00","0.1","","-2.2","","84","","23","","15","","4.0","","97.12","","","","","","Snow"
"2001-01-05 14:00","2001","01","05","14:00","0.5","","-2.1","","83","","25","","15","","6.4","","97.12","","","","","","Snow"
"2001-01-05 15:00","2001","01","05","15:00","0.8","","-1.9","","82","","25","","17","","6.4","","97.19","","","","","","Snow Showers"
"2001-01-05 16:00","2001","01","05","16:00","1.3","","-1.3","","83","","23","","13","","6.4","","97.26","","","","","","Snow Showers"
"2001-01-05 17:00","2001","01","05","17:00","1.5","","-1.3","","82","","25","","19","","11.3","","97.32","","","","","","Mostly Cloudy"
"2001-01-05 18:00","2001","01","05","18:00","1.4","","-1.8","","79","","26","","22","","16.1","","97.36","","","","","","Mostly Cloudy"
"2001-01-05 19:00","2001","01","05","19:00","1.4","","-1.7","","80","","28","","24","","24.1","","97.46","","","","","","Mostly Cloudy"
"2001-01-05 20:00","2001","01","05","20:00","0.5","","-4.0","","72","","29","","26","","24.1","","97.52","","","","","","Mostly Cloudy"
"2001-01-05 21:00","2001","01","05","21:00","-0.7","","-5.6","","69","","31","","28","","24.1","","97.62","","","","-7","","Mostly Cloudy"
"2001-01-05 22:00","2001","01","05","22:00","-2.1","","-6.2","","73","","29","","17","","24.1","","97.66","","","","-7","","Mainly Clear"
"2001-01-05 23:00","2001","01","05","23:00","-1.3","","-5.5","","73","","29","","20","","24.1","","97.72","","","","-7","","Mostly Cloudy"
"2001-01-06 00:00","2001","01","06","00:00","-1.2","","-5.3","","74","","29","","30","","24.1","","97.79","","","","-8","","Cloudy"
"2001-01-06 01:00","2001","01","06","01:00","-1.3","","-5.7","","72","","31","","33","","24.1","","97.86","","","","-8","","Cloudy"
"2001-01-06 02:00","2001","01","06","02:00","-2.0","","-6.0","","74","","30","","35","","19.3","","98.02","","","","-10","","Cloudy"
"2001-01-06 03:00","2001","01","06","03:00","-3.0","","-7.6","","71","","31","","24","","24.1","","98.12","","","","-10","","Cloudy"
"2001-01-06 04:00","2001","01","06","04:00","-4.6","","-9.0","","71","","32","","32","","24.1","","98.16","","","","-13","","Clear"
"2001-01-06 05:00","2001","01","06","05:00","-5.4","","-10.0","","70","","31","","20","","19.3","","98.22","","","","-12","","Mainly Clear"
"2001-01-06 06:00","2001","01","06","06:00","-6.7","","-10.9","","72","","30","","24","","24.1","","98.36","","","","-14","","Mainly Clear"
"2001-01-06 07:00","2001","01","06","07:00","-7.2","","-11.6","","71","","31","","20","","24.1","","98.39","","","","-14","","Clear"
"2001-01-06 08:00","2001","01","06","08:00","-8.6","","-12.3","","75","","28","","19","","24.1","","98.52","","","","-16","","Mainly Clear"
"2001-01-06 09:00","2001","01","06","09:00","-8.9","","-12.8","","73","","29","","17","","24.1","","98.56","","","","-16","","Mainly Clear"
"2001-01-06 10:00","2001","01","06","10:00","-7.8","","-12.1","","71","","29","","15","","24.1","","98.66","","","","-14","","Mainly Clear"
"2001-01-06 11:00","2001","01","06","11:00","-6.9","","-12.0","","67","","31","","19","","24.1","","98.66","","","","-14","","Mostly Cloudy"
"2001-01-06 12:00","2001","01","06","12:00","-6.2","","-11.5","","66","","31","","19","","24.1","","98.62","","","","-13","","Mostly Cloudy"
"2001-01-06 13:00","2001","01","06","13:00","-4.9","","-10.9","","63","","31","","15","","24.1","","98.56","","","","-10","","Mostly Cloudy"
"2001-01-06 14:00","2001","01","06","14:00","-4.0","","-10.4","","61","","27","","11","","24.1","","98.59","","","","-8","","Mostly Cloudy"
"2001-01-06 15:00","2001","01","06","15:00","-3.9","","-9.9","","63","","29","","9","","24.1","","98.56","","","","-8","","Cloudy"
"2001-01-06 16:00","2001","01","06","16:00","-3.6","","-9.6","","63","","25","","9","","24.1","","98.56","","","","-7","","Cloudy"
"2001-01-06 17:00","2001","01","06","17:00","-3.9","","-9.3","","66","","24","","9","","24.1","","98.56","","","","-8","","Cloudy"
"2001-01-06 18:00","2001","01","06","18:00","-4.3","","-8.7","","71","","26","","9","","19.3","","98.56","","","","-8","","Snow Showers"
"2001-01-06 19:00","2001","01","06","19:00","-4.4","","-7.6","","78","","25","","6","","19.3","","98.62","","","","-7","","Snow Showers"
"2001-01-06 20:00","2001","01","06","20:00","-4.2","","-7.9","","75","","","","0","","24.1","","98.56","","","","","","Snow Showers"
"2001-01-06 21:00","2001","01","06","21:00","-3.7","","-7.6","","74","","11","","4","","19.3","","98.56","","","","-5","","Snow"
"2001-01-06 22:00","2001","01","06","22:00","-3.7","","-7.2","","77","","9","","6","","12.9","","98.56","","","","-6","","Snow"
"2001-01-06 23:00","2001","01","06","23:00","-3.7","","-5.8","","85","","11","","11","","2.4","","98.52","","","","-8","","Snow"
"2001-01-07 00:00","2001","01","07","00:00","-3.2","","-5.2","","86","","10","","13","","8.0","","98.46","","","","-8","","Fog"
"2001-01-07 01:00","2001","01","07","01:00"
"2001-01-07 02:00","2001","01","07","02:00","-2.8","","-5.0","","85","","9","","11","","8.0","","98.42","","","","-7","","Haze"
"2001-01-07 03:00","2001","01","07","03:00","-2.6","","-4.6","","86","","8","","9","","8.0","","98.42","","","","-6","","Fog"
"2001-01-07 04:00","2001","01","07","04:00","-2.4","","-4.4","","86","","6","","9","","8.0","","98.39","","","","-6","","Fog"
"2001-01-07 05:00","2001","01","07","05:00","-2.2","","-4.2","","86","","6","","7","","6.4","","98.39","","","","-5","","Fog"
"2001-01-07 06:00","2001","01","07","06:00","-2.8","","-4.8","","86","","3","","13","","6.4","","98.42","","","","-7","","Fog"
"2001-01-07 07:00","2001","01","07","07:00","-2.7","","-4.7","","86","","5","","11","","6.4","","98.46","","","","-7","","Fog"
"2001-01-07 08:00","2001","01","07","08:00","-2.8","","-4.7","","87","","4","","7","","6.4","","98.52","","","","-6","","Fog"
"2001-01-07 09:00","2001","01","07","09:00","-2.8","","-4.8","","86","","36","","7","","4.8","","98.59","","","","-6","","Snow Grains,Fog"
"2001-01-07 10:00","2001","01","07","10:00","-3.2","","-5.2","","86","","32","","15","","6.4","","98.66","","","","-8","","Fog"
"2001-01-07 11:00","2001","01","07","11:00","-3.5","","-6.0","","83","","35","","7","","6.4","","98.69","","","","-6","","Haze"
"2001-01-07 12:00","2001","01","07","12:00","-3.4","","-6.0","","82","","31","","6","","8.0","","98.66","","","","-6","","Haze"
"2001-01-07 13:00","2001","01","07","13:00","-2.4","","-5.6","","79","","","","0","","6.4","","98.66","","","","","","Haze"
"2001-01-07 14:00","2001","01","07","14:00","-2.0","","-5.3","","78","","","","0","","6.4","","98.62","","","","","","Snow Grains,Haze"
"2001-01-07 15:00","2001","01","07","15:00","-1.6","","-5.0","","78","","","","0","","6.4","","98.66","","","","","","Snow Grains,Haze"
"2001-01-07 16:00","2001","01","07","16:00","-1.2","","-4.6","","78","","15","","7","","4.8","","98.69","","","","-4","","Snow"
"2001-01-07 17:00","2001","01","07","17:00","-1.2","","-4.3","","79","","13","","7","","4.8","","98.72","","","","-4","","Snow,Haze"
"2001-01-07 18:00","2001","01","07","18:00","-1.1","","-3.7","","82","","13","","7","","4.0","","98.76","","","","-4","","Snow,Haze"
"2001-01-07 19:00","2001","01","07","19:00","-0.9","","-2.9","","86","","11","","6","","3.2","","98.79","","","","-3","","Snow,Haze"
"2001-01-07 20:00","2001","01","07","20:00","-0.7","","-2.2","","90","","13","","4","","4.0","","98.76","","","","-2","","Snow,Fog"
"2001-01-07 21:00","2001","01","07","21:00","-0.2","","-1.8","","89","","16","","4","","2.8","","98.76","","","","-1","","Snow,Fog"
"2001-01-07 22:00","2001","01","07","22:00","-0.2","","-1.5","","91","","19","","6","","3.2","","98.76","","","","-2","","Snow,Fog"
"2001-01-07 23:00","2001","01","07","23:00","-0.6","","-2.3","","88","","23","","6","","6.4","","98.79","","","","-3","","Fog"
"2001-01-08 00:00","2001","01","08","00:00","-0.9","","-3.5","","82","","27","","17","","11.3","","98.76","","","","-6","","Cloudy"
"2001-01-08 01:00","2001","01","08","01:00","-0.8","","-5.1","","73","","29","","20","","19.3","","98.79","","","","-6","","Cloudy"
"2001-01-08 02:00","2001","01","08","02:00","-1.5","","-4.7","","79","","26","","15","","19.3","","98.82","","","","-6","","Cloudy"
"2001-01-08 03:00","2001","01","08","03:00","-2.9","","-5.9","","80","","35","","20","","12.9","","98.92","","","","-9","","Cloudy"
"2001-01-08 04:00","2001","01","08","04:00","-3.6","","-6.7","","79","","36","","28","","16.1","","98.89","","","","-11","","Cloudy"
"2001-01-08 05:00","2001","01","08","05:00","-4.3","","-7.4","","79","","34","","22","","19.3","","98.92","","","","-11","","Cloudy"
"2001-01-08 06:00","2001","01","08","06:00","-5.7","","-8.8","","79","","35","","26","","19.3","","98.96","","","","-13","","Mostly Cloudy"
"2001-01-08 07:00","2001","01","08","07:00","-5.9","","-9.5","","76","","36","","22","","19.3","","99.06","","","","-13","","Mostly Cloudy"
"2001-01-08 08:00","2001","01","08","08:00","-6.8","","-10.2","","77","","36","","19","","24.1","","99.09","","","","-14","","Cloudy"
"2001-01-08 09:00","2001","01","08","09:00","-7.3","","-10.8","","76","","32","","22","","19.3","","99.16","","","","-15","","Mostly Cloudy"
"2001-01-08 10:00","2001","01","08","10:00","-7.7","","-11.5","","74","","32","","19","","24.1","","99.19","","","","-15","","Mainly Clear"
"2001-01-08 11:00","2001","01","08","11:00","-7.4","","-11.8","","71","","35","","17","","24.1","","99.26","","","","-14","","Mostly Cloudy"
"2001-01-08 12:00","2001","01","08","12:00","-7.1","","-11.8","","69","","35","","22","","24.1","","99.19","","","","-15","","Mostly Cloudy"
"2001-01-08 13:00","2001","01","08","13:00","-7.0","","-12.2","","66","","33","","19","","24.1","","99.12","","","","-14","","Clear"
"2001-01-08 14:00","2001","01","08","14:00","-6.7","","-12.3","","64","","34","","19","","24.1","","99.09","","","","-14","","Clear"
"2001-01-08 15:00","2001","01","08","15:00","-6.6","","-12.2","","64","","36","","22","","24.1","","99.09","","","","-14","","Mainly Clear"
"2001-01-08 16:00","2001","01","08","16:00","-7.1","","-12.0","","68","","36","","20","","24.1","","99.12","","","","-14","","Mainly Clear"
"2001-01-08 17:00","2001","01","08","17:00","-7.9","","-12.7","","68","","36","","24","","24.1","","99.19","","","","-16","","Clear"
"2001-01-08 18:00","2001","01","08","18:00","-8.6","","-12.9","","71","","36","","20","","24.1","","99.29","","","","-16","","Mainly Clear"
"2001-01-08 19:00","2001","01","08","19:00","-9.3","","-13.8","","70","","32","","17","","24.1","","99.32","","","","-16","","Clear"
"2001-01-08 20:00","2001","01","08","20:00","-9.7","","-14.2","","70","","32","","19","","24.1","","99.35","","","","-17","","Snow Showers"
"2001-01-08 21:00","2001","01","08","21:00","-9.9","","-14.0","","72","","33","","19","","24.1","","99.35","","","","-18","","Mainly Clear"
"2001-01-08 22:00","2001","01","08","22:00","-10.2","","-14.0","","74","","33","","20","","24.1","","99.35","","","","-18","","Clear"
"2001-01-08 23:00","2001","01","08","23:00","-11.4","","-14.9","","75","","35","","17","","24.1","","99.39","","","","-19","","Clear"
"2001-01-09 00:00","2001","01","09","00:00","-12.3","","-16.0","","74","","34","","24","","24.1","","99.42","","","","-22","","Clear"
"2001-01-09 01:00","2001","01","09","01:00","-13.7","","-17.0","","76","","34","","20","","24.1","","99.39","","","","-23","","Clear"
"2001-01-09 02:00","2001","01","09","02:00","-13.5","","-17.0","","75","","34","","20","","24.1","","99.45","","","","-22","","Mostly Cloudy"
"2001-01-09 03:00","2001","01","09","03:00","-14.0","","-17.3","","76","","35","","24","","24.1","","99.49","","","","-24","","Snow Showers"
"2001-01-09 04:00","2001","01","09","04:00","-15.1","","-18.3","","76","","34","","20","","24.1","","99.45","","","","-24","","Clear"
"2001-01-09 05:00","2001","01","09","05:00","-16.0","","-18.7","","80","","33","","22","","24.1","","99.45","","","","-26","","Clear"
"2001-01-09 06:00","2001","01","09","06:00","-16.0","","-19.2","","76","","33","","26","","24.1","","99.45","","","","-27","","Clear"
"2001-01-09 07:00","2001","01","09","07:00","-15.8","","-19.0","","76","","34","","20","","24.1","","99.52","","","","-25","","Clear"
"2001-01-09 08:00","2001","01","09","08:00","-16.2","","-19.3","","77","","33","","20","","24.1","","99.55","","","","-26","","Mainly Clear"
"2001-01-09 09:00","2001","01","09","09:00","-15.7","","-18.6","","78","","32","","9","","24.1","","99.55","","","","-22","","Mainly Clear"
"2001-01-09 10:00","2001","01","09","10:00","-12.0","","-16.4","","70","","31","","7","","24.1","","99.59","","","","-16","","Mostly Cloudy"
"2001-01-09 11:00","2001","01","09","11:00","-9.1","","-14.6","","64","","25","","9","","24.1","","99.52","","","","-14","","Mostly Cloudy"
"2001-01-09 12:00","2001","01","09","12:00","-6.8","","-11.8","","68","","26","","19","","24.1","","99.42","","","","-14","","Cloudy"
"2001-01-09 13:00","2001","01","09","13:00","-6.9","","-10.8","","74","","25","","30","","12.9","","99.26","","","","-15","","Snow Showers"
"2001-01-09 14:00","2001","01","09","14:00","-6.3","","-10.5","","72","","26","","37","","24.1","","99.12","","","","-16","","Cloudy"
"2001-01-09 15:00","2001","01","09","15:00","-5.6","","-9.5","","74","","26","","32","","16.1","","98.96","","","","-14","","Snow"
"2001-01-09 16:00","2001","01","09","16:00","-4.9","","-9.0","","73","","26","","37","","24.1","","98.86","","","","-14","","Cloudy"
"2001-01-09 17:00","2001","01","09","17:00","-4.2","","-8.4","","72","","28","","35","","24.1","","98.86","","","","-13","","Cloudy"
"2001-01-09 18:00","2001","01","09","18:00","-3.9","","-8.0","","73","","28","","39","","24.1","","98.86","","","","-13","","Cloudy"
"2001-01-09 19:00","2001","01","09","19:00","-3.3","","-7.6","","72","","28","","39","","24.1","","98.82","","","","-12","","Mostly Cloudy"
"2001-01-09 20:00","2001","01","09","20:00","-3.0","","-7.5","","71","","27","","35","","24.1","","98.79","","","","-11","","Cloudy"
"2001-01-09 21:00","2001","01","09","21:00","-2.4","","-7.0","","71","","28","","33","","24.1","","98.86","","","","-10","","Cloudy"
"2001-01-09 22:00","2001","01","09","22:00","-1.5","","-6.3","","70","","29","","32","","24.1","","98.86","","","","-9","","Cloudy"
"2001-01-09 23:00","2001","01","09","23:00","-0.9","","-5.4","","71","","28","","32","","24.1","","98.92","","","","-8","","Cloudy"
"2001-01-10 00:00","2001","01","10","00:00","-0.3","","-4.3","","74","","30","","32","","24.1","","98.96","","","","-7","","Cloudy"
"2001-01-10 01:00","2001","01","10","01:00","-0.6","","-4.1","","77","","28","","26","","24.1","","99.02","","","","-7","","Cloudy"
"2001-01-10 02:00","2001","01","10","02:00","-1.3","","-4.3","","80","","36","","11","","19.3","","99.16","","","","-5","","Snow"
"2001-01-10 03:00","2001","01","10","03:00","-3.0","","-6.4","","77","","7","","13","","16.1","","99.26","","","","-8","","Snow"
"2001-01-10 04:00","2001","01","10","04:00","-3.6","","-7.5","","74","","5","","9","","19.3","","99.32","","","","-7","","Cloudy"
"2001-01-10 05:00","2001","01","10","05:00","-4.2","","-8.0","","75","","9","","7","","19.3","","99.39","","","","-7","","Cloudy"
"2001-01-10 06:00","2001","01","10","06:00","-4.3","","-8.0","","75","","11","","7","","16.1","","99.45","","","","-7","","Cloudy"
"2001-01-10 07:00","2001","01","10","07:00","-3.9","","-7.4","","77","","15","","7","","16.1","","99.49","","","","-7","","Cloudy"
"2001-01-10 08:00","2001","01","10","08:00","-3.6","","-6.1","","83","","16","","7","","12.9","","99.52","","","","-7","","Cloudy"
"2001-01-10 09:00","2001","01","10","09:00","-2.8","","-5.2","","84","","16","","13","","11.3","","99.55","","","","-7","","Cloudy"
"2001-01-10 10:00","2001","01","10","10:00","-3.1","","-6.5","","77","","26","","20","","11.3","","99.55","","","","-9","","Mostly Cloudy"
"2001-01-10 11:00","2001","01","10","11:00","-3.3","","-6.7","","77","","24","","20","","9.7","","99.55","","","","-9","","Haze"
"2001-01-10 12:00","2001","01","10","12:00","-3.3","","-7.1","","75","","21","","15","","8.0","","99.49","","","","-8","","Haze"
"2001-01-10 13:00","2001","01","10","13:00","-2.8","","-7.2","","72","","22","","15","","9.7","","99.39","","","","-8","","Haze"
"2001-01-10 14:00","2001","01","10","14:00","-1.8","","-7.2","","67","","20","","11","","9.7","","99.32","","","","-6","","Haze"
"2001-01-10 15:00","2001","01","10","15:00","-1.3","","-6.4","","68","","25","","24","","11.3","","99.26","","","","-7","","Mostly Cloudy"
"2001-01-10 16:00","2001","01","10","16:00","-0.5","","-6.0","","66","","25","","22","","11.3","","99.22","","","","-6","","Mostly Cloudy"
"2001-01-10 17:00","2001","01","10","17:00","-0.2","","-6.4","","63","","24","","17","","11.3","","99.19","","","","-5","","Mostly Cloudy"
"2001-01-10 18:00","2001","01","10","18:00","-0.9","","-6.6","","65","","21","","11","","12.9","","99.22","","","","-5","","Mainly Clear"
"2001-01-10 19:00","2001","01","10","19:00","-1.5","","-6.9","","67","","23","","19","","12.9","","99.22","","","","-7","","Mainly Clear"
"2001-01-10 20:00","2001","01","10","20:00","-1.9","","-6.8","","69","","24","","28","","14.5","","99.22","","","","-9","","Clear"
"2001-01-10 21:00","2001","01","10","21:00","-1.4","","-6.7","","67","","24","","30","","19.3","","99.16","","","","-8","","Clear"
"2001-01-10 22:00","2001","01","10","22:00","-1.1","","-6.8","","65","","24","","26","","19.3","","99.12","","","","-7","","Mainly Clear"
"2001-01-10 23:00","2001","01","10","23:00","-2.0","","-7.0","","69","","25","","17","","19.3","","99.12","","","","-7","","Mostly Cloudy"
"2001-01-11 00:00","2001","01","11","00:00","-2.0","","-7.1","","68","","26","","20","","19.3","","99.16","","","","-8","","Mostly Cloudy"
"2001-01-11 01:00","2001","01","11","01:00","-0.9","","-6.3","","67","","27","","24","","19.3","","99.12","","","","-7","","Mostly Cloudy"
"2001-01-11 02:00","2001","01","11","02:00","-0.9","","-6.0","","68","","26","","28","","16.1","","99.16","","","","-7","","Mostly Cloudy"
"2001-01-11 03:00","2001","01","11","03:00","-1.4","","-6.2","","70","","27","","28","","16.1","","99.22","","","","-8","","Mostly Cloudy"
"2001-01-11 04:00","2001","01","11","04:00","-2.0","","-6.5","","71","","26","","20","","16.1","","99.29","","","","-8","","Mostly Cloudy"
"2001-01-11 05:00","2001","01","11","05:00","-2.3","","-6.4","","73","","26","","20","","16.1","","99.29","","","","-8","","Mostly Cloudy"
"2001-01-11 06:00","2001","01","11","06:00","-2.0","","-5.8","","75","","25","","20","","12.9","","99.35","","","","-8","","Mostly Cloudy"
"2001-01-11 07:00","2001","01","11","07:00","-1.4","","-4.8","","78","","25","","13","","12.9","","99.42","","","","-6","","Cloudy"
"2001-01-11 08:00","2001","01","11","08:00","-0.7","","-3.9","","79","","24","","11","","9.7","","99.45","","","","-4","","Haze"
"2001-01-11 09:00","2001","01","11","09:00","0.9","","-2.5","","78","","27","","15","","8.0","","99.52","","","","","","Haze"
"2001-01-11 10:00","2001","01","11","10:00","1.4","","-1.6","","80","","27","","20","","6.4","","99.59","","","","","","Haze"
"2001-01-11 11:00","2001","01","11","11:00","1.8","","-1.2","","80","","27","","15","","8.0","","99.69","","","","","","Haze"
"2001-01-11 12:00","2001","01","11","12:00","2.5","","-1.1","","77","","32","","11","","8.0","","99.62","","","","","","Haze"
"2001-01-11 13:00","2001","01","11","13:00","2.7","","-1.1","","76","","32","","11","","9.7","","99.65","","","","","","Haze"
"2001-01-11 14:00","2001","01","11","14:00","3.3","","-2.0","","68","","28","","15","","12.9","","99.65","","","","","","Mainly Clear"
"2001-01-11 15:00","2001","01","11","15:00","3.4","","-2.3","","66","","30","","13","","12.9","","99.65","","","","","","Clear"
"2001-01-11 16:00","2001","01","11","16:00","3.4","","-2.7","","64","","30","","11","","14.5","","99.69","","","","","","Clear"
"2001-01-11 17:00","2001","01","11","17:00","2.2","","-3.2","","67","","29","","9","","12.9","","99.72","","","","","","Mainly Clear"
"2001-01-11 18:00","2001","01","11","18:00","1.1","","-3.6","","71","","30","","9","","16.1","","99.79","","","","","","Clear"
"2001-01-11 19:00","2001","01","11","19:00","1.1","","-4.1","","68","","1","","15","","19.3","","99.85","","","","","","Clear"
"2001-01-11 20:00","2001","01","11","20:00","-0.7","","-4.6","","75","","1","","15","","19.3","","99.89","","","","-5","","Clear"
"2001-01-11 21:00","2001","01","11","21:00","-2.0","","-5.3","","78","","30","","6","","19.3","","99.92","","","","-4","","Clear"
"2001-01-11 22:00","2001","01","11","22:00","-2.3","","-5.2","","80","","33","","7","","19.3","","99.92","","","","-5","","Clear"
"2001-01-11 23:00","2001","01","11","23:00","-3.9","","-6.0","","85","","33","","9","","19.3","","99.95","","","","-8","","Clear"
"2001-01-12 00:00","2001","01","12","00:00","-5.4","","-7.4","","86","","32","","11","","9.7","","99.95","","","","-10","","Fog"
"2001-01-12 01:00","2001","01","12","01:00","-6.0","","-7.9","","86","","33","","15","","9.7","","100.02","","","","-12","","Fog"
"2001-01-12 02:00","2001","01","12","02:00","-6.5","","-8.5","","86","","34","","9","","9.7","","100.05","","","","-11","","Fog"
"2001-01-12 03:00","2001","01","12","03:00","-7.2","","-9.3","","85","","32","","13","","8.0","","100.12","","","","-13","","Fog"
"2001-01-12 04:00","2001","01","12","04:00","-4.3","","-5.9","","89","","35","","11","","1.2","","100.12","","","","-9","","Fog"
"2001-01-12 05:00","2001","01","12","05:00","-4.8","","-6.3","","89","","36","","15","","0.6","","100.12","","","","-10","","Freezing Fog"
"2001-01-12 06:00","2001","01","12","06:00","-6.1","","-7.7","","88","","1","","13","","2.4","","100.12","","","","-11","","Fog"
"2001-01-12 07:00","2001","01","12","07:00","-7.6","","-9.4","","87","","35","","6","","9.7","","100.15","","","","-11","","Fog"
"2001-01-12 08:00","2001","01","12","08:00","-7.9","","-9.5","","88","","36","","6","","16.1","","100.22","","","","-11","","Mostly Cloudy"
"2001-01-12 09:00","2001","01","12","09:00","-6.6","","-8.8","","84","","36","","7","","12.9","","100.25","","","","-10","","Mostly Cloudy"
"2001-01-12 10:00","2001","01","12","10:00","-5.2","","-8.1","","80","","36","","7","","19.3","","100.32","","","","-8","","Mostly Cloudy"
"2001-01-12 11:00","2001","01","12","11:00","-3.9","","-7.1","","78","","36","","7","","16.1","","100.35","","","","-7","","Mostly Cloudy"
"2001-01-12 12:00","2001","01","12","12:00","-2.2","","-6.0","","75","","36","","7","","12.9","","100.32","","","","-5","","Mostly Cloudy"
"2001-01-12 13:00","2001","01","12","13:00","-1.0","","-5.2","","73","","36","","4","","11.3","","100.32","","","","-2","","Mostly Cloudy"
"2001-01-12 14:00","2001","01","12","14:00","0.3","","-4.3","","71","","25","","4","","14.5","","100.32","","","","","","Mostly Cloudy"
"2001-01-12 15:00","2001","01","12","15:00","1.1","","-4.3","","67","","14","","7","","16.1","","100.29","","","","","","Mostly Cloudy"
"2001-01-12 16:00","2001","01","12","16:00","0.0","","-4.2","","73","","8","","11","","19.3","","100.35","","","","-4","","Mostly Cloudy"
"2001-01-12 17:00","2001","01","12","17:00","-0.2","","-4.1","","75","","9","","11","","24.1","","100.35","","","","-4","","Mostly Cloudy"
"2001-01-12 18:00","2001","01","12","18:00","-1.1","","-4.5","","78","","9","","17","","19.3","","100.35","","","","-6","","Mostly Cloudy"
"2001-01-12 19:00","2001","01","12","19:00","-1.4","","-4.3","","81","","11","","6","","24.1","","100.39","","","","-4","","Cloudy"
"2001-01-12 20:00","2001","01","12","20:00","-1.3","","-4.0","","82","","7","","6","","24.1","","100.35","","","","-4","","Cloudy"
"2001-01-12 21:00","2001","01","12","21:00","-1.0","","-4.0","","80","","10","","7","","16.1","","100.35","","","","-4","","Cloudy"
"2001-01-12 22:00","2001","01","12","22:00","-1.2","","-3.8","","82","","4","","6","","19.3","","100.35","","","","-3","","Cloudy"
"2001-01-12 23:00","2001","01","12","23:00","-1.0","","-3.7","","82","","9","","6","","16.1","","100.35","","","","-3","","Cloudy"
"2001-01-13 00:00","2001","01","13","00:00","-0.9","","-3.8","","81","","11","","6","","19.3","","100.35","","","","-3","","Cloudy"
"2001-01-13 01:00","2001","01","13","01:00","-1.3","","-4.4","","79","","36","","7","","24.1","","100.39","","","","-4","","Mostly Cloudy"
"2001-01-13 02:00","2001","01","13","02:00","-2.4","","-4.9","","83","","3","","6","","11.3","","100.35","","","","-5","","Cloudy"
"2001-01-13 03:00","2001","01","13","03:00","-3.9","","-5.8","","87","","","","0","","11.3","","100.32","","","","","","Mainly Clear"
"2001-01-13 04:00","2001","01","13","04:00","-5.6","","-7.5","","86","","33","","7","","12.9","","100.25","","","","-9","","Clear"
"2001-01-13 05:00","2001","01","13","05:00","-5.7","","-7.0","","91","","35","","9","","12.9","","100.25","","","","-10","","Clear"
"2001-01-13 06:00","2001","01","13","06:00","-5.7","","-7.4","","88","","32","","13","","9.7","","100.29","","","","-11","","Fog"
"2001-01-13 07:00","2001","01","13","07:00","-4.8","","-6.4","","89","","33","","4","","9.7","","100.32","","","","-7","","Fog"
"2001-01-13 08:00","2001","01","13","08:00","-4.1","","-5.8","","88","","29","","7","","6.4","","100.29","","","","-7","","Fog"
"2001-01-13 09:00","2001","01","13","09:00","-3.0","","-4.8","","87","","22","","7","","6.4","","100.32","","","","-6","","Fog"
"2001-01-13 10:00","2001","01","13","10:00","-1.6","","-4.2","","82","","24","","9","","8.0","","100.35","","","","-5","","Haze"
"2001-01-13 11:00","2001","01","13","11:00","-0.7","","-3.7","","80","","25","","11","","6.4","","100.35","","","","-4","","Haze"
"2001-01-13 12:00","2001","01","13","12:00","-0.2","","-3.1","","81","","23","","6","","4.8","","100.32","","","","-2","","Haze"
"2001-01-13 13:00","2001","01","13","13:00","1.2","","-2.0","","79","","23","","11","","4.8","","100.22","","","","","","Haze"
"2001-01-13 14:00","2001","01","13","14:00","1.5","","-1.6","","80","","24","","17","","6.4","","100.19","","","","","","Haze"
"2001-01-13 15:00","2001","01","13","15:00","1.6","","-1.4","","80","","24","","9","","4.0","","100.25","","","","","","Haze"
"2001-01-13 16:00","2001","01","13","16:00","1.4","","-1.6","","80","","25","","11","","3.6","","100.25","","","","","","Haze"
"2001-01-13 17:00","2001","01","13","17:00","1.4","","-1.6","","80","","21","","13","","3.6","","100.29","","","","","","Haze"
"2001-01-13 18:00","2001","01","13","18:00","1.3","","-1.6","","81","","22","","15","","4.0","","100.32","","","","","","Haze"
"2001-01-13 19:00","2001","01","13","19:00","1.1","","-1.7","","82","","25","","9","","4.8","","100.35","","","","","","Haze"
"2001-01-13 20:00","2001","01","13","20:00","1.2","","-2.1","","79","","23","","9","","6.4","","100.39","","","","","","Haze"
"2001-01-13 21:00","2001","01","13","21:00","0.9","","-2.4","","79","","26","","9","","6.4","","100.39","","","","","","Haze"
"2001-01-13 22:00","2001","01","13","22:00","0.6","","-2.4","","80","","29","","9","","8.0","","100.35","","","","","","Haze"
"2001-01-13 23:00","2001","01","13","23:00","0.5","","-2.6","","80","","25","","6","","8.0","","100.32","","","","","","Haze"
"2001-01-14 00:00","2001","01","14","00:00","0.4","","-2.4","","81","","26","","6","","8.0","","100.32","","","","","","Haze"
"2001-01-14 01:00","2001","01","14","01:00","0.1","","-2.0","","86","","27","","9","","4.8","","100.29","","","","","","Haze"
"2001-01-14 02:00","2001","01","14","02:00","-0.1","","-1.7","","89","","24","","6","","3.2","","100.29","","","","-2","","Drizzle,Fog"
"2001-01-14 03:00","2001","01","14","03:00","-0.2","","-1.6","","90","","","","0","","4.0","","100.29","","","","","","Fog"
"2001-01-14 04:00","2001","01","14","04:00","-0.1","","-1.7","","89","","21","","4","","6.4","","100.25","","","","-1","","Fog"
"2001-01-14 05:00","2001","01","14","05:00","-0.1","","-1.8","","88","","16","","4","","4.8","","100.15","","","","-1","","Fog"
"2001-01-14 06:00","2001","01","14","06:00","-0.1","","-1.9","","88","","","","0","","4.8","","100.12","","","","","","Fog"
"2001-01-14 07:00","2001","01","14","07:00","0.1","","-1.8","","87","","","","0","","6.4","","100.19","","","","","","Fog"
"2001-01-14 08:00","2001","01","14","08:00","0.0","","-1.9","","87","","9","","6","","4.8","","100.15","","","","-2","","Fog"
"2001-01-14 09:00","2001","01","14","09:00","0.4","","-2.2","","83","","15","","4","","8.0","","100.25","","","","","","Haze"
"2001-01-14 10:00","2001","01","14","10:00","0.6","","-2.7","","79","","6","","11","","8.0","","100.19","","","","","","Haze"
"2001-01-14 11:00","2001","01","14","11:00","0.8","","-2.0","","82","","11","","7","","6.4","","100.22","","","","","","Haze"
"2001-01-14 12:00","2001","01","14","12:00","1.1","","-1.6","","82","","13","","11","","6.4","","100.05","","","","","","Haze"
"2001-01-14 13:00","2001","01","14","13:00","1.0","","-1.8","","82","","16","","6","","6.4","","100.05","","","","","","Haze"
"2001-01-14 14:00","2001","01","14","14:00","1.2","","-2.1","","79","","13","","7","","8.0","","100.02","","","","","","Haze"
"2001-01-14 15:00","2001","01","14","15:00","1.3","","-2.1","","78","","9","","13","","9.7","","99.99","","","","","","Haze"
"2001-01-14 16:00","2001","01","14","16:00","1.2","","-2.0","","79","","9","","9","","9.7","","99.99","","","","","","Haze"
"2001-01-14 17:00","2001","01","14","17:00","1.2","","-1.8","","80","","8","","17","","8.0","","99.99","","","","","","Haze"
"2001-01-14 18:00","2001","01","14","18:00","1.2","","-1.7","","81","","9","","11","","9.7","","99.99","","","","","","Haze"
"2001-01-14 19:00","2001","01","14","19:00","1.3","","-1.4","","82","","10","","13","","8.0","","99.99","","","","","","Haze"
"2001-01-14 20:00","2001","01","14","20:00","1.4","","-0.9","","85","","9","","17","","8.0","","99.95","","","","","","Haze"
"2001-01-14 21:00","2001","01","14","21:00","1.6","","-0.5","","86","","10","","17","","6.4","","99.92","","","","","","Haze"
"2001-01-14 22:00","2001","01","14","22:00","1.7","","-0.4","","86","","10","","20","","6.4","","99.89","","","","","","Rain,Snow,Haze"
"2001-01-14 23:00","2001","01","14","23:00","1.5","","-0.3","","88","","10","","24","","8.0","","99.82","","","","","","Snow,Fog"
"2001-01-15 00:00","2001","01","15","00:00","1.4","","-0.4","","88","","10","","24","","6.4","","99.79","","","","","","Rain,Snow,Fog"
"2001-01-15 01:00","2001","01","15","01:00","1.1","","-0.3","","90","","10","","17","","4.8","","99.75","","","","","","Rain,Snow,Fog"
"2001-01-15 02:00","2001","01","15","02:00","0.9","","-0.6","","90","","9","","19","","4.8","","99.69","","","","","","Drizzle,Fog"
"2001-01-15 03:00","2001","01","15","03:00","0.3","","-1.2","","90","","10","","22","","4.8","","99.65","","","","","","Drizzle,Fog"
"2001-01-15 04:00","2001","01","15","04:00","0.2","","-1.2","","90","","10","","15","","4.8","","99.59","","","","","","Drizzle,Fog"
"2001-01-15 05:00","2001","01","15","05:00","0.2","","-1.1","","91","","9","","19","","4.0","","99.52","","","","","","Drizzle,Fog"
"2001-01-15 06:00","2001","01","15","06:00","0.4","","-0.8","","92","","9","","11","","4.8","","99.49","","","","","","Freezing Drizzle,Fog"
"2001-01-15 07:00","2001","01","15","07:00","0.4","","-0.9","","91","","9","","19","","4.0","","99.39","","","","","","Fog"
"2001-01-15 08:00","2001","01","15","08:00","0.4","","-0.8","","92","","9","","13","","3.2","","99.39","","","","","","Fog"
"2001-01-15 09:00","2001","01","15","09:00","0.6","","-0.6","","92","","9","","15","","1.6","","99.32","","","","","","Rain,Fog"
"2001-01-15 10:00","2001","01","15","10:00","0.8","","-0.4","","92","","9","","17","","1.0","","99.26","","","","","","Rain,Drizzle,Fog"
"2001-01-15 11:00","2001","01","15","11:00","1.1","","0.0","","92","","10","","13","","1.0","","99.19","","","","","","Drizzle,Fog"
"2001-01-15 12:00","2001","01","15","12:00","1.2","","0.2","","93","","10","","9","","1.0","","99.09","","","","","","Rain,Drizzle,Fog"
"2001-01-15 13:00","2001","01","15","13:00","1.4","","0.4","","93","","9","","7","","1.0","","99.02","","","","","","Drizzle,Fog"
"2001-01-15 14:00","2001","01","15","14:00","1.4","","0.4","","93","","9","","9","","1.0","","98.96","","","","","","Fog"
"2001-01-15 15:00","2001","01","15","15:00","1.4","","0.6","","94","","10","","4","","0.8","","98.96","","","","","","Rain,Fog"
"2001-01-15 16:00","2001","01","15","16:00","1.9","","1.1","","94","","12","","7","","0.2","","98.89","","","","","","Fog"
"2001-01-15 17:00","2001","01","15","17:00","1.9","","1.2","","95","","16","","7","","0.2","","98.89","","","","","","Fog"
"2001-01-15 18:00","2001","01","15","18:00","2.1","","0.9","","92","","22","","15","","4.8","","98.89","","","","","","Fog"
"2001-01-15 19:00","2001","01","15","19:00","1.8","","0.0","","88","","24","","22","","8.0","","98.92","","","","","","Fog"
"2001-01-15 20:00","2001","01","15","20:00","1.8","","0.0","","88","","23","","19","","8.0","","98.92","","","","","","Fog"
"2001-01-15 21:00","2001","01","15","21:00","1.9","","-0.4","","85","","23","","17","","11.3","","98.92","","","","","","Cloudy"
"2001-01-15 22:00","2001","01","15","22:00","1.8","","-0.7","","83","","23","","13","","19.3","","98.92","","","","","","Cloudy"
"2001-01-15 23:00","2001","01","15","23:00","1.7","","-0.5","","85","","26","","17","","19.3","","98.92","","","","","","Cloudy"
"2001-01-16 00:00","2001","01","16","00:00","1.6","","-0.4","","87","","25","","19","","16.1","","98.89","","","","","","Cloudy"
"2001-01-16 01:00","2001","01","16","01:00","1.7","","-0.6","","85","","24","","20","","19.3","","98.89","","","","","","Cloudy"
"2001-01-16 02:00","2001","01","16","02:00","1.9","","-0.9","","82","","25","","26","","19.3","","98.86","","","","","","Cloudy"
"2001-01-16 03:00","2001","01","16","03:00","1.7","","-1.0","","82","","25","","19","","19.3","","98.89","","","","","","Cloudy"
"2001-01-16 04:00","2001","01","16","04:00","1.7","","-1.1","","82","","26","","20","","19.3","","98.89","","","","","","Cloudy"
"2001-01-16 05:00","2001","01","16","05:00","1.9","","-1.3","","79","","26","","22","","19.3","","98.92","","","","","","Cloudy"
"2001-01-16 06:00","2001","01","16","06:00","2.0","","-1.2","","79","","27","","20","","24.1","","98.96","","","","","","Cloudy"
"2001-01-16 07:00","2001","01","16","07:00","2.0","","-1.3","","79","","27","","22","","24.1","","99.02","","","","","","Cloudy"
"2001-01-16 08:00","2001","01","16","08:00","1.9","","-1.2","","80","","27","","22","","19.3","","99.09","","","","","","Cloudy"
"2001-01-16 09:00","2001","01","16","09:00","1.7","","-1.4","","80","","29","","28","","19.3","","99.16","","","","","","Drizzle"
"2001-01-16 10:00","2001","01","16","10:00","1.8","","-2.1","","75","","28","","22","","24.1","","99.26","","","","","","Cloudy"
"2001-01-16 11:00","2001","01","16","11:00","2.0","","-2.2","","74","","29","","30","","24.1","","99.35","","","","","","Cloudy"
"2001-01-16 12:00","2001","01","16","12:00","1.9","","-2.2","","74","","28","","24","","24.1","","99.35","","","","","","Cloudy"
"2001-01-16 13:00","2001","01","16","13:00","2.3","","-2.4","","71","","29","","33","","24.1","","99.35","","","","","","Cloudy"
"2001-01-16 14:00","2001","01","16","14:00","2.4","","-2.2","","72","","29","","19","","24.1","","99.35","","","","","","Cloudy"
"2001-01-16 15:00","2001","01","16","15:00","2.0","","-2.0","","75","","28","","19","","24.1","","99.39","","","","","","Cloudy"
"2001-01-16 16:00","2001","01","16","16:00","2.0","","-2.2","","74","","29","","26","","24.1","","99.45","","","","","","Cloudy"
"2001-01-16 17:00","2001","01","16","17:00","1.8","","-2.4","","74","","31","","20","","24.1","","99.55","","","","","","Cloudy"
"2001-01-16 18:00","2001","01","16","18:00","0.4","","-3.2","","77","","35","","13","","24.1","","99.65","","","","","","Cloudy"
"2001-01-16 19:00","2001","01","16","19:00","-0.4","","-3.9","","77","","36","","13","","24.1","","99.75","","","","-5","","Cloudy"
"2001-01-16 20:00","2001","01","16","20:00","-1.2","","-4.7","","77","","2","","15","","24.1","","99.82","","","","-6","","Snow Showers"
"2001-01-16 21:00","2001","01","16","21:00","-1.7","","-5.2","","77","","36","","13","","9.7","","99.85","","","","-6","","Snow Showers"
"2001-01-16 22:00","2001","01","16","22:00","-2.0","","-5.2","","79","","36","","13","","24.1","","99.85","","","","-6","","Snow Showers"
"2001-01-16 23:00","2001","01","16","23:00","-1.7","","-5.6","","75","","32","","15","","24.1","","99.92","","","","-7","","Snow Showers"
"2001-01-17 00:00","2001","01","17","00:00","-1.9","","-6.3","","72","","30","","17","","24.1","","99.95","","","","-7","","Snow Showers"
"2001-01-17 01:00","2001","01","17","01:00","-1.9","","-6.0","","74","","31","","15","","19.3","","99.92","","","","-7","","Snow Showers"
"2001-01-17 02:00","2001","01","17","02:00","-2.3","","-6.0","","76","","32","","11","","19.3","","99.92","","","","-6","","Snow Showers"
"2001-01-17 03:00","2001","01","17","03:00","-2.2","","-5.8","","76","","33","","11","","19.3","","99.95","","","","-6","","Snow Showers"
"2001-01-17 04:00","2001","01","17","04:00","-2.2","","-5.9","","76","","31","","9","","19.3","","99.95","","","","-6","","Snow Showers"
"2001-01-17 05:00","2001","01","17","05:00","-3.3","","-6.5","","78","","2","","11","","16.1","","99.95","","","","-8","","Snow Showers"
"2001-01-17 06:00","2001","01","17","06:00","-3.9","","-6.8","","80","","2","","7","","12.9","","99.99","","","","-7","","Snow Showers"
"2001-01-17 07:00","2001","01","17","07:00","-4.1","","-7.3","","78","","36","","9","","24.1","","100.02","","","","-8","","Mostly Cloudy"
"2001-01-17 08:00","2001","01","17","08:00","-4.0","","-7.1","","79","","","","0","","19.3","","100.05","","","","","","Mostly Cloudy"
"2001-01-17 09:00","2001","01","17","09:00","-3.8","","-6.8","","80","","32","","7","","19.3","","100.09","","","","-7","","Cloudy"
"2001-01-17 10:00","2001","01","17","10:00","-2.8","","-6.6","","75","","28","","6","","24.1","","100.12","","","","-5","","Mostly Cloudy"
"2001-01-17 11:00","2001","01","17","11:00","-2.0","","-6.6","","71","","29","","22","","24.1","","100.15","","","","-8","","Mostly Cloudy"
"2001-01-17 12:00","2001","01","17","12:00","-1.6","","-6.5","","69","","32","","17","","24.1","","100.09","","","","-7","","Mostly Cloudy"
"2001-01-17 13:00","2001","01","17","13:00","-2.0","","-6.6","","71","","36","","9","","24.1","","100.05","","","","-5","","Mostly Cloudy"
"2001-01-17 14:00","2001","01","17","14:00","-2.9","","-7.5","","71","","36","","15","","24.1","","100.05","","","","-8","","Cloudy"
"2001-01-17 15:00","2001","01","17","15:00","-3.3","","-7.8","","71","","36","","15","","12.9","","100.05","","","","-8","","Snow Showers"
"2001-01-17 16:00","2001","01","17","16:00","-3.5","","-7.7","","73","","1","","7","","16.1","","100.12","","","","-6","","Snow Showers"
"2001-01-17 17:00","2001","01","17","17:00","-3.9","","-8.1","","73","","2","","6","","12.9","","100.12","","","","-7","","Snow Showers"
"2001-01-17 18:00","2001","01","17","18:00","-3.9","","-8.2","","72","","1","","7","","24.1","","100.15","","","","-7","","Snow Showers"
"2001-01-17 19:00","2001","01","17","19:00","-3.9","","-8.7","","69","","6","","4","","24.1","","100.15","","","","-6","","Snow Showers"
"2001-01-17 20:00","2001","01","17","20:00","-3.9","","-8.6","","70","","","","0","","19.3","","100.15","","","","","","Snow Showers"
"2001-01-17 21:00","2001","01","17","21:00","-3.8","","-7.8","","74","","","","0","","14.5","","100.15","","","","","","Snow Showers"
"2001-01-17 22:00","2001","01","17","22:00","-4.0","","-7.2","","78","","15","","6","","11.3","","100.15","","","","-7","","Snow Showers"
"2001-01-17 23:00","2001","01","17","23:00","-4.2","","-7.3","","79","","15","","9","","12.9","","100.09","","","","-8","","Snow Showers"
"2001-01-18 00:00","2001","01","18","00:00","-3.9","","-7.1","","78","","13","","17","","24.1","","100.02","","","","-10","","Snow Showers"
"2001-01-18 01:00","2001","01","18","01:00","-3.5","","-6.4","","80","","13","","11","","24.1","","99.95","","","","-8","","Snow Showers"
"2001-01-18 02:00","2001","01","18","02:00","-3.0","","-5.3","","84","","11","","6","","16.1","","99.92","","","","-5","","Snow Showers"
"2001-01-18 03:00","2001","01","18","03:00","-2.6","","-5.0","","84","","14","","6","","12.9","","99.92","","","","-5","","Snow"
"2001-01-18 04:00","2001","01","18","04:00","-2.4","","-6.1","","76","","19","","7","","16.1","","99.85","","","","-5","","Snow"
"2001-01-18 05:00","2001","01","18","05:00","-2.0","","-5.2","","79","","22","","13","","16.1","","99.79","","","","-6","","Cloudy"
"2001-01-18 06:00","2001","01","18","06:00","-1.9","","-4.6","","82","","21","","11","","16.1","","99.75","","","","-6","","Snow"
"2001-01-18 07:00","2001","01","18","07:00","-1.1","","-4.3","","79","","21","","13","","16.1","","99.75","","","","-5","","Cloudy"
"2001-01-18 08:00","2001","01","18","08:00","-1.1","","-5.2","","74","","24","","20","","16.1","","99.75","","","","-7","","Cloudy"
"2001-01-18 09:00","2001","01","18","09:00","-1.1","","-5.4","","73","","23","","17","","14.5","","99.75","","","","-6","","Cloudy"
"2001-01-18 10:00","2001","01","18","10:00","-0.8","","-4.8","","74","","22","","15","","12.9","","99.69","","","","-5","","Cloudy"
"2001-01-18 11:00","2001","01","18","11:00","-0.5","","-4.6","","74","","21","","19","","12.9","","99.65","","","","-6","","Cloudy"
"2001-01-18 12:00","2001","01","18","12:00","-0.2","","-4.4","","73","","21","","22","","16.1","","99.55","","","","-6","","Cloudy"
"2001-01-18 13:00","2001","01","18","13:00","0.5","","-4.4","","70","","22","","30","","16.1","","99.49","","","","","","Mostly Cloudy"
"2001-01-18 14:00","2001","01","18","14:00","0.3","","-4.7","","69","","23","","28","","16.1","","99.45","","","","","","Mainly Clear"
"2001-01-18 15:00","2001","01","18","15:00","0.9","","-4.6","","67","","23","","28","","16.1","","99.39","","","","","","Mainly Clear"
"2001-01-18 16:00","2001","01","18","16:00","0.8","","-4.8","","66","","23","","20","","12.9","","99.39","","","","","","Mainly Clear"
"2001-01-18 17:00","2001","01","18","17:00","0.2","","-5.0","","68","","22","","15","","9.7","","99.35","","","","","","Haze"
"2001-01-18 18:00","2001","01","18","18:00","-0.8","","-5.2","","72","","24","","13","","11.3","","99.39","","","","-5","","Mainly Clear"
"2001-01-18 19:00","2001","01","18","19:00","-1.6","","-5.2","","76","","26","","13","","19.3","","99.39","","","","-6","","Mostly Cloudy"
"2001-01-18 20:00","2001","01","18","20:00","-2.6","","-6.0","","77","","25","","13","","16.1","","99.35","","","","-7","","Mainly Clear"
"2001-01-18 21:00","2001","01","18","21:00","-2.9","","-6.0","","79","","26","","9","","16.1","","99.32","","","","-6","","Mainly Clear"
"2001-01-18 22:00","2001","01","18","22:00","-2.7","","-6.1","","77","","24","","13","","16.1","","99.32","","","","-7","","Mainly Clear"
"2001-01-18 23:00","2001","01","18","23:00","-3.0","","-6.2","","79","","26","","9","","16.1","","99.32","","","","-7","","Cloudy"
"2001-01-19 00:00","2001","01","19","00:00","-2.4","","-5.6","","79","","30","","9","","16.1","","99.29","","","","-6","","Mostly Cloudy"
"2001-01-19 01:00","2001","01","19","01:00","-2.2","","-5.8","","76","","27","","17","","11.3","","99.32","","","","-8","","Cloudy"
"2001-01-19 02:00","2001","01","19","02:00","-2.1","","-5.5","","77","","27","","9","","14.5","","99.35","","","","-6","","Cloudy"
"2001-01-19 03:00","2001","01","19","03:00","-2.0","","-5.8","","75","","29","","9","","11.3","","99.32","","","","-5","","Cloudy"
"2001-01-19 04:00","2001","01","19","04:00","-2.0","","-5.6","","76","","21","","4","","11.3","","99.22","","","","-3","","Cloudy"
"2001-01-19 05:00","2001","01","19","05:00","-1.9","","-5.4","","77","","23","","7","","11.3","","99.22","","","","-5","","Cloudy"
"2001-01-19 06:00","2001","01","19","06:00","-1.9","","-5.3","","78","","24","","9","","11.3","","99.26","","","","-5","","Cloudy"
"2001-01-19 07:00","2001","01","19","07:00","-1.9","","-5.3","","78","","26","","9","","11.3","","99.22","","","","-5","","Cloudy"
"2001-01-19 08:00","2001","01","19","08:00","-2.0","","-4.9","","81","","26","","9","","8.0","","99.26","","","","-5","","Haze"
"2001-01-19 09:00","2001","01","19","09:00","-1.6","","-5.0","","78","","22","","11","","4.8","","99.32","","","","-5","","Haze"
"2001-01-19 10:00","2001","01","19","10:00","-1.6","","-4.5","","81","","25","","11","","4.0","","99.32","","","","-5","","Snow Grains,Haze"
"2001-01-19 11:00","2001","01","19","11:00","-1.2","","-4.0","","81","","27","","13","","4.0","","99.35","","","","-5","","Snow Grains,Haze"
"2001-01-19 12:00","2001","01","19","12:00","-0.6","","-3.9","","78","","31","","13","","4.8","","99.32","","","","-5","","Haze"
"2001-01-19 13:00","2001","01","19","13:00","0.2","","-4.1","","73","","36","","19","","9.7","","99.26","","","","","","Haze"
"2001-01-19 14:00","2001","01","19","14:00","-0.3","","-4.8","","72","","36","","19","","14.5","","99.22","","","","-5","","Cloudy"
"2001-01-19 15:00","2001","01","19","15:00","-1.4","","-6.2","","70","","35","","26","","12.9","","99.32","","","","-8","","Snow"
"2001-01-19 16:00","2001","01","19","16:00","-3.1","","-7.8","","70","","35","","28","","24.1","","99.45","","","","-10","","Mostly Cloudy"
"2001-01-19 17:00","2001","01","19","17:00","-5.3","","-10.7","","66","","35","","32","","24.1","","99.55","","","","-14","","Mainly Clear"
"2001-01-19 18:00","2001","01","19","18:00","-6.7","","-12.4","","64","","35","","32","","24.1","","99.62","","","","-15","","Mainly Clear"
"2001-01-19 19:00","2001","01","19","19:00","-7.6","","-12.5","","68","","34","","33","","24.1","","99.72","","","","-17","","Clear"
"2001-01-19 20:00","2001","01","19","20:00","-8.3","","-12.7","","71","","35","","28","","24.1","","99.79","","","","-17","","Mainly Clear"
"2001-01-19 21:00","2001","01","19","21:00","-9.3","","-14.0","","69","","35","","32","","24.1","","99.85","","","","-19","","Mainly Clear"
"2001-01-19 22:00","2001","01","19","22:00","-10.3","","-15.4","","66","","36","","26","","24.1","","99.85","","","","-19","","Clear"
"2001-01-19 23:00","2001","01","19","23:00","-11.8","","-16.5","","68","","36","","22","","24.1","","99.92","","","","-21","","Clear"
"2001-01-20 00:00","2001","01","20","00:00","-13.2","","-17.4","","71","","35","","19","","24.1","","99.95","","","","-22","","Clear"
"2001-01-20 01:00","2001","01","20","01:00","-14.4","","-18.6","","70","","36","","19","","24.1","","100.09","","","","-23","","Mainly Clear"
"2001-01-20 02:00","2001","01","20","02:00","-15.2","","-19.2","","71","","36","","22","","24.1","","100.02","","","","-25","","Clear"
"2001-01-20 03:00","2001","01","20","03:00","-15.6","","-19.6","","71","","1","","22","","24.1","","100.05","","","","-25","","Clear"
"2001-01-20 04:00","2001","01","20","04:00","-16.2","","-20.2","","71","","35","","17","","24.1","","100.05","","","","-25","","Clear"
"2001-01-20 05:00","2001","01","20","05:00","-16.9","","-20.8","","72","","36","","20","","24.1","","100.05","","","","-27","","Clear"
"2001-01-20 06:00","2001","01","20","06:00","-17.2","","-21.0","","72","","35","","13","","24.1","","100.09","","","","-25","","Clear"
"2001-01-20 07:00","2001","01","20","07:00","-17.3","","-20.9","","73","","34","","15","","24.1","","100.12","","","","-26","","Clear"
"2001-01-20 08:00","2001","01","20","08:00","-17.6","","-21.7","","70","","36","","20","","24.1","","100.15","","","","-27","","Clear"
"2001-01-20 09:00","2001","01","20","09:00","-17.1","","-21.4","","69","","35","","19","","24.1","","100.15","","","","-27","","Clear"
"2001-01-20 10:00","2001","01","20","10:00","-16.0","","-20.5","","68","","36","","13","","24.1","","100.15","","","","-24","","Clear"
"2001-01-20 11:00","2001","01","20","11:00","-13.7","","-19.5","","62","","34","","7","","24.1","","100.22","","","","-18","","Clear"
"2001-01-20 12:00","2001","01","20","12:00","-12.2","","-18.6","","59","","36","","13","","24.1","","100.09","","","","-19","","Clear"
"2001-01-20 13:00","2001","01","20","13:00","-10.3","","-17.2","","57","","36","","11","","24.1","","99.95","","","","-16","","Clear"
"2001-01-20 14:00","2001","01","20","14:00","-8.7","","-17.4","","49","","1","","9","","24.1","","99.89","","","","-13","","Clear"
"2001-01-20 15:00","2001","01","20","15:00","-7.9","","-17.5","","46","","3","","7","","24.1","","99.89","","","","-12","","Clear"
"2001-01-20 16:00","2001","01","20","16:00","-7.3","","-17.7","","43","","28","","6","","24.1","","99.89","","","","-10","","Clear"
"2001-01-20 17:00","2001","01","20","17:00","-8.6","","-17.9","","47","","36","","11","","24.1","","99.85","","","","-14","","Clear"
"2001-01-20 18:00","2001","01","20","18:00","-9.1","","-18.5","","46","","36","","13","","24.1","","99.85","","","","-15","","Clear"
"2001-01-20 19:00","2001","01","20","19:00","-10.4","","-18.5","","51","","35","","13","","24.1","","99.82","","","","-17","","Clear"
"2001-01-20 20:00","2001","01","20","20:00","-11.1","","-19.4","","50","","32","","13","","24.1","","99.82","","","","-18","","Clear"
"2001-01-20 21:00","2001","01","20","21:00","-11.3","","-19.6","","50","","31","","11","","24.1","","99.79","","","","-17","","Mainly Clear"
"2001-01-20 22:00","2001","01","20","22:00","-11.9","","-18.9","","56","","27","","9","","24.1","","99.79","","","","-17","","Mainly Clear"
"2001-01-20 23:00","2001","01","20","23:00","-12.6","","-18.4","","62","","27","","11","","24.1","","99.75","","","","-19","","Mostly Cloudy"
"2001-01-21 00:00","2001","01","21","00:00","-11.4","","-16.5","","66","","25","","7","","24.1","","99.79","","","","-16","","Mostly Cloudy"
"2001-01-21 01:00","2001","01","21","01:00","-11.8","","-15.9","","72","","30","","15","","24.1","","99.75","","","","-19","","Mainly Clear"
"2001-01-21 02:00","2001","01","21","02:00","-11.4","","-14.3","","79","","28","","4","","24.1","","99.75","","","","-14","","Clear"
"2001-01-21 03:00","2001","01","21","03:00","-12.8","","-15.2","","82","","29","","11","","24.1","","99.75","","","","-19","","Clear"
"2001-01-21 04:00","2001","01","21","04:00","-10.7","","-13.4","","80","","30","","17","","24.1","","99.69","","","","-18","","Mainly Clear"
"2001-01-21 05:00","2001","01","21","05:00","-11.3","","-13.6","","83","","27","","9","","24.1","","99.69","","","","-16","","Mainly Clear"
"2001-01-21 06:00","2001","01","21","06:00","-10.0","","-12.8","","80","","23","","9","","24.1","","99.75","","","","-15","","Clear"
"2001-01-21 07:00","2001","01","21","07:00","-10.8","","-13.5","","80","","24","","15","","24.1","","99.82","","","","-18","","Mainly Clear"
"2001-01-21 08:00","2001","01","21","08:00","-11.8","","-14.0","","84","","25","","15","","24.1","","99.85","","","","-19","","Mainly Clear"
"2001-01-21 09:00","2001","01","21","09:00","-10.7","","-13.3","","81","","26","","15","","20.9","","99.92","","","","-18","","Mainly Clear"
"2001-01-21 10:00","2001","01","21","10:00","-8.0","","-11.2","","78","","27","","15","","24.1","","99.95","","","","-14","","Mainly Clear"
"2001-01-21 11:00","2001","01","21","11:00","-8.1","","-11.8","","75","","24","","13","","20.9","","99.99","","","","-14","","Mostly Cloudy"
"2001-01-21 12:00","2001","01","21","12:00","-6.6","","-10.7","","73","","23","","9","","16.1","","99.99","","","","-11","","Mostly Cloudy"
"2001-01-21 13:00","2001","01","21","13:00","-4.6","","-9.6","","68","","28","","24","","19.3","","99.95","","","","-12","","Mostly Cloudy"
"2001-01-21 14:00","2001","01","21","14:00","-3.6","","-8.9","","67","","27","","22","","19.3","","99.95","","","","-10","","Mostly Cloudy"
"2001-01-21 15:00","2001","01","21","15:00","-4.2","","-9.1","","69","","25","","26","","19.3","","99.99","","","","-11","","Mostly Cloudy"
"2001-01-21 16:00","2001","01","21","16:00","-4.3","","-8.6","","72","","26","","22","","17.7","","100.09","","","","-11","","Cloudy"
"2001-01-21 17:00","2001","01","21","17:00","-4.6","","-9.2","","70","","26","","30","","19.3","","100.15","","","","-12","","Mostly Cloudy"
"2001-01-21 18:00","2001","01","21","18:00","-4.7","","-9.2","","71","","27","","19","","16.1","","100.25","","","","-11","","Snow"
"2001-01-21 19:00","2001","01","21","19:00","-4.8","","-9.1","","72","","26","","17","","19.3","","100.32","","","","-11","","Cloudy"
"2001-01-21 20:00","2001","01","21","20:00","-5.0","","-9.5","","71","","28","","24","","19.3","","100.42","","","","-12","","Mostly Cloudy"
"2001-01-21 21:00","2001","01","21","21:00","-5.2","","-9.3","","73","","28","","22","","19.3","","100.42","","","","-12","","Mostly Cloudy"
"2001-01-21 22:00","2001","01","21","22:00","-4.7","","-8.6","","74","","28","","11","","19.3","","100.45","","","","-9","","Cloudy"
"2001-01-21 23:00","2001","01","21","23:00","-4.3","","-8.2","","74","","26","","26","","19.3","","100.49","","","","-12","","Cloudy"
"2001-01-22 00:00","2001","01","22","00:00","-4.5","","-8.3","","75","","27","","26","","19.3","","100.52","","","","-12","","Cloudy"
"2001-01-22 01:00","2001","01","22","01:00","-4.1","","-7.7","","76","","27","","22","","19.3","","100.52","","","","-11","","Cloudy"
"2001-01-22 02:00","2001","01","22","02:00","-3.5","","-7.0","","77","","28","","19","","19.3","","100.55","","","","-9","","Cloudy"
"2001-01-22 03:00","2001","01","22","03:00","-3.2","","-6.6","","77","","28","","20","","16.1","","100.62","","","","-9","","Snow Showers"
"2001-01-22 04:00","2001","01","22","04:00","-2.8","","-6.6","","75","","26","","19","","19.3","","100.65","","","","-9","","Cloudy"
"2001-01-22 05:00","2001","01","22","05:00","-2.8","","-6.7","","74","","25","","19","","24.1","","100.72","","","","-9","","Cloudy"
"2001-01-22 06:00","2001","01","22","06:00","-2.8","","-7.3","","71","","24","","17","","24.1","","100.72","","","","-8","","Mostly Cloudy"
"2001-01-22 07:00","2001","01","22","07:00","-2.8","","-7.1","","72","","26","","17","","19.3","","100.82","","","","-8","","Mostly Cloudy"
"2001-01-22 08:00","2001","01","22","08:00","-2.9","","-7.4","","71","","25","","15","","24.1","","100.85","","","","-8","","Cloudy"
"2001-01-22 09:00","2001","01","22","09:00","-2.6","","-7.9","","67","","26","","15","","24.1","","100.92","","","","-8","","Cloudy"
"2001-01-22 10:00","2001","01","22","10:00","-2.5","","-7.4","","69","","24","","15","","19.3","","100.95","","","","-7","","Cloudy"
"2001-01-22 11:00","2001","01","22","11:00","-2.4","","-7.6","","67","","25","","20","","16.1","","100.95","","","","-8","","Cloudy"
"2001-01-22 12:00","2001","01","22","12:00","-2.4","","-7.5","","68","","24","","17","","16.1","","100.92","","","","-8","","Cloudy"
"2001-01-22 13:00","2001","01","22","13:00","-2.3","","-7.8","","66","","26","","20","","19.3","","100.82","","","","-8","","Cloudy"
"2001-01-22 14:00","2001","01","22","14:00","-2.2","","-8.0","","64","","23","","19","","19.3","","100.79","","","","-8","","Cloudy"
"2001-01-22 15:00","2001","01","22","15:00","-2.1","","-7.6","","66","","23","","20","","16.1","","100.79","","","","-8","","Cloudy"
"2001-01-22 16:00","2001","01","22","16:00","-2.6","","-8.4","","64","","25","","17","","19.3","","100.79","","","","-8","","Cloudy"
"2001-01-22 17:00","2001","01","22","17:00","-2.3","","-8.5","","62","","21","","19","","19.3","","100.72","","","","-8","","Cloudy"
"2001-01-22 18:00","2001","01","22","18:00","-2.6","","-8.2","","65","","22","","13","","19.3","","100.75","","","","-7","","Cloudy"
"2001-01-22 19:00","2001","01","22","19:00","-2.9","","-8.3","","66","","24","","20","","19.3","","100.72","","","","-9","","Cloudy"
"2001-01-22 20:00","2001","01","22","20:00","-2.6","","-8.0","","66","","21","","15","","19.3","","100.65","","","","-8","","Cloudy"
"2001-01-22 21:00","2001","01","22","21:00","-2.1","","-7.2","","68","","21","","13","","19.3","","100.62","","","","-7","","Cloudy"
"2001-01-22 22:00","2001","01","22","22:00","-2.0","","-7.1","","68","","20","","19","","19.3","","100.52","","","","-8","","Cloudy"
"2001-01-22 23:00","2001","01","22","23:00","-1.9","","-7.0","","68","","21","","15","","19.3","","100.45","","","","-7","","Cloudy"
"2001-01-23 00:00","2001","01","23","00:00","-2.0","","-6.7","","70","","21","","17","","19.3","","100.35","","","","-7","","Cloudy"
"2001-01-23 01:00","2001","01","23","01:00","-1.9","","-6.9","","69","","20","","13","","19.3","","100.29","","","","-6","","Cloudy"
"2001-01-23 02:00","2001","01","23","02:00","-2.0","","-6.8","","70","","20","","13","","16.1","","100.22","","","","-6","","Cloudy"
"2001-01-23 03:00","2001","01","23","03:00","-2.1","","-6.7","","71","","22","","22","","16.1","","100.19","","","","-8","","Mostly Cloudy"
"2001-01-23 04:00","2001","01","23","04:00","-2.4","","-6.9","","71","","22","","22","","16.1","","100.09","","","","-9","","Cloudy"
"2001-01-23 05:00","2001","01","23","05:00","-2.8","","-7.1","","72","","22","","19","","16.1","","100.02","","","","-9","","Mostly Cloudy"
"2001-01-23 06:00","2001","01","23","06:00","-2.9","","-7.1","","73","","21","","17","","16.1","","99.95","","","","-8","","Mostly Cloudy"
"2001-01-23 07:00","2001","01","23","07:00","-2.8","","-7.0","","73","","21","","20","","16.1","","99.89","","","","-9","","Mostly Cloudy"
"2001-01-23 08:00","2001","01","23","08:00","-2.7","","-6.7","","74","","22","","17","","11.3","","99.85","","","","-8","","Mostly Cloudy"
"2001-01-23 09:00","2001","01","23","09:00","-2.1","","-6.2","","73","","22","","17","","8.0","","99.82","","","","-7","","Haze"
"2001-01-23 10:00","2001","01","23","10:00","-1.5","","-5.8","","72","","23","","19","","8.0","","99.85","","","","-7","","Haze"
"2001-01-23 11:00","2001","01","23","11:00","-0.9","","-5.2","","73","","25","","22","","8.0","","99.82","","","","-7","","Haze"
"2001-01-23 12:00","2001","01","23","12:00","0.1","","-3.4","","77","","24","","24","","8.0","","99.75","","","","","","Haze"
"2001-01-23 13:00","2001","01","23","13:00","0.5","","-4.3","","70","","25","","19","","8.0","","99.65","","","","","","Haze"
"2001-01-23 14:00","2001","01","23","14:00","0.8","","-3.8","","71","","26","","22","","8.0","","99.59","","","","","","Haze"
"2001-01-23 15:00","2001","01","23","15:00","1.1","","-3.5","","71","","25","","22","","8.0","","99.55","","","","","","Haze"
"2001-01-23 16:00","2001","01","23","16:00","0.9","","-3.5","","72","","26","","22","","8.0","","99.52","","","","","","Haze"
"2001-01-23 17:00","2001","01","23","17:00","0.6","","-3.3","","75","","26","","22","","4.8","","99.55","","","","","","Haze"
"2001-01-23 18:00","2001","01","23","18:00","0.2","","-2.9","","80","","27","","19","","4.8","","99.59","","","","","","Haze"
"2001-01-23 19:00","2001","01","23","19:00","0.2","","-3.1","","78","","27","","15","","9.7","","99.59","","","","","","Haze"
"2001-01-23 20:00","2001","01","23","20:00","0.1","","-3.5","","77","","26","","15","","9.7","","99.59","","","","","","Haze"
"2001-01-23 21:00","2001","01","23","21:00","0.3","","-3.5","","76","","26","","13","","11.3","","99.55","","","","","","Cloudy"
"2001-01-23 22:00","2001","01","23","22:00","0.1","","-3.4","","77","","27","","9","","11.3","","99.55","","","","","","Cloudy"
"2001-01-23 23:00","2001","01","23","23:00","0.2","","-3.4","","77","","28","","17","","8.0","","99.52","","","","","","Haze"
"2001-01-24 00:00","2001","01","24","00:00","0.1","","-5.0","","69","","30","","15","","14.5","","99.49","","","","","","Cloudy"
"2001-01-24 01:00","2001","01","24","01:00","-0.4","","-4.7","","73","","31","","19","","12.9","","99.49","","","","-6","","Cloudy"
"2001-01-24 02:00","2001","01","24","02:00","-0.8","","-5.8","","69","","25","","15","","12.9","","99.49","","","","-5","","Cloudy"
"2001-01-24 03:00","2001","01","24","03:00","-1.2","","-5.8","","71","","26","","13","","12.9","","99.45","","","","-5","","Cloudy"
"2001-01-24 04:00","2001","01","24","04:00","-1.9","","-6.1","","73","","24","","13","","14.5","","99.39","","","","-6","","Mostly Cloudy"
"2001-01-24 05:00","2001","01","24","05:00","-1.7","","-5.8","","74","","25","","15","","14.5","","99.39","","","","-7","","Mostly Cloudy"
"2001-01-24 06:00","2001","01","24","06:00","-1.8","","-5.7","","75","","25","","13","","14.5","","99.35","","","","-6","","Mostly Cloudy"
"2001-01-24 07:00","2001","01","24","07:00","-1.7","","-5.8","","74","","26","","17","","11.3","","99.35","","","","-7","","Mostly Cloudy"
"2001-01-24 08:00","2001","01","24","08:00","-1.7","","-5.9","","73","","27","","22","","8.0","","99.39","","","","-8","","Haze"
"2001-01-24 09:00","2001","01","24","09:00","-1.5","","-6.1","","71","","25","","19","","11.3","","99.39","","","","-7","","Mostly Cloudy"
"2001-01-24 10:00","2001","01","24","10:00","-0.7","","-6.7","","64","","25","","22","","12.9","","99.39","","","","-6","","Mostly Cloudy"
"2001-01-24 11:00","2001","01","24","11:00","-0.4","","-6.0","","66","","26","","19","","14.5","","99.35","","","","-6","","Mostly Cloudy"
"2001-01-24 12:00","2001","01","24","12:00","0.0","","-6.0","","64","","27","","22","","16.1","","99.32","","","","-6","","Mostly Cloudy"
"2001-01-24 13:00","2001","01","24","13:00","-0.2","","-5.6","","67","","25","","19","","12.9","","99.26","","","","-5","","Cloudy"
"2001-01-24 14:00","2001","01","24","14:00","-0.2","","-6.5","","62","","25","","17","","14.5","","99.22","","","","-5","","Cloudy"
"2001-01-24 15:00","2001","01","24","15:00","-0.1","","-7.0","","60","","27","","17","","14.5","","99.22","","","","-5","","Mostly Cloudy"
"2001-01-24 16:00","2001","01","24","16:00","-0.5","","-6.2","","65","","27","","22","","14.5","","99.26","","","","-6","","Mostly Cloudy"
"2001-01-24 17:00","2001","01","24","17:00","-0.6","","-6.4","","65","","27","","22","","12.9","","99.29","","","","-6","","Mostly Cloudy"
"2001-01-24 18:00","2001","01","24","18:00","-1.3","","-5.8","","71","","26","","15","","16.1","","99.32","","","","-6","","Snow Showers"
"2001-01-24 19:00","2001","01","24","19:00","-1.1","","-4.9","","75","","26","","17","","12.9","","99.35","","","","-6","","Mostly Cloudy"
"2001-01-24 20:00","2001","01","24","20:00","-2.0","","-4.5","","83","","27","","19","","4.8","","99.35","","","","-8","","Snow Showers"
"2001-01-24 21:00","2001","01","24","21:00","-1.2","","-4.1","","81","","32","","22","","12.9","","99.39","","","","-7","","Snow Showers"
"2001-01-24 22:00","2001","01","24","22:00","-1.2","","-4.5","","78","","33","","26","","24.1","","99.42","","","","-8","","Cloudy"
"2001-01-24 23:00","2001","01","24","23:00","-2.8","","-7.2","","72","","33","","35","","24.1","","99.45","","","","-11","","Cloudy"
"2001-01-25 00:00","2001","01","25","00:00","-3.9","","-8.2","","72","","33","","41","","24.1","","99.55","","","","-13","","Cloudy"
"2001-01-25 01:00","2001","01","25","01:00","-5.1","","-9.7","","70","","34","","35","","24.1","","99.59","","","","-14","","Cloudy"
"2001-01-25 02:00","2001","01","25","02:00","-6.9","","-11.4","","70","","34","","32","","24.1","","99.72","","","","-16","","Mostly Cloudy"
"2001-01-25 03:00","2001","01","25","03:00","-8.5","","-13.1","","69","","36","","28","","24.1","","99.79","","","","-17","","Mostly Cloudy"
"2001-01-25 04:00","2001","01","25","04:00","-8.9","","-13.1","","72","","36","","22","","24.1","","99.85","","","","-17","","Mostly Cloudy"
"2001-01-25 05:00","2001","01","25","05:00","-9.5","","-13.4","","73","","36","","26","","24.1","","99.92","","","","-18","","Clear"
"2001-01-25 06:00","2001","01","25","06:00","-10.4","","-14.3","","73","","35","","20","","24.1","","100.05","","","","-18","","Clear"
"2001-01-25 07:00","2001","01","25","07:00","-11.4","","-16.2","","68","","35","","30","","24.1","","100.15","","","","-21","","Clear"
"2001-01-25 08:00","2001","01","25","08:00","-11.9","","-16.6","","68","","34","","22","","24.1","","100.25","","","","-21","","Clear"
"2001-01-25 09:00","2001","01","25","09:00","-11.6","","-16.5","","67","","34","","20","","24.1","","100.39","","","","-20","","Clear"
"2001-01-25 10:00","2001","01","25","10:00","-11.0","","-16.1","","66","","34","","15","","24.1","","100.42","","","","-18","","Clear"
"2001-01-25 11:00","2001","01","25","11:00","-10.3","","-15.6","","65","","35","","15","","24.1","","100.49","","","","-17","","Clear"
"2001-01-25 12:00","2001","01","25","12:00","-9.0","","-14.5","","64","","29","","6","","24.1","","100.42","","","","-12","","Clear"
"2001-01-25 13:00","2001","01","25","13:00","-5.9","","-12.7","","59","","25","","6","","24.1","","100.39","","","","-9","","Clear"
"2001-01-25 14:00","2001","01","25","14:00","-4.1","","-12.4","","52","","32","","22","","24.1","","100.35","","","","-11","","Clear"
"2001-01-25 15:00","2001","01","25","15:00","-3.8","","-11.3","","56","","32","","26","","24.1","","100.39","","","","-11","","Mainly Clear"
"2001-01-25 16:00","2001","01","25","16:00","-3.7","","-10.7","","58","","28","","17","","24.1","","100.42","","","","-9","","Mainly Clear"
"2001-01-25 17:00","2001","01","25","17:00","-3.7","","-10.8","","58","","29","","22","","24.1","","100.42","","","","-10","","Mostly Cloudy"
"2001-01-25 18:00","2001","01","25","18:00","-3.9","","-10.1","","62","","26","","17","","24.1","","100.45","","","","-10","","Snow Showers"
"2001-01-25 19:00","2001","01","25","19:00","-3.8","","-9.2","","66","","26","","15","","24.1","","100.45","","","","-9","","Snow Showers"
"2001-01-25 20:00","2001","01","25","20:00","-4.1","","-9.6","","65","","26","","28","","24.1","","100.45","","","","-12","","Snow Showers"
"2001-01-25 21:00","2001","01","25","21:00","-4.3","","-9.9","","65","","26","","30","","24.1","","100.42","","","","-12","","Cloudy"
"2001-01-25 22:00","2001","01","25","22:00","-4.7","","-10.2","","65","","26","","24","","24.1","","100.45","","","","-12","","Cloudy"
"2001-01-25 23:00","2001","01","25","23:00","-5.3","","-10.9","","65","","24","","17","","24.1","","100.39","","","","-11","","Mainly Clear"
"2001-01-26 00:00","2001","01","26","00:00","-5.9","","-11.0","","67","","22","","13","","24.1","","100.35","","","","-11","","Clear"
"2001-01-26 01:00","2001","01","26","01:00","-6.5","","-11.1","","70","","21","","13","","24.1","","100.29","","","","-12","","Clear"
"2001-01-26 02:00","2001","01","26","02:00","-7.3","","-11.3","","73","","22","","13","","19.3","","100.29","","","","-13","","Clear"
"2001-01-26 03:00","2001","01","26","03:00","-7.7","","-11.3","","75","","23","","13","","19.3","","100.29","","","","-13","","Clear"
"2001-01-26 04:00","2001","01","26","04:00","-8.5","","-11.6","","78","","25","","13","","16.1","","100.25","","","","-14","","Clear"
"2001-01-26 05:00","2001","01","26","05:00","-8.6","","-11.5","","80","","23","","9","","16.1","","100.25","","","","-13","","Clear"
"2001-01-26 06:00","2001","01","26","06:00","-8.5","","-11.4","","80","","22","","9","","16.1","","100.22","","","","-13","","Clear"
"2001-01-26 07:00","2001","01","26","07:00","-8.4","","-11.4","","79","","24","","15","","19.3","","100.19","","","","-15","","Clear"
"2001-01-26 08:00","2001","01","26","08:00","-7.3","","-10.7","","77","","22","","17","","12.9","","100.15","","","","-14","","Mainly Clear"
"2001-01-26 09:00","2001","01","26","09:00","-5.8","","-9.3","","76","","22","","20","","12.9","","100.09","","","","-13","","Mainly Clear"
"2001-01-26 10:00","2001","01","26","10:00","-4.5","","-8.6","","73","","21","","17","","16.1","","99.99","","","","-10","","Mostly Cloudy"
"2001-01-26 11:00","2001","01","26","11:00","-3.7","","-8.3","","70","","23","","22","","16.1","","99.92","","","","-10","","Mostly Cloudy"
"2001-01-26 12:00","2001","01","26","12:00","-2.8","","-7.8","","68","","21","","17","","16.1","","99.79","","","","-8","","Mostly Cloudy"
"2001-01-26 13:00","2001","01","26","13:00","-2.0","","-7.3","","67","","20","","11","","19.3","","99.62","","","","-6","","Mostly Cloudy"
"2001-01-26 14:00","2001","01","26","14:00","-1.6","","-7.7","","63","","20","","17","","19.3","","99.49","","","","-7","","Cloudy"
"2001-01-26 15:00","2001","01","26","15:00","-1.3","","-8.4","","58","","17","","15","","19.3","","99.35","","","","-6","","Cloudy"
"2001-01-26 16:00","2001","01","26","16:00","-1.8","","-8.0","","63","","18","","13","","24.1","","99.29","","","","-6","","Cloudy"
"2001-01-26 17:00","2001","01","26","17:00","-1.9","","-7.6","","65","","18","","9","","19.3","","99.19","","","","-5","","Cloudy"
"2001-01-26 18:00","2001","01","26","18:00","-1.9","","-7.7","","64","","17","","7","","19.3","","99.06","","","","-5","","Cloudy"
"2001-01-26 19:00","2001","01","26","19:00","-1.6","","-7.5","","64","","13","","7","","24.1","","98.99","","","","-4","","Cloudy"
"2001-01-26 20:00","2001","01","26","20:00","-1.1","","-7.6","","61","","13","","7","","24.1","","98.86","","","","-4","","Cloudy"
"2001-01-26 21:00","2001","01","26","21:00","-0.8","","-7.1","","62","","13","","15","","24.1","","98.72","","","","-5","","Cloudy"
"2001-01-26 22:00","2001","01","26","22:00","-2.1","","-4.6","","83","","18","","11","","4.8","","98.69","","","","-6","","Snow"
"2001-01-26 23:00","2001","01","26","23:00","-2.2","","-4.2","","86","","16","","7","","1.6","","98.62","","","","-5","","Snow"
"2001-01-27 00:00","2001","01","27","00:00","-2.2","","-4.0","","87","","16","","4","","4.8","","98.56","","","","-4","","Snow"
"2001-01-27 01:00","2001","01","27","01:00","-2.0","","-3.8","","87","","13","","6","","3.2","","98.46","","","","-4","","Snow"
"2001-01-27 02:00","2001","01","27","02:00","-1.9","","-3.6","","88","","19","","4","","4.8","","98.39","","","","-3","","Snow"
"2001-01-27 03:00","2001","01","27","03:00","-2.0","","-3.8","","87","","24","","6","","2.4","","98.42","","","","-4","","Snow"
"2001-01-27 04:00","2001","01","27","04:00","-2.5","","-4.4","","87","","26","","9","","6.4","","98.42","","","","-6","","Snow"
"2001-01-27 05:00","2001","01","27","05:00","-2.6","","-4.6","","86","","28","","7","","3.2","","98.46","","","","-5","","Snow"
"2001-01-27 06:00","2001","01","27","06:00","-2.5","","-4.4","","87","","27","","11","","3.2","","98.49","","","","-7","","Snow"
"2001-01-27 07:00","2001","01","27","07:00","-2.5","","-4.9","","84","","28","","13","","4.8","","98.56","","","","-7","","Snow"
"2001-01-27 08:00","2001","01","27","08:00","-2.6","","-5.2","","82","","28","","19","","4.0","","98.66","","","","-8","","Snow"
"2001-01-27 09:00","2001","01","27","09:00","-2.1","","-5.2","","79","","32","","22","","3.6","","98.79","","","","-8","","Snow"
"2001-01-27 10:00","2001","01","27","10:00","-2.5","","-5.9","","77","","33","","32","","9.7","","98.92","","","","-10","","Snow"
"2001-01-27 11:00","2001","01","27","11:00","-2.0","","-6.0","","74","","32","","37","","14.5","","99.06","","","","-10","","Mainly Clear"
"2001-01-27 12:00","2001","01","27","12:00","-1.8","","-6.0","","73","","33","","33","","16.1","","99.16","","","","-9","","Mostly Cloudy"
"2001-01-27 13:00","2001","01","27","13:00","-1.3","","-6.0","","70","","34","","33","","19.3","","99.19","","","","-8","","Mainly Clear"
"2001-01-27 14:00","2001","01","27","14:00","-1.7","","-7.1","","67","","32","","32","","19.3","","99.29","","","","-9","","Mostly Cloudy"
"2001-01-27 15:00","2001","01","27","15:00","-2.2","","-7.8","","65","","32","","41","","19.3","","99.42","","","","-10","","Mostly Cloudy"
"2001-01-27 16:00","2001","01","27","16:00","-2.1","","-8.1","","63","","30","","26","","24.1","","99.52","","","","-9","","Mostly Cloudy"
"2001-01-27 17:00","2001","01","27","17:00","-3.4","","-9.2","","64","","31","","30","","24.1","","99.62","","","","-11","","Mostly Cloudy"
"2001-01-27 18:00","2001","01","27","18:00","-3.7","","-9.1","","66","","30","","26","","24.1","","99.75","","","","-11","","Mostly Cloudy"
"2001-01-27 19:00","2001","01","27","19:00","-3.7","","-8.9","","67","","29","","32","","24.1","","99.89","","","","-12","","Mostly Cloudy"
"2001-01-27 20:00","2001","01","27","20:00","-4.4","","-9.2","","69","","27","","26","","24.1","","99.89","","","","-12","","Cloudy"
"2001-01-27 21:00","2001","01","27","21:00","-4.7","","-10.0","","66","","27","","22","","24.1","","99.89","","","","-12","","Cloudy"
"2001-01-27 22:00","2001","01","27","22:00","-5.3","","-9.4","","73","","26","","20","","24.1","","99.89","","","","-12","","Cloudy"
"2001-01-27 23:00","2001","01","27","23:00","-5.2","","-9.6","","71","","28","","9","","24.1","","99.92","","","","-9","","Cloudy"
"2001-01-28 00:00","2001","01","28","00:00","-4.4","","-10.1","","64","","27","","35","","24.1","","99.92","","","","-13","","Mostly Cloudy"
"2001-01-28 01:00","2001","01","28","01:00","-5.2","","-10.9","","64","","27","","19","","24.1","","99.89","","","","-12","","Mostly Cloudy"
"2001-01-28 02:00","2001","01","28","02:00","-4.9","","-10.4","","65","","26","","22","","24.1","","99.95","","","","-12","","Cloudy"
"2001-01-28 03:00","2001","01","28","03:00","-5.3","","-10.7","","66","","27","","26","","24.1","","99.95","","","","-13","","Cloudy"
"2001-01-28 04:00","2001","01","28","04:00","-5.2","","-10.7","","65","","23","","13","","24.1","","99.95","","","","-10","","Cloudy"
"2001-01-28 05:00","2001","01","28","05:00","-5.6","","-10.2","","70","","22","","20","","24.1","","99.99","","","","-12","","Cloudy"
"2001-01-28 06:00","2001","01","28","06:00","-5.7","","-10.0","","72","","25","","15","","19.3","","99.99","","","","-11","","Cloudy"
"2001-01-28 07:00","2001","01","28","07:00","-5.8","","-10.1","","72","","24","","19","","19.3","","100.02","","","","-12","","Cloudy"
"2001-01-28 08:00","2001","01","28","08:00","-6.2","","-10.3","","73","","24","","19","","16.1","","100.05","","","","-13","","Mostly Cloudy"
"2001-01-28 09:00","2001","01","28","09:00","-6.1","","-10.0","","74","","25","","24","","16.1","","100.12","","","","-14","","Mostly Cloudy"
"2001-01-28 10:00","2001","01","28","10:00","-5.4","","-9.4","","73","","25","","22","","16.1","","100.12","","","","-12","","Mostly Cloudy"
"2001-01-28 11:00","2001","01","28","11:00","-5.0","","-9.2","","72","","25","","26","","16.1","","100.19","","","","-12","","Mostly Cloudy"
"2001-01-28 12:00","2001","01","28","12:00","-3.7","","-8.3","","70","","28","","19","","16.1","","100.15","","","","-10","","Mostly Cloudy"
"2001-01-28 13:00","2001","01","28","13:00","-3.2","","-8.2","","68","","27","","19","","16.1","","100.12","","","","-9","","Mostly Cloudy"
"2001-01-28 14:00","2001","01","28","14:00","-2.5","","-7.6","","68","","27","","26","","19.3","","100.12","","","","-9","","Mainly Clear"
"2001-01-28 15:00","2001","01","28","15:00","-2.0","","-7.6","","65","","28","","19","","16.1","","100.19","","","","-8","","Mainly Clear"
"2001-01-28 16:00","2001","01","28","16:00","-2.5","","-7.7","","67","","27","","28","","19.3","","100.25","","","","-10","","Mostly Cloudy"
"2001-01-28 17:00","2001","01","28","17:00","-3.2","","-8.0","","69","","26","","17","","16.1","","100.32","","","","-9","","Mostly Cloudy"
"2001-01-28 18:00","2001","01","28","18:00","-3.6","","-8.3","","70","","24","","17","","19.3","","100.39","","","","-9","","Mostly Cloudy"
"2001-01-28 19:00","2001","01","28","19:00","-3.9","","-8.4","","71","","27","","20","","19.3","","100.42","","","","-10","","Mostly Cloudy"
"2001-01-28 20:00","2001","01","28","20:00","-4.4","","-8.8","","71","","24","","11","","19.3","","100.42","","","","-9","","Mainly Clear"
"2001-01-28 21:00","2001","01","28","21:00","-4.8","","-8.9","","73","","24","","15","","19.3","","100.35","","","","-10","","Clear"
"2001-01-28 22:00","2001","01","28","22:00","-6.2","","-9.6","","77","","25","","11","","19.3","","100.35","","","","-11","","Clear"
"2001-01-28 23:00","2001","01","28","23:00","-6.7","","-9.6","","80","","26","","13","","19.3","","100.39","","","","-12","","Mainly Clear"
"2001-01-29 00:00","2001","01","29","00:00","-4.3","","-8.1","","75","","25","","15","","24.1","","100.32","","","","-10","","Cloudy"
"2001-01-29 01:00","2001","01","29","01:00","-4.2","","-8.0","","75","","25","","11","","24.1","","100.35","","","","-9","","Cloudy"
"2001-01-29 02:00","2001","01","29","02:00","-4.0","","-8.2","","73","","24","","15","","16.1","","100.35","","","","-9","","Cloudy"
"2001-01-29 03:00","2001","01","29","03:00","-4.1","","-8.5","","71","","24","","15","","16.1","","100.32","","","","-9","","Cloudy"
"2001-01-29 04:00","2001","01","29","04:00","-4.7","","-9.1","","71","","23","","11","","16.1","","100.29","","","","-9","","Mostly Cloudy"
"2001-01-29 05:00","2001","01","29","05:00","-5.1","","-9.2","","73","","24","","9","","16.1","","100.29","","","","-9","","Mostly Cloudy"
"2001-01-29 06:00","2001","01","29","06:00","-5.1","","-9.2","","73","","22","","17","","19.3","","100.22","","","","-11","","Mostly Cloudy"
"2001-01-29 07:00","2001","01","29","07:00","-4.8","","-8.4","","76","","23","","15","","12.9","","100.22","","","","-10","","Cloudy"
"2001-01-29 08:00","2001","01","29","08:00","-4.6","","-8.1","","76","","23","","15","","11.3","","100.19","","","","-10","","Cloudy"
"2001-01-29 09:00","2001","01","29","09:00","-4.0","","-7.7","","75","","22","","17","","11.3","","100.15","","","","-10","","Cloudy"
"2001-01-29 10:00","2001","01","29","10:00","-3.3","","-7.2","","74","","22","","13","","9.7","","100.09","","","","-8","","Haze"
"2001-01-29 11:00","2001","01","29","11:00","-2.9","","-7.2","","72","","23","","19","","11.3","","100.09","","","","-9","","Mostly Cloudy"
"2001-01-29 12:00","2001","01","29","12:00","-2.2","","-6.9","","70","","22","","11","","9.7","","99.99","","","","-6","","Haze"
"2001-01-29 13:00","2001","01","29","13:00","-1.2","","-6.6","","67","","22","","13","","11.3","","99.85","","","","-5","","Mostly Cloudy"
"2001-01-29 14:00","2001","01","29","14:00","-0.4","","-6.7","","62","","20","","11","","12.9","","99.75","","","","-4","","Mostly Cloudy"
"2001-01-29 15:00","2001","01","29","15:00","0.2","","-6.5","","61","","20","","7","","12.9","","99.69","","","","","","Cloudy"
"2001-01-29 16:00","2001","01","29","16:00","0.5","","-6.6","","59","","14","","9","","12.9","","99.55","","","","","","Mostly Cloudy"
"2001-01-29 17:00","2001","01","29","17:00","0.5","","-5.5","","64","","16","","11","","11.3","","99.62","","","","","","Cloudy"
"2001-01-29 18:00","2001","01","29","18:00","0.2","","-5.7","","64","","15","","7","","12.9","","99.62","","","","","","Rain"
"2001-01-29 19:00","2001","01","29","19:00","-0.1","","-4.9","","70","","13","","6","","12.9","","99.45","","","","-2","","Cloudy"
"2001-01-29 20:00","2001","01","29","20:00","0.1","","-4.5","","71","","9","","7","","19.3","","99.42","","","","","","Cloudy"
"2001-01-29 21:00","2001","01","29","21:00","0.2","","-4.1","","73","","14","","7","","19.3","","99.32","","","","","","Cloudy"
"2001-01-29 22:00","2001","01","29","22:00","0.5","","-3.6","","74","","15","","7","","19.3","","99.22","","","","","","Cloudy"
"2001-01-29 23:00","2001","01","29","23:00","0.8","","-3.7","","72","","14","","11","","19.3","","99.12","","","","","","Cloudy"
"2001-01-30 00:00","2001","01","30","00:00","0.8","","-3.7","","72","","9","","11","","24.1","","98.96","","","","","","Cloudy"
"2001-01-30 01:00","2001","01","30","01:00","1.0","","-3.7","","71","","12","","11","","24.1","","98.92","","","","","","Cloudy"
"2001-01-30 02:00","2001","01","30","02:00","0.9","","-3.0","","75","","8","","11","","19.3","","98.76","","","","","","Cloudy"
"2001-01-30 03:00","2001","01","30","03:00","1.1","","-2.5","","77","","6","","6","","16.1","","98.72","","","","","","Rain"
"2001-01-30 04:00","2001","01","30","04:00","0.7","","-1.9","","83","","9","","9","","11.3","","98.59","","","","","","Rain"
"2001-01-30 05:00","2001","01","30","05:00","0.6","","-1.6","","85","","8","","15","","8.0","","98.46","","","","","","Rain,Haze"
"2001-01-30 06:00","2001","01","30","06:00","1.1","","-0.7","","88","","9","","17","","6.4","","98.29","","","","","","Rain,Fog"
"2001-01-30 07:00","2001","01","30","07:00","1.2","","-0.4","","89","","9","","20","","8.0","","98.22","","","","","","Rain,Fog"
"2001-01-30 08:00","2001","01","30","08:00","1.2","","-0.3","","90","","9","","19","","3.6","","98.02","","","","","","Rain,Fog"
"2001-01-30 09:00","2001","01","30","09:00","1.1","","-0.3","","90","","9","","24","","3.2","","97.92","","","","","","Rain,Fog"
"2001-01-30 10:00","2001","01","30","10:00","1.3","","-0.1","","90","","9","","20","","3.6","","97.79","","","","","","Rain,Fog"
"2001-01-30 11:00","2001","01","30","11:00","1.6","","0.2","","90","","10","","11","","3.2","","97.72","","","","","","Rain,Ice Pellets,Fog"
"2001-01-30 12:00","2001","01","30","12:00","1.4","","0.0","","90","","9","","13","","3.2","","97.56","","","","","","Rain,Snow"
"2001-01-30 13:00","2001","01","30","13:00","1.1","","-0.3","","90","","9","","13","","2.0","","97.42","","","","","","Snow,Ice Pellets,Fog"
"2001-01-30 14:00","2001","01","30","14:00","1.3","","-0.1","","90","","6","","6","","2.0","","97.36","","","","","","Fog"
"2001-01-30 15:00","2001","01","30","15:00","1.4","","0.0","","90","","3","","6","","2.4","","97.32","","","","","","Fog"
"2001-01-30 16:00","2001","01","30","16:00","1.6","","0.3","","91","","","","0","","2.0","","97.36","","","","","","Fog"
"2001-01-30 17:00","2001","01","30","17:00","1.4","","0.2","","92","","27","","6","","1.0","","97.46","","","","","","Fog"
"2001-01-30 18:00","2001","01","30","18:00","1.9","","0.9","","93","","21","","6","","1.2","","","M","","","","","Fog"
"2001-01-30 19:00","2001","01","30","19:00","1.8","","0.7","","92","","27","","7","","4.0","","97.59","","","","","","Fog"
"2001-01-30 20:00","2001","01","30","20:00","2.0","","0.4","","89","","26","","4","","11.3","","97.59","","","","","","Mainly Clear"
"2001-01-30 21:00","2001","01","30","21:00","2.1","","0.3","","88","","23","","9","","11.3","","97.62","","","","","","Cloudy"
"2001-01-30 22:00","2001","01","30","22:00","2.1","","0.5","","89","","27","","6","","11.3","","97.62","","","","","","Mostly Cloudy"
"2001-01-30 23:00","2001","01","30","23:00","2.0","","0.2","","88","","15","","4","","8.0","","97.56","","","","","","Fog"
"2001-01-31 00:00","2001","01","31","00:00","1.7","","0.2","","90","","11","","7","","4.8","","97.52","","","","","","Fog"
"2001-01-31 01:00","2001","01","31","01:00","1.6","","0.4","","92","","10","","7","","3.2","","97.49","","","","","","Rain,Fog"
"2001-01-31 02:00","2001","01","31","02:00","1.6","","0.5","","92","","9","","9","","2.8","","97.49","","","","","","Rain,Fog"
"2001-01-31 03:00","2001","01","31","03:00","1.5","","0.4","","92","","9","","11","","4.8","","97.46","","","","","","Rain,Fog"
"2001-01-31 04:00","2001","01","31","04:00","1.3","","0.2","","92","","12","","7","","4.8","","97.42","","","","","","Rain,Fog"
"2001-01-31 05:00","2001","01","31","05:00","1.0","","-0.2","","92","","18","","4","","4.8","","97.46","","","","","","Rain,Fog"
"2001-01-31 06:00","2001","01","31","06:00","1.6","","0.1","","90","","24","","22","","8.0","","97.46","","","","","","Rain,Fog"
"2001-01-31 07:00","2001","01","31","07:00","1.6","","-0.1","","88","","22","","15","","8.0","","97.49","","","","","","Rain,Snow,Fog"
"2001-01-31 08:00","2001","01","31","08:00","1.6","","-0.4","","87","","24","","13","","4.8","","97.56","","","","","","Rain,Snow,Fog"
"2001-01-31 09:00","2001","01","31","09:00","1.2","","-0.4","","89","","23","","15","","2.8","","97.62","","","","","","Rain,Snow,Fog"
"2001-01-31 10:00","2001","01","31","10:00","1.0","","-0.3","","91","","24","","15","","2.4","","97.69","","","","","","Snow,Fog"
"2001-01-31 11:00","2001","01","31","11:00","1.7","","0.2","","90","","26","","17","","12.9","","97.76","","","","","","Rain"
"2001-01-31 12:00","2001","01","31","12:00","2.7","","0.4","","85","","27","","22","","19.3","","97.82","","","","","","Cloudy"
"2001-01-31 13:00","2001","01","31","13:00","2.4","","-0.2","","83","","27","","30","","19.3","","97.89","","","","","","Cloudy"
"2001-01-31 14:00","2001","01","31","14:00","2.1","","-1.0","","80","","27","","28","","19.3","","97.96","","","","","","Cloudy"
"2001-01-31 15:00","2001","01","31","15:00","2.0","","-0.9","","81","","26","","20","","19.3","","98.06","","","","","","Cloudy"
"2001-01-31 16:00","2001","01","31","16:00","2.0","","-1.0","","80","","25","","20","","19.3","","98.12","","","","","","Cloudy"
"2001-01-31 17:00","2001","01","31","17:00","2.0","","-0.3","","85","","24","","20","","8.0","","98.22","","","","","","Rain Showers,Snow Showers"
"2001-01-31 18:00","2001","01","31","18:00","1.9","","0.0","","87","","24","","17","","8.0","","98.29","","","","","","Rain Showers"
"2001-01-31 19:00","2001","01","31","19:00","1.9","","-0.2","","86","","26","","26","","8.0","","98.39","","","","","","Rain Showers"
"2001-01-31 20:00","2001","01","31","20:00","1.0","","-0.6","","89","","29","","15","","4.8","","98.49","","","","","","Snow Showers"
"2001-01-31 21:00","2001","01","31","21:00","1.3","","-1.5","","82","","29","","17","","16.1","","98.56","","","","","","Snow Showers"
"2001-01-31 22:00","2001","01","31","22:00","0.3","","-2.7","","80","","32","","20","","4.8","","98.62","","","","","","Snow Showers"
"2001-01-31 23:00","2001","01","31","23:00","-0.1","","-3.0","","81","","30","","19","","4.8","","98.69","","","","-5","","Snow Showers"
