"Station Name","TORONTO LESTER B. PEARSON INT'L A"
"Province","ONTARIO"
"Latitude","43.68"
"Longitude","-79.63"
"Elevation","173.40"
"Climate Identifier","6158733"
"WMO Identifier","71624"
"TC Identifier","YYZ"
"All times are specified in Local Standard Time (LST). Add 1 hour to adjust for Daylight Saving Time where and when it is observed."

"Legend"
"E","Estimated"
"M","Missing"
"NA","Not Available"

"Date/Time","Year","Month","Day","Time","Temp (°C)","Temp Flag","Dew Point Temp (°C)","Dew Point Temp Flag","Rel Hum (%)","Rel Hum Flag","Wind Dir (10s deg)","Wind Dir Flag","Wind Spd (km/h)","Wind Spd Flag","Visibility (km)","Visibility Flag","Stn Press (kPa)","Stn Press Flag","Hmdx","Hmdx Flag","Wind Chill","Wind Chill Flag","Weather"
"1991-01-01 00:00","1991","01","01","00:00","-8.9","","-12.5","","75","","21","","13","","25.0","","101.04","","","","-15","","Mainly Clear"
"1991-01-01 01:00","1991","01","01","01:00","-8.5","","-11.5","","79","","21","","13","","25.0","","100.97","","","","-14","","Mostly Cloudy"
"1991-01-01 02:00","1991","01","01","02:00","-8.4","","-11.5","","78","","23","","11","","25.0","","100.94","","","","-14","","Mainly Clear"
"1991-01-01 03:00","1991","01","01","03:00","-8.6","","-11.9","","77","","23","","13","","25.0","","100.94","","","","-15","","Mainly Clear"
"1991-01-01 04:00","1991","01","01","04:00","-8.2","","-11.6","","76","","23","","22","","25.0","","100.91","","","","-16","","Mainly Clear"
"1991-01-01 05:00","1991","01","01","05:00","-7.5","","-11.0","","76","","23","","19","","25.0","","100.87","","","","-15","","Mostly Cloudy"
"1991-01-01 06:00","1991","01","01","06:00","-6.5","","-9.4","","80","","23","","17","","25.0","","100.87","","","","-13","","Cloudy"
"1991-01-01 07:00","1991","01","01","07:00","-6.1","","-8.8","","81","","22","","19","","19.3","","100.87","","","","-13","","Mostly Cloudy"
"1991-01-01 08:00","1991","01","01","08:00","-5.5","","-7.8","","84","","23","","11","","19.3","","100.91","","","","-10","","Mostly Cloudy"
"1991-01-01 09:00","1991","01","01","09:00","-5.2","","-7.9","","81","","23","","13","","19.3","","100.91","","","","-10","","Cloudy"
"1991-01-01 10:00","1991","01","01","10:00","-4.9","","-7.5","","82","","19","","9","","16.1","","100.94","","","","-9","","Cloudy"
"1991-01-01 11:00","1991","01","01","11:00","-3.7","","-6.7","","80","","19","","15","","16.1","","100.87","","","","-9","","Cloudy"
"1991-01-01 12:00","1991","01","01","12:00","-2.5","","-6.0","","77","","19","","17","","16.1","","100.71","","","","-8","","Mostly Cloudy"
"1991-01-01 13:00","1991","01","01","13:00","-1.7","","-4.5","","81","","21","","19","","19.3","","100.61","","","","-7","","Mostly Cloudy"
"1991-01-01 14:00","1991","01","01","14:00","-1.7","","-5.4","","76","","19","","15","","19.3","","100.51","","","","-7","","Cloudy"
"1991-01-01 15:00","1991","01","01","15:00","-1.3","","-5.1","","75","","18","","24","","19.3","","100.44","","","","-7","","Cloudy"
"1991-01-01 16:00","1991","01","01","16:00","-1.5","","-4.5","","80","","18","","17","","19.3","","100.37","","","","-7","","Mostly Cloudy"
"1991-01-01 17:00","1991","01","01","17:00","-1.7","","-5.4","","76","","18","","19","","24.1","","100.31","","","","-7","","Mainly Clear"
"1991-01-01 18:00","1991","01","01","18:00","-1.8","","-6.0","","73","","18","","20","","25.0","","100.27","","","","-8","","Clear"
"1991-01-01 19:00","1991","01","01","19:00","-2.2","","-6.0","","75","","18","","19","","24.1","","100.17","","","","-8","","Clear"
"1991-01-01 20:00","1991","01","01","20:00","-2.4","","-6.4","","74","","18","","15","","24.1","","100.17","","","","-7","","Clear"
"1991-01-01 21:00","1991","01","01","21:00","-1.6","","-6.0","","72","","21","","15","","25.0","","100.11","","","","-6","","Mainly Clear"
"1991-01-01 22:00","1991","01","01","22:00","-1.0","","-5.4","","72","","21","","20","","24.1","","100.07","","","","-7","","Mostly Cloudy"
"1991-01-01 23:00","1991","01","01","23:00","-0.9","","-5.0","","74","","20","","15","","24.1","","100.01","","","","-6","","Mostly Cloudy"
"1991-01-02 00:00","1991","01","02","00:00","-0.7","","-3.5","","81","","22","","22","","25.0","","100.01","","","","-6","","Mostly Cloudy"
"1991-01-02 01:00","1991","01","02","01:00","-0.2","","-4.3","","74","","24","","20","","25.0","","100.01","","","","-5","","Mostly Cloudy"
"1991-01-02 02:00","1991","01","02","02:00","0.2","","-4.1","","73","","24","","22","","25.0","","100.01","","","","","","Mostly Cloudy"
"1991-01-02 03:00","1991","01","02","03:00","0.0","","-4.6","","71","","26","","19","","25.0","","100.14","","","","-5","","Mostly Cloudy"
"1991-01-02 04:00","1991","01","02","04:00","-0.7","","-4.4","","76","","25","","19","","25.0","","100.14","","","","-6","","Mostly Cloudy"
"1991-01-02 05:00","1991","01","02","05:00","-0.8","","-5.0","","73","","27","","15","","25.0","","100.17","","","","-5","","Mostly Cloudy"
"1991-01-02 06:00","1991","01","02","06:00","-1.2","","-3.8","","83","","25","","11","","19.3","","100.21","","","","-5","","Mostly Cloudy"
"1991-01-02 07:00","1991","01","02","07:00","-1.4","","-4.2","","81","","23","","11","","19.3","","100.27","","","","-5","","Mostly Cloudy"
"1991-01-02 08:00","1991","01","02","08:00","-1.3","","-4.2","","80","","24","","11","","12.9","","100.37","","","","-5","","Mostly Cloudy"
"1991-01-02 09:00","1991","01","02","09:00","-1.1","","-3.6","","83","","23","","11","","12.9","","100.37","","","","-5","","Mostly Cloudy"
"1991-01-02 10:00","1991","01","02","10:00","-0.4","","-2.5","","86","","30","","13","","12.9","","100.47","","","","-5","","Cloudy"
"1991-01-02 11:00","1991","01","02","11:00","-0.3","","-3.8","","77","","35","","17","","24.1","","100.54","","","","-5","","Cloudy"
"1991-01-02 12:00","1991","01","02","12:00","-1.0","","-4.1","","79","","34","","20","","24.1","","100.57","","","","-7","","Mostly Cloudy"
"1991-01-02 13:00","1991","01","02","13:00","-1.0","","-4.4","","78","","33","","15","","32.2","","100.47","","","","-6","","Cloudy"
"1991-01-02 14:00","1991","01","02","14:00","-1.4","","-6.4","","69","","31","","24","","32.2","","100.51","","","","-8","","Cloudy"
"1991-01-02 15:00","1991","01","02","15:00","-1.5","","-7.0","","66","","32","","15","","32.2","","100.47","","","","-6","","Mostly Cloudy"
"1991-01-02 16:00","1991","01","02","16:00","-1.9","","-5.4","","77","","1","","15","","40.2","","100.54","","","","-7","","Cloudy"
"1991-01-02 17:00","1991","01","02","17:00","-3.1","","-7.7","","70","","1","","20","","25.0","","100.57","","","","-9","","Cloudy"
"1991-01-02 18:00","1991","01","02","18:00","-3.8","","-8.0","","72","","36","","17","","19.3","","100.61","","","","-10","","Cloudy"
"1991-01-02 19:00","1991","01","02","19:00","-5.1","","-7.2","","85","","2","","19","","4.0","","100.67","","","","-12","","Snow"
"1991-01-02 20:00","1991","01","02","20:00","-5.8","","-9.5","","75","","2","","15","","4.8","","100.64","","","","-12","","Snow"
"1991-01-02 21:00","1991","01","02","21:00","-6.3","","-9.4","","78","","35","","15","","4.8","","100.67","","","","-12","","Snow"
"1991-01-02 22:00","1991","01","02","22:00","-7.0","","-8.6","","88","","35","","13","","4.0","","100.67","","","","-13","","Snow"
"1991-01-02 23:00","1991","01","02","23:00","-7.0","","-8.6","","88","","34","","9","","4.0","","100.67","","","","-11","","Snow"
"1991-01-03 00:00","1991","01","03","00:00","-7.3","","-9.5","","84","","36","","11","","8.0","","100.71","","","","-12","","Snow"
"1991-01-03 01:00","1991","01","03","01:00","-7.3","","-9.1","","87","","36","","7","","8.0","","100.67","","","","-11","","Snow"
"1991-01-03 02:00","1991","01","03","02:00","-8.7","","-10.3","","88","","31","","7","","25.0","","100.67","","","","-13","","Mostly Cloudy"
"1991-01-03 03:00","1991","01","03","03:00","-8.7","","-9.9","","91","","","","0","","25.0","","100.67","","","","","","Mostly Cloudy"
"1991-01-03 04:00","1991","01","03","04:00","-8.5","","-9.9","","90","","","","0","","25.0","","100.71","","","","","","Mostly Cloudy"
"1991-01-03 05:00","1991","01","03","05:00","-8.4","","-10.3","","86","","26","","4","","25.0","","100.71","","","","-11","","Mostly Cloudy"
"1991-01-03 06:00","1991","01","03","06:00","-7.6","","-9.1","","89","","","","0","","25.0","","100.71","","","","","","Mostly Cloudy"
"1991-01-03 07:00","1991","01","03","07:00","-7.2","","-8.9","","88","","19","","4","","25.0","","100.71","","","","-9","","Cloudy"
"1991-01-03 08:00","1991","01","03","08:00","-6.6","","-8.7","","85","","20","","7","","12.9","","100.71","","","","-10","","Snow"
"1991-01-03 09:00","1991","01","03","09:00","-6.2","","-8.4","","85","","23","","13","","12.9","","100.74","","","","-12","","Snow Showers"
"1991-01-03 10:00","1991","01","03","10:00","-5.5","","-9.2","","75","","22","","13","","19.3","","100.74","","","","-11","","Snow Showers"
"1991-01-03 11:00","1991","01","03","11:00","-5.4","","-10.0","","70","","25","","20","","19.3","","100.71","","","","-12","","Mostly Cloudy"
"1991-01-03 12:00","1991","01","03","12:00","-6.0","","-11.1","","67","","25","","28","","24.1","","100.71","","","","-14","","Snow Showers"
"1991-01-03 13:00","1991","01","03","13:00","-6.2","","-11.1","","68","","26","","31","","24.1","","100.64","","","","-15","","Mostly Cloudy"
"1991-01-03 14:00","1991","01","03","14:00","-6.8","","-12.4","","64","","27","","24","","32.2","","100.61","","","","-14","","Mainly Clear"
"1991-01-03 15:00","1991","01","03","15:00","-7.0","","-12.9","","63","","26","","31","","32.2","","100.57","","","","-16","","Mainly Clear"
"1991-01-03 16:00","1991","01","03","16:00","-7.4","","-12.7","","65","","27","","26","","24.1","","100.61","","","","-16","","Mainly Clear"
"1991-01-03 17:00","1991","01","03","17:00","-8.8","","-14.8","","62","","26","","31","","25.0","","100.64","","","","-18","","Mainly Clear"
"1991-01-03 18:00","1991","01","03","18:00","-9.5","","-14.0","","70","","25","","19","","25.0","","100.67","","","","-17","","Mainly Clear"
"1991-01-03 19:00","1991","01","03","19:00","-9.9","","-13.8","","73","","24","","15","","19.3","","100.71","","","","-17","","Mainly Clear"
"1991-01-03 20:00","1991","01","03","20:00","-9.6","","-13.1","","75","","24","","15","","16.1","","100.71","","","","-16","","Snow"
"1991-01-03 21:00","1991","01","03","21:00","-10.0","","-12.4","","83","","23","","19","","19.3","","100.67","","","","-18","","Mainly Clear"
"1991-01-03 22:00","1991","01","03","22:00","-9.6","","-12.7","","78","","23","","13","","19.3","","100.67","","","","-16","","Clear"
"1991-01-03 23:00","1991","01","03","23:00","-8.6","","-12.7","","72","","24","","13","","24.1","","100.67","","","","-15","","Clear"
"1991-01-04 00:00","1991","01","04","00:00","-8.3","","-13.6","","65","","25","","19","","25.0","","100.71","","","","-16","","Clear"
"1991-01-04 01:00","1991","01","04","01:00","-8.3","","-13.6","","65","","25","","22","","25.0","","100.71","","","","-16","","Mainly Clear"
"1991-01-04 02:00","1991","01","04","02:00","-8.7","","-13.2","","70","","25","","22","","25.0","","100.74","","","","-17","","Mainly Clear"
"1991-01-04 03:00","1991","01","04","03:00","-8.8","","-13.4","","69","","25","","17","","25.0","","100.77","","","","-16","","Mainly Clear"
"1991-01-04 04:00","1991","01","04","04:00","-8.8","","-13.4","","69","","22","","15","","25.0","","100.77","","","","-15","","Mainly Clear"
"1991-01-04 05:00","1991","01","04","05:00","-9.0","","-12.1","","78","","21","","17","","19.3","","100.77","","","","-16","","Snow Showers"
"1991-01-04 06:00","1991","01","04","06:00","-10.7","","-13.0","","83","","19","","15","","25.0","","100.77","","","","-18","","Mainly Clear"
"1991-01-04 07:00","1991","01","04","07:00","-10.4","","-13.5","","78","","21","","19","","25.0","","100.77","","","","-18","","Mainly Clear"
"1991-01-04 08:00","1991","01","04","08:00","-10.5","","-13.0","","82","","22","","19","","24.1","","100.74","","","","-18","","Clear"
"1991-01-04 09:00","1991","01","04","09:00","-9.5","","-12.7","","77","","24","","31","","24.1","","100.77","","","","-19","","Clear"
"1991-01-04 10:00","1991","01","04","10:00","-8.4","","-11.9","","76","","24","","35","","24.1","","100.77","","","","-18","","Clear"
"1991-01-04 11:00","1991","01","04","11:00","-7.5","","-12.3","","68","","23","","35","","24.1","","100.77","","","","-17","","Mainly Clear"
"1991-01-04 12:00","1991","01","04","12:00","-6.7","","-10.9","","72","","24","","35","","24.1","","100.77","","","","-16","","Mainly Clear"
"1991-01-04 13:00","1991","01","04","13:00","-6.3","","-11.3","","68","","23","","31","","24.1","","100.71","","","","-15","","Clear"
"1991-01-04 14:00","1991","01","04","14:00","-5.6","","-10.8","","67","","23","","33","","24.1","","100.67","","","","-14","","Clear"
"1991-01-04 15:00","1991","01","04","15:00","-5.0","","-10.9","","63","","24","","26","","32.2","","100.67","","","","-12","","Clear"
"1991-01-04 16:00","1991","01","04","16:00","-5.1","","-9.3","","72","","24","","30","","24.1","","100.71","","","","-13","","Clear"
"1991-01-04 17:00","1991","01","04","17:00","-5.9","","-11.9","","62","","24","","22","","24.1","","100.77","","","","-13","","Clear"
"1991-01-04 18:00","1991","01","04","18:00","-6.5","","-11.7","","66","","24","","20","","19.3","","100.81","","","","-13","","Clear"
"1991-01-04 19:00","1991","01","04","19:00","-6.7","","-11.7","","67","","24","","24","","19.3","","100.81","","","","-14","","Clear"
"1991-01-04 20:00","1991","01","04","20:00","-7.5","","-12.3","","68","","24","","20","","19.3","","100.87","","","","-15","","Clear"
"1991-01-04 21:00","1991","01","04","21:00","-7.4","","-11.4","","73","","25","","24","","19.3","","100.81","","","","-15","","Clear"
"1991-01-04 22:00","1991","01","04","22:00","-7.6","","-11.8","","72","","25","","28","","19.3","","100.81","","","","-16","","Clear"
"1991-01-04 23:00","1991","01","04","23:00","-7.7","","-11.8","","73","","25","","19","","19.3","","100.84","","","","-15","","Clear"
"1991-01-05 00:00","1991","01","05","00:00","-8.0","","-12.5","","70","","24","","19","","24.1","","100.87","","","","-15","","Clear"
"1991-01-05 01:00","1991","01","05","01:00","-8.0","","-12.5","","70","","25","","19","","24.1","","100.87","","","","-15","","Mainly Clear"
"1991-01-05 02:00","1991","01","05","02:00","-7.0","","-12.4","","65","","25","","15","","24.1","","100.84","","","","-13","","Mostly Cloudy"
"1991-01-05 03:00","1991","01","05","03:00","-6.8","","-11.6","","68","","23","","19","","24.1","","100.87","","","","-14","","Mostly Cloudy"
"1991-01-05 04:00","1991","01","05","04:00","-6.4","","-10.5","","72","","25","","19","","24.1","","100.81","","","","-13","","Cloudy"
"1991-01-05 05:00","1991","01","05","05:00","-6.5","","-10.9","","71","","","","0","","24.1","","100.81","","","","","","Cloudy"
"1991-01-05 06:00","1991","01","05","06:00","-6.2","","-10.3","","73","","21","","4","","24.1","","100.77","","","","-8","","Cloudy"
"1991-01-05 07:00","1991","01","05","07:00","-5.6","","-10.4","","69","","16","","4","","24.1","","100.74","","","","-7","","Cloudy"
"1991-01-05 08:00","1991","01","05","08:00","-5.2","","-9.7","","71","","23","","4","","24.1","","100.71","","","","-7","","Cloudy"
"1991-01-05 09:00","1991","01","05","09:00","-5.0","","-8.9","","74","","15","","7","","24.1","","100.77","","","","-8","","Cloudy"
"1991-01-05 10:00","1991","01","05","10:00","-4.5","","-11.0","","60","","14","","7","","24.1","","100.67","","","","-8","","Cloudy"
"1991-01-05 11:00","1991","01","05","11:00","-3.7","","-9.5","","64","","","","0","","24.1","","100.64","","","","","","Cloudy"
"1991-01-05 12:00","1991","01","05","12:00","-3.4","","-10.7","","57","","18","","7","","6.4","","100.57","","","","-6","","Snow"
"1991-01-05 13:00","1991","01","05","13:00","-4.4","","-6.3","","87","","","","0","","1.2","","100.41","","","","","","Snow"
"1991-01-05 14:00","1991","01","05","14:00","-4.6","","-6.0","","90","","","","0","","2.8","","100.31","","","","","","Snow"
"1991-01-05 15:00","1991","01","05","15:00","-4.0","","-5.1","","92","","","","0","","1.2","","100.21","","","","","","Snow"
"1991-01-05 16:00","1991","01","05","16:00","-3.6","","-4.0","","97","","","","0","","1.2","","100.14","","","","","","Snow"
"1991-01-05 17:00","1991","01","05","17:00","-3.8","","-4.5","","95","","1","","4","","2.0","","100.07","","","","-5","","Snow"
"1991-01-05 18:00","1991","01","05","18:00","-3.9","","-4.5","","95","","35","","7","","1.2","","100.07","","","","-7","","Snow"
"1991-01-05 19:00","1991","01","05","19:00","-4.0","","-4.5","","96","","33","","7","","2.4","","100.11","","","","-7","","Snow"
"1991-01-05 20:00","1991","01","05","20:00","-4.1","","-4.8","","95","","33","","11","","4.8","","100.11","","","","-9","","Snow"
"1991-01-05 21:00","1991","01","05","21:00","-4.1","","-5.1","","93","","34","","11","","4.8","","100.11","","","","-9","","Snow"
"1991-01-05 22:00","1991","01","05","22:00","-4.2","","-5.4","","92","","33","","11","","9.7","","100.17","","","","-9","","Fog"
"1991-01-05 23:00","1991","01","05","23:00","-4.4","","-5.7","","90","","32","","7","","11.3","","100.21","","","","-8","","Cloudy"
"1991-01-06 00:00","1991","01","06","00:00","-4.5","","-5.7","","91","","","","0","","12.9","","100.21","","","","","","Mainly Clear"
"1991-01-06 01:00","1991","01","06","01:00","-7.6","","-8.1","","96","","29","","7","","8.0","","100.27","","","","-11","","Fog"
"1991-01-06 02:00","1991","01","06","02:00","-7.2","","-7.9","","95","","26","","4","","6.4","","100.34","","","","-9","","Fog"
"1991-01-06 03:00","1991","01","06","03:00","-7.8","","-9.0","","91","","24","","4","","8.0","","100.41","","","","-10","","Fog"
"1991-01-06 04:00","1991","01","06","04:00","-7.1","","-8.2","","92","","25","","4","","16.1","","100.44","","","","-9","","Clear"
"1991-01-06 05:00","1991","01","06","05:00","-11.0","","-12.3","","90","","30","","4","","6.4","","100.51","","","","-13","","Fog"
"1991-01-06 06:00","1991","01","06","06:00","-8.0","","-9.0","","92","","33","","6","","8.0","","100.51","","","","-11","","Fog"
"1991-01-06 07:00","1991","01","06","07:00","-7.5","","-8.4","","93","","","","0","","12.9","","100.57","","","","","","Mostly Cloudy"
"1991-01-06 08:00","1991","01","06","08:00","-5.3","","-6.8","","89","","","","0","","9.7","","100.67","","","","","","Fog"
"1991-01-06 09:00","1991","01","06","09:00","-5.6","","-6.8","","91","","26","","6","","19.3","","100.71","","","","-8","","Snow"
"1991-01-06 10:00","1991","01","06","10:00","-3.6","","-4.8","","92","","","","0","","12.9","","100.77","","","","","","Snow"
"1991-01-06 11:00","1991","01","06","11:00","-2.6","","-3.9","","91","","","","0","","8.0","","100.81","","","","","","Snow Showers,Fog"
"1991-01-06 12:00","1991","01","06","12:00","-2.0","","-3.9","","87","","34","","11","","8.0","","100.81","","","","-6","","Snow Showers,Fog"
"1991-01-06 13:00","1991","01","06","13:00","-1.6","","-3.6","","86","","","","0","","8.0","","100.74","","","","","","Snow"
"1991-01-06 14:00","1991","01","06","14:00","-1.3","","-3.9","","82","","","","0","","16.1","","100.71","","","","","","Snow Showers"
"1991-01-06 15:00","1991","01","06","15:00","-0.6","","-3.2","","82","","","","0","","16.1","","100.77","","","","","","Cloudy"
"1991-01-06 16:00","1991","01","06","16:00","-0.5","","-2.4","","87","","","","0","","12.9","","100.81","","","","","","Snow Showers"
"1991-01-06 17:00","1991","01","06","17:00","-1.8","","-3.3","","89","","","","0","","12.9","","100.87","","","","","","Snow Showers"
"1991-01-06 18:00","1991","01","06","18:00","-1.7","","-3.0","","91","","36","","4","","6.4","","100.91","","","","-3","","Snow Showers"
"1991-01-06 19:00","1991","01","06","19:00","-3.1","","-4.2","","92","","32","","7","","19.3","","101.01","","","","-6","","Mostly Cloudy"
"1991-01-06 20:00","1991","01","06","20:00","-4.0","","-6.6","","82","","35","","22","","25.0","","101.07","","","","-11","","Mainly Clear"
"1991-01-06 21:00","1991","01","06","21:00","-4.6","","-6.9","","84","","35","","15","","25.0","","101.11","","","","-10","","Mainly Clear"
"1991-01-06 22:00","1991","01","06","22:00","-5.4","","-7.8","","83","","35","","11","","25.0","","101.14","","","","-10","","Mostly Cloudy"
"1991-01-06 23:00","1991","01","06","23:00","-7.1","","-8.6","","89","","32","","7","","25.0","","101.17","","","","-11","","Mostly Cloudy"
"1991-01-07 00:00","1991","01","07","00:00","-7.0","","-7.9","","93","","34","","4","","25.0","","101.21","","","","-9","","Mostly Cloudy"
"1991-01-07 01:00","1991","01","07","01:00","-8.0","","-9.7","","87","","33","","4","","25.0","","101.27","","","","-10","","Snow Showers"
"1991-01-07 02:00","1991","01","07","02:00","-6.8","","-8.2","","89","","36","","7","","25.0","","101.31","","","","-10","","Cloudy"
"1991-01-07 03:00","1991","01","07","03:00","-6.2","","-8.1","","86","","36","","11","","25.0","","101.34","","","","-11","","Snow Showers"
"1991-01-07 04:00","1991","01","07","04:00","-6.2","","-8.1","","86","","30","","15","","6.4","","101.37","","","","-12","","Snow Showers"
"1991-01-07 05:00","1991","01","07","05:00","-7.0","","-10.4","","77","","36","","24","","6.4","","101.41","","","","-15","","Snow Showers"
"1991-01-07 06:00","1991","01","07","06:00","-9.2","","-11.7","","82","","36","","30","","25.0","","101.51","","","","-18","","Mostly Cloudy"
"1991-01-07 07:00","1991","01","07","07:00","-10.7","","-14.4","","74","","36","","28","","25.0","","101.57","","","","-20","","Mostly Cloudy"
"1991-01-07 08:00","1991","01","07","08:00","-12.3","","-15.9","","74","","36","","26","","32.2","","101.64","","","","-22","","Mostly Cloudy"
"1991-01-07 09:00","1991","01","07","09:00","-13.1","","-16.5","","76","","36","","15","","32.2","","101.74","","","","-21","","Mainly Clear"
"1991-01-07 10:00","1991","01","07","10:00","-13.3","","-17.2","","72","","33","","7","","32.2","","101.84","","","","-18","","Clear"
"1991-01-07 11:00","1991","01","07","11:00","-10.4","","-17.6","","55","","3","","17","","32.2","","101.84","","","","-18","","Clear"
"1991-01-07 12:00","1991","01","07","12:00","-10.0","","-18.0","","52","","3","","17","","32.2","","101.84","","","","-17","","Clear"
"1991-01-07 13:00","1991","01","07","13:00","-9.8","","-16.2","","59","","36","","11","","32.2","","101.77","","","","-15","","Clear"
"1991-01-07 14:00","1991","01","07","14:00","-9.6","","-15.0","","65","","36","","11","","32.2","","101.77","","","","-15","","Clear"
"1991-01-07 15:00","1991","01","07","15:00","-10.0","","-15.2","","65","","36","","15","","32.2","","101.77","","","","-17","","Clear"
"1991-01-07 16:00","1991","01","07","16:00","-10.6","","-15.4","","68","","36","","15","","32.2","","101.81","","","","-17","","Clear"
"1991-01-07 17:00","1991","01","07","17:00","-11.7","","-16.7","","66","","35","","11","","32.2","","101.87","","","","-18","","Clear"
"1991-01-07 18:00","1991","01","07","18:00","-12.6","","-17.5","","67","","35","","11","","25.0","","101.87","","","","-19","","Clear"
"1991-01-07 19:00","1991","01","07","19:00","-13.5","","-18.3","","67","","33","","6","","25.0","","101.91","","","","-18","","Clear"
"1991-01-07 20:00","1991","01","07","20:00","-15.6","","-20.3","","67","","34","","4","","25.0","","101.97","","","","-19","","Clear"
"1991-01-07 21:00","1991","01","07","21:00","-17.0","","-20.2","","76","","34","","9","","25.0","","101.97","","","","-23","","Clear"
"1991-01-07 22:00","1991","01","07","22:00","-17.2","","-19.6","","82","","34","","13","","25.0","","101.94","","","","-25","","Clear"
"1991-01-07 23:00","1991","01","07","23:00","-16.4","","-19.0","","80","","36","","13","","25.0","","101.94","","","","-24","","Clear"
"1991-01-08 00:00","1991","01","08","00:00","-18.2","","-20.7","","81","","33","","11","","25.0","","101.91","","","","-25","","Clear"
"1991-01-08 01:00","1991","01","08","01:00","-17.0","","-20.2","","76","","35","","15","","24.1","","101.87","","","","-25","","Mainly Clear"
"1991-01-08 02:00","1991","01","08","02:00","-15.2","","-17.8","","81","","2","","9","","9.7","","101.84","","","","-21","","Snow Showers"
"1991-01-08 03:00","1991","01","08","03:00","-13.8","","-16.7","","78","","5","","11","","4.0","","101.84","","","","-20","","Snow Showers"
"1991-01-08 04:00","1991","01","08","04:00","-14.2","","-16.2","","85","","6","","19","","4.0","","101.77","","","","-23","","Snow Showers"
"1991-01-08 05:00","1991","01","08","05:00","-14.0","","-15.7","","87","","8","","20","","4.0","","101.71","","","","-23","","Snow Showers"
"1991-01-08 06:00","1991","01","08","06:00","-14.2","","-16.2","","85","","4","","20","","8.0","","101.77","","","","-23","","Snow Showers"
"1991-01-08 07:00","1991","01","08","07:00","-13.9","","-16.2","","82","","5","","19","","3.2","","101.77","","","","-23","","Snow Showers"
"1991-01-08 08:00","1991","01","08","08:00","-13.5","","-16.1","","81","","5","","22","","3.2","","101.77","","","","-23","","Snow Showers"
"1991-01-08 09:00","1991","01","08","09:00","-14.0","","-16.2","","83","","5","","22","","1.0","","101.81","","","","-23","","Snow Showers"
"1991-01-08 10:00","1991","01","08","10:00","-14.0","","-16.2","","83","","5","","22","","2.0","","101.71","","","","-23","","Snow Showers"
"1991-01-08 11:00","1991","01","08","11:00","-12.6","","-14.9","","83","","7","","19","","12.9","","101.71","","","","-21","","Snow Showers"
"1991-01-08 12:00","1991","01","08","12:00","-11.4","","-13.8","","82","","7","","22","","3.2","","101.51","","","","-20","","Snow Showers"
"1991-01-08 13:00","1991","01","08","13:00","-11.2","","-13.2","","85","","6","","22","","4.0","","101.31","","","","-20","","Snow Showers"
"1991-01-08 14:00","1991","01","08","14:00","-9.3","","-11.8","","82","","5","","17","","16.1","","101.21","","","","-16","","Snow Showers"
"1991-01-08 15:00","1991","01","08","15:00","-7.9","","-10.5","","81","","3","","15","","19.3","","101.14","","","","-14","","Mostly Cloudy"
"1991-01-08 16:00","1991","01","08","16:00","-5.0","","-9.3","","72","","9","","28","","32.2","","101.04","","","","-13","","Mostly Cloudy"
"1991-01-08 17:00","1991","01","08","17:00","-4.6","","-9.4","","69","","11","","28","","25.0","","101.01","","","","-12","","Mostly Cloudy"
"1991-01-08 18:00","1991","01","08","18:00","-4.0","","-9.1","","67","","11","","31","","25.0","","100.97","","","","-12","","Mostly Cloudy"
"1991-01-08 19:00","1991","01","08","19:00","-4.0","","-8.3","","72","","11","","26","","25.0","","100.94","","","","-11","","Mostly Cloudy"
"1991-01-08 20:00","1991","01","08","20:00","-3.2","","-6.7","","77","","11","","22","","25.0","","100.84","","","","-10","","Mainly Clear"
"1991-01-08 21:00","1991","01","08","21:00","-5.5","","-9.6","","73","","4","","11","","25.0","","100.77","","","","-10","","Mainly Clear"
"1991-01-08 22:00","1991","01","08","22:00","-8.0","","-10.8","","80","","4","","7","","25.0","","100.71","","","","-12","","Mainly Clear"
"1991-01-08 23:00","1991","01","08","23:00","-8.0","","-9.0","","92","","33","","11","","19.3","","100.64","","","","-13","","Cloudy"
"1991-01-09 00:00","1991","01","09","00:00","-6.7","","-7.6","","93","","33","","4","","16.1","","100.57","","","","-9","","Cloudy"
"1991-01-09 01:00","1991","01","09","01:00","-6.4","","-7.3","","93","","32","","7","","8.0","","100.54","","","","-10","","Fog"
"1991-01-09 02:00","1991","01","09","02:00","-5.0","","-5.6","","95","","35","","6","","3.6","","100.47","","","","-8","","Freezing Drizzle,Fog"
"1991-01-09 03:00","1991","01","09","03:00","-3.7","","-4.0","","98","","4","","4","","2.4","","100.47","","","","-5","","Freezing Rain,Freezing Drizzle,Fog"
"1991-01-09 04:00","1991","01","09","04:00","-3.0","","-3.4","","97","","","","0","","2.8","","100.37","","","","","","Freezing Drizzle,Fog"
"1991-01-09 05:00","1991","01","09","05:00","-2.2","","-2.3","","100","","","","0","","1.2","","100.31","","","","","","Freezing Drizzle,Fog"
"1991-01-09 06:00","1991","01","09","06:00","-2.2","","-2.5","","98","","","","0","","0.8","","100.27","","","","","","Moderate Freezing Drizzle,Fog"
"1991-01-09 07:00","1991","01","09","07:00","-0.6","","-0.6","","100","","17","","7","","1.2","","100.27","","","","-3","","Freezing Drizzle,Fog"
"1991-01-09 08:00","1991","01","09","08:00","-0.3","","-0.3","","100","","17","","11","","1.0","","100.24","","","","-4","","Freezing Drizzle,Fog"
"1991-01-09 09:00","1991","01","09","09:00","-0.1","","-0.4","","98","","18","","7","","0.8","","100.27","","","","-3","","Fog"
"1991-01-09 10:00","1991","01","09","10:00","0.6","","0.0","","96","","19","","9","","0.8","","100.21","","","","","","Drizzle,Fog"
"1991-01-09 11:00","1991","01","09","11:00","1.0","","0.0","","93","","21","","13","","2.8","","100.24","","","","","","Snow,Fog"
"1991-01-09 12:00","1991","01","09","12:00","1.0","","0.0","","93","","23","","11","","6.4","","100.17","","","","","","Snow,Fog"
"1991-01-09 13:00","1991","01","09","13:00","1.2","","-1.0","","85","","26","","20","","12.9","","100.17","","","","","","Snow"
"1991-01-09 14:00","1991","01","09","14:00","1.0","","-1.5","","83","","26","","15","","12.9","","100.17","","","","","","Cloudy"
"1991-01-09 15:00","1991","01","09","15:00","1.1","","-1.9","","80","","27","","19","","12.9","","100.21","","","","","","Cloudy"
"1991-01-09 16:00","1991","01","09","16:00","1.0","","-1.5","","83","","27","","19","","12.9","","100.31","","","","","","Cloudy"
"1991-01-09 17:00","1991","01","09","17:00","0.9","","-1.0","","87","","29","","22","","16.1","","100.41","","","","","","Cloudy"
"1991-01-09 18:00","1991","01","09","18:00","0.4","","-0.5","","94","","28","","19","","8.0","","100.47","","","","","","Fog"
"1991-01-09 19:00","1991","01","09","19:00","0.4","","-1.6","","86","","27","","19","","9.7","","100.57","","","","","","Fog"
"1991-01-09 20:00","1991","01","09","20:00","0.4","","-2.1","","83","","27","","17","","12.9","","100.64","","","","","","Cloudy"
"1991-01-09 21:00","1991","01","09","21:00","0.3","","-2.2","","83","","28","","19","","19.3","","100.74","","","","","","Cloudy"
"1991-01-09 22:00","1991","01","09","22:00","0.2","","-3.2","","78","","31","","24","","16.1","","100.87","","","","","","Cloudy"
"1991-01-09 23:00","1991","01","09","23:00","-0.3","","-3.8","","77","","31","","26","","16.1","","100.97","","","","-6","","Cloudy"
"1991-01-10 00:00","1991","01","10","00:00","-1.4","","-5.1","","76","","30","","22","","24.1","","100.97","","","","-7","","Cloudy"
"1991-01-10 01:00","1991","01","10","01:00","-2.2","","-6.0","","75","","30","","22","","24.1","","101.01","","","","-8","","Cloudy"
"1991-01-10 02:00","1991","01","10","02:00","-3.8","","-8.0","","72","","29","","19","","25.0","","101.04","","","","-10","","Mostly Cloudy"
"1991-01-10 03:00","1991","01","10","03:00","-3.3","","-7.3","","74","","32","","19","","25.0","","101.11","","","","-9","","Cloudy"
"1991-01-10 04:00","1991","01","10","04:00","-3.8","","-8.7","","68","","31","","24","","25.0","","101.17","","","","-11","","Cloudy"
"1991-01-10 05:00","1991","01","10","05:00","-4.6","","-8.7","","73","","33","","20","","25.0","","101.27","","","","-11","","Cloudy"
"1991-01-10 06:00","1991","01","10","06:00","-5.5","","-10.0","","70","","34","","24","","25.0","","101.37","","","","-13","","Snow Showers"
"1991-01-10 07:00","1991","01","10","07:00","-8.0","","-11.2","","77","","36","","19","","9.7","","101.51","","","","-15","","Snow Showers"
"1991-01-10 08:00","1991","01","10","08:00","-9.5","","-13.6","","72","","2","","22","","19.3","","101.67","","","","-18","","Mainly Clear"
"1991-01-10 09:00","1991","01","10","09:00","-9.9","","-14.2","","70","","2","","15","","24.1","","101.81","","","","-17","","Mainly Clear"
"1991-01-10 10:00","1991","01","10","10:00","-9.9","","-14.2","","70","","2","","19","","24.1","","101.91","","","","-18","","Mainly Clear"
"1991-01-10 11:00","1991","01","10","11:00","-9.9","","-16.2","","60","","36","","20","","40.2","","101.91","","","","-18","","Mainly Clear"
"1991-01-10 12:00","1991","01","10","12:00","-10.0","","-15.7","","63","","35","","22","","40.2","","101.84","","","","-18","","Mostly Cloudy"
"1991-01-10 13:00","1991","01","10","13:00","-9.6","","-20.5","","41","","35","","17","","40.2","","101.81","","","","-17","","Mostly Cloudy"
"1991-01-10 14:00","1991","01","10","14:00","-9.9","","-19.3","","46","","35","","15","","40.2","","101.81","","","","-17","","Mostly Cloudy"
"1991-01-10 15:00","1991","01","10","15:00","-9.8","","-19.3","","46","","1","","19","","40.2","","101.81","","","","-17","","Cloudy"
"1991-01-10 16:00","1991","01","10","16:00","-10.0","","-20.7","","41","","3","","11","","40.2","","101.87","","","","-16","","Cloudy"
"1991-01-10 17:00","1991","01","10","17:00","-10.9","","-21.9","","40","","3","","15","","32.2","","101.91","","","","-18","","Cloudy"
"1991-01-10 18:00","1991","01","10","18:00","-11.2","","-18.3","","56","","2","","11","","25.0","","101.87","","","","-17","","Cloudy"
"1991-01-10 19:00","1991","01","10","19:00","-11.3","","-17.9","","58","","5","","11","","25.0","","101.94","","","","-17","","Cloudy"
"1991-01-10 20:00","1991","01","10","20:00","-11.3","","-19.1","","52","","4","","11","","25.0","","101.91","","","","-17","","Mostly Cloudy"
"1991-01-10 21:00","1991","01","10","21:00","-11.2","","-17.7","","59","","5","","11","","25.0","","101.87","","","","-17","","Mostly Cloudy"
"1991-01-10 22:00","1991","01","10","22:00","-11.0","","-19.7","","48","","5","","11","","25.0","","101.87","","","","-17","","Cloudy"
"1991-01-10 23:00","1991","01","10","23:00","-11.1","","-19.0","","52","","6","","19","","25.0","","101.81","","","","-19","","Cloudy"
"1991-01-11 00:00","1991","01","11","00:00","-10.3","","-16.4","","61","","5","","17","","25.0","","101.74","","","","-18","","Cloudy"
"1991-01-11 01:00","1991","01","11","01:00","-9.6","","-13.6","","72","","8","","19","","25.0","","101.71","","","","-17","","Cloudy"
"1991-01-11 02:00","1991","01","11","02:00","-9.2","","-11.3","","85","","6","","20","","25.0","","101.64","","","","-17","","Cloudy"
"1991-01-11 03:00","1991","01","11","03:00","-9.4","","-15.0","","64","","6","","24","","8.0","","101.57","","","","-18","","Snow"
"1991-01-11 04:00","1991","01","11","04:00","-9.7","","-12.7","","79","","6","","22","","6.4","","101.41","","","","-18","","Snow"
"1991-01-11 05:00","1991","01","11","05:00","-9.7","","-12.3","","81","","5","","20","","19.3","","101.37","","","","-17","","Snow"
"1991-01-11 06:00","1991","01","11","06:00","-10.7","","-13.9","","77","","5","","22","","19.3","","101.31","","","","-19","","Cloudy"
"1991-01-11 07:00","1991","01","11","07:00","-11.2","","-13.2","","85","","6","","28","","2.8","","101.21","","","","-21","","Snow"
"1991-01-11 08:00","1991","01","11","08:00","-11.2","","-13.2","","85","","6","","20","","4.8","","101.07","","","","-19","","Snow"
"1991-01-11 09:00","1991","01","11","09:00","-10.1","","-12.0","","86","","4","","20","","6.4","","101.04","","","","-18","","Snow,Ice Pellets"
"1991-01-11 10:00","1991","01","11","10:00","-8.8","","-10.9","","85","","7","","22","","2.4","","100.87","","","","-17","","Snow,Ice Pellets"
"1991-01-11 11:00","1991","01","11","11:00","-5.7","","-6.5","","94","","5","","17","","0.6","","100.71","","","","-12","","Moderate Snow,Ice Pellets"
"1991-01-11 12:00","1991","01","11","12:00","-4.0","","-5.4","","90","","11","","37","","0.6","","100.51","","","","-12","","Snow,Ice Pellets,Blowing Snow"
"1991-01-11 13:00","1991","01","11","13:00","-4.0","","-5.1","","92","","10","","35","","0.6","","100.31","","","","-12","","Snow,Ice Pellets,Blowing Snow"
"1991-01-11 14:00","1991","01","11","14:00","-4.0","","-5.1","","92","","10","","37","","1.2","","100.17","","","","-12","","Snow,Blowing Snow"
"1991-01-11 15:00","1991","01","11","15:00","-3.9","","-5.4","","89","","9","","39","","1.6","","100.04","","","","-13","","Snow,Blowing Snow"
"1991-01-11 16:00","1991","01","11","16:00","-3.6","","-5.1","","89","","10","","37","","1.6","","99.91","","","","-12","","Snow,Blowing Snow"
"1991-01-11 17:00","1991","01","11","17:00","-3.5","","-4.8","","91","","10","","37","","1.6","","99.77","","","","-12","","Snow,Blowing Snow"
"1991-01-11 18:00","1991","01","11","18:00","-3.3","","-4.8","","89","","10","","37","","1.6","","99.71","","","","-12","","Snow,Blowing Snow"
"1991-01-11 19:00","1991","01","11","19:00","-3.5","","-4.5","","93","","10","","37","","0.8","","99.51","","","","-12","","Moderate Snow,Blowing Snow"
"1991-01-11 20:00","1991","01","11","20:00","-3.4","","-4.8","","90","","10","","37","","1.6","","99.34","","","","-12","","Snow,Blowing Snow"
"1991-01-11 21:00","1991","01","11","21:00","-3.5","","-4.5","","93","","10","","39","","1.6","","99.21","","","","-12","","Snow,Blowing Snow"
"1991-01-11 22:00","1991","01","11","22:00","-3.3","","-4.5","","91","","10","","33","","2.0","","99.14","","","","-11","","Snow,Ice Pellets,Blowing Snow"
"1991-01-11 23:00","1991","01","11","23:00","-2.8","","-3.9","","92","","10","","26","","2.4","","99.04","","","","-10","","Freezing Drizzle,Snow,Ice Pellets,Blowing Snow"
"1991-01-12 00:00","1991","01","12","00:00","-2.5","","-3.4","","94","","9","","26","","3.2","","98.91","","","","-9","","Freezing Drizzle,Snow,Blowing Snow"
"1991-01-12 01:00","1991","01","12","01:00","-1.8","","-2.8","","93","","9","","26","","4.8","","98.81","","","","-8","","Freezing Drizzle,Snow"
"1991-01-12 02:00","1991","01","12","02:00","-1.1","","-1.6","","96","","10","","19","","4.8","","98.74","","","","-6","","Freezing Rain,Fog"
"1991-01-12 03:00","1991","01","12","03:00","-0.6","","-1.1","","96","","9","","15","","4.8","","98.71","","","","-5","","Freezing Rain,Fog"
"1991-01-12 04:00","1991","01","12","04:00","-0.4","","-1.0","","96","","8","","11","","4.0","","98.64","","","","-4","","Freezing Drizzle,Fog"
"1991-01-12 05:00","1991","01","12","05:00","-2.4","","-3.1","","95","","1","","13","","3.2","","98.57","","","","-7","","Freezing Drizzle,Fog"
"1991-01-12 06:00","1991","01","12","06:00","-6.2","","-6.8","","96","","35","","20","","3.2","","98.54","","","","-13","","Freezing Drizzle,Fog"
"1991-01-12 07:00","1991","01","12","07:00","-8.0","","-9.3","","90","","35","","20","","4.0","","98.54","","","","-15","","Freezing Drizzle,Fog"
"1991-01-12 08:00","1991","01","12","08:00","-8.6","","-10.3","","88","","34","","20","","12.9","","98.57","","","","-16","","Snow"
"1991-01-12 09:00","1991","01","12","09:00","-8.7","","-10.7","","85","","35","","22","","16.1","","98.64","","","","-17","","Snow"
"1991-01-12 10:00","1991","01","12","10:00","-8.8","","-10.9","","85","","34","","24","","2.4","","98.64","","","","-17","","Snow"
"1991-01-12 11:00","1991","01","12","11:00","-8.4","","-10.7","","83","","34","","20","","12.9","","98.64","","","","-16","","Snow"
"1991-01-12 12:00","1991","01","12","12:00","-8.0","","-10.5","","82","","34","","20","","19.3","","98.64","","","","-15","","Cloudy"
"1991-01-12 13:00","1991","01","12","13:00","-7.6","","-10.2","","81","","33","","24","","19.3","","98.61","","","","-16","","Snow"
"1991-01-12 14:00","1991","01","12","14:00","-7.3","","-9.9","","81","","34","","22","","16.1","","98.61","","","","-15","","Snow"
"1991-01-12 15:00","1991","01","12","15:00","-6.7","","-9.0","","84","","33","","20","","4.8","","98.67","","","","-14","","Snow"
"1991-01-12 16:00","1991","01","12","16:00","-6.3","","-8.7","","83","","33","","26","","4.0","","98.74","","","","-14","","Snow"
"1991-01-12 17:00","1991","01","12","17:00","-6.4","","-8.3","","86","","33","","24","","6.4","","98.81","","","","-14","","Snow"
"1991-01-12 18:00","1991","01","12","18:00","-6.2","","-8.4","","85","","34","","20","","16.1","","98.87","","","","-13","","Snow"
"1991-01-12 19:00","1991","01","12","19:00","-6.5","","-8.7","","84","","33","","20","","25.0","","99.01","","","","-13","","Cloudy"
"1991-01-12 20:00","1991","01","12","20:00","-7.0","","-9.3","","84","","35","","24","","25.0","","99.04","","","","-15","","Cloudy"
"1991-01-12 21:00","1991","01","12","21:00","-8.5","","-12.3","","74","","36","","19","","25.0","","99.14","","","","-16","","Mainly Clear"
"1991-01-12 22:00","1991","01","12","22:00","-9.5","","-12.7","","77","","35","","15","","25.0","","99.24","","","","-16","","Mostly Cloudy"
"1991-01-12 23:00","1991","01","12","23:00","-10.0","","-13.8","","74","","35","","15","","25.0","","99.31","","","","-17","","Mostly Cloudy"
"1991-01-13 00:00","1991","01","13","00:00","-9.6","","-13.1","","75","","34","","11","","25.0","","99.34","","","","-15","","Mostly Cloudy"
"1991-01-13 01:00","1991","01","13","01:00","-10.3","","-13.5","","77","","33","","7","","25.0","","99.34","","","","-14","","Mostly Cloudy"
"1991-01-13 02:00","1991","01","13","02:00","-10.4","","-13.0","","81","","32","","15","","25.0","","99.41","","","","-17","","Mainly Clear"
"1991-01-13 03:00","1991","01","13","03:00","-12.4","","-14.9","","81","","32","","15","","16.1","","99.47","","","","-20","","Snow"
"1991-01-13 04:00","1991","01","13","04:00","-12.0","","-14.3","","83","","32","","13","","25.0","","99.47","","","","-19","","Mainly Clear"
"1991-01-13 05:00","1991","01","13","05:00","-12.6","","-14.0","","89","","29","","7","","25.0","","99.51","","","","-17","","Mainly Clear"
"1991-01-13 06:00","1991","01","13","06:00","-12.4","","-14.0","","88","","","","0","","25.0","","99.57","","","","","","Mainly Clear"
"1991-01-13 07:00","1991","01","13","07:00","-12.0","","-14.3","","83","","","","0","","25.0","","99.57","","","","","","Clear"
"1991-01-13 08:00","1991","01","13","08:00","-11.5","","-13.8","","83","","","","0","","24.1","","99.64","","","","","","Clear"
"1991-01-13 09:00","1991","01","13","09:00","-11.8","","-13.9","","84","","","","0","","24.1","","99.71","","","","","","Clear"
"1991-01-13 10:00","1991","01","13","10:00","-10.3","","-12.6","","83","","","","0","","24.1","","99.71","","","","","","Clear"
"1991-01-13 11:00","1991","01","13","11:00","-7.6","","-10.2","","81","","19","","11","","24.1","","99.71","","","","-13","","Clear"
"1991-01-13 12:00","1991","01","13","12:00","-6.0","","-9.1","","79","","22","","11","","24.1","","99.64","","","","-11","","Clear"
"1991-01-13 13:00","1991","01","13","13:00","-5.0","","-8.2","","78","","21","","11","","19.3","","99.61","","","","-10","","Clear"
"1991-01-13 14:00","1991","01","13","14:00","-4.4","","-7.9","","76","","22","","19","","19.3","","99.61","","","","-11","","Mainly Clear"
"1991-01-13 15:00","1991","01","13","15:00","-5.0","","-7.2","","84","","24","","17","","16.1","","99.64","","","","-11","","Cloudy"
"1991-01-13 16:00","1991","01","13","16:00","-4.2","","-6.6","","83","","22","","20","","16.1","","99.64","","","","-11","","Cloudy"
"1991-01-13 17:00","1991","01","13","17:00","-4.0","","-6.0","","86","","22","","15","","16.1","","99.61","","","","-9","","Cloudy"
"1991-01-13 18:00","1991","01","13","18:00","-5.1","","-7.5","","83","","21","","15","","12.9","","99.57","","","","-11","","Mostly Cloudy"
"1991-01-13 19:00","1991","01","13","19:00","-6.1","","-8.1","","86","","21","","9","","16.1","","99.57","","","","-10","","Mostly Cloudy"
"1991-01-13 20:00","1991","01","13","20:00","-6.8","","-8.6","","87","","20","","28","","19.3","","99.51","","","","-15","","Mostly Cloudy"
"1991-01-13 21:00","1991","01","13","21:00","-5.7","","-7.8","","85","","20","","11","","19.3","","99.41","","","","-10","","Cloudy"
"1991-01-13 22:00","1991","01","13","22:00","-4.9","","-6.6","","88","","20","","11","","25.0","","99.37","","","","-9","","Mostly Cloudy"
"1991-01-13 23:00","1991","01","13","23:00","-2.6","","-6.0","","77","","19","","17","","25.0","","99.27","","","","-8","","Cloudy"
"1991-01-14 00:00","1991","01","14","00:00","-1.6","","-4.5","","81","","18","","19","","25.0","","99.24","","","","-7","","Cloudy"
"1991-01-14 01:00","1991","01","14","01:00","-1.0","","-4.4","","78","","19","","19","","25.0","","99.21","","","","-6","","Cloudy"
"1991-01-14 02:00","1991","01","14","02:00","-0.6","","-4.1","","77","","19","","20","","25.0","","99.17","","","","-6","","Cloudy"
"1991-01-14 03:00","1991","01","14","03:00","-0.7","","-3.5","","81","","19","","19","","25.0","","99.11","","","","-6","","Cloudy"
"1991-01-14 04:00","1991","01","14","04:00","-0.7","","-2.9","","85","","19","","19","","25.0","","99.11","","","","-6","","Cloudy"
"1991-01-14 05:00","1991","01","14","05:00","-0.7","","-2.7","","86","","19","","20","","12.9","","99.04","","","","-6","","Snow"
"1991-01-14 06:00","1991","01","14","06:00","-1.5","","-2.2","","95","","18","","22","","4.8","","99.01","","","","-7","","Snow"
"1991-01-14 07:00","1991","01","14","07:00","-1.0","","-2.4","","90","","18","","20","","12.9","","99.01","","","","-7","","Snow"
"1991-01-14 08:00","1991","01","14","08:00","-0.7","","-1.6","","94","","18","","19","","4.8","","98.97","","","","-6","","Snow"
"1991-01-14 09:00","1991","01","14","09:00","-0.4","","-1.2","","94","","18","","19","","11.3","","99.01","","","","-6","","Cloudy"
"1991-01-14 10:00","1991","01","14","10:00","-0.1","","-0.4","","98","","18","","15","","11.3","","99.01","","","","-5","","Cloudy"
"1991-01-14 11:00","1991","01","14","11:00","0.6","","-0.9","","90","","21","","19","","6.4","","99.01","","","","","","Ice Pellets,Fog"
"1991-01-14 12:00","1991","01","14","12:00","0.9","","-0.5","","90","","21","","22","","11.3","","98.94","","","","","","Ice Pellets"
"1991-01-14 13:00","1991","01","14","13:00","1.4","","-1.0","","84","","21","","22","","11.3","","98.84","","","","","","Cloudy"
"1991-01-14 14:00","1991","01","14","14:00","1.5","","-1.0","","83","","23","","30","","11.3","","98.91","","","","","","Cloudy"
"1991-01-14 15:00","1991","01","14","15:00","1.6","","-0.5","","86","","22","","19","","8.0","","98.94","","","","","","Drizzle,Fog"
"1991-01-14 16:00","1991","01","14","16:00","1.8","","-0.4","","85","","23","","17","","12.9","","99.01","","","","","","Cloudy"
"1991-01-14 17:00","1991","01","14","17:00","1.6","","0.0","","89","","22","","17","","6.4","","99.04","","","","","","Drizzle,Fog"
"1991-01-14 18:00","1991","01","14","18:00","1.4","","0.5","","94","","22","","15","","4.8","","99.11","","","","","","Drizzle,Fog"
"1991-01-14 19:00","1991","01","14","19:00","1.5","","0.5","","93","","20","","13","","4.0","","99.21","","","","","","Drizzle,Fog"
"1991-01-14 20:00","1991","01","14","20:00","1.8","","0.6","","92","","21","","15","","6.4","","99.24","","","","","","Fog"
"1991-01-14 21:00","1991","01","14","21:00","1.8","","0.6","","92","","21","","13","","6.4","","99.31","","","","","","Fog"
"1991-01-14 22:00","1991","01","14","22:00","1.6","","0.5","","92","","20","","11","","4.0","","99.34","","","","","","Drizzle,Fog"
"1991-01-14 23:00","1991","01","14","23:00","1.6","","0.5","","92","","19","","11","","4.0","","99.34","","","","","","Drizzle,Fog"
"1991-01-15 00:00","1991","01","15","00:00","1.7","","0.0","","88","","19","","13","","4.8","","99.34","","","","","","Drizzle,Fog"
"1991-01-15 01:00","1991","01","15","01:00","1.9","","0.1","","88","","19","","11","","6.4","","99.37","","","","","","Fog"
"1991-01-15 02:00","1991","01","15","02:00","1.9","","-0.4","","85","","19","","11","","8.0","","99.44","","","","","","Haze"
"1991-01-15 03:00","1991","01","15","03:00","1.8","","0.1","","89","","19","","9","","8.0","","99.47","","","","","","Fog"
"1991-01-15 04:00","1991","01","15","04:00","1.6","","-0.5","","86","","20","","9","","6.4","","99.54","","","","","","Fog"
"1991-01-15 05:00","1991","01","15","05:00","1.7","","-0.5","","85","","21","","9","","6.4","","99.57","","","","","","Fog"
"1991-01-15 06:00","1991","01","15","06:00","1.6","","0.0","","89","","20","","9","","4.8","","99.61","","","","","","Fog"
"1991-01-15 07:00","1991","01","15","07:00","1.8","","0.1","","89","","20","","11","","4.8","","99.64","","","","","","Fog"
"1991-01-15 08:00","1991","01","15","08:00","1.8","","0.1","","89","","21","","9","","4.0","","99.74","","","","","","Fog"
"1991-01-15 09:00","1991","01","15","09:00","1.8","","0.1","","89","","23","","9","","4.0","","99.81","","","","","","Fog"
"1991-01-15 10:00","1991","01","15","10:00","1.9","","0.1","","88","","21","","7","","4.0","","99.87","","","","","","Fog"
"1991-01-15 11:00","1991","01","15","11:00","2.3","","0.6","","89","","21","","7","","4.0","","99.87","","","","","","Fog"
"1991-01-15 12:00","1991","01","15","12:00","2.4","","0.1","","85","","21","","6","","4.8","","99.84","","","","","","Haze"
"1991-01-15 13:00","1991","01","15","13:00","2.4","","0.1","","85","","21","","9","","4.8","","99.84","","","","","","Haze"
"1991-01-15 14:00","1991","01","15","14:00","2.8","","0.2","","83","","22","","7","","6.4","","99.81","","","","","","Haze"
"1991-01-15 15:00","1991","01","15","15:00","2.6","","-0.4","","81","","21","","9","","8.0","","99.81","","","","","","Haze"
"1991-01-15 16:00","1991","01","15","16:00","2.8","","0.2","","83","","18","","7","","6.4","","99.84","","","","","","Haze"
"1991-01-15 17:00","1991","01","15","17:00","2.8","","0.2","","83","","","","0","","6.4","","99.84","","","","","","Haze"
"1991-01-15 18:00","1991","01","15","18:00","2.5","","-0.4","","81","","16","","4","","6.4","","99.81","","","","","","Haze"
"1991-01-15 19:00","1991","01","15","19:00","2.3","","0.1","","86","","","","0","","9.7","","99.77","","","","","","Haze"
"1991-01-15 20:00","1991","01","15","20:00","1.8","","0.1","","89","","14","","6","","9.7","","99.77","","","","","","Fog"
"1991-01-15 21:00","1991","01","15","21:00","2.0","","0.1","","87","","13","","7","","9.7","","99.77","","","","","","Fog"
"1991-01-15 22:00","1991","01","15","22:00","1.8","","1.1","","95","","9","","11","","6.4","","99.64","","","","","","Fog"
"1991-01-15 23:00","1991","01","15","23:00","2.3","","1.1","","92","","8","","11","","4.8","","99.54","","","","","","Fog"
"1991-01-16 00:00","1991","01","16","00:00","2.0","","0.6","","90","","6","","9","","4.8","","99.47","","","","","","Fog"
"1991-01-16 01:00","1991","01","16","01:00","1.9","","1.1","","95","","5","","11","","4.8","","99.41","","","","","","Fog"
"1991-01-16 02:00","1991","01","16","02:00","1.9","","0.6","","91","","5","","9","","4.8","","99.34","","","","","","Fog"
"1991-01-16 03:00","1991","01","16","03:00","2.2","","0.6","","89","","6","","13","","8.0","","99.24","","","","","","Fog"
"1991-01-16 04:00","1991","01","16","04:00","2.0","","0.6","","90","","8","","7","","8.0","","99.14","","","","","","Fog"
"1991-01-16 05:00","1991","01","16","05:00","2.0","","0.6","","90","","7","","9","","8.0","","98.94","","","","","","Rain,Fog"
"1991-01-16 06:00","1991","01","16","06:00","1.9","","0.6","","91","","6","","7","","8.0","","98.87","","","","","","Rain,Fog"
"1991-01-16 07:00","1991","01","16","07:00","2.2","","0.6","","89","","4","","9","","4.8","","98.81","","","","","","Rain,Fog"
"1991-01-16 08:00","1991","01","16","08:00","1.9","","1.1","","95","","3","","11","","4.8","","98.81","","","","","","Rain,Fog"
"1991-01-16 09:00","1991","01","16","09:00","2.1","","1.1","","93","","10","","11","","3.2","","98.67","","","","","","Rain,Fog"
"1991-01-16 10:00","1991","01","16","10:00","2.4","","1.6","","95","","5","","11","","2.8","","98.64","","","","","","Fog"
"1991-01-16 11:00","1991","01","16","11:00","2.2","","1.5","","95","","4","","11","","2.4","","98.54","","","","","","Fog"
"1991-01-16 12:00","1991","01","16","12:00","2.0","","1.5","","96","","1","","7","","0.8","","98.41","","","","","","Fog"
"1991-01-16 13:00","1991","01","16","13:00","1.9","","1.5","","97","","1","","11","","0.2","","98.27","","","","","","Fog"
"1991-01-16 14:00","1991","01","16","14:00","1.7","","1.7","","100","","36","","11","","0.2","","98.21","","","","","","Fog"
"1991-01-16 15:00","1991","01","16","15:00","1.3","","1.3","","100","","36","","15","","0.4","","98.14","","","","","","Fog"
"1991-01-16 16:00","1991","01","16","16:00","1.2","","0.5","","95","","34","","17","","0.4","","98.14","","","","","","Fog"
"1991-01-16 17:00","1991","01","16","17:00","1.5","","1.0","","96","","35","","19","","1.6","","98.11","","","","","","Fog"
"1991-01-16 18:00","1991","01","16","18:00","1.3","","1.0","","98","","35","","15","","3.6","","98.07","","","","","","Fog"
"1991-01-16 19:00","1991","01","16","19:00","1.3","","0.5","","95","","30","","13","","4.8","","98.11","","","","","","Rain,Fog"
"1991-01-16 20:00","1991","01","16","20:00","1.1","","0.0","","92","","33","","13","","4.8","","98.11","","","","","","Rain,Fog"
"1991-01-16 21:00","1991","01","16","21:00","0.6","","0.0","","96","","32","","15","","4.0","","98.04","","","","","","Rain,Fog"
"1991-01-16 22:00","1991","01","16","22:00","0.7","","0.0","","95","","33","","19","","3.6","","98.11","","","","","","Snow"
"1991-01-16 23:00","1991","01","16","23:00","0.6","","0.0","","96","","33","","17","","3.2","","98.11","","","","","","Snow,Fog"
"1991-01-17 00:00","1991","01","17","00:00","1.1","","0.0","","92","","33","","20","","8.0","","98.11","","","","","","Snow,Fog"
"1991-01-17 01:00","1991","01","17","01:00","1.1","","0.0","","92","","32","","17","","8.0","","98.14","","","","","","Rain,Fog"
"1991-01-17 02:00","1991","01","17","02:00","1.5","","-0.5","","87","","33","","30","","12.9","","98.24","","","","","","Rain"
"1991-01-17 03:00","1991","01","17","03:00","1.5","","-1.0","","83","","32","","30","","16.1","","98.34","","","","","","Cloudy"
"1991-01-17 04:00","1991","01","17","04:00","1.5","","-1.0","","83","","30","","26","","16.1","","98.41","","","","","","Cloudy"
"1991-01-17 05:00","1991","01","17","05:00","1.2","","-2.4","","77","","30","","22","","16.1","","98.47","","","","","","Cloudy"
"1991-01-17 06:00","1991","01","17","06:00","0.7","","-2.5","","79","","30","","30","","16.1","","98.54","","","","","","Cloudy"
"1991-01-17 07:00","1991","01","17","07:00","0.7","","-2.5","","79","","29","","20","","16.1","","98.61","","","","","","Cloudy"
"1991-01-17 08:00","1991","01","17","08:00","0.8","","-1.5","","85","","28","","19","","24.1","","98.64","","","","","","Snow Showers"
"1991-01-17 09:00","1991","01","17","09:00","0.8","","-1.5","","85","","27","","19","","32.2","","98.71","","","","","","Mostly Cloudy"
"1991-01-17 10:00","1991","01","17","10:00","0.6","","-2.5","","80","","27","","24","","32.2","","98.77","","","","","","Mostly Cloudy"
"1991-01-17 11:00","1991","01","17","11:00","1.0","","-3.6","","71","","28","","33","","32.2","","98.84","","","","","","Mostly Cloudy"
"1991-01-17 12:00","1991","01","17","12:00","0.9","","-4.2","","69","","28","","37","","32.2","","98.84","","","","","","Mostly Cloudy"
"1991-01-17 13:00","1991","01","17","13:00","0.9","","-3.6","","72","","27","","30","","32.2","","98.84","","","","","","Mostly Cloudy"
"1991-01-17 14:00","1991","01","17","14:00","1.0","","-3.0","","75","","26","","30","","32.2","","98.87","","","","","","Mostly Cloudy"
"1991-01-17 15:00","1991","01","17","15:00","0.9","","-3.6","","72","","26","","26","","24.1","","98.94","","","","","","Mostly Cloudy"
"1991-01-17 16:00","1991","01","17","16:00","0.1","","-3.9","","74","","27","","26","","32.2","","99.04","","","","","","Mostly Cloudy"
"1991-01-17 17:00","1991","01","17","17:00","0.0","","-4.0","","74","","27","","22","","32.2","","99.07","","","","-6","","Mostly Cloudy"
"1991-01-17 18:00","1991","01","17","18:00","-0.5","","-3.2","","82","","25","","26","","19.3","","99.11","","","","-7","","Snow Showers"
"1991-01-17 19:00","1991","01","17","19:00","-0.8","","-3.3","","83","","24","","22","","12.9","","99.11","","","","-7","","Snow Showers"
"1991-01-17 20:00","1991","01","17","20:00","-1.0","","-3.0","","86","","24","","22","","9.7","","99.07","","","","-7","","Snow Showers"
"1991-01-17 21:00","1991","01","17","21:00","-1.1","","-3.0","","87","","25","","19","","12.9","","99.11","","","","-6","","Cloudy"
"1991-01-17 22:00","1991","01","17","22:00","-1.2","","-3.3","","86","","25","","19","","12.9","","99.04","","","","-7","","Cloudy"
"1991-01-17 23:00","1991","01","17","23:00","-1.1","","-3.6","","83","","25","","20","","16.1","","99.01","","","","-7","","Cloudy"
"1991-01-18 00:00","1991","01","18","00:00","-1.2","","-4.1","","81","","24","","30","","16.1","","98.94","","","","-8","","Cloudy"
"1991-01-18 01:00","1991","01","18","01:00","-1.5","","-4.2","","82","","25","","35","","16.1","","98.87","","","","-9","","Mostly Cloudy"
"1991-01-18 02:00","1991","01","18","02:00","-1.5","","-4.8","","78","","26","","41","","16.1","","98.87","","","","-9","","Mostly Cloudy"
"1991-01-18 03:00","1991","01","18","03:00","-1.5","","-5.7","","73","","26","","30","","16.1","","98.94","","","","-8","","Cloudy"
"1991-01-18 04:00","1991","01","18","04:00","-1.9","","-5.4","","77","","25","","20","","16.1","","98.91","","","","-8","","Cloudy"
"1991-01-18 05:00","1991","01","18","05:00","-2.0","","-4.5","","83","","26","","37","","16.1","","98.84","","","","-10","","Cloudy"
"1991-01-18 06:00","1991","01","18","06:00","-1.4","","-5.1","","76","","26","","37","","16.1","","98.84","","","","-9","","Cloudy"
"1991-01-18 07:00","1991","01","18","07:00","-1.2","","-5.7","","71","","26","","37","","16.1","","98.87","","","","-9","","Mostly Cloudy"
"1991-01-18 08:00","1991","01","18","08:00","-1.7","","-6.0","","72","","24","","56","","24.1","","98.84","","","","-11","","Mostly Cloudy"
"1991-01-18 09:00","1991","01","18","09:00","-1.7","","-5.7","","74","","25","","48","","32.2","","98.81","","","","-10","","Cloudy"
"1991-01-18 10:00","1991","01","18","10:00","-1.9","","-6.0","","73","","25","","37","","24.1","","98.74","","","","-10","","Cloudy"
"1991-01-18 11:00","1991","01","18","11:00","-1.7","","-5.7","","74","","25","","41","","24.1","","98.74","","","","-10","","Cloudy"
"1991-01-18 12:00","1991","01","18","12:00","-1.5","","-4.8","","78","","25","","37","","4.8","","98.74","","","","-9","","Snow Showers"
"1991-01-18 13:00","1991","01","18","13:00","-1.7","","-4.5","","81","","24","","37","","3.2","","98.67","","","","-9","","Snow Showers"
"1991-01-18 14:00","1991","01","18","14:00","-0.8","","-3.6","","81","","26","","37","","6.4","","98.71","","","","-8","","Snow Showers"
"1991-01-18 15:00","1991","01","18","15:00","-0.4","","-4.6","","73","","27","","33","","16.1","","98.77","","","","-7","","Mostly Cloudy"
"1991-01-18 16:00","1991","01","18","16:00","-0.6","","-3.2","","82","","28","","37","","24.1","","98.84","","","","-8","","Mostly Cloudy"
"1991-01-18 17:00","1991","01","18","17:00","-1.2","","-4.4","","79","","28","","26","","19.3","","98.97","","","","-8","","Mostly Cloudy"
"1991-01-18 18:00","1991","01","18","18:00","-0.9","","-4.7","","75","","29","","30","","25.0","","99.11","","","","-8","","Mostly Cloudy"
"1991-01-18 19:00","1991","01","18","19:00","-0.9","","-4.1","","79","","29","","22","","25.0","","99.21","","","","-7","","Mostly Cloudy"
"1991-01-18 20:00","1991","01","18","20:00","-1.3","","-4.8","","77","","29","","19","","25.0","","99.24","","","","-7","","Mostly Cloudy"
"1991-01-18 21:00","1991","01","18","21:00","-1.2","","-5.0","","75","","25","","17","","25.0","","99.24","","","","-6","","Mostly Cloudy"
"1991-01-18 22:00","1991","01","18","22:00","-1.6","","-5.7","","73","","26","","15","","25.0","","99.31","","","","-6","","Mostly Cloudy"
"1991-01-18 23:00","1991","01","18","23:00","-0.7","","-3.5","","81","","23","","7","","25.0","","99.37","","","","-3","","Mostly Cloudy"
"1991-01-19 00:00","1991","01","19","00:00","-0.5","","-3.5","","80","","22","","13","","16.1","","99.34","","","","-5","","Cloudy"
"1991-01-19 01:00","1991","01","19","01:00","0.0","","-3.2","","79","","26","","17","","16.1","","99.31","","","","-5","","Cloudy"
"1991-01-19 02:00","1991","01","19","02:00","-0.3","","-4.1","","75","","25","","13","","16.1","","99.31","","","","-4","","Mostly Cloudy"
"1991-01-19 03:00","1991","01","19","03:00","-0.5","","-4.1","","76","","25","","15","","16.1","","99.27","","","","-5","","Cloudy"
"1991-01-19 04:00","1991","01","19","04:00","-0.7","","-5.0","","73","","21","","15","","12.9","","99.17","","","","-5","","Mostly Cloudy"
"1991-01-19 05:00","1991","01","19","05:00","-1.0","","-5.7","","70","","20","","19","","12.9","","99.14","","","","-6","","Cloudy"
"1991-01-19 06:00","1991","01","19","06:00","-1.1","","-5.4","","73","","21","","19","","12.9","","99.04","","","","-6","","Cloudy"
"1991-01-19 07:00","1991","01","19","07:00","-0.9","","-5.0","","74","","20","","17","","12.9","","99.01","","","","-6","","Mostly Cloudy"
"1991-01-19 08:00","1991","01","19","08:00","-0.5","","-2.7","","85","","21","","20","","11.3","","98.91","","","","-6","","Cloudy"
"1991-01-19 09:00","1991","01","19","09:00","0.8","","-1.5","","85","","22","","20","","11.3","","98.84","","","","","","Mostly Cloudy"
"1991-01-19 10:00","1991","01","19","10:00","1.5","","-2.1","","77","","22","","22","","16.1","","98.81","","","","","","Mostly Cloudy"
"1991-01-19 11:00","1991","01","19","11:00","2.6","","0.6","","87","","23","","22","","16.1","","98.71","","","","","","Mostly Cloudy"
"1991-01-19 12:00","1991","01","19","12:00","3.5","","-2.0","","67","","22","","26","","16.1","","98.57","","","","","","Mostly Cloudy"
"1991-01-19 13:00","1991","01","19","13:00","3.4","","-1.4","","71","","22","","28","","16.1","","98.51","","","","","","Mostly Cloudy"
"1991-01-19 14:00","1991","01","19","14:00","4.0","","-0.8","","71","","22","","33","","16.1","","98.41","","","","","","Mainly Clear"
"1991-01-19 15:00","1991","01","19","15:00","4.2","","-1.4","","67","","22","","31","","16.1","","98.34","","","","","","Mainly Clear"
"1991-01-19 16:00","1991","01","19","16:00","4.4","","-0.8","","69","","24","","30","","24.1","","98.31","","","","","","Mainly Clear"
"1991-01-19 17:00","1991","01","19","17:00","3.3","","-0.9","","74","","23","","30","","24.1","","98.24","","","","","","Mainly Clear"
"1991-01-19 18:00","1991","01","19","18:00","2.9","","-0.9","","76","","23","","33","","19.3","","98.21","","","","","","Mainly Clear"
"1991-01-19 19:00","1991","01","19","19:00","3.0","","-0.4","","78","","23","","33","","25.0","","98.11","","","","","","Mainly Clear"
"1991-01-19 20:00","1991","01","19","20:00","3.3","","-0.3","","77","","23","","33","","25.0","","98.04","","","","","","Mainly Clear"
"1991-01-19 21:00","1991","01","19","21:00","3.9","","-0.3","","74","","24","","35","","25.0","","98.01","","","","","","Mainly Clear"
"1991-01-19 22:00","1991","01","19","22:00","3.6","","-0.3","","76","","25","","30","","25.0","","97.97","","","","","","Mostly Cloudy"
"1991-01-19 23:00","1991","01","19","23:00","3.6","","-0.3","","76","","24","","30","","25.0","","97.97","","","","","","Cloudy"
"1991-01-20 00:00","1991","01","20","00:00","3.5","","-0.3","","76","","25","","22","","16.1","","98.01","","","","","","Cloudy"
"1991-01-20 01:00","1991","01","20","01:00","3.6","","-0.3","","76","","26","","26","","16.1","","97.97","","","","","","Cloudy"
"1991-01-20 02:00","1991","01","20","02:00","3.2","","-0.4","","77","","26","","26","","12.9","","98.01","","","","","","Cloudy"
"1991-01-20 03:00","1991","01","20","03:00","2.8","","0.2","","83","","27","","20","","12.9","","98.04","","","","","","Cloudy"
"1991-01-20 04:00","1991","01","20","04:00","2.4","","0.1","","85","","25","","17","","8.0","","98.07","","","","","","Fog"
"1991-01-20 05:00","1991","01","20","05:00","2.1","","0.1","","87","","26","","15","","8.0","","98.07","","","","","","Fog"
"1991-01-20 06:00","1991","01","20","06:00","1.9","","0.1","","88","","27","","15","","8.0","","98.11","","","","","","Fog"
"1991-01-20 07:00","1991","01","20","07:00","1.9","","0.1","","88","","26","","13","","8.0","","98.14","","","","","","Fog"
"1991-01-20 08:00","1991","01","20","08:00","2.0","","0.1","","87","","28","","7","","8.0","","98.14","","","","","","Fog"
"1991-01-20 09:00","1991","01","20","09:00","2.0","","0.1","","87","","","","0","","12.9","","98.17","","","","","","Cloudy"
"1991-01-20 10:00","1991","01","20","10:00","2.7","","0.1","","83","","27","","15","","16.1","","98.21","","","","","","Cloudy"
"1991-01-20 11:00","1991","01","20","11:00","1.3","","-1.0","","85","","34","","20","","24.1","","98.27","","","","","","Cloudy"
"1991-01-20 12:00","1991","01","20","12:00","0.0","","-2.6","","83","","34","","26","","32.2","","98.24","","","","-6","","Mostly Cloudy"
"1991-01-20 13:00","1991","01","20","13:00","-0.8","","-3.8","","80","","33","","28","","32.2","","98.27","","","","-7","","Mostly Cloudy"
"1991-01-20 14:00","1991","01","20","14:00","-1.7","","-4.2","","83","","34","","30","","32.2","","98.27","","","","-9","","Snow Showers"
"1991-01-20 15:00","1991","01","20","15:00","-3.3","","-7.0","","75","","33","","33","","32.2","","98.34","","","","-11","","Cloudy"
"1991-01-20 16:00","1991","01","20","16:00","-5.2","","-8.2","","79","","35","","35","","16.1","","98.41","","","","-14","","Snow Showers"
"1991-01-20 17:00","1991","01","20","17:00","-6.2","","-9.5","","77","","35","","31","","16.1","","98.51","","","","-15","","Snow Showers"
"1991-01-20 18:00","1991","01","20","18:00","-7.0","","-11.6","","69","","35","","31","","19.3","","98.57","","","","-16","","Snow Showers"
"1991-01-20 19:00","1991","01","20","19:00","-7.3","","-11.8","","70","","36","","24","","11.3","","98.64","","","","-15","","Snow Showers"
"1991-01-20 20:00","1991","01","20","20:00","-7.6","","-13.1","","65","","2","","26","","16.1","","98.71","","","","-16","","Snow Showers"
"1991-01-20 21:00","1991","01","20","21:00","-8.3","","-14.6","","60","","35","","26","","12.9","","98.74","","","","-17","","Snow Showers"
"1991-01-20 22:00","1991","01","20","22:00","-9.2","","-14.3","","67","","36","","30","","16.1","","98.77","","","","-18","","Snow Showers"
"1991-01-20 23:00","1991","01","20","23:00","-9.8","","-18.0","","51","","1","","30","","16.1","","98.81","","","","-19","","Cloudy"
"1991-01-21 00:00","1991","01","21","00:00","-11.9","","-18.0","","60","","1","","35","","25.0","","98.84","","","","-23","","Mainly Clear"
"1991-01-21 01:00","1991","01","21","01:00","-13.0","","-18.2","","65","","2","","28","","25.0","","98.84","","","","-23","","Mostly Cloudy"
"1991-01-21 02:00","1991","01","21","02:00","-14.1","","-19.6","","63","","2","","30","","25.0","","98.91","","","","-25","","Cloudy"
"1991-01-21 03:00","1991","01","21","03:00","-15.2","","-19.7","","68","","36","","35","","25.0","","99.01","","","","-27","","Mostly Cloudy"
"1991-01-21 04:00","1991","01","21","04:00","-16.6","","-21.0","","69","","36","","35","","25.0","","99.04","","","","-29","","Mainly Clear"
"1991-01-21 05:00","1991","01","21","05:00","-17.0","","-21.6","","67","","36","","28","","25.0","","99.14","","","","-28","","Clear"
"1991-01-21 06:00","1991","01","21","06:00","-17.9","","-22.1","","70","","35","","26","","25.0","","99.24","","","","-29","","Mainly Clear"
"1991-01-21 07:00","1991","01","21","07:00","-18.2","","-22.1","","72","","36","","30","","25.0","","99.34","","","","-30","","Cloudy"
"1991-01-21 08:00","1991","01","21","08:00","-18.5","","-22.8","","69","","35","","28","","24.1","","99.37","","","","-30","","Mostly Cloudy"
"1991-01-21 09:00","1991","01","21","09:00","-18.3","","-22.8","","68","","35","","30","","40.2","","99.47","","","","-30","","Mostly Cloudy"
"1991-01-21 10:00","1991","01","21","10:00","-18.3","","-23.6","","63","","35","","28","","40.2","","99.51","","","","-30","","Mostly Cloudy"
"1991-01-21 11:00","1991","01","21","11:00","-17.7","","-22.3","","68","","35","","26","","40.2","","99.54","","","","-29","","Mostly Cloudy"
"1991-01-21 12:00","1991","01","21","12:00","-16.7","","-21.7","","65","","35","","22","","32.2","","99.51","","","","-27","","Mostly Cloudy"
"1991-01-21 13:00","1991","01","21","13:00","-15.6","","-21.0","","63","","33","","19","","40.2","","99.51","","","","-25","","Mostly Cloudy"
"1991-01-21 14:00","1991","01","21","14:00","-14.6","","-21.0","","58","","35","","20","","40.2","","99.47","","","","-24","","Mostly Cloudy"
"1991-01-21 15:00","1991","01","21","15:00","-14.3","","-21.8","","53","","32","","19","","40.2","","99.47","","","","-23","","Mostly Cloudy"
"1991-01-21 16:00","1991","01","21","16:00","-13.5","","-18.9","","64","","35","","19","","32.2","","99.51","","","","-22","","Mainly Clear"
"1991-01-21 17:00","1991","01","21","17:00","-14.0","","-19.6","","62","","35","","17","","32.2","","99.51","","","","-22","","Mostly Cloudy"
"1991-01-21 18:00","1991","01","21","18:00","-14.5","","-19.0","","69","","33","","17","","25.0","","99.57","","","","-23","","Mainly Clear"
"1991-01-21 19:00","1991","01","21","19:00","-14.7","","-19.0","","70","","32","","13","","25.0","","99.61","","","","-22","","Clear"
"1991-01-21 20:00","1991","01","21","20:00","-14.8","","-19.7","","66","","31","","13","","25.0","","99.64","","","","-22","","Mostly Cloudy"
"1991-01-21 21:00","1991","01","21","21:00","-15.0","","-17.8","","79","","32","","15","","25.0","","99.64","","","","-23","","Cloudy"
"1991-01-21 22:00","1991","01","21","22:00","-15.4","","-19.7","","69","","33","","15","","25.0","","99.67","","","","-23","","Mostly Cloudy"
"1991-01-21 23:00","1991","01","21","23:00","-15.6","","-18.4","","79","","34","","13","","25.0","","99.64","","","","-23","","Cloudy"
"1991-01-22 00:00","1991","01","22","00:00","-16.0","","-19.0","","78","","32","","11","","25.0","","99.67","","","","-23","","Mostly Cloudy"
"1991-01-22 01:00","1991","01","22","01:00","-16.4","","-19.6","","76","","33","","11","","25.0","","99.61","","","","-23","","Mainly Clear"
"1991-01-22 02:00","1991","01","22","02:00","-16.7","","-19.6","","78","","33","","11","","25.0","","99.64","","","","-24","","Clear"
"1991-01-22 03:00","1991","01","22","03:00","-17.1","","-20.2","","77","","33","","7","","24.1","","99.71","","","","-22","","Clear"
"1991-01-22 04:00","1991","01","22","04:00","-17.5","","-20.1","","80","","34","","9","","24.1","","99.74","","","","-24","","Clear"
"1991-01-22 05:00","1991","01","22","05:00","-17.8","","-20.7","","78","","31","","9","","24.1","","99.77","","","","-24","","Clear"
"1991-01-22 06:00","1991","01","22","06:00","-17.8","","-20.1","","82","","31","","7","","19.3","","99.81","","","","-23","","Clear"
"1991-01-22 07:00","1991","01","22","07:00","-18.0","","-20.1","","83","","","","0","","16.1","","99.84","","","","","","Clear"
"1991-01-22 08:00","1991","01","22","08:00","-17.6","","-19.5","","85","","","","0","","24.1","","99.87","","","","","","Clear"
"1991-01-22 09:00","1991","01","22","09:00","-16.5","","-19.0","","81","","","","0","","24.1","","99.91","","","","","","Clear"
"1991-01-22 10:00","1991","01","22","10:00","-14.4","","-19.6","","64","","","","0","","19.3","","99.94","","","","","","Clear"
"1991-01-22 11:00","1991","01","22","11:00","-12.5","","-18.1","","63","","22","","7","","19.3","","99.94","","","","-17","","Mainly Clear"
"1991-01-22 12:00","1991","01","22","12:00","-10.2","","-14.2","","72","","19","","11","","19.3","","99.87","","","","-16","","Mainly Clear"
"1991-01-22 13:00","1991","01","22","13:00","-8.8","","-14.3","","64","","21","","13","","24.1","","99.81","","","","-15","","Mostly Cloudy"
"1991-01-22 14:00","1991","01","22","14:00","-8.1","","-13.9","","63","","22","","17","","32.2","","99.71","","","","-15","","Mostly Cloudy"
"1991-01-22 15:00","1991","01","22","15:00","-8.0","","-13.9","","62","","22","","17","","32.2","","99.64","","","","-15","","Mostly Cloudy"
"1991-01-22 16:00","1991","01","22","16:00","-7.2","","-15.4","","52","","21","","20","","32.2","","99.64","","","","-14","","Mostly Cloudy"
"1991-01-22 17:00","1991","01","22","17:00","-8.2","","-15.4","","56","","21","","19","","25.0","","99.61","","","","-15","","Mainly Clear"
"1991-01-22 18:00","1991","01","22","18:00","-8.5","","-15.6","","56","","20","","17","","25.0","","99.57","","","","-15","","Mainly Clear"
"1991-01-22 19:00","1991","01","22","19:00","-8.6","","-15.1","","59","","20","","22","","25.0","","99.57","","","","-16","","Clear"
"1991-01-22 20:00","1991","01","22","20:00","-8.6","","-15.6","","57","","19","","19","","25.0","","99.47","","","","-16","","Cloudy"
"1991-01-22 21:00","1991","01","22","21:00","-8.2","","-14.8","","59","","20","","19","","25.0","","99.37","","","","-15","","Cloudy"
"1991-01-22 22:00","1991","01","22","22:00","-7.6","","-14.1","","59","","18","","22","","25.0","","99.27","","","","-15","","Cloudy"
"1991-01-22 23:00","1991","01","22","23:00","-7.0","","-13.8","","58","","19","","33","","25.0","","99.24","","","","-16","","Cloudy"
"1991-01-23 00:00","1991","01","23","00:00","-6.9","","-13.8","","58","","20","","30","","25.0","","99.11","","","","-15","","Cloudy"
"1991-01-23 01:00","1991","01","23","01:00","-6.6","","-13.5","","58","","21","","33","","25.0","","98.97","","","","-15","","Cloudy"
"1991-01-23 02:00","1991","01","23","02:00","-6.5","","-13.5","","57","","19","","30","","25.0","","98.91","","","","-15","","Mostly Cloudy"
"1991-01-23 03:00","1991","01","23","03:00","-7.0","","-10.0","","79","","20","","26","","4.8","","98.81","","","","-15","","Snow"
"1991-01-23 04:00","1991","01","23","04:00","-7.0","","-9.6","","82","","20","","26","","4.8","","98.71","","","","-15","","Snow"
"1991-01-23 05:00","1991","01","23","05:00","-6.6","","-9.4","","81","","20","","30","","6.4","","98.61","","","","-15","","Snow"
"1991-01-23 06:00","1991","01","23","06:00","-6.4","","-9.4","","79","","21","","30","","6.4","","98.54","","","","-15","","Snow"
"1991-01-23 07:00","1991","01","23","07:00","-5.9","","-8.4","","82","","20","","30","","6.4","","98.51","","","","-14","","Snow"
"1991-01-23 08:00","1991","01","23","08:00","-5.2","","-8.2","","79","","20","","26","","9.7","","98.47","","","","-13","","Snow"
"1991-01-23 09:00","1991","01","23","09:00","-4.9","","-6.6","","88","","19","","24","","9.7","","98.37","","","","-12","","Snow"
"1991-01-23 10:00","1991","01","23","10:00","-4.0","","-6.0","","86","","19","","26","","12.9","","98.34","","","","-11","","Snow"
"1991-01-23 11:00","1991","01","23","11:00","-3.0","","-5.7","","81","","18","","20","","12.9","","98.31","","","","-9","","Snow"
"1991-01-23 12:00","1991","01","23","12:00","-2.7","","-4.2","","89","","20","","28","","1.2","","98.24","","","","-10","","Snow"
"1991-01-23 13:00","1991","01","23","13:00","-2.0","","-3.9","","87","","20","","35","","4.0","","98.11","","","","-10","","Snow"
"1991-01-23 14:00","1991","01","23","14:00","-2.2","","-3.3","","92","","20","","41","","1.2","","98.01","","","","-10","","Snow,Blowing Snow"
"1991-01-23 15:00","1991","01","23","15:00","-2.0","","-3.6","","89","","20","","37","","2.0","","98.01","","","","-10","","Snow,Blowing Snow"
"1991-01-23 16:00","1991","01","23","16:00","-1.3","","-4.2","","80","","20","","33","","8.0","","98.04","","","","-8","","Snow"
"1991-01-23 17:00","1991","01","23","17:00","-1.4","","-3.0","","89","","22","","41","","6.4","","98.07","","","","-9","","Snow,Blowing Snow"
"1991-01-23 18:00","1991","01","23","18:00","-1.0","","-3.8","","81","","22","","33","","16.1","","98.11","","","","-8","","Mostly Cloudy"
"1991-01-23 19:00","1991","01","23","19:00","-3.6","","-4.8","","92","","27","","37","","12.9","","98.31","","","","-12","","Mostly Cloudy"
"1991-01-23 20:00","1991","01","23","20:00","-6.0","","-7.4","","90","","26","","39","","4.8","","98.47","","","","-15","","Blowing Snow"
"1991-01-23 21:00","1991","01","23","21:00","-7.2","","-8.6","","90","","27","","37","","8.0","","98.64","","","","-17","","Blowing Snow"
"1991-01-23 22:00","1991","01","23","22:00","-7.4","","-12.7","","65","","25","","31","","25.0","","98.74","","","","-16","","Mainly Clear"
"1991-01-23 23:00","1991","01","23","23:00","-7.7","","-11.4","","75","","25","","30","","25.0","","98.81","","","","-17","","Mainly Clear"
"1991-01-24 00:00","1991","01","24","00:00","-8.0","","-12.5","","70","","25","","26","","25.0","","98.94","","","","-16","","Clear"
"1991-01-24 01:00","1991","01","24","01:00","-8.4","","-12.3","","73","","25","","22","","25.0","","99.01","","","","-16","","Mainly Clear"
"1991-01-24 02:00","1991","01","24","02:00","-8.7","","-11.5","","80","","23","","22","","16.1","","99.11","","","","-17","","Snow"
"1991-01-24 03:00","1991","01","24","03:00","-8.7","","-11.9","","78","","24","","26","","12.9","","99.14","","","","-17","","Snow"
"1991-01-24 04:00","1991","01","24","04:00","-9.0","","-12.5","","76","","23","","22","","12.9","","99.14","","","","-17","","Cloudy"
"1991-01-24 05:00","1991","01","24","05:00","-9.0","","-12.5","","76","","24","","19","","16.1","","99.21","","","","-16","","Mainly Clear"
"1991-01-24 06:00","1991","01","24","06:00","-9.9","","-13.3","","76","","24","","19","","16.1","","99.17","","","","-18","","Mainly Clear"
"1991-01-24 07:00","1991","01","24","07:00","-10.2","","-13.3","","78","","23","","19","","16.1","","99.21","","","","-18","","Mostly Cloudy"
"1991-01-24 08:00","1991","01","24","08:00","-9.6","","-12.7","","78","","22","","20","","24.1","","99.24","","","","-17","","Cloudy"
"1991-01-24 09:00","1991","01","24","09:00","-9.3","","-13.6","","71","","23","","26","","24.1","","99.31","","","","-18","","Mostly Cloudy"
"1991-01-24 10:00","1991","01","24","10:00","-8.6","","-12.3","","75","","23","","26","","24.1","","99.37","","","","-17","","Mostly Cloudy"
"1991-01-24 11:00","1991","01","24","11:00","-7.3","","-12.3","","67","","25","","24","","24.1","","99.44","","","","-15","","Mostly Cloudy"
"1991-01-24 12:00","1991","01","24","12:00","-7.0","","-12.4","","65","","26","","30","","32.2","","99.41","","","","-16","","Mostly Cloudy"
"1991-01-24 13:00","1991","01","24","13:00","-6.6","","-12.6","","62","","26","","31","","12.9","","99.41","","","","-15","","Snow Showers"
"1991-01-24 14:00","1991","01","24","14:00","-8.1","","-10.5","","83","","26","","37","","12.9","","99.47","","","","-18","","Snow Showers"
"1991-01-24 15:00","1991","01","24","15:00","-7.2","","-12.4","","66","","26","","30","","19.3","","99.57","","","","-16","","Mainly Clear"
"1991-01-24 16:00","1991","01","24","16:00","-10.0","","-14.2","","71","","34","","19","","24.1","","99.74","","","","-18","","Mostly Cloudy"
"1991-01-24 17:00","1991","01","24","17:00","-11.0","","-14.5","","75","","34","","19","","12.9","","99.87","","","","-19","","Snow Showers"
"1991-01-24 18:00","1991","01","24","18:00","-12.7","","-16.4","","74","","35","","19","","25.0","","100.11","","","","-21","","Mainly Clear"
"1991-01-24 19:00","1991","01","24","19:00","-13.8","","-17.8","","72","","34","","15","","25.0","","100.21","","","","-21","","Mainly Clear"
"1991-01-24 20:00","1991","01","24","20:00","-14.9","","-18.4","","75","","34","","11","","25.0","","100.31","","","","-21","","Mainly Clear"
"1991-01-24 21:00","1991","01","24","21:00","-15.6","","-18.4","","79","","30","","6","","25.0","","100.31","","","","-20","","Mainly Clear"
"1991-01-24 22:00","1991","01","24","22:00","-16.1","","-18.4","","83","","26","","7","","25.0","","100.37","","","","-21","","Clear"
"1991-01-24 23:00","1991","01","24","23:00","-15.8","","-19.0","","76","","25","","9","","25.0","","100.41","","","","-22","","Mainly Clear"
"1991-01-25 00:00","1991","01","25","00:00","-16.7","","-19.0","","82","","26","","11","","25.0","","100.41","","","","-24","","Clear"
"1991-01-25 01:00","1991","01","25","01:00","-16.8","","-20.2","","75","","26","","11","","25.0","","100.41","","","","-24","","Mainly Clear"
"1991-01-25 02:00","1991","01","25","02:00","-16.8","","-20.2","","75","","28","","7","","25.0","","100.44","","","","-22","","Clear"
"1991-01-25 03:00","1991","01","25","03:00","-17.2","","-19.0","","86","","30","","4","","25.0","","100.47","","","","-20","","Clear"
"1991-01-25 04:00","1991","01","25","04:00","-17.4","","-20.1","","79","","","","0","","25.0","","100.51","","","","","","Clear"
"1991-01-25 05:00","1991","01","25","05:00","-17.8","","-20.1","","82","","","","0","","25.0","","100.51","","","","","","Clear"
"1991-01-25 06:00","1991","01","25","06:00","-17.8","","-20.7","","78","","30","","4","","25.0","","100.47","","","","-21","","Clear"
"1991-01-25 07:00","1991","01","25","07:00","-17.5","","-18.9","","89","","27","","4","","25.0","","100.51","","","","-21","","Mainly Clear"
"1991-01-25 08:00","1991","01","25","08:00","-16.2","","-17.9","","87","","26","","9","","24.1","","100.57","","","","-22","","Mostly Cloudy"
"1991-01-25 09:00","1991","01","25","09:00","-14.8","","-17.8","","78","","26","","7","","24.1","","100.57","","","","-20","","Mostly Cloudy"
"1991-01-25 10:00","1991","01","25","10:00","-12.2","","-15.8","","75","","24","","15","","24.1","","100.57","","","","-19","","Mainly Clear"
"1991-01-25 11:00","1991","01","25","11:00","-10.5","","-16.4","","62","","23","","22","","32.2","","100.57","","","","-19","","Mainly Clear"
"1991-01-25 12:00","1991","01","25","12:00","-9.8","","-16.2","","59","","25","","28","","32.2","","100.51","","","","-19","","Mainly Clear"
"1991-01-25 13:00","1991","01","25","13:00","-10.0","","-15.7","","63","","26","","30","","32.2","","100.47","","","","-20","","Mainly Clear"
"1991-01-25 14:00","1991","01","25","14:00","-10.0","","-16.2","","60","","26","","26","","40.2","","100.41","","","","-19","","Mainly Clear"
"1991-01-25 15:00","1991","01","25","15:00","-9.6","","-15.5","","62","","26","","30","","40.2","","100.47","","","","-19","","Mainly Clear"
"1991-01-25 16:00","1991","01","25","16:00","-10.0","","-15.2","","65","","25","","28","","40.2","","100.47","","","","-19","","Mainly Clear"
"1991-01-25 17:00","1991","01","25","17:00","-10.8","","-16.1","","65","","26","","20","","40.2","","100.51","","","","-19","","Mainly Clear"
"1991-01-25 18:00","1991","01","25","18:00","-10.8","","-15.0","","71","","25","","13","","25.0","","100.51","","","","-17","","Mainly Clear"
"1991-01-25 19:00","1991","01","25","19:00","-12.3","","-15.9","","74","","23","","11","","25.0","","100.54","","","","-18","","Mainly Clear"
"1991-01-25 20:00","1991","01","25","20:00","-12.1","","-15.3","","77","","21","","11","","25.0","","100.51","","","","-18","","Mostly Cloudy"
"1991-01-25 21:00","1991","01","25","21:00","-12.3","","-15.9","","74","","18","","9","","25.0","","100.47","","","","-18","","Mainly Clear"
"1991-01-25 22:00","1991","01","25","22:00","-13.3","","-17.2","","72","","15","","7","","25.0","","100.41","","","","-18","","Mainly Clear"
"1991-01-25 23:00","1991","01","25","23:00","-13.3","","-17.2","","72","","21","","11","","25.0","","100.37","","","","-20","","Clear"
"1991-01-26 00:00","1991","01","26","00:00","-13.3","","-17.2","","72","","23","","11","","25.0","","100.31","","","","-20","","Mainly Clear"
"1991-01-26 01:00","1991","01","26","01:00","-13.6","","-16.6","","78","","26","","11","","25.0","","100.24","","","","-20","","Mainly Clear"
"1991-01-26 02:00","1991","01","26","02:00","-14.3","","-17.3","","78","","24","","11","","25.0","","100.21","","","","-21","","Mainly Clear"
"1991-01-26 03:00","1991","01","26","03:00","-13.4","","-16.1","","80","","21","","9","","25.0","","100.21","","","","-19","","Mostly Cloudy"
"1991-01-26 04:00","1991","01","26","04:00","-12.8","","-16.0","","77","","21","","15","","25.0","","100.17","","","","-20","","Mainly Clear"
"1991-01-26 05:00","1991","01","26","05:00","-13.1","","-15.5","","82","","23","","17","","25.0","","100.11","","","","-21","","Mainly Clear"
"1991-01-26 06:00","1991","01","26","06:00","-13.3","","-16.1","","79","","23","","20","","25.0","","100.07","","","","-22","","Clear"
"1991-01-26 07:00","1991","01","26","07:00","-13.4","","-16.1","","80","","24","","19","","25.0","","100.01","","","","-22","","Mainly Clear"
"1991-01-26 08:00","1991","01","26","08:00","-14.0","","-16.7","","80","","22","","15","","24.1","","99.97","","","","-22","","Mainly Clear"
"1991-01-26 09:00","1991","01","26","09:00","-12.7","","-15.4","","80","","22","","13","","24.1","","99.97","","","","-20","","Mainly Clear"
"1991-01-26 10:00","1991","01","26","10:00","-11.2","","-13.6","","82","","22","","15","","24.1","","99.91","","","","-18","","Clear"
"1991-01-26 11:00","1991","01","26","11:00","-9.5","","-12.7","","77","","22","","17","","24.1","","99.81","","","","-17","","Mostly Cloudy"
"1991-01-26 12:00","1991","01","26","12:00","-8.4","","-13.6","","66","","24","","26","","24.1","","99.67","","","","-17","","Cloudy"
"1991-01-26 13:00","1991","01","26","13:00","-7.0","","-13.8","","58","","22","","24","","24.1","","99.51","","","","-15","","Cloudy"
"1991-01-26 14:00","1991","01","26","14:00","-6.2","","-12.3","","62","","22","","30","","24.1","","99.37","","","","-15","","Cloudy"
"1991-01-26 15:00","1991","01","26","15:00","-6.5","","-12.2","","64","","23","","24","","24.1","","99.27","","","","-14","","Mostly Cloudy"
"1991-01-26 16:00","1991","01","26","16:00","-5.7","","-10.0","","72","","21","","20","","24.1","","99.17","","","","-12","","Cloudy"
"1991-01-26 17:00","1991","01","26","17:00","-5.7","","-10.0","","72","","22","","22","","19.3","","99.14","","","","-13","","Snow Showers"
"1991-01-26 18:00","1991","01","26","18:00","-6.2","","-9.5","","77","","21","","24","","16.1","","99.11","","","","-14","","Mostly Cloudy"
"1991-01-26 19:00","1991","01","26","19:00","-6.1","","-9.9","","74","","22","","26","","25.0","","99.11","","","","-14","","Mostly Cloudy"
"1991-01-26 20:00","1991","01","26","20:00","-6.5","","-10.5","","73","","23","","24","","25.0","","99.11","","","","-14","","Mostly Cloudy"
"1991-01-26 21:00","1991","01","26","21:00","-6.8","","-10.8","","73","","22","","26","","25.0","","99.04","","","","-15","","Cloudy"
"1991-01-26 22:00","1991","01","26","22:00","-7.2","","-10.8","","76","","22","","24","","25.0","","99.04","","","","-15","","Mostly Cloudy"
"1991-01-26 23:00","1991","01","26","23:00","-7.5","","-11.0","","76","","23","","20","","25.0","","99.11","","","","-15","","Mostly Cloudy"
"1991-01-27 00:00","1991","01","27","00:00","-7.8","","-11.6","","74","","22","","19","","25.0","","99.07","","","","-15","","Mostly Cloudy"
"1991-01-27 01:00","1991","01","27","01:00","-7.9","","-12.1","","72","","22","","19","","25.0","","99.07","","","","-15","","Mostly Cloudy"
"1991-01-27 02:00","1991","01","27","02:00","-8.3","","-12.3","","73","","21","","20","","25.0","","99.07","","","","-16","","Mainly Clear"
"1991-01-27 03:00","1991","01","27","03:00","-8.8","","-12.1","","77","","21","","17","","25.0","","99.11","","","","-16","","Mainly Clear"
"1991-01-27 04:00","1991","01","27","04:00","-9.3","","-12.7","","76","","21","","19","","25.0","","99.07","","","","-17","","Mainly Clear"
"1991-01-27 05:00","1991","01","27","05:00","-9.5","","-12.7","","77","","20","","19","","25.0","","99.11","","","","-17","","Mainly Clear"
"1991-01-27 06:00","1991","01","27","06:00","-9.6","","-12.7","","78","","20","","15","","25.0","","99.11","","","","-16","","Mostly Cloudy"
"1991-01-27 07:00","1991","01","27","07:00","-9.7","","-12.3","","81","","19","","17","","25.0","","99.11","","","","-17","","Mostly Cloudy"
"1991-01-27 08:00","1991","01","27","08:00","-9.5","","-12.7","","77","","19","","19","","19.3","","99.11","","","","-17","","Mostly Cloudy"
"1991-01-27 09:00","1991","01","27","09:00","-8.2","","-10.8","","82","","19","","28","","19.3","","99.07","","","","-17","","Mainly Clear"
"1991-01-27 10:00","1991","01","27","10:00","-6.3","","-10.5","","72","","21","","30","","19.3","","99.01","","","","-15","","Mainly Clear"
"1991-01-27 11:00","1991","01","27","11:00","-4.3","","-9.4","","67","","21","","33","","19.3","","98.97","","","","-12","","Mostly Cloudy"
"1991-01-27 12:00","1991","01","27","12:00","-3.4","","-8.0","","70","","21","","41","","19.3","","98.84","","","","-12","","Mainly Clear"
"1991-01-27 13:00","1991","01","27","13:00","-2.5","","-8.8","","62","","21","","44","","24.1","","98.71","","","","-11","","Mainly Clear"
"1991-01-27 14:00","1991","01","27","14:00","-1.9","","-7.4","","66","","20","","41","","24.1","","98.64","","","","-10","","Mostly Cloudy"
"1991-01-27 15:00","1991","01","27","15:00","-2.0","","-7.4","","66","","21","","33","","16.1","","98.57","","","","-9","","Mostly Cloudy"
"1991-01-27 16:00","1991","01","27","16:00","-1.5","","-7.7","","62","","21","","33","","19.3","","98.54","","","","-9","","Cloudy"
"1991-01-27 17:00","1991","01","27","17:00","-1.4","","-8.9","","56","","20","","24","","32.2","","98.51","","","","-8","","Cloudy"
"1991-01-27 18:00","1991","01","27","18:00","-2.2","","-5.7","","77","","22","","20","","19.3","","98.47","","","","-8","","Snow Showers"
"1991-01-27 19:00","1991","01","27","19:00","-2.0","","-7.0","","68","","21","","19","","25.0","","98.41","","","","-8","","Cloudy"
"1991-01-27 20:00","1991","01","27","20:00","-1.5","","-5.7","","73","","21","","28","","4.8","","98.34","","","","-8","","Snow"
"1991-01-27 21:00","1991","01","27","21:00","-2.4","","-3.7","","91","","19","","17","","4.8","","98.27","","","","-8","","Snow"
"1991-01-27 22:00","1991","01","27","22:00","-2.0","","-2.8","","94","","20","","15","","3.2","","98.24","","","","-7","","Snow"
"1991-01-27 23:00","1991","01","27","23:00","-1.8","","-3.1","","91","","23","","19","","11.3","","98.24","","","","-7","","Snow"
"1991-01-28 00:00","1991","01","28","00:00","-0.9","","-4.7","","75","","26","","28","","12.9","","98.34","","","","-7","","Mostly Cloudy"
"1991-01-28 01:00","1991","01","28","01:00","-1.6","","-6.0","","72","","26","","30","","16.1","","98.44","","","","-9","","Mainly Clear"
"1991-01-28 02:00","1991","01","28","02:00","-2.1","","-6.4","","72","","26","","26","","16.1","","98.61","","","","-9","","Mainly Clear"
"1991-01-28 03:00","1991","01","28","03:00","-2.9","","-8.1","","67","","26","","22","","16.1","","98.74","","","","-9","","Clear"
"1991-01-28 04:00","1991","01","28","04:00","-3.8","","-9.1","","66","","25","","15","","19.3","","98.81","","","","-9","","Clear"
"1991-01-28 05:00","1991","01","28","05:00","-4.4","","-9.0","","70","","14","","6","","25.0","","98.94","","","","-7","","Clear"
"1991-01-28 06:00","1991","01","28","06:00","-5.6","","-8.9","","78","","21","","11","","25.0","","98.94","","","","-10","","Clear"
"1991-01-28 07:00","1991","01","28","07:00","-6.0","","-8.4","","83","","18","","11","","25.0","","98.94","","","","-11","","Clear"
"1991-01-28 08:00","1991","01","28","08:00","-6.5","","-9.0","","82","","21","","13","","9.7","","99.07","","","","-12","","Haze"
"1991-01-28 09:00","1991","01","28","09:00","-5.2","","-7.9","","81","","20","","17","","9.7","","99.14","","","","-11","","Haze"
"1991-01-28 10:00","1991","01","28","10:00","-4.0","","-7.6","","76","","18","","28","","11.3","","99.04","","","","-11","","Clear"
"1991-01-28 11:00","1991","01","28","11:00","-2.0","","-6.7","","70","","22","","30","","12.9","","99.04","","","","-9","","Clear"
"1991-01-28 12:00","1991","01","28","12:00","-0.7","","-6.0","","67","","21","","35","","16.1","","98.97","","","","-8","","Clear"
"1991-01-28 13:00","1991","01","28","13:00","0.2","","-6.0","","63","","21","","41","","24.1","","98.91","","","","","","Clear"
"1991-01-28 14:00","1991","01","28","14:00","0.8","","-4.8","","66","","23","","37","","25.0","","98.91","","","","","","Clear"
"1991-01-28 15:00","1991","01","28","15:00","1.1","","-5.5","","61","","22","","39","","25.0","","98.87","","","","","","Clear"
"1991-01-28 16:00","1991","01","28","16:00","0.9","","-6.2","","59","","22","","37","","32.2","","98.87","","","","","","Mainly Clear"
"1991-01-28 17:00","1991","01","28","17:00","0.2","","-5.0","","68","","23","","31","","32.2","","98.94","","","","","","Mainly Clear"
"1991-01-28 18:00","1991","01","28","18:00","-1.1","","-5.7","","71","","23","","24","","25.0","","99.04","","","","-7","","Mainly Clear"
"1991-01-28 19:00","1991","01","28","19:00","-1.5","","-6.4","","69","","23","","20","","25.0","","99.21","","","","-7","","Mostly Cloudy"
"1991-01-28 20:00","1991","01","28","20:00","-2.2","","-5.4","","79","","23","","24","","25.0","","99.27","","","","-9","","Cloudy"
"1991-01-28 21:00","1991","01","28","21:00","-2.2","","-6.0","","75","","23","","24","","25.0","","99.41","","","","-9","","Mostly Cloudy"
"1991-01-28 22:00","1991","01","28","22:00","-2.2","","-5.7","","77","","27","","15","","25.0","","99.54","","","","-7","","Mostly Cloudy"
"1991-01-28 23:00","1991","01","28","23:00","-2.1","","-5.1","","80","","32","","19","","25.0","","99.64","","","","-8","","Cloudy"
"1991-01-29 00:00","1991","01","29","00:00","-2.7","","-6.4","","76","","34","","19","","25.0","","99.71","","","","-8","","Cloudy"
"1991-01-29 01:00","1991","01","29","01:00","-4.1","","-8.0","","74","","35","","17","","25.0","","99.81","","","","-10","","Cloudy"
"1991-01-29 02:00","1991","01","29","02:00","-5.5","","-8.5","","79","","35","","15","","25.0","","99.87","","","","-11","","Mostly Cloudy"
"1991-01-29 03:00","1991","01","29","03:00","-5.5","","-9.2","","75","","35","","15","","25.0","","99.94","","","","-11","","Mostly Cloudy"
"1991-01-29 04:00","1991","01","29","04:00","-5.8","","-9.9","","73","","34","","15","","25.0","","99.97","","","","-12","","Mostly Cloudy"
"1991-01-29 05:00","1991","01","29","05:00","-5.9","","-9.9","","73","","35","","15","","25.0","","100.01","","","","-12","","Mostly Cloudy"
"1991-01-29 06:00","1991","01","29","06:00","-6.3","","-10.1","","74","","1","","13","","25.0","","100.11","","","","-12","","Mostly Cloudy"
"1991-01-29 07:00","1991","01","29","07:00","-7.5","","-11.0","","76","","3","","11","","25.0","","100.14","","","","-13","","Mostly Cloudy"
"1991-01-29 08:00","1991","01","29","08:00","-6.8","","-10.8","","73","","6","","13","","32.2","","100.27","","","","-12","","Cloudy"
"1991-01-29 09:00","1991","01","29","09:00","-6.4","","-11.3","","68","","7","","13","","32.2","","100.27","","","","-12","","Cloudy"
"1991-01-29 10:00","1991","01","29","10:00","-5.5","","-10.8","","66","","8","","9","","24.1","","100.27","","","","-10","","Cloudy"
"1991-01-29 11:00","1991","01","29","11:00","-4.5","","-8.3","","75","","10","","15","","16.1","","100.21","","","","-10","","Snow"
"1991-01-29 12:00","1991","01","29","12:00","-3.4","","-7.0","","76","","9","","19","","12.9","","100.07","","","","-9","","Snow Showers"
"1991-01-29 13:00","1991","01","29","13:00","-3.4","","-6.0","","82","","7","","11","","8.0","","100.01","","","","-8","","Snow Showers"
"1991-01-29 14:00","1991","01","29","14:00","-3.4","","-5.7","","84","","7","","17","","3.2","","99.87","","","","-9","","Snow Showers"
"1991-01-29 15:00","1991","01","29","15:00","-3.2","","-4.8","","89","","8","","13","","16.1","","99.81","","","","-8","","Snow Showers"
"1991-01-29 16:00","1991","01","29","16:00","-2.7","","-3.7","","93","","6","","15","","12.9","","99.67","","","","-8","","Cloudy"
"1991-01-29 17:00","1991","01","29","17:00","-3.0","","-4.5","","89","","5","","17","","12.9","","99.64","","","","-9","","Cloudy"
"1991-01-29 18:00","1991","01","29","18:00","-2.7","","-4.2","","89","","8","","17","","12.9","","99.61","","","","-8","","Snow Showers"
"1991-01-29 19:00","1991","01","29","19:00","-2.4","","-4.2","","87","","8","","22","","16.1","","99.54","","","","-9","","Snow Showers"
"1991-01-29 20:00","1991","01","29","20:00","-2.6","","-4.5","","87","","6","","17","","12.9","","99.47","","","","-8","","Cloudy"
"1991-01-29 21:00","1991","01","29","21:00","-3.9","","-6.6","","81","","5","","13","","16.1","","99.41","","","","-9","","Cloudy"
"1991-01-29 22:00","1991","01","29","22:00","-4.3","","-7.6","","77","","1","","11","","16.1","","99.41","","","","-9","","Cloudy"
"1991-01-29 23:00","1991","01","29","23:00","-5.0","","-8.9","","74","","36","","13","","16.1","","99.34","","","","-10","","Cloudy"
"1991-01-30 00:00","1991","01","30","00:00","-4.3","","-7.9","","76","","35","","15","","25.0","","99.31","","","","-10","","Cloudy"
"1991-01-30 01:00","1991","01","30","01:00","-5.0","","-8.9","","74","","35","","17","","4.8","","99.34","","","","-11","","Snow"
"1991-01-30 02:00","1991","01","30","02:00","-5.8","","-7.4","","88","","35","","13","","2.8","","99.31","","","","-11","","Snow"
"1991-01-30 03:00","1991","01","30","03:00","-5.8","","-7.7","","86","","34","","13","","9.7","","99.34","","","","-11","","Snow"
"1991-01-30 04:00","1991","01","30","04:00","-6.0","","-7.7","","88","","35","","9","","6.4","","99.41","","","","-10","","Snow"
"1991-01-30 05:00","1991","01","30","05:00","-6.4","","-8.3","","86","","34","","13","","9.7","","99.47","","","","-12","","Snow"
"1991-01-30 06:00","1991","01","30","06:00","-6.6","","-8.3","","88","","36","","19","","16.1","","99.47","","","","-13","","Snow"
"1991-01-30 07:00","1991","01","30","07:00","-7.0","","-8.9","","86","","35","","22","","19.3","","99.47","","","","-14","","Mostly Cloudy"
"1991-01-30 08:00","1991","01","30","08:00","-6.6","","-8.7","","85","","36","","20","","19.3","","99.51","","","","-14","","Mostly Cloudy"
"1991-01-30 09:00","1991","01","30","09:00","-7.2","","-10.0","","80","","35","","19","","19.3","","99.54","","","","-14","","Mainly Clear"
"1991-01-30 10:00","1991","01","30","10:00","-7.0","","-10.0","","79","","35","","17","","19.3","","99.51","","","","-13","","Mostly Cloudy"
"1991-01-30 11:00","1991","01","30","11:00","-6.4","","-10.1","","75","","36","","15","","19.3","","99.47","","","","-12","","Mostly Cloudy"
"1991-01-30 12:00","1991","01","30","12:00","-5.6","","-10.0","","71","","1","","17","","19.3","","99.37","","","","-12","","Mostly Cloudy"
"1991-01-30 13:00","1991","01","30","13:00","-5.0","","-10.1","","67","","36","","17","","24.1","","99.31","","","","-11","","Mostly Cloudy"
"1991-01-30 14:00","1991","01","30","14:00","-4.6","","-8.7","","73","","1","","11","","24.1","","99.24","","","","-9","","Mostly Cloudy"
"1991-01-30 15:00","1991","01","30","15:00","-4.3","","-9.0","","69","","36","","13","","24.1","","99.11","","","","-9","","Mostly Cloudy"
"1991-01-30 16:00","1991","01","30","16:00","-4.5","","-9.8","","66","","33","","13","","32.2","","99.11","","","","-10","","Cloudy"
"1991-01-30 17:00","1991","01","30","17:00","-5.0","","-10.5","","65","","33","","19","","32.2","","99.07","","","","-11","","Cloudy"
"1991-01-30 18:00","1991","01","30","18:00","-5.6","","-10.0","","71","","33","","15","","25.0","","99.01","","","","-11","","Cloudy"
"1991-01-30 19:00","1991","01","30","19:00","-5.7","","-9.6","","74","","32","","11","","25.0","","99.01","","","","-10","","Cloudy"
"1991-01-30 20:00","1991","01","30","20:00","-6.2","","-9.9","","75","","32","","13","","25.0","","98.94","","","","-12","","Mostly Cloudy"
"1991-01-30 21:00","1991","01","30","21:00","-6.0","","-10.3","","72","","32","","9","","25.0","","98.91","","","","-10","","Snow Showers"
"1991-01-30 22:00","1991","01","30","22:00","-5.6","","-9.6","","73","","30","","9","","11.3","","98.91","","","","-10","","Snow"
"1991-01-30 23:00","1991","01","30","23:00","-5.8","","-9.1","","77","","26","","9","","25.0","","98.87","","","","-10","","Cloudy"
"1991-01-31 00:00","1991","01","31","00:00","-5.8","","-9.5","","75","","25","","11","","25.0","","98.84","","","","-11","","Cloudy"
"1991-01-31 01:00","1991","01","31","01:00","-6.0","","-9.1","","79","","24","","19","","25.0","","98.81","","","","-13","","Mostly Cloudy"
"1991-01-31 02:00","1991","01","31","02:00","-6.2","","-9.1","","80","","25","","19","","25.0","","98.84","","","","-13","","Mostly Cloudy"
"1991-01-31 03:00","1991","01","31","03:00","-7.7","","-11.0","","77","","26","","19","","25.0","","98.84","","","","-15","","Mostly Cloudy"
"1991-01-31 04:00","1991","01","31","04:00","-7.7","","-11.8","","73","","25","","19","","25.0","","98.84","","","","-15","","Mostly Cloudy"
"1991-01-31 05:00","1991","01","31","05:00","-7.8","","-11.2","","76","","25","","15","","16.1","","98.84","","","","-14","","Snow"
"1991-01-31 06:00","1991","01","31","06:00","-8.6","","-10.7","","85","","24","","11","","16.1","","98.84","","","","-14","","Snow"
"1991-01-31 07:00","1991","01","31","07:00","-7.8","","-10.8","","79","","24","","11","","12.9","","98.87","","","","-13","","Snow"
"1991-01-31 08:00","1991","01","31","08:00","-7.5","","-11.0","","76","","26","","24","","16.1","","98.94","","","","-15","","Snow Showers"
"1991-01-31 09:00","1991","01","31","09:00","-7.5","","-12.3","","68","","26","","30","","12.9","","99.11","","","","-16","","Snow Showers"
"1991-01-31 10:00","1991","01","31","10:00","-8.4","","-11.9","","76","","26","","33","","9.7","","99.24","","","","-18","","Snow Showers"
"1991-01-31 11:00","1991","01","31","11:00","-8.0","","-12.5","","70","","26","","37","","24.1","","99.44","","","","-18","","Mainly Clear"
"1991-01-31 12:00","1991","01","31","12:00","-7.3","","-13.6","","60","","27","","37","","32.2","","99.54","","","","-17","","Mainly Clear"
"1991-01-31 13:00","1991","01","31","13:00","-6.0","","-12.3","","61","","27","","33","","32.2","","99.57","","","","-15","","Mainly Clear"
"1991-01-31 14:00","1991","01","31","14:00","-5.7","","-10.8","","67","","27","","37","","16.1","","99.67","","","","-15","","Snow Showers"
"1991-01-31 15:00","1991","01","31","15:00","-6.4","","-9.4","","79","","30","","39","","8.0","","99.84","","","","-16","","Snow Showers"
"1991-01-31 16:00","1991","01","31","16:00","-6.5","","-12.2","","64","","30","","33","","19.3","","100.04","","","","-15","","Mainly Clear"
"1991-01-31 17:00","1991","01","31","17:00","-6.2","","-12.3","","62","","28","","35","","24.1","","100.14","","","","-15","","Mainly Clear"
"1991-01-31 18:00","1991","01","31","18:00","-7.3","","-13.1","","63","","26","","22","","25.0","","100.27","","","","-15","","Mainly Clear"
"1991-01-31 19:00","1991","01","31","19:00","-7.5","","-11.4","","74","","25","","22","","25.0","","100.37","","","","-15","","Clear"
"1991-01-31 20:00","1991","01","31","20:00","-7.3","","-13.1","","63","","25","","26","","25.0","","100.41","","","","-15","","Mainly Clear"
"1991-01-31 21:00","1991","01","31","21:00","-7.5","","-12.3","","68","","24","","22","","25.0","","100.47","","","","-15","","Mainly Clear"
"1991-01-31 22:00","1991","01","31","22:00","-7.8","","-12.9","","67","","23","","22","","25.0","","100.47","","","","-15","","Clear"
"1991-01-31 23:00","1991","01","31","23:00","-8.0","","-12.5","","70","","24","","24","","25.0","","100.47","","","","-16","","Mainly Clear"
