"Station Name","TORONTO LESTER B. PEARSON INT'L A"
"Province","ONTARIO"
"Latitude","43.68"
"Longitude","-79.63"
"Elevation","173.40"
"Climate Identifier","6158733"
"WMO Identifier","71624"
"TC Identifier","YYZ"
"All times are specified in Local Standard Time (LST). Add 1 hour to adjust for Daylight Saving Time where and when it is observed."

"Legend"
"E","Estimated"
"M","Missing"
"NA","Not Available"

"Date/Time","Year","Month","Day","Time","Temp (°C)","Temp Flag","Dew Point Temp (°C)","Dew Point Temp Flag","Rel Hum (%)","Rel Hum Flag","Wind Dir (10s deg)","Wind Dir Flag","Wind Spd (km/h)","Wind Spd Flag","Visibility (km)","Visibility Flag","Stn Press (kPa)","Stn Press Flag","Hmdx","Hmdx Flag","Wind Chill","Wind Chill Flag","Weather"
"2009-07-01 00:00","2009","07","01","00:00","16.0","","15.3","","96","","31","","11","","24.1","","98.11","","","","","","Mostly Cloudy"
"2009-07-01 01:00","2009","07","01","01:00","16.3","","15.2","","93","","33","","11","","24.1","","98.14","","","","","","Mostly Cloudy"
"2009-07-01 02:00","2009","07","01","02:00","15.7","","15.3","","97","","","","0","","24.1","","98.15","","","","","","Mostly Cloudy"
"2009-07-01 03:00","2009","07","01","03:00","15.5","","15.0","","97","","27","","9","","24.1","","98.17","","","","","","Mostly Cloudy"
"2009-07-01 04:00","2009","07","01","04:00","15.3","","14.7","","96","","27","","7","","24.1","","98.21","","","","","","Mostly Cloudy"
"2009-07-01 05:00","2009","07","01","05:00","14.5","","13.9","","96","","28","","9","","24.1","","98.24","","","","","","Mostly Cloudy"
"2009-07-01 06:00","2009","07","01","06:00","15.8","","14.5","","92","","31","","13","","24.1","","98.29","","","","","","Mostly Cloudy"
"2009-07-01 07:00","2009","07","01","07:00","16.2","","14.4","","89","","30","","9","","24.1","","98.37","","","","","","Mostly Cloudy"
"2009-07-01 08:00","2009","07","01","08:00","17.1","","14.9","","87","","29","","4","","24.1","","98.39","","","","","","Mostly Cloudy"
"2009-07-01 09:00","2009","07","01","09:00","19.3","","15.9","","81","","19","","7","","24.1","","98.43","","","","","","Mostly Cloudy"
"2009-07-01 10:00","2009","07","01","10:00","18.8","","15.0","","79","","21","","15","","24.1","","98.46","","","","","","Mostly Cloudy"
"2009-07-01 11:00","2009","07","01","11:00","20.5","","15.8","","74","","22","","9","","24.1","","98.47","","25","","","","Mostly Cloudy"
"2009-07-01 12:00","2009","07","01","12:00","21.1","","15.4","","70","","23","","9","","24.1","","98.46","","25","","","","Mostly Cloudy"
"2009-07-01 13:00","2009","07","01","13:00","21.2","","14.0","","63","","26","","6","","24.1","","98.44","","25","","","","Mostly Cloudy"
"2009-07-01 14:00","2009","07","01","14:00","22.7","","15.8","","65","","27","","4","","24.1","","98.44","","27","","","","Mostly Cloudy"
"2009-07-01 15:00","2009","07","01","15:00","22.4","","16.2","","68","","14","","7","","24.1","","98.44","","27","","","","Mostly Cloudy"
"2009-07-01 16:00","2009","07","01","16:00","21.2","","15.0","","68","","17","","19","","24.1","","98.44","","25","","","","Mostly Cloudy"
"2009-07-01 17:00","2009","07","01","17:00","21.6","","15.4","","68","","19","","13","","24.1","","98.47","","26","","","","Mostly Cloudy"
"2009-07-01 18:00","2009","07","01","18:00","21.3","","14.6","","66","","18","","7","","24.1","","98.51","","25","","","","Mostly Cloudy"
"2009-07-01 19:00","2009","07","01","19:00","20.7","","14.9","","69","","23","","9","","24.1","","98.54","","25","","","","Mostly Cloudy"
"2009-07-01 20:00","2009","07","01","20:00","19.4","","16.7","","84","","27","","4","","24.1","","98.59","","","","","","Mostly Cloudy"
"2009-07-01 21:00","2009","07","01","21:00","18.8","","15.8","","83","","17","","11","","24.1","","98.65","","","","","","Mostly Cloudy"
"2009-07-01 22:00","2009","07","01","22:00","18.8","","16.5","","86","","19","","4","","24.1","","98.66","","","","","","Mostly Cloudy"
"2009-07-01 23:00","2009","07","01","23:00","17.8","","16.5","","92","","28","","7","","24.1","","98.64","","","","","","Mostly Cloudy"
"2009-07-02 00:00","2009","07","02","00:00","18.2","","16.4","","89","","9","","6","","24.1","","98.64","","","","","","Mostly Cloudy"
"2009-07-02 01:00","2009","07","02","01:00","17.6","","16.3","","92","","4","","4","","19.3","","98.63","","","","","","Mostly Cloudy"
"2009-07-02 02:00","2009","07","02","02:00","17.6","","16.5","","93","","1","","7","","19.3","","98.62","","","","","","Cloudy"
"2009-07-02 03:00","2009","07","02","03:00","17.0","","16.2","","95","","35","","7","","16.1","","98.63","","","","","","Cloudy"
"2009-07-02 04:00","2009","07","02","04:00","16.7","","15.8","","94","","31","","11","","16.1","","98.64","","","","","","Cloudy"
"2009-07-02 05:00","2009","07","02","05:00","16.3","","15.4","","94","","32","","17","","19.3","","98.68","","","","","","Rain Showers"
"2009-07-02 06:00","2009","07","02","06:00","15.8","","14.8","","94","","35","","19","","19.3","","98.74","","","","","","Rain Showers"
"2009-07-02 07:00","2009","07","02","07:00","15.8","","14.4","","91","","35","","24","","24.1","","98.77","","","","","","Cloudy"
"2009-07-02 08:00","2009","07","02","08:00","16.6","","14.2","","86","","35","","26","","24.1","","98.79","","","","","","Mostly Cloudy"
"2009-07-02 09:00","2009","07","02","09:00","17.0","","14.5","","85","","35","","20","","24.1","","98.81","","","","","","Mostly Cloudy"
"2009-07-02 10:00","2009","07","02","10:00","18.1","","14.8","","81","","35","","19","","24.1","","98.80","","","","","","Mostly Cloudy"
"2009-07-02 11:00","2009","07","02","11:00","19.2","","15.5","","79","","35","","19","","24.1","","98.82","","","","","","Mostly Cloudy"
"2009-07-02 12:00","2009","07","02","12:00","19.4","","16.3","","82","","35","","13","","24.1","","98.82","","","","","","Rain Showers"
"2009-07-02 13:00","2009","07","02","13:00","19.4","","15.5","","78","","36","","11","","24.1","","98.82","","","","","","Mostly Cloudy"
"2009-07-02 14:00","2009","07","02","14:00","20.6","","15.4","","72","","35","","19","","24.1","","98.83","","25","","","","Mostly Cloudy"
"2009-07-02 15:00","2009","07","02","15:00","20.8","","17.6","","82","","32","","11","","24.1","","98.81","","27","","","","Mostly Cloudy"
"2009-07-02 16:00","2009","07","02","16:00","20.9","","15.6","","72","","2","","17","","24.1","","98.79","","25","","","","Mostly Cloudy"
"2009-07-02 17:00","2009","07","02","17:00","21.3","","15.1","","68","","36","","13","","24.1","","98.78","","25","","","","Mostly Cloudy"
"2009-07-02 18:00","2009","07","02","18:00","19.8","","14.7","","72","","32","","19","","19.3","","98.86","","","","","","Rain Showers"
"2009-07-02 19:00","2009","07","02","19:00","19.7","","14.8","","73","","35","","13","","24.1","","98.89","","","","","","Mostly Cloudy"
"2009-07-02 20:00","2009","07","02","20:00","18.6","","15.4","","82","","29","","13","","19.3","","98.94","","","","","","Rain Showers"
"2009-07-02 21:00","2009","07","02","21:00","18.0","","16.3","","90","","28","","15","","24.1","","98.98","","","","","","Mostly Cloudy"
"2009-07-02 22:00","2009","07","02","22:00","18.0","","14.6","","81","","34","","17","","24.1","","99.00","","","","","","Mostly Cloudy"
"2009-07-02 23:00","2009","07","02","23:00","16.7","","13.1","","79","","29","","13","","24.1","","99.02","","","","","","Mostly Cloudy"
"2009-07-03 00:00","2009","07","03","00:00","15.9","","13.5","","86","","31","","15","","24.1","","99.01","","","","","","Mostly Cloudy"
"2009-07-03 01:00","2009","07","03","01:00","15.4","","13.5","","88","","31","","11","","24.1","","99.00","","","","","","Mostly Cloudy"
"2009-07-03 02:00","2009","07","03","02:00","16.0","","13.6","","86","","31","","15","","24.1","","99.02","","","","","","Mostly Cloudy"
"2009-07-03 03:00","2009","07","03","03:00","16.1","","13.5","","85","","29","","20","","24.1","","99.03","","","","","","Mostly Cloudy"
"2009-07-03 04:00","2009","07","03","04:00","16.0","","13.3","","84","","34","","11","","24.1","","99.04","","","","","","Mostly Cloudy"
"2009-07-03 05:00","2009","07","03","05:00","16.0","","13.5","","85","","31","","7","","24.1","","99.10","","","","","","Cloudy"
"2009-07-03 06:00","2009","07","03","06:00","16.5","","13.8","","84","","31","","13","","24.1","","99.12","","","","","","Cloudy"
"2009-07-03 07:00","2009","07","03","07:00","16.7","","13.9","","84","","32","","11","","24.1","","99.14","","","","","","Mostly Cloudy"
"2009-07-03 08:00","2009","07","03","08:00","17.7","","14.4","","81","","31","","24","","24.1","","99.14","","","","","","Cloudy"
"2009-07-03 09:00","2009","07","03","09:00","19.1","","14.6","","75","","31","","11","","24.1","","99.10","","","","","","Mainly Clear"
"2009-07-03 10:00","2009","07","03","10:00","20.6","","15.0","","70","","31","","7","","24.1","","99.12","","25","","","","Mostly Cloudy"
"2009-07-03 11:00","2009","07","03","11:00","21.8","","15.3","","67","","27","","11","","24.1","","99.14","","26","","","","Mostly Cloudy"
"2009-07-03 12:00","2009","07","03","12:00","21.7","","15.1","","66","","29","","26","","24.1","","99.15","","26","","","","Mostly Cloudy"
"2009-07-03 13:00","2009","07","03","13:00","22.1","","15.2","","65","","30","","30","","24.1","","99.15","","26","","","","Mostly Cloudy"
"2009-07-03 14:00","2009","07","03","14:00","21.6","","15.5","","68","","31","","37","","24.1","","99.14","","26","","","","Mostly Cloudy"
"2009-07-03 15:00","2009","07","03","15:00","22.0","","15.3","","66","","30","","28","","24.1","","99.15","","26","","","","Mostly Cloudy"
"2009-07-03 16:00","2009","07","03","16:00","20.9","","14.4","","66","","30","","37","","24.1","","99.17","","25","","","","Mostly Cloudy"
"2009-07-03 17:00","2009","07","03","17:00","20.5","","13.9","","66","","30","","39","","24.1","","99.17","","","","","","Mostly Cloudy"
"2009-07-03 18:00","2009","07","03","18:00","18.8","","13.9","","73","","31","","37","","24.1","","99.25","","","","","","Mostly Cloudy"
"2009-07-03 19:00","2009","07","03","19:00","18.0","","13.3","","74","","31","","33","","24.1","","99.31","","","","","","Mostly Cloudy"
"2009-07-03 20:00","2009","07","03","20:00","17.2","","13.1","","77","","31","","24","","24.1","","99.33","","","","","","Mostly Cloudy"
"2009-07-03 21:00","2009","07","03","21:00","17.0","","12.3","","74","","30","","26","","24.1","","99.35","","","","","","Mostly Cloudy"
"2009-07-03 22:00","2009","07","03","22:00","16.6","","12.4","","76","","30","","17","","24.1","","99.34","","","","","","Mostly Cloudy"
"2009-07-03 23:00","2009","07","03","23:00","15.8","","11.8","","77","","31","","37","","24.1","","99.34","","","","","","Mostly Cloudy"
"2009-07-04 00:00","2009","07","04","00:00","14.9","","11.2","","79","","30","","28","","24.1","","99.32","","","","","","Clear"
"2009-07-04 01:00","2009","07","04","01:00","14.0","","10.2","","78","","30","","24","","24.1","","99.30","","","","","","Clear"
"2009-07-04 02:00","2009","07","04","02:00","13.6","","10.4","","81","","31","","26","","24.1","","99.29","","","","","","Mainly Clear"
"2009-07-04 03:00","2009","07","04","03:00","13.7","","10.7","","82","","29","","15","","24.1","","99.30","","","","","","Mostly Cloudy"
"2009-07-04 04:00","2009","07","04","04:00","13.1","","11.1","","88","","31","","17","","24.1","","99.29","","","","","","Mainly Clear"
"2009-07-04 05:00","2009","07","04","05:00","13.1","","11.4","","89","","31","","22","","24.1","","99.29","","","","","","Mainly Clear"
"2009-07-04 06:00","2009","07","04","06:00","14.0","","11.5","","85","","30","","20","","24.1","","99.35","","","","","","Mainly Clear"
"2009-07-04 07:00","2009","07","04","07:00","15.6","","11.3","","76","","30","","30","","24.1","","99.36","","","","","","Mainly Clear"
"2009-07-04 08:00","2009","07","04","08:00","16.4","","10.0","","66","","31","","35","","24.1","","99.40","","","","","","Mainly Clear"
"2009-07-04 09:00","2009","07","04","09:00","18.2","","10.1","","59","","31","","28","","24.1","","99.39","","","","","","Mainly Clear"
"2009-07-04 10:00","2009","07","04","10:00","19.2","","9.6","","54","","31","","28","","24.1","","99.40","","","","","","Mainly Clear"
"2009-07-04 11:00","2009","07","04","11:00","19.9","","9.7","","52","","32","","28","","24.1","","99.42","","","","","","Mainly Clear"
"2009-07-04 12:00","2009","07","04","12:00","20.4","","10.0","","51","","29","","28","","24.1","","99.41","","","","","","Mostly Cloudy"
"2009-07-04 13:00","2009","07","04","13:00","21.0","","10.4","","51","","31","","26","","24.1","","99.40","","","","","","Mostly Cloudy"
"2009-07-04 14:00","2009","07","04","14:00","20.5","","9.3","","49","","34","","26","","24.1","","99.38","","","","","","Mostly Cloudy"
"2009-07-04 15:00","2009","07","04","15:00","22.3","","10.1","","46","","30","","26","","24.1","","99.37","","","","","","Mainly Clear"
"2009-07-04 16:00","2009","07","04","16:00","21.6","","9.1","","45","","30","","17","","24.1","","99.32","","","","","","Mainly Clear"
"2009-07-04 17:00","2009","07","04","17:00","21.9","","8.1","","41","","30","","26","","24.1","","99.30","","","","","","Mainly Clear"
"2009-07-04 18:00","2009","07","04","18:00","21.3","","7.2","","40","","30","","22","","24.1","","99.30","","","","","","Clear"
"2009-07-04 19:00","2009","07","04","19:00","20.2","","6.4","","41","","31","","26","","24.1","","99.31","","","","","","Clear"
"2009-07-04 20:00","2009","07","04","20:00","18.9","","6.5","","44","","30","","24","","24.1","","99.32","","","","","","Clear"
"2009-07-04 21:00","2009","07","04","21:00","16.4","","6.5","","52","","29","","13","","24.1","","99.35","","","","","","Clear"
"2009-07-04 22:00","2009","07","04","22:00","15.6","","7.0","","57","","29","","9","","24.1","","99.35","","","","","","Clear"
"2009-07-04 23:00","2009","07","04","23:00","14.6","","7.2","","61","","29","","9","","24.1","","99.33","","","","","","Clear"
"2009-07-05 00:00","2009","07","05","00:00","13.2","","7.5","","68","","28","","9","","24.1","","99.32","","","","","","Clear"
"2009-07-05 01:00","2009","07","05","01:00","12.6","","7.5","","71","","28","","9","","24.1","","99.29","","","","","","Clear"
"2009-07-05 02:00","2009","07","05","02:00","12.6","","7.3","","70","","29","","9","","24.1","","99.28","","","","","","Clear"
"2009-07-05 03:00","2009","07","05","03:00","12.9","","7.2","","68","","27","","7","","24.1","","99.27","","","","","","Clear"
"2009-07-05 04:00","2009","07","05","04:00","11.9","","7.3","","73","","24","","7","","24.1","","99.26","","","","","","Clear"
"2009-07-05 05:00","2009","07","05","05:00","11.6","","7.2","","74","","30","","7","","24.1","","99.30","","","","","","Clear"
"2009-07-05 06:00","2009","07","05","06:00","14.2","","8.2","","67","","33","","9","","24.1","","99.30","","","","","","Mainly Clear"
"2009-07-05 07:00","2009","07","05","07:00","16.4","","8.3","","59","","32","","6","","24.1","","99.30","","","","","","Mainly Clear"
"2009-07-05 08:00","2009","07","05","08:00","19.2","","10.0","","55","","27","","11","","24.1","","99.32","","","","","","Mainly Clear"
"2009-07-05 09:00","2009","07","05","09:00","20.7","","9.4","","48","","32","","6","","24.1","","99.27","","","","","","Mostly Cloudy"
"2009-07-05 10:00","2009","07","05","10:00","21.6","","10.4","","49","","23","","7","","24.1","","99.24","","","","","","Mostly Cloudy"
"2009-07-05 11:00","2009","07","05","11:00","22.1","","12.1","","53","","16","","9","","24.1","","99.15","","","","","","Mostly Cloudy"
"2009-07-05 12:00","2009","07","05","12:00","21.6","","12.0","","54","","15","","19","","24.1","","99.10","","","","","","Mostly Cloudy"
"2009-07-05 13:00","2009","07","05","13:00","22.7","","13.1","","55","","17","","17","","24.1","","99.06","","26","","","","Mostly Cloudy"
"2009-07-05 14:00","2009","07","05","14:00","22.9","","12.0","","50","","15","","17","","24.1","","99.00","","25","","","","Mainly Clear"
"2009-07-05 15:00","2009","07","05","15:00","22.8","","12.8","","53","","16","","15","","24.1","","98.95","","25","","","","Mainly Clear"
"2009-07-05 16:00","2009","07","05","16:00","22.4","","14.7","","62","","16","","13","","24.1","","98.89","","26","","","","Mainly Clear"
"2009-07-05 17:00","2009","07","05","17:00","22.9","","15.5","","63","","16","","13","","24.1","","98.85","","27","","","","Mainly Clear"
"2009-07-05 18:00","2009","07","05","18:00","22.3","","15.8","","67","","14","","13","","24.1","","98.83","","27","","","","Mainly Clear"
"2009-07-05 19:00","2009","07","05","19:00","22.4","","15.3","","64","","11","","6","","24.1","","98.82","","27","","","","Mostly Cloudy"
"2009-07-05 20:00","2009","07","05","20:00","23.0","","10.5","","45","","32","","28","","24.1","","98.82","","25","","","","Mostly Cloudy"
"2009-07-05 21:00","2009","07","05","21:00","20.5","","11.3","","56","","36","","11","","24.1","","98.85","","","","","","Mostly Cloudy"
"2009-07-05 22:00","2009","07","05","22:00","20.2","","10.6","","54","","31","","9","","24.1","","98.86","","","","","","Mostly Cloudy"
"2009-07-05 23:00","2009","07","05","23:00","19.1","","11.7","","62","","27","","15","","24.1","","98.95","","","","","","Mostly Cloudy"
"2009-07-06 00:00","2009","07","06","00:00","17.6","","11.9","","69","","28","","7","","24.1","","98.90","","","","","","Mostly Cloudy"
"2009-07-06 01:00","2009","07","06","01:00","16.0","","11.5","","75","","24","","13","","24.1","","98.89","","","","","","Mostly Cloudy"
"2009-07-06 02:00","2009","07","06","02:00","15.4","","11.7","","79","","25","","9","","24.1","","98.84","","","","","","Mostly Cloudy"
"2009-07-06 03:00","2009","07","06","03:00","16.5","","11.5","","72","","30","","9","","24.1","","98.84","","","","","","Mainly Clear"
"2009-07-06 04:00","2009","07","06","04:00","14.6","","11.2","","80","","27","","7","","24.1","","98.80","","","","","","Mainly Clear"
"2009-07-06 05:00","2009","07","06","05:00","14.3","","11.5","","83","","26","","6","","24.1","","98.80","","","","","","Mainly Clear"
"2009-07-06 06:00","2009","07","06","06:00","15.4","","11.9","","80","","22","","6","","24.1","","98.83","","","","","","Mainly Clear"
"2009-07-06 07:00","2009","07","06","07:00","16.9","","12.2","","74","","20","","6","","24.1","","98.85","","","","","","Mainly Clear"
"2009-07-06 08:00","2009","07","06","08:00","19.2","","12.5","","65","","27","","7","","24.1","","98.86","","","","","","Mostly Cloudy"
"2009-07-06 09:00","2009","07","06","09:00","20.2","","11.1","","56","","28","","6","","24.1","","98.84","","","","","","Mostly Cloudy"
"2009-07-06 10:00","2009","07","06","10:00","20.8","","11.2","","54","","33","","7","","24.1","","98.82","","","","","","Mostly Cloudy"
"2009-07-06 11:00","2009","07","06","11:00","22.9","","11.4","","48","","28","","17","","24.1","","98.80","","25","","","","Mostly Cloudy"
"2009-07-06 12:00","2009","07","06","12:00","23.0","","10.5","","45","","28","","19","","24.1","","98.77","","25","","","","Mostly Cloudy"
"2009-07-06 13:00","2009","07","06","13:00","23.6","","10.2","","43","","27","","24","","24.1","","98.70","","25","","","","Mostly Cloudy"
"2009-07-06 14:00","2009","07","06","14:00","24.0","","9.1","","39","","28","","22","","24.1","","98.64","","25","","","","Mostly Cloudy"
"2009-07-06 15:00","2009","07","06","15:00","24.2","","9.3","","39","","28","","32","","24.1","","98.66","","25","","","","Mostly Cloudy"
"2009-07-06 16:00","2009","07","06","16:00","22.6","","8.7","","41","","28","","24","","24.1","","98.70","","","","","","Mostly Cloudy"
"2009-07-06 17:00","2009","07","06","17:00","22.4","","9.5","","44","","31","","19","","24.1","","98.70","","","","","","Mostly Cloudy"
"2009-07-06 18:00","2009","07","06","18:00","21.6","","8.7","","44","","29","","15","","24.1","","98.71","","","","","","Mostly Cloudy"
"2009-07-06 19:00","2009","07","06","19:00","20.2","","8.9","","48","","32","","13","","24.1","","98.71","","","","","","Mostly Cloudy"
"2009-07-06 20:00","2009","07","06","20:00","19.4","","9.3","","52","","26","","6","","24.1","","98.70","","","","","","Mostly Cloudy"
"2009-07-06 21:00","2009","07","06","21:00","18.3","","12.2","","68","","17","","4","","24.1","","98.75","","","","","","Mostly Cloudy"
"2009-07-06 22:00","2009","07","06","22:00","17.1","","10.9","","67","","36","","20","","24.1","","98.78","","","","","","Mostly Cloudy"
"2009-07-06 23:00","2009","07","06","23:00","16.0","","10.1","","68","","36","","13","","24.1","","98.79","","","","","","Mostly Cloudy"
"2009-07-07 00:00","2009","07","07","00:00","16.0","","10.7","","71","","4","","4","","24.1","","98.73","","","","","","Mostly Cloudy"
"2009-07-07 01:00","2009","07","07","01:00","15.6","","10.7","","73","","36","","7","","24.1","","98.66","","","","","","Rain Showers"
"2009-07-07 02:00","2009","07","07","02:00","15.6","","10.8","","73","","34","","7","","24.1","","98.65","","","","","","Mostly Cloudy"
"2009-07-07 03:00","2009","07","07","03:00","14.6","","12.1","","85","","1","","11","","24.1","","98.61","","","","","","Rain Showers"
"2009-07-07 04:00","2009","07","07","04:00","14.7","","11.7","","82","","32","","9","","24.1","","98.60","","","","","","Mostly Cloudy"
"2009-07-07 05:00","2009","07","07","05:00","14.0","","10.7","","80","","30","","19","","24.1","","98.67","","","","","","Mostly Cloudy"
"2009-07-07 06:00","2009","07","07","06:00","13.9","","10.6","","80","","30","","15","","24.1","","98.70","","","","","","Mostly Cloudy"
"2009-07-07 07:00","2009","07","07","07:00","14.3","","10.6","","78","","28","","19","","24.1","","98.70","","","","","","Mostly Cloudy"
"2009-07-07 08:00","2009","07","07","08:00","14.5","","10.1","","75","","31","","15","","24.1","","98.72","","","","","","Mostly Cloudy"
"2009-07-07 09:00","2009","07","07","09:00","15.7","","10.3","","70","","27","","24","","24.1","","98.69","","","","","","Rain Showers"
"2009-07-07 10:00","2009","07","07","10:00","15.8","","10.2","","69","","29","","24","","24.1","","98.72","","","","","","Mostly Cloudy"
"2009-07-07 11:00","2009","07","07","11:00","16.3","","10.4","","68","","27","","19","","24.1","","98.72","","","","","","Mostly Cloudy"
"2009-07-07 12:00","2009","07","07","12:00","16.8","","10.8","","68","","27","","26","","24.1","","98.73","","","","","","Mostly Cloudy"
"2009-07-07 13:00","2009","07","07","13:00","18.6","","11.0","","61","","32","","26","","24.1","","98.72","","","","","","Mostly Cloudy"
"2009-07-07 14:00","2009","07","07","14:00","19.1","","10.6","","58","","30","","24","","24.1","","98.72","","","","","","Mostly Cloudy"
"2009-07-07 15:00","2009","07","07","15:00","19.8","","10.7","","56","","31","","30","","24.1","","98.75","","","","","","Mostly Cloudy"
"2009-07-07 16:00","2009","07","07","16:00","18.4","","10.7","","61","","30","","32","","24.1","","98.78","","","","","","Mostly Cloudy"
"2009-07-07 17:00","2009","07","07","17:00","17.8","","10.0","","60","","29","","32","","24.1","","98.82","","","","","","Mostly Cloudy"
"2009-07-07 18:00","2009","07","07","18:00","17.2","","10.1","","63","","29","","28","","24.1","","98.87","","","","","","Mostly Cloudy"
"2009-07-07 19:00","2009","07","07","19:00","16.6","","10.6","","68","","29","","32","","24.1","","98.90","","","","","","Mostly Cloudy"
"2009-07-07 20:00","2009","07","07","20:00","15.6","","11.1","","75","","29","","28","","24.1","","98.92","","","","","","Mostly Cloudy"
"2009-07-07 21:00","2009","07","07","21:00","15.3","","11.2","","77","","29","","22","","24.1","","98.96","","","","","","Mostly Cloudy"
"2009-07-07 22:00","2009","07","07","22:00","14.9","","11.3","","79","","30","","22","","24.1","","98.95","","","","","","Mainly Clear"
"2009-07-07 23:00","2009","07","07","23:00","15.2","","11.7","","80","","31","","19","","24.1","","99.00","","","","","","Mostly Cloudy"
"2009-07-08 00:00","2009","07","08","00:00","15.1","","11.7","","80","","31","","19","","24.1","","99.00","","","","","","Mostly Cloudy"
"2009-07-08 01:00","2009","07","08","01:00","14.5","","11.4","","82","","29","","15","","24.1","","98.99","","","","","","Mainly Clear"
"2009-07-08 02:00","2009","07","08","02:00","14.0","","11.4","","84","","28","","17","","24.1","","99.02","","","","","","Mainly Clear"
"2009-07-08 03:00","2009","07","08","03:00","13.9","","11.3","","84","","31","","19","","24.1","","99.03","","","","","","Mainly Clear"
"2009-07-08 04:00","2009","07","08","04:00","12.7","","11.0","","89","","28","","11","","24.1","","99.05","","","","","","Mainly Clear"
"2009-07-08 05:00","2009","07","08","05:00","13.4","","11.3","","87","","31","","19","","24.1","","99.09","","","","","","Mainly Clear"
"2009-07-08 06:00","2009","07","08","06:00","14.2","","11.6","","84","","28","","15","","24.1","","99.16","","","","","","Clear"
"2009-07-08 07:00","2009","07","08","07:00","15.3","","11.9","","80","","31","","17","","24.1","","99.20","","","","","","Clear"
"2009-07-08 08:00","2009","07","08","08:00","17.2","","12.4","","73","","31","","15","","24.1","","99.25","","","","","","Clear"
"2009-07-08 09:00","2009","07","08","09:00","18.4","","12.4","","68","","34","","17","","24.1","","99.29","","","","","","Mainly Clear"
"2009-07-08 10:00","2009","07","08","10:00","19.8","","12.5","","63","","30","","11","","24.1","","99.33","","","","","","Mainly Clear"
"2009-07-08 11:00","2009","07","08","11:00","19.3","","12.0","","63","","36","","15","","24.1","","99.37","","","","","","Mostly Cloudy"
"2009-07-08 12:00","2009","07","08","12:00","20.6","","12.6","","60","","2","","9","","24.1","","99.36","","","","","","Mostly Cloudy"
"2009-07-08 13:00","2009","07","08","13:00","20.5","","13.0","","62","","30","","7","","24.1","","99.38","","","","","","Mostly Cloudy"
"2009-07-08 14:00","2009","07","08","14:00","21.8","","11.7","","53","","26","","7","","24.1","","99.38","","","","","","Mostly Cloudy"
"2009-07-08 15:00","2009","07","08","15:00","21.6","","12.0","","54","","31","","13","","24.1","","99.38","","","","","","Mostly Cloudy"
"2009-07-08 16:00","2009","07","08","16:00","24.1","","13.0","","50","","34","","11","","24.1","","99.40","","27","","","","Mostly Cloudy"
"2009-07-08 17:00","2009","07","08","17:00","21.9","","12.6","","56","","35","","15","","24.1","","99.41","","","","","","Mostly Cloudy"
"2009-07-08 18:00","2009","07","08","18:00","20.5","","12.8","","61","","10","","20","","24.1","","99.49","","","","","","Mostly Cloudy"
"2009-07-08 19:00","2009","07","08","19:00","20.2","","12.5","","61","","13","","9","","24.1","","99.55","","","","","","Mainly Clear"
"2009-07-08 20:00","2009","07","08","20:00","19.5","","11.7","","61","","14","","6","","24.1","","99.61","","","","","","Mainly Clear"
"2009-07-08 21:00","2009","07","08","21:00","18.8","","11.8","","64","","","","0","","24.1","","99.69","","","","","","Mostly Cloudy"
"2009-07-08 22:00","2009","07","08","22:00","17.5","","11.8","","69","","2","","9","","24.1","","99.73","","","","","","Clear"
"2009-07-08 23:00","2009","07","08","23:00","17.5","","13.7","","78","","36","","15","","24.1","","99.77","","","","","","Clear"
"2009-07-09 00:00","2009","07","09","00:00","16.0","","12.8","","81","","35","","6","","24.1","","99.82","","","","","","Clear"
"2009-07-09 01:00","2009","07","09","01:00","15.4","","12.8","","84","","32","","11","","24.1","","99.85","","","","","","Clear"
"2009-07-09 02:00","2009","07","09","02:00","14.8","","12.8","","88","","32","","13","","24.1","","99.88","","","","","","Clear"
"2009-07-09 03:00","2009","07","09","03:00","14.3","","12.6","","90","","32","","9","","24.1","","99.92","","","","","","Clear"
"2009-07-09 04:00","2009","07","09","04:00","13.9","","12.5","","91","","35","","11","","24.1","","99.95","","","","","","Clear"
"2009-07-09 05:00","2009","07","09","05:00","13.7","","12.5","","92","","1","","9","","24.1","","99.99","","","","","","Clear"
"2009-07-09 06:00","2009","07","09","06:00","15.2","","13.5","","90","","3","","7","","24.1","","100.04","","","","","","Clear"
"2009-07-09 07:00","2009","07","09","07:00","16.9","","13.8","","82","","3","","4","","24.1","","100.08","","","","","","Clear"
"2009-07-09 08:00","2009","07","09","08:00","19.3","","15.0","","76","","10","","7","","24.1","","100.12","","","","","","Clear"
"2009-07-09 09:00","2009","07","09","09:00","20.7","","15.3","","71","","20","","7","","24.1","","100.15","","25","","","","Mainly Clear"
"2009-07-09 10:00","2009","07","09","10:00","22.0","","14.9","","64","","14","","11","","24.1","","100.16","","26","","","","Mainly Clear"
"2009-07-09 11:00","2009","07","09","11:00","21.6","","13.4","","60","","14","","13","","24.1","","100.20","","25","","","","Mainly Clear"
"2009-07-09 12:00","2009","07","09","12:00","23.0","","13.0","","53","","13","","19","","24.1","","100.21","","26","","","","Mainly Clear"
"2009-07-09 13:00","2009","07","09","13:00","22.4","","12.4","","53","","13","","17","","24.1","","100.20","","25","","","","Mainly Clear"
"2009-07-09 14:00","2009","07","09","14:00","23.0","","12.3","","51","","13","","17","","24.1","","100.24","","25","","","","Mainly Clear"
"2009-07-09 15:00","2009","07","09","15:00","23.3","","12.0","","49","","11","","15","","24.1","","100.23","","26","","","","Mainly Clear"
"2009-07-09 16:00","2009","07","09","16:00","23.4","","12.1","","49","","13","","15","","24.1","","100.18","","26","","","","Mainly Clear"
"2009-07-09 17:00","2009","07","09","17:00","22.6","","11.7","","50","","14","","17","","24.1","","100.18","","25","","","","Clear"
"2009-07-09 18:00","2009","07","09","18:00","21.9","","11.2","","51","","12","","19","","24.1","","100.16","","","","","","Clear"
"2009-07-09 19:00","2009","07","09","19:00","21.2","","10.5","","50","","13","","9","","24.1","","100.15","","","","","","Clear"
"2009-07-09 20:00","2009","07","09","20:00","20.0","","10.6","","55","","11","","9","","24.1","","100.15","","","","","","Clear"
"2009-07-09 21:00","2009","07","09","21:00","19.4","","11.0","","58","","9","","7","","24.1","","100.20","","","","","","Clear"
"2009-07-09 22:00","2009","07","09","22:00","17.6","","11.4","","67","","5","","4","","24.1","","100.23","","","","","","Clear"
"2009-07-09 23:00","2009","07","09","23:00","18.4","","10.5","","60","","7","","6","","24.1","","100.24","","","","","","Clear"
"2009-07-10 00:00","2009","07","10","00:00","17.1","","10.8","","66","","6","","6","","24.1","","100.22","","","","","","Mainly Clear"
"2009-07-10 01:00","2009","07","10","01:00","16.9","","11.1","","69","","5","","6","","24.1","","100.24","","","","","","Mainly Clear"
"2009-07-10 02:00","2009","07","10","02:00","17.1","","11.8","","71","","5","","7","","24.1","","100.24","","","","","","Clear"
"2009-07-10 03:00","2009","07","10","03:00","15.8","","11.7","","77","","4","","7","","24.1","","100.23","","","","","","Mainly Clear"
"2009-07-10 04:00","2009","07","10","04:00","15.0","","11.7","","81","","2","","6","","24.1","","100.24","","","","","","Mainly Clear"
"2009-07-10 05:00","2009","07","10","05:00","15.6","","12.5","","82","","2","","4","","24.1","","100.25","","","","","","Mostly Cloudy"
"2009-07-10 06:00","2009","07","10","06:00","16.5","","13.6","","83","","3","","7","","24.1","","100.25","","","","","","Mostly Cloudy"
"2009-07-10 07:00","2009","07","10","07:00","18.4","","14.6","","79","","9","","7","","24.1","","100.24","","","","","","Mostly Cloudy"
"2009-07-10 08:00","2009","07","10","08:00","19.9","","16.1","","79","","14","","6","","24.1","","100.24","","","","","","Mostly Cloudy"
"2009-07-10 09:00","2009","07","10","09:00","21.6","","16.3","","72","","16","","7","","24.1","","100.21","","26","","","","Mostly Cloudy"
"2009-07-10 10:00","2009","07","10","10:00","22.6","","15.9","","66","","12","","7","","24.1","","100.22","","27","","","","Mostly Cloudy"
"2009-07-10 11:00","2009","07","10","11:00","24.0","","16.3","","62","","14","","13","","24.1","","100.15","","29","","","","Mostly Cloudy"
"2009-07-10 12:00","2009","07","10","12:00","24.3","","16.2","","61","","14","","11","","24.1","","100.10","","29","","","","Mostly Cloudy"
"2009-07-10 13:00","2009","07","10","13:00","25.3","","17.5","","62","","16","","20","","24.1","","100.05","","31","","","","Cloudy"
"2009-07-10 14:00","2009","07","10","14:00","25.2","","17.8","","64","","18","","15","","24.1","","100.06","","31","","","","Mostly Cloudy"
"2009-07-10 15:00","2009","07","10","15:00","25.9","","17.6","","60","","16","","20","","24.1","","100.00","","32","","","","Mostly Cloudy"
"2009-07-10 16:00","2009","07","10","16:00","25.2","","17.5","","62","","15","","19","","24.1","","99.98","","31","","","","Mostly Cloudy"
"2009-07-10 17:00","2009","07","10","17:00","25.3","","16.9","","60","","16","","17","","24.1","","99.95","","31","","","","Mostly Cloudy"
"2009-07-10 18:00","2009","07","10","18:00","23.7","","16.7","","65","","16","","11","","19.3","","99.87","","29","","","","Mostly Cloudy"
"2009-07-10 19:00","2009","07","10","19:00","22.8","","16.8","","69","","15","","15","","19.3","","99.87","","28","","","","Mostly Cloudy"
"2009-07-10 20:00","2009","07","10","20:00","21.6","","16.5","","73","","14","","9","","19.3","","99.84","","27","","","","Mainly Clear"
"2009-07-10 21:00","2009","07","10","21:00","20.9","","16.6","","76","","14","","7","","19.3","","99.83","","26","","","","Mainly Clear"
"2009-07-10 22:00","2009","07","10","22:00","20.4","","16.6","","79","","16","","7","","24.1","","99.78","","25","","","","Mainly Clear"
"2009-07-10 23:00","2009","07","10","23:00","20.2","","16.9","","81","","16","","6","","24.1","","99.76","","25","","","","Mainly Clear"
"2009-07-11 00:00","2009","07","11","00:00","21.2","","17.1","","77","","18","","9","","24.1","","99.70","","27","","","","Mostly Cloudy"
"2009-07-11 01:00","2009","07","11","01:00","21.7","","16.1","","70","","18","","9","","24.1","","99.62","","26","","","","Mostly Cloudy"
"2009-07-11 02:00","2009","07","11","02:00","21.1","","16.3","","74","","17","","7","","24.1","","99.54","","26","","","","Mostly Cloudy"
"2009-07-11 03:00","2009","07","11","03:00","20.4","","16.9","","80","","16","","9","","24.1","","99.48","","26","","","","Cloudy"
"2009-07-11 04:00","2009","07","11","04:00","20.4","","17.2","","82","","16","","7","","24.1","","99.43","","26","","","","Mostly Cloudy"
"2009-07-11 05:00","2009","07","11","05:00","20.6","","17.7","","83","","14","","7","","16.1","","99.40","","26","","","","Mostly Cloudy"
"2009-07-11 06:00","2009","07","11","06:00","21.6","","18.6","","83","","20","","9","","19.3","","99.33","","28","","","","Mostly Cloudy"
"2009-07-11 07:00","2009","07","11","07:00","22.9","","19.1","","79","","22","","13","","16.1","","99.28","","30","","","","Mostly Cloudy"
"2009-07-11 08:00","2009","07","11","08:00","22.3","","18.8","","81","","26","","15","","14.5","","99.31","","29","","","","Cloudy"
"2009-07-11 09:00","2009","07","11","09:00","19.8","","18.0","","89","","32","","22","","12.9","","99.33","","","","","","Thunderstorms,Rain Showers"
"2009-07-11 10:00","2009","07","11","10:00","19.5","","18.2","","92","","19","","9","","24.1","","99.21","","","","","","Mostly Cloudy"
"2009-07-11 11:00","2009","07","11","11:00","22.3","","19.5","","84","","22","","17","","24.1","","99.16","","29","","","","Mostly Cloudy"
"2009-07-11 12:00","2009","07","11","12:00","23.2","","18.8","","76","","24","","24","","24.1","","99.18","","30","","","","Mostly Cloudy"
"2009-07-11 13:00","2009","07","11","13:00","25.1","","19.0","","69","","24","","24","","24.1","","99.16","","32","","","","Mostly Cloudy"
"2009-07-11 14:00","2009","07","11","14:00","26.5","","18.4","","61","","23","","28","","24.1","","99.09","","33","","","","Mostly Cloudy"
"2009-07-11 15:00","2009","07","11","15:00","27.5","","17.9","","56","","27","","30","","24.1","","99.04","","33","","","","Mostly Cloudy"
"2009-07-11 16:00","2009","07","11","16:00","26.9","","16.6","","53","","27","","33","","24.1","","99.00","","32","","","","Mainly Clear"
"2009-07-11 17:00","2009","07","11","17:00","26.5","","14.8","","49","","29","","37","","24.1","","98.99","","30","","","","Mainly Clear"
"2009-07-11 18:00","2009","07","11","18:00","26.2","","14.4","","48","","30","","41","","24.1","","98.98","","30","","","","Mainly Clear"
"2009-07-11 19:00","2009","07","11","19:00","20.9","","15.0","","69","","34","","35","","24.1","","99.17","","25","","","","Mainly Clear"
"2009-07-11 20:00","2009","07","11","20:00","19.3","","12.9","","66","","34","","35","","24.1","","99.28","","","","","","Mainly Clear"
"2009-07-11 21:00","2009","07","11","21:00","18.6","","10.0","","57","","33","","30","","24.1","","99.33","","","","","","Clear"
"2009-07-11 22:00","2009","07","11","22:00","16.9","","7.2","","53","","32","","26","","24.1","","99.39","","","","","","Clear"
"2009-07-11 23:00","2009","07","11","23:00","16.5","","5.5","","48","","33","","28","","24.1","","99.43","","","","","","Clear"
"2009-07-12 00:00","2009","07","12","00:00","15.7","","5.1","","49","","34","","24","","24.1","","99.46","","","","","","Clear"
"2009-07-12 01:00","2009","07","12","01:00","14.6","","4.2","","50","","33","","19","","24.1","","99.49","","","","","","Clear"
"2009-07-12 02:00","2009","07","12","02:00","13.4","","3.1","","50","","34","","19","","24.1","","99.52","","","","","","Clear"
"2009-07-12 03:00","2009","07","12","03:00","12.6","","2.7","","51","","31","","20","","24.1","","99.53","","","","","","Clear"
"2009-07-12 04:00","2009","07","12","04:00","12.2","","4.1","","58","","31","","17","","24.1","","99.49","","","","","","Clear"
"2009-07-12 05:00","2009","07","12","05:00","9.8","","4.6","","70","","27","","11","","24.1","","99.53","","","","","","Clear"
"2009-07-12 06:00","2009","07","12","06:00","12.4","","6.1","","65","","25","","9","","24.1","","99.59","","","","","","Mainly Clear"
"2009-07-12 07:00","2009","07","12","07:00","14.2","","6.3","","59","","26","","13","","24.1","","99.61","","","","","","Clear"
"2009-07-12 08:00","2009","07","12","08:00","16.2","","6.6","","53","","24","","9","","24.1","","99.61","","","","","","Clear"
"2009-07-12 09:00","2009","07","12","09:00","19.0","","6.0","","43","","28","","15","","24.1","","99.58","","","","","","Clear"
"2009-07-12 10:00","2009","07","12","10:00","20.6","","6.9","","41","","31","","20","","24.1","","99.55","","","","","","Mainly Clear"
"2009-07-12 11:00","2009","07","12","11:00","20.1","","6.9","","42","","28","","19","","24.1","","99.51","","","","","","Mostly Cloudy"
"2009-07-12 12:00","2009","07","12","12:00","20.6","","5.9","","38","","31","","15","","24.1","","99.46","","","","","","Mostly Cloudy"
"2009-07-12 13:00","2009","07","12","13:00","21.8","","7.3","","39","","28","","20","","24.1","","99.44","","","","","","Mostly Cloudy"
"2009-07-12 14:00","2009","07","12","14:00","23.4","","9.4","","41","","27","","24","","24.1","","99.42","","","","","","Mostly Cloudy"
"2009-07-12 15:00","2009","07","12","15:00","22.0","","6.9","","38","","28","","24","","24.1","","99.41","","","","","","Mostly Cloudy"
"2009-07-12 16:00","2009","07","12","16:00","22.5","","7.6","","38","","29","","30","","24.1","","99.40","","","","","","Mostly Cloudy"
"2009-07-12 17:00","2009","07","12","17:00","23.0","","8.0","","38","","28","","20","","24.1","","99.36","","","","","","Mostly Cloudy"
"2009-07-12 18:00","2009","07","12","18:00","22.3","","6.2","","35","","31","","19","","24.1","","99.33","","","","","","Mostly Cloudy"
"2009-07-12 19:00","2009","07","12","19:00","21.2","","5.8","","37","","30","","17","","24.1","","99.33","","","","","","Mostly Cloudy"
"2009-07-12 20:00","2009","07","12","20:00","19.6","","7.0","","44","","28","","13","","24.1","","99.30","","","","","","Mainly Clear"
"2009-07-12 21:00","2009","07","12","21:00","18.4","","7.6","","49","","29","","7","","24.1","","99.32","","","","","","Mainly Clear"
"2009-07-12 22:00","2009","07","12","22:00","17.9","","8.0","","52","","36","","17","","24.1","","99.34","","","","","","Mainly Clear"
"2009-07-12 23:00","2009","07","12","23:00","16.8","","8.5","","58","","32","","15","","24.1","","99.37","","","","","","Mainly Clear"
"2009-07-13 00:00","2009","07","13","00:00","15.7","","7.2","","57","","31","","17","","24.1","","99.38","","","","","","Mainly Clear"
"2009-07-13 01:00","2009","07","13","01:00","14.2","","6.5","","60","","31","","15","","24.1","","99.38","","","","","","Clear"
"2009-07-13 02:00","2009","07","13","02:00","13.0","","5.8","","62","","28","","15","","24.1","","99.38","","","","","","Clear"
"2009-07-13 03:00","2009","07","13","03:00","12.5","","5.4","","62","","29","","17","","24.1","","99.38","","","","","","Clear"
"2009-07-13 04:00","2009","07","13","04:00","11.6","","5.2","","65","","29","","9","","24.1","","99.38","","","","","","Mainly Clear"
"2009-07-13 05:00","2009","07","13","05:00","11.0","","5.4","","68","","28","","15","","24.1","","99.39","","","","","","Mainly Clear"
"2009-07-13 06:00","2009","07","13","06:00","12.8","","6.0","","63","","28","","13","","24.1","","99.39","","","","","","Clear"
"2009-07-13 07:00","2009","07","13","07:00","15.4","","6.3","","55","","28","","11","","24.1","","99.40","","","","","","Clear"
"2009-07-13 08:00","2009","07","13","08:00","18.8","","6.6","","45","","28","","17","","24.1","","99.37","","","","","","Clear"
"2009-07-13 09:00","2009","07","13","09:00","19.5","","5.8","","41","","30","","35","","24.1","","99.34","","","","","","Mainly Clear"
"2009-07-13 10:00","2009","07","13","10:00","21.3","","6.5","","38","","30","","39","","24.1","","99.31","","","","","","Mostly Cloudy"
"2009-07-13 11:00","2009","07","13","11:00","21.5","","5.3","","35","","30","","33","","24.1","","99.31","","","","","","Mainly Clear"
"2009-07-13 12:00","2009","07","13","12:00","21.6","","5.8","","36","","30","","37","","24.1","","99.27","","","","","","Mostly Cloudy"
"2009-07-13 13:00","2009","07","13","13:00","23.1","","7.2","","36","","31","","43","","24.1","","99.23","","","","","","Mostly Cloudy"
"2009-07-13 14:00","2009","07","13","14:00","21.2","","5.7","","36","","32","","43","","24.1","","99.25","","","","","","Mostly Cloudy"
"2009-07-13 15:00","2009","07","13","15:00","21.3","","4.7","","34","","31","","41","","24.1","","99.26","","","","","","Mostly Cloudy"
"2009-07-13 16:00","2009","07","13","16:00","21.8","","4.7","","33","","30","","44","","24.1","","99.27","","","","","","Mainly Clear"
"2009-07-13 17:00","2009","07","13","17:00","21.2","","3.6","","31","","33","","43","","24.1","","99.28","","","","","","Clear"
"2009-07-13 18:00","2009","07","13","18:00","21.1","","4.7","","34","","32","","37","","24.1","","99.27","","","","","","Clear"
"2009-07-13 19:00","2009","07","13","19:00","20.3","","4.9","","36","","30","","26","","24.1","","99.32","","","","","","Clear"
"2009-07-13 20:00","2009","07","13","20:00","18.8","","5.6","","42","","31","","19","","24.1","","99.39","","","","","","Clear"
"2009-07-13 21:00","2009","07","13","21:00","17.9","","5.7","","45","","29","","11","","24.1","","99.47","","","","","","Clear"
"2009-07-13 22:00","2009","07","13","22:00","16.0","","6.1","","52","","28","","11","","24.1","","99.50","","","","","","Clear"
"2009-07-13 23:00","2009","07","13","23:00","16.3","","5.9","","50","","29","","24","","24.1","","99.55","","","","","","Clear"
"2009-07-14 00:00","2009","07","14","00:00","15.3","","5.0","","50","","29","","15","","24.1","","99.56","","","","","","Mainly Clear"
"2009-07-14 01:00","2009","07","14","01:00","13.5","","4.7","","55","","28","","15","","24.1","","99.54","","","","","","Clear"
"2009-07-14 02:00","2009","07","14","02:00","13.6","","4.3","","53","","30","","20","","24.1","","99.53","","","","","","Clear"
"2009-07-14 03:00","2009","07","14","03:00","12.5","","4.7","","59","","32","","15","","24.1","","99.52","","","","","","Clear"
"2009-07-14 04:00","2009","07","14","04:00","12.4","","5.6","","63","","31","","17","","24.1","","99.57","","","","","","Clear"
"2009-07-14 05:00","2009","07","14","05:00","11.9","","6.5","","69","","31","","15","","24.1","","99.67","","","","","","Clear"
"2009-07-14 06:00","2009","07","14","06:00","13.5","","8.0","","69","","29","","13","","24.1","","99.75","","","","","","Clear"
"2009-07-14 07:00","2009","07","14","07:00","15.6","","8.7","","63","","32","","24","","24.1","","99.79","","","","","","Mainly Clear"
"2009-07-14 08:00","2009","07","14","08:00","17.4","","8.7","","57","","33","","28","","24.1","","99.85","","","","","","Mainly Clear"
"2009-07-14 09:00","2009","07","14","09:00","18.8","","8.9","","53","","35","","22","","24.1","","99.86","","","","","","Clear"
"2009-07-14 10:00","2009","07","14","10:00","20.0","","8.8","","48","","33","","17","","24.1","","99.89","","","","","","Clear"
"2009-07-14 11:00","2009","07","14","11:00","20.9","","8.0","","43","","34","","26","","24.1","","99.91","","","","","","Clear"
"2009-07-14 12:00","2009","07","14","12:00","22.6","","9.1","","42","","35","","20","","24.1","","99.90","","","","","","Clear"
"2009-07-14 13:00","2009","07","14","13:00","22.3","","9.0","","43","","36","","15","","24.1","","99.85","","","","","","Mainly Clear"
"2009-07-14 14:00","2009","07","14","14:00","23.6","","9.3","","40","","30","","17","","24.1","","99.81","","25","","","","Mainly Clear"
"2009-07-14 15:00","2009","07","14","15:00","24.8","","9.4","","38","","30","","22","","24.1","","99.82","","26","","","","Mostly Cloudy"
"2009-07-14 16:00","2009","07","14","16:00","24.0","","8.6","","37","","32","","28","","24.1","","99.81","","25","","","","Mostly Cloudy"
"2009-07-14 17:00","2009","07","14","17:00","24.3","","8.3","","36","","28","","22","","24.1","","99.81","","25","","","","Mainly Clear"
"2009-07-14 18:00","2009","07","14","18:00","24.1","","8.3","","36","","31","","22","","24.1","","99.81","","25","","","","Mainly Clear"
"2009-07-14 19:00","2009","07","14","19:00","23.0","","7.9","","38","","31","","22","","24.1","","99.86","","","","","","Mainly Clear"
"2009-07-14 20:00","2009","07","14","20:00","20.9","","7.8","","43","","31","","17","","24.1","","99.88","","","","","","Mainly Clear"
"2009-07-14 21:00","2009","07","14","21:00","19.8","","7.4","","45","","31","","15","","24.1","","99.91","","","","","","Mainly Clear"
"2009-07-14 22:00","2009","07","14","22:00","18.7","","7.8","","49","","29","","7","","24.1","","99.92","","","","","","Clear"
"2009-07-14 23:00","2009","07","14","23:00","17.0","","8.0","","55","","31","","9","","24.1","","99.93","","","","","","Mostly Cloudy"
"2009-07-15 00:00","2009","07","15","00:00","15.3","","8.2","","63","","","","0","","24.1","","99.93","","","","","","Mainly Clear"
"2009-07-15 01:00","2009","07","15","01:00","14.5","","8.5","","67","","25","","7","","24.1","","99.91","","","","","","Mainly Clear"
"2009-07-15 02:00","2009","07","15","02:00","13.9","","8.5","","70","","","","0","","24.1","","99.89","","","","","","Mainly Clear"
"2009-07-15 03:00","2009","07","15","03:00","14.1","","8.7","","70","","27","","7","","24.1","","99.91","","","","","","Clear"
"2009-07-15 04:00","2009","07","15","04:00","13.5","","8.3","","71","","36","","4","","24.1","","99.93","","","","","","Mainly Clear"
"2009-07-15 05:00","2009","07","15","05:00","11.9","","8.1","","78","","3","","7","","24.1","","99.91","","","","","","Mainly Clear"
"2009-07-15 06:00","2009","07","15","06:00","16.0","","11.1","","73","","","","0","","24.1","","99.90","","","","","","Mainly Clear"
"2009-07-15 07:00","2009","07","15","07:00","16.0","","10.2","","68","","","","0","","24.1","","99.92","","","","","","Mainly Clear"
"2009-07-15 08:00","2009","07","15","08:00","17.4","","10.7","","65","","16","","6","","24.1","","99.94","","","","","","Mostly Cloudy"
"2009-07-15 09:00","2009","07","15","09:00","20.1","","10.6","","54","","14","","9","","24.1","","99.80","","","","","","Mostly Cloudy"
"2009-07-15 10:00","2009","07","15","10:00","21.6","","12.5","","56","","20","","13","","24.1","","99.81","","","","","","Mostly Cloudy"
"2009-07-15 11:00","2009","07","15","11:00","22.3","","13.9","","59","","18","","17","","24.1","","99.73","","26","","","","Mostly Cloudy"
"2009-07-15 12:00","2009","07","15","12:00","23.1","","14.2","","57","","15","","20","","24.1","","99.67","","27","","","","Mostly Cloudy"
"2009-07-15 13:00","2009","07","15","13:00","22.4","","12.2","","52","","15","","13","","24.1","","99.62","","25","","","","Mostly Cloudy"
"2009-07-15 14:00","2009","07","15","14:00","22.7","","11.6","","49","","16","","17","","24.1","","99.47","","25","","","","Mostly Cloudy"
"2009-07-15 15:00","2009","07","15","15:00","23.0","","12.2","","51","","15","","13","","24.1","","99.43","","25","","","","Mostly Cloudy"
"2009-07-15 16:00","2009","07","15","16:00","21.0","","12.6","","59","","14","","15","","24.1","","99.34","","","","","","Mostly Cloudy"
"2009-07-15 17:00","2009","07","15","17:00","20.0","","13.3","","65","","13","","13","","24.1","","99.29","","","","","","Cloudy"
"2009-07-15 18:00","2009","07","15","18:00","19.9","","13.5","","67","","13","","13","","24.1","","99.24","","","","","","Mostly Cloudy"
"2009-07-15 19:00","2009","07","15","19:00","20.2","","13.3","","65","","11","","13","","24.1","","99.17","","","","","","Cloudy"
"2009-07-15 20:00","2009","07","15","20:00","19.6","","12.8","","65","","11","","9","","24.1","","99.11","","","","","","Cloudy"
"2009-07-15 21:00","2009","07","15","21:00","19.3","","14.1","","72","","11","","13","","24.1","","99.05","","","","","","Rain Showers"
"2009-07-15 22:00","2009","07","15","22:00","18.4","","15.2","","82","","12","","7","","24.1","","99.00","","","","","","Rain Showers"
"2009-07-15 23:00","2009","07","15","23:00","18.2","","15.4","","84","","11","","6","","24.1","","98.89","","","","","","Mostly Cloudy"
"2009-07-16 00:00","2009","07","16","00:00","18.3","","15.3","","83","","19","","6","","24.1","","98.82","","","","","","Mostly Cloudy"
"2009-07-16 01:00","2009","07","16","01:00","17.9","","15.5","","86","","","","0","","24.1","","98.78","","","","","","Mostly Cloudy"
"2009-07-16 02:00","2009","07","16","02:00","15.9","","14.6","","92","","35","","7","","24.1","","98.74","","","","","","Mainly Clear"
"2009-07-16 03:00","2009","07","16","03:00","16.5","","14.4","","87","","4","","4","","24.1","","98.67","","","","","","Clear"
"2009-07-16 04:00","2009","07","16","04:00","16.5","","14.4","","87","","13","","4","","24.1","","98.66","","","","","","Mainly Clear"
"2009-07-16 05:00","2009","07","16","05:00","16.9","","14.7","","87","","18","","4","","19.3","","98.72","","","","","","Mainly Clear"
"2009-07-16 06:00","2009","07","16","06:00","18.1","","16.0","","88","","23","","7","","19.3","","98.69","","","","","","Clear"
"2009-07-16 07:00","2009","07","16","07:00","20.3","","17.5","","84","","24","","11","","24.1","","98.72","","26","","","","Clear"
"2009-07-16 08:00","2009","07","16","08:00","22.4","","17.0","","72","","30","","24","","24.1","","98.74","","28","","","","Mainly Clear"
"2009-07-16 09:00","2009","07","16","09:00","23.6","","15.9","","62","","30","","22","","24.1","","98.75","","28","","","","Mainly Clear"
"2009-07-16 10:00","2009","07","16","10:00","24.8","","13.2","","48","","31","","22","","24.1","","98.78","","28","","","","Mainly Clear"
"2009-07-16 11:00","2009","07","16","11:00","24.8","","13.2","","48","","31","","9","","24.1","","98.78","","28","","","","Mainly Clear"
"2009-07-16 12:00","2009","07","16","12:00","27.0","","13.4","","43","","29","","19","","24.1","","98.77","","30","","","","Mostly Cloudy"
"2009-07-16 13:00","2009","07","16","13:00","26.6","","13.3","","44","","27","","22","","24.1","","98.78","","30","","","","Mostly Cloudy"
"2009-07-16 14:00","2009","07","16","14:00","26.8","","12.9","","42","","28","","28","","24.1","","98.78","","30","","","","Mostly Cloudy"
"2009-07-16 15:00","2009","07","16","15:00","25.7","","12.0","","42","","29","","30","","24.1","","98.77","","28","","","","Mostly Cloudy"
"2009-07-16 16:00","2009","07","16","16:00","26.8","","11.6","","39","","27","","28","","24.1","","98.79","","29","","","","Mostly Cloudy"
"2009-07-16 17:00","2009","07","16","17:00","26.6","","12.1","","41","","29","","26","","24.1","","98.72","","29","","","","Mostly Cloudy"
"2009-07-16 18:00","2009","07","16","18:00","26.4","","13.2","","44","","27","","20","","24.1","","98.70","","29","","","","Mostly Cloudy"
"2009-07-16 19:00","2009","07","16","19:00","25.0","","13.1","","48","","27","","26","","24.1","","98.70","","28","","","","Mostly Cloudy"
"2009-07-16 20:00","2009","07","16","20:00","24.0","","11.6","","46","","29","","15","","24.1","","98.68","","26","","","","Mostly Cloudy"
"2009-07-16 21:00","2009","07","16","21:00","22.4","","11.6","","50","","29","","9","","24.1","","98.70","","","","","","Mostly Cloudy"
"2009-07-16 22:00","2009","07","16","22:00","21.3","","11.7","","54","","31","","17","","24.1","","98.70","","","","","","Mainly Clear"
"2009-07-16 23:00","2009","07","16","23:00","19.8","","11.9","","60","","28","","11","","24.1","","98.72","","","","","","Mainly Clear"
"2009-07-17 00:00","2009","07","17","00:00","17.6","","11.9","","69","","27","","13","","24.1","","98.74","","","","","","Mainly Clear"
"2009-07-17 01:00","2009","07","17","01:00","17.7","","12.2","","70","","27","","17","","24.1","","98.76","","","","","","Mainly Clear"
"2009-07-17 02:00","2009","07","17","02:00","17.0","","11.8","","71","","29","","13","","24.1","","98.76","","","","","","Mostly Cloudy"
"2009-07-17 03:00","2009","07","17","03:00","15.6","","11.6","","77","","28","","9","","24.1","","98.70","","","","","","Mainly Clear"
"2009-07-17 04:00","2009","07","17","04:00","15.2","","12.1","","82","","27","","6","","24.1","","98.71","","","","","","Mainly Clear"
"2009-07-17 05:00","2009","07","17","05:00","15.9","","12.5","","80","","26","","4","","24.1","","98.77","","","","","","Mostly Cloudy"
"2009-07-17 06:00","2009","07","17","06:00","16.1","","13.0","","82","","24","","7","","24.1","","98.79","","","","","","Mainly Clear"
"2009-07-17 07:00","2009","07","17","07:00","18.4","","13.1","","71","","26","","9","","24.1","","98.79","","","","","","Mostly Cloudy"
"2009-07-17 08:00","2009","07","17","08:00","20.1","","12.3","","61","","23","","9","","24.1","","98.77","","","","","","Mainly Clear"
"2009-07-17 09:00","2009","07","17","09:00","21.0","","13.1","","61","","21","","17","","24.1","","98.74","","","","","","Mostly Cloudy"
"2009-07-17 10:00","2009","07","17","10:00","19.3","","13.3","","68","","15","","11","","24.1","","98.64","","","","","","Mostly Cloudy"
"2009-07-17 11:00","2009","07","17","11:00","19.2","","13.6","","70","","19","","11","","24.1","","98.67","","","","","","Rain Showers"
"2009-07-17 12:00","2009","07","17","12:00","20.2","","13.5","","65","","14","","9","","24.1","","98.65","","","","","","Mostly Cloudy"
"2009-07-17 13:00","2009","07","17","13:00","20.5","","14.4","","68","","16","","11","","24.1","","98.62","","","","","","Cloudy"
"2009-07-17 14:00","2009","07","17","14:00","20.6","","15.4","","72","","15","","20","","24.1","","98.56","","25","","","","Mostly Cloudy"
"2009-07-17 15:00","2009","07","17","15:00","19.8","","15.8","","78","","15","","17","","24.1","","98.57","","","","","","Mostly Cloudy"
"2009-07-17 16:00","2009","07","17","16:00","19.1","","16.4","","84","","15","","17","","24.1","","98.57","","","","","","Cloudy"
"2009-07-17 17:00","2009","07","17","17:00","20.1","","16.6","","80","","17","","17","","24.1","","98.52","","25","","","","Mostly Cloudy"
"2009-07-17 18:00","2009","07","17","18:00","20.1","","16.4","","79","","22","","17","","24.1","","98.52","","25","","","","Rain Showers"
"2009-07-17 19:00","2009","07","17","19:00","19.0","","15.8","","82","","22","","13","","24.1","","98.54","","","","","","Mostly Cloudy"
"2009-07-17 20:00","2009","07","17","20:00","18.4","","16.6","","89","","15","","6","","24.1","","98.57","","","","","","Mostly Cloudy"
"2009-07-17 21:00","2009","07","17","21:00","17.3","","14.8","","85","","33","","19","","24.1","","98.61","","","","","","Mostly Cloudy"
"2009-07-17 22:00","2009","07","17","22:00","16.3","","14.2","","87","","36","","20","","24.1","","98.61","","","","","","Clear"
"2009-07-17 23:00","2009","07","17","23:00","15.1","","11.6","","80","","35","","15","","24.1","","98.61","","","","","","Clear"
"2009-07-18 00:00","2009","07","18","00:00","14.7","","11.5","","81","","32","","19","","24.1","","98.64","","","","","","Clear"
"2009-07-18 01:00","2009","07","18","01:00","14.6","","11.3","","81","","31","","20","","24.1","","98.65","","","","","","Mainly Clear"
"2009-07-18 02:00","2009","07","18","02:00","14.8","","10.5","","75","","32","","22","","24.1","","98.64","","","","","","Mostly Cloudy"
"2009-07-18 03:00","2009","07","18","03:00","14.6","","10.2","","75","","32","","19","","24.1","","98.64","","","","","","Mostly Cloudy"
"2009-07-18 04:00","2009","07","18","04:00","14.6","","10.6","","77","","30","","13","","24.1","","98.71","","","","","","Mostly Cloudy"
"2009-07-18 05:00","2009","07","18","05:00","14.5","","11.1","","80","","29","","13","","24.1","","98.79","","","","","","Mostly Cloudy"
"2009-07-18 06:00","2009","07","18","06:00","14.7","","10.3","","75","","28","","11","","24.1","","98.81","","","","","","Mostly Cloudy"
"2009-07-18 07:00","2009","07","18","07:00","15.8","","10.5","","71","","29","","15","","24.1","","98.83","","","","","","Mostly Cloudy"
"2009-07-18 08:00","2009","07","18","08:00","16.8","","10.8","","68","","29","","17","","24.1","","98.85","","","","","","Mostly Cloudy"
"2009-07-18 09:00","2009","07","18","09:00","18.6","","11.3","","62","","29","","15","","24.1","","98.86","","","","","","Mostly Cloudy"
"2009-07-18 10:00","2009","07","18","10:00","19.1","","11.3","","61","","28","","15","","24.1","","98.89","","","","","","Mostly Cloudy"
"2009-07-18 11:00","2009","07","18","11:00","21.3","","10.3","","49","","31","","17","","24.1","","98.89","","","","","","Mostly Cloudy"
"2009-07-18 12:00","2009","07","18","12:00","21.5","","11.1","","52","","27","","32","","24.1","","98.89","","","","","","Mostly Cloudy"
"2009-07-18 13:00","2009","07","18","13:00","22.0","","10.1","","47","","30","","19","","24.1","","98.89","","","","","","Mostly Cloudy"
"2009-07-18 14:00","2009","07","18","14:00","21.6","","10.1","","48","","27","","33","","24.1","","98.94","","","","","","Mostly Cloudy"
"2009-07-18 15:00","2009","07","18","15:00","20.4","","10.5","","53","","29","","28","","24.1","","98.95","","","","","","Rain Showers"
"2009-07-18 16:00","2009","07","18","16:00","21.1","","11.1","","53","","24","","28","","24.1","","98.97","","","","","","Mostly Cloudy"
"2009-07-18 17:00","2009","07","18","17:00","20.4","","11.5","","57","","27","","20","","24.1","","99.01","","","","","","Mostly Cloudy"
"2009-07-18 18:00","2009","07","18","18:00","20.5","","10.9","","54","","28","","19","","24.1","","99.06","","","","","","Mostly Cloudy"
"2009-07-18 19:00","2009","07","18","19:00","20.2","","10.7","","54","","27","","24","","24.1","","99.10","","","","","","Mostly Cloudy"
"2009-07-18 20:00","2009","07","18","20:00","19.0","","11.7","","63","","27","","22","","24.1","","99.18","","","","","","Mainly Clear"
"2009-07-18 21:00","2009","07","18","21:00","17.8","","11.9","","68","","26","","15","","24.1","","99.23","","","","","","Mainly Clear"
"2009-07-18 22:00","2009","07","18","22:00","16.8","","11.9","","73","","28","","19","","24.1","","99.28","","","","","","Mainly Clear"
"2009-07-18 23:00","2009","07","18","23:00","15.3","","11.7","","79","","27","","9","","24.1","","99.33","","","","","","Mainly Clear"
"2009-07-19 00:00","2009","07","19","00:00","14.8","","11.8","","82","","28","","11","","24.1","","99.34","","","","","","Clear"
"2009-07-19 01:00","2009","07","19","01:00","14.9","","11.9","","82","","29","","13","","24.1","","99.34","","","","","","Clear"
"2009-07-19 02:00","2009","07","19","02:00","13.4","","11.5","","88","","26","","9","","24.1","","99.35","","","","","","Clear"
"2009-07-19 03:00","2009","07","19","03:00","12.7","","11.7","","94","","26","","7","","24.1","","99.38","","","","","","Clear"
"2009-07-19 04:00","2009","07","19","04:00","12.5","","11.6","","94","","27","","6","","24.1","","99.43","","","","","","Clear"
"2009-07-19 05:00","2009","07","19","05:00","12.1","","11.3","","95","","26","","9","","24.1","","99.49","","","","","","Clear"
"2009-07-19 06:00","2009","07","19","06:00","13.9","","12.3","","90","","28","","13","","24.1","","99.55","","","","","","Mainly Clear"
"2009-07-19 07:00","2009","07","19","07:00","15.5","","12.4","","82","","29","","19","","24.1","","99.63","","","","","","Mainly Clear"
"2009-07-19 08:00","2009","07","19","08:00","17.4","","12.6","","73","","28","","19","","24.1","","99.69","","","","","","Mostly Cloudy"
"2009-07-19 09:00","2009","07","19","09:00","18.4","","12.6","","69","","31","","26","","24.1","","99.71","","","","","","Mostly Cloudy"
"2009-07-19 10:00","2009","07","19","10:00","18.4","","12.4","","68","","30","","19","","24.1","","99.77","","","","","","Mostly Cloudy"
"2009-07-19 11:00","2009","07","19","11:00","18.1","","12.2","","68","","28","","22","","24.1","","99.82","","","","","","Mostly Cloudy"
"2009-07-19 12:00","2009","07","19","12:00","19.1","","11.3","","61","","31","","22","","24.1","","99.83","","","","","","Mostly Cloudy"
"2009-07-19 13:00","2009","07","19","13:00","19.1","","11.5","","61","","28","","19","","24.1","","99.83","","","","","","Mostly Cloudy"
"2009-07-19 14:00","2009","07","19","14:00","20.5","","11.5","","56","","29","","13","","24.1","","99.83","","","","","","Mostly Cloudy"
"2009-07-19 15:00","2009","07","19","15:00","21.0","","11.9","","56","","29","","15","","24.1","","99.84","","","","","","Mostly Cloudy"
"2009-07-19 16:00","2009","07","19","16:00","21.6","","11.0","","51","","29","","6","","24.1","","99.82","","","","","","Mostly Cloudy"
"2009-07-19 17:00","2009","07","19","17:00","21.6","","11.4","","52","","23","","4","","24.1","","99.81","","","","","","Mostly Cloudy"
"2009-07-19 18:00","2009","07","19","18:00","21.7","","11.3","","52","","28","","11","","24.1","","99.80","","","","","","Mostly Cloudy"
"2009-07-19 19:00","2009","07","19","19:00","21.2","","12.0","","56","","31","","13","","24.1","","99.82","","","","","","Mostly Cloudy"
"2009-07-19 20:00","2009","07","19","20:00","19.8","","12.5","","63","","28","","11","","24.1","","99.86","","","","","","Mainly Clear"
"2009-07-19 21:00","2009","07","19","21:00","18.2","","12.3","","68","","28","","9","","24.1","","99.91","","","","","","Mainly Clear"
"2009-07-19 22:00","2009","07","19","22:00","16.9","","12.4","","75","","26","","9","","24.1","","99.97","","","","","","Mainly Clear"
"2009-07-19 23:00","2009","07","19","23:00","16.7","","12.8","","78","","28","","13","","24.1","","99.97","","","","","","Mainly Clear"
"2009-07-20 00:00","2009","07","20","00:00","15.8","","12.7","","82","","30","","9","","24.1","","100.01","","","","","","Clear"
"2009-07-20 01:00","2009","07","20","01:00","15.3","","12.5","","83","","29","","6","","24.1","","100.02","","","","","","Clear"
"2009-07-20 02:00","2009","07","20","02:00","14.2","","12.0","","87","","28","","7","","24.1","","100.02","","","","","","Clear"
"2009-07-20 03:00","2009","07","20","03:00","13.2","","11.7","","91","","29","","7","","24.1","","100.04","","","","","","Clear"
"2009-07-20 04:00","2009","07","20","04:00","13.6","","11.9","","89","","32","","9","","24.1","","100.06","","","","","","Mainly Clear"
"2009-07-20 05:00","2009","07","20","05:00","12.9","","11.6","","92","","2","","7","","24.1","","100.05","","","","","","Mainly Clear"
"2009-07-20 06:00","2009","07","20","06:00","14.1","","12.1","","88","","33","","4","","24.1","","100.11","","","","","","Mainly Clear"
"2009-07-20 07:00","2009","07","20","07:00","16.3","","13.3","","82","","31","","6","","24.1","","100.15","","","","","","Mainly Clear"
"2009-07-20 08:00","2009","07","20","08:00","18.5","","13.5","","73","","","","0","","24.1","","100.19","","","","","","Mainly Clear"
"2009-07-20 09:00","2009","07","20","09:00","20.0","","13.2","","65","","","","0","","24.1","","100.19","","","","","","Mainly Clear"
"2009-07-20 10:00","2009","07","20","10:00","21.7","","12.8","","57","","5","","4","","24.1","","100.15","","","","","","Mainly Clear"
"2009-07-20 11:00","2009","07","20","11:00","22.2","","13.2","","57","","13","","15","","24.1","","100.16","","25","","","","Mainly Clear"
"2009-07-20 12:00","2009","07","20","12:00","23.3","","13.2","","53","","17","","7","","24.1","","100.13","","26","","","","Mostly Cloudy"
"2009-07-20 13:00","2009","07","20","13:00","22.3","","12.6","","54","","15","","19","","24.1","","100.15","","25","","","","Mostly Cloudy"
"2009-07-20 14:00","2009","07","20","14:00","23.4","","12.3","","50","","17","","17","","24.1","","100.11","","26","","","","Mostly Cloudy"
"2009-07-20 15:00","2009","07","20","15:00","23.7","","11.0","","45","","16","","15","","24.1","","100.06","","25","","","","Mostly Cloudy"
"2009-07-20 16:00","2009","07","20","16:00","23.8","","10.2","","42","","12","","13","","24.1","","100.04","","25","","","","Mostly Cloudy"
"2009-07-20 17:00","2009","07","20","17:00","24.8","","8.9","","36","","17","","13","","24.1","","100.05","","26","","","","Mostly Cloudy"
"2009-07-20 18:00","2009","07","20","18:00","22.1","","12.4","","54","","14","","9","","24.1","","100.04","","25","","","","Mostly Cloudy"
"2009-07-20 19:00","2009","07","20","19:00","21.9","","11.2","","51","","15","","7","","24.1","","100.05","","","","","","Mostly Cloudy"
"2009-07-20 20:00","2009","07","20","20:00","20.2","","12.2","","60","","16","","6","","24.1","","100.07","","","","","","Mostly Cloudy"
"2009-07-20 21:00","2009","07","20","21:00","18.8","","12.4","","66","","17","","4","","24.1","","100.12","","","","","","Mostly Cloudy"
"2009-07-20 22:00","2009","07","20","22:00","18.4","","13.0","","71","","14","","4","","24.1","","100.13","","","","","","Mainly Clear"
"2009-07-20 23:00","2009","07","20","23:00","18.1","","13.0","","72","","15","","6","","24.1","","100.17","","","","","","Mainly Clear"
"2009-07-21 00:00","2009","07","21","00:00","18.0","","13.5","","75","","13","","4","","24.1","","100.16","","","","","","Mainly Clear"
"2009-07-21 01:00","2009","07","21","01:00","16.0","","12.4","","79","","2","","11","","24.1","","100.16","","","","","","Mainly Clear"
"2009-07-21 02:00","2009","07","21","02:00","16.3","","12.5","","78","","1","","6","","24.1","","100.15","","","","","","Mainly Clear"
"2009-07-21 03:00","2009","07","21","03:00","15.4","","11.9","","80","","2","","9","","24.1","","100.14","","","","","","Mainly Clear"
"2009-07-21 04:00","2009","07","21","04:00","15.3","","12.3","","82","","5","","7","","24.1","","100.13","","","","","","Mainly Clear"
"2009-07-21 05:00","2009","07","21","05:00","14.9","","12.5","","86","","1","","7","","24.1","","100.14","","","","","","Mainly Clear"
"2009-07-21 06:00","2009","07","21","06:00","17.0","","13.5","","80","","1","","4","","24.1","","100.16","","","","","","Mostly Cloudy"
"2009-07-21 07:00","2009","07","21","07:00","18.0","","13.7","","76","","2","","6","","24.1","","100.16","","","","","","Mostly Cloudy"
"2009-07-21 08:00","2009","07","21","08:00","20.5","","13.6","","65","","10","","7","","24.1","","100.18","","","","","","Mostly Cloudy"
"2009-07-21 09:00","2009","07","21","09:00","21.6","","13.4","","60","","11","","13","","24.1","","100.16","","25","","","","Mostly Cloudy"
"2009-07-21 10:00","2009","07","21","10:00","21.6","","12.0","","54","","9","","9","","24.1","","100.15","","","","","","Mostly Cloudy"
"2009-07-21 11:00","2009","07","21","11:00","22.6","","10.4","","46","","14","","15","","24.1","","100.16","","","","","","Mostly Cloudy"
"2009-07-21 12:00","2009","07","21","12:00","21.8","","9.6","","46","","11","","11","","24.1","","100.12","","","","","","Cloudy"
"2009-07-21 13:00","2009","07","21","13:00","21.7","","10.8","","50","","14","","7","","24.1","","100.10","","","","","","Cloudy"
"2009-07-21 14:00","2009","07","21","14:00","20.0","","11.9","","60","","19","","7","","24.1","","100.11","","","","","","Cloudy"
"2009-07-21 15:00","2009","07","21","15:00","18.4","","13.6","","74","","22","","11","","24.1","","100.12","","","","","","Cloudy"
"2009-07-21 16:00","2009","07","21","16:00","18.0","","15.3","","84","","","","0","","14.5","","100.09","","","","","","Rain Showers"
"2009-07-21 17:00","2009","07","21","17:00","17.9","","13.6","","76","","6","","11","","24.1","","99.97","","","","","","Rain Showers"
"2009-07-21 18:00","2009","07","21","18:00","17.5","","15.6","","89","","5","","13","","19.3","","99.87","","","","","","Rain Showers"
"2009-07-21 19:00","2009","07","21","19:00","18.2","","16.2","","88","","29","","4","","19.3","","99.93","","","","","","Mostly Cloudy"
"2009-07-21 20:00","2009","07","21","20:00","18.2","","16.1","","88","","","","0","","19.3","","99.89","","","","","","Mostly Cloudy"
"2009-07-21 21:00","2009","07","21","21:00","18.4","","16.1","","86","","4","","6","","19.3","","99.93","","","","","","Cloudy"
"2009-07-21 22:00","2009","07","21","22:00","18.4","","15.6","","84","","7","","4","","19.3","","99.94","","","","","","Cloudy"
"2009-07-21 23:00","2009","07","21","23:00","18.6","","15.0","","80","","9","","6","","19.3","","99.95","","","","","","Cloudy"
"2009-07-22 00:00","2009","07","22","00:00","18.1","","15.0","","82","","9","","7","","19.3","","99.92","","","","","","Rain Showers"
"2009-07-22 01:00","2009","07","22","01:00","17.2","","15.9","","92","","14","","7","","24.1","","99.89","","","","","","Mostly Cloudy"
"2009-07-22 02:00","2009","07","22","02:00","16.3","","15.4","","94","","5","","4","","24.1","","99.91","","","","","","Mostly Cloudy"
"2009-07-22 03:00","2009","07","22","03:00","17.0","","15.5","","91","","6","","4","","24.1","","99.90","","","","","","Mostly Cloudy"
"2009-07-22 04:00","2009","07","22","04:00","16.7","","15.1","","90","","","","0","","24.1","","99.91","","","","","","Mostly Cloudy"
"2009-07-22 05:00","2009","07","22","05:00","16.7","","15.3","","91","","","","0","","24.1","","99.92","","","","","","Mostly Cloudy"
"2009-07-22 06:00","2009","07","22","06:00","17.2","","15.8","","91","","5","","13","","11.3","","99.94","","","","","","Cloudy"
"2009-07-22 07:00","2009","07","22","07:00","18.0","","16.5","","91","","8","","17","","14.5","","99.96","","","","","","Cloudy"
"2009-07-22 08:00","2009","07","22","08:00","18.6","","16.3","","86","","9","","17","","24.1","","99.96","","","","","","Cloudy"
"2009-07-22 09:00","2009","07","22","09:00","18.9","","16.0","","83","","8","","19","","24.1","","99.95","","","","","","Cloudy"
"2009-07-22 10:00","2009","07","22","10:00","20.2","","16.6","","80","","12","","15","","24.1","","99.96","","25","","","","Mostly Cloudy"
"2009-07-22 11:00","2009","07","22","11:00","21.7","","17.4","","77","","11","","20","","24.1","","99.95","","27","","","","Mostly Cloudy"
"2009-07-22 12:00","2009","07","22","12:00","20.2","","16.4","","79","","8","","20","","24.1","","99.97","","25","","","","Cloudy"
"2009-07-22 13:00","2009","07","22","13:00","21.2","","16.3","","74","","9","","22","","24.1","","99.93","","26","","","","Mostly Cloudy"
"2009-07-22 14:00","2009","07","22","14:00","21.9","","16.2","","70","","10","","15","","24.1","","99.89","","27","","","","Cloudy"
"2009-07-22 15:00","2009","07","22","15:00","22.3","","15.9","","67","","11","","19","","24.1","","99.85","","27","","","","Cloudy"
"2009-07-22 16:00","2009","07","22","16:00","21.6","","15.3","","67","","9","","19","","24.1","","99.83","","26","","","","Cloudy"
"2009-07-22 17:00","2009","07","22","17:00","21.3","","15.0","","67","","9","","19","","24.1","","99.77","","25","","","","Cloudy"
"2009-07-22 18:00","2009","07","22","18:00","21.4","","14.7","","66","","8","","17","","24.1","","99.74","","25","","","","Cloudy"
"2009-07-22 19:00","2009","07","22","19:00","20.9","","14.4","","66","","10","","11","","24.1","","99.73","","25","","","","Cloudy"
"2009-07-22 20:00","2009","07","22","20:00","20.5","","14.4","","68","","9","","11","","24.1","","99.73","","","","","","Cloudy"
"2009-07-22 21:00","2009","07","22","21:00","20.2","","14.9","","72","","11","","6","","24.1","","99.74","","","","","","Cloudy"
"2009-07-22 22:00","2009","07","22","22:00","19.7","","16.0","","79","","11","","11","","19.3","","99.71","","","","","","Rain Showers"
"2009-07-22 23:00","2009","07","22","23:00","17.9","","17.1","","95","","9","","7","","19.3","","99.67","","","","","","Rain Showers"
"2009-07-23 00:00","2009","07","23","00:00","17.8","","17.1","","96","","5","","15","","16.1","","99.60","","","","","","Rain Showers"
"2009-07-23 01:00","2009","07","23","01:00","17.5","","17.0","","97","","11","","15","","14.5","","99.62","","","","","","Rain Showers"
"2009-07-23 02:00","2009","07","23","02:00","17.7","","17.4","","98","","7","","6","","11.3","","99.53","","","","","","Rain"
"2009-07-23 03:00","2009","07","23","03:00","17.8","","17.4","","98","","9","","7","","11.3","","99.50","","","","","","Rain"
"2009-07-23 04:00","2009","07","23","04:00","17.7","","17.2","","97","","8","","9","","16.1","","99.41","","","","","","Rain Showers"
"2009-07-23 05:00","2009","07","23","05:00","18.0","","17.3","","96","","9","","9","","12.9","","99.40","","","","","","Rain Showers"
"2009-07-23 06:00","2009","07","23","06:00","18.3","","17.5","","95","","8","","15","","11.3","","99.33","","","","","","Rain Showers"
"2009-07-23 07:00","2009","07","23","07:00","18.3","","17.7","","96","","7","","15","","9.7","","99.25","","","","","","Rain Showers"
"2009-07-23 08:00","2009","07","23","08:00","18.4","","18.1","","98","","7","","15","","4.0","","99.17","","","","","","Moderate Rain Showers,Fog"
"2009-07-23 09:00","2009","07","23","09:00","18.4","","18.1","","98","","8","","13","","3.2","","99.11","","","","","","Heavy Rain Showers,Fog"
"2009-07-23 10:00","2009","07","23","10:00","18.7","","18.5","","99","","8","","11","","6.4","","99.00","","","","","","Heavy Rain Showers,Fog"
"2009-07-23 11:00","2009","07","23","11:00","18.9","","18.7","","99","","10","","9","","6.4","","98.95","","","","","","Rain Showers,Fog"
"2009-07-23 12:00","2009","07","23","12:00","19.9","","19.5","","98","","15","","13","","6.4","","98.91","","","","","","Fog"
"2009-07-23 13:00","2009","07","23","13:00","21.1","","19.6","","91","","21","","13","","9.7","","98.89","","28","","","","Fog"
"2009-07-23 14:00","2009","07","23","14:00","22.5","","19.5","","83","","27","","17","","12.9","","98.87","","30","","","","Mostly Cloudy"
"2009-07-23 15:00","2009","07","23","15:00","21.9","","19.0","","84","","31","","13","","24.1","","98.87","","29","","","","Mostly Cloudy"
"2009-07-23 16:00","2009","07","23","16:00","21.6","","18.5","","83","","30","","9","","24.1","","98.85","","28","","","","Mostly Cloudy"
"2009-07-23 17:00","2009","07","23","17:00","22.6","","19.1","","81","","31","","6","","24.1","","98.75","","29","","","","Mostly Cloudy"
"2009-07-23 18:00","2009","07","23","18:00","22.8","","18.2","","75","","29","","6","","24.1","","98.78","","29","","","","Mostly Cloudy"
"2009-07-23 19:00","2009","07","23","19:00","22.6","","18.2","","76","","14","","11","","24.1","","98.81","","29","","","","Mostly Cloudy"
"2009-07-23 20:00","2009","07","23","20:00","19.8","","18.3","","91","","16","","7","","19.3","","98.78","","","","","","Mostly Cloudy"
"2009-07-23 21:00","2009","07","23","21:00","18.8","","18.2","","96","","2","","13","","16.1","","98.85","","","","","","Rain Showers"
"2009-07-23 22:00","2009","07","23","22:00","19.0","","18.5","","97","","34","","6","","24.1","","98.86","","","","","","Mostly Cloudy"
"2009-07-23 23:00","2009","07","23","23:00","18.8","","18.0","","95","","1","","9","","24.1","","98.86","","","","","","Mostly Cloudy"
"2009-07-24 00:00","2009","07","24","00:00","18.6","","17.7","","95","","31","","7","","24.1","","98.86","","","","","","Mostly Cloudy"
"2009-07-24 01:00","2009","07","24","01:00","18.2","","17.2","","94","","32","","9","","24.1","","98.89","","","","","","Mostly Cloudy"
"2009-07-24 02:00","2009","07","24","02:00","17.8","","17.4","","98","","26","","4","","24.1","","98.90","","","","","","Mostly Cloudy"
"2009-07-24 03:00","2009","07","24","03:00","18.0","","17.6","","98","","28","","9","","19.3","","98.89","","","","","","Mostly Cloudy"
"2009-07-24 04:00","2009","07","24","04:00","18.0","","17.2","","95","","28","","7","","19.3","","98.87","","","","","","Mostly Cloudy"
"2009-07-24 05:00","2009","07","24","05:00","17.5","","17.0","","97","","27","","6","","16.1","","98.87","","","","","","Mostly Cloudy"
"2009-07-24 06:00","2009","07","24","06:00","18.2","","17.2","","94","","28","","9","","19.3","","98.90","","","","","","Mostly Cloudy"
"2009-07-24 07:00","2009","07","24","07:00","18.8","","17.0","","89","","26","","9","","19.3","","98.97","","","","","","Mostly Cloudy"
"2009-07-24 08:00","2009","07","24","08:00","19.2","","16.9","","87","","28","","9","","24.1","","99.02","","","","","","Mostly Cloudy"
"2009-07-24 09:00","2009","07","24","09:00","20.7","","17.0","","79","","31","","9","","24.1","","99.02","","26","","","","Mostly Cloudy"
"2009-07-24 10:00","2009","07","24","10:00","21.0","","16.2","","74","","29","","13","","24.1","","99.05","","26","","","","Mostly Cloudy"
"2009-07-24 11:00","2009","07","24","11:00","22.6","","16.8","","70","","28","","22","","24.1","","99.06","","28","","","","Mostly Cloudy"
"2009-07-24 12:00","2009","07","24","12:00","22.8","","15.7","","64","","27","","15","","24.1","","99.03","","27","","","","Mostly Cloudy"
"2009-07-24 13:00","2009","07","24","13:00","23.4","","15.8","","62","","25","","15","","24.1","","99.01","","28","","","","Mostly Cloudy"
"2009-07-24 14:00","2009","07","24","14:00","23.3","","15.7","","62","","27","","9","","24.1","","98.97","","28","","","","Mostly Cloudy"
"2009-07-24 15:00","2009","07","24","15:00","23.0","","16.0","","65","","13","","11","","19.3","","98.94","","28","","","","Thunderstorms"
"2009-07-24 16:00","2009","07","24","16:00","24.1","","16.8","","64","","24","","7","","16.1","","98.95","","29","","","","Mostly Cloudy"
"2009-07-24 17:00","2009","07","24","17:00","22.4","","16.3","","68","","24","","20","","16.1","","98.96","","27","","","","Mostly Cloudy"
"2009-07-24 18:00","2009","07","24","18:00","21.3","","16.2","","73","","27","","22","","24.1","","98.97","","26","","","","Mostly Cloudy"
"2009-07-24 19:00","2009","07","24","19:00","20.7","","16.3","","76","","26","","13","","24.1","","98.97","","26","","","","Rain Showers"
"2009-07-24 20:00","2009","07","24","20:00","20.3","","16.7","","80","","23","","7","","24.1","","99.00","","25","","","","Mostly Cloudy"
"2009-07-24 21:00","2009","07","24","21:00","20.3","","17.7","","85","","18","","4","","24.1","","99.03","","26","","","","Mostly Cloudy"
"2009-07-24 22:00","2009","07","24","22:00","19.4","","17.5","","89","","17","","4","","24.1","","99.01","","","","","","Mostly Cloudy"
"2009-07-24 23:00","2009","07","24","23:00","19.1","","17.5","","90","","15","","9","","24.1","","99.03","","","","","","Mostly Cloudy"
"2009-07-25 00:00","2009","07","25","00:00","18.4","","17.2","","93","","16","","7","","24.1","","99.01","","","","","","Mostly Cloudy"
"2009-07-25 01:00","2009","07","25","01:00","18.1","","17.1","","94","","16","","9","","24.1","","98.99","","","","","","Mostly Cloudy"
"2009-07-25 02:00","2009","07","25","02:00","17.9","","17.0","","94","","16","","6","","24.1","","98.95","","","","","","Mostly Cloudy"
"2009-07-25 03:00","2009","07","25","03:00","18.9","","17.1","","89","","20","","9","","24.1","","98.94","","","","","","Mostly Cloudy"
"2009-07-25 04:00","2009","07","25","04:00","18.9","","17.1","","89","","18","","6","","19.3","","98.93","","","","","","Rain Showers"
"2009-07-25 05:00","2009","07","25","05:00","18.1","","17.0","","93","","14","","6","","12.9","","98.89","","","","","","Mostly Cloudy"
"2009-07-25 06:00","2009","07","25","06:00","18.2","","17.0","","93","","14","","7","","6.4","","98.86","","","","","","Fog"
"2009-07-25 07:00","2009","07","25","07:00","18.8","","17.4","","92","","15","","9","","11.3","","98.84","","","","","","Mostly Cloudy"
"2009-07-25 08:00","2009","07","25","08:00","20.5","","17.5","","83","","15","","15","","16.1","","98.84","","26","","","","Mostly Cloudy"
"2009-07-25 09:00","2009","07","25","09:00","20.9","","17.3","","80","","15","","13","","24.1","","98.81","","26","","","","Cloudy"
"2009-07-25 10:00","2009","07","25","10:00","20.5","","17.2","","81","","15","","11","","19.3","","98.77","","26","","","","Cloudy"
"2009-07-25 11:00","2009","07","25","11:00","22.2","","17.6","","75","","15","","15","","24.1","","98.74","","28","","","","Cloudy"
"2009-07-25 12:00","2009","07","25","12:00","22.2","","17.7","","76","","14","","15","","24.1","","98.64","","28","","","","Cloudy"
"2009-07-25 13:00","2009","07","25","13:00","22.3","","17.4","","74","","13","","13","","24.1","","98.53","","28","","","","Cloudy"
"2009-07-25 14:00","2009","07","25","14:00","20.1","","18.9","","93","","14","","13","","6.4","","98.47","","27","","","","Rain Showers,Fog"
"2009-07-25 15:00","2009","07","25","15:00","19.4","","18.9","","97","","11","","13","","3.6","","98.39","","","","","","Moderate Rain Showers,Fog"
"2009-07-25 16:00","2009","07","25","16:00","18.6","","18.2","","98","","36","","7","","3.6","","98.33","","","","","","Heavy Rain Showers,Fog"
"2009-07-25 17:00","2009","07","25","17:00","20.7","","19.5","","93","","29","","7","","24.1","","98.35","","28","","","","Mostly Cloudy"
"2009-07-25 18:00","2009","07","25","18:00","20.9","","19.2","","90","","25","","9","","19.3","","98.38","","28","","","","Mostly Cloudy"
"2009-07-25 19:00","2009","07","25","19:00","21.3","","19.5","","89","","21","","6","","19.3","","98.40","","28","","","","Mostly Cloudy"
"2009-07-25 20:00","2009","07","25","20:00","21.1","","19.1","","88","","22","","7","","19.3","","98.37","","28","","","","Mostly Cloudy"
"2009-07-25 21:00","2009","07","25","21:00","20.9","","19.0","","89","","18","","9","","19.3","","98.40","","28","","","","Mostly Cloudy"
"2009-07-25 22:00","2009","07","25","22:00","20.6","","18.8","","89","","22","","17","","24.1","","98.45","","27","","","","Mostly Cloudy"
"2009-07-25 23:00","2009","07","25","23:00","20.1","","17.9","","87","","21","","9","","24.1","","98.47","","26","","","","Mostly Cloudy"
"2009-07-26 00:00","2009","07","26","00:00","18.8","","17.2","","90","","21","","11","","24.1","","98.47","","","","","","Mostly Cloudy"
"2009-07-26 01:00","2009","07","26","01:00","18.7","","17.2","","91","","24","","13","","24.1","","98.52","","","","","","Mostly Cloudy"
"2009-07-26 02:00","2009","07","26","02:00","17.1","","16.3","","95","","25","","9","","24.1","","98.53","","","","","","Mainly Clear"
"2009-07-26 03:00","2009","07","26","03:00","16.8","","16.1","","96","","24","","9","","24.1","","98.54","","","","","","Mainly Clear"
"2009-07-26 04:00","2009","07","26","04:00","16.4","","16.0","","97","","26","","6","","24.1","","98.56","","","","","","Clear"
"2009-07-26 05:00","2009","07","26","05:00","16.6","","16.2","","97","","25","","4","","16.1","","98.60","","","","","","Mostly Cloudy"
"2009-07-26 06:00","2009","07","26","06:00","17.8","","17.2","","96","","19","","4","","16.1","","98.67","","","","","","Mostly Cloudy"
"2009-07-26 07:00","2009","07","26","07:00","18.5","","17.3","","93","","24","","9","","24.1","","98.71","","","","","","Mostly Cloudy"
"2009-07-26 08:00","2009","07","26","08:00","20.1","","17.0","","82","","20","","9","","24.1","","98.71","","25","","","","Mostly Cloudy"
"2009-07-26 09:00","2009","07","26","09:00","21.3","","16.6","","75","","19","","9","","24.1","","98.66","","26","","","","Mostly Cloudy"
"2009-07-26 10:00","2009","07","26","10:00","20.8","","17.1","","79","","17","","9","","24.1","","98.71","","26","","","","Thunderstorms,Rain Showers"
"2009-07-26 11:00","2009","07","26","11:00","16.7","","15.5","","93","","","","0","","24.1","","98.70","","","","","","Thunderstorms,Rain Showers"
"2009-07-26 12:00","2009","07","26","12:00","18.7","","17.6","","93","","17","","9","","24.1","","98.69","","","","","","Mostly Cloudy"
"2009-07-26 13:00","2009","07","26","13:00","20.9","","19.1","","89","","18","","11","","24.1","","98.63","","28","","","","Mostly Cloudy"
"2009-07-26 14:00","2009","07","26","14:00","20.4","","17.6","","84","","20","","13","","19.3","","98.63","","26","","","","Rain Showers"
"2009-07-26 15:00","2009","07","26","15:00","21.2","","18.1","","82","","24","","13","","24.1","","98.68","","27","","","","Mostly Cloudy"
"2009-07-26 16:00","2009","07","26","16:00","19.0","","16.2","","84","","25","","11","","19.3","","98.65","","","","","","Thunderstorms,Moderate Rain Showers"
"2009-07-26 17:00","2009","07","26","17:00","18.4","","16.7","","90","","22","","9","","24.1","","98.65","","","","","","Rain Showers"
"2009-07-26 18:00","2009","07","26","18:00","19.2","","17.1","","88","","20","","7","","24.1","","98.63","","","","","","Mostly Cloudy"
"2009-07-26 19:00","2009","07","26","19:00","19.3","","17.1","","87","","22","","9","","24.1","","98.69","","","","","","Mostly Cloudy"
"2009-07-26 20:00","2009","07","26","20:00","18.1","","16.5","","90","","22","","7","","24.1","","98.69","","","","","","Mainly Clear"
"2009-07-26 21:00","2009","07","26","21:00","18.5","","16.6","","89","","25","","11","","24.1","","98.75","","","","","","Cloudy"
"2009-07-26 22:00","2009","07","26","22:00","18.1","","16.9","","93","","24","","4","","24.1","","98.73","","","","","","Rain Showers"
"2009-07-26 23:00","2009","07","26","23:00","18.1","","16.8","","92","","19","","6","","24.1","","98.72","","","","","","Mostly Cloudy"
"2009-07-27 00:00","2009","07","27","00:00","17.8","","16.9","","94","","21","","6","","24.1","","98.75","","","","","","Mostly Cloudy"
"2009-07-27 01:00","2009","07","27","01:00","17.8","","16.8","","94","","23","","9","","24.1","","98.77","","","","","","Cloudy"
"2009-07-27 02:00","2009","07","27","02:00","17.3","","16.4","","94","","25","","13","","24.1","","98.76","","","","","","Mostly Cloudy"
"2009-07-27 03:00","2009","07","27","03:00","16.7","","15.9","","95","","24","","11","","24.1","","98.81","","","","","","Mostly Cloudy"
"2009-07-27 04:00","2009","07","27","04:00","16.7","","16.0","","96","","25","","9","","24.1","","98.85","","","","","","Mostly Cloudy"
"2009-07-27 05:00","2009","07","27","05:00","16.3","","15.7","","96","","24","","11","","24.1","","98.91","","","","","","Mainly Clear"
"2009-07-27 06:00","2009","07","27","06:00","16.6","","16.0","","96","","25","","9","","24.1","","98.98","","","","","","Mainly Clear"
"2009-07-27 07:00","2009","07","27","07:00","18.0","","16.5","","91","","25","","13","","24.1","","99.05","","","","","","Mainly Clear"
"2009-07-27 08:00","2009","07","27","08:00","19.7","","16.9","","84","","27","","19","","24.1","","99.06","","","","","","Mainly Clear"
"2009-07-27 09:00","2009","07","27","09:00","20.2","","16.3","","78","","27","","26","","24.1","","99.06","","25","","","","Mostly Cloudy"
"2009-07-27 10:00","2009","07","27","10:00","22.3","","15.9","","67","","27","","22","","24.1","","99.09","","27","","","","Mostly Cloudy"
"2009-07-27 11:00","2009","07","27","11:00","22.0","","16.3","","70","","26","","24","","24.1","","99.12","","27","","","","Mostly Cloudy"
"2009-07-27 12:00","2009","07","27","12:00","23.2","","16.2","","65","","25","","19","","24.1","","99.10","","28","","","","Mostly Cloudy"
"2009-07-27 13:00","2009","07","27","13:00","24.8","","16.7","","61","","27","","32","","24.1","","99.09","","30","","","","Mainly Clear"
"2009-07-27 14:00","2009","07","27","14:00","25.2","","15.9","","56","","26","","26","","24.1","","99.13","","30","","","","Mostly Cloudy"
"2009-07-27 15:00","2009","07","27","15:00","25.9","","16.3","","55","","27","","26","","24.1","","99.09","","31","","","","Mostly Cloudy"
"2009-07-27 16:00","2009","07","27","16:00","26.1","","15.4","","52","","25","","28","","24.1","","99.10","","30","","","","Mainly Clear"
"2009-07-27 17:00","2009","07","27","17:00","26.0","","16.8","","57","","25","","24","","24.1","","99.08","","31","","","","Mainly Clear"
"2009-07-27 18:00","2009","07","27","18:00","23.3","","18.0","","72","","24","","19","","24.1","","99.07","","29","","","","Mostly Cloudy"
"2009-07-27 19:00","2009","07","27","19:00","22.4","","18.0","","76","","24","","17","","24.1","","99.06","","28","","","","Clear"
"2009-07-27 20:00","2009","07","27","20:00","21.5","","17.0","","76","","23","","15","","24.1","","99.06","","27","","","","Mainly Clear"
"2009-07-27 21:00","2009","07","27","21:00","20.5","","17.0","","80","","23","","11","","24.1","","99.11","","26","","","","Mainly Clear"
"2009-07-27 22:00","2009","07","27","22:00","20.8","","17.2","","80","","19","","7","","24.1","","99.12","","26","","","","Clear"
"2009-07-27 23:00","2009","07","27","23:00","20.7","","17.1","","80","","19","","7","","24.1","","99.13","","26","","","","Mostly Cloudy"
"2009-07-28 00:00","2009","07","28","00:00","20.6","","17.1","","80","","20","","7","","24.1","","99.12","","26","","","","Mostly Cloudy"
"2009-07-28 01:00","2009","07","28","01:00","20.8","","17.1","","79","","21","","9","","24.1","","99.12","","26","","","","Cloudy"
"2009-07-28 02:00","2009","07","28","02:00","20.4","","17.2","","82","","22","","9","","24.1","","99.07","","26","","","","Mostly Cloudy"
"2009-07-28 03:00","2009","07","28","03:00","20.9","","17.5","","81","","24","","15","","24.1","","99.07","","27","","","","Cloudy"
"2009-07-28 04:00","2009","07","28","04:00","20.2","","17.7","","86","","23","","9","","24.1","","99.06","","26","","","","Cloudy"
"2009-07-28 05:00","2009","07","28","05:00","20.3","","17.9","","86","","21","","4","","24.1","","99.02","","26","","","","Mostly Cloudy"
"2009-07-28 06:00","2009","07","28","06:00","20.9","","18.4","","86","","21","","11","","24.1","","99.00","","27","","","","Mostly Cloudy"
"2009-07-28 07:00","2009","07","28","07:00","22.3","","18.8","","81","","23","","15","","24.1","","98.98","","29","","","","Mostly Cloudy"
"2009-07-28 08:00","2009","07","28","08:00","24.0","","19.5","","76","","22","","17","","24.1","","98.98","","31","","","","Mostly Cloudy"
"2009-07-28 09:00","2009","07","28","09:00","25.1","","19.4","","71","","21","","22","","24.1","","98.97","","32","","","","Mostly Cloudy"
"2009-07-28 10:00","2009","07","28","10:00","25.1","","18.6","","67","","23","","17","","24.1","","98.95","","32","","","","Mostly Cloudy"
"2009-07-28 11:00","2009","07","28","11:00","25.9","","19.0","","66","","21","","24","","24.1","","98.93","","33","","","","Mostly Cloudy"
"2009-07-28 12:00","2009","07","28","12:00","27.2","","19.0","","61","","21","","26","","24.1","","98.87","","34","","","","Mostly Cloudy"
"2009-07-28 13:00","2009","07","28","13:00","26.0","","17.7","","60","","22","","30","","24.1","","98.87","","32","","","","Mostly Cloudy"
"2009-07-28 14:00","2009","07","28","14:00","25.3","","18.4","","66","","20","","24","","24.1","","98.85","","32","","","","Mostly Cloudy"
"2009-07-28 15:00","2009","07","28","15:00","26.6","","19.1","","63","","20","","28","","24.1","","98.78","","33","","","","Mostly Cloudy"
"2009-07-28 16:00","2009","07","28","16:00","27.4","","18.6","","59","","21","","39","","24.1","","98.72","","34","","","","Mostly Cloudy"
"2009-07-28 17:00","2009","07","28","17:00","26.8","","18.1","","59","","22","","33","","24.1","","98.72","","33","","","","Mostly Cloudy"
"2009-07-28 18:00","2009","07","28","18:00","27.0","","18.0","","58","","22","","33","","24.1","","98.70","","33","","","","Mostly Cloudy"
"2009-07-28 19:00","2009","07","28","19:00","25.5","","17.7","","62","","22","","24","","24.1","","98.71","","31","","","","Mostly Cloudy"
"2009-07-28 20:00","2009","07","28","20:00","24.9","","17.9","","65","","23","","17","","24.1","","98.74","","31","","","","Mainly Clear"
"2009-07-28 21:00","2009","07","28","21:00","24.3","","18.2","","69","","23","","15","","24.1","","98.80","","30","","","","Mostly Cloudy"
"2009-07-28 22:00","2009","07","28","22:00","23.9","","18.2","","70","","22","","9","","24.1","","98.82","","30","","","","Cloudy"
"2009-07-28 23:00","2009","07","28","23:00","24.0","","18.0","","69","","24","","19","","24.1","","98.79","","30","","","","Mostly Cloudy"
"2009-07-29 00:00","2009","07","29","00:00","23.7","","17.9","","70","","21","","15","","24.1","","98.76","","30","","","","Mostly Cloudy"
"2009-07-29 01:00","2009","07","29","01:00","23.3","","18.3","","74","","23","","22","","24.1","","98.76","","30","","","","Cloudy"
"2009-07-29 02:00","2009","07","29","02:00","20.8","","19.6","","93","","31","","9","","24.1","","98.63","","28","","","","Rain Showers"
"2009-07-29 03:00","2009","07","29","03:00","20.7","","19.7","","94","","20","","7","","24.1","","98.67","","28","","","","Mostly Cloudy"
"2009-07-29 04:00","2009","07","29","04:00","20.4","","19.5","","95","","19","","7","","24.1","","98.71","","28","","","","Mostly Cloudy"
"2009-07-29 05:00","2009","07","29","05:00","19.3","","18.7","","96","","25","","9","","19.3","","98.72","","","","","","Mostly Cloudy"
"2009-07-29 06:00","2009","07","29","06:00","20.0","","19.2","","95","","24","","9","","12.9","","98.73","","27","","","","Cloudy"
"2009-07-29 07:00","2009","07","29","07:00","20.2","","19.4","","95","","26","","13","","9.7","","98.77","","27","","","","Rain Showers,Fog"
"2009-07-29 08:00","2009","07","29","08:00","19.4","","17.5","","89","","27","","13","","9.7","","98.86","","","","","","Thunderstorms,Rain Showers"
"2009-07-29 09:00","2009","07","29","09:00","17.8","","16.2","","90","","36","","11","","8.0","","98.79","","","","","","Rain Showers,Fog"
"2009-07-29 10:00","2009","07","29","10:00","18.8","","16.4","","86","","1","","9","","16.1","","98.75","","","","","","Rain Showers"
"2009-07-29 11:00","2009","07","29","11:00","20.2","","16.7","","80","","32","","15","","16.1","","98.78","","25","","","","Rain Showers"
"2009-07-29 12:00","2009","07","29","12:00","20.9","","17.3","","80","","","","0","","16.1","","98.75","","26","","","","Cloudy"
"2009-07-29 13:00","2009","07","29","13:00","21.7","","17.7","","78","","13","","7","","24.1","","98.71","","27","","","","Cloudy"
"2009-07-29 14:00","2009","07","29","14:00","22.6","","18.3","","77","","29","","4","","24.1","","98.70","","29","","","","Cloudy"
"2009-07-29 15:00","2009","07","29","15:00","22.4","","18.9","","81","","12","","9","","19.3","","98.69","","29","","","","Cloudy"
"2009-07-29 16:00","2009","07","29","16:00","20.9","","18.4","","86","","15","","13","","19.3","","98.69","","27","","","","Cloudy"
"2009-07-29 17:00","2009","07","29","17:00","20.9","","18.1","","84","","19","","9","","19.3","","98.70","","27","","","","Cloudy"
"2009-07-29 18:00","2009","07","29","18:00","21.7","","18.9","","84","","19","","7","","24.1","","98.68","","28","","","","Cloudy"
"2009-07-29 19:00","2009","07","29","19:00","21.6","","17.0","","75","","35","","20","","24.1","","98.72","","27","","","","Mostly Cloudy"
"2009-07-29 20:00","2009","07","29","20:00","20.2","","15.4","","74","","36","","19","","24.1","","98.78","","","","","","Mostly Cloudy"
"2009-07-29 21:00","2009","07","29","21:00","18.8","","13.3","","70","","36","","13","","24.1","","98.86","","","","","","Mainly Clear"
"2009-07-29 22:00","2009","07","29","22:00","17.8","","12.9","","73","","34","","9","","24.1","","98.88","","","","","","Mainly Clear"
"2009-07-29 23:00","2009","07","29","23:00","16.4","","13.2","","81","","31","","11","","24.1","","98.90","","","","","","Clear"
"2009-07-30 00:00","2009","07","30","00:00","16.2","","14.0","","87","","28","","9","","24.1","","98.97","","","","","","Mainly Clear"
"2009-07-30 01:00","2009","07","30","01:00","15.6","","14.2","","91","","29","","7","","24.1","","98.99","","","","","","Clear"
"2009-07-30 02:00","2009","07","30","02:00","15.3","","13.4","","88","","29","","6","","24.1","","99.01","","","","","","Clear"
"2009-07-30 03:00","2009","07","30","03:00","14.6","","12.1","","85","","33","","7","","24.1","","98.99","","","","","","Clear"
"2009-07-30 04:00","2009","07","30","04:00","13.5","","11.9","","90","","1","","9","","24.1","","99.00","","","","","","Clear"
"2009-07-30 05:00","2009","07","30","05:00","14.2","","11.7","","85","","35","","7","","24.1","","99.02","","","","","","Mainly Clear"
"2009-07-30 06:00","2009","07","30","06:00","14.9","","12.3","","84","","30","","6","","24.1","","99.06","","","","","","Mostly Cloudy"
"2009-07-30 07:00","2009","07","30","07:00","16.3","","13.0","","81","","23","","4","","24.1","","99.13","","","","","","Mostly Cloudy"
"2009-07-30 08:00","2009","07","30","08:00","18.2","","13.8","","75","","14","","4","","24.1","","99.14","","","","","","Mostly Cloudy"
"2009-07-30 09:00","2009","07","30","09:00","19.7","","14.3","","71","","14","","9","","24.1","","99.22","","","","","","Mostly Cloudy"
"2009-07-30 10:00","2009","07","30","10:00","21.8","","13.6","","60","","15","","9","","24.1","","99.20","","25","","","","Mostly Cloudy"
"2009-07-30 11:00","2009","07","30","11:00","22.6","","13.5","","56","","14","","11","","24.1","","99.17","","26","","","","Mostly Cloudy"
"2009-07-30 12:00","2009","07","30","12:00","23.3","","14.8","","59","","14","","15","","24.1","","99.13","","27","","","","Mostly Cloudy"
"2009-07-30 13:00","2009","07","30","13:00","23.7","","16.4","","64","","16","","15","","24.1","","99.08","","29","","","","Mostly Cloudy"
"2009-07-30 14:00","2009","07","30","14:00","25.1","","17.3","","62","","16","","15","","24.1","","99.06","","31","","","","Mostly Cloudy"
"2009-07-30 15:00","2009","07","30","15:00","24.8","","16.7","","61","","14","","15","","24.1","","99.03","","30","","","","Mostly Cloudy"
"2009-07-30 16:00","2009","07","30","16:00","25.2","","16.8","","60","","15","","13","","24.1","","99.00","","30","","","","Mostly Cloudy"
"2009-07-30 17:00","2009","07","30","17:00","24.6","","16.2","","60","","17","","15","","24.1","","98.97","","29","","","","Mostly Cloudy"
"2009-07-30 18:00","2009","07","30","18:00","23.8","","16.8","","65","","15","","13","","24.1","","98.96","","29","","","","Mostly Cloudy"
"2009-07-30 19:00","2009","07","30","19:00","22.4","","17.1","","72","","15","","11","","24.1","","98.95","","28","","","","Cloudy"
"2009-07-30 20:00","2009","07","30","20:00","22.9","","17.0","","69","","24","","9","","24.1","","98.95","","28","","","","Cloudy"
"2009-07-30 21:00","2009","07","30","21:00","22.4","","12.0","","52","","32","","7","","24.1","","98.98","","25","","","","Mostly Cloudy"
"2009-07-30 22:00","2009","07","30","22:00","21.2","","13.0","","59","","29","","9","","24.1","","99.00","","","","","","Mostly Cloudy"
"2009-07-30 23:00","2009","07","30","23:00","20.1","","14.1","","68","","32","","11","","24.1","","99.03","","","","","","Mostly Cloudy"
"2009-07-31 00:00","2009","07","31","00:00","19.5","","14.3","","72","","31","","11","","24.1","","99.01","","","","","","Mostly Cloudy"
"2009-07-31 01:00","2009","07","31","01:00","18.9","","14.1","","74","","31","","13","","24.1","","99.00","","","","","","Mostly Cloudy"
"2009-07-31 02:00","2009","07","31","02:00","18.3","","14.1","","76","","27","","4","","24.1","","98.98","","","","","","Mostly Cloudy"
"2009-07-31 03:00","2009","07","31","03:00","18.2","","14.0","","76","","30","","6","","24.1","","98.98","","","","","","Mostly Cloudy"
"2009-07-31 04:00","2009","07","31","04:00","17.0","","14.1","","83","","27","","4","","24.1","","98.95","","","","","","Mostly Cloudy"
"2009-07-31 05:00","2009","07","31","05:00","17.2","","14.2","","83","","27","","6","","24.1","","98.96","","","","","","Cloudy"
"2009-07-31 06:00","2009","07","31","06:00","18.5","","14.0","","75","","","","0","","24.1","","98.98","","","","","","Cloudy"
"2009-07-31 07:00","2009","07","31","07:00","18.8","","15.3","","80","","27","","4","","24.1","","99.00","","","","","","Mostly Cloudy"
"2009-07-31 08:00","2009","07","31","08:00","20.9","","14.5","","67","","","","0","","24.1","","99.02","","25","","","","Mostly Cloudy"
"2009-07-31 09:00","2009","07","31","09:00","21.6","","15.2","","67","","14","","6","","24.1","","99.03","","26","","","","Mostly Cloudy"
"2009-07-31 10:00","2009","07","31","10:00","23.2","","14.9","","60","","11","","4","","24.1","","99.02","","27","","","","Mainly Clear"
"2009-07-31 11:00","2009","07","31","11:00","24.4","","14.7","","55","","9","","6","","24.1","","99.03","","28","","","","Mainly Clear"
"2009-07-31 12:00","2009","07","31","12:00","24.7","","15.3","","56","","15","","11","","24.1","","99.02","","29","","","","Mostly Cloudy"
"2009-07-31 13:00","2009","07","31","13:00","25.1","","16.0","","57","","14","","20","","24.1","","99.02","","30","","","","Mostly Cloudy"
"2009-07-31 14:00","2009","07","31","14:00","25.3","","15.4","","54","","16","","22","","24.1","","99.02","","30","","","","Mostly Cloudy"
"2009-07-31 15:00","2009","07","31","15:00","27.2","","15.3","","48","","27","","28","","24.1","","99.02","","31","","","","Mostly Cloudy"
"2009-07-31 16:00","2009","07","31","16:00","25.2","","15.2","","54","","25","","28","","24.1","","99.02","","29","","","","Mostly Cloudy"
"2009-07-31 17:00","2009","07","31","17:00","25.9","","15.0","","51","","29","","30","","24.1","","99.03","","30","","","","Mostly Cloudy"
"2009-07-31 18:00","2009","07","31","18:00","25.6","","14.8","","51","","28","","17","","24.1","","99.10","","29","","","","Mostly Cloudy"
"2009-07-31 19:00","2009","07","31","19:00","24.4","","14.0","","52","","29","","19","","24.1","","99.18","","28","","","","Mainly Clear"
"2009-07-31 20:00","2009","07","31","20:00","22.7","","13.3","","55","","28","","15","","24.1","","99.26","","26","","","","Clear"
"2009-07-31 21:00","2009","07","31","21:00","20.8","","15.8","","73","","34","","17","","24.1","","99.37","","25","","","","Clear"
"2009-07-31 22:00","2009","07","31","22:00","19.5","","15.2","","76","","34","","13","","24.1","","99.45","","","","","","Clear"
"2009-07-31 23:00","2009","07","31","23:00","18.8","","15.2","","80","","32","","13","","24.1","","99.49","","","","","","Clear"
