"Station Name","TORONTO LESTER B. PEARSON INT'L A"
"Province","ONTARIO"
"Latitude","43.68"
"Longitude","-79.63"
"Elevation","173.40"
"Climate Identifier","6158733"
"WMO Identifier","71624"
"TC Identifier","YYZ"
"All times are specified in Local Standard Time (LST). Add 1 hour to adjust for Daylight Saving Time where and when it is observed."

"Legend"
"E","Estimated"
"M","Missing"
"NA","Not Available"

"Date/Time","Year","Month","Day","Time","Temp (°C)","Temp Flag","Dew Point Temp (°C)","Dew Point Temp Flag","Rel Hum (%)","Rel Hum Flag","Wind Dir (10s deg)","Wind Dir Flag","Wind Spd (km/h)","Wind Spd Flag","Visibility (km)","Visibility Flag","Stn Press (kPa)","Stn Press Flag","Hmdx","Hmdx Flag","Wind Chill","Wind Chill Flag","Weather"
"2009-08-01 00:00","2009","08","01","00:00","17.5","","14.3","","81","","33","","7","","24.1","","99.51","","","","","","Clear"
"2009-08-01 01:00","2009","08","01","01:00","17.3","","14.4","","83","","29","","6","","24.1","","99.52","","","","","","Clear"
"2009-08-01 02:00","2009","08","01","02:00","16.7","","14.4","","86","","26","","4","","24.1","","99.51","","","","","","Clear"
"2009-08-01 03:00","2009","08","01","03:00","15.8","","13.8","","88","","27","","7","","24.1","","99.54","","","","","","Clear"
"2009-08-01 04:00","2009","08","01","04:00","15.6","","13.9","","90","","25","","6","","24.1","","99.53","","","","","","Clear"
"2009-08-01 05:00","2009","08","01","05:00","15.8","","13.9","","88","","21","","4","","24.1","","99.54","","","","","","Clear"
"2009-08-01 06:00","2009","08","01","06:00","15.6","","13.9","","90","","","","0","","24.1","","99.62","","","","","","Mainly Clear"
"2009-08-01 07:00","2009","08","01","07:00","18.9","","14.8","","77","","","","0","","24.1","","99.60","","","","","","Mainly Clear"
"2009-08-01 08:00","2009","08","01","08:00","20.7","","15.0","","70","","20","","6","","24.1","","99.60","","25","","","","Mainly Clear"
"2009-08-01 09:00","2009","08","01","09:00","22.6","","14.9","","62","","20","","11","","24.1","","99.59","","27","","","","Mainly Clear"
"2009-08-01 10:00","2009","08","01","10:00","23.1","","16.2","","65","","15","","15","","24.1","","99.57","","28","","","","Mainly Clear"
"2009-08-01 11:00","2009","08","01","11:00","23.9","","18.5","","72","","16","","17","","24.1","","99.54","","30","","","","Mostly Cloudy"
"2009-08-01 12:00","2009","08","01","12:00","23.6","","18.5","","73","","15","","17","","24.1","","99.49","","30","","","","Mostly Cloudy"
"2009-08-01 13:00","2009","08","01","13:00","25.2","","19.2","","69","","16","","15","","24.1","","99.42","","32","","","","Mostly Cloudy"
"2009-08-01 14:00","2009","08","01","14:00","25.9","","18.1","","62","","18","","22","","24.1","","99.33","","32","","","","Mostly Cloudy"
"2009-08-01 15:00","2009","08","01","15:00","26.9","","15.8","","51","","21","","32","","24.1","","99.29","","31","","","","Mostly Cloudy"
"2009-08-01 16:00","2009","08","01","16:00","26.7","","15.0","","49","","21","","30","","24.1","","99.26","","31","","","","Mostly Cloudy"
"2009-08-01 17:00","2009","08","01","17:00","25.5","","13.3","","47","","21","","26","","24.1","","99.28","","28","","","","Mostly Cloudy"
"2009-08-01 18:00","2009","08","01","18:00","24.8","","13.4","","49","","21","","22","","24.1","","99.25","","28","","","","Mostly Cloudy"
"2009-08-01 19:00","2009","08","01","19:00","24.6","","13.2","","49","","21","","17","","24.1","","99.22","","28","","","","Mostly Cloudy"
"2009-08-01 20:00","2009","08","01","20:00","24.1","","13.5","","52","","20","","13","","24.1","","99.21","","27","","","","Cloudy"
"2009-08-01 21:00","2009","08","01","21:00","22.7","","14.8","","61","","15","","11","","24.1","","99.21","","27","","","","Cloudy"
"2009-08-01 22:00","2009","08","01","22:00","22.2","","15.2","","65","","17","","11","","24.1","","99.15","","26","","","","Cloudy"
"2009-08-01 23:00","2009","08","01","23:00","21.6","","16.0","","70","","18","","11","","24.1","","99.12","","26","","","","Cloudy"
"2009-08-02 00:00","2009","08","02","00:00","21.2","","16.2","","73","","20","","6","","24.1","","99.08","","26","","","","Cloudy"
"2009-08-02 01:00","2009","08","02","01:00","21.3","","16.0","","72","","22","","7","","24.1","","99.03","","26","","","","Cloudy"
"2009-08-02 02:00","2009","08","02","02:00","20.3","","15.8","","75","","25","","9","","24.1","","98.97","","25","","","","Cloudy"
"2009-08-02 03:00","2009","08","02","03:00","19.4","","16.1","","81","","22","","7","","24.1","","98.92","","","","","","Mostly Cloudy"
"2009-08-02 04:00","2009","08","02","04:00","20.0","","16.8","","82","","22","","6","","24.1","","98.89","","25","","","","Cloudy"
"2009-08-02 05:00","2009","08","02","05:00","20.0","","17.2","","84","","20","","6","","24.1","","98.86","","25","","","","Rain"
"2009-08-02 06:00","2009","08","02","06:00","20.0","","17.4","","85","","20","","4","","24.1","","98.88","","26","","","","Mostly Cloudy"
"2009-08-02 07:00","2009","08","02","07:00","20.1","","17.4","","84","","26","","11","","24.1","","98.91","","26","","","","Mostly Cloudy"
"2009-08-02 08:00","2009","08","02","08:00","20.4","","16.5","","78","","25","","13","","24.1","","98.92","","25","","","","Mostly Cloudy"
"2009-08-02 09:00","2009","08","02","09:00","21.2","","16.5","","75","","27","","13","","24.1","","98.88","","26","","","","Mostly Cloudy"
"2009-08-02 10:00","2009","08","02","10:00","21.7","","16.3","","71","","26","","7","","24.1","","98.87","","27","","","","Mostly Cloudy"
"2009-08-02 11:00","2009","08","02","11:00","22.9","","16.7","","68","","26","","19","","24.1","","98.89","","28","","","","Mostly Cloudy"
"2009-08-02 12:00","2009","08","02","12:00","23.5","","15.4","","60","","26","","20","","24.1","","98.85","","28","","","","Mostly Cloudy"
"2009-08-02 13:00","2009","08","02","13:00","24.1","","14.7","","56","","26","","30","","24.1","","98.81","","28","","","","Mostly Cloudy"
"2009-08-02 14:00","2009","08","02","14:00","24.8","","12.9","","48","","28","","32","","24.1","","98.82","","28","","","","Mostly Cloudy"
"2009-08-02 15:00","2009","08","02","15:00","25.0","","12.0","","44","","27","","35","","24.1","","98.83","","27","","","","Mainly Clear"
"2009-08-02 16:00","2009","08","02","16:00","24.7","","11.1","","42","","28","","37","","24.1","","98.88","","27","","","","Mainly Clear"
"2009-08-02 17:00","2009","08","02","17:00","23.4","","9.6","","42","","29","","33","","24.1","","98.95","","","","","","Mainly Clear"
"2009-08-02 18:00","2009","08","02","18:00","22.5","","8.8","","42","","29","","30","","24.1","","98.98","","","","","","Mainly Clear"
"2009-08-02 19:00","2009","08","02","19:00","21.2","","8.6","","44","","28","","22","","24.1","","99.07","","","","","","Mainly Clear"
"2009-08-02 20:00","2009","08","02","20:00","19.2","","9.1","","52","","27","","13","","24.1","","99.14","","","","","","Mainly Clear"
"2009-08-02 21:00","2009","08","02","21:00","18.4","","9.6","","56","","25","","7","","24.1","","99.22","","","","","","Mainly Clear"
"2009-08-02 22:00","2009","08","02","22:00","18.6","","9.7","","56","","22","","6","","24.1","","99.26","","","","","","Mainly Clear"
"2009-08-02 23:00","2009","08","02","23:00","17.7","","10.0","","61","","22","","6","","24.1","","99.28","","","","","","Mainly Clear"
"2009-08-03 00:00","2009","08","03","00:00","16.6","","10.5","","67","","24","","11","","24.1","","99.32","","","","","","Mainly Clear"
"2009-08-03 01:00","2009","08","03","01:00","15.6","","10.5","","72","","24","","9","","24.1","","99.34","","","","","","Mainly Clear"
"2009-08-03 02:00","2009","08","03","02:00","13.9","","10.4","","79","","27","","11","","24.1","","99.34","","","","","","Mainly Clear"
"2009-08-03 03:00","2009","08","03","03:00","12.9","","10.4","","85","","27","","9","","24.1","","99.31","","","","","","Mainly Clear"
"2009-08-03 04:00","2009","08","03","04:00","13.2","","10.5","","84","","27","","9","","24.1","","99.33","","","","","","Mainly Clear"
"2009-08-03 05:00","2009","08","03","05:00","13.9","","11.0","","83","","30","","6","","24.1","","99.35","","","","","","Mainly Clear"
"2009-08-03 06:00","2009","08","03","06:00","14.6","","11.4","","81","","28","","6","","24.1","","99.39","","","","","","Mainly Clear"
"2009-08-03 07:00","2009","08","03","07:00","16.5","","12.7","","78","","25","","6","","24.1","","99.41","","","","","","Mainly Clear"
"2009-08-03 08:00","2009","08","03","08:00","19.4","","12.9","","66","","20","","4","","24.1","","99.46","","","","","","Mainly Clear"
"2009-08-03 09:00","2009","08","03","09:00","21.9","","12.3","","54","","21","","17","","24.1","","99.48","","","","","","Mainly Clear"
"2009-08-03 10:00","2009","08","03","10:00","23.1","","10.6","","45","","24","","26","","24.1","","99.46","","25","","","","Mainly Clear"
"2009-08-03 11:00","2009","08","03","11:00","23.7","","11.1","","45","","23","","24","","24.1","","99.42","","26","","","","Mostly Cloudy"
"2009-08-03 12:00","2009","08","03","12:00","24.5","","12.6","","47","","22","","22","","24.1","","99.34","","27","","","","Mostly Cloudy"
"2009-08-03 13:00","2009","08","03","13:00","25.0","","13.0","","47","","22","","26","","24.1","","99.31","","28","","","","Mostly Cloudy"
"2009-08-03 14:00","2009","08","03","14:00","24.8","","14.6","","53","","17","","32","","24.1","","99.18","","29","","","","Mostly Cloudy"
"2009-08-03 15:00","2009","08","03","15:00","24.0","","14.4","","55","","17","","26","","24.1","","99.17","","28","","","","Mostly Cloudy"
"2009-08-03 16:00","2009","08","03","16:00","24.4","","14.8","","55","","19","","28","","24.1","","99.14","","28","","","","Mostly Cloudy"
"2009-08-03 17:00","2009","08","03","17:00","24.8","","12.6","","47","","21","","24","","24.1","","99.14","","27","","","","Mostly Cloudy"
"2009-08-03 18:00","2009","08","03","18:00","24.2","","12.8","","49","","21","","26","","24.1","","99.13","","27","","","","Mostly Cloudy"
"2009-08-03 19:00","2009","08","03","19:00","23.6","","13.4","","53","","21","","24","","24.1","","99.14","","27","","","","Mostly Cloudy"
"2009-08-03 20:00","2009","08","03","20:00","23.1","","13.9","","56","","20","","11","","24.1","","99.13","","26","","","","Mostly Cloudy"
"2009-08-03 21:00","2009","08","03","21:00","23.1","","14.9","","60","","19","","13","","24.1","","99.15","","27","","","","Mostly Cloudy"
"2009-08-03 22:00","2009","08","03","22:00","21.7","","16.3","","71","","15","","9","","24.1","","99.17","","27","","","","Rain Showers"
"2009-08-03 23:00","2009","08","03","23:00","21.9","","17.2","","75","","22","","11","","24.1","","99.18","","27","","","","Rain Showers"
"2009-08-04 00:00","2009","08","04","00:00","22.1","","17.3","","74","","20","","17","","24.1","","99.15","","28","","","","Mostly Cloudy"
"2009-08-04 01:00","2009","08","04","01:00","22.3","","17.4","","74","","22","","22","","24.1","","99.12","","28","","","","Mostly Cloudy"
"2009-08-04 02:00","2009","08","04","02:00","21.9","","17.3","","75","","22","","20","","24.1","","99.08","","27","","","","Mostly Cloudy"
"2009-08-04 03:00","2009","08","04","03:00","21.2","","17.2","","78","","22","","17","","24.1","","99.05","","27","","","","Mostly Cloudy"
"2009-08-04 04:00","2009","08","04","04:00","21.0","","17.4","","80","","21","","15","","24.1","","99.02","","27","","","","Mostly Cloudy"
"2009-08-04 05:00","2009","08","04","05:00","20.6","","17.4","","82","","22","","13","","24.1","","99.03","","26","","","","Mostly Cloudy"
"2009-08-04 06:00","2009","08","04","06:00","21.2","","18.0","","82","","21","","13","","24.1","","99.02","","27","","","","Mostly Cloudy"
"2009-08-04 07:00","2009","08","04","07:00","21.5","","18.4","","83","","22","","19","","24.1","","99.00","","28","","","","Mostly Cloudy"
"2009-08-04 08:00","2009","08","04","08:00","23.1","","19.4","","80","","23","","28","","24.1","","98.97","","30","","","","Mainly Clear"
"2009-08-04 09:00","2009","08","04","09:00","24.7","","19.9","","75","","22","","20","","24.1","","98.91","","32","","","","Mainly Clear"
"2009-08-04 10:00","2009","08","04","10:00","25.0","","20.2","","75","","22","","17","","16.1","","98.87","","33","","","","Mostly Cloudy"
"2009-08-04 11:00","2009","08","04","11:00","26.4","","20.7","","71","","22","","28","","16.1","","98.86","","35","","","","Mostly Cloudy"
"2009-08-04 12:00","2009","08","04","12:00","25.0","","19.8","","73","","23","","26","","12.9","","98.87","","32","","","","Mostly Cloudy"
"2009-08-04 13:00","2009","08","04","13:00","20.7","","19.3","","92","","23","","7","","4.8","","98.85","","28","","","","Thunderstorms,Rain Showers,Fog"
"2009-08-04 14:00","2009","08","04","14:00","23.4","","20.3","","83","","25","","7","","8.0","","98.82","","31","","","","Thunderstorms,Rain Showers,Haze"
"2009-08-04 15:00","2009","08","04","15:00","20.7","","18.5","","87","","19","","19","","9.7","","98.81","","27","","","","Thunderstorms,Rain Showers,Fog"
"2009-08-04 16:00","2009","08","04","16:00","21.9","","19.4","","86","","17","","13","","12.9","","98.77","","29","","","","Mostly Cloudy"
"2009-08-04 17:00","2009","08","04","17:00","24.7","","19.0","","71","","24","","26","","16.1","","98.76","","31","","","","Mainly Clear"
"2009-08-04 18:00","2009","08","04","18:00","23.9","","18.2","","70","","25","","20","","24.1","","98.73","","30","","","","Mostly Cloudy"
"2009-08-04 19:00","2009","08","04","19:00","23.4","","17.7","","70","","26","","15","","24.1","","98.72","","29","","","","Mostly Cloudy"
"2009-08-04 20:00","2009","08","04","20:00","21.9","","18.1","","79","","27","","19","","24.1","","98.82","","28","","","","Mostly Cloudy"
"2009-08-04 21:00","2009","08","04","21:00","19.4","","17.3","","88","","35","","20","","16.1","","98.97","","","","","","Rain Showers"
"2009-08-04 22:00","2009","08","04","22:00","18.5","","13.5","","73","","34","","26","","24.1","","99.00","","","","","","Mainly Clear"
"2009-08-04 23:00","2009","08","04","23:00","17.8","","13.2","","74","","33","","22","","24.1","","99.00","","","","","","Mostly Cloudy"
"2009-08-05 00:00","2009","08","05","00:00","16.7","","10.4","","66","","32","","30","","24.1","","99.05","","","","","","Mainly Clear"
"2009-08-05 01:00","2009","08","05","01:00","15.3","","10.1","","71","","32","","20","","24.1","","99.16","","","","","","Mainly Clear"
"2009-08-05 02:00","2009","08","05","02:00","13.6","","9.6","","77","","28","","15","","24.1","","99.24","","","","","","Clear"
"2009-08-05 03:00","2009","08","05","03:00","12.0","","9.1","","82","","26","","11","","24.1","","99.31","","","","","","Clear"
"2009-08-05 04:00","2009","08","05","04:00","11.7","","9.4","","86","","26","","13","","24.1","","99.33","","","","","","Clear"
"2009-08-05 05:00","2009","08","05","05:00","11.2","","9.2","","87","","27","","11","","24.1","","99.37","","","","","","Mainly Clear"
"2009-08-05 06:00","2009","08","05","06:00","11.9","","10.1","","89","","25","","9","","24.1","","99.45","","","","","","Mainly Clear"
"2009-08-05 07:00","2009","08","05","07:00","13.9","","10.7","","81","","27","","13","","24.1","","99.48","","","","","","Mainly Clear"
"2009-08-05 08:00","2009","08","05","08:00","16.0","","11.4","","74","","28","","17","","24.1","","99.51","","","","","","Mainly Clear"
"2009-08-05 09:00","2009","08","05","09:00","18.8","","11.9","","64","","31","","17","","24.1","","99.54","","","","","","Mainly Clear"
"2009-08-05 10:00","2009","08","05","10:00","19.8","","11.4","","58","","31","","20","","24.1","","99.56","","","","","","Mainly Clear"
"2009-08-05 11:00","2009","08","05","11:00","21.6","","11.4","","52","","31","","26","","24.1","","99.56","","","","","","Mainly Clear"
"2009-08-05 12:00","2009","08","05","12:00","22.3","","11.8","","51","","31","","19","","24.1","","99.51","","","","","","Mainly Clear"
"2009-08-05 13:00","2009","08","05","13:00","22.5","","10.8","","48","","30","","19","","24.1","","99.50","","","","","","Mainly Clear"
"2009-08-05 14:00","2009","08","05","14:00","23.7","","12.2","","48","","33","","17","","24.1","","99.49","","26","","","","Mainly Clear"
"2009-08-05 15:00","2009","08","05","15:00","23.8","","11.4","","46","","31","","26","","24.1","","99.48","","26","","","","Mainly Clear"
"2009-08-05 16:00","2009","08","05","16:00","22.7","","10.6","","46","","29","","17","","24.1","","99.46","","","","","","Mainly Clear"
"2009-08-05 17:00","2009","08","05","17:00","22.7","","10.2","","45","","32","","24","","24.1","","99.45","","","","","","Mostly Cloudy"
"2009-08-05 18:00","2009","08","05","18:00","22.3","","9.7","","45","","30","","22","","24.1","","99.44","","","","","","Mostly Cloudy"
"2009-08-05 19:00","2009","08","05","19:00","21.2","","9.9","","48","","30","","24","","24.1","","99.46","","","","","","Mostly Cloudy"
"2009-08-05 20:00","2009","08","05","20:00","20.4","","9.3","","49","","31","","17","","24.1","","99.50","","","","","","Mainly Clear"
"2009-08-05 21:00","2009","08","05","21:00","17.8","","10.1","","61","","28","","11","","24.1","","99.55","","","","","","Clear"
"2009-08-05 22:00","2009","08","05","22:00","16.8","","10.4","","66","","27","","9","","24.1","","99.54","","","","","","Clear"
"2009-08-05 23:00","2009","08","05","23:00","16.5","","10.9","","69","","28","","13","","24.1","","99.53","","","","","","Clear"
"2009-08-06 00:00","2009","08","06","00:00","16.9","","11.3","","70","","31","","9","","24.1","","99.57","","","","","","Mostly Cloudy"
"2009-08-06 01:00","2009","08","06","01:00","15.5","","11.1","","75","","27","","7","","24.1","","99.55","","","","","","Mostly Cloudy"
"2009-08-06 02:00","2009","08","06","02:00","16.0","","11.8","","76","","27","","6","","24.1","","99.54","","","","","","Mostly Cloudy"
"2009-08-06 03:00","2009","08","06","03:00","16.1","","11.9","","76","","28","","9","","24.1","","99.50","","","","","","Mostly Cloudy"
"2009-08-06 04:00","2009","08","06","04:00","16.2","","11.9","","76","","28","","11","","24.1","","99.50","","","","","","Mostly Cloudy"
"2009-08-06 05:00","2009","08","06","05:00","15.5","","11.0","","75","","32","","11","","24.1","","99.51","","","","","","Clear"
"2009-08-06 06:00","2009","08","06","06:00","16.2","","11.0","","71","","31","","19","","24.1","","99.55","","","","","","Mainly Clear"
"2009-08-06 07:00","2009","08","06","07:00","17.4","","11.6","","69","","30","","17","","24.1","","99.61","","","","","","Clear"
"2009-08-06 08:00","2009","08","06","08:00","18.8","","12.0","","65","","31","","20","","24.1","","99.63","","","","","","Clear"
"2009-08-06 09:00","2009","08","06","09:00","19.8","","11.7","","60","","31","","22","","24.1","","99.65","","","","","","Mostly Cloudy"
"2009-08-06 10:00","2009","08","06","10:00","19.9","","10.6","","55","","33","","28","","24.1","","99.66","","","","","","Mostly Cloudy"
"2009-08-06 11:00","2009","08","06","11:00","20.2","","10.8","","55","","31","","15","","24.1","","99.63","","","","","","Mostly Cloudy"
"2009-08-06 12:00","2009","08","06","12:00","22.1","","11.6","","51","","31","","17","","24.1","","99.58","","","","","","Mainly Clear"
"2009-08-06 13:00","2009","08","06","13:00","23.0","","11.2","","47","","30","","19","","24.1","","99.57","","25","","","","Mainly Clear"
"2009-08-06 14:00","2009","08","06","14:00","23.2","","11.8","","49","","29","","13","","24.1","","99.51","","25","","","","Mostly Cloudy"
"2009-08-06 15:00","2009","08","06","15:00","22.7","","10.5","","46","","32","","24","","24.1","","99.49","","","","","","Mostly Cloudy"
"2009-08-06 16:00","2009","08","06","16:00","24.0","","9.8","","41","","29","","22","","24.1","","99.48","","25","","","","Mostly Cloudy"
"2009-08-06 17:00","2009","08","06","17:00","24.0","","9.4","","40","","30","","26","","24.1","","99.49","","25","","","","Mainly Clear"
"2009-08-06 18:00","2009","08","06","18:00","23.0","","10.0","","44","","29","","30","","24.1","","99.49","","","","","","Mainly Clear"
"2009-08-06 19:00","2009","08","06","19:00","21.7","","10.0","","47","","30","","26","","24.1","","99.54","","","","","","Clear"
"2009-08-06 20:00","2009","08","06","20:00","20.4","","9.9","","51","","32","","19","","24.1","","99.58","","","","","","Clear"
"2009-08-06 21:00","2009","08","06","21:00","19.0","","10.2","","57","","32","","17","","24.1","","99.68","","","","","","Clear"
"2009-08-06 22:00","2009","08","06","22:00","17.0","","10.2","","64","","28","","11","","24.1","","99.70","","","","","","Clear"
"2009-08-06 23:00","2009","08","06","23:00","16.8","","10.2","","65","","30","","11","","24.1","","99.71","","","","","","Clear"
"2009-08-07 00:00","2009","08","07","00:00","16.1","","10.2","","68","","29","","7","","24.1","","99.70","","","","","","Clear"
"2009-08-07 01:00","2009","08","07","01:00","15.3","","10.2","","72","","28","","9","","24.1","","99.70","","","","","","Clear"
"2009-08-07 02:00","2009","08","07","02:00","15.2","","10.5","","74","","32","","13","","24.1","","99.71","","","","","","Clear"
"2009-08-07 03:00","2009","08","07","03:00","15.5","","10.3","","71","","32","","20","","24.1","","99.73","","","","","","Clear"
"2009-08-07 04:00","2009","08","07","04:00","15.2","","10.2","","72","","29","","17","","24.1","","99.79","","","","","","Clear"
"2009-08-07 05:00","2009","08","07","05:00","14.3","","10.4","","77","","31","","22","","24.1","","99.85","","","","","","Clear"
"2009-08-07 06:00","2009","08","07","06:00","14.7","","11.0","","78","","31","","20","","24.1","","99.91","","","","","","Mainly Clear"
"2009-08-07 07:00","2009","08","07","07:00","15.6","","11.3","","76","","31","","17","","24.1","","99.96","","","","","","Mainly Clear"
"2009-08-07 08:00","2009","08","07","08:00","17.5","","12.8","","74","","33","","20","","24.1","","100.02","","","","","","Mainly Clear"
"2009-08-07 09:00","2009","08","07","09:00","18.9","","13.0","","69","","34","","15","","24.1","","100.01","","","","","","Mainly Clear"
"2009-08-07 10:00","2009","08","07","10:00","20.0","","13.0","","64","","33","","17","","24.1","","100.02","","","","","","Mainly Clear"
"2009-08-07 11:00","2009","08","07","11:00","20.6","","11.2","","55","","36","","6","","24.1","","99.98","","","","","","Mainly Clear"
"2009-08-07 12:00","2009","08","07","12:00","21.6","","11.4","","52","","2","","7","","24.1","","100.00","","","","","","Mostly Cloudy"
"2009-08-07 13:00","2009","08","07","13:00","21.6","","12.0","","54","","23","","4","","24.1","","99.98","","","","","","Mostly Cloudy"
"2009-08-07 14:00","2009","08","07","14:00","21.0","","12.8","","59","","15","","19","","24.1","","99.97","","","","","","Mostly Cloudy"
"2009-08-07 15:00","2009","08","07","15:00","20.6","","12.2","","59","","16","","15","","24.1","","99.98","","","","","","Mostly Cloudy"
"2009-08-07 16:00","2009","08","07","16:00","21.2","","11.8","","55","","15","","13","","24.1","","99.98","","","","","","Mostly Cloudy"
"2009-08-07 17:00","2009","08","07","17:00","20.9","","11.1","","53","","14","","9","","24.1","","99.99","","","","","","Mostly Cloudy"
"2009-08-07 18:00","2009","08","07","18:00","21.0","","10.7","","52","","11","","11","","24.1","","99.99","","","","","","Mostly Cloudy"
"2009-08-07 19:00","2009","08","07","19:00","20.3","","10.4","","53","","7","","9","","24.1","","100.03","","","","","","Mostly Cloudy"
"2009-08-07 20:00","2009","08","07","20:00","19.5","","10.6","","56","","","","0","","24.1","","99.99","","","","","","Mostly Cloudy"
"2009-08-07 21:00","2009","08","07","21:00","18.1","","9.0","","55","","34","","17","","24.1","","100.10","","","","","","Mostly Cloudy"
"2009-08-07 22:00","2009","08","07","22:00","16.5","","9.3","","62","","36","","19","","24.1","","100.11","","","","","","Mostly Cloudy"
"2009-08-07 23:00","2009","08","07","23:00","16.1","","9.3","","64","","34","","17","","24.1","","100.15","","","","","","Mostly Cloudy"
"2009-08-08 00:00","2009","08","08","00:00","15.1","","9.4","","69","","34","","13","","24.1","","100.19","","","","","","Mostly Cloudy"
"2009-08-08 01:00","2009","08","08","01:00","14.5","","9.5","","72","","33","","9","","24.1","","100.20","","","","","","Mostly Cloudy"
"2009-08-08 02:00","2009","08","08","02:00","13.9","","8.5","","70","","36","","7","","24.1","","100.18","","","","","","Mostly Cloudy"
"2009-08-08 03:00","2009","08","08","03:00","13.7","","9.2","","74","","31","","7","","24.1","","100.17","","","","","","Mostly Cloudy"
"2009-08-08 04:00","2009","08","08","04:00","12.6","","8.3","","75","","31","","9","","24.1","","100.17","","","","","","Mainly Clear"
"2009-08-08 05:00","2009","08","08","05:00","13.0","","8.6","","75","","32","","7","","24.1","","100.21","","","","","","Mainly Clear"
"2009-08-08 06:00","2009","08","08","06:00","13.9","","9.7","","76","","","","0","","24.1","","100.22","","","","","","Mostly Cloudy"
"2009-08-08 07:00","2009","08","08","07:00","16.0","","11.1","","73","","","","0","","24.1","","100.25","","","","","","Mostly Cloudy"
"2009-08-08 08:00","2009","08","08","08:00","17.7","","11.4","","67","","","","0","","24.1","","100.20","","","","","","Cloudy"
"2009-08-08 09:00","2009","08","08","09:00","18.4","","13.4","","73","","17","","9","","24.1","","100.20","","","","","","Cloudy"
"2009-08-08 10:00","2009","08","08","10:00","19.3","","14.1","","72","","16","","9","","24.1","","100.18","","","","","","Cloudy"
"2009-08-08 11:00","2009","08","08","11:00","20.9","","12.5","","59","","13","","11","","24.1","","100.13","","","","","","Cloudy"
"2009-08-08 12:00","2009","08","08","12:00","21.7","","13.3","","59","","14","","15","","24.1","","100.07","","25","","","","Cloudy"
"2009-08-08 13:00","2009","08","08","13:00","21.1","","14.1","","64","","17","","9","","24.1","","100.01","","25","","","","Cloudy"
"2009-08-08 14:00","2009","08","08","14:00","20.1","","13.8","","67","","15","","13","","24.1","","99.92","","","","","","Cloudy"
"2009-08-08 15:00","2009","08","08","15:00","20.1","","15.2","","73","","14","","15","","24.1","","99.91","","","","","","Cloudy"
"2009-08-08 16:00","2009","08","08","16:00","19.4","","16.4","","83","","15","","19","","24.1","","99.84","","","","","","Rain"
"2009-08-08 17:00","2009","08","08","17:00","19.4","","16.7","","84","","15","","15","","24.1","","99.79","","","","","","Rain"
"2009-08-08 18:00","2009","08","08","18:00","18.7","","17.1","","90","","16","","17","","16.1","","99.74","","","","","","Rain"
"2009-08-08 19:00","2009","08","08","19:00","18.1","","17.0","","93","","13","","13","","16.1","","99.69","","","","","","Rain"
"2009-08-08 20:00","2009","08","08","20:00","18.2","","17.4","","95","","14","","11","","8.0","","99.68","","","","","","Rain,Fog"
"2009-08-08 21:00","2009","08","08","21:00","18.1","","17.7","","98","","14","","15","","8.0","","99.67","","","","","","Rain,Fog"
"2009-08-08 22:00","2009","08","08","22:00","18.5","","18.2","","98","","18","","11","","8.0","","99.65","","","","","","Rain,Fog"
"2009-08-08 23:00","2009","08","08","23:00","18.5","","18.4","","99","","17","","13","","4.0","","99.62","","","","","","Rain,Fog"
"2009-08-09 00:00","2009","08","09","00:00","18.6","","18.5","","99","","17","","13","","4.0","","99.56","","","","","","Rain,Fog"
"2009-08-09 01:00","2009","08","09","01:00","18.7","","18.6","","99","","15","","9","","4.8","","99.47","","","","","","Fog"
"2009-08-09 02:00","2009","08","09","02:00","18.8","","18.7","","99","","14","","6","","4.8","","99.47","","","","","","Fog"
"2009-08-09 03:00","2009","08","09","03:00","18.8","","18.5","","98","","11","","7","","8.0","","99.38","","","","","","Fog"
"2009-08-09 04:00","2009","08","09","04:00","18.6","","18.3","","98","","16","","6","","8.0","","99.38","","","","","","Fog"
"2009-08-09 05:00","2009","08","09","05:00","18.8","","18.3","","97","","9","","4","","9.7","","99.39","","","","","","Fog"
"2009-08-09 06:00","2009","08","09","06:00","19.1","","18.5","","96","","9","","4","","9.7","","99.34","","","","","","Fog"
"2009-08-09 07:00","2009","08","09","07:00","19.8","","18.8","","94","","9","","4","","9.7","","99.34","","","","","","Fog"
"2009-08-09 08:00","2009","08","09","08:00","19.6","","18.7","","95","","19","","13","","8.0","","99.44","","","","","","Fog"
"2009-08-09 09:00","2009","08","09","09:00","20.5","","19.2","","92","","16","","9","","9.7","","99.40","","27","","","","Fog"
"2009-08-09 10:00","2009","08","09","10:00","22.0","","20.2","","90","","23","","9","","11.3","","99.39","","30","","","","Cloudy"
"2009-08-09 11:00","2009","08","09","11:00","20.9","","20.5","","98","","23","","9","","12.9","","99.28","","29","","","","Thunderstorms,Rain Showers"
"2009-08-09 12:00","2009","08","09","12:00","21.9","","21.0","","95","","20","","11","","12.9","","99.22","","30","","","","Mostly Cloudy"
"2009-08-09 13:00","2009","08","09","13:00","25.6","","23.1","","86","","22","","20","","19.3","","99.15","","36","","","","Mainly Clear"
"2009-08-09 14:00","2009","08","09","14:00","25.6","","23.0","","86","","14","","17","","19.3","","99.17","","36","","","","Mainly Clear"
"2009-08-09 15:00","2009","08","09","15:00","24.8","","22.3","","86","","14","","9","","19.3","","99.13","","34","","","","Cloudy"
"2009-08-09 16:00","2009","08","09","16:00","26.8","","23.2","","81","","17","","9","","19.3","","99.09","","37","","","","Cloudy"
"2009-08-09 17:00","2009","08","09","17:00","27.4","","23.6","","80","","16","","9","","19.3","","99.08","","38","","","","Cloudy"
"2009-08-09 18:00","2009","08","09","18:00","28.9","","24.8","","79","","24","","22","","14.5","","99.05","","41","","","","Mostly Cloudy"
"2009-08-09 19:00","2009","08","09","19:00","28.6","","24.8","","80","","23","","13","","12.9","","98.94","","41","","","","Cloudy"
"2009-08-09 20:00","2009","08","09","20:00","20.7","","20.4","","98","","30","","28","","11.3","","99.23","","29","","","","Thunderstorms,Moderate Rain Showers"
"2009-08-09 21:00","2009","08","09","21:00","21.6","","21.2","","98","","30","","19","","12.9","","99.13","","30","","","","Thunderstorms,Rain Showers"
"2009-08-09 22:00","2009","08","09","22:00","21.8","","20.9","","95","","24","","19","","19.3","","99.12","","30","","","","Mostly Cloudy"
"2009-08-09 23:00","2009","08","09","23:00","22.3","","20.4","","89","","30","","7","","24.1","","99.07","","30","","","","Cloudy"
"2009-08-10 00:00","2009","08","10","00:00","22.6","","21.3","","92","","13","","6","","24.1","","99.04","","31","","","","Mostly Cloudy"
"2009-08-10 01:00","2009","08","10","01:00","21.7","","21.3","","98","","21","","7","","16.1","","99.14","","30","","","","Cloudy"
"2009-08-10 02:00","2009","08","10","02:00","22.8","","22.0","","95","","23","","17","","19.3","","99.11","","32","","","","Rain Showers"
"2009-08-10 03:00","2009","08","10","03:00","22.5","","21.7","","95","","23","","19","","19.3","","99.07","","32","","","","Mostly Cloudy"
"2009-08-10 04:00","2009","08","10","04:00","22.7","","22.0","","96","","29","","13","","16.1","","99.17","","32","","","","Thunderstorms"
"2009-08-10 05:00","2009","08","10","05:00","21.9","","21.4","","97","","24","","11","","14.5","","99.15","","31","","","","Mostly Cloudy"
"2009-08-10 06:00","2009","08","10","06:00","22.4","","21.1","","92","","26","","19","","24.1","","99.14","","31","","","","Mostly Cloudy"
"2009-08-10 07:00","2009","08","10","07:00","23.1","","21.4","","90","","28","","15","","24.1","","99.12","","32","","","","Mostly Cloudy"
"2009-08-10 08:00","2009","08","10","08:00","24.0","","22.1","","89","","29","","19","","24.1","","99.09","","33","","","","Mostly Cloudy"
"2009-08-10 09:00","2009","08","10","09:00","25.1","","22.7","","87","","27","","19","","24.1","","99.17","","35","","","","Mostly Cloudy"
"2009-08-10 10:00","2009","08","10","10:00","26.0","","22.8","","83","","26","","17","","24.1","","99.14","","36","","","","Mostly Cloudy"
"2009-08-10 11:00","2009","08","10","11:00","26.5","","22.9","","81","","25","","19","","24.1","","99.17","","37","","","","Mostly Cloudy"
"2009-08-10 12:00","2009","08","10","12:00","27.5","","22.6","","75","","26","","20","","24.1","","99.17","","37","","","","Mostly Cloudy"
"2009-08-10 13:00","2009","08","10","13:00","29.0","","22.2","","67","","27","","26","","24.1","","99.11","","39","","","","Mainly Clear"
"2009-08-10 14:00","2009","08","10","14:00","29.9","","22.6","","65","","27","","19","","24.1","","99.04","","40","","","","Mainly Clear"
"2009-08-10 15:00","2009","08","10","15:00","27.2","","21.5","","71","","30","","46","","24.1","","99.00","","36","","","","Rain Showers"
"2009-08-10 16:00","2009","08","10","16:00","25.2","","20.9","","77","","35","","44","","24.1","","99.01","","34","","","","Mostly Cloudy"
"2009-08-10 17:00","2009","08","10","17:00","24.4","","21.0","","81","","1","","13","","24.1","","99.04","","33","","","","Mostly Cloudy"
"2009-08-10 18:00","2009","08","10","18:00","24.8","","20.5","","77","","36","","17","","24.1","","99.05","","33","","","","Mostly Cloudy"
"2009-08-10 19:00","2009","08","10","19:00","23.8","","19.7","","78","","35","","17","","24.1","","99.07","","31","","","","Mainly Clear"
"2009-08-10 20:00","2009","08","10","20:00","22.9","","19.3","","80","","36","","19","","24.1","","99.08","","30","","","","Mainly Clear"
"2009-08-10 21:00","2009","08","10","21:00","22.2","","19.5","","85","","33","","11","","24.1","","99.17","","29","","","","Clear"
"2009-08-10 22:00","2009","08","10","22:00","21.3","","19.2","","88","","27","","7","","24.1","","99.18","","28","","","","Clear"
"2009-08-10 23:00","2009","08","10","23:00","21.0","","18.3","","85","","27","","6","","24.1","","99.14","","27","","","","Clear"
"2009-08-11 00:00","2009","08","11","00:00","19.8","","17.6","","87","","26","","9","","24.1","","99.14","","","","","","Clear"
"2009-08-11 01:00","2009","08","11","01:00","19.5","","17.5","","88","","32","","9","","24.1","","99.16","","","","","","Clear"
"2009-08-11 02:00","2009","08","11","02:00","19.5","","17.3","","87","","31","","9","","24.1","","99.17","","","","","","Mostly Cloudy"
"2009-08-11 03:00","2009","08","11","03:00","19.2","","16.5","","84","","31","","15","","24.1","","99.16","","","","","","Mostly Cloudy"
"2009-08-11 04:00","2009","08","11","04:00","19.7","","15.7","","78","","33","","11","","24.1","","99.14","","","","","","Mostly Cloudy"
"2009-08-11 05:00","2009","08","11","05:00","19.1","","15.7","","81","","34","","6","","24.1","","99.16","","","","","","Mostly Cloudy"
"2009-08-11 06:00","2009","08","11","06:00","20.2","","15.9","","76","","","","0","","24.1","","99.21","","25","","","","Mostly Cloudy"
"2009-08-11 07:00","2009","08","11","07:00","21.3","","16.4","","74","","23","","4","","24.1","","99.24","","26","","","","Mostly Cloudy"
"2009-08-11 08:00","2009","08","11","08:00","22.3","","16.0","","68","","30","","6","","24.1","","99.28","","27","","","","Mostly Cloudy"
"2009-08-11 09:00","2009","08","11","09:00","22.9","","17.1","","70","","31","","15","","24.1","","99.29","","28","","","","Mostly Cloudy"
"2009-08-11 10:00","2009","08","11","10:00","23.8","","17.1","","66","","33","","11","","24.1","","99.28","","29","","","","Mostly Cloudy"
"2009-08-11 11:00","2009","08","11","11:00","25.1","","18.2","","66","","","","0","","24.1","","99.29","","31","","","","Mostly Cloudy"
"2009-08-11 12:00","2009","08","11","12:00","25.2","","17.5","","62","","3","","9","","24.1","","99.24","","31","","","","Mostly Cloudy"
"2009-08-11 13:00","2009","08","11","13:00","17.5","","15.0","","85","","6","","41","","0.4","","99.25","","","","","","Heavy Thunderstorms,Heavy Rain Showers"
"2009-08-11 14:00","2009","08","11","14:00","19.6","","19.5","","99","","","","0","","24.1","","99.23","","","","","","Thunderstorms,Rain Showers"
"2009-08-11 15:00","2009","08","11","15:00","24.3","","18.1","","68","","36","","11","","24.1","","99.16","","30","","","","Mostly Cloudy"
"2009-08-11 16:00","2009","08","11","16:00","22.4","","17.8","","75","","34","","32","","6.4","","99.20","","28","","","","Rain Showers"
"2009-08-11 17:00","2009","08","11","17:00","21.6","","19.4","","87","","31","","15","","24.1","","99.21","","29","","","","Rain Showers"
"2009-08-11 18:00","2009","08","11","18:00","22.8","","19.5","","82","","33","","19","","24.1","","99.17","","30","","","","Mostly Cloudy"
"2009-08-11 19:00","2009","08","11","19:00","22.5","","17.7","","74","","32","","15","","24.1","","99.21","","28","","","","Mainly Clear"
"2009-08-11 20:00","2009","08","11","20:00","21.9","","17.2","","75","","34","","15","","24.1","","99.24","","27","","","","Mainly Clear"
"2009-08-11 21:00","2009","08","11","21:00","21.5","","17.1","","76","","33","","13","","24.1","","99.30","","27","","","","Mainly Clear"
"2009-08-11 22:00","2009","08","11","22:00","20.5","","17.1","","81","","35","","26","","24.1","","99.33","","26","","","","Mainly Clear"
"2009-08-11 23:00","2009","08","11","23:00","19.0","","16.7","","87","","34","","19","","24.1","","99.38","","","","","","Clear"
"2009-08-12 00:00","2009","08","12","00:00","18.1","","16.8","","92","","33","","17","","24.1","","99.37","","","","","","Clear"
"2009-08-12 01:00","2009","08","12","01:00","17.9","","16.4","","91","","34","","22","","24.1","","99.37","","","","","","Clear"
"2009-08-12 02:00","2009","08","12","02:00","17.7","","17.1","","96","","35","","17","","24.1","","99.39","","","","","","Cloudy"
"2009-08-12 03:00","2009","08","12","03:00","18.3","","17.5","","95","","34","","15","","24.1","","99.41","","","","","","Mostly Cloudy"
"2009-08-12 04:00","2009","08","12","04:00","18.2","","17.6","","96","","36","","20","","24.1","","99.43","","","","","","Cloudy"
"2009-08-12 05:00","2009","08","12","05:00","18.3","","17.7","","96","","35","","19","","19.3","","99.45","","","","","","Cloudy"
"2009-08-12 06:00","2009","08","12","06:00","18.4","","17.7","","96","","36","","17","","19.3","","99.50","","","","","","Cloudy"
"2009-08-12 07:00","2009","08","12","07:00","18.8","","18.0","","95","","36","","19","","19.3","","99.57","","","","","","Cloudy"
"2009-08-12 08:00","2009","08","12","08:00","19.8","","18.4","","92","","36","","11","","19.3","","99.64","","","","","","Mostly Cloudy"
"2009-08-12 09:00","2009","08","12","09:00","20.9","","18.9","","88","","34","","9","","24.1","","99.67","","28","","","","Mostly Cloudy"
"2009-08-12 10:00","2009","08","12","10:00","21.8","","18.8","","83","","","","0","","24.1","","99.69","","28","","","","Mostly Cloudy"
"2009-08-12 11:00","2009","08","12","11:00","23.4","","19.3","","78","","","","0","","24.1","","99.69","","30","","","","Mostly Cloudy"
"2009-08-12 12:00","2009","08","12","12:00","24.1","","19.2","","74","","29","","4","","24.1","","99.69","","31","","","","Mostly Cloudy"
"2009-08-12 13:00","2009","08","12","13:00","20.1","","18.6","","91","","1","","22","","2.4","","99.71","","27","","","","Thunderstorms,Rain Showers,Fog"
"2009-08-12 14:00","2009","08","12","14:00","22.3","","19.2","","83","","","","0","","24.1","","99.68","","29","","","","Mostly Cloudy"
"2009-08-12 15:00","2009","08","12","15:00","23.3","","18.5","","74","","","","0","","24.1","","99.64","","30","","","","Mostly Cloudy"
"2009-08-12 16:00","2009","08","12","16:00","24.0","","18.4","","71","","23","","6","","24.1","","99.63","","30","","","","Mostly Cloudy"
"2009-08-12 17:00","2009","08","12","17:00","23.8","","18.6","","73","","17","","6","","24.1","","99.63","","30","","","","Mostly Cloudy"
"2009-08-12 18:00","2009","08","12","18:00","24.8","","18.9","","70","","26","","6","","24.1","","99.62","","31","","","","Mostly Cloudy"
"2009-08-12 19:00","2009","08","12","19:00","23.7","","18.3","","72","","24","","6","","24.1","","99.64","","30","","","","Mainly Clear"
"2009-08-12 20:00","2009","08","12","20:00","23.5","","17.1","","67","","","","0","","24.1","","99.67","","29","","","","Mainly Clear"
"2009-08-12 21:00","2009","08","12","21:00","21.7","","16.8","","74","","1","","17","","24.1","","99.74","","27","","","","Mainly Clear"
"2009-08-12 22:00","2009","08","12","22:00","20.3","","16.1","","77","","35","","13","","24.1","","99.75","","25","","","","Mainly Clear"
"2009-08-12 23:00","2009","08","12","23:00","18.9","","15.7","","82","","36","","9","","24.1","","99.77","","","","","","Clear"
"2009-08-13 00:00","2009","08","13","00:00","18.4","","15.9","","85","","32","","11","","24.1","","99.78","","","","","","Clear"
"2009-08-13 01:00","2009","08","13","01:00","18.6","","15.5","","82","","33","","13","","24.1","","99.76","","","","","","Clear"
"2009-08-13 02:00","2009","08","13","02:00","18.1","","15.3","","84","","34","","9","","24.1","","99.77","","","","","","Clear"
"2009-08-13 03:00","2009","08","13","03:00","17.8","","14.7","","82","","35","","15","","24.1","","99.82","","","","","","Clear"
"2009-08-13 04:00","2009","08","13","04:00","17.4","","14.6","","84","","36","","6","","24.1","","99.86","","","","","","Clear"
"2009-08-13 05:00","2009","08","13","05:00","17.2","","15.0","","87","","33","","11","","24.1","","99.88","","","","","","Clear"
"2009-08-13 06:00","2009","08","13","06:00","17.4","","15.3","","87","","35","","9","","24.1","","99.90","","","","","","Clear"
"2009-08-13 07:00","2009","08","13","07:00","18.9","","16.0","","83","","34","","15","","24.1","","99.92","","","","","","Clear"
"2009-08-13 08:00","2009","08","13","08:00","21.0","","17.1","","78","","35","","9","","24.1","","99.96","","26","","","","Clear"
"2009-08-13 09:00","2009","08","13","09:00","23.0","","17.8","","73","","34","","7","","24.1","","99.97","","29","","","","Clear"
"2009-08-13 10:00","2009","08","13","10:00","24.8","","18.0","","66","","32","","6","","24.1","","100.01","","31","","","","Clear"
"2009-08-13 11:00","2009","08","13","11:00","25.8","","18.4","","64","","33","","9","","24.1","","99.99","","32","","","","Mainly Clear"
"2009-08-13 12:00","2009","08","13","12:00","26.8","","18.2","","59","","3","","11","","24.1","","99.97","","33","","","","Mainly Clear"
"2009-08-13 13:00","2009","08","13","13:00","27.6","","16.2","","50","","17","","4","","24.1","","99.95","","32","","","","Mainly Clear"
"2009-08-13 14:00","2009","08","13","14:00","27.5","","18.6","","58","","14","","7","","24.1","","99.94","","34","","","","Mainly Clear"
"2009-08-13 15:00","2009","08","13","15:00","27.3","","17.9","","57","","15","","19","","24.1","","99.93","","33","","","","Mainly Clear"
"2009-08-13 16:00","2009","08","13","16:00","27.4","","17.3","","54","","14","","15","","24.1","","99.92","","33","","","","Mainly Clear"
"2009-08-13 17:00","2009","08","13","17:00","27.0","","17.1","","55","","15","","15","","24.1","","99.93","","32","","","","Mainly Clear"
"2009-08-13 18:00","2009","08","13","18:00","26.0","","16.4","","55","","15","","11","","24.1","","99.92","","31","","","","Mainly Clear"
"2009-08-13 19:00","2009","08","13","19:00","25.1","","16.1","","57","","16","","7","","24.1","","99.91","","30","","","","Mainly Clear"
"2009-08-13 20:00","2009","08","13","20:00","24.1","","16.4","","62","","16","","6","","24.1","","99.94","","29","","","","Mainly Clear"
"2009-08-13 21:00","2009","08","13","21:00","23.4","","16.2","","64","","17","","6","","24.1","","99.96","","28","","","","Mainly Clear"
"2009-08-13 22:00","2009","08","13","22:00","23.0","","16.1","","65","","29","","4","","24.1","","99.97","","28","","","","Clear"
"2009-08-13 23:00","2009","08","13","23:00","19.9","","16.7","","82","","24","","7","","24.1","","100.01","","","","","","Clear"
"2009-08-14 00:00","2009","08","14","00:00","20.4","","16.5","","78","","36","","6","","24.1","","100.03","","25","","","","Clear"
"2009-08-14 01:00","2009","08","14","01:00","20.2","","16.6","","80","","1","","4","","24.1","","100.04","","25","","","","Clear"
"2009-08-14 02:00","2009","08","14","02:00","19.5","","16.5","","83","","32","","6","","24.1","","100.04","","","","","","Clear"
"2009-08-14 03:00","2009","08","14","03:00","19.1","","16.1","","83","","27","","4","","24.1","","100.02","","","","","","Clear"
"2009-08-14 04:00","2009","08","14","04:00","18.6","","15.5","","82","","31","","6","","24.1","","100.04","","","","","","Clear"
"2009-08-14 05:00","2009","08","14","05:00","17.1","","15.0","","87","","26","","7","","24.1","","100.08","","","","","","Clear"
"2009-08-14 06:00","2009","08","14","06:00","18.8","","16.0","","84","","","","0","","24.1","","100.12","","","","","","Clear"
"2009-08-14 07:00","2009","08","14","07:00","20.9","","16.7","","77","","30","","4","","24.1","","100.17","","26","","","","Clear"
"2009-08-14 08:00","2009","08","14","08:00","23.3","","17.6","","70","","","","0","","24.1","","100.19","","29","","","","Clear"
"2009-08-14 09:00","2009","08","14","09:00","25.3","","18.2","","65","","25","","4","","24.1","","100.18","","31","","","","Clear"
"2009-08-14 10:00","2009","08","14","10:00","26.3","","19.0","","64","","12","","6","","24.1","","100.18","","33","","","","Clear"
"2009-08-14 11:00","2009","08","14","11:00","26.5","","19.2","","64","","13","","13","","24.1","","100.17","","33","","","","Clear"
"2009-08-14 12:00","2009","08","14","12:00","26.7","","18.9","","62","","14","","15","","24.1","","100.13","","33","","","","Mainly Clear"
"2009-08-14 13:00","2009","08","14","13:00","27.0","","19.6","","64","","15","","20","","24.1","","100.09","","34","","","","Mainly Clear"
"2009-08-14 14:00","2009","08","14","14:00","27.4","","19.6","","62","","15","","17","","24.1","","100.06","","35","","","","Mainly Clear"
"2009-08-14 15:00","2009","08","14","15:00","28.0","","19.2","","59","","14","","15","","24.1","","100.03","","35","","","","Mainly Clear"
"2009-08-14 16:00","2009","08","14","16:00","27.2","","18.0","","57","","13","","17","","24.1","","99.99","","33","","","","Mainly Clear"
"2009-08-14 17:00","2009","08","14","17:00","27.5","","18.6","","58","","15","","15","","24.1","","99.98","","34","","","","Clear"
"2009-08-14 18:00","2009","08","14","18:00","26.5","","18.6","","62","","16","","11","","24.1","","99.98","","33","","","","Clear"
"2009-08-14 19:00","2009","08","14","19:00","25.2","","19.6","","71","","16","","9","","24.1","","99.97","","32","","","","Clear"
"2009-08-14 20:00","2009","08","14","20:00","23.7","","20.3","","81","","16","","11","","19.3","","99.95","","32","","","","Clear"
"2009-08-14 21:00","2009","08","14","21:00","23.2","","20.4","","84","","17","","7","","24.1","","99.96","","31","","","","Clear"
"2009-08-14 22:00","2009","08","14","22:00","23.2","","19.2","","78","","17","","4","","24.1","","99.95","","30","","","","Clear"
"2009-08-14 23:00","2009","08","14","23:00","23.0","","19.0","","78","","","","0","","24.1","","99.95","","30","","","","Clear"
"2009-08-15 00:00","2009","08","15","00:00","22.6","","19.0","","80","","15","","4","","24.1","","99.94","","29","","","","Clear"
"2009-08-15 01:00","2009","08","15","01:00","21.9","","19.1","","84","","29","","4","","24.1","","99.95","","29","","","","Clear"
"2009-08-15 02:00","2009","08","15","02:00","20.8","","18.6","","87","","30","","4","","24.1","","99.95","","27","","","","Clear"
"2009-08-15 03:00","2009","08","15","03:00","20.2","","18.7","","91","","","","0","","19.3","","99.95","","27","","","","Clear"
"2009-08-15 04:00","2009","08","15","04:00","19.8","","17.9","","89","","","","0","","19.3","","99.93","","","","","","Clear"
"2009-08-15 05:00","2009","08","15","05:00","19.0","","16.9","","88","","","","0","","16.1","","99.90","","","","","","Clear"
"2009-08-15 06:00","2009","08","15","06:00","20.0","","16.8","","82","","33","","4","","12.9","","99.95","","25","","","","Mainly Clear"
"2009-08-15 07:00","2009","08","15","07:00","21.1","","19.0","","88","","","","0","","16.1","","100.00","","28","","","","Clear"
"2009-08-15 08:00","2009","08","15","08:00","23.3","","17.6","","70","","","","0","","19.3","","100.05","","29","","","","Clear"
"2009-08-15 09:00","2009","08","15","09:00","25.3","","19.0","","68","","18","","7","","19.3","","100.05","","32","","","","Clear"
"2009-08-15 10:00","2009","08","15","10:00","27.0","","18.5","","60","","28","","7","","24.1","","100.05","","33","","","","Clear"
"2009-08-15 11:00","2009","08","15","11:00","28.2","","19.0","","57","","30","","15","","24.1","","99.99","","35","","","","Mainly Clear"
"2009-08-15 12:00","2009","08","15","12:00","28.3","","21.2","","65","","16","","9","","24.1","","99.94","","37","","","","Mainly Clear"
"2009-08-15 13:00","2009","08","15","13:00","27.9","","20.8","","65","","13","","13","","24.1","","99.92","","36","","","","Mainly Clear"
"2009-08-15 14:00","2009","08","15","14:00","28.2","","19.6","","60","","15","","17","","24.1","","99.87","","35","","","","Mainly Clear"
"2009-08-15 15:00","2009","08","15","15:00","29.1","","19.2","","55","","17","","17","","24.1","","99.84","","36","","","","Mainly Clear"
"2009-08-15 16:00","2009","08","15","16:00","28.5","","17.6","","52","","17","","13","","24.1","","99.85","","34","","","","Mainly Clear"
"2009-08-15 17:00","2009","08","15","17:00","28.9","","18.2","","52","","13","","9","","24.1","","99.85","","35","","","","Mainly Clear"
"2009-08-15 18:00","2009","08","15","18:00","28.6","","18.5","","54","","18","","9","","24.1","","99.85","","35","","","","Mainly Clear"
"2009-08-15 19:00","2009","08","15","19:00","27.2","","18.1","","58","","16","","7","","24.1","","99.86","","33","","","","Mainly Clear"
"2009-08-15 20:00","2009","08","15","20:00","26.1","","17.6","","60","","18","","9","","19.3","","99.90","","32","","","","Mainly Clear"
"2009-08-15 21:00","2009","08","15","21:00","25.3","","18.4","","66","","21","","6","","19.3","","99.92","","32","","","","Mainly Clear"
"2009-08-15 22:00","2009","08","15","22:00","24.9","","18.8","","69","","24","","9","","19.3","","99.93","","32","","","","Clear"
"2009-08-15 23:00","2009","08","15","23:00","23.0","","18.7","","77","","27","","6","","19.3","","99.93","","30","","","","Clear"
"2009-08-16 00:00","2009","08","16","00:00","23.0","","18.4","","75","","28","","6","","19.3","","99.95","","29","","","","Mainly Clear"
"2009-08-16 01:00","2009","08","16","01:00","22.5","","18.1","","76","","27","","6","","19.3","","99.95","","29","","","","Mainly Clear"
"2009-08-16 02:00","2009","08","16","02:00","22.2","","18.0","","77","","","","0","","16.1","","99.91","","28","","","","Mainly Clear"
"2009-08-16 03:00","2009","08","16","03:00","21.6","","18.0","","80","","25","","4","","14.5","","99.91","","28","","","","Mainly Clear"
"2009-08-16 04:00","2009","08","16","04:00","21.0","","17.5","","80","","26","","6","","16.1","","99.96","","27","","","","Mostly Cloudy"
"2009-08-16 05:00","2009","08","16","05:00","21.0","","17.3","","79","","33","","7","","16.1","","99.99","","26","","","","Mainly Clear"
"2009-08-16 06:00","2009","08","16","06:00","20.2","","17.4","","84","","2","","4","","16.1","","100.01","","26","","","","Mainly Clear"
"2009-08-16 07:00","2009","08","16","07:00","21.9","","19.0","","84","","","","0","","16.1","","100.04","","29","","","","Clear"
"2009-08-16 08:00","2009","08","16","08:00","23.5","","19.8","","80","","22","","11","","19.3","","100.07","","31","","","","Clear"
"2009-08-16 09:00","2009","08","16","09:00","25.7","","18.6","","65","","22","","7","","19.3","","100.05","","32","","","","Clear"
"2009-08-16 10:00","2009","08","16","10:00","27.1","","19.0","","61","","18","","17","","19.3","","100.05","","34","","","","Clear"
"2009-08-16 11:00","2009","08","16","11:00","27.9","","20.7","","65","","13","","11","","19.3","","100.03","","36","","","","Mainly Clear"
"2009-08-16 12:00","2009","08","16","12:00","28.4","","21.2","","65","","16","","19","","19.3","","99.99","","37","","","","Mainly Clear"
"2009-08-16 13:00","2009","08","16","13:00","28.5","","20.9","","63","","17","","17","","19.3","","99.97","","37","","","","Mostly Cloudy"
"2009-08-16 14:00","2009","08","16","14:00","28.6","","21.2","","64","","17","","19","","19.3","","99.92","","37","","","","Mostly Cloudy"
"2009-08-16 15:00","2009","08","16","15:00","28.0","","20.3","","63","","18","","15","","19.3","","99.89","","36","","","","Mostly Cloudy"
"2009-08-16 16:00","2009","08","16","16:00","28.9","","20.6","","61","","14","","13","","19.3","","99.84","","37","","","","Mainly Clear"
"2009-08-16 17:00","2009","08","16","17:00","28.0","","21.2","","67","","14","","9","","19.3","","99.79","","37","","","","Mainly Clear"
"2009-08-16 18:00","2009","08","16","18:00","28.9","","19.4","","57","","22","","19","","24.1","","99.76","","36","","","","Mainly Clear"
"2009-08-16 19:00","2009","08","16","19:00","28.5","","19.2","","57","","21","","17","","24.1","","99.81","","35","","","","Clear"
"2009-08-16 20:00","2009","08","16","20:00","27.4","","20.5","","66","","20","","9","","24.1","","99.85","","35","","","","Clear"
"2009-08-16 21:00","2009","08","16","21:00","26.7","","19.7","","66","","19","","7","","24.1","","99.87","","34","","","","Clear"
"2009-08-16 22:00","2009","08","16","22:00","25.4","","19.5","","70","","16","","7","","24.1","","99.85","","33","","","","Clear"
"2009-08-16 23:00","2009","08","16","23:00","24.8","","20.2","","76","","17","","7","","24.1","","99.84","","33","","","","Clear"
"2009-08-17 00:00","2009","08","17","00:00","23.8","","20.8","","83","","14","","6","","19.3","","99.84","","32","","","","Mainly Clear"
"2009-08-17 01:00","2009","08","17","01:00","23.4","","21.1","","87","","14","","4","","19.3","","99.82","","32","","","","Clear"
"2009-08-17 02:00","2009","08","17","02:00","23.2","","20.8","","86","","16","","7","","19.3","","99.79","","31","","","","Clear"
"2009-08-17 03:00","2009","08","17","03:00","23.3","","21.0","","87","","14","","6","","19.3","","99.79","","32","","","","Mainly Clear"
"2009-08-17 04:00","2009","08","17","04:00","23.7","","21.0","","85","","22","","9","","19.3","","99.77","","32","","","","Clear"
"2009-08-17 05:00","2009","08","17","05:00","23.4","","20.9","","86","","20","","6","","16.1","","99.79","","32","","","","Mainly Clear"
"2009-08-17 06:00","2009","08","17","06:00","23.3","","21.0","","87","","23","","13","","12.9","","99.80","","32","","","","Clear"
"2009-08-17 07:00","2009","08","17","07:00","24.7","","21.5","","82","","22","","7","","19.3","","99.83","","34","","","","Clear"
"2009-08-17 08:00","2009","08","17","08:00","25.9","","21.9","","79","","20","","15","","19.3","","99.86","","35","","","","Clear"
"2009-08-17 09:00","2009","08","17","09:00","27.8","","23.0","","75","","24","","20","","19.3","","99.87","","38","","","","Clear"
"2009-08-17 10:00","2009","08","17","10:00","28.8","","22.2","","68","","23","","28","","24.1","","99.89","","38","","","","Clear"
"2009-08-17 11:00","2009","08","17","11:00","30.2","","22.7","","64","","25","","24","","24.1","","99.88","","40","","","","Mainly Clear"
"2009-08-17 12:00","2009","08","17","12:00","30.1","","22.0","","62","","26","","26","","24.1","","99.85","","39","","","","Mainly Clear"
"2009-08-17 13:00","2009","08","17","13:00","30.5","","21.7","","59","","25","","28","","24.1","","99.79","","40","","","","Mostly Cloudy"
"2009-08-17 14:00","2009","08","17","14:00","31.2","","19.9","","51","","22","","35","","24.1","","99.72","","39","","","","Mostly Cloudy"
"2009-08-17 15:00","2009","08","17","15:00","29.6","","20.9","","60","","26","","19","","24.1","","99.68","","38","","","","Mostly Cloudy"
"2009-08-17 16:00","2009","08","17","16:00","29.8","","20.3","","57","","20","","19","","24.1","","99.64","","38","","","","Mainly Clear"
"2009-08-17 17:00","2009","08","17","17:00","30.4","","20.6","","56","","22","","30","","24.1","","99.60","","38","","","","Mainly Clear"
"2009-08-17 18:00","2009","08","17","18:00","29.3","","19.7","","56","","23","","22","","19.3","","99.57","","37","","","","Mainly Clear"
"2009-08-17 19:00","2009","08","17","19:00","28.8","","19.6","","58","","23","","20","","19.3","","99.56","","36","","","","Mainly Clear"
"2009-08-17 20:00","2009","08","17","20:00","27.8","","19.7","","61","","23","","13","","19.3","","99.58","","35","","","","Mainly Clear"
"2009-08-17 21:00","2009","08","17","21:00","27.4","","19.7","","63","","21","","11","","24.1","","99.58","","35","","","","Mainly Clear"
"2009-08-17 22:00","2009","08","17","22:00","27.2","","19.9","","64","","20","","11","","24.1","","99.57","","35","","","","Mostly Cloudy"
"2009-08-17 23:00","2009","08","17","23:00","26.3","","19.9","","68","","22","","19","","24.1","","99.58","","34","","","","Mostly Cloudy"
"2009-08-18 00:00","2009","08","18","00:00","25.4","","20.5","","74","","22","","13","","24.1","","99.53","","33","","","","Mostly Cloudy"
"2009-08-18 01:00","2009","08","18","01:00","24.7","","21.1","","80","","22","","17","","24.1","","99.50","","33","","","","Mostly Cloudy"
"2009-08-18 02:00","2009","08","18","02:00","24.3","","20.3","","78","","23","","17","","24.1","","99.46","","32","","","","Mostly Cloudy"
"2009-08-18 03:00","2009","08","18","03:00","22.8","","21.4","","92","","24","","13","","19.3","","99.44","","32","","","","Rain Showers"
"2009-08-18 04:00","2009","08","18","04:00","23.1","","21.5","","91","","20","","15","","24.1","","99.41","","32","","","","Cloudy"
"2009-08-18 05:00","2009","08","18","05:00","22.6","","21.0","","91","","22","","13","","24.1","","99.34","","31","","","","Mostly Cloudy"
"2009-08-18 06:00","2009","08","18","06:00","22.9","","21.2","","90","","22","","13","","24.1","","99.36","","31","","","","Mostly Cloudy"
"2009-08-18 07:00","2009","08","18","07:00","23.1","","20.9","","87","","24","","22","","24.1","","99.39","","31","","","","Mostly Cloudy"
"2009-08-18 08:00","2009","08","18","08:00","23.6","","20.9","","85","","23","","19","","24.1","","99.37","","32","","","","Mostly Cloudy"
"2009-08-18 09:00","2009","08","18","09:00","24.4","","20.7","","80","","24","","22","","24.1","","99.36","","33","","","","Mostly Cloudy"
"2009-08-18 10:00","2009","08","18","10:00","24.3","","20.6","","80","","23","","19","","24.1","","99.37","","32","","","","Mostly Cloudy"
"2009-08-18 11:00","2009","08","18","11:00","25.1","","21.3","","79","","24","","19","","24.1","","99.32","","34","","","","Mostly Cloudy"
"2009-08-18 12:00","2009","08","18","12:00","26.0","","21.5","","76","","24","","24","","24.1","","99.27","","35","","","","Mostly Cloudy"
"2009-08-18 13:00","2009","08","18","13:00","27.8","","20.9","","66","","23","","26","","24.1","","99.22","","36","","","","Mostly Cloudy"
"2009-08-18 14:00","2009","08","18","14:00","26.8","","20.9","","70","","27","","22","","24.1","","99.15","","35","","","","Mostly Cloudy"
"2009-08-18 15:00","2009","08","18","15:00","28.8","","20.8","","62","","25","","24","","24.1","","99.12","","37","","","","Mainly Clear"
"2009-08-18 16:00","2009","08","18","16:00","28.2","","19.5","","59","","27","","24","","24.1","","99.11","","35","","","","Mostly Cloudy"
"2009-08-18 17:00","2009","08","18","17:00","27.5","","18.7","","59","","27","","26","","24.1","","99.11","","34","","","","Mainly Clear"
"2009-08-18 18:00","2009","08","18","18:00","27.6","","18.3","","57","","28","","26","","24.1","","99.10","","34","","","","Mainly Clear"
"2009-08-18 19:00","2009","08","18","19:00","26.1","","18.6","","63","","27","","15","","24.1","","99.12","","33","","","","Mainly Clear"
"2009-08-18 20:00","2009","08","18","20:00","24.2","","19.0","","73","","25","","9","","24.1","","99.17","","31","","","","Mainly Clear"
"2009-08-18 21:00","2009","08","18","21:00","23.6","","18.7","","74","","25","","11","","24.1","","99.19","","30","","","","Mainly Clear"
"2009-08-18 22:00","2009","08","18","22:00","23.0","","18.7","","77","","26","","9","","24.1","","99.18","","30","","","","Mostly Cloudy"
"2009-08-18 23:00","2009","08","18","23:00","23.7","","20.3","","81","","24","","13","","24.1","","99.22","","32","","","","Mainly Clear"
"2009-08-19 00:00","2009","08","19","00:00","22.6","","18.5","","78","","28","","17","","24.1","","99.25","","29","","","","Mainly Clear"
"2009-08-19 01:00","2009","08","19","01:00","20.9","","17.4","","80","","29","","13","","24.1","","99.29","","26","","","","Mainly Clear"
"2009-08-19 02:00","2009","08","19","02:00","19.6","","15.2","","76","","34","","19","","24.1","","99.30","","","","","","Mainly Clear"
"2009-08-19 03:00","2009","08","19","03:00","19.0","","12.9","","68","","33","","17","","24.1","","99.34","","","","","","Mainly Clear"
"2009-08-19 04:00","2009","08","19","04:00","17.8","","13.0","","73","","32","","13","","24.1","","99.33","","","","","","Mainly Clear"
"2009-08-19 05:00","2009","08","19","05:00","18.1","","13.3","","74","","31","","9","","24.1","","99.36","","","","","","Mostly Cloudy"
"2009-08-19 06:00","2009","08","19","06:00","18.0","","13.9","","77","","27","","6","","24.1","","99.43","","","","","","Mostly Cloudy"
"2009-08-19 07:00","2009","08","19","07:00","18.6","","15.6","","83","","24","","7","","24.1","","99.45","","","","","","Mostly Cloudy"
"2009-08-19 08:00","2009","08","19","08:00","19.8","","15.0","","74","","26","","4","","24.1","","99.45","","","","","","Mostly Cloudy"
"2009-08-19 09:00","2009","08","19","09:00","20.7","","14.0","","65","","30","","7","","24.1","","99.53","","","","","","Mostly Cloudy"
"2009-08-19 10:00","2009","08","19","10:00","22.8","","13.2","","55","","30","","11","","24.1","","99.52","","26","","","","Clear"
"2009-08-19 11:00","2009","08","19","11:00","23.9","","14.0","","54","","28","","11","","24.1","","99.52","","27","","","","Clear"
"2009-08-19 12:00","2009","08","19","12:00","24.6","","13.2","","49","","33","","9","","24.1","","99.50","","28","","","","Clear"
"2009-08-19 13:00","2009","08","19","13:00","25.7","","14.5","","50","","21","","11","","24.1","","99.48","","29","","","","Clear"
"2009-08-19 14:00","2009","08","19","14:00","25.1","","14.7","","52","","12","","13","","24.1","","99.43","","29","","","","Clear"
"2009-08-19 15:00","2009","08","19","15:00","25.9","","15.8","","54","","14","","13","","24.1","","99.35","","30","","","","Clear"
"2009-08-19 16:00","2009","08","19","16:00","25.3","","14.9","","53","","15","","17","","24.1","","99.31","","29","","","","Clear"
"2009-08-19 17:00","2009","08","19","17:00","25.3","","14.8","","52","","17","","13","","24.1","","99.28","","29","","","","Mainly Clear"
"2009-08-19 18:00","2009","08","19","18:00","24.8","","14.9","","54","","17","","13","","24.1","","99.23","","29","","","","Mainly Clear"
"2009-08-19 19:00","2009","08","19","19:00","24.0","","14.7","","56","","18","","11","","24.1","","99.29","","28","","","","Mainly Clear"
"2009-08-19 20:00","2009","08","19","20:00","23.0","","15.1","","61","","17","","7","","24.1","","99.31","","27","","","","Mainly Clear"
"2009-08-19 21:00","2009","08","19","21:00","21.7","","15.1","","66","","15","","11","","24.1","","99.28","","26","","","","Mainly Clear"
"2009-08-19 22:00","2009","08","19","22:00","21.6","","16.7","","74","","16","","7","","24.1","","99.26","","27","","","","Mainly Clear"
"2009-08-19 23:00","2009","08","19","23:00","21.2","","16.3","","74","","15","","7","","24.1","","99.23","","26","","","","Mostly Cloudy"
"2009-08-20 00:00","2009","08","20","00:00","21.0","","16.1","","74","","13","","9","","24.1","","99.19","","26","","","","Mostly Cloudy"
"2009-08-20 01:00","2009","08","20","01:00","21.6","","15.9","","70","","13","","13","","24.1","","99.11","","26","","","","Mostly Cloudy"
"2009-08-20 02:00","2009","08","20","02:00","21.0","","18.2","","84","","13","","13","","24.1","","99.02","","27","","","","Mostly Cloudy"
"2009-08-20 03:00","2009","08","20","03:00","21.2","","18.3","","84","","12","","11","","24.1","","98.96","","27","","","","Mostly Cloudy"
"2009-08-20 04:00","2009","08","20","04:00","21.6","","18.6","","83","","12","","11","","24.1","","98.90","","28","","","","Mostly Cloudy"
"2009-08-20 05:00","2009","08","20","05:00","21.6","","18.4","","82","","13","","9","","24.1","","98.90","","28","","","","Mostly Cloudy"
"2009-08-20 06:00","2009","08","20","06:00","21.9","","19.3","","85","","12","","7","","24.1","","98.90","","29","","","","Mostly Cloudy"
"2009-08-20 07:00","2009","08","20","07:00","22.5","","20.5","","88","","15","","9","","19.3","","98.90","","30","","","","Mostly Cloudy"
"2009-08-20 08:00","2009","08","20","08:00","23.6","","21.4","","87","","19","","11","","19.3","","98.93","","32","","","","Mostly Cloudy"
"2009-08-20 09:00","2009","08","20","09:00","24.4","","21.5","","84","","17","","17","","24.1","","98.90","","33","","","","Mostly Cloudy"
"2009-08-20 10:00","2009","08","20","10:00","26.0","","21.2","","75","","21","","19","","24.1","","98.90","","35","","","","Mostly Cloudy"
"2009-08-20 11:00","2009","08","20","11:00","26.5","","21.7","","75","","18","","11","","24.1","","98.87","","36","","","","Mostly Cloudy"
"2009-08-20 12:00","2009","08","20","12:00","27.3","","21.7","","72","","17","","26","","24.1","","98.80","","36","","","","Mainly Clear"
"2009-08-20 13:00","2009","08","20","13:00","28.5","","22.3","","69","","17","","20","","24.1","","98.74","","38","","","","Mostly Cloudy"
"2009-08-20 14:00","2009","08","20","14:00","27.9","","22.5","","73","","16","","26","","24.1","","98.68","","38","","","","Mostly Cloudy"
"2009-08-20 15:00","2009","08","20","15:00","27.6","","22.0","","72","","16","","22","","24.1","","98.59","","37","","","","Mostly Cloudy"
"2009-08-20 16:00","2009","08","20","16:00","27.5","","22.1","","72","","16","","26","","24.1","","98.41","","37","","","","Mostly Cloudy"
"2009-08-20 17:00","2009","08","20","17:00","26.5","","22.1","","77","","17","","26","","24.1","","98.31","","36","","","","Thunderstorms"
"2009-08-20 18:00","2009","08","20","18:00","21.1","","20.8","","98","","25","","48","","4.8","","98.48","","29","","","","Thunderstorms,Moderate Rain Showers"
"2009-08-20 19:00","2009","08","20","19:00","21.8","","21.2","","96","","20","","11","","24.1","","98.48","","30","","","","Mostly Cloudy"
"2009-08-20 20:00","2009","08","20","20:00","22.6","","21.4","","93","","20","","13","","24.1","","98.53","","31","","","","Cloudy"
"2009-08-20 21:00","2009","08","20","21:00","22.9","","21.7","","93","","20","","13","","24.1","","98.54","","32","","","","Mostly Cloudy"
"2009-08-20 22:00","2009","08","20","22:00","22.8","","21.8","","94","","20","","15","","24.1","","98.61","","32","","","","Mostly Cloudy"
"2009-08-20 23:00","2009","08","20","23:00","22.6","","21.5","","94","","20","","15","","24.1","","98.65","","31","","","","Mainly Clear"
"2009-08-21 00:00","2009","08","21","00:00","22.3","","21.3","","94","","19","","15","","24.1","","98.68","","31","","","","Mostly Cloudy"
"2009-08-21 01:00","2009","08","21","01:00","21.8","","20.9","","95","","21","","17","","24.1","","98.64","","30","","","","Mainly Clear"
"2009-08-21 02:00","2009","08","21","02:00","21.8","","20.9","","95","","21","","15","","24.1","","98.61","","30","","","","Mostly Cloudy"
"2009-08-21 03:00","2009","08","21","03:00","22.2","","20.4","","90","","20","","15","","24.1","","98.62","","30","","","","Mostly Cloudy"
"2009-08-21 04:00","2009","08","21","04:00","22.3","","20.5","","90","","21","","15","","24.1","","98.63","","30","","","","Mostly Cloudy"
"2009-08-21 05:00","2009","08","21","05:00","21.9","","19.5","","86","","20","","9","","24.1","","98.61","","29","","","","Mostly Cloudy"
"2009-08-21 06:00","2009","08","21","06:00","21.7","","18.3","","81","","20","","11","","24.1","","98.66","","28","","","","Mostly Cloudy"
"2009-08-21 07:00","2009","08","21","07:00","21.7","","17.7","","78","","22","","13","","24.1","","98.68","","27","","","","Mostly Cloudy"
"2009-08-21 08:00","2009","08","21","08:00","21.9","","17.3","","75","","23","","13","","24.1","","98.69","","27","","","","Mostly Cloudy"
"2009-08-21 09:00","2009","08","21","09:00","23.3","","18.4","","74","","23","","19","","24.1","","98.74","","30","","","","Mainly Clear"
"2009-08-21 10:00","2009","08","21","10:00","24.7","","17.6","","65","","22","","26","","24.1","","98.72","","30","","","","Mainly Clear"
"2009-08-21 11:00","2009","08","21","11:00","25.0","","19.7","","72","","18","","19","","24.1","","98.71","","32","","","","Mainly Clear"
"2009-08-21 12:00","2009","08","21","12:00","25.6","","16.9","","59","","23","","32","","24.1","","98.66","","31","","","","Mainly Clear"
"2009-08-21 13:00","2009","08","21","13:00","25.9","","16.5","","56","","22","","30","","24.1","","98.62","","31","","","","Mostly Cloudy"
"2009-08-21 14:00","2009","08","21","14:00","26.6","","15.5","","51","","22","","41","","24.1","","98.60","","31","","","","Mainly Clear"
"2009-08-21 15:00","2009","08","21","15:00","26.1","","15.2","","51","","23","","37","","24.1","","98.59","","30","","","","Mainly Clear"
"2009-08-21 16:00","2009","08","21","16:00","25.4","","15.6","","55","","25","","30","","24.1","","98.58","","30","","","","Mainly Clear"
"2009-08-21 17:00","2009","08","21","17:00","25.1","","15.3","","55","","24","","30","","24.1","","98.64","","29","","","","Mainly Clear"
"2009-08-21 18:00","2009","08","21","18:00","24.4","","16.0","","59","","23","","22","","24.1","","98.67","","29","","","","Mainly Clear"
"2009-08-21 19:00","2009","08","21","19:00","23.8","","15.5","","60","","21","","22","","24.1","","98.71","","28","","","","Mainly Clear"
"2009-08-21 20:00","2009","08","21","20:00","22.8","","15.1","","62","","22","","19","","24.1","","98.77","","27","","","","Mainly Clear"
"2009-08-21 21:00","2009","08","21","21:00","22.3","","15.2","","64","","21","","11","","24.1","","98.83","","26","","","","Clear"
"2009-08-21 22:00","2009","08","21","22:00","21.5","","15.4","","68","","21","","11","","24.1","","98.83","","26","","","","Mainly Clear"
"2009-08-21 23:00","2009","08","21","23:00","21.5","","15.7","","70","","23","","20","","24.1","","98.82","","26","","","","Mainly Clear"
"2009-08-22 00:00","2009","08","22","00:00","20.4","","16.0","","76","","20","","11","","24.1","","98.84","","25","","","","Mainly Clear"
"2009-08-22 01:00","2009","08","22","01:00","20.5","","16.3","","77","","21","","6","","24.1","","98.86","","25","","","","Mainly Clear"
"2009-08-22 02:00","2009","08","22","02:00","20.0","","16.0","","78","","24","","7","","24.1","","98.84","","25","","","","Mostly Cloudy"
"2009-08-22 03:00","2009","08","22","03:00","19.7","","16.5","","82","","27","","7","","24.1","","98.85","","","","","","Mostly Cloudy"
"2009-08-22 04:00","2009","08","22","04:00","18.9","","16.1","","84","","26","","4","","24.1","","98.87","","","","","","Mainly Clear"
"2009-08-22 05:00","2009","08","22","05:00","18.4","","16.1","","86","","27","","7","","24.1","","98.93","","","","","","Mainly Clear"
"2009-08-22 06:00","2009","08","22","06:00","18.8","","16.0","","84","","24","","4","","24.1","","98.94","","","","","","Mainly Clear"
"2009-08-22 07:00","2009","08","22","07:00","19.2","","17.1","","88","","32","","6","","24.1","","98.97","","","","","","Mostly Cloudy"
"2009-08-22 08:00","2009","08","22","08:00","19.8","","16.5","","81","","1","","11","","24.1","","99.02","","","","","","Mostly Cloudy"
"2009-08-22 09:00","2009","08","22","09:00","20.8","","16.9","","78","","3","","7","","24.1","","99.03","","26","","","","Cloudy"
"2009-08-22 10:00","2009","08","22","10:00","21.6","","16.8","","74","","7","","6","","24.1","","99.04","","27","","","","Cloudy"
"2009-08-22 11:00","2009","08","22","11:00","22.4","","18.0","","76","","13","","6","","24.1","","99.04","","28","","","","Mostly Cloudy"
"2009-08-22 12:00","2009","08","22","12:00","23.0","","18.0","","73","","","","0","","24.1","","99.00","","29","","","","Mostly Cloudy"
"2009-08-22 13:00","2009","08","22","13:00","22.8","","18.1","","75","","17","","9","","24.1","","99.00","","29","","","","Rain Showers"
"2009-08-22 14:00","2009","08","22","14:00","22.6","","18.5","","78","","24","","11","","24.1","","98.98","","29","","","","Mostly Cloudy"
"2009-08-22 15:00","2009","08","22","15:00","24.4","","19.0","","72","","31","","4","","24.1","","98.95","","31","","","","Mostly Cloudy"
"2009-08-22 16:00","2009","08","22","16:00","22.0","","17.3","","75","","4","","15","","24.1","","98.96","","27","","","","Mostly Cloudy"
"2009-08-22 17:00","2009","08","22","17:00","19.1","","17.5","","90","","35","","30","","19.3","","99.03","","","","","","Thunderstorms,Rain Showers"
"2009-08-22 18:00","2009","08","22","18:00","18.6","","17.1","","91","","36","","22","","24.1","","99.04","","","","","","Rain Showers"
"2009-08-22 19:00","2009","08","22","19:00","17.7","","16.3","","92","","35","","22","","24.1","","99.12","","","","","","Mainly Clear"
"2009-08-22 20:00","2009","08","22","20:00","17.4","","15.5","","89","","35","","17","","24.1","","99.17","","","","","","Mainly Clear"
"2009-08-22 21:00","2009","08","22","21:00","17.4","","15.6","","89","","34","","20","","24.1","","99.21","","","","","","Mostly Cloudy"
"2009-08-22 22:00","2009","08","22","22:00","16.9","","15.4","","91","","36","","20","","24.1","","99.24","","","","","","Mostly Cloudy"
"2009-08-22 23:00","2009","08","22","23:00","17.2","","15.1","","87","","35","","19","","24.1","","99.22","","","","","","Mostly Cloudy"
"2009-08-23 00:00","2009","08","23","00:00","17.4","","15.3","","87","","36","","19","","24.1","","99.19","","","","","","Mostly Cloudy"
"2009-08-23 01:00","2009","08","23","01:00","17.1","","15.4","","90","","35","","19","","24.1","","99.17","","","","","","Mostly Cloudy"
"2009-08-23 02:00","2009","08","23","02:00","17.0","","15.6","","91","","34","","20","","24.1","","99.16","","","","","","Clear"
"2009-08-23 03:00","2009","08","23","03:00","16.9","","16.0","","94","","36","","15","","24.1","","99.17","","","","","","Mainly Clear"
"2009-08-23 04:00","2009","08","23","04:00","17.1","","16.1","","94","","35","","20","","24.1","","99.19","","","","","","Mainly Clear"
"2009-08-23 05:00","2009","08","23","05:00","17.0","","16.0","","94","","36","","19","","24.1","","99.21","","","","","","Mostly Cloudy"
"2009-08-23 06:00","2009","08","23","06:00","17.3","","16.3","","94","","36","","15","","24.1","","99.25","","","","","","Mostly Cloudy"
"2009-08-23 07:00","2009","08","23","07:00","18.0","","16.6","","92","","36","","15","","24.1","","99.28","","","","","","Mostly Cloudy"
"2009-08-23 08:00","2009","08","23","08:00","19.1","","17.2","","89","","36","","20","","24.1","","99.33","","","","","","Mostly Cloudy"
"2009-08-23 09:00","2009","08","23","09:00","19.2","","17.0","","87","","36","","17","","24.1","","99.38","","","","","","Cloudy"
"2009-08-23 10:00","2009","08","23","10:00","19.4","","17.0","","86","","34","","17","","24.1","","99.42","","","","","","Cloudy"
"2009-08-23 11:00","2009","08","23","11:00","20.0","","16.9","","82","","35","","15","","24.1","","99.43","","25","","","","Mostly Cloudy"
"2009-08-23 12:00","2009","08","23","12:00","21.2","","17.0","","77","","34","","22","","24.1","","99.42","","26","","","","Mostly Cloudy"
"2009-08-23 13:00","2009","08","23","13:00","20.5","","16.2","","76","","33","","28","","24.1","","99.46","","25","","","","Mostly Cloudy"
"2009-08-23 14:00","2009","08","23","14:00","20.4","","15.9","","75","","35","","24","","24.1","","99.46","","25","","","","Mostly Cloudy"
"2009-08-23 15:00","2009","08","23","15:00","21.6","","16.1","","71","","36","","24","","24.1","","99.46","","26","","","","Mostly Cloudy"
"2009-08-23 16:00","2009","08","23","16:00","21.4","","15.5","","69","","36","","24","","24.1","","99.49","","26","","","","Mostly Cloudy"
"2009-08-23 17:00","2009","08","23","17:00","20.1","","15.0","","72","","35","","22","","24.1","","99.48","","","","","","Mainly Clear"
"2009-08-23 18:00","2009","08","23","18:00","19.3","","14.4","","73","","1","","24","","24.1","","99.51","","","","","","Mainly Clear"
"2009-08-23 19:00","2009","08","23","19:00","18.2","","14.1","","77","","35","","26","","24.1","","99.57","","","","","","Mainly Clear"
"2009-08-23 20:00","2009","08","23","20:00","17.4","","13.7","","79","","34","","22","","24.1","","99.62","","","","","","Mainly Clear"
"2009-08-23 21:00","2009","08","23","21:00","16.6","","13.5","","82","","34","","22","","24.1","","99.64","","","","","","Mainly Clear"
"2009-08-23 22:00","2009","08","23","22:00","16.1","","13.2","","83","","35","","19","","24.1","","99.67","","","","","","Mainly Clear"
"2009-08-23 23:00","2009","08","23","23:00","15.7","","13.1","","85","","34","","20","","24.1","","99.72","","","","","","Clear"
"2009-08-24 00:00","2009","08","24","00:00","14.9","","13.0","","88","","31","","11","","24.1","","99.74","","","","","","Mainly Clear"
"2009-08-24 01:00","2009","08","24","01:00","14.9","","12.9","","88","","30","","13","","24.1","","99.76","","","","","","Mainly Clear"
"2009-08-24 02:00","2009","08","24","02:00","14.5","","12.6","","88","","32","","11","","24.1","","99.77","","","","","","Mainly Clear"
"2009-08-24 03:00","2009","08","24","03:00","13.9","","12.4","","91","","27","","4","","24.1","","99.81","","","","","","Mainly Clear"
"2009-08-24 04:00","2009","08","24","04:00","13.9","","12.3","","90","","31","","13","","24.1","","99.81","","","","","","Mainly Clear"
"2009-08-24 05:00","2009","08","24","05:00","13.8","","12.4","","91","","32","","11","","24.1","","99.84","","","","","","Mainly Clear"
"2009-08-24 06:00","2009","08","24","06:00","15.0","","12.9","","87","","31","","7","","24.1","","99.88","","","","","","Mostly Cloudy"
"2009-08-24 07:00","2009","08","24","07:00","15.9","","13.4","","85","","29","","9","","24.1","","99.90","","","","","","Mostly Cloudy"
"2009-08-24 08:00","2009","08","24","08:00","17.4","","13.9","","80","","31","","11","","24.1","","99.94","","","","","","Mostly Cloudy"
"2009-08-24 09:00","2009","08","24","09:00","18.4","","15.1","","81","","35","","7","","24.1","","99.97","","","","","","Mostly Cloudy"
"2009-08-24 10:00","2009","08","24","10:00","19.4","","14.8","","75","","32","","6","","24.1","","99.98","","","","","","Mostly Cloudy"
"2009-08-24 11:00","2009","08","24","11:00","20.5","","15.0","","71","","33","","6","","24.1","","100.04","","","","","","Mostly Cloudy"
"2009-08-24 12:00","2009","08","24","12:00","22.3","","16.0","","68","","31","","7","","24.1","","100.06","","27","","","","Mostly Cloudy"
"2009-08-24 13:00","2009","08","24","13:00","22.3","","15.2","","64","","24","","4","","24.1","","100.01","","26","","","","Mostly Cloudy"
"2009-08-24 14:00","2009","08","24","14:00","23.2","","14.8","","59","","23","","7","","24.1","","99.97","","27","","","","Mostly Cloudy"
"2009-08-24 15:00","2009","08","24","15:00","23.3","","16.6","","66","","17","","20","","24.1","","99.94","","28","","","","Mostly Cloudy"
"2009-08-24 16:00","2009","08","24","16:00","24.0","","14.3","","55","","","","0","","24.1","","99.92","","28","","","","Mainly Clear"
"2009-08-24 17:00","2009","08","24","17:00","23.8","","13.2","","51","","26","","13","","24.1","","99.88","","27","","","","Mainly Clear"
"2009-08-24 18:00","2009","08","24","18:00","23.0","","14.2","","58","","24","","11","","24.1","","99.87","","26","","","","Mostly Cloudy"
"2009-08-24 19:00","2009","08","24","19:00","21.2","","13.6","","62","","26","","17","","24.1","","99.89","","","","","","Mainly Clear"
"2009-08-24 20:00","2009","08","24","20:00","20.3","","13.7","","66","","28","","13","","24.1","","99.93","","","","","","Clear"
"2009-08-24 21:00","2009","08","24","21:00","18.4","","13.6","","74","","27","","11","","24.1","","99.98","","","","","","Clear"
"2009-08-24 22:00","2009","08","24","22:00","18.4","","13.7","","74","","31","","11","","24.1","","100.00","","","","","","Clear"
"2009-08-24 23:00","2009","08","24","23:00","17.5","","13.9","","79","","28","","7","","24.1","","100.00","","","","","","Clear"
"2009-08-25 00:00","2009","08","25","00:00","17.7","","14.1","","79","","30","","6","","24.1","","100.01","","","","","","Clear"
"2009-08-25 01:00","2009","08","25","01:00","16.0","","13.7","","86","","29","","6","","24.1","","100.01","","","","","","Clear"
"2009-08-25 02:00","2009","08","25","02:00","16.0","","13.7","","86","","31","","7","","24.1","","100.01","","","","","","Clear"
"2009-08-25 03:00","2009","08","25","03:00","14.6","","12.9","","90","","29","","7","","24.1","","100.02","","","","","","Clear"
"2009-08-25 04:00","2009","08","25","04:00","14.6","","12.6","","88","","","","0","","24.1","","100.07","","","","","","Clear"
"2009-08-25 05:00","2009","08","25","05:00","14.9","","13.1","","89","","31","","6","","24.1","","100.07","","","","","","Clear"
"2009-08-25 06:00","2009","08","25","06:00","15.6","","13.7","","88","","32","","6","","19.3","","100.10","","","","","","Mainly Clear"
"2009-08-25 07:00","2009","08","25","07:00","16.5","","14.8","","90","","","","0","","19.3","","100.11","","","","","","Clear"
"2009-08-25 08:00","2009","08","25","08:00","19.5","","15.9","","80","","19","","9","","24.1","","100.05","","","","","","Clear"
"2009-08-25 09:00","2009","08","25","09:00","21.2","","15.8","","71","","23","","17","","24.1","","99.96","","26","","","","Mainly Clear"
"2009-08-25 10:00","2009","08","25","10:00","22.9","","17.1","","70","","23","","15","","24.1","","99.94","","28","","","","Mainly Clear"
"2009-08-25 11:00","2009","08","25","11:00","23.2","","16.9","","68","","24","","24","","24.1","","99.89","","28","","","","Mainly Clear"
"2009-08-25 12:00","2009","08","25","12:00","24.5","","17.1","","63","","23","","17","","24.1","","99.81","","30","","","","Mainly Clear"
"2009-08-25 13:00","2009","08","25","13:00","24.8","","16.8","","61","","22","","24","","24.1","","99.73","","30","","","","Mainly Clear"
"2009-08-25 14:00","2009","08","25","14:00","25.5","","16.9","","59","","23","","28","","24.1","","99.73","","31","","","","Mostly Cloudy"
"2009-08-25 15:00","2009","08","25","15:00","25.3","","16.9","","60","","22","","19","","24.1","","99.60","","31","","","","Mostly Cloudy"
"2009-08-25 16:00","2009","08","25","16:00","25.2","","17.1","","61","","23","","22","","24.1","","99.53","","31","","","","Mostly Cloudy"
"2009-08-25 17:00","2009","08","25","17:00","24.7","","17.1","","63","","23","","28","","19.3","","99.52","","30","","","","Mostly Cloudy"
"2009-08-25 18:00","2009","08","25","18:00","23.8","","17.0","","66","","23","","20","","24.1","","99.52","","29","","","","Mainly Clear"
"2009-08-25 19:00","2009","08","25","19:00","23.2","","17.2","","69","","22","","22","","24.1","","99.50","","29","","","","Mostly Cloudy"
"2009-08-25 20:00","2009","08","25","20:00","22.3","","17.0","","72","","22","","19","","24.1","","99.50","","28","","","","Mostly Cloudy"
"2009-08-25 21:00","2009","08","25","21:00","21.0","","16.7","","76","","24","","20","","24.1","","99.51","","26","","","","Mostly Cloudy"
"2009-08-25 22:00","2009","08","25","22:00","20.8","","16.7","","77","","24","","19","","24.1","","99.48","","26","","","","Clear"
"2009-08-25 23:00","2009","08","25","23:00","20.5","","16.7","","79","","24","","15","","24.1","","99.47","","26","","","","Mainly Clear"
"2009-08-26 00:00","2009","08","26","00:00","20.4","","16.8","","80","","24","","9","","24.1","","99.43","","26","","","","Mostly Cloudy"
"2009-08-26 01:00","2009","08","26","01:00","20.1","","16.8","","81","","24","","9","","24.1","","99.38","","25","","","","Mostly Cloudy"
"2009-08-26 02:00","2009","08","26","02:00","19.9","","17.0","","83","","25","","11","","24.1","","99.37","","","","","","Mostly Cloudy"
"2009-08-26 03:00","2009","08","26","03:00","20.0","","17.2","","84","","25","","13","","24.1","","99.36","","25","","","","Cloudy"
"2009-08-26 04:00","2009","08","26","04:00","20.3","","17.6","","84","","27","","9","","24.1","","99.39","","26","","","","Cloudy"
"2009-08-26 05:00","2009","08","26","05:00","19.9","","18.7","","93","","28","","13","","14.5","","99.41","","","","","","Rain"
"2009-08-26 06:00","2009","08","26","06:00","19.8","","18.9","","95","","29","","9","","12.9","","99.43","","","","","","Cloudy"
"2009-08-26 07:00","2009","08","26","07:00","18.4","","17.0","","92","","33","","20","","16.1","","99.50","","","","","","Rain"
"2009-08-26 08:00","2009","08","26","08:00","17.4","","16.3","","93","","32","","22","","6.4","","99.57","","","","","","Rain,Fog"
"2009-08-26 09:00","2009","08","26","09:00","18.1","","16.5","","90","","30","","17","","19.3","","99.59","","","","","","Mostly Cloudy"
"2009-08-26 10:00","2009","08","26","10:00","21.2","","16.7","","76","","36","","17","","24.1","","99.62","","26","","","","Mostly Cloudy"
"2009-08-26 11:00","2009","08","26","11:00","21.6","","15.2","","67","","35","","26","","24.1","","99.64","","26","","","","Mostly Cloudy"
"2009-08-26 12:00","2009","08","26","12:00","21.7","","14.6","","64","","33","","26","","24.1","","99.67","","25","","","","Mainly Clear"
"2009-08-26 13:00","2009","08","26","13:00","22.4","","15.9","","67","","33","","20","","24.1","","99.64","","27","","","","Mainly Clear"
"2009-08-26 14:00","2009","08","26","14:00","22.3","","12.6","","54","","36","","32","","24.1","","99.68","","25","","","","Mainly Clear"
"2009-08-26 15:00","2009","08","26","15:00","21.9","","11.6","","52","","36","","24","","24.1","","99.69","","","","","","Mainly Clear"
"2009-08-26 16:00","2009","08","26","16:00","21.3","","10.3","","49","","36","","28","","24.1","","99.72","","","","","","Mainly Clear"
"2009-08-26 17:00","2009","08","26","17:00","20.8","","9.4","","48","","34","","22","","24.1","","99.76","","","","","","Mainly Clear"
"2009-08-26 18:00","2009","08","26","18:00","19.5","","11.3","","59","","35","","24","","24.1","","99.79","","","","","","Mainly Clear"
"2009-08-26 19:00","2009","08","26","19:00","18.5","","11.7","","65","","35","","24","","24.1","","99.84","","","","","","Mainly Clear"
"2009-08-26 20:00","2009","08","26","20:00","17.4","","10.8","","65","","35","","24","","24.1","","99.87","","","","","","Mainly Clear"
"2009-08-26 21:00","2009","08","26","21:00","16.2","","10.4","","68","","34","","22","","24.1","","99.93","","","","","","Mainly Clear"
"2009-08-26 22:00","2009","08","26","22:00","15.3","","10.4","","73","","35","","22","","24.1","","99.93","","","","","","Mainly Clear"
"2009-08-26 23:00","2009","08","26","23:00","14.6","","10.4","","76","","35","","19","","24.1","","99.96","","","","","","Mainly Clear"
"2009-08-27 00:00","2009","08","27","00:00","13.9","","10.4","","79","","36","","19","","24.1","","99.97","","","","","","Mainly Clear"
"2009-08-27 01:00","2009","08","27","01:00","13.9","","10.2","","78","","36","","15","","24.1","","99.97","","","","","","Mainly Clear"
"2009-08-27 02:00","2009","08","27","02:00","13.9","","9.9","","77","","2","","11","","24.1","","99.99","","","","","","Mainly Clear"
"2009-08-27 03:00","2009","08","27","03:00","12.1","","8.9","","81","","1","","11","","24.1","","99.99","","","","","","Mainly Clear"
"2009-08-27 04:00","2009","08","27","04:00","12.3","","8.0","","75","","2","","15","","24.1","","100.04","","","","","","Mainly Clear"
"2009-08-27 05:00","2009","08","27","05:00","11.5","","7.9","","79","","2","","11","","24.1","","100.04","","","","","","Mainly Clear"
"2009-08-27 06:00","2009","08","27","06:00","12.8","","6.1","","64","","5","","9","","24.1","","100.08","","","","","","Mostly Cloudy"
"2009-08-27 07:00","2009","08","27","07:00","14.6","","6.3","","57","","6","","11","","24.1","","100.15","","","","","","Mostly Cloudy"
"2009-08-27 08:00","2009","08","27","08:00","15.5","","8.1","","61","","4","","9","","24.1","","100.16","","","","","","Mostly Cloudy"
"2009-08-27 09:00","2009","08","27","09:00","17.1","","6.6","","50","","6","","13","","24.1","","100.15","","","","","","Mostly Cloudy"
"2009-08-27 10:00","2009","08","27","10:00","18.6","","7.1","","47","","7","","9","","24.1","","100.15","","","","","","Mostly Cloudy"
"2009-08-27 11:00","2009","08","27","11:00","19.3","","7.0","","45","","10","","9","","24.1","","100.15","","","","","","Mostly Cloudy"
"2009-08-27 12:00","2009","08","27","12:00","20.0","","9.6","","51","","18","","9","","24.1","","100.12","","","","","","Mostly Cloudy"
"2009-08-27 13:00","2009","08","27","13:00","20.2","","9.6","","50","","16","","11","","24.1","","100.08","","","","","","Mostly Cloudy"
"2009-08-27 14:00","2009","08","27","14:00","19.7","","9.1","","50","","18","","15","","24.1","","100.06","","","","","","Mostly Cloudy"
"2009-08-27 15:00","2009","08","27","15:00","19.8","","8.5","","48","","13","","9","","24.1","","100.03","","","","","","Mostly Cloudy"
"2009-08-27 16:00","2009","08","27","16:00","19.9","","8.9","","49","","14","","9","","24.1","","99.99","","","","","","Mostly Cloudy"
"2009-08-27 17:00","2009","08","27","17:00","19.1","","8.6","","51","","16","","13","","24.1","","100.02","","","","","","Mostly Cloudy"
"2009-08-27 18:00","2009","08","27","18:00","18.5","","8.9","","54","","14","","7","","24.1","","100.04","","","","","","Mostly Cloudy"
"2009-08-27 19:00","2009","08","27","19:00","18.1","","8.9","","55","","13","","6","","24.1","","100.06","","","","","","Mostly Cloudy"
"2009-08-27 20:00","2009","08","27","20:00","18.0","","8.1","","52","","11","","6","","24.1","","100.09","","","","","","Mostly Cloudy"
"2009-08-27 21:00","2009","08","27","21:00","18.1","","8.9","","55","","9","","7","","24.1","","100.11","","","","","","Mostly Cloudy"
"2009-08-27 22:00","2009","08","27","22:00","17.8","","9.5","","58","","8","","6","","24.1","","100.11","","","","","","Mostly Cloudy"
"2009-08-27 23:00","2009","08","27","23:00","17.6","","9.3","","58","","7","","6","","24.1","","100.07","","","","","","Cloudy"
"2009-08-28 00:00","2009","08","28","00:00","17.1","","9.9","","63","","5","","6","","24.1","","100.09","","","","","","Cloudy"
"2009-08-28 01:00","2009","08","28","01:00","16.3","","11.0","","71","","3","","7","","24.1","","100.06","","","","","","Cloudy"
"2009-08-28 02:00","2009","08","28","02:00","15.5","","11.5","","77","","3","","9","","24.1","","100.00","","","","","","Cloudy"
"2009-08-28 03:00","2009","08","28","03:00","15.7","","10.7","","72","","4","","9","","24.1","","99.96","","","","","","Cloudy"
"2009-08-28 04:00","2009","08","28","04:00","15.3","","9.9","","70","","5","","6","","24.1","","99.98","","","","","","Mostly Cloudy"
"2009-08-28 05:00","2009","08","28","05:00","13.5","","10.2","","80","","2","","9","","24.1","","100.00","","","","","","Mostly Cloudy"
"2009-08-28 06:00","2009","08","28","06:00","14.6","","9.7","","72","","5","","7","","24.1","","100.02","","","","","","Mostly Cloudy"
"2009-08-28 07:00","2009","08","28","07:00","16.0","","10.5","","70","","8","","11","","24.1","","100.00","","","","","","Mostly Cloudy"
"2009-08-28 08:00","2009","08","28","08:00","17.4","","12.7","","74","","9","","13","","24.1","","99.93","","","","","","Mostly Cloudy"
"2009-08-28 09:00","2009","08","28","09:00","18.2","","13.5","","74","","9","","17","","24.1","","99.88","","","","","","Mostly Cloudy"
"2009-08-28 10:00","2009","08","28","10:00","18.2","","13.9","","76","","9","","24","","24.1","","99.90","","","","","","Mostly Cloudy"
"2009-08-28 11:00","2009","08","28","11:00","19.0","","13.6","","71","","11","","22","","24.1","","99.89","","","","","","Mostly Cloudy"
"2009-08-28 12:00","2009","08","28","12:00","19.0","","10.9","","59","","9","","22","","24.1","","99.84","","","","","","Cloudy"
"2009-08-28 13:00","2009","08","28","13:00","18.3","","10.8","","62","","8","","22","","24.1","","99.81","","","","","","Cloudy"
"2009-08-28 14:00","2009","08","28","14:00","18.1","","10.8","","62","","9","","26","","24.1","","99.71","","","","","","Mostly Cloudy"
"2009-08-28 15:00","2009","08","28","15:00","18.0","","10.6","","62","","8","","20","","24.1","","99.66","","","","","","Cloudy"
"2009-08-28 16:00","2009","08","28","16:00","18.1","","9.8","","58","","8","","19","","24.1","","99.58","","","","","","Cloudy"
"2009-08-28 17:00","2009","08","28","17:00","18.3","","9.8","","58","","8","","26","","24.1","","99.49","","","","","","Cloudy"
"2009-08-28 18:00","2009","08","28","18:00","17.9","","9.4","","58","","9","","26","","24.1","","99.41","","","","","","Cloudy"
"2009-08-28 19:00","2009","08","28","19:00","18.4","","10.6","","60","","9","","19","","24.1","","99.36","","","","","","Cloudy"
"2009-08-28 20:00","2009","08","28","20:00","18.5","","11.9","","65","","9","","24","","24.1","","99.31","","","","","","Cloudy"
"2009-08-28 21:00","2009","08","28","21:00","18.7","","13.2","","70","","9","","28","","24.1","","99.21","","","","","","Cloudy"
"2009-08-28 22:00","2009","08","28","22:00","17.6","","13.8","","78","","8","","26","","24.1","","99.13","","","","","","Rain"
"2009-08-28 23:00","2009","08","28","23:00","15.6","","14.5","","93","","8","","19","","11.3","","99.02","","","","","","Rain"
"2009-08-29 00:00","2009","08","29","00:00","15.0","","14.4","","96","","7","","24","","12.9","","98.91","","","","","","Heavy Rain"
"2009-08-29 01:00","2009","08","29","01:00","15.0","","14.6","","97","","8","","24","","12.9","","98.76","","","","","","Heavy Rain"
"2009-08-29 02:00","2009","08","29","02:00","15.5","","15.3","","99","","8","","22","","12.9","","98.65","","","","","","Thunderstorms,Rain Showers"
"2009-08-29 03:00","2009","08","29","03:00","16.2","","15.9","","98","","9","","15","","24.1","","98.56","","","","","","Rain"
"2009-08-29 04:00","2009","08","29","04:00","16.3","","16.3","","100","","8","","4","","19.3","","98.54","","","","","","Rain Showers"
"2009-08-29 05:00","2009","08","29","05:00","16.7","","16.7","","100","","3","","6","","16.1","","98.47","","","","","","Cloudy"
"2009-08-29 06:00","2009","08","29","06:00","17.0","","17.0","","100","","8","","6","","2.0","","98.40","","","","","","Fog"
"2009-08-29 07:00","2009","08","29","07:00","17.5","","17.4","","99","","17","","6","","4.8","","98.40","","","","","","Fog"
"2009-08-29 08:00","2009","08","29","08:00","17.7","","17.6","","99","","17","","9","","4.8","","98.35","","","","","","Fog"
"2009-08-29 09:00","2009","08","29","09:00","18.3","","18.0","","98","","25","","15","","6.4","","98.32","","","","","","Fog"
"2009-08-29 10:00","2009","08","29","10:00","19.1","","17.8","","92","","26","","17","","24.1","","98.33","","","","","","Cloudy"
"2009-08-29 11:00","2009","08","29","11:00","20.5","","17.3","","82","","26","","24","","24.1","","98.33","","26","","","","Mostly Cloudy"
"2009-08-29 12:00","2009","08","29","12:00","20.0","","16.4","","80","","25","","20","","24.1","","98.36","","25","","","","Cloudy"
"2009-08-29 13:00","2009","08","29","13:00","20.3","","15.5","","74","","27","","26","","24.1","","98.34","","25","","","","Mostly Cloudy"
"2009-08-29 14:00","2009","08","29","14:00","21.1","","14.6","","66","","25","","37","","24.1","","98.35","","25","","","","Mostly Cloudy"
"2009-08-29 15:00","2009","08","29","15:00","20.7","","13.6","","64","","25","","35","","24.1","","98.39","","","","","","Mainly Clear"
"2009-08-29 16:00","2009","08","29","16:00","20.7","","13.2","","62","","24","","35","","24.1","","98.36","","","","","","Mainly Clear"
"2009-08-29 17:00","2009","08","29","17:00","20.9","","13.4","","62","","23","","32","","24.1","","98.40","","","","","","Mainly Clear"
"2009-08-29 18:00","2009","08","29","18:00","19.7","","13.3","","67","","24","","20","","24.1","","98.45","","","","","","Mainly Clear"
"2009-08-29 19:00","2009","08","29","19:00","19.0","","13.2","","69","","27","","20","","24.1","","98.48","","","","","","Mainly Clear"
"2009-08-29 20:00","2009","08","29","20:00","17.1","","13.1","","77","","28","","19","","24.1","","98.54","","","","","","Clear"
"2009-08-29 21:00","2009","08","29","21:00","16.6","","12.9","","79","","27","","17","","24.1","","98.58","","","","","","Clear"
"2009-08-29 22:00","2009","08","29","22:00","15.6","","11.6","","77","","25","","19","","24.1","","98.62","","","","","","Clear"
"2009-08-29 23:00","2009","08","29","23:00","14.7","","11.5","","81","","24","","15","","24.1","","98.63","","","","","","Clear"
"2009-08-30 00:00","2009","08","30","00:00","15.4","","11.9","","80","","22","","17","","24.1","","98.64","","","","","","Mostly Cloudy"
"2009-08-30 01:00","2009","08","30","01:00","15.1","","12.3","","83","","24","","24","","24.1","","98.63","","","","","","Mostly Cloudy"
"2009-08-30 02:00","2009","08","30","02:00","14.8","","12.5","","86","","24","","24","","24.1","","98.65","","","","","","Mostly Cloudy"
"2009-08-30 03:00","2009","08","30","03:00","14.9","","12.6","","86","","25","","30","","24.1","","98.65","","","","","","Mostly Cloudy"
"2009-08-30 04:00","2009","08","30","04:00","14.4","","12.8","","90","","26","","17","","24.1","","98.72","","","","","","Mostly Cloudy"
"2009-08-30 05:00","2009","08","30","05:00","14.7","","13.3","","91","","27","","13","","24.1","","98.77","","","","","","Mostly Cloudy"
"2009-08-30 06:00","2009","08","30","06:00","14.2","","13.3","","94","","26","","9","","24.1","","98.82","","","","","","Mostly Cloudy"
"2009-08-30 07:00","2009","08","30","07:00","14.8","","12.5","","86","","27","","17","","24.1","","98.90","","","","","","Mostly Cloudy"
"2009-08-30 08:00","2009","08","30","08:00","15.0","","12.5","","85","","27","","19","","24.1","","98.96","","","","","","Cloudy"
"2009-08-30 09:00","2009","08","30","09:00","15.7","","12.1","","79","","27","","17","","24.1","","99.01","","","","","","Cloudy"
"2009-08-30 10:00","2009","08","30","10:00","16.7","","12.3","","75","","29","","20","","24.1","","99.05","","","","","","Mostly Cloudy"
"2009-08-30 11:00","2009","08","30","11:00","16.8","","10.6","","67","","31","","26","","24.1","","99.10","","","","","","Mostly Cloudy"
"2009-08-30 12:00","2009","08","30","12:00","17.2","","10.7","","66","","30","","32","","24.1","","99.13","","","","","","Mostly Cloudy"
"2009-08-30 13:00","2009","08","30","13:00","18.2","","10.6","","61","","31","","28","","24.1","","99.17","","","","","","Mostly Cloudy"
"2009-08-30 14:00","2009","08","30","14:00","15.4","","12.7","","84","","1","","17","","24.1","","99.27","","","","","","Rain Showers"
"2009-08-30 15:00","2009","08","30","15:00","16.8","","12.2","","74","","36","","22","","24.1","","99.34","","","","","","Mostly Cloudy"
"2009-08-30 16:00","2009","08","30","16:00","16.2","","11.1","","72","","34","","24","","24.1","","99.45","","","","","","Mostly Cloudy"
"2009-08-30 17:00","2009","08","30","17:00","15.2","","10.0","","71","","34","","30","","24.1","","99.53","","","","","","Mostly Cloudy"
"2009-08-30 18:00","2009","08","30","18:00","14.6","","10.5","","76","","34","","24","","24.1","","99.62","","","","","","Mostly Cloudy"
"2009-08-30 19:00","2009","08","30","19:00","14.2","","10.5","","78","","33","","22","","24.1","","99.70","","","","","","Mostly Cloudy"
"2009-08-30 20:00","2009","08","30","20:00","13.2","","10.4","","83","","31","","13","","24.1","","99.78","","","","","","Mainly Clear"
"2009-08-30 21:00","2009","08","30","21:00","12.9","","10.0","","83","","32","","15","","24.1","","99.88","","","","","","Mainly Clear"
"2009-08-30 22:00","2009","08","30","22:00","12.2","","9.5","","84","","31","","13","","24.1","","99.93","","","","","","Mainly Clear"
"2009-08-30 23:00","2009","08","30","23:00","11.6","","9.4","","86","","24","","4","","24.1","","100.00","","","","","","Mainly Clear"
"2009-08-31 00:00","2009","08","31","00:00","12.5","","9.9","","84","","","","0","","24.1","","100.07","","","","","","Mainly Clear"
"2009-08-31 01:00","2009","08","31","01:00","12.4","","10.4","","88","","27","","7","","24.1","","100.09","","","","","","Mostly Cloudy"
"2009-08-31 02:00","2009","08","31","02:00","12.5","","10.5","","88","","31","","7","","24.1","","100.07","","","","","","Mostly Cloudy"
"2009-08-31 03:00","2009","08","31","03:00","12.9","","10.3","","84","","31","","6","","24.1","","100.10","","","","","","Mostly Cloudy"
"2009-08-31 04:00","2009","08","31","04:00","12.5","","10.1","","85","","33","","6","","24.1","","100.11","","","","","","Mainly Clear"
"2009-08-31 05:00","2009","08","31","05:00","11.0","","10.0","","94","","1","","6","","24.1","","100.12","","","","","","Mainly Clear"
"2009-08-31 06:00","2009","08","31","06:00","10.9","","9.2","","89","","35","","7","","24.1","","100.19","","","","","","Mainly Clear"
"2009-08-31 07:00","2009","08","31","07:00","12.6","","10.8","","89","","31","","4","","24.1","","100.26","","","","","","Mainly Clear"
"2009-08-31 08:00","2009","08","31","08:00","15.1","","10.1","","72","","","","0","","24.1","","100.31","","","","","","Mainly Clear"
"2009-08-31 09:00","2009","08","31","09:00","16.9","","8.6","","58","","22","","4","","24.1","","100.34","","","","","","Mainly Clear"
"2009-08-31 10:00","2009","08","31","10:00","17.8","","7.8","","52","","26","","6","","24.1","","100.34","","","","","","Mainly Clear"
"2009-08-31 11:00","2009","08","31","11:00","18.8","","7.8","","49","","26","","4","","24.1","","100.32","","","","","","Mainly Clear"
"2009-08-31 12:00","2009","08","31","12:00","19.0","","9.2","","53","","2","","11","","24.1","","100.30","","","","","","Mostly Cloudy"
"2009-08-31 13:00","2009","08","31","13:00","19.8","","8.4","","48","","2","","13","","24.1","","100.29","","","","","","Mostly Cloudy"
"2009-08-31 14:00","2009","08","31","14:00","19.9","","11.4","","58","","7","","7","","24.1","","100.26","","","","","","Mostly Cloudy"
"2009-08-31 15:00","2009","08","31","15:00","19.8","","10.3","","54","","9","","7","","24.1","","100.22","","","","","","Mostly Cloudy"
"2009-08-31 16:00","2009","08","31","16:00","19.9","","7.2","","44","","7","","4","","24.1","","100.19","","","","","","Mostly Cloudy"
"2009-08-31 17:00","2009","08","31","17:00","19.5","","9.5","","52","","18","","6","","24.1","","100.18","","","","","","Mostly Cloudy"
"2009-08-31 18:00","2009","08","31","18:00","19.1","","10.1","","56","","27","","6","","24.1","","100.20","","","","","","Mainly Clear"
"2009-08-31 19:00","2009","08","31","19:00","18.4","","9.2","","55","","2","","9","","24.1","","100.22","","","","","","Mainly Clear"
"2009-08-31 20:00","2009","08","31","20:00","16.5","","9.1","","62","","4","","11","","24.1","","100.28","","","","","","Mainly Clear"
"2009-08-31 21:00","2009","08","31","21:00","15.8","","8.4","","61","","36","","20","","24.1","","100.35","","","","","","Mainly Clear"
"2009-08-31 22:00","2009","08","31","22:00","14.7","","8.4","","66","","36","","15","","24.1","","100.39","","","","","","Clear"
"2009-08-31 23:00","2009","08","31","23:00","13.3","","8.8","","74","","36","","11","","24.1","","100.43","","","","","","Clear"
