"Station Name","TORONTO LESTER B. PEARSON INT'L A"
"Province","ONTARIO"
"Latitude","43.68"
"Longitude","-79.63"
"Elevation","173.40"
"Climate Identifier","6158733"
"WMO Identifier","71624"
"TC Identifier","YYZ"
"All times are specified in Local Standard Time (LST). Add 1 hour to adjust for Daylight Saving Time where and when it is observed."

"Legend"
"E","Estimated"
"M","Missing"
"NA","Not Available"

"Date/Time","Year","Month","Day","Time","Temp (°C)","Temp Flag","Dew Point Temp (°C)","Dew Point Temp Flag","Rel Hum (%)","Rel Hum Flag","Wind Dir (10s deg)","Wind Dir Flag","Wind Spd (km/h)","Wind Spd Flag","Visibility (km)","Visibility Flag","Stn Press (kPa)","Stn Press Flag","Hmdx","Hmdx Flag","Wind Chill","Wind Chill Flag","Weather"
"2005-10-01 00:00","2005","10","01","00:00","12.7","","6.9","","68","","20","","9","","24.1","","99.82","","","","","","Clear"
"2005-10-01 01:00","2005","10","01","01:00","11.6","","7.5","","76","","18","","6","","24.1","","99.82","","","","","","Clear"
"2005-10-01 02:00","2005","10","01","02:00","10.5","","8.0","","84","","","","0","","24.1","","99.83","","","","","","Clear"
"2005-10-01 03:00","2005","10","01","03:00","10.0","","8.0","","87","","","","0","","24.1","","99.86","","","","","","Clear"
"2005-10-01 04:00","2005","10","01","04:00","10.6","","8.0","","84","","27","","4","","24.1","","99.91","","","","","","Clear"
"2005-10-01 05:00","2005","10","01","05:00","10.0","","8.0","","87","","","","0","","24.1","","100.00","","","","","","Clear"
"2005-10-01 06:00","2005","10","01","06:00","10.1","","7.9","","86","","16","","9","","24.1","","100.03","","","","","","Clear"
"2005-10-01 07:00","2005","10","01","07:00","11.2","","8.8","","85","","12","","4","","19.3","","100.09","","","","","","Clear"
"2005-10-01 08:00","2005","10","01","08:00","12.5","","9.3","","81","","16","","6","","19.3","","100.12","","","","","","Clear"
"2005-10-01 09:00","2005","10","01","09:00","16.4","","11.1","","71","","19","","9","","19.3","","100.10","","","","","","Mainly Clear"
"2005-10-01 10:00","2005","10","01","10:00","19.3","","10.2","","56","","23","","22","","24.1","","100.09","","","","","","Mainly Clear"
"2005-10-01 11:00","2005","10","01","11:00","20.8","","9.6","","49","","25","","24","","24.1","","100.12","","","","","","Clear"
"2005-10-01 12:00","2005","10","01","12:00","21.9","","9.8","","46","","24","","22","","24.1","","100.11","","","","","","Clear"
"2005-10-01 13:00","2005","10","01","13:00","22.8","","11.2","","48","","24","","15","","24.1","","100.08","","25","","","","Clear"
"2005-10-01 14:00","2005","10","01","14:00","23.2","","10.6","","45","","22","","19","","24.1","","100.09","","25","","","","Clear"
"2005-10-01 15:00","2005","10","01","15:00","23.6","","10.2","","43","","23","","19","","24.1","","100.08","","25","","","","Clear"
"2005-10-01 16:00","2005","10","01","16:00","23.3","","10.7","","45","","24","","15","","24.1","","100.09","","25","","","","Clear"
"2005-10-01 17:00","2005","10","01","17:00","22.3","","11.2","","49","","22","","22","","24.1","","100.11","","","","","","Clear"
"2005-10-01 18:00","2005","10","01","18:00","20.6","","10.4","","52","","22","","19","","24.1","","100.19","","","","","","Mainly Clear"
"2005-10-01 19:00","2005","10","01","19:00","19.1","","10.4","","57","","22","","15","","24.1","","100.27","","","","","","Mainly Clear"
"2005-10-01 20:00","2005","10","01","20:00","18.1","","9.8","","58","","22","","7","","24.1","","100.32","","","","","","Clear"
"2005-10-01 21:00","2005","10","01","21:00","17.4","","9.6","","60","","19","","6","","24.1","","100.35","","","","","","Clear"
"2005-10-01 22:00","2005","10","01","22:00","16.8","","9.4","","62","","21","","4","","24.1","","100.39","","","","","","Clear"
"2005-10-01 23:00","2005","10","01","23:00","15.6","","9.4","","67","","28","","4","","24.1","","100.44","","","","","","Clear"
"2005-10-02 00:00","2005","10","02","00:00","14.6","","9.4","","71","","26","","4","","24.1","","100.44","","","","","","Clear"
"2005-10-02 01:00","2005","10","02","01:00","14.8","","9.4","","70","","24","","4","","24.1","","100.48","","","","","","Clear"
"2005-10-02 02:00","2005","10","02","02:00","13.2","","9.5","","78","","","","0","","24.1","","100.48","","","","","","Clear"
"2005-10-02 03:00","2005","10","02","03:00","12.5","","9.6","","82","","","","0","","24.1","","100.50","","","","","","Clear"
"2005-10-02 04:00","2005","10","02","04:00","13.1","","9.4","","78","","30","","4","","24.1","","100.51","","","","","","Clear"
"2005-10-02 05:00","2005","10","02","05:00","11.7","","9.2","","85","","33","","6","","24.1","","100.54","","","","","","Clear"
"2005-10-02 06:00","2005","10","02","06:00","11.5","","9.2","","86","","4","","9","","19.3","","100.58","","","","","","Clear"
"2005-10-02 07:00","2005","10","02","07:00","11.6","","9.7","","88","","5","","4","","16.1","","100.65","","","","","","Clear"
"2005-10-02 08:00","2005","10","02","08:00","14.3","","12.0","","86","","","","0","","14.5","","100.69","","","","","","Clear"
"2005-10-02 09:00","2005","10","02","09:00","17.4","","12.3","","72","","17","","4","","16.1","","100.72","","","","","","Clear"
"2005-10-02 10:00","2005","10","02","10:00","19.1","","14.0","","72","","15","","9","","16.1","","100.72","","","","","","Clear"
"2005-10-02 11:00","2005","10","02","11:00","20.0","","14.2","","69","","13","","7","","16.1","","100.70","","","","","","Clear"
"2005-10-02 12:00","2005","10","02","12:00","21.3","","14.5","","65","","16","","13","","19.3","","100.68","","25","","","","Clear"
"2005-10-02 13:00","2005","10","02","13:00","21.9","","13.8","","60","","14","","13","","24.1","","100.62","","25","","","","Clear"
"2005-10-02 14:00","2005","10","02","14:00","22.2","","13.7","","59","","16","","15","","24.1","","100.62","","25","","","","Mainly Clear"
"2005-10-02 15:00","2005","10","02","15:00","22.2","","13.6","","58","","15","","9","","24.1","","100.58","","25","","","","Mainly Clear"
"2005-10-02 16:00","2005","10","02","16:00","21.2","","12.5","","58","","16","","15","","24.1","","100.56","","","","","","Mainly Clear"
"2005-10-02 17:00","2005","10","02","17:00","19.8","","11.7","","60","","16","","9","","24.1","","100.54","","","","","","Mainly Clear"
"2005-10-02 18:00","2005","10","02","18:00","17.2","","11.2","","68","","16","","13","","24.1","","100.51","","","","","","Mainly Clear"
"2005-10-02 19:00","2005","10","02","19:00","16.7","","10.9","","69","","15","","6","","24.1","","100.53","","","","","","Clear"
"2005-10-02 20:00","2005","10","02","20:00","16.7","","11.8","","73","","14","","4","","24.1","","100.57","","","","","","Clear"
"2005-10-02 21:00","2005","10","02","21:00","15.6","","11.4","","76","","5","","7","","24.1","","100.58","","","","","","Clear"
"2005-10-02 22:00","2005","10","02","22:00","16.0","","11.3","","74","","5","","7","","24.1","","100.58","","","","","","Clear"
"2005-10-02 23:00","2005","10","02","23:00","15.6","","11.6","","77","","5","","6","","24.1","","100.57","","","","","","Clear"
"2005-10-03 00:00","2005","10","03","00:00","14.4","","11.6","","83","","32","","7","","19.3","","100.55","","","","","","Clear"
"2005-10-03 01:00","2005","10","03","01:00","13.8","","11.5","","86","","1","","6","","19.3","","100.54","","","","","","Clear"
"2005-10-03 02:00","2005","10","03","02:00","13.9","","11.7","","87","","36","","4","","16.1","","100.53","","","","","","Mainly Clear"
"2005-10-03 03:00","2005","10","03","03:00","13.5","","11.6","","88","","33","","6","","14.5","","100.53","","","","","","Clear"
"2005-10-03 04:00","2005","10","03","04:00","13.9","","11.8","","87","","2","","6","","14.5","","100.53","","","","","","Clear"
"2005-10-03 05:00","2005","10","03","05:00","13.9","","11.7","","87","","","","0","","11.3","","100.51","","","","","","Clear"
"2005-10-03 06:00","2005","10","03","06:00","14.9","","12.6","","86","","17","","4","","4.8","","100.57","","","","","","Haze"
"2005-10-03 07:00","2005","10","03","07:00","15.4","","13.2","","87","","16","","6","","4.8","","100.60","","","","","","Haze"
"2005-10-03 08:00","2005","10","03","08:00","16.1","","13.5","","85","","16","","6","","6.4","","100.60","","","","","","Haze"
"2005-10-03 09:00","2005","10","03","09:00","17.7","","14.9","","84","","17","","7","","8.0","","100.57","","","","","","Haze"
"2005-10-03 10:00","2005","10","03","10:00","19.6","","15.9","","79","","21","","6","","8.0","","100.58","","","","","","Haze"
"2005-10-03 11:00","2005","10","03","11:00","22.3","","17.2","","73","","18","","7","","8.0","","100.56","","28","","","","Haze"
"2005-10-03 12:00","2005","10","03","12:00","24.1","","18.1","","69","","17","","7","","11.3","","100.55","","30","","","","Mostly Cloudy"
"2005-10-03 13:00","2005","10","03","13:00","24.3","","18.1","","68","","15","","9","","14.5","","100.47","","30","","","","Mainly Clear"
"2005-10-03 14:00","2005","10","03","14:00","24.0","","18.4","","71","","15","","11","","9.7","","100.44","","30","","","","Haze"
"2005-10-03 15:00","2005","10","03","15:00","22.5","","18.0","","76","","16","","11","","9.7","","100.42","","29","","","","Haze"
"2005-10-03 16:00","2005","10","03","16:00","22.2","","17.8","","76","","16","","13","","9.7","","100.38","","28","","","","Haze"
"2005-10-03 17:00","2005","10","03","17:00","20.5","","17.0","","80","","16","","13","","9.7","","100.39","","26","","","","Haze"
"2005-10-03 18:00","2005","10","03","18:00","19.9","","17.0","","83","","15","","9","","8.0","","100.42","","","","","","Haze"
"2005-10-03 19:00","2005","10","03","19:00","19.7","","16.9","","84","","16","","7","","8.0","","100.43","","","","","","Haze"
"2005-10-03 20:00","2005","10","03","20:00","19.5","","16.9","","85","","14","","6","","8.0","","100.46","","","","","","Haze"
"2005-10-03 21:00","2005","10","03","21:00","18.6","","16.6","","88","","15","","7","","6.4","","100.46","","","","","","Fog"
"2005-10-03 22:00","2005","10","03","22:00","18.1","","16.3","","89","","17","","6","","6.4","","100.47","","","","","","Fog"
"2005-10-03 23:00","2005","10","03","23:00","17.5","","15.9","","90","","17","","4","","6.4","","100.43","","","","","","Fog"
"2005-10-04 00:00","2005","10","04","00:00","17.3","","15.8","","91","","","","0","","6.4","","100.43","","","","","","Fog"
"2005-10-04 01:00","2005","10","04","01:00","16.8","","15.7","","93","","","","0","","6.4","","100.42","","","","","","Fog"
"2005-10-04 02:00","2005","10","04","02:00","16.3","","15.4","","94","","12","","4","","4.8","","100.39","","","","","","Fog"
"2005-10-04 03:00","2005","10","04","03:00","16.4","","15.5","","94","","","","0","","4.8","","100.39","","","","","","Fog"
"2005-10-04 04:00","2005","10","04","04:00","16.5","","15.6","","94","","12","","4","","4.0","","100.41","","","","","","Fog"
"2005-10-04 05:00","2005","10","04","05:00","16.3","","15.5","","95","","","","0","","3.2","","100.46","","","","","","Fog"
"2005-10-04 06:00","2005","10","04","06:00","16.4","","15.6","","95","","17","","6","","2.4","","100.47","","","","","","Fog"
"2005-10-04 07:00","2005","10","04","07:00","16.4","","15.9","","97","","15","","4","","0.8","","100.51","","","","","","Fog"
"2005-10-04 08:00","2005","10","04","08:00","17.6","","16.6","","94","","19","","6","","2.0","","100.55","","","","","","Fog"
"2005-10-04 09:00","2005","10","04","09:00","20.9","","17.8","","82","","22","","7","","4.8","","100.54","","27","","","","Haze"
"2005-10-04 10:00","2005","10","04","10:00","23.5","","18.8","","75","","17","","6","","6.4","","100.52","","30","","","","Haze"
"2005-10-04 11:00","2005","10","04","11:00","23.6","","18.6","","74","","14","","13","","6.4","","100.50","","30","","","","Haze"
"2005-10-04 12:00","2005","10","04","12:00","23.8","","18.5","","72","","17","","17","","8.0","","100.43","","30","","","","Haze"
"2005-10-04 13:00","2005","10","04","13:00","25.7","","19.2","","67","","18","","15","","9.7","","100.37","","33","","","","Haze"
"2005-10-04 14:00","2005","10","04","14:00","25.8","","18.8","","65","","15","","17","","9.7","","100.34","","32","","","","Haze"
"2005-10-04 15:00","2005","10","04","15:00","25.4","","18.3","","65","","17","","17","","11.3","","100.27","","32","","","","Clear"
"2005-10-04 16:00","2005","10","04","16:00","24.5","","17.5","","65","","16","","15","","11.3","","100.25","","30","","","","Clear"
"2005-10-04 17:00","2005","10","04","17:00","23.6","","17.2","","67","","16","","13","","11.3","","100.24","","29","","","","Clear"
"2005-10-04 18:00","2005","10","04","18:00","21.7","","16.9","","74","","15","","11","","8.0","","100.25","","27","","","","Haze"
"2005-10-04 19:00","2005","10","04","19:00","20.2","","16.4","","79","","13","","9","","11.3","","100.28","","25","","","","Clear"
"2005-10-04 20:00","2005","10","04","20:00","19.5","","15.7","","79","","14","","7","","9.7","","100.28","","","","","","Haze"
"2005-10-04 21:00","2005","10","04","21:00","19.3","","15.4","","78","","14","","7","","9.7","","100.29","","","","","","Haze"
"2005-10-04 22:00","2005","10","04","22:00","18.8","","14.9","","78","","16","","6","","9.7","","100.26","","","","","","Haze"
"2005-10-04 23:00","2005","10","04","23:00","18.4","","14.9","","80","","16","","4","","9.7","","100.26","","","","","","Haze"
"2005-10-05 00:00","2005","10","05","00:00","17.3","","14.6","","84","","","","0","","8.0","","100.24","","","","","","Haze"
"2005-10-05 01:00","2005","10","05","01:00","17.4","","14.8","","85","","","","0","","6.4","","100.24","","","","","","Haze"
"2005-10-05 02:00","2005","10","05","02:00","16.4","","14.3","","87","","","","0","","6.4","","100.24","","","","","","Haze"
"2005-10-05 03:00","2005","10","05","03:00","16.3","","14.7","","90","","","","0","","4.8","","100.23","","","","","","Fog"
"2005-10-05 04:00","2005","10","05","04:00","15.9","","14.8","","93","","","","0","","4.8","","100.25","","","","","","Fog"
"2005-10-05 05:00","2005","10","05","05:00","14.3","","13.7","","96","","34","","4","","4.8","","100.29","","","","","","Fog"
"2005-10-05 06:00","2005","10","05","06:00","14.9","","13.8","","93","","13","","4","","4.8","","100.26","","","","","","Fog"
"2005-10-05 07:00","2005","10","05","07:00","16.1","","15.0","","93","","15","","6","","1.6","","100.28","","","","","","Fog"
"2005-10-05 08:00","2005","10","05","08:00","16.9","","15.5","","91","","14","","6","","1.6","","100.27","","","","","","Fog"
"2005-10-05 09:00","2005","10","05","09:00","18.6","","16.3","","86","","16","","11","","4.8","","100.27","","","","","","Haze"
"2005-10-05 10:00","2005","10","05","10:00","20.7","","17.4","","81","","17","","9","","6.4","","100.26","","26","","","","Haze"
"2005-10-05 11:00","2005","10","05","11:00","22.3","","17.5","","74","","18","","6","","8.0","","100.23","","28","","","","Haze"
"2005-10-05 12:00","2005","10","05","12:00","23.4","","17.8","","71","","16","","13","","9.7","","100.17","","29","","","","Haze"
"2005-10-05 13:00","2005","10","05","13:00","23.6","","17.7","","70","","15","","17","","9.7","","100.10","","29","","","","Haze"
"2005-10-05 14:00","2005","10","05","14:00","24.0","","17.3","","66","","16","","22","","12.9","","100.05","","29","","","","Clear"
"2005-10-05 15:00","2005","10","05","15:00","24.1","","17.0","","65","","16","","15","","14.5","","100.03","","29","","","","Clear"
"2005-10-05 16:00","2005","10","05","16:00","23.2","","17.2","","69","","14","","13","","14.5","","100.03","","29","","","","Clear"
"2005-10-05 17:00","2005","10","05","17:00","22.2","","16.8","","71","","15","","13","","12.9","","100.03","","27","","","","Clear"
"2005-10-05 18:00","2005","10","05","18:00","19.7","","15.8","","78","","15","","13","","11.3","","100.02","","","","","","Clear"
"2005-10-05 19:00","2005","10","05","19:00","18.9","","15.6","","81","","13","","9","","11.3","","100.03","","","","","","Clear"
"2005-10-05 20:00","2005","10","05","20:00","18.5","","15.8","","84","","15","","4","","12.9","","100.01","","","","","","Clear"
"2005-10-05 21:00","2005","10","05","21:00","18.2","","15.7","","85","","14","","6","","11.3","","99.98","","","","","","Clear"
"2005-10-05 22:00","2005","10","05","22:00","17.8","","15.7","","88","","","","0","","9.7","","99.97","","","","","","Haze"
"2005-10-05 23:00","2005","10","05","23:00","17.2","","15.5","","90","","9","","4","","9.7","","99.91","","","","","","Fog"
"2005-10-06 00:00","2005","10","06","00:00","17.5","","15.5","","88","","14","","4","","9.7","","99.90","","","","","","Fog"
"2005-10-06 01:00","2005","10","06","01:00","16.7","","15.3","","91","","","","0","","8.0","","99.87","","","","","","Fog"
"2005-10-06 02:00","2005","10","06","02:00","16.3","","15.2","","93","","17","","4","","6.4","","99.85","","","","","","Fog"
"2005-10-06 03:00","2005","10","06","03:00","16.0","","14.9","","93","","16","","6","","6.4","","99.82","","","","","","Fog"
"2005-10-06 04:00","2005","10","06","04:00","15.8","","14.9","","94","","","","0","","4.8","","99.78","","","","","","Fog"
"2005-10-06 05:00","2005","10","06","05:00","15.5","","14.8","","96","","14","","4","","4.8","","99.75","","","","","","Fog"
"2005-10-06 06:00","2005","10","06","06:00","15.9","","15.2","","96","","15","","6","","4.0","","99.77","","","","","","Fog"
"2005-10-06 07:00","2005","10","06","07:00","16.3","","15.5","","95","","14","","7","","4.0","","99.73","","","","","","Fog"
"2005-10-06 08:00","2005","10","06","08:00","17.9","","16.6","","92","","16","","6","","4.8","","99.67","","","","","","Fog"
"2005-10-06 09:00","2005","10","06","09:00","19.7","","17.3","","86","","17","","15","","11.3","","99.65","","","","","","Clear"
"2005-10-06 10:00","2005","10","06","10:00","22.1","","18.2","","79","","17","","11","","19.3","","99.60","","28","","","","Clear"
"2005-10-06 11:00","2005","10","06","11:00","23.2","","18.6","","75","","14","","15","","24.1","","99.54","","30","","","","Clear"
"2005-10-06 12:00","2005","10","06","12:00","25.0","","19.0","","69","","18","","19","","24.1","","99.49","","32","","","","Mainly Clear"
"2005-10-06 13:00","2005","10","06","13:00","25.4","","18.7","","66","","17","","24","","24.1","","99.41","","32","","","","Mostly Cloudy"
"2005-10-06 14:00","2005","10","06","14:00","25.8","","19.0","","66","","18","","19","","24.1","","99.36","","33","","","","Mainly Clear"
"2005-10-06 15:00","2005","10","06","15:00","25.7","","18.8","","66","","17","","19","","24.1","","99.30","","32","","","","Mostly Cloudy"
"2005-10-06 16:00","2005","10","06","16:00","25.8","","18.9","","66","","17","","20","","24.1","","99.28","","32","","","","Mainly Clear"
"2005-10-06 17:00","2005","10","06","17:00","25.5","","16.6","","58","","22","","28","","24.1","","99.27","","31","","","","Mainly Clear"
"2005-10-06 18:00","2005","10","06","18:00","24.7","","16.7","","61","","21","","17","","19.3","","99.28","","30","","","","Mainly Clear"
"2005-10-06 19:00","2005","10","06","19:00","23.9","","17.0","","65","","20","","15","","19.3","","99.27","","29","","","","Clear"
"2005-10-06 20:00","2005","10","06","20:00","23.2","","17.2","","69","","22","","13","","24.1","","99.28","","29","","","","Clear"
"2005-10-06 21:00","2005","10","06","21:00","19.2","","15.7","","80","","33","","37","","16.1","","99.36","","","","","","Mainly Clear"
"2005-10-06 22:00","2005","10","06","22:00","17.9","","14.8","","82","","32","","26","","16.1","","99.41","","","","","","Mostly Cloudy"
"2005-10-06 23:00","2005","10","06","23:00","16.8","","13.0","","78","","34","","20","","24.1","","99.44","","","","","","Mainly Clear"
"2005-10-07 00:00","2005","10","07","00:00","16.4","","11.9","","75","","34","","17","","24.1","","99.47","","","","","","Mostly Cloudy"
"2005-10-07 01:00","2005","10","07","01:00","14.0","","11.2","","83","","36","","22","","24.1","","99.53","","","","","","Mostly Cloudy"
"2005-10-07 02:00","2005","10","07","02:00","13.2","","10.0","","81","","35","","24","","24.1","","99.52","","","","","","Mostly Cloudy"
"2005-10-07 03:00","2005","10","07","03:00","13.1","","9.3","","78","","34","","15","","24.1","","99.56","","","","","","Mostly Cloudy"
"2005-10-07 04:00","2005","10","07","04:00","13.1","","9.3","","78","","34","","22","","24.1","","99.57","","","","","","Cloudy"
"2005-10-07 05:00","2005","10","07","05:00","12.9","","9.0","","77","","35","","20","","24.1","","99.59","","","","","","Cloudy"
"2005-10-07 06:00","2005","10","07","06:00","12.8","","8.5","","75","","34","","24","","24.1","","99.63","","","","","","Cloudy"
"2005-10-07 07:00","2005","10","07","07:00","12.6","","8.2","","75","","35","","26","","24.1","","99.62","","","","","","Cloudy"
"2005-10-07 08:00","2005","10","07","08:00","12.6","","8.3","","75","","36","","22","","24.1","","99.63","","","","","","Cloudy"
"2005-10-07 09:00","2005","10","07","09:00","11.5","","9.2","","86","","36","","19","","14.5","","99.66","","","","","","Moderate Rain"
"2005-10-07 10:00","2005","10","07","10:00","12.0","","10.1","","88","","36","","15","","19.3","","99.65","","","","","","Rain"
"2005-10-07 11:00","2005","10","07","11:00","12.0","","10.7","","92","","4","","11","","19.3","","99.65","","","","","","Rain"
"2005-10-07 12:00","2005","10","07","12:00","12.3","","10.1","","86","","2","","19","","24.1","","99.60","","","","","","Cloudy"
"2005-10-07 13:00","2005","10","07","13:00","12.1","","9.4","","84","","2","","20","","24.1","","99.55","","","","","","Rain"
"2005-10-07 14:00","2005","10","07","14:00","11.9","","8.3","","79","","3","","22","","24.1","","99.52","","","","","","Rain"
"2005-10-07 15:00","2005","10","07","15:00","12.0","","8.4","","79","","2","","24","","24.1","","99.48","","","","","","Rain"
"2005-10-07 16:00","2005","10","07","16:00","12.3","","7.8","","74","","5","","22","","24.1","","99.47","","","","","","Cloudy"
"2005-10-07 17:00","2005","10","07","17:00","12.3","","7.6","","73","","4","","20","","24.1","","99.47","","","","","","Cloudy"
"2005-10-07 18:00","2005","10","07","18:00","12.2","","8.3","","77","","4","","13","","24.1","","99.45","","","","","","Cloudy"
"2005-10-07 19:00","2005","10","07","19:00","11.4","","6.9","","74","","1","","22","","24.1","","99.49","","","","","","Cloudy"
"2005-10-07 20:00","2005","10","07","20:00","10.7","","6.8","","77","","36","","22","","24.1","","99.51","","","","","","Cloudy"
"2005-10-07 21:00","2005","10","07","21:00","9.6","","6.8","","83","","34","","20","","24.1","","99.52","","","","","","Rain"
"2005-10-07 22:00","2005","10","07","22:00","9.8","","4.9","","72","","4","","30","","24.1","","99.53","","","","","","Cloudy"
"2005-10-07 23:00","2005","10","07","23:00","9.0","","1.9","","61","","5","","20","","24.1","","99.53","","","","","","Cloudy"
"2005-10-08 00:00","2005","10","08","00:00","7.9","","1.0","","62","","4","","20","","24.1","","99.55","","","","","","Mostly Cloudy"
"2005-10-08 01:00","2005","10","08","01:00","7.5","","0.7","","62","","3","","30","","24.1","","99.57","","","","","","Mostly Cloudy"
"2005-10-08 02:00","2005","10","08","02:00","7.2","","0.3","","61","","3","","28","","24.1","","99.58","","","","","","Mostly Cloudy"
"2005-10-08 03:00","2005","10","08","03:00","7.1","","0.4","","62","","4","","24","","24.1","","99.59","","","","","","Mostly Cloudy"
"2005-10-08 04:00","2005","10","08","04:00","6.8","","0.3","","63","","2","","32","","24.1","","99.61","","","","","","Cloudy"
"2005-10-08 05:00","2005","10","08","05:00","6.6","","0.2","","64","","4","","26","","24.1","","99.67","","","","","","Cloudy"
"2005-10-08 06:00","2005","10","08","06:00","6.5","","0.1","","64","","3","","24","","24.1","","99.72","","","","","","Cloudy"
"2005-10-08 07:00","2005","10","08","07:00","6.5","","0.2","","64","","4","","28","","24.1","","99.74","","","","","","Cloudy"
"2005-10-08 08:00","2005","10","08","08:00","6.6","","0.5","","65","","5","","28","","24.1","","99.77","","","","","","Cloudy"
"2005-10-08 09:00","2005","10","08","09:00","6.7","","0.5","","65","","3","","26","","24.1","","99.78","","","","","","Cloudy"
"2005-10-08 10:00","2005","10","08","10:00","7.6","","1.2","","64","","3","","20","","24.1","","99.74","","","","","","Cloudy"
"2005-10-08 11:00","2005","10","08","11:00","8.7","","1.6","","61","","2","","19","","24.1","","99.73","","","","","","Mostly Cloudy"
"2005-10-08 12:00","2005","10","08","12:00","10.6","","2.7","","58","","4","","20","","24.1","","99.70","","","","","","Mostly Cloudy"
"2005-10-08 13:00","2005","10","08","13:00","11.4","","2.2","","53","","4","","22","","24.1","","99.63","","","","","","Mostly Cloudy"
"2005-10-08 14:00","2005","10","08","14:00","11.9","","1.4","","49","","2","","20","","24.1","","99.58","","","","","","Mainly Clear"
"2005-10-08 15:00","2005","10","08","15:00","13.2","","1.8","","46","","1","","19","","24.1","","99.56","","","","","","Mainly Clear"
"2005-10-08 16:00","2005","10","08","16:00","13.0","","1.7","","46","","2","","28","","24.1","","99.57","","","","","","Mainly Clear"
"2005-10-08 17:00","2005","10","08","17:00","12.5","","1.9","","48","","1","","20","","24.1","","99.61","","","","","","Mainly Clear"
"2005-10-08 18:00","2005","10","08","18:00","11.1","","1.5","","52","","1","","17","","24.1","","99.67","","","","","","Clear"
"2005-10-08 19:00","2005","10","08","19:00","10.2","","2.0","","57","","3","","15","","24.1","","99.71","","","","","","Clear"
"2005-10-08 20:00","2005","10","08","20:00","10.2","","1.7","","56","","5","","11","","24.1","","99.75","","","","","","Mainly Clear"
"2005-10-08 21:00","2005","10","08","21:00","9.2","","2.1","","61","","5","","13","","24.1","","99.76","","","","","","Mainly Clear"
"2005-10-08 22:00","2005","10","08","22:00","8.7","","1.9","","62","","5","","19","","24.1","","99.76","","","","","","Mainly Clear"
"2005-10-08 23:00","2005","10","08","23:00","8.8","","1.7","","61","","5","","17","","24.1","","99.74","","","","","","Mostly Cloudy"
"2005-10-09 00:00","2005","10","09","00:00","7.5","","1.5","","66","","4","","20","","24.1","","99.74","","","","","","Mostly Cloudy"
"2005-10-09 01:00","2005","10","09","01:00","6.8","","1.4","","68","","3","","19","","24.1","","99.73","","","","","","Mostly Cloudy"
"2005-10-09 02:00","2005","10","09","02:00","6.4","","1.2","","69","","4","","22","","24.1","","99.73","","","","","","Mostly Cloudy"
"2005-10-09 03:00","2005","10","09","03:00","6.2","","1.2","","70","","4","","19","","24.1","","99.73","","","","","","Mostly Cloudy"
"2005-10-09 04:00","2005","10","09","04:00","5.8","","1.3","","73","","3","","17","","24.1","","99.76","","","","","","Mostly Cloudy"
"2005-10-09 05:00","2005","10","09","05:00","5.4","","1.2","","74","","3","","19","","24.1","","99.79","","","","","","Mostly Cloudy"
"2005-10-09 06:00","2005","10","09","06:00","4.9","","1.1","","76","","1","","19","","24.1","","99.81","","","","","","Mostly Cloudy"
"2005-10-09 07:00","2005","10","09","07:00","3.8","","1.4","","84","","36","","17","","24.1","","99.85","","","","","","Mostly Cloudy"
"2005-10-09 08:00","2005","10","09","08:00","5.5","","2.1","","79","","1","","17","","24.1","","99.89","","","","","","Mainly Clear"
"2005-10-09 09:00","2005","10","09","09:00","6.8","","2.2","","72","","3","","24","","24.1","","99.91","","","","","","Mainly Clear"
"2005-10-09 10:00","2005","10","09","10:00","8.1","","3.3","","72","","2","","15","","24.1","","99.88","","","","","","Mostly Cloudy"
"2005-10-09 11:00","2005","10","09","11:00","9.6","","4.1","","69","","1","","19","","24.1","","99.84","","","","","","Mainly Clear"
"2005-10-09 12:00","2005","10","09","12:00","10.6","","4.5","","66","","5","","9","","24.1","","99.81","","","","","","Mostly Cloudy"
"2005-10-09 13:00","2005","10","09","13:00","12.5","","5.7","","63","","9","","9","","24.1","","99.78","","","","","","Mostly Cloudy"
"2005-10-09 14:00","2005","10","09","14:00","14.1","","6.9","","62","","5","","9","","24.1","","99.76","","","","","","Mostly Cloudy"
"2005-10-09 15:00","2005","10","09","15:00","14.8","","6.8","","59","","5","","15","","24.1","","99.77","","","","","","Mainly Clear"
"2005-10-09 16:00","2005","10","09","16:00","12.3","","7.2","","71","","16","","13","","24.1","","99.80","","","","","","Mainly Clear"
"2005-10-09 17:00","2005","10","09","17:00","11.4","","6.8","","73","","15","","9","","24.1","","99.83","","","","","","Mainly Clear"
"2005-10-09 18:00","2005","10","09","18:00","10.3","","7.2","","81","","14","","7","","24.1","","99.90","","","","","","Mainly Clear"
"2005-10-09 19:00","2005","10","09","19:00","9.7","","7.8","","88","","15","","6","","24.1","","99.96","","","","","","Mostly Cloudy"
"2005-10-09 20:00","2005","10","09","20:00","10.8","","8.2","","84","","7","","4","","24.1","","100.00","","","","","","Mostly Cloudy"
"2005-10-09 21:00","2005","10","09","21:00","11.1","","8.0","","81","","7","","6","","24.1","","100.01","","","","","","Cloudy"
"2005-10-09 22:00","2005","10","09","22:00","11.1","","8.9","","86","","8","","11","","24.1","","100.01","","","","","","Cloudy"
"2005-10-09 23:00","2005","10","09","23:00","11.4","","8.0","","80","","7","","11","","24.1","","99.98","","","","","","Mostly Cloudy"
"2005-10-10 00:00","2005","10","10","00:00","11.5","","7.8","","78","","7","","15","","24.1","","99.94","","","","","","Cloudy"
"2005-10-10 01:00","2005","10","10","01:00","11.4","","7.4","","76","","8","","13","","24.1","","99.93","","","","","","Cloudy"
"2005-10-10 02:00","2005","10","10","02:00","11.4","","7.9","","79","","7","","11","","24.1","","99.93","","","","","","Cloudy"
"2005-10-10 03:00","2005","10","10","03:00","11.1","","7.9","","81","","6","","11","","24.1","","99.89","","","","","","Cloudy"
"2005-10-10 04:00","2005","10","10","04:00","11.0","","8.1","","82","","6","","11","","24.1","","99.90","","","","","","Cloudy"
"2005-10-10 05:00","2005","10","10","05:00","10.7","","8.1","","84","","5","","11","","24.1","","99.90","","","","","","Cloudy"
"2005-10-10 06:00","2005","10","10","06:00","10.6","","8.6","","87","","5","","9","","24.1","","99.95","","","","","","Cloudy"
"2005-10-10 07:00","2005","10","10","07:00","10.7","","8.5","","86","","4","","11","","24.1","","99.98","","","","","","Cloudy"
"2005-10-10 08:00","2005","10","10","08:00","10.6","","8.7","","88","","5","","17","","24.1","","100.00","","","","","","Cloudy"
"2005-10-10 09:00","2005","10","10","09:00","10.5","","9.6","","94","","6","","11","","9.7","","100.04","","","","","","Drizzle"
"2005-10-10 10:00","2005","10","10","10:00","11.4","","10.4","","94","","8","","11","","24.1","","99.99","","","","","","Drizzle"
"2005-10-10 11:00","2005","10","10","11:00","11.5","","9.1","","85","","3","","13","","24.1","","99.97","","","","","","Cloudy"
"2005-10-10 12:00","2005","10","10","12:00","12.3","","9.4","","82","","36","","7","","24.1","","99.94","","","","","","Cloudy"
"2005-10-10 13:00","2005","10","10","13:00","12.4","","9.6","","83","","36","","7","","24.1","","99.90","","","","","","Cloudy"
"2005-10-10 14:00","2005","10","10","14:00","12.8","","9.7","","81","","4","","7","","24.1","","99.91","","","","","","Cloudy"
"2005-10-10 15:00","2005","10","10","15:00","12.8","","9.5","","80","","4","","6","","24.1","","99.92","","","","","","Cloudy"
"2005-10-10 16:00","2005","10","10","16:00","12.7","","9.3","","80","","","","0","","24.1","","99.91","","","","","","Cloudy"
"2005-10-10 17:00","2005","10","10","17:00","12.4","","9.8","","84","","2","","11","","24.1","","99.89","","","","","","Cloudy"
"2005-10-10 18:00","2005","10","10","18:00","11.9","","10.2","","89","","3","","11","","24.1","","99.95","","","","","","Cloudy"
"2005-10-10 19:00","2005","10","10","19:00","11.9","","10.4","","91","","3","","7","","24.1","","100.00","","","","","","Cloudy"
"2005-10-10 20:00","2005","10","10","20:00","11.9","","10.0","","88","","2","","13","","24.1","","100.03","","","","","","Cloudy"
"2005-10-10 21:00","2005","10","10","21:00","11.8","","10.1","","89","","5","","11","","24.1","","100.06","","","","","","Cloudy"
"2005-10-10 22:00","2005","10","10","22:00","11.9","","10.2","","89","","5","","9","","24.1","","100.07","","","","","","Cloudy"
"2005-10-10 23:00","2005","10","10","23:00","11.8","","10.1","","89","","5","","7","","24.1","","100.03","","","","","","Mostly Cloudy"
"2005-10-11 00:00","2005","10","11","00:00","11.1","","9.8","","92","","4","","9","","24.1","","100.01","","","","","","Mostly Cloudy"
"2005-10-11 01:00","2005","10","11","01:00","10.1","","9.6","","97","","1","","11","","24.1","","99.99","","","","","","Mainly Clear"
"2005-10-11 02:00","2005","10","11","02:00","10.0","","9.4","","96","","1","","11","","24.1","","99.98","","","","","","Mostly Cloudy"
"2005-10-11 03:00","2005","10","11","03:00","10.3","","9.5","","95","","2","","19","","24.1","","99.98","","","","","","Mostly Cloudy"
"2005-10-11 04:00","2005","10","11","04:00","10.7","","9.4","","92","","5","","11","","24.1","","100.03","","","","","","Cloudy"
"2005-10-11 05:00","2005","10","11","05:00","11.2","","9.6","","90","","4","","9","","24.1","","100.06","","","","","","Cloudy"
"2005-10-11 06:00","2005","10","11","06:00","11.5","","9.5","","88","","4","","17","","24.1","","100.09","","","","","","Cloudy"
"2005-10-11 07:00","2005","10","11","07:00","11.5","","9.8","","89","","3","","11","","24.1","","100.11","","","","","","Mostly Cloudy"
"2005-10-11 08:00","2005","10","11","08:00","12.2","","10.0","","86","","5","","13","","24.1","","100.18","","","","","","Cloudy"
"2005-10-11 09:00","2005","10","11","09:00","13.0","","10.4","","84","","5","","15","","24.1","","100.20","","","","","","Cloudy"
"2005-10-11 10:00","2005","10","11","10:00","13.7","","10.7","","82","","7","","13","","24.1","","100.19","","","","","","Cloudy"
"2005-10-11 11:00","2005","10","11","11:00","14.0","","10.7","","80","","4","","17","","24.1","","100.19","","","","","","Cloudy"
"2005-10-11 12:00","2005","10","11","12:00","13.9","","11.6","","86","","6","","9","","24.1","","100.18","","","","","","Cloudy"
"2005-10-11 13:00","2005","10","11","13:00","14.1","","11.8","","86","","4","","11","","24.1","","100.15","","","","","","Cloudy"
"2005-10-11 14:00","2005","10","11","14:00","14.9","","11.7","","81","","7","","7","","24.1","","100.12","","","","","","Cloudy"
"2005-10-11 15:00","2005","10","11","15:00","15.2","","11.7","","80","","5","","9","","24.1","","100.12","","","","","","Cloudy"
"2005-10-11 16:00","2005","10","11","16:00","14.3","","12.5","","89","","15","","11","","24.1","","100.13","","","","","","Cloudy"
"2005-10-11 17:00","2005","10","11","17:00","13.1","","12.7","","97","","13","","13","","4.8","","100.16","","","","","","Drizzle"
"2005-10-11 18:00","2005","10","11","18:00","13.0","","12.8","","99","","10","","7","","4.8","","100.17","","","","","","Drizzle,Fog"
"2005-10-11 19:00","2005","10","11","19:00","13.3","","12.9","","97","","9","","6","","11.3","","100.22","","","","","","Drizzle"
"2005-10-11 20:00","2005","10","11","20:00","13.5","","13.3","","99","","10","","7","","8.0","","100.23","","","","","","Drizzle,Fog"
"2005-10-11 21:00","2005","10","11","21:00","13.6","","13.4","","99","","12","","7","","11.3","","100.26","","","","","","Rain"
"2005-10-11 22:00","2005","10","11","22:00","13.5","","13.2","","98","","9","","9","","11.3","","100.26","","","","","","Cloudy"
"2005-10-11 23:00","2005","10","11","23:00","13.2","","12.8","","97","","8","","13","","9.7","","100.22","","","","","","Drizzle,Fog"
"2005-10-12 00:00","2005","10","12","00:00","12.9","","12.2","","96","","7","","13","","11.3","","100.18","","","","","","Cloudy"
"2005-10-12 01:00","2005","10","12","01:00","12.3","","12.0","","98","","7","","9","","6.4","","100.19","","","","","","Drizzle,Fog"
"2005-10-12 02:00","2005","10","12","02:00","12.2","","11.9","","98","","10","","7","","4.8","","100.19","","","","","","Drizzle,Fog"
"2005-10-12 03:00","2005","10","12","03:00","12.1","","12.1","","100","","7","","9","","4.0","","100.18","","","","","","Drizzle,Fog"
"2005-10-12 04:00","2005","10","12","04:00","12.1","","11.6","","97","","8","","9","","9.7","","100.16","","","","","","Fog"
"2005-10-12 05:00","2005","10","12","05:00","12.1","","11.0","","93","","8","","13","","16.1","","100.13","","","","","","Cloudy"
"2005-10-12 06:00","2005","10","12","06:00","11.9","","9.7","","86","","7","","13","","19.3","","100.14","","","","","","Cloudy"
"2005-10-12 07:00","2005","10","12","07:00","11.8","","9.6","","86","","7","","11","","19.3","","100.21","","","","","","Cloudy"
"2005-10-12 08:00","2005","10","12","08:00","11.4","","10.7","","95","","6","","9","","6.4","","100.24","","","","","","Drizzle,Fog"
"2005-10-12 09:00","2005","10","12","09:00","11.9","","10.8","","93","","9","","11","","9.7","","100.24","","","","","","Fog"
"2005-10-12 10:00","2005","10","12","10:00","12.0","","11.4","","96","","9","","13","","4.8","","100.23","","","","","","Drizzle,Fog"
"2005-10-12 11:00","2005","10","12","11:00","12.0","","11.5","","97","","9","","15","","4.8","","100.23","","","","","","Drizzle,Fog"
"2005-10-12 12:00","2005","10","12","12:00","12.3","","11.7","","96","","9","","20","","6.4","","100.16","","","","","","Fog"
"2005-10-12 13:00","2005","10","12","13:00","13.0","","11.9","","93","","11","","20","","16.1","","100.13","","","","","","Cloudy"
"2005-10-12 14:00","2005","10","12","14:00","13.2","","11.7","","91","","9","","22","","16.1","","100.11","","","","","","Cloudy"
"2005-10-12 15:00","2005","10","12","15:00","13.1","","12.0","","93","","9","","32","","19.3","","100.08","","","","","","Cloudy"
"2005-10-12 16:00","2005","10","12","16:00","12.9","","11.9","","94","","9","","24","","19.3","","100.08","","","","","","Cloudy"
"2005-10-12 17:00","2005","10","12","17:00","12.8","","11.8","","94","","9","","20","","14.5","","100.11","","","","","","Drizzle"
"2005-10-12 18:00","2005","10","12","18:00","12.6","","11.9","","95","","10","","26","","4.8","","100.11","","","","","","Drizzle,Fog"
"2005-10-12 19:00","2005","10","12","19:00","12.4","","11.3","","93","","9","","24","","12.9","","100.08","","","","","","Cloudy"
"2005-10-12 20:00","2005","10","12","20:00","12.0","","11.6","","97","","9","","22","","6.4","","100.10","","","","","","Drizzle,Fog"
"2005-10-12 21:00","2005","10","12","21:00","11.8","","11.6","","99","","9","","19","","4.0","","100.10","","","","","","Drizzle,Fog"
"2005-10-12 22:00","2005","10","12","22:00","11.9","","11.8","","99","","9","","17","","3.2","","100.07","","","","","","Drizzle,Fog"
"2005-10-12 23:00","2005","10","12","23:00","11.9","","11.8","","99","","10","","17","","4.8","","100.06","","","","","","Drizzle,Fog"
"2005-10-13 00:00","2005","10","13","00:00","12.1","","12.0","","99","","10","","17","","4.8","","100.03","","","","","","Drizzle,Fog"
"2005-10-13 01:00","2005","10","13","01:00","12.3","","12.3","","100","","9","","13","","4.0","","100.01","","","","","","Drizzle,Fog"
"2005-10-13 02:00","2005","10","13","02:00","12.5","","12.3","","99","","9","","11","","9.7","","100.01","","","","","","Fog"
"2005-10-13 03:00","2005","10","13","03:00","12.6","","12.2","","97","","9","","13","","11.3","","99.98","","","","","","Cloudy"
"2005-10-13 04:00","2005","10","13","04:00","12.5","","12.1","","97","","9","","17","","6.4","","99.96","","","","","","Drizzle,Fog"
"2005-10-13 05:00","2005","10","13","05:00","12.2","","12.0","","99","","9","","17","","9.7","","99.95","","","","","","Fog"
"2005-10-13 06:00","2005","10","13","06:00","12.4","","12.3","","99","","9","","13","","6.4","","99.98","","","","","","Fog"
"2005-10-13 07:00","2005","10","13","07:00","12.4","","12.2","","99","","9","","13","","4.0","","99.99","","","","","","Drizzle,Fog"
"2005-10-13 08:00","2005","10","13","08:00","12.5","","12.5","","100","","10","","15","","2.0","","100.02","","","","","","Drizzle,Fog"
"2005-10-13 09:00","2005","10","13","09:00","12.8","","12.7","","99","","10","","11","","2.8","","100.04","","","","","","Drizzle,Fog"
"2005-10-13 10:00","2005","10","13","10:00","12.9","","12.8","","99","","10","","11","","3.6","","100.05","","","","","","Drizzle,Fog"
"2005-10-13 11:00","2005","10","13","11:00","12.8","","12.7","","99","","10","","11","","4.8","","100.06","","","","","","Drizzle,Fog"
"2005-10-13 12:00","2005","10","13","12:00","12.7","","12.3","","97","","9","","11","","4.0","","100.03","","","","","","Drizzle,Fog"
"2005-10-13 13:00","2005","10","13","13:00","13.1","","12.2","","94","","9","","15","","8.0","","99.97","","","","","","Drizzle,Fog"
"2005-10-13 14:00","2005","10","13","14:00","13.8","","12.2","","90","","9","","9","","8.0","","99.95","","","","","","Fog"
"2005-10-13 15:00","2005","10","13","15:00","13.9","","12.3","","90","","7","","7","","8.0","","99.94","","","","","","Fog"
"2005-10-13 16:00","2005","10","13","16:00","13.5","","12.4","","93","","9","","7","","6.4","","99.97","","","","","","Drizzle,Fog"
"2005-10-13 17:00","2005","10","13","17:00","13.6","","12.2","","91","","10","","11","","16.1","","99.95","","","","","","Cloudy"
"2005-10-13 18:00","2005","10","13","18:00","13.3","","12.2","","93","","10","","7","","16.1","","99.97","","","","","","Cloudy"
"2005-10-13 19:00","2005","10","13","19:00","13.4","","12.2","","92","","9","","7","","16.1","","99.97","","","","","","Cloudy"
"2005-10-13 20:00","2005","10","13","20:00","13.4","","12.1","","92","","9","","7","","19.3","","99.98","","","","","","Cloudy"
"2005-10-13 21:00","2005","10","13","21:00","13.5","","12.4","","93","","9","","6","","16.1","","99.98","","","","","","Cloudy"
"2005-10-13 22:00","2005","10","13","22:00","13.5","","12.6","","94","","8","","6","","16.1","","99.95","","","","","","Cloudy"
"2005-10-13 23:00","2005","10","13","23:00","13.5","","12.7","","95","","4","","6","","12.9","","99.96","","","","","","Cloudy"
"2005-10-14 00:00","2005","10","14","00:00","13.7","","12.6","","93","","","","0","","16.1","","99.93","","","","","","Cloudy"
"2005-10-14 01:00","2005","10","14","01:00","13.7","","12.6","","93","","6","","7","","16.1","","99.88","","","","","","Cloudy"
"2005-10-14 02:00","2005","10","14","02:00","13.6","","12.5","","93","","8","","4","","16.1","","99.88","","","","","","Cloudy"
"2005-10-14 03:00","2005","10","14","03:00","13.3","","12.5","","95","","","","0","","16.1","","99.85","","","","","","Cloudy"
"2005-10-14 04:00","2005","10","14","04:00","13.2","","12.6","","96","","31","","6","","16.1","","99.84","","","","","","Cloudy"
"2005-10-14 05:00","2005","10","14","05:00","13.3","","12.6","","96","","34","","7","","16.1","","99.84","","","","","","Cloudy"
"2005-10-14 06:00","2005","10","14","06:00","13.2","","12.5","","96","","35","","7","","6.4","","99.85","","","","","","Fog"
"2005-10-14 07:00","2005","10","14","07:00","13.3","","12.7","","96","","33","","6","","4.8","","99.84","","","","","","Fog"
"2005-10-14 08:00","2005","10","14","08:00","13.5","","12.5","","94","","33","","7","","6.4","","99.87","","","","","","Fog"
"2005-10-14 09:00","2005","10","14","09:00","13.9","","12.8","","93","","","","0","","8.0","","99.88","","","","","","Fog"
"2005-10-14 10:00","2005","10","14","10:00","14.0","","12.4","","90","","","","0","","8.0","","99.86","","","","","","Fog"
"2005-10-14 11:00","2005","10","14","11:00","15.5","","13.0","","85","","17","","7","","8.0","","99.80","","","","","","Haze"
"2005-10-14 12:00","2005","10","14","12:00","15.5","","12.8","","84","","26","","9","","11.3","","99.74","","","","","","Mostly Cloudy"
"2005-10-14 13:00","2005","10","14","13:00","16.3","","13.3","","82","","19","","9","","12.9","","99.66","","","","","","Mostly Cloudy"
"2005-10-14 14:00","2005","10","14","14:00","17.0","","13.2","","78","","15","","9","","14.5","","99.59","","","","","","Clear"
"2005-10-14 15:00","2005","10","14","15:00","17.1","","13.7","","80","","15","","15","","14.5","","99.53","","","","","","Clear"
"2005-10-14 16:00","2005","10","14","16:00","15.6","","12.8","","83","","14","","13","","11.3","","99.47","","","","","","Clear"
"2005-10-14 17:00","2005","10","14","17:00","14.6","","12.6","","88","","16","","13","","9.7","","99.44","","","","","","Fog"
"2005-10-14 18:00","2005","10","14","18:00","13.5","","12.5","","94","","14","","7","","8.0","","99.44","","","","","","Fog"
"2005-10-14 19:00","2005","10","14","19:00","13.3","","12.6","","96","","15","","9","","8.0","","99.40","","","","","","Fog"
"2005-10-14 20:00","2005","10","14","20:00","13.1","","12.8","","98","","15","","7","","8.0","","99.35","","","","","","Fog"
"2005-10-14 21:00","2005","10","14","21:00","13.6","","13.4","","99","","16","","4","","6.4","","99.29","","","","","","Fog"
"2005-10-14 22:00","2005","10","14","22:00","13.9","","13.8","","99","","16","","4","","4.0","","99.19","","","","","","Fog"
"2005-10-14 23:00","2005","10","14","23:00","13.9","","13.7","","99","","","","0","","4.8","","99.10","","","","","","Fog"
"2005-10-15 00:00","2005","10","15","00:00","13.9","","13.5","","97","","17","","6","","6.4","","99.01","","","","","","Fog"
"2005-10-15 01:00","2005","10","15","01:00","13.9","","13.3","","96","","20","","7","","8.0","","98.92","","","","","","Fog"
"2005-10-15 02:00","2005","10","15","02:00","13.5","","13.0","","97","","21","","6","","9.7","","98.80","","","","","","Fog"
"2005-10-15 03:00","2005","10","15","03:00","13.0","","12.7","","98","","23","","7","","9.7","","98.67","","","","","","Fog"
"2005-10-15 04:00","2005","10","15","04:00","13.2","","12.9","","98","","29","","9","","6.4","","98.65","","","","","","Fog"
"2005-10-15 05:00","2005","10","15","05:00","12.6","","12.2","","97","","31","","4","","4.0","","98.60","","","","","","Fog"
"2005-10-15 06:00","2005","10","15","06:00","13.0","","11.8","","92","","29","","15","","6.4","","98.58","","","","","","Fog"
"2005-10-15 07:00","2005","10","15","07:00","12.5","","10.5","","88","","29","","20","","16.1","","98.61","","","","","","Clear"
"2005-10-15 08:00","2005","10","15","08:00","13.5","","10.0","","79","","30","","26","","24.1","","98.61","","","","","","Clear"
"2005-10-15 09:00","2005","10","15","09:00","14.8","","9.4","","70","","31","","41","","24.1","","98.62","","","","","","Clear"
"2005-10-15 10:00","2005","10","15","10:00","15.7","","6.8","","55","","31","","37","","24.1","","98.60","","","","","","Clear"
"2005-10-15 11:00","2005","10","15","11:00","16.2","","6.9","","54","","30","","41","","24.1","","98.59","","","","","","Mainly Clear"
"2005-10-15 12:00","2005","10","15","12:00","16.4","","5.3","","48","","31","","44","","24.1","","98.54","","","","","","Mostly Cloudy"
"2005-10-15 13:00","2005","10","15","13:00","14.9","","5.3","","53","","29","","35","","24.1","","98.55","","","","","","Mostly Cloudy"
"2005-10-15 14:00","2005","10","15","14:00","14.6","","6.6","","59","","29","","41","","24.1","","98.53","","","","","","Mostly Cloudy"
"2005-10-15 15:00","2005","10","15","15:00","15.1","","3.9","","47","","31","","54","","24.1","","98.53","","","","","","Mostly Cloudy"
"2005-10-15 16:00","2005","10","15","16:00","13.5","","6.1","","61","","31","","39","","24.1","","98.59","","","","","","Mainly Clear"
"2005-10-15 17:00","2005","10","15","17:00","13.4","","5.4","","58","","30","","39","","24.1","","98.62","","","","","","Mostly Cloudy"
"2005-10-15 18:00","2005","10","15","18:00","11.5","","5.7","","68","","31","","28","","24.1","","98.67","","","","","","Mainly Clear"
"2005-10-15 19:00","2005","10","15","19:00","10.9","","6.0","","72","","30","","22","","24.1","","98.67","","","","","","Mainly Clear"
"2005-10-15 20:00","2005","10","15","20:00","10.9","","5.9","","71","","30","","24","","24.1","","98.65","","","","","","Mainly Clear"
"2005-10-15 21:00","2005","10","15","21:00","11.4","","6.7","","73","","29","","33","","24.1","","98.62","","","","","","Mostly Cloudy"
"2005-10-15 22:00","2005","10","15","22:00","11.5","","7.5","","76","","31","","33","","19.3","","98.63","","","","","","Mostly Cloudy"
"2005-10-15 23:00","2005","10","15","23:00","10.7","","6.5","","75","","31","","26","","24.1","","98.65","","","","","","Mainly Clear"
"2005-10-16 00:00","2005","10","16","00:00","10.2","","6.5","","78","","30","","22","","24.1","","98.65","","","","","","Mainly Clear"
"2005-10-16 01:00","2005","10","16","01:00","10.3","","7.0","","80","","30","","26","","24.1","","98.65","","","","","","Mainly Clear"
"2005-10-16 02:00","2005","10","16","02:00","11.1","","6.8","","75","","31","","26","","24.1","","98.65","","","","","","Mainly Clear"
"2005-10-16 03:00","2005","10","16","03:00","10.8","","6.7","","76","","32","","32","","24.1","","98.67","","","","","","Mainly Clear"
"2005-10-16 04:00","2005","10","16","04:00","11.1","","6.4","","73","","31","","44","","24.1","","98.68","","","","","","Mainly Clear"
"2005-10-16 05:00","2005","10","16","05:00","10.7","","6.3","","74","","32","","28","","24.1","","98.73","","","","","","Mainly Clear"
"2005-10-16 06:00","2005","10","16","06:00","11.0","","7.2","","77","","31","","41","","24.1","","98.80","","","","","","Cloudy"
"2005-10-16 07:00","2005","10","16","07:00","10.7","","7.5","","81","","31","","30","","24.1","","98.85","","","","","","Mostly Cloudy"
"2005-10-16 08:00","2005","10","16","08:00","11.3","","6.3","","71","","32","","39","","24.1","","98.91","","","","","","Mostly Cloudy"
"2005-10-16 09:00","2005","10","16","09:00","11.4","","5.6","","67","","32","","41","","24.1","","98.95","","","","","","Mostly Cloudy"
"2005-10-16 10:00","2005","10","16","10:00","11.1","","5.6","","69","","31","","30","","24.1","","99.03","","","","","","Mostly Cloudy"
"2005-10-16 11:00","2005","10","16","11:00","11.7","","5.7","","67","","31","","37","","24.1","","99.04","","","","","","Cloudy"
"2005-10-16 12:00","2005","10","16","12:00","11.3","","5.7","","68","","31","","35","","24.1","","99.04","","","","","","Cloudy"
"2005-10-16 13:00","2005","10","16","13:00","11.9","","6.2","","68","","32","","44","","24.1","","99.04","","","","","","Mostly Cloudy"
"2005-10-16 14:00","2005","10","16","14:00","11.9","","5.4","","64","","34","","30","","24.1","","99.05","","","","","","Mostly Cloudy"
"2005-10-16 15:00","2005","10","16","15:00","11.2","","5.7","","69","","31","","37","","24.1","","99.06","","","","","","Mostly Cloudy"
"2005-10-16 16:00","2005","10","16","16:00","10.8","","5.3","","69","","32","","46","","24.1","","99.10","","","","","","Mostly Cloudy"
"2005-10-16 17:00","2005","10","16","17:00","10.6","","5.0","","68","","31","","33","","24.1","","99.14","","","","","","Cloudy"
"2005-10-16 18:00","2005","10","16","18:00","10.3","","4.9","","69","","31","","30","","24.1","","99.13","","","","","","Cloudy"
"2005-10-16 19:00","2005","10","16","19:00","10.1","","4.9","","70","","31","","32","","24.1","","99.17","","","","","","Cloudy"
"2005-10-16 20:00","2005","10","16","20:00","9.9","","4.8","","71","","31","","33","","24.1","","99.16","","","","","","Mostly Cloudy"
"2005-10-16 21:00","2005","10","16","21:00","9.9","","4.6","","70","","30","","30","","24.1","","99.15","","","","","","Cloudy"
"2005-10-16 22:00","2005","10","16","22:00","10.1","","4.6","","69","","31","","32","","24.1","","99.17","","","","","","Mostly Cloudy"
"2005-10-16 23:00","2005","10","16","23:00","10.1","","5.0","","71","","31","","30","","24.1","","99.16","","","","","","Cloudy"
"2005-10-17 00:00","2005","10","17","00:00","9.6","","5.7","","77","","31","","28","","24.1","","99.18","","","","","","Mostly Cloudy"
"2005-10-17 01:00","2005","10","17","01:00","9.7","","4.9","","72","","33","","28","","24.1","","99.19","","","","","","Mostly Cloudy"
"2005-10-17 02:00","2005","10","17","02:00","9.6","","4.8","","72","","32","","22","","24.1","","99.14","","","","","","Mostly Cloudy"
"2005-10-17 03:00","2005","10","17","03:00","9.6","","4.8","","72","","31","","30","","24.1","","99.10","","","","","","Mostly Cloudy"
"2005-10-17 04:00","2005","10","17","04:00","9.5","","4.9","","73","","32","","39","","24.1","","99.08","","","","","","Mostly Cloudy"
"2005-10-17 05:00","2005","10","17","05:00","9.2","","4.9","","74","","32","","24","","24.1","","99.11","","","","","","Mostly Cloudy"
"2005-10-17 06:00","2005","10","17","06:00","9.2","","4.7","","73","","33","","30","","24.1","","99.10","","","","","","Mostly Cloudy"
"2005-10-17 07:00","2005","10","17","07:00","8.8","","4.8","","76","","32","","15","","24.1","","99.12","","","","","","Mostly Cloudy"
"2005-10-17 08:00","2005","10","17","08:00","8.3","","4.7","","78","","29","","17","","24.1","","99.12","","","","","","Mostly Cloudy"
"2005-10-17 09:00","2005","10","17","09:00","9.7","","4.9","","72","","29","","15","","24.1","","99.10","","","","","","Mainly Clear"
"2005-10-17 10:00","2005","10","17","10:00","10.9","","4.9","","66","","27","","20","","24.1","","99.08","","","","","","Mainly Clear"
"2005-10-17 11:00","2005","10","17","11:00","12.2","","6.0","","66","","28","","26","","24.1","","99.06","","","","","","Mainly Clear"
"2005-10-17 12:00","2005","10","17","12:00","13.5","","6.2","","61","","31","","19","","24.1","","98.99","","","","","","Mostly Cloudy"
"2005-10-17 13:00","2005","10","17","13:00","14.3","","6.2","","58","","28","","20","","24.1","","98.91","","","","","","Mainly Clear"
"2005-10-17 14:00","2005","10","17","14:00","15.2","","7.0","","58","","25","","20","","24.1","","98.79","","","","","","Mostly Cloudy"
"2005-10-17 15:00","2005","10","17","15:00","15.7","","6.8","","55","","26","","20","","24.1","","98.74","","","","","","Mostly Cloudy"
"2005-10-17 16:00","2005","10","17","16:00","15.0","","6.5","","57","","27","","15","","24.1","","98.67","","","","","","Mostly Cloudy"
"2005-10-17 17:00","2005","10","17","17:00","13.9","","5.9","","58","","27","","26","","24.1","","98.63","","","","","","Mostly Cloudy"
"2005-10-17 18:00","2005","10","17","18:00","13.1","","5.4","","60","","27","","19","","24.1","","98.60","","","","","","Rain"
"2005-10-17 19:00","2005","10","17","19:00","12.4","","5.9","","64","","24","","9","","24.1","","98.49","","","","","","Rain"
"2005-10-17 20:00","2005","10","17","20:00","10.9","","8.5","","85","","28","","9","","24.1","","98.56","","","","","","Rain"
"2005-10-17 21:00","2005","10","17","21:00","10.4","","9.7","","95","","23","","15","","24.1","","98.51","","","","","","Rain"
"2005-10-17 22:00","2005","10","17","22:00","10.3","","8.9","","91","","24","","6","","24.1","","98.34","","","","","","Cloudy"
"2005-10-17 23:00","2005","10","17","23:00","10.4","","8.9","","90","","20","","7","","24.1","","98.26","","","","","","Cloudy"
"2005-10-18 00:00","2005","10","18","00:00","10.7","","9.4","","92","","22","","13","","24.1","","98.20","","","","","","Cloudy"
"2005-10-18 01:00","2005","10","18","01:00","11.0","","9.6","","91","","24","","11","","24.1","","98.14","","","","","","Cloudy"
"2005-10-18 02:00","2005","10","18","02:00","11.8","","10.3","","91","","28","","20","","24.1","","98.13","","","","","","Mostly Cloudy"
"2005-10-18 03:00","2005","10","18","03:00","11.9","","10.5","","91","","27","","17","","24.1","","98.11","","","","","","Mostly Cloudy"
"2005-10-18 04:00","2005","10","18","04:00","11.7","","9.8","","88","","27","","19","","24.1","","98.15","","","","","","Mainly Clear"
"2005-10-18 05:00","2005","10","18","05:00","11.5","","10.0","","90","","24","","17","","24.1","","98.17","","","","","","Mostly Cloudy"
"2005-10-18 06:00","2005","10","18","06:00","11.1","","9.9","","92","","27","","13","","16.1","","98.19","","","","","","Mostly Cloudy"
"2005-10-18 07:00","2005","10","18","07:00","11.3","","8.4","","82","","28","","24","","19.3","","98.26","","","","","","Mainly Clear"
"2005-10-18 08:00","2005","10","18","08:00","11.5","","8.0","","79","","27","","20","","24.1","","98.31","","","","","","Mostly Cloudy"
"2005-10-18 09:00","2005","10","18","09:00","12.5","","8.7","","78","","27","","22","","24.1","","98.34","","","","","","Mostly Cloudy"
"2005-10-18 10:00","2005","10","18","10:00","13.2","","8.0","","71","","29","","37","","24.1","","98.38","","","","","","Mostly Cloudy"
"2005-10-18 11:00","2005","10","18","11:00","12.9","","6.8","","66","","30","","32","","24.1","","98.47","","","","","","Cloudy"
"2005-10-18 12:00","2005","10","18","12:00","13.1","","6.3","","63","","29","","35","","24.1","","98.50","","","","","","Cloudy"
"2005-10-18 13:00","2005","10","18","13:00","13.2","","5.8","","61","","31","","35","","24.1","","98.57","","","","","","Cloudy"
"2005-10-18 14:00","2005","10","18","14:00","13.4","","6.4","","63","","30","","39","","24.1","","98.59","","","","","","Mostly Cloudy"
"2005-10-18 15:00","2005","10","18","15:00","13.4","","6.1","","61","","29","","43","","24.1","","98.68","","","","","","Mostly Cloudy"
"2005-10-18 16:00","2005","10","18","16:00","13.0","","5.4","","60","","30","","48","","24.1","","98.75","","","","","","Mostly Cloudy"
"2005-10-18 17:00","2005","10","18","17:00","12.4","","4.6","","59","","30","","32","","24.1","","98.83","","","","","","Mostly Cloudy"
"2005-10-18 18:00","2005","10","18","18:00","12.0","","4.4","","60","","31","","30","","24.1","","98.93","","","","","","Mostly Cloudy"
"2005-10-18 19:00","2005","10","18","19:00","9.5","","4.4","","70","","27","","11","","24.1","","99.00","","","","","","Mainly Clear"
"2005-10-18 20:00","2005","10","18","20:00","9.1","","4.8","","74","","27","","9","","24.1","","99.06","","","","","","Mostly Cloudy"
"2005-10-18 21:00","2005","10","18","21:00","8.5","","4.9","","78","","27","","9","","24.1","","99.05","","","","","","Mainly Clear"
"2005-10-18 22:00","2005","10","18","22:00","8.2","","4.8","","79","","26","","6","","24.1","","99.08","","","","","","Mainly Clear"
"2005-10-18 23:00","2005","10","18","23:00","7.8","","5.2","","84","","25","","9","","24.1","","99.05","","","","","","Mostly Cloudy"
"2005-10-19 00:00","2005","10","19","00:00","7.5","","5.6","","88","","26","","9","","24.1","","99.04","","","","","","Mostly Cloudy"
"2005-10-19 01:00","2005","10","19","01:00","7.9","","6.1","","88","","26","","7","","24.1","","99.04","","","","","","Mostly Cloudy"
"2005-10-19 02:00","2005","10","19","02:00","7.6","","5.7","","88","","26","","6","","24.1","","99.03","","","","","","Mostly Cloudy"
"2005-10-19 03:00","2005","10","19","03:00","7.6","","5.7","","88","","","","0","","24.1","","98.92","","","","","","Mostly Cloudy"
"2005-10-19 04:00","2005","10","19","04:00","8.4","","6.3","","87","","18","","4","","24.1","","98.86","","","","","","Mostly Cloudy"
"2005-10-19 05:00","2005","10","19","05:00","8.7","","6.2","","84","","19","","6","","24.1","","98.78","","","","","","Mostly Cloudy"
"2005-10-19 06:00","2005","10","19","06:00","9.1","","6.7","","85","","17","","6","","24.1","","98.71","","","","","","Cloudy"
"2005-10-19 07:00","2005","10","19","07:00","10.0","","8.0","","87","","16","","11","","16.1","","98.60","","","","","","Mostly Cloudy"
"2005-10-19 08:00","2005","10","19","08:00","11.1","","9.9","","92","","16","","17","","19.3","","98.40","","","","","","Mainly Clear"
"2005-10-19 09:00","2005","10","19","09:00","13.7","","10.9","","83","","21","","17","","24.1","","98.29","","","","","","Mainly Clear"
"2005-10-19 10:00","2005","10","19","10:00","15.7","","11.7","","77","","24","","32","","16.1","","98.22","","","","","","Thunderstorms,Rain Showers"
"2005-10-19 11:00","2005","10","19","11:00","16.5","","10.5","","68","","27","","52","","24.1","","98.22","","","","","","Mostly Cloudy"
"2005-10-19 12:00","2005","10","19","12:00","15.0","","8.7","","66","","30","","57","","24.1","","98.30","","","","","","Mostly Cloudy"
"2005-10-19 13:00","2005","10","19","13:00","12.6","","7.6","","72","","31","","44","","24.1","","98.51","","","","","","Mostly Cloudy"
"2005-10-19 14:00","2005","10","19","14:00","11.4","","5.3","","66","","32","","43","","24.1","","98.77","","","","","","Mostly Cloudy"
"2005-10-19 15:00","2005","10","19","15:00","10.6","","5.0","","68","","32","","48","","24.1","","98.92","","","","","","Mostly Cloudy"
"2005-10-19 16:00","2005","10","19","16:00","10.1","","2.9","","61","","33","","39","","24.1","","99.08","","","","","","Mostly Cloudy"
"2005-10-19 17:00","2005","10","19","17:00","8.9","","2.3","","63","","33","","35","","24.1","","99.25","","","","","","Mostly Cloudy"
"2005-10-19 18:00","2005","10","19","18:00","8.6","","1.7","","62","","31","","37","","24.1","","99.33","","","","","","Mostly Cloudy"
"2005-10-19 19:00","2005","10","19","19:00","8.1","","1.3","","62","","30","","20","","24.1","","99.41","","","","","","Mainly Clear"
"2005-10-19 20:00","2005","10","19","20:00","6.8","","1.5","","69","","30","","20","","24.1","","99.46","","","","","","Clear"
"2005-10-19 21:00","2005","10","19","21:00","6.0","","1.2","","71","","31","","19","","24.1","","99.54","","","","","","Clear"
"2005-10-19 22:00","2005","10","19","22:00","5.5","","1.0","","73","","31","","13","","24.1","","99.56","","","","","","Clear"
"2005-10-19 23:00","2005","10","19","23:00","3.7","","0.6","","80","","27","","6","","24.1","","99.57","","","","","","Clear"
"2005-10-20 00:00","2005","10","20","00:00","3.8","","0.4","","78","","27","","7","","24.1","","99.60","","","","","","Clear"
"2005-10-20 01:00","2005","10","20","01:00","3.0","","0.4","","83","","25","","7","","24.1","","99.63","","","","","","Clear"
"2005-10-20 02:00","2005","10","20","02:00","2.5","","-0.2","","82","","24","","11","","24.1","","99.61","","","","","","Clear"
"2005-10-20 03:00","2005","10","20","03:00","2.2","","-0.4","","83","","26","","7","","24.1","","99.56","","","","","","Clear"
"2005-10-20 04:00","2005","10","20","04:00","2.3","","-0.4","","82","","","","0","","24.1","","99.64","","","","","","Mainly Clear"
"2005-10-20 05:00","2005","10","20","05:00","1.1","","-0.8","","87","","27","","11","","24.1","","99.67","","","","","","Clear"
"2005-10-20 06:00","2005","10","20","06:00","1.7","","-0.3","","87","","24","","4","","24.1","","99.70","","","","","","Mainly Clear"
"2005-10-20 07:00","2005","10","20","07:00","3.1","","0.1","","81","","27","","11","","24.1","","99.69","","","","","","Mostly Cloudy"
"2005-10-20 08:00","2005","10","20","08:00","5.7","","2.4","","79","","27","","13","","24.1","","99.75","","","","","","Mostly Cloudy"
"2005-10-20 09:00","2005","10","20","09:00","6.3","","2.6","","77","","26","","20","","24.1","","99.76","","","","","","Mostly Cloudy"
"2005-10-20 10:00","2005","10","20","10:00","9.7","","4.7","","71","","28","","22","","24.1","","99.75","","","","","","Mainly Clear"
"2005-10-20 11:00","2005","10","20","11:00","11.8","","5.4","","65","","27","","15","","24.1","","99.71","","","","","","Mainly Clear"
"2005-10-20 12:00","2005","10","20","12:00","11.9","","4.4","","60","","32","","32","","24.1","","99.71","","","","","","Rain Showers"
"2005-10-20 13:00","2005","10","20","13:00","10.1","","5.3","","72","","31","","30","","24.1","","99.70","","","","","","Rain Showers"
"2005-10-20 14:00","2005","10","20","14:00","11.4","","4.9","","64","","31","","17","","24.1","","99.66","","","","","","Mostly Cloudy"
"2005-10-20 15:00","2005","10","20","15:00","11.6","","4.6","","62","","32","","20","","24.1","","99.68","","","","","","Mostly Cloudy"
"2005-10-20 16:00","2005","10","20","16:00","9.4","","4.6","","72","","33","","19","","24.1","","99.73","","","","","","Mostly Cloudy"
"2005-10-20 17:00","2005","10","20","17:00","8.6","","5.8","","83","","33","","17","","19.3","","99.72","","","","","","Rain Showers"
"2005-10-20 18:00","2005","10","20","18:00","8.7","","5.0","","78","","32","","15","","24.1","","99.72","","","","","","Mostly Cloudy"
"2005-10-20 19:00","2005","10","20","19:00","7.8","","5.1","","83","","31","","11","","24.1","","99.77","","","","","","Mainly Clear"
"2005-10-20 20:00","2005","10","20","20:00","6.8","","4.7","","86","","31","","7","","24.1","","99.81","","","","","","Clear"
"2005-10-20 21:00","2005","10","20","21:00","6.0","","4.8","","92","","32","","11","","24.1","","99.85","","","","","","Mainly Clear"
"2005-10-20 22:00","2005","10","20","22:00","6.1","","4.4","","89","","32","","9","","24.1","","99.84","","","","","","Mostly Cloudy"
"2005-10-20 23:00","2005","10","20","23:00","5.3","","3.9","","91","","29","","4","","24.1","","99.82","","","","","","Mainly Clear"
"2005-10-21 00:00","2005","10","21","00:00","4.3","","2.9","","91","","","","0","","24.1","","99.82","","","","","","Mainly Clear"
"2005-10-21 01:00","2005","10","21","01:00","3.4","","2.2","","92","","1","","4","","24.1","","99.83","","","","","","Mainly Clear"
"2005-10-21 02:00","2005","10","21","02:00","3.4","","2.0","","91","","1","","9","","24.1","","99.83","","","","","","Clear"
"2005-10-21 03:00","2005","10","21","03:00","2.7","","1.2","","90","","32","","7","","24.1","","99.82","","","","","","Mainly Clear"
"2005-10-21 04:00","2005","10","21","04:00","2.9","","1.6","","91","","2","","4","","24.1","","99.83","","","","","","Mainly Clear"
"2005-10-21 05:00","2005","10","21","05:00","2.4","","1.1","","91","","33","","7","","24.1","","99.86","","","","","","Clear"
"2005-10-21 06:00","2005","10","21","06:00","2.5","","1.1","","90","","36","","9","","24.1","","99.87","","","","","","Clear"
"2005-10-21 07:00","2005","10","21","07:00","2.1","","0.6","","90","","36","","4","","24.1","","99.91","","","","","","Mainly Clear"
"2005-10-21 08:00","2005","10","21","08:00","4.4","","1.8","","83","","5","","6","","24.1","","99.94","","","","","","Clear"
"2005-10-21 09:00","2005","10","21","09:00","7.3","","1.3","","66","","8","","7","","24.1","","99.94","","","","","","Clear"
"2005-10-21 10:00","2005","10","21","10:00","9.2","","1.5","","59","","11","","11","","24.1","","99.92","","","","","","Clear"
"2005-10-21 11:00","2005","10","21","11:00","9.7","","0.4","","52","","12","","6","","24.1","","99.89","","","","","","Mainly Clear"
"2005-10-21 12:00","2005","10","21","12:00","10.3","","-0.1","","48","","9","","13","","24.1","","99.81","","","","","","Mainly Clear"
"2005-10-21 13:00","2005","10","21","13:00","11.0","","-0.3","","46","","14","","6","","24.1","","99.73","","","","","","Mainly Clear"
"2005-10-21 14:00","2005","10","21","14:00","10.6","","0.2","","49","","14","","7","","24.1","","99.66","","","","","","Mainly Clear"
"2005-10-21 15:00","2005","10","21","15:00","10.7","","-0.3","","46","","16","","13","","24.1","","99.62","","","","","","Mainly Clear"
"2005-10-21 16:00","2005","10","21","16:00","10.0","","1.0","","54","","16","","15","","24.1","","99.59","","","","","","Mainly Clear"
"2005-10-21 17:00","2005","10","21","17:00","9.0","","0.9","","57","","14","","13","","24.1","","99.59","","","","","","Mainly Clear"
"2005-10-21 18:00","2005","10","21","18:00","8.1","","0.8","","60","","12","","7","","24.1","","99.61","","","","","","Mainly Clear"
"2005-10-21 19:00","2005","10","21","19:00","6.9","","0.5","","64","","6","","6","","24.1","","99.59","","","","","","Clear"
"2005-10-21 20:00","2005","10","21","20:00","7.2","","0.3","","61","","7","","7","","24.1","","99.57","","","","","","Clear"
"2005-10-21 21:00","2005","10","21","21:00","6.2","","0.9","","69","","5","","11","","24.1","","99.53","","","","","","Clear"
"2005-10-21 22:00","2005","10","21","22:00","5.3","","0.2","","70","","5","","9","","24.1","","99.49","","","","","","Mainly Clear"
"2005-10-21 23:00","2005","10","21","23:00","4.7","","0.3","","73","","4","","9","","24.1","","99.46","","","","","","Mainly Clear"
"2005-10-22 00:00","2005","10","22","00:00","3.8","","0.4","","78","","2","","11","","24.1","","99.39","","","","","","Mostly Cloudy"
"2005-10-22 01:00","2005","10","22","01:00","3.6","","0.5","","80","","3","","13","","24.1","","99.31","","","","","","Mostly Cloudy"
"2005-10-22 02:00","2005","10","22","02:00","4.6","","0.9","","77","","4","","13","","24.1","","99.28","","","","","","Mostly Cloudy"
"2005-10-22 03:00","2005","10","22","03:00","5.1","","1.4","","77","","4","","13","","24.1","","99.21","","","","","","Cloudy"
"2005-10-22 04:00","2005","10","22","04:00","5.7","","1.2","","73","","6","","15","","24.1","","99.16","","","","","","Cloudy"
"2005-10-22 05:00","2005","10","22","05:00","6.1","","1.0","","70","","5","","13","","24.1","","99.12","","","","","","Mostly Cloudy"
"2005-10-22 06:00","2005","10","22","06:00","5.9","","0.9","","70","","7","","17","","24.1","","99.07","","","","","","Mostly Cloudy"
"2005-10-22 07:00","2005","10","22","07:00","5.8","","1.2","","72","","5","","17","","24.1","","99.05","","","","","","Cloudy"
"2005-10-22 08:00","2005","10","22","08:00","5.7","","0.5","","69","","5","","15","","24.1","","99.03","","","","","","Cloudy"
"2005-10-22 09:00","2005","10","22","09:00","5.8","","0.5","","69","","7","","19","","24.1","","99.02","","","","","","Cloudy"
"2005-10-22 10:00","2005","10","22","10:00","5.3","","2.1","","80","","5","","19","","19.3","","98.99","","","","","","Rain"
"2005-10-22 11:00","2005","10","22","11:00","5.7","","3.9","","88","","5","","19","","16.1","","98.92","","","","","","Rain"
"2005-10-22 12:00","2005","10","22","12:00","6.0","","4.2","","88","","5","","19","","24.1","","98.83","","","","","","Rain"
"2005-10-22 13:00","2005","10","22","13:00","6.2","","3.9","","85","","5","","22","","24.1","","98.77","","","","","","Rain"
"2005-10-22 14:00","2005","10","22","14:00","5.9","","3.9","","87","","5","","24","","19.3","","98.71","","","","","","Rain"
"2005-10-22 15:00","2005","10","22","15:00","5.8","","4.0","","88","","3","","26","","19.3","","98.66","","","","","","Rain"
"2005-10-22 16:00","2005","10","22","16:00","5.8","","4.2","","89","","3","","19","","11.3","","98.67","","","","","","Rain"
"2005-10-22 17:00","2005","10","22","17:00","5.1","","3.9","","92","","1","","24","","11.3","","98.71","","","","","","Moderate Rain"
"2005-10-22 18:00","2005","10","22","18:00","4.6","","3.4","","92","","3","","28","","4.8","","98.77","","","","","","Rain,Fog"
"2005-10-22 19:00","2005","10","22","19:00","3.3","","2.4","","94","","36","","28","","8.0","","98.77","","","","","","Rain,Fog"
"2005-10-22 20:00","2005","10","22","20:00","3.2","","2.6","","96","","1","","24","","9.7","","98.78","","","","","","Rain,Fog"
"2005-10-22 21:00","2005","10","22","21:00","3.3","","2.5","","94","","2","","28","","14.5","","98.76","","","","","","Rain"
"2005-10-22 22:00","2005","10","22","22:00","3.4","","2.5","","94","","1","","26","","19.3","","98.72","","","","","","Rain"
"2005-10-22 23:00","2005","10","22","23:00","3.6","","2.8","","94","","36","","26","","24.1","","98.70","","","","","","Rain"
"2005-10-23 00:00","2005","10","23","00:00","3.7","","2.9","","94","","36","","19","","24.1","","98.71","","","","","","Rain"
"2005-10-23 01:00","2005","10","23","01:00","4.1","","3.2","","94","","36","","19","","24.1","","98.72","","","","","","Rain"
"2005-10-23 02:00","2005","10","23","02:00","4.1","","3.1","","93","","35","","17","","24.1","","98.73","","","","","","Cloudy"
"2005-10-23 03:00","2005","10","23","03:00","3.9","","2.9","","93","","34","","20","","24.1","","98.77","","","","","","Cloudy"
"2005-10-23 04:00","2005","10","23","04:00","3.9","","3.0","","94","","33","","22","","24.1","","98.79","","","","","","Rain"
"2005-10-23 05:00","2005","10","23","05:00","3.8","","3.0","","95","","34","","19","","24.1","","98.82","","","","","","Rain"
"2005-10-23 06:00","2005","10","23","06:00","3.9","","3.0","","94","","32","","20","","19.3","","98.85","","","","","","Rain"
"2005-10-23 07:00","2005","10","23","07:00","4.1","","3.3","","95","","33","","20","","24.1","","98.89","","","","","","Rain"
"2005-10-23 08:00","2005","10","23","08:00","4.3","","3.2","","93","","36","","19","","24.1","","98.94","","","","","","Rain"
"2005-10-23 09:00","2005","10","23","09:00","4.6","","3.1","","90","","35","","17","","24.1","","98.99","","","","","","Rain"
"2005-10-23 10:00","2005","10","23","10:00","5.1","","3.5","","89","","35","","20","","24.1","","99.04","","","","","","Rain"
"2005-10-23 11:00","2005","10","23","11:00","5.7","","4.2","","90","","35","","17","","24.1","","99.05","","","","","","Rain"
"2005-10-23 12:00","2005","10","23","12:00","5.9","","4.3","","89","","35","","15","","24.1","","99.08","","","","","","Rain"
"2005-10-23 13:00","2005","10","23","13:00","6.5","","4.5","","87","","1","","13","","24.1","","99.08","","","","","","Rain"
"2005-10-23 14:00","2005","10","23","14:00","6.2","","4.4","","88","","1","","15","","24.1","","99.10","","","","","","Rain"
"2005-10-23 15:00","2005","10","23","15:00","6.4","","4.3","","86","","36","","13","","24.1","","99.16","","","","","","Rain"
"2005-10-23 16:00","2005","10","23","16:00","6.2","","4.5","","89","","36","","13","","24.1","","99.21","","","","","","Rain"
"2005-10-23 17:00","2005","10","23","17:00","6.0","","4.8","","92","","35","","9","","24.1","","99.28","","","","","","Rain"
"2005-10-23 18:00","2005","10","23","18:00","5.8","","4.6","","92","","36","","11","","24.1","","99.34","","","","","","Rain"
"2005-10-23 19:00","2005","10","23","19:00","5.7","","4.8","","94","","36","","13","","24.1","","99.33","","","","","","Rain"
"2005-10-23 20:00","2005","10","23","20:00","5.8","","5.0","","95","","35","","7","","24.1","","99.35","","","","","","Cloudy"
"2005-10-23 21:00","2005","10","23","21:00","5.9","","5.5","","97","","3","","7","","24.1","","99.38","","","","","","Mostly Cloudy"
"2005-10-23 22:00","2005","10","23","22:00","5.8","","5.0","","95","","4","","9","","24.1","","99.38","","","","","","Rain"
"2005-10-23 23:00","2005","10","23","23:00","5.4","","4.7","","95","","3","","9","","24.1","","99.36","","","","","","Rain"
"2005-10-24 00:00","2005","10","24","00:00","5.5","","4.9","","96","","1","","7","","24.1","","99.36","","","","","","Mostly Cloudy"
"2005-10-24 01:00","2005","10","24","01:00","5.7","","5.2","","97","","36","","7","","24.1","","99.33","","","","","","Mostly Cloudy"
"2005-10-24 02:00","2005","10","24","02:00","5.9","","5.3","","96","","3","","6","","24.1","","99.38","","","","","","Cloudy"
"2005-10-24 03:00","2005","10","24","03:00","6.2","","5.0","","92","","6","","9","","24.1","","99.37","","","","","","Cloudy"
"2005-10-24 04:00","2005","10","24","04:00","6.3","","5.0","","91","","7","","7","","24.1","","99.43","","","","","","Cloudy"
"2005-10-24 05:00","2005","10","24","05:00","5.5","","4.4","","93","","4","","11","","24.1","","99.44","","","","","","Mainly Clear"
"2005-10-24 06:00","2005","10","24","06:00","5.6","","4.3","","91","","5","","17","","24.1","","99.42","","","","","","Mainly Clear"
"2005-10-24 07:00","2005","10","24","07:00","4.9","","3.9","","93","","4","","15","","24.1","","99.43","","","","","","Mainly Clear"
"2005-10-24 08:00","2005","10","24","08:00","6.5","","4.4","","86","","5","","13","","24.1","","99.45","","","","","","Mainly Clear"
"2005-10-24 09:00","2005","10","24","09:00","7.3","","4.5","","82","","7","","15","","24.1","","99.48","","","","","","Mostly Cloudy"
"2005-10-24 10:00","2005","10","24","10:00","8.2","","5.3","","82","","5","","19","","24.1","","99.46","","","","","","Mostly Cloudy"
"2005-10-24 11:00","2005","10","24","11:00","7.9","","4.5","","79","","7","","19","","24.1","","99.47","","","","","","Mostly Cloudy"
"2005-10-24 12:00","2005","10","24","12:00","9.1","","5.2","","77","","6","","19","","24.1","","99.43","","","","","","Mostly Cloudy"
"2005-10-24 13:00","2005","10","24","13:00","9.6","","4.8","","72","","6","","17","","24.1","","99.38","","","","","","Mostly Cloudy"
"2005-10-24 14:00","2005","10","24","14:00","8.6","","3.9","","72","","6","","24","","24.1","","99.34","","","","","","Mostly Cloudy"
"2005-10-24 15:00","2005","10","24","15:00","8.2","","4.2","","76","","6","","22","","24.1","","99.37","","","","","","Rain Showers"
"2005-10-24 16:00","2005","10","24","16:00","8.2","","3.7","","73","","7","","22","","24.1","","99.39","","","","","","Rain Showers"
"2005-10-24 17:00","2005","10","24","17:00","6.8","","4.6","","86","","7","","17","","16.1","","99.40","","","","","","Rain"
"2005-10-24 18:00","2005","10","24","18:00","6.2","","4.5","","89","","5","","30","","19.3","","99.44","","","","","","Rain"
"2005-10-24 19:00","2005","10","24","19:00","5.9","","4.5","","91","","6","","20","","14.5","","99.45","","","","","","Rain"
"2005-10-24 20:00","2005","10","24","20:00","5.7","","4.4","","91","","5","","22","","11.3","","99.41","","","","","","Rain"
"2005-10-24 21:00","2005","10","24","21:00","5.7","","4.2","","90","","5","","24","","16.1","","99.38","","","","","","Rain"
"2005-10-24 22:00","2005","10","24","22:00","5.7","","4.2","","90","","6","","24","","19.3","","99.34","","","","","","Rain"
"2005-10-24 23:00","2005","10","24","23:00","5.6","","4.3","","91","","5","","26","","19.3","","99.29","","","","","","Rain"
"2005-10-25 00:00","2005","10","25","00:00","5.5","","4.5","","93","","5","","22","","19.3","","99.23","","","","","","Rain"
"2005-10-25 01:00","2005","10","25","01:00","5.6","","4.3","","91","","5","","19","","24.1","","99.22","","","","","","Rain"
"2005-10-25 02:00","2005","10","25","02:00","5.6","","4.2","","91","","3","","22","","24.1","","99.13","","","","","","Rain"
"2005-10-25 03:00","2005","10","25","03:00","5.7","","4.0","","89","","4","","26","","24.1","","99.12","","","","","","Cloudy"
"2005-10-25 04:00","2005","10","25","04:00","5.7","","4.0","","89","","4","","22","","24.1","","99.09","","","","","","Cloudy"
"2005-10-25 05:00","2005","10","25","05:00","5.8","","3.7","","86","","4","","26","","24.1","","99.07","","","","","","Cloudy"
"2005-10-25 06:00","2005","10","25","06:00","5.7","","3.8","","88","","4","","20","","19.3","","99.09","","","","","","Rain"
"2005-10-25 07:00","2005","10","25","07:00","5.7","","3.7","","87","","3","","32","","19.3","","99.08","","","","","","Rain"
"2005-10-25 08:00","2005","10","25","08:00","5.5","","3.6","","88","","3","","26","","19.3","","99.06","","","","","","Rain"
"2005-10-25 09:00","2005","10","25","09:00","5.7","","3.9","","88","","2","","32","","19.3","","99.04","","","","","","Rain"
"2005-10-25 10:00","2005","10","25","10:00","5.9","","3.8","","86","","4","","30","","16.1","","99.00","","","","","","Rain"
"2005-10-25 11:00","2005","10","25","11:00","6.5","","3.9","","83","","3","","32","","16.1","","98.96","","","","","","Rain"
"2005-10-25 12:00","2005","10","25","12:00","6.9","","4.1","","82","","2","","28","","19.3","","98.89","","","","","","Rain"
"2005-10-25 13:00","2005","10","25","13:00","7.8","","4.2","","78","","2","","30","","24.1","","98.86","","","","","","Rain"
"2005-10-25 14:00","2005","10","25","14:00","7.6","","4.9","","83","","2","","26","","19.3","","98.83","","","","","","Rain"
"2005-10-25 15:00","2005","10","25","15:00","7.9","","4.5","","79","","1","","28","","19.3","","98.82","","","","","","Rain"
"2005-10-25 16:00","2005","10","25","16:00","7.6","","4.9","","83","","1","","26","","24.1","","98.82","","","","","","Rain"
"2005-10-25 17:00","2005","10","25","17:00","7.5","","3.9","","78","","1","","33","","24.1","","98.86","","","","","","Rain"
"2005-10-25 18:00","2005","10","25","18:00","7.2","","4.0","","80","","3","","33","","24.1","","98.89","","","","","","Rain"
"2005-10-25 19:00","2005","10","25","19:00","7.2","","4.3","","82","","1","","30","","19.3","","98.93","","","","","","Rain"
"2005-10-25 20:00","2005","10","25","20:00","7.2","","3.5","","77","","2","","26","","19.3","","98.92","","","","","","Rain"
"2005-10-25 21:00","2005","10","25","21:00","6.9","","4.2","","83","","36","","19","","19.3","","98.94","","","","","","Rain"
"2005-10-25 22:00","2005","10","25","22:00","6.9","","3.9","","81","","35","","19","","19.3","","98.94","","","","","","Rain"
"2005-10-25 23:00","2005","10","25","23:00","6.6","","3.7","","82","","36","","20","","24.1","","98.93","","","","","","Mostly Cloudy"
"2005-10-26 00:00","2005","10","26","00:00","6.4","","3.6","","82","","35","","19","","24.1","","98.93","","","","","","Mostly Cloudy"
"2005-10-26 01:00","2005","10","26","01:00","6.3","","3.6","","83","","34","","20","","24.1","","98.94","","","","","","Mostly Cloudy"
"2005-10-26 02:00","2005","10","26","02:00","6.2","","3.0","","80","","34","","28","","24.1","","98.96","","","","","","Mostly Cloudy"
"2005-10-26 03:00","2005","10","26","03:00","6.1","","2.5","","78","","35","","24","","24.1","","98.94","","","","","","Mostly Cloudy"
"2005-10-26 04:00","2005","10","26","04:00","6.0","","2.1","","76","","35","","20","","24.1","","98.96","","","","","","Mostly Cloudy"
"2005-10-26 05:00","2005","10","26","05:00","5.8","","1.7","","75","","36","","19","","24.1","","99.02","","","","","","Mostly Cloudy"
"2005-10-26 06:00","2005","10","26","06:00","5.3","","1.5","","76","","35","","26","","24.1","","99.06","","","","","","Mostly Cloudy"
"2005-10-26 07:00","2005","10","26","07:00","5.5","","1.4","","75","","35","","22","","24.1","","99.15","","","","","","Mostly Cloudy"
"2005-10-26 08:00","2005","10","26","08:00","5.5","","1.7","","76","","35","","24","","24.1","","99.24","","","","","","Mostly Cloudy"
"2005-10-26 09:00","2005","10","26","09:00","5.8","","1.9","","76","","34","","17","","24.1","","99.31","","","","","","Mostly Cloudy"
"2005-10-26 10:00","2005","10","26","10:00","6.4","","1.5","","71","","35","","20","","24.1","","99.34","","","","","","Mostly Cloudy"
"2005-10-26 11:00","2005","10","26","11:00","6.9","","0.5","","64","","34","","20","","24.1","","99.38","","","","","","Mostly Cloudy"
"2005-10-26 12:00","2005","10","26","12:00","8.1","","0.2","","57","","34","","22","","24.1","","99.39","","","","","","Mostly Cloudy"
"2005-10-26 13:00","2005","10","26","13:00","7.6","","-1.0","","54","","36","","28","","24.1","","99.41","","","","","","Cloudy"
"2005-10-26 14:00","2005","10","26","14:00","7.8","","-3.0","","46","","33","","26","","24.1","","99.42","","","","","","Cloudy"
"2005-10-26 15:00","2005","10","26","15:00","7.5","","-2.6","","49","","34","","20","","24.1","","99.45","","","","","","Cloudy"
"2005-10-26 16:00","2005","10","26","16:00","7.1","","-1.4","","55","","33","","24","","24.1","","99.50","","","","","","Cloudy"
"2005-10-26 17:00","2005","10","26","17:00","6.7","","-1.2","","57","","32","","22","","24.1","","99.57","","","","","","Cloudy"
"2005-10-26 18:00","2005","10","26","18:00","6.3","","-0.5","","62","","35","","26","","24.1","","99.66","","","","","","Cloudy"
"2005-10-26 19:00","2005","10","26","19:00","4.8","","1.4","","79","","33","","28","","24.1","","99.73","","","","","","Rain Showers"
"2005-10-26 20:00","2005","10","26","20:00","4.8","","1.8","","81","","32","","20","","24.1","","99.76","","","","","","Cloudy"
"2005-10-26 21:00","2005","10","26","21:00","5.1","","0.6","","73","","33","","17","","24.1","","99.82","","","","","","Cloudy"
"2005-10-26 22:00","2005","10","26","22:00","4.6","","-0.1","","72","","1","","15","","24.1","","99.87","","","","","","Cloudy"
"2005-10-26 23:00","2005","10","26","23:00","4.5","","-1.6","","65","","35","","11","","24.1","","99.90","","","","","","Cloudy"
"2005-10-27 00:00","2005","10","27","00:00","4.4","","-2.2","","62","","33","","13","","24.1","","99.93","","","","","","Cloudy"
"2005-10-27 01:00","2005","10","27","01:00","3.8","","-1.1","","70","","27","","9","","24.1","","99.94","","","","","","Cloudy"
"2005-10-27 02:00","2005","10","27","02:00","4.0","","-0.8","","71","","27","","11","","24.1","","99.99","","","","","","Cloudy"
"2005-10-27 03:00","2005","10","27","03:00","4.1","","-1.4","","67","","27","","11","","24.1","","99.99","","","","","","Mostly Cloudy"
"2005-10-27 04:00","2005","10","27","04:00","3.9","","-1.0","","70","","27","","9","","24.1","","100.01","","","","","","Cloudy"
"2005-10-27 05:00","2005","10","27","05:00","4.2","","-0.7","","70","","28","","9","","24.1","","100.04","","","","","","Cloudy"
"2005-10-27 06:00","2005","10","27","06:00","4.4","","0.3","","75","","29","","9","","24.1","","100.07","","","","","","Cloudy"
"2005-10-27 07:00","2005","10","27","07:00","4.4","","0.3","","75","","27","","7","","24.1","","100.09","","","","","","Cloudy"
"2005-10-27 08:00","2005","10","27","08:00","4.8","","-0.2","","70","","31","","11","","24.1","","100.15","","","","","","Cloudy"
"2005-10-27 09:00","2005","10","27","09:00","5.2","","-0.5","","67","","32","","13","","24.1","","100.18","","","","","","Cloudy"
"2005-10-27 10:00","2005","10","27","10:00","5.7","","0.0","","67","","30","","11","","24.1","","100.19","","","","","","Cloudy"
"2005-10-27 11:00","2005","10","27","11:00","6.2","","-0.2","","64","","35","","9","","24.1","","100.21","","","","","","Mostly Cloudy"
"2005-10-27 12:00","2005","10","27","12:00","6.8","","1.1","","67","","32","","17","","24.1","","100.19","","","","","","Cloudy"
"2005-10-27 13:00","2005","10","27","13:00","6.3","","1.3","","70","","34","","19","","24.1","","100.16","","","","","","Cloudy"
"2005-10-27 14:00","2005","10","27","14:00","6.7","","1.0","","67","","2","","7","","24.1","","100.14","","","","","","Cloudy"
"2005-10-27 15:00","2005","10","27","15:00","6.8","","1.8","","70","","32","","9","","24.1","","100.15","","","","","","Cloudy"
"2005-10-27 16:00","2005","10","27","16:00","6.7","","1.7","","70","","27","","9","","24.1","","100.16","","","","","","Mostly Cloudy"
"2005-10-27 17:00","2005","10","27","17:00","6.1","","1.0","","70","","36","","15","","24.1","","100.19","","","","","","Mostly Cloudy"
"2005-10-27 18:00","2005","10","27","18:00","5.0","","2.6","","84","","36","","13","","19.3","","100.25","","","","","","Rain Showers"
"2005-10-27 19:00","2005","10","27","19:00","4.9","","2.8","","86","","31","","11","","24.1","","100.28","","","","","","Mostly Cloudy"
"2005-10-27 20:00","2005","10","27","20:00","4.8","","2.2","","83","","32","","6","","24.1","","100.32","","","","","","Mostly Cloudy"
"2005-10-27 21:00","2005","10","27","21:00","4.2","","1.7","","84","","30","","7","","24.1","","100.36","","","","","","Mostly Cloudy"
"2005-10-27 22:00","2005","10","27","22:00","3.1","","1.4","","89","","30","","9","","24.1","","100.38","","","","","","Mainly Clear"
"2005-10-27 23:00","2005","10","27","23:00","2.4","","1.0","","90","","31","","7","","24.1","","100.41","","","","","","Clear"
"2005-10-28 00:00","2005","10","28","00:00","2.3","","0.6","","89","","36","","4","","24.1","","100.42","","","","","","Clear"
"2005-10-28 01:00","2005","10","28","01:00","1.6","","0.2","","90","","36","","13","","24.1","","100.42","","","","","","Clear"
"2005-10-28 02:00","2005","10","28","02:00","1.1","","-0.3","","90","","34","","11","","24.1","","100.48","","","","","","Clear"
"2005-10-28 03:00","2005","10","28","03:00","1.1","","-0.5","","89","","34","","17","","24.1","","100.47","","","","","","Clear"
"2005-10-28 04:00","2005","10","28","04:00","0.5","","-0.8","","91","","36","","13","","24.1","","100.48","","","","","","Clear"
"2005-10-28 05:00","2005","10","28","05:00","0.2","","-0.8","","93","","1","","9","","19.3","","100.51","","","","","","Clear"
"2005-10-28 06:00","2005","10","28","06:00","0.2","","-0.8","","93","","34","","9","","24.1","","100.57","","","","","","Clear"
"2005-10-28 07:00","2005","10","28","07:00","0.7","","-0.5","","92","","33","","9","","24.1","","100.62","","","","","","Mostly Cloudy"
"2005-10-28 08:00","2005","10","28","08:00","2.4","","1.0","","90","","36","","7","","24.1","","100.67","","","","","","Mostly Cloudy"
"2005-10-28 09:00","2005","10","28","09:00","3.4","","1.4","","87","","35","","13","","24.1","","100.71","","","","","","Mostly Cloudy"
"2005-10-28 10:00","2005","10","28","10:00","5.0","","2.3","","83","","36","","11","","24.1","","100.71","","","","","","Mostly Cloudy"
"2005-10-28 11:00","2005","10","28","11:00","6.6","","0.1","","63","","1","","13","","24.1","","100.69","","","","","","Mostly Cloudy"
"2005-10-28 12:00","2005","10","28","12:00","6.7","","-2.1","","53","","35","","17","","24.1","","100.66","","","","","","Mostly Cloudy"
"2005-10-28 13:00","2005","10","28","13:00","6.4","","-1.7","","56","","3","","11","","24.1","","100.66","","","","","","Mostly Cloudy"
"2005-10-28 14:00","2005","10","28","14:00","6.8","","-2.6","","51","","5","","7","","24.1","","100.64","","","","","","Mostly Cloudy"
"2005-10-28 15:00","2005","10","28","15:00","6.6","","-2.5","","52","","5","","9","","24.1","","100.64","","","","","","Cloudy"
"2005-10-28 16:00","2005","10","28","16:00","6.4","","-2.5","","53","","4","","7","","24.1","","100.64","","","","","","Mostly Cloudy"
"2005-10-28 17:00","2005","10","28","17:00","6.0","","-2.5","","54","","4","","6","","24.1","","100.63","","","","","","Mostly Cloudy"
"2005-10-28 18:00","2005","10","28","18:00","5.7","","-1.8","","58","","2","","7","","24.1","","100.65","","","","","","Mostly Cloudy"
"2005-10-28 19:00","2005","10","28","19:00","5.7","","-2.2","","57","","36","","4","","24.1","","100.63","","","","","","Mostly Cloudy"
"2005-10-28 20:00","2005","10","28","20:00","5.0","","-2.9","","57","","32","","4","","24.1","","100.62","","","","","","Mainly Clear"
"2005-10-28 21:00","2005","10","28","21:00","3.2","","-1.9","","69","","29","","9","","24.1","","100.64","","","","","","Mainly Clear"
"2005-10-28 22:00","2005","10","28","22:00","3.5","","0.3","","80","","27","","7","","24.1","","100.64","","","","","","Mostly Cloudy"
"2005-10-28 23:00","2005","10","28","23:00","4.4","","0.8","","77","","30","","9","","24.1","","100.64","","","","","","Cloudy"
"2005-10-29 00:00","2005","10","29","00:00","4.2","","1.1","","80","","28","","9","","24.1","","100.64","","","","","","Mostly Cloudy"
"2005-10-29 01:00","2005","10","29","01:00","3.6","","-0.1","","77","","31","","6","","24.1","","100.67","","","","","","Mostly Cloudy"
"2005-10-29 02:00","2005","10","29","02:00","2.6","","0.1","","84","","31","","11","","24.1","","100.67","","","","","","Mostly Cloudy"
"2005-10-29 03:00","2005","10","29","03:00","1.2","","-0.4","","89","","29","","9","","24.1","","100.66","","","","","","Mostly Cloudy"
"2005-10-29 04:00","2005","10","29","04:00","3.0","","0.9","","86","","30","","11","","24.1","","100.66","","","","","","Mostly Cloudy"
"2005-10-29 05:00","2005","10","29","05:00","3.6","","1.2","","84","","30","","13","","24.1","","100.69","","","","","","Mostly Cloudy"
"2005-10-29 06:00","2005","10","29","06:00","3.3","","0.9","","84","","29","","9","","24.1","","100.69","","","","","","Mostly Cloudy"
"2005-10-29 07:00","2005","10","29","07:00","3.0","","1.4","","89","","27","","7","","24.1","","100.70","","","","","","Mostly Cloudy"
"2005-10-29 08:00","2005","10","29","08:00","4.9","","2.2","","83","","28","","9","","24.1","","100.69","","","","","","Mostly Cloudy"
"2005-10-29 09:00","2005","10","29","09:00","7.1","","3.7","","79","","29","","7","","24.1","","100.68","","","","","","Mostly Cloudy"
"2005-10-29 10:00","2005","10","29","10:00","8.9","","4.5","","74","","27","","15","","24.1","","100.67","","","","","","Mostly Cloudy"
"2005-10-29 11:00","2005","10","29","11:00","9.9","","4.8","","71","","27","","13","","24.1","","100.65","","","","","","Mostly Cloudy"
"2005-10-29 12:00","2005","10","29","12:00","10.7","","4.8","","67","","32","","6","","24.1","","100.55","","","","","","Mainly Clear"
"2005-10-29 13:00","2005","10","29","13:00","12.3","","4.7","","60","","27","","11","","24.1","","100.47","","","","","","Mainly Clear"
"2005-10-29 14:00","2005","10","29","14:00","13.4","","4.3","","54","","29","","20","","24.1","","100.38","","","","","","Mainly Clear"
"2005-10-29 15:00","2005","10","29","15:00","13.9","","4.4","","53","","28","","19","","24.1","","100.33","","","","","","Mainly Clear"
"2005-10-29 16:00","2005","10","29","16:00","13.6","","4.1","","53","","28","","24","","24.1","","100.32","","","","","","Clear"
"2005-10-29 17:00","2005","10","29","17:00","11.8","","4.2","","60","","28","","17","","24.1","","100.33","","","","","","Clear"
"2005-10-29 18:00","2005","10","29","18:00","9.6","","3.7","","67","","27","","17","","24.1","","100.33","","","","","","Clear"
"2005-10-29 19:00","2005","10","29","19:00","7.0","","2.9","","75","","27","","17","","24.1","","100.34","","","","","","Clear"
"2005-10-29 20:00","2005","10","29","20:00","6.8","","3.0","","77","","27","","15","","24.1","","100.34","","","","","","Clear"
"2005-10-29 21:00","2005","10","29","21:00","6.3","","2.8","","78","","25","","9","","24.1","","100.34","","","","","","Clear"
"2005-10-29 22:00","2005","10","29","22:00","6.3","","3.0","","79","","25","","6","","24.1","","100.32","","","","","","Clear"
"2005-10-29 23:00","2005","10","29","23:00","6.8","","2.8","","76","","22","","6","","24.1","","100.28","","","","","","Clear"
"2005-10-30 00:00","2005","10","30","00:00","6.6","","2.5","","75","","22","","6","","24.1","","100.25","","","","","","Clear"
"2005-10-30 01:00","2005","10","30","01:00","6.6","","2.5","","75","","24","","7","","24.1","","100.24","","","","","","Clear"
"2005-10-30 02:00","2005","10","30","02:00","6.0","","2.6","","79","","16","","4","","24.1","","100.24","","","","","","Clear"
"2005-10-30 03:00","2005","10","30","03:00","6.8","","3.3","","78","","29","","9","","24.1","","100.22","","","","","","Clear"
"2005-10-30 04:00","2005","10","30","04:00","5.8","","3.5","","85","","21","","4","","24.1","","100.25","","","","","","Clear"
"2005-10-30 05:00","2005","10","30","05:00","5.8","","3.2","","83","","25","","9","","19.3","","100.26","","","","","","Clear"
"2005-10-30 06:00","2005","10","30","06:00","6.1","","2.6","","78","","23","","7","","19.3","","100.27","","","","","","Mainly Clear"
"2005-10-30 07:00","2005","10","30","07:00","5.1","","2.6","","84","","26","","20","","16.1","","100.30","","","","","","Mainly Clear"
"2005-10-30 08:00","2005","10","30","08:00","6.7","","3.9","","82","","25","","19","","16.1","","100.37","","","","","","Mainly Clear"
"2005-10-30 09:00","2005","10","30","09:00","8.9","","4.8","","75","","22","","15","","14.5","","100.42","","","","","","Mostly Cloudy"
"2005-10-30 10:00","2005","10","30","10:00","11.4","","6.0","","69","","22","","13","","12.9","","100.37","","","","","","Mainly Clear"
"2005-10-30 11:00","2005","10","30","11:00","13.0","","6.4","","64","","23","","15","","14.5","","100.32","","","","","","Mainly Clear"
"2005-10-30 12:00","2005","10","30","12:00","14.5","","6.2","","57","","26","","19","","14.5","","100.25","","","","","","Mostly Cloudy"
"2005-10-30 13:00","2005","10","30","13:00","15.6","","5.3","","50","","26","","17","","16.1","","100.17","","","","","","Mostly Cloudy"
"2005-10-30 14:00","2005","10","30","14:00","15.7","","3.6","","44","","25","","24","","19.3","","100.14","","","","","","Mostly Cloudy"
"2005-10-30 15:00","2005","10","30","15:00","16.0","","2.7","","41","","24","","19","","24.1","","100.10","","","","","","Mostly Cloudy"
"2005-10-30 16:00","2005","10","30","16:00","15.3","","2.1","","41","","24","","20","","24.1","","100.07","","","","","","Cloudy"
"2005-10-30 17:00","2005","10","30","17:00","13.9","","1.9","","44","","22","","17","","24.1","","100.05","","","","","","Mostly Cloudy"
"2005-10-30 18:00","2005","10","30","18:00","12.7","","3.1","","52","","22","","19","","24.1","","100.08","","","","","","Mostly Cloudy"
"2005-10-30 19:00","2005","10","30","19:00","11.0","","3.0","","58","","22","","17","","24.1","","100.09","","","","","","Mainly Clear"
"2005-10-30 20:00","2005","10","30","20:00","10.2","","3.8","","64","","20","","9","","24.1","","100.07","","","","","","Clear"
"2005-10-30 21:00","2005","10","30","21:00","9.6","","3.6","","66","","20","","13","","24.1","","100.04","","","","","","Clear"
"2005-10-30 22:00","2005","10","30","22:00","8.9","","3.6","","69","","20","","9","","24.1","","100.03","","","","","","Clear"
"2005-10-30 23:00","2005","10","30","23:00","8.6","","4.2","","74","","19","","11","","24.1","","99.99","","","","","","Mainly Clear"
"2005-10-31 00:00","2005","10","31","00:00","8.3","","5.2","","81","","18","","9","","24.1","","99.98","","","","","","Clear"
"2005-10-31 01:00","2005","10","31","01:00","8.4","","5.8","","84","","18","","9","","24.1","","99.96","","","","","","Mainly Clear"
"2005-10-31 02:00","2005","10","31","02:00","8.8","","6.2","","84","","19","","9","","24.1","","99.93","","","","","","Mostly Cloudy"
"2005-10-31 03:00","2005","10","31","03:00","8.7","","5.9","","83","","19","","9","","24.1","","99.90","","","","","","Mainly Clear"
"2005-10-31 04:00","2005","10","31","04:00","8.0","","5.4","","84","","20","","6","","24.1","","99.88","","","","","","Mostly Cloudy"
"2005-10-31 05:00","2005","10","31","05:00","7.9","","5.3","","84","","21","","6","","24.1","","99.83","","","","","","Mostly Cloudy"
"2005-10-31 06:00","2005","10","31","06:00","8.7","","5.7","","81","","22","","7","","24.1","","99.81","","","","","","Cloudy"
"2005-10-31 07:00","2005","10","31","07:00","9.1","","6.1","","81","","23","","17","","19.3","","99.80","","","","","","Cloudy"
"2005-10-31 08:00","2005","10","31","08:00","10.2","","6.8","","79","","23","","20","","19.3","","99.79","","","","","","Mostly Cloudy"
"2005-10-31 09:00","2005","10","31","09:00","10.9","","6.9","","76","","25","","28","","19.3","","99.78","","","","","","Cloudy"
"2005-10-31 10:00","2005","10","31","10:00","9.8","","7.9","","88","","25","","20","","9.7","","99.76","","","","","","Rain,Fog"
"2005-10-31 11:00","2005","10","31","11:00","9.7","","8.7","","93","","24","","26","","8.0","","99.75","","","","","","Rain,Fog"
"2005-10-31 12:00","2005","10","31","12:00","10.5","","8.6","","88","","24","","17","","16.1","","99.70","","","","","","Cloudy"
"2005-10-31 13:00","2005","10","31","13:00","11.9","","9.0","","82","","25","","17","","14.5","","99.66","","","","","","Cloudy"
"2005-10-31 14:00","2005","10","31","14:00","11.8","","9.2","","84","","25","","11","","14.5","","99.64","","","","","","Cloudy"
"2005-10-31 15:00","2005","10","31","15:00","13.4","","9.9","","79","","24","","15","","12.9","","99.64","","","","","","Cloudy"
"2005-10-31 16:00","2005","10","31","16:00","13.1","","9.5","","79","","25","","13","","11.3","","99.67","","","","","","Cloudy"
"2005-10-31 17:00","2005","10","31","17:00","13.5","","9.4","","76","","23","","9","","11.3","","99.67","","","","","","Cloudy"
"2005-10-31 18:00","2005","10","31","18:00","13.4","","9.4","","77","","21","","7","","12.9","","99.66","","","","","","Cloudy"
"2005-10-31 19:00","2005","10","31","19:00","13.4","","9.8","","79","","21","","9","","19.3","","99.66","","","","","","Cloudy"
"2005-10-31 20:00","2005","10","31","20:00","12.9","","9.5","","80","","22","","19","","24.1","","99.65","","","","","","Mostly Cloudy"
"2005-10-31 21:00","2005","10","31","21:00","11.4","","9.1","","86","","22","","13","","19.3","","99.62","","","","","","Mostly Cloudy"
"2005-10-31 22:00","2005","10","31","22:00","11.1","","9.2","","88","","23","","9","","19.3","","99.53","","","","","","Cloudy"
"2005-10-31 23:00","2005","10","31","23:00","11.4","","9.4","","87","","20","","6","","16.1","","99.47","","","","","","Cloudy"
