"Station Name","TORONTO LESTER B. PEARSON INT'L A"
"Province","ONTARIO"
"Latitude","43.68"
"Longitude","-79.63"
"Elevation","173.40"
"Climate Identifier","6158733"
"WMO Identifier","71624"
"TC Identifier","YYZ"
"All times are specified in Local Standard Time (LST). Add 1 hour to adjust for Daylight Saving Time where and when it is observed."

"Legend"
"E","Estimated"
"M","Missing"
"NA","Not Available"

"Date/Time","Year","Month","Day","Time","Temp (°C)","Temp Flag","Dew Point Temp (°C)","Dew Point Temp Flag","Rel Hum (%)","Rel Hum Flag","Wind Dir (10s deg)","Wind Dir Flag","Wind Spd (km/h)","Wind Spd Flag","Visibility (km)","Visibility Flag","Stn Press (kPa)","Stn Press Flag","Hmdx","Hmdx Flag","Wind Chill","Wind Chill Flag","Weather"
"1956-03-01 00:00","1956","03","01","00:00","-8.3","","-12.2","","74","","23","","18","","25.0","","99.96","","","","-15","","Clear"
"1956-03-01 01:00","1956","03","01","01:00","-8.3","","-12.2","","74","","20","","11","","24.1","","99.91","","","","-14","","Clear"
"1956-03-01 02:00","1956","03","01","02:00","-9.4","","-13.3","","73","","18","","11","","24.1","","99.90","","","","-15","","Clear"
"1956-03-01 03:00","1956","03","01","03:00","-9.4","","-12.8","","77","","18","","10","","24.1","","99.90","","","","-15","","Clear"
"1956-03-01 04:00","1956","03","01","04:00","-9.4","","-12.8","","77","","20","","6","","24.1","","99.84","","","","-13","","Mainly Clear"
"1956-03-01 05:00","1956","03","01","05:00","-10.0","","-12.8","","80","","18","","6","","24.1","","99.78","","","","-14","","Mostly Cloudy"
"1956-03-01 06:00","1956","03","01","06:00","-11.1","","-12.8","","87","","18","","5","","9.7","","99.72","","","","-14","","Fog"
"1956-03-01 07:00","1956","03","01","07:00","-11.1","","-13.3","","84","","18","","3","","6.4","","99.66","","","","-13","","Smoke,Haze"
"1956-03-01 08:00","1956","03","01","08:00","-9.4","","-11.7","","84","","18","","3","","6.4","","99.57","","","","-11","","Smoke,Haze"
"1956-03-01 09:00","1956","03","01","09:00","-6.1","","-10.6","","71","","14","","10","","3.2","","99.40","","","","-11","","Smoke,Haze"
"1956-03-01 10:00","1956","03","01","10:00","-1.1","","-4.4","","78","","16","","26","","6.4","","99.25","","","","-7","","Smoke,Haze"
"1956-03-01 11:00","1956","03","01","11:00","-0.6","","-5.0","","72","","16","","26","","6.4","","99.10","","","","-7","","Smoke,Haze"
"1956-03-01 12:00","1956","03","01","12:00","0.6","","-3.3","","75","","16","","29","","6.4","","98.91","","","","","","Smoke,Haze"
"1956-03-01 13:00","1956","03","01","13:00","2.2","","-2.8","","69","","14","","19","","6.4","","98.76","","","","","","Smoke,Haze"
"1956-03-01 14:00","1956","03","01","14:00","3.3","","-1.1","","73","","16","","14","","6.4","","98.59","","","","","","Smoke,Haze"
"1956-03-01 15:00","1956","03","01","15:00","3.9","","-1.1","","70","","16","","16","","6.4","","98.49","","","","","","Smoke,Haze"
"1956-03-01 16:00","1956","03","01","16:00","6.7","","1.1","","68","","20","","16","","11.3","","98.37","","","","","","Mostly Cloudy"
"1956-03-01 17:00","1956","03","01","17:00","6.1","","0.0","","65","","20","","24","","11.3","","98.28","","","","","","Mostly Cloudy"
"1956-03-01 18:00","1956","03","01","18:00","5.0","","-0.6","","67","","20","","16","","11.3","","98.24","","","","","","Mostly Cloudy"
"1956-03-01 19:00","1956","03","01","19:00","5.0","","0.0","","70","","16","","13","","16.1","","98.18","","","","","","Mainly Clear"
"1956-03-01 20:00","1956","03","01","20:00","5.0","","0.0","","70","","16","","16","","16.1","","98.07","","","","","","Mostly Cloudy"
"1956-03-01 21:00","1956","03","01","21:00","3.9","","0.0","","76","","16","","16","","12.9","","97.94","","","","","","Mainly Clear"
"1956-03-01 22:00","1956","03","01","22:00","4.4","","0.0","","73","","20","","23","","16.1","","97.94","","","","","","Mostly Cloudy"
"1956-03-01 23:00","1956","03","01","23:00","5.0","","2.2","","82","","20","","43","","16.1","","97.94","","","","","","Rain Showers"
"1956-03-02 00:00","1956","03","02","00:00","5.0","","2.8","","86","","20","","40","","16.1","","97.79","","","","","","Rain Showers"
"1956-03-02 01:00","1956","03","02","01:00","4.4","","2.8","","89","","20","","40","","12.9","","97.68","","","","","","Rain"
"1956-03-02 02:00","1956","03","02","02:00","4.4","","3.3","","93","","20","","42","","25.0","","97.57","","","","","","Cloudy"
"1956-03-02 03:00","1956","03","02","03:00","5.0","","2.8","","86","","20","","39","","25.0","","97.50","","","","","","Cloudy"
"1956-03-02 04:00","1956","03","02","04:00","5.0","","2.8","","86","","20","","39","","24.1","","97.48","","","","","","Cloudy"
"1956-03-02 05:00","1956","03","02","05:00","5.0","","2.8","","86","","20","","34","","24.1","","97.41","","","","","","Cloudy"
"1956-03-02 06:00","1956","03","02","06:00","5.0","","2.8","","86","","20","","29","","24.1","","97.35","","","","","","Cloudy"
"1956-03-02 07:00","1956","03","02","07:00","4.4","","2.2","","85","","20","","27","","9.7","","97.37","","","","","","Fog"
"1956-03-02 08:00","1956","03","02","08:00","3.9","","2.2","","89","","23","","26","","16.1","","97.40","","","","","","Cloudy"
"1956-03-02 09:00","1956","03","02","09:00","3.9","","2.2","","89","","23","","26","","12.9","","97.45","","","","","","Rain Showers"
"1956-03-02 10:00","1956","03","02","10:00","3.9","","2.2","","89","","25","","29","","16.1","","97.49","","","","","","Mostly Cloudy"
"1956-03-02 11:00","1956","03","02","11:00","3.3","","0.6","","82","","27","","24","","25.0","","97.61","","","","","","Cloudy"
"1956-03-02 12:00","1956","03","02","12:00","2.8","","0.6","","85","","27","","24","","12.9","","97.68","","","","","","Cloudy"
"1956-03-02 13:00","1956","03","02","13:00","2.8","","0.6","","85","","27","","26","","9.7","","97.72","","","","","","Haze"
"1956-03-02 14:00","1956","03","02","14:00","2.8","","0.6","","85","","27","","14","","6.4","","97.78","","","","","","Haze"
"1956-03-02 15:00","1956","03","02","15:00","2.8","","0.6","","85","","27","","24","","12.9","","97.88","","","","","","Cloudy"
"1956-03-02 16:00","1956","03","02","16:00","2.8","","0.6","","85","","27","","16","","12.9","","97.99","","","","","","Cloudy"
"1956-03-02 17:00","1956","03","02","17:00","2.2","","-1.7","","75","","27","","32","","12.9","","98.11","","","","","","Cloudy"
"1956-03-02 18:00","1956","03","02","18:00","1.7","","-2.2","","75","","27","","23","","12.9","","98.21","","","","","","Mostly Cloudy"
"1956-03-02 19:00","1956","03","02","19:00","1.7","","-1.7","","78","","27","","24","","12.9","","98.33","","","","","","Mostly Cloudy"
"1956-03-02 20:00","1956","03","02","20:00","1.1","","-2.8","","75","","29","","13","","16.1","","98.42","","","","","","Mainly Clear"
"1956-03-02 21:00","1956","03","02","21:00","0.6","","-2.8","","78","","25","","14","","19.3","","98.49","","","","","","Clear"
"1956-03-02 22:00","1956","03","02","22:00","0.0","","-2.8","","82","","23","","8","","24.1","","98.57","","","","-3","","Clear"
"1956-03-02 23:00","1956","03","02","23:00","-0.6","","-2.8","","85","","23","","8","","25.0","","98.60","","","","-3","","Clear"
"1956-03-03 00:00","1956","03","03","00:00","-0.6","","-3.9","","78","","20","","13","","25.0","","98.68","","","","-5","","Clear"
"1956-03-03 01:00","1956","03","03","01:00","-0.6","","-3.3","","81","","20","","13","","25.0","","98.70","","","","-5","","Mainly Clear"
"1956-03-03 02:00","1956","03","03","02:00","0.0","","-2.2","","85","","18","","10","","25.0","","98.72","","","","-3","","Mostly Cloudy"
"1956-03-03 03:00","1956","03","03","03:00","0.0","","-1.7","","88","","16","","13","","16.1","","98.65","","","","-4","","Cloudy"
"1956-03-03 04:00","1956","03","03","04:00","0.0","","-1.7","","88","","20","","10","","9.7","","98.68","","","","-3","","Fog"
"1956-03-03 05:00","1956","03","03","05:00","0.0","","-1.7","","88","","20","","11","","9.7","","98.71","","","","-4","","Fog"
"1956-03-03 06:00","1956","03","03","06:00","0.0","","-1.7","","88","","20","","14","","6.4","","98.69","","","","-4","","Fog"
"1956-03-03 07:00","1956","03","03","07:00","0.0","","-1.7","","88","","20","","16","","4.8","","98.68","","","","-5","","Fog"
"1956-03-03 08:00","1956","03","03","08:00","0.6","","-1.7","","85","","23","","16","","6.4","","98.72","","","","","","Haze"
"1956-03-03 09:00","1956","03","03","09:00","0.6","","-2.2","","82","","25","","18","","6.4","","98.74","","","","","","Haze"
"1956-03-03 10:00","1956","03","03","10:00","1.1","","-1.7","","82","","25","","13","","8.0","","98.74","","","","","","Haze"
"1956-03-03 11:00","1956","03","03","11:00","1.7","","-2.2","","75","","25","","13","","8.0","","98.70","","","","","","Haze"
"1956-03-03 12:00","1956","03","03","12:00","2.2","","-2.2","","72","","23","","11","","8.0","","98.63","","","","","","Haze"
"1956-03-03 13:00","1956","03","03","13:00","3.3","","-2.2","","67","","23","","8","","8.0","","98.58","","","","","","Haze"
"1956-03-03 14:00","1956","03","03","14:00","3.3","","-2.2","","67","","18","","6","","4.8","","98.52","","","","","","Haze"
"1956-03-03 15:00","1956","03","03","15:00","3.3","","-1.7","","70","","9","","6","","4.8","","98.47","","","","","","Haze"
"1956-03-03 16:00","1956","03","03","16:00","3.3","","-1.7","","70","","9","","6","","4.8","","98.48","","","","","","Haze"
"1956-03-03 17:00","1956","03","03","17:00","2.8","","-1.1","","75","","18","","8","","3.2","","98.52","","","","","","Haze"
"1956-03-03 18:00","1956","03","03","18:00","2.2","","-1.1","","78","","18","","3","","3.2","","98.50","","","","","","Haze"
"1956-03-03 19:00","1956","03","03","19:00","2.2","","-0.6","","82","","18","","5","","6.4","","98.50","","","","","","Haze"
"1956-03-03 20:00","1956","03","03","20:00","0.6","","-1.1","","88","","20","","6","","4.8","","98.54","","","","","","Haze"
"1956-03-03 21:00","1956","03","03","21:00","0.6","","-1.1","","88","","23","","10","","4.8","","98.56","","","","","","Haze"
"1956-03-03 22:00","1956","03","03","22:00","0.6","","-1.7","","85","","27","","23","","6.4","","98.58","","","","","","Haze"
"1956-03-03 23:00","1956","03","03","23:00","0.6","","-5.0","","66","","29","","40","","24.1","","98.67","","","","","","Mainly Clear"
"1956-03-04 00:00","1956","03","04","00:00","-1.1","","-4.4","","78","","29","","27","","25.0","","98.72","","","","-8","","Clear"
"1956-03-04 01:00","1956","03","04","01:00","-1.1","","-5.0","","75","","29","","40","","25.0","","98.82","","","","-9","","Clear"
"1956-03-04 02:00","1956","03","04","02:00","-1.7","","-3.3","","88","","27","","37","","25.0","","98.89","","","","-9","","Mainly Clear"
"1956-03-04 03:00","1956","03","04","03:00","-1.7","","-3.9","","85","","27","","37","","25.0","","98.96","","","","-9","","Mostly Cloudy"
"1956-03-04 04:00","1956","03","04","04:00","-1.7","","-3.3","","88","","27","","34","","25.0","","99.06","","","","-9","","Mostly Cloudy"
"1956-03-04 05:00","1956","03","04","05:00","-1.7","","-3.9","","85","","29","","47","","25.0","","99.18","","","","-10","","Mostly Cloudy"
"1956-03-04 06:00","1956","03","04","06:00","-1.7","","-3.9","","85","","29","","27","","25.0","","99.29","","","","-8","","Mostly Cloudy"
"1956-03-04 07:00","1956","03","04","07:00","-1.7","","-3.9","","85","","29","","23","","25.0","","99.39","","","","-8","","Mainly Clear"
"1956-03-04 08:00","1956","03","04","08:00","-2.2","","-3.9","","88","","29","","24","","25.0","","99.52","","","","-9","","Mainly Clear"
"1956-03-04 09:00","1956","03","04","09:00","-1.7","","-3.3","","88","","29","","24","","25.0","","99.61","","","","-8","","Mostly Cloudy"
"1956-03-04 10:00","1956","03","04","10:00","-0.6","","-5.6","","69","","29","","26","","25.0","","99.61","","","","-7","","Mainly Clear"
"1956-03-04 11:00","1956","03","04","11:00","0.0","","-4.4","","72","","29","","16","","25.0","","99.60","","","","-5","","Mostly Cloudy"
"1956-03-04 12:00","1956","03","04","12:00","0.6","","-4.4","","69","","27","","26","","25.0","","99.58","","","","","","Mostly Cloudy"
"1956-03-04 13:00","1956","03","04","13:00","0.6","","-3.9","","72","","25","","23","","25.0","","99.55","","","","","","Mainly Clear"
"1956-03-04 14:00","1956","03","04","14:00","1.7","","-3.3","","69","","25","","19","","25.0","","99.43","","","","","","Mostly Cloudy"
"1956-03-04 15:00","1956","03","04","15:00","1.7","","-3.9","","67","","23","","19","","25.0","","99.42","","","","","","Mostly Cloudy"
"1956-03-04 16:00","1956","03","04","16:00","1.1","","-3.9","","69","","25","","16","","25.0","","99.43","","","","","","Mostly Cloudy"
"1956-03-04 17:00","1956","03","04","17:00","1.1","","-1.7","","82","","25","","10","","25.0","","99.40","","","","","","Cloudy"
"1956-03-04 18:00","1956","03","04","18:00","0.6","","-2.8","","78","","18","","13","","25.0","","99.36","","","","","","Cloudy"
"1956-03-04 19:00","1956","03","04","19:00","0.6","","-3.3","","75","","18","","19","","25.0","","99.31","","","","","","Cloudy"
"1956-03-04 20:00","1956","03","04","20:00","0.0","","-2.8","","82","","18","","10","","25.0","","99.31","","","","-3","","Cloudy"
"1956-03-04 21:00","1956","03","04","21:00","0.0","","-3.3","","78","","18","","10","","25.0","","99.28","","","","-3","","Cloudy"
"1956-03-04 22:00","1956","03","04","22:00","0.0","","-3.3","","78","","18","","13","","25.0","","99.18","","","","-4","","Cloudy"
"1956-03-04 23:00","1956","03","04","23:00","0.0","","-2.8","","82","","18","","10","","25.0","","99.10","","","","-3","","Cloudy"
"1956-03-05 00:00","1956","03","05","00:00","0.0","","-2.8","","82","","18","","13","","19.3","","99.09","","","","-4","","Rain"
"1956-03-05 01:00","1956","03","05","01:00","0.0","","-2.2","","85","","20","","10","","16.1","","99.07","","","","-3","","Freezing Rain"
"1956-03-05 02:00","1956","03","05","02:00","1.7","","0.6","","92","","32","","6","","9.7","","98.94","","","","","","Fog"
"1956-03-05 03:00","1956","03","05","03:00","2.8","","0.0","","82","","23","","19","","12.9","","98.94","","","","","","Rain"
"1956-03-05 04:00","1956","03","05","04:00","1.7","","1.1","","96","","27","","19","","12.9","","98.94","","","","","","Rain,Snow"
"1956-03-05 05:00","1956","03","05","05:00","0.6","","0.0","","96","","25","","10","","4.0","","98.92","","","","","","Snow"
"1956-03-05 06:00","1956","03","05","06:00","0.6","","0.0","","96","","23","","13","","4.0","","98.92","","","","","","Snow"
"1956-03-05 07:00","1956","03","05","07:00","0.6","","0.0","","96","","23","","8","","6.4","","98.97","","","","","","Snow,Fog"
"1956-03-05 08:00","1956","03","05","08:00","0.6","","0.0","","96","","23","","6","","9.7","","99.03","","","","","","Fog"
"1956-03-05 09:00","1956","03","05","09:00","1.1","","0.6","","96","","20","","8","","3.2","","99.08","","","","","","Fog"
"1956-03-05 10:00","1956","03","05","10:00","2.2","","1.7","","96","","23","","10","","6.4","","99.08","","","","","","Fog"
"1956-03-05 11:00","1956","03","05","11:00","3.3","","1.1","","85","","25","","11","","11.3","","99.05","","","","","","Mostly Cloudy"
"1956-03-05 12:00","1956","03","05","12:00","4.4","","0.0","","73","","29","","16","","16.1","","99.09","","","","","","Mostly Cloudy"
"1956-03-05 13:00","1956","03","05","13:00","5.0","","0.6","","73","","27","","16","","16.1","","99.13","","","","","","Mostly Cloudy"
"1956-03-05 14:00","1956","03","05","14:00","5.0","","-1.7","","62","","27","","14","","16.1","","99.10","","","","","","Mostly Cloudy"
"1956-03-05 15:00","1956","03","05","15:00","5.0","","-1.1","","65","","27","","11","","16.1","","99.14","","","","","","Mostly Cloudy"
"1956-03-05 16:00","1956","03","05","16:00","5.0","","-1.1","","65","","34","","10","","19.3","","99.13","","","","","","Mostly Cloudy"
"1956-03-05 17:00","1956","03","05","17:00","3.9","","-1.1","","70","","27","","8","","19.3","","99.14","","","","","","Mostly Cloudy"
"1956-03-05 18:00","1956","03","05","18:00","3.3","","-0.6","","76","","18","","6","","19.3","","99.15","","","","","","Mostly Cloudy"
"1956-03-05 19:00","1956","03","05","19:00","1.7","","-0.6","","85","","9","","6","","19.3","","99.12","","","","","","Mostly Cloudy"
"1956-03-05 20:00","1956","03","05","20:00","0.0","","-1.7","","88","","5","","10","","19.3","","99.11","","","","-3","","Clear"
"1956-03-05 21:00","1956","03","05","21:00","0.0","","-2.2","","85","","5","","10","","19.3","","99.04","","","","-3","","Mainly Clear"
"1956-03-05 22:00","1956","03","05","22:00","0.0","","-1.7","","88","","5","","13","","12.9","","99.01","","","","-4","","Cloudy"
"1956-03-05 23:00","1956","03","05","23:00","0.6","","-3.3","","75","","7","","10","","11.3","","99.02","","","","","","Mostly Cloudy"
"1956-03-06 00:00","1956","03","06","00:00","0.0","","-1.7","","88","","7","","10","","16.1","","99.05","","","","-3","","Mainly Clear"
"1956-03-06 01:00","1956","03","06","01:00","-0.6","","-2.2","","88","","7","","8","","19.3","","99.03","","","","-3","","Mainly Clear"
"1956-03-06 02:00","1956","03","06","02:00","-0.6","","-3.3","","81","","5","","13","","19.3","","99.00","","","","-5","","Mainly Clear"
"1956-03-06 03:00","1956","03","06","03:00","-0.6","","-3.9","","78","","7","","19","","19.3","","98.91","","","","-6","","Mainly Clear"
"1956-03-06 04:00","1956","03","06","04:00","-1.1","","-2.8","","88","","7","","24","","12.9","","98.91","","","","-7","","Mostly Cloudy"
"1956-03-06 05:00","1956","03","06","05:00","-1.1","","-2.8","","88","","7","","19","","12.9","","98.96","","","","-6","","Mostly Cloudy"
"1956-03-06 06:00","1956","03","06","06:00","-1.1","","-2.8","","88","","7","","16","","12.9","","98.97","","","","-6","","Mostly Cloudy"
"1956-03-06 07:00","1956","03","06","07:00","-1.1","","-2.8","","88","","7","","19","","6.4","","98.86","","","","-6","","Fog"
"1956-03-06 08:00","1956","03","06","08:00","0.6","","-1.7","","85","","7","","19","","6.4","","98.84","","","","","","Fog"
"1956-03-06 09:00","1956","03","06","09:00","1.7","","-1.7","","75","","5","","16","","6.4","","98.85","","","","","","Haze"
"1956-03-06 10:00","1956","03","06","10:00","1.1","","0.0","","92","","7","","24","","4.8","","98.82","","","","","","Haze"
"1956-03-06 11:00","1956","03","06","11:00","1.7","","-0.6","","85","","7","","24","","4.8","","98.82","","","","","","Haze"
"1956-03-06 12:00","1956","03","06","12:00","2.2","","0.0","","85","","9","","19","","4.8","","98.80","","","","","","Haze"
"1956-03-06 13:00","1956","03","06","13:00","1.7","","0.6","","92","","9","","23","","4.8","","98.73","","","","","","Haze"
"1956-03-06 14:00","1956","03","06","14:00","1.7","","0.6","","92","","7","","27","","4.0","","98.63","","","","","","Haze"
"1956-03-06 15:00","1956","03","06","15:00","2.2","","0.6","","89","","7","","27","","4.0","","98.55","","","","","","Haze"
"1956-03-06 16:00","1956","03","06","16:00","1.7","","0.6","","92","","9","","18","","4.0","","98.58","","","","","","Drizzle,Fog"
"1956-03-06 17:00","1956","03","06","17:00","1.7","","0.6","","92","","9","","27","","4.0","","98.43","","","","","","Fog"
"1956-03-06 18:00","1956","03","06","18:00","2.2","","1.7","","96","","7","","29","","2.8","","98.43","","","","","","Moderate Rain,Fog"
"1956-03-06 19:00","1956","03","06","19:00","2.2","","1.7","","96","","7","","32","","3.2","","98.23","","","","","","Thunderstorms,Moderate Rain,Fog"
"1956-03-06 20:00","1956","03","06","20:00","2.2","","1.7","","96","","9","","42","","2.4","","98.33","","","","","","Thunderstorms,Moderate Rain,Fog"
"1956-03-06 21:00","1956","03","06","21:00","1.7","","1.1","","96","","9","","23","","2.4","","98.23","","","","","","Thunderstorms,Heavy Rain,Fog"
"1956-03-06 22:00","1956","03","06","22:00","1.7","","1.1","","96","","7","","24","","4.8","","98.15","","","","","","Rain,Fog"
"1956-03-06 23:00","1956","03","06","23:00","1.7","","1.1","","96","","9","","26","","4.8","","97.89","","","","","","Moderate Rain Showers,Fog"
"1956-03-07 00:00","1956","03","07","00:00","1.7","","1.1","","96","","7","","18","","4.8","","97.97","","","","","","Rain Showers,Fog"
"1956-03-07 01:00","1956","03","07","01:00","1.7","","0.6","","92","","5","","24","","4.8","","97.94","","","","","","Rain Showers,Fog"
"1956-03-07 02:00","1956","03","07","02:00","1.7","","0.6","","92","","5","","29","","12.9","","97.93","","","","","","Cloudy"
"1956-03-07 03:00","1956","03","07","03:00","1.1","","0.0","","92","","5","","23","","9.7","","97.88","","","","","","Rain Showers,Fog"
"1956-03-07 04:00","1956","03","07","04:00","1.1","","0.0","","92","","7","","16","","9.7","","97.88","","","","","","Rain,Fog"
"1956-03-07 05:00","1956","03","07","05:00","1.1","","0.0","","92","","5","","13","","16.1","","97.87","","","","","","Cloudy"
"1956-03-07 06:00","1956","03","07","06:00","0.6","","0.0","","96","","5","","14","","9.7","","97.85","","","","","","Drizzle,Fog"
"1956-03-07 07:00","1956","03","07","07:00","0.6","","-0.6","","92","","5","","16","","2.4","","97.95","","","","","","Drizzle,Fog"
"1956-03-07 08:00","1956","03","07","08:00","0.6","","-0.6","","92","","5","","24","","2.8","","98.02","","","","","","Drizzle,Fog"
"1956-03-07 09:00","1956","03","07","09:00","0.0","","-0.6","","96","","5","","19","","2.8","","98.12","","","","-5","","Drizzle,Fog"
"1956-03-07 10:00","1956","03","07","10:00","0.0","","0.0","","100","","5","","19","","4.8","","98.19","","","","-5","","Drizzle,Fog"
"1956-03-07 11:00","1956","03","07","11:00","0.0","","-0.6","","96","","5","","23","","3.2","","98.25","","","","-6","","Drizzle,Fog"
"1956-03-07 12:00","1956","03","07","12:00","-1.1","","-1.7","","96","","5","","32","","3.2","","98.33","","","","-8","","Freezing Drizzle,Fog"
"1956-03-07 13:00","1956","03","07","13:00","-1.7","","-2.8","","92","","5","","26","","3.2","","98.37","","","","-8","","Freezing Drizzle,Fog"
"1956-03-07 14:00","1956","03","07","14:00","-2.2","","-3.3","","92","","5","","23","","4.8","","98.39","","","","-8","","Freezing Drizzle,Fog"
"1956-03-07 15:00","1956","03","07","15:00","-2.2","","-3.3","","92","","7","","16","","8.0","","98.41","","","","-7","","Freezing Drizzle,Fog"
"1956-03-07 16:00","1956","03","07","16:00","-2.2","","-3.3","","92","","7","","27","","11.3","","98.44","","","","-9","","Freezing Drizzle"
"1956-03-07 17:00","1956","03","07","17:00","-2.2","","-3.3","","92","","7","","24","","3.2","","98.53","","","","-9","","Freezing Drizzle,Fog"
"1956-03-07 18:00","1956","03","07","18:00","-2.8","","-4.4","","88","","7","","29","","3.2","","98.49","","","","-10","","Freezing Drizzle,Fog"
"1956-03-07 19:00","1956","03","07","19:00","-2.8","","-4.4","","88","","7","","29","","8.0","","98.47","","","","-10","","Heavy Ice Pellets"
"1956-03-07 20:00","1956","03","07","20:00","-3.9","","-5.0","","92","","7","","29","","2.0","","98.39","","","","-11","","Snow,Ice Pellets"
"1956-03-07 21:00","1956","03","07","21:00","-3.9","","-5.0","","92","","7","","24","","4.0","","98.27","","","","-11","","Heavy Ice Pellets,Fog"
"1956-03-07 22:00","1956","03","07","22:00","-3.9","","-4.4","","96","","5","","21","","3.2","","98.10","","","","-10","","Moderate Ice Pellets,Fog"
"1956-03-07 23:00","1956","03","07","23:00","-2.2","","-3.3","","92","","7","","32","","1.6","","97.94","","","","-10","","Snow,Ice Pellets"
"1956-03-08 00:00","1956","03","08","00:00","-3.3","","-4.4","","92","","7","","26","","1.6","","97.69","","","","-10","","Snow,Moderate Ice Pellets"
"1956-03-08 01:00","1956","03","08","01:00","-2.2","","-2.8","","96","","7","","27","","3.2","","97.51","","","","-9","","Freezing Rain,Ice Pellets"
"1956-03-08 02:00","1956","03","08","02:00","-1.7","","-2.8","","92","","11","","21","","2.4","","97.40","","","","-8","","Moderate Ice Pellets"
"1956-03-08 03:00","1956","03","08","03:00","-1.7","","-2.2","","96","","9","","26","","2.4","","97.15","","","","-8","","Snow,Ice Pellets"
"1956-03-08 04:00","1956","03","08","04:00","-1.1","","-2.2","","92","","11","","32","","12.9","","96.99","","","","-8","","Ice Pellets"
"1956-03-08 05:00","1956","03","08","05:00","-0.6","","-1.1","","96","","11","","26","","2.0","","97.23","","","","-7","","Snow"
"1956-03-08 06:00","1956","03","08","06:00","-0.6","","-1.1","","96","","14","","19","","3.2","","97.24","","","","-6","","Snow"
"1956-03-08 07:00","1956","03","08","07:00","0.0","","-0.6","","96","","16","","19","","2.4","","97.18","","","","-5","","Snow"
"1956-03-08 08:00","1956","03","08","08:00","0.0","","-2.2","","85","","25","","51","","24.1","","97.20","","","","-8","","Mostly Cloudy"
"1956-03-08 09:00","1956","03","08","09:00","-0.6","","-3.9","","78","","25","","48","","24.1","","97.28","","","","-9","","Mostly Cloudy"
"1956-03-08 10:00","1956","03","08","10:00","0.0","","-3.3","","78","","25","","47","","24.1","","97.30","","","","-8","","Mostly Cloudy"
"1956-03-08 11:00","1956","03","08","11:00","-2.2","","-2.8","","96","","25","","42","","1.2","","97.34","","","","-11","","Snow,Blowing Snow"
"1956-03-08 12:00","1956","03","08","12:00","-1.1","","-3.9","","81","","25","","48","","24.1","","97.36","","","","-9","","Mostly Cloudy"
"1956-03-08 13:00","1956","03","08","13:00","-1.1","","-4.4","","78","","25","","48","","24.1","","97.39","","","","-9","","Cloudy"
"1956-03-08 14:00","1956","03","08","14:00","-3.9","","-5.6","","88","","25","","56","","6.4","","97.50","","","","-14","","Blowing Snow"
"1956-03-08 15:00","1956","03","08","15:00","-4.4","","-6.7","","84","","27","","58","","16.1","","97.58","","","","-15","","Mostly Cloudy"
"1956-03-08 16:00","1956","03","08","16:00","-5.0","","-7.2","","84","","27","","64","","12.9","","97.76","","","","-16","","Mostly Cloudy"
"1956-03-08 17:00","1956","03","08","17:00","-6.7","","-8.3","","88","","27","","50","","3.2","","97.90","","","","-17","","Blowing Snow"
"1956-03-08 18:00","1956","03","08","18:00","-7.2","","-10.0","","81","","27","","39","","25.0","","98.05","","","","-17","","Mostly Cloudy"
"1956-03-08 19:00","1956","03","08","19:00","-7.2","","-9.4","","84","","27","","19","","1.6","","97.99","","","","-14","","Snow"
"1956-03-08 20:00","1956","03","08","20:00","-8.3","","-11.1","","80","","27","","48","","8.0","","98.13","","","","-19","","Snow,Blowing Snow"
"1956-03-08 21:00","1956","03","08","21:00","-8.3","","-11.7","","77","","27","","45","","19.3","","98.22","","","","-19","","Snow Showers"
"1956-03-08 22:00","1956","03","08","22:00","-8.9","","-12.2","","77","","27","","42","","19.3","","98.34","","","","-20","","Snow Showers"
"1956-03-08 23:00","1956","03","08","23:00","-9.4","","-13.3","","73","","27","","58","","19.3","","98.45","","","","-22","","Snow Showers"
"1956-03-09 00:00","1956","03","09","00:00","-8.9","","-12.2","","77","","27","","39","","25.0","","98.56","","","","-19","","Clear"
"1956-03-09 01:00","1956","03","09","01:00","-8.3","","-12.2","","74","","27","","39","","25.0","","98.67","","","","-18","","Clear"
"1956-03-09 02:00","1956","03","09","02:00","-8.3","","-11.1","","80","","27","","47","","25.0","","98.83","","","","-19","","Clear"
"1956-03-09 03:00","1956","03","09","03:00","-8.3","","-11.7","","77","","27","","45","","25.0","","98.87","","","","-19","","Mainly Clear"
"1956-03-09 04:00","1956","03","09","04:00","-8.3","","-11.7","","77","","27","","48","","25.0","","99.01","","","","-19","","Mainly Clear"
"1956-03-09 05:00","1956","03","09","05:00","-7.8","","-10.6","","81","","27","","45","","25.0","","99.03","","","","-18","","Mainly Clear"
"1956-03-09 06:00","1956","03","09","06:00","-7.2","","-10.6","","77","","27","","35","","25.0","","99.16","","","","-16","","Mostly Cloudy"
"1956-03-09 07:00","1956","03","09","07:00","-6.1","","-8.3","","84","","27","","26","","25.0","","99.33","","","","-14","","Snow Showers"
"1956-03-09 08:00","1956","03","09","08:00","-5.6","","-8.9","","77","","27","","42","","25.0","","99.43","","","","-15","","Mostly Cloudy"
"1956-03-09 09:00","1956","03","09","09:00","-4.4","","-8.3","","74","","27","","34","","25.0","","99.57","","","","-13","","Mainly Clear"
"1956-03-09 10:00","1956","03","09","10:00","-3.3","","-8.3","","68","","27","","35","","25.0","","99.63","","","","-11","","Mostly Cloudy"
"1956-03-09 11:00","1956","03","09","11:00","-2.8","","-5.6","","81","","27","","35","","25.0","","99.63","","","","-11","","Mostly Cloudy"
"1956-03-09 12:00","1956","03","09","12:00","-2.2","","-5.0","","81","","25","","37","","25.0","","99.66","","","","-10","","Mostly Cloudy"
"1956-03-09 13:00","1956","03","09","13:00","-2.2","","-6.1","","75","","27","","29","","25.0","","99.57","","","","-9","","Cloudy"
"1956-03-09 14:00","1956","03","09","14:00","-2.8","","-4.4","","83","","25","","24","","25.0","","99.55","","","","-9","","Cloudy"
"1956-03-09 15:00","1956","03","09","15:00","-3.9","","-5.6","","88","","23","","14","","1.2","","99.55","","","","-9","","Snow,Fog"
"1956-03-09 16:00","1956","03","09","16:00","-4.4","","-5.6","","92","","23","","10","","0.8","","99.58","","","","-9","","Snow,Fog"
"1956-03-09 17:00","1956","03","09","17:00","-4.4","","-5.0","","96","","23","","8","","1.2","","99.54","","","","-8","","Snow"
"1956-03-09 18:00","1956","03","09","18:00","-4.4","","-5.6","","92","","36","","13","","1.6","","99.53","","","","-9","","Snow"
"1956-03-09 19:00","1956","03","09","19:00","-4.4","","-5.6","","92","","36","","13","","3.2","","99.65","","","","-9","","Snow"
"1956-03-09 20:00","1956","03","09","20:00","-5.0","","-6.1","","92","","36","","10","","24.1","","99.75","","","","-9","","Mostly Cloudy"
"1956-03-09 21:00","1956","03","09","21:00","-4.4","","-6.1","","88","","36","","10","","24.1","","99.88","","","","-9","","Cloudy"
"1956-03-09 22:00","1956","03","09","22:00","-6.1","","-7.2","","92","","36","","8","","24.1","","99.95","","","","-10","","Mainly Clear"
"1956-03-09 23:00","1956","03","09","23:00","-10.6","","-11.7","","91","","27","","5","","1.2","","100.10","","","","-14","","Ice Crystals,Fog"
"1956-03-10 00:00","1956","03","10","00:00","-8.9","","-10.0","","92","","36","","8","","25.0","","100.18","","","","-13","","Cloudy"
"1956-03-10 01:00","1956","03","10","01:00","-7.2","","-8.3","","92","","36","","6","","25.0","","100.25","","","","-10","","Snow"
"1956-03-10 02:00","1956","03","10","02:00","-6.7","","-7.8","","92","","36","","6","","25.0","","100.35","","","","-10","","Snow"
"1956-03-10 03:00","1956","03","10","03:00","-5.6","","-6.7","","92","","36","","5","","25.0","","100.38","","","","-8","","Snow"
"1956-03-10 04:00","1956","03","10","04:00","-6.1","","-7.2","","92","","","","0","","25.0","","100.42","","","","","","Snow"
"1956-03-10 05:00","1956","03","10","05:00","-5.6","","-6.7","","92","","","","0","","25.0","","100.45","","","","","","Cloudy"
"1956-03-10 06:00","1956","03","10","06:00","-5.0","","-6.7","","88","","","","0","","19.3","","100.59","","","","","","Mostly Cloudy"
"1956-03-10 07:00","1956","03","10","07:00","-5.0","","-6.1","","92","","","","0","","16.1","","100.64","","","","","","Mostly Cloudy"
"1956-03-10 08:00","1956","03","10","08:00","-3.9","","-5.6","","88","","","","0","","16.1","","100.70","","","","","","Cloudy"
"1956-03-10 09:00","1956","03","10","09:00","-3.3","","-7.8","","71","","32","","6","","24.1","","100.66","","","","-6","","Mostly Cloudy"
"1956-03-10 10:00","1956","03","10","10:00","-2.2","","-7.2","","69","","18","","3","","24.1","","100.69","","","","-3","","Mainly Clear"
"1956-03-10 11:00","1956","03","10","11:00","-1.1","","-6.1","","69","","18","","6","","24.1","","100.66","","","","-3","","Mostly Cloudy"
"1956-03-10 12:00","1956","03","10","12:00","-1.1","","-6.7","","66","","18","","8","","25.0","","100.63","","","","-4","","Mostly Cloudy"
"1956-03-10 13:00","1956","03","10","13:00","-1.1","","-5.0","","75","","18","","10","","25.0","","100.61","","","","-5","","Mostly Cloudy"
"1956-03-10 14:00","1956","03","10","14:00","-1.1","","-5.0","","75","","16","","13","","24.1","","100.59","","","","-5","","Cloudy"
"1956-03-10 15:00","1956","03","10","15:00","-1.1","","-5.0","","75","","14","","11","","24.1","","100.60","","","","-5","","Mostly Cloudy"
"1956-03-10 16:00","1956","03","10","16:00","-1.1","","-5.0","","75","","11","","16","","16.1","","100.47","","","","-6","","Mostly Cloudy"
"1956-03-10 17:00","1956","03","10","17:00","-1.7","","-5.0","","78","","7","","21","","16.1","","100.40","","","","-8","","Mostly Cloudy"
"1956-03-10 18:00","1956","03","10","18:00","-2.2","","-5.6","","78","","7","","21","","16.1","","100.36","","","","-8","","Mostly Cloudy"
"1956-03-10 19:00","1956","03","10","19:00","-2.2","","-5.0","","81","","7","","24","","24.1","","100.29","","","","-9","","Cloudy"
"1956-03-10 20:00","1956","03","10","20:00","-1.7","","-3.9","","85","","9","","23","","19.3","","100.18","","","","-8","","Cloudy"
"1956-03-10 21:00","1956","03","10","21:00","-2.2","","-3.9","","88","","9","","23","","19.3","","100.04","","","","-8","","Mainly Clear"
"1956-03-10 22:00","1956","03","10","22:00","-1.7","","-3.3","","88","","7","","24","","24.1","","99.89","","","","-8","","Mostly Cloudy"
"1956-03-10 23:00","1956","03","10","23:00","-1.1","","-2.8","","88","","7","","23","","24.1","","99.72","","","","-7","","Mainly Clear"
"1956-03-11 00:00","1956","03","11","00:00","-0.6","","-2.2","","88","","7","","26","","19.3","","99.52","","","","-7","","Mainly Clear"
"1956-03-11 01:00","1956","03","11","01:00","0.0","","-2.2","","85","","7","","27","","16.1","","99.40","","","","-6","","Mostly Cloudy"
"1956-03-11 02:00","1956","03","11","02:00","-0.6","","-2.2","","88","","7","","29","","19.3","","99.15","","","","-7","","Mainly Clear"
"1956-03-11 03:00","1956","03","11","03:00","0.6","","-1.7","","85","","14","","16","","19.3","","98.96","","","","","","Mostly Cloudy"
"1956-03-11 04:00","1956","03","11","04:00","1.1","","-1.7","","82","","11","","23","","16.1","","98.84","","","","","","Mostly Cloudy"
"1956-03-11 05:00","1956","03","11","05:00","1.7","","-1.7","","78","","11","","16","","12.9","","98.63","","","","","","Mostly Cloudy"
"1956-03-11 06:00","1956","03","11","06:00","2.2","","0.0","","85","","11","","13","","12.9","","98.53","","","","","","Rain Showers"
"1956-03-11 07:00","1956","03","11","07:00","3.3","","1.1","","85","","16","","27","","11.3","","98.33","","","","","","Rain Showers"
"1956-03-11 08:00","1956","03","11","08:00","6.1","","1.1","","70","","18","","45","","12.9","","98.09","","","","","","Mostly Cloudy"
"1956-03-11 09:00","1956","03","11","09:00","7.8","","2.8","","71","","20","","51","","16.1","","98.08","","","","","","Mostly Cloudy"
"1956-03-11 10:00","1956","03","11","10:00","5.6","","2.2","","79","","23","","80","","19.3","","98.12","","","","","","Mainly Clear"
"1956-03-11 11:00","1956","03","11","11:00","2.8","","-2.8","","67","","25","","90","","24.1","","98.35","","","","","","Mostly Cloudy"
"1956-03-11 12:00","1956","03","11","12:00","1.7","","-1.7","","78","","25","","90","","24.1","","98.59","","","","","","Mostly Cloudy"
"1956-03-11 13:00","1956","03","11","13:00","1.1","","-2.8","","75","","27","","80","","24.1","","98.80","","","","","","Mainly Clear"
"1956-03-11 14:00","1956","03","11","14:00","0.6","","-3.3","","75","","27","","84","","25.0","","99.10","","","","","","Mainly Clear"
"1956-03-11 15:00","1956","03","11","15:00","0.6","","-3.3","","75","","27","","48","","25.0","","99.41","","","","","","Snow Showers"
"1956-03-11 16:00","1956","03","11","16:00","0.0","","-3.9","","75","","27","","72","","25.0","","99.49","","","","-9","","Mostly Cloudy"
"1956-03-11 17:00","1956","03","11","17:00","-0.6","","-3.9","","85","","27","","56","","25.0","","99.78","","","","-9","","Mostly Cloudy"
"1956-03-11 18:00","1956","03","11","18:00","-1.1","","-2.8","","88","","29","","48","","25.0","","99.95","","","","-9","","Cloudy"
"1956-03-11 19:00","1956","03","11","19:00","-1.1","","-4.4","","78","","29","","45","","25.0","","100.04","","","","-9","","Cloudy"
"1956-03-11 20:00","1956","03","11","20:00","-1.1","","-3.9","","81","","29","","24","","25.0","","100.24","","","","-7","","Mostly Cloudy"
"1956-03-11 21:00","1956","03","11","21:00","-1.7","","-2.8","","92","","32","","24","","25.0","","100.33","","","","-8","","Mostly Cloudy"
"1956-03-11 22:00","1956","03","11","22:00","-1.7","","-5.0","","78","","32","","19","","25.0","","100.43","","","","-7","","Cloudy"
"1956-03-11 23:00","1956","03","11","23:00","-2.2","","-3.9","","88","","32","","24","","25.0","","100.44","","","","-9","","Mostly Cloudy"
"1956-03-12 00:00","1956","03","12","00:00","-2.8","","-5.0","","85","","29","","14","","25.0","","100.44","","","","-8","","Mainly Clear"
"1956-03-12 01:00","1956","03","12","01:00","-2.8","","-6.1","","78","","32","","16","","25.0","","100.45","","","","-8","","Mainly Clear"
"1956-03-12 02:00","1956","03","12","02:00","-1.7","","-5.0","","78","","29","","10","","25.0","","100.48","","","","-5","","Mostly Cloudy"
"1956-03-12 03:00","1956","03","12","03:00","-2.2","","-5.6","","78","","34","","10","","25.0","","100.44","","","","-6","","Cloudy"
"1956-03-12 04:00","1956","03","12","04:00","-4.4","","-7.8","","78","","5","","13","","25.0","","100.49","","","","-9","","Cloudy"
"1956-03-12 05:00","1956","03","12","05:00","-4.4","","-7.8","","78","","5","","13","","25.0","","100.52","","","","-9","","Cloudy"
"1956-03-12 06:00","1956","03","12","06:00","-5.0","","-8.9","","74","","2","","13","","25.0","","100.52","","","","-10","","Mostly Cloudy"
"1956-03-12 07:00","1956","03","12","07:00","-6.1","","-10.0","","74","","2","","13","","25.0","","100.60","","","","-11","","Mostly Cloudy"
"1956-03-12 08:00","1956","03","12","08:00","-6.1","","-8.9","","81","","2","","10","","25.0","","100.59","","","","-11","","Cloudy"
"1956-03-12 09:00","1956","03","12","09:00","-5.6","","-10.6","","68","","36","","10","","25.0","","100.63","","","","-10","","Cloudy"
"1956-03-12 10:00","1956","03","12","10:00","-5.0","","-11.1","","62","","2","","10","","25.0","","100.63","","","","-9","","Cloudy"
"1956-03-12 11:00","1956","03","12","11:00","-3.9","","-8.3","","71","","18","","6","","25.0","","100.63","","","","-7","","Cloudy"
"1956-03-12 12:00","1956","03","12","12:00","-3.3","","-6.7","","78","","16","","16","","16.1","","100.58","","","","-9","","Cloudy"
"1956-03-12 13:00","1956","03","12","13:00","-3.3","","-5.6","","85","","16","","13","","16.1","","100.53","","","","-8","","Cloudy"
"1956-03-12 14:00","1956","03","12","14:00","-3.9","","-5.0","","92","","14","","16","","1.6","","100.46","","","","-9","","Snow"
"1956-03-12 15:00","1956","03","12","15:00","-3.3","","-5.6","","85","","14","","13","","1.6","","100.40","","","","-8","","Snow"
"1956-03-12 16:00","1956","03","12","16:00","-3.3","","-5.0","","88","","14","","13","","1.6","","100.35","","","","-8","","Snow"
"1956-03-12 17:00","1956","03","12","17:00","-2.8","","-4.4","","88","","11","","10","","1.6","","100.33","","","","-7","","Snow"
"1956-03-12 18:00","1956","03","12","18:00","-3.3","","-4.4","","92","","9","","11","","4.8","","100.30","","","","-8","","Snow"
"1956-03-12 19:00","1956","03","12","19:00","-3.3","","-4.4","","92","","9","","11","","4.8","","100.28","","","","-8","","Snow"
"1956-03-12 20:00","1956","03","12","20:00","-3.3","","-4.4","","92","","9","","8","","4.8","","100.29","","","","-7","","Snow"
"1956-03-12 21:00","1956","03","12","21:00","-3.9","","-5.0","","92","","7","","11","","4.8","","100.26","","","","-8","","Snow"
"1956-03-12 22:00","1956","03","12","22:00","-5.0","","-6.7","","88","","5","","11","","12.9","","100.26","","","","-10","","Mainly Clear"
"1956-03-12 23:00","1956","03","12","23:00","-5.0","","-6.7","","88","","2","","10","","16.1","","100.27","","","","-9","","Mainly Clear"
"1956-03-13 00:00","1956","03","13","00:00","-5.6","","-7.2","","88","","5","","10","","19.3","","100.22","","","","-10","","Snow"
"1956-03-13 01:00","1956","03","13","01:00","-4.4","","-6.1","","88","","5","","10","","19.3","","100.20","","","","-9","","Cloudy"
"1956-03-13 02:00","1956","03","13","02:00","-5.0","","-6.1","","92","","2","","3","","16.1","","100.23","","","","-6","","Cloudy"
"1956-03-13 03:00","1956","03","13","03:00","-5.0","","-6.1","","92","","2","","3","","16.1","","100.21","","","","-6","","Snow"
"1956-03-13 04:00","1956","03","13","04:00","-5.0","","-6.1","","92","","","","0","","12.9","","100.22","","","","","","Snow"
"1956-03-13 05:00","1956","03","13","05:00","-4.4","","-6.1","","88","","32","","10","","12.9","","100.23","","","","-9","","Snow"
"1956-03-13 06:00","1956","03","13","06:00","-5.0","","-6.7","","88","","29","","10","","2.0","","100.22","","","","-9","","Fog"
"1956-03-13 07:00","1956","03","13","07:00","-5.6","","-7.2","","88","","36","","6","","2.0","","100.22","","","","-8","","Fog"
"1956-03-13 08:00","1956","03","13","08:00","-5.0","","-6.1","","92","","2","","3","","0.4","","100.25","","","","-6","","Fog"
"1956-03-13 09:00","1956","03","13","09:00","-5.6","","-5.6","","100","","20","","8","","0.8","","100.23","","","","-9","","Snow Grains,Fog"
"1956-03-13 10:00","1956","03","13","10:00","-3.3","","-4.4","","92","","18","","6","","4.8","","100.21","","","","-6","","Fog"
"1956-03-13 11:00","1956","03","13","11:00","0.0","","-2.8","","82","","18","","19","","11.3","","100.16","","","","-5","","Mostly Cloudy"
"1956-03-13 12:00","1956","03","13","12:00","0.0","","-2.8","","82","","20","","14","","11.3","","100.16","","","","-4","","Snow"
"1956-03-13 13:00","1956","03","13","13:00","1.1","","-2.2","","78","","20","","18","","11.3","","100.10","","","","","","Snow Showers"
"1956-03-13 14:00","1956","03","13","14:00","0.6","","-1.7","","85","","18","","16","","11.3","","100.10","","","","","","Snow Showers"
"1956-03-13 15:00","1956","03","13","15:00","2.2","","-3.9","","64","","20","","19","","19.3","","99.90","","","","","","Mainly Clear"
"1956-03-13 16:00","1956","03","13","16:00","2.8","","-3.9","","61","","20","","16","","24.1","","99.87","","","","","","Mostly Cloudy"
"1956-03-13 17:00","1956","03","13","17:00","1.7","","-2.8","","72","","20","","16","","25.0","","99.85","","","","","","Mainly Clear"
"1956-03-13 18:00","1956","03","13","18:00","1.1","","-1.7","","82","","20","","10","","24.1","","99.85","","","","","","Mainly Clear"
"1956-03-13 19:00","1956","03","13","19:00","0.0","","-3.9","","75","","23","","10","","24.1","","99.85","","","","-3","","Mainly Clear"
"1956-03-13 20:00","1956","03","13","20:00","-0.6","","-5.0","","72","","16","","8","","25.0","","99.86","","","","-3","","Clear"
"1956-03-13 21:00","1956","03","13","21:00","-1.7","","-5.0","","78","","25","","8","","25.0","","99.87","","","","-5","","Mainly Clear"
"1956-03-13 22:00","1956","03","13","22:00","-1.7","","-6.1","","72","","14","","8","","25.0","","99.85","","","","-5","","Mainly Clear"
"1956-03-13 23:00","1956","03","13","23:00","-0.6","","-3.3","","81","","18","","8","","25.0","","99.87","","","","-3","","Mainly Clear"
"1956-03-14 00:00","1956","03","14","00:00","-1.7","","-2.8","","92","","14","","6","","12.9","","99.82","","","","-4","","Mostly Cloudy"
"1956-03-14 01:00","1956","03","14","01:00","-2.2","","-3.3","","92","","2","","3","","8.0","","99.75","","","","-3","","Fog"
"1956-03-14 02:00","1956","03","14","02:00","-2.8","","-4.4","","88","","2","","6","","6.4","","99.77","","","","-5","","Fog"
"1956-03-14 03:00","1956","03","14","03:00","-3.3","","-4.4","","92","","2","","10","","6.4","","99.68","","","","-7","","Fog"
"1956-03-14 04:00","1956","03","14","04:00","-3.9","","-5.0","","92","","36","","16","","6.4","","99.60","","","","-9","","Fog"
"1956-03-14 05:00","1956","03","14","05:00","-2.2","","-3.9","","88","","34","","13","","6.4","","99.54","","","","-7","","Fog"
"1956-03-14 06:00","1956","03","14","06:00","-2.8","","-4.4","","88","","36","","16","","8.0","","99.50","","","","-8","","Fog"
"1956-03-14 07:00","1956","03","14","07:00","-2.8","","-4.4","","88","","2","","14","","4.8","","99.46","","","","-8","","Fog"
"1956-03-14 08:00","1956","03","14","08:00","-2.2","","-3.9","","88","","2","","16","","4.8","","99.38","","","","-7","","Fog"
"1956-03-14 09:00","1956","03","14","09:00","-1.7","","-2.8","","92","","2","","19","","4.8","","99.28","","","","-7","","Fog"
"1956-03-14 10:00","1956","03","14","10:00","-1.7","","-3.3","","88","","5","","23","","6.4","","99.18","","","","-8","","Fog"
"1956-03-14 11:00","1956","03","14","11:00","-1.7","","-3.9","","85","","36","","13","","1.6","","99.19","","","","-6","","Snow"
"1956-03-14 12:00","1956","03","14","12:00","-2.8","","-3.3","","96","","34","","26","","0.4","","99.18","","","","-10","","Heavy Snow"
"1956-03-14 13:00","1956","03","14","13:00","-2.8","","-3.3","","96","","34","","29","","0.8","","99.12","","","","-10","","Moderate Snow"
"1956-03-14 14:00","1956","03","14","14:00","-2.2","","-4.4","","85","","36","","31","","3.2","","99.08","","","","-9","","Snow"
"1956-03-14 15:00","1956","03","14","15:00","-2.2","","-5.0","","81","","36","","37","","12.9","","99.17","","","","-10","","Cloudy"
"1956-03-14 16:00","1956","03","14","16:00","-2.2","","-4.4","","85","","34","","42","","12.9","","99.46","","","","-11","","Snow"
"1956-03-14 17:00","1956","03","14","17:00","-1.7","","-4.4","","81","","34","","32","","16.1","","99.57","","","","-9","","Cloudy"
"1956-03-14 18:00","1956","03","14","18:00","-1.7","","-4.4","","81","","34","","26","","16.1","","99.75","","","","-8","","Cloudy"
"1956-03-14 19:00","1956","03","14","19:00","-2.2","","-3.9","","88","","34","","23","","24.1","","99.84","","","","-8","","Cloudy"
"1956-03-14 20:00","1956","03","14","20:00","-2.2","","-5.6","","78","","34","","26","","25.0","","100.01","","","","-9","","Mostly Cloudy"
"1956-03-14 21:00","1956","03","14","21:00","-3.3","","-6.1","","81","","32","","26","","25.0","","100.09","","","","-10","","Mainly Clear"
"1956-03-14 22:00","1956","03","14","22:00","-6.1","","-8.9","","81","","27","","16","","25.0","","100.23","","","","-12","","Mainly Clear"
"1956-03-14 23:00","1956","03","14","23:00","-5.6","","-9.4","","74","","29","","23","","25.0","","100.30","","","","-13","","Clear"
"1956-03-15 00:00","1956","03","15","00:00","-7.8","","-9.4","","88","","29","","16","","25.0","","100.36","","","","-14","","Clear"
"1956-03-15 01:00","1956","03","15","01:00","-8.9","","-11.1","","84","","29","","18","","25.0","","100.46","","","","-16","","Clear"
"1956-03-15 02:00","1956","03","15","02:00","-7.2","","-9.4","","84","","29","","16","","25.0","","100.51","","","","-14","","Clear"
"1956-03-15 03:00","1956","03","15","03:00","-7.8","","-11.1","","77","","32","","14","","25.0","","100.56","","","","-14","","Clear"
"1956-03-15 04:00","1956","03","15","04:00","-8.9","","-11.1","","84","","34","","11","","25.0","","100.63","","","","-14","","Clear"
"1956-03-15 05:00","1956","03","15","05:00","-10.0","","-11.7","","88","","36","","13","","25.0","","100.72","","","","-16","","Clear"
"1956-03-15 06:00","1956","03","15","06:00","-9.4","","-12.8","","77","","2","","16","","25.0","","100.80","","","","-16","","Mainly Clear"
"1956-03-15 07:00","1956","03","15","07:00","-10.0","","-12.2","","84","","36","","13","","25.0","","100.86","","","","-16","","Clear"
"1956-03-15 08:00","1956","03","15","08:00","-8.9","","-11.7","","80","","36","","19","","25.0","","100.97","","","","-16","","Mainly Clear"
"1956-03-15 09:00","1956","03","15","09:00","-7.2","","-9.4","","84","","36","","11","","25.0","","101.02","","","","-12","","Mostly Cloudy"
"1956-03-15 10:00","1956","03","15","10:00","-6.7","","-8.9","","84","","2","","10","","25.0","","101.02","","","","-11","","Clear"
"1956-03-15 11:00","1956","03","15","11:00","-5.6","","-10.0","","71","","2","","10","","25.0","","101.00","","","","-10","","Mainly Clear"
"1956-03-15 12:00","1956","03","15","12:00","-4.4","","-9.4","","68","","36","","10","","25.0","","101.02","","","","-9","","Mostly Cloudy"
"1956-03-15 13:00","1956","03","15","13:00","-3.9","","-10.6","","60","","7","","11","","25.0","","100.92","","","","-8","","Mainly Clear"
"1956-03-15 14:00","1956","03","15","14:00","-3.3","","-10.0","","60","","5","","11","","25.0","","100.87","","","","-8","","Mainly Clear"
"1956-03-15 15:00","1956","03","15","15:00","-3.3","","-8.3","","68","","14","","11","","25.0","","100.86","","","","-8","","Mostly Cloudy"
"1956-03-15 16:00","1956","03","15","16:00","-3.3","","-6.7","","78","","14","","16","","25.0","","100.83","","","","-9","","Mostly Cloudy"
"1956-03-15 17:00","1956","03","15","17:00","-3.9","","-6.1","","85","","16","","16","","25.0","","100.79","","","","-9","","Mostly Cloudy"
"1956-03-15 18:00","1956","03","15","18:00","-4.4","","-8.3","","74","","16","","13","","25.0","","100.78","","","","-9","","Cloudy"
"1956-03-15 19:00","1956","03","15","19:00","-4.4","","-10.0","","65","","14","","13","","25.0","","100.73","","","","-9","","Mostly Cloudy"
"1956-03-15 20:00","1956","03","15","20:00","-4.4","","-10.0","","65","","14","","10","","25.0","","100.74","","","","-9","","Mostly Cloudy"
"1956-03-15 21:00","1956","03","15","21:00","-4.4","","-6.7","","84","","9","","10","","25.0","","100.65","","","","-9","","Mostly Cloudy"
"1956-03-15 22:00","1956","03","15","22:00","-4.4","","-7.2","","81","","7","","13","","25.0","","100.60","","","","-9","","Mostly Cloudy"
"1956-03-15 23:00","1956","03","15","23:00","-5.0","","-7.2","","84","","7","","13","","25.0","","100.54","","","","-10","","Mostly Cloudy"
"1956-03-16 00:00","1956","03","16","00:00","-5.6","","-7.8","","84","","5","","16","","25.0","","100.44","","","","-12","","Mainly Clear"
"1956-03-16 01:00","1956","03","16","01:00","-5.6","","-9.4","","74","","5","","13","","25.0","","100.36","","","","-11","","Mostly Cloudy"
"1956-03-16 02:00","1956","03","16","02:00","-5.0","","-7.8","","81","","5","","16","","25.0","","100.27","","","","-11","","Cloudy"
"1956-03-16 03:00","1956","03","16","03:00","-5.0","","-8.3","","77","","5","","16","","25.0","","100.20","","","","-11","","Cloudy"
"1956-03-16 04:00","1956","03","16","04:00","-5.0","","-6.1","","92","","9","","23","","4.0","","100.13","","","","-12","","Snow"
"1956-03-16 05:00","1956","03","16","05:00","-5.6","","-6.7","","92","","9","","29","","1.6","","99.98","","","","-14","","Snow"
"1956-03-16 06:00","1956","03","16","06:00","-6.7","","-7.8","","92","","7","","23","","1.6","","99.90","","","","-14","","Snow"
"1956-03-16 07:00","1956","03","16","07:00","-7.2","","-8.9","","88","","5","","29","","1.2","","99.87","","","","-16","","Snow"
"1956-03-16 08:00","1956","03","16","08:00","-8.3","","-9.4","","92","","5","","19","","1.2","","99.81","","","","-16","","Snow"
"1956-03-16 09:00","1956","03","16","09:00","-8.3","","-10.0","","88","","7","","29","","1.2","","99.64","","","","-17","","Snow"
"1956-03-16 10:00","1956","03","16","10:00","-8.3","","-11.1","","80","","7","","26","","1.6","","99.49","","","","-17","","Snow"
"1956-03-16 11:00","1956","03","16","11:00","-8.3","","-10.6","","84","","7","","26","","1.2","","99.38","","","","-17","","Snow"
"1956-03-16 12:00","1956","03","16","12:00","-7.8","","-9.4","","88","","5","","26","","1.2","","99.27","","","","-16","","Snow"
"1956-03-16 13:00","1956","03","16","13:00","-7.8","","-10.0","","84","","5","","26","","1.2","","99.16","","","","-16","","Snow"
"1956-03-16 14:00","1956","03","16","14:00","-7.8","","-9.4","","88","","5","","29","","1.6","","99.00","","","","-17","","Snow"
"1956-03-16 15:00","1956","03","16","15:00","-7.8","","-10.0","","84","","5","","34","","1.6","","98.97","","","","-17","","Snow"
"1956-03-16 16:00","1956","03","16","16:00","-7.8","","-10.0","","84","","2","","27","","1.6","","99.00","","","","-16","","Snow"
"1956-03-16 17:00","1956","03","16","17:00","-7.8","","-8.9","","92","","2","","27","","1.2","","99.03","","","","-16","","Snow"
"1956-03-16 18:00","1956","03","16","18:00","-8.3","","-10.0","","88","","2","","26","","1.6","","99.08","","","","-17","","Snow"
"1956-03-16 19:00","1956","03","16","19:00","-8.3","","-10.6","","84","","2","","26","","8.0","","99.08","","","","-17","","Snow"
"1956-03-16 20:00","1956","03","16","20:00","-8.3","","-10.6","","84","","36","","23","","8.0","","99.09","","","","-16","","Snow"
"1956-03-16 21:00","1956","03","16","21:00","-8.9","","-11.1","","84","","36","","21","","9.7","","99.13","","","","-17","","Snow"
"1956-03-16 22:00","1956","03","16","22:00","-9.4","","-11.7","","84","","36","","24","","9.7","","99.19","","","","-18","","Snow"
"1956-03-16 23:00","1956","03","16","23:00","-11.1","","-13.9","","76","","34","","16","","16.1","","99.31","","","","-18","","Mainly Clear"
"1956-03-17 00:00","1956","03","17","00:00","-12.2","","-16.1","","73","","36","","16","","24.1","","99.32","","","","-20","","Clear"
"1956-03-17 01:00","1956","03","17","01:00","-12.2","","-16.1","","73","","36","","13","","24.1","","99.23","","","","-19","","Clear"
"1956-03-17 02:00","1956","03","17","02:00","-12.8","","-15.0","","84","","36","","13","","24.1","","99.28","","","","-20","","Mainly Clear"
"1956-03-17 03:00","1956","03","17","03:00","-15.0","","-17.2","","83","","34","","11","","24.1","","99.28","","","","-22","","Clear"
"1956-03-17 04:00","1956","03","17","04:00","-14.4","","-17.2","","79","","32","","8","","24.1","","99.30","","","","-20","","Mainly Clear"
"1956-03-17 05:00","1956","03","17","05:00","-14.4","","-17.8","","76","","32","","13","","24.1","","99.32","","","","-22","","Clear"
"1956-03-17 06:00","1956","03","17","06:00","-15.6","","-18.3","","79","","32","","13","","24.1","","99.34","","","","-23","","Clear"
"1956-03-17 07:00","1956","03","17","07:00","-15.0","","-17.8","","79","","32","","8","","24.1","","99.44","","","","-20","","Clear"
"1956-03-17 08:00","1956","03","17","08:00","-13.3","","-16.1","","80","","32","","8","","24.1","","99.50","","","","-18","","Mainly Clear"
"1956-03-17 09:00","1956","03","17","09:00","-11.1","","-16.1","","67","","2","","11","","25.0","","99.50","","","","-17","","Mainly Clear"
"1956-03-17 10:00","1956","03","17","10:00","-10.0","","-13.9","","73","","36","","13","","25.0","","99.52","","","","-16","","Mainly Clear"
"1956-03-17 11:00","1956","03","17","11:00","-8.3","","-13.3","","67","","34","","13","","25.0","","99.53","","","","-14","","Mostly Cloudy"
"1956-03-17 12:00","1956","03","17","12:00","-7.2","","-12.2","","68","","29","","11","","25.0","","99.52","","","","-12","","Mostly Cloudy"
"1956-03-17 13:00","1956","03","17","13:00","-6.7","","-12.8","","62","","29","","14","","25.0","","99.48","","","","-12","","Mostly Cloudy"
"1956-03-17 14:00","1956","03","17","14:00","-6.7","","-11.7","","68","","29","","13","","25.0","","99.46","","","","-12","","Mostly Cloudy"
"1956-03-17 15:00","1956","03","17","15:00","-5.6","","-10.6","","68","","36","","10","","25.0","","99.45","","","","-10","","Mostly Cloudy"
"1956-03-17 16:00","1956","03","17","16:00","-6.1","","-9.4","","77","","36","","8","","25.0","","99.45","","","","-10","","Mainly Clear"
"1956-03-17 17:00","1956","03","17","17:00","-6.1","","-15.0","","50","","36","","10","","25.0","","99.49","","","","-11","","Mainly Clear"
"1956-03-17 18:00","1956","03","17","18:00","-7.2","","-11.7","","71","","36","","10","","25.0","","99.49","","","","-12","","Mainly Clear"
"1956-03-17 19:00","1956","03","17","19:00","-7.2","","-13.3","","62","","36","","8","","25.0","","99.47","","","","-11","","Mainly Clear"
"1956-03-17 20:00","1956","03","17","20:00","-8.3","","-13.3","","67","","36","","6","","25.0","","99.60","","","","-12","","Mainly Clear"
"1956-03-17 21:00","1956","03","17","21:00","-11.7","","-16.1","","70","","36","","6","","25.0","","99.61","","","","-15","","Mainly Clear"
"1956-03-17 22:00","1956","03","17","22:00","-12.8","","-17.2","","69","","36","","6","","25.0","","99.61","","","","-17","","Clear"
"1956-03-17 23:00","1956","03","17","23:00","-13.3","","-16.7","","73","","36","","13","","25.0","","99.62","","","","-20","","Clear"
"1956-03-18 00:00","1956","03","18","00:00","-14.4","","-17.8","","76","","36","","10","","24.1","","99.56","","","","-21","","Clear"
"1956-03-18 01:00","1956","03","18","01:00","-14.4","","-18.3","","72","","36","","13","","24.1","","99.52","","","","-22","","Clear"
"1956-03-18 02:00","1956","03","18","02:00","-14.4","","-18.9","","69","","36","","13","","24.1","","99.51","","","","-22","","Clear"
"1956-03-18 03:00","1956","03","18","03:00","-14.4","","-18.9","","69","","36","","14","","24.1","","99.45","","","","-22","","Clear"
"1956-03-18 04:00","1956","03","18","04:00","-13.9","","-18.3","","69","","36","","13","","24.1","","99.44","","","","-21","","Clear"
"1956-03-18 05:00","1956","03","18","05:00","-13.3","","-17.8","","69","","36","","11","","24.1","","99.47","","","","-20","","Mostly Cloudy"
"1956-03-18 06:00","1956","03","18","06:00","-12.2","","-16.1","","73","","36","","10","","24.1","","99.49","","","","-18","","Cloudy"
"1956-03-18 07:00","1956","03","18","07:00","-10.6","","-13.9","","76","","36","","11","","8.0","","99.53","","","","-16","","Snow"
"1956-03-18 08:00","1956","03","18","08:00","-7.8","","-10.0","","84","","5","","19","","1.6","","99.57","","","","-15","","Snow"
"1956-03-18 09:00","1956","03","18","09:00","-6.7","","-8.3","","88","","5","","21","","4.0","","99.58","","","","-14","","Snow Showers"
"1956-03-18 10:00","1956","03","18","10:00","-6.1","","-7.8","","88","","5","","23","","1.2","","99.60","","","","-13","","Snow Showers"
"1956-03-18 11:00","1956","03","18","11:00","-6.1","","-7.2","","92","","7","","24","","1.2","","99.60","","","","-14","","Snow Showers"
"1956-03-18 12:00","1956","03","18","12:00","-5.0","","-6.7","","88","","7","","34","","2.4","","99.60","","","","-13","","Snow Showers"
"1956-03-18 13:00","1956","03","18","13:00","-3.9","","-8.3","","71","","7","","27","","24.1","","99.60","","","","-11","","Mainly Clear"
"1956-03-18 14:00","1956","03","18","14:00","-3.9","","-7.2","","78","","9","","32","","25.0","","99.59","","","","-12","","Mostly Cloudy"
"1956-03-18 15:00","1956","03","18","15:00","-3.3","","-7.8","","71","","7","","24","","25.0","","99.65","","","","-10","","Mainly Clear"
"1956-03-18 16:00","1956","03","18","16:00","-3.3","","-6.1","","81","","7","","26","","25.0","","99.80","","","","-10","","Mainly Clear"
"1956-03-18 17:00","1956","03","18","17:00","-3.9","","-8.9","","68","","7","","21","","25.0","","99.87","","","","-10","","Mainly Clear"
"1956-03-18 18:00","1956","03","18","18:00","-5.0","","-7.8","","81","","7","","14","","25.0","","99.91","","","","-10","","Mainly Clear"
"1956-03-18 19:00","1956","03","18","19:00","-6.7","","-10.6","","74","","7","","10","","25.0","","100.00","","","","-11","","Mainly Clear"
"1956-03-18 20:00","1956","03","18","20:00","-7.2","","-10.0","","81","","5","","10","","25.0","","100.04","","","","-12","","Clear"
"1956-03-18 21:00","1956","03","18","21:00","-7.8","","-10.0","","84","","2","","13","","25.0","","100.10","","","","-14","","Clear"
"1956-03-18 22:00","1956","03","18","22:00","-10.0","","-13.3","","77","","36","","14","","25.0","","100.14","","","","-16","","Clear"
"1956-03-18 23:00","1956","03","18","23:00","-10.0","","-13.3","","77","","36","","13","","25.0","","100.17","","","","-16","","Clear"
"1956-03-19 00:00","1956","03","19","00:00","-11.1","","-15.0","","73","","36","","13","","25.0","","100.15","","","","-18","","Clear"
"1956-03-19 01:00","1956","03","19","01:00","-12.2","","-13.9","","87","","36","","13","","25.0","","100.13","","","","-19","","Clear"
"1956-03-19 02:00","1956","03","19","02:00","-12.2","","-13.9","","87","","36","","16","","25.0","","100.13","","","","-20","","Clear"
"1956-03-19 03:00","1956","03","19","03:00","-12.2","","-13.9","","87","","36","","16","","25.0","","100.16","","","","-20","","Clear"
"1956-03-19 04:00","1956","03","19","04:00","-12.8","","-14.4","","87","","36","","16","","25.0","","100.20","","","","-20","","Clear"
"1956-03-19 05:00","1956","03","19","05:00","-12.2","","-15.0","","80","","36","","14","","25.0","","100.25","","","","-19","","Clear"
"1956-03-19 06:00","1956","03","19","06:00","-12.2","","-13.9","","87","","36","","14","","25.0","","100.33","","","","-19","","Clear"
"1956-03-19 07:00","1956","03","19","07:00","-12.2","","-13.9","","87","","36","","16","","25.0","","100.37","","","","-20","","Clear"
"1956-03-19 08:00","1956","03","19","08:00","-8.9","","-13.3","","70","","34","","16","","25.0","","100.43","","","","-16","","Clear"
"1956-03-19 09:00","1956","03","19","09:00","-5.0","","-11.1","","62","","34","","21","","25.0","","100.49","","","","-12","","Clear"
"1956-03-19 10:00","1956","03","19","10:00","-3.9","","-9.4","","65","","5","","21","","25.0","","100.50","","","","-10","","Clear"
"1956-03-19 11:00","1956","03","19","11:00","-3.9","","-10.0","","63","","5","","16","","25.0","","100.51","","","","-9","","Clear"
"1956-03-19 12:00","1956","03","19","12:00","-2.8","","-8.9","","63","","36","","18","","25.0","","100.48","","","","-8","","Clear"
"1956-03-19 13:00","1956","03","19","13:00","-2.2","","-8.9","","60","","2","","21","","25.0","","100.44","","","","-8","","Clear"
"1956-03-19 14:00","1956","03","19","14:00","-1.7","","-8.3","","60","","36","","19","","25.0","","100.40","","","","-7","","Clear"
"1956-03-19 15:00","1956","03","19","15:00","-1.7","","-6.7","","69","","36","","24","","25.0","","100.39","","","","-8","","Clear"
"1956-03-19 16:00","1956","03","19","16:00","-1.7","","-7.2","","65","","34","","18","","25.0","","100.40","","","","-7","","Clear"
"1956-03-19 17:00","1956","03","19","17:00","-1.7","","-6.1","","72","","36","","21","","25.0","","100.49","","","","-8","","Clear"
"1956-03-19 18:00","1956","03","19","18:00","-3.3","","-5.0","","88","","34","","23","","25.0","","100.50","","","","-10","","Clear"
"1956-03-19 19:00","1956","03","19","19:00","-4.4","","-11.1","","60","","34","","21","","25.0","","100.49","","","","-11","","Clear"
"1956-03-19 20:00","1956","03","19","20:00","-5.6","","-8.9","","77","","34","","19","","25.0","","100.49","","","","-12","","Clear"
"1956-03-19 21:00","1956","03","19","21:00","-6.7","","-13.9","","57","","34","","16","","25.0","","100.52","","","","-13","","Clear"
"1956-03-19 22:00","1956","03","19","22:00","-7.8","","-14.4","","59","","34","","16","","25.0","","100.54","","","","-14","","Clear"
"1956-03-19 23:00","1956","03","19","23:00","-7.2","","-17.2","","45","","34","","13","","25.0","","100.55","","","","-13","","Clear"
"1956-03-20 00:00","1956","03","20","00:00","-8.3","","-16.7","","51","","36","","16","","25.0","","100.56","","","","-15","","Clear"
"1956-03-20 01:00","1956","03","20","01:00","-8.3","","-15.6","","56","","36","","16","","25.0","","100.59","","","","-15","","Clear"
"1956-03-20 02:00","1956","03","20","02:00","-8.3","","-15.6","","56","","36","","16","","25.0","","100.60","","","","-15","","Clear"
"1956-03-20 03:00","1956","03","20","03:00","-8.9","","-15.6","","59","","36","","16","","25.0","","100.60","","","","-16","","Clear"
"1956-03-20 04:00","1956","03","20","04:00","-7.8","","-15.0","","56","","36","","24","","25.0","","100.62","","","","-16","","Clear"
"1956-03-20 05:00","1956","03","20","05:00","-7.8","","-14.4","","59","","36","","19","","25.0","","100.68","","","","-15","","Clear"
"1956-03-20 06:00","1956","03","20","06:00","-7.8","","-15.0","","56","","36","","16","","25.0","","100.72","","","","-14","","Clear"
"1956-03-20 07:00","1956","03","20","07:00","-7.8","","-14.4","","59","","36","","19","","25.0","","100.77","","","","-15","","Clear"
"1956-03-20 08:00","1956","03","20","08:00","-4.4","","-11.1","","60","","36","","24","","25.0","","100.81","","","","-11","","Clear"
"1956-03-20 09:00","1956","03","20","09:00","-2.8","","-6.7","","75","","34","","19","","25.0","","100.88","","","","-9","","Clear"
"1956-03-20 10:00","1956","03","20","10:00","-1.1","","-3.9","","81","","36","","24","","25.0","","100.90","","","","-7","","Clear"
"1956-03-20 11:00","1956","03","20","11:00","0.0","","-2.8","","82","","34","","16","","25.0","","100.91","","","","-5","","Clear"
"1956-03-20 12:00","1956","03","20","12:00","0.6","","-2.2","","82","","34","","21","","25.0","","100.91","","","","","","Clear"
"1956-03-20 13:00","1956","03","20","13:00","1.1","","-1.7","","82","","34","","13","","25.0","","100.88","","","","","","Clear"
"1956-03-20 14:00","1956","03","20","14:00","2.2","","0.0","","85","","32","","13","","25.0","","100.81","","","","","","Clear"
"1956-03-20 15:00","1956","03","20","15:00","2.2","","0.0","","85","","32","","13","","25.0","","100.78","","","","","","Clear"
"1956-03-20 16:00","1956","03","20","16:00","2.8","","1.1","","89","","32","","14","","25.0","","100.78","","","","","","Clear"
"1956-03-20 17:00","1956","03","20","17:00","2.2","","-11.1","","37","","27","","13","","25.0","","100.80","","","","","","Clear"
"1956-03-20 18:00","1956","03","20","18:00","0.6","","-8.3","","51","","25","","10","","25.0","","100.76","","","","","","Clear"
"1956-03-20 19:00","1956","03","20","19:00","-1.1","","-7.2","","63","","27","","13","","25.0","","100.75","","","","-5","","Clear"
"1956-03-20 20:00","1956","03","20","20:00","-3.3","","-6.7","","78","","27","","14","","25.0","","100.76","","","","-8","","Clear"
"1956-03-20 21:00","1956","03","20","21:00","-3.9","","-7.2","","78","","27","","13","","25.0","","100.76","","","","-9","","Clear"
"1956-03-20 22:00","1956","03","20","22:00","-4.4","","-8.9","","71","","27","","14","","25.0","","100.75","","","","-10","","Clear"
"1956-03-20 23:00","1956","03","20","23:00","-3.9","","-6.7","","81","","27","","11","","25.0","","100.76","","","","-8","","Clear"
"1956-03-21 00:00","1956","03","21","00:00","-4.4","","-8.9","","71","","29","","10","","25.0","","100.73","","","","-9","","Clear"
"1956-03-21 01:00","1956","03","21","01:00","-5.6","","-10.6","","68","","29","","10","","25.0","","100.71","","","","-10","","Clear"
"1956-03-21 02:00","1956","03","21","02:00","-7.8","","-11.1","","77","","29","","10","","25.0","","100.71","","","","-13","","Clear"
"1956-03-21 03:00","1956","03","21","03:00","-7.8","","-11.7","","74","","27","","10","","25.0","","100.66","","","","-13","","Clear"
"1956-03-21 04:00","1956","03","21","04:00","-7.8","","-13.3","","64","","27","","8","","25.0","","100.67","","","","-12","","Clear"
"1956-03-21 05:00","1956","03","21","05:00","-7.8","","-11.7","","74","","27","","8","","25.0","","100.71","","","","-12","","Clear"
"1956-03-21 06:00","1956","03","21","06:00","-7.8","","-13.9","","62","","27","","8","","25.0","","100.71","","","","-12","","Clear"
"1956-03-21 07:00","1956","03","21","07:00","-7.2","","-10.6","","77","","27","","6","","12.9","","100.75","","","","-10","","Mainly Clear"
"1956-03-21 08:00","1956","03","21","08:00","-4.4","","-9.4","","68","","27","","6","","12.9","","100.73","","","","-7","","Mainly Clear"
"1956-03-21 09:00","1956","03","21","09:00","-1.1","","-14.4","","36","","25","","13","","12.9","","100.65","","","","-5","","Mainly Clear"
"1956-03-21 10:00","1956","03","21","10:00","1.1","","-6.1","","59","","25","","19","","24.1","","100.60","","","","","","Mainly Clear"
"1956-03-21 11:00","1956","03","21","11:00","2.8","","-2.2","","70","","20","","16","","24.1","","100.55","","","","","","Mostly Cloudy"
"1956-03-21 12:00","1956","03","21","12:00","2.8","","-4.4","","59","","23","","21","","24.1","","100.50","","","","","","Mostly Cloudy"
"1956-03-21 13:00","1956","03","21","13:00","3.3","","0.0","","79","","23","","23","","24.1","","100.45","","","","","","Mostly Cloudy"
"1956-03-21 14:00","1956","03","21","14:00","4.4","","-4.4","","52","","25","","21","","24.1","","100.37","","","","","","Mainly Clear"
"1956-03-21 15:00","1956","03","21","15:00","4.4","","-4.4","","52","","23","","21","","24.1","","100.32","","","","","","Mainly Clear"
"1956-03-21 16:00","1956","03","21","16:00","4.4","","-2.8","","59","","23","","16","","24.1","","100.24","","","","","","Mainly Clear"
"1956-03-21 17:00","1956","03","21","17:00","3.3","","-3.9","","59","","23","","18","","24.1","","100.21","","","","","","Mainly Clear"
"1956-03-21 18:00","1956","03","21","18:00","2.2","","-3.3","","67","","20","","16","","24.1","","100.17","","","","","","Mainly Clear"
"1956-03-21 19:00","1956","03","21","19:00","1.1","","-3.3","","72","","20","","14","","24.1","","100.15","","","","","","Mainly Clear"
"1956-03-21 20:00","1956","03","21","20:00","0.6","","-5.0","","66","","20","","14","","25.0","","100.14","","","","","","Mainly Clear"
"1956-03-21 21:00","1956","03","21","21:00","-0.6","","-6.1","","66","","20","","13","","25.0","","100.10","","","","-5","","Clear"
"1956-03-21 22:00","1956","03","21","22:00","-1.1","","-5.6","","72","","20","","10","","25.0","","100.12","","","","-5","","Clear"
"1956-03-21 23:00","1956","03","21","23:00","-2.2","","-6.1","","75","","20","","11","","25.0","","99.99","","","","-6","","Clear"
"1956-03-22 00:00","1956","03","22","00:00","-1.7","","-6.1","","72","","20","","10","","25.0","","99.96","","","","-5","","Clear"
"1956-03-22 01:00","1956","03","22","01:00","-2.2","","-6.1","","75","","20","","13","","25.0","","99.92","","","","-7","","Clear"
"1956-03-22 02:00","1956","03","22","02:00","-2.2","","-4.4","","85","","20","","11","","25.0","","99.86","","","","-6","","Mainly Clear"
"1956-03-22 03:00","1956","03","22","03:00","-2.2","","-4.4","","85","","20","","8","","25.0","","99.78","","","","-5","","Cloudy"
"1956-03-22 04:00","1956","03","22","04:00","-2.2","","-5.0","","81","","20","","10","","25.0","","99.72","","","","-6","","Cloudy"
"1956-03-22 05:00","1956","03","22","05:00","-1.7","","-3.3","","88","","20","","13","","24.1","","99.72","","","","-6","","Cloudy"
"1956-03-22 06:00","1956","03","22","06:00","-1.1","","-2.8","","88","","23","","11","","12.9","","99.68","","","","-5","","Cloudy"
"1956-03-22 07:00","1956","03","22","07:00","-1.1","","-3.3","","85","","20","","10","","11.3","","99.68","","","","-5","","Cloudy"
"1956-03-22 08:00","1956","03","22","08:00","0.6","","-2.2","","82","","23","","18","","9.7","","99.64","","","","","","Smoke,Haze"
"1956-03-22 09:00","1956","03","22","09:00","1.7","","-0.6","","85","","25","","21","","9.7","","99.64","","","","","","Smoke,Haze"
"1956-03-22 10:00","1956","03","22","10:00","2.2","","-0.6","","82","","25","","16","","6.4","","99.64","","","","","","Smoke,Haze"
"1956-03-22 11:00","1956","03","22","11:00","2.8","","1.1","","89","","25","","21","","6.4","","99.60","","","","","","Haze"
"1956-03-22 12:00","1956","03","22","12:00","3.3","","0.6","","82","","25","","26","","6.4","","99.59","","","","","","Haze"
"1956-03-22 13:00","1956","03","22","13:00","3.3","","0.6","","82","","27","","21","","9.7","","99.56","","","","","","Haze"
"1956-03-22 14:00","1956","03","22","14:00","4.4","","0.6","","76","","27","","32","","9.7","","99.55","","","","","","Rain Showers,Haze"
"1956-03-22 15:00","1956","03","22","15:00","3.9","","-1.1","","70","","27","","23","","16.1","","99.60","","","","","","Mostly Cloudy"
"1956-03-22 16:00","1956","03","22","16:00","3.9","","-4.4","","54","","29","","23","","25.0","","99.65","","","","","","Mainly Clear"
"1956-03-22 17:00","1956","03","22","17:00","2.8","","-6.1","","52","","29","","35","","25.0","","99.74","","","","","","Mainly Clear"
"1956-03-22 18:00","1956","03","22","18:00","1.1","","-5.0","","64","","27","","16","","25.0","","99.76","","","","","","Clear"
"1956-03-22 19:00","1956","03","22","19:00","0.6","","-6.1","","61","","27","","26","","25.0","","99.82","","","","","","Clear"
"1956-03-22 20:00","1956","03","22","20:00","-1.1","","-7.8","","61","","27","","16","","25.0","","99.91","","","","-6","","Clear"
"1956-03-22 21:00","1956","03","22","21:00","-1.1","","-6.1","","69","","27","","18","","25.0","","99.94","","","","-6","","Clear"
"1956-03-22 22:00","1956","03","22","22:00","-1.7","","-5.6","","75","","27","","16","","25.0","","99.94","","","","-7","","Mostly Cloudy"
"1956-03-22 23:00","1956","03","22","23:00","-1.7","","-6.1","","72","","25","","16","","25.0","","99.94","","","","-7","","Mostly Cloudy"
"1956-03-23 00:00","1956","03","23","00:00","-2.2","","-5.6","","78","","27","","23","","25.0","","99.93","","","","-8","","Mostly Cloudy"
"1956-03-23 01:00","1956","03","23","01:00","-1.7","","-3.3","","88","","27","","19","","25.0","","99.96","","","","-7","","Cloudy"
"1956-03-23 02:00","1956","03","23","02:00","-1.7","","-4.4","","81","","27","","18","","25.0","","99.95","","","","-7","","Cloudy"
"1956-03-23 03:00","1956","03","23","03:00","-2.2","","-5.0","","81","","27","","13","","25.0","","99.91","","","","-7","","Mostly Cloudy"
"1956-03-23 04:00","1956","03","23","04:00","-3.3","","-6.1","","81","","32","","13","","25.0","","99.95","","","","-8","","Mainly Clear"
"1956-03-23 05:00","1956","03","23","05:00","-3.3","","-5.6","","85","","32","","19","","25.0","","99.96","","","","-9","","Mainly Clear"
"1956-03-23 06:00","1956","03","23","06:00","-3.9","","-6.7","","81","","32","","16","","25.0","","99.99","","","","-9","","Mainly Clear"
"1956-03-23 07:00","1956","03","23","07:00","-3.3","","-7.8","","71","","27","","19","","25.0","","100.03","","","","-9","","Cloudy"
"1956-03-23 08:00","1956","03","23","08:00","-3.3","","-5.6","","85","","29","","19","","25.0","","100.07","","","","-9","","Cloudy"
"1956-03-23 09:00","1956","03","23","09:00","-2.2","","-5.6","","78","","29","","21","","25.0","","100.08","","","","-8","","Mostly Cloudy"
"1956-03-23 10:00","1956","03","23","10:00","-1.7","","-3.9","","85","","29","","21","","25.0","","100.07","","","","-8","","Cloudy"
"1956-03-23 11:00","1956","03","23","11:00","-1.1","","-5.0","","75","","34","","19","","25.0","","100.03","","","","-6","","Cloudy"
"1956-03-23 12:00","1956","03","23","12:00","-0.6","","-3.3","","81","","32","","19","","25.0","","99.99","","","","-6","","Cloudy"
"1956-03-23 13:00","1956","03","23","13:00","0.0","","-3.9","","75","","32","","16","","25.0","","99.94","","","","-5","","Cloudy"
"1956-03-23 14:00","1956","03","23","14:00","0.0","","-3.9","","75","","27","","10","","24.1","","99.88","","","","-3","","Snow Showers"
"1956-03-23 15:00","1956","03","23","15:00","-1.1","","-2.2","","92","","14","","6","","8.0","","99.82","","","","-3","","Snow Showers"
"1956-03-23 16:00","1956","03","23","16:00","-1.1","","-3.9","","81","","7","","6","","3.2","","99.74","","","","-3","","Snow"
"1956-03-23 17:00","1956","03","23","17:00","-1.7","","-3.3","","88","","7","","6","","2.4","","99.71","","","","-4","","Snow,Fog"
"1956-03-23 18:00","1956","03","23","18:00","-2.2","","-3.3","","92","","5","","13","","1.6","","99.69","","","","-7","","Snow,Fog"
"1956-03-23 19:00","1956","03","23","19:00","-2.8","","-3.3","","96","","5","","11","","2.0","","99.67","","","","-7","","Snow,Fog"
"1956-03-23 20:00","1956","03","23","20:00","-3.3","","-3.9","","96","","2","","11","","2.0","","99.65","","","","-8","","Snow,Fog"
"1956-03-23 21:00","1956","03","23","21:00","-3.3","","-4.4","","92","","5","","10","","12.9","","99.59","","","","-7","","Snow"
"1956-03-23 22:00","1956","03","23","22:00","-2.8","","-6.1","","78","","2","","13","","19.3","","99.55","","","","-7","","Snow"
"1956-03-23 23:00","1956","03","23","23:00","-2.8","","-6.1","","78","","2","","18","","25.0","","99.54","","","","-8","","Cloudy"
"1956-03-24 00:00","1956","03","24","00:00","-3.9","","-9.4","","65","","2","","18","","25.0","","99.55","","","","-10","","Mostly Cloudy"
"1956-03-24 01:00","1956","03","24","01:00","-3.9","","-8.9","","68","","2","","26","","25.0","","99.56","","","","-11","","Mostly Cloudy"
"1956-03-24 02:00","1956","03","24","02:00","-5.6","","-10.6","","68","","2","","23","","25.0","","99.56","","","","-13","","Mainly Clear"
"1956-03-24 03:00","1956","03","24","03:00","-6.1","","-8.9","","81","","2","","26","","25.0","","99.57","","","","-14","","Clear"
"1956-03-24 04:00","1956","03","24","04:00","-7.2","","-10.0","","81","","36","","26","","25.0","","99.60","","","","-15","","Clear"
"1956-03-24 05:00","1956","03","24","05:00","-7.8","","-10.6","","81","","36","","16","","25.0","","99.74","","","","-14","","Clear"
"1956-03-24 06:00","1956","03","24","06:00","-7.8","","-12.2","","70","","36","","13","","25.0","","99.81","","","","-14","","Clear"
"1956-03-24 07:00","1956","03","24","07:00","-7.8","","-12.2","","70","","36","","13","","25.0","","99.89","","","","-14","","Clear"
"1956-03-24 08:00","1956","03","24","08:00","-6.7","","-10.6","","74","","36","","19","","25.0","","99.99","","","","-14","","Clear"
"1956-03-24 09:00","1956","03","24","09:00","-6.1","","-10.0","","74","","34","","21","","25.0","","100.06","","","","-13","","Mainly Clear"
"1956-03-24 10:00","1956","03","24","10:00","-5.6","","-9.4","","74","","34","","21","","25.0","","100.10","","","","-12","","Mainly Clear"
"1956-03-24 11:00","1956","03","24","11:00","-4.4","","-8.9","","71","","34","","24","","25.0","","100.11","","","","-11","","Clear"
"1956-03-24 12:00","1956","03","24","12:00","-4.4","","-7.8","","78","","34","","27","","25.0","","100.10","","","","-12","","Clear"
"1956-03-24 13:00","1956","03","24","13:00","-5.0","","-8.3","","77","","34","","29","","25.0","","100.09","","","","-13","","Clear"
"1956-03-24 14:00","1956","03","24","14:00","-5.0","","-8.9","","74","","34","","27","","25.0","","100.05","","","","-13","","Mainly Clear"
"1956-03-24 15:00","1956","03","24","15:00","-5.0","","-10.0","","68","","34","","27","","25.0","","100.06","","","","-13","","Mainly Clear"
"1956-03-24 16:00","1956","03","24","16:00","-5.6","","-10.0","","71","","34","","31","","25.0","","100.12","","","","-14","","Mainly Clear"
"1956-03-24 17:00","1956","03","24","17:00","-6.7","","-10.6","","74","","34","","32","","25.0","","100.16","","","","-15","","Mainly Clear"
"1956-03-24 18:00","1956","03","24","18:00","-7.2","","-11.7","","71","","34","","37","","25.0","","100.22","","","","-17","","Mainly Clear"
"1956-03-24 19:00","1956","03","24","19:00","-7.8","","-12.2","","70","","34","","35","","25.0","","100.22","","","","-17","","Mainly Clear"
"1956-03-24 20:00","1956","03","24","20:00","-8.3","","-13.3","","67","","32","","24","","25.0","","100.27","","","","-16","","Clear"
"1956-03-24 21:00","1956","03","24","21:00","-8.3","","-13.3","","67","","32","","21","","25.0","","100.30","","","","-16","","Clear"
"1956-03-24 22:00","1956","03","24","22:00","-8.3","","-13.3","","67","","32","","21","","25.0","","100.29","","","","-16","","Clear"
"1956-03-24 23:00","1956","03","24","23:00","-8.3","","-13.3","","67","","32","","21","","25.0","","100.29","","","","-16","","Clear"
"1956-03-25 00:00","1956","03","25","00:00","-8.9","","-13.3","","70","","29","","16","","25.0","","100.29","","","","-16","","Clear"
"1956-03-25 01:00","1956","03","25","01:00","-9.4","","-13.3","","73","","29","","18","","25.0","","100.30","","","","-17","","Clear"
"1956-03-25 02:00","1956","03","25","02:00","-10.0","","-14.4","","70","","29","","10","","25.0","","100.30","","","","-15","","Clear"
"1956-03-25 03:00","1956","03","25","03:00","-10.6","","-13.3","","80","","25","","11","","25.0","","100.26","","","","-16","","Clear"
"1956-03-25 04:00","1956","03","25","04:00","-11.1","","-13.9","","80","","25","","8","","25.0","","100.24","","","","-16","","Clear"
"1956-03-25 05:00","1956","03","25","05:00","-11.7","","-13.9","","84","","27","","8","","25.0","","100.22","","","","-16","","Clear"
"1956-03-25 06:00","1956","03","25","06:00","-11.1","","-13.9","","80","","23","","8","","24.1","","100.20","","","","-16","","Mainly Clear"
"1956-03-25 07:00","1956","03","25","07:00","-10.0","","-13.3","","77","","23","","14","","24.1","","100.19","","","","-16","","Mostly Cloudy"
"1956-03-25 08:00","1956","03","25","08:00","-7.8","","-11.7","","74","","23","","10","","24.1","","100.10","","","","-13","","Mainly Clear"
"1956-03-25 09:00","1956","03","25","09:00","-4.4","","-7.8","","78","","23","","19","","25.0","","100.01","","","","-11","","Mainly Clear"
"1956-03-25 10:00","1956","03","25","10:00","-3.3","","-7.2","","74","","23","","21","","25.0","","99.91","","","","-10","","Cloudy"
"1956-03-25 11:00","1956","03","25","11:00","-2.2","","-6.7","","72","","25","","26","","25.0","","99.76","","","","-9","","Mostly Cloudy"
"1956-03-25 12:00","1956","03","25","12:00","-1.7","","-5.0","","78","","25","","29","","24.1","","99.65","","","","-9","","Cloudy"
"1956-03-25 13:00","1956","03","25","13:00","-1.7","","-5.0","","78","","23","","26","","24.1","","99.52","","","","-8","","Cloudy"
"1956-03-25 14:00","1956","03","25","14:00","-2.8","","-7.2","","72","","23","","32","","11.3","","99.34","","","","-10","","Cloudy"
"1956-03-25 15:00","1956","03","25","15:00","-3.3","","-5.6","","85","","23","","24","","2.4","","99.20","","","","-10","","Snow Showers,Fog"
"1956-03-25 16:00","1956","03","25","16:00","-3.3","","-5.0","","88","","23","","27","","1.6","","99.02","","","","-10","","Snow,Fog"
"1956-03-25 17:00","1956","03","25","17:00","-3.3","","-5.0","","88","","23","","13","","4.8","","98.98","","","","-8","","Snow,Fog"
"1956-03-25 18:00","1956","03","25","18:00","-3.3","","-5.0","","88","","23","","23","","4.8","","98.86","","","","-10","","Snow"
"1956-03-25 19:00","1956","03","25","19:00","-2.8","","-4.4","","88","","25","","27","","16.1","","98.78","","","","-10","","Snow"
"1956-03-25 20:00","1956","03","25","20:00","-2.2","","-4.4","","85","","25","","26","","19.3","","98.74","","","","-9","","Snow"
"1956-03-25 21:00","1956","03","25","21:00","-2.8","","-4.4","","88","","25","","26","","19.3","","98.71","","","","-10","","Mostly Cloudy"
"1956-03-25 22:00","1956","03","25","22:00","-1.1","","-3.3","","85","","27","","18","","19.3","","98.72","","","","-6","","Cloudy"
"1956-03-25 23:00","1956","03","25","23:00","-0.6","","-2.8","","85","","29","","23","","19.3","","98.70","","","","-6","","Cloudy"
"1956-03-26 00:00","1956","03","26","00:00","-0.6","","-2.8","","85","","32","","16","","19.3","","98.70","","","","-5","","Mostly Cloudy"
"1956-03-26 01:00","1956","03","26","01:00","-1.7","","-3.3","","88","","29","","19","","19.3","","98.68","","","","-7","","Mainly Clear"
"1956-03-26 02:00","1956","03","26","02:00","-4.4","","-5.6","","92","","27","","13","","24.1","","98.64","","","","-9","","Clear"
"1956-03-26 03:00","1956","03","26","03:00","-3.9","","-5.6","","88","","25","","6","","16.1","","98.64","","","","-7","","Clear"
"1956-03-26 04:00","1956","03","26","04:00","-6.7","","-7.2","","96","","27","","14","","16.1","","98.64","","","","-12","","Mainly Clear"
"1956-03-26 05:00","1956","03","26","05:00","-4.4","","-5.6","","92","","25","","8","","9.7","","98.63","","","","-8","","Fog"
"1956-03-26 06:00","1956","03","26","06:00","-5.0","","-6.1","","92","","20","","8","","4.8","","98.64","","","","-9","","Fog"
"1956-03-26 07:00","1956","03","26","07:00","-5.0","","-5.6","","96","","18","","10","","8.0","","98.66","","","","-9","","Fog"
"1956-03-26 08:00","1956","03","26","08:00","-3.3","","-5.0","","88","","27","","13","","12.9","","98.65","","","","-8","","Mainly Clear"
"1956-03-26 09:00","1956","03","26","09:00","-0.6","","-3.3","","81","","29","","18","","12.9","","98.66","","","","-6","","Mainly Clear"
"1956-03-26 10:00","1956","03","26","10:00","1.1","","-2.2","","78","","29","","13","","12.9","","98.70","","","","","","Mainly Clear"
"1956-03-26 11:00","1956","03","26","11:00","2.2","","-1.7","","75","","29","","19","","2.4","","98.70","","","","","","Snow"
"1956-03-26 12:00","1956","03","26","12:00","3.9","","-0.6","","73","","32","","16","","11.3","","98.70","","","","","","Mostly Cloudy"
"1956-03-26 13:00","1956","03","26","13:00","5.0","","-1.7","","62","","34","","26","","12.9","","98.67","","","","","","Mostly Cloudy"
"1956-03-26 14:00","1956","03","26","14:00","4.4","","-1.1","","67","","34","","26","","19.3","","98.69","","","","","","Mostly Cloudy"
"1956-03-26 15:00","1956","03","26","15:00","3.9","","-1.7","","67","","34","","16","","24.1","","98.75","","","","","","Mostly Cloudy"
"1956-03-26 16:00","1956","03","26","16:00","3.9","","-2.8","","62","","34","","19","","25.0","","98.79","","","","","","Mainly Clear"
"1956-03-26 17:00","1956","03","26","17:00","1.7","","-5.0","","59","","36","","23","","25.0","","98.90","","","","","","Mainly Clear"
"1956-03-26 18:00","1956","03","26","18:00","0.6","","-4.4","","69","","36","","24","","25.0","","99.09","","","","","","Mainly Clear"
"1956-03-26 19:00","1956","03","26","19:00","0.0","","-3.9","","75","","36","","23","","25.0","","99.16","","","","-6","","Clear"
"1956-03-26 20:00","1956","03","26","20:00","-1.1","","-6.1","","69","","34","","13","","25.0","","99.23","","","","-5","","Clear"
"1956-03-26 21:00","1956","03","26","21:00","-1.7","","-6.1","","72","","32","","13","","25.0","","99.30","","","","-6","","Clear"
"1956-03-26 22:00","1956","03","26","22:00","-1.7","","-6.1","","72","","32","","13","","25.0","","99.37","","","","-6","","Clear"
"1956-03-26 23:00","1956","03","26","23:00","-1.7","","-6.1","","72","","34","","13","","25.0","","99.38","","","","-6","","Clear"
"1956-03-27 00:00","1956","03","27","00:00","-3.3","","-5.6","","85","","29","","11","","25.0","","99.48","","","","-8","","Clear"
"1956-03-27 01:00","1956","03","27","01:00","-2.8","","-4.4","","88","","29","","14","","25.0","","99.53","","","","-8","","Mainly Clear"
"1956-03-27 02:00","1956","03","27","02:00","-2.8","","-5.6","","81","","34","","13","","25.0","","99.56","","","","-7","","Clear"
"1956-03-27 03:00","1956","03","27","03:00","-3.3","","-6.1","","81","","32","","13","","25.0","","99.64","","","","-8","","Clear"
"1956-03-27 04:00","1956","03","27","04:00","-3.3","","-6.1","","81","","32","","18","","25.0","","99.72","","","","-9","","Mainly Clear"
"1956-03-27 05:00","1956","03","27","05:00","-4.4","","-6.7","","84","","2","","13","","25.0","","99.80","","","","-9","","Mainly Clear"
"1956-03-27 06:00","1956","03","27","06:00","-4.4","","-6.7","","84","","36","","21","","25.0","","99.90","","","","-11","","Mainly Clear"
"1956-03-27 07:00","1956","03","27","07:00","-4.4","","-7.8","","78","","2","","23","","25.0","","99.99","","","","-11","","Mainly Clear"
"1956-03-27 08:00","1956","03","27","08:00","-3.9","","-7.8","","74","","2","","26","","25.0","","100.08","","","","-11","","Clear"
"1956-03-27 09:00","1956","03","27","09:00","-3.3","","-7.8","","71","","36","","32","","25.0","","100.13","","","","-11","","Clear"
"1956-03-27 10:00","1956","03","27","10:00","-2.8","","-7.8","","68","","36","","29","","25.0","","100.18","","","","-10","","Clear"
"1956-03-27 11:00","1956","03","27","11:00","-3.3","","-9.4","","63","","36","","29","","25.0","","100.22","","","","-11","","Clear"
"1956-03-27 12:00","1956","03","27","12:00","-2.2","","-8.9","","60","","36","","32","","25.0","","100.22","","","","-10","","Clear"
"1956-03-27 13:00","1956","03","27","13:00","-2.2","","-9.4","","58","","36","","26","","25.0","","100.28","","","","-9","","Clear"
"1956-03-27 14:00","1956","03","27","14:00","-2.2","","-10.0","","55","","34","","26","","25.0","","100.27","","","","-9","","Mainly Clear"
"1956-03-27 15:00","1956","03","27","15:00","-1.7","","-9.4","","55","","36","","23","","25.0","","100.30","","","","-8","","Mainly Clear"
"1956-03-27 16:00","1956","03","27","16:00","-1.7","","-8.3","","60","","36","","19","","25.0","","100.34","","","","-7","","Mainly Clear"
"1956-03-27 17:00","1956","03","27","17:00","-1.7","","-7.2","","66","","36","","19","","25.0","","100.37","","","","-7","","Mainly Clear"
"1956-03-27 18:00","1956","03","27","18:00","-2.8","","-8.3","","66","","36","","16","","25.0","","100.43","","","","-8","","Mainly Clear"
"1956-03-27 19:00","1956","03","27","19:00","-3.3","","-8.3","","68","","36","","14","","25.0","","100.43","","","","-8","","Mainly Clear"
"1956-03-27 20:00","1956","03","27","20:00","-4.4","","-8.3","","74","","36","","11","","25.0","","100.52","","","","-9","","Clear"
"1956-03-27 21:00","1956","03","27","21:00","-5.0","","-8.3","","77","","36","","13","","25.0","","100.52","","","","-10","","Mainly Clear"
"1956-03-27 22:00","1956","03","27","22:00","-5.0","","-7.8","","81","","36","","16","","25.0","","100.51","","","","-11","","Mostly Cloudy"
"1956-03-27 23:00","1956","03","27","23:00","-4.4","","-7.8","","78","","2","","19","","25.0","","100.48","","","","-11","","Mainly Clear"
"1956-03-28 00:00","1956","03","28","00:00","-5.0","","-8.3","","77","","36","","13","","25.0","","100.48","","","","-10","","Mostly Cloudy"
"1956-03-28 01:00","1956","03","28","01:00","-3.9","","-8.3","","71","","36","","14","","25.0","","100.50","","","","-9","","Mainly Clear"
"1956-03-28 02:00","1956","03","28","02:00","-4.4","","-8.9","","71","","5","","14","","25.0","","100.49","","","","-10","","Mainly Clear"
"1956-03-28 03:00","1956","03","28","03:00","-5.0","","-8.3","","77","","5","","11","","25.0","","100.51","","","","-10","","Mostly Cloudy"
"1956-03-28 04:00","1956","03","28","04:00","-5.0","","-8.3","","77","","5","","16","","25.0","","100.50","","","","-11","","Mostly Cloudy"
"1956-03-28 05:00","1956","03","28","05:00","-5.0","","-8.9","","74","","5","","19","","25.0","","100.51","","","","-11","","Mostly Cloudy"
"1956-03-28 06:00","1956","03","28","06:00","-4.4","","-8.9","","71","","7","","16","","25.0","","100.59","","","","-10","","Mostly Cloudy"
"1956-03-28 07:00","1956","03","28","07:00","-3.9","","-8.9","","68","","7","","18","","25.0","","100.60","","","","-10","","Mostly Cloudy"
"1956-03-28 08:00","1956","03","28","08:00","-3.3","","-7.2","","74","","9","","24","","25.0","","100.57","","","","-10","","Cloudy"
"1956-03-28 09:00","1956","03","28","09:00","-1.7","","-6.1","","72","","9","","29","","24.1","","100.53","","","","-9","","Cloudy"
"1956-03-28 10:00","1956","03","28","10:00","-1.1","","-6.7","","66","","9","","29","","24.1","","100.50","","","","-8","","Cloudy"
"1956-03-28 11:00","1956","03","28","11:00","-0.6","","-4.4","","75","","9","","27","","24.1","","100.46","","","","-7","","Mostly Cloudy"
"1956-03-28 12:00","1956","03","28","12:00","-0.6","","-6.1","","66","","11","","29","","24.1","","100.42","","","","-7","","Cloudy"
"1956-03-28 13:00","1956","03","28","13:00","0.0","","-6.1","","64","","11","","32","","24.1","","100.38","","","","-7","","Cloudy"
"1956-03-28 14:00","1956","03","28","14:00","0.0","","-5.6","","66","","9","","32","","24.1","","100.27","","","","-7","","Cloudy"
"1956-03-28 15:00","1956","03","28","15:00","0.0","","-6.1","","64","","9","","26","","24.1","","100.22","","","","-6","","Cloudy"
"1956-03-28 16:00","1956","03","28","16:00","-0.6","","-5.6","","69","","7","","26","","25.0","","100.14","","","","-7","","Cloudy"
"1956-03-28 17:00","1956","03","28","17:00","-1.1","","-6.1","","69","","7","","27","","25.0","","100.11","","","","-8","","Cloudy"
"1956-03-28 18:00","1956","03","28","18:00","-1.1","","-6.1","","69","","9","","31","","25.0","","100.00","","","","-8","","Cloudy"
"1956-03-28 19:00","1956","03","28","19:00","-1.1","","-5.6","","72","","9","","34","","25.0","","100.01","","","","-8","","Mostly Cloudy"
"1956-03-28 20:00","1956","03","28","20:00","-0.6","","-5.0","","72","","11","","29","","25.0","","99.96","","","","-7","","Mostly Cloudy"
"1956-03-28 21:00","1956","03","28","21:00","-0.6","","-3.9","","78","","11","","24","","25.0","","99.85","","","","-7","","Mainly Clear"
"1956-03-28 22:00","1956","03","28","22:00","0.0","","-3.3","","78","","11","","39","","25.0","","99.72","","","","-7","","Cloudy"
"1956-03-28 23:00","1956","03","28","23:00","0.6","","-3.3","","75","","11","","29","","25.0","","99.58","","","","","","Cloudy"
"1956-03-29 00:00","1956","03","29","00:00","1.1","","-1.1","","85","","9","","24","","25.0","","99.48","","","","","","Cloudy"
"1956-03-29 01:00","1956","03","29","01:00","1.1","","-1.1","","85","","11","","24","","19.3","","99.46","","","","","","Freezing Rain"
"1956-03-29 02:00","1956","03","29","02:00","0.6","","-1.7","","85","","11","","23","","16.1","","99.33","","","","","","Freezing Rain,Snow"
"1956-03-29 03:00","1956","03","29","03:00","-1.1","","-1.1","","100","","11","","16","","1.2","","99.39","","","","-6","","Snow"
"1956-03-29 04:00","1956","03","29","04:00","-0.6","","-1.1","","96","","11","","13","","4.8","","99.30","","","","-5","","Fog"
"1956-03-29 05:00","1956","03","29","05:00","0.0","","-0.6","","96","","14","","11","","0.8","","99.23","","","","-4","","Fog"
"1956-03-29 06:00","1956","03","29","06:00","0.6","","-0.6","","92","","16","","8","","0.8","","99.24","","","","","","Fog"
"1956-03-29 07:00","1956","03","29","07:00","0.6","","-0.6","","92","","16","","13","","0.8","","99.18","","","","","","Fog"
"1956-03-29 08:00","1956","03","29","08:00","1.1","","1.1","","100","","16","","13","","0.8","","99.08","","","","","","Fog"
"1956-03-29 09:00","1956","03","29","09:00","1.1","","1.1","","100","","16","","16","","1.6","","99.04","","","","","","Drizzle,Fog"
"1956-03-29 10:00","1956","03","29","10:00","1.1","","1.1","","100","","14","","10","","1.6","","98.96","","","","","","Fog"
"1956-03-29 11:00","1956","03","29","11:00","2.2","","1.7","","96","","18","","13","","4.0","","98.91","","","","","","Fog"
"1956-03-29 12:00","1956","03","29","12:00","3.3","","2.2","","92","","14","","14","","4.0","","98.85","","","","","","Fog"
"1956-03-29 13:00","1956","03","29","13:00","5.0","","3.9","","93","","16","","16","","4.8","","98.74","","","","","","Fog"
"1956-03-29 14:00","1956","03","29","14:00","5.6","","3.3","","89","","14","","16","","6.4","","98.64","","","","","","Fog"
"1956-03-29 15:00","1956","03","29","15:00","6.7","","3.9","","82","","14","","16","","6.4","","98.50","","","","","","Fog"
"1956-03-29 16:00","1956","03","29","16:00","6.1","","3.3","","82","","14","","24","","6.4","","98.37","","","","","","Smoke,Haze"
"1956-03-29 17:00","1956","03","29","17:00","4.4","","3.3","","93","","18","","16","","6.4","","98.40","","","","","","Rain Showers,Fog,Smoke"
"1956-03-29 18:00","1956","03","29","18:00","2.2","","1.1","","92","","29","","19","","8.0","","98.50","","","","","","Fog"
"1956-03-29 19:00","1956","03","29","19:00","1.7","","1.1","","96","","18","","8","","1.6","","98.51","","","","","","Snow,Fog"
"1956-03-29 20:00","1956","03","29","20:00","1.1","","0.0","","92","","25","","16","","12.9","","98.54","","","","","","Cloudy"
"1956-03-29 21:00","1956","03","29","21:00","0.6","","-1.7","","85","","27","","16","","19.3","","98.50","","","","","","Cloudy"
"1956-03-29 22:00","1956","03","29","22:00","0.0","","-2.2","","85","","27","","13","","24.1","","98.51","","","","-4","","Mainly Clear"
"1956-03-29 23:00","1956","03","29","23:00","-0.6","","-2.2","","88","","20","","10","","25.0","","98.52","","","","-4","","Mainly Clear"
"1956-03-30 00:00","1956","03","30","00:00","-1.1","","-3.3","","85","","23","","10","","25.0","","98.47","","","","-5","","Clear"
"1956-03-30 01:00","1956","03","30","01:00","-1.1","","-3.9","","81","","20","","8","","25.0","","98.43","","","","-4","","Mainly Clear"
"1956-03-30 02:00","1956","03","30","02:00","-0.6","","-2.8","","85","","20","","11","","24.1","","98.38","","","","-4","","Snow Showers"
"1956-03-30 03:00","1956","03","30","03:00","-0.6","","-2.2","","88","","20","","16","","25.0","","98.31","","","","-5","","Mainly Clear"
"1956-03-30 04:00","1956","03","30","04:00","-1.7","","-2.8","","92","","20","","13","","25.0","","98.25","","","","-6","","Clear"
"1956-03-30 05:00","1956","03","30","05:00","-1.7","","-2.8","","92","","20","","10","","19.3","","98.22","","","","-5","","Mainly Clear"
"1956-03-30 06:00","1956","03","30","06:00","-1.1","","-2.8","","88","","20","","10","","4.8","","98.22","","","","-5","","Fog"
"1956-03-30 07:00","1956","03","30","07:00","-1.1","","-2.2","","92","","20","","13","","4.8","","98.20","","","","-5","","Fog"
"1956-03-30 08:00","1956","03","30","08:00","-0.6","","-2.2","","88","","25","","26","","6.4","","98.20","","","","-7","","Fog"
"1956-03-30 09:00","1956","03","30","09:00","-0.6","","-3.9","","78","","27","","32","","16.1","","98.22","","","","-7","","Mostly Cloudy"
"1956-03-30 10:00","1956","03","30","10:00","0.0","","-3.9","","75","","27","","29","","19.3","","98.27","","","","-6","","Mostly Cloudy"
"1956-03-30 11:00","1956","03","30","11:00","0.6","","-3.9","","72","","27","","26","","19.3","","98.24","","","","","","Mostly Cloudy"
"1956-03-30 12:00","1956","03","30","12:00","-0.6","","-2.2","","88","","23","","16","","2.0","","98.27","","","","-5","","Snow Showers"
"1956-03-30 13:00","1956","03","30","13:00","0.0","","-2.2","","85","","20","","19","","4.0","","98.24","","","","-5","","Snow Showers"
"1956-03-30 14:00","1956","03","30","14:00","1.7","","-1.1","","82","","29","","48","","11.3","","98.23","","","","","","Snow Showers"
"1956-03-30 15:00","1956","03","30","15:00","2.2","","-1.1","","78","","27","","42","","11.3","","98.26","","","","","","Mostly Cloudy"
"1956-03-30 16:00","1956","03","30","16:00","2.2","","-2.2","","72","","29","","39","","12.9","","98.34","","","","","","Mostly Cloudy"
"1956-03-30 17:00","1956","03","30","17:00","1.7","","-2.8","","72","","29","","39","","12.9","","98.45","","","","","","Mostly Cloudy"
"1956-03-30 18:00","1956","03","30","18:00","1.1","","-3.9","","69","","29","","39","","12.9","","98.52","","","","","","Cloudy"
"1956-03-30 19:00","1956","03","30","19:00","1.1","","-1.7","","82","","29","","39","","12.9","","98.56","","","","","","Cloudy"
"1956-03-30 20:00","1956","03","30","20:00","0.6","","-3.3","","75","","29","","29","","24.1","","98.64","","","","","","Cloudy"
"1956-03-30 21:00","1956","03","30","21:00","0.0","","-3.9","","75","","29","","19","","25.0","","98.68","","","","-5","","Snow Showers"
"1956-03-30 22:00","1956","03","30","22:00","-0.6","","-2.8","","85","","29","","19","","25.0","","98.68","","","","-6","","Mostly Cloudy"
"1956-03-30 23:00","1956","03","30","23:00","-0.6","","-3.9","","78","","29","","23","","25.0","","98.68","","","","-6","","Cloudy"
"1956-03-31 00:00","1956","03","31","00:00","-0.6","","-3.3","","81","","29","","23","","25.0","","98.69","","","","-6","","Snow Showers"
"1956-03-31 01:00","1956","03","31","01:00","-1.1","","-3.3","","85","","29","","21","","25.0","","98.71","","","","-7","","Cloudy"
"1956-03-31 02:00","1956","03","31","02:00","-0.6","","-3.3","","81","","32","","24","","12.9","","98.76","","","","-7","","Snow Showers"
"1956-03-31 03:00","1956","03","31","03:00","-1.1","","-4.4","","78","","32","","23","","25.0","","98.82","","","","-7","","Snow Showers"
"1956-03-31 04:00","1956","03","31","04:00","-1.7","","-5.0","","78","","32","","24","","25.0","","98.88","","","","-8","","Snow Showers"
"1956-03-31 05:00","1956","03","31","05:00","-1.7","","-4.4","","81","","32","","23","","25.0","","98.94","","","","-8","","Cloudy"
"1956-03-31 06:00","1956","03","31","06:00","-1.7","","-6.1","","72","","34","","27","","25.0","","99.03","","","","-8","","Cloudy"
"1956-03-31 07:00","1956","03","31","07:00","-2.2","","-6.7","","72","","34","","40","","25.0","","99.11","","","","-10","","Cloudy"
"1956-03-31 08:00","1956","03","31","08:00","-1.7","","-6.1","","72","","32","","29","","25.0","","99.20","","","","-9","","Mostly Cloudy"
"1956-03-31 09:00","1956","03","31","09:00","-1.7","","-5.6","","75","","32","","29","","25.0","","99.28","","","","-9","","Cloudy"
"1956-03-31 10:00","1956","03","31","10:00","-1.1","","-6.1","","69","","32","","26","","25.0","","99.33","","","","-7","","Mostly Cloudy"
"1956-03-31 11:00","1956","03","31","11:00","0.0","","-3.9","","75","","34","","24","","25.0","","99.38","","","","-6","","Mainly Clear"
"1956-03-31 12:00","1956","03","31","12:00","0.6","","-4.4","","69","","34","","23","","25.0","","99.42","","","","","","Mainly Clear"
"1956-03-31 13:00","1956","03","31","13:00","1.1","","-3.3","","72","","32","","24","","24.1","","99.44","","","","","","Mainly Clear"
"1956-03-31 14:00","1956","03","31","14:00","2.2","","-2.8","","69","","29","","24","","24.1","","99.47","","","","","","Mainly Clear"
"1956-03-31 15:00","1956","03","31","15:00","3.3","","-2.8","","64","","32","","24","","24.1","","99.50","","","","","","Mainly Clear"
"1956-03-31 16:00","1956","03","31","16:00","3.3","","-3.3","","62","","34","","23","","24.1","","99.54","","","","","","Mainly Clear"
"1956-03-31 17:00","1956","03","31","17:00","2.2","","-3.3","","67","","36","","19","","24.1","","99.61","","","","","","Mainly Clear"
"1956-03-31 18:00","1956","03","31","18:00","1.1","","-3.3","","72","","36","","11","","24.1","","99.70","","","","","","Clear"
"1956-03-31 19:00","1956","03","31","19:00","0.6","","-3.3","","75","","32","","11","","24.1","","99.75","","","","","","Clear"
"1956-03-31 20:00","1956","03","31","20:00","-1.1","","-4.4","","78","","27","","10","","24.1","","99.84","","","","-5","","Clear"
"1956-03-31 21:00","1956","03","31","21:00","-2.2","","-4.4","","85","","29","","13","","25.0","","99.88","","","","-7","","Clear"
"1956-03-31 22:00","1956","03","31","22:00","-1.7","","-4.4","","81","","29","","11","","25.0","","99.90","","","","-6","","Clear"
"1956-03-31 23:00","1956","03","31","23:00","-3.3","","-5.0","","88","","27","","11","","25.0","","99.91","","","","-8","","Clear"
