"Station Name","TORONTO LESTER B. PEARSON INT'L A"
"Province","ONTARIO"
"Latitude","43.68"
"Longitude","-79.63"
"Elevation","173.40"
"Climate Identifier","6158733"
"WMO Identifier","71624"
"TC Identifier","YYZ"
"All times are specified in Local Standard Time (LST). Add 1 hour to adjust for Daylight Saving Time where and when it is observed."

"Legend"
"E","Estimated"
"M","Missing"
"NA","Not Available"

"Date/Time","Year","Month","Day","Time","Temp (°C)","Temp Flag","Dew Point Temp (°C)","Dew Point Temp Flag","Rel Hum (%)","Rel Hum Flag","Wind Dir (10s deg)","Wind Dir Flag","Wind Spd (km/h)","Wind Spd Flag","Visibility (km)","Visibility Flag","Stn Press (kPa)","Stn Press Flag","Hmdx","Hmdx Flag","Wind Chill","Wind Chill Flag","Weather"
"1992-01-01 00:00","1992","01","01","00:00","-5.1","","-6.3","","91","","","","0","","16.1","","101.24","","","","","","Mainly Clear"
"1992-01-01 01:00","1992","01","01","01:00","-5.6","","-6.5","","93","","","","0","","12.9","","101.21","","","","","","Cloudy"
"1992-01-01 02:00","1992","01","01","02:00","-2.7","","-3.1","","97","","","","0","","4.8","","101.21","","","","","","Fog"
"1992-01-01 03:00","1992","01","01","03:00","-3.5","","-4.2","","95","","","","0","","4.0","","101.21","","","","","","Fog"
"1992-01-01 04:00","1992","01","01","04:00","-2.8","","-3.9","","92","","","","0","","6.4","","101.17","","","","","","Fog"
"1992-01-01 05:00","1992","01","01","05:00","-3.1","","-3.9","","94","","4","","6","","6.4","","101.17","","","","-6","","Fog"
"1992-01-01 06:00","1992","01","01","06:00","-3.3","","-4.2","","93","","","","0","","4.0","","101.17","","","","","","Fog"
"1992-01-01 07:00","1992","01","01","07:00","-3.3","","-4.2","","93","","36","","4","","3.2","","101.14","","","","-5","","Fog"
"1992-01-01 08:00","1992","01","01","08:00","-3.5","","-4.0","","96","","34","","7","","2.8","","101.21","","","","-6","","Fog"
"1992-01-01 09:00","1992","01","01","09:00","-3.0","","-3.7","","95","","","","0","","3.6","","101.17","","","","","","Fog"
"1992-01-01 10:00","1992","01","01","10:00","-2.5","","-3.4","","94","","","","0","","4.0","","101.21","","","","","","Fog"
"1992-01-01 11:00","1992","01","01","11:00","-2.0","","-2.8","","94","","","","0","","3.2","","101.21","","","","","","Snow,Fog"
"1992-01-01 12:00","1992","01","01","12:00","-1.8","","-3.1","","91","","","","0","","3.2","","101.11","","","","","","Snow Grains,Fog"
"1992-01-01 13:00","1992","01","01","13:00","-1.4","","-3.0","","89","","","","0","","11.3","","101.01","","","","","","Cloudy"
"1992-01-01 14:00","1992","01","01","14:00","-0.8","","-3.3","","83","","","","0","","12.9","","100.97","","","","","","Cloudy"
"1992-01-01 15:00","1992","01","01","15:00","-0.6","","-4.4","","76","","25","","7","","12.9","","100.97","","","","-3","","Cloudy"
"1992-01-01 16:00","1992","01","01","16:00","-0.7","","-3.2","","83","","22","","7","","12.9","","100.97","","","","-3","","Cloudy"
"1992-01-01 17:00","1992","01","01","17:00","-1.0","","-3.8","","81","","26","","4","","11.3","","100.97","","","","-2","","Cloudy"
"1992-01-01 18:00","1992","01","01","18:00","-1.0","","-3.8","","81","","27","","4","","9.7","","100.97","","","","-2","","Haze"
"1992-01-01 19:00","1992","01","01","19:00","-1.3","","-3.9","","82","","","","0","","9.7","","100.94","","","","","","Haze"
"1992-01-01 20:00","1992","01","01","20:00","-1.2","","-4.1","","81","","","","0","","16.1","","100.91","","","","","","Cloudy"
"1992-01-01 21:00","1992","01","01","21:00","-1.0","","-3.8","","81","","","","0","","12.9","","100.91","","","","","","Cloudy"
"1992-01-01 22:00","1992","01","01","22:00","-1.2","","-3.3","","86","","","","0","","12.9","","100.87","","","","","","Cloudy"
"1992-01-01 23:00","1992","01","01","23:00","-0.8","","-4.4","","76","","","","0","","12.9","","100.87","","","","","","Cloudy"
"1992-01-02 00:00","1992","01","02","00:00","-1.0","","-5.7","","70","","","","0","","19.3","","100.77","","","","","","Cloudy"
"1992-01-02 01:00","1992","01","02","01:00","-1.0","","-4.4","","78","","6","","4","","16.1","","100.74","","","","-2","","Cloudy"
"1992-01-02 02:00","1992","01","02","02:00","-0.8","","-3.8","","80","","","","0","","19.3","","100.71","","","","","","Cloudy"
"1992-01-02 03:00","1992","01","02","03:00","-0.7","","-2.9","","85","","11","","4","","16.1","","100.71","","","","-2","","Cloudy"
"1992-01-02 04:00","1992","01","02","04:00","-0.4","","-2.5","","86","","11","","4","","16.1","","100.67","","","","-2","","Cloudy"
"1992-01-02 05:00","1992","01","02","05:00","-0.4","","-2.5","","86","","5","","4","","12.9","","100.61","","","","-2","","Cloudy"
"1992-01-02 06:00","1992","01","02","06:00","-0.1","","-2.4","","85","","11","","7","","12.9","","100.57","","","","-3","","Cloudy"
"1992-01-02 07:00","1992","01","02","07:00","0.2","","-1.8","","86","","","","0","","9.7","","100.64","","","","","","Fog"
"1992-01-02 08:00","1992","01","02","08:00","0.5","","-1.4","","87","","10","","7","","4.8","","100.61","","","","","","Fog"
"1992-01-02 09:00","1992","01","02","09:00","1.0","","-1.5","","83","","12","","9","","6.4","","100.61","","","","","","Haze"
"1992-01-02 10:00","1992","01","02","10:00","0.3","","-1.2","","90","","34","","6","","4.8","","100.61","","","","","","Fog"
"1992-01-02 11:00","1992","01","02","11:00","0.7","","-2.0","","82","","","","0","","9.7","","100.64","","","","","","Haze"
"1992-01-02 12:00","1992","01","02","12:00","1.6","","-2.4","","75","","","","0","","12.9","","100.54","","","","","","Cloudy"
"1992-01-02 13:00","1992","01","02","13:00","2.0","","-2.1","","74","","","","0","","12.9","","100.44","","","","","","Cloudy"
"1992-01-02 14:00","1992","01","02","14:00","2.3","","-1.5","","76","","","","0","","12.9","","100.47","","","","","","Cloudy"
"1992-01-02 15:00","1992","01","02","15:00","2.5","","-1.5","","75","","15","","7","","11.3","","100.41","","","","","","Cloudy"
"1992-01-02 16:00","1992","01","02","16:00","2.1","","-1.5","","77","","14","","7","","9.7","","100.37","","","","","","Haze"
"1992-01-02 17:00","1992","01","02","17:00","1.7","","-1.5","","79","","11","","7","","8.0","","100.34","","","","","","Haze"
"1992-01-02 18:00","1992","01","02","18:00","1.5","","-0.5","","87","","11","","13","","6.4","","100.31","","","","","","Fog"
"1992-01-02 19:00","1992","01","02","19:00","1.0","","-1.0","","86","","11","","9","","6.4","","100.37","","","","","","Fog"
"1992-01-02 20:00","1992","01","02","20:00","1.4","","-0.5","","87","","7","","7","","8.0","","100.34","","","","","","Fog"
"1992-01-02 21:00","1992","01","02","21:00","0.8","","0.0","","95","","4","","7","","6.4","","100.27","","","","","","Fog"
"1992-01-02 22:00","1992","01","02","22:00","1.2","","0.5","","95","","7","","11","","6.4","","100.31","","","","","","Fog"
"1992-01-02 23:00","1992","01","02","23:00","0.8","","0.0","","95","","6","","15","","6.4","","100.24","","","","","","Fog"
"1992-01-03 00:00","1992","01","03","00:00","0.8","","0.0","","95","","7","","13","","4.8","","100.21","","","","","","Fog"
"1992-01-03 01:00","1992","01","03","01:00","1.0","","-0.5","","90","","8","","15","","4.8","","100.14","","","","","","Fog"
"1992-01-03 02:00","1992","01","03","02:00","0.8","","0.0","","95","","8","","13","","6.4","","100.17","","","","","","Fog"
"1992-01-03 03:00","1992","01","03","03:00","1.0","","0.0","","93","","8","","17","","6.4","","100.17","","","","","","Fog"
"1992-01-03 04:00","1992","01","03","04:00","0.9","","0.0","","94","","7","","17","","6.4","","100.11","","","","","","Fog"
"1992-01-03 05:00","1992","01","03","05:00","1.0","","0.5","","96","","7","","13","","4.8","","100.07","","","","","","Fog"
"1992-01-03 06:00","1992","01","03","06:00","0.9","","0.0","","94","","7","","13","","4.8","","100.04","","","","","","Fog"
"1992-01-03 07:00","1992","01","03","07:00","1.4","","0.5","","94","","9","","13","","4.8","","100.07","","","","","","Fog"
"1992-01-03 08:00","1992","01","03","08:00","1.8","","1.5","","98","","8","","11","","3.6","","100.07","","","","","","Fog"
"1992-01-03 09:00","1992","01","03","09:00","2.0","","2.0","","100","","9","","19","","1.6","","100.01","","","","","","Fog"
"1992-01-03 10:00","1992","01","03","10:00","2.3","","2.3","","100","","9","","19","","0.4","","100.01","","","","","","Fog"
"1992-01-03 11:00","1992","01","03","11:00","3.1","","2.6","","97","","9","","15","","1.6","","99.97","","","","","","Fog"
"1992-01-03 12:00","1992","01","03","12:00","3.4","","3.1","","98","","9","","19","","2.0","","99.91","","","","","","Fog"
"1992-01-03 13:00","1992","01","03","13:00","4.8","","3.7","","93","","9","","19","","8.0","","99.81","","","","","","Fog"
"1992-01-03 14:00","1992","01","03","14:00","4.9","","3.7","","92","","9","","20","","4.8","","99.74","","","","","","Fog"
"1992-01-03 15:00","1992","01","03","15:00","4.8","","3.7","","93","","8","","15","","4.0","","99.71","","","","","","Fog"
"1992-01-03 16:00","1992","01","03","16:00","4.8","","3.7","","93","","9","","17","","4.0","","99.71","","","","","","Fog"
"1992-01-03 17:00","1992","01","03","17:00","4.5","","3.2","","91","","8","","11","","4.0","","99.71","","","","","","Fog"
"1992-01-03 18:00","1992","01","03","18:00","4.5","","3.2","","91","","9","","19","","6.4","","99.74","","","","","","Fog"
"1992-01-03 19:00","1992","01","03","19:00","4.9","","3.3","","89","","9","","13","","6.4","","99.77","","","","","","Fog"
"1992-01-03 20:00","1992","01","03","20:00","4.9","","3.7","","92","","10","","19","","11.3","","99.71","","","","","","Mostly Cloudy"
"1992-01-03 21:00","1992","01","03","21:00","4.8","","3.3","","90","","8","","15","","11.3","","99.67","","","","","","Mostly Cloudy"
"1992-01-03 22:00","1992","01","03","22:00","4.1","","2.7","","91","","8","","15","","9.7","","99.71","","","","","","Fog"
"1992-01-03 23:00","1992","01","03","23:00","4.0","","2.7","","91","","7","","11","","9.7","","99.71","","","","","","Fog"
"1992-01-04 00:00","1992","01","04","00:00","4.2","","2.2","","87","","9","","7","","9.7","","99.64","","","","","","Fog"
"1992-01-04 01:00","1992","01","04","01:00","4.3","","2.3","","87","","10","","11","","9.7","","99.61","","","","","","Fog"
"1992-01-04 02:00","1992","01","04","02:00","4.4","","1.8","","83","","9","","9","","11.3","","99.61","","","","","","Mostly Cloudy"
"1992-01-04 03:00","1992","01","04","03:00","1.9","","1.1","","95","","35","","4","","9.7","","99.61","","","","","","Fog"
"1992-01-04 04:00","1992","01","04","04:00","3.0","","1.6","","91","","8","","4","","9.7","","99.61","","","","","","Fog"
"1992-01-04 05:00","1992","01","04","05:00","3.6","","1.7","","87","","10","","7","","11.3","","99.57","","","","","","Rain Showers"
"1992-01-04 06:00","1992","01","04","06:00","4.1","","2.2","","87","","9","","9","","11.3","","99.61","","","","","","Mostly Cloudy"
"1992-01-04 07:00","1992","01","04","07:00","4.1","","2.2","","87","","8","","7","","11.3","","99.61","","","","","","Mostly Cloudy"
"1992-01-04 08:00","1992","01","04","08:00","4.0","","2.2","","88","","9","","11","","9.7","","99.54","","","","","","Fog"
"1992-01-04 09:00","1992","01","04","09:00","3.7","","2.2","","90","","10","","9","","6.4","","99.54","","","","","","Fog"
"1992-01-04 10:00","1992","01","04","10:00","4.1","","2.2","","87","","9","","7","","6.4","","99.61","","","","","","Fog"
"1992-01-04 11:00","1992","01","04","11:00","4.8","","3.3","","90","","8","","9","","4.8","","99.57","","","","","","Fog"
"1992-01-04 12:00","1992","01","04","12:00","6.2","","3.0","","80","","9","","4","","8.0","","99.47","","","","","","Haze"
"1992-01-04 13:00","1992","01","04","13:00","6.4","","3.1","","80","","","","0","","9.7","","99.41","","","","","","Haze"
"1992-01-04 14:00","1992","01","04","14:00","7.0","","3.2","","77","","10","","4","","9.7","","99.34","","","","","","Haze"
"1992-01-04 15:00","1992","01","04","15:00","6.0","","3.0","","81","","4","","11","","8.0","","99.37","","","","","","Haze"
"1992-01-04 16:00","1992","01","04","16:00","5.2","","2.4","","82","","3","","6","","4.8","","99.41","","","","","","Haze"
"1992-01-04 17:00","1992","01","04","17:00","4.2","","2.2","","87","","1","","11","","4.0","","99.37","","","","","","Rain,Fog"
"1992-01-04 18:00","1992","01","04","18:00","4.1","","2.7","","91","","1","","9","","8.0","","99.47","","","","","","Drizzle,Fog"
"1992-01-04 19:00","1992","01","04","19:00","2.9","","2.6","","98","","33","","7","","4.8","","99.44","","","","","","Rain,Drizzle,Fog"
"1992-01-04 20:00","1992","01","04","20:00","3.7","","3.1","","96","","36","","11","","6.4","","99.47","","","","","","Fog"
"1992-01-04 21:00","1992","01","04","21:00","3.4","","3.1","","98","","35","","11","","2.8","","99.51","","","","","","Fog"
"1992-01-04 22:00","1992","01","04","22:00","3.2","","2.6","","96","","34","","11","","8.0","","99.51","","","","","","Fog"
"1992-01-04 23:00","1992","01","04","23:00","3.3","","2.6","","95","","35","","20","","12.9","","99.57","","","","","","Cloudy"
"1992-01-05 00:00","1992","01","05","00:00","2.7","","1.6","","92","","35","","20","","9.7","","99.51","","","","","","Fog"
"1992-01-05 01:00","1992","01","05","01:00","2.5","","2.0","","96","","36","","24","","9.7","","99.47","","","","","","Fog"
"1992-01-05 02:00","1992","01","05","02:00","2.4","","1.6","","95","","35","","26","","12.9","","99.47","","","","","","Cloudy"
"1992-01-05 03:00","1992","01","05","03:00","2.5","","1.1","","91","","34","","28","","12.9","","99.51","","","","","","Cloudy"
"1992-01-05 04:00","1992","01","05","04:00","2.6","","1.1","","90","","36","","22","","12.9","","99.54","","","","","","Cloudy"
"1992-01-05 05:00","1992","01","05","05:00","2.4","","0.6","","88","","35","","22","","16.1","","99.57","","","","","","Cloudy"
"1992-01-05 06:00","1992","01","05","06:00","2.0","","0.1","","87","","35","","24","","16.1","","99.61","","","","","","Mostly Cloudy"
"1992-01-05 07:00","1992","01","05","07:00","1.8","","-0.4","","85","","36","","24","","19.3","","99.64","","","","","","Mostly Cloudy"
"1992-01-05 08:00","1992","01","05","08:00","1.5","","-1.0","","83","","1","","22","","24.1","","99.71","","","","","","Cloudy"
"1992-01-05 09:00","1992","01","05","09:00","1.7","","-1.0","","82","","1","","24","","24.1","","99.74","","","","","","Cloudy"
"1992-01-05 10:00","1992","01","05","10:00","1.9","","-0.4","","85","","35","","15","","24.1","","99.77","","","","","","Mostly Cloudy"
"1992-01-05 11:00","1992","01","05","11:00","3.0","","-0.4","","78","","34","","19","","32.2","","99.77","","","","","","Mostly Cloudy"
"1992-01-05 12:00","1992","01","05","12:00","2.9","","-0.9","","76","","35","","30","","40.2","","99.64","","","","","","Mainly Clear"
"1992-01-05 13:00","1992","01","05","13:00","3.4","","-0.9","","73","","36","","26","","40.2","","99.61","","","","","","Mainly Clear"
"1992-01-05 14:00","1992","01","05","14:00","3.0","","-1.5","","72","","35","","22","","40.2","","99.54","","","","","","Mainly Clear"
"1992-01-05 15:00","1992","01","05","15:00","2.9","","-2.0","","70","","36","","26","","40.2","","99.54","","","","","","Mainly Clear"
"1992-01-05 16:00","1992","01","05","16:00","2.4","","-2.6","","69","","35","","22","","32.2","","99.51","","","","","","Mainly Clear"
"1992-01-05 17:00","1992","01","05","17:00","1.0","","-1.5","","83","","34","","15","","32.2","","99.51","","","","","","Mainly Clear"
"1992-01-05 18:00","1992","01","05","18:00","0.7","","-1.4","","86","","33","","15","","25.0","","99.51","","","","","","Mostly Cloudy"
"1992-01-05 19:00","1992","01","05","19:00","1.5","","-2.1","","77","","35","","19","","25.0","","99.47","","","","","","Mostly Cloudy"
"1992-01-05 20:00","1992","01","05","20:00","1.1","","-1.9","","80","","33","","15","","25.0","","99.47","","","","","","Cloudy"
"1992-01-05 21:00","1992","01","05","21:00","1.0","","-1.9","","81","","32","","15","","25.0","","99.37","","","","","","Mostly Cloudy"
"1992-01-05 22:00","1992","01","05","22:00","0.9","","-2.4","","79","","34","","17","","25.0","","99.31","","","","","","Cloudy"
"1992-01-05 23:00","1992","01","05","23:00","0.5","","-2.5","","80","","33","","22","","25.0","","99.31","","","","","","Cloudy"
"1992-01-06 00:00","1992","01","06","00:00","0.0","","-2.3","","85","","34","","15","","25.0","","99.27","","","","-4","","Cloudy"
"1992-01-06 01:00","1992","01","06","01:00","-0.1","","-2.2","","86","","34","","15","","25.0","","99.24","","","","-5","","Cloudy"
"1992-01-06 02:00","1992","01","06","02:00","-0.2","","-2.6","","84","","33","","19","","25.0","","99.21","","","","-5","","Cloudy"
"1992-01-06 03:00","1992","01","06","03:00","-0.2","","-2.6","","84","","33","","17","","25.0","","99.21","","","","-5","","Cloudy"
"1992-01-06 04:00","1992","01","06","04:00","-0.2","","-2.3","","86","","32","","11","","25.0","","99.14","","","","-4","","Cloudy"
"1992-01-06 05:00","1992","01","06","05:00","-0.4","","-2.3","","87","","31","","17","","25.0","","99.14","","","","-5","","Cloudy"
"1992-01-06 06:00","1992","01","06","06:00","-0.1","","-2.4","","85","","31","","11","","25.0","","99.11","","","","-4","","Cloudy"
"1992-01-06 07:00","1992","01","06","07:00","-0.2","","-2.3","","86","","31","","19","","25.0","","99.14","","","","-5","","Cloudy"
"1992-01-06 08:00","1992","01","06","08:00","-0.1","","-2.2","","86","","30","","22","","24.1","","99.11","","","","-6","","Cloudy"
"1992-01-06 09:00","1992","01","06","09:00","-0.2","","-2.6","","84","","30","","4","","19.3","","99.17","","","","-1","","Cloudy"
"1992-01-06 10:00","1992","01","06","10:00","0.3","","-2.2","","83","","","","0","","19.3","","99.14","","","","","","Cloudy"
"1992-01-06 11:00","1992","01","06","11:00","1.0","","-1.9","","81","","29","","17","","19.3","","99.11","","","","","","Cloudy"
"1992-01-06 12:00","1992","01","06","12:00","1.3","","-2.1","","78","","28","","19","","24.1","","99.01","","","","","","Cloudy"
"1992-01-06 13:00","1992","01","06","13:00","1.3","","-2.1","","78","","28","","30","","24.1","","98.94","","","","","","Cloudy"
"1992-01-06 14:00","1992","01","06","14:00","1.3","","-2.4","","76","","29","","19","","24.1","","98.94","","","","","","Cloudy"
"1992-01-06 15:00","1992","01","06","15:00","1.1","","-2.4","","77","","27","","24","","24.1","","98.94","","","","","","Cloudy"
"1992-01-06 16:00","1992","01","06","16:00","1.1","","-2.4","","77","","29","","17","","24.1","","98.94","","","","","","Mostly Cloudy"
"1992-01-06 17:00","1992","01","06","17:00","0.9","","-1.9","","82","","29","","19","","24.1","","99.01","","","","","","Cloudy"
"1992-01-06 18:00","1992","01","06","18:00","1.0","","-2.4","","78","","29","","17","","25.0","","99.04","","","","","","Cloudy"
"1992-01-06 19:00","1992","01","06","19:00","0.9","","-1.9","","82","","29","","19","","25.0","","99.11","","","","","","Cloudy"
"1992-01-06 20:00","1992","01","06","20:00","1.0","","-1.9","","81","","28","","17","","25.0","","99.11","","","","","","Cloudy"
"1992-01-06 21:00","1992","01","06","21:00","1.2","","-1.5","","82","","28","","19","","24.1","","99.07","","","","","","Rain Showers"
"1992-01-06 22:00","1992","01","06","22:00","1.5","","-1.0","","83","","29","","17","","19.3","","99.04","","","","","","Cloudy"
"1992-01-06 23:00","1992","01","06","23:00","2.0","","-2.1","","74","","31","","30","","25.0","","99.07","","","","","","Cloudy"
"1992-01-07 00:00","1992","01","07","00:00","1.8","","-2.1","","75","","31","","26","","25.0","","99.11","","","","","","Cloudy"
"1992-01-07 01:00","1992","01","07","01:00","1.7","","-2.1","","76","","32","","20","","25.0","","99.14","","","","","","Cloudy"
"1992-01-07 02:00","1992","01","07","02:00","1.7","","-1.5","","79","","29","","11","","24.1","","99.21","","","","","","Cloudy"
"1992-01-07 03:00","1992","01","07","03:00","1.8","","-1.0","","82","","27","","9","","24.1","","99.24","","","","","","Rain Showers"
"1992-01-07 04:00","1992","01","07","04:00","1.7","","-1.0","","82","","29","","22","","16.1","","99.27","","","","","","Rain Showers"
"1992-01-07 05:00","1992","01","07","05:00","1.8","","-1.0","","82","","27","","19","","24.1","","99.31","","","","","","Cloudy"
"1992-01-07 06:00","1992","01","07","06:00","1.2","","-1.0","","85","","26","","13","","24.1","","99.37","","","","","","Cloudy"
"1992-01-07 07:00","1992","01","07","07:00","1.1","","-0.5","","89","","26","","15","","24.1","","99.44","","","","","","Cloudy"
"1992-01-07 08:00","1992","01","07","08:00","0.8","","0.0","","95","","26","","9","","9.7","","99.47","","","","","","Snow Showers,Fog"
"1992-01-07 09:00","1992","01","07","09:00","1.6","","-1.0","","83","","25","","15","","19.3","","99.51","","","","","","Cloudy"
"1992-01-07 10:00","1992","01","07","10:00","1.9","","-0.4","","85","","27","","20","","6.4","","99.61","","","","","","Ice Pellet Showers"
"1992-01-07 11:00","1992","01","07","11:00","2.1","","-1.0","","80","","28","","15","","19.3","","99.64","","","","","","Cloudy"
"1992-01-07 12:00","1992","01","07","12:00","2.0","","-2.1","","74","","31","","26","","24.1","","99.61","","","","","","Cloudy"
"1992-01-07 13:00","1992","01","07","13:00","2.3","","-2.0","","73","","29","","33","","24.1","","99.54","","","","","","Cloudy"
"1992-01-07 14:00","1992","01","07","14:00","2.3","","-2.6","","70","","31","","26","","32.2","","99.57","","","","","","Cloudy"
"1992-01-07 15:00","1992","01","07","15:00","2.0","","-2.6","","71","","30","","28","","32.2","","99.64","","","","","","Cloudy"
"1992-01-07 16:00","1992","01","07","16:00","2.1","","-3.4","","67","","30","","28","","32.2","","99.71","","","","","","Mostly Cloudy"
"1992-01-07 17:00","1992","01","07","17:00","0.8","","-3.0","","76","","34","","19","","25.0","","99.81","","","","","","Mainly Clear"
"1992-01-07 18:00","1992","01","07","18:00","-0.8","","-4.4","","76","","32","","19","","25.0","","99.91","","","","-6","","Mainly Clear"
"1992-01-07 19:00","1992","01","07","19:00","-0.9","","-5.7","","70","","32","","20","","25.0","","100.04","","","","-6","","Clear"
"1992-01-07 20:00","1992","01","07","20:00","-2.2","","-5.4","","79","","32","","19","","25.0","","100.11","","","","-8","","Clear"
"1992-01-07 21:00","1992","01","07","21:00","-3.0","","-6.0","","80","","33","","17","","25.0","","100.21","","","","-9","","Mainly Clear"
"1992-01-07 22:00","1992","01","07","22:00","-3.5","","-6.7","","78","","33","","19","","25.0","","100.27","","","","-9","","Clear"
"1992-01-07 23:00","1992","01","07","23:00","-4.1","","-7.3","","78","","34","","22","","25.0","","100.27","","","","-11","","Clear"
"1992-01-08 00:00","1992","01","08","00:00","-4.8","","-7.9","","79","","35","","19","","25.0","","100.27","","","","-11","","Clear"
"1992-01-08 01:00","1992","01","08","01:00","-5.3","","-8.2","","80","","34","","19","","25.0","","100.27","","","","-12","","Clear"
"1992-01-08 02:00","1992","01","08","02:00","-5.6","","-7.5","","86","","35","","17","","24.1","","100.34","","","","-12","","Clear"
"1992-01-08 03:00","1992","01","08","03:00","-6.2","","-8.8","","82","","36","","13","","24.1","","100.41","","","","-12","","Clear"
"1992-01-08 04:00","1992","01","08","04:00","-6.9","","-9.6","","81","","34","","11","","24.1","","100.44","","","","-12","","Clear"
"1992-01-08 05:00","1992","01","08","05:00","-7.4","","-10.6","","78","","2","","19","","24.1","","100.41","","","","-14","","Clear"
"1992-01-08 06:00","1992","01","08","06:00","-7.8","","-11.2","","76","","36","","15","","24.1","","100.47","","","","-14","","Clear"
"1992-01-08 07:00","1992","01","08","07:00","-8.0","","-11.2","","77","","36","","13","","24.1","","100.47","","","","-14","","Clear"
"1992-01-08 08:00","1992","01","08","08:00","-8.4","","-11.1","","81","","","","0","","32.2","","100.51","","","","","","Mainly Clear"
"1992-01-08 09:00","1992","01","08","09:00","-7.4","","-10.6","","78","","36","","4","","32.2","","100.54","","","","-9","","Mainly Clear"
"1992-01-08 10:00","1992","01","08","10:00","-5.8","","-11.1","","66","","","","0","","32.2","","100.61","","","","","","Mostly Cloudy"
"1992-01-08 11:00","1992","01","08","11:00","-5.0","","-9.7","","69","","","","0","","24.1","","100.57","","","","","","Mostly Cloudy"
"1992-01-08 12:00","1992","01","08","12:00","-4.7","","-9.0","","72","","14","","9","","19.3","","100.41","","","","-9","","Mostly Cloudy"
"1992-01-08 13:00","1992","01","08","13:00","-4.7","","-7.6","","80","","12","","11","","19.3","","100.31","","","","-9","","Cloudy"
"1992-01-08 14:00","1992","01","08","14:00","-4.5","","-6.9","","83","","12","","15","","19.3","","100.31","","","","-10","","Cloudy"
"1992-01-08 15:00","1992","01","08","15:00","-4.3","","-6.6","","84","","12","","9","","19.3","","100.21","","","","-8","","Cloudy"
"1992-01-08 16:00","1992","01","08","16:00","-4.0","","-6.3","","84","","10","","11","","24.1","","100.21","","","","-8","","Cloudy"
"1992-01-08 17:00","1992","01","08","17:00","-4.0","","-6.0","","86","","9","","15","","19.3","","100.07","","","","-9","","Cloudy"
"1992-01-08 18:00","1992","01","08","18:00","-3.5","","-6.0","","83","","10","","13","","16.1","","99.94","","","","-8","","Cloudy"
"1992-01-08 19:00","1992","01","08","19:00","-3.2","","-4.8","","89","","10","","11","","19.3","","99.91","","","","-7","","Cloudy"
"1992-01-08 20:00","1992","01","08","20:00","-2.5","","-4.8","","84","","10","","19","","19.3","","99.77","","","","-8","","Cloudy"
"1992-01-08 21:00","1992","01","08","21:00","-2.1","","-3.9","","88","","10","","15","","19.3","","99.67","","","","-7","","Cloudy"
"1992-01-08 22:00","1992","01","08","22:00","-2.5","","-4.8","","84","","6","","15","","16.1","","99.61","","","","-7","","Cloudy"
"1992-01-08 23:00","1992","01","08","23:00","-2.8","","-4.8","","86","","6","","11","","16.1","","99.51","","","","-7","","Cloudy"
"1992-01-09 00:00","1992","01","09","00:00","-2.8","","-4.5","","88","","8","","11","","16.1","","99.31","","","","-7","","Cloudy"
"1992-01-09 01:00","1992","01","09","01:00","-1.8","","-3.1","","91","","10","","9","","16.1","","99.14","","","","-5","","Cloudy"
"1992-01-09 02:00","1992","01","09","02:00","-0.5","","-1.6","","92","","13","","11","","8.0","","99.04","","","","-4","","Snow"
"1992-01-09 03:00","1992","01","09","03:00","0.0","","-0.5","","96","","12","","19","","12.9","","98.94","","","","-5","","Rain,Snow"
"1992-01-09 04:00","1992","01","09","04:00","0.3","","-0.4","","95","","13","","11","","8.0","","98.84","","","","","","Rain"
"1992-01-09 05:00","1992","01","09","05:00","0.5","","-0.9","","90","","15","","15","","9.7","","98.77","","","","","","Fog"
"1992-01-09 06:00","1992","01","09","06:00","0.8","","-1.0","","88","","14","","11","","8.0","","98.64","","","","","","Fog"
"1992-01-09 07:00","1992","01","09","07:00","1.3","","-0.5","","88","","16","","11","","6.4","","98.61","","","","","","Fog"
"1992-01-09 08:00","1992","01","09","08:00","1.1","","0.5","","96","","17","","9","","4.8","","98.51","","","","","","Drizzle,Fog"
"1992-01-09 09:00","1992","01","09","09:00","1.2","","0.5","","95","","18","","7","","3.2","","98.51","","","","","","Fog"
"1992-01-09 10:00","1992","01","09","10:00","1.9","","1.9","","100","","19","","13","","1.0","","98.44","","","","","","Fog"
"1992-01-09 11:00","1992","01","09","11:00","2.9","","2.6","","98","","21","","13","","2.0","","98.37","","","","","","Rain Showers,Fog"
"1992-01-09 12:00","1992","01","09","12:00","5.0","","4.6","","97","","23","","15","","6.4","","98.27","","","","","","Fog"
"1992-01-09 13:00","1992","01","09","13:00","4.7","","3.6","","92","","22","","11","","6.4","","98.14","","","","","","Rain,Fog"
"1992-01-09 14:00","1992","01","09","14:00","5.0","","4.2","","95","","24","","11","","16.1","","98.11","","","","","","Rain"
"1992-01-09 15:00","1992","01","09","15:00","4.8","","3.3","","90","","26","","24","","16.1","","98.17","","","","","","Cloudy"
"1992-01-09 16:00","1992","01","09","16:00","4.4","","1.8","","83","","26","","26","","16.1","","98.24","","","","","","Cloudy"
"1992-01-09 17:00","1992","01","09","17:00","3.4","","1.7","","89","","26","","19","","19.3","","98.34","","","","","","Cloudy"
"1992-01-09 18:00","1992","01","09","18:00","3.0","","1.1","","87","","25","","20","","19.3","","98.37","","","","","","Mostly Cloudy"
"1992-01-09 19:00","1992","01","09","19:00","2.8","","1.1","","89","","27","","15","","25.0","","98.44","","","","","","Cloudy"
"1992-01-09 20:00","1992","01","09","20:00","2.7","","0.1","","83","","28","","26","","25.0","","98.57","","","","","","Rain"
"1992-01-09 21:00","1992","01","09","21:00","2.4","","0.1","","85","","29","","22","","25.0","","98.61","","","","","","Cloudy"
"1992-01-09 22:00","1992","01","09","22:00","1.9","","-0.4","","85","","30","","22","","25.0","","98.71","","","","","","Cloudy"
"1992-01-09 23:00","1992","01","09","23:00","1.9","","-1.0","","81","","30","","19","","25.0","","98.71","","","","","","Cloudy"
"1992-01-10 00:00","1992","01","10","00:00","1.6","","-1.5","","80","","31","","28","","25.0","","98.67","","","","","","Cloudy"
"1992-01-10 01:00","1992","01","10","01:00","1.5","","-2.1","","77","","30","","22","","25.0","","98.64","","","","","","Cloudy"
"1992-01-10 02:00","1992","01","10","02:00","1.0","","-2.4","","78","","31","","30","","25.0","","98.71","","","","","","Mostly Cloudy"
"1992-01-10 03:00","1992","01","10","03:00","-0.1","","-3.6","","77","","33","","22","","25.0","","98.74","","","","-6","","Mainly Clear"
"1992-01-10 04:00","1992","01","10","04:00","-0.6","","-4.4","","76","","33","","19","","25.0","","98.74","","","","-6","","Mainly Clear"
"1992-01-10 05:00","1992","01","10","05:00","-0.9","","-4.1","","79","","33","","6","","25.0","","98.74","","","","-3","","Mostly Cloudy"
"1992-01-10 06:00","1992","01","10","06:00","-0.9","","-3.8","","81","","34","","7","","25.0","","98.74","","","","-3","","Cloudy"
"1992-01-10 07:00","1992","01","10","07:00","-0.3","","-2.4","","86","","31","","7","","25.0","","98.81","","","","-3","","Cloudy"
"1992-01-10 08:00","1992","01","10","08:00","-0.4","","-2.8","","84","","31","","7","","25.0","","98.81","","","","-3","","Snow Showers"
"1992-01-10 09:00","1992","01","10","09:00","-0.2","","-2.8","","83","","30","","9","","24.1","","98.81","","","","-3","","Mostly Cloudy"
"1992-01-10 10:00","1992","01","10","10:00","0.0","","-3.2","","79","","32","","13","","24.1","","98.81","","","","-4","","Snow Showers"
"1992-01-10 11:00","1992","01","10","11:00","-0.2","","-2.8","","83","","32","","15","","12.9","","98.81","","","","-5","","Snow Showers"
"1992-01-10 12:00","1992","01","10","12:00","-1.0","","-3.3","","84","","33","","13","","6.4","","98.74","","","","-5","","Snow Showers"
"1992-01-10 13:00","1992","01","10","13:00","-1.1","","-2.7","","89","","35","","20","","2.0","","98.71","","","","-7","","Snow Showers"
"1992-01-10 14:00","1992","01","10","14:00","-1.5","","-3.9","","84","","35","","13","","16.1","","98.67","","","","-6","","Snow Showers"
"1992-01-10 15:00","1992","01","10","15:00","-1.5","","-4.8","","78","","1","","11","","24.1","","98.71","","","","-5","","Snow Showers"
"1992-01-10 16:00","1992","01","10","16:00","-1.5","","-6.4","","69","","31","","24","","19.3","","98.81","","","","-8","","Mostly Cloudy"
"1992-01-10 17:00","1992","01","10","17:00","-1.7","","-6.7","","69","","31","","19","","40.2","","98.84","","","","-7","","Mostly Cloudy"
"1992-01-10 18:00","1992","01","10","18:00","-2.0","","-5.4","","78","","32","","22","","25.0","","98.87","","","","-8","","Mostly Cloudy"
"1992-01-10 19:00","1992","01","10","19:00","-2.2","","-6.4","","73","","31","","19","","25.0","","98.91","","","","-8","","Mostly Cloudy"
"1992-01-10 20:00","1992","01","10","20:00","-2.8","","-7.0","","73","","31","","11","","25.0","","98.94","","","","-7","","Mostly Cloudy"
"1992-01-10 21:00","1992","01","10","21:00","-3.0","","-6.4","","77","","29","","9","","25.0","","98.97","","","","-7","","Mostly Cloudy"
"1992-01-10 22:00","1992","01","10","22:00","-2.6","","-6.7","","73","","28","","15","","25.0","","98.97","","","","-8","","Mostly Cloudy"
"1992-01-10 23:00","1992","01","10","23:00","-2.5","","-5.1","","82","","28","","17","","24.1","","99.01","","","","-8","","Snow Showers"
"1992-01-11 00:00","1992","01","11","00:00","-2.6","","-5.1","","83","","","","0","","19.3","","98.94","","","","","","Snow Showers"
"1992-01-11 01:00","1992","01","11","01:00","-2.4","","-4.5","","85","","23","","4","","12.9","","98.91","","","","-4","","Snow Showers"
"1992-01-11 02:00","1992","01","11","02:00","-2.0","","-3.9","","87","","24","","9","","6.4","","98.87","","","","-5","","Snow Showers"
"1992-01-11 03:00","1992","01","11","03:00","-1.4","","-3.9","","83","","26","","15","","19.3","","98.87","","","","-6","","Snow Showers"
"1992-01-11 04:00","1992","01","11","04:00","-1.2","","-3.3","","86","","26","","15","","19.3","","98.84","","","","-6","","Cloudy"
"1992-01-11 05:00","1992","01","11","05:00","-1.0","","-3.3","","84","","28","","19","","19.3","","98.87","","","","-6","","Snow Showers"
"1992-01-11 06:00","1992","01","11","06:00","-1.0","","-3.3","","84","","27","","19","","19.3","","98.97","","","","-6","","Cloudy"
"1992-01-11 07:00","1992","01","11","07:00","-1.1","","-3.6","","83","","28","","15","","19.3","","99.04","","","","-6","","Cloudy"
"1992-01-11 08:00","1992","01","11","08:00","-1.1","","-3.3","","85","","27","","6","","16.1","","99.07","","","","-3","","Snow Showers"
"1992-01-11 09:00","1992","01","11","09:00","-3.2","","-4.5","","91","","35","","17","","16.1","","99.17","","","","-9","","Snow Showers"
"1992-01-11 10:00","1992","01","11","10:00","-3.9","","-6.0","","85","","36","","13","","12.9","","99.31","","","","-9","","Snow"
"1992-01-11 11:00","1992","01","11","11:00","-4.0","","-6.0","","86","","34","","9","","16.1","","99.34","","","","-8","","Snow"
"1992-01-11 12:00","1992","01","11","12:00","-3.6","","-5.4","","87","","1","","7","","9.7","","99.31","","","","-7","","Snow"
"1992-01-11 13:00","1992","01","11","13:00","-4.0","","-5.4","","90","","3","","6","","9.7","","99.31","","","","-7","","Snow"
"1992-01-11 14:00","1992","01","11","14:00","-3.6","","-5.4","","87","","36","","4","","9.7","","99.31","","","","-5","","Snow"
"1992-01-11 15:00","1992","01","11","15:00","-3.8","","-6.3","","83","","3","","6","","11.3","","99.37","","","","-6","","Snow"
"1992-01-11 16:00","1992","01","11","16:00","-3.8","","-6.3","","83","","5","","4","","11.3","","99.44","","","","-5","","Snow"
"1992-01-11 17:00","1992","01","11","17:00","-3.9","","-6.0","","85","","","","0","","12.9","","99.47","","","","","","Snow"
"1992-01-11 18:00","1992","01","11","18:00","-3.6","","-5.7","","85","","","","0","","12.9","","99.51","","","","","","Snow"
"1992-01-11 19:00","1992","01","11","19:00","-3.4","","-5.4","","86","","14","","4","","16.1","","99.54","","","","-5","","Cloudy"
"1992-01-11 20:00","1992","01","11","20:00","-3.2","","-4.5","","91","","","","0","","24.1","","99.57","","","","","","Cloudy"
"1992-01-11 21:00","1992","01","11","21:00","-2.8","","-4.8","","86","","11","","7","","19.3","","99.57","","","","-6","","Snow"
"1992-01-11 22:00","1992","01","11","22:00","-2.5","","-4.2","","88","","10","","9","","24.1","","99.57","","","","-6","","Cloudy"
"1992-01-11 23:00","1992","01","11","23:00","-2.0","","-3.6","","89","","13","","15","","24.1","","99.54","","","","-7","","Cloudy"
"1992-01-12 00:00","1992","01","12","00:00","-2.0","","-3.6","","89","","14","","19","","24.1","","99.51","","","","-8","","Cloudy"
"1992-01-12 01:00","1992","01","12","01:00","-2.0","","-3.6","","89","","12","","17","","24.1","","99.47","","","","-7","","Cloudy"
"1992-01-12 02:00","1992","01","12","02:00","-2.2","","-3.1","","94","","12","","20","","16.1","","99.47","","","","-8","","Cloudy"
"1992-01-12 03:00","1992","01","12","03:00","-2.0","","-3.1","","92","","12","","19","","12.9","","99.47","","","","-8","","Cloudy"
"1992-01-12 04:00","1992","01","12","04:00","-1.7","","-2.5","","94","","11","","17","","8.0","","99.41","","","","-7","","Snow"
"1992-01-12 05:00","1992","01","12","05:00","-1.2","","-1.6","","97","","11","","13","","8.0","","99.34","","","","-5","","Snow"
"1992-01-12 06:00","1992","01","12","06:00","-0.3","","-0.8","","96","","13","","13","","6.4","","99.34","","","","-4","","Fog"
"1992-01-12 07:00","1992","01","12","07:00","-0.1","","-0.6","","96","","12","","15","","6.4","","99.31","","","","-5","","Fog"
"1992-01-12 08:00","1992","01","12","08:00","0.2","","-0.3","","96","","14","","7","","3.2","","99.31","","","","","","Fog"
"1992-01-12 09:00","1992","01","12","09:00","0.9","","0.0","","94","","21","","6","","6.4","","99.27","","","","","","Fog"
"1992-01-12 10:00","1992","01","12","10:00","1.6","","-0.5","","86","","20","","11","","8.0","","99.21","","","","","","Fog"
"1992-01-12 11:00","1992","01","12","11:00","2.9","","0.2","","83","","21","","20","","11.3","","99.21","","","","","","Mostly Cloudy"
"1992-01-12 12:00","1992","01","12","12:00","4.6","","0.3","","73","","22","","26","","16.1","","99.11","","","","","","Mostly Cloudy"
"1992-01-12 13:00","1992","01","12","13:00","6.0","","0.5","","68","","20","","22","","24.1","","98.94","","","","","","Mostly Cloudy"
"1992-01-12 14:00","1992","01","12","14:00","5.7","","-0.6","","64","","20","","22","","24.1","","98.84","","","","","","Mostly Cloudy"
"1992-01-12 15:00","1992","01","12","15:00","6.2","","-1.1","","59","","20","","26","","24.1","","98.81","","","","","","Mostly Cloudy"
"1992-01-12 16:00","1992","01","12","16:00","5.0","","-1.3","","64","","22","","26","","24.1","","98.81","","","","","","Mostly Cloudy"
"1992-01-12 17:00","1992","01","12","17:00","4.1","","-2.5","","62","","21","","20","","24.1","","98.77","","","","","","Cloudy"
"1992-01-12 18:00","1992","01","12","18:00","3.5","","-2.6","","64","","23","","19","","24.1","","98.84","","","","","","Cloudy"
"1992-01-12 19:00","1992","01","12","19:00","4.5","","-3.8","","55","","22","","22","","25.0","","98.84","","","","","","Cloudy"
"1992-01-12 20:00","1992","01","12","20:00","4.5","","-3.8","","55","","24","","26","","25.0","","98.84","","","","","","Cloudy"
"1992-01-12 21:00","1992","01","12","21:00","3.5","","0.2","","79","","24","","26","","19.3","","98.81","","","","","","Rain"
"1992-01-12 22:00","1992","01","12","22:00","2.2","","0.6","","89","","22","","26","","9.7","","98.77","","","","","","Rain,Fog"
"1992-01-12 23:00","1992","01","12","23:00","1.9","","0.6","","91","","22","","26","","16.1","","98.71","","","","","","Rain"
"1992-01-13 00:00","1992","01","13","00:00","1.8","","0.6","","92","","22","","24","","16.1","","98.67","","","","","","Cloudy"
"1992-01-13 01:00","1992","01","13","01:00","1.5","","0.5","","93","","22","","19","","9.7","","98.61","","","","","","Drizzle,Fog"
"1992-01-13 02:00","1992","01","13","02:00","2.0","","0.6","","90","","23","","17","","12.9","","98.57","","","","","","Cloudy"
"1992-01-13 03:00","1992","01","13","03:00","2.2","","0.6","","89","","24","","20","","16.1","","98.61","","","","","","Cloudy"
"1992-01-13 04:00","1992","01","13","04:00","2.1","","0.6","","90","","23","","15","","16.1","","98.57","","","","","","Cloudy"
"1992-01-13 05:00","1992","01","13","05:00","2.0","","0.6","","90","","22","","15","","12.9","","98.54","","","","","","Rain"
"1992-01-13 06:00","1992","01","13","06:00","2.0","","0.6","","90","","22","","13","","16.1","","98.54","","","","","","Cloudy"
"1992-01-13 07:00","1992","01","13","07:00","2.4","","1.1","","91","","21","","13","","12.9","","98.54","","","","","","Drizzle"
"1992-01-13 08:00","1992","01","13","08:00","2.3","","1.1","","92","","20","","6","","9.7","","98.61","","","","","","Drizzle,Fog"
"1992-01-13 09:00","1992","01","13","09:00","2.7","","1.1","","89","","22","","13","","11.3","","98.61","","","","","","Cloudy"
"1992-01-13 10:00","1992","01","13","10:00","3.1","","1.6","","90","","23","","15","","9.7","","98.61","","","","","","Fog"
"1992-01-13 11:00","1992","01","13","11:00","3.4","","2.2","","92","","21","","13","","8.0","","98.61","","","","","","Rain,Drizzle,Fog"
"1992-01-13 12:00","1992","01","13","12:00","3.7","","1.7","","87","","22","","15","","11.3","","98.51","","","","","","Cloudy"
"1992-01-13 13:00","1992","01","13","13:00","3.8","","2.7","","93","","24","","15","","8.0","","98.44","","","","","","Fog"
"1992-01-13 14:00","1992","01","13","14:00","4.4","","2.7","","89","","21","","11","","9.7","","98.37","","","","","","Fog"
"1992-01-13 15:00","1992","01","13","15:00","4.5","","2.3","","85","","21","","11","","9.7","","98.41","","","","","","Fog"
"1992-01-13 16:00","1992","01","13","16:00","4.3","","2.7","","90","","24","","9","","6.4","","98.37","","","","","","Fog"
"1992-01-13 17:00","1992","01","13","17:00","4.0","","2.7","","91","","","","0","","6.4","","98.41","","","","","","Drizzle,Fog"
"1992-01-13 18:00","1992","01","13","18:00","3.5","","3.1","","97","","","","0","","3.6","","98.37","","","","","","Drizzle,Fog"
"1992-01-13 19:00","1992","01","13","19:00","3.8","","3.1","","95","","","","0","","3.6","","98.41","","","","","","Drizzle,Fog"
"1992-01-13 20:00","1992","01","13","20:00","3.8","","3.6","","99","","","","0","","4.8","","98.34","","","","","","Fog"
"1992-01-13 21:00","1992","01","13","21:00","3.7","","3.1","","96","","","","0","","4.0","","98.24","","","","","","Fog"
"1992-01-13 22:00","1992","01","13","22:00","2.7","","2.0","","95","","","","0","","2.8","","98.14","","","","","","Fog"
"1992-01-13 23:00","1992","01","13","23:00","3.3","","3.1","","99","","5","","4","","4.8","","98.11","","","","","","Rain,Fog"
"1992-01-14 00:00","1992","01","14","00:00","3.3","","3.1","","99","","3","","7","","4.0","","97.94","","","","","","Rain,Fog"
"1992-01-14 01:00","1992","01","14","01:00","3.2","","2.6","","96","","4","","13","","4.0","","97.71","","","","","","Rain,Fog"
"1992-01-14 02:00","1992","01","14","02:00","2.7","","2.0","","95","","3","","15","","4.8","","97.47","","","","","","Rain,Fog"
"1992-01-14 03:00","1992","01","14","03:00","2.5","","2.0","","96","","4","","17","","4.0","","97.34","","","","","","Rain,Fog"
"1992-01-14 04:00","1992","01","14","04:00","1.8","","1.5","","98","","2","","17","","4.0","","97.04","","","","","","Rain,Snow,Fog"
"1992-01-14 05:00","1992","01","14","05:00","0.6","","0.0","","96","","1","","22","","2.4","","96.68","","","","","","Snow"
"1992-01-14 06:00","1992","01","14","06:00","0.8","","0.5","","98","","1","","24","","4.0","","96.41","","","","","","Snow,Ice Pellets"
"1992-01-14 07:00","1992","01","14","07:00","0.4","","0.2","","99","","36","","33","","2.0","","96.24","","","","","","Snow"
"1992-01-14 08:00","1992","01","14","08:00","-0.9","","-1.1","","98","","36","","37","","2.4","","96.08","","","","-8","","Snow,Ice Pellets"
"1992-01-14 09:00","1992","01","14","09:00","-3.1","","-4.2","","92","","36","","46","","6.4","","95.91","","","","-12","","Ice Pellets"
"1992-01-14 10:00","1992","01","14","10:00","-4.8","","-5.9","","92","","36","","52","","2.4","","95.81","","","","-15","","Freezing Rain,Ice Pellets,Fog"
"1992-01-14 11:00","1992","01","14","11:00","-7.6","","-8.8","","91","","35","","54","","3.2","","95.71","","","","-19","","Ice Pellets,Blowing Snow"
"1992-01-14 12:00","1992","01","14","12:00","-8.9","","-10.5","","88","","34","","59","","8.0","","95.84","","","","-21","","Snow,Blowing Snow"
"1992-01-14 13:00","1992","01","14","13:00","-10.0","","-11.2","","91","","35","","52","","0.0","","95.91","","","","-22","","Heavy Snow,Blowing Snow"
"1992-01-14 14:00","1992","01","14","14:00","-10.5","","-11.8","","90","","33","","59","","0.0","","96.24","","","","-23","","Heavy Snow,Blowing Snow"
"1992-01-14 15:00","1992","01","14","15:00","-9.5","","-10.3","","94","","32","","56","","0.2","","96.61","","","","-22","","Heavy Snow,Blowing Snow"
"1992-01-14 16:00","1992","01","14","16:00","-9.5","","-10.3","","94","","32","","56","","0.2","","96.91","","","","-22","","Moderate Snow,Blowing Snow"
"1992-01-14 17:00","1992","01","14","17:00","-9.1","","-10.1","","92","","32","","48","","0.6","","97.21","","","","-20","","Snow,Blowing Snow"
"1992-01-14 18:00","1992","01","14","18:00","-9.1","","-10.9","","87","","31","","43","","4.8","","97.51","","","","-20","","Blowing Snow"
"1992-01-14 19:00","1992","01","14","19:00","-9.8","","-12.0","","84","","31","","44","","16.1","","97.81","","","","-21","","Mostly Cloudy"
"1992-01-14 20:00","1992","01","14","20:00","-10.4","","-13.9","","75","","31","","39","","24.1","","98.01","","","","-21","","Mainly Clear"
"1992-01-14 21:00","1992","01","14","21:00","-12.2","","-15.3","","78","","29","","31","","24.1","","98.21","","","","-23","","Mainly Clear"
"1992-01-14 22:00","1992","01","14","22:00","-12.4","","-16.4","","72","","29","","26","","24.1","","98.34","","","","-22","","Mainly Clear"
"1992-01-14 23:00","1992","01","14","23:00","-12.2","","-14.8","","81","","29","","26","","24.1","","98.47","","","","-22","","Mainly Clear"
"1992-01-15 00:00","1992","01","15","00:00","-12.8","","-15.5","","80","","29","","31","","24.1","","98.61","","","","-23","","Mainly Clear"
"1992-01-15 01:00","1992","01","15","01:00","-13.0","","-15.5","","81","","29","","22","","25.0","","98.74","","","","-22","","Clear"
"1992-01-15 02:00","1992","01","15","02:00","-13.0","","-16.5","","75","","29","","24","","25.0","","98.84","","","","-22","","Clear"
"1992-01-15 03:00","1992","01","15","03:00","-12.7","","-15.9","","77","","32","","22","","25.0","","98.94","","","","-22","","Mainly Clear"
"1992-01-15 04:00","1992","01","15","04:00","-14.1","","-17.8","","74","","1","","9","","25.0","","99.01","","","","-20","","Mainly Clear"
"1992-01-15 05:00","1992","01","15","05:00","-16.2","","-18.4","","83","","1","","11","","25.0","","99.07","","","","-23","","Mainly Clear"
"1992-01-15 06:00","1992","01","15","06:00","-16.5","","-18.4","","85","","33","","11","","25.0","","99.14","","","","-23","","Mainly Clear"
"1992-01-15 07:00","1992","01","15","07:00","-17.4","","-19.5","","84","","36","","9","","25.0","","99.24","","","","-24","","Mainly Clear"
"1992-01-15 08:00","1992","01","15","08:00","-17.4","","-19.5","","84","","34","","11","","32.2","","99.34","","","","-25","","Mainly Clear"
"1992-01-15 09:00","1992","01","15","09:00","-17.7","","-19.5","","86","","2","","9","","32.2","","99.37","","","","-24","","Mostly Cloudy"
"1992-01-15 10:00","1992","01","15","10:00","-17.3","","-20.1","","79","","35","","7","","32.2","","99.41","","","","-23","","Mainly Clear"
"1992-01-15 11:00","1992","01","15","11:00","-17.0","","-19.6","","80","","2","","9","","24.1","","99.41","","","","-23","","Clear"
"1992-01-15 12:00","1992","01","15","12:00","-16.6","","-19.0","","82","","36","","9","","24.1","","99.34","","","","-23","","Mostly Cloudy"
"1992-01-15 13:00","1992","01","15","13:00","-16.4","","-19.0","","80","","34","","9","","24.1","","99.24","","","","-22","","Mostly Cloudy"
"1992-01-15 14:00","1992","01","15","14:00","-15.5","","-17.9","","82","","35","","13","","24.1","","99.14","","","","-23","","Mostly Cloudy"
"1992-01-15 15:00","1992","01","15","15:00","-14.7","","-17.8","","77","","34","","9","","32.2","","99.14","","","","-20","","Cloudy"
"1992-01-15 16:00","1992","01","15","16:00","-14.8","","-17.8","","78","","35","","11","","32.2","","99.14","","","","-21","","Cloudy"
"1992-01-15 17:00","1992","01","15","17:00","-15.2","","-17.8","","81","","34","","11","","32.2","","99.14","","","","-22","","Cloudy"
"1992-01-15 18:00","1992","01","15","18:00","-15.4","","-17.3","","85","","36","","15","","4.0","","99.11","","","","-23","","Snow Showers"
"1992-01-15 19:00","1992","01","15","19:00","-16.0","","-18.4","","82","","1","","17","","4.0","","99.04","","","","-25","","Snow"
"1992-01-15 20:00","1992","01","15","20:00","-16.2","","-18.4","","83","","35","","13","","9.7","","99.04","","","","-24","","Snow"
"1992-01-15 21:00","1992","01","15","21:00","-16.3","","-19.6","","75","","35","","15","","19.3","","98.97","","","","-25","","Cloudy"
"1992-01-15 22:00","1992","01","15","22:00","-16.5","","-19.0","","81","","35","","15","","9.7","","98.97","","","","-25","","Snow"
"1992-01-15 23:00","1992","01","15","23:00","-16.6","","-19.0","","82","","33","","20","","12.9","","98.94","","","","-26","","Snow"
"1992-01-16 00:00","1992","01","16","00:00","-16.8","","-19.0","","83","","35","","17","","25.0","","98.94","","","","-26","","Mostly Cloudy"
"1992-01-16 01:00","1992","01","16","01:00","-17.3","","-20.8","","74","","35","","20","","25.0","","98.94","","","","-27","","Cloudy"
"1992-01-16 02:00","1992","01","16","02:00","-18.6","","-20.6","","84","","34","","20","","25.0","","98.97","","","","-29","","Mostly Cloudy"
"1992-01-16 03:00","1992","01","16","03:00","-20.5","","-22.8","","82","","34","","19","","25.0","","99.07","","","","-31","","Mainly Clear"
"1992-01-16 04:00","1992","01","16","04:00","-21.5","","-23.9","","81","","35","","13","","25.0","","99.11","","","","-30","","Clear"
"1992-01-16 05:00","1992","01","16","05:00","-22.0","","-24.4","","81","","31","","11","","25.0","","99.14","","","","-30","","Clear"
"1992-01-16 06:00","1992","01","16","06:00","-21.9","","-25.3","","74","","30","","11","","25.0","","99.21","","","","-30","","Mostly Cloudy"
"1992-01-16 07:00","1992","01","16","07:00","-21.4","","-24.7","","75","","32","","11","","24.1","","99.24","","","","-29","","Cloudy"
"1992-01-16 08:00","1992","01","16","08:00","-21.3","","-24.7","","74","","","","0","","24.1","","99.31","","","","","","Mainly Clear"
"1992-01-16 09:00","1992","01","16","09:00","-21.2","","-24.2","","77","","34","","4","","32.2","","99.31","","","","-25","","Mainly Clear"
"1992-01-16 10:00","1992","01","16","10:00","-20.5","","-23.6","","76","","","","0","","32.2","","99.27","","","","","","Clear"
"1992-01-16 11:00","1992","01","16","11:00","-18.4","","-22.0","","73","","","","0","","32.2","","99.24","","","","","","Clear"
"1992-01-16 12:00","1992","01","16","12:00","-15.0","","-18.4","","75","","","","0","","40.2","","99.17","","","","","","Mainly Clear"
"1992-01-16 13:00","1992","01","16","13:00","-14.0","","-18.4","","69","","26","","4","","40.2","","99.11","","","","-17","","Mainly Clear"
"1992-01-16 14:00","1992","01","16","14:00","-13.5","","-17.7","","70","","26","","6","","40.2","","99.07","","","","-18","","Snow"
"1992-01-16 15:00","1992","01","16","15:00","-13.0","","-15.5","","81","","","","0","","6.4","","99.07","","","","","","Snow Showers"
"1992-01-16 16:00","1992","01","16","16:00","-12.8","","-15.5","","80","","","","0","","2.8","","99.04","","","","","","Snow"
"1992-01-16 17:00","1992","01","16","17:00","-12.0","","-15.3","","76","","25","","26","","24.1","","99.04","","","","-22","","Mostly Cloudy"
"1992-01-16 18:00","1992","01","16","18:00","-13.0","","-17.1","","71","","25","","22","","24.1","","99.07","","","","-22","","Mostly Cloudy"
"1992-01-16 19:00","1992","01","16","19:00","-12.9","","-16.0","","77","","24","","22","","25.0","","99.04","","","","-22","","Mostly Cloudy"
"1992-01-16 20:00","1992","01","16","20:00","-12.5","","-15.9","","76","","23","","22","","24.1","","98.97","","","","-21","","Cloudy"
"1992-01-16 21:00","1992","01","16","21:00","-12.6","","-15.4","","80","","22","","22","","24.1","","98.94","","","","-22","","Cloudy"
"1992-01-16 22:00","1992","01","16","22:00","-12.4","","-14.9","","81","","25","","19","","24.1","","98.87","","","","-21","","Cloudy"
"1992-01-16 23:00","1992","01","16","23:00","-12.1","","-15.3","","77","","24","","17","","24.1","","98.81","","","","-20","","Cloudy"
"1992-01-17 00:00","1992","01","17","00:00","-11.6","","-14.7","","78","","24","","20","","19.3","","98.74","","","","-20","","Snow Showers"
"1992-01-17 01:00","1992","01","17","01:00","-11.4","","-13.8","","82","","23","","20","","8.0","","98.61","","","","-20","","Snow Showers"
"1992-01-17 02:00","1992","01","17","02:00","-11.1","","-13.2","","84","","21","","15","","6.4","","98.51","","","","-18","","Snow"
"1992-01-17 03:00","1992","01","17","03:00","-10.6","","-12.6","","85","","22","","15","","2.8","","98.37","","","","-17","","Snow"
"1992-01-17 04:00","1992","01","17","04:00","-10.2","","-11.2","","92","","20","","11","","2.4","","98.21","","","","-16","","Snow"
"1992-01-17 05:00","1992","01","17","05:00","-9.0","","-10.1","","92","","19","","11","","2.8","","98.11","","","","-14","","Snow"
"1992-01-17 06:00","1992","01","17","06:00","-8.3","","-9.6","","90","","19","","15","","4.0","","97.97","","","","-15","","Snow"
"1992-01-17 07:00","1992","01","17","07:00","-7.5","","-8.8","","90","","19","","15","","4.0","","97.87","","","","-14","","Snow"
"1992-01-17 08:00","1992","01","17","08:00","-7.2","","-7.9","","95","","20","","11","","1.6","","97.84","","","","-12","","Snow"
"1992-01-17 09:00","1992","01","17","09:00","-6.7","","-7.6","","93","","22","","7","","4.0","","97.84","","","","-10","","Snow"
"1992-01-17 10:00","1992","01","17","10:00","-5.0","","-7.5","","83","","24","","22","","6.4","","97.84","","","","-12","","Snow"
"1992-01-17 11:00","1992","01","17","11:00","-4.2","","-7.0","","81","","26","","26","","9.7","","97.84","","","","-11","","Snow"
"1992-01-17 12:00","1992","01","17","12:00","-4.3","","-7.9","","76","","27","","31","","19.3","","97.84","","","","-12","","Mostly Cloudy"
"1992-01-17 13:00","1992","01","17","13:00","-4.4","","-7.9","","76","","26","","31","","24.1","","97.84","","","","-12","","Mostly Cloudy"
"1992-01-17 14:00","1992","01","17","14:00","-4.8","","-8.2","","77","","28","","33","","24.1","","97.91","","","","-13","","Mostly Cloudy"
"1992-01-17 15:00","1992","01","17","15:00","-5.0","","-8.2","","78","","26","","37","","12.9","","98.04","","","","-14","","Mostly Cloudy"
"1992-01-17 16:00","1992","01","17","16:00","-5.8","","-8.8","","79","","27","","33","","16.1","","98.14","","","","-14","","Mostly Cloudy"
"1992-01-17 17:00","1992","01","17","17:00","-6.6","","-9.4","","81","","26","","30","","24.1","","98.31","","","","-15","","Mostly Cloudy"
"1992-01-17 18:00","1992","01","17","18:00","-6.6","","-9.7","","78","","27","","31","","24.1","","98.44","","","","-15","","Mostly Cloudy"
"1992-01-17 19:00","1992","01","17","19:00","-6.8","","-9.3","","82","","26","","20","","4.8","","98.61","","","","-14","","Snow Showers"
"1992-01-17 20:00","1992","01","17","20:00","-7.5","","-10.2","","81","","28","","35","","19.3","","98.71","","","","-17","","Mostly Cloudy"
"1992-01-17 21:00","1992","01","17","21:00","-8.4","","-11.5","","78","","27","","22","","16.1","","98.71","","","","-16","","Mainly Clear"
"1992-01-17 22:00","1992","01","17","22:00","-8.3","","-10.7","","82","","25","","19","","2.0","","98.77","","","","-16","","Snow Showers"
"1992-01-17 23:00","1992","01","17","23:00","-9.0","","-10.1","","92","","27","","26","","1.2","","98.81","","","","-18","","Snow Showers"
"1992-01-18 00:00","1992","01","18","00:00","-9.6","","-11.4","","87","","26","","19","","6.4","","98.87","","","","-17","","Snow Showers"
"1992-01-18 01:00","1992","01","18","01:00","-10.3","","-12.6","","83","","25","","28","","16.1","","98.91","","","","-20","","Mainly Clear"
"1992-01-18 02:00","1992","01","18","02:00","-10.9","","-13.6","","80","","26","","35","","9.7","","99.01","","","","-21","","Blowing Snow"
"1992-01-18 03:00","1992","01","18","03:00","-11.2","","-13.2","","85","","26","","30","","8.0","","99.04","","","","-21","","Blowing Snow"
"1992-01-18 04:00","1992","01","18","04:00","-11.5","","-14.2","","80","","25","","31","","19.3","","99.04","","","","-22","","Mainly Clear"
"1992-01-18 05:00","1992","01","18","05:00","-11.5","","-14.2","","80","","26","","26","","16.1","","99.04","","","","-21","","Mostly Cloudy"
"1992-01-18 06:00","1992","01","18","06:00","-11.8","","-15.8","","72","","27","","26","","12.9","","99.11","","","","-21","","Snow Showers"
"1992-01-18 07:00","1992","01","18","07:00","-12.3","","-15.9","","74","","27","","26","","19.3","","99.21","","","","-22","","Mainly Clear"
"1992-01-18 08:00","1992","01","18","08:00","-13.0","","-15.5","","81","","26","","28","","2.8","","99.31","","","","-23","","Blowing Snow"
"1992-01-18 09:00","1992","01","18","09:00","-12.9","","-15.5","","81","","26","","24","","1.2","","99.37","","","","-22","","Snow Showers"
"1992-01-18 10:00","1992","01","18","10:00","-13.7","","-16.6","","79","","28","","31","","19.3","","99.51","","","","-25","","Mainly Clear"
"1992-01-18 11:00","1992","01","18","11:00","-13.3","","-17.7","","69","","27","","35","","19.3","","99.61","","","","-25","","Mainly Clear"
"1992-01-18 12:00","1992","01","18","12:00","-13.0","","-17.1","","71","","27","","33","","24.1","","99.61","","","","-24","","Mainly Clear"
"1992-01-18 13:00","1992","01","18","13:00","-12.7","","-15.9","","77","","28","","30","","16.1","","99.64","","","","-23","","Mostly Cloudy"
"1992-01-18 14:00","1992","01","18","14:00","-12.9","","-17.1","","71","","29","","26","","12.9","","99.71","","","","-23","","Snow Showers"
"1992-01-18 15:00","1992","01","18","15:00","-13.3","","-17.7","","69","","29","","22","","24.1","","99.84","","","","-22","","Mostly Cloudy"
"1992-01-18 16:00","1992","01","18","16:00","-13.8","","-17.8","","72","","29","","19","","24.1","","99.91","","","","-22","","Mostly Cloudy"
"1992-01-18 17:00","1992","01","18","17:00","-14.0","","-17.2","","76","","29","","19","","24.1","","100.01","","","","-23","","Mostly Cloudy"
"1992-01-18 18:00","1992","01","18","18:00","-14.4","","-17.3","","79","","25","","13","","12.9","","100.07","","","","-22","","Snow Showers"
"1992-01-18 19:00","1992","01","18","19:00","-14.7","","-17.3","","81","","25","","11","","16.1","","100.11","","","","-21","","Mostly Cloudy"
"1992-01-18 20:00","1992","01","18","20:00","-15.0","","-16.8","","86","","25","","11","","19.3","","100.11","","","","-22","","Mainly Clear"
"1992-01-18 21:00","1992","01","18","21:00","-14.9","","-17.3","","82","","25","","26","","24.1","","100.07","","","","-25","","Clear"
"1992-01-18 22:00","1992","01","18","22:00","-15.5","","-18.4","","78","","25","","30","","25.0","","100.11","","","","-27","","Clear"
"1992-01-18 23:00","1992","01","18","23:00","-15.5","","-18.4","","78","","25","","30","","25.0","","100.07","","","","-27","","Clear"
"1992-01-19 00:00","1992","01","19","00:00","-15.2","","-17.8","","81","","26","","30","","25.0","","100.04","","","","-26","","Clear"
"1992-01-19 01:00","1992","01","19","01:00","-15.3","","-18.4","","77","","26","","30","","25.0","","99.97","","","","-26","","Clear"
"1992-01-19 02:00","1992","01","19","02:00","-15.1","","-17.8","","80","","25","","26","","25.0","","100.01","","","","-25","","Clear"
"1992-01-19 03:00","1992","01","19","03:00","-15.7","","-17.9","","83","","25","","26","","25.0","","100.01","","","","-26","","Clear"
"1992-01-19 04:00","1992","01","19","04:00","-15.8","","-19.0","","76","","25","","26","","25.0","","100.01","","","","-26","","Clear"
"1992-01-19 05:00","1992","01","19","05:00","-16.2","","-18.4","","83","","25","","22","","25.0","","100.01","","","","-26","","Clear"
"1992-01-19 06:00","1992","01","19","06:00","-17.1","","-20.2","","77","","25","","20","","25.0","","100.01","","","","-27","","Clear"
"1992-01-19 07:00","1992","01","19","07:00","-17.4","","-20.1","","79","","25","","20","","25.0","","100.01","","","","-27","","Clear"
"1992-01-19 08:00","1992","01","19","08:00","-17.2","","-20.1","","78","","23","","19","","32.2","","100.04","","","","-27","","Clear"
"1992-01-19 09:00","1992","01","19","09:00","-16.2","","-19.0","","79","","24","","20","","32.2","","100.07","","","","-26","","Clear"
"1992-01-19 10:00","1992","01","19","10:00","-14.7","","-17.8","","77","","23","","24","","32.2","","100.11","","","","-25","","Clear"
"1992-01-19 11:00","1992","01","19","11:00","-13.6","","-17.2","","74","","22","","19","","32.2","","100.11","","","","-22","","Clear"
"1992-01-19 12:00","1992","01","19","12:00","-12.0","","-16.3","","70","","24","","24","","32.2","","100.07","","","","-21","","Mainly Clear"
"1992-01-19 13:00","1992","01","19","13:00","-11.7","","-15.7","","72","","24","","28","","32.2","","99.97","","","","-21","","Clear"
"1992-01-19 14:00","1992","01","19","14:00","-11.6","","-15.7","","71","","25","","30","","32.2","","99.87","","","","-22","","Mostly Cloudy"
"1992-01-19 15:00","1992","01","19","15:00","-12.0","","-15.3","","76","","25","","31","","24.1","","99.87","","","","-22","","Mostly Cloudy"
"1992-01-19 16:00","1992","01","19","16:00","-12.2","","-15.8","","75","","24","","30","","24.1","","99.87","","","","-22","","Mostly Cloudy"
"1992-01-19 17:00","1992","01","19","17:00","-12.7","","-15.9","","77","","23","","33","","24.1","","99.81","","","","-23","","Cloudy"
"1992-01-19 18:00","1992","01","19","18:00","-12.4","","-15.9","","75","","23","","24","","25.0","","99.74","","","","-22","","Cloudy"
"1992-01-19 19:00","1992","01","19","19:00","-12.0","","-15.8","","73","","23","","17","","25.0","","99.67","","","","-20","","Cloudy"
"1992-01-19 20:00","1992","01","19","20:00","-12.0","","-14.8","","80","","21","","9","","6.4","","99.61","","","","-17","","Snow"
"1992-01-19 21:00","1992","01","19","21:00","-11.6","","-14.2","","81","","","","0","","9.7","","99.51","","","","","","Snow Showers"
"1992-01-19 22:00","1992","01","19","22:00","-11.7","","-12.9","","91","","","","0","","3.2","","99.51","","","","","","Snow Showers"
"1992-01-19 23:00","1992","01","19","23:00","-11.6","","-12.5","","93","","","","0","","2.4","","99.34","","","","","","Snow"
"1992-01-20 00:00","1992","01","20","00:00","-11.5","","-12.9","","89","","","","0","","4.0","","99.21","","","","","","Snow"
"1992-01-20 01:00","1992","01","20","01:00","-11.0","","-12.3","","90","","","","0","","4.8","","99.11","","","","","","Snow"
"1992-01-20 02:00","1992","01","20","02:00","-10.5","","-12.2","","87","","","","0","","4.0","","99.04","","","","","","Snow"
"1992-01-20 03:00","1992","01","20","03:00","-10.5","","-11.8","","90","","35","","6","","4.0","","98.97","","","","-14","","Snow"
"1992-01-20 04:00","1992","01","20","04:00","-11.1","","-12.3","","91","","35","","11","","4.0","","98.97","","","","-17","","Snow"
"1992-01-20 05:00","1992","01","20","05:00","-11.0","","-12.3","","90","","36","","7","","6.4","","98.91","","","","-15","","Snow"
"1992-01-20 06:00","1992","01","20","06:00","-12.6","","-14.0","","89","","34","","11","","19.3","","98.94","","","","-19","","Mostly Cloudy"
"1992-01-20 07:00","1992","01","20","07:00","-13.2","","-14.6","","89","","35","","13","","19.3","","99.04","","","","-20","","Mostly Cloudy"
"1992-01-20 08:00","1992","01","20","08:00","-14.4","","-16.2","","86","","34","","15","","19.3","","99.11","","","","-22","","Mainly Clear"
"1992-01-20 09:00","1992","01","20","09:00","-14.5","","-16.2","","87","","34","","15","","19.3","","99.17","","","","-22","","Mainly Clear"
"1992-01-20 10:00","1992","01","20","10:00","-13.0","","-15.0","","85","","35","","17","","19.3","","99.24","","","","-21","","Mainly Clear"
"1992-01-20 11:00","1992","01","20","11:00","-11.8","","-14.3","","82","","35","","15","","19.3","","99.37","","","","-19","","Mainly Clear"
"1992-01-20 12:00","1992","01","20","12:00","-8.7","","-11.5","","80","","35","","19","","19.3","","99.34","","","","-16","","Mainly Clear"
"1992-01-20 13:00","1992","01","20","13:00","-8.7","","-11.1","","83","","34","","30","","24.1","","99.41","","","","-18","","Mainly Clear"
"1992-01-20 14:00","1992","01","20","14:00","-8.9","","-12.5","","75","","35","","22","","32.2","","99.37","","","","-17","","Mainly Clear"
"1992-01-20 15:00","1992","01","20","15:00","-8.4","","-14.1","","63","","34","","13","","32.2","","99.44","","","","-14","","Mainly Clear"
"1992-01-20 16:00","1992","01","20","16:00","-8.4","","-13.6","","66","","","","0","","32.2","","99.44","","","","","","Mostly Cloudy"
"1992-01-20 17:00","1992","01","20","17:00","-8.3","","-15.1","","58","","26","","11","","32.2","","99.41","","","","-14","","Mostly Cloudy"
"1992-01-20 18:00","1992","01","20","18:00","-9.4","","-14.0","","69","","24","","4","","25.0","","99.44","","","","-12","","Mostly Cloudy"
"1992-01-20 19:00","1992","01","20","19:00","-9.6","","-11.4","","87","","24","","13","","25.0","","99.41","","","","-16","","Mostly Cloudy"
"1992-01-20 20:00","1992","01","20","20:00","-8.6","","-11.9","","77","","21","","11","","25.0","","99.31","","","","-14","","Mostly Cloudy"
"1992-01-20 21:00","1992","01","20","21:00","-8.2","","-12.9","","69","","19","","11","","25.0","","99.24","","","","-13","","Mostly Cloudy"
"1992-01-20 22:00","1992","01","20","22:00","-8.0","","-12.5","","70","","22","","15","","24.1","","99.11","","","","-14","","Snow"
"1992-01-20 23:00","1992","01","20","23:00","-7.7","","-10.2","","82","","21","","15","","19.3","","99.01","","","","-14","","Snow"
"1992-01-21 00:00","1992","01","21","00:00","-7.2","","-10.0","","80","","22","","9","","25.0","","98.94","","","","-12","","Cloudy"
"1992-01-21 01:00","1992","01","21","01:00","-7.0","","-10.4","","77","","22","","17","","25.0","","98.81","","","","-13","","Cloudy"
"1992-01-21 02:00","1992","01","21","02:00","-6.5","","-10.1","","75","","24","","15","","25.0","","98.77","","","","-12","","Cloudy"
"1992-01-21 03:00","1992","01","21","03:00","-6.2","","-9.5","","77","","24","","19","","25.0","","98.74","","","","-13","","Cloudy"
"1992-01-21 04:00","1992","01","21","04:00","-6.2","","-8.8","","82","","23","","15","","24.1","","98.71","","","","-12","","Cloudy"
"1992-01-21 05:00","1992","01","21","05:00","-5.8","","-8.4","","82","","26","","6","","16.1","","98.74","","","","-9","","Cloudy"
"1992-01-21 06:00","1992","01","21","06:00","-5.5","","-7.8","","84","","25","","11","","16.1","","98.74","","","","-10","","Mostly Cloudy"
"1992-01-21 07:00","1992","01","21","07:00","-5.0","","-7.2","","84","","25","","26","","16.1","","98.81","","","","-12","","Cloudy"
"1992-01-21 08:00","1992","01","21","08:00","-4.1","","-6.3","","85","","24","","24","","11.3","","98.84","","","","-11","","Snow"
"1992-01-21 09:00","1992","01","21","09:00","-3.8","","-6.0","","84","","23","","26","","9.7","","98.94","","","","-11","","Snow Pellets"
"1992-01-21 10:00","1992","01","21","10:00","-3.5","","-4.8","","91","","24","","22","","4.0","","99.07","","","","-10","","Snow"
"1992-01-21 11:00","1992","01","21","11:00","-3.0","","-4.8","","87","","24","","20","","4.8","","99.14","","","","-9","","Snow"
"1992-01-21 12:00","1992","01","21","12:00","-2.5","","-4.2","","88","","25","","19","","8.0","","99.17","","","","-8","","Snow"
"1992-01-21 13:00","1992","01","21","13:00","-1.8","","-4.2","","83","","30","","22","","16.1","","99.24","","","","-8","","Snow"
"1992-01-21 14:00","1992","01","21","14:00","-1.5","","-5.4","","75","","29","","20","","19.3","","99.27","","","","-7","","Cloudy"
"1992-01-21 15:00","1992","01","21","15:00","-1.8","","-5.7","","74","","33","","11","","19.3","","99.41","","","","-6","","Cloudy"
"1992-01-21 16:00","1992","01","21","16:00","-2.1","","-5.7","","76","","29","","17","","19.3","","99.47","","","","-7","","Cloudy"
"1992-01-21 17:00","1992","01","21","17:00","-2.8","","-7.0","","73","","29","","19","","19.3","","99.57","","","","-9","","Mostly Cloudy"
"1992-01-21 18:00","1992","01","21","18:00","-3.4","","-6.3","","80","","33","","11","","19.3","","99.67","","","","-8","","Mostly Cloudy"
"1992-01-21 19:00","1992","01","21","19:00","-4.2","","-6.0","","87","","35","","11","","25.0","","99.77","","","","-9","","Mostly Cloudy"
"1992-01-21 20:00","1992","01","21","20:00","-5.0","","-6.9","","87","","33","","11","","25.0","","99.87","","","","-10","","Mostly Cloudy"
"1992-01-21 21:00","1992","01","21","21:00","-5.2","","-7.9","","81","","34","","15","","25.0","","99.94","","","","-11","","Mostly Cloudy"
"1992-01-21 22:00","1992","01","21","22:00","-5.8","","-8.8","","79","","36","","13","","25.0","","100.01","","","","-11","","Cloudy"
"1992-01-21 23:00","1992","01","21","23:00","-6.0","","-8.8","","81","","32","","7","","24.1","","100.04","","","","-9","","Mostly Cloudy"
"1992-01-22 00:00","1992","01","22","00:00","-6.0","","-9.1","","79","","34","","9","","25.0","","100.07","","","","-10","","Mostly Cloudy"
"1992-01-22 01:00","1992","01","22","01:00","-6.3","","-9.4","","78","","36","","6","","25.0","","100.11","","","","-9","","Mostly Cloudy"
"1992-01-22 02:00","1992","01","22","02:00","-7.5","","-9.9","","83","","2","","7","","25.0","","100.11","","","","-11","","Mainly Clear"
"1992-01-22 03:00","1992","01","22","03:00","-9.3","","-12.3","","79","","3","","9","","25.0","","100.21","","","","-14","","Mainly Clear"
"1992-01-22 04:00","1992","01","22","04:00","-10.5","","-12.6","","84","","","","0","","25.0","","100.21","","","","","","Clear"
"1992-01-22 05:00","1992","01","22","05:00","-12.0","","-14.3","","83","","2","","7","","25.0","","100.21","","","","-16","","Clear"
"1992-01-22 06:00","1992","01","22","06:00","-13.7","","-15.1","","89","","35","","4","","25.0","","100.24","","","","-16","","Mainly Clear"
"1992-01-22 07:00","1992","01","22","07:00","-12.3","","-14.5","","83","","33","","7","","19.3","","100.27","","","","-17","","Cloudy"
"1992-01-22 08:00","1992","01","22","08:00","-10.3","","-12.6","","83","","3","","9","","19.3","","100.27","","","","-15","","Cloudy"
"1992-01-22 09:00","1992","01","22","09:00","-8.0","","-10.1","","85","","7","","15","","19.3","","100.27","","","","-14","","Cloudy"
"1992-01-22 10:00","1992","01","22","10:00","-6.7","","-8.3","","89","","6","","9","","24.1","","100.24","","","","-11","","Mostly Cloudy"
"1992-01-22 11:00","1992","01","22","11:00","-3.4","","-6.3","","80","","12","","30","","24.1","","100.24","","","","-11","","Mostly Cloudy"
"1992-01-22 12:00","1992","01","22","12:00","-3.5","","-6.7","","78","","11","","30","","24.1","","100.11","","","","-11","","Mostly Cloudy"
"1992-01-22 13:00","1992","01","22","13:00","-3.4","","-6.3","","80","","11","","28","","24.1","","99.97","","","","-11","","Mostly Cloudy"
"1992-01-22 14:00","1992","01","22","14:00","-2.6","","-5.4","","81","","10","","30","","24.1","","99.81","","","","-10","","Cloudy"
"1992-01-22 15:00","1992","01","22","15:00","-2.0","","-5.1","","79","","10","","30","","24.1","","99.74","","","","-9","","Mostly Cloudy"
"1992-01-22 16:00","1992","01","22","16:00","-1.7","","-4.5","","81","","11","","30","","24.1","","99.71","","","","-9","","Mostly Cloudy"
"1992-01-22 17:00","1992","01","22","17:00","-1.4","","-4.5","","79","","11","","26","","24.1","","99.64","","","","-8","","Cloudy"
"1992-01-22 18:00","1992","01","22","18:00","-0.9","","-4.4","","77","","10","","22","","24.1","","99.57","","","","-7","","Cloudy"
"1992-01-22 19:00","1992","01","22","19:00","-0.5","","-3.8","","78","","11","","22","","19.3","","99.51","","","","-6","","Cloudy"
"1992-01-22 20:00","1992","01","22","20:00","0.2","","-2.9","","80","","9","","20","","24.1","","99.34","","","","","","Cloudy"
"1992-01-22 21:00","1992","01","22","21:00","0.0","","-2.0","","86","","10","","15","","24.1","","99.24","","","","-4","","Cloudy"
"1992-01-22 22:00","1992","01","22","22:00","0.9","","-2.4","","79","","9","","19","","24.1","","99.11","","","","","","Cloudy"
"1992-01-22 23:00","1992","01","22","23:00","0.7","","-2.0","","82","","10","","11","","24.1","","99.04","","","","","","Cloudy"
"1992-01-23 00:00","1992","01","23","00:00","0.9","","-1.5","","84","","11","","11","","24.1","","98.94","","","","","","Cloudy"
"1992-01-23 01:00","1992","01","23","01:00","1.6","","-2.1","","76","","13","","15","","24.1","","98.81","","","","","","Mostly Cloudy"
"1992-01-23 02:00","1992","01","23","02:00","2.0","","-1.5","","78","","14","","17","","19.3","","98.71","","","","","","Mostly Cloudy"
"1992-01-23 03:00","1992","01","23","03:00","2.1","","-1.5","","77","","15","","15","","19.3","","98.61","","","","","","Cloudy"
"1992-01-23 04:00","1992","01","23","04:00","2.4","","-0.9","","79","","16","","15","","12.9","","98.51","","","","","","Rain"
"1992-01-23 05:00","1992","01","23","05:00","2.2","","-0.4","","83","","16","","11","","16.1","","98.41","","","","","","Rain"
"1992-01-23 06:00","1992","01","23","06:00","2.0","","-0.4","","84","","15","","15","","16.1","","98.34","","","","","","Rain"
"1992-01-23 07:00","1992","01","23","07:00","2.1","","-0.4","","83","","14","","15","","19.3","","98.24","","","","","","Rain,Snow"
"1992-01-23 08:00","1992","01","23","08:00","3.0","","0.2","","82","","15","","17","","8.0","","98.14","","","","","","Haze"
"1992-01-23 09:00","1992","01","23","09:00","3.5","","1.2","","85","","17","","19","","4.0","","98.07","","","","","","Rain,Drizzle,Fog"
"1992-01-23 10:00","1992","01","23","10:00","3.2","","1.6","","89","","17","","17","","4.8","","97.97","","","","","","Rain,Drizzle,Fog"
"1992-01-23 11:00","1992","01","23","11:00","3.4","","1.7","","89","","17","","15","","4.8","","97.81","","","","","","Fog"
"1992-01-23 12:00","1992","01","23","12:00","3.1","","1.1","","87","","16","","15","","6.4","","97.61","","","","","","Fog"
"1992-01-23 13:00","1992","01","23","13:00","2.8","","2.6","","99","","16","","15","","2.4","","97.34","","","","","","Rain,Fog"
"1992-01-23 14:00","1992","01","23","14:00","3.1","","2.6","","97","","17","","11","","2.0","","97.14","","","","","","Rain,Fog"
"1992-01-23 15:00","1992","01","23","15:00","3.1","","3.1","","100","","16","","4","","2.0","","97.01","","","","","","Rain,Fog"
"1992-01-23 16:00","1992","01","23","16:00","3.2","","2.6","","96","","17","","4","","2.0","","96.84","","","","","","Rain,Fog"
"1992-01-23 17:00","1992","01","23","17:00","3.3","","3.3","","100","","17","","4","","0.4","","96.74","","","","","","Rain,Fog"
"1992-01-23 18:00","1992","01","23","18:00","3.3","","3.1","","99","","18","","6","","1.6","","96.64","","","","","","Rain,Fog"
"1992-01-23 19:00","1992","01","23","19:00","3.0","","3.0","","100","","20","","6","","3.6","","96.64","","","","","","Fog"
"1992-01-23 20:00","1992","01","23","20:00","2.7","","1.6","","92","","26","","9","","12.9","","96.64","","","","","","Rain"
"1992-01-23 21:00","1992","01","23","21:00","2.7","","0.6","","86","","26","","26","","19.3","","96.64","","","","","","Rain"
"1992-01-23 22:00","1992","01","23","22:00","2.0","","-0.4","","84","","25","","20","","24.1","","96.71","","","","","","Cloudy"
"1992-01-23 23:00","1992","01","23","23:00","1.8","","-1.0","","82","","26","","20","","24.1","","96.74","","","","","","Cloudy"
"1992-01-24 00:00","1992","01","24","00:00","1.6","","-1.0","","83","","24","","19","","8.0","","96.74","","","","","","Snow"
"1992-01-24 01:00","1992","01","24","01:00","0.7","","0.0","","95","","23","","19","","2.4","","96.74","","","","","","Snow"
"1992-01-24 02:00","1992","01","24","02:00","0.4","","-0.5","","94","","25","","30","","19.3","","96.74","","","","","","Snow"
"1992-01-24 03:00","1992","01","24","03:00","-0.7","","-1.8","","93","","24","","33","","6.4","","96.81","","","","-8","","Snow"
"1992-01-24 04:00","1992","01","24","04:00","-2.0","","-4.5","","83","","26","","31","","8.0","","96.81","","","","-9","","Snow"
"1992-01-24 05:00","1992","01","24","05:00","-2.9","","-5.7","","81","","24","","26","","6.4","","96.81","","","","-10","","Snow"
"1992-01-24 06:00","1992","01","24","06:00","-3.2","","-4.2","","93","","25","","31","","9.7","","96.81","","","","-11","","Snow"
"1992-01-24 07:00","1992","01","24","07:00","-2.5","","-4.8","","84","","27","","35","","24.1","","96.88","","","","-10","","Snow"
"1992-01-24 08:00","1992","01","24","08:00","-3.2","","-6.0","","81","","27","","33","","32.2","","97.01","","","","-11","","Cloudy"
"1992-01-24 09:00","1992","01","24","09:00","-4.2","","-6.3","","86","","32","","33","","2.8","","97.21","","","","-12","","Snow Showers"
"1992-01-24 10:00","1992","01","24","10:00","-6.5","","-10.9","","71","","34","","37","","19.3","","97.44","","","","-16","","Cloudy"
"1992-01-24 11:00","1992","01","24","11:00","-7.6","","-11.8","","72","","31","","33","","24.1","","97.71","","","","-17","","Cloudy"
"1992-01-24 12:00","1992","01","24","12:00","-8.2","","-13.9","","64","","32","","41","","32.2","","97.84","","","","-18","","Cloudy"
"1992-01-24 13:00","1992","01","24","13:00","-8.5","","-13.6","","66","","31","","44","","24.1","","97.97","","","","-19","","Mostly Cloudy"
"1992-01-24 14:00","1992","01","24","14:00","-8.5","","-13.2","","69","","32","","37","","24.1","","98.14","","","","-18","","Snow Showers"
"1992-01-24 15:00","1992","01","24","15:00","-8.9","","-14.8","","62","","30","","41","","32.2","","98.37","","","","-19","","Mainly Clear"
"1992-01-24 16:00","1992","01","24","16:00","-9.1","","-13.8","","69","","31","","44","","32.2","","98.54","","","","-20","","Mainly Clear"
"1992-01-24 17:00","1992","01","24","17:00","-9.7","","-13.6","","73","","31","","37","","24.1","","98.74","","","","-20","","Mainly Clear"
"1992-01-24 18:00","1992","01","24","18:00","-11.0","","-16.1","","66","","31","","37","","25.0","","98.97","","","","-22","","Clear"
"1992-01-24 19:00","1992","01","24","19:00","-12.0","","-15.8","","73","","31","","28","","25.0","","99.14","","","","-22","","Clear"
"1992-01-24 20:00","1992","01","24","20:00","-12.3","","-16.4","","71","","31","","26","","25.0","","99.24","","","","-22","","Clear"
"1992-01-24 21:00","1992","01","24","21:00","-12.4","","-15.9","","75","","30","","20","","25.0","","99.34","","","","-21","","Clear"
"1992-01-24 22:00","1992","01","24","22:00","-12.8","","-16.5","","74","","29","","22","","25.0","","99.47","","","","-22","","Clear"
"1992-01-24 23:00","1992","01","24","23:00","-12.9","","-16.5","","74","","29","","19","","25.0","","99.51","","","","-21","","Clear"
"1992-01-25 00:00","1992","01","25","00:00","-12.7","","-15.9","","77","","30","","19","","25.0","","99.64","","","","-21","","Mostly Cloudy"
"1992-01-25 01:00","1992","01","25","01:00","-13.8","","-17.2","","75","","1","","15","","25.0","","99.77","","","","-21","","Mostly Cloudy"
"1992-01-25 02:00","1992","01","25","02:00","-16.7","","-19.0","","82","","1","","17","","25.0","","99.87","","","","-26","","Mainly Clear"
"1992-01-25 03:00","1992","01","25","03:00","-17.7","","-20.1","","82","","1","","15","","25.0","","99.97","","","","-26","","Clear"
"1992-01-25 04:00","1992","01","25","04:00","-18.8","","-21.9","","76","","1","","19","","25.0","","100.04","","","","-29","","Clear"
"1992-01-25 05:00","1992","01","25","05:00","-19.2","","-21.1","","85","","1","","17","","25.0","","100.07","","","","-29","","Clear"
"1992-01-25 06:00","1992","01","25","06:00","-20.2","","-22.2","","84","","36","","13","","25.0","","100.11","","","","-29","","Mainly Clear"
"1992-01-25 07:00","1992","01","25","07:00","-20.5","","-22.8","","82","","36","","7","","25.0","","100.17","","","","-26","","Mainly Clear"
"1992-01-25 08:00","1992","01","25","08:00","-20.8","","-23.3","","80","","35","","7","","24.1","","100.21","","","","-27","","Mostly Cloudy"
"1992-01-25 09:00","1992","01","25","09:00","-20.5","","-22.8","","82","","1","","4","","24.1","","100.24","","","","-24","","Mostly Cloudy"
"1992-01-25 10:00","1992","01","25","10:00","-19.8","","-22.2","","81","","","","0","","24.1","","100.27","","","","","","Cloudy"
"1992-01-25 11:00","1992","01","25","11:00","-17.5","","-20.8","","76","","","","0","","19.3","","100.27","","","","","","Cloudy"
"1992-01-25 12:00","1992","01","25","12:00","-15.2","","-19.0","","73","","","","0","","16.1","","100.17","","","","","","Cloudy"
"1992-01-25 13:00","1992","01","25","13:00","-13.8","","-17.8","","72","","","","0","","16.1","","100.07","","","","","","Cloudy"
"1992-01-25 14:00","1992","01","25","14:00","-12.9","","-17.6","","68","","","","0","","12.9","","99.97","","","","","","Cloudy"
"1992-01-25 15:00","1992","01","25","15:00","-11.6","","-16.2","","69","","3","","7","","12.9","","99.94","","","","-16","","Cloudy"
"1992-01-25 16:00","1992","01","25","16:00","-11.5","","-15.2","","74","","7","","7","","19.3","","99.91","","","","-16","","Cloudy"
"1992-01-25 17:00","1992","01","25","17:00","-11.8","","-16.9","","66","","11","","4","","19.3","","99.91","","","","-14","","Cloudy"
"1992-01-25 18:00","1992","01","25","18:00","-11.9","","-16.3","","70","","","","0","","19.3","","99.94","","","","","","Cloudy"
"1992-01-25 19:00","1992","01","25","19:00","-11.8","","-17.4","","63","","3","","7","","19.3","","100.01","","","","-16","","Cloudy"
"1992-01-25 20:00","1992","01","25","20:00","-11.7","","-15.7","","72","","2","","7","","19.3","","100.07","","","","-16","","Cloudy"
"1992-01-25 21:00","1992","01","25","21:00","-11.9","","-16.3","","70","","","","0","","19.3","","100.07","","","","","","Cloudy"
"1992-01-25 22:00","1992","01","25","22:00","-11.7","","-16.7","","66","","","","0","","19.3","","100.07","","","","","","Cloudy"
"1992-01-25 23:00","1992","01","25","23:00","-11.8","","-15.8","","72","","","","0","","19.3","","100.07","","","","","","Snow Showers"
"1992-01-26 00:00","1992","01","26","00:00","-12.2","","-14.8","","81","","","","0","","19.3","","100.07","","","","","","Snow"
"1992-01-26 01:00","1992","01","26","01:00","-12.6","","-14.0","","89","","","","0","","16.1","","100.07","","","","","","Snow"
"1992-01-26 02:00","1992","01","26","02:00","-12.8","","-15.5","","80","","","","0","","19.3","","100.11","","","","","","Mostly Cloudy"
"1992-01-26 03:00","1992","01","26","03:00","-12.6","","-14.9","","83","","26","","7","","19.3","","100.17","","","","-17","","Mostly Cloudy"
"1992-01-26 04:00","1992","01","26","04:00","-12.1","","-14.3","","84","","","","0","","19.3","","100.17","","","","","","Mostly Cloudy"
"1992-01-26 05:00","1992","01","26","05:00","-12.7","","-14.5","","86","","","","0","","19.3","","100.21","","","","","","Mainly Clear"
"1992-01-26 06:00","1992","01","26","06:00","-12.7","","-14.5","","86","","30","","7","","24.1","","100.27","","","","-17","","Clear"
"1992-01-26 07:00","1992","01","26","07:00","-12.1","","-14.3","","84","","27","","11","","24.1","","100.37","","","","-18","","Clear"
"1992-01-26 08:00","1992","01","26","08:00","-11.7","","-13.8","","85","","26","","17","","24.1","","100.47","","","","-19","","Clear"
"1992-01-26 09:00","1992","01","26","09:00","-10.7","","-12.6","","86","","28","","11","","19.3","","100.61","","","","-16","","Clear"
"1992-01-26 10:00","1992","01","26","10:00","-8.7","","-11.1","","83","","34","","15","","19.3","","100.71","","","","-15","","Clear"
"1992-01-26 11:00","1992","01","26","11:00","-8.1","","-11.2","","78","","33","","11","","24.1","","100.77","","","","-13","","Mainly Clear"
"1992-01-26 12:00","1992","01","26","12:00","-7.5","","-11.0","","76","","36","","11","","24.1","","100.77","","","","-13","","Mainly Clear"
"1992-01-26 13:00","1992","01","26","13:00","-7.0","","-12.0","","67","","36","","17","","24.1","","100.74","","","","-13","","Mainly Clear"
"1992-01-26 14:00","1992","01","26","14:00","-7.1","","-11.2","","72","","36","","9","","24.1","","100.71","","","","-11","","Mainly Clear"
"1992-01-26 15:00","1992","01","26","15:00","-7.1","","-11.6","","70","","34","","4","","24.1","","100.81","","","","-9","","Mainly Clear"
"1992-01-26 16:00","1992","01","26","16:00","-7.4","","-10.6","","78","","36","","4","","24.1","","100.81","","","","-9","","Mainly Clear"
"1992-01-26 17:00","1992","01","26","17:00","-8.0","","-12.1","","72","","34","","4","","24.1","","100.87","","","","-10","","Mostly Cloudy"
"1992-01-26 18:00","1992","01","26","18:00","-8.2","","-11.6","","76","","","","0","","24.1","","100.97","","","","","","Mostly Cloudy"
"1992-01-26 19:00","1992","01","26","19:00","-8.7","","-11.5","","80","","","","0","","19.3","","100.97","","","","","","Mostly Cloudy"
"1992-01-26 20:00","1992","01","26","20:00","-8.7","","-12.3","","75","","","","0","","19.3","","100.97","","","","","","Mostly Cloudy"
"1992-01-26 21:00","1992","01","26","21:00","-9.0","","-12.1","","78","","","","0","","9.7","","100.97","","","","","","Snow Showers"
"1992-01-26 22:00","1992","01","26","22:00","-9.5","","-11.8","","83","","","","0","","19.3","","100.97","","","","","","Mainly Clear"
"1992-01-26 23:00","1992","01","26","23:00","-9.1","","-11.3","","84","","","","0","","12.9","","100.97","","","","","","Mostly Cloudy"
"1992-01-27 00:00","1992","01","27","00:00","-9.0","","-11.3","","83","","","","0","","16.1","","100.97","","","","","","Snow Showers"
"1992-01-27 01:00","1992","01","27","01:00","-10.0","","-11.6","","88","","","","0","","12.9","","100.91","","","","","","Mainly Clear"
"1992-01-27 02:00","1992","01","27","02:00","-9.4","","-11.1","","87","","","","0","","12.9","","100.84","","","","","","Snow Showers"
"1992-01-27 03:00","1992","01","27","03:00","-7.4","","-9.1","","87","","","","0","","4.0","","100.77","","","","","","Snow Showers"
"1992-01-27 04:00","1992","01","27","04:00","-7.0","","-8.2","","91","","","","0","","8.0","","100.77","","","","","","Snow"
"1992-01-27 05:00","1992","01","27","05:00","-6.3","","-8.0","","88","","9","","6","","12.9","","100.67","","","","-9","","Snow"
"1992-01-27 06:00","1992","01","27","06:00","-6.2","","-7.1","","93","","8","","4","","16.1","","100.61","","","","-8","","Cloudy"
"1992-01-27 07:00","1992","01","27","07:00","-6.1","","-7.4","","91","","11","","6","","16.1","","100.57","","","","-9","","Mostly Cloudy"
"1992-01-27 08:00","1992","01","27","08:00","-5.0","","-6.9","","87","","10","","7","","12.9","","100.57","","","","-8","","Cloudy"
"1992-01-27 09:00","1992","01","27","09:00","-3.7","","-5.7","","86","","","","0","","12.9","","100.54","","","","","","Cloudy"
"1992-01-27 10:00","1992","01","27","10:00","-2.5","","-5.1","","82","","17","","11","","16.1","","100.51","","","","-7","","Mostly Cloudy"
"1992-01-27 11:00","1992","01","27","11:00","-2.2","","-4.8","","83","","16","","19","","16.1","","100.47","","","","-8","","Cloudy"
"1992-01-27 12:00","1992","01","27","12:00","-1.8","","-5.7","","74","","17","","13","","24.1","","100.37","","","","-6","","Mostly Cloudy"
"1992-01-27 13:00","1992","01","27","13:00","-1.5","","-6.0","","71","","16","","11","","24.1","","100.31","","","","-5","","Cloudy"
"1992-01-27 14:00","1992","01","27","14:00","-1.4","","-5.7","","72","","15","","11","","24.1","","100.21","","","","-5","","Cloudy"
"1992-01-27 15:00","1992","01","27","15:00","-1.2","","-5.7","","71","","15","","11","","24.1","","100.21","","","","-5","","Cloudy"
"1992-01-27 16:00","1992","01","27","16:00","-1.4","","-5.7","","72","","14","","15","","24.1","","100.21","","","","-6","","Cloudy"
"1992-01-27 17:00","1992","01","27","17:00","-1.5","","-5.1","","76","","11","","13","","24.1","","100.21","","","","-6","","Cloudy"
"1992-01-27 18:00","1992","01","27","18:00","-1.4","","-5.4","","74","","12","","11","","19.3","","100.27","","","","-5","","Cloudy"
"1992-01-27 19:00","1992","01","27","19:00","-1.3","","-5.4","","73","","12","","11","","19.3","","100.31","","","","-5","","Cloudy"
"1992-01-27 20:00","1992","01","27","20:00","-1.1","","-5.4","","73","","11","","11","","19.3","","100.41","","","","-5","","Cloudy"
"1992-01-27 21:00","1992","01","27","21:00","-1.2","","-4.4","","79","","11","","7","","19.3","","100.44","","","","-4","","Cloudy"
"1992-01-27 22:00","1992","01","27","22:00","-2.0","","-3.6","","89","","6","","11","","9.7","","100.41","","","","-6","","Snow"
"1992-01-27 23:00","1992","01","27","23:00","-2.3","","-3.7","","90","","5","","15","","9.7","","100.51","","","","-7","","Snow,Fog"
"1992-01-28 00:00","1992","01","28","00:00","-2.6","","-3.9","","91","","4","","15","","11.3","","100.54","","","","-8","","Snow"
"1992-01-28 01:00","1992","01","28","01:00","-2.9","","-4.5","","89","","4","","11","","11.3","","100.57","","","","-7","","Cloudy"
"1992-01-28 02:00","1992","01","28","02:00","-3.0","","-4.8","","87","","8","","9","","12.9","","100.61","","","","-7","","Cloudy"
"1992-01-28 03:00","1992","01","28","03:00","-2.9","","-4.8","","87","","5","","9","","12.9","","100.67","","","","-6","","Snow"
"1992-01-28 04:00","1992","01","28","04:00","-3.2","","-4.8","","89","","10","","9","","12.9","","100.67","","","","-7","","Snow"
"1992-01-28 05:00","1992","01","28","05:00","-3.4","","-5.1","","88","","4","","7","","12.9","","100.71","","","","-6","","Cloudy"
"1992-01-28 06:00","1992","01","28","06:00","-3.7","","-5.1","","90","","4","","7","","12.9","","100.74","","","","-7","","Cloudy"
"1992-01-28 07:00","1992","01","28","07:00","-4.0","","-6.0","","86","","4","","7","","12.9","","100.77","","","","-7","","Cloudy"
"1992-01-28 08:00","1992","01","28","08:00","-4.3","","-6.9","","82","","3","","7","","12.9","","100.81","","","","-7","","Mostly Cloudy"
"1992-01-28 09:00","1992","01","28","09:00","-3.4","","-5.7","","84","","","","0","","12.9","","100.81","","","","","","Mostly Cloudy"
"1992-01-28 10:00","1992","01","28","10:00","-3.1","","-5.7","","82","","","","0","","24.1","","100.84","","","","","","Mainly Clear"
"1992-01-28 11:00","1992","01","28","11:00","-2.4","","-5.7","","78","","","","0","","24.1","","100.87","","","","","","Mainly Clear"
"1992-01-28 12:00","1992","01","28","12:00","-1.4","","-6.4","","69","","","","0","","24.1","","100.77","","","","","","Mainly Clear"
"1992-01-28 13:00","1992","01","28","13:00","-0.5","","-4.7","","73","","","","0","","19.3","","100.71","","","","","","Mainly Clear"
"1992-01-28 14:00","1992","01","28","14:00","-0.4","","-4.9","","72","","","","0","","19.3","","100.61","","","","","","Mainly Clear"
"1992-01-28 15:00","1992","01","28","15:00","-0.5","","-5.0","","71","","","","0","","16.1","","100.61","","","","","","Mainly Clear"
"1992-01-28 16:00","1992","01","28","16:00","0.1","","-5.1","","68","","","","0","","12.9","","100.61","","","","","","Mainly Clear"
"1992-01-28 17:00","1992","01","28","17:00","-1.0","","-4.1","","79","","16","","7","","12.9","","100.61","","","","-4","","Mostly Cloudy"
"1992-01-28 18:00","1992","01","28","18:00","-1.7","","-3.9","","85","","17","","7","","11.3","","100.61","","","","-4","","Mostly Cloudy"
"1992-01-28 19:00","1992","01","28","19:00","-2.0","","-3.9","","87","","16","","7","","11.3","","100.61","","","","-5","","Mainly Clear"
"1992-01-28 20:00","1992","01","28","20:00","-2.0","","-3.6","","89","","17","","7","","11.3","","100.61","","","","-5","","Mostly Cloudy"
"1992-01-28 21:00","1992","01","28","21:00","-1.4","","-3.3","","87","","19","","9","","11.3","","100.51","","","","-5","","Cloudy"
"1992-01-28 22:00","1992","01","28","22:00","-1.4","","-3.3","","87","","22","","15","","12.9","","100.47","","","","-6","","Cloudy"
"1992-01-28 23:00","1992","01","28","23:00","-1.3","","-3.6","","84","","23","","15","","12.9","","100.37","","","","-6","","Cloudy"
"1992-01-29 00:00","1992","01","29","00:00","-1.1","","-3.3","","85","","24","","13","","11.3","","100.41","","","","-5","","Cloudy"
"1992-01-29 01:00","1992","01","29","01:00","-1.0","","-3.3","","84","","24","","13","","11.3","","100.34","","","","-5","","Cloudy"
"1992-01-29 02:00","1992","01","29","02:00","-0.8","","-3.3","","83","","24","","15","","12.9","","100.27","","","","-5","","Cloudy"
"1992-01-29 03:00","1992","01","29","03:00","-1.0","","-3.6","","82","","25","","22","","12.9","","100.27","","","","-7","","Cloudy"
"1992-01-29 04:00","1992","01","29","04:00","-1.1","","-3.6","","83","","25","","19","","12.9","","100.24","","","","-6","","Cloudy"
"1992-01-29 05:00","1992","01","29","05:00","-1.5","","-3.6","","85","","25","","17","","12.9","","100.21","","","","-7","","Cloudy"
"1992-01-29 06:00","1992","01","29","06:00","-1.2","","-3.3","","86","","25","","17","","12.9","","100.21","","","","-6","","Cloudy"
"1992-01-29 07:00","1992","01","29","07:00","-1.1","","-3.3","","85","","25","","17","","12.9","","100.21","","","","-6","","Cloudy"
"1992-01-29 08:00","1992","01","29","08:00","-1.0","","-3.3","","84","","25","","15","","12.9","","100.21","","","","-6","","Cloudy"
"1992-01-29 09:00","1992","01","29","09:00","-1.0","","-3.3","","84","","26","","19","","12.9","","100.21","","","","-6","","Cloudy"
"1992-01-29 10:00","1992","01","29","10:00","-0.9","","-3.0","","86","","25","","26","","9.7","","100.17","","","","-7","","Haze"
"1992-01-29 11:00","1992","01","29","11:00","-0.8","","-3.0","","85","","26","","19","","9.7","","100.21","","","","-6","","Haze"
"1992-01-29 12:00","1992","01","29","12:00","-0.3","","-3.2","","80","","25","","15","","8.0","","100.14","","","","-5","","Haze"
"1992-01-29 13:00","1992","01","29","13:00","0.0","","-3.2","","79","","25","","15","","9.7","","100.07","","","","-4","","Haze"
"1992-01-29 14:00","1992","01","29","14:00","0.5","","-2.5","","80","","26","","15","","9.7","","100.04","","","","","","Haze"
"1992-01-29 15:00","1992","01","29","15:00","0.6","","-2.5","","80","","27","","15","","9.7","","100.01","","","","","","Haze"
"1992-01-29 16:00","1992","01","29","16:00","0.2","","-2.9","","80","","26","","11","","9.7","","99.97","","","","","","Haze"
"1992-01-29 17:00","1992","01","29","17:00","-0.3","","-2.7","","83","","26","","19","","8.0","","100.01","","","","-5","","Haze"
"1992-01-29 18:00","1992","01","29","18:00","-0.6","","-2.9","","85","","24","","15","","6.4","","100.01","","","","-5","","Haze"
"1992-01-29 19:00","1992","01","29","19:00","-0.8","","-3.6","","81","","24","","19","","6.4","","99.97","","","","-6","","Haze"
"1992-01-29 20:00","1992","01","29","20:00","-1.1","","-3.3","","85","","23","","19","","6.4","","99.94","","","","-6","","Fog"
"1992-01-29 21:00","1992","01","29","21:00","-1.5","","-3.3","","88","","24","","15","","6.4","","99.87","","","","-6","","Fog"
"1992-01-29 22:00","1992","01","29","22:00","-1.5","","-3.3","","88","","22","","17","","6.4","","99.77","","","","-7","","Fog"
"1992-01-29 23:00","1992","01","29","23:00","-1.5","","-3.6","","85","","23","","17","","6.4","","99.67","","","","-7","","Fog"
"1992-01-30 00:00","1992","01","30","00:00","-1.5","","-3.0","","89","","23","","15","","6.4","","99.61","","","","-6","","Fog"
"1992-01-30 01:00","1992","01","30","01:00","-1.5","","-3.0","","89","","22","","20","","6.4","","99.51","","","","-7","","Fog"
"1992-01-30 02:00","1992","01","30","02:00","-1.5","","-3.0","","89","","22","","20","","6.4","","99.44","","","","-7","","Fog"
"1992-01-30 03:00","1992","01","30","03:00","-1.4","","-3.0","","89","","22","","28","","6.4","","99.34","","","","-8","","Fog"
"1992-01-30 04:00","1992","01","30","04:00","-1.2","","-2.7","","89","","22","","22","","6.4","","99.24","","","","-7","","Fog"
"1992-01-30 05:00","1992","01","30","05:00","-1.0","","-2.4","","90","","23","","22","","6.4","","99.17","","","","-7","","Fog"
"1992-01-30 06:00","1992","01","30","06:00","-1.0","","-3.0","","86","","24","","26","","6.4","","99.11","","","","-7","","Fog"
"1992-01-30 07:00","1992","01","30","07:00","-1.1","","-2.7","","89","","23","","22","","6.4","","99.01","","","","-7","","Fog"
"1992-01-30 08:00","1992","01","30","08:00","-0.9","","-2.7","","87","","24","","19","","4.8","","99.01","","","","-6","","Fog"
"1992-01-30 09:00","1992","01","30","09:00","-0.7","","-2.1","","90","","24","","17","","4.0","","99.01","","","","-6","","Fog"
"1992-01-30 10:00","1992","01","30","10:00","-0.5","","-1.8","","91","","23","","15","","3.6","","98.94","","","","-5","","Fog"
"1992-01-30 11:00","1992","01","30","11:00","-0.3","","-1.6","","91","","23","","13","","4.0","","98.87","","","","-4","","Fog"
"1992-01-30 12:00","1992","01","30","12:00","0.0","","-1.5","","90","","24","","15","","4.8","","98.81","","","","-4","","Fog"
"1992-01-30 13:00","1992","01","30","13:00","0.2","","-1.5","","88","","24","","17","","6.4","","98.71","","","","","","Fog"
"1992-01-30 14:00","1992","01","30","14:00","0.7","","-2.0","","82","","23","","15","","6.4","","98.61","","","","","","Haze"
"1992-01-30 15:00","1992","01","30","15:00","0.7","","-1.4","","86","","25","","11","","4.8","","98.61","","","","","","Drizzle,Fog"
"1992-01-30 16:00","1992","01","30","16:00","0.7","","-0.9","","89","","23","","15","","3.6","","98.57","","","","","","Drizzle,Fog"
"1992-01-30 17:00","1992","01","30","17:00","0.8","","-0.5","","91","","22","","7","","3.6","","98.57","","","","","","Fog"
"1992-01-30 18:00","1992","01","30","18:00","1.1","","-0.5","","89","","23","","7","","4.0","","98.61","","","","","","Fog"
"1992-01-30 19:00","1992","01","30","19:00","1.2","","-0.5","","88","","22","","11","","4.0","","98.64","","","","","","Fog"
"1992-01-30 20:00","1992","01","30","20:00","0.9","","0.0","","94","","20","","7","","2.8","","98.64","","","","","","Drizzle,Fog"
"1992-01-30 21:00","1992","01","30","21:00","0.8","","0.5","","98","","22","","11","","2.4","","98.61","","","","","","Drizzle,Fog"
"1992-01-30 22:00","1992","01","30","22:00","0.9","","0.0","","94","","23","","17","","4.0","","98.57","","","","","","Fog"
"1992-01-30 23:00","1992","01","30","23:00","0.9","","0.0","","94","","24","","17","","4.0","","98.54","","","","","","Fog"
"1992-01-31 00:00","1992","01","31","00:00","1.0","","0.0","","93","","25","","19","","4.0","","98.51","","","","","","Fog"
"1992-01-31 01:00","1992","01","31","01:00","1.0","","0.5","","96","","26","","7","","4.0","","98.47","","","","","","Fog"
"1992-01-31 02:00","1992","01","31","02:00","1.4","","0.0","","90","","29","","11","","8.0","","98.47","","","","","","Fog"
"1992-01-31 03:00","1992","01","31","03:00","1.1","","-0.5","","89","","34","","4","","19.3","","98.44","","","","","","Cloudy"
"1992-01-31 04:00","1992","01","31","04:00","0.8","","0.0","","95","","33","","7","","9.7","","98.44","","","","","","Drizzle,Fog"
"1992-01-31 05:00","1992","01","31","05:00","0.8","","0.0","","95","","34","","22","","19.3","","98.47","","","","","","Cloudy"
"1992-01-31 06:00","1992","01","31","06:00","-0.2","","-2.0","","88","","34","","17","","19.3","","98.51","","","","-5","","Cloudy"
"1992-01-31 07:00","1992","01","31","07:00","-0.6","","-2.7","","86","","35","","19","","19.3","","98.57","","","","-6","","Mostly Cloudy"
"1992-01-31 08:00","1992","01","31","08:00","-1.2","","-3.8","","83","","34","","22","","24.1","","98.64","","","","-7","","Mostly Cloudy"
"1992-01-31 09:00","1992","01","31","09:00","-2.4","","-4.5","","85","","34","","30","","24.1","","98.71","","","","-10","","Mostly Cloudy"
"1992-01-31 10:00","1992","01","31","10:00","-2.8","","-5.1","","84","","34","","28","","19.3","","98.71","","","","-10","","Cloudy"
"1992-01-31 11:00","1992","01","31","11:00","-2.7","","-4.8","","86","","32","","28","","19.3","","98.74","","","","-10","","Cloudy"
"1992-01-31 12:00","1992","01","31","12:00","-2.9","","-5.1","","85","","35","","19","","19.3","","98.74","","","","-9","","Mostly Cloudy"
"1992-01-31 13:00","1992","01","31","13:00","-2.6","","-5.1","","83","","34","","24","","24.1","","98.71","","","","-9","","Cloudy"
"1992-01-31 14:00","1992","01","31","14:00","-2.1","","-4.8","","82","","33","","26","","24.1","","98.67","","","","-9","","Mostly Cloudy"
"1992-01-31 15:00","1992","01","31","15:00","-1.9","","-5.1","","79","","35","","24","","24.1","","98.74","","","","-8","","Mostly Cloudy"
"1992-01-31 16:00","1992","01","31","16:00","-3.0","","-6.0","","80","","36","","26","","24.1","","98.81","","","","-10","","Cloudy"
"1992-01-31 17:00","1992","01","31","17:00","-3.5","","-6.7","","78","","34","","30","","24.1","","98.87","","","","-11","","Cloudy"
"1992-01-31 18:00","1992","01","31","18:00","-3.7","","-6.3","","82","","36","","26","","24.1","","98.94","","","","-11","","Cloudy"
"1992-01-31 19:00","1992","01","31","19:00","-4.0","","-6.6","","82","","34","","31","","24.1","","99.01","","","","-12","","Cloudy"
"1992-01-31 20:00","1992","01","31","20:00","-4.9","","-7.2","","84","","36","","33","","24.1","","99.11","","","","-13","","Mostly Cloudy"
"1992-01-31 21:00","1992","01","31","21:00","-6.0","","-8.4","","83","","35","","33","","24.1","","99.14","","","","-15","","Mostly Cloudy"
"1992-01-31 22:00","1992","01","31","22:00","-6.1","","-9.1","","79","","35","","30","","24.1","","99.21","","","","-14","","Mostly Cloudy"
"1992-01-31 23:00","1992","01","31","23:00","-6.7","","-9.4","","81","","1","","26","","24.1","","99.24","","","","-15","","Cloudy"
