"Station Name","TORONTO LESTER B. PEARSON INT'L A"
"Province","ONTARIO"
"Latitude","43.68"
"Longitude","-79.63"
"Elevation","173.40"
"Climate Identifier","6158733"
"WMO Identifier","71624"
"TC Identifier","YYZ"
"All times are specified in Local Standard Time (LST). Add 1 hour to adjust for Daylight Saving Time where and when it is observed."

"Legend"
"E","Estimated"
"M","Missing"
"NA","Not Available"

"Date/Time","Year","Month","Day","Time","Temp (°C)","Temp Flag","Dew Point Temp (°C)","Dew Point Temp Flag","Rel Hum (%)","Rel Hum Flag","Wind Dir (10s deg)","Wind Dir Flag","Wind Spd (km/h)","Wind Spd Flag","Visibility (km)","Visibility Flag","Stn Press (kPa)","Stn Press Flag","Hmdx","Hmdx Flag","Wind Chill","Wind Chill Flag","Weather"
"1964-08-01 00:00","1964","08","01","00:00","10.6","","8.3","","87","","36","","6","","40.2","","100.37","","","","","","Mainly Clear"
"1964-08-01 01:00","1964","08","01","01:00","10.6","","8.3","","85","","34","","10","","40.2","","100.40","","","","","","Mainly Clear"
"1964-08-01 02:00","1964","08","01","02:00","11.1","","7.8","","81","","36","","6","","32.2","","100.35","","","","","","Mainly Clear"
"1964-08-01 03:00","1964","08","01","03:00","8.9","","7.8","","92","","32","","6","","24.1","","100.30","","","","","","Mainly Clear"
"1964-08-01 04:00","1964","08","01","04:00","8.3","","7.2","","92","","34","","11","","24.1","","100.35","","","","","","Mainly Clear"
"1964-08-01 05:00","1964","08","01","05:00","7.8","","6.7","","94","","34","","6","","32.2","","100.32","","","","","","Mainly Clear"
"1964-08-01 06:00","1964","08","01","06:00","8.9","","7.8","","92","","36","","6","","32.2","","100.31","","","","","","Mainly Clear"
"1964-08-01 07:00","1964","08","01","07:00","13.3","","10.0","","81","","2","","6","","19.3","","100.31","","","","","","Mostly Cloudy"
"1964-08-01 08:00","1964","08","01","08:00","17.8","","12.2","","70","","","","0","","19.3","","100.32","","","","","","Mostly Cloudy"
"1964-08-01 09:00","1964","08","01","09:00","20.0","","10.0","","52","","16","","8","","24.1","","100.30","","","","","","Cloudy"
"1964-08-01 10:00","1964","08","01","10:00","21.7","","10.6","","49","","14","","13","","24.1","","100.24","","","","","","Cloudy"
"1964-08-01 11:00","1964","08","01","11:00","22.2","","8.3","","41","","16","","8","","32.2","","100.21","","","","","","Cloudy"
"1964-08-01 12:00","1964","08","01","12:00","21.7","","8.9","","43","","18","","13","","32.2","","100.16","","","","","","Cloudy"
"1964-08-01 13:00","1964","08","01","13:00","20.0","","11.7","","58","","16","","16","","24.1","","100.13","","","","","","Rain"
"1964-08-01 14:00","1964","08","01","14:00","18.3","","13.9","","76","","11","","11","","11.3","","100.09","","","","","","Rain"
"1964-08-01 15:00","1964","08","01","15:00","17.8","","13.3","","76","","9","","11","","12.9","","100.04","","","","","","Rain"
"1964-08-01 16:00","1964","08","01","16:00","18.3","","13.3","","72","","16","","10","","14.5","","99.96","","","","","","Rain"
"1964-08-01 17:00","1964","08","01","17:00","18.3","","13.3","","72","","16","","11","","14.5","","99.90","","","","","","Rain"
"1964-08-01 18:00","1964","08","01","18:00","17.8","","14.4","","82","","14","","8","","12.9","","99.87","","","","","","Rain"
"1964-08-01 19:00","1964","08","01","19:00","18.3","","15.0","","82","","18","","5","","11.3","","99.83","","","","","","Mostly Cloudy"
"1964-08-01 20:00","1964","08","01","20:00","18.3","","15.0","","80","","16","","6","","9.7","","99.82","","","","","","Haze"
"1964-08-01 21:00","1964","08","01","21:00","17.8","","13.9","","78","","16","","6","","12.9","","99.80","","","","","","Cloudy"
"1964-08-01 22:00","1964","08","01","22:00","17.8","","14.4","","82","","16","","6","","14.5","","99.77","","","","","","Cloudy"
"1964-08-01 23:00","1964","08","01","23:00","18.3","","13.9","","76","","18","","3","","14.5","","99.74","","","","","","Cloudy"
"1964-08-02 00:00","1964","08","02","00:00","17.8","","15.0","","84","","","","0","","16.1","","99.69","","","","","","Cloudy"
"1964-08-02 01:00","1964","08","02","01:00","16.7","","14.4","","87","","","","0","","24.1","","99.63","","","","","","Mostly Cloudy"
"1964-08-02 02:00","1964","08","02","02:00","16.7","","15.0","","89","","","","0","","24.1","","99.58","","","","","","Clear"
"1964-08-02 03:00","1964","08","02","03:00","16.7","","14.4","","87","","36","","3","","24.1","","99.56","","","","","","Mostly Cloudy"
"1964-08-02 04:00","1964","08","02","04:00","15.6","","14.4","","93","","36","","5","","24.1","","99.56","","","","","","Mainly Clear"
"1964-08-02 05:00","1964","08","02","05:00","15.0","","14.4","","95","","36","","6","","8.0","","99.57","","","","","","Fog"
"1964-08-02 06:00","1964","08","02","06:00","15.0","","14.4","","97","","36","","3","","6.4","","99.57","","","","","","Fog"
"1964-08-02 07:00","1964","08","02","07:00","16.7","","15.0","","91","","27","","6","","4.8","","99.63","","","","","","Fog"
"1964-08-02 08:00","1964","08","02","08:00","18.9","","15.6","","82","","","","0","","6.4","","99.58","","","","","","Haze"
"1964-08-02 09:00","1964","08","02","09:00","20.0","","16.1","","79","","27","","6","","9.7","","99.58","","25","","","","Haze"
"1964-08-02 10:00","1964","08","02","10:00","22.2","","17.2","","73","","","","0","","9.7","","99.58","","28","","","","Haze"
"1964-08-02 11:00","1964","08","02","11:00","24.4","","16.7","","61","","7","","6","","9.7","","99.53","","29","","","","Haze"
"1964-08-02 12:00","1964","08","02","12:00","25.6","","15.6","","55","","9","","6","","11.3","","99.47","","30","","","","Mostly Cloudy"
"1964-08-02 13:00","1964","08","02","13:00","25.6","","17.8","","62","","5","","13","","9.7","","99.46","","31","","","","Haze"
"1964-08-02 14:00","1964","08","02","14:00","22.8","","17.2","","70","","11","","23","","9.7","","99.36","","28","","","","Haze"
"1964-08-02 15:00","1964","08","02","15:00","21.7","","17.2","","75","","16","","16","","9.7","","99.41","","27","","","","Haze"
"1964-08-02 16:00","1964","08","02","16:00","22.2","","16.7","","70","","14","","16","","9.7","","99.44","","27","","","","Rain Showers,Haze"
"1964-08-02 17:00","1964","08","02","17:00","22.8","","17.8","","74","","11","","16","","9.7","","99.42","","29","","","","Haze"
"1964-08-02 18:00","1964","08","02","18:00","22.2","","16.7","","72","","14","","13","","14.5","","99.42","","27","","","","Cloudy"
"1964-08-02 19:00","1964","08","02","19:00","21.7","","16.1","","71","","11","","14","","14.5","","99.43","","26","","","","Mostly Cloudy"
"1964-08-02 20:00","1964","08","02","20:00","21.1","","16.7","","76","","11","","16","","14.5","","99.40","","26","","","","Cloudy"
"1964-08-02 21:00","1964","08","02","21:00","21.1","","16.1","","74","","9","","19","","14.5","","99.44","","26","","","","Cloudy"
"1964-08-02 22:00","1964","08","02","22:00","21.1","","16.1","","73","","11","","18","","16.1","","99.43","","26","","","","Cloudy"
"1964-08-02 23:00","1964","08","02","23:00","20.6","","16.7","","78","","11","","26","","16.1","","99.42","","26","","","","Cloudy"
"1964-08-03 00:00","1964","08","03","00:00","18.3","","16.7","","90","","11","","24","","12.9","","99.45","","","","","","Rain Showers"
"1964-08-03 01:00","1964","08","03","01:00","18.3","","16.1","","88","","9","","23","","16.1","","99.36","","","","","","Rain Showers"
"1964-08-03 02:00","1964","08","03","02:00","17.8","","16.1","","90","","11","","19","","11.3","","99.31","","","","","","Rain Showers"
"1964-08-03 03:00","1964","08","03","03:00","17.2","","16.7","","96","","9","","10","","6.4","","99.34","","","","","","Rain Showers,Fog"
"1964-08-03 04:00","1964","08","03","04:00","17.2","","16.7","","96","","9","","16","","4.8","","99.24","","","","","","Moderate Rain Showers,Fog"
"1964-08-03 05:00","1964","08","03","05:00","17.2","","16.7","","96","","11","","21","","6.4","","99.12","","","","","","Rain Showers,Fog"
"1964-08-03 06:00","1964","08","03","06:00","17.8","","17.2","","96","","11","","19","","4.0","","99.10","","","","","","Rain Showers,Fog"
"1964-08-03 07:00","1964","08","03","07:00","17.8","","17.2","","98","","9","","24","","1.6","","99.11","","","","","","Rain,Fog"
"1964-08-03 08:00","1964","08","03","08:00","17.8","","17.2","","98","","9","","27","","4.0","","99.11","","","","","","Rain,Fog"
"1964-08-03 09:00","1964","08","03","09:00","17.8","","16.7","","94","","9","","32","","6.4","","99.13","","","","","","Rain,Fog"
"1964-08-03 10:00","1964","08","03","10:00","17.8","","17.2","","96","","7","","19","","3.2","","99.21","","","","","","Rain,Drizzle,Fog"
"1964-08-03 11:00","1964","08","03","11:00","18.3","","17.2","","94","","9","","24","","32.2","","99.21","","","","","","Cloudy"
"1964-08-03 12:00","1964","08","03","12:00","19.4","","16.1","","81","","9","","32","","32.2","","99.21","","","","","","Mostly Cloudy"
"1964-08-03 13:00","1964","08","03","13:00","20.0","","15.0","","74","","9","","32","","32.2","","99.22","","","","","","Mostly Cloudy"
"1964-08-03 14:00","1964","08","03","14:00","21.1","","15.0","","69","","9","","27","","32.2","","99.24","","25","","","","Mainly Clear"
"1964-08-03 15:00","1964","08","03","15:00","21.7","","14.4","","66","","9","","29","","32.2","","99.21","","25","","","","Mainly Clear"
"1964-08-03 16:00","1964","08","03","16:00","21.7","","15.0","","65","","9","","19","","32.2","","99.23","","26","","","","Mainly Clear"
"1964-08-03 17:00","1964","08","03","17:00","21.7","","15.0","","66","","9","","23","","32.2","","99.25","","26","","","","Mainly Clear"
"1964-08-03 18:00","1964","08","03","18:00","21.7","","13.3","","58","","9","","19","","32.2","","99.28","","25","","","","Mainly Clear"
"1964-08-03 19:00","1964","08","03","19:00","21.1","","12.2","","56","","9","","19","","32.2","","99.27","","","","","","Mainly Clear"
"1964-08-03 20:00","1964","08","03","20:00","19.4","","12.2","","63","","9","","13","","32.2","","99.26","","","","","","Mainly Clear"
"1964-08-03 21:00","1964","08","03","21:00","18.9","","12.2","","66","","11","","11","","32.2","","99.32","","","","","","Mainly Clear"
"1964-08-03 22:00","1964","08","03","22:00","18.3","","13.9","","74","","11","","8","","32.2","","99.37","","","","","","Clear"
"1964-08-03 23:00","1964","08","03","23:00","17.8","","15.6","","86","","11","","10","","32.2","","99.36","","","","","","Clear"
"1964-08-04 00:00","1964","08","04","00:00","17.8","","15.6","","88","","14","","3","","24.1","","99.36","","","","","","Clear"
"1964-08-04 01:00","1964","08","04","01:00","17.2","","15.6","","90","","16","","3","","24.1","","99.33","","","","","","Clear"
"1964-08-04 02:00","1964","08","04","02:00","16.7","","15.0","","91","","14","","3","","24.1","","99.33","","","","","","Mainly Clear"
"1964-08-04 03:00","1964","08","04","03:00","16.7","","15.0","","91","","14","","6","","16.1","","99.26","","","","","","Mostly Cloudy"
"1964-08-04 04:00","1964","08","04","04:00","17.2","","16.1","","94","","","","0","","12.9","","99.29","","","","","","Cloudy"
"1964-08-04 05:00","1964","08","04","05:00","17.2","","16.1","","94","","18","","5","","4.0","","99.36","","","","","","Fog"
"1964-08-04 06:00","1964","08","04","06:00","17.8","","16.7","","94","","18","","6","","4.0","","99.40","","","","","","Fog"
"1964-08-04 07:00","1964","08","04","07:00","18.3","","17.2","","92","","18","","10","","4.8","","99.48","","","","","","Fog"
"1964-08-04 08:00","1964","08","04","08:00","18.3","","16.1","","86","","18","","11","","9.7","","99.48","","","","","","Haze"
"1964-08-04 09:00","1964","08","04","09:00","18.3","","15.6","","84","","18","","10","","9.7","","99.51","","","","","","Haze"
"1964-08-04 10:00","1964","08","04","10:00","18.9","","16.7","","86","","20","","11","","9.7","","99.48","","","","","","Haze"
"1964-08-04 11:00","1964","08","04","11:00","19.4","","16.1","","82","","18","","13","","11.3","","99.47","","","","","","Cloudy"
"1964-08-04 12:00","1964","08","04","12:00","19.4","","16.1","","82","","18","","10","","12.9","","99.45","","","","","","Cloudy"
"1964-08-04 13:00","1964","08","04","13:00","20.0","","17.2","","85","","20","","11","","12.9","","99.46","","25","","","","Cloudy"
"1964-08-04 14:00","1964","08","04","14:00","20.6","","17.8","","83","","20","","10","","11.3","","99.40","","26","","","","Cloudy"
"1964-08-04 15:00","1964","08","04","15:00","20.6","","17.8","","85","","23","","6","","11.3","","99.40","","26","","","","Cloudy"
"1964-08-04 16:00","1964","08","04","16:00","21.7","","17.8","","80","","","","0","","4.8","","99.36","","28","","","","Haze"
"1964-08-04 17:00","1964","08","04","17:00","23.3","","18.9","","76","","20","","13","","4.8","","99.34","","30","","","","Haze"
"1964-08-04 18:00","1964","08","04","18:00","23.9","","18.9","","73","","18","","13","","4.8","","99.29","","31","","","","Haze"
"1964-08-04 19:00","1964","08","04","19:00","21.7","","18.9","","85","","16","","11","","4.0","","99.28","","28","","","","Haze"
"1964-08-04 20:00","1964","08","04","20:00","20.6","","18.9","","90","","11","","8","","3.2","","99.31","","27","","","","Fog"
"1964-08-04 21:00","1964","08","04","21:00","18.9","","17.8","","94","","14","","6","","3.2","","99.35","","","","","","Fog"
"1964-08-04 22:00","1964","08","04","22:00","18.9","","18.3","","96","","","","0","","2.4","","99.34","","","","","","Fog"
"1964-08-04 23:00","1964","08","04","23:00","16.7","","16.1","","98","","32","","6","","3.2","","99.33","","","","","","Fog"
"1964-08-05 00:00","1964","08","05","00:00","17.2","","16.7","","98","","36","","14","","2.4","","99.35","","","","","","Fog"
"1964-08-05 01:00","1964","08","05","01:00","17.2","","16.7","","98","","34","","11","","3.2","","99.36","","","","","","Fog"
"1964-08-05 02:00","1964","08","05","02:00","16.7","","16.1","","96","","34","","13","","19.3","","99.37","","","","","","Mostly Cloudy"
"1964-08-05 03:00","1964","08","05","03:00","17.2","","16.1","","94","","36","","18","","24.1","","99.38","","","","","","Mainly Clear"
"1964-08-05 04:00","1964","08","05","04:00","17.2","","16.1","","94","","36","","18","","24.1","","99.43","","","","","","Mostly Cloudy"
"1964-08-05 05:00","1964","08","05","05:00","16.7","","15.6","","94","","36","","19","","24.1","","99.52","","","","","","Mainly Clear"
"1964-08-05 06:00","1964","08","05","06:00","16.7","","15.6","","94","","34","","19","","24.1","","99.56","","","","","","Clear"
"1964-08-05 07:00","1964","08","05","07:00","17.2","","15.0","","85","","36","","23","","24.1","","99.64","","","","","","Mainly Clear"
"1964-08-05 08:00","1964","08","05","08:00","16.7","","13.3","","81","","36","","29","","32.2","","99.71","","","","","","Mostly Cloudy"
"1964-08-05 09:00","1964","08","05","09:00","17.8","","13.3","","74","","36","","31","","32.2","","99.78","","","","","","Mainly Clear"
"1964-08-05 10:00","1964","08","05","10:00","19.4","","12.8","","64","","34","","35","","32.2","","99.82","","","","","","Mainly Clear"
"1964-08-05 11:00","1964","08","05","11:00","19.4","","11.7","","61","","34","","29","","32.2","","99.83","","","","","","Mainly Clear"
"1964-08-05 12:00","1964","08","05","12:00","20.6","","11.1","","54","","34","","24","","32.2","","99.84","","","","","","Mainly Clear"
"1964-08-05 13:00","1964","08","05","13:00","21.1","","10.0","","50","","36","","24","","32.2","","99.85","","","","","","Mainly Clear"
"1964-08-05 14:00","1964","08","05","14:00","21.1","","10.6","","51","","36","","26","","32.2","","99.85","","","","","","Mainly Clear"
"1964-08-05 15:00","1964","08","05","15:00","21.1","","10.0","","50","","36","","24","","32.2","","99.87","","","","","","Mainly Clear"
"1964-08-05 16:00","1964","08","05","16:00","21.1","","10.6","","51","","36","","26","","40.2","","99.88","","","","","","Mainly Clear"
"1964-08-05 17:00","1964","08","05","17:00","20.6","","10.6","","52","","34","","19","","40.2","","99.89","","","","","","Mostly Cloudy"
"1964-08-05 18:00","1964","08","05","18:00","20.0","","10.0","","53","","34","","23","","40.2","","99.90","","","","","","Mostly Cloudy"
"1964-08-05 19:00","1964","08","05","19:00","17.2","","10.0","","62","","34","","18","","40.2","","99.93","","","","","","Mostly Cloudy"
"1964-08-05 20:00","1964","08","05","20:00","15.6","","9.4","","67","","34","","14","","40.2","","99.95","","","","","","Mainly Clear"
"1964-08-05 21:00","1964","08","05","21:00","13.3","","9.4","","76","","34","","16","","40.2","","100.01","","","","","","Clear"
"1964-08-05 22:00","1964","08","05","22:00","12.8","","8.9","","77","","36","","16","","40.2","","100.03","","","","","","Clear"
"1964-08-05 23:00","1964","08","05","23:00","12.8","","9.4","","79","","36","","16","","40.2","","100.04","","","","","","Clear"
"1964-08-06 00:00","1964","08","06","00:00","11.7","","8.3","","80","","36","","14","","40.2","","100.08","","","","","","Clear"
"1964-08-06 01:00","1964","08","06","01:00","11.7","","8.9","","83","","34","","16","","40.2","","100.08","","","","","","Clear"
"1964-08-06 02:00","1964","08","06","02:00","10.0","","7.8","","86","","36","","13","","40.2","","100.09","","","","","","Clear"
"1964-08-06 03:00","1964","08","06","03:00","8.3","","7.2","","94","","34","","14","","40.2","","100.08","","","","","","Clear"
"1964-08-06 04:00","1964","08","06","04:00","8.3","","7.2","","92","","34","","6","","40.2","","100.13","","","","","","Clear"
"1964-08-06 05:00","1964","08","06","05:00","7.8","","6.7","","91","","34","","10","","40.2","","100.18","","","","","","Clear"
"1964-08-06 06:00","1964","08","06","06:00","7.8","","6.7","","91","","32","","6","","40.2","","100.18","","","","","","Mainly Clear"
"1964-08-06 07:00","1964","08","06","07:00","11.1","","7.8","","79","","36","","10","","40.2","","100.20","","","","","","Mainly Clear"
"1964-08-06 08:00","1964","08","06","08:00","14.4","","7.2","","63","","5","","10","","40.2","","100.22","","","","","","Mainly Clear"
"1964-08-06 09:00","1964","08","06","09:00","15.6","","4.4","","48","","","","0","","40.2","","100.20","","","","","","Mainly Clear"
"1964-08-06 10:00","1964","08","06","10:00","17.2","","5.6","","46","","7","","5","","40.2","","100.21","","","","","","Mainly Clear"
"1964-08-06 11:00","1964","08","06","11:00","18.3","","5.0","","41","","","","0","","40.2","","100.19","","","","","","Clear"
"1964-08-06 12:00","1964","08","06","12:00","19.4","","5.0","","38","","11","","6","","40.2","","100.11","","","","","","Mainly Clear"
"1964-08-06 13:00","1964","08","06","13:00","20.6","","5.6","","37","","27","","10","","40.2","","100.05","","","","","","Mainly Clear"
"1964-08-06 14:00","1964","08","06","14:00","20.6","","9.4","","49","","16","","10","","40.2","","100.02","","","","","","Mainly Clear"
"1964-08-06 15:00","1964","08","06","15:00","20.6","","10.6","","52","","18","","11","","40.2","","99.98","","","","","","Mainly Clear"
"1964-08-06 16:00","1964","08","06","16:00","20.6","","11.1","","54","","18","","16","","40.2","","99.90","","","","","","Mostly Cloudy"
"1964-08-06 17:00","1964","08","06","17:00","19.4","","11.7","","61","","16","","14","","40.2","","99.90","","","","","","Mostly Cloudy"
"1964-08-06 18:00","1964","08","06","18:00","18.9","","11.7","","62","","16","","16","","32.2","","99.85","","","","","","Mostly Cloudy"
"1964-08-06 19:00","1964","08","06","19:00","17.8","","11.1","","65","","18","","6","","32.2","","99.85","","","","","","Mostly Cloudy"
"1964-08-06 20:00","1964","08","06","20:00","16.7","","11.1","","69","","16","","6","","32.2","","99.83","","","","","","Mostly Cloudy"
"1964-08-06 21:00","1964","08","06","21:00","16.1","","9.4","","65","","","","0","","32.2","","99.87","","","","","","Mostly Cloudy"
"1964-08-06 22:00","1964","08","06","22:00","13.9","","11.7","","86","","27","","3","","32.2","","99.87","","","","","","Mostly Cloudy"
"1964-08-06 23:00","1964","08","06","23:00","13.9","","11.1","","85","","","","0","","32.2","","99.81","","","","","","Mainly Clear"
"1964-08-07 00:00","1964","08","07","00:00","13.9","","10.6","","81","","","","0","","32.2","","99.76","","","","","","Mostly Cloudy"
"1964-08-07 01:00","1964","08","07","01:00","12.8","","10.6","","87","","18","","6","","24.1","","99.66","","","","","","Mostly Cloudy"
"1964-08-07 02:00","1964","08","07","02:00","13.3","","11.1","","88","","","","0","","24.1","","99.67","","","","","","Mostly Cloudy"
"1964-08-07 03:00","1964","08","07","03:00","13.3","","11.1","","88","","34","","3","","24.1","","99.66","","","","","","Mostly Cloudy"
"1964-08-07 04:00","1964","08","07","04:00","14.4","","11.7","","85","","","","0","","24.1","","99.58","","","","","","Mostly Cloudy"
"1964-08-07 05:00","1964","08","07","05:00","14.4","","11.7","","83","","","","0","","24.1","","99.55","","","","","","Mostly Cloudy"
"1964-08-07 06:00","1964","08","07","06:00","13.9","","10.0","","78","","","","0","","19.3","","99.49","","","","","","Mainly Clear"
"1964-08-07 07:00","1964","08","07","07:00","15.6","","11.7","","79","","","","0","","16.1","","99.49","","","","","","Mainly Clear"
"1964-08-07 08:00","1964","08","07","08:00","18.9","","14.4","","75","","18","","13","","9.7","","99.42","","","","","","Haze"
"1964-08-07 09:00","1964","08","07","09:00","22.2","","16.7","","72","","20","","16","","9.7","","99.35","","27","","","","Haze"
"1964-08-07 10:00","1964","08","07","10:00","25.0","","17.2","","63","","20","","21","","19.3","","99.29","","30","","","","Mainly Clear"
"1964-08-07 11:00","1964","08","07","11:00","26.1","","16.7","","57","","23","","24","","24.1","","99.24","","31","","","","Mainly Clear"
"1964-08-07 12:00","1964","08","07","12:00","27.2","","16.1","","51","","23","","21","","24.1","","99.14","","32","","","","Mainly Clear"
"1964-08-07 13:00","1964","08","07","13:00","28.3","","15.6","","46","","23","","26","","32.2","","99.06","","33","","","","Mainly Clear"
"1964-08-07 14:00","1964","08","07","14:00","28.9","","14.4","","41","","23","","23","","32.2","","99.02","","33","","","","Mainly Clear"
"1964-08-07 15:00","1964","08","07","15:00","28.9","","13.3","","38","","20","","26","","32.2","","98.95","","32","","","","Mainly Clear"
"1964-08-07 16:00","1964","08","07","16:00","28.9","","11.7","","34","","23","","27","","32.2","","98.95","","31","","","","Mainly Clear"
"1964-08-07 17:00","1964","08","07","17:00","28.3","","13.9","","41","","20","","27","","32.2","","98.85","","32","","","","Mainly Clear"
"1964-08-07 18:00","1964","08","07","18:00","26.7","","12.8","","43","","20","","23","","32.2","","98.81","","29","","","","Mostly Cloudy"
"1964-08-07 19:00","1964","08","07","19:00","25.6","","14.4","","51","","23","","13","","32.2","","98.82","","29","","","","Mostly Cloudy"
"1964-08-07 20:00","1964","08","07","20:00","22.2","","17.2","","73","","25","","18","","24.1","","98.87","","28","","","","Thunderstorms"
"1964-08-07 21:00","1964","08","07","21:00","20.0","","17.2","","85","","25","","10","","24.1","","98.80","","25","","","","Mainly Clear"
"1964-08-07 22:00","1964","08","07","22:00","19.4","","17.2","","88","","36","","18","","24.1","","98.83","","","","","","Mainly Clear"
"1964-08-07 23:00","1964","08","07","23:00","18.9","","17.2","","90","","32","","13","","24.1","","98.87","","","","","","Mainly Clear"
"1964-08-08 00:00","1964","08","08","00:00","17.2","","13.9","","81","","32","","18","","32.2","","98.88","","","","","","Mainly Clear"
"1964-08-08 01:00","1964","08","08","01:00","15.6","","12.2","","81","","27","","6","","32.2","","98.96","","","","","","Mainly Clear"
"1964-08-08 02:00","1964","08","08","02:00","15.0","","12.8","","87","","27","","13","","32.2","","98.98","","","","","","Mainly Clear"
"1964-08-08 03:00","1964","08","08","03:00","14.4","","12.2","","88","","27","","11","","32.2","","98.99","","","","","","Clear"
"1964-08-08 04:00","1964","08","08","04:00","14.4","","12.2","","88","","27","","16","","32.2","","99.03","","","","","","Mainly Clear"
"1964-08-08 05:00","1964","08","08","05:00","13.9","","8.9","","71","","29","","19","","32.2","","99.08","","","","","","Mainly Clear"
"1964-08-08 06:00","1964","08","08","06:00","12.8","","9.4","","79","","27","","13","","32.2","","99.12","","","","","","Mainly Clear"
"1964-08-08 07:00","1964","08","08","07:00","14.4","","10.6","","77","","27","","19","","32.2","","99.14","","","","","","Mainly Clear"
"1964-08-08 08:00","1964","08","08","08:00","16.1","","10.0","","67","","27","","21","","40.2","","99.16","","","","","","Mainly Clear"
"1964-08-08 09:00","1964","08","08","09:00","16.1","","8.9","","63","","29","","32","","40.2","","99.16","","","","","","Mostly Cloudy"
"1964-08-08 10:00","1964","08","08","10:00","17.2","","9.4","","60","","32","","45","","40.2","","99.21","","","","","","Mostly Cloudy"
"1964-08-08 11:00","1964","08","08","11:00","16.1","","9.4","","65","","27","","29","","40.2","","99.28","","","","","","Rain Showers"
"1964-08-08 12:00","1964","08","08","12:00","18.9","","8.9","","52","","29","","26","","40.2","","99.28","","","","","","Mostly Cloudy"
"1964-08-08 13:00","1964","08","08","13:00","17.8","","8.9","","56","","29","","27","","40.2","","99.30","","","","","","Mostly Cloudy"
"1964-08-08 14:00","1964","08","08","14:00","18.3","","10.0","","58","","29","","24","","40.2","","99.32","","","","","","Mostly Cloudy"
"1964-08-08 15:00","1964","08","08","15:00","16.7","","8.9","","60","","29","","29","","40.2","","99.33","","","","","","Mostly Cloudy"
"1964-08-08 16:00","1964","08","08","16:00","17.2","","9.4","","60","","27","","32","","40.2","","99.39","","","","","","Mostly Cloudy"
"1964-08-08 17:00","1964","08","08","17:00","15.6","","8.3","","62","","32","","24","","40.2","","99.35","","","","","","Mostly Cloudy"
"1964-08-08 18:00","1964","08","08","18:00","15.0","","8.3","","65","","29","","26","","40.2","","99.40","","","","","","Mostly Cloudy"
"1964-08-08 19:00","1964","08","08","19:00","13.9","","7.8","","67","","29","","18","","40.2","","99.48","","","","","","Mostly Cloudy"
"1964-08-08 20:00","1964","08","08","20:00","13.3","","7.2","","66","","29","","16","","40.2","","99.52","","","","","","Mostly Cloudy"
"1964-08-08 21:00","1964","08","08","21:00","13.3","","7.2","","68","","29","","14","","40.2","","99.60","","","","","","Mostly Cloudy"
"1964-08-08 22:00","1964","08","08","22:00","12.2","","7.2","","72","","36","","23","","40.2","","99.66","","","","","","Mostly Cloudy"
"1964-08-08 23:00","1964","08","08","23:00","11.7","","6.1","","69","","32","","19","","40.2","","99.67","","","","","","Mostly Cloudy"
"1964-08-09 00:00","1964","08","09","00:00","10.6","","7.2","","79","","27","","8","","32.2","","99.72","","","","","","Mostly Cloudy"
"1964-08-09 01:00","1964","08","09","01:00","11.1","","7.2","","78","","27","","10","","32.2","","99.70","","","","","","Mostly Cloudy"
"1964-08-09 02:00","1964","08","09","02:00","10.0","","7.2","","82","","27","","8","","32.2","","99.69","","","","","","Mostly Cloudy"
"1964-08-09 03:00","1964","08","09","03:00","8.9","","6.1","","82","","27","","6","","32.2","","99.68","","","","","","Mainly Clear"
"1964-08-09 04:00","1964","08","09","04:00","8.3","","6.1","","87","","27","","6","","32.2","","99.68","","","","","","Mostly Cloudy"
"1964-08-09 05:00","1964","08","09","05:00","7.8","","6.1","","89","","27","","8","","32.2","","99.74","","","","","","Mainly Clear"
"1964-08-09 06:00","1964","08","09","06:00","7.8","","6.7","","91","","29","","10","","32.2","","99.78","","","","","","Mainly Clear"
"1964-08-09 07:00","1964","08","09","07:00","11.1","","7.2","","78","","29","","13","","40.2","","99.85","","","","","","Mainly Clear"
"1964-08-09 08:00","1964","08","09","08:00","13.3","","8.3","","71","","29","","13","","40.2","","99.82","","","","","","Mainly Clear"
"1964-08-09 09:00","1964","08","09","09:00","15.6","","6.1","","52","","32","","18","","40.2","","99.81","","","","","","Mainly Clear"
"1964-08-09 10:00","1964","08","09","10:00","16.7","","6.7","","51","","32","","19","","40.2","","99.81","","","","","","Mostly Cloudy"
"1964-08-09 11:00","1964","08","09","11:00","16.1","","4.4","","46","","34","","14","","40.2","","99.83","","","","","","Mostly Cloudy"
"1964-08-09 12:00","1964","08","09","12:00","18.3","","5.6","","43","","29","","16","","40.2","","99.80","","","","","","Mostly Cloudy"
"1964-08-09 13:00","1964","08","09","13:00","17.8","","5.0","","44","","29","","18","","40.2","","99.77","","","","","","Mostly Cloudy"
"1964-08-09 14:00","1964","08","09","14:00","18.3","","5.0","","41","","29","","14","","40.2","","99.72","","","","","","Mostly Cloudy"
"1964-08-09 15:00","1964","08","09","15:00","18.9","","2.8","","34","","32","","19","","40.2","","99.68","","","","","","Mostly Cloudy"
"1964-08-09 16:00","1964","08","09","16:00","19.4","","3.3","","34","","29","","19","","40.2","","99.65","","","","","","Mostly Cloudy"
"1964-08-09 17:00","1964","08","09","17:00","18.3","","3.3","","36","","29","","16","","40.2","","99.65","","","","","","Cloudy"
"1964-08-09 18:00","1964","08","09","18:00","17.2","","4.4","","43","","29","","11","","40.2","","99.62","","","","","","Cloudy"
"1964-08-09 19:00","1964","08","09","19:00","16.1","","4.4","","46","","29","","11","","40.2","","99.63","","","","","","Cloudy"
"1964-08-09 20:00","1964","08","09","20:00","14.4","","6.1","","58","","32","","10","","40.2","","99.69","","","","","","Cloudy"
"1964-08-09 21:00","1964","08","09","21:00","12.2","","6.7","","68","","32","","6","","40.2","","99.73","","","","","","Mostly Cloudy"
"1964-08-09 22:00","1964","08","09","22:00","11.7","","6.1","","69","","27","","3","","40.2","","99.71","","","","","","Mostly Cloudy"
"1964-08-09 23:00","1964","08","09","23:00","11.1","","7.2","","76","","27","","8","","40.2","","99.70","","","","","","Mostly Cloudy"
"1964-08-10 00:00","1964","08","10","00:00","11.1","","6.1","","72","","27","","6","","40.2","","99.69","","","","","","Cloudy"
"1964-08-10 01:00","1964","08","10","01:00","11.1","","7.2","","78","","","","0","","40.2","","99.69","","","","","","Cloudy"
"1964-08-10 02:00","1964","08","10","02:00","11.1","","6.1","","72","","","","0","","40.2","","99.64","","","","","","Cloudy"
"1964-08-10 03:00","1964","08","10","03:00","11.1","","8.3","","83","","","","0","","40.2","","99.64","","","","","","Cloudy"
"1964-08-10 04:00","1964","08","10","04:00","11.1","","5.6","","69","","","","0","","40.2","","99.63","","","","","","Cloudy"
"1964-08-10 05:00","1964","08","10","05:00","10.6","","7.8","","83","","27","","3","","40.2","","99.66","","","","","","Mostly Cloudy"
"1964-08-10 06:00","1964","08","10","06:00","11.1","","7.2","","76","","","","0","","40.2","","99.68","","","","","","Mostly Cloudy"
"1964-08-10 07:00","1964","08","10","07:00","12.2","","7.8","","75","","","","0","","40.2","","99.70","","","","","","Cloudy"
"1964-08-10 08:00","1964","08","10","08:00","13.3","","6.7","","64","","","","0","","40.2","","99.69","","","","","","Mostly Cloudy"
"1964-08-10 09:00","1964","08","10","09:00","15.6","","6.1","","52","","18","","8","","40.2","","99.68","","","","","","Mostly Cloudy"
"1964-08-10 10:00","1964","08","10","10:00","17.2","","5.6","","46","","18","","6","","40.2","","99.66","","","","","","Mostly Cloudy"
"1964-08-10 11:00","1964","08","10","11:00","18.3","","7.2","","48","","16","","10","","32.2","","99.63","","","","","","Mostly Cloudy"
"1964-08-10 12:00","1964","08","10","12:00","19.4","","8.3","","49","","18","","6","","32.2","","99.59","","","","","","Mostly Cloudy"
"1964-08-10 13:00","1964","08","10","13:00","20.0","","7.8","","45","","23","","11","","32.2","","99.55","","","","","","Mostly Cloudy"
"1964-08-10 14:00","1964","08","10","14:00","19.4","","8.3","","49","","16","","10","","32.2","","99.48","","","","","","Mostly Cloudy"
"1964-08-10 15:00","1964","08","10","15:00","20.0","","8.9","","49","","14","","13","","32.2","","99.44","","","","","","Mostly Cloudy"
"1964-08-10 16:00","1964","08","10","16:00","20.6","","8.9","","48","","14","","18","","32.2","","99.40","","","","","","Mostly Cloudy"
"1964-08-10 17:00","1964","08","10","17:00","20.0","","9.4","","50","","16","","11","","32.2","","99.37","","","","","","Mostly Cloudy"
"1964-08-10 18:00","1964","08","10","18:00","20.0","","9.4","","50","","14","","10","","32.2","","99.32","","","","","","Mostly Cloudy"
"1964-08-10 19:00","1964","08","10","19:00","18.3","","10.0","","58","","14","","10","","32.2","","99.28","","","","","","Mostly Cloudy"
"1964-08-10 20:00","1964","08","10","20:00","16.7","","10.6","","67","","14","","5","","32.2","","99.28","","","","","","Mostly Cloudy"
"1964-08-10 21:00","1964","08","10","21:00","16.7","","11.7","","73","","14","","8","","32.2","","99.29","","","","","","Mostly Cloudy"
"1964-08-10 22:00","1964","08","10","22:00","16.1","","12.2","","77","","14","","10","","32.2","","99.26","","","","","","Mostly Cloudy"
"1964-08-10 23:00","1964","08","10","23:00","16.7","","11.1","","69","","14","","11","","32.2","","99.20","","","","","","Mostly Cloudy"
"1964-08-11 00:00","1964","08","11","00:00","16.1","","10.0","","67","","11","","11","","24.1","","99.14","","","","","","Mainly Clear"
"1964-08-11 01:00","1964","08","11","01:00","16.1","","10.0","","67","","14","","10","","24.1","","99.08","","","","","","Mostly Cloudy"
"1964-08-11 02:00","1964","08","11","02:00","16.7","","11.1","","69","","9","","6","","24.1","","99.05","","","","","","Mostly Cloudy"
"1964-08-11 03:00","1964","08","11","03:00","16.7","","10.0","","65","","11","","6","","24.1","","98.98","","","","","","Cloudy"
"1964-08-11 04:00","1964","08","11","04:00","16.1","","10.6","","71","","11","","3","","24.1","","98.94","","","","","","Mostly Cloudy"
"1964-08-11 05:00","1964","08","11","05:00","16.1","","13.3","","83","","14","","8","","19.3","","98.89","","","","","","Mostly Cloudy"
"1964-08-11 06:00","1964","08","11","06:00","16.1","","13.3","","85","","9","","6","","19.3","","98.82","","","","","","Mainly Clear"
"1964-08-11 07:00","1964","08","11","07:00","16.7","","13.9","","83","","14","","10","","19.3","","98.77","","","","","","Mainly Clear"
"1964-08-11 08:00","1964","08","11","08:00","18.9","","14.4","","75","","9","","8","","9.7","","98.68","","","","","","Haze"
"1964-08-11 09:00","1964","08","11","09:00","20.0","","15.6","","75","","14","","14","","8.0","","98.61","","","","","","Haze"
"1964-08-11 10:00","1964","08","11","10:00","21.7","","16.1","","71","","14","","13","","8.0","","98.59","","26","","","","Haze"
"1964-08-11 11:00","1964","08","11","11:00","22.8","","17.2","","70","","14","","14","","4.8","","98.50","","28","","","","Haze"
"1964-08-11 12:00","1964","08","11","12:00","23.9","","17.2","","66","","18","","14","","8.0","","98.47","","29","","","","Haze"
"1964-08-11 13:00","1964","08","11","13:00","23.3","","17.8","","71","","14","","3","","8.0","","98.42","","29","","","","Rain Showers,Haze"
"1964-08-11 14:00","1964","08","11","14:00","25.6","","17.2","","60","","14","","11","","8.0","","98.27","","31","","","","Haze"
"1964-08-11 15:00","1964","08","11","15:00","21.7","","19.4","","87","","18","","3","","8.0","","98.22","","29","","","","Thunderstorms,Rain Showers,Haze"
"1964-08-11 16:00","1964","08","11","16:00","21.7","","20.0","","89","","18","","19","","2.4","","98.09","","29","","","","Thunderstorms,Heavy Rain Showers,Fog"
"1964-08-11 17:00","1964","08","11","17:00","18.3","","17.2","","94","","34","","10","","12.9","","98.12","","","","","","Rain Showers"
"1964-08-11 18:00","1964","08","11","18:00","18.9","","18.3","","96","","34","","3","","12.9","","98.00","","","","","","Rain Showers"
"1964-08-11 19:00","1964","08","11","19:00","18.3","","17.8","","98","","18","","10","","3.2","","98.07","","","","","","Thunderstorms,Rain Showers,Fog"
"1964-08-11 20:00","1964","08","11","20:00","18.3","","17.8","","98","","14","","19","","1.2","","97.86","","","","","","Rain,Fog"
"1964-08-11 21:00","1964","08","11","21:00","17.8","","17.2","","98","","16","","19","","12.9","","97.86","","","","","","Thunderstorms,Rain"
"1964-08-11 22:00","1964","08","11","22:00","17.8","","17.2","","98","","16","","19","","12.9","","97.92","","","","","","Cloudy"
"1964-08-11 23:00","1964","08","11","23:00","18.3","","17.2","","94","","18","","26","","16.1","","97.92","","","","","","Cloudy"
"1964-08-12 00:00","1964","08","12","00:00","18.3","","17.2","","94","","18","","14","","12.9","","97.84","","","","","","Cloudy"
"1964-08-12 01:00","1964","08","12","01:00","18.9","","18.3","","96","","18","","13","","8.0","","97.79","","","","","","Fog"
"1964-08-12 02:00","1964","08","12","02:00","17.8","","16.7","","92","","23","","23","","4.0","","97.77","","","","","","Moderate Rain,Fog"
"1964-08-12 03:00","1964","08","12","03:00","17.8","","17.2","","96","","23","","10","","4.8","","97.75","","","","","","Drizzle,Fog"
"1964-08-12 04:00","1964","08","12","04:00","17.2","","15.6","","90","","27","","10","","16.1","","97.79","","","","","","Mainly Clear"
"1964-08-12 05:00","1964","08","12","05:00","16.1","","13.3","","83","","27","","21","","19.3","","97.87","","","","","","Mostly Cloudy"
"1964-08-12 06:00","1964","08","12","06:00","15.0","","12.8","","87","","27","","13","","19.3","","97.94","","","","","","Mostly Cloudy"
"1964-08-12 07:00","1964","08","12","07:00","15.6","","12.8","","84","","25","","14","","19.3","","97.97","","","","","","Mostly Cloudy"
"1964-08-12 08:00","1964","08","12","08:00","16.1","","12.8","","81","","25","","18","","32.2","","98.04","","","","","","Mostly Cloudy"
"1964-08-12 09:00","1964","08","12","09:00","16.7","","13.9","","83","","25","","21","","40.2","","98.06","","","","","","Mostly Cloudy"
"1964-08-12 10:00","1964","08","12","10:00","16.1","","13.9","","87","","27","","19","","40.2","","98.13","","","","","","Rain Showers"
"1964-08-12 11:00","1964","08","12","11:00","18.3","","12.8","","71","","25","","26","","40.2","","98.17","","","","","","Mostly Cloudy"
"1964-08-12 12:00","1964","08","12","12:00","17.2","","12.2","","72","","25","","18","","40.2","","98.22","","","","","","Rain Showers"
"1964-08-12 13:00","1964","08","12","13:00","17.8","","11.7","","68","","27","","26","","40.2","","98.27","","","","","","Mostly Cloudy"
"1964-08-12 14:00","1964","08","12","14:00","16.1","","10.6","","69","","27","","26","","40.2","","98.34","","","","","","Cloudy"
"1964-08-12 15:00","1964","08","12","15:00","15.6","","10.0","","68","","27","","21","","40.2","","98.42","","","","","","Mostly Cloudy"
"1964-08-12 16:00","1964","08","12","16:00","15.0","","10.0","","72","","29","","26","","40.2","","98.49","","","","","","Mostly Cloudy"
"1964-08-12 17:00","1964","08","12","17:00","14.4","","8.9","","69","","29","","29","","40.2","","98.57","","","","","","Mostly Cloudy"
"1964-08-12 18:00","1964","08","12","18:00","13.9","","8.9","","71","","29","","24","","40.2","","98.63","","","","","","Mostly Cloudy"
"1964-08-12 19:00","1964","08","12","19:00","12.8","","8.3","","74","","29","","23","","40.2","","98.71","","","","","","Mostly Cloudy"
"1964-08-12 20:00","1964","08","12","20:00","12.2","","8.3","","77","","29","","21","","40.2","","98.74","","","","","","Mainly Clear"
"1964-08-12 21:00","1964","08","12","21:00","11.7","","7.8","","76","","29","","23","","32.2","","98.79","","","","","","Mainly Clear"
"1964-08-12 22:00","1964","08","12","22:00","12.2","","8.3","","77","","29","","23","","32.2","","98.81","","","","","","Mostly Cloudy"
"1964-08-12 23:00","1964","08","12","23:00","11.1","","7.8","","79","","29","","16","","32.2","","98.85","","","","","","Mainly Clear"
"1964-08-13 00:00","1964","08","13","00:00","9.4","","7.8","","88","","27","","6","","32.2","","98.87","","","","","","Mainly Clear"
"1964-08-13 01:00","1964","08","13","01:00","9.4","","7.8","","90","","27","","10","","32.2","","98.88","","","","","","Mostly Cloudy"
"1964-08-13 02:00","1964","08","13","02:00","10.0","","7.8","","86","","27","","14","","32.2","","98.91","","","","","","Mostly Cloudy"
"1964-08-13 03:00","1964","08","13","03:00","10.0","","7.8","","86","","27","","13","","32.2","","98.92","","","","","","Mostly Cloudy"
"1964-08-13 04:00","1964","08","13","04:00","10.0","","8.3","","88","","27","","10","","32.2","","98.92","","","","","","Mostly Cloudy"
"1964-08-13 05:00","1964","08","13","05:00","10.6","","7.2","","81","","29","","16","","32.2","","98.95","","","","","","Mostly Cloudy"
"1964-08-13 06:00","1964","08","13","06:00","9.4","","7.2","","86","","27","","10","","32.2","","99.00","","","","","","Mainly Clear"
"1964-08-13 07:00","1964","08","13","07:00","10.6","","7.2","","79","","27","","10","","32.2","","99.03","","","","","","Mainly Clear"
"1964-08-13 08:00","1964","08","13","08:00","12.8","","6.7","","65","","34","","19","","40.2","","99.04","","","","","","Mainly Clear"
"1964-08-13 09:00","1964","08","13","09:00","13.9","","7.2","","65","","32","","31","","40.2","","99.06","","","","","","Mostly Cloudy"
"1964-08-13 10:00","1964","08","13","10:00","13.9","","6.1","","60","","27","","23","","40.2","","99.09","","","","","","Mostly Cloudy"
"1964-08-13 11:00","1964","08","13","11:00","14.4","","5.6","","55","","29","","19","","40.2","","99.11","","","","","","Cloudy"
"1964-08-13 12:00","1964","08","13","12:00","15.0","","6.7","","57","","27","","16","","40.2","","99.12","","","","","","Cloudy"
"1964-08-13 13:00","1964","08","13","13:00","15.0","","7.2","","60","","27","","16","","40.2","","99.14","","","","","","Cloudy"
"1964-08-13 14:00","1964","08","13","14:00","14.4","","9.4","","72","","27","","13","","40.2","","99.16","","","","","","Cloudy"
"1964-08-13 15:00","1964","08","13","15:00","15.0","","8.9","","68","","34","","5","","40.2","","99.15","","","","","","Mostly Cloudy"
"1964-08-13 16:00","1964","08","13","16:00","15.0","","8.9","","66","","32","","19","","40.2","","99.16","","","","","","Cloudy"
"1964-08-13 17:00","1964","08","13","17:00","14.4","","7.8","","64","","32","","13","","40.2","","99.19","","","","","","Mostly Cloudy"
"1964-08-13 18:00","1964","08","13","18:00","14.4","","7.2","","63","","32","","10","","40.2","","99.19","","","","","","Mostly Cloudy"
"1964-08-13 19:00","1964","08","13","19:00","14.4","","7.2","","63","","32","","16","","40.2","","99.23","","","","","","Mainly Clear"
"1964-08-13 20:00","1964","08","13","20:00","11.1","","5.6","","69","","32","","11","","40.2","","99.28","","","","","","Mainly Clear"
"1964-08-13 21:00","1964","08","13","21:00","8.9","","5.0","","78","","27","","8","","40.2","","99.33","","","","","","Clear"
"1964-08-13 22:00","1964","08","13","22:00","7.8","","3.9","","77","","27","","10","","40.2","","99.37","","","","","","Clear"
"1964-08-13 23:00","1964","08","13","23:00","8.9","","5.0","","78","","27","","14","","40.2","","99.40","","","","","","Clear"
"1964-08-14 00:00","1964","08","14","00:00","8.9","","6.1","","82","","27","","11","","40.2","","99.38","","","","","","Clear"
"1964-08-14 01:00","1964","08","14","01:00","8.9","","6.1","","82","","27","","13","","40.2","","99.34","","","","","","Clear"
"1964-08-14 02:00","1964","08","14","02:00","8.3","","5.6","","83","","27","","13","","40.2","","99.33","","","","","","Clear"
"1964-08-14 03:00","1964","08","14","03:00","8.3","","6.1","","85","","27","","13","","40.2","","99.34","","","","","","Clear"
"1964-08-14 04:00","1964","08","14","04:00","8.3","","6.1","","87","","27","","13","","40.2","","99.36","","","","","","Clear"
"1964-08-14 05:00","1964","08","14","05:00","8.9","","6.7","","86","","27","","13","","40.2","","99.40","","","","","","Mainly Clear"
"1964-08-14 06:00","1964","08","14","06:00","8.9","","7.2","","88","","27","","13","","40.2","","99.42","","","","","","Mainly Clear"
"1964-08-14 07:00","1964","08","14","07:00","10.6","","7.8","","83","","27","","16","","40.2","","99.43","","","","","","Mainly Clear"
"1964-08-14 08:00","1964","08","14","08:00","13.3","","8.3","","73","","27","","13","","32.2","","99.42","","","","","","Mainly Clear"
"1964-08-14 09:00","1964","08","14","09:00","16.1","","8.3","","59","","29","","29","","32.2","","99.41","","","","","","Mostly Cloudy"
"1964-08-14 10:00","1964","08","14","10:00","17.2","","8.3","","57","","27","","24","","32.2","","99.39","","","","","","Mainly Clear"
"1964-08-14 11:00","1964","08","14","11:00","17.2","","10.0","","62","","27","","37","","32.2","","99.39","","","","","","Mostly Cloudy"
"1964-08-14 12:00","1964","08","14","12:00","16.7","","10.6","","67","","27","","16","","24.1","","99.36","","","","","","Mainly Clear"
"1964-08-14 13:00","1964","08","14","13:00","18.3","","11.1","","62","","29","","24","","24.1","","99.32","","","","","","Mostly Cloudy"
"1964-08-14 14:00","1964","08","14","14:00","20.0","","7.2","","44","","36","","16","","32.2","","99.32","","","","","","Mostly Cloudy"
"1964-08-14 15:00","1964","08","14","15:00","19.4","","8.3","","48","","27","","27","","32.2","","99.31","","","","","","Mostly Cloudy"
"1964-08-14 16:00","1964","08","14","16:00","18.9","","7.2","","47","","32","","23","","32.2","","99.33","","","","","","Mainly Clear"
"1964-08-14 17:00","1964","08","14","17:00","18.9","","7.2","","47","","29","","26","","32.2","","99.35","","","","","","Mainly Clear"
"1964-08-14 18:00","1964","08","14","18:00","17.8","","6.7","","49","","29","","23","","32.2","","99.37","","","","","","Mainly Clear"
"1964-08-14 19:00","1964","08","14","19:00","16.7","","6.7","","51","","29","","19","","32.2","","99.41","","","","","","Mainly Clear"
"1964-08-14 20:00","1964","08","14","20:00","12.2","","7.8","","73","","27","","10","","32.2","","99.43","","","","","","Mainly Clear"
"1964-08-14 21:00","1964","08","14","21:00","11.7","","7.8","","76","","27","","8","","32.2","","99.45","","","","","","Clear"
"1964-08-14 22:00","1964","08","14","22:00","11.1","","7.2","","78","","27","","8","","32.2","","99.45","","","","","","Clear"
"1964-08-14 23:00","1964","08","14","23:00","10.6","","7.2","","81","","27","","10","","32.2","","99.44","","","","","","Clear"
"1964-08-15 00:00","1964","08","15","00:00","11.1","","7.2","","78","","27","","13","","32.2","","99.44","","","","","","Clear"
"1964-08-15 01:00","1964","08","15","01:00","10.6","","8.3","","85","","27","","11","","32.2","","99.43","","","","","","Clear"
"1964-08-15 02:00","1964","08","15","02:00","11.1","","8.9","","87","","27","","14","","32.2","","99.45","","","","","","Clear"
"1964-08-15 03:00","1964","08","15","03:00","10.6","","8.9","","88","","27","","11","","32.2","","99.47","","","","","","Clear"
"1964-08-15 04:00","1964","08","15","04:00","10.0","","8.3","","90","","27","","10","","32.2","","99.51","","","","","","Clear"
"1964-08-15 05:00","1964","08","15","05:00","8.9","","7.8","","94","","27","","6","","32.2","","99.52","","","","","","Mainly Clear"
"1964-08-15 06:00","1964","08","15","06:00","8.9","","7.8","","94","","29","","6","","32.2","","99.54","","","","","","Mainly Clear"
"1964-08-15 07:00","1964","08","15","07:00","11.7","","8.9","","83","","27","","10","","32.2","","99.58","","","","","","Mainly Clear"
"1964-08-15 08:00","1964","08","15","08:00","15.0","","10.0","","72","","27","","19","","32.2","","99.57","","","","","","Mainly Clear"
"1964-08-15 09:00","1964","08","15","09:00","17.2","","8.9","","59","","27","","21","","32.2","","99.54","","","","","","Mainly Clear"
"1964-08-15 10:00","1964","08","15","10:00","18.9","","8.3","","50","","27","","23","","32.2","","99.53","","","","","","Mainly Clear"
"1964-08-15 11:00","1964","08","15","11:00","20.0","","6.7","","42","","29","","23","","32.2","","99.51","","","","","","Mainly Clear"
"1964-08-15 12:00","1964","08","15","12:00","21.7","","8.9","","43","","27","","24","","32.2","","99.49","","","","","","Mostly Cloudy"
"1964-08-15 13:00","1964","08","15","13:00","21.7","","7.8","","40","","29","","24","","32.2","","99.45","","","","","","Mostly Cloudy"
"1964-08-15 14:00","1964","08","15","14:00","22.2","","8.3","","41","","27","","26","","32.2","","99.44","","","","","","Mostly Cloudy"
"1964-08-15 15:00","1964","08","15","15:00","21.1","","8.9","","45","","29","","24","","32.2","","99.40","","","","","","Mostly Cloudy"
"1964-08-15 16:00","1964","08","15","16:00","21.7","","5.6","","35","","32","","23","","32.2","","99.40","","","","","","Mostly Cloudy"
"1964-08-15 17:00","1964","08","15","17:00","20.6","","6.7","","40","","29","","19","","32.2","","99.40","","","","","","Mostly Cloudy"
"1964-08-15 18:00","1964","08","15","18:00","20.0","","7.2","","44","","27","","13","","32.2","","99.40","","","","","","Mostly Cloudy"
"1964-08-15 19:00","1964","08","15","19:00","18.9","","8.9","","52","","27","","6","","32.2","","99.40","","","","","","Mostly Cloudy"
"1964-08-15 20:00","1964","08","15","20:00","16.7","","8.3","","58","","25","","5","","32.2","","99.48","","","","","","Mainly Clear"
"1964-08-15 21:00","1964","08","15","21:00","15.0","","8.3","","63","","23","","6","","24.1","","99.50","","","","","","Mainly Clear"
"1964-08-15 22:00","1964","08","15","22:00","13.3","","7.2","","68","","25","","8","","24.1","","99.49","","","","","","Mainly Clear"
"1964-08-15 23:00","1964","08","15","23:00","12.8","","7.8","","70","","25","","5","","24.1","","99.48","","","","","","Mainly Clear"
"1964-08-16 00:00","1964","08","16","00:00","12.2","","9.4","","77","","25","","5","","24.1","","99.46","","","","","","Mainly Clear"
"1964-08-16 01:00","1964","08","16","01:00","13.3","","8.3","","71","","20","","3","","32.2","","99.44","","","","","","Mostly Cloudy"
"1964-08-16 02:00","1964","08","16","02:00","12.8","","8.9","","77","","","","0","","32.2","","99.44","","","","","","Mostly Cloudy"
"1964-08-16 03:00","1964","08","16","03:00","13.9","","10.6","","80","","27","","5","","24.1","","99.44","","","","","","Mainly Clear"
"1964-08-16 04:00","1964","08","16","04:00","12.8","","9.4","","79","","25","","6","","24.1","","99.44","","","","","","Mainly Clear"
"1964-08-16 05:00","1964","08","16","05:00","12.2","","8.3","","77","","20","","5","","24.1","","99.44","","","","","","Mainly Clear"
"1964-08-16 06:00","1964","08","16","06:00","12.8","","8.3","","74","","25","","10","","32.2","","99.46","","","","","","Mainly Clear"
"1964-08-16 07:00","1964","08","16","07:00","13.9","","8.3","","68","","25","","13","","32.2","","99.47","","","","","","Mainly Clear"
"1964-08-16 08:00","1964","08","16","08:00","17.2","","8.9","","59","","25","","11","","32.2","","99.47","","","","","","Mainly Clear"
"1964-08-16 09:00","1964","08","16","09:00","20.0","","8.9","","49","","25","","16","","32.2","","99.45","","","","","","Mostly Cloudy"
"1964-08-16 10:00","1964","08","16","10:00","21.1","","11.7","","55","","25","","21","","32.2","","99.44","","","","","","Mainly Clear"
"1964-08-16 11:00","1964","08","16","11:00","22.2","","12.2","","53","","25","","19","","32.2","","99.39","","25","","","","Mainly Clear"
"1964-08-16 12:00","1964","08","16","12:00","22.8","","13.9","","58","","20","","21","","32.2","","99.33","","26","","","","Mainly Clear"
"1964-08-16 13:00","1964","08","16","13:00","23.3","","16.1","","65","","20","","23","","32.2","","99.29","","28","","","","Mostly Cloudy"
"1964-08-16 14:00","1964","08","16","14:00","23.9","","16.7","","65","","20","","23","","32.2","","99.24","","29","","","","Mostly Cloudy"
"1964-08-16 15:00","1964","08","16","15:00","23.3","","16.1","","65","","20","","23","","32.2","","99.21","","28","","","","Mostly Cloudy"
"1964-08-16 16:00","1964","08","16","16:00","23.3","","15.6","","61","","18","","21","","24.1","","99.18","","28","","","","Mostly Cloudy"
"1964-08-16 17:00","1964","08","16","17:00","21.7","","8.9","","43","","18","","19","","24.1","","99.16","","","","","","Mostly Cloudy"
"1964-08-16 18:00","1964","08","16","18:00","21.7","","9.4","","46","","18","","19","","24.1","","99.14","","","","","","Mainly Clear"
"1964-08-16 19:00","1964","08","16","19:00","20.0","","10.0","","52","","20","","16","","24.1","","99.13","","","","","","Mostly Cloudy"
"1964-08-16 20:00","1964","08","16","20:00","18.3","","10.6","","60","","18","","8","","24.1","","99.13","","","","","","Mainly Clear"
"1964-08-16 21:00","1964","08","16","21:00","17.8","","10.0","","61","","18","","8","","24.1","","99.13","","","","","","Mainly Clear"
"1964-08-16 22:00","1964","08","16","22:00","15.6","","10.0","","70","","20","","6","","24.1","","99.09","","","","","","Clear"
"1964-08-16 23:00","1964","08","16","23:00","15.0","","10.0","","72","","23","","8","","24.1","","99.08","","","","","","Mostly Cloudy"
"1964-08-17 00:00","1964","08","17","00:00","15.0","","11.1","","79","","23","","6","","24.1","","99.07","","","","","","Rain Showers"
"1964-08-17 01:00","1964","08","17","01:00","15.6","","11.1","","76","","18","","3","","24.1","","99.05","","","","","","Mostly Cloudy"
"1964-08-17 02:00","1964","08","17","02:00","16.1","","12.2","","79","","23","","13","","24.1","","99.04","","","","","","Mostly Cloudy"
"1964-08-17 03:00","1964","08","17","03:00","15.0","","12.2","","83","","","","0","","24.1","","99.02","","","","","","Mainly Clear"
"1964-08-17 04:00","1964","08","17","04:00","14.4","","12.2","","86","","","","0","","16.1","","99.01","","","","","","Mainly Clear"
"1964-08-17 05:00","1964","08","17","05:00","13.9","","12.2","","90","","27","","6","","8.0","","99.02","","","","","","Haze"
"1964-08-17 06:00","1964","08","17","06:00","14.4","","12.2","","88","","27","","6","","8.0","","99.04","","","","","","Haze"
"1964-08-17 07:00","1964","08","17","07:00","16.1","","13.3","","83","","27","","10","","9.7","","99.06","","","","","","Haze"
"1964-08-17 08:00","1964","08","17","08:00","17.8","","13.9","","78","","27","","13","","9.7","","99.08","","","","","","Haze"
"1964-08-17 09:00","1964","08","17","09:00","19.4","","14.4","","73","","27","","16","","11.3","","99.09","","","","","","Mostly Cloudy"
"1964-08-17 10:00","1964","08","17","10:00","21.1","","15.0","","69","","27","","13","","16.1","","99.09","","25","","","","Mainly Clear"
"1964-08-17 11:00","1964","08","17","11:00","23.3","","13.3","","53","","29","","21","","32.2","","99.07","","26","","","","Mainly Clear"
"1964-08-17 12:00","1964","08","17","12:00","23.9","","12.2","","49","","34","","16","","32.2","","99.07","","26","","","","Mainly Clear"
"1964-08-17 13:00","1964","08","17","13:00","24.4","","11.1","","43","","29","","16","","32.2","","99.06","","26","","","","Mostly Cloudy"
"1964-08-17 14:00","1964","08","17","14:00","23.3","","10.0","","43","","29","","23","","32.2","","99.06","","25","","","","Mainly Clear"
"1964-08-17 15:00","1964","08","17","15:00","24.4","","10.0","","40","","29","","23","","32.2","","99.08","","26","","","","Mainly Clear"
"1964-08-17 16:00","1964","08","17","16:00","23.9","","10.6","","43","","27","","19","","32.2","","99.09","","25","","","","Mostly Cloudy"
"1964-08-17 17:00","1964","08","17","17:00","23.3","","10.6","","44","","29","","24","","32.2","","99.10","","25","","","","Mostly Cloudy"
"1964-08-17 18:00","1964","08","17","18:00","22.2","","10.6","","48","","32","","23","","32.2","","99.10","","","","","","Mainly Clear"
"1964-08-17 19:00","1964","08","17","19:00","20.0","","13.3","","65","","34","","18","","32.2","","99.15","","","","","","Mainly Clear"
"1964-08-17 20:00","1964","08","17","20:00","18.3","","12.8","","71","","34","","10","","25.0","","99.18","","","","","","Mostly Cloudy"
"1964-08-17 21:00","1964","08","17","21:00","17.2","","12.8","","75","","34","","10","","25.0","","99.18","","","","","","Mostly Cloudy"
"1964-08-17 22:00","1964","08","17","22:00","16.7","","12.8","","79","","34","","14","","25.0","","99.20","","","","","","Mostly Cloudy"
"1964-08-17 23:00","1964","08","17","23:00","15.6","","13.3","","87","","36","","23","","25.0","","99.18","","","","","","Mostly Cloudy"
"1964-08-18 00:00","1964","08","18","00:00","13.9","","12.8","","93","","34","","11","","32.2","","99.22","","","","","","Mainly Clear"
"1964-08-18 01:00","1964","08","18","01:00","13.9","","13.3","","95","","32","","10","","24.1","","99.21","","","","","","Mostly Cloudy"
"1964-08-18 02:00","1964","08","18","02:00","13.3","","12.2","","95","","32","","6","","24.1","","99.21","","","","","","Mostly Cloudy"
"1964-08-18 03:00","1964","08","18","03:00","12.2","","11.1","","94","","34","","6","","19.3","","99.20","","","","","","Mainly Clear"
"1964-08-18 04:00","1964","08","18","04:00","12.2","","11.7","","96","","34","","6","","19.3","","99.21","","","","","","Mostly Cloudy"
"1964-08-18 05:00","1964","08","18","05:00","10.6","","10.0","","98","","32","","5","","24.1","","99.22","","","","","","Mainly Clear"
"1964-08-18 06:00","1964","08","18","06:00","9.4","","9.4","","100","","32","","6","","32.2","","99.24","","","","","","Mainly Clear"
"1964-08-18 07:00","1964","08","18","07:00","11.7","","10.6","","93","","32","","6","","32.2","","99.27","","","","","","Mainly Clear"
"1964-08-18 08:00","1964","08","18","08:00","14.4","","11.1","","80","","34","","8","","32.2","","99.27","","","","","","Mainly Clear"
"1964-08-18 09:00","1964","08","18","09:00","16.7","","11.1","","69","","36","","5","","40.2","","99.26","","","","","","Mainly Clear"
"1964-08-18 10:00","1964","08","18","10:00","17.8","","9.4","","57","","","","0","","40.2","","99.25","","","","","","Mainly Clear"
"1964-08-18 11:00","1964","08","18","11:00","18.9","","9.4","","54","","18","","3","","40.2","","99.23","","","","","","Mostly Cloudy"
"1964-08-18 12:00","1964","08","18","12:00","17.8","","10.0","","59","","25","","8","","40.2","","99.20","","","","","","Mostly Cloudy"
"1964-08-18 13:00","1964","08","18","13:00","18.3","","11.1","","63","","16","","14","","32.2","","99.14","","","","","","Mostly Cloudy"
"1964-08-18 14:00","1964","08","18","14:00","20.0","","8.3","","47","","29","","6","","32.2","","99.10","","","","","","Mostly Cloudy"
"1964-08-18 15:00","1964","08","18","15:00","16.1","","12.8","","81","","36","","19","","24.1","","99.11","","","","","","Rain Showers"
"1964-08-18 16:00","1964","08","18","16:00","15.0","","12.2","","83","","36","","16","","24.1","","99.17","","","","","","Rain Showers"
"1964-08-18 17:00","1964","08","18","17:00","16.1","","11.7","","75","","36","","23","","25.0","","99.13","","","","","","Mostly Cloudy"
"1964-08-18 18:00","1964","08","18","18:00","15.0","","12.2","","83","","36","","19","","25.0","","99.15","","","","","","Mostly Cloudy"
"1964-08-18 19:00","1964","08","18","19:00","15.0","","11.1","","77","","34","","13","","32.2","","99.15","","","","","","Mostly Cloudy"
"1964-08-18 20:00","1964","08","18","20:00","12.2","","10.6","","89","","32","","8","","24.1","","99.17","","","","","","Mainly Clear"
"1964-08-18 21:00","1964","08","18","21:00","11.1","","10.0","","94","","32","","13","","24.1","","99.22","","","","","","Mainly Clear"
"1964-08-18 22:00","1964","08","18","22:00","11.1","","10.0","","92","","32","","11","","19.3","","99.25","","","","","","Clear"
"1964-08-18 23:00","1964","08","18","23:00","10.6","","8.9","","90","","32","","11","","19.3","","99.24","","","","","","Clear"
"1964-08-19 00:00","1964","08","19","00:00","10.0","","8.3","","90","","27","","6","","32.2","","99.26","","","","","","Clear"
"1964-08-19 01:00","1964","08","19","01:00","8.3","","7.2","","94","","29","","6","","32.2","","99.22","","","","","","Clear"
"1964-08-19 02:00","1964","08","19","02:00","7.8","","7.2","","96","","29","","10","","40.2","","99.22","","","","","","Clear"
"1964-08-19 03:00","1964","08","19","03:00","8.3","","7.8","","98","","27","","6","","32.2","","99.24","","","","","","Clear"
"1964-08-19 04:00","1964","08","19","04:00","8.3","","7.8","","96","","29","","10","","32.2","","99.26","","","","","","Clear"
"1964-08-19 05:00","1964","08","19","05:00","8.3","","7.8","","98","","29","","10","","32.2","","99.29","","","","","","Mainly Clear"
"1964-08-19 06:00","1964","08","19","06:00","8.9","","8.3","","96","","32","","6","","40.2","","99.34","","","","","","Mainly Clear"
"1964-08-19 07:00","1964","08","19","07:00","11.1","","9.4","","89","","32","","10","","32.2","","99.35","","","","","","Clear"
"1964-08-19 08:00","1964","08","19","08:00","14.4","","11.7","","85","","34","","19","","32.2","","99.37","","","","","","Clear"
"1964-08-19 09:00","1964","08","19","09:00","16.1","","11.1","","73","","32","","16","","32.2","","99.40","","","","","","Mainly Clear"
"1964-08-19 10:00","1964","08","19","10:00","18.3","","11.1","","62","","34","","19","","32.2","","99.40","","","","","","Mainly Clear"
"1964-08-19 11:00","1964","08","19","11:00","18.3","","8.3","","53","","34","","18","","32.2","","99.37","","","","","","Mostly Cloudy"
"1964-08-19 12:00","1964","08","19","12:00","18.3","","8.3","","53","","29","","13","","32.2","","99.33","","","","","","Mostly Cloudy"
"1964-08-19 13:00","1964","08","19","13:00","18.3","","8.3","","53","","34","","13","","32.2","","99.33","","","","","","Mostly Cloudy"
"1964-08-19 14:00","1964","08","19","14:00","18.3","","8.3","","51","","36","","13","","32.2","","99.31","","","","","","Mostly Cloudy"
"1964-08-19 15:00","1964","08","19","15:00","18.9","","7.8","","49","","36","","16","","32.2","","99.31","","","","","","Mostly Cloudy"
"1964-08-19 16:00","1964","08","19","16:00","19.4","","6.1","","41","","2","","13","","32.2","","99.28","","","","","","Mostly Cloudy"
"1964-08-19 17:00","1964","08","19","17:00","18.9","","7.2","","47","","36","","6","","32.2","","99.28","","","","","","Mostly Cloudy"
"1964-08-19 18:00","1964","08","19","18:00","18.3","","7.2","","48","","36","","8","","32.2","","99.26","","","","","","Mostly Cloudy"
"1964-08-19 19:00","1964","08","19","19:00","16.7","","11.1","","69","","25","","6","","32.2","","99.26","","","","","","Mostly Cloudy"
"1964-08-19 20:00","1964","08","19","20:00","16.7","","11.1","","69","","36","","13","","25.0","","99.28","","","","","","Mostly Cloudy"
"1964-08-19 21:00","1964","08","19","21:00","14.4","","8.3","","67","","2","","6","","25.0","","99.33","","","","","","Mainly Clear"
"1964-08-19 22:00","1964","08","19","22:00","11.1","","7.2","","78","","32","","6","","25.0","","99.34","","","","","","Mainly Clear"
"1964-08-19 23:00","1964","08","19","23:00","11.7","","7.8","","76","","29","","3","","25.0","","99.34","","","","","","Clear"
"1964-08-20 00:00","1964","08","20","00:00","8.3","","7.2","","94","","32","","8","","32.2","","99.34","","","","","","Mainly Clear"
"1964-08-20 01:00","1964","08","20","01:00","8.3","","6.7","","90","","32","","5","","32.2","","99.34","","","","","","Mostly Cloudy"
"1964-08-20 02:00","1964","08","20","02:00","9.4","","8.3","","92","","27","","3","","40.2","","99.31","","","","","","Mostly Cloudy"
"1964-08-20 03:00","1964","08","20","03:00","10.6","","9.4","","92","","32","","2","","32.2","","99.29","","","","","","Cloudy"
"1964-08-20 04:00","1964","08","20","04:00","10.6","","9.4","","92","","","","0","","40.2","","99.26","","","","","","Cloudy"
"1964-08-20 05:00","1964","08","20","05:00","11.7","","8.9","","82","","","","0","","32.2","","99.28","","","","","","Mostly Cloudy"
"1964-08-20 06:00","1964","08","20","06:00","11.1","","8.9","","87","","2","","3","","32.2","","99.29","","","","","","Mostly Cloudy"
"1964-08-20 07:00","1964","08","20","07:00","12.2","","9.4","","82","","","","0","","32.2","","99.27","","","","","","Mostly Cloudy"
"1964-08-20 08:00","1964","08","20","08:00","13.3","","8.3","","71","","","","0","","19.3","","99.22","","","","","","Mostly Cloudy"
"1964-08-20 09:00","1964","08","20","09:00","14.4","","8.9","","70","","18","","6","","16.1","","99.13","","","","","","Mostly Cloudy"
"1964-08-20 10:00","1964","08","20","10:00","16.1","","11.1","","73","","23","","13","","16.1","","99.16","","","","","","Mostly Cloudy"
"1964-08-20 11:00","1964","08","20","11:00","16.7","","11.7","","73","","20","","18","","16.1","","99.15","","","","","","Mostly Cloudy"
"1964-08-20 12:00","1964","08","20","12:00","15.6","","11.1","","74","","2","","19","","16.1","","99.17","","","","","","Cloudy"
"1964-08-20 13:00","1964","08","20","13:00","15.6","","10.6","","73","","5","","16","","19.3","","99.18","","","","","","Cloudy"
"1964-08-20 14:00","1964","08","20","14:00","16.1","","10.6","","69","","","","0","","19.3","","99.15","","","","","","Cloudy"
"1964-08-20 15:00","1964","08","20","15:00","17.8","","11.1","","65","","","","0","","24.1","","99.15","","","","","","Mostly Cloudy"
"1964-08-20 16:00","1964","08","20","16:00","18.9","","10.0","","57","","36","","13","","24.1","","99.19","","","","","","Mostly Cloudy"
"1964-08-20 17:00","1964","08","20","17:00","18.9","","10.0","","55","","5","","14","","32.2","","99.21","","","","","","Mainly Clear"
"1964-08-20 18:00","1964","08","20","18:00","16.7","","11.1","","69","","36","","10","","32.2","","99.24","","","","","","Mainly Clear"
"1964-08-20 19:00","1964","08","20","19:00","15.6","","11.7","","79","","36","","6","","19.3","","99.32","","","","","","Mainly Clear"
"1964-08-20 20:00","1964","08","20","20:00","13.3","","11.1","","88","","36","","3","","9.7","","99.39","","","","","","Fog"
"1964-08-20 21:00","1964","08","20","21:00","12.8","","10.6","","87","","","","0","","9.7","","99.46","","","","","","Fog"
"1964-08-20 22:00","1964","08","20","22:00","10.0","","8.9","","94","","36","","3","","9.7","","99.49","","","","","","Fog"
"1964-08-20 23:00","1964","08","20","23:00","10.0","","8.9","","92","","36","","8","","19.3","","99.54","","","","","","Mostly Cloudy"
"1964-08-21 00:00","1964","08","21","00:00","8.9","","7.8","","92","","36","","10","","32.2","","99.52","","","","","","Mostly Cloudy"
"1964-08-21 01:00","1964","08","21","01:00","8.9","","7.2","","90","","36","","3","","32.2","","99.51","","","","","","Mostly Cloudy"
"1964-08-21 02:00","1964","08","21","02:00","8.3","","6.1","","85","","36","","10","","32.2","","99.54","","","","","","Mostly Cloudy"
"1964-08-21 03:00","1964","08","21","03:00","7.8","","6.7","","91","","36","","8","","16.1","","99.51","","","","","","Mostly Cloudy"
"1964-08-21 04:00","1964","08","21","04:00","6.7","","6.1","","96","","36","","8","","16.1","","99.54","","","","","","Clear"
"1964-08-21 05:00","1964","08","21","05:00","6.1","","5.6","","98","","36","","6","","12.9","","99.58","","","","","","Mostly Cloudy"
"1964-08-21 06:00","1964","08","21","06:00","8.3","","7.2","","94","","36","","13","","12.9","","99.56","","","","","","Mostly Cloudy"
"1964-08-21 07:00","1964","08","21","07:00","10.0","","8.9","","94","","36","","5","","9.7","","99.55","","","","","","Fog"
"1964-08-21 08:00","1964","08","21","08:00","11.7","","9.4","","87","","5","","11","","12.9","","99.51","","","","","","Cloudy"
"1964-08-21 09:00","1964","08","21","09:00","13.9","","10.0","","78","","9","","13","","12.9","","99.47","","","","","","Rain Showers"
"1964-08-21 10:00","1964","08","21","10:00","14.4","","10.6","","77","","14","","16","","4.8","","99.59","","","","","","Haze"
"1964-08-21 11:00","1964","08","21","11:00","14.4","","13.9","","95","","9","","13","","9.7","","99.54","","","","","","Rain Showers,Fog"
"1964-08-21 12:00","1964","08","21","12:00","15.0","","13.9","","92","","9","","16","","6.4","","99.45","","","","","","Rain,Fog"
"1964-08-21 13:00","1964","08","21","13:00","15.0","","13.9","","92","","9","","14","","3.2","","99.42","","","","","","Rain,Fog"
"1964-08-21 14:00","1964","08","21","14:00","15.0","","13.9","","92","","9","","23","","3.2","","99.35","","","","","","Rain,Fog"
"1964-08-21 15:00","1964","08","21","15:00","13.3","","12.2","","93","","11","","19","","9.7","","99.18","","","","","","Rain,Fog"
"1964-08-21 16:00","1964","08","21","16:00","13.3","","12.2","","95","","9","","23","","4.0","","99.04","","","","","","Rain,Fog"
"1964-08-21 17:00","1964","08","21","17:00","12.8","","11.7","","95","","16","","13","","3.2","","99.20","","","","","","Rain,Fog"
"1964-08-21 18:00","1964","08","21","18:00","13.3","","12.8","","96","","9","","21","","2.0","","99.13","","","","","","Rain,Fog"
"1964-08-21 19:00","1964","08","21","19:00","13.3","","12.8","","96","","9","","26","","2.0","","99.09","","","","","","Rain,Fog"
"1964-08-21 20:00","1964","08","21","20:00","13.3","","12.2","","95","","9","","23","","4.8","","99.05","","","","","","Rain,Fog"
"1964-08-21 21:00","1964","08","21","21:00","13.3","","13.3","","98","","9","","26","","4.0","","99.03","","","","","","Rain,Fog"
"1964-08-21 22:00","1964","08","21","22:00","13.3","","13.3","","98","","9","","16","","4.8","","99.01","","","","","","Drizzle,Fog"
"1964-08-21 23:00","1964","08","21","23:00","13.9","","13.9","","100","","9","","23","","3.2","","98.94","","","","","","Rain,Drizzle,Fog"
"1964-08-22 00:00","1964","08","22","00:00","14.4","","14.4","","98","","9","","19","","4.0","","98.90","","","","","","Drizzle,Fog"
"1964-08-22 01:00","1964","08","22","01:00","14.4","","14.4","","100","","7","","14","","3.2","","98.83","","","","","","Rain,Fog"
"1964-08-22 02:00","1964","08","22","02:00","14.4","","14.4","","98","","7","","11","","3.2","","98.79","","","","","","Rain,Fog"
"1964-08-22 03:00","1964","08","22","03:00","14.4","","14.4","","100","","7","","13","","3.2","","98.74","","","","","","Rain,Drizzle,Fog"
"1964-08-22 04:00","1964","08","22","04:00","14.4","","14.4","","100","","9","","10","","2.4","","98.72","","","","","","Rain,Drizzle,Fog"
"1964-08-22 05:00","1964","08","22","05:00","15.0","","15.0","","100","","","","0","","3.2","","98.70","","","","","","Rain,Fog"
"1964-08-22 06:00","1964","08","22","06:00","15.0","","15.0","","100","","9","","5","","2.0","","98.70","","","","","","Fog"
"1964-08-22 07:00","1964","08","22","07:00","15.0","","15.0","","100","","","","0","","0.8","","98.73","","","","","","Drizzle,Fog"
"1964-08-22 08:00","1964","08","22","08:00","15.6","","15.6","","100","","","","0","","0.4","","98.76","","","","","","Drizzle,Fog"
"1964-08-22 09:00","1964","08","22","09:00","16.7","","16.1","","98","","20","","2","","1.2","","98.80","","","","","","Fog"
"1964-08-22 10:00","1964","08","22","10:00","18.3","","17.8","","96","","23","","6","","3.2","","98.80","","","","","","Fog"
"1964-08-22 11:00","1964","08","22","11:00","21.7","","18.9","","83","","23","","13","","9.7","","98.80","","28","","","","Haze"
"1964-08-22 12:00","1964","08","22","12:00","22.8","","19.4","","80","","16","","11","","16.1","","98.80","","30","","","","Mostly Cloudy"
"1964-08-22 13:00","1964","08","22","13:00","22.8","","19.4","","80","","18","","8","","16.1","","98.79","","30","","","","Mostly Cloudy"
"1964-08-22 14:00","1964","08","22","14:00","22.2","","18.9","","82","","16","","10","","8.0","","98.78","","29","","","","Haze"
"1964-08-22 15:00","1964","08","22","15:00","21.1","","18.3","","85","","11","","3","","4.0","","98.77","","27","","","","Haze"
"1964-08-22 16:00","1964","08","22","16:00","21.1","","18.3","","85","","","","0","","3.2","","98.70","","27","","","","Haze"
"1964-08-22 17:00","1964","08","22","17:00","20.6","","19.4","","94","","","","0","","2.0","","98.71","","28","","","","Rain,Fog"
"1964-08-22 18:00","1964","08","22","18:00","20.0","","18.9","","94","","","","0","","1.2","","98.71","","27","","","","Rain,Fog"
"1964-08-22 19:00","1964","08","22","19:00","19.4","","18.9","","96","","11","","16","","0.6","","98.64","","","","","","Rain,Fog"
"1964-08-22 20:00","1964","08","22","20:00","17.8","","17.2","","96","","9","","16","","4.8","","98.66","","","","","","Rain,Fog"
"1964-08-22 21:00","1964","08","22","21:00","17.2","","16.7","","98","","9","","23","","4.8","","98.65","","","","","","Rain,Fog"
"1964-08-22 22:00","1964","08","22","22:00","16.7","","16.1","","98","","9","","13","","4.8","","98.63","","","","","","Rain,Fog"
"1964-08-22 23:00","1964","08","22","23:00","16.7","","16.1","","96","","11","","10","","11.3","","98.68","","","","","","Rain,Drizzle"
"1964-08-23 00:00","1964","08","23","00:00","16.7","","16.1","","98","","9","","8","","12.9","","98.69","","","","","","Cloudy"
"1964-08-23 01:00","1964","08","23","01:00","16.7","","16.1","","98","","9","","6","","12.9","","98.67","","","","","","Cloudy"
"1964-08-23 02:00","1964","08","23","02:00","16.1","","15.6","","98","","9","","8","","12.9","","98.61","","","","","","Cloudy"
"1964-08-23 03:00","1964","08","23","03:00","16.1","","15.6","","96","","9","","8","","12.9","","98.60","","","","","","Cloudy"
"1964-08-23 04:00","1964","08","23","04:00","16.1","","15.6","","98","","14","","6","","12.9","","98.61","","","","","","Cloudy"
"1964-08-23 05:00","1964","08","23","05:00","16.7","","16.1","","98","","9","","10","","9.7","","98.64","","","","","","Fog"
"1964-08-23 06:00","1964","08","23","06:00","16.7","","16.7","","100","","14","","5","","2.0","","98.67","","","","","","Fog"
"1964-08-23 07:00","1964","08","23","07:00","17.2","","16.7","","98","","16","","8","","0.8","","98.69","","","","","","Fog"
"1964-08-23 08:00","1964","08","23","08:00","17.2","","17.2","","100","","14","","10","","0.4","","98.70","","","","","","Fog"
"1964-08-23 09:00","1964","08","23","09:00","18.3","","17.8","","96","","18","","6","","2.4","","98.77","","","","","","Fog"
"1964-08-23 10:00","1964","08","23","10:00","20.6","","19.4","","92","","18","","8","","6.4","","98.80","","28","","","","Fog"
"1964-08-23 11:00","1964","08","23","11:00","22.8","","17.2","","70","","23","","19","","24.1","","98.84","","28","","","","Mostly Cloudy"
"1964-08-23 12:00","1964","08","23","12:00","23.9","","16.7","","65","","25","","26","","24.1","","98.82","","29","","","","Rain Showers"
"1964-08-23 13:00","1964","08","23","13:00","23.9","","16.1","","62","","23","","26","","24.1","","98.80","","29","","","","Mostly Cloudy"
"1964-08-23 14:00","1964","08","23","14:00","24.4","","15.6","","58","","20","","29","","24.1","","98.79","","29","","","","Mostly Cloudy"
"1964-08-23 15:00","1964","08","23","15:00","24.4","","15.6","","58","","23","","29","","24.1","","98.82","","29","","","","Mostly Cloudy"
"1964-08-23 16:00","1964","08","23","16:00","23.3","","15.6","","61","","23","","29","","24.1","","98.88","","28","","","","Mainly Clear"
"1964-08-23 17:00","1964","08","23","17:00","22.2","","15.6","","65","","23","","29","","24.1","","98.93","","27","","","","Mainly Clear"
"1964-08-23 18:00","1964","08","23","18:00","21.1","","15.0","","69","","23","","26","","24.1","","98.98","","25","","","","Mostly Cloudy"
"1964-08-23 19:00","1964","08","23","19:00","19.4","","13.9","","70","","25","","19","","24.1","","99.07","","","","","","Mostly Cloudy"
"1964-08-23 20:00","1964","08","23","20:00","17.8","","14.4","","80","","27","","13","","24.1","","99.18","","","","","","Mainly Clear"
"1964-08-23 21:00","1964","08","23","21:00","18.3","","15.0","","82","","27","","19","","24.1","","99.24","","","","","","Mostly Cloudy"
"1964-08-23 22:00","1964","08","23","22:00","17.2","","14.4","","83","","27","","16","","24.1","","99.31","","","","","","Mainly Clear"
"1964-08-23 23:00","1964","08","23","23:00","16.7","","14.4","","85","","25","","16","","24.1","","99.35","","","","","","Mainly Clear"
"1964-08-24 00:00","1964","08","24","00:00","16.1","","13.9","","87","","25","","16","","24.1","","99.41","","","","","","Clear"
"1964-08-24 01:00","1964","08","24","01:00","15.0","","13.9","","92","","23","","10","","32.2","","99.44","","","","","","Clear"
"1964-08-24 02:00","1964","08","24","02:00","15.0","","13.9","","92","","23","","16","","32.2","","99.46","","","","","","Mainly Clear"
"1964-08-24 03:00","1964","08","24","03:00","15.0","","13.9","","93","","23","","14","","32.2","","99.47","","","","","","Mainly Clear"
"1964-08-24 04:00","1964","08","24","04:00","14.4","","13.3","","93","","27","","10","","32.2","","99.52","","","","","","Mainly Clear"
"1964-08-24 05:00","1964","08","24","05:00","13.9","","13.3","","95","","27","","11","","12.9","","99.57","","","","","","Mainly Clear"
"1964-08-24 06:00","1964","08","24","06:00","13.3","","12.2","","95","","","","0","","8.0","","99.63","","","","","","Fog"
"1964-08-24 07:00","1964","08","24","07:00","13.9","","13.3","","95","","","","0","","11.3","","99.69","","","","","","Mainly Clear"
"1964-08-24 08:00","1964","08","24","08:00","16.7","","13.3","","81","","29","","10","","24.1","","99.77","","","","","","Mostly Cloudy"
"1964-08-24 09:00","1964","08","24","09:00","17.2","","12.2","","74","","29","","10","","32.2","","99.81","","","","","","Mostly Cloudy"
"1964-08-24 10:00","1964","08","24","10:00","18.9","","11.7","","62","","32","","13","","32.2","","99.87","","","","","","Mainly Clear"
"1964-08-24 11:00","1964","08","24","11:00","19.4","","11.1","","58","","20","","3","","32.2","","99.89","","","","","","Mostly Cloudy"
"1964-08-24 12:00","1964","08","24","12:00","20.0","","10.6","","55","","25","","10","","32.2","","99.89","","","","","","Mostly Cloudy"
"1964-08-24 13:00","1964","08","24","13:00","21.1","","11.7","","55","","25","","13","","32.2","","99.85","","","","","","Mostly Cloudy"
"1964-08-24 14:00","1964","08","24","14:00","22.8","","11.7","","49","","27","","16","","32.2","","99.82","","25","","","","Mostly Cloudy"
"1964-08-24 15:00","1964","08","24","15:00","21.7","","11.7","","52","","23","","10","","32.2","","99.82","","","","","","Mostly Cloudy"
"1964-08-24 16:00","1964","08","24","16:00","22.8","","13.9","","58","","23","","13","","40.2","","99.82","","26","","","","Mostly Cloudy"
"1964-08-24 17:00","1964","08","24","17:00","22.2","","12.8","","56","","25","","11","","40.2","","99.79","","25","","","","Mainly Clear"
"1964-08-24 18:00","1964","08","24","18:00","20.6","","15.6","","72","","23","","11","","40.2","","99.75","","25","","","","Mainly Clear"
"1964-08-24 19:00","1964","08","24","19:00","20.0","","15.0","","72","","20","","3","","32.2","","99.77","","","","","","Mainly Clear"
"1964-08-24 20:00","1964","08","24","20:00","18.3","","13.9","","74","","","","0","","24.1","","99.81","","","","","","Mainly Clear"
"1964-08-24 21:00","1964","08","24","21:00","16.7","","13.3","","81","","23","","8","","24.1","","99.79","","","","","","Mainly Clear"
"1964-08-24 22:00","1964","08","24","22:00","15.0","","13.3","","90","","23","","11","","24.1","","99.75","","","","","","Clear"
"1964-08-24 23:00","1964","08","24","23:00","13.9","","12.2","","91","","23","","8","","24.1","","99.66","","","","","","Clear"
"1964-08-25 00:00","1964","08","25","00:00","13.9","","12.8","","93","","23","","6","","24.1","","99.63","","","","","","Clear"
"1964-08-25 01:00","1964","08","25","01:00","13.3","","12.2","","95","","","","0","","24.1","","99.58","","","","","","Clear"
"1964-08-25 02:00","1964","08","25","02:00","13.3","","12.2","","95","","","","0","","24.1","","99.54","","","","","","Clear"
"1964-08-25 03:00","1964","08","25","03:00","12.8","","12.2","","96","","","","0","","19.3","","99.45","","","","","","Mainly Clear"
"1964-08-25 04:00","1964","08","25","04:00","12.8","","12.2","","98","","11","","8","","12.9","","99.33","","","","","","Clear"
"1964-08-25 05:00","1964","08","25","05:00","12.8","","12.8","","100","","","","0","","0.2","","99.34","","","","","","Fog"
"1964-08-25 06:00","1964","08","25","06:00","13.9","","13.9","","100","","14","","8","","1.2","","99.20","","","","","","Fog"
"1964-08-25 07:00","1964","08","25","07:00","15.0","","15.0","","98","","14","","11","","2.4","","99.15","","","","","","Fog"
"1964-08-25 08:00","1964","08","25","08:00","17.8","","15.6","","88","","18","","16","","4.8","","99.05","","","","","","Haze"
"1964-08-25 09:00","1964","08","25","09:00","21.7","","16.7","","73","","20","","24","","12.9","","99.02","","27","","","","Mostly Cloudy"
"1964-08-25 10:00","1964","08","25","10:00","23.3","","17.2","","68","","23","","29","","16.1","","99.00","","29","","","","Mostly Cloudy"
"1964-08-25 11:00","1964","08","25","11:00","22.8","","17.2","","70","","23","","24","","19.3","","98.97","","28","","","","Mostly Cloudy"
"1964-08-25 12:00","1964","08","25","12:00","25.6","","18.3","","65","","23","","23","","19.3","","98.92","","32","","","","Mainly Clear"
"1964-08-25 13:00","1964","08","25","13:00","26.1","","18.3","","62","","23","","23","","19.3","","98.93","","32","","","","Mostly Cloudy"
"1964-08-25 14:00","1964","08","25","14:00","26.7","","17.2","","57","","23","","26","","19.3","","98.88","","32","","","","Mostly Cloudy"
"1964-08-25 15:00","1964","08","25","15:00","26.7","","17.2","","57","","23","","19","","16.1","","98.76","","32","","","","Mostly Cloudy"
"1964-08-25 16:00","1964","08","25","16:00","20.0","","17.8","","88","","25","","19","","19.3","","98.85","","26","","","","Mostly Cloudy"
"1964-08-25 17:00","1964","08","25","17:00","19.4","","17.8","","90","","36","","19","","32.2","","98.85","","","","","","Cloudy"
"1964-08-25 18:00","1964","08","25","18:00","19.4","","17.2","","86","","36","","3","","40.2","","98.94","","","","","","Mostly Cloudy"
"1964-08-25 19:00","1964","08","25","19:00","19.4","","14.4","","73","","32","","6","","40.2","","99.01","","","","","","Mostly Cloudy"
"1964-08-25 20:00","1964","08","25","20:00","16.1","","13.9","","87","","34","","5","","40.2","","99.06","","","","","","Mostly Cloudy"
"1964-08-25 21:00","1964","08","25","21:00","15.6","","12.8","","82","","","","0","","40.2","","99.11","","","","","","Mainly Clear"
"1964-08-25 22:00","1964","08","25","22:00","14.4","","12.2","","88","","","","0","","40.2","","99.11","","","","","","Mainly Clear"
"1964-08-25 23:00","1964","08","25","23:00","13.3","","11.7","","91","","23","","3","","40.2","","99.13","","","","","","Mainly Clear"
"1964-08-26 00:00","1964","08","26","00:00","12.8","","11.1","","91","","23","","3","","40.2","","99.14","","","","","","Mainly Clear"
"1964-08-26 01:00","1964","08","26","01:00","12.2","","11.1","","94","","27","","3","","40.2","","99.17","","","","","","Mainly Clear"
"1964-08-26 02:00","1964","08","26","02:00","12.2","","11.1","","94","","27","","5","","40.2","","99.17","","","","","","Mainly Clear"
"1964-08-26 03:00","1964","08","26","03:00","11.7","","10.6","","93","","32","","5","","40.2","","99.21","","","","","","Clear"
"1964-08-26 04:00","1964","08","26","04:00","11.1","","10.6","","96","","25","","8","","40.2","","99.24","","","","","","Clear"
"1964-08-26 05:00","1964","08","26","05:00","9.4","","8.9","","98","","27","","5","","24.1","","99.28","","","","","","Mainly Clear"
"1964-08-26 06:00","1964","08","26","06:00","10.0","","9.4","","96","","27","","5","","16.1","","99.32","","","","","","Clear"
"1964-08-26 07:00","1964","08","26","07:00","11.7","","10.6","","94","","25","","6","","16.1","","99.37","","","","","","Clear"
"1964-08-26 08:00","1964","08","26","08:00","15.6","","11.7","","79","","27","","14","","32.2","","99.40","","","","","","Mainly Clear"
"1964-08-26 09:00","1964","08","26","09:00","17.8","","12.8","","72","","27","","16","","32.2","","99.42","","","","","","Mainly Clear"
"1964-08-26 10:00","1964","08","26","10:00","19.4","","10.6","","56","","27","","16","","32.2","","99.44","","","","","","Mostly Cloudy"
"1964-08-26 11:00","1964","08","26","11:00","19.4","","7.8","","46","","29","","19","","32.2","","99.45","","","","","","Mainly Clear"
"1964-08-26 12:00","1964","08","26","12:00","19.4","","7.8","","46","","29","","16","","32.2","","99.44","","","","","","Mainly Clear"
"1964-08-26 13:00","1964","08","26","13:00","20.6","","8.3","","45","","32","","19","","32.2","","99.44","","","","","","Mainly Clear"
"1964-08-26 14:00","1964","08","26","14:00","21.1","","8.9","","45","","27","","18","","32.2","","99.41","","","","","","Mainly Clear"
"1964-08-26 15:00","1964","08","26","15:00","22.2","","9.4","","44","","25","","16","","32.2","","99.42","","","","","","Mainly Clear"
"1964-08-26 16:00","1964","08","26","16:00","20.6","","9.4","","49","","25","","13","","40.2","","99.44","","","","","","Mainly Clear"
"1964-08-26 17:00","1964","08","26","17:00","21.7","","8.9","","43","","25","","13","","40.2","","99.45","","","","","","Mainly Clear"
"1964-08-26 18:00","1964","08","26","18:00","20.0","","8.3","","47","","27","","10","","40.2","","99.45","","","","","","Mainly Clear"
"1964-08-26 19:00","1964","08","26","19:00","17.2","","9.4","","60","","29","","6","","40.2","","99.48","","","","","","Mainly Clear"
"1964-08-26 20:00","1964","08","26","20:00","15.6","","8.9","","65","","27","","3","","40.2","","99.52","","","","","","Mainly Clear"
"1964-08-26 21:00","1964","08","26","21:00","13.3","","9.4","","78","","29","","6","","25.0","","99.58","","","","","","Clear"
"1964-08-26 22:00","1964","08","26","22:00","12.2","","9.4","","82","","29","","3","","25.0","","99.61","","","","","","Clear"
"1964-08-26 23:00","1964","08","26","23:00","10.6","","8.9","","90","","32","","3","","40.2","","99.66","","","","","","Clear"
"1964-08-27 00:00","1964","08","27","00:00","9.4","","8.3","","92","","32","","3","","40.2","","99.69","","","","","","Clear"
"1964-08-27 01:00","1964","08","27","01:00","9.4","","8.3","","92","","29","","3","","40.2","","99.71","","","","","","Clear"
"1964-08-27 02:00","1964","08","27","02:00","8.9","","7.8","","94","","32","","3","","40.2","","99.72","","","","","","Clear"
"1964-08-27 03:00","1964","08","27","03:00","8.3","","7.8","","96","","","","0","","40.2","","99.72","","","","","","Clear"
"1964-08-27 04:00","1964","08","27","04:00","7.8","","7.2","","98","","34","","3","","40.2","","99.76","","","","","","Mainly Clear"
"1964-08-27 05:00","1964","08","27","05:00","7.2","","6.7","","98","","36","","5","","40.2","","99.79","","","","","","Mainly Clear"
"1964-08-27 06:00","1964","08","27","06:00","7.2","","6.7","","96","","32","","5","","32.2","","99.86","","","","","","Mainly Clear"
"1964-08-27 07:00","1964","08","27","07:00","10.0","","8.9","","94","","36","","6","","24.1","","99.91","","","","","","Mainly Clear"
"1964-08-27 08:00","1964","08","27","08:00","14.4","","11.7","","83","","","","0","","24.1","","99.98","","","","","","Mainly Clear"
"1964-08-27 09:00","1964","08","27","09:00","17.8","","13.3","","74","","14","","5","","16.1","","99.96","","","","","","Mainly Clear"
"1964-08-27 10:00","1964","08","27","10:00","19.4","","12.8","","64","","11","","11","","19.3","","99.94","","","","","","Mainly Clear"
"1964-08-27 11:00","1964","08","27","11:00","20.0","","12.2","","60","","16","","13","","19.3","","99.93","","","","","","Mainly Clear"
"1964-08-27 12:00","1964","08","27","12:00","20.0","","12.2","","60","","18","","11","","24.1","","99.90","","","","","","Mainly Clear"
"1964-08-27 13:00","1964","08","27","13:00","21.1","","10.6","","51","","16","","16","","32.2","","99.85","","","","","","Mainly Clear"
"1964-08-27 14:00","1964","08","27","14:00","21.7","","11.7","","52","","14","","16","","32.2","","99.80","","","","","","Mainly Clear"
"1964-08-27 15:00","1964","08","27","15:00","21.1","","11.7","","55","","14","","13","","19.3","","99.78","","","","","","Clear"
"1964-08-27 16:00","1964","08","27","16:00","21.1","","11.1","","53","","14","","11","","12.9","","99.78","","","","","","Clear"
"1964-08-27 17:00","1964","08","27","17:00","21.7","","11.7","","52","","14","","14","","12.9","","99.77","","","","","","Mainly Clear"
"1964-08-27 18:00","1964","08","27","18:00","20.6","","11.1","","56","","14","","11","","12.9","","99.75","","","","","","Clear"
"1964-08-27 19:00","1964","08","27","19:00","18.9","","11.7","","64","","9","","11","","12.9","","99.72","","","","","","Clear"
"1964-08-27 20:00","1964","08","27","20:00","16.7","","11.7","","71","","9","","6","","12.9","","99.75","","","","","","Clear"
"1964-08-27 21:00","1964","08","27","21:00","16.7","","11.7","","73","","9","","8","","12.9","","99.70","","","","","","Clear"
"1964-08-27 22:00","1964","08","27","22:00","16.1","","12.2","","79","","9","","3","","12.9","","99.70","","","","","","Clear"
"1964-08-27 23:00","1964","08","27","23:00","12.8","","10.6","","87","","","","0","","11.3","","99.68","","","","","","Clear"
"1964-08-28 00:00","1964","08","28","00:00","11.7","","10.6","","94","","32","","5","","11.3","","99.64","","","","","","Clear"
"1964-08-28 01:00","1964","08","28","01:00","12.2","","11.1","","94","","34","","6","","11.3","","99.61","","","","","","Clear"
"1964-08-28 02:00","1964","08","28","02:00","11.7","","10.6","","94","","","","0","","11.3","","99.60","","","","","","Clear"
"1964-08-28 03:00","1964","08","28","03:00","11.1","","10.6","","98","","32","","3","","11.3","","99.61","","","","","","Mainly Clear"
"1964-08-28 04:00","1964","08","28","04:00","11.7","","11.1","","96","","34","","3","","8.0","","99.61","","","","","","Fog"
"1964-08-28 05:00","1964","08","28","05:00","11.7","","11.1","","98","","","","0","","6.4","","99.61","","","","","","Fog"
"1964-08-28 06:00","1964","08","28","06:00","11.7","","11.1","","98","","","","0","","2.4","","99.63","","","","","","Fog"
"1964-08-28 07:00","1964","08","28","07:00","13.3","","13.3","","98","","","","0","","2.4","","99.63","","","","","","Fog"
"1964-08-28 08:00","1964","08","28","08:00","17.8","","16.1","","90","","","","0","","2.4","","99.58","","","","","","Fog"
"1964-08-28 09:00","1964","08","28","09:00","21.1","","17.2","","78","","16","","13","","8.0","","99.51","","27","","","","Haze"
"1964-08-28 10:00","1964","08","28","10:00","21.7","","17.2","","75","","16","","16","","8.0","","99.50","","27","","","","Haze"
"1964-08-28 11:00","1964","08","28","11:00","23.3","","18.3","","74","","16","","13","","8.0","","99.49","","30","","","","Haze"
"1964-08-28 12:00","1964","08","28","12:00","23.9","","18.3","","71","","16","","18","","9.7","","99.43","","30","","","","Haze"
"1964-08-28 13:00","1964","08","28","13:00","25.0","","19.4","","70","","16","","19","","9.7","","99.40","","32","","","","Haze"
"1964-08-28 14:00","1964","08","28","14:00","26.1","","20.0","","68","","16","","23","","8.0","","99.31","","34","","","","Haze"
"1964-08-28 15:00","1964","08","28","15:00","26.7","","20.0","","67","","16","","19","","8.0","","99.25","","34","","","","Haze"
"1964-08-28 16:00","1964","08","28","16:00","26.1","","20.0","","69","","14","","19","","8.0","","99.15","","34","","","","Haze"
"1964-08-28 17:00","1964","08","28","17:00","25.0","","19.4","","72","","16","","13","","8.0","","99.15","","32","","","","Haze"
"1964-08-28 18:00","1964","08","28","18:00","24.4","","19.4","","75","","16","","14","","8.0","","99.13","","31","","","","Haze"
"1964-08-28 19:00","1964","08","28","19:00","23.3","","20.0","","81","","16","","10","","8.0","","99.11","","31","","","","Haze"
"1964-08-28 20:00","1964","08","28","20:00","23.9","","20.0","","78","","16","","13","","8.0","","99.13","","31","","","","Haze"
"1964-08-28 21:00","1964","08","28","21:00","23.9","","20.0","","79","","16","","13","","8.0","","99.14","","31","","","","Haze"
"1964-08-28 22:00","1964","08","28","22:00","23.3","","21.7","","89","","27","","19","","11.3","","99.30","","32","","","","Thunderstorms,Moderate Rain Showers"
"1964-08-28 23:00","1964","08","28","23:00","22.2","","21.1","","93","","18","","19","","8.0","","99.34","","31","","","","Thunderstorms,Moderate Rain Showers"
"1964-08-29 00:00","1964","08","29","00:00","21.1","","20.0","","94","","16","","8","","12.9","","99.26","","29","","","","Thunderstorms,Rain Showers"
"1964-08-29 01:00","1964","08","29","01:00","20.6","","20.0","","96","","18","","11","","12.9","","99.34","","28","","","","Cloudy"
"1964-08-29 02:00","1964","08","29","02:00","21.1","","20.6","","98","","25","","8","","3.2","","99.30","","29","","","","Rain Showers,Fog"
"1964-08-29 03:00","1964","08","29","03:00","20.6","","20.0","","96","","27","","3","","19.3","","99.19","","28","","","","Cloudy"
"1964-08-29 04:00","1964","08","29","04:00","20.0","","19.4","","96","","18","","6","","12.9","","99.28","","27","","","","Mostly Cloudy"
"1964-08-29 05:00","1964","08","29","05:00","19.4","","18.9","","96","","20","","6","","12.9","","99.35","","","","","","Cloudy"
"1964-08-29 06:00","1964","08","29","06:00","18.9","","18.3","","98","","27","","5","","8.0","","99.42","","","","","","Fog"
"1964-08-29 07:00","1964","08","29","07:00","18.9","","17.8","","94","","23","","5","","9.7","","99.52","","","","","","Fog"
"1964-08-29 08:00","1964","08","29","08:00","20.6","","18.9","","90","","25","","5","","16.1","","99.56","","27","","","","Mostly Cloudy"
"1964-08-29 09:00","1964","08","29","09:00","22.2","","18.9","","80","","25","","6","","24.1","","99.61","","29","","","","Mostly Cloudy"
"1964-08-29 10:00","1964","08","29","10:00","23.9","","17.8","","68","","27","","6","","40.2","","99.66","","30","","","","Mainly Clear"
"1964-08-29 11:00","1964","08","29","11:00","25.0","","16.1","","58","","34","","10","","40.2","","99.68","","30","","","","Mainly Clear"
"1964-08-29 12:00","1964","08","29","12:00","25.0","","15.6","","56","","32","","10","","40.2","","99.70","","29","","","","Mainly Clear"
"1964-08-29 13:00","1964","08","29","13:00","26.1","","13.9","","46","","29","","8","","40.2","","99.70","","29","","","","Mainly Clear"
"1964-08-29 14:00","1964","08","29","14:00","26.7","","14.4","","47","","27","","5","","40.2","","99.65","","30","","","","Mainly Clear"
"1964-08-29 15:00","1964","08","29","15:00","26.1","","16.1","","54","","25","","6","","40.2","","99.64","","31","","","","Mainly Clear"
"1964-08-29 16:00","1964","08","29","16:00","25.0","","17.8","","64","","16","","14","","40.2","","99.62","","31","","","","Mainly Clear"
"1964-08-29 17:00","1964","08","29","17:00","25.0","","17.2","","61","","16","","10","","40.2","","99.63","","30","","","","Mainly Clear"
"1964-08-29 18:00","1964","08","29","18:00","24.4","","16.7","","61","","16","","6","","40.2","","99.63","","29","","","","Mainly Clear"
"1964-08-29 19:00","1964","08","29","19:00","22.8","","16.1","","67","","16","","6","","40.2","","99.65","","27","","","","Mainly Clear"
"1964-08-29 20:00","1964","08","29","20:00","21.1","","16.1","","74","","","","0","","25.0","","99.68","","26","","","","Mainly Clear"
"1964-08-29 21:00","1964","08","29","21:00","20.0","","17.2","","85","","36","","8","","25.0","","99.68","","25","","","","Clear"
"1964-08-29 22:00","1964","08","29","22:00","20.0","","16.1","","79","","9","","8","","25.0","","99.65","","25","","","","Clear"
"1964-08-29 23:00","1964","08","29","23:00","20.0","","15.6","","75","","11","","10","","25.0","","99.64","","","","","","Clear"
"1964-08-30 00:00","1964","08","30","00:00","18.9","","15.6","","80","","14","","3","","24.1","","99.63","","","","","","Clear"
"1964-08-30 01:00","1964","08","30","01:00","15.6","","15.0","","95","","32","","5","","24.1","","99.63","","","","","","Clear"
"1964-08-30 02:00","1964","08","30","02:00","15.0","","14.4","","95","","34","","3","","24.1","","99.63","","","","","","Clear"
"1964-08-30 03:00","1964","08","30","03:00","14.4","","13.9","","95","","32","","5","","24.1","","99.66","","","","","","Clear"
"1964-08-30 04:00","1964","08","30","04:00","14.4","","13.9","","95","","32","","5","","24.1","","99.65","","","","","","Clear"
"1964-08-30 05:00","1964","08","30","05:00","13.9","","13.3","","96","","2","","6","","16.1","","99.68","","","","","","Clear"
"1964-08-30 06:00","1964","08","30","06:00","13.9","","13.3","","96","","","","0","","3.2","","99.64","","","","","","Fog"
"1964-08-30 07:00","1964","08","30","07:00","14.4","","13.9","","97","","","","0","","4.0","","99.60","","","","","","Fog"
"1964-08-30 08:00","1964","08","30","08:00","17.8","","16.1","","90","","","","0","","8.0","","99.56","","","","","","Haze"
"1964-08-30 09:00","1964","08","30","09:00","23.3","","16.1","","65","","11","","16","","19.3","","99.48","","28","","","","Mainly Clear"
"1964-08-30 10:00","1964","08","30","10:00","23.3","","18.3","","72","","16","","10","","19.3","","99.46","","30","","","","Mainly Clear"
"1964-08-30 11:00","1964","08","30","11:00","23.9","","18.9","","74","","14","","11","","16.1","","99.42","","31","","","","Mainly Clear"
"1964-08-30 12:00","1964","08","30","12:00","24.4","","19.4","","73","","16","","8","","12.9","","99.38","","31","","","","Mainly Clear"
"1964-08-30 13:00","1964","08","30","13:00","25.6","","20.6","","74","","16","","13","","9.7","","99.28","","34","","","","Haze"
"1964-08-30 14:00","1964","08","30","14:00","25.6","","21.1","","75","","16","","13","","9.7","","99.20","","34","","","","Haze"
"1964-08-30 15:00","1964","08","30","15:00","24.4","","19.4","","75","","16","","14","","9.7","","99.17","","31","","","","Haze"
"1964-08-30 16:00","1964","08","30","16:00","23.9","","19.4","","76","","14","","16","","8.0","","99.11","","31","","","","Haze"
"1964-08-30 17:00","1964","08","30","17:00","23.9","","20.0","","78","","16","","14","","6.4","","99.06","","31","","","","Haze"
"1964-08-30 18:00","1964","08","30","18:00","23.3","","20.0","","82","","14","","13","","4.8","","99.03","","31","","","","Haze"
"1964-08-30 19:00","1964","08","30","19:00","22.2","","19.4","","85","","14","","8","","4.8","","99.00","","29","","","","Haze"
"1964-08-30 20:00","1964","08","30","20:00","20.6","","19.4","","92","","16","","11","","6.4","","98.99","","28","","","","Fog"
"1964-08-30 21:00","1964","08","30","21:00","21.1","","20.0","","92","","","","0","","6.4","","98.99","","29","","","","Fog"
"1964-08-30 22:00","1964","08","30","22:00","20.6","","19.4","","92","","","","0","","9.7","","98.98","","28","","","","Fog"
"1964-08-30 23:00","1964","08","30","23:00","21.1","","19.4","","91","","","","0","","4.8","","98.97","","28","","","","Fog"
"1964-08-31 00:00","1964","08","31","00:00","21.1","","20.0","","94","","18","","5","","4.8","","98.93","","29","","","","Fog"
"1964-08-31 01:00","1964","08","31","01:00","21.7","","20.0","","91","","18","","3","","8.0","","98.89","","29","","","","Fog"
"1964-08-31 02:00","1964","08","31","02:00","20.6","","18.9","","90","","29","","8","","12.9","","98.87","","27","","","","Clear"
"1964-08-31 03:00","1964","08","31","03:00","20.6","","18.9","","90","","25","","6","","12.9","","98.87","","27","","","","Clear"
"1964-08-31 04:00","1964","08","31","04:00","19.4","","17.8","","90","","29","","8","","19.3","","98.87","","","","","","Clear"
"1964-08-31 05:00","1964","08","31","05:00","18.3","","16.7","","90","","32","","10","","19.3","","98.91","","","","","","Clear"
"1964-08-31 06:00","1964","08","31","06:00","17.2","","15.0","","87","","29","","13","","24.1","","98.97","","","","","","Clear"
"1964-08-31 07:00","1964","08","31","07:00","17.2","","15.0","","87","","29","","13","","24.1","","99.04","","","","","","Clear"
"1964-08-31 08:00","1964","08","31","08:00","19.4","","15.0","","75","","27","","16","","32.2","","99.04","","","","","","Mainly Clear"
"1964-08-31 09:00","1964","08","31","09:00","19.4","","13.9","","70","","29","","21","","32.2","","99.07","","","","","","Mainly Clear"
"1964-08-31 10:00","1964","08","31","10:00","21.1","","15.0","","68","","29","","19","","32.2","","99.09","","25","","","","Mostly Cloudy"
"1964-08-31 11:00","1964","08","31","11:00","21.1","","13.9","","64","","27","","26","","32.2","","99.12","","","","","","Mostly Cloudy"
"1964-08-31 12:00","1964","08","31","12:00","21.1","","13.3","","61","","29","","26","","32.2","","99.12","","","","","","Mostly Cloudy"
"1964-08-31 13:00","1964","08","31","13:00","21.7","","13.3","","60","","29","","26","","40.2","","99.16","","25","","","","Mostly Cloudy"
"1964-08-31 14:00","1964","08","31","14:00","21.1","","13.3","","61","","32","","19","","40.2","","99.17","","","","","","Mostly Cloudy"
"1964-08-31 15:00","1964","08","31","15:00","20.6","","13.3","","64","","29","","21","","40.2","","99.18","","","","","","Mostly Cloudy"
"1964-08-31 16:00","1964","08","31","16:00","21.1","","12.8","","59","","29","","11","","40.2","","99.20","","","","","","Mostly Cloudy"
"1964-08-31 17:00","1964","08","31","17:00","20.6","","12.8","","62","","32","","19","","40.2","","99.27","","","","","","Mostly Cloudy"
"1964-08-31 18:00","1964","08","31","18:00","20.6","","13.9","","65","","32","","18","","40.2","","99.30","","","","","","Mostly Cloudy"
"1964-08-31 19:00","1964","08","31","19:00","19.4","","13.9","","70","","32","","21","","40.2","","99.35","","","","","","Mostly Cloudy"
"1964-08-31 20:00","1964","08","31","20:00","16.7","","13.3","","81","","29","","13","","40.2","","99.47","","","","","","Mainly Clear"
"1964-08-31 21:00","1964","08","31","21:00","15.6","","13.3","","87","","32","","11","","32.2","","99.51","","","","","","Mainly Clear"
"1964-08-31 22:00","1964","08","31","22:00","15.0","","13.9","","93","","29","","16","","32.2","","99.50","","","","","","Mainly Clear"
"1964-08-31 23:00","1964","08","31","23:00","14.4","","12.8","","90","","32","","5","","32.2","","99.49","","","","","","Clear"
