"Station Name","TORONTO LESTER B. PEARSON INT'L A"
"Province","ONTARIO"
"Latitude","43.68"
"Longitude","-79.63"
"Elevation","173.40"
"Climate Identifier","6158733"
"WMO Identifier","71624"
"TC Identifier","YYZ"
"All times are specified in Local Standard Time (LST). Add 1 hour to adjust for Daylight Saving Time where and when it is observed."

"Legend"
"E","Estimated"
"M","Missing"
"NA","Not Available"

"Date/Time","Year","Month","Day","Time","Temp (°C)","Temp Flag","Dew Point Temp (°C)","Dew Point Temp Flag","Rel Hum (%)","Rel Hum Flag","Wind Dir (10s deg)","Wind Dir Flag","Wind Spd (km/h)","Wind Spd Flag","Visibility (km)","Visibility Flag","Stn Press (kPa)","Stn Press Flag","Hmdx","Hmdx Flag","Wind Chill","Wind Chill Flag","Weather"
"1959-06-01 00:00","1959","06","01","00:00","15.6","","11.7","","78","","23","","5","","12.9","","99.06","","","","","","Rain Showers"
"1959-06-01 01:00","1959","06","01","01:00","15.0","","11.7","","81","","14","","6","","12.9","","98.98","","","","","","Cloudy"
"1959-06-01 02:00","1959","06","01","02:00","16.1","","14.4","","90","","23","","13","","8.0","","99.02","","","","","","Rain Showers,Fog"
"1959-06-01 03:00","1959","06","01","03:00","18.3","","16.7","","90","","23","","21","","8.0","","98.98","","","","","","Rain Showers,Fog"
"1959-06-01 04:00","1959","06","01","04:00","17.8","","16.7","","93","","20","","16","","8.0","","98.94","","","","","","Rain Showers,Fog"
"1959-06-01 05:00","1959","06","01","05:00","17.2","","16.1","","93","","18","","13","","11.3","","98.98","","","","","","Rain Showers"
"1959-06-01 06:00","1959","06","01","06:00","17.2","","16.1","","93","","18","","13","","11.3","","98.99","","","","","","Rain Showers"
"1959-06-01 07:00","1959","06","01","07:00","18.3","","17.2","","93","","16","","3","","4.8","","99.05","","","","","","Rain Showers,Fog"
"1959-06-01 08:00","1959","06","01","08:00","19.4","","18.9","","97","","20","","11","","12.9","","99.00","","","","","","Cloudy"
"1959-06-01 09:00","1959","06","01","09:00","20.0","","18.9","","93","","20","","19","","11.3","","98.98","","27","","","","Cloudy"
"1959-06-01 10:00","1959","06","01","10:00","20.6","","19.4","","93","","23","","11","","16.1","","99.02","","28","","","","Cloudy"
"1959-06-01 11:00","1959","06","01","11:00","21.7","","18.9","","84","","25","","16","","19.3","","99.01","","28","","","","Cloudy"
"1959-06-01 12:00","1959","06","01","12:00","22.8","","18.9","","79","","25","","13","","19.3","","98.99","","29","","","","Cloudy"
"1959-06-01 13:00","1959","06","01","13:00","22.8","","17.8","","74","","32","","26","","24.1","","98.96","","29","","","","Mostly Cloudy"
"1959-06-01 14:00","1959","06","01","14:00","22.8","","16.7","","69","","32","","29","","25.0","","98.95","","28","","","","Mostly Cloudy"
"1959-06-01 15:00","1959","06","01","15:00","22.2","","14.4","","61","","32","","26","","25.0","","98.99","","26","","","","Mostly Cloudy"
"1959-06-01 16:00","1959","06","01","16:00","21.7","","13.9","","61","","34","","23","","25.0","","99.03","","25","","","","Mostly Cloudy"
"1959-06-01 17:00","1959","06","01","17:00","19.4","","13.3","","68","","36","","24","","25.0","","99.07","","","","","","Mostly Cloudy"
"1959-06-01 18:00","1959","06","01","18:00","16.7","","10.0","","65","","36","","29","","25.0","","99.18","","","","","","Mostly Cloudy"
"1959-06-01 19:00","1959","06","01","19:00","15.6","","9.4","","67","","2","","29","","24.1","","99.29","","","","","","Mainly Clear"
"1959-06-01 20:00","1959","06","01","20:00","14.4","","8.3","","67","","34","","19","","24.1","","99.35","","","","","","Mostly Cloudy"
"1959-06-01 21:00","1959","06","01","21:00","12.8","","9.4","","80","","36","","13","","25.0","","99.43","","","","","","Mainly Clear"
"1959-06-01 22:00","1959","06","01","22:00","12.2","","8.9","","80","","36","","16","","25.0","","99.44","","","","","","Mainly Clear"
"1959-06-01 23:00","1959","06","01","23:00","11.7","","8.9","","83","","36","","13","","25.0","","99.41","","","","","","Mainly Clear"
"1959-06-02 00:00","1959","06","02","00:00","11.1","","8.3","","83","","36","","13","","25.0","","99.44","","","","","","Mainly Clear"
"1959-06-02 01:00","1959","06","02","01:00","10.6","","8.3","","86","","36","","13","","25.0","","99.48","","","","","","Mainly Clear"
"1959-06-02 02:00","1959","06","02","02:00","10.0","","7.8","","86","","36","","11","","25.0","","99.49","","","","","","Mainly Clear"
"1959-06-02 03:00","1959","06","02","03:00","9.4","","7.2","","86","","36","","14","","25.0","","99.52","","","","","","Mainly Clear"
"1959-06-02 04:00","1959","06","02","04:00","8.9","","7.8","","93","","36","","11","","25.0","","99.53","","","","","","Mainly Clear"
"1959-06-02 05:00","1959","06","02","05:00","8.3","","7.2","","93","","36","","11","","19.3","","99.55","","","","","","Mainly Clear"
"1959-06-02 06:00","1959","06","02","06:00","8.9","","7.2","","89","","36","","13","","24.1","","99.57","","","","","","Mostly Cloudy"
"1959-06-02 07:00","1959","06","02","07:00","10.6","","8.3","","86","","2","","13","","24.1","","99.59","","","","","","Mostly Cloudy"
"1959-06-02 08:00","1959","06","02","08:00","13.9","","8.3","","69","","5","","13","","25.0","","99.61","","","","","","Mostly Cloudy"
"1959-06-02 09:00","1959","06","02","09:00","15.0","","8.9","","67","","5","","14","","25.0","","99.57","","","","","","Mostly Cloudy"
"1959-06-02 10:00","1959","06","02","10:00","15.6","","8.9","","65","","5","","14","","25.0","","99.55","","","","","","Mostly Cloudy"
"1959-06-02 11:00","1959","06","02","11:00","17.2","","9.4","","60","","9","","11","","25.0","","99.54","","","","","","Mostly Cloudy"
"1959-06-02 12:00","1959","06","02","12:00","17.8","","8.9","","56","","5","","14","","25.0","","99.46","","","","","","Mostly Cloudy"
"1959-06-02 13:00","1959","06","02","13:00","18.3","","9.4","","56","","5","","11","","25.0","","99.43","","","","","","Mostly Cloudy"
"1959-06-02 14:00","1959","06","02","14:00","18.3","","7.8","","50","","36","","10","","25.0","","99.41","","","","","","Mostly Cloudy"
"1959-06-02 15:00","1959","06","02","15:00","18.9","","9.4","","54","","2","","10","","25.0","","99.37","","","","","","Mostly Cloudy"
"1959-06-02 16:00","1959","06","02","16:00","19.4","","8.9","","50","","2","","13","","25.0","","99.34","","","","","","Mostly Cloudy"
"1959-06-02 17:00","1959","06","02","17:00","19.4","","8.3","","49","","2","","14","","25.0","","99.28","","","","","","Mostly Cloudy"
"1959-06-02 18:00","1959","06","02","18:00","18.9","","9.4","","54","","2","","10","","25.0","","99.24","","","","","","Mostly Cloudy"
"1959-06-02 19:00","1959","06","02","19:00","18.3","","10.0","","58","","18","","10","","25.0","","99.26","","","","","","Mainly Clear"
"1959-06-02 20:00","1959","06","02","20:00","16.1","","9.4","","65","","36","","5","","25.0","","99.32","","","","","","Mainly Clear"
"1959-06-02 21:00","1959","06","02","21:00","13.9","","8.3","","69","","36","","10","","25.0","","99.36","","","","","","Mainly Clear"
"1959-06-02 22:00","1959","06","02","22:00","12.2","","7.2","","71","","36","","13","","25.0","","99.37","","","","","","Clear"
"1959-06-02 23:00","1959","06","02","23:00","10.6","","6.1","","74","","36","","16","","24.1","","99.37","","","","","","Mainly Clear"
"1959-06-03 00:00","1959","06","03","00:00","9.4","","5.6","","77","","36","","10","","24.1","","99.37","","","","","","Mainly Clear"
"1959-06-03 01:00","1959","06","03","01:00","9.4","","5.6","","77","","34","","11","","24.1","","99.37","","","","","","Clear"
"1959-06-03 02:00","1959","06","03","02:00","8.9","","5.6","","80","","34","","6","","24.1","","99.35","","","","","","Clear"
"1959-06-03 03:00","1959","06","03","03:00","8.3","","5.6","","83","","32","","6","","24.1","","99.37","","","","","","Clear"
"1959-06-03 04:00","1959","06","03","04:00","7.8","","5.0","","82","","32","","5","","24.1","","99.37","","","","","","Clear"
"1959-06-03 05:00","1959","06","03","05:00","7.2","","5.0","","86","","32","","5","","25.0","","99.40","","","","","","Clear"
"1959-06-03 06:00","1959","06","03","06:00","8.3","","4.4","","76","","32","","3","","25.0","","99.45","","","","","","Clear"
"1959-06-03 07:00","1959","06","03","07:00","11.1","","4.4","","62","","32","","3","","25.0","","99.49","","","","","","Clear"
"1959-06-03 08:00","1959","06","03","08:00","16.1","","5.6","","50","","32","","10","","25.0","","99.53","","","","","","Clear"
"1959-06-03 09:00","1959","06","03","09:00","19.4","","6.1","","42","","29","","8","","25.0","","99.53","","","","","","Clear"
"1959-06-03 10:00","1959","06","03","10:00","21.1","","8.9","","46","","27","","10","","25.0","","99.49","","","","","","Mainly Clear"
"1959-06-03 11:00","1959","06","03","11:00","22.8","","8.3","","40","","25","","6","","25.0","","99.50","","","","","","Mainly Clear"
"1959-06-03 12:00","1959","06","03","12:00","24.4","","7.2","","33","","27","","8","","25.0","","99.50","","","","","","Mainly Clear"
"1959-06-03 13:00","1959","06","03","13:00","25.0","","8.3","","35","","32","","11","","25.0","","99.50","","26","","","","Mainly Clear"
"1959-06-03 14:00","1959","06","03","14:00","25.6","","8.9","","35","","27","","13","","25.0","","99.47","","26","","","","Mainly Clear"
"1959-06-03 15:00","1959","06","03","15:00","26.1","","9.4","","35","","27","","16","","25.0","","99.44","","27","","","","Mainly Clear"
"1959-06-03 16:00","1959","06","03","16:00","25.6","","10.6","","39","","27","","19","","25.0","","99.45","","27","","","","Mostly Cloudy"
"1959-06-03 17:00","1959","06","03","17:00","25.6","","11.7","","42","","27","","19","","25.0","","99.46","","28","","","","Mainly Clear"
"1959-06-03 18:00","1959","06","03","18:00","25.0","","11.1","","42","","27","","23","","25.0","","99.49","","27","","","","Mainly Clear"
"1959-06-03 19:00","1959","06","03","19:00","23.9","","12.2","","48","","27","","13","","25.0","","99.52","","26","","","","Mainly Clear"
"1959-06-03 20:00","1959","06","03","20:00","21.1","","12.2","","57","","27","","11","","25.0","","99.56","","","","","","Clear"
"1959-06-03 21:00","1959","06","03","21:00","20.0","","12.2","","61","","27","","10","","25.0","","99.60","","","","","","Clear"
"1959-06-03 22:00","1959","06","03","22:00","18.3","","11.7","","65","","23","","8","","25.0","","99.67","","","","","","Clear"
"1959-06-03 23:00","1959","06","03","23:00","17.2","","11.1","","67","","23","","6","","25.0","","99.71","","","","","","Clear"
"1959-06-04 00:00","1959","06","04","00:00","16.1","","12.2","","78","","25","","10","","24.1","","99.70","","","","","","Clear"
"1959-06-04 01:00","1959","06","04","01:00","16.1","","11.7","","75","","27","","8","","24.1","","99.70","","","","","","Clear"
"1959-06-04 02:00","1959","06","04","02:00","15.6","","12.2","","81","","36","","3","","24.1","","99.66","","","","","","Clear"
"1959-06-04 03:00","1959","06","04","03:00","15.6","","11.1","","75","","","","0","","24.1","","99.68","","","","","","Clear"
"1959-06-04 04:00","1959","06","04","04:00","13.9","","10.0","","77","","","","0","","24.1","","99.70","","","","","","Mainly Clear"
"1959-06-04 05:00","1959","06","04","05:00","12.2","","10.0","","86","","36","","8","","19.3","","99.76","","","","","","Mainly Clear"
"1959-06-04 06:00","1959","06","04","06:00","16.7","","11.1","","70","","32","","10","","19.3","","99.79","","","","","","Mainly Clear"
"1959-06-04 07:00","1959","06","04","07:00","17.2","","12.2","","72","","","","0","","19.3","","99.84","","","","","","Mainly Clear"
"1959-06-04 08:00","1959","06","04","08:00","20.0","","12.2","","61","","","","0","","19.3","","99.89","","","","","","Mainly Clear"
"1959-06-04 09:00","1959","06","04","09:00","22.2","","13.3","","57","","","","0","","16.1","","99.92","","25","","","","Clear"
"1959-06-04 10:00","1959","06","04","10:00","24.4","","14.4","","54","","16","","6","","16.1","","99.95","","28","","","","Clear"
"1959-06-04 11:00","1959","06","04","11:00","25.6","","13.3","","47","","16","","11","","12.9","","99.95","","29","","","","Mainly Clear"
"1959-06-04 12:00","1959","06","04","12:00","26.1","","13.3","","45","","18","","11","","12.9","","99.92","","29","","","","Mainly Clear"
"1959-06-04 13:00","1959","06","04","13:00","26.7","","12.8","","42","","18","","14","","12.9","","99.91","","29","","","","Mainly Clear"
"1959-06-04 14:00","1959","06","04","14:00","27.8","","13.9","","43","","18","","18","","12.9","","99.88","","31","","","","Mainly Clear"
"1959-06-04 15:00","1959","06","04","15:00","28.3","","14.4","","43","","18","","14","","16.1","","99.86","","32","","","","Mainly Clear"
"1959-06-04 16:00","1959","06","04","16:00","28.3","","11.1","","34","","27","","19","","16.1","","99.85","","30","","","","Mainly Clear"
"1959-06-04 17:00","1959","06","04","17:00","27.8","","11.1","","36","","29","","19","","24.1","","99.84","","30","","","","Mainly Clear"
"1959-06-04 18:00","1959","06","04","18:00","26.7","","11.7","","39","","29","","13","","24.1","","99.84","","29","","","","Mainly Clear"
"1959-06-04 19:00","1959","06","04","19:00","26.1","","13.3","","45","","27","","10","","24.1","","99.81","","29","","","","Mainly Clear"
"1959-06-04 20:00","1959","06","04","20:00","23.9","","12.2","","48","","23","","8","","24.1","","99.75","","26","","","","Mainly Clear"
"1959-06-04 21:00","1959","06","04","21:00","21.1","","13.9","","63","","23","","8","","24.1","","99.76","","","","","","Mainly Clear"
"1959-06-04 22:00","1959","06","04","22:00","20.0","","13.3","","66","","25","","8","","24.1","","99.74","","","","","","Mainly Clear"
"1959-06-04 23:00","1959","06","04","23:00","19.4","","12.8","","65","","27","","10","","24.1","","99.71","","","","","","Mainly Clear"
"1959-06-05 00:00","1959","06","05","00:00","17.8","","11.7","","68","","25","","6","","24.1","","99.74","","","","","","Mainly Clear"
"1959-06-05 01:00","1959","06","05","01:00","17.2","","11.7","","70","","27","","11","","19.3","","99.75","","","","","","Clear"
"1959-06-05 02:00","1959","06","05","02:00","16.1","","11.7","","75","","27","","8","","24.1","","99.78","","","","","","Clear"
"1959-06-05 03:00","1959","06","05","03:00","15.6","","11.1","","75","","27","","6","","19.3","","99.82","","","","","","Clear"
"1959-06-05 04:00","1959","06","05","04:00","15.0","","10.6","","75","","27","","10","","19.3","","99.78","","","","","","Mainly Clear"
"1959-06-05 05:00","1959","06","05","05:00","15.6","","9.4","","67","","","","0","","24.1","","99.78","","","","","","Mainly Clear"
"1959-06-05 06:00","1959","06","05","06:00","15.6","","10.6","","72","","32","","5","","16.1","","99.78","","","","","","Clear"
"1959-06-05 07:00","1959","06","05","07:00","17.2","","10.0","","63","","27","","6","","16.1","","99.79","","","","","","Clear"
"1959-06-05 08:00","1959","06","05","08:00","21.1","","12.8","","59","","25","","6","","12.9","","99.75","","","","","","Clear"
"1959-06-05 09:00","1959","06","05","09:00","23.3","","12.2","","50","","25","","14","","12.9","","99.69","","26","","","","Clear"
"1959-06-05 10:00","1959","06","05","10:00","25.6","","11.1","","41","","25","","21","","16.1","","99.64","","27","","","","Clear"
"1959-06-05 11:00","1959","06","05","11:00","26.1","","11.1","","39","","27","","21","","16.1","","99.61","","28","","","","Mainly Clear"
"1959-06-05 12:00","1959","06","05","12:00","27.2","","11.7","","38","","25","","24","","16.1","","99.56","","29","","","","Mainly Clear"
"1959-06-05 13:00","1959","06","05","13:00","27.2","","11.7","","38","","23","","24","","16.1","","99.52","","29","","","","Mainly Clear"
"1959-06-05 14:00","1959","06","05","14:00","27.2","","11.7","","38","","25","","21","","19.3","","99.42","","29","","","","Mainly Clear"
"1959-06-05 15:00","1959","06","05","15:00","27.8","","11.7","","37","","25","","23","","19.3","","99.35","","30","","","","Mainly Clear"
"1959-06-05 16:00","1959","06","05","16:00","28.3","","12.2","","37","","25","","23","","16.1","","99.29","","31","","","","Mainly Clear"
"1959-06-05 17:00","1959","06","05","17:00","27.8","","11.7","","37","","27","","23","","16.1","","99.23","","30","","","","Mainly Clear"
"1959-06-05 18:00","1959","06","05","18:00","26.7","","13.3","","44","","25","","11","","16.1","","99.20","","30","","","","Mainly Clear"
"1959-06-05 19:00","1959","06","05","19:00","25.6","","13.3","","47","","27","","11","","16.1","","99.19","","29","","","","Mainly Clear"
"1959-06-05 20:00","1959","06","05","20:00","23.9","","13.3","","52","","29","","13","","11.3","","99.23","","27","","","","Mostly Cloudy"
"1959-06-05 21:00","1959","06","05","21:00","22.8","","13.3","","55","","23","","6","","16.1","","99.26","","26","","","","Mainly Clear"
"1959-06-05 22:00","1959","06","05","22:00","20.0","","13.3","","66","","23","","8","","19.3","","99.23","","","","","","Clear"
"1959-06-05 23:00","1959","06","05","23:00","18.9","","12.8","","68","","25","","8","","19.3","","99.22","","","","","","Clear"
"1959-06-06 00:00","1959","06","06","00:00","18.3","","12.2","","68","","25","","6","","16.1","","99.22","","","","","","Clear"
"1959-06-06 01:00","1959","06","06","01:00","17.2","","12.8","","75","","25","","8","","12.9","","99.15","","","","","","Clear"
"1959-06-06 02:00","1959","06","06","02:00","17.2","","12.8","","75","","25","","13","","12.9","","99.12","","","","","","Clear"
"1959-06-06 03:00","1959","06","06","03:00","18.3","","12.2","","68","","27","","16","","12.9","","99.11","","","","","","Mostly Cloudy"
"1959-06-06 04:00","1959","06","06","04:00","17.2","","12.2","","72","","29","","10","","12.9","","99.11","","","","","","Mostly Cloudy"
"1959-06-06 05:00","1959","06","06","05:00","17.2","","12.2","","72","","32","","8","","12.9","","99.13","","","","","","Mostly Cloudy"
"1959-06-06 06:00","1959","06","06","06:00","17.2","","12.2","","72","","32","","6","","16.1","","99.18","","","","","","Mainly Clear"
"1959-06-06 07:00","1959","06","06","07:00","18.3","","13.3","","73","","34","","8","","16.1","","99.23","","","","","","Mainly Clear"
"1959-06-06 08:00","1959","06","06","08:00","19.4","","13.9","","70","","34","","16","","16.1","","99.30","","","","","","Mainly Clear"
"1959-06-06 09:00","1959","06","06","09:00","20.6","","13.9","","66","","34","","13","","24.1","","99.33","","","","","","Mainly Clear"
"1959-06-06 10:00","1959","06","06","10:00","21.7","","13.3","","59","","36","","13","","25.0","","99.34","","25","","","","Mainly Clear"
"1959-06-06 11:00","1959","06","06","11:00","22.2","","13.9","","59","","36","","13","","25.0","","99.37","","26","","","","Mainly Clear"
"1959-06-06 12:00","1959","06","06","12:00","22.2","","13.3","","57","","36","","19","","25.0","","99.40","","25","","","","Mainly Clear"
"1959-06-06 13:00","1959","06","06","13:00","22.2","","13.3","","57","","36","","14","","25.0","","99.42","","25","","","","Mainly Clear"
"1959-06-06 14:00","1959","06","06","14:00","22.2","","11.7","","51","","36","","26","","25.0","","99.42","","","","","","Mainly Clear"
"1959-06-06 15:00","1959","06","06","15:00","22.2","","11.7","","51","","36","","21","","25.0","","99.41","","","","","","Mainly Clear"
"1959-06-06 16:00","1959","06","06","16:00","22.8","","11.1","","48","","36","","16","","25.0","","99.41","","25","","","","Mostly Cloudy"
"1959-06-06 17:00","1959","06","06","17:00","21.7","","11.7","","53","","36","","18","","25.0","","99.41","","","","","","Mostly Cloudy"
"1959-06-06 18:00","1959","06","06","18:00","18.9","","12.2","","65","","36","","23","","25.0","","99.46","","","","","","Mostly Cloudy"
"1959-06-06 19:00","1959","06","06","19:00","17.2","","10.6","","65","","36","","23","","25.0","","99.49","","","","","","Mostly Cloudy"
"1959-06-06 20:00","1959","06","06","20:00","16.7","","10.0","","65","","36","","16","","25.0","","99.50","","","","","","Mostly Cloudy"
"1959-06-06 21:00","1959","06","06","21:00","14.4","","9.4","","72","","36","","18","","25.0","","99.57","","","","","","Mainly Clear"
"1959-06-06 22:00","1959","06","06","22:00","13.3","","9.4","","77","","36","","14","","25.0","","99.61","","","","","","Clear"
"1959-06-06 23:00","1959","06","06","23:00","12.2","","8.9","","80","","36","","10","","25.0","","99.63","","","","","","Clear"
"1959-06-07 00:00","1959","06","07","00:00","10.6","","8.3","","86","","32","","8","","25.0","","99.64","","","","","","Clear"
"1959-06-07 01:00","1959","06","07","01:00","11.1","","8.9","","86","","36","","10","","25.0","","99.69","","","","","","Clear"
"1959-06-07 02:00","1959","06","07","02:00","10.0","","8.9","","93","","2","","10","","25.0","","99.72","","","","","","Clear"
"1959-06-07 03:00","1959","06","07","03:00","10.0","","8.3","","89","","36","","8","","25.0","","99.72","","","","","","Clear"
"1959-06-07 04:00","1959","06","07","04:00","10.0","","8.3","","89","","36","","13","","25.0","","99.74","","","","","","Mainly Clear"
"1959-06-07 05:00","1959","06","07","05:00","9.4","","7.8","","89","","36","","10","","25.0","","99.76","","","","","","Mostly Cloudy"
"1959-06-07 06:00","1959","06","07","06:00","10.6","","8.3","","86","","36","","10","","25.0","","99.82","","","","","","Mostly Cloudy"
"1959-06-07 07:00","1959","06","07","07:00","12.8","","10.0","","83","","36","","6","","25.0","","99.86","","","","","","Mostly Cloudy"
"1959-06-07 08:00","1959","06","07","08:00","16.7","","11.1","","70","","","","0","","25.0","","99.90","","","","","","Mostly Cloudy"
"1959-06-07 09:00","1959","06","07","09:00","17.2","","12.2","","72","","20","","5","","19.3","","99.91","","","","","","Mostly Cloudy"
"1959-06-07 10:00","1959","06","07","10:00","18.9","","12.2","","65","","23","","5","","19.3","","99.88","","","","","","Mostly Cloudy"
"1959-06-07 11:00","1959","06","07","11:00","20.6","","13.9","","66","","20","","10","","16.1","","99.92","","","","","","Mostly Cloudy"
"1959-06-07 12:00","1959","06","07","12:00","21.7","","13.9","","61","","20","","10","","16.1","","99.88","","25","","","","Mostly Cloudy"
"1959-06-07 13:00","1959","06","07","13:00","23.9","","14.4","","56","","16","","14","","16.1","","99.86","","28","","","","Mostly Cloudy"
"1959-06-07 14:00","1959","06","07","14:00","24.4","","14.4","","54","","16","","14","","11.3","","99.83","","28","","","","Mostly Cloudy"
"1959-06-07 15:00","1959","06","07","15:00","23.9","","14.4","","56","","16","","18","","11.3","","99.79","","28","","","","Mostly Cloudy"
"1959-06-07 16:00","1959","06","07","16:00","22.8","","13.3","","55","","18","","16","","11.3","","99.78","","26","","","","Mostly Cloudy"
"1959-06-07 17:00","1959","06","07","17:00","23.9","","14.4","","56","","18","","16","","12.9","","99.77","","28","","","","Mostly Cloudy"
"1959-06-07 18:00","1959","06","07","18:00","23.9","","14.4","","56","","18","","16","","12.9","","99.74","","28","","","","Mostly Cloudy"
"1959-06-07 19:00","1959","06","07","19:00","22.8","","14.4","","59","","18","","16","","12.9","","99.74","","26","","","","Mostly Cloudy"
"1959-06-07 20:00","1959","06","07","20:00","20.6","","15.6","","73","","18","","16","","12.9","","99.70","","25","","","","Mostly Cloudy"
"1959-06-07 21:00","1959","06","07","21:00","19.4","","16.1","","81","","18","","13","","12.9","","99.74","","","","","","Mainly Clear"
"1959-06-07 22:00","1959","06","07","22:00","18.9","","15.6","","81","","23","","13","","12.9","","99.76","","","","","","Clear"
"1959-06-07 23:00","1959","06","07","23:00","18.3","","15.0","","81","","23","","14","","11.3","","99.79","","","","","","Clear"
"1959-06-08 00:00","1959","06","08","00:00","18.3","","14.4","","78","","25","","8","","12.9","","99.82","","","","","","Clear"
"1959-06-08 01:00","1959","06","08","01:00","18.3","","14.4","","78","","23","","8","","12.9","","99.80","","","","","","Clear"
"1959-06-08 02:00","1959","06","08","02:00","18.3","","12.2","","68","","18","","11","","11.3","","99.80","","","","","","Clear"
"1959-06-08 03:00","1959","06","08","03:00","18.3","","11.1","","63","","27","","8","","11.3","","99.82","","","","","","Clear"
"1959-06-08 04:00","1959","06","08","04:00","17.8","","10.0","","60","","27","","8","","16.1","","99.82","","","","","","Mainly Clear"
"1959-06-08 05:00","1959","06","08","05:00","17.2","","9.4","","60","","25","","8","","16.1","","99.83","","","","","","Mainly Clear"
"1959-06-08 06:00","1959","06","08","06:00","18.3","","11.1","","63","","27","","8","","11.3","","99.84","","","","","","Mainly Clear"
"1959-06-08 07:00","1959","06","08","07:00","20.0","","12.2","","61","","27","","11","","24.1","","99.89","","","","","","Mainly Clear"
"1959-06-08 08:00","1959","06","08","08:00","23.3","","14.4","","58","","27","","14","","16.1","","99.93","","27","","","","Mainly Clear"
"1959-06-08 09:00","1959","06","08","09:00","26.1","","15.6","","52","","27","","16","","12.9","","99.89","","30","","","","Clear"
"1959-06-08 10:00","1959","06","08","10:00","27.8","","16.1","","49","","27","","16","","16.1","","99.87","","32","","","","Clear"
"1959-06-08 11:00","1959","06","08","11:00","29.4","","15.0","","42","","25","","14","","16.1","","99.85","","33","","","","Mainly Clear"
"1959-06-08 12:00","1959","06","08","12:00","30.6","","14.4","","38","","27","","23","","16.1","","99.82","","34","","","","Mainly Clear"
"1959-06-08 13:00","1959","06","08","13:00","31.1","","13.9","","35","","29","","24","","16.1","","99.79","","34","","","","Mainly Clear"
"1959-06-08 14:00","1959","06","08","14:00","31.1","","14.4","","36","","27","","24","","19.3","","99.76","","35","","","","Mainly Clear"
"1959-06-08 15:00","1959","06","08","15:00","31.1","","15.6","","39","","29","","24","","19.3","","99.70","","35","","","","Mainly Clear"
"1959-06-08 16:00","1959","06","08","16:00","30.6","","16.1","","42","","29","","24","","19.3","","99.64","","35","","","","Mainly Clear"
"1959-06-08 17:00","1959","06","08","17:00","30.6","","15.6","","41","","27","","21","","16.1","","99.64","","35","","","","Mainly Clear"
"1959-06-08 18:00","1959","06","08","18:00","30.0","","16.7","","45","","27","","16","","16.1","","99.59","","35","","","","Mainly Clear"
"1959-06-08 19:00","1959","06","08","19:00","28.9","","16.7","","48","","27","","13","","12.9","","99.61","","34","","","","Clear"
"1959-06-08 20:00","1959","06","08","20:00","26.1","","16.1","","54","","27","","11","","11.3","","99.60","","31","","","","Clear"
"1959-06-08 21:00","1959","06","08","21:00","25.6","","15.6","","54","","27","","11","","16.1","","99.65","","30","","","","Clear"
"1959-06-08 22:00","1959","06","08","22:00","23.3","","15.0","","60","","25","","10","","19.3","","99.67","","27","","","","Clear"
"1959-06-08 23:00","1959","06","08","23:00","22.2","","15.6","","66","","25","","10","","19.3","","99.69","","27","","","","Clear"
"1959-06-09 00:00","1959","06","09","00:00","21.1","","15.6","","71","","27","","10","","12.9","","99.74","","25","","","","Mostly Cloudy"
"1959-06-09 01:00","1959","06","09","01:00","20.6","","15.6","","73","","27","","10","","11.3","","99.69","","25","","","","Cloudy"
"1959-06-09 02:00","1959","06","09","02:00","21.1","","16.1","","73","","27","","16","","9.7","","99.69","","26","","","","Haze"
"1959-06-09 03:00","1959","06","09","03:00","19.4","","15.6","","78","","27","","13","","9.7","","99.70","","","","","","Haze"
"1959-06-09 04:00","1959","06","09","04:00","20.0","","15.6","","76","","27","","16","","9.7","","99.74","","","","","","Haze"
"1959-06-09 05:00","1959","06","09","05:00","19.4","","15.6","","78","","27","","11","","4.8","","99.74","","","","","","Haze"
"1959-06-09 06:00","1959","06","09","06:00","20.0","","16.1","","78","","27","","13","","8.0","","99.80","","25","","","","Haze"
"1959-06-09 07:00","1959","06","09","07:00","21.7","","16.1","","71","","27","","10","","6.4","","99.80","","26","","","","Haze"
"1959-06-09 08:00","1959","06","09","08:00","25.6","","17.2","","60","","27","","11","","6.4","","99.79","","31","","","","Haze"
"1959-06-09 09:00","1959","06","09","09:00","27.8","","16.1","","49","","27","","18","","9.7","","99.78","","32","","","","Haze"
"1959-06-09 10:00","1959","06","09","10:00","28.9","","15.6","","45","","27","","23","","9.7","","99.74","","33","","","","Haze"
"1959-06-09 11:00","1959","06","09","11:00","30.0","","15.0","","40","","27","","27","","9.7","","99.73","","34","","","","Haze"
"1959-06-09 12:00","1959","06","09","12:00","30.6","","15.0","","39","","27","","26","","9.7","","99.71","","35","","","","Haze"
"1959-06-09 13:00","1959","06","09","13:00","31.1","","15.6","","39","","27","","26","","9.7","","99.67","","35","","","","Haze"
"1959-06-09 14:00","1959","06","09","14:00","31.7","","15.0","","37","","27","","26","","9.7","","99.60","","36","","","","Haze"
"1959-06-09 15:00","1959","06","09","15:00","31.7","","15.6","","38","","27","","24","","9.7","","99.57","","36","","","","Haze"
"1959-06-09 16:00","1959","06","09","16:00","32.2","","15.6","","37","","27","","27","","9.7","","99.55","","37","","","","Haze"
"1959-06-09 17:00","1959","06","09","17:00","31.1","","15.6","","39","","27","","24","","9.7","","99.55","","35","","","","Haze"
"1959-06-09 18:00","1959","06","09","18:00","30.6","","15.6","","41","","27","","23","","12.9","","99.52","","35","","","","Mainly Clear"
"1959-06-09 19:00","1959","06","09","19:00","29.4","","17.2","","48","","27","","10","","12.9","","99.50","","35","","","","Mainly Clear"
"1959-06-09 20:00","1959","06","09","20:00","27.8","","17.2","","53","","23","","8","","12.9","","99.50","","33","","","","Mainly Clear"
"1959-06-09 21:00","1959","06","09","21:00","25.0","","17.8","","64","","25","","13","","12.9","","99.52","","31","","","","Mainly Clear"
"1959-06-09 22:00","1959","06","09","22:00","23.9","","18.3","","71","","25","","16","","12.9","","99.52","","30","","","","Mainly Clear"
"1959-06-09 23:00","1959","06","09","23:00","22.8","","16.1","","66","","27","","13","","16.1","","99.55","","27","","","","Mostly Cloudy"
"1959-06-10 00:00","1959","06","10","00:00","23.3","","13.9","","56","","27","","14","","16.1","","99.56","","27","","","","Mainly Clear"
"1959-06-10 01:00","1959","06","10","01:00","22.2","","14.4","","61","","27","","14","","16.1","","99.58","","26","","","","Mainly Clear"
"1959-06-10 02:00","1959","06","10","02:00","22.2","","14.4","","61","","27","","14","","16.1","","99.59","","26","","","","Mainly Clear"
"1959-06-10 03:00","1959","06","10","03:00","23.3","","14.4","","58","","27","","11","","16.1","","99.55","","27","","","","Mainly Clear"
"1959-06-10 04:00","1959","06","10","04:00","22.2","","13.9","","59","","27","","14","","12.9","","99.56","","26","","","","Mainly Clear"
"1959-06-10 05:00","1959","06","10","05:00","22.2","","14.4","","61","","27","","16","","8.0","","99.62","","26","","","","Haze"
"1959-06-10 06:00","1959","06","10","06:00","22.2","","15.6","","66","","27","","8","","8.0","","99.62","","27","","","","Haze"
"1959-06-10 07:00","1959","06","10","07:00","23.3","","16.7","","66","","32","","8","","6.4","","99.67","","28","","","","Haze"
"1959-06-10 08:00","1959","06","10","08:00","25.0","","17.2","","62","","32","","6","","6.4","","99.66","","30","","","","Haze"
"1959-06-10 09:00","1959","06","10","09:00","28.9","","18.9","","55","","32","","5","","6.4","","99.62","","36","","","","Haze"
"1959-06-10 10:00","1959","06","10","10:00","30.6","","14.4","","38","","27","","8","","8.0","","99.59","","34","","","","Haze"
"1959-06-10 11:00","1959","06","10","11:00","30.0","","16.1","","43","","27","","8","","9.7","","99.59","","35","","","","Haze"
"1959-06-10 12:00","1959","06","10","12:00","30.6","","16.1","","42","","27","","13","","9.7","","99.56","","35","","","","Haze"
"1959-06-10 13:00","1959","06","10","13:00","31.7","","16.7","","41","","25","","19","","9.7","","99.52","","37","","","","Haze"
"1959-06-10 14:00","1959","06","10","14:00","31.7","","16.1","","39","","18","","18","","9.7","","99.48","","36","","","","Haze"
"1959-06-10 15:00","1959","06","10","15:00","31.7","","16.1","","39","","18","","18","","9.7","","99.46","","36","","","","Haze"
"1959-06-10 16:00","1959","06","10","16:00","31.1","","16.1","","41","","18","","13","","11.3","","99.46","","36","","","","Mostly Cloudy"
"1959-06-10 17:00","1959","06","10","17:00","30.6","","18.9","","50","","20","","8","","11.3","","99.45","","37","","","","Mostly Cloudy"
"1959-06-10 18:00","1959","06","10","18:00","29.4","","18.3","","51","","27","","6","","11.3","","99.44","","36","","","","Mostly Cloudy"
"1959-06-10 19:00","1959","06","10","19:00","29.4","","18.9","","53","","36","","16","","11.3","","99.44","","36","","","","Mostly Cloudy"
"1959-06-10 20:00","1959","06","10","20:00","26.7","","18.9","","63","","5","","6","","8.0","","99.47","","33","","","","Haze"
"1959-06-10 21:00","1959","06","10","21:00","26.1","","17.2","","58","","5","","5","","9.7","","99.52","","32","","","","Haze"
"1959-06-10 22:00","1959","06","10","22:00","24.4","","18.3","","69","","27","","3","","9.7","","99.54","","31","","","","Haze"
"1959-06-10 23:00","1959","06","10","23:00","24.4","","16.7","","62","","34","","6","","9.7","","99.55","","29","","","","Haze"
"1959-06-11 00:00","1959","06","11","00:00","23.9","","16.7","","64","","32","","5","","9.7","","99.53","","29","","","","Haze"
"1959-06-11 01:00","1959","06","11","01:00","23.3","","17.2","","69","","","","0","","9.7","","99.50","","29","","","","Haze"
"1959-06-11 02:00","1959","06","11","02:00","22.2","","16.7","","71","","","","0","","12.9","","99.49","","27","","","","Cloudy"
"1959-06-11 03:00","1959","06","11","03:00","21.1","","17.2","","79","","25","","5","","12.9","","99.49","","27","","","","Mostly Cloudy"
"1959-06-11 04:00","1959","06","11","04:00","20.6","","17.2","","81","","","","0","","12.9","","99.48","","26","","","","Mostly Cloudy"
"1959-06-11 05:00","1959","06","11","05:00","19.4","","16.7","","84","","","","0","","6.4","","99.48","","","","","","Haze"
"1959-06-11 06:00","1959","06","11","06:00","20.0","","17.2","","84","","","","0","","6.4","","99.57","","25","","","","Haze"
"1959-06-11 07:00","1959","06","11","07:00","21.1","","17.2","","79","","","","0","","6.4","","99.62","","27","","","","Haze"
"1959-06-11 08:00","1959","06","11","08:00","24.4","","17.8","","67","","","","0","","6.4","","99.61","","30","","","","Haze"
"1959-06-11 09:00","1959","06","11","09:00","26.7","","16.7","","54","","23","","5","","6.4","","99.57","","32","","","","Haze"
"1959-06-11 10:00","1959","06","11","10:00","27.8","","16.1","","49","","23","","13","","6.4","","99.52","","32","","","","Haze"
"1959-06-11 11:00","1959","06","11","11:00","29.4","","17.8","","50","","18","","11","","4.8","","99.48","","35","","","","Haze"
"1959-06-11 12:00","1959","06","11","12:00","28.9","","16.7","","48","","18","","16","","4.0","","99.44","","34","","","","Haze"
"1959-06-11 13:00","1959","06","11","13:00","30.0","","17.2","","46","","18","","19","","4.8","","99.41","","35","","","","Haze"
"1959-06-11 14:00","1959","06","11","14:00","30.6","","17.8","","47","","16","","21","","4.8","","99.35","","36","","","","Haze"
"1959-06-11 15:00","1959","06","11","15:00","31.1","","17.2","","44","","18","","21","","4.8","","99.32","","37","","","","Haze"
"1959-06-11 16:00","1959","06","11","16:00","28.9","","16.7","","48","","16","","23","","4.0","","99.29","","34","","","","Haze"
"1959-06-11 17:00","1959","06","11","17:00","27.2","","15.0","","47","","16","","23","","4.0","","99.24","","31","","","","Haze"
"1959-06-11 18:00","1959","06","11","18:00","26.7","","15.0","","49","","16","","16","","4.0","","99.21","","31","","","","Haze"
"1959-06-11 19:00","1959","06","11","19:00","25.6","","15.0","","52","","14","","16","","4.0","","99.18","","30","","","","Haze"
"1959-06-11 20:00","1959","06","11","20:00","23.3","","14.4","","58","","16","","13","","4.0","","99.16","","27","","","","Haze"
"1959-06-11 21:00","1959","06","11","21:00","22.8","","15.0","","59","","14","","10","","4.0","","99.18","","27","","","","Haze"
"1959-06-11 22:00","1959","06","11","22:00","22.2","","15.0","","64","","18","","3","","4.8","","99.14","","26","","","","Haze"
"1959-06-11 23:00","1959","06","11","23:00","20.6","","15.6","","73","","29","","5","","4.8","","99.09","","25","","","","Haze"
"1959-06-12 00:00","1959","06","12","00:00","20.0","","16.1","","78","","25","","5","","6.4","","99.04","","25","","","","Haze"
"1959-06-12 01:00","1959","06","12","01:00","19.4","","15.6","","78","","14","","6","","4.8","","98.98","","","","","","Haze"
"1959-06-12 02:00","1959","06","12","02:00","19.4","","15.0","","76","","23","","3","","4.8","","98.93","","","","","","Haze"
"1959-06-12 03:00","1959","06","12","03:00","20.0","","16.1","","78","","18","","6","","4.8","","98.92","","25","","","","Haze"
"1959-06-12 04:00","1959","06","12","04:00","19.4","","16.7","","84","","18","","10","","3.6","","98.90","","","","","","Haze"
"1959-06-12 05:00","1959","06","12","05:00","18.9","","16.1","","84","","18","","13","","2.4","","98.90","","","","","","Haze"
"1959-06-12 06:00","1959","06","12","06:00","20.0","","17.8","","87","","18","","16","","2.4","","98.86","","26","","","","Haze"
"1959-06-12 07:00","1959","06","12","07:00","20.6","","17.8","","84","","18","","14","","3.2","","98.86","","26","","","","Haze"
"1959-06-12 08:00","1959","06","12","08:00","21.1","","20.0","","93","","23","","16","","6.4","","98.84","","29","","","","Fog"
"1959-06-12 09:00","1959","06","12","09:00","22.2","","20.6","","90","","23","","19","","11.3","","98.80","","30","","","","Cloudy"
"1959-06-12 10:00","1959","06","12","10:00","23.3","","20.6","","85","","23","","19","","11.3","","98.77","","31","","","","Mostly Cloudy"
"1959-06-12 11:00","1959","06","12","11:00","25.6","","19.4","","69","","23","","26","","11.3","","98.73","","33","","","","Mostly Cloudy"
"1959-06-12 12:00","1959","06","12","12:00","27.2","","19.4","","63","","23","","24","","12.9","","98.65","","34","","","","Mainly Clear"
"1959-06-12 13:00","1959","06","12","13:00","28.3","","18.9","","57","","23","","26","","12.9","","98.55","","35","","","","Mostly Cloudy"
"1959-06-12 14:00","1959","06","12","14:00","28.9","","17.8","","51","","23","","27","","16.1","","98.47","","35","","","","Mostly Cloudy"
"1959-06-12 15:00","1959","06","12","15:00","26.7","","21.1","","72","","23","","29","","6.4","","98.44","","35","","","","Thunderstorms,Rain Showers"
"1959-06-12 16:00","1959","06","12","16:00","26.1","","20.0","","69","","23","","32","","11.3","","98.42","","34","","","","Mostly Cloudy"
"1959-06-12 17:00","1959","06","12","17:00","25.6","","17.2","","60","","23","","23","","11.3","","98.36","","31","","","","Mostly Cloudy"
"1959-06-12 18:00","1959","06","12","18:00","22.8","","20.0","","84","","23","","29","","9.7","","98.36","","30","","","","Haze"
"1959-06-12 19:00","1959","06","12","19:00","23.9","","20.0","","79","","23","","16","","11.3","","98.33","","31","","","","Mostly Cloudy"
"1959-06-12 20:00","1959","06","12","20:00","22.2","","19.4","","84","","23","","14","","8.0","","98.30","","29","","","","Haze"
"1959-06-12 21:00","1959","06","12","21:00","21.7","","17.8","","79","","32","","32","","19.3","","98.41","","28","","","","Mainly Clear"
"1959-06-12 22:00","1959","06","12","22:00","20.0","","12.2","","61","","34","","21","","24.1","","98.47","","","","","","Mainly Clear"
"1959-06-12 23:00","1959","06","12","23:00","18.3","","11.7","","65","","32","","14","","25.0","","98.43","","","","","","Mainly Clear"
"1959-06-13 00:00","1959","06","13","00:00","16.1","","10.0","","67","","27","","10","","25.0","","98.47","","","","","","Mainly Clear"
"1959-06-13 01:00","1959","06","13","01:00","15.6","","10.0","","70","","25","","6","","25.0","","98.47","","","","","","Clear"
"1959-06-13 02:00","1959","06","13","02:00","15.0","","8.9","","67","","25","","6","","25.0","","98.49","","","","","","Mainly Clear"
"1959-06-13 03:00","1959","06","13","03:00","13.3","","9.4","","77","","25","","10","","25.0","","98.48","","","","","","Clear"
"1959-06-13 04:00","1959","06","13","04:00","12.8","","9.4","","80","","25","","11","","25.0","","98.47","","","","","","Mainly Clear"
"1959-06-13 05:00","1959","06","13","05:00","13.3","","9.4","","77","","29","","14","","25.0","","98.49","","","","","","Mainly Clear"
"1959-06-13 06:00","1959","06","13","06:00","13.9","","10.0","","77","","32","","13","","25.0","","98.53","","","","","","Mainly Clear"
"1959-06-13 07:00","1959","06","13","07:00","15.0","","10.0","","72","","29","","37","","25.0","","98.60","","","","","","Mainly Clear"
"1959-06-13 08:00","1959","06","13","08:00","13.9","","8.9","","72","","29","","31","","24.1","","98.66","","","","","","Mostly Cloudy"
"1959-06-13 09:00","1959","06","13","09:00","13.9","","8.9","","72","","29","","29","","24.1","","98.68","","","","","","Mostly Cloudy"
"1959-06-13 10:00","1959","06","13","10:00","13.3","","8.9","","74","","29","","26","","24.1","","98.74","","","","","","Cloudy"
"1959-06-13 11:00","1959","06","13","11:00","11.7","","9.4","","86","","34","","24","","16.1","","98.77","","","","","","Rain Showers"
"1959-06-13 12:00","1959","06","13","12:00","15.0","","7.2","","60","","34","","27","","24.1","","98.81","","","","","","Mostly Cloudy"
"1959-06-13 13:00","1959","06","13","13:00","15.6","","5.6","","51","","34","","35","","24.1","","98.82","","","","","","Mostly Cloudy"
"1959-06-13 14:00","1959","06","13","14:00","16.7","","3.9","","43","","34","","37","","24.1","","98.84","","","","","","Mostly Cloudy"
"1959-06-13 15:00","1959","06","13","15:00","16.7","","3.3","","41","","34","","31","","24.1","","98.85","","","","","","Mostly Cloudy"
"1959-06-13 16:00","1959","06","13","16:00","14.4","","5.0","","53","","34","","32","","25.0","","98.94","","","","","","Rain Showers"
"1959-06-13 17:00","1959","06","13","17:00","13.3","","2.2","","47","","36","","40","","25.0","","98.99","","","","","","Mostly Cloudy"
"1959-06-13 18:00","1959","06","13","18:00","12.8","","2.8","","51","","36","","35","","25.0","","99.04","","","","","","Mostly Cloudy"
"1959-06-13 19:00","1959","06","13","19:00","12.8","","3.9","","55","","36","","29","","25.0","","99.07","","","","","","Mostly Cloudy"
"1959-06-13 20:00","1959","06","13","20:00","12.8","","2.8","","51","","34","","40","","25.0","","99.16","","","","","","Mostly Cloudy"
"1959-06-13 21:00","1959","06","13","21:00","11.1","","3.3","","59","","36","","26","","25.0","","99.23","","","","","","Mainly Clear"
"1959-06-13 22:00","1959","06","13","22:00","10.6","","2.8","","59","","34","","24","","25.0","","99.36","","","","","","Mainly Clear"
"1959-06-13 23:00","1959","06","13","23:00","8.3","","3.3","","71","","32","","11","","25.0","","99.37","","","","","","Mainly Clear"
"1959-06-14 00:00","1959","06","14","00:00","7.2","","2.8","","73","","32","","8","","25.0","","99.39","","","","","","Mainly Clear"
"1959-06-14 01:00","1959","06","14","01:00","7.2","","2.8","","73","","27","","8","","24.1","","99.44","","","","","","Mainly Clear"
"1959-06-14 02:00","1959","06","14","02:00","7.2","","2.8","","73","","27","","8","","24.1","","99.43","","","","","","Mainly Clear"
"1959-06-14 03:00","1959","06","14","03:00","6.7","","2.8","","76","","32","","11","","24.1","","99.47","","","","","","Clear"
"1959-06-14 04:00","1959","06","14","04:00","5.0","","3.3","","89","","27","","8","","24.1","","99.49","","","","","","Mainly Clear"
"1959-06-14 05:00","1959","06","14","05:00","5.0","","3.3","","89","","29","","13","","16.1","","99.52","","","","","","Mainly Clear"
"1959-06-14 06:00","1959","06","14","06:00","8.9","","3.3","","68","","34","","19","","16.1","","99.55","","","","","","Mainly Clear"
"1959-06-14 07:00","1959","06","14","07:00","11.1","","3.3","","59","","34","","24","","16.1","","99.58","","","","","","Mainly Clear"
"1959-06-14 08:00","1959","06","14","08:00","12.2","","0.0","","43","","36","","35","","25.0","","99.56","","","","","","Clear"
"1959-06-14 09:00","1959","06","14","09:00","13.3","","-0.6","","38","","36","","32","","25.0","","99.54","","","","","","Clear"
"1959-06-14 10:00","1959","06","14","10:00","15.0","","-0.6","","34","","34","","35","","25.0","","99.55","","","","","","Clear"
"1959-06-14 11:00","1959","06","14","11:00","16.1","","0.6","","35","","34","","32","","25.0","","99.54","","","","","","Mainly Clear"
"1959-06-14 12:00","1959","06","14","12:00","16.7","","0.0","","32","","34","","40","","25.0","","99.52","","","","","","Mainly Clear"
"1959-06-14 13:00","1959","06","14","13:00","17.2","","1.7","","35","","36","","39","","25.0","","99.51","","","","","","Mainly Clear"
"1959-06-14 14:00","1959","06","14","14:00","17.8","","0.6","","31","","36","","39","","25.0","","99.53","","","","","","Mainly Clear"
"1959-06-14 15:00","1959","06","14","15:00","17.8","","-1.1","","28","","36","","43","","25.0","","99.56","","","","","","Mainly Clear"
"1959-06-14 16:00","1959","06","14","16:00","18.3","","-1.1","","27","","34","","39","","25.0","","99.58","","","","","","Mainly Clear"
"1959-06-14 17:00","1959","06","14","17:00","18.3","","-0.6","","28","","36","","34","","25.0","","99.51","","","","","","Mainly Clear"
"1959-06-14 18:00","1959","06","14","18:00","18.3","","0.0","","29","","34","","32","","25.0","","99.51","","","","","","Mainly Clear"
"1959-06-14 19:00","1959","06","14","19:00","17.8","","1.7","","34","","32","","29","","25.0","","99.48","","","","","","Mainly Clear"
"1959-06-14 20:00","1959","06","14","20:00","15.0","","3.3","","46","","29","","14","","25.0","","99.47","","","","","","Mainly Clear"
"1959-06-14 21:00","1959","06","14","21:00","13.3","","4.4","","55","","27","","11","","25.0","","99.47","","","","","","Mainly Clear"
"1959-06-14 22:00","1959","06","14","22:00","12.2","","5.6","","64","","29","","19","","25.0","","99.49","","","","","","Clear"
"1959-06-14 23:00","1959","06","14","23:00","12.2","","4.4","","59","","32","","23","","25.0","","99.51","","","","","","Clear"
"1959-06-15 00:00","1959","06","15","00:00","11.1","","4.4","","64","","32","","19","","25.0","","99.55","","","","","","Clear"
"1959-06-15 01:00","1959","06","15","01:00","10.6","","3.9","","63","","32","","19","","25.0","","99.55","","","","","","Clear"
"1959-06-15 02:00","1959","06","15","02:00","8.9","","4.4","","74","","32","","16","","25.0","","99.53","","","","","","Clear"
"1959-06-15 03:00","1959","06","15","03:00","8.9","","2.8","","66","","32","","16","","25.0","","99.53","","","","","","Clear"
"1959-06-15 04:00","1959","06","15","04:00","8.3","","2.8","","68","","34","","14","","25.0","","99.53","","","","","","Clear"
"1959-06-15 05:00","1959","06","15","05:00","7.8","","1.7","","65","","32","","18","","25.0","","99.56","","","","","","Mainly Clear"
"1959-06-15 06:00","1959","06","15","06:00","10.0","","3.3","","63","","32","","14","","25.0","","99.56","","","","","","Mainly Clear"
"1959-06-15 07:00","1959","06","15","07:00","11.1","","3.9","","61","","34","","19","","25.0","","99.55","","","","","","Mostly Cloudy"
"1959-06-15 08:00","1959","06","15","08:00","13.9","","3.3","","49","","36","","32","","25.0","","99.55","","","","","","Mostly Cloudy"
"1959-06-15 09:00","1959","06","15","09:00","15.6","","4.4","","48","","36","","39","","25.0","","99.52","","","","","","Mainly Clear"
"1959-06-15 10:00","1959","06","15","10:00","17.2","","1.1","","34","","36","","42","","25.0","","99.46","","","","","","Mainly Clear"
"1959-06-15 11:00","1959","06","15","11:00","18.3","","1.1","","31","","36","","45","","25.0","","99.39","","","","","","Mainly Clear"
"1959-06-15 12:00","1959","06","15","12:00","19.4","","2.2","","31","","36","","39","","25.0","","99.34","","","","","","Clear"
"1959-06-15 13:00","1959","06","15","13:00","19.4","","0.6","","28","","36","","42","","25.0","","99.33","","","","","","Mainly Clear"
"1959-06-15 14:00","1959","06","15","14:00","18.9","","1.7","","32","","36","","45","","25.0","","99.29","","","","","","Mainly Clear"
"1959-06-15 15:00","1959","06","15","15:00","20.6","","3.9","","33","","36","","45","","25.0","","99.19","","","","","","Mainly Clear"
"1959-06-15 16:00","1959","06","15","16:00","21.1","","4.4","","34","","34","","42","","25.0","","99.15","","","","","","Mainly Clear"
"1959-06-15 17:00","1959","06","15","17:00","21.1","","4.4","","34","","32","","40","","25.0","","99.08","","","","","","Mainly Clear"
"1959-06-15 18:00","1959","06","15","18:00","20.6","","5.6","","38","","32","","34","","25.0","","99.06","","","","","","Mainly Clear"
"1959-06-15 19:00","1959","06","15","19:00","20.0","","5.6","","39","","32","","32","","25.0","","99.06","","","","","","Mainly Clear"
"1959-06-15 20:00","1959","06","15","20:00","17.8","","5.0","","43","","29","","29","","25.0","","99.02","","","","","","Mainly Clear"
"1959-06-15 21:00","1959","06","15","21:00","16.1","","4.4","","46","","32","","26","","25.0","","99.02","","","","","","Mainly Clear"
"1959-06-15 22:00","1959","06","15","22:00","15.6","","4.4","","48","","32","","24","","25.0","","98.98","","","","","","Mainly Clear"
"1959-06-15 23:00","1959","06","15","23:00","15.0","","5.6","","53","","29","","21","","25.0","","98.98","","","","","","Mostly Cloudy"
"1959-06-16 00:00","1959","06","16","00:00","14.4","","5.6","","55","","34","","11","","25.0","","99.00","","","","","","Mostly Cloudy"
"1959-06-16 01:00","1959","06","16","01:00","13.9","","5.0","","55","","34","","10","","25.0","","98.97","","","","","","Mostly Cloudy"
"1959-06-16 02:00","1959","06","16","02:00","12.8","","5.6","","61","","36","","8","","25.0","","98.96","","","","","","Mostly Cloudy"
"1959-06-16 03:00","1959","06","16","03:00","12.2","","5.6","","64","","32","","6","","25.0","","98.95","","","","","","Cloudy"
"1959-06-16 04:00","1959","06","16","04:00","12.2","","5.6","","64","","34","","14","","25.0","","98.94","","","","","","Rain Showers"
"1959-06-16 05:00","1959","06","16","05:00","11.7","","5.0","","64","","34","","16","","25.0","","98.93","","","","","","Mostly Cloudy"
"1959-06-16 06:00","1959","06","16","06:00","11.1","","6.1","","71","","34","","16","","25.0","","98.91","","","","","","Rain Showers"
"1959-06-16 07:00","1959","06","16","07:00","11.7","","6.1","","69","","32","","13","","25.0","","98.92","","","","","","Cloudy"
"1959-06-16 08:00","1959","06","16","08:00","11.1","","7.2","","77","","36","","16","","25.0","","98.96","","","","","","Rain Showers"
"1959-06-16 09:00","1959","06","16","09:00","12.8","","6.1","","64","","36","","29","","25.0","","99.00","","","","","","Cloudy"
"1959-06-16 10:00","1959","06","16","10:00","12.8","","6.1","","64","","2","","24","","24.1","","98.98","","","","","","Cloudy"
"1959-06-16 11:00","1959","06","16","11:00","12.8","","7.2","","69","","2","","23","","24.1","","99.00","","","","","","Cloudy"
"1959-06-16 12:00","1959","06","16","12:00","13.9","","7.2","","64","","36","","23","","24.1","","99.04","","","","","","Cloudy"
"1959-06-16 13:00","1959","06","16","13:00","14.4","","7.2","","62","","2","","24","","24.1","","99.05","","","","","","Cloudy"
"1959-06-16 14:00","1959","06","16","14:00","16.7","","7.8","","56","","2","","23","","24.1","","99.09","","","","","","Mostly Cloudy"
"1959-06-16 15:00","1959","06","16","15:00","16.7","","7.2","","54","","5","","21","","24.1","","99.08","","","","","","Mostly Cloudy"
"1959-06-16 16:00","1959","06","16","16:00","17.2","","7.8","","54","","36","","19","","25.0","","99.08","","","","","","Mostly Cloudy"
"1959-06-16 17:00","1959","06","16","17:00","16.7","","8.9","","60","","2","","23","","25.0","","99.14","","","","","","Mostly Cloudy"
"1959-06-16 18:00","1959","06","16","18:00","14.4","","10.6","","78","","5","","13","","24.1","","99.23","","","","","","Rain Showers"
"1959-06-16 19:00","1959","06","16","19:00","15.0","","10.0","","72","","2","","16","","25.0","","99.29","","","","","","Mostly Cloudy"
"1959-06-16 20:00","1959","06","16","20:00","13.9","","8.9","","72","","36","","13","","25.0","","99.32","","","","","","Mainly Clear"
"1959-06-16 21:00","1959","06","16","21:00","12.2","","8.9","","80","","34","","10","","25.0","","99.38","","","","","","Mainly Clear"
"1959-06-16 22:00","1959","06","16","22:00","11.7","","9.4","","86","","36","","13","","25.0","","99.40","","","","","","Mainly Clear"
"1959-06-16 23:00","1959","06","16","23:00","11.1","","8.9","","86","","36","","16","","25.0","","99.43","","","","","","Mainly Clear"
"1959-06-17 00:00","1959","06","17","00:00","10.6","","8.9","","89","","36","","13","","25.0","","99.42","","","","","","Mainly Clear"
"1959-06-17 01:00","1959","06","17","01:00","10.6","","9.4","","93","","36","","16","","25.0","","99.42","","","","","","Mainly Clear"
"1959-06-17 02:00","1959","06","17","02:00","11.1","","9.4","","90","","36","","13","","25.0","","99.40","","","","","","Mainly Clear"
"1959-06-17 03:00","1959","06","17","03:00","11.7","","10.0","","90","","36","","16","","25.0","","99.40","","","","","","Mostly Cloudy"
"1959-06-17 04:00","1959","06","17","04:00","12.2","","10.0","","86","","36","","16","","25.0","","99.41","","","","","","Cloudy"
"1959-06-17 05:00","1959","06","17","05:00","11.7","","10.6","","93","","2","","16","","19.3","","99.42","","","","","","Rain Showers"
"1959-06-17 06:00","1959","06","17","06:00","12.2","","11.1","","93","","2","","13","","19.3","","99.50","","","","","","Mostly Cloudy"
"1959-06-17 07:00","1959","06","17","07:00","13.3","","11.1","","86","","5","","16","","24.1","","99.56","","","","","","Mostly Cloudy"
"1959-06-17 08:00","1959","06","17","08:00","14.4","","8.9","","69","","5","","19","","24.1","","99.60","","","","","","Mostly Cloudy"
"1959-06-17 09:00","1959","06","17","09:00","15.6","","8.3","","62","","7","","19","","24.1","","99.64","","","","","","Mostly Cloudy"
"1959-06-17 10:00","1959","06","17","10:00","15.0","","7.8","","62","","5","","19","","24.1","","99.72","","","","","","Mostly Cloudy"
"1959-06-17 11:00","1959","06","17","11:00","16.1","","7.2","","56","","5","","19","","24.1","","99.72","","","","","","Mostly Cloudy"
"1959-06-17 12:00","1959","06","17","12:00","16.1","","7.2","","56","","7","","16","","25.0","","99.72","","","","","","Mostly Cloudy"
"1959-06-17 13:00","1959","06","17","13:00","16.7","","7.2","","54","","9","","16","","25.0","","99.70","","","","","","Mostly Cloudy"
"1959-06-17 14:00","1959","06","17","14:00","16.7","","7.2","","54","","14","","8","","25.0","","99.70","","","","","","Mostly Cloudy"
"1959-06-17 15:00","1959","06","17","15:00","17.2","","7.2","","52","","18","","8","","25.0","","99.70","","","","","","Mostly Cloudy"
"1959-06-17 16:00","1959","06","17","16:00","16.7","","7.2","","54","","18","","14","","25.0","","99.70","","","","","","Mostly Cloudy"
"1959-06-17 17:00","1959","06","17","17:00","16.7","","7.8","","56","","18","","10","","25.0","","99.72","","","","","","Mostly Cloudy"
"1959-06-17 18:00","1959","06","17","18:00","16.7","","7.8","","56","","20","","6","","19.3","","99.73","","","","","","Mostly Cloudy"
"1959-06-17 19:00","1959","06","17","19:00","16.1","","8.3","","60","","27","","5","","19.3","","99.73","","","","","","Mostly Cloudy"
"1959-06-17 20:00","1959","06","17","20:00","15.0","","9.4","","69","","36","","6","","19.3","","99.75","","","","","","Mainly Clear"
"1959-06-17 21:00","1959","06","17","21:00","13.3","","10.0","","80","","36","","10","","24.1","","99.78","","","","","","Mainly Clear"
"1959-06-17 22:00","1959","06","17","22:00","12.2","","9.4","","83","","36","","10","","25.0","","99.81","","","","","","Mainly Clear"
"1959-06-17 23:00","1959","06","17","23:00","11.7","","9.4","","86","","34","","10","","25.0","","99.80","","","","","","Clear"
"1959-06-18 00:00","1959","06","18","00:00","10.6","","8.9","","89","","36","","13","","25.0","","99.79","","","","","","Mainly Clear"
"1959-06-18 01:00","1959","06","18","01:00","10.6","","8.3","","86","","36","","10","","25.0","","99.76","","","","","","Mainly Clear"
"1959-06-18 02:00","1959","06","18","02:00","10.0","","8.3","","89","","36","","13","","25.0","","99.74","","","","","","Clear"
"1959-06-18 03:00","1959","06","18","03:00","9.4","","7.8","","89","","36","","10","","25.0","","99.74","","","","","","Mainly Clear"
"1959-06-18 04:00","1959","06","18","04:00","9.4","","7.8","","89","","36","","11","","25.0","","99.75","","","","","","Mainly Clear"
"1959-06-18 05:00","1959","06","18","05:00","9.4","","7.8","","89","","36","","14","","24.1","","99.75","","","","","","Mostly Cloudy"
"1959-06-18 06:00","1959","06","18","06:00","11.1","","8.9","","86","","36","","14","","24.1","","99.75","","","","","","Mostly Cloudy"
"1959-06-18 07:00","1959","06","18","07:00","11.7","","9.4","","86","","36","","13","","24.1","","99.75","","","","","","Mostly Cloudy"
"1959-06-18 08:00","1959","06","18","08:00","15.0","","10.6","","75","","36","","13","","25.0","","99.73","","","","","","Mostly Cloudy"
"1959-06-18 09:00","1959","06","18","09:00","16.7","","10.6","","67","","36","","18","","25.0","","99.67","","","","","","Mainly Clear"
"1959-06-18 10:00","1959","06","18","10:00","18.3","","10.0","","58","","2","","23","","25.0","","99.65","","","","","","Mostly Cloudy"
"1959-06-18 11:00","1959","06","18","11:00","19.4","","8.3","","49","","2","","23","","25.0","","99.59","","","","","","Mostly Cloudy"
"1959-06-18 12:00","1959","06","18","12:00","19.4","","7.8","","47","","2","","19","","25.0","","99.53","","","","","","Mostly Cloudy"
"1959-06-18 13:00","1959","06","18","13:00","20.0","","8.3","","47","","2","","19","","25.0","","99.47","","","","","","Mostly Cloudy"
"1959-06-18 14:00","1959","06","18","14:00","21.1","","7.8","","42","","2","","23","","25.0","","99.44","","","","","","Mostly Cloudy"
"1959-06-18 15:00","1959","06","18","15:00","20.6","","8.3","","45","","36","","18","","25.0","","99.41","","","","","","Mostly Cloudy"
"1959-06-18 16:00","1959","06","18","16:00","20.6","","8.3","","45","","36","","19","","25.0","","99.38","","","","","","Mostly Cloudy"
"1959-06-18 17:00","1959","06","18","17:00","21.1","","10.0","","49","","34","","23","","25.0","","99.35","","","","","","Mostly Cloudy"
"1959-06-18 18:00","1959","06","18","18:00","20.6","","9.4","","49","","36","","13","","25.0","","99.34","","","","","","Mostly Cloudy"
"1959-06-18 19:00","1959","06","18","19:00","20.0","","10.0","","53","","36","","13","","25.0","","99.34","","","","","","Mostly Cloudy"
"1959-06-18 20:00","1959","06","18","20:00","19.4","","8.9","","50","","36","","10","","25.0","","99.34","","","","","","Mostly Cloudy"
"1959-06-18 21:00","1959","06","18","21:00","18.3","","8.9","","54","","34","","10","","25.0","","99.36","","","","","","Mostly Cloudy"
"1959-06-18 22:00","1959","06","18","22:00","17.2","","8.9","","58","","32","","10","","25.0","","99.31","","","","","","Mainly Clear"
"1959-06-18 23:00","1959","06","18","23:00","15.6","","8.9","","65","","34","","11","","25.0","","99.26","","","","","","Mostly Cloudy"
"1959-06-19 00:00","1959","06","19","00:00","15.6","","9.4","","67","","34","","14","","25.0","","99.20","","","","","","Mostly Cloudy"
"1959-06-19 01:00","1959","06","19","01:00","14.4","","8.3","","67","","32","","13","","25.0","","99.14","","","","","","Mainly Clear"
"1959-06-19 02:00","1959","06","19","02:00","14.4","","8.9","","69","","34","","13","","25.0","","99.08","","","","","","Mainly Clear"
"1959-06-19 03:00","1959","06","19","03:00","15.0","","8.9","","67","","34","","14","","25.0","","99.05","","","","","","Mainly Clear"
"1959-06-19 04:00","1959","06","19","04:00","15.0","","8.9","","67","","34","","11","","25.0","","99.04","","","","","","Mainly Clear"
"1959-06-19 05:00","1959","06","19","05:00","15.0","","8.9","","67","","34","","16","","25.0","","99.05","","","","","","Mainly Clear"
"1959-06-19 06:00","1959","06","19","06:00","15.6","","8.9","","65","","34","","14","","25.0","","99.06","","","","","","Mainly Clear"
"1959-06-19 07:00","1959","06","19","07:00","18.3","","10.0","","58","","34","","19","","25.0","","99.06","","","","","","Mainly Clear"
"1959-06-19 08:00","1959","06","19","08:00","21.7","","11.7","","53","","34","","23","","25.0","","99.03","","","","","","Mainly Clear"
"1959-06-19 09:00","1959","06","19","09:00","23.3","","11.1","","46","","34","","29","","25.0","","98.98","","25","","","","Mainly Clear"
"1959-06-19 10:00","1959","06","19","10:00","25.6","","10.0","","38","","34","","27","","25.0","","98.95","","27","","","","Mainly Clear"
"1959-06-19 11:00","1959","06","19","11:00","27.2","","10.0","","34","","34","","37","","25.0","","98.95","","28","","","","Mainly Clear"
"1959-06-19 12:00","1959","06","19","12:00","27.8","","8.9","","31","","34","","35","","25.0","","98.94","","29","","","","Mainly Clear"
"1959-06-19 13:00","1959","06","19","13:00","27.8","","8.3","","29","","32","","32","","25.0","","98.87","","28","","","","Mainly Clear"
"1959-06-19 14:00","1959","06","19","14:00","28.9","","10.0","","31","","32","","35","","25.0","","98.83","","30","","","","Mainly Clear"
"1959-06-19 15:00","1959","06","19","15:00","28.3","","11.7","","36","","32","","39","","25.0","","98.82","","30","","","","Mainly Clear"
"1959-06-19 16:00","1959","06","19","16:00","27.8","","9.4","","33","","32","","40","","25.0","","98.80","","29","","","","Mainly Clear"
"1959-06-19 17:00","1959","06","19","17:00","27.2","","10.0","","34","","32","","29","","25.0","","98.81","","28","","","","Mainly Clear"
"1959-06-19 18:00","1959","06","19","18:00","26.1","","9.4","","35","","32","","34","","25.0","","98.82","","27","","","","Mainly Clear"
"1959-06-19 19:00","1959","06","19","19:00","25.0","","10.6","","40","","32","","26","","25.0","","98.87","","27","","","","Mainly Clear"
"1959-06-19 20:00","1959","06","19","20:00","22.8","","7.8","","38","","32","","19","","25.0","","98.91","","","","","","Mainly Clear"
"1959-06-19 21:00","1959","06","19","21:00","21.7","","9.4","","46","","11","","8","","25.0","","98.98","","","","","","Mainly Clear"
"1959-06-19 22:00","1959","06","19","22:00","20.0","","9.4","","51","","14","","6","","25.0","","99.01","","","","","","Mainly Clear"
"1959-06-19 23:00","1959","06","19","23:00","17.8","","10.0","","60","","27","","10","","25.0","","99.00","","","","","","Mainly Clear"
"1959-06-20 00:00","1959","06","20","00:00","17.2","","10.6","","65","","27","","11","","25.0","","98.97","","","","","","Mainly Clear"
"1959-06-20 01:00","1959","06","20","01:00","16.7","","11.1","","70","","27","","14","","25.0","","98.92","","","","","","Mainly Clear"
"1959-06-20 02:00","1959","06","20","02:00","15.6","","11.7","","78","","27","","13","","25.0","","98.87","","","","","","Mainly Clear"
"1959-06-20 03:00","1959","06","20","03:00","15.0","","11.1","","78","","32","","8","","25.0","","98.83","","","","","","Clear"
"1959-06-20 04:00","1959","06","20","04:00","13.9","","11.1","","83","","27","","10","","25.0","","98.84","","","","","","Clear"
"1959-06-20 05:00","1959","06","20","05:00","13.9","","10.6","","80","","27","","16","","24.1","","98.89","","","","","","Mainly Clear"
"1959-06-20 06:00","1959","06","20","06:00","16.7","","13.3","","81","","29","","18","","19.3","","98.92","","","","","","Mainly Clear"
"1959-06-20 07:00","1959","06","20","07:00","18.3","","13.3","","75","","29","","19","","24.1","","98.92","","","","","","Clear"
"1959-06-20 08:00","1959","06","20","08:00","20.0","","14.4","","70","","29","","26","","24.1","","98.95","","","","","","Clear"
"1959-06-20 09:00","1959","06","20","09:00","21.7","","16.1","","71","","29","","24","","24.1","","98.93","","26","","","","Clear"
"1959-06-20 10:00","1959","06","20","10:00","23.9","","14.4","","56","","32","","26","","24.1","","98.92","","28","","","","Clear"
"1959-06-20 11:00","1959","06","20","11:00","24.4","","14.4","","54","","27","","24","","24.1","","98.91","","28","","","","Mainly Clear"
"1959-06-20 12:00","1959","06","20","12:00","25.0","","15.0","","54","","27","","27","","24.1","","98.88","","29","","","","Mainly Clear"
"1959-06-20 13:00","1959","06","20","13:00","24.4","","14.4","","54","","27","","26","","24.1","","98.82","","28","","","","Mainly Clear"
"1959-06-20 14:00","1959","06","20","14:00","26.7","","14.4","","47","","32","","29","","24.1","","98.83","","30","","","","Mainly Clear"
"1959-06-20 15:00","1959","06","20","15:00","25.0","","14.4","","52","","29","","35","","24.1","","98.85","","29","","","","Mainly Clear"
"1959-06-20 16:00","1959","06","20","16:00","24.4","","15.0","","56","","32","","32","","19.3","","98.87","","28","","","","Mostly Cloudy"
"1959-06-20 17:00","1959","06","20","17:00","25.0","","14.4","","52","","32","","29","","12.9","","98.88","","29","","","","Mainly Clear"
"1959-06-20 18:00","1959","06","20","18:00","23.9","","15.0","","58","","36","","19","","12.9","","98.90","","28","","","","Mainly Clear"
"1959-06-20 19:00","1959","06","20","19:00","22.2","","14.4","","61","","36","","16","","24.1","","98.93","","26","","","","Mostly Cloudy"
"1959-06-20 20:00","1959","06","20","20:00","20.6","","13.9","","66","","36","","8","","24.1","","98.97","","","","","","Mostly Cloudy"
"1959-06-20 21:00","1959","06","20","21:00","19.4","","13.9","","70","","32","","14","","25.0","","99.04","","","","","","Mostly Cloudy"
"1959-06-20 22:00","1959","06","20","22:00","18.3","","13.9","","75","","29","","8","","25.0","","99.03","","","","","","Mostly Cloudy"
"1959-06-20 23:00","1959","06","20","23:00","16.7","","12.2","","75","","27","","10","","25.0","","99.02","","","","","","Mostly Cloudy"
"1959-06-21 00:00","1959","06","21","00:00","16.1","","11.1","","72","","29","","10","","25.0","","99.03","","","","","","Mostly Cloudy"
"1959-06-21 01:00","1959","06","21","01:00","15.6","","10.6","","72","","32","","13","","25.0","","99.05","","","","","","Mainly Clear"
"1959-06-21 02:00","1959","06","21","02:00","14.4","","9.4","","72","","29","","6","","25.0","","99.02","","","","","","Mainly Clear"
"1959-06-21 03:00","1959","06","21","03:00","13.3","","8.3","","72","","32","","6","","25.0","","99.03","","","","","","Mainly Clear"
"1959-06-21 04:00","1959","06","21","04:00","13.3","","7.8","","69","","32","","6","","25.0","","99.02","","","","","","Mainly Clear"
"1959-06-21 05:00","1959","06","21","05:00","12.2","","6.7","","69","","29","","8","","25.0","","99.05","","","","","","Mostly Cloudy"
"1959-06-21 06:00","1959","06","21","06:00","13.9","","6.7","","62","","29","","5","","25.0","","99.09","","","","","","Mainly Clear"
"1959-06-21 07:00","1959","06","21","07:00","16.1","","8.3","","60","","32","","6","","25.0","","99.12","","","","","","Mainly Clear"
"1959-06-21 08:00","1959","06","21","08:00","18.9","","8.9","","52","","36","","8","","25.0","","99.12","","","","","","Mainly Clear"
"1959-06-21 09:00","1959","06","21","09:00","21.1","","7.8","","42","","34","","13","","25.0","","99.11","","","","","","Mainly Clear"
"1959-06-21 10:00","1959","06","21","10:00","23.3","","7.8","","37","","32","","18","","25.0","","99.07","","","","","","Mainly Clear"
"1959-06-21 11:00","1959","06","21","11:00","24.4","","7.8","","34","","29","","16","","25.0","","99.05","","25","","","","Mainly Clear"
"1959-06-21 12:00","1959","06","21","12:00","25.0","","7.8","","33","","27","","18","","25.0","","99.01","","25","","","","Mainly Clear"
"1959-06-21 13:00","1959","06","21","13:00","25.6","","7.2","","31","","27","","18","","25.0","","98.96","","26","","","","Mainly Clear"
"1959-06-21 14:00","1959","06","21","14:00","25.6","","8.9","","35","","27","","18","","25.0","","98.89","","26","","","","Mostly Cloudy"
"1959-06-21 15:00","1959","06","21","15:00","26.7","","8.9","","33","","27","","13","","25.0","","98.83","","27","","","","Mostly Cloudy"
"1959-06-21 16:00","1959","06","21","16:00","26.7","","10.6","","37","","16","","21","","25.0","","98.74","","28","","","","Mostly Cloudy"
"1959-06-21 17:00","1959","06","21","17:00","25.6","","10.6","","39","","16","","23","","25.0","","98.71","","27","","","","Mostly Cloudy"
"1959-06-21 18:00","1959","06","21","18:00","24.4","","11.1","","43","","20","","18","","24.1","","98.66","","26","","","","Mostly Cloudy"
"1959-06-21 19:00","1959","06","21","19:00","23.9","","11.1","","45","","20","","13","","24.1","","98.69","","26","","","","Mostly Cloudy"
"1959-06-21 20:00","1959","06","21","20:00","22.2","","11.7","","51","","20","","11","","24.1","","98.69","","","","","","Mostly Cloudy"
"1959-06-21 21:00","1959","06","21","21:00","21.7","","11.1","","51","","20","","10","","24.1","","98.69","","","","","","Cloudy"
"1959-06-21 22:00","1959","06","21","22:00","20.6","","11.1","","55","","20","","10","","24.1","","98.65","","","","","","Cloudy"
"1959-06-21 23:00","1959","06","21","23:00","18.3","","10.0","","58","","18","","8","","24.1","","98.62","","","","","","Cloudy"
"1959-06-22 00:00","1959","06","22","00:00","18.3","","10.0","","58","","14","","3","","24.1","","98.59","","","","","","Cloudy"
"1959-06-22 01:00","1959","06","22","01:00","17.2","","12.2","","72","","5","","8","","16.1","","98.59","","","","","","Rain Showers"
"1959-06-22 02:00","1959","06","22","02:00","16.1","","13.9","","87","","2","","10","","12.9","","98.59","","","","","","Rain Showers"
"1959-06-22 03:00","1959","06","22","03:00","16.7","","15.6","","93","","36","","10","","12.9","","98.62","","","","","","Rain Showers"
"1959-06-22 04:00","1959","06","22","04:00","16.7","","15.6","","93","","34","","11","","12.9","","98.57","","","","","","Rain Showers"
"1959-06-22 05:00","1959","06","22","05:00","16.1","","15.6","","97","","32","","6","","11.3","","98.66","","","","","","Rain Showers"
"1959-06-22 06:00","1959","06","22","06:00","16.7","","15.6","","93","","32","","8","","11.3","","98.72","","","","","","Cloudy"
"1959-06-22 07:00","1959","06","22","07:00","16.7","","14.4","","87","","32","","8","","19.3","","98.72","","","","","","Mostly Cloudy"
"1959-06-22 08:00","1959","06","22","08:00","17.2","","13.9","","81","","36","","13","","24.1","","98.76","","","","","","Mostly Cloudy"
"1959-06-22 09:00","1959","06","22","09:00","17.8","","13.3","","75","","34","","13","","24.1","","98.80","","","","","","Mostly Cloudy"
"1959-06-22 10:00","1959","06","22","10:00","17.2","","13.3","","78","","36","","13","","24.1","","98.81","","","","","","Cloudy"
"1959-06-22 11:00","1959","06","22","11:00","17.2","","13.3","","78","","36","","13","","19.3","","98.84","","","","","","Cloudy"
"1959-06-22 12:00","1959","06","22","12:00","18.3","","13.3","","73","","36","","18","","19.3","","98.90","","","","","","Cloudy"
"1959-06-22 13:00","1959","06","22","13:00","18.3","","12.8","","70","","34","","23","","24.1","","98.96","","","","","","Mostly Cloudy"
"1959-06-22 14:00","1959","06","22","14:00","20.0","","8.9","","49","","34","","18","","25.0","","98.93","","","","","","Mostly Cloudy"
"1959-06-22 15:00","1959","06","22","15:00","21.1","","3.3","","31","","2","","19","","25.0","","98.93","","","","","","Mainly Clear"
"1959-06-22 16:00","1959","06","22","16:00","20.0","","8.3","","47","","36","","13","","25.0","","98.92","","","","","","Mainly Clear"
"1959-06-22 17:00","1959","06","22","17:00","19.4","","8.3","","49","","2","","21","","25.0","","98.92","","","","","","Mainly Clear"
"1959-06-22 18:00","1959","06","22","18:00","19.4","","8.9","","50","","2","","26","","25.0","","98.99","","","","","","Mainly Clear"
"1959-06-22 19:00","1959","06","22","19:00","18.3","","6.1","","45","","2","","21","","25.0","","99.06","","","","","","Mainly Clear"
"1959-06-22 20:00","1959","06","22","20:00","16.7","","8.9","","60","","2","","14","","25.0","","99.17","","","","","","Mainly Clear"
"1959-06-22 21:00","1959","06","22","21:00","14.4","","7.2","","62","","36","","10","","25.0","","99.21","","","","","","Clear"
"1959-06-22 22:00","1959","06","22","22:00","13.9","","6.1","","59","","34","","13","","25.0","","99.24","","","","","","Clear"
"1959-06-22 23:00","1959","06","22","23:00","12.2","","6.7","","69","","32","","13","","25.0","","99.28","","","","","","Clear"
"1959-06-23 00:00","1959","06","23","00:00","10.6","","5.0","","68","","32","","10","","25.0","","99.34","","","","","","Clear"
"1959-06-23 01:00","1959","06","23","01:00","10.6","","5.6","","71","","32","","10","","25.0","","99.37","","","","","","Clear"
"1959-06-23 02:00","1959","06","23","02:00","10.0","","6.1","","77","","32","","8","","25.0","","99.39","","","","","","Clear"
"1959-06-23 03:00","1959","06","23","03:00","9.4","","5.0","","74","","32","","10","","25.0","","99.41","","","","","","Clear"
"1959-06-23 04:00","1959","06","23","04:00","8.9","","4.4","","74","","32","","8","","25.0","","99.44","","","","","","Clear"
"1959-06-23 05:00","1959","06","23","05:00","8.9","","4.4","","74","","32","","8","","25.0","","99.50","","","","","","Clear"
"1959-06-23 06:00","1959","06","23","06:00","10.6","","5.0","","68","","32","","6","","25.0","","99.53","","","","","","Clear"
"1959-06-23 07:00","1959","06","23","07:00","12.8","","3.9","","55","","36","","10","","25.0","","99.58","","","","","","Clear"
"1959-06-23 08:00","1959","06","23","08:00","16.1","","4.4","","46","","34","","8","","25.0","","99.62","","","","","","Clear"
"1959-06-23 09:00","1959","06","23","09:00","18.3","","2.2","","34","","34","","16","","25.0","","99.60","","","","","","Mainly Clear"
"1959-06-23 10:00","1959","06","23","10:00","18.9","","1.1","","30","","29","","16","","25.0","","99.60","","","","","","Mainly Clear"
"1959-06-23 11:00","1959","06","23","11:00","20.0","","1.7","","30","","32","","13","","25.0","","99.60","","","","","","Mainly Clear"
"1959-06-23 12:00","1959","06","23","12:00","20.6","","0.6","","26","","36","","3","","25.0","","99.60","","","","","","Mainly Clear"
"1959-06-23 13:00","1959","06","23","13:00","21.7","","-0.6","","23","","25","","10","","25.0","","99.59","","","","","","Mainly Clear"
"1959-06-23 14:00","1959","06","23","14:00","22.8","","2.2","","26","","32","","14","","25.0","","99.57","","","","","","Mainly Clear"
"1959-06-23 15:00","1959","06","23","15:00","23.3","","3.3","","27","","32","","16","","25.0","","99.56","","","","","","Mainly Clear"
"1959-06-23 16:00","1959","06","23","16:00","23.3","","3.3","","27","","32","","19","","25.0","","99.56","","","","","","Mainly Clear"
"1959-06-23 17:00","1959","06","23","17:00","22.8","","2.8","","27","","36","","31","","25.0","","99.58","","","","","","Mainly Clear"
"1959-06-23 18:00","1959","06","23","18:00","21.1","","7.2","","41","","2","","24","","25.0","","99.59","","","","","","Mainly Clear"
"1959-06-23 19:00","1959","06","23","19:00","20.0","","15.0","","73","","2","","21","","25.0","","99.60","","","","","","Mainly Clear"
"1959-06-23 20:00","1959","06","23","20:00","17.8","","12.8","","73","","36","","14","","25.0","","99.65","","","","","","Mainly Clear"
"1959-06-23 21:00","1959","06","23","21:00","15.6","","5.0","","49","","2","","16","","25.0","","99.69","","","","","","Mainly Clear"
"1959-06-23 22:00","1959","06","23","22:00","13.9","","5.0","","55","","36","","14","","25.0","","99.79","","","","","","Mainly Clear"
"1959-06-23 23:00","1959","06","23","23:00","12.8","","5.0","","59","","36","","8","","25.0","","99.74","","","","","","Mainly Clear"
"1959-06-24 00:00","1959","06","24","00:00","11.7","","4.4","","61","","36","","10","","25.0","","99.74","","","","","","Mostly Cloudy"
"1959-06-24 01:00","1959","06","24","01:00","11.1","","5.0","","66","","36","","8","","25.0","","99.73","","","","","","Mostly Cloudy"
"1959-06-24 02:00","1959","06","24","02:00","11.1","","6.1","","71","","36","","8","","25.0","","99.73","","","","","","Mainly Clear"
"1959-06-24 03:00","1959","06","24","03:00","10.6","","7.8","","83","","36","","3","","25.0","","99.73","","","","","","Mostly Cloudy"
"1959-06-24 04:00","1959","06","24","04:00","10.6","","5.0","","68","","36","","5","","25.0","","99.73","","","","","","Mostly Cloudy"
"1959-06-24 05:00","1959","06","24","05:00","10.6","","6.1","","74","","36","","8","","25.0","","99.75","","","","","","Mostly Cloudy"
"1959-06-24 06:00","1959","06","24","06:00","11.7","","6.7","","71","","36","","5","","25.0","","99.75","","","","","","Mostly Cloudy"
"1959-06-24 07:00","1959","06","24","07:00","12.2","","7.2","","71","","36","","5","","25.0","","99.75","","","","","","Mostly Cloudy"
"1959-06-24 08:00","1959","06","24","08:00","15.0","","6.7","","57","","36","","3","","25.0","","99.78","","","","","","Mostly Cloudy"
"1959-06-24 09:00","1959","06","24","09:00","17.8","","6.7","","48","","20","","2","","25.0","","99.75","","","","","","Mainly Clear"
"1959-06-24 10:00","1959","06","24","10:00","18.9","","6.7","","45","","29","","5","","25.0","","99.71","","","","","","Mainly Clear"
"1959-06-24 11:00","1959","06","24","11:00","20.6","","6.7","","41","","18","","8","","25.0","","99.67","","","","","","Mostly Cloudy"
"1959-06-24 12:00","1959","06","24","12:00","21.1","","6.1","","38","","18","","10","","24.1","","99.63","","","","","","Mostly Cloudy"
"1959-06-24 13:00","1959","06","24","13:00","21.1","","6.7","","39","","16","","11","","24.1","","99.59","","","","","","Mostly Cloudy"
"1959-06-24 14:00","1959","06","24","14:00","21.1","","6.1","","38","","18","","16","","24.1","","99.54","","","","","","Mostly Cloudy"
"1959-06-24 15:00","1959","06","24","15:00","22.2","","6.7","","37","","18","","11","","24.1","","99.51","","","","","","Cloudy"
"1959-06-24 16:00","1959","06","24","16:00","20.6","","6.1","","39","","18","","11","","12.9","","99.54","","","","","","Rain Showers"
"1959-06-24 17:00","1959","06","24","17:00","17.2","","15.0","","87","","14","","6","","11.3","","99.52","","","","","","Rain Showers"
"1959-06-24 18:00","1959","06","24","18:00","16.7","","16.1","","97","","18","","6","","11.3","","99.51","","","","","","Rain Showers"
"1959-06-24 19:00","1959","06","24","19:00","16.1","","15.6","","97","","18","","5","","11.3","","99.47","","","","","","Rain Showers"
"1959-06-24 20:00","1959","06","24","20:00","15.0","","13.3","","90","","","","0","","11.3","","99.47","","","","","","Rain Showers"
"1959-06-24 21:00","1959","06","24","21:00","14.4","","12.2","","87","","","","0","","11.3","","99.45","","","","","","Rain"
"1959-06-24 22:00","1959","06","24","22:00","15.0","","12.2","","84","","","","0","","11.3","","99.44","","","","","","Cloudy"
"1959-06-24 23:00","1959","06","24","23:00","13.9","","12.2","","90","","","","0","","11.3","","99.42","","","","","","Mainly Clear"
"1959-06-25 00:00","1959","06","25","00:00","13.9","","12.2","","90","","","","0","","9.7","","99.38","","","","","","Fog"
"1959-06-25 01:00","1959","06","25","01:00","13.3","","12.2","","93","","","","0","","8.0","","99.34","","","","","","Fog"
"1959-06-25 02:00","1959","06","25","02:00","12.8","","12.2","","96","","5","","5","","3.2","","99.30","","","","","","Fog"
"1959-06-25 03:00","1959","06","25","03:00","12.8","","12.2","","96","","5","","6","","3.2","","99.24","","","","","","Fog"
"1959-06-25 04:00","1959","06","25","04:00","12.8","","11.7","","93","","5","","6","","3.2","","99.24","","","","","","Fog"
"1959-06-25 05:00","1959","06","25","05:00","12.2","","11.1","","93","","2","","6","","6.4","","99.24","","","","","","Fog"
"1959-06-25 06:00","1959","06","25","06:00","12.8","","10.6","","86","","5","","10","","11.3","","99.25","","","","","","Mostly Cloudy"
"1959-06-25 07:00","1959","06","25","07:00","13.3","","10.6","","83","","5","","3","","12.9","","99.30","","","","","","Cloudy"
"1959-06-25 08:00","1959","06","25","08:00","15.0","","11.1","","78","","11","","8","","9.7","","99.27","","","","","","Rain Showers"
"1959-06-25 09:00","1959","06","25","09:00","16.1","","12.2","","78","","9","","16","","12.9","","99.18","","","","","","Mostly Cloudy"
"1959-06-25 10:00","1959","06","25","10:00","17.8","","12.8","","73","","9","","13","","12.9","","99.19","","","","","","Mostly Cloudy"
"1959-06-25 11:00","1959","06","25","11:00","18.3","","13.3","","73","","11","","13","","11.3","","99.20","","","","","","Cloudy"
"1959-06-25 12:00","1959","06","25","12:00","18.9","","12.2","","65","","11","","10","","12.9","","99.21","","","","","","Cloudy"
"1959-06-25 13:00","1959","06","25","13:00","20.0","","12.2","","61","","11","","11","","11.3","","99.21","","","","","","Cloudy"
"1959-06-25 14:00","1959","06","25","14:00","21.1","","13.3","","63","","11","","10","","9.7","","99.14","","","","","","Haze"
"1959-06-25 15:00","1959","06","25","15:00","21.7","","15.0","","66","","9","","3","","6.4","","99.07","","26","","","","Haze"
"1959-06-25 16:00","1959","06","25","16:00","23.3","","14.4","","58","","14","","14","","6.4","","99.00","","27","","","","Haze"
"1959-06-25 17:00","1959","06","25","17:00","19.4","","13.3","","68","","16","","21","","8.0","","99.00","","","","","","Haze"
"1959-06-25 18:00","1959","06","25","18:00","19.4","","13.9","","70","","14","","8","","8.0","","99.01","","","","","","Haze"
"1959-06-25 19:00","1959","06","25","19:00","18.9","","13.9","","73","","16","","8","","8.0","","99.02","","","","","","Haze"
"1959-06-25 20:00","1959","06","25","20:00","17.8","","14.4","","81","","23","","3","","8.0","","99.06","","","","","","Rain Showers,Haze"
"1959-06-25 21:00","1959","06","25","21:00","17.8","","14.4","","81","","","","0","","9.7","","99.08","","","","","","Rain Showers,Haze"
"1959-06-25 22:00","1959","06","25","22:00","17.8","","15.0","","84","","","","0","","8.0","","99.04","","","","","","Rain Showers,Haze"
"1959-06-25 23:00","1959","06","25","23:00","17.8","","15.0","","84","","18","","5","","6.4","","99.04","","","","","","Haze"
"1959-06-26 00:00","1959","06","26","00:00","17.2","","14.4","","84","","18","","6","","6.4","","99.03","","","","","","Haze"
"1959-06-26 01:00","1959","06","26","01:00","17.2","","15.0","","87","","","","0","","4.8","","99.03","","","","","","Fog"
"1959-06-26 02:00","1959","06","26","02:00","17.8","","14.4","","81","","","","0","","4.8","","99.03","","","","","","Haze"
"1959-06-26 03:00","1959","06","26","03:00","17.8","","15.6","","87","","23","","5","","3.2","","99.01","","","","","","Fog"
"1959-06-26 04:00","1959","06","26","04:00","17.2","","16.1","","93","","","","0","","2.0","","99.05","","","","","","Fog"
"1959-06-26 05:00","1959","06","26","05:00","17.2","","16.1","","93","","18","","3","","2.8","","99.08","","","","","","Fog"
"1959-06-26 06:00","1959","06","26","06:00","17.2","","16.7","","97","","23","","3","","3.6","","99.09","","","","","","Fog"
"1959-06-26 07:00","1959","06","26","07:00","17.2","","16.7","","97","","23","","5","","3.6","","99.11","","","","","","Fog"
"1959-06-26 08:00","1959","06","26","08:00","19.4","","18.9","","97","","23","","3","","2.4","","99.11","","","","","","Fog"
"1959-06-26 09:00","1959","06","26","09:00","20.6","","16.7","","79","","20","","8","","1.6","","99.12","","26","","","","Fog,Haze"
"1959-06-26 10:00","1959","06","26","10:00","21.7","","17.2","","76","","5","","3","","1.6","","99.14","","27","","","","Fog,Haze"
"1959-06-26 11:00","1959","06","26","11:00","22.8","","18.9","","79","","","","0","","2.4","","99.16","","29","","","","Rain Showers,Haze"
"1959-06-26 12:00","1959","06","26","12:00","23.9","","18.3","","71","","18","","11","","2.4","","99.13","","30","","","","Haze"
"1959-06-26 13:00","1959","06","26","13:00","26.1","","20.0","","69","","16","","13","","4.0","","99.13","","34","","","","Haze"
"1959-06-26 14:00","1959","06","26","14:00","28.9","","21.1","","63","","18","","23","","4.0","","99.09","","37","","","","Haze"
"1959-06-26 15:00","1959","06","26","15:00","26.7","","20.6","","69","","14","","13","","3.2","","99.04","","35","","","","Haze"
"1959-06-26 16:00","1959","06","26","16:00","28.3","","21.7","","67","","18","","14","","3.2","","99.02","","37","","","","Haze"
"1959-06-26 17:00","1959","06","26","17:00","28.9","","21.7","","65","","29","","23","","12.9","","99.02","","38","","","","Mostly Cloudy"
"1959-06-26 18:00","1959","06","26","18:00","29.4","","24.4","","75","","29","","29","","25.0","","99.09","","41","","","","Mainly Clear"
"1959-06-26 19:00","1959","06","26","19:00","28.9","","18.9","","55","","29","","23","","25.0","","99.13","","36","","","","Mainly Clear"
"1959-06-26 20:00","1959","06","26","20:00","26.7","","18.9","","63","","2","","14","","9.7","","99.16","","33","","","","Haze"
"1959-06-26 21:00","1959","06","26","21:00","26.1","","18.9","","65","","29","","8","","16.1","","99.27","","33","","","","Mainly Clear"
"1959-06-26 22:00","1959","06","26","22:00","23.9","","17.2","","66","","34","","11","","19.3","","99.32","","29","","","","Mostly Cloudy"
"1959-06-26 23:00","1959","06","26","23:00","21.1","","19.4","","90","","36","","10","","8.0","","99.32","","28","","","","Fog"
"1959-06-27 00:00","1959","06","27","00:00","20.6","","18.9","","90","","36","","10","","8.0","","99.34","","27","","","","Fog"
"1959-06-27 01:00","1959","06","27","01:00","20.0","","18.9","","93","","32","","8","","6.4","","99.33","","27","","","","Fog"
"1959-06-27 02:00","1959","06","27","02:00","19.4","","18.3","","93","","34","","5","","6.4","","99.32","","","","","","Fog"
"1959-06-27 03:00","1959","06","27","03:00","18.9","","17.8","","93","","27","","3","","4.8","","99.34","","","","","","Fog"
"1959-06-27 04:00","1959","06","27","04:00","18.9","","17.8","","93","","27","","3","","2.8","","99.35","","","","","","Fog"
"1959-06-27 05:00","1959","06","27","05:00","17.8","","16.7","","93","","27","","5","","1.6","","99.40","","","","","","Fog"
"1959-06-27 06:00","1959","06","27","06:00","18.3","","17.2","","93","","5","","3","","2.4","","99.46","","","","","","Fog"
"1959-06-27 07:00","1959","06","27","07:00","20.6","","18.9","","90","","14","","3","","3.2","","99.45","","27","","","","Fog"
"1959-06-27 08:00","1959","06","27","08:00","24.4","","20.0","","76","","20","","3","","8.0","","99.45","","32","","","","Haze"
"1959-06-27 09:00","1959","06","27","09:00","26.1","","21.1","","74","","20","","8","","11.3","","99.45","","35","","","","Mainly Clear"
"1959-06-27 10:00","1959","06","27","10:00","27.2","","21.1","","69","","16","","16","","12.9","","99.45","","36","","","","Mainly Clear"
"1959-06-27 11:00","1959","06","27","11:00","27.8","","20.6","","65","","16","","19","","12.9","","99.40","","36","","","","Mainly Clear"
"1959-06-27 12:00","1959","06","27","12:00","30.6","","21.1","","57","","16","","21","","16.1","","99.33","","39","","","","Mostly Cloudy"
"1959-06-27 13:00","1959","06","27","13:00","30.0","","21.1","","59","","16","","24","","12.9","","99.22","","39","","","","Mostly Cloudy"
"1959-06-27 14:00","1959","06","27","14:00","21.7","","21.1","","97","","23","","10","","16.1","","99.30","","30","","","","Thunderstorms,Rain Showers"
"1959-06-27 15:00","1959","06","27","15:00","23.3","","21.7","","91","","23","","6","","24.1","","99.31","","32","","","","Mostly Cloudy"
"1959-06-27 16:00","1959","06","27","16:00","28.3","","23.3","","74","","25","","10","","24.1","","99.27","","39","","","","Mostly Cloudy"
"1959-06-27 17:00","1959","06","27","17:00","28.9","","23.9","","75","","16","","13","","19.3","","99.26","","40","","","","Mostly Cloudy"
"1959-06-27 18:00","1959","06","27","18:00","27.2","","22.2","","74","","18","","10","","19.3","","99.25","","37","","","","Mostly Cloudy"
"1959-06-27 19:00","1959","06","27","19:00","26.1","","21.1","","74","","14","","11","","19.3","","99.28","","35","","","","Mostly Cloudy"
"1959-06-27 20:00","1959","06","27","20:00","22.8","","20.6","","87","","14","","10","","3.2","","99.28","","31","","","","Fog"
"1959-06-27 21:00","1959","06","27","21:00","22.2","","20.6","","90","","16","","8","","3.2","","99.30","","30","","","","Fog"
"1959-06-27 22:00","1959","06","27","22:00","22.2","","20.0","","87","","16","","6","","3.2","","99.29","","30","","","","Fog"
"1959-06-27 23:00","1959","06","27","23:00","21.1","","19.4","","90","","","","0","","2.4","","99.28","","28","","","","Fog"
"1959-06-28 00:00","1959","06","28","00:00","21.1","","19.4","","90","","18","","3","","3.2","","99.25","","28","","","","Fog"
"1959-06-28 01:00","1959","06","28","01:00","20.6","","18.9","","90","","18","","10","","2.8","","99.28","","27","","","","Fog"
"1959-06-28 02:00","1959","06","28","02:00","20.0","","18.3","","90","","18","","6","","2.0","","99.26","","26","","","","Fog"
"1959-06-28 03:00","1959","06","28","03:00","20.0","","18.9","","93","","","","0","","3.2","","99.23","","27","","","","Fog"
"1959-06-28 04:00","1959","06","28","04:00","20.6","","18.9","","90","","","","0","","3.2","","99.22","","27","","","","Rain Showers,Fog"
"1959-06-28 05:00","1959","06","28","05:00","21.1","","19.4","","90","","18","","3","","6.4","","99.24","","28","","","","Fog"
"1959-06-28 06:00","1959","06","28","06:00","21.7","","20.0","","90","","23","","3","","8.0","","99.23","","29","","","","Fog"
"1959-06-28 07:00","1959","06","28","07:00","23.9","","21.7","","88","","23","","10","","12.9","","99.23","","33","","","","Mostly Cloudy"
"1959-06-28 08:00","1959","06","28","08:00","27.2","","22.2","","74","","25","","18","","16.1","","99.23","","37","","","","Mostly Cloudy"
"1959-06-28 09:00","1959","06","28","09:00","28.3","","22.8","","72","","27","","24","","16.1","","99.20","","38","","","","Mostly Cloudy"
"1959-06-28 10:00","1959","06","28","10:00","30.0","","22.2","","63","","25","","23","","16.1","","99.19","","40","","","","Mainly Clear"
"1959-06-28 11:00","1959","06","28","11:00","31.7","","22.8","","60","","25","","24","","16.1","","99.15","","42","","","","Mainly Clear"
"1959-06-28 12:00","1959","06","28","12:00","32.2","","22.8","","58","","25","","23","","19.3","","99.20","","42","","","","Mostly Cloudy"
"1959-06-28 13:00","1959","06","28","13:00","31.7","","22.2","","58","","25","","16","","19.3","","99.12","","41","","","","Mostly Cloudy"
"1959-06-28 14:00","1959","06","28","14:00","32.2","","21.7","","54","","25","","24","","19.3","","99.18","","41","","","","Mostly Cloudy"
"1959-06-28 15:00","1959","06","28","15:00","32.8","","22.2","","54","","23","","27","","19.3","","99.14","","42","","","","Mainly Clear"
"1959-06-28 16:00","1959","06","28","16:00","32.2","","22.2","","56","","23","","26","","16.1","","99.07","","42","","","","Mainly Clear"
"1959-06-28 17:00","1959","06","28","17:00","31.7","","22.8","","60","","23","","27","","19.3","","99.03","","42","","","","Mainly Clear"
"1959-06-28 18:00","1959","06","28","18:00","31.1","","22.8","","61","","23","","29","","19.3","","98.99","","41","","","","Mainly Clear"
"1959-06-28 19:00","1959","06","28","19:00","30.6","","23.3","","66","","23","","23","","16.1","","99.07","","41","","","","Mainly Clear"
"1959-06-28 20:00","1959","06","28","20:00","28.9","","22.8","","70","","23","","16","","12.9","","99.11","","39","","","","Mainly Clear"
"1959-06-28 21:00","1959","06","28","21:00","27.8","","22.8","","74","","23","","11","","19.3","","99.16","","38","","","","Mainly Clear"
"1959-06-28 22:00","1959","06","28","22:00","26.7","","22.8","","79","","20","","10","","25.0","","99.13","","37","","","","Clear"
"1959-06-28 23:00","1959","06","28","23:00","26.1","","22.2","","79","","20","","13","","24.1","","99.12","","36","","","","Clear"
"1959-06-29 00:00","1959","06","29","00:00","25.6","","22.2","","82","","20","","11","","19.3","","99.11","","35","","","","Clear"
"1959-06-29 01:00","1959","06","29","01:00","25.6","","22.2","","82","","23","","13","","24.1","","99.09","","35","","","","Mainly Clear"
"1959-06-29 02:00","1959","06","29","02:00","25.6","","22.2","","82","","20","","10","","24.1","","99.08","","35","","","","Mostly Cloudy"
"1959-06-29 03:00","1959","06","29","03:00","25.6","","22.2","","82","","23","","10","","24.1","","99.06","","35","","","","Cloudy"
"1959-06-29 04:00","1959","06","29","04:00","25.0","","21.7","","82","","25","","10","","24.1","","99.06","","34","","","","Mainly Clear"
"1959-06-29 05:00","1959","06","29","05:00","24.4","","21.7","","85","","20","","10","","24.1","","99.09","","33","","","","Mainly Clear"
"1959-06-29 06:00","1959","06","29","06:00","25.0","","22.2","","85","","20","","10","","19.3","","99.11","","35","","","","Clear"
"1959-06-29 07:00","1959","06","29","07:00","26.1","","22.2","","79","","27","","13","","19.3","","99.14","","36","","","","Clear"
"1959-06-29 08:00","1959","06","29","08:00","27.8","","22.2","","72","","27","","23","","19.3","","99.24","","37","","","","Mostly Cloudy"
"1959-06-29 09:00","1959","06","29","09:00","28.3","","22.2","","70","","29","","23","","24.1","","99.23","","38","","","","Mainly Clear"
"1959-06-29 10:00","1959","06","29","10:00","29.4","","21.7","","63","","29","","29","","25.0","","99.26","","38","","","","Mostly Cloudy"
"1959-06-29 11:00","1959","06","29","11:00","30.0","","20.6","","57","","27","","19","","25.0","","99.28","","38","","","","Mostly Cloudy"
"1959-06-29 12:00","1959","06","29","12:00","30.0","","20.6","","57","","29","","23","","24.1","","99.32","","38","","","","Mainly Clear"
"1959-06-29 13:00","1959","06","29","13:00","30.6","","20.6","","55","","27","","26","","24.1","","99.34","","39","","","","Mostly Cloudy"
"1959-06-29 14:00","1959","06","29","14:00","31.7","","21.7","","56","","32","","29","","24.1","","99.34","","41","","","","Mainly Clear"
"1959-06-29 15:00","1959","06","29","15:00","31.7","","12.8","","32","","29","","32","","24.1","","99.36","","34","","","","Mainly Clear"
"1959-06-29 16:00","1959","06","29","16:00","31.1","","12.2","","32","","29","","24","","25.0","","99.33","","33","","","","Mainly Clear"
"1959-06-29 17:00","1959","06","29","17:00","30.6","","11.7","","31","","32","","29","","25.0","","99.35","","33","","","","Mainly Clear"
"1959-06-29 18:00","1959","06","29","18:00","30.0","","11.7","","32","","32","","21","","25.0","","99.35","","32","","","","Mainly Clear"
"1959-06-29 19:00","1959","06","29","19:00","25.6","","15.0","","52","","36","","13","","25.0","","99.40","","30","","","","Mainly Clear"
"1959-06-29 20:00","1959","06","29","20:00","23.3","","16.1","","64","","36","","13","","25.0","","99.44","","28","","","","Mainly Clear"
"1959-06-29 21:00","1959","06","29","21:00","20.6","","15.0","","71","","36","","10","","25.0","","99.47","","25","","","","Mainly Clear"
"1959-06-29 22:00","1959","06","29","22:00","18.9","","12.8","","68","","36","","13","","25.0","","99.52","","","","","","Mainly Clear"
"1959-06-29 23:00","1959","06","29","23:00","18.3","","12.8","","70","","34","","13","","25.0","","99.55","","","","","","Mainly Clear"
"1959-06-30 00:00","1959","06","30","00:00","17.2","","12.8","","75","","32","","6","","25.0","","99.45","","","","","","Mainly Clear"
"1959-06-30 01:00","1959","06","30","01:00","17.2","","12.8","","75","","32","","10","","25.0","","99.52","","","","","","Mainly Clear"
"1959-06-30 02:00","1959","06","30","02:00","17.2","","11.1","","67","","32","","8","","25.0","","99.51","","","","","","Mostly Cloudy"
"1959-06-30 03:00","1959","06","30","03:00","17.2","","9.4","","60","","34","","14","","25.0","","99.50","","","","","","Mostly Cloudy"
"1959-06-30 04:00","1959","06","30","04:00","16.7","","7.2","","54","","36","","13","","25.0","","99.53","","","","","","Mostly Cloudy"
"1959-06-30 05:00","1959","06","30","05:00","16.1","","8.3","","60","","36","","8","","25.0","","99.65","","","","","","Mostly Cloudy"
"1959-06-30 06:00","1959","06","30","06:00","15.6","","9.4","","67","","36","","11","","25.0","","99.76","","","","","","Mostly Cloudy"
"1959-06-30 07:00","1959","06","30","07:00","15.6","","9.4","","67","","36","","19","","25.0","","99.81","","","","","","Mostly Cloudy"
"1959-06-30 08:00","1959","06","30","08:00","16.1","","10.0","","67","","36","","13","","25.0","","99.79","","","","","","Mostly Cloudy"
"1959-06-30 09:00","1959","06","30","09:00","17.2","","11.1","","67","","36","","6","","25.0","","99.82","","","","","","Mostly Cloudy"
"1959-06-30 10:00","1959","06","30","10:00","18.9","","11.7","","63","","2","","10","","25.0","","99.69","","","","","","Mostly Cloudy"
"1959-06-30 11:00","1959","06","30","11:00","20.0","","12.2","","61","","5","","13","","25.0","","99.70","","","","","","Mostly Cloudy"
"1959-06-30 12:00","1959","06","30","12:00","21.1","","12.2","","57","","36","","5","","25.0","","99.74","","","","","","Mostly Cloudy"
"1959-06-30 13:00","1959","06","30","13:00","21.7","","12.8","","57","","36","","10","","25.0","","99.66","","","","","","Cloudy"
"1959-06-30 14:00","1959","06","30","14:00","21.1","","12.2","","57","","36","","10","","25.0","","99.68","","","","","","Rain Showers"
"1959-06-30 15:00","1959","06","30","15:00","20.6","","12.8","","61","","36","","6","","25.0","","99.66","","","","","","Rain Showers"
"1959-06-30 16:00","1959","06","30","16:00","21.1","","11.7","","55","","2","","6","","25.0","","99.66","","","","","","Mostly Cloudy"
"1959-06-30 17:00","1959","06","30","17:00","21.1","","12.2","","57","","2","","10","","25.0","","99.66","","","","","","Mostly Cloudy"
"1959-06-30 18:00","1959","06","30","18:00","20.6","","14.4","","68","","2","","11","","25.0","","99.66","","","","","","Mostly Cloudy"
"1959-06-30 19:00","1959","06","30","19:00","20.0","","12.8","","63","","2","","13","","25.0","","99.65","","","","","","Mostly Cloudy"
"1959-06-30 20:00","1959","06","30","20:00","17.8","","12.8","","73","","2","","6","","25.0","","99.68","","","","","","Mostly Cloudy"
"1959-06-30 21:00","1959","06","30","21:00","17.2","","12.2","","72","","36","","6","","25.0","","99.72","","","","","","Mostly Cloudy"
"1959-06-30 22:00","1959","06","30","22:00","16.7","","12.2","","75","","36","","5","","25.0","","99.70","","","","","","Mainly Clear"
"1959-06-30 23:00","1959","06","30","23:00","16.1","","12.2","","78","","36","","8","","25.0","","99.70","","","","","","Mainly Clear"
