"Station Name","TORONTO LESTER B. PEARSON INT'L A"
"Province","ONTARIO"
"Latitude","43.68"
"Longitude","-79.63"
"Elevation","173.40"
"Climate Identifier","6158733"
"WMO Identifier","71624"
"TC Identifier","YYZ"
"All times are specified in Local Standard Time (LST). Add 1 hour to adjust for Daylight Saving Time where and when it is observed."

"Legend"
"E","Estimated"
"M","Missing"
"NA","Not Available"

"Date/Time","Year","Month","Day","Time","Temp (°C)","Temp Flag","Dew Point Temp (°C)","Dew Point Temp Flag","Rel Hum (%)","Rel Hum Flag","Wind Dir (10s deg)","Wind Dir Flag","Wind Spd (km/h)","Wind Spd Flag","Visibility (km)","Visibility Flag","Stn Press (kPa)","Stn Press Flag","Hmdx","Hmdx Flag","Wind Chill","Wind Chill Flag","Weather"
"1974-01-01 00:00","1974","01","01","00:00","-7.2","","-8.9","","88","","34","","6","","16.1","","99.55","","","","-10","","Cloudy"
"1974-01-01 01:00","1974","01","01","01:00","-6.7","","-7.8","","91","","34","","14","","2.0","","99.48","","","","-12","","Snow"
"1974-01-01 02:00","1974","01","01","02:00","-6.7","","-8.3","","88","","32","","14","","2.0","","99.48","","","","-12","","Snow"
"1974-01-01 03:00","1974","01","01","03:00","-6.7","","-7.8","","92","","32","","16","","1.6","","99.56","","","","-13","","Snow"
"1974-01-01 04:00","1974","01","01","04:00","-6.7","","-7.8","","91","","34","","11","","1.6","","99.51","","","","-12","","Snow"
"1974-01-01 05:00","1974","01","01","05:00","-6.7","","-7.8","","93","","32","","8","","2.4","","99.50","","","","-11","","Snow"
"1974-01-01 06:00","1974","01","01","06:00","-6.7","","-8.3","","87","","29","","5","","16.1","","99.55","","","","-9","","Mostly Cloudy"
"1974-01-01 07:00","1974","01","01","07:00","-7.2","","-10.0","","81","","26","","14","","25.0","","99.62","","","","-13","","Mainly Clear"
"1974-01-01 08:00","1974","01","01","08:00","-7.2","","-8.9","","87","","26","","23","","24.1","","99.72","","","","-15","","Mostly Cloudy"
"1974-01-01 09:00","1974","01","01","09:00","-6.7","","-9.4","","80","","27","","21","","19.3","","99.75","","","","-14","","Mainly Clear"
"1974-01-01 10:00","1974","01","01","10:00","-6.1","","-9.4","","77","","27","","21","","32.2","","99.87","","","","-13","","Mainly Clear"
"1974-01-01 11:00","1974","01","01","11:00","-5.6","","-8.3","","81","","28","","26","","40.2","","99.95","","","","-13","","Mainly Clear"
"1974-01-01 12:00","1974","01","01","12:00","-4.4","","-8.3","","76","","27","","27","","40.2","","100.01","","","","-12","","Mainly Clear"
"1974-01-01 13:00","1974","01","01","13:00","-5.0","","-8.9","","77","","26","","29","","24.1","","100.05","","","","-13","","Snow Showers"
"1974-01-01 14:00","1974","01","01","14:00","-5.0","","-8.9","","74","","27","","27","","40.2","","100.09","","","","-13","","Mainly Clear"
"1974-01-01 15:00","1974","01","01","15:00","-6.1","","-9.4","","77","","26","","27","","40.2","","100.23","","","","-14","","Mainly Clear"
"1974-01-01 16:00","1974","01","01","16:00","-6.7","","-11.7","","68","","27","","27","","40.2","","100.36","","","","-15","","Mainly Clear"
"1974-01-01 17:00","1974","01","01","17:00","-7.8","","-12.8","","69","","26","","23","","40.2","","100.49","","","","-16","","Mainly Clear"
"1974-01-01 18:00","1974","01","01","18:00","-9.4","","-13.3","","72","","25","","24","","25.0","","100.56","","","","-18","","Mainly Clear"
"1974-01-01 19:00","1974","01","01","19:00","-9.4","","-15.0","","65","","26","","26","","25.0","","100.65","","","","-18","","Mainly Clear"
"1974-01-01 20:00","1974","01","01","20:00","-9.4","","-14.4","","66","","26","","27","","25.0","","100.71","","","","-18","","Clear"
"1974-01-01 21:00","1974","01","01","21:00","-11.1","","-15.0","","71","","26","","18","","25.0","","100.79","","","","-19","","Clear"
"1974-01-01 22:00","1974","01","01","22:00","-12.8","","-16.1","","74","","25","","16","","25.0","","100.87","","","","-20","","Clear"
"1974-01-01 23:00","1974","01","01","23:00","-13.3","","-16.1","","79","","24","","16","","25.0","","100.92","","","","-21","","Clear"
"1974-01-02 00:00","1974","01","02","00:00","-12.8","","-15.6","","83","","24","","19","","25.0","","100.97","","","","-21","","Clear"
"1974-01-02 01:00","1974","01","02","01:00","-13.3","","-16.1","","79","","26","","13","","25.0","","101.05","","","","-20","","Clear"
"1974-01-02 02:00","1974","01","02","02:00","-13.9","","-16.7","","81","","25","","16","","25.0","","101.08","","","","-22","","Clear"
"1974-01-02 03:00","1974","01","02","03:00","-13.9","","-16.7","","80","","25","","14","","25.0","","101.14","","","","-21","","Clear"
"1974-01-02 04:00","1974","01","02","04:00","-13.9","","-16.7","","80","","24","","18","","25.0","","101.17","","","","-22","","Clear"
"1974-01-02 05:00","1974","01","02","05:00","-14.4","","-17.2","","79","","26","","11","","25.0","","101.23","","","","-21","","Clear"
"1974-01-02 06:00","1974","01","02","06:00","-15.0","","-17.2","","84","","24","","18","","25.0","","101.28","","","","-24","","Mainly Clear"
"1974-01-02 07:00","1974","01","02","07:00","-15.0","","-17.2","","82","","25","","13","","25.0","","101.29","","","","-22","","Mainly Clear"
"1974-01-02 08:00","1974","01","02","08:00","-15.6","","-17.2","","86","","21","","5","","19.3","","101.34","","","","-19","","Mainly Clear"
"1974-01-02 09:00","1974","01","02","09:00","-15.6","","-17.2","","86","","28","","6","","19.3","","101.41","","","","-20","","Mainly Clear"
"1974-01-02 10:00","1974","01","02","10:00","-12.8","","-16.7","","74","","25","","16","","19.3","","101.50","","","","-20","","Mostly Cloudy"
"1974-01-02 11:00","1974","01","02","11:00","-12.2","","-13.9","","85","","24","","13","","24.1","","101.44","","","","-19","","Mostly Cloudy"
"1974-01-02 12:00","1974","01","02","12:00","-10.6","","-14.4","","73","","24","","18","","32.2","","101.40","","","","-18","","Cloudy"
"1974-01-02 13:00","1974","01","02","13:00","-9.4","","-14.4","","68","","26","","19","","32.2","","101.33","","","","-17","","Cloudy"
"1974-01-02 14:00","1974","01","02","14:00","-8.9","","-12.8","","72","","23","","18","","40.2","","101.27","","","","-16","","Cloudy"
"1974-01-02 15:00","1974","01","02","15:00","-8.3","","-13.3","","67","","23","","10","","40.2","","101.19","","","","-13","","Cloudy"
"1974-01-02 16:00","1974","01","02","16:00","-8.3","","-13.3","","69","","22","","16","","32.2","","101.23","","","","-15","","Cloudy"
"1974-01-02 17:00","1974","01","02","17:00","-8.9","","-13.9","","69","","22","","16","","32.2","","101.24","","","","-16","","Cloudy"
"1974-01-02 18:00","1974","01","02","18:00","-9.4","","-13.9","","72","","22","","19","","19.3","","101.23","","","","-17","","Snow"
"1974-01-02 19:00","1974","01","02","19:00","-9.4","","-12.2","","79","","23","","19","","19.3","","101.23","","","","-17","","Snow"
"1974-01-02 20:00","1974","01","02","20:00","-9.4","","-12.2","","81","","23","","14","","9.7","","101.19","","","","-16","","Snow"
"1974-01-02 21:00","1974","01","02","21:00","-10.0","","-12.8","","82","","23","","10","","25.0","","101.12","","","","-15","","Mostly Cloudy"
"1974-01-02 22:00","1974","01","02","22:00","-10.0","","-12.2","","82","","25","","5","","25.0","","101.09","","","","-13","","Mostly Cloudy"
"1974-01-02 23:00","1974","01","02","23:00","-10.0","","-12.2","","82","","24","","3","","25.0","","101.06","","","","-12","","Mostly Cloudy"
"1974-01-03 00:00","1974","01","03","00:00","-9.4","","-12.2","","81","","24","","5","","24.1","","101.00","","","","-12","","Snow"
"1974-01-03 01:00","1974","01","03","01:00","-8.9","","-11.7","","80","","28","","10","","9.7","","100.95","","","","-14","","Snow"
"1974-01-03 02:00","1974","01","03","02:00","-8.9","","-11.7","","83","","29","","8","","24.1","","100.89","","","","-13","","Cloudy"
"1974-01-03 03:00","1974","01","03","03:00","-9.4","","-11.7","","84","","","","0","","24.1","","100.94","","","","","","Cloudy"
"1974-01-03 04:00","1974","01","03","04:00","-8.9","","-11.7","","80","","25","","5","","24.1","","100.89","","","","-12","","Cloudy"
"1974-01-03 05:00","1974","01","03","05:00","-8.9","","-11.1","","83","","","","0","","24.1","","100.87","","","","","","Cloudy"
"1974-01-03 06:00","1974","01","03","06:00","-8.3","","-11.1","","84","","","","0","","19.3","","100.84","","","","","","Cloudy"
"1974-01-03 07:00","1974","01","03","07:00","-8.9","","-11.1","","83","","","","0","","16.1","","100.83","","","","","","Cloudy"
"1974-01-03 08:00","1974","01","03","08:00","-8.9","","-10.6","","86","","","","0","","9.7","","100.76","","","","","","Fog"
"1974-01-03 09:00","1974","01","03","09:00","-8.3","","-11.1","","81","","","","0","","8.0","","100.77","","","","","","Fog"
"1974-01-03 10:00","1974","01","03","10:00","-6.7","","-10.6","","76","","","","0","","8.0","","100.77","","","","","","Haze"
"1974-01-03 11:00","1974","01","03","11:00","-6.7","","-9.4","","79","","6","","3","","9.7","","100.64","","","","-8","","Haze"
"1974-01-03 12:00","1974","01","03","12:00","-5.6","","-8.9","","76","","","","0","","9.7","","100.59","","","","","","Haze"
"1974-01-03 13:00","1974","01","03","13:00","-5.0","","-8.3","","77","","","","0","","9.7","","100.47","","","","","","Snow"
"1974-01-03 14:00","1974","01","03","14:00","-3.9","","-8.9","","68","","","","0","","8.0","","100.39","","","","","","Snow"
"1974-01-03 15:00","1974","01","03","15:00","-4.4","","-8.3","","75","","","","0","","6.4","","100.34","","","","","","Snow"
"1974-01-03 16:00","1974","01","03","16:00","-5.0","","-7.8","","80","","","","0","","2.4","","100.28","","","","","","Snow"
"1974-01-03 17:00","1974","01","03","17:00","-5.6","","-7.8","","84","","","","0","","11.3","","100.25","","","","","","Snow"
"1974-01-03 18:00","1974","01","03","18:00","-5.6","","-7.2","","87","","21","","6","","6.4","","100.25","","","","-8","","Snow,Fog"
"1974-01-03 19:00","1974","01","03","19:00","-6.7","","-8.3","","90","","23","","6","","8.0","","100.23","","","","-10","","Snow,Fog"
"1974-01-03 20:00","1974","01","03","20:00","-7.8","","-8.9","","92","","24","","5","","16.1","","100.22","","","","-10","","Mostly Cloudy"
"1974-01-03 21:00","1974","01","03","21:00","-8.9","","-10.0","","93","","26","","8","","9.7","","100.21","","","","-13","","Fog"
"1974-01-03 22:00","1974","01","03","22:00","-9.4","","-10.6","","91","","26","","11","","11.3","","100.21","","","","-15","","Mostly Cloudy"
"1974-01-03 23:00","1974","01","03","23:00","-8.3","","-9.4","","91","","18","","5","","12.9","","100.19","","","","-11","","Cloudy"
"1974-01-04 00:00","1974","01","04","00:00","-7.2","","-8.3","","91","","23","","11","","19.3","","100.14","","","","-12","","Mostly Cloudy"
"1974-01-04 01:00","1974","01","04","01:00","-7.2","","-8.9","","88","","23","","11","","16.1","","100.09","","","","-12","","Mostly Cloudy"
"1974-01-04 02:00","1974","01","04","02:00","-6.1","","-8.3","","86","","24","","13","","8.0","","100.09","","","","-11","","Snow"
"1974-01-04 03:00","1974","01","04","03:00","-6.7","","-8.3","","88","","25","","11","","12.9","","100.11","","","","-12","","Snow"
"1974-01-04 04:00","1974","01","04","04:00","-8.9","","-11.7","","80","","23","","10","","25.0","","100.06","","","","-14","","Mainly Clear"
"1974-01-04 05:00","1974","01","04","05:00","-7.2","","-10.6","","78","","24","","14","","25.0","","100.04","","","","-13","","Mostly Cloudy"
"1974-01-04 06:00","1974","01","04","06:00","-6.7","","-10.0","","78","","26","","16","","25.0","","100.04","","","","-13","","Mostly Cloudy"
"1974-01-04 07:00","1974","01","04","07:00","-7.2","","-11.7","","73","","27","","19","","25.0","","100.05","","","","-14","","Mainly Clear"
"1974-01-04 08:00","1974","01","04","08:00","-8.3","","-12.8","","70","","26","","16","","32.2","","100.07","","","","-15","","Mainly Clear"
"1974-01-04 09:00","1974","01","04","09:00","-8.9","","-13.3","","71","","25","","11","","32.2","","100.17","","","","-14","","Mainly Clear"
"1974-01-04 10:00","1974","01","04","10:00","-8.3","","-12.2","","73","","24","","13","","24.1","","100.20","","","","-14","","Mainly Clear"
"1974-01-04 11:00","1974","01","04","11:00","-6.7","","-12.8","","63","","27","","6","","40.2","","100.24","","","","-10","","Mainly Clear"
"1974-01-04 12:00","1974","01","04","12:00","-6.7","","-12.2","","65","","26","","21","","40.2","","100.15","","","","-14","","Mainly Clear"
"1974-01-04 13:00","1974","01","04","13:00","-6.1","","-11.1","","68","","28","","27","","32.2","","100.11","","","","-14","","Snow Showers"
"1974-01-04 14:00","1974","01","04","14:00","-5.6","","-9.4","","73","","27","","19","","32.2","","100.13","","","","-12","","Snow Showers"
"1974-01-04 15:00","1974","01","04","15:00","-6.1","","-11.7","","65","","27","","26","","40.2","","100.16","","","","-14","","Mainly Clear"
"1974-01-04 16:00","1974","01","04","16:00","-6.7","","-11.1","","69","","26","","16","","40.2","","100.22","","","","-13","","Mainly Clear"
"1974-01-04 17:00","1974","01","04","17:00","-8.3","","-12.8","","71","","25","","14","","32.2","","100.27","","","","-14","","Mainly Clear"
"1974-01-04 18:00","1974","01","04","18:00","-10.0","","-13.3","","76","","25","","13","","25.0","","100.31","","","","-16","","Mainly Clear"
"1974-01-04 19:00","1974","01","04","19:00","-10.6","","-14.4","","75","","25","","14","","25.0","","100.31","","","","-17","","Mainly Clear"
"1974-01-04 20:00","1974","01","04","20:00","-11.1","","-13.9","","79","","24","","16","","25.0","","100.31","","","","-18","","Mainly Clear"
"1974-01-04 21:00","1974","01","04","21:00","-11.1","","-14.4","","77","","23","","18","","25.0","","100.34","","","","-19","","Clear"
"1974-01-04 22:00","1974","01","04","22:00","-11.1","","-13.9","","80","","24","","24","","25.0","","100.35","","","","-20","","Mainly Clear"
"1974-01-04 23:00","1974","01","04","23:00","-11.7","","-15.0","","78","","24","","21","","25.0","","100.35","","","","-20","","Mainly Clear"
"1974-01-05 00:00","1974","01","05","00:00","-11.7","","-15.0","","76","","25","","19","","25.0","","100.32","","","","-20","","Mainly Clear"
"1974-01-05 01:00","1974","01","05","01:00","-11.7","","-15.0","","77","","25","","16","","25.0","","100.29","","","","-19","","Clear"
"1974-01-05 02:00","1974","01","05","02:00","-12.2","","-15.6","","77","","25","","21","","24.1","","100.33","","","","-21","","Clear"
"1974-01-05 03:00","1974","01","05","03:00","-11.7","","-15.6","","74","","25","","23","","25.0","","100.34","","","","-21","","Clear"
"1974-01-05 04:00","1974","01","05","04:00","-11.7","","-15.6","","74","","26","","14","","24.1","","100.28","","","","-19","","Clear"
"1974-01-05 05:00","1974","01","05","05:00","-12.8","","-15.0","","83","","25","","14","","24.1","","100.23","","","","-20","","Clear"
"1974-01-05 06:00","1974","01","05","06:00","-12.8","","-15.0","","85","","25","","16","","19.3","","100.20","","","","-20","","Mostly Cloudy"
"1974-01-05 07:00","1974","01","05","07:00","-13.3","","-15.6","","86","","26","","11","","19.3","","100.20","","","","-20","","Mostly Cloudy"
"1974-01-05 08:00","1974","01","05","08:00","-13.9","","-15.6","","87","","25","","11","","19.3","","100.19","","","","-20","","Mostly Cloudy"
"1974-01-05 09:00","1974","01","05","09:00","-13.3","","-16.1","","82","","24","","13","","19.3","","100.19","","","","-20","","Mainly Clear"
"1974-01-05 10:00","1974","01","05","10:00","-10.6","","-13.3","","80","","25","","11","","19.3","","100.20","","","","-16","","Mostly Cloudy"
"1974-01-05 11:00","1974","01","05","11:00","-8.3","","-11.7","","75","","25","","14","","19.3","","100.16","","","","-14","","Mostly Cloudy"
"1974-01-05 12:00","1974","01","05","12:00","-5.6","","-9.4","","73","","21","","18","","24.1","","100.00","","","","-12","","Mostly Cloudy"
"1974-01-05 13:00","1974","01","05","13:00","-5.6","","-9.4","","72","","22","","19","","24.1","","99.87","","","","-12","","Cloudy"
"1974-01-05 14:00","1974","01","05","14:00","-5.6","","-9.4","","72","","21","","21","","32.2","","99.77","","","","-12","","Mostly Cloudy"
"1974-01-05 15:00","1974","01","05","15:00","-4.4","","-8.9","","74","","22","","23","","32.2","","99.68","","","","-11","","Mostly Cloudy"
"1974-01-05 16:00","1974","01","05","16:00","-5.6","","-10.0","","73","","22","","16","","32.2","","99.66","","","","-12","","Mostly Cloudy"
"1974-01-05 17:00","1974","01","05","17:00","-7.8","","-11.1","","76","","23","","13","","24.1","","99.63","","","","-14","","Mostly Cloudy"
"1974-01-05 18:00","1974","01","05","18:00","-8.3","","-12.2","","76","","24","","13","","25.0","","99.63","","","","-14","","Mostly Cloudy"
"1974-01-05 19:00","1974","01","05","19:00","-8.3","","-12.2","","73","","23","","14","","24.1","","99.60","","","","-14","","Mostly Cloudy"
"1974-01-05 20:00","1974","01","05","20:00","-9.4","","-12.8","","75","","24","","10","","24.1","","99.58","","","","-15","","Mostly Cloudy"
"1974-01-05 21:00","1974","01","05","21:00","-10.0","","-13.3","","76","","24","","16","","19.3","","99.53","","","","-17","","Mainly Clear"
"1974-01-05 22:00","1974","01","05","22:00","-10.0","","-13.3","","76","","25","","14","","12.9","","99.55","","","","-16","","Mainly Clear"
"1974-01-05 23:00","1974","01","05","23:00","-10.6","","-13.3","","81","","24","","13","","9.7","","99.54","","","","-17","","Haze"
"1974-01-06 00:00","1974","01","06","00:00","-8.9","","-12.2","","78","","24","","18","","9.7","","99.49","","","","-16","","Haze"
"1974-01-06 01:00","1974","01","06","01:00","-7.8","","-11.1","","78","","23","","18","","11.3","","99.47","","","","-15","","Mostly Cloudy"
"1974-01-06 02:00","1974","01","06","02:00","-8.3","","-11.7","","78","","25","","14","","11.3","","99.46","","","","-14","","Mostly Cloudy"
"1974-01-06 03:00","1974","01","06","03:00","-9.4","","-11.7","","84","","26","","11","","11.3","","99.45","","","","-15","","Mostly Cloudy"
"1974-01-06 04:00","1974","01","06","04:00","-8.9","","-11.1","","83","","24","","16","","9.7","","99.41","","","","-16","","Fog"
"1974-01-06 05:00","1974","01","06","05:00","-7.8","","-10.6","","79","","25","","18","","12.9","","99.40","","","","-15","","Cloudy"
"1974-01-06 06:00","1974","01","06","06:00","-7.8","","-10.6","","79","","24","","18","","12.9","","99.35","","","","-15","","Cloudy"
"1974-01-06 07:00","1974","01","06","07:00","-8.3","","-10.6","","83","","24","","14","","16.1","","99.33","","","","-14","","Mostly Cloudy"
"1974-01-06 08:00","1974","01","06","08:00","-8.3","","-10.0","","85","","25","","14","","12.9","","99.32","","","","-14","","Cloudy"
"1974-01-06 09:00","1974","01","06","09:00","-8.3","","-10.6","","83","","24","","11","","12.9","","99.29","","","","-14","","Mostly Cloudy"
"1974-01-06 10:00","1974","01","06","10:00","-7.8","","-10.6","","82","","24","","19","","9.7","","99.33","","","","-15","","Haze"
"1974-01-06 11:00","1974","01","06","11:00","-6.7","","-9.4","","80","","26","","14","","9.7","","99.29","","","","-12","","Haze"
"1974-01-06 12:00","1974","01","06","12:00","-5.6","","-8.9","","78","","27","","16","","12.9","","99.07","","","","-12","","Cloudy"
"1974-01-06 13:00","1974","01","06","13:00","-5.6","","-8.9","","78","","25","","16","","4.8","","99.07","","","","-12","","Snow"
"1974-01-06 14:00","1974","01","06","14:00","-5.6","","-9.4","","73","","24","","16","","8.0","","99.00","","","","-12","","Snow"
"1974-01-06 15:00","1974","01","06","15:00","-5.6","","-9.4","","75","","25","","13","","6.4","","98.96","","","","-11","","Snow"
"1974-01-06 16:00","1974","01","06","16:00","-5.6","","-8.9","","80","","23","","13","","4.8","","98.96","","","","-11","","Snow"
"1974-01-06 17:00","1974","01","06","17:00","-6.1","","-8.3","","84","","22","","13","","9.7","","98.89","","","","-11","","Snow,Fog"
"1974-01-06 18:00","1974","01","06","18:00","-6.7","","-9.4","","82","","23","","13","","25.0","","98.84","","","","-12","","Mostly Cloudy"
"1974-01-06 19:00","1974","01","06","19:00","-8.3","","-11.1","","81","","24","","13","","25.0","","98.83","","","","-14","","Mainly Clear"
"1974-01-06 20:00","1974","01","06","20:00","-9.4","","-11.1","","86","","24","","16","","25.0","","98.88","","","","-16","","Mainly Clear"
"1974-01-06 21:00","1974","01","06","21:00","-10.6","","-12.2","","87","","25","","13","","19.3","","98.90","","","","-17","","Mainly Clear"
"1974-01-06 22:00","1974","01","06","22:00","-11.1","","-12.8","","86","","25","","14","","11.3","","98.88","","","","-18","","Mainly Clear"
"1974-01-06 23:00","1974","01","06","23:00","-10.6","","-12.2","","87","","27","","14","","9.7","","98.87","","","","-17","","Fog"
"1974-01-07 00:00","1974","01","07","00:00","-11.1","","-12.8","","88","","25","","11","","9.7","","98.84","","","","-17","","Fog"
"1974-01-07 01:00","1974","01","07","01:00","-10.6","","-13.3","","82","","23","","11","","9.7","","98.76","","","","-16","","Snow Showers"
"1974-01-07 02:00","1974","01","07","02:00","-8.9","","-11.7","","80","","22","","13","","6.4","","98.79","","","","-15","","Snow Showers"
"1974-01-07 03:00","1974","01","07","03:00","-8.9","","-10.6","","89","","22","","18","","6.4","","98.79","","","","-16","","Snow Showers"
"1974-01-07 04:00","1974","01","07","04:00","-8.3","","-11.1","","82","","22","","18","","8.0","","98.76","","","","-15","","Snow Showers"
"1974-01-07 05:00","1974","01","07","05:00","-7.8","","-10.0","","84","","22","","18","","8.0","","98.75","","","","-15","","Snow"
"1974-01-07 06:00","1974","01","07","06:00","-8.3","","-11.1","","81","","22","","19","","8.0","","98.74","","","","-16","","Snow"
"1974-01-07 07:00","1974","01","07","07:00","-8.3","","-11.1","","81","","22","","21","","8.0","","98.77","","","","-16","","Snow"
"1974-01-07 08:00","1974","01","07","08:00","-8.3","","-11.1","","81","","22","","19","","9.7","","98.78","","","","-16","","Snow"
"1974-01-07 09:00","1974","01","07","09:00","-7.8","","-11.1","","76","","21","","23","","9.7","","98.82","","","","-16","","Snow,Haze"
"1974-01-07 10:00","1974","01","07","10:00","-7.2","","-11.7","","72","","23","","29","","19.3","","98.90","","","","-16","","Mostly Cloudy"
"1974-01-07 11:00","1974","01","07","11:00","-7.2","","-11.1","","74","","24","","32","","24.1","","98.91","","","","-16","","Mainly Clear"
"1974-01-07 12:00","1974","01","07","12:00","-6.7","","-10.6","","73","","24","","27","","24.1","","98.88","","","","-15","","Mostly Cloudy"
"1974-01-07 13:00","1974","01","07","13:00","-6.7","","-10.6","","74","","23","","34","","24.1","","98.86","","","","-16","","Mostly Cloudy"
"1974-01-07 14:00","1974","01","07","14:00","-6.7","","-9.4","","83","","26","","32","","1.6","","98.89","","","","-15","","Snow Showers"
"1974-01-07 15:00","1974","01","07","15:00","-7.2","","-10.0","","80","","29","","34","","16.1","","98.99","","","","-16","","Mostly Cloudy"
"1974-01-07 16:00","1974","01","07","16:00","-8.3","","-13.3","","68","","28","","29","","40.2","","99.11","","","","-17","","Mostly Cloudy"
"1974-01-07 17:00","1974","01","07","17:00","-9.4","","-14.4","","67","","26","","24","","40.2","","99.23","","","","-18","","Mainly Clear"
"1974-01-07 18:00","1974","01","07","18:00","-10.0","","-15.0","","68","","25","","21","","25.0","","99.33","","","","-18","","Mainly Clear"
"1974-01-07 19:00","1974","01","07","19:00","-11.7","","-15.6","","74","","24","","16","","25.0","","99.43","","","","-19","","Clear"
"1974-01-07 20:00","1974","01","07","20:00","-11.1","","-15.6","","72","","25","","21","","25.0","","99.54","","","","-19","","Clear"
"1974-01-07 21:00","1974","01","07","21:00","-11.7","","-15.6","","73","","25","","19","","25.0","","99.61","","","","-20","","Mainly Clear"
"1974-01-07 22:00","1974","01","07","22:00","-11.7","","-15.6","","71","","25","","24","","25.0","","99.67","","","","-21","","Clear"
"1974-01-07 23:00","1974","01","07","23:00","-11.7","","-16.1","","70","","26","","26","","25.0","","99.74","","","","-21","","Mainly Clear"
"1974-01-08 00:00","1974","01","08","00:00","-11.7","","-16.7","","67","","26","","24","","25.0","","99.81","","","","-21","","Clear"
"1974-01-08 01:00","1974","01","08","01:00","-12.8","","-16.7","","72","","25","","19","","25.0","","99.86","","","","-21","","Clear"
"1974-01-08 02:00","1974","01","08","02:00","-13.3","","-17.2","","73","","26","","16","","25.0","","99.98","","","","-21","","Clear"
"1974-01-08 03:00","1974","01","08","03:00","-13.9","","-17.2","","76","","26","","18","","25.0","","100.05","","","","-22","","Clear"
"1974-01-08 04:00","1974","01","08","04:00","-15.0","","-17.2","","84","","26","","19","","25.0","","100.13","","","","-24","","Clear"
"1974-01-08 05:00","1974","01","08","05:00","-15.6","","-17.8","","84","","26","","18","","25.0","","100.21","","","","-24","","Clear"
"1974-01-08 06:00","1974","01","08","06:00","-15.0","","-17.8","","82","","26","","19","","25.0","","100.32","","","","-24","","Clear"
"1974-01-08 07:00","1974","01","08","07:00","-16.7","","-18.9","","85","","25","","11","","25.0","","100.47","","","","-24","","Clear"
"1974-01-08 08:00","1974","01","08","08:00","-17.8","","-20.0","","82","","31","","5","","24.1","","100.55","","","","-22","","Mainly Clear"
"1974-01-08 09:00","1974","01","08","09:00","-16.1","","-18.3","","81","","4","","11","","32.2","","100.69","","","","-23","","Mainly Clear"
"1974-01-08 10:00","1974","01","08","10:00","-13.9","","-17.8","","72","","5","","13","","24.1","","100.82","","","","-21","","Mainly Clear"
"1974-01-08 11:00","1974","01","08","11:00","-13.3","","-17.8","","69","","3","","11","","32.2","","100.90","","","","-20","","Mainly Clear"
"1974-01-08 12:00","1974","01","08","12:00","-13.3","","-18.3","","66","","36","","10","","40.2","","100.89","","","","-19","","Mostly Cloudy"
"1974-01-08 13:00","1974","01","08","13:00","-12.8","","-16.7","","71","","3","","5","","40.2","","100.83","","","","-16","","Mainly Clear"
"1974-01-08 14:00","1974","01","08","14:00","-12.2","","-16.1","","72","","31","","5","","40.2","","100.84","","","","-15","","Mostly Cloudy"
"1974-01-08 15:00","1974","01","08","15:00","-11.7","","-15.6","","71","","30","","6","","40.2","","100.85","","","","-15","","Mostly Cloudy"
"1974-01-08 16:00","1974","01","08","16:00","-12.2","","-17.2","","65","","3","","13","","40.2","","100.84","","","","-19","","Mostly Cloudy"
"1974-01-08 17:00","1974","01","08","17:00","-11.7","","-18.3","","59","","5","","16","","40.2","","100.83","","","","-19","","Cloudy"
"1974-01-08 18:00","1974","01","08","18:00","-12.2","","-17.8","","63","","4","","16","","24.1","","100.86","","","","-20","","Cloudy"
"1974-01-08 19:00","1974","01","08","19:00","-12.2","","-16.7","","68","","6","","14","","11.3","","100.75","","","","-19","","Snow Showers"
"1974-01-08 20:00","1974","01","08","20:00","-11.7","","-15.6","","72","","7","","13","","8.0","","100.70","","","","-18","","Snow"
"1974-01-08 21:00","1974","01","08","21:00","-11.7","","-15.0","","76","","7","","23","","4.0","","100.51","","","","-21","","Snow"
"1974-01-08 22:00","1974","01","08","22:00","-11.7","","-13.9","","81","","7","","23","","4.8","","100.42","","","","-21","","Snow"
"1974-01-08 23:00","1974","01","08","23:00","-11.1","","-13.3","","83","","6","","19","","2.0","","100.33","","","","-19","","Snow"
"1974-01-09 00:00","1974","01","09","00:00","-10.6","","-11.7","","90","","6","","16","","1.0","","100.21","","","","-18","","Snow"
"1974-01-09 01:00","1974","01","09","01:00","-10.0","","-11.7","","89","","5","","21","","1.6","","99.96","","","","-18","","Snow"
"1974-01-09 02:00","1974","01","09","02:00","-10.0","","-11.7","","89","","5","","19","","1.2","","99.78","","","","-18","","Snow"
"1974-01-09 03:00","1974","01","09","03:00","-10.0","","-12.2","","87","","5","","19","","1.2","","99.68","","","","-18","","Snow"
"1974-01-09 04:00","1974","01","09","04:00","-10.0","","-11.1","","91","","5","","19","","1.0","","99.48","","","","-18","","Snow"
"1974-01-09 05:00","1974","01","09","05:00","-10.0","","-11.1","","91","","6","","23","","1.6","","99.34","","","","-18","","Snow"
"1974-01-09 06:00","1974","01","09","06:00","-10.0","","-11.7","","87","","6","","29","","1.2","","99.34","","","","-19","","Snow"
"1974-01-09 07:00","1974","01","09","07:00","-11.7","","-13.3","","84","","3","","32","","3.6","","99.45","","","","-22","","Snow"
"1974-01-09 08:00","1974","01","09","08:00","-11.7","","-13.9","","84","","36","","31","","2.4","","99.48","","","","-22","","Snow"
"1974-01-09 09:00","1974","01","09","09:00","-12.2","","-15.0","","82","","1","","26","","2.4","","99.61","","","","-22","","Snow"
"1974-01-09 10:00","1974","01","09","10:00","-13.3","","-15.6","","84","","35","","26","","3.2","","99.77","","","","-23","","Snow"
"1974-01-09 11:00","1974","01","09","11:00","-13.3","","-15.6","","82","","1","","26","","12.9","","99.87","","","","-23","","Mainly Clear"
"1974-01-09 12:00","1974","01","09","12:00","-12.8","","-16.1","","77","","31","","21","","40.2","","99.89","","","","-22","","Mostly Cloudy"
"1974-01-09 13:00","1974","01","09","13:00","-12.2","","-15.6","","75","","36","","11","","40.2","","99.95","","","","-18","","Mainly Clear"
"1974-01-09 14:00","1974","01","09","14:00","-12.2","","-15.6","","75","","34","","18","","40.2","","100.01","","","","-20","","Mostly Cloudy"
"1974-01-09 15:00","1974","01","09","15:00","-12.2","","-15.6","","75","","34","","18","","40.2","","100.13","","","","-20","","Mostly Cloudy"
"1974-01-09 16:00","1974","01","09","16:00","-12.2","","-15.6","","77","","35","","13","","40.2","","100.23","","","","-19","","Mostly Cloudy"
"1974-01-09 17:00","1974","01","09","17:00","-13.3","","-16.1","","79","","35","","11","","32.2","","100.27","","","","-20","","Mostly Cloudy"
"1974-01-09 18:00","1974","01","09","18:00","-12.2","","-16.1","","75","","35","","13","","25.0","","100.34","","","","-19","","Cloudy"
"1974-01-09 19:00","1974","01","09","19:00","-12.2","","-15.6","","76","","35","","13","","25.0","","100.42","","","","-19","","Cloudy"
"1974-01-09 20:00","1974","01","09","20:00","-12.8","","-15.6","","78","","36","","10","","25.0","","100.50","","","","-19","","Snow Showers"
"1974-01-09 21:00","1974","01","09","21:00","-12.2","","-15.0","","83","","1","","11","","19.3","","100.50","","","","-18","","Snow Showers"
"1974-01-09 22:00","1974","01","09","22:00","-12.2","","-13.9","","87","","34","","8","","19.3","","100.49","","","","-17","","Snow Showers"
"1974-01-09 23:00","1974","01","09","23:00","-11.7","","-13.3","","86","","36","","13","","25.0","","100.42","","","","-18","","Cloudy"
"1974-01-10 00:00","1974","01","10","00:00","-11.1","","-12.8","","85","","36","","11","","25.0","","100.40","","","","-17","","Cloudy"
"1974-01-10 01:00","1974","01","10","01:00","-10.0","","-12.8","","83","","2","","8","","19.3","","100.35","","","","-14","","Snow"
"1974-01-10 02:00","1974","01","10","02:00","-10.0","","-11.1","","91","","4","","18","","12.9","","100.26","","","","-17","","Snow"
"1974-01-10 03:00","1974","01","10","03:00","-10.0","","-11.1","","92","","5","","14","","8.0","","100.29","","","","-16","","Snow Grains"
"1974-01-10 04:00","1974","01","10","04:00","-10.0","","-11.1","","92","","3","","13","","8.0","","100.26","","","","-16","","Snow Grains"
"1974-01-10 05:00","1974","01","10","05:00","-10.0","","-11.7","","91","","4","","16","","3.2","","100.18","","","","-17","","Snow,Snow Grains"
"1974-01-10 06:00","1974","01","10","06:00","-10.0","","-10.6","","92","","5","","24","","6.4","","100.18","","","","-19","","Snow Grains"
"1974-01-10 07:00","1974","01","10","07:00","-10.6","","-11.7","","90","","5","","23","","4.8","","100.17","","","","-19","","Snow Grains"
"1974-01-10 08:00","1974","01","10","08:00","-11.1","","-13.9","","82","","3","","16","","3.2","","100.15","","","","-18","","Snow"
"1974-01-10 09:00","1974","01","10","09:00","-11.1","","-12.8","","86","","33","","11","","3.2","","100.15","","","","-17","","Snow"
"1974-01-10 10:00","1974","01","10","10:00","-10.6","","-12.8","","84","","2","","11","","12.9","","100.16","","","","-16","","Snow"
"1974-01-10 11:00","1974","01","10","11:00","-10.6","","-12.8","","84","","35","","11","","16.1","","100.14","","","","-16","","Snow"
"1974-01-10 12:00","1974","01","10","12:00","-8.9","","-11.7","","79","","36","","10","","24.1","","100.05","","","","-14","","Cloudy"
"1974-01-10 13:00","1974","01","10","13:00","-8.3","","-11.1","","81","","33","","6","","24.1","","99.95","","","","-12","","Cloudy"
"1974-01-10 14:00","1974","01","10","14:00","-8.9","","-12.2","","78","","32","","14","","32.2","","99.90","","","","-15","","Cloudy"
"1974-01-10 15:00","1974","01","10","15:00","-8.3","","-11.7","","77","","33","","16","","32.2","","99.87","","","","-15","","Mostly Cloudy"
"1974-01-10 16:00","1974","01","10","16:00","-8.9","","-12.2","","76","","34","","13","","40.2","","99.86","","","","-15","","Mostly Cloudy"
"1974-01-10 17:00","1974","01","10","17:00","-8.9","","-12.2","","79","","34","","14","","32.2","","99.86","","","","-15","","Cloudy"
"1974-01-10 18:00","1974","01","10","18:00","-8.9","","-12.2","","77","","35","","18","","25.0","","99.84","","","","-16","","Cloudy"
"1974-01-10 19:00","1974","01","10","19:00","-9.4","","-12.8","","77","","2","","13","","25.0","","99.81","","","","-15","","Cloudy"
"1974-01-10 20:00","1974","01","10","20:00","-9.4","","-12.8","","77","","35","","16","","25.0","","99.83","","","","-16","","Cloudy"
"1974-01-10 21:00","1974","01","10","21:00","-9.4","","-11.7","","81","","3","","19","","25.0","","99.74","","","","-17","","Cloudy"
"1974-01-10 22:00","1974","01","10","22:00","-8.9","","-11.7","","80","","3","","18","","24.1","","99.73","","","","-16","","Cloudy"
"1974-01-10 23:00","1974","01","10","23:00","-9.4","","-12.2","","80","","2","","19","","24.1","","99.60","","","","-17","","Cloudy"
"1974-01-11 00:00","1974","01","11","00:00","-9.4","","-11.7","","82","","3","","18","","4.8","","99.53","","","","-17","","Snow"
"1974-01-11 01:00","1974","01","11","01:00","-9.4","","-11.1","","91","","1","","16","","1.2","","99.52","","","","-16","","Snow"
"1974-01-11 02:00","1974","01","11","02:00","-9.4","","-11.1","","88","","3","","19","","2.0","","99.41","","","","-17","","Snow"
"1974-01-11 03:00","1974","01","11","03:00","-10.0","","-11.7","","86","","2","","19","","3.6","","99.39","","","","-18","","Snow"
"1974-01-11 04:00","1974","01","11","04:00","-10.6","","-12.2","","86","","2","","21","","6.4","","99.30","","","","-19","","Snow"
"1974-01-11 05:00","1974","01","11","05:00","-10.6","","-12.2","","86","","36","","16","","4.8","","99.26","","","","-18","","Snow"
"1974-01-11 06:00","1974","01","11","06:00","-10.6","","-12.2","","86","","36","","14","","6.4","","99.23","","","","-17","","Snow"
"1974-01-11 07:00","1974","01","11","07:00","-10.0","","-12.2","","86","","36","","14","","9.7","","99.24","","","","-16","","Snow"
"1974-01-11 08:00","1974","01","11","08:00","-10.6","","-12.8","","85","","35","","23","","4.8","","99.21","","","","-19","","Snow"
"1974-01-11 09:00","1974","01","11","09:00","-10.6","","-12.8","","84","","35","","16","","11.3","","99.28","","","","-18","","Snow"
"1974-01-11 10:00","1974","01","11","10:00","-10.6","","-12.8","","84","","35","","23","","4.8","","99.32","","","","-19","","Snow"
"1974-01-11 11:00","1974","01","11","11:00","-10.0","","-11.7","","86","","33","","24","","12.9","","99.37","","","","-19","","Snow"
"1974-01-11 12:00","1974","01","11","12:00","-9.4","","-12.2","","81","","35","","18","","6.4","","99.31","","","","-17","","Snow"
"1974-01-11 13:00","1974","01","11","13:00","-8.9","","-11.7","","80","","32","","23","","16.1","","99.30","","","","-17","","Snow"
"1974-01-11 14:00","1974","01","11","14:00","-8.9","","-12.2","","77","","32","","21","","40.2","","99.32","","","","-17","","Mainly Clear"
"1974-01-11 15:00","1974","01","11","15:00","-8.9","","-12.2","","77","","32","","18","","40.2","","99.39","","","","-16","","Mainly Clear"
"1974-01-11 16:00","1974","01","11","16:00","-10.6","","-13.3","","80","","31","","14","","40.2","","99.49","","","","-17","","Mainly Clear"
"1974-01-11 17:00","1974","01","11","17:00","-12.8","","-15.6","","81","","31","","11","","40.2","","99.58","","","","-19","","Mainly Clear"
"1974-01-11 18:00","1974","01","11","18:00","-13.9","","-15.6","","89","","30","","10","","25.0","","99.67","","","","-20","","Clear"
"1974-01-11 19:00","1974","01","11","19:00","-15.0","","-16.1","","90","","32","","5","","24.1","","99.67","","","","-19","","Clear"
"1974-01-11 20:00","1974","01","11","20:00","-15.0","","-15.6","","95","","31","","8","","24.1","","99.68","","","","-20","","Clear"
"1974-01-11 21:00","1974","01","11","21:00","-17.8","","-18.9","","92","","28","","8","","24.1","","99.71","","","","-24","","Clear"
"1974-01-11 22:00","1974","01","11","22:00","-16.7","","-17.8","","92","","27","","10","","24.1","","99.73","","","","-23","","Mostly Cloudy"
"1974-01-11 23:00","1974","01","11","23:00","-13.3","","-14.4","","90","","24","","6","","25.0","","99.76","","","","-17","","Mostly Cloudy"
"1974-01-12 00:00","1974","01","12","00:00","-11.1","","-12.8","","90","","","","0","","9.7","","99.78","","","","","","Snow"
"1974-01-12 01:00","1974","01","12","01:00","-10.6","","-12.2","","88","","29","","5","","4.0","","99.80","","","","-14","","Snow"
"1974-01-12 02:00","1974","01","12","02:00","-10.0","","-11.7","","89","","23","","3","","4.0","","99.79","","","","-12","","Snow"
"1974-01-12 03:00","1974","01","12","03:00","-10.0","","-11.7","","88","","","","0","","16.1","","99.80","","","","","","Snow"
"1974-01-12 04:00","1974","01","12","04:00","-12.2","","-13.9","","87","","32","","10","","24.1","","99.79","","","","-18","","Mostly Cloudy"
"1974-01-12 05:00","1974","01","12","05:00","-13.3","","-15.0","","88","","32","","13","","24.1","","99.83","","","","-20","","Mostly Cloudy"
"1974-01-12 06:00","1974","01","12","06:00","-13.3","","-15.0","","88","","33","","19","","25.0","","99.91","","","","-22","","Clear"
"1974-01-12 07:00","1974","01","12","07:00","-15.0","","-16.1","","89","","33","","18","","25.0","","100.00","","","","-24","","Mainly Clear"
"1974-01-12 08:00","1974","01","12","08:00","-16.1","","-18.3","","85","","33","","16","","24.1","","100.11","","","","-25","","Mainly Clear"
"1974-01-12 09:00","1974","01","12","09:00","-16.1","","-18.3","","85","","33","","13","","32.2","","100.23","","","","-24","","Mainly Clear"
"1974-01-12 10:00","1974","01","12","10:00","-15.6","","-17.8","","82","","32","","18","","40.2","","100.34","","","","-24","","Mainly Clear"
"1974-01-12 11:00","1974","01","12","11:00","-13.3","","-16.7","","77","","30","","19","","40.2","","100.44","","","","-22","","Mainly Clear"
"1974-01-12 12:00","1974","01","12","12:00","-12.8","","-18.9","","60","","33","","21","","40.2","","100.50","","","","-22","","Mainly Clear"
"1974-01-12 13:00","1974","01","12","13:00","-12.8","","-17.2","","69","","33","","18","","40.2","","100.53","","","","-21","","Mainly Clear"
"1974-01-12 14:00","1974","01","12","14:00","-12.8","","-16.7","","72","","35","","10","","40.2","","100.53","","","","-19","","Mainly Clear"
"1974-01-12 15:00","1974","01","12","15:00","-12.2","","-14.4","","84","","36","","13","","2.4","","100.61","","","","-19","","Snow Showers"
"1974-01-12 16:00","1974","01","12","16:00","-13.3","","-17.2","","75","","35","","11","","19.3","","100.67","","","","-20","","Mainly Clear"
"1974-01-12 17:00","1974","01","12","17:00","-15.6","","-18.3","","80","","32","","3","","24.1","","100.77","","","","-18","","Mainly Clear"
"1974-01-12 18:00","1974","01","12","18:00","-16.7","","-18.3","","87","","32","","5","","25.0","","100.78","","","","-21","","Mainly Clear"
"1974-01-12 19:00","1974","01","12","19:00","-17.2","","-18.3","","89","","25","","6","","25.0","","100.86","","","","-22","","Mainly Clear"
"1974-01-12 20:00","1974","01","12","20:00","-17.2","","-18.3","","89","","22","","8","","24.1","","100.88","","","","-23","","Mainly Clear"
"1974-01-12 21:00","1974","01","12","21:00","-17.8","","-18.9","","92","","21","","6","","24.1","","100.91","","","","-22","","Clear"
"1974-01-12 22:00","1974","01","12","22:00","-17.8","","-19.4","","86","","23","","6","","25.0","","100.93","","","","-22","","Clear"
"1974-01-12 23:00","1974","01","12","23:00","-18.3","","-20.6","","84","","23","","23","","25.0","","100.95","","","","-29","","Clear"
"1974-01-13 00:00","1974","01","13","00:00","-17.2","","-19.4","","82","","23","","21","","25.0","","100.94","","","","-27","","Clear"
"1974-01-13 01:00","1974","01","13","01:00","-17.2","","-18.9","","87","","24","","13","","25.0","","100.89","","","","-25","","Mainly Clear"
"1974-01-13 02:00","1974","01","13","02:00","-17.8","","-19.4","","84","","25","","16","","25.0","","100.95","","","","-27","","Mainly Clear"
"1974-01-13 03:00","1974","01","13","03:00","-17.2","","-19.4","","82","","24","","16","","25.0","","101.03","","","","-26","","Mainly Clear"
"1974-01-13 04:00","1974","01","13","04:00","-17.2","","-19.4","","82","","24","","14","","25.0","","101.11","","","","-25","","Clear"
"1974-01-13 05:00","1974","01","13","05:00","-17.2","","-19.4","","84","","25","","13","","25.0","","101.12","","","","-25","","Mainly Clear"
"1974-01-13 06:00","1974","01","13","06:00","-16.7","","-18.9","","85","","23","","18","","25.0","","101.13","","","","-26","","Mainly Clear"
"1974-01-13 07:00","1974","01","13","07:00","-15.6","","-18.9","","79","","24","","18","","25.0","","101.14","","","","-24","","Mainly Clear"
"1974-01-13 08:00","1974","01","13","08:00","-16.1","","-18.9","","79","","25","","11","","32.2","","101.20","","","","-23","","Mainly Clear"
"1974-01-13 09:00","1974","01","13","09:00","-16.7","","-20.0","","75","","23","","19","","40.2","","101.25","","","","-26","","Mainly Clear"
"1974-01-13 10:00","1974","01","13","10:00","-14.4","","-17.2","","77","","24","","18","","40.2","","101.30","","","","-23","","Mainly Clear"
"1974-01-13 11:00","1974","01","13","11:00","-11.7","","-15.6","","73","","25","","24","","40.2","","101.33","","","","-21","","Mainly Clear"
"1974-01-13 12:00","1974","01","13","12:00","-10.6","","-14.4","","72","","25","","23","","40.2","","101.29","","","","-19","","Mainly Clear"
"1974-01-13 13:00","1974","01","13","13:00","-9.4","","-13.9","","72","","26","","21","","40.2","","101.22","","","","-17","","Mainly Clear"
"1974-01-13 14:00","1974","01","13","14:00","-8.9","","-13.9","","68","","25","","16","","40.2","","101.19","","","","-16","","Mainly Clear"
"1974-01-13 15:00","1974","01","13","15:00","-9.4","","-14.4","","68","","22","","14","","40.2","","101.20","","","","-16","","Mainly Clear"
"1974-01-13 16:00","1974","01","13","16:00","-10.6","","-16.1","","65","","22","","11","","32.2","","101.20","","","","-16","","Mainly Clear"
"1974-01-13 17:00","1974","01","13","17:00","-11.7","","-16.1","","69","","21","","10","","24.1","","101.20","","","","-17","","Mainly Clear"
"1974-01-13 18:00","1974","01","13","18:00","-12.8","","-17.2","","70","","23","","6","","24.1","","101.19","","","","-17","","Mainly Clear"
"1974-01-13 19:00","1974","01","13","19:00","-12.8","","-16.7","","72","","17","","6","","24.1","","101.18","","","","-17","","Mainly Clear"
"1974-01-13 20:00","1974","01","13","20:00","-12.2","","-15.6","","77","","15","","5","","24.1","","101.11","","","","-15","","Mainly Clear"
"1974-01-13 21:00","1974","01","13","21:00","-12.8","","-15.6","","78","","15","","6","","24.1","","101.04","","","","-17","","Mostly Cloudy"
"1974-01-13 22:00","1974","01","13","22:00","-11.7","","-14.4","","78","","12","","8","","24.1","","100.96","","","","-16","","Cloudy"
"1974-01-13 23:00","1974","01","13","23:00","-11.1","","-14.4","","75","","16","","13","","24.1","","100.86","","","","-18","","Mostly Cloudy"
"1974-01-14 00:00","1974","01","14","00:00","-10.6","","-13.9","","77","","","","0","","19.3","","100.75","","","","","","Mostly Cloudy"
"1974-01-14 01:00","1974","01","14","01:00","-11.7","","-15.0","","74","","","","0","","19.3","","100.64","","","","","","Mostly Cloudy"
"1974-01-14 02:00","1974","01","14","02:00","-12.2","","-16.1","","75","","","","0","","19.3","","100.53","","","","","","Mostly Cloudy"
"1974-01-14 03:00","1974","01","14","03:00","-9.4","","-13.3","","74","","18","","3","","19.3","","100.47","","","","-11","","Mostly Cloudy"
"1974-01-14 04:00","1974","01","14","04:00","-8.9","","-12.2","","76","","13","","6","","19.3","","100.31","","","","-12","","Mostly Cloudy"
"1974-01-14 05:00","1974","01","14","05:00","-7.8","","-11.1","","78","","11","","10","","16.1","","100.20","","","","-13","","Mostly Cloudy"
"1974-01-14 06:00","1974","01","14","06:00","-5.6","","-8.3","","80","","21","","6","","16.1","","100.05","","","","-8","","Mostly Cloudy"
"1974-01-14 07:00","1974","01","14","07:00","-7.8","","-10.0","","84","","","","0","","16.1","","99.98","","","","","","Mostly Cloudy"
"1974-01-14 08:00","1974","01","14","08:00","-9.4","","-11.7","","84","","","","0","","12.9","","99.87","","","","","","Mostly Cloudy"
"1974-01-14 09:00","1974","01","14","09:00","-7.2","","-9.4","","83","","17","","10","","8.0","","99.76","","","","-12","","Fog"
"1974-01-14 10:00","1974","01","14","10:00","-4.4","","-9.4","","68","","18","","24","","12.9","","99.55","","","","-11","","Mostly Cloudy"
"1974-01-14 11:00","1974","01","14","11:00","-2.2","","-7.2","","68","","19","","27","","16.1","","99.43","","","","-9","","Mostly Cloudy"
"1974-01-14 12:00","1974","01","14","12:00","-1.1","","-5.0","","74","","20","","29","","12.9","","99.30","","","","-8","","Cloudy"
"1974-01-14 13:00","1974","01","14","13:00","-0.6","","-3.9","","78","","19","","32","","12.9","","99.01","","","","-7","","Cloudy"
"1974-01-14 14:00","1974","01","14","14:00","0.0","","-2.2","","84","","21","","42","","11.3","","98.84","","","","-8","","Cloudy"
"1974-01-14 15:00","1974","01","14","15:00","0.0","","-2.2","","85","","22","","40","","11.3","","98.81","","","","-7","","Cloudy"
"1974-01-14 16:00","1974","01","14","16:00","-0.6","","-2.2","","88","","21","","43","","9.7","","98.71","","","","-8","","Blowing Snow"
"1974-01-14 17:00","1974","01","14","17:00","-0.6","","-2.2","","88","","21","","37","","9.7","","98.66","","","","-8","","Blowing Snow"
"1974-01-14 18:00","1974","01","14","18:00","0.0","","-2.8","","83","","21","","39","","11.3","","98.72","","","","-7","","Mostly Cloudy"
"1974-01-14 19:00","1974","01","14","19:00","0.6","","-2.2","","84","","21","","34","","11.3","","98.70","","","","","","Mostly Cloudy"
"1974-01-14 20:00","1974","01","14","20:00","0.6","","-1.7","","84","","22","","27","","11.3","","98.71","","","","","","Mostly Cloudy"
"1974-01-14 21:00","1974","01","14","21:00","1.7","","-2.2","","78","","24","","35","","11.3","","98.79","","","","","","Cloudy"
"1974-01-14 22:00","1974","01","14","22:00","1.1","","-1.7","","81","","24","","31","","9.7","","98.90","","","","","","Haze"
"1974-01-14 23:00","1974","01","14","23:00","1.1","","-1.7","","81","","25","","19","","9.7","","99.00","","","","","","Haze"
"1974-01-15 00:00","1974","01","15","00:00","1.1","","-1.7","","81","","25","","21","","9.7","","99.02","","","","","","Haze"
"1974-01-15 01:00","1974","01","15","01:00","1.7","","-2.2","","78","","24","","19","","9.7","","99.02","","","","","","Haze"
"1974-01-15 02:00","1974","01","15","02:00","1.1","","-2.2","","80","","23","","13","","9.7","","99.05","","","","","","Haze"
"1974-01-15 03:00","1974","01","15","03:00","0.6","","-2.2","","81","","20","","13","","11.3","","99.07","","","","","","Mostly Cloudy"
"1974-01-15 04:00","1974","01","15","04:00","-0.6","","-3.3","","80","","21","","14","","11.3","","99.01","","","","-5","","Cloudy"
"1974-01-15 05:00","1974","01","15","05:00","-0.6","","-3.9","","80","","21","","10","","11.3","","99.05","","","","-4","","Cloudy"
"1974-01-15 06:00","1974","01","15","06:00","0.0","","-2.8","","81","","19","","13","","11.3","","98.99","","","","-4","","Cloudy"
"1974-01-15 07:00","1974","01","15","07:00","0.0","","-2.2","","84","","19","","16","","9.7","","98.88","","","","-5","","Haze"
"1974-01-15 08:00","1974","01","15","08:00","0.0","","-2.2","","85","","19","","21","","6.4","","98.82","","","","-5","","Haze"
"1974-01-15 09:00","1974","01","15","09:00","0.0","","-1.7","","89","","19","","24","","4.8","","98.65","","","","-6","","Fog"
"1974-01-15 10:00","1974","01","15","10:00","0.6","","-0.6","","94","","20","","29","","4.8","","98.57","","","","","","Fog"
"1974-01-15 11:00","1974","01","15","11:00","0.6","","0.0","","94","","20","","24","","4.8","","98.44","","","","","","Fog"
"1974-01-15 12:00","1974","01","15","12:00","1.1","","0.0","","93","","23","","16","","4.8","","98.37","","","","","","Snow Grains,Fog"
"1974-01-15 13:00","1974","01","15","13:00","1.7","","0.6","","91","","23","","23","","9.7","","98.25","","","","","","Fog"
"1974-01-15 14:00","1974","01","15","14:00","2.2","","0.0","","87","","25","","23","","9.7","","98.30","","","","","","Rain,Fog"
"1974-01-15 15:00","1974","01","15","15:00","2.2","","0.0","","83","","25","","16","","12.9","","98.25","","","","","","Mostly Cloudy"
"1974-01-15 16:00","1974","01","15","16:00","0.0","","-2.2","","86","","32","","26","","12.9","","98.48","","","","-6","","Cloudy"
"1974-01-15 17:00","1974","01","15","17:00","-1.7","","-3.3","","89","","34","","21","","12.9","","98.67","","","","-8","","Cloudy"
"1974-01-15 18:00","1974","01","15","18:00","-2.8","","-4.4","","87","","34","","26","","14.5","","98.87","","","","-10","","Snow Grains"
"1974-01-15 19:00","1974","01","15","19:00","-3.9","","-6.1","","85","","34","","24","","16.1","","99.02","","","","-11","","Snow Grains"
"1974-01-15 20:00","1974","01","15","20:00","-4.4","","-7.2","","82","","33","","27","","16.1","","99.22","","","","-12","","Cloudy"
"1974-01-15 21:00","1974","01","15","21:00","-5.0","","-7.8","","82","","33","","18","","19.3","","99.26","","","","-11","","Cloudy"
"1974-01-15 22:00","1974","01","15","22:00","-5.6","","-7.8","","83","","2","","5","","19.3","","99.13","","","","-8","","Cloudy"
"1974-01-15 23:00","1974","01","15","23:00","-5.6","","-7.8","","84","","13","","10","","19.3","","99.06","","","","-10","","Cloudy"
"1974-01-16 00:00","1974","01","16","00:00","-5.0","","-7.2","","85","","6","","2","","16.1","","99.06","","","","-6","","Cloudy"
"1974-01-16 01:00","1974","01","16","01:00","-5.0","","-7.2","","85","","1","","8","","16.1","","99.01","","","","-9","","Cloudy"
"1974-01-16 02:00","1974","01","16","02:00","-5.0","","-7.2","","84","","3","","3","","16.1","","98.88","","","","-6","","Cloudy"
"1974-01-16 03:00","1974","01","16","03:00","-3.9","","-6.1","","85","","10","","8","","16.1","","98.80","","","","-7","","Cloudy"
"1974-01-16 04:00","1974","01","16","04:00","-3.3","","-5.6","","85","","12","","19","","12.9","","98.57","","","","-9","","Cloudy"
"1974-01-16 05:00","1974","01","16","05:00","-2.8","","-4.4","","88","","14","","14","","9.7","","98.58","","","","-8","","Fog"
"1974-01-16 06:00","1974","01","16","06:00","-0.6","","-2.8","","88","","17","","14","","12.9","","98.42","","","","-5","","Cloudy"
"1974-01-16 07:00","1974","01","16","07:00","0.6","","-1.1","","89","","19","","29","","9.7","","98.21","","","","","","Fog"
"1974-01-16 08:00","1974","01","16","08:00","0.6","","-1.1","","89","","21","","23","","6.4","","98.15","","","","","","Fog"
"1974-01-16 09:00","1974","01","16","09:00","1.1","","-0.6","","89","","23","","18","","6.4","","98.22","","","","","","Fog"
"1974-01-16 10:00","1974","01","16","10:00","1.7","","-1.1","","83","","21","","11","","6.4","","98.19","","","","","","Fog"
"1974-01-16 11:00","1974","01","16","11:00","2.2","","-0.6","","81","","23","","11","","8.0","","98.21","","","","","","Haze"
"1974-01-16 12:00","1974","01","16","12:00","3.3","","-0.6","","75","","27","","16","","9.7","","98.23","","","","","","Haze"
"1974-01-16 13:00","1974","01","16","13:00","2.8","","-1.1","","76","","26","","14","","9.7","","98.23","","","","","","Haze"
"1974-01-16 14:00","1974","01","16","14:00","2.8","","-1.1","","77","","26","","11","","9.7","","98.27","","","","","","Haze"
"1974-01-16 15:00","1974","01","16","15:00","2.2","","-0.6","","80","","23","","11","","9.7","","98.34","","","","","","Haze"
"1974-01-16 16:00","1974","01","16","16:00","2.2","","-0.6","","81","","25","","6","","9.7","","98.46","","","","","","Haze"
"1974-01-16 17:00","1974","01","16","17:00","2.2","","-0.6","","81","","34","","10","","8.0","","98.62","","","","","","Haze"
"1974-01-16 18:00","1974","01","16","18:00","-1.1","","-2.2","","92","","4","","13","","4.8","","98.75","","","","-5","","Snow Grains,Fog"
"1974-01-16 19:00","1974","01","16","19:00","-2.8","","-3.9","","92","","1","","13","","8.0","","98.92","","","","-7","","Freezing Drizzle,Fog"
"1974-01-16 20:00","1974","01","16","20:00","-5.0","","-6.1","","93","","36","","10","","6.4","","99.08","","","","-9","","Freezing Drizzle,Fog"
"1974-01-16 21:00","1974","01","16","21:00","-6.1","","-6.7","","94","","35","","14","","3.6","","99.17","","","","-12","","Freezing Drizzle,Fog"
"1974-01-16 22:00","1974","01","16","22:00","-7.2","","-8.3","","94","","35","","21","","4.8","","99.31","","","","-15","","Freezing Drizzle,Fog"
"1974-01-16 23:00","1974","01","16","23:00","-8.9","","-10.0","","90","","1","","14","","4.8","","99.41","","","","-15","","Freezing Drizzle,Fog"
"1974-01-17 00:00","1974","01","17","00:00","-8.9","","-10.0","","90","","35","","16","","4.8","","99.48","","","","-16","","Freezing Drizzle,Fog"
"1974-01-17 01:00","1974","01","17","01:00","-8.3","","-10.0","","91","","36","","13","","6.4","","99.52","","","","-14","","Freezing Drizzle,Fog"
"1974-01-17 02:00","1974","01","17","02:00","-8.3","","-11.1","","84","","1","","21","","12.9","","99.68","","","","-16","","Cloudy"
"1974-01-17 03:00","1974","01","17","03:00","-8.9","","-11.7","","81","","1","","16","","25.0","","99.79","","","","-16","","Cloudy"
"1974-01-17 04:00","1974","01","17","04:00","-8.9","","-12.2","","78","","1","","21","","25.0","","99.94","","","","-17","","Cloudy"
"1974-01-17 05:00","1974","01","17","05:00","-9.4","","-12.8","","75","","3","","26","","25.0","","100.07","","","","-18","","Cloudy"
"1974-01-17 06:00","1974","01","17","06:00","-11.1","","-14.4","","74","","1","","16","","25.0","","100.17","","","","-18","","Mostly Cloudy"
"1974-01-17 07:00","1974","01","17","07:00","-12.2","","-15.6","","75","","1","","21","","25.0","","100.36","","","","-21","","Mainly Clear"
"1974-01-17 08:00","1974","01","17","08:00","-13.3","","-17.2","","71","","2","","26","","32.2","","100.50","","","","-23","","Mainly Clear"
"1974-01-17 09:00","1974","01","17","09:00","-13.3","","-17.8","","71","","3","","19","","40.2","","100.68","","","","-22","","Mainly Clear"
"1974-01-17 10:00","1974","01","17","10:00","-13.3","","-19.4","","60","","6","","21","","40.2","","100.82","","","","-22","","Mainly Clear"
"1974-01-17 11:00","1974","01","17","11:00","-13.9","","-21.7","","53","","4","","23","","40.2","","100.88","","","","-23","","Mainly Clear"
"1974-01-17 12:00","1974","01","17","12:00","-13.9","","-20.6","","58","","3","","19","","32.2","","100.91","","","","-23","","Mainly Clear"
"1974-01-17 13:00","1974","01","17","13:00","-13.9","","-19.4","","63","","3","","21","","32.2","","100.92","","","","-23","","Mostly Cloudy"
"1974-01-17 14:00","1974","01","17","14:00","-14.4","","-20.0","","63","","4","","19","","32.2","","100.90","","","","-23","","Mostly Cloudy"
"1974-01-17 15:00","1974","01","17","15:00","-13.9","","-19.4","","62","","4","","23","","32.2","","100.91","","","","-23","","Mostly Cloudy"
"1974-01-17 16:00","1974","01","17","16:00","-13.9","","-18.3","","68","","7","","19","","24.1","","100.98","","","","-23","","Mostly Cloudy"
"1974-01-17 17:00","1974","01","17","17:00","-14.4","","-17.2","","77","","4","","16","","16.1","","101.01","","","","-22","","Snow"
"1974-01-17 18:00","1974","01","17","18:00","-14.4","","-17.8","","76","","1","","16","","11.3","","101.16","","","","-22","","Snow Grains"
"1974-01-17 19:00","1974","01","17","19:00","-15.0","","-18.9","","74","","3","","26","","12.9","","101.09","","","","-25","","Snow Grains"
"1974-01-17 20:00","1974","01","17","20:00","-15.0","","-19.4","","68","","4","","27","","12.9","","101.06","","","","-26","","Snow"
"1974-01-17 21:00","1974","01","17","21:00","-15.0","","-19.4","","68","","4","","27","","12.9","","100.99","","","","-26","","Snow"
"1974-01-17 22:00","1974","01","17","22:00","-15.0","","-17.8","","80","","4","","27","","8.0","","101.04","","","","-26","","Snow"
"1974-01-17 23:00","1974","01","17","23:00","-15.0","","-18.9","","72","","6","","23","","4.8","","101.01","","","","-25","","Snow"
"1974-01-18 00:00","1974","01","18","00:00","-15.0","","-17.2","","84","","3","","23","","2.0","","101.01","","","","-25","","Snow"
"1974-01-18 01:00","1974","01","18","01:00","-16.7","","-18.9","","85","","4","","24","","2.0","","100.99","","","","-27","","Snow"
"1974-01-18 02:00","1974","01","18","02:00","-16.7","","-18.9","","83","","4","","23","","4.0","","100.94","","","","-27","","Snow"
"1974-01-18 03:00","1974","01","18","03:00","-17.2","","-19.4","","85","","3","","26","","2.0","","100.90","","","","-28","","Snow"
"1974-01-18 04:00","1974","01","18","04:00","-17.2","","-19.4","","84","","4","","24","","4.8","","100.72","","","","-28","","Snow"
"1974-01-18 05:00","1974","01","18","05:00","-16.7","","-18.3","","85","","5","","23","","3.2","","100.62","","","","-27","","Snow"
"1974-01-18 06:00","1974","01","18","06:00","-16.1","","-17.8","","86","","3","","19","","4.0","","100.56","","","","-25","","Snow"
"1974-01-18 07:00","1974","01","18","07:00","-16.1","","-17.8","","85","","1","","18","","6.4","","100.54","","","","-25","","Snow"
"1974-01-18 08:00","1974","01","18","08:00","-16.1","","-17.8","","85","","36","","19","","4.8","","100.46","","","","-25","","Snow"
"1974-01-18 09:00","1974","01","18","09:00","-15.0","","-16.7","","86","","1","","14","","9.7","","100.41","","","","-23","","Snow"
"1974-01-18 10:00","1974","01","18","10:00","-13.3","","-15.0","","88","","2","","18","","4.8","","100.35","","","","-22","","Snow"
"1974-01-18 11:00","1974","01","18","11:00","-13.3","","-15.0","","88","","2","","16","","2.4","","100.30","","","","-21","","Snow"
"1974-01-18 12:00","1974","01","18","12:00","-13.3","","-15.0","","88","","1","","18","","2.0","","100.15","","","","-22","","Freezing Drizzle,Snow"
"1974-01-18 13:00","1974","01","18","13:00","-12.8","","-14.4","","88","","3","","18","","4.8","","99.95","","","","-21","","Freezing Drizzle,Snow"
"1974-01-18 14:00","1974","01","18","14:00","-11.7","","-13.3","","86","","2","","13","","4.8","","99.86","","","","-18","","Freezing Drizzle,Snow Grains"
"1974-01-18 15:00","1974","01","18","15:00","-10.0","","-11.7","","88","","36","","16","","4.8","","99.77","","","","-17","","Snow Grains"
"1974-01-18 16:00","1974","01","18","16:00","-8.9","","-10.0","","92","","5","","14","","4.8","","99.63","","","","-15","","Snow Grains"
"1974-01-18 17:00","1974","01","18","17:00","-8.9","","-10.0","","92","","36","","18","","3.2","","99.62","","","","-16","","Freezing Rain,Snow Grains,Fog"
"1974-01-18 18:00","1974","01","18","18:00","-10.0","","-11.1","","91","","1","","13","","3.2","","99.58","","","","-16","","Freezing Drizzle,Snow Grains,Fog"
"1974-01-18 19:00","1974","01","18","19:00","-10.0","","-11.1","","91","","33","","8","","4.8","","99.45","","","","-14","","Snow Grains,Fog"
"1974-01-18 20:00","1974","01","18","20:00","-9.4","","-11.1","","91","","32","","13","","4.8","","99.39","","","","-15","","Snow Grains,Fog"
"1974-01-18 21:00","1974","01","18","21:00","-9.4","","-10.6","","91","","33","","18","","2.8","","99.40","","","","-17","","Snow Grains,Fog"
"1974-01-18 22:00","1974","01","18","22:00","-8.9","","-10.0","","92","","32","","14","","1.2","","99.36","","","","-15","","Snow Grains,Fog"
"1974-01-18 23:00","1974","01","18","23:00","-7.8","","-8.3","","94","","32","","14","","1.0","","99.37","","","","-14","","Freezing Rain,Fog"
"1974-01-19 00:00","1974","01","19","00:00","-7.2","","-8.3","","93","","31","","13","","2.0","","99.36","","","","-13","","Freezing Drizzle,Fog"
"1974-01-19 01:00","1974","01","19","01:00","-6.1","","-6.7","","94","","32","","10","","3.2","","99.33","","","","-11","","Freezing Rain,Fog"
"1974-01-19 02:00","1974","01","19","02:00","-6.1","","-7.2","","92","","32","","6","","4.8","","99.39","","","","-9","","Fog"
"1974-01-19 03:00","1974","01","19","03:00","-6.1","","-7.2","","92","","32","","5","","6.4","","99.43","","","","-9","","Fog"
"1974-01-19 04:00","1974","01","19","04:00","-6.7","","-7.8","","92","","","","0","","6.4","","99.54","","","","","","Fog"
"1974-01-19 05:00","1974","01","19","05:00","-8.9","","-10.6","","89","","26","","3","","6.4","","99.63","","","","-11","","Fog"
"1974-01-19 06:00","1974","01","19","06:00","-8.9","","-10.6","","89","","","","0","","2.8","","99.77","","","","","","Fog"
"1974-01-19 07:00","1974","01","19","07:00","-8.3","","-8.9","","94","","","","0","","3.2","","99.88","","","","","","Fog"
"1974-01-19 08:00","1974","01","19","08:00","-7.8","","-8.9","","91","","","","0","","4.8","","100.00","","","","","","Fog"
"1974-01-19 09:00","1974","01","19","09:00","-5.6","","-6.7","","92","","","","0","","6.4","","100.11","","","","","","Fog"
"1974-01-19 10:00","1974","01","19","10:00","-4.4","","-5.6","","93","","36","","16","","8.0","","100.19","","","","-10","","Snow Grains,Fog"
"1974-01-19 11:00","1974","01","19","11:00","-4.4","","-6.1","","88","","35","","24","","8.0","","100.24","","","","-11","","Snow Grains,Fog"
"1974-01-19 12:00","1974","01","19","12:00","-5.0","","-6.7","","86","","32","","18","","32.2","","100.24","","","","-11","","Mostly Cloudy"
"1974-01-19 13:00","1974","01","19","13:00","-5.0","","-8.3","","80","","34","","18","","40.2","","100.17","","","","-11","","Mostly Cloudy"
"1974-01-19 14:00","1974","01","19","14:00","-5.6","","-8.3","","81","","33","","16","","40.2","","100.15","","","","-12","","Mainly Clear"
"1974-01-19 15:00","1974","01","19","15:00","-5.0","","-7.8","","81","","1","","13","","32.2","","100.14","","","","-10","","Mainly Clear"
"1974-01-19 16:00","1974","01","19","16:00","-5.0","","-8.3","","80","","4","","11","","32.2","","100.15","","","","-10","","Mostly Cloudy"
"1974-01-19 17:00","1974","01","19","17:00","-5.6","","-8.9","","79","","2","","6","","24.1","","100.17","","","","-8","","Mainly Clear"
"1974-01-19 18:00","1974","01","19","18:00","-8.9","","-11.1","","85","","2","","3","","24.1","","100.22","","","","-11","","Mainly Clear"
"1974-01-19 19:00","1974","01","19","19:00","-9.4","","-11.1","","86","","36","","11","","24.1","","100.27","","","","-15","","Mainly Clear"
"1974-01-19 20:00","1974","01","19","20:00","-9.4","","-12.8","","78","","36","","14","","24.1","","100.29","","","","-16","","Mainly Clear"
"1974-01-19 21:00","1974","01","19","21:00","-11.1","","-13.3","","83","","31","","8","","19.3","","100.35","","","","-16","","Mainly Clear"
"1974-01-19 22:00","1974","01","19","22:00","-12.2","","-14.4","","85","","34","","13","","24.1","","100.35","","","","-19","","Mainly Clear"
"1974-01-19 23:00","1974","01","19","23:00","-12.8","","-14.4","","88","","35","","6","","19.3","","100.32","","","","-17","","Clear"
"1974-01-20 00:00","1974","01","20","00:00","-13.3","","-15.0","","88","","2","","5","","19.3","","100.28","","","","-17","","Clear"
"1974-01-20 01:00","1974","01","20","01:00","-15.0","","-16.7","","88","","36","","5","","19.3","","100.25","","","","-19","","Clear"
"1974-01-20 02:00","1974","01","20","02:00","-15.0","","-16.7","","87","","36","","10","","19.3","","100.31","","","","-21","","Mainly Clear"
"1974-01-20 03:00","1974","01","20","03:00","-12.8","","-15.0","","86","","3","","18","","19.3","","100.33","","","","-21","","Mainly Clear"
"1974-01-20 04:00","1974","01","20","04:00","-13.3","","-15.0","","88","","4","","14","","24.1","","100.26","","","","-21","","Mainly Clear"
"1974-01-20 05:00","1974","01","20","05:00","-12.2","","-13.9","","89","","4","","14","","24.1","","100.24","","","","-19","","Mostly Cloudy"
"1974-01-20 06:00","1974","01","20","06:00","-6.7","","-7.8","","91","","7","","13","","4.8","","100.16","","","","-12","","Fog"
"1974-01-20 07:00","1974","01","20","07:00","-3.9","","-4.4","","96","","10","","18","","3.2","","100.06","","","","-10","","Fog"
"1974-01-20 08:00","1974","01","20","08:00","-2.8","","-4.4","","87","","13","","24","","6.4","","100.08","","","","-9","","Fog"
"1974-01-20 09:00","1974","01","20","09:00","-2.2","","-4.4","","87","","11","","32","","16.1","","100.02","","","","-10","","Cloudy"
"1974-01-20 10:00","1974","01","20","10:00","-1.7","","-3.9","","84","","11","","29","","12.9","","99.99","","","","-9","","Freezing Rain"
"1974-01-20 11:00","1974","01","20","11:00","-1.7","","-2.8","","93","","10","","35","","9.7","","99.84","","","","-9","","Freezing Rain,Fog"
"1974-01-20 12:00","1974","01","20","12:00","-1.7","","-2.8","","94","","9","","26","","4.0","","99.79","","","","-8","","Freezing Rain,Ice Pellets,Fog"
"1974-01-20 13:00","1974","01","20","13:00","-2.8","","-3.3","","93","","12","","32","","2.4","","99.62","","","","-10","","Ice Pellets"
"1974-01-20 14:00","1974","01","20","14:00","-2.8","","-3.9","","93","","12","","31","","4.8","","99.57","","","","-10","","Freezing Rain,Ice Pellets,Fog"
"1974-01-20 15:00","1974","01","20","15:00","-2.8","","-3.9","","94","","12","","29","","4.0","","99.55","","","","-10","","Freezing Rain,Ice Pellets,Fog"
"1974-01-20 16:00","1974","01","20","16:00","-2.2","","-3.3","","94","","12","","32","","4.8","","99.45","","","","-10","","Freezing Rain,Ice Pellets,Fog"
"1974-01-20 17:00","1974","01","20","17:00","-2.2","","-3.3","","94","","12","","29","","4.8","","99.37","","","","-9","","Freezing Rain,Fog"
"1974-01-20 18:00","1974","01","20","18:00","-1.7","","-2.8","","91","","12","","26","","9.7","","99.35","","","","-8","","Fog"
"1974-01-20 19:00","1974","01","20","19:00","-1.7","","-3.3","","90","","12","","21","","9.7","","99.29","","","","-8","","Fog"
"1974-01-20 20:00","1974","01","20","20:00","-1.7","","-2.8","","92","","12","","26","","6.4","","99.23","","","","-8","","Freezing Rain,Fog"
"1974-01-20 21:00","1974","01","20","21:00","-1.7","","-2.8","","91","","12","","21","","6.4","","99.16","","","","-8","","Fog"
"1974-01-20 22:00","1974","01","20","22:00","-0.6","","-2.2","","92","","12","","18","","6.4","","99.09","","","","-6","","Fog"
"1974-01-20 23:00","1974","01","20","23:00","0.0","","-1.7","","90","","13","","19","","8.0","","99.00","","","","-5","","Fog"
"1974-01-21 00:00","1974","01","21","00:00","0.0","","-0.6","","94","","12","","11","","4.8","","98.91","","","","-4","","Rain,Fog"
"1974-01-21 01:00","1974","01","21","01:00","0.0","","0.0","","100","","12","","13","","4.8","","98.82","","","","-4","","Rain,Fog"
"1974-01-21 02:00","1974","01","21","02:00","0.6","","0.6","","99","","12","","11","","3.6","","98.76","","","","","","Rain,Fog"
"1974-01-21 03:00","1974","01","21","03:00","1.1","","1.1","","99","","13","","16","","3.2","","98.67","","","","","","Rain,Fog"
"1974-01-21 04:00","1974","01","21","04:00","1.7","","1.7","","100","","14","","13","","3.2","","98.61","","","","","","Rain,Fog"
"1974-01-21 05:00","1974","01","21","05:00","2.2","","2.2","","98","","13","","14","","3.2","","98.51","","","","","","Rain,Fog"
"1974-01-21 06:00","1974","01","21","06:00","3.3","","3.3","","100","","15","","14","","1.6","","98.43","","","","","","Fog"
"1974-01-21 07:00","1974","01","21","07:00","3.3","","3.3","","99","","14","","14","","4.0","","98.38","","","","","","Fog"
"1974-01-21 08:00","1974","01","21","08:00","4.4","","3.3","","93","","17","","19","","12.9","","98.37","","","","","","Cloudy"
"1974-01-21 09:00","1974","01","21","09:00","4.4","","3.3","","93","","17","","19","","19.3","","98.36","","","","","","Cloudy"
"1974-01-21 10:00","1974","01","21","10:00","5.6","","5.0","","95","","20","","16","","12.9","","98.38","","","","","","Cloudy"
"1974-01-21 11:00","1974","01","21","11:00","5.6","","5.0","","95","","24","","26","","9.7","","98.40","","","","","","Rain Showers,Fog"
"1974-01-21 12:00","1974","01","21","12:00","3.9","","2.8","","94","","26","","19","","9.7","","98.41","","","","","","Fog"
"1974-01-21 13:00","1974","01","21","13:00","3.3","","2.2","","91","","26","","23","","9.7","","98.40","","","","","","Fog"
"1974-01-21 14:00","1974","01","21","14:00","3.3","","1.1","","87","","27","","23","","11.3","","98.46","","","","","","Cloudy"
"1974-01-21 15:00","1974","01","21","15:00","3.3","","0.6","","83","","29","","34","","16.1","","98.56","","","","","","Rain Showers"
"1974-01-21 16:00","1974","01","21","16:00","2.8","","0.6","","85","","29","","24","","16.1","","98.66","","","","","","Cloudy"
"1974-01-21 17:00","1974","01","21","17:00","2.8","","0.0","","83","","29","","24","","16.1","","98.76","","","","","","Cloudy"
"1974-01-21 18:00","1974","01","21","18:00","2.2","","0.0","","85","","28","","19","","12.9","","98.86","","","","","","Rain"
"1974-01-21 19:00","1974","01","21","19:00","2.2","","0.0","","85","","29","","26","","16.1","","98.93","","","","","","Rain"
"1974-01-21 20:00","1974","01","21","20:00","2.2","","-0.6","","80","","29","","27","","19.3","","98.98","","","","","","Cloudy"
"1974-01-21 21:00","1974","01","21","21:00","2.2","","-0.6","","80","","30","","32","","24.1","","99.04","","","","","","Cloudy"
"1974-01-21 22:00","1974","01","21","22:00","2.2","","-1.1","","77","","30","","19","","25.0","","99.08","","","","","","Cloudy"
"1974-01-21 23:00","1974","01","21","23:00","2.2","","-1.7","","75","","30","","35","","25.0","","99.14","","","","","","Cloudy"
"1974-01-22 00:00","1974","01","22","00:00","1.7","","-1.7","","77","","30","","35","","25.0","","99.23","","","","","","Cloudy"
"1974-01-22 01:00","1974","01","22","01:00","1.7","","-1.7","","80","","30","","29","","25.0","","99.26","","","","","","Cloudy"
"1974-01-22 02:00","1974","01","22","02:00","1.1","","-1.1","","85","","31","","29","","25.0","","99.36","","","","","","Cloudy"
"1974-01-22 03:00","1974","01","22","03:00","1.1","","-1.7","","80","","31","","32","","24.1","","99.43","","","","","","Cloudy"
"1974-01-22 04:00","1974","01","22","04:00","1.1","","-1.7","","84","","31","","32","","24.1","","99.47","","","","","","Cloudy"
"1974-01-22 05:00","1974","01","22","05:00","0.6","","-2.2","","81","","32","","29","","24.1","","99.59","","","","","","Cloudy"
"1974-01-22 06:00","1974","01","22","06:00","-0.6","","-3.3","","81","","32","","26","","25.0","","99.69","","","","-7","","Cloudy"
"1974-01-22 07:00","1974","01","22","07:00","-1.1","","-5.0","","74","","33","","23","","25.0","","99.77","","","","-7","","Mostly Cloudy"
"1974-01-22 08:00","1974","01","22","08:00","-2.8","","-5.6","","81","","33","","10","","32.2","","99.79","","","","-7","","Mainly Clear"
"1974-01-22 09:00","1974","01","22","09:00","-1.7","","-5.0","","77","","30","","8","","40.2","","99.87","","","","-5","","Mostly Cloudy"
"1974-01-22 10:00","1974","01","22","10:00","-1.1","","-4.4","","77","","31","","10","","40.2","","99.95","","","","-5","","Cloudy"
"1974-01-22 11:00","1974","01","22","11:00","-0.6","","-4.4","","75","","28","","10","","40.2","","99.96","","","","-4","","Cloudy"
"1974-01-22 12:00","1974","01","22","12:00","-0.6","","-3.9","","78","","28","","11","","32.2","","99.92","","","","-4","","Cloudy"
"1974-01-22 13:00","1974","01","22","13:00","-0.6","","-3.9","","78","","30","","8","","32.2","","99.88","","","","-3","","Cloudy"
"1974-01-22 14:00","1974","01","22","14:00","0.0","","-2.8","","82","","32","","5","","24.1","","99.77","","","","-2","","Cloudy"
"1974-01-22 15:00","1974","01","22","15:00","0.6","","-2.2","","83","","","","0","","24.1","","99.68","","","","","","Cloudy"
"1974-01-22 16:00","1974","01","22","16:00","0.6","","-2.2","","81","","16","","6","","16.1","","99.68","","","","","","Snow"
"1974-01-22 17:00","1974","01","22","17:00","-0.6","","-3.3","","82","","16","","10","","6.4","","99.64","","","","-4","","Snow,Haze"
"1974-01-22 18:00","1974","01","22","18:00","-0.6","","-2.2","","90","","16","","11","","1.6","","99.60","","","","-4","","Snow"
"1974-01-22 19:00","1974","01","22","19:00","-0.6","","-1.1","","96","","13","","13","","4.8","","99.50","","","","-5","","Snow"
"1974-01-22 20:00","1974","01","22","20:00","-0.6","","-0.6","","99","","14","","14","","0.4","","99.45","","","","-5","","Snow,Fog"
"1974-01-22 21:00","1974","01","22","21:00","0.0","","0.0","","100","","14","","14","","1.2","","99.29","","","","-4","","Snow,Fog"
"1974-01-22 22:00","1974","01","22","22:00","0.0","","0.0","","100","","15","","11","","0.6","","99.21","","","","-4","","Rain,Ice Pellets,Fog"
"1974-01-22 23:00","1974","01","22","23:00","0.0","","0.0","","100","","13","","16","","2.0","","99.04","","","","-5","","Rain,Fog"
"1974-01-23 00:00","1974","01","23","00:00","0.6","","0.6","","99","","13","","23","","3.2","","98.82","","","","","","Rain,Fog"
"1974-01-23 01:00","1974","01","23","01:00","1.1","","1.1","","100","","14","","14","","3.6","","98.69","","","","","","Rain,Fog"
"1974-01-23 02:00","1974","01","23","02:00","1.1","","1.1","","100","","15","","11","","3.2","","98.57","","","","","","Rain,Fog"
"1974-01-23 03:00","1974","01","23","03:00","1.7","","1.7","","100","","23","","5","","1.2","","98.53","","","","","","Rain,Fog"
"1974-01-23 04:00","1974","01","23","04:00","1.7","","1.7","","100","","24","","10","","0.4","","98.47","","","","","","Fog"
"1974-01-23 05:00","1974","01","23","05:00","1.1","","1.1","","100","","26","","8","","0.4","","98.45","","","","","","Fog"
"1974-01-23 06:00","1974","01","23","06:00","2.2","","2.2","","100","","28","","14","","4.8","","98.42","","","","","","Rain,Fog"
"1974-01-23 07:00","1974","01","23","07:00","2.8","","2.2","","97","","30","","27","","8.0","","98.49","","","","","","Fog"
"1974-01-23 08:00","1974","01","23","08:00","2.2","","1.1","","91","","31","","26","","12.9","","98.59","","","","","","Cloudy"
"1974-01-23 09:00","1974","01","23","09:00","2.2","","0.6","","91","","31","","23","","19.3","","98.66","","","","","","Mostly Cloudy"
"1974-01-23 10:00","1974","01","23","10:00","2.2","","0.6","","90","","32","","24","","19.3","","98.77","","","","","","Cloudy"
"1974-01-23 11:00","1974","01","23","11:00","2.2","","0.6","","91","","31","","26","","12.9","","98.92","","","","","","Cloudy"
"1974-01-23 12:00","1974","01","23","12:00","2.2","","0.0","","87","","32","","24","","19.3","","98.95","","","","","","Cloudy"
"1974-01-23 13:00","1974","01","23","13:00","2.2","","0.0","","85","","30","","31","","19.3","","98.99","","","","","","Mostly Cloudy"
"1974-01-23 14:00","1974","01","23","14:00","1.7","","0.0","","89","","28","","26","","19.3","","99.09","","","","","","Mostly Cloudy"
"1974-01-23 15:00","1974","01","23","15:00","1.7","","-1.1","","81","","28","","29","","19.3","","99.23","","","","","","Mostly Cloudy"
"1974-01-23 16:00","1974","01","23","16:00","1.1","","-1.7","","80","","29","","32","","24.1","","99.42","","","","","","Cloudy"
"1974-01-23 17:00","1974","01","23","17:00","1.1","","-1.7","","80","","29","","32","","32.2","","99.55","","","","","","Mostly Cloudy"
"1974-01-23 18:00","1974","01","23","18:00","1.1","","-1.1","","84","","29","","24","","25.0","","99.70","","","","","","Ice Pellet Showers"
"1974-01-23 19:00","1974","01","23","19:00","0.6","","-1.1","","87","","30","","24","","24.1","","99.83","","","","","","Snow Grains"
"1974-01-23 20:00","1974","01","23","20:00","0.6","","-1.7","","84","","31","","26","","25.0","","99.90","","","","","","Mostly Cloudy"
"1974-01-23 21:00","1974","01","23","21:00","0.0","","-2.8","","83","","30","","16","","25.0","","99.95","","","","-5","","Mostly Cloudy"
"1974-01-23 22:00","1974","01","23","22:00","0.0","","-3.9","","77","","30","","14","","25.0","","100.05","","","","-4","","Mostly Cloudy"
"1974-01-23 23:00","1974","01","23","23:00","-1.1","","-5.0","","75","","26","","13","","25.0","","100.11","","","","-5","","Mostly Cloudy"
"1974-01-24 00:00","1974","01","24","00:00","-1.7","","-5.6","","75","","25","","13","","25.0","","100.14","","","","-6","","Mainly Clear"
"1974-01-24 01:00","1974","01","24","01:00","-2.2","","-5.0","","80","","26","","13","","25.0","","100.18","","","","-7","","Mainly Clear"
"1974-01-24 02:00","1974","01","24","02:00","-2.8","","-5.0","","85","","27","","16","","25.0","","100.20","","","","-8","","Mainly Clear"
"1974-01-24 03:00","1974","01","24","03:00","-3.3","","-5.6","","87","","26","","13","","25.0","","100.26","","","","-8","","Clear"
"1974-01-24 04:00","1974","01","24","04:00","-4.4","","-5.6","","89","","26","","13","","25.0","","100.23","","","","-9","","Clear"
"1974-01-24 05:00","1974","01","24","05:00","-3.9","","-6.1","","87","","25","","14","","25.0","","100.24","","","","-9","","Clear"
"1974-01-24 06:00","1974","01","24","06:00","-5.0","","-6.7","","90","","24","","13","","25.0","","100.25","","","","-10","","Mainly Clear"
"1974-01-24 07:00","1974","01","24","07:00","-4.4","","-6.1","","88","","25","","14","","25.0","","100.29","","","","-10","","Mainly Clear"
"1974-01-24 08:00","1974","01","24","08:00","-5.0","","-6.1","","90","","25","","10","","16.1","","100.26","","","","-9","","Mostly Cloudy"
"1974-01-24 09:00","1974","01","24","09:00","-4.4","","-5.6","","90","","25","","10","","12.9","","100.25","","","","-9","","Mostly Cloudy"
"1974-01-24 10:00","1974","01","24","10:00","-2.8","","-5.0","","86","","23","","16","","12.9","","100.24","","","","-8","","Mostly Cloudy"
"1974-01-24 11:00","1974","01","24","11:00","-1.1","","-2.8","","87","","22","","26","","12.9","","100.19","","","","-7","","Mostly Cloudy"
"1974-01-24 12:00","1974","01","24","12:00","0.6","","-2.8","","79","","23","","24","","16.1","","100.12","","","","","","Mostly Cloudy"
"1974-01-24 13:00","1974","01","24","13:00","1.7","","-2.2","","75","","22","","21","","19.3","","100.02","","","","","","Mostly Cloudy"
"1974-01-24 14:00","1974","01","24","14:00","2.2","","-3.3","","67","","24","","29","","19.3","","99.98","","","","","","Mostly Cloudy"
"1974-01-24 15:00","1974","01","24","15:00","2.2","","-2.8","","69","","24","","26","","24.1","","99.91","","","","","","Mostly Cloudy"
"1974-01-24 16:00","1974","01","24","16:00","2.2","","-2.2","","73","","22","","23","","24.1","","99.94","","","","","","Mostly Cloudy"
"1974-01-24 17:00","1974","01","24","17:00","1.7","","-2.2","","75","","21","","18","","24.1","","100.00","","","","","","Mostly Cloudy"
"1974-01-24 18:00","1974","01","24","18:00","1.1","","-2.2","","81","","21","","16","","19.3","","100.00","","","","","","Mostly Cloudy"
"1974-01-24 19:00","1974","01","24","19:00","0.6","","-1.7","","82","","21","","21","","16.1","","100.04","","","","","","Mostly Cloudy"
"1974-01-24 20:00","1974","01","24","20:00","0.6","","-2.8","","80","","22","","18","","16.1","","100.06","","","","","","Mainly Clear"
"1974-01-24 21:00","1974","01","24","21:00","0.0","","-3.3","","78","","22","","19","","16.1","","100.09","","","","-5","","Mostly Cloudy"
"1974-01-24 22:00","1974","01","24","22:00","-0.6","","-3.3","","82","","22","","16","","16.1","","100.12","","","","-5","","Mostly Cloudy"
"1974-01-24 23:00","1974","01","24","23:00","-1.1","","-3.9","","82","","22","","13","","16.1","","100.10","","","","-5","","Mainly Clear"
"1974-01-25 00:00","1974","01","25","00:00","-1.7","","-5.0","","80","","24","","11","","16.1","","100.10","","","","-6","","Clear"
"1974-01-25 01:00","1974","01","25","01:00","-2.8","","-4.4","","88","","24","","13","","16.1","","100.08","","","","-7","","Clear"
"1974-01-25 02:00","1974","01","25","02:00","-2.8","","-4.4","","88","","25","","14","","16.1","","100.09","","","","-8","","Mainly Clear"
"1974-01-25 03:00","1974","01","25","03:00","-3.3","","-5.0","","88","","26","","10","","16.1","","100.09","","","","-7","","Mainly Clear"
"1974-01-25 04:00","1974","01","25","04:00","-3.9","","-5.6","","90","","26","","11","","16.1","","100.09","","","","-8","","Clear"
"1974-01-25 05:00","1974","01","25","05:00","-4.4","","-5.6","","89","","25","","8","","16.1","","100.08","","","","-8","","Mainly Clear"
"1974-01-25 06:00","1974","01","25","06:00","-4.4","","-6.1","","89","","27","","6","","16.1","","100.10","","","","-7","","Mainly Clear"
"1974-01-25 07:00","1974","01","25","07:00","-4.4","","-6.1","","90","","22","","6","","12.9","","100.08","","","","-7","","Mainly Clear"
"1974-01-25 08:00","1974","01","25","08:00","-3.3","","-4.4","","91","","22","","10","","6.4","","100.10","","","","-7","","Fog"
"1974-01-25 09:00","1974","01","25","09:00","-1.7","","-3.3","","88","","25","","18","","6.4","","100.11","","","","-7","","Fog"
"1974-01-25 10:00","1974","01","25","10:00","-1.1","","-2.8","","87","","21","","19","","9.7","","100.09","","","","-6","","Fog"
"1974-01-25 11:00","1974","01","25","11:00","0.0","","-2.2","","86","","22","","16","","8.0","","100.11","","","","-5","","Fog"
"1974-01-25 12:00","1974","01","25","12:00","1.1","","-1.7","","81","","22","","23","","9.7","","99.99","","","","","","Haze"
"1974-01-25 13:00","1974","01","25","13:00","2.2","","-1.1","","80","","23","","26","","12.9","","99.89","","","","","","Mostly Cloudy"
"1974-01-25 14:00","1974","01","25","14:00","3.3","","-0.6","","75","","21","","27","","16.1","","99.79","","","","","","Mainly Clear"
"1974-01-25 15:00","1974","01","25","15:00","3.3","","-0.6","","73","","22","","24","","19.3","","99.82","","","","","","Mainly Clear"
"1974-01-25 16:00","1974","01","25","16:00","3.3","","-1.1","","73","","23","","24","","19.3","","99.85","","","","","","Mostly Cloudy"
"1974-01-25 17:00","1974","01","25","17:00","2.8","","-0.6","","78","","23","","23","","19.3","","99.88","","","","","","Mainly Clear"
"1974-01-25 18:00","1974","01","25","18:00","2.2","","-1.7","","74","","24","","26","","19.3","","99.90","","","","","","Clear"
"1974-01-25 19:00","1974","01","25","19:00","1.7","","-1.7","","80","","24","","14","","19.3","","99.96","","","","","","Clear"
"1974-01-25 20:00","1974","01","25","20:00","1.1","","-1.7","","80","","","","0","","19.3","","100.01","","","","","","Clear"
"1974-01-25 21:00","1974","01","25","21:00","1.1","","-1.7","","81","","28","","5","","19.3","","100.04","","","","","","Clear"
"1974-01-25 22:00","1974","01","25","22:00","1.1","","-1.7","","80","","22","","11","","19.3","","100.04","","","","","","Clear"
"1974-01-25 23:00","1974","01","25","23:00","0.6","","-2.8","","78","","22","","8","","19.3","","100.08","","","","","","Clear"
"1974-01-26 00:00","1974","01","26","00:00","0.6","","-3.3","","76","","26","","6","","19.3","","100.14","","","","","","Clear"
"1974-01-26 01:00","1974","01","26","01:00","1.1","","-2.8","","78","","25","","11","","24.1","","100.12","","","","","","Clear"
"1974-01-26 02:00","1974","01","26","02:00","0.6","","-2.8","","78","","17","","6","","25.0","","100.13","","","","","","Clear"
"1974-01-26 03:00","1974","01","26","03:00","0.0","","-2.8","","80","","21","","13","","25.0","","100.17","","","","-4","","Clear"
"1974-01-26 04:00","1974","01","26","04:00","-0.6","","-3.3","","81","","21","","8","","25.0","","100.12","","","","-3","","Clear"
"1974-01-26 05:00","1974","01","26","05:00","-2.2","","-6.1","","75","","16","","13","","19.3","","100.08","","","","-7","","Clear"
"1974-01-26 06:00","1974","01","26","06:00","-1.1","","-3.9","","84","","20","","14","","19.3","","100.06","","","","-6","","Clear"
"1974-01-26 07:00","1974","01","26","07:00","-2.2","","-5.0","","84","","16","","10","","19.3","","100.02","","","","-6","","Mainly Clear"
"1974-01-26 08:00","1974","01","26","08:00","-2.2","","-4.4","","84","","15","","10","","12.9","","100.05","","","","-6","","Mainly Clear"
"1974-01-26 09:00","1974","01","26","09:00","-0.6","","-3.9","","80","","","","0","","16.1","","100.03","","","","","","Mostly Cloudy"
"1974-01-26 10:00","1974","01","26","10:00","1.1","","-2.8","","74","","18","","8","","16.1","","100.02","","","","","","Mostly Cloudy"
"1974-01-26 11:00","1974","01","26","11:00","2.2","","-3.3","","68","","14","","11","","16.1","","99.91","","","","","","Mostly Cloudy"
"1974-01-26 12:00","1974","01","26","12:00","2.8","","-2.8","","67","","16","","10","","14.5","","99.81","","","","","","Mostly Cloudy"
"1974-01-26 13:00","1974","01","26","13:00","3.9","","-1.7","","67","","17","","8","","12.9","","99.65","","","","","","Mostly Cloudy"
"1974-01-26 14:00","1974","01","26","14:00","4.4","","-2.2","","63","","16","","11","","12.9","","99.50","","","","","","Mostly Cloudy"
"1974-01-26 15:00","1974","01","26","15:00","3.3","","-2.2","","67","","16","","13","","12.9","","99.41","","","","","","Mostly Cloudy"
"1974-01-26 16:00","1974","01","26","16:00","3.3","","-2.8","","64","","12","","11","","9.7","","99.21","","","","","","Haze"
"1974-01-26 17:00","1974","01","26","17:00","4.4","","-3.9","","54","","13","","11","","9.7","","99.13","","","","","","Haze"
"1974-01-26 18:00","1974","01","26","18:00","4.4","","-2.2","","62","","12","","14","","12.9","","98.99","","","","","","Cloudy"
"1974-01-26 19:00","1974","01","26","19:00","3.9","","-1.1","","71","","12","","19","","19.3","","98.81","","","","","","Cloudy"
"1974-01-26 20:00","1974","01","26","20:00","3.9","","0.0","","73","","13","","16","","19.3","","98.61","","","","","","Cloudy"
"1974-01-26 21:00","1974","01","26","21:00","3.9","","1.1","","84","","13","","14","","8.0","","98.37","","","","","","Drizzle"
"1974-01-26 22:00","1974","01","26","22:00","4.4","","3.9","","97","","13","","26","","3.6","","98.10","","","","","","Moderate Rain,Fog"
"1974-01-26 23:00","1974","01","26","23:00","4.4","","3.9","","98","","13","","26","","1.2","","97.87","","","","","","Moderate Rain,Fog"
"1974-01-27 00:00","1974","01","27","00:00","5.0","","5.0","","100","","16","","24","","0.2","","97.73","","","","","","Moderate Rain,Fog"
"1974-01-27 01:00","1974","01","27","01:00","7.2","","6.7","","98","","18","","21","","16.1","","97.50","","","","","","Rain"
"1974-01-27 02:00","1974","01","27","02:00","6.7","","6.7","","99","","20","","19","","11.3","","97.39","","","","","","Rain"
"1974-01-27 03:00","1974","01","27","03:00","8.3","","6.7","","90","","22","","34","","12.9","","97.33","","","","","","Rain"
"1974-01-27 04:00","1974","01","27","04:00","7.8","","6.1","","87","","23","","47","","12.9","","97.23","","","","","","Rain"
"1974-01-27 05:00","1974","01","27","05:00","6.7","","5.6","","93","","22","","48","","8.0","","97.20","","","","","","Rain,Fog"
"1974-01-27 06:00","1974","01","27","06:00","6.1","","5.0","","91","","24","","58","","19.3","","97.13","","","","","","Rain Showers"
"1974-01-27 07:00","1974","01","27","07:00","6.1","","3.3","","83","","23","","51","","25.0","","97.19","","","","","","Mostly Cloudy"
"1974-01-27 08:00","1974","01","27","08:00","5.0","","2.8","","84","","26","","61","","16.1","","97.46","","","","","","Rain Showers"
"1974-01-27 09:00","1974","01","27","09:00","3.9","","1.1","","81","","26","","51","","24.1","","97.73","","","","","","Rain Showers"
"1974-01-27 10:00","1974","01","27","10:00","3.9","","0.0","","77","","26","","48","","32.2","","97.96","","","","","","Rain Showers"
"1974-01-27 11:00","1974","01","27","11:00","3.3","","0.6","","82","","27","","45","","32.2","","98.15","","","","","","Mostly Cloudy"
"1974-01-27 12:00","1974","01","27","12:00","3.3","","0.6","","80","","27","","32","","40.2","","98.32","","","","","","Cloudy"
"1974-01-27 13:00","1974","01","27","13:00","3.3","","0.6","","82","","27","","29","","40.2","","98.38","","","","","","Cloudy"
"1974-01-27 14:00","1974","01","27","14:00","3.3","","0.6","","81","","27","","34","","40.2","","98.49","","","","","","Cloudy"
"1974-01-27 15:00","1974","01","27","15:00","2.8","","0.0","","81","","26","","23","","32.2","","98.63","","","","","","Cloudy"
"1974-01-27 16:00","1974","01","27","16:00","3.3","","0.0","","79","","26","","21","","32.2","","98.79","","","","","","Cloudy"
"1974-01-27 17:00","1974","01","27","17:00","2.8","","0.0","","83","","27","","21","","32.2","","98.87","","","","","","Cloudy"
"1974-01-27 18:00","1974","01","27","18:00","2.8","","0.0","","81","","26","","16","","24.1","","98.94","","","","","","Mostly Cloudy"
"1974-01-27 19:00","1974","01","27","19:00","2.8","","0.0","","83","","25","","18","","19.3","","99.03","","","","","","Cloudy"
"1974-01-27 20:00","1974","01","27","20:00","2.8","","0.6","","84","","23","","13","","16.1","","99.06","","","","","","Cloudy"
"1974-01-27 21:00","1974","01","27","21:00","2.8","","0.6","","84","","22","","14","","16.1","","99.09","","","","","","Cloudy"
"1974-01-27 22:00","1974","01","27","22:00","2.8","","0.0","","83","","23","","16","","16.1","","99.12","","","","","","Cloudy"
"1974-01-27 23:00","1974","01","27","23:00","2.2","","0.0","","85","","23","","16","","12.9","","99.14","","","","","","Mostly Cloudy"
"1974-01-28 00:00","1974","01","28","00:00","2.2","","0.0","","84","","23","","16","","11.3","","99.22","","","","","","Cloudy"
"1974-01-28 01:00","1974","01","28","01:00","2.2","","0.0","","85","","24","","16","","9.7","","99.25","","","","","","Rain,Fog"
"1974-01-28 02:00","1974","01","28","02:00","2.2","","0.0","","86","","23","","11","","9.7","","99.26","","","","","","Fog"
"1974-01-28 03:00","1974","01","28","03:00","1.7","","-0.6","","86","","25","","13","","8.0","","99.29","","","","","","Fog"
"1974-01-28 04:00","1974","01","28","04:00","1.7","","0.0","","89","","24","","10","","9.7","","99.34","","","","","","Fog"
"1974-01-28 05:00","1974","01","28","05:00","1.1","","-0.6","","88","","24","","8","","9.7","","99.37","","","","","","Fog"
"1974-01-28 06:00","1974","01","28","06:00","1.1","","-0.6","","89","","23","","13","","8.0","","99.38","","","","","","Fog"
"1974-01-28 07:00","1974","01","28","07:00","1.1","","-0.6","","90","","24","","11","","8.0","","99.41","","","","","","Fog"
"1974-01-28 08:00","1974","01","28","08:00","0.6","","-0.6","","92","","25","","8","","4.0","","99.31","","","","","","Fog"
"1974-01-28 09:00","1974","01","28","09:00","1.1","","-0.6","","92","","26","","5","","4.8","","99.31","","","","","","Fog"
"1974-01-28 10:00","1974","01","28","10:00","1.1","","0.0","","92","","","","0","","6.4","","99.23","","","","","","Fog"
"1974-01-28 11:00","1974","01","28","11:00","1.7","","0.0","","86","","18","","8","","6.4","","99.31","","","","","","Fog"
"1974-01-28 12:00","1974","01","28","12:00","2.2","","0.0","","87","","17","","6","","4.8","","99.19","","","","","","Fog"
"1974-01-28 13:00","1974","01","28","13:00","1.7","","0.0","","89","","16","","6","","4.8","","99.04","","","","","","Fog"
"1974-01-28 14:00","1974","01","28","14:00","1.7","","0.0","","90","","9","","6","","4.8","","98.82","","","","","","Fog"
"1974-01-28 15:00","1974","01","28","15:00","1.7","","0.0","","90","","14","","5","","6.4","","98.89","","","","","","Fog"
"1974-01-28 16:00","1974","01","28","16:00","0.6","","0.6","","98","","10","","8","","1.2","","98.69","","","","","","Snow"
"1974-01-28 17:00","1974","01","28","17:00","0.6","","0.0","","98","","13","","10","","2.0","","98.59","","","","","","Snow,Fog"
"1974-01-28 18:00","1974","01","28","18:00","0.6","","0.0","","98","","14","","8","","2.0","","98.51","","","","","","Fog"
"1974-01-28 19:00","1974","01","28","19:00","0.6","","0.6","","99","","12","","6","","2.0","","98.46","","","","","","Snow,Fog"
"1974-01-28 20:00","1974","01","28","20:00","0.6","","0.0","","98","","35","","8","","2.4","","98.46","","","","","","Snow,Fog"
"1974-01-28 21:00","1974","01","28","21:00","0.6","","0.0","","98","","32","","16","","1.6","","98.55","","","","","","Snow,Fog"
"1974-01-28 22:00","1974","01","28","22:00","0.6","","0.0","","97","","33","","13","","4.8","","98.59","","","","","","Snow,Fog"
"1974-01-28 23:00","1974","01","28","23:00","0.6","","0.0","","96","","31","","13","","6.4","","98.72","","","","","","Fog"
"1974-01-29 00:00","1974","01","29","00:00","0.6","","-0.6","","91","","28","","13","","9.7","","98.84","","","","","","Fog"
"1974-01-29 01:00","1974","01","29","01:00","0.6","","-1.1","","87","","30","","21","","16.1","","98.95","","","","","","Mostly Cloudy"
"1974-01-29 02:00","1974","01","29","02:00","0.0","","-1.7","","87","","30","","16","","19.3","","99.09","","","","-5","","Mostly Cloudy"
"1974-01-29 03:00","1974","01","29","03:00","0.0","","-2.2","","86","","29","","13","","19.3","","99.19","","","","-4","","Mostly Cloudy"
"1974-01-29 04:00","1974","01","29","04:00","0.0","","-2.2","","84","","29","","18","","19.3","","99.29","","","","-5","","Cloudy"
"1974-01-29 05:00","1974","01","29","05:00","0.0","","-2.2","","83","","28","","16","","19.3","","99.37","","","","-5","","Cloudy"
"1974-01-29 06:00","1974","01","29","06:00","0.0","","-2.2","","86","","31","","13","","19.3","","99.43","","","","-4","","Cloudy"
"1974-01-29 07:00","1974","01","29","07:00","0.0","","-2.2","","86","","30","","13","","19.3","","99.55","","","","-4","","Cloudy"
"1974-01-29 08:00","1974","01","29","08:00","0.0","","-2.8","","82","","28","","10","","24.1","","99.64","","","","-3","","Cloudy"
"1974-01-29 09:00","1974","01","29","09:00","0.0","","-2.8","","83","","23","","8","","32.2","","99.66","","","","-3","","Cloudy"
"1974-01-29 10:00","1974","01","29","10:00","0.0","","-2.8","","80","","23","","11","","32.2","","99.71","","","","-4","","Cloudy"
"1974-01-29 11:00","1974","01","29","11:00","0.6","","-3.3","","75","","26","","6","","32.2","","99.72","","","","","","Mostly Cloudy"
"1974-01-29 12:00","1974","01","29","12:00","0.6","","-3.3","","75","","22","","6","","32.2","","99.62","","","","","","Cloudy"
"1974-01-29 13:00","1974","01","29","13:00","0.6","","-3.3","","77","","18","","6","","32.2","","99.59","","","","","","Cloudy"
"1974-01-29 14:00","1974","01","29","14:00","0.0","","-2.2","","85","","19","","18","","24.1","","99.56","","","","-5","","Cloudy"
"1974-01-29 15:00","1974","01","29","15:00","-0.6","","-2.2","","88","","20","","18","","24.1","","99.53","","","","-6","","Cloudy"
"1974-01-29 16:00","1974","01","29","16:00","-0.6","","-3.3","","82","","22","","13","","19.3","","99.53","","","","-5","","Cloudy"
"1974-01-29 17:00","1974","01","29","17:00","0.0","","-2.8","","83","","20","","13","","19.3","","99.52","","","","-4","","Cloudy"
"1974-01-29 18:00","1974","01","29","18:00","0.0","","-2.8","","84","","19","","10","","12.9","","99.48","","","","-3","","Cloudy"
"1974-01-29 19:00","1974","01","29","19:00","0.0","","-1.7","","87","","17","","13","","12.9","","99.42","","","","-4","","Mostly Cloudy"
"1974-01-29 20:00","1974","01","29","20:00","0.0","","-2.2","","87","","17","","10","","11.3","","99.42","","","","-3","","Mostly Cloudy"
"1974-01-29 21:00","1974","01","29","21:00","0.0","","-1.7","","87","","17","","10","","11.3","","99.31","","","","-3","","Mostly Cloudy"
"1974-01-29 22:00","1974","01","29","22:00","0.0","","-1.7","","90","","16","","14","","9.7","","99.21","","","","-4","","Fog"
"1974-01-29 23:00","1974","01","29","23:00","0.0","","-1.1","","90","","16","","13","","8.0","","99.12","","","","-4","","Fog"
"1974-01-30 00:00","1974","01","30","00:00","0.0","","-1.1","","91","","19","","10","","8.0","","99.06","","","","-3","","Fog"
"1974-01-30 01:00","1974","01","30","01:00","0.0","","-0.6","","95","","18","","11","","6.4","","98.97","","","","-4","","Fog"
"1974-01-30 02:00","1974","01","30","02:00","0.0","","-0.6","","96","","18","","14","","4.8","","98.95","","","","-4","","Fog"
"1974-01-30 03:00","1974","01","30","03:00","0.6","","-1.1","","90","","22","","21","","11.3","","98.98","","","","","","Mostly Cloudy"
"1974-01-30 04:00","1974","01","30","04:00","0.6","","-1.1","","89","","20","","21","","8.0","","98.92","","","","","","Fog"
"1974-01-30 05:00","1974","01","30","05:00","1.1","","-0.6","","87","","20","","21","","8.0","","98.86","","","","","","Fog"
"1974-01-30 06:00","1974","01","30","06:00","1.7","","0.0","","89","","21","","23","","8.0","","98.84","","","","","","Fog"
"1974-01-30 07:00","1974","01","30","07:00","1.7","","0.0","","89","","23","","24","","9.7","","98.88","","","","","","Fog"
"1974-01-30 08:00","1974","01","30","08:00","2.2","","0.0","","88","","21","","21","","12.9","","98.95","","","","","","Cloudy"
"1974-01-30 09:00","1974","01","30","09:00","2.2","","0.6","","88","","21","","18","","12.9","","99.00","","","","","","Cloudy"
"1974-01-30 10:00","1974","01","30","10:00","2.2","","0.6","","88","","22","","14","","12.9","","99.03","","","","","","Cloudy"
"1974-01-30 11:00","1974","01","30","11:00","2.8","","0.6","","87","","22","","21","","9.7","","99.09","","","","","","Fog"
"1974-01-30 12:00","1974","01","30","12:00","2.8","","1.1","","88","","22","","24","","9.7","","99.00","","","","","","Fog"
"1974-01-30 13:00","1974","01","30","13:00","3.3","","1.1","","88","","22","","21","","8.0","","98.92","","","","","","Fog"
"1974-01-30 14:00","1974","01","30","14:00","3.9","","1.7","","84","","21","","21","","8.0","","98.89","","","","","","Haze"
"1974-01-30 15:00","1974","01","30","15:00","5.6","","2.2","","80","","20","","16","","12.9","","98.85","","","","","","Mainly Clear"
"1974-01-30 16:00","1974","01","30","16:00","5.6","","1.7","","77","","20","","23","","12.9","","98.84","","","","","","Mainly Clear"
"1974-01-30 17:00","1974","01","30","17:00","5.0","","1.7","","79","","20","","21","","12.9","","98.82","","","","","","Mainly Clear"
"1974-01-30 18:00","1974","01","30","18:00","3.9","","1.1","","83","","19","","18","","11.3","","98.81","","","","","","Mainly Clear"
"1974-01-30 19:00","1974","01","30","19:00","3.9","","1.1","","83","","18","","18","","16.1","","98.81","","","","","","Mainly Clear"
"1974-01-30 20:00","1974","01","30","20:00","3.9","","1.1","","83","","18","","14","","19.3","","98.76","","","","","","Mainly Clear"
"1974-01-30 21:00","1974","01","30","21:00","4.4","","0.6","","77","","19","","21","","24.1","","98.68","","","","","","Mainly Clear"
"1974-01-30 22:00","1974","01","30","22:00","5.0","","1.1","","74","","20","","27","","25.0","","98.64","","","","","","Mainly Clear"
"1974-01-30 23:00","1974","01","30","23:00","5.0","","0.6","","74","","18","","16","","25.0","","98.56","","","","","","Mainly Clear"
"1974-01-31 00:00","1974","01","31","00:00","5.0","","0.6","","73","","18","","18","","25.0","","98.51","","","","","","Mainly Clear"
"1974-01-31 01:00","1974","01","31","01:00","3.9","","0.0","","75","","19","","19","","25.0","","98.42","","","","","","Mostly Cloudy"
"1974-01-31 02:00","1974","01","31","02:00","3.3","","-0.6","","74","","20","","23","","25.0","","98.33","","","","","","Mostly Cloudy"
"1974-01-31 03:00","1974","01","31","03:00","3.3","","-1.1","","73","","19","","18","","25.0","","98.27","","","","","","Mainly Clear"
"1974-01-31 04:00","1974","01","31","04:00","3.3","","-1.1","","73","","19","","21","","25.0","","98.15","","","","","","Mostly Cloudy"
"1974-01-31 05:00","1974","01","31","05:00","4.4","","0.0","","73","","22","","31","","25.0","","98.00","","","","","","Mostly Cloudy"
"1974-01-31 06:00","1974","01","31","06:00","4.4","","0.6","","76","","23","","32","","25.0","","97.84","","","","","","Cloudy"
"1974-01-31 07:00","1974","01","31","07:00","4.4","","1.7","","81","","22","","31","","25.0","","97.75","","","","","","Cloudy"
"1974-01-31 08:00","1974","01","31","08:00","5.0","","1.7","","79","","20","","31","","24.1","","97.61","","","","","","Cloudy"
"1974-01-31 09:00","1974","01","31","09:00","5.6","","1.7","","76","","22","","35","","24.1","","97.53","","","","","","Mostly Cloudy"
"1974-01-31 10:00","1974","01","31","10:00","6.1","","2.2","","76","","23","","43","","24.1","","97.40","","","","","","Mostly Cloudy"
"1974-01-31 11:00","1974","01","31","11:00","6.1","","2.2","","77","","23","","47","","12.9","","97.38","","","","","","Rain Showers"
"1974-01-31 12:00","1974","01","31","12:00","5.6","","3.3","","85","","25","","42","","8.0","","97.37","","","","","","Rain Showers,Fog"
"1974-01-31 13:00","1974","01","31","13:00","1.7","","-2.2","","75","","30","","56","","32.2","","97.72","","","","","","Snow Showers"
"1974-01-31 14:00","1974","01","31","14:00","0.0","","-3.9","","78","","30","","64","","32.2","","97.99","","","","-9","","Snow Showers"
"1974-01-31 15:00","1974","01","31","15:00","-2.2","","-5.6","","80","","29","","74","","4.8","","98.31","","","","-13","","Snow Showers"
"1974-01-31 16:00","1974","01","31","16:00","-4.4","","-8.3","","74","","29","","69","","40.2","","98.64","","","","-15","","Mainly Clear"
"1974-01-31 17:00","1974","01","31","17:00","-5.0","","-12.8","","55","","28","","48","","40.2","","98.78","","","","-15","","Mainly Clear"
"1974-01-31 18:00","1974","01","31","18:00","-5.6","","-12.8","","57","","29","","45","","25.0","","99.00","","","","-15","","Mainly Clear"
"1974-01-31 19:00","1974","01","31","19:00","-5.6","","-10.6","","67","","28","","26","","25.0","","99.14","","","","-13","","Mainly Clear"
"1974-01-31 20:00","1974","01","31","20:00","-5.0","","-11.1","","64","","29","","24","","25.0","","99.25","","","","-12","","Mainly Clear"
"1974-01-31 21:00","1974","01","31","21:00","-5.6","","-10.0","","71","","29","","32","","25.0","","99.28","","","","-14","","Mostly Cloudy"
"1974-01-31 22:00","1974","01","31","22:00","-5.6","","-10.0","","71","","30","","24","","25.0","","99.31","","","","-13","","Mainly Clear"
"1974-01-31 23:00","1974","01","31","23:00","-5.6","","-11.7","","61","","30","","37","","25.0","","99.38","","","","-15","","Mostly Cloudy"
