"Station Name","TORONTO INTL A"
"Province","ONTARIO"
"Latitude","43.68"
"Longitude","-79.63"
"Elevation","173.40"
"Climate Identifier","6158731"
"WMO Identifier","71624"
"TC Identifier","YYZ"
"All times are specified in Local Standard Time (LST). Add 1 hour to adjust for Daylight Saving Time where and when it is observed."

"Legend"
"E","Estimated"
"M","Missing"
"NA","Not Available"

"Date/Time","Year","Month","Day","Time","Temp (°C)","Temp Flag","Dew Point Temp (°C)","Dew Point Temp Flag","Rel Hum (%)","Rel Hum Flag","Wind Dir (10s deg)","Wind Dir Flag","Wind Spd (km/h)","Wind Spd Flag","Visibility (km)","Visibility Flag","Stn Press (kPa)","Stn Press Flag","Hmdx","Hmdx Flag","Wind Chill","Wind Chill Flag","Weather"
"2016-01-01 00:00","2016","01","01","00:00","-0.3","","-5.1","","70","","24","","20","","24.1","","99.67","","","","-6","","NA"
"2016-01-01 01:00","2016","01","01","01:00","-0.3","","-5.5","","68","","25","","25","","24.1","","99.63","","","","-6","","Cloudy"
"2016-01-01 02:00","2016","01","01","02:00","-0.4","","-4.7","","73","","25","","26","","24.1","","99.59","","","","-7","","NA"
"2016-01-01 03:00","2016","01","01","03:00","-0.4","","-4.7","","73","","24","","30","","24.1","","99.56","","","","-7","","NA"
"2016-01-01 04:00","2016","01","01","04:00","-0.4","","-5.6","","68","","26","","31","","24.1","","99.53","","","","-7","","Cloudy"
"2016-01-01 05:00","2016","01","01","05:00","-0.8","","-5.2","","72","","26","","27","","24.1","","99.46","","","","-7","","NA"
"2016-01-01 06:00","2016","01","01","06:00","-0.9","","-6.3","","67","","24","","24","","24.1","","99.43","","","","-7","","NA"
"2016-01-01 07:00","2016","01","01","07:00","-1.1","","-6.3","","68","","24","","23","","24.1","","99.43","","","","-7","","Cloudy"
"2016-01-01 08:00","2016","01","01","08:00","-1.3","","-6.3","","69","","24","","23","","9.7","","99.40","","","","-7","","Snow Showers"
"2016-01-01 09:00","2016","01","01","09:00","-2.6","","-5.1","","83","","26","","27","","9.7","","99.43","","","","-10","","Snow"
"2016-01-01 10:00","2016","01","01","10:00","-2.0","","-7.0","","69","","26","","27","","24.1","","99.44","","","","-9","","Mostly Cloudy"
"2016-01-01 11:00","2016","01","01","11:00","-1.6","","-7.4","","65","","26","","26","","12.9","","99.44","","","","-8","","Snow Showers"
"2016-01-01 12:00","2016","01","01","12:00","-2.1","","-5.8","","76","","26","","23","","19.3","","99.39","","","","-8","","NA"
"2016-01-01 13:00","2016","01","01","13:00","-2.4","","-4.7","","84","","24","","19","","2.4","","99.35","","","","-8","","Snow Showers"
"2016-01-01 14:00","2016","01","01","14:00","-2.4","","-5.2","","81","","26","","32","","2.4","","99.32","","","","-10","","Snow"
"2016-01-01 15:00","2016","01","01","15:00","-2.2","","-6.8","","71","","26","","29","","24.1","","99.34","","","","-9","","NA"
"2016-01-01 16:00","2016","01","01","16:00","-2.3","","-7.4","","68","","26","","27","","24.1","","99.38","","","","-9","","Mostly Cloudy"
"2016-01-01 17:00","2016","01","01","17:00","-3.1","","-7.6","","71","","27","","35","","19.3","","99.41","","","","-11","","NA"
"2016-01-01 18:00","2016","01","01","18:00","-2.9","","-7.4","","71","","26","","35","","24.1","","99.48","","","","-11","","NA"
"2016-01-01 19:00","2016","01","01","19:00","-2.8","","-7.0","","73","","26","","28","","24.1","","99.54","","","","-10","","Mostly Cloudy"
"2016-01-01 20:00","2016","01","01","20:00","-3.1","","-7.3","","73","","25","","26","","24.1","","99.57","","","","-10","","NA"
"2016-01-01 21:00","2016","01","01","21:00","-3.4","","-7.4","","74","","25","","27","","24.1","","99.58","","","","-11","","NA"
"2016-01-01 22:00","2016","01","01","22:00","-3.0","","-7.4","","72","","26","","26","","24.1","","99.61","","","","-10","","Cloudy"
"2016-01-01 23:00","2016","01","01","23:00","-3.1","","-7.6","","71","","26","","28","","24.1","","99.60","","","","-10","","NA"
"2016-01-02 00:00","2016","01","02","00:00","-3.6","","-8.3","","70","","25","","26","","24.1","","99.63","","","","-11","","NA"
"2016-01-02 01:00","2016","01","02","01:00","-4.0","","-8.5","","71","","25","","26","","24.1","","99.62","","","","-11","","Mainly Clear"
"2016-01-02 02:00","2016","01","02","02:00","-3.2","","-8.9","","65","","29","","27","","24.1","","99.60","","","","-10","","NA"
"2016-01-02 03:00","2016","01","02","03:00","-3.2","","-8.5","","67","","23","","10","","24.1","","99.58","","","","-7","","NA"
"2016-01-02 04:00","2016","01","02","04:00","-3.1","","-7.8","","70","","21","","15","","24.1","","99.46","","","","-8","","Cloudy"
"2016-01-02 05:00","2016","01","02","05:00","-2.8","","-6.3","","77","","22","","16","","24.1","","99.41","","","","-8","","Snow"
"2016-01-02 06:00","2016","01","02","06:00","-2.4","","-5.9","","77","","23","","17","","24.1","","99.42","","","","-8","","Snow"
"2016-01-02 07:00","2016","01","02","07:00","-2.3","","-6.7","","72","","22","","18","","24.1","","99.36","","","","-8","","Cloudy"
"2016-01-02 08:00","2016","01","02","08:00","-2.4","","-6.8","","72","","22","","15","","24.1","","99.37","","","","-7","","NA"
"2016-01-02 09:00","2016","01","02","09:00","-2.1","","-6.1","","74","","23","","19","","24.1","","99.37","","","","-8","","NA"
"2016-01-02 10:00","2016","01","02","10:00","-1.7","","-5.7","","74","","24","","22","","19.3","","99.41","","","","-8","","Snow"
"2016-01-02 11:00","2016","01","02","11:00","-1.5","","-5.4","","75","","22","","15","","19.3","","99.39","","","","-6","","Snow"
"2016-01-02 12:00","2016","01","02","12:00","-1.1","","-5.2","","74","","25","","22","","24.1","","99.28","","","","-7","","NA"
"2016-01-02 13:00","2016","01","02","13:00","-0.8","","-5.1","","73","","24","","27","","24.1","","99.18","","","","-7","","Cloudy"
"2016-01-02 14:00","2016","01","02","14:00","-0.5","","-5.1","","71","","25","","22","","24.1","","99.13","","","","-6","","NA"
"2016-01-02 15:00","2016","01","02","15:00","-0.5","","-5.5","","69","","25","","19","","24.1","","99.07","","","","-6","","NA"
"2016-01-02 16:00","2016","01","02","16:00","-0.7","","-5.5","","70","","25","","19","","24.1","","99.05","","","","-6","","Cloudy"
"2016-01-02 17:00","2016","01","02","17:00","-0.8","","-5.8","","69","","24","","20","","24.1","","99.03","","","","-6","","NA"
"2016-01-02 18:00","2016","01","02","18:00","-0.6","","-5.8","","68","","23","","23","","24.1","","99.04","","","","-6","","NA"
"2016-01-02 19:00","2016","01","02","19:00","-0.5","","-5.3","","70","","23","","26","","24.1","","98.97","","","","-7","","Cloudy"
"2016-01-02 20:00","2016","01","02","20:00","-0.4","","-5.2","","70","","23","","29","","24.1","","98.88","","","","-7","","NA"
"2016-01-02 21:00","2016","01","02","21:00","-0.1","","-4.2","","74","","23","","30","","24.1","","98.74","","","","-7","","NA"
"2016-01-02 22:00","2016","01","02","22:00","0.3","","-3.8","","74","","22","","24","","24.1","","98.65","","","","","","Cloudy"
"2016-01-02 23:00","2016","01","02","23:00","0.1","","-3.8","","75","","23","","26","","24.1","","98.57","","","","","","NA"
"2016-01-03 00:00","2016","01","03","00:00","-0.1","","-3.8","","76","","24","","23","","24.1","","98.54","","","","-6","","NA"
"2016-01-03 01:00","2016","01","03","01:00","0.2","","-4.5","","71","","25","","32","","24.1","","98.44","","","","","","Cloudy"
"2016-01-03 02:00","2016","01","03","02:00","0.0","","-4.5","","72","","24","","21","","24.1","","98.42","","","","-5","","NA"
"2016-01-03 03:00","2016","01","03","03:00","0.1","","-4.4","","72","","24","","19","","24.1","","98.45","","","","","","NA"
"2016-01-03 04:00","2016","01","03","04:00","0.2","","-4.5","","71","","24","","17","","24.1","","98.43","","","","","","Cloudy"
"2016-01-03 05:00","2016","01","03","05:00","0.3","","-4.0","","73","","23","","19","","24.1","","98.46","","","","","","NA"
"2016-01-03 06:00","2016","01","03","06:00","0.4","","-3.7","","74","","23","","24","","19.3","","98.52","","","","","","Rain,Snow"
"2016-01-03 07:00","2016","01","03","07:00","0.6","","-3.7","","73","","24","","22","","24.1","","98.55","","","","","","Snow"
"2016-01-03 08:00","2016","01","03","08:00","0.4","","-2.8","","79","","24","","19","","24.1","","98.61","","","","","","Snow"
"2016-01-03 09:00","2016","01","03","09:00","1.1","","-3.4","","72","","25","","28","","24.1","","98.63","","","","","","NA"
"2016-01-03 10:00","2016","01","03","10:00","1.4","","-3.7","","69","","27","","28","","24.1","","98.71","","","","","","Cloudy"
"2016-01-03 11:00","2016","01","03","11:00","1.6","","-2.7","","73","","28","","23","","19.3","","98.76","","","","","","Snow"
"2016-01-03 12:00","2016","01","03","12:00","0.0","","-4.8","","70","","35","","40","","24.1","","98.86","","","","-7","","Snow"
"2016-01-03 13:00","2016","01","03","13:00","-0.8","","-7.0","","63","","34","","39","","24.1","","98.90","","","","-8","","Mostly Cloudy"
"2016-01-03 14:00","2016","01","03","14:00","-1.4","","-7.6","","63","","34","","32","","24.1","","99.03","","","","-9","","NA"
"2016-01-03 15:00","2016","01","03","15:00","-2.3","","-8.8","","61","","34","","28","","24.1","","99.15","","","","-9","","NA"
"2016-01-03 16:00","2016","01","03","16:00","-3.1","","-8.8","","65","","35","","27","","24.1","","99.25","","","","-10","","Mainly Clear"
"2016-01-03 17:00","2016","01","03","17:00","-4.3","","-9.0","","70","","35","","36","","19.3","","99.38","","","","-13","","Snow Showers"
"2016-01-03 18:00","2016","01","03","18:00","-5.3","","-10.1","","69","","35","","28","","24.1","","99.48","","","","-13","","Snow Showers"
"2016-01-03 19:00","2016","01","03","19:00","-5.9","","-10.9","","68","","34","","19","","24.1","","99.58","","","","-13","","Mainly Clear"
"2016-01-03 20:00","2016","01","03","20:00","-6.4","","-10.3","","74","","34","","24","","19.3","","99.70","","","","-14","","Snow Showers"
"2016-01-03 21:00","2016","01","03","21:00","-7.5","","-12.8","","66","","35","","24","","24.1","","99.77","","","","-15","","Snow Showers"
"2016-01-03 22:00","2016","01","03","22:00","-9.7","","-15.5","","63","","36","","28","","24.1","","99.85","","","","-19","","Mainly Clear"
"2016-01-03 23:00","2016","01","03","23:00","-11.0","","-17.3","","60","","34","","20","","24.1","","99.93","","","","-19","","NA"
"2016-01-04 00:00","2016","01","04","00:00","-11.5","","-17.6","","61","","35","","22","","24.1","","99.93","","","","-20","","NA"
"2016-01-04 01:00","2016","01","04","01:00","-11.4","","-17.1","","63","","1","","18","","24.1","","99.94","","","","-19","","Mostly Cloudy"
"2016-01-04 02:00","2016","01","04","02:00","-11.4","","-16.9","","64","","35","","21","","24.1","","99.96","","","","-20","","NA"
"2016-01-04 03:00","2016","01","04","03:00","-11.8","","-17.3","","64","","1","","23","","24.1","","100.04","","","","-21","","NA"
"2016-01-04 04:00","2016","01","04","04:00","-12.5","","-18.0","","64","","35","","17","","24.1","","100.11","","","","-20","","Mostly Cloudy"
"2016-01-04 05:00","2016","01","04","05:00","-13.1","","-18.0","","67","","2","","21","","24.1","","100.21","","","","-22","","NA"
"2016-01-04 06:00","2016","01","04","06:00","-14.0","","-18.5","","69","","35","","21","","19.3","","100.33","","","","-23","","Snow Showers"
"2016-01-04 07:00","2016","01","04","07:00","-14.8","","-20.0","","65","","34","","26","","24.1","","100.48","","","","-25","","Mostly Cloudy"
"2016-01-04 08:00","2016","01","04","08:00","-15.3","","-20.1","","67","","36","","24","","24.1","","100.56","","","","-25","","NA"
"2016-01-04 09:00","2016","01","04","09:00","-15.3","","-20.0","","68","","36","","24","","24.1","","100.71","","","","-25","","NA"
"2016-01-04 10:00","2016","01","04","10:00","-14.2","","-19.4","","65","","36","","20","","24.1","","100.81","","","","-23","","Mostly Cloudy"
"2016-01-04 11:00","2016","01","04","11:00","-12.6","","-19.1","","59","","2","","22","","24.1","","100.87","","","","-22","","NA"
"2016-01-04 12:00","2016","01","04","12:00","-12.2","","-20.0","","53","","36","","25","","24.1","","100.91","","","","-22","","NA"
"2016-01-04 13:00","2016","01","04","13:00","-12.0","","-19.8","","53","","35","","20","","24.1","","100.89","","","","-20","","Mainly Clear"
"2016-01-04 14:00","2016","01","04","14:00","-12.0","","-19.8","","53","","35","","24","","24.1","","100.94","","","","-21","","NA"
"2016-01-04 15:00","2016","01","04","15:00","-11.8","","-19.8","","52","","34","","27","","24.1","","101.03","","","","-21","","NA"
"2016-01-04 16:00","2016","01","04","16:00","-12.4","","-21.6","","47","","35","","22","","24.1","","101.10","","","","-21","","Mainly Clear"
"2016-01-04 17:00","2016","01","04","17:00","-12.9","","-21.8","","48","","36","","21","","24.1","","101.16","","","","-22","","NA"
"2016-01-04 18:00","2016","01","04","18:00","-13.1","","-21.7","","49","","1","","20","","24.1","","101.25","","","","-22","","NA"
"2016-01-04 19:00","2016","01","04","19:00","-13.2","","-21.8","","49","","1","","16","","24.1","","101.30","","","","-21","","Clear"
"2016-01-04 20:00","2016","01","04","20:00","-13.4","","-21.1","","53","","34","","15","","24.1","","101.36","","","","-21","","NA"
"2016-01-04 21:00","2016","01","04","21:00","-13.8","","-21.0","","55","","32","","11","","24.1","","101.42","","","","-20","","NA"
"2016-01-04 22:00","2016","01","04","22:00","-13.8","","-21.0","","55","","34","","7","","24.1","","101.50","","","","-18","","Clear"
"2016-01-04 23:00","2016","01","04","23:00","-13.8","","-21.0","","55","","35","","16","","24.1","","101.51","","","","-22","","NA"
"2016-01-05 00:00","2016","01","05","00:00","-14.1","","-20.7","","58","","35","","14","","24.1","","101.52","","","","-22","","NA"
"2016-01-05 01:00","2016","01","05","01:00","-14.6","","-20.4","","62","","1","","4","","24.1","","101.51","","","","-17","","Clear"
"2016-01-05 02:00","2016","01","05","02:00","-14.8","","-20.6","","62","","34","","8","","24.1","","101.52","","","","-20","","NA"
"2016-01-05 03:00","2016","01","05","03:00","-14.6","","-20.2","","63","","33","","5","","24.1","","101.59","","","","-18","","NA"
"2016-01-05 04:00","2016","01","05","04:00","-14.6","","-19.8","","65","","29","","5","","24.1","","101.54","","","","-18","","Clear"
"2016-01-05 05:00","2016","01","05","05:00","-14.7","","-19.6","","67","","29","","8","","24.1","","101.53","","","","-20","","NA"
"2016-01-05 06:00","2016","01","05","06:00","-14.9","","-19.6","","68","","29","","7","","24.1","","101.56","","","","-20","","NA"
"2016-01-05 07:00","2016","01","05","07:00","-14.0","","-19.1","","66","","25","","5","","24.1","","101.59","","","","-17","","Mainly Clear"
"2016-01-05 08:00","2016","01","05","08:00","-13.6","","-18.7","","66","","25","","7","","24.1","","101.61","","","","-18","","NA"
"2016-01-05 09:00","2016","01","05","09:00","-12.0","","-17.1","","66","","26","","11","","24.1","","101.66","","","","-18","","NA"
"2016-01-05 10:00","2016","01","05","10:00","-10.1","","-16.3","","61","","23","","9","","24.1","","101.67","","","","-15","","Mainly Clear"
"2016-01-05 11:00","2016","01","05","11:00","-7.5","","-14.2","","59","","24","","14","","24.1","","101.64","","","","-13","","NA"
"2016-01-05 12:00","2016","01","05","12:00","-6.3","","-13.7","","56","","23","","15","","24.1","","101.57","","","","-12","","NA"
"2016-01-05 13:00","2016","01","05","13:00","-4.6","","-16.3","","40","","22","","20","","24.1","","101.50","","","","-11","","Mainly Clear"
"2016-01-05 14:00","2016","01","05","14:00","-3.6","","-14.5","","43","","23","","14","","24.1","","101.43","","","","-9","","NA"
"2016-01-05 15:00","2016","01","05","15:00","-2.7","","-12.0","","49","","23","","17","","24.1","","101.33","","","","-8","","NA"
"2016-01-05 16:00","2016","01","05","16:00","-3.2","","-10.6","","57","","22","","16","","24.1","","101.27","","","","-9","","Mainly Clear"
"2016-01-05 17:00","2016","01","05","17:00","-3.9","","-10.0","","63","","21","","14","","24.1","","101.17","","","","-9","","NA"
"2016-01-05 18:00","2016","01","05","18:00","-4.0","","-9.7","","65","","20","","17","","24.1","","101.13","","","","-10","","NA"
"2016-01-05 19:00","2016","01","05","19:00","-4.4","","-9.5","","68","","21","","16","","24.1","","101.09","","","","-10","","Mainly Clear"
"2016-01-05 20:00","2016","01","05","20:00","-5.0","","-9.5","","71","","22","","18","","24.1","","101.14","","","","-11","","NA"
"2016-01-05 21:00","2016","01","05","21:00","-5.5","","-9.6","","73","","21","","17","","24.1","","101.10","","","","-12","","NA"
"2016-01-05 22:00","2016","01","05","22:00","-5.6","","-9.9","","72","","21","","13","","24.1","","101.06","","","","-11","","Clear"
"2016-01-05 23:00","2016","01","05","23:00","-5.1","","-10.1","","68","","21","","17","","24.1","","101.03","","","","-11","","NA"
"2016-01-06 00:00","2016","01","06","00:00","-5.2","","-9.7","","71","","22","","17","","24.1","","101.02","","","","-11","","NA"
"2016-01-06 01:00","2016","01","06","01:00","-5.0","","-10.0","","68","","22","","18","","24.1","","100.92","","","","-11","","Clear"
"2016-01-06 02:00","2016","01","06","02:00","-6.8","","-10.5","","75","","24","","7","","24.1","","100.91","","","","-10","","NA"
"2016-01-06 03:00","2016","01","06","03:00","-6.0","","-9.9","","74","","36","","1","","24.1","","100.90","","","","-6","","NA"
"2016-01-06 04:00","2016","01","06","04:00","-5.4","","-9.5","","73","","21","","9","","24.1","","100.86","","","","-9","","Mainly Clear"
"2016-01-06 05:00","2016","01","06","05:00","-5.2","","-9.3","","73","","22","","5","","24.1","","100.83","","","","-7","","NA"
"2016-01-06 06:00","2016","01","06","06:00","-5.0","","-9.3","","72","","36","","2","","24.1","","100.86","","","","-6","","NA"
"2016-01-06 07:00","2016","01","06","07:00","-5.0","","-8.6","","76","","23","","9","","24.1","","100.87","","","","-9","","Mostly Cloudy"
"2016-01-06 08:00","2016","01","06","08:00","-4.2","","-8.3","","73","","18","","6","","24.1","","100.85","","","","-7","","NA"
"2016-01-06 09:00","2016","01","06","09:00","-3.2","","-8.9","","65","","23","","14","","24.1","","100.85","","","","-8","","NA"
"2016-01-06 10:00","2016","01","06","10:00","-2.6","","-9.6","","59","","21","","14","","24.1","","100.84","","","","-7","","Mostly Cloudy"
"2016-01-06 11:00","2016","01","06","11:00","-1.1","","-9.5","","53","","21","","11","","24.1","","100.81","","","","-5","","NA"
"2016-01-06 12:00","2016","01","06","12:00","0.9","","-10.0","","44","","20","","12","","24.1","","100.71","","","","","","NA"
"2016-01-06 13:00","2016","01","06","13:00","1.2","","-10.7","","41","","20","","14","","24.1","","100.61","","","","","","Mostly Cloudy"
"2016-01-06 14:00","2016","01","06","14:00","1.8","","-10.8","","39","","22","","15","","24.1","","100.56","","","","","","NA"
"2016-01-06 15:00","2016","01","06","15:00","2.4","","-10.9","","37","","22","","17","","24.1","","100.50","","","","","","NA"
"2016-01-06 16:00","2016","01","06","16:00","1.2","","-11.3","","39","","21","","17","","24.1","","100.49","","","","","","Mostly Cloudy"
"2016-01-06 17:00","2016","01","06","17:00","0.4","","-9.7","","47","","21","","8","","24.1","","100.47","","","","","","NA"
"2016-01-06 18:00","2016","01","06","18:00","0.2","","-9.3","","49","","18","","9","","24.1","","100.47","","","","","","NA"
"2016-01-06 19:00","2016","01","06","19:00","-0.4","","-8.9","","53","","17","","4","","24.1","","100.48","","","","-2","","Mostly Cloudy"
"2016-01-06 20:00","2016","01","06","20:00","-0.7","","-6.3","","66","","20","","9","","24.1","","100.52","","","","-4","","NA"
"2016-01-06 21:00","2016","01","06","21:00","-1.3","","-5.9","","71","","20","","7","","24.1","","100.49","","","","-4","","NA"
"2016-01-06 22:00","2016","01","06","22:00","-1.5","","-5.7","","73","","19","","4","","24.1","","100.51","","","","-3","","Mainly Clear"
"2016-01-06 23:00","2016","01","06","23:00","-1.6","","-5.8","","73","","17","","4","","24.1","","100.51","","","","-3","","NA"
"2016-01-07 00:00","2016","01","07","00:00","-2.0","","-5.9","","75","","20","","12","","24.1","","100.48","","","","-6","","NA"
"2016-01-07 01:00","2016","01","07","01:00","-3.1","","-6.4","","78","","23","","5","","24.1","","100.45","","","","-5","","Mainly Clear"
"2016-01-07 02:00","2016","01","07","02:00","-3.4","","-6.0","","82","","24","","5","","24.1","","100.43","","","","-5","","NA"
"2016-01-07 03:00","2016","01","07","03:00","-4.2","","-7.0","","81","","27","","3","","24.1","","100.43","","","","-5","","NA"
"2016-01-07 04:00","2016","01","07","04:00","-4.5","","-6.3","","87","","0","","1","","24.1","","100.40","","","","-5","","Mostly Cloudy"
"2016-01-07 05:00","2016","01","07","05:00","-4.5","","-6.7","","85","","36","","2","","24.1","","100.37","","","","-5","","NA"
"2016-01-07 06:00","2016","01","07","06:00","-4.1","","-6.6","","83","","36","","1","","24.1","","100.37","","","","-5","","NA"
"2016-01-07 07:00","2016","01","07","07:00","-3.1","","-7.1","","74","","0","","1","","24.1","","100.37","","","","-4","","Mostly Cloudy"
"2016-01-07 08:00","2016","01","07","08:00","-4.0","","-7.1","","79","","24","","7","","19.3","","100.38","","","","-7","","NA"
"2016-01-07 09:00","2016","01","07","09:00","-2.9","","-6.7","","75","","25","","4","","16.1","","100.36","","","","-4","","NA"
"2016-01-07 10:00","2016","01","07","10:00","-0.5","","-4.9","","72","","26","","4","","19.3","","100.39","","","","-2","","Mostly Cloudy"
"2016-01-07 11:00","2016","01","07","11:00","0.6","","-5.0","","66","","17","","6","","19.3","","100.36","","","","","","NA"
"2016-01-07 12:00","2016","01","07","12:00","2.1","","-5.8","","56","","18","","4","","24.1","","100.28","","","","","","NA"
"2016-01-07 13:00","2016","01","07","13:00","3.5","","-6.2","","49","","20","","9","","24.1","","100.24","","","","","","Mostly Cloudy"
"2016-01-07 14:00","2016","01","07","14:00","3.8","","-6.2","","48","","18","","9","","24.1","","100.17","","","","","","NA"
"2016-01-07 15:00","2016","01","07","15:00","3.0","","-4.2","","59","","13","","10","","24.1","","100.14","","","","","","NA"
"2016-01-07 16:00","2016","01","07","16:00","2.5","","-4.3","","61","","14","","10","","24.1","","100.13","","","","","","Mostly Cloudy"
"2016-01-07 17:00","2016","01","07","17:00","1.6","","-4.1","","66","","12","","7","","24.1","","100.14","","","","","","NA"
"2016-01-07 18:00","2016","01","07","18:00","0.7","","-3.8","","72","","12","","7","","24.1","","100.11","","","","","","NA"
"2016-01-07 19:00","2016","01","07","19:00","0.8","","-2.8","","77","","15","","7","","24.1","","100.17","","","","","","Clear"
"2016-01-07 20:00","2016","01","07","20:00","0.0","","-3.4","","78","","7","","6","","24.1","","100.19","","","","-2","","NA"
"2016-01-07 21:00","2016","01","07","21:00","-0.6","","-3.5","","81","","4","","7","","24.1","","100.18","","","","-3","","NA"
"2016-01-07 22:00","2016","01","07","22:00","-1.1","","-4.0","","81","","2","","7","","24.1","","100.16","","","","-4","","Clear"
"2016-01-07 23:00","2016","01","07","23:00","-1.9","","-3.9","","86","","4","","10","","24.1","","100.12","","","","-6","","NA"
"2016-01-08 00:00","2016","01","08","00:00","-3.1","","-5.0","","87","","4","","8","","24.1","","100.06","","","","-6","","NA"
"2016-01-08 01:00","2016","01","08","01:00","-3.3","","-5.2","","87","","0","","1","","24.1","","99.99","","","","-4","","Clear"
"2016-01-08 02:00","2016","01","08","02:00","-4.0","","-5.6","","89","","32","","6","","24.1","","99.98","","","","-7","","NA"
"2016-01-08 03:00","2016","01","08","03:00","-3.8","","-5.2","","90","","1","","5","","19.3","","99.99","","","","-6","","NA"
"2016-01-08 04:00","2016","01","08","04:00","-4.1","","-5.5","","90","","3","","12","","19.3","","99.88","","","","-9","","Clear"
"2016-01-08 05:00","2016","01","08","05:00","-4.0","","-5.3","","91","","3","","5","","12.9","","99.88","","","","-6","","NA"
"2016-01-08 06:00","2016","01","08","06:00","-4.3","","-5.7","","90","","2","","5","","9.7","","99.85","","","","-6","","Fog"
"2016-01-08 07:00","2016","01","08","07:00","-1.7","","-2.8","","92","","4","","8","","9.7","","99.85","","","","-5","","Fog"
"2016-01-08 08:00","2016","01","08","08:00","-1.6","","-2.7","","92","","5","","5","","4.8","","99.85","","","","-3","","Fog"
"2016-01-08 09:00","2016","01","08","09:00","-0.2","","-1.2","","93","","5","","8","","6.4","","99.80","","","","-3","","Fog"
"2016-01-08 10:00","2016","01","08","10:00","1.3","","-0.2","","90","","8","","16","","9.7","","99.74","","","","","","Fog"
"2016-01-08 11:00","2016","01","08","11:00","2.3","","0.0","","85","","7","","13","","12.9","","99.70","","","","","","NA"
"2016-01-08 12:00","2016","01","08","12:00","3.1","","-0.5","","77","","9","","14","","24.1","","99.62","","","","","","NA"
"2016-01-08 13:00","2016","01","08","13:00","3.7","","-1.3","","70","","9","","17","","24.1","","99.49","","","","","","Cloudy"
"2016-01-08 14:00","2016","01","08","14:00","3.2","","-0.8","","75","","8","","21","","24.1","","99.40","","","","","","NA"
"2016-01-08 15:00","2016","01","08","15:00","2.7","","-1.1","","76","","7","","19","","24.1","","99.37","","","","","","NA"
"2016-01-08 16:00","2016","01","08","16:00","2.6","","-0.9","","78","","11","","16","","24.1","","99.37","","","","","","Cloudy"
"2016-01-08 17:00","2016","01","08","17:00","2.7","","-2.2","","70","","10","","17","","24.1","","99.35","","","","","","NA"
"2016-01-08 18:00","2016","01","08","18:00","2.6","","-2.7","","68","","10","","10","","19.3","","99.30","","","","","","NA"
"2016-01-08 19:00","2016","01","08","19:00","2.6","","-2.1","","71","","10","","8","","24.1","","99.25","","","","","","Cloudy"
"2016-01-08 20:00","2016","01","08","20:00","3.0","","-0.6","","77","","15","","10","","19.3","","99.26","","","","","","Rain"
"2016-01-08 21:00","2016","01","08","21:00","2.4","","0.0","","84","","14","","10","","19.3","","99.22","","","","","","Rain"
"2016-01-08 22:00","2016","01","08","22:00","2.1","","0.0","","86","","12","","9","","19.3","","99.17","","","","","","Rain"
"2016-01-08 23:00","2016","01","08","23:00","2.0","","0.8","","92","","13","","9","","8.1","","99.12","","","","","","Rain,Fog"
"2016-01-09 00:00","2016","01","09","00:00","2.4","","1.5","","94","","15","","14","","2.4","","99.09","","","","","","Drizzle,Fog"
"2016-01-09 01:00","2016","01","09","01:00","2.8","","2.1","","95","","15","","15","","1.2","","99.06","","","","","","Rain Showers,Fog"
"2016-01-09 02:00","2016","01","09","02:00","3.2","","2.5","","95","","14","","10","","0.4","","99.02","","","","","","Fog"
"2016-01-09 03:00","2016","01","09","03:00","3.5","","2.8","","95","","15","","7","","0.2","","99.03","","","","","","Fog"
"2016-01-09 04:00","2016","01","09","04:00","4.2","","3.6","","96","","15","","9","","0.2","","98.95","","","","","","Fog"
"2016-01-09 05:00","2016","01","09","05:00","4.3","","3.7","","96","","15","","12","","8.1","","98.89","","","","","","Fog"
"2016-01-09 06:00","2016","01","09","06:00","4.5","","3.9","","96","","16","","11","","9.7","","98.91","","","","","","Rain,Fog"
"2016-01-09 07:00","2016","01","09","07:00","4.7","","4.1","","96","","16","","14","","4.8","","98.94","","","","","","Rain,Fog"
"2016-01-09 08:00","2016","01","09","08:00","5.3","","4.7","","96","","18","","14","","3.6","","98.96","","","","","","Rain,Fog"
"2016-01-09 09:00","2016","01","09","09:00","6.2","","5.6","","96","","19","","12","","8.1","","98.99","","","","","","Fog"
"2016-01-09 10:00","2016","01","09","10:00","6.9","","6.2","","95","","19","","12","","8.1","","99.06","","","","","","Fog"
"2016-01-09 11:00","2016","01","09","11:00","7.2","","6.2","","93","","19","","14","","9.7","","99.10","","","","","","Fog"
"2016-01-09 12:00","2016","01","09","12:00","7.7","","6.2","","90","","20","","17","","11.3","","99.06","","","","","","NA"
"2016-01-09 13:00","2016","01","09","13:00","8.1","","6.2","","88","","21","","14","","11.3","","99.02","","","","","","Cloudy"
"2016-01-09 14:00","2016","01","09","14:00","8.3","","6.1","","86","","21","","12","","19.3","","99.01","","","","","","NA"
"2016-01-09 15:00","2016","01","09","15:00","8.4","","6.0","","85","","21","","13","","24.1","","99.05","","","","","","NA"
"2016-01-09 16:00","2016","01","09","16:00","8.5","","5.8","","83","","21","","7","","24.1","","99.08","","","","","","Mostly Cloudy"
"2016-01-09 17:00","2016","01","09","17:00","5.8","","4.1","","89","","24","","11","","24.1","","99.13","","","","","","NA"
"2016-01-09 18:00","2016","01","09","18:00","6.8","","4.6","","86","","21","","7","","24.1","","99.14","","","","","","NA"
"2016-01-09 19:00","2016","01","09","19:00","6.0","","4.2","","88","","10","","5","","24.1","","99.08","","","","","","Mostly Cloudy"
"2016-01-09 20:00","2016","01","09","20:00","6.0","","4.8","","92","","11","","6","","19.3","","99.08","","","","","","NA"
"2016-01-09 21:00","2016","01","09","21:00","6.2","","5.2","","93","","14","","7","","19.3","","99.02","","","","","","NA"
"2016-01-09 22:00","2016","01","09","22:00","6.4","","5.1","","91","","12","","11","","19.3","","98.91","","","","","","Rain"
"2016-01-09 23:00","2016","01","09","23:00","6.4","","3.9","","84","","13","","15","","19.3","","98.82","","","","","","NA"
"2016-01-10 00:00","2016","01","10","00:00","5.8","","3.7","","86","","12","","12","","24.1","","98.73","","","","","","NA"
"2016-01-10 01:00","2016","01","10","01:00","5.3","","3.3","","87","","11","","12","","24.1","","98.53","","","","","","Mostly Cloudy"
"2016-01-10 02:00","2016","01","10","02:00","5.6","","3.5","","86","","12","","13","","24.1","","98.44","","","","","","NA"
"2016-01-10 03:00","2016","01","10","03:00","5.8","","3.7","","86","","8","","14","","24.1","","98.28","","","","","","NA"
"2016-01-10 04:00","2016","01","10","04:00","5.8","","3.8","","87","","11","","16","","24.1","","98.18","","","","","","Cloudy"
"2016-01-10 05:00","2016","01","10","05:00","5.5","","4.5","","93","","10","","20","","19.3","","98.04","","","","","","Rain"
"2016-01-10 06:00","2016","01","10","06:00","5.7","","4.8","","94","","10","","13","","19.3","","97.89","","","","","","Rain"
"2016-01-10 07:00","2016","01","10","07:00","5.8","","5.1","","95","","6","","15","","8.1","","97.64","","","","","","Rain"
"2016-01-10 08:00","2016","01","10","08:00","6.0","","5.3","","95","","7","","13","","6.4","","97.43","","","","","","Moderate Rain"
"2016-01-10 09:00","2016","01","10","09:00","5.9","","5.0","","94","","9","","24","","9.7","","97.23","","","","","","Rain"
"2016-01-10 10:00","2016","01","10","10:00","5.8","","4.9","","94","","9","","22","","6.4","","97.06","","","","","","Rain"
"2016-01-10 11:00","2016","01","10","11:00","5.9","","5.2","","95","","9","","17","","11.3","","96.86","","","","","","Rain"
"2016-01-10 12:00","2016","01","10","12:00","6.5","","5.8","","95","","12","","10","","9.7","","96.65","","","","","","Rain"
"2016-01-10 13:00","2016","01","10","13:00","6.5","","5.8","","95","","18","","8","","1.0","","96.49","","","","","","Rain,Fog"
"2016-01-10 14:00","2016","01","10","14:00","6.3","","5.6","","95","","26","","23","","24.1","","96.49","","","","","","Rain"
"2016-01-10 15:00","2016","01","10","15:00","2.1","","-0.7","","82","","29","","36","","19.3","","96.64","","","","","","Rain"
"2016-01-10 16:00","2016","01","10","16:00","0.1","","-3.5","","77","","29","","57","","24.1","","96.82","","","","","","Cloudy"
"2016-01-10 17:00","2016","01","10","17:00","-0.8","","-4.5","","76","","29","","52","","24.1","","97.13","","","","-9","","NA"
"2016-01-10 18:00","2016","01","10","18:00","-1.5","","-7.1","","66","","27","","66","","24.1","","97.46","","","","-11","","NA"
"2016-01-10 19:00","2016","01","10","19:00","-2.6","","-7.7","","68","","27","","54","","24.1","","97.72","","","","-12","","Mostly Cloudy"
"2016-01-10 20:00","2016","01","10","20:00","-3.7","","-7.9","","73","","27","","50","","16.1","","97.88","","","","-13","","Snow Showers"
"2016-01-10 21:00","2016","01","10","21:00","-4.1","","-9.0","","69","","28","","43","","16.1","","97.97","","","","-13","","Snow Showers"
"2016-01-10 22:00","2016","01","10","22:00","-4.7","","-9.4","","70","","27","","38","","9.7","","98.11","","","","-13","","Snow Showers"
"2016-01-10 23:00","2016","01","10","23:00","-5.4","","-9.9","","71","","26","","32","","16.1","","98.26","","","","-14","","Snow Showers"
"2016-01-11 00:00","2016","01","11","00:00","-6.2","","-9.9","","75","","26","","42","","4.0","","98.36","","","","-16","","Snow Showers"
"2016-01-11 01:00","2016","01","11","01:00","-6.5","","-11.9","","66","","27","","30","","24.1","","98.46","","","","-15","","Mostly Cloudy"
"2016-01-11 02:00","2016","01","11","02:00","-7.0","","-10.1","","79","","27","","32","","1.6","","98.57","","","","-16","","Snow Showers,Blowing Snow"
"2016-01-11 03:00","2016","01","11","03:00","-7.5","","-13.6","","62","","26","","37","","24.1","","98.64","","","","-17","","NA"
"2016-01-11 04:00","2016","01","11","04:00","-7.9","","-14.8","","58","","26","","42","","24.1","","98.70","","","","-18","","Mostly Cloudy"
"2016-01-11 05:00","2016","01","11","05:00","-8.2","","-14.3","","62","","25","","34","","24.1","","98.76","","","","-18","","NA"
"2016-01-11 06:00","2016","01","11","06:00","-8.5","","-13.2","","69","","25","","27","","24.1","","98.83","","","","-17","","NA"
"2016-01-11 07:00","2016","01","11","07:00","-8.4","","-13.9","","65","","26","","35","","24.1","","98.89","","","","-18","","Mostly Cloudy"
"2016-01-11 08:00","2016","01","11","08:00","-8.6","","-13.7","","67","","27","","36","","24.1","","98.95","","","","-18","","NA"
"2016-01-11 09:00","2016","01","11","09:00","-8.2","","-14.1","","63","","26","","32","","24.1","","99.03","","","","-17","","NA"
"2016-01-11 10:00","2016","01","11","10:00","-7.6","","-13.3","","64","","26","","34","","24.1","","99.12","","","","-17","","Mostly Cloudy"
"2016-01-11 11:00","2016","01","11","11:00","-6.9","","-13.2","","61","","25","","37","","24.1","","99.18","","","","-16","","NA"
"2016-01-11 12:00","2016","01","11","12:00","-6.7","","-13.2","","60","","26","","43","","24.1","","99.16","","","","-17","","NA"
"2016-01-11 13:00","2016","01","11","13:00","-6.7","","-13.2","","60","","25","","40","","24.1","","99.18","","","","-16","","Mostly Cloudy"
"2016-01-11 14:00","2016","01","11","14:00","-6.6","","-14.5","","54","","26","","36","","24.1","","99.20","","","","-16","","NA"
"2016-01-11 15:00","2016","01","11","15:00","-6.6","","-14.7","","53","","27","","35","","24.1","","99.27","","","","-16","","NA"
"2016-01-11 16:00","2016","01","11","16:00","-7.5","","-15.5","","53","","25","","32","","24.1","","99.32","","","","-17","","Mainly Clear"
"2016-01-11 17:00","2016","01","11","17:00","-8.4","","-15.9","","55","","26","","30","","24.1","","99.37","","","","-17","","NA"
"2016-01-11 18:00","2016","01","11","18:00","-9.0","","-16.3","","56","","25","","30","","24.1","","99.40","","","","-18","","NA"
"2016-01-11 19:00","2016","01","11","19:00","-9.7","","-16.7","","57","","25","","24","","24.1","","99.42","","","","-18","","Mostly Cloudy"
"2016-01-11 20:00","2016","01","11","20:00","-10.0","","-16.8","","58","","25","","31","","24.1","","99.41","","","","-20","","NA"
"2016-01-11 21:00","2016","01","11","21:00","-10.3","","-16.5","","61","","26","","19","","24.1","","99.35","","","","-18","","NA"
"2016-01-11 22:00","2016","01","11","22:00","-10.2","","-16.4","","61","","23","","12","","24.1","","99.32","","","","-16","","Mostly Cloudy"
"2016-01-11 23:00","2016","01","11","23:00","-10.0","","-16.2","","61","","24","","11","","24.1","","99.27","","","","-16","","NA"
"2016-01-12 00:00","2016","01","12","00:00","-9.5","","-15.7","","61","","21","","10","","24.1","","99.20","","","","-15","","NA"
"2016-01-12 01:00","2016","01","12","01:00","-9.6","","-15.0","","65","","19","","5","","24.1","","99.11","","","","-12","","Snow"
"2016-01-12 02:00","2016","01","12","02:00","-9.6","","-14.3","","69","","12","","8","","16.1","","98.96","","","","-14","","Snow"
"2016-01-12 03:00","2016","01","12","03:00","-9.5","","-12.5","","79","","8","","7","","8.1","","98.79","","","","-13","","Snow"
"2016-01-12 04:00","2016","01","12","04:00","-8.7","","-10.9","","84","","9","","9","","3.2","","98.61","","","","-13","","Snow"
"2016-01-12 05:00","2016","01","12","05:00","-6.3","","-7.8","","89","","14","","16","","3.2","","98.41","","","","-12","","Snow"
"2016-01-12 06:00","2016","01","12","06:00","-5.3","","-7.0","","88","","14","","20","","3.2","","98.27","","","","-12","","Snow"
"2016-01-12 07:00","2016","01","12","07:00","-4.4","","-5.8","","90","","13","","18","","4.8","","98.11","","","","-10","","Snow"
"2016-01-12 08:00","2016","01","12","08:00","-3.0","","-4.3","","91","","17","","15","","0.8","","97.96","","","","-8","","Moderate Snow"
"2016-01-12 09:00","2016","01","12","09:00","-2.1","","-4.6","","83","","21","","17","","16.1","","97.91","","","","-7","","Snow"
"2016-01-12 10:00","2016","01","12","10:00","-2.2","","-5.9","","76","","22","","18","","24.1","","97.85","","","","-8","","Mostly Cloudy"
"2016-01-12 11:00","2016","01","12","11:00","-2.3","","-5.5","","79","","22","","14","","9.7","","97.82","","","","-7","","Snow"
"2016-01-12 12:00","2016","01","12","12:00","-2.1","","-5.8","","76","","23","","22","","9.7","","97.72","","","","-8","","Snow"
"2016-01-12 13:00","2016","01","12","13:00","-3.4","","-6.5","","79","","27","","26","","6.4","","97.71","","","","-10","","Snow"
"2016-01-12 14:00","2016","01","12","14:00","-5.5","","-9.6","","73","","28","","43","","6.4","","97.79","","","","-15","","Snow,Blowing Snow"
"2016-01-12 15:00","2016","01","12","15:00","-5.8","","-11.0","","67","","26","","35","","12.9","","97.85","","","","-15","","Snow,Blowing Snow"
"2016-01-12 16:00","2016","01","12","16:00","-6.6","","-11.0","","71","","25","","27","","9.7","","97.93","","","","-15","","Snow,Blowing Snow"
"2016-01-12 17:00","2016","01","12","17:00","-7.1","","-12.2","","67","","25","","32","","16.1","","97.96","","","","-16","","Snow,Blowing Snow"
"2016-01-12 18:00","2016","01","12","18:00","-7.5","","-10.4","","80","","25","","32","","9.7","","98.02","","","","-17","","Snow,Blowing Snow"
"2016-01-12 19:00","2016","01","12","19:00","-5.5","","-11.3","","64","","29","","41","","24.1","","98.17","","","","-15","","Blowing Snow"
"2016-01-12 20:00","2016","01","12","20:00","-6.1","","-12.1","","63","","29","","39","","24.1","","98.37","","","","-15","","Blowing Snow"
"2016-01-12 21:00","2016","01","12","21:00","-6.8","","-13.1","","61","","29","","37","","24.1","","98.49","","","","-16","","Blowing Snow"
"2016-01-12 22:00","2016","01","12","22:00","-6.9","","-14.3","","56","","29","","37","","24.1","","98.62","","","","-16","","Blowing Snow"
"2016-01-12 23:00","2016","01","12","23:00","-8.1","","-12.5","","71","","28","","22","","24.1","","98.77","","","","-16","","Blowing Snow"
"2016-01-13 00:00","2016","01","13","00:00","-8.0","","-14.3","","61","","28","","37","","24.1","","98.80","","","","-18","","Blowing Snow"
"2016-01-13 01:00","2016","01","13","01:00","-8.5","","-14.8","","61","","28","","36","","24.1","","98.85","","","","-18","","Blowing Snow"
"2016-01-13 02:00","2016","01","13","02:00","-9.1","","-14.7","","64","","28","","35","","24.1","","98.94","","","","-19","","Blowing Snow"
"2016-01-13 03:00","2016","01","13","03:00","-9.6","","-14.8","","66","","26","","30","","24.1","","99.07","","","","-19","","Blowing Snow"
"2016-01-13 04:00","2016","01","13","04:00","-9.8","","-14.5","","69","","27","","23","","24.1","","99.17","","","","-18","","Mainly Clear"
"2016-01-13 05:00","2016","01","13","05:00","-10.3","","-15.3","","67","","27","","17","","24.1","","99.26","","","","-18","","NA"
"2016-01-13 06:00","2016","01","13","06:00","-9.6","","-14.6","","67","","29","","18","","24.1","","99.36","","","","-17","","NA"
"2016-01-13 07:00","2016","01","13","07:00","-9.6","","-15.0","","65","","30","","21","","24.1","","99.39","","","","-18","","Snow Showers"
"2016-01-13 08:00","2016","01","13","08:00","-9.6","","-14.5","","68","","27","","13","","19.3","","99.40","","","","-16","","Snow Showers"
"2016-01-13 09:00","2016","01","13","09:00","-8.9","","-12.6","","75","","26","","21","","24.1","","99.45","","","","-17","","Snow Showers"
"2016-01-13 10:00","2016","01","13","10:00","-8.7","","-14.0","","66","","25","","24","","24.1","","99.48","","","","-17","","Mostly Cloudy"
"2016-01-13 11:00","2016","01","13","11:00","-8.2","","-14.7","","60","","26","","35","","24.1","","99.47","","","","-18","","NA"
"2016-01-13 12:00","2016","01","13","12:00","-7.2","","-14.4","","57","","26","","31","","24.1","","99.40","","","","-16","","NA"
"2016-01-13 13:00","2016","01","13","13:00","-7.8","","-14.1","","61","","25","","30","","24.1","","99.34","","","","-17","","Mostly Cloudy"
"2016-01-13 14:00","2016","01","13","14:00","-7.6","","-14.1","","60","","26","","30","","24.1","","99.26","","","","-16","","NA"
"2016-01-13 15:00","2016","01","13","15:00","-8.4","","-15.9","","55","","26","","35","","24.1","","99.23","","","","-18","","NA"
"2016-01-13 16:00","2016","01","13","16:00","-8.9","","-14.3","","65","","25","","18","","24.1","","99.21","","","","-16","","Snow Showers"
"2016-01-13 17:00","2016","01","13","17:00","-8.8","","-14.8","","62","","24","","27","","24.1","","99.20","","","","-18","","Snow Showers"
"2016-01-13 18:00","2016","01","13","18:00","-8.8","","-13.9","","67","","22","","26","","16.1","","99.16","","","","-17","","Snow Showers"
"2016-01-13 19:00","2016","01","13","19:00","-8.9","","-14.0","","67","","24","","22","","24.1","","99.13","","","","-17","","Cloudy"
"2016-01-13 20:00","2016","01","13","20:00","-8.4","","-14.5","","62","","24","","24","","24.1","","99.06","","","","-17","","NA"
"2016-01-13 21:00","2016","01","13","21:00","-7.9","","-14.8","","58","","23","","26","","19.3","","98.98","","","","-16","","NA"
"2016-01-13 22:00","2016","01","13","22:00","-8.2","","-12.2","","73","","24","","21","","9.7","","98.91","","","","-16","","Snow"
"2016-01-13 23:00","2016","01","13","23:00","-8.1","","-11.3","","78","","22","","15","","9.7","","98.82","","","","-14","","Snow"
"2016-01-14 00:00","2016","01","14","00:00","-8.1","","-10.7","","82","","23","","19","","6.4","","98.78","","","","-15","","Snow"
"2016-01-14 01:00","2016","01","14","01:00","-8.2","","-10.8","","82","","25","","21","","9.7","","98.68","","","","-16","","Snow"
"2016-01-14 02:00","2016","01","14","02:00","-8.3","","-12.5","","72","","26","","29","","24.1","","98.63","","","","-17","","NA"
"2016-01-14 03:00","2016","01","14","03:00","-8.4","","-12.8","","71","","26","","25","","24.1","","98.62","","","","-17","","NA"
"2016-01-14 04:00","2016","01","14","04:00","-8.3","","-12.7","","71","","25","","14","","24.1","","98.65","","","","-14","","Cloudy"
"2016-01-14 05:00","2016","01","14","05:00","-8.1","","-12.5","","71","","25","","17","","24.1","","98.66","","","","-15","","NA"
"2016-01-14 06:00","2016","01","14","06:00","-7.6","","-11.8","","72","","26","","19","","24.1","","98.69","","","","-15","","NA"
"2016-01-14 07:00","2016","01","14","07:00","-7.8","","-11.7","","74","","26","","21","","24.1","","98.73","","","","-15","","Mostly Cloudy"
"2016-01-14 08:00","2016","01","14","08:00","-6.9","","-10.8","","74","","23","","21","","24.1","","98.76","","","","-14","","NA"
"2016-01-14 09:00","2016","01","14","09:00","-6.2","","-10.3","","73","","24","","22","","24.1","","98.86","","","","-13","","NA"
"2016-01-14 10:00","2016","01","14","10:00","-5.6","","-9.7","","73","","24","","23","","24.1","","98.93","","","","-13","","Mostly Cloudy"
"2016-01-14 11:00","2016","01","14","11:00","-4.5","","-9.6","","68","","25","","26","","24.1","","98.92","","","","-12","","NA"
"2016-01-14 12:00","2016","01","14","12:00","-3.1","","-9.2","","63","","24","","29","","24.1","","98.89","","","","-10","","NA"
"2016-01-14 13:00","2016","01","14","13:00","-2.9","","-9.6","","60","","26","","26","","24.1","","98.85","","","","-10","","Mostly Cloudy"
"2016-01-14 14:00","2016","01","14","14:00","-2.6","","-9.1","","61","","26","","20","","24.1","","98.83","","","","-9","","NA"
"2016-01-14 15:00","2016","01","14","15:00","-2.7","","-9.0","","62","","29","","13","","24.1","","98.85","","","","-7","","NA"
"2016-01-14 16:00","2016","01","14","16:00","-2.9","","-8.4","","66","","25","","16","","24.1","","98.92","","","","-8","","Cloudy"
"2016-01-14 17:00","2016","01","14","17:00","-2.9","","-8.2","","67","","28","","10","","24.1","","98.96","","","","-7","","NA"
"2016-01-14 18:00","2016","01","14","18:00","-2.9","","-8.4","","66","","26","","4","","24.1","","99.01","","","","-4","","NA"
"2016-01-14 19:00","2016","01","14","19:00","-3.3","","-6.8","","77","","18","","4","","12.9","","99.05","","","","-5","","Snow"
"2016-01-14 20:00","2016","01","14","20:00","-3.3","","-6.4","","79","","15","","6","","19.3","","99.07","","","","-6","","Snow"
"2016-01-14 21:00","2016","01","14","21:00","-3.3","","-6.1","","81","","11","","6","","19.3","","99.00","","","","-6","","Snow"
"2016-01-14 22:00","2016","01","14","22:00","-3.2","","-5.9","","82","","11","","7","","24.1","","98.95","","","","-6","","Cloudy"
"2016-01-14 23:00","2016","01","14","23:00","-2.8","","-5.3","","83","","10","","8","","19.3","","98.92","","","","-6","","NA"
"2016-01-15 00:00","2016","01","15","00:00","-2.5","","-4.5","","86","","7","","11","","16.1","","98.86","","","","-7","","NA"
"2016-01-15 01:00","2016","01","15","01:00","-2.8","","-4.7","","87","","6","","10","","16.1","","98.85","","","","-7","","Cloudy"
"2016-01-15 02:00","2016","01","15","02:00","-2.8","","-4.5","","88","","6","","7","","16.1","","98.83","","","","-6","","NA"
"2016-01-15 03:00","2016","01","15","03:00","-2.8","","-4.5","","88","","6","","10","","12.9","","98.79","","","","-7","","NA"
"2016-01-15 04:00","2016","01","15","04:00","-2.3","","-4.0","","88","","6","","5","","12.9","","98.74","","","","-4","","Cloudy"
"2016-01-15 05:00","2016","01","15","05:00","-1.5","","-3.4","","87","","3","","10","","16.1","","98.70","","","","-5","","NA"
"2016-01-15 06:00","2016","01","15","06:00","0.7","","-0.9","","89","","10","","10","","16.1","","98.60","","","","","","NA"
"2016-01-15 07:00","2016","01","15","07:00","1.1","","-0.8","","87","","9","","10","","16.1","","98.62","","","","","","Cloudy"
"2016-01-15 08:00","2016","01","15","08:00","0.7","","-0.6","","91","","9","","9","","8.1","","98.58","","","","","","Fog"
"2016-01-15 09:00","2016","01","15","09:00","0.9","","-0.4","","91","","9","","17","","8.1","","98.52","","","","","","Fog"
"2016-01-15 10:00","2016","01","15","10:00","1.5","","0.2","","91","","10","","13","","8.1","","98.46","","","","","","Fog"
"2016-01-15 11:00","2016","01","15","11:00","1.3","","0.0","","91","","13","","4","","8.1","","98.42","","","","","","Fog"
"2016-01-15 12:00","2016","01","15","12:00","2.0","","0.4","","89","","10","","14","","9.7","","98.35","","","","","","Fog"
"2016-01-15 13:00","2016","01","15","13:00","2.4","","0.9","","90","","10","","15","","9.7","","98.18","","","","","","Fog"
"2016-01-15 14:00","2016","01","15","14:00","2.6","","1.0","","89","","10","","13","","9.7","","98.12","","","","","","Fog"
"2016-01-15 15:00","2016","01","15","15:00","1.8","","0.3","","90","","8","","17","","9.7","","98.03","","","","","","Fog"
"2016-01-15 16:00","2016","01","15","16:00","1.6","","0.1","","90","","9","","17","","9.7","","98.02","","","","","","Fog"
"2016-01-15 17:00","2016","01","15","17:00","1.4","","-0.1","","90","","9","","17","","9.7","","97.93","","","","","","Fog"
"2016-01-15 18:00","2016","01","15","18:00","1.4","","-0.2","","89","","10","","18","","9.7","","97.91","","","","","","Rain,Fog"
"2016-01-15 19:00","2016","01","15","19:00","1.8","","0.3","","90","","11","","11","","9.7","","97.85","","","","","","Rain,Fog"
"2016-01-15 20:00","2016","01","15","20:00","2.6","","1.3","","91","","11","","16","","9.7","","97.74","","","","","","Rain,Fog"
"2016-01-15 21:00","2016","01","15","21:00","3.3","","2.3","","93","","12","","18","","6.4","","97.65","","","","","","Rain,Fog"
"2016-01-15 22:00","2016","01","15","22:00","3.5","","2.5","","93","","12","","14","","6.4","","97.50","","","","","","Rain,Fog"
"2016-01-15 23:00","2016","01","15","23:00","3.8","","2.5","","91","","21","","7","","6.4","","97.51","","","","","","Rain,Fog"
"2016-01-16 00:00","2016","01","16","00:00","4.0","","1.9","","86","","21","","16","","9.7","","97.42","","","","","","Rain,Fog"
"2016-01-16 01:00","2016","01","16","01:00","3.4","","1.8","","89","","19","","14","","9.7","","97.31","","","","","","Rain,Fog"
"2016-01-16 02:00","2016","01","16","02:00","3.3","","1.8","","90","","18","","15","","12.9","","97.26","","","","","","Rain,Fog"
"2016-01-16 03:00","2016","01","16","03:00","3.2","","1.9","","91","","20","","16","","16.1","","97.25","","","","","","NA"
"2016-01-16 04:00","2016","01","16","04:00","3.0","","1.5","","90","","23","","17","","19.3","","97.26","","","","","","Cloudy"
"2016-01-16 05:00","2016","01","16","05:00","2.9","","1.1","","88","","26","","20","","24.1","","97.29","","","","","","NA"
"2016-01-16 06:00","2016","01","16","06:00","2.5","","0.6","","87","","25","","18","","24.1","","97.36","","","","","","NA"
"2016-01-16 07:00","2016","01","16","07:00","2.3","","0.4","","87","","25","","20","","24.1","","97.42","","","","","","Mostly Cloudy"
"2016-01-16 08:00","2016","01","16","08:00","0.6","","-2.5","","80","","27","","36","","24.1","","97.62","","","","","","NA"
"2016-01-16 09:00","2016","01","16","09:00","0.1","","-3.1","","79","","28","","21","","24.1","","97.79","","","","","","NA"
"2016-01-16 10:00","2016","01","16","10:00","-0.6","","-4.3","","76","","28","","27","","24.1","","97.92","","","","-7","","Mostly Cloudy"
"2016-01-16 11:00","2016","01","16","11:00","-0.6","","-6.0","","67","","28","","32","","24.1","","98.01","","","","-7","","NA"
"2016-01-16 12:00","2016","01","16","12:00","-0.2","","-6.2","","64","","29","","40","","24.1","","98.04","","","","-8","","NA"
"2016-01-16 13:00","2016","01","16","13:00","-0.7","","-7.8","","59","","29","","44","","24.1","","98.05","","","","-9","","Mainly Clear"
"2016-01-16 14:00","2016","01","16","14:00","-1.3","","-7.7","","62","","28","","33","","24.1","","98.14","","","","-8","","NA"
"2016-01-16 15:00","2016","01","16","15:00","-2.0","","-8.8","","60","","29","","49","","24.1","","98.28","","","","-11","","NA"
"2016-01-16 16:00","2016","01","16","16:00","-2.5","","-8.6","","63","","29","","31","","24.1","","98.40","","","","-10","","Mostly Cloudy"
"2016-01-16 17:00","2016","01","16","17:00","-2.8","","-9.5","","60","","29","","40","","24.1","","98.56","","","","-11","","NA"
"2016-01-16 18:00","2016","01","16","18:00","-3.0","","-9.3","","62","","29","","22","","24.1","","98.65","","","","-9","","NA"
"2016-01-16 19:00","2016","01","16","19:00","-3.3","","-8.2","","69","","28","","18","","24.1","","98.72","","","","-9","","Cloudy"
"2016-01-16 20:00","2016","01","16","20:00","-3.6","","-7.8","","73","","27","","17","","24.1","","98.79","","","","-9","","NA"
"2016-01-16 21:00","2016","01","16","21:00","-4.1","","-6.9","","81","","24","","11","","24.1","","98.79","","","","-9","","NA"
"2016-01-16 22:00","2016","01","16","22:00","-3.7","","-6.7","","80","","24","","13","","24.1","","98.84","","","","-9","","Cloudy"
"2016-01-16 23:00","2016","01","16","23:00","-3.1","","-6.8","","76","","24","","14","","19.3","","98.86","","","","-8","","Snow"
"2016-01-17 00:00","2016","01","17","00:00","-3.1","","-8.0","","69","","22","","12","","24.1","","98.89","","","","-8","","NA"
"2016-01-17 01:00","2016","01","17","01:00","-3.2","","-8.1","","69","","22","","16","","24.1","","98.87","","","","-9","","Cloudy"
"2016-01-17 02:00","2016","01","17","02:00","-2.9","","-7.6","","70","","21","","14","","24.1","","98.83","","","","-8","","NA"
"2016-01-17 03:00","2016","01","17","03:00","-2.5","","-8.0","","66","","20","","18","","24.1","","98.89","","","","-8","","NA"
"2016-01-17 04:00","2016","01","17","04:00","-2.2","","-9.0","","60","","20","","18","","24.1","","98.81","","","","-8","","Cloudy"
"2016-01-17 05:00","2016","01","17","05:00","-2.0","","-8.1","","63","","21","","19","","24.1","","98.78","","","","-8","","NA"
"2016-01-17 06:00","2016","01","17","06:00","-1.7","","-8.5","","60","","23","","13","","24.1","","98.71","","","","-6","","NA"
"2016-01-17 07:00","2016","01","17","07:00","-1.5","","-8.3","","60","","22","","14","","24.1","","98.80","","","","-6","","Cloudy"
"2016-01-17 08:00","2016","01","17","08:00","-1.7","","-7.6","","64","","20","","10","","24.1","","98.77","","","","-5","","NA"
"2016-01-17 09:00","2016","01","17","09:00","-1.6","","-7.4","","65","","21","","11","","24.1","","98.73","","","","-5","","NA"
"2016-01-17 10:00","2016","01","17","10:00","-1.3","","-7.1","","65","","23","","13","","19.3","","98.71","","","","-6","","Snow"
"2016-01-17 11:00","2016","01","17","11:00","-1.1","","-7.3","","63","","22","","24","","24.1","","98.73","","","","-7","","Snow"
"2016-01-17 12:00","2016","01","17","12:00","-2.5","","-7.6","","68","","29","","29","","19.3","","98.67","","","","-10","","Snow"
"2016-01-17 13:00","2016","01","17","13:00","-3.0","","-9.1","","63","","27","","23","","19.3","","98.63","","","","-9","","Cloudy"
"2016-01-17 14:00","2016","01","17","14:00","-3.6","","-10.5","","59","","29","","28","","24.1","","98.58","","","","-11","","NA"
"2016-01-17 15:00","2016","01","17","15:00","-4.9","","-12.9","","54","","27","","28","","24.1","","98.62","","","","-13","","NA"
"2016-01-17 16:00","2016","01","17","16:00","-6.2","","-12.6","","61","","27","","21","","24.1","","98.65","","","","-13","","Cloudy"
"2016-01-17 17:00","2016","01","17","17:00","-7.2","","-13.3","","62","","28","","27","","24.1","","98.66","","","","-15","","NA"
"2016-01-17 18:00","2016","01","17","18:00","-8.5","","-15.2","","59","","26","","31","","24.1","","98.70","","","","-18","","NA"
"2016-01-17 19:00","2016","01","17","19:00","-9.2","","-14.1","","68","","27","","27","","24.1","","98.71","","","","-18","","Mostly Cloudy"
"2016-01-17 20:00","2016","01","17","20:00","-10.2","","-16.0","","63","","26","","26","","24.1","","98.71","","","","-19","","NA"
"2016-01-17 21:00","2016","01","17","21:00","-10.3","","-15.1","","68","","26","","29","","24.1","","98.66","","","","-20","","NA"
"2016-01-17 22:00","2016","01","17","22:00","-10.5","","-14.8","","71","","24","","26","","24.1","","98.65","","","","-20","","Mainly Clear"
"2016-01-17 23:00","2016","01","17","23:00","-10.1","","-14.2","","72","","25","","30","","24.1","","98.66","","","","-20","","NA"
"2016-01-18 00:00","2016","01","18","00:00","-9.7","","-14.2","","70","","26","","22","","24.1","","98.70","","","","-18","","NA"
"2016-01-18 01:00","2016","01","18","01:00","-9.3","","-15.7","","60","","29","","27","","24.1","","98.70","","","","-18","","Mostly Cloudy"
"2016-01-18 02:00","2016","01","18","02:00","-10.2","","-19.8","","46","","30","","28","","24.1","","98.78","","","","-19","","NA"
"2016-01-18 03:00","2016","01","18","03:00","-10.8","","-20.6","","45","","29","","31","","24.1","","98.87","","","","-21","","NA"
"2016-01-18 04:00","2016","01","18","04:00","-10.4","","-20.0","","46","","28","","27","","24.1","","98.91","","","","-20","","Mostly Cloudy"
"2016-01-18 05:00","2016","01","18","05:00","-10.5","","-17.3","","58","","28","","27","","24.1","","98.93","","","","-20","","NA"
"2016-01-18 06:00","2016","01","18","06:00","-11.3","","-16.8","","64","","28","","20","","24.1","","98.96","","","","-20","","NA"
"2016-01-18 07:00","2016","01","18","07:00","-11.2","","-16.2","","67","","29","","16","","24.1","","98.99","","","","-18","","Mainly Clear"
"2016-01-18 08:00","2016","01","18","08:00","-11.0","","-14.3","","77","","31","","13","","4.0","","99.00","","","","-17","","Snow Showers"
"2016-01-18 09:00","2016","01","18","09:00","-10.7","","-13.7","","79","","30","","20","","1.2","","99.06","","","","-19","","Snow Showers"
"2016-01-18 10:00","2016","01","18","10:00","-10.4","","-14.0","","75","","29","","21","","4.8","","99.09","","","","-19","","Snow Showers"
"2016-01-18 11:00","2016","01","18","11:00","-10.1","","-14.1","","73","","30","","25","","2.4","","99.13","","","","-19","","Snow Showers"
"2016-01-18 12:00","2016","01","18","12:00","-9.1","","-14.9","","63","","29","","23","","24.1","","99.11","","","","-17","","NA"
"2016-01-18 13:00","2016","01","18","13:00","-8.2","","-15.7","","55","","28","","32","","24.1","","99.09","","","","-17","","Mostly Cloudy"
"2016-01-18 14:00","2016","01","18","14:00","-8.4","","-16.8","","51","","31","","40","","24.1","","99.14","","","","-19","","NA"
"2016-01-18 15:00","2016","01","18","15:00","-8.2","","-16.9","","50","","31","","31","","24.1","","99.19","","","","-17","","NA"
"2016-01-18 16:00","2016","01","18","16:00","-9.0","","-17.2","","52","","30","","31","","24.1","","99.30","","","","-18","","Mainly Clear"
"2016-01-18 17:00","2016","01","18","17:00","-9.5","","-17.2","","54","","30","","22","","24.1","","99.35","","","","-18","","NA"
"2016-01-18 18:00","2016","01","18","18:00","-9.8","","-16.0","","61","","31","","19","","16.1","","99.43","","","","-17","","Snow"
"2016-01-18 19:00","2016","01","18","19:00","-10.0","","-14.5","","70","","28","","8","","16.1","","99.48","","","","-14","","Snow"
"2016-01-18 20:00","2016","01","18","20:00","-10.2","","-13.3","","78","","29","","15","","9.7","","99.53","","","","-17","","Snow"
"2016-01-18 21:00","2016","01","18","21:00","-10.1","","-12.8","","81","","28","","11","","6.4","","99.53","","","","-16","","Snow"
"2016-01-18 22:00","2016","01","18","22:00","-9.8","","-13.6","","74","","27","","17","","24.1","","99.56","","","","-17","","Snow"
"2016-01-18 23:00","2016","01","18","23:00","-10.0","","-16.0","","62","","28","","19","","24.1","","99.60","","","","-18","","NA"
"2016-01-19 00:00","2016","01","19","00:00","-10.8","","-16.6","","63","","30","","20","","24.1","","99.65","","","","-19","","NA"
"2016-01-19 01:00","2016","01","19","01:00","-11.8","","-17.1","","65","","30","","18","","24.1","","99.68","","","","-20","","Mainly Clear"
"2016-01-19 02:00","2016","01","19","02:00","-12.8","","-17.0","","71","","33","","19","","24.1","","99.76","","","","-21","","NA"
"2016-01-19 03:00","2016","01","19","03:00","-14.0","","-17.9","","73","","32","","22","","24.1","","99.86","","","","-23","","NA"
"2016-01-19 04:00","2016","01","19","04:00","-13.9","","-17.4","","75","","31","","16","","24.1","","99.86","","","","-22","","Mostly Cloudy"
"2016-01-19 05:00","2016","01","19","05:00","-11.5","","-17.4","","62","","30","","24","","24.1","","99.91","","","","-21","","NA"
"2016-01-19 06:00","2016","01","19","06:00","-11.7","","-18.2","","59","","30","","36","","24.1","","99.96","","","","-23","","NA"
"2016-01-19 07:00","2016","01","19","07:00","-12.1","","-17.1","","67","","31","","28","","24.1","","100.04","","","","-22","","Mainly Clear"
"2016-01-19 08:00","2016","01","19","08:00","-11.1","","-15.7","","69","","31","","30","","24.1","","100.12","","","","-21","","NA"
"2016-01-19 09:00","2016","01","19","09:00","-9.7","","-15.1","","65","","29","","25","","24.1","","100.14","","","","-18","","NA"
"2016-01-19 10:00","2016","01","19","10:00","-7.9","","-13.8","","63","","30","","27","","24.1","","100.15","","","","-16","","Mostly Cloudy"
"2016-01-19 11:00","2016","01","19","11:00","-6.6","","-12.7","","62","","31","","41","","24.1","","100.18","","","","-16","","NA"
"2016-01-19 12:00","2016","01","19","12:00","-5.3","","-11.9","","60","","31","","41","","24.1","","100.17","","","","-15","","NA"
"2016-01-19 13:00","2016","01","19","13:00","-4.6","","-11.7","","58","","30","","42","","24.1","","100.14","","","","-14","","Mostly Cloudy"
"2016-01-19 14:00","2016","01","19","14:00","-4.7","","-10.5","","64","","29","","39","","19.3","","100.16","","","","-14","","Snow Showers"
"2016-01-19 15:00","2016","01","19","15:00","-4.3","","-9.9","","65","","29","","33","","19.3","","100.20","","","","-12","","Snow Showers"
"2016-01-19 16:00","2016","01","19","16:00","-4.6","","-9.6","","68","","28","","33","","19.3","","100.27","","","","-13","","Snow Showers"
"2016-01-19 17:00","2016","01","19","17:00","-4.9","","-9.8","","69","","28","","31","","24.1","","100.32","","","","-13","","NA"
"2016-01-19 18:00","2016","01","19","18:00","-4.6","","-9.3","","70","","27","","23","","24.1","","100.38","","","","-12","","NA"
"2016-01-19 19:00","2016","01","19","19:00","-4.4","","-8.7","","72","","26","","16","","24.1","","100.42","","","","-10","","Mostly Cloudy"
"2016-01-19 20:00","2016","01","19","20:00","-3.9","","-8.4","","71","","27","","25","","24.1","","100.46","","","","-11","","NA"
"2016-01-19 21:00","2016","01","19","21:00","-4.4","","-9.1","","70","","28","","28","","24.1","","100.46","","","","-12","","NA"
"2016-01-19 22:00","2016","01","19","22:00","-4.5","","-9.2","","70","","28","","27","","24.1","","100.48","","","","-12","","Mostly Cloudy"
"2016-01-19 23:00","2016","01","19","23:00","-4.3","","-9.4","","68","","28","","22","","24.1","","100.49","","","","-11","","NA"
"2016-01-20 00:00","2016","01","20","00:00","-4.1","","-9.2","","68","","28","","23","","24.1","","100.49","","","","-11","","NA"
"2016-01-20 01:00","2016","01","20","01:00","-4.0","","-9.1","","68","","29","","22","","24.1","","100.49","","","","-11","","Cloudy"
"2016-01-20 02:00","2016","01","20","02:00","-4.1","","-9.2","","68","","28","","21","","24.1","","100.49","","","","-11","","NA"
"2016-01-20 03:00","2016","01","20","03:00","-4.3","","-9.0","","70","","28","","18","","24.1","","100.48","","","","-10","","NA"
"2016-01-20 04:00","2016","01","20","04:00","-4.3","","-9.2","","69","","28","","19","","24.1","","100.47","","","","-10","","Cloudy"
"2016-01-20 05:00","2016","01","20","05:00","-4.4","","-9.5","","68","","30","","17","","24.1","","100.42","","","","-10","","NA"
"2016-01-20 06:00","2016","01","20","06:00","-4.6","","-9.6","","68","","28","","12","","24.1","","100.43","","","","-9","","Snow Showers"
"2016-01-20 07:00","2016","01","20","07:00","-4.8","","-10.2","","66","","28","","19","","24.1","","100.46","","","","-11","","Cloudy"
"2016-01-20 08:00","2016","01","20","08:00","-5.7","","-9.8","","73","","25","","18","","24.1","","100.45","","","","-12","","NA"
"2016-01-20 09:00","2016","01","20","09:00","-5.7","","-10.0","","72","","24","","12","","24.1","","100.42","","","","-11","","NA"
"2016-01-20 10:00","2016","01","20","10:00","-5.5","","-10.1","","70","","23","","17","","24.1","","100.40","","","","-12","","Cloudy"
"2016-01-20 11:00","2016","01","20","11:00","-5.0","","-9.8","","69","","25","","16","","24.1","","100.36","","","","-11","","NA"
"2016-01-20 12:00","2016","01","20","12:00","-4.5","","-9.6","","68","","26","","16","","24.1","","100.28","","","","-10","","NA"
"2016-01-20 13:00","2016","01","20","13:00","-4.3","","-10.1","","64","","26","","14","","24.1","","100.16","","","","-9","","Cloudy"
"2016-01-20 14:00","2016","01","20","14:00","-4.2","","-10.4","","62","","28","","11","","24.1","","100.05","","","","-9","","NA"
"2016-01-20 15:00","2016","01","20","15:00","-4.2","","-11.1","","59","","25","","9","","24.1","","99.99","","","","-8","","NA"
"2016-01-20 16:00","2016","01","20","16:00","-4.4","","-11.1","","60","","27","","9","","24.1","","99.98","","","","-8","","Cloudy"
"2016-01-20 17:00","2016","01","20","17:00","-5.1","","-9.4","","72","","28","","13","","9.7","","99.99","","","","-10","","Snow Showers"
"2016-01-20 18:00","2016","01","20","18:00","-5.5","","-8.3","","81","","29","","13","","24.1","","100.00","","","","-11","","Snow Grains"
"2016-01-20 19:00","2016","01","20","19:00","-5.6","","-9.5","","74","","28","","14","","16.1","","100.03","","","","-11","","Snow Grains"
"2016-01-20 20:00","2016","01","20","20:00","-6.0","","-9.2","","78","","28","","14","","16.1","","100.04","","","","-12","","Snow Grains"
"2016-01-20 21:00","2016","01","20","21:00","-6.3","","-10.2","","74","","28","","11","","19.3","","100.05","","","","-11","","NA"
"2016-01-20 22:00","2016","01","20","22:00","-6.4","","-10.8","","71","","32","","13","","24.1","","100.05","","","","-12","","Cloudy"
"2016-01-20 23:00","2016","01","20","23:00","-7.4","","-11.3","","74","","32","","17","","24.1","","100.06","","","","-14","","NA"
"2016-01-21 00:00","2016","01","21","00:00","-7.4","","-11.3","","74","","30","","16","","24.1","","100.08","","","","-14","","NA"
"2016-01-21 01:00","2016","01","21","01:00","-7.7","","-11.4","","75","","31","","21","","24.1","","100.10","","","","-15","","Mainly Clear"
"2016-01-21 02:00","2016","01","21","02:00","-8.1","","-11.3","","78","","31","","14","","24.1","","100.14","","","","-14","","NA"
"2016-01-21 03:00","2016","01","21","03:00","-7.7","","-11.1","","77","","32","","12","","24.1","","100.20","","","","-13","","NA"
"2016-01-21 04:00","2016","01","21","04:00","-7.2","","-10.3","","79","","27","","8","","24.1","","100.22","","","","-11","","Cloudy"
"2016-01-21 05:00","2016","01","21","05:00","-6.7","","-9.4","","81","","28","","5","","24.1","","100.22","","","","-9","","Snow"
"2016-01-21 06:00","2016","01","21","06:00","-6.3","","-9.4","","79","","28","","5","","24.1","","100.22","","","","-9","","Snow"
"2016-01-21 07:00","2016","01","21","07:00","-5.7","","-9.3","","76","","32","","8","","24.1","","100.28","","","","-9","","Cloudy"
"2016-01-21 08:00","2016","01","21","08:00","-5.8","","-9.9","","73","","34","","17","","24.1","","100.34","","","","-12","","Snow"
"2016-01-21 09:00","2016","01","21","09:00","-5.4","","-10.8","","66","","35","","17","","24.1","","100.40","","","","-11","","NA"
"2016-01-21 10:00","2016","01","21","10:00","-5.5","","-11.1","","65","","34","","16","","24.1","","100.45","","","","-11","","Mainly Clear"
"2016-01-21 11:00","2016","01","21","11:00","-4.6","","-10.6","","63","","33","","11","","24.1","","100.50","","","","-9","","NA"
"2016-01-21 12:00","2016","01","21","12:00","-4.3","","-10.3","","63","","33","","16","","24.1","","100.49","","","","-10","","NA"
"2016-01-21 13:00","2016","01","21","13:00","-4.3","","-11.2","","59","","31","","13","","24.1","","100.47","","","","-9","","Mostly Cloudy"
"2016-01-21 14:00","2016","01","21","14:00","-4.1","","-11.6","","56","","32","","9","","24.1","","100.42","","","","-8","","NA"
"2016-01-21 15:00","2016","01","21","15:00","-3.9","","-11.0","","58","","32","","12","","24.1","","100.42","","","","-9","","NA"
"2016-01-21 16:00","2016","01","21","16:00","-4.3","","-11.0","","60","","36","","13","","24.1","","100.45","","","","-9","","Cloudy"
"2016-01-21 17:00","2016","01","21","17:00","-5.2","","-9.0","","75","","1","","13","","2.4","","100.50","","","","-10","","Snow"
"2016-01-21 18:00","2016","01","21","18:00","-5.2","","-10.0","","69","","35","","12","","9.7","","100.55","","","","-10","","Snow"
"2016-01-21 19:00","2016","01","21","19:00","-5.9","","-11.7","","64","","36","","10","","16.1","","100.60","","","","-10","","Snow"
"2016-01-21 20:00","2016","01","21","20:00","-6.0","","-13.4","","56","","35","","12","","24.1","","100.62","","","","-11","","NA"
"2016-01-21 21:00","2016","01","21","21:00","-6.8","","-14.0","","57","","36","","10","","24.1","","100.63","","","","-11","","NA"
"2016-01-21 22:00","2016","01","21","22:00","-7.4","","-13.3","","63","","35","","11","","24.1","","100.67","","","","-12","","Mainly Clear"
"2016-01-21 23:00","2016","01","21","23:00","-8.5","","-12.0","","76","","32","","4","","24.1","","100.66","","","","-11","","NA"
"2016-01-22 00:00","2016","01","22","00:00","-8.6","","-12.3","","75","","4","","9","","24.1","","100.65","","","","-13","","NA"
"2016-01-22 01:00","2016","01","22","01:00","-9.3","","-12.3","","79","","32","","9","","24.1","","100.67","","","","-14","","Mainly Clear"
"2016-01-22 02:00","2016","01","22","02:00","-10.5","","-13.3","","80","","36","","2","","24.1","","100.62","","","","-12","","NA"
"2016-01-22 03:00","2016","01","22","03:00","-10.6","","-14.2","","75","","34","","5","","24.1","","100.59","","","","-14","","NA"
"2016-01-22 04:00","2016","01","22","04:00","-11.2","","-15.0","","74","","1","","3","","24.1","","100.58","","","","-13","","Mainly Clear"
"2016-01-22 05:00","2016","01","22","05:00","-11.5","","-15.4","","73","","29","","3","","24.1","","100.56","","","","-13","","NA"
"2016-01-22 06:00","2016","01","22","06:00","-11.6","","-15.7","","72","","31","","8","","24.1","","100.63","","","","-16","","NA"
"2016-01-22 07:00","2016","01","22","07:00","-10.6","","-14.7","","72","","36","","3","","24.1","","100.68","","","","-12","","Mostly Cloudy"
"2016-01-22 08:00","2016","01","22","08:00","-8.4","","-13.9","","65","","1","","7","","24.1","","100.69","","","","-12","","NA"
"2016-01-22 09:00","2016","01","22","09:00","-6.8","","-13.1","","61","","2","","8","","24.1","","100.65","","","","-11","","NA"
"2016-01-22 10:00","2016","01","22","10:00","-5.9","","-13.1","","57","","3","","7","","24.1","","100.65","","","","-9","","Mostly Cloudy"
"2016-01-22 11:00","2016","01","22","11:00","-4.6","","-12.3","","55","","4","","5","","24.1","","100.65","","","","-7","","NA"
"2016-01-22 12:00","2016","01","22","12:00","-3.2","","-10.8","","56","","13","","7","","24.1","","100.58","","","","-6","","NA"
"2016-01-22 13:00","2016","01","22","13:00","-2.5","","-9.7","","58","","10","","10","","24.1","","100.39","","","","-6","","Mostly Cloudy"
"2016-01-22 14:00","2016","01","22","14:00","-2.5","","-9.2","","60","","10","","9","","24.1","","100.36","","","","-6","","NA"
"2016-01-22 15:00","2016","01","22","15:00","-2.7","","-11.3","","52","","5","","8","","24.1","","100.35","","","","-6","","NA"
"2016-01-22 16:00","2016","01","22","16:00","-2.8","","-11.6","","51","","7","","8","","24.1","","100.34","","","","-6","","Mostly Cloudy"
"2016-01-22 17:00","2016","01","22","17:00","-3.5","","-12.3","","51","","4","","14","","24.1","","100.29","","","","-9","","NA"
"2016-01-22 18:00","2016","01","22","18:00","-4.2","","-11.7","","56","","5","","12","","24.1","","100.27","","","","-9","","NA"
"2016-01-22 19:00","2016","01","22","19:00","-4.3","","-11.6","","57","","5","","11","","24.1","","100.28","","","","-9","","Mostly Cloudy"
"2016-01-22 20:00","2016","01","22","20:00","-4.2","","-12.2","","54","","6","","13","","24.1","","100.35","","","","-9","","NA"
"2016-01-22 21:00","2016","01","22","21:00","-4.6","","-11.5","","59","","4","","16","","24.1","","100.30","","","","-10","","NA"
"2016-01-22 22:00","2016","01","22","22:00","-5.0","","-11.4","","61","","3","","23","","24.1","","100.23","","","","-12","","Mostly Cloudy"
"2016-01-22 23:00","2016","01","22","23:00","-5.9","","-12.1","","62","","4","","18","","24.1","","100.26","","","","-12","","NA"
"2016-01-23 00:00","2016","01","23","00:00","-6.7","","-11.5","","69","","3","","25","","24.1","","100.22","","","","-15","","NA"
"2016-01-23 01:00","2016","01","23","01:00","-7.3","","-12.1","","69","","4","","16","","24.1","","100.17","","","","-14","","Mainly Clear"
"2016-01-23 02:00","2016","01","23","02:00","-7.3","","-12.2","","68","","5","","18","","24.1","","100.13","","","","-14","","NA"
"2016-01-23 03:00","2016","01","23","03:00","-8.1","","-12.3","","72","","4","","17","","24.1","","100.03","","","","-15","","NA"
"2016-01-23 04:00","2016","01","23","04:00","-8.9","","-12.9","","73","","3","","22","","24.1","","100.02","","","","-17","","Mostly Cloudy"
"2016-01-23 05:00","2016","01","23","05:00","-9.3","","-13.5","","72","","4","","19","","24.1","","99.99","","","","-17","","NA"
"2016-01-23 06:00","2016","01","23","06:00","-9.8","","-14.1","","71","","2","","25","","24.1","","99.94","","","","-19","","NA"
"2016-01-23 07:00","2016","01","23","07:00","-10.5","","-14.6","","72","","2","","24","","24.1","","99.93","","","","-19","","Mainly Clear"
"2016-01-23 08:00","2016","01","23","08:00","-11.1","","-15.2","","72","","2","","23","","24.1","","99.96","","","","-20","","NA"
"2016-01-23 09:00","2016","01","23","09:00","-10.4","","-15.1","","69","","36","","25","","24.1","","99.94","","","","-19","","NA"
"2016-01-23 10:00","2016","01","23","10:00","-9.0","","-14.6","","64","","1","","19","","24.1","","99.91","","","","-16","","Mainly Clear"
"2016-01-23 11:00","2016","01","23","11:00","-6.9","","-14.3","","56","","2","","20","","24.1","","99.91","","","","-14","","NA"
"2016-01-23 12:00","2016","01","23","12:00","-5.7","","-14.6","","50","","1","","18","","24.1","","99.82","","","","-12","","NA"
"2016-01-23 13:00","2016","01","23","13:00","-4.6","","-14.3","","47","","36","","18","","24.1","","99.73","","","","-11","","Mainly Clear"
"2016-01-23 14:00","2016","01","23","14:00","-4.0","","-14.6","","44","","34","","25","","24.1","","99.64","","","","-11","","NA"
"2016-01-23 15:00","2016","01","23","15:00","-4.4","","-14.4","","46","","34","","24","","24.1","","99.58","","","","-11","","NA"
"2016-01-23 16:00","2016","01","23","16:00","-5.0","","-14.7","","47","","34","","22","","24.1","","99.60","","","","-12","","Clear"
"2016-01-23 17:00","2016","01","23","17:00","-5.8","","-13.3","","56","","36","","22","","24.1","","99.62","","","","-13","","NA"
"2016-01-23 18:00","2016","01","23","18:00","-6.7","","-12.0","","66","","35","","16","","24.1","","99.68","","","","-13","","NA"
"2016-01-23 19:00","2016","01","23","19:00","-7.1","","-11.3","","72","","35","","21","","24.1","","99.71","","","","-14","","Clear"
"2016-01-23 20:00","2016","01","23","20:00","-7.8","","-11.3","","76","","36","","15","","24.1","","99.71","","","","-14","","NA"
"2016-01-23 21:00","2016","01","23","21:00","-7.7","","-11.1","","77","","35","","14","","24.1","","99.68","","","","-14","","NA"
"2016-01-23 22:00","2016","01","23","22:00","-8.2","","-11.6","","77","","35","","14","","24.1","","99.65","","","","-14","","Clear"
"2016-01-23 23:00","2016","01","23","23:00","-8.3","","-11.5","","78","","34","","13","","24.1","","99.61","","","","-14","","NA"
"2016-01-24 00:00","2016","01","24","00:00","-9.1","","-11.8","","81","","31","","12","","24.1","","99.62","","","","-15","","NA"
"2016-01-24 01:00","2016","01","24","01:00","-9.7","","-12.1","","83","","30","","5","","24.1","","99.56","","","","-13","","Mainly Clear"
"2016-01-24 02:00","2016","01","24","02:00","-11.0","","-13.5","","82","","26","","8","","24.1","","99.57","","","","-16","","NA"
"2016-01-24 03:00","2016","01","24","03:00","-9.5","","-12.3","","80","","29","","13","","24.1","","99.60","","","","-16","","NA"
"2016-01-24 04:00","2016","01","24","04:00","-10.1","","-12.8","","81","","28","","9","","24.1","","99.57","","","","-15","","Mostly Cloudy"
"2016-01-24 05:00","2016","01","24","05:00","-10.1","","-12.8","","81","","28","","9","","24.1","","99.60","","","","-15","","NA"
"2016-01-24 06:00","2016","01","24","06:00","-9.4","","-12.2","","80","","29","","9","","24.1","","99.62","","","","-14","","NA"
"2016-01-24 07:00","2016","01","24","07:00","-9.1","","-11.8","","81","","36","","1","","24.1","","99.60","","","","-10","","Mostly Cloudy"
"2016-01-24 08:00","2016","01","24","08:00","-7.6","","-11.0","","77","","15","","5","","24.1","","99.60","","","","-10","","NA"
"2016-01-24 09:00","2016","01","24","09:00","-7.3","","-10.7","","77","","21","","9","","24.1","","99.67","","","","-12","","NA"
"2016-01-24 10:00","2016","01","24","10:00","-6.4","","-9.8","","77","","20","","6","","19.3","","99.71","","","","-9","","Mostly Cloudy"
"2016-01-24 11:00","2016","01","24","11:00","-4.8","","-8.6","","75","","23","","10","","24.1","","99.74","","","","-9","","NA"
"2016-01-24 12:00","2016","01","24","12:00","-3.6","","-7.9","","72","","20","","15","","19.3","","99.58","","","","-9","","NA"
"2016-01-24 13:00","2016","01","24","13:00","-3.0","","-7.7","","70","","22","","16","","19.3","","99.58","","","","-8","","Mostly Cloudy"
"2016-01-24 14:00","2016","01","24","14:00","-2.4","","-7.7","","67","","23","","12","","19.3","","99.54","","","","-7","","NA"
"2016-01-24 15:00","2016","01","24","15:00","-1.4","","-7.6","","63","","23","","16","","24.1","","99.49","","","","-6","","NA"
"2016-01-24 16:00","2016","01","24","16:00","-1.1","","-7.3","","63","","22","","15","","24.1","","99.47","","","","-6","","Cloudy"
"2016-01-24 17:00","2016","01","24","17:00","-0.9","","-6.3","","67","","21","","13","","24.1","","99.46","","","","-5","","NA"
"2016-01-24 18:00","2016","01","24","18:00","-0.8","","-6.2","","67","","22","","14","","24.1","","99.52","","","","-5","","NA"
"2016-01-24 19:00","2016","01","24","19:00","-0.9","","-6.5","","66","","23","","9","","24.1","","99.57","","","","-4","","Cloudy"
"2016-01-24 20:00","2016","01","24","20:00","-0.9","","-6.3","","67","","24","","13","","24.1","","99.62","","","","-5","","NA"
"2016-01-24 21:00","2016","01","24","21:00","-1.1","","-5.9","","70","","24","","10","","24.1","","99.65","","","","-5","","NA"
"2016-01-24 22:00","2016","01","24","22:00","-1.2","","-5.6","","72","","24","","10","","24.1","","99.65","","","","-5","","Cloudy"
"2016-01-24 23:00","2016","01","24","23:00","-1.2","","-5.6","","72","","23","","9","","24.1","","99.64","","","","-4","","NA"
"2016-01-25 00:00","2016","01","25","00:00","-1.0","","-5.6","","71","","20","","4","","24.1","","99.67","","","","-2","","NA"
"2016-01-25 01:00","2016","01","25","01:00","-1.1","","-5.3","","73","","19","","4","","19.3","","99.67","","","","-2","","Cloudy"
"2016-01-25 02:00","2016","01","25","02:00","-1.2","","-5.4","","73","","14","","5","","19.3","","99.71","","","","-3","","NA"
"2016-01-25 03:00","2016","01","25","03:00","-1.0","","-5.2","","73","","14","","3","","16.1","","99.75","","","","-2","","NA"
"2016-01-25 04:00","2016","01","25","04:00","-0.8","","-5.4","","71","","13","","4","","16.1","","99.75","","","","-2","","Cloudy"
"2016-01-25 05:00","2016","01","25","05:00","-0.6","","-5.0","","72","","16","","5","","16.1","","99.77","","","","-2","","NA"
"2016-01-25 06:00","2016","01","25","06:00","-0.3","","-4.6","","73","","18","","7","","16.1","","99.81","","","","-3","","NA"
"2016-01-25 07:00","2016","01","25","07:00","0.1","","-4.4","","72","","21","","9","","16.1","","99.84","","","","","","Cloudy"
"2016-01-25 08:00","2016","01","25","08:00","0.3","","-4.4","","71","","21","","9","","19.3","","99.86","","","","","","NA"
"2016-01-25 09:00","2016","01","25","09:00","0.4","","-4.1","","72","","18","","12","","24.1","","99.84","","","","","","NA"
"2016-01-25 10:00","2016","01","25","10:00","0.8","","-4.8","","66","","19","","14","","24.1","","99.84","","","","","","Cloudy"
"2016-01-25 11:00","2016","01","25","11:00","1.5","","-5.0","","62","","19","","17","","24.1","","99.84","","","","","","NA"
"2016-01-25 12:00","2016","01","25","12:00","1.6","","-4.9","","62","","16","","17","","24.1","","99.75","","","","","","NA"
"2016-01-25 13:00","2016","01","25","13:00","1.6","","-4.5","","64","","15","","17","","24.1","","99.65","","","","","","Cloudy"
"2016-01-25 14:00","2016","01","25","14:00","2.4","","-5.3","","57","","17","","19","","24.1","","99.57","","","","","","NA"
"2016-01-25 15:00","2016","01","25","15:00","2.4","","-5.5","","56","","17","","20","","24.1","","99.52","","","","","","NA"
"2016-01-25 16:00","2016","01","25","16:00","2.1","","-5.3","","58","","17","","17","","24.1","","99.46","","","","","","Mainly Clear"
"2016-01-25 17:00","2016","01","25","17:00","1.6","","-5.1","","61","","14","","12","","24.1","","99.42","","","","","","NA"
"2016-01-25 18:00","2016","01","25","18:00","1.1","","-5.0","","64","","14","","10","","24.1","","99.39","","","","","","NA"
"2016-01-25 19:00","2016","01","25","19:00","1.4","","-4.5","","65","","14","","10","","24.1","","99.35","","","","","","Mostly Cloudy"
"2016-01-25 20:00","2016","01","25","20:00","1.6","","-4.1","","66","","12","","11","","24.1","","99.23","","","","","","NA"
"2016-01-25 21:00","2016","01","25","21:00","2.2","","-2.7","","70","","14","","8","","24.1","","99.18","","","","","","NA"
"2016-01-25 22:00","2016","01","25","22:00","2.8","","-2.9","","66","","15","","7","","24.1","","99.06","","","","","","Mostly Cloudy"
"2016-01-25 23:00","2016","01","25","23:00","3.0","","-3.6","","62","","14","","10","","24.1","","98.94","","","","","","NA"
"2016-01-26 00:00","2016","01","26","00:00","3.7","","-4.8","","54","","18","","11","","24.1","","98.86","","","","","","NA"
"2016-01-26 01:00","2016","01","26","01:00","3.6","","-1.4","","70","","19","","13","","24.1","","98.79","","","","","","Rain"
"2016-01-26 02:00","2016","01","26","02:00","3.5","","0.0","","78","","20","","17","","24.1","","98.72","","","","","","NA"
"2016-01-26 03:00","2016","01","26","03:00","3.8","","-0.4","","74","","20","","15","","24.1","","98.66","","","","","","NA"
"2016-01-26 04:00","2016","01","26","04:00","4.2","","-0.4","","72","","19","","14","","24.1","","98.56","","","","","","Cloudy"
"2016-01-26 05:00","2016","01","26","05:00","5.2","","0.2","","70","","20","","19","","24.1","","98.48","","","","","","NA"
"2016-01-26 06:00","2016","01","26","06:00","5.4","","1.2","","74","","21","","22","","24.1","","98.41","","","","","","NA"
"2016-01-26 07:00","2016","01","26","07:00","5.6","","1.2","","73","","21","","26","","24.1","","98.38","","","","","","Cloudy"
"2016-01-26 08:00","2016","01","26","08:00","5.5","","2.3","","80","","21","","27","","24.1","","98.34","","","","","","NA"
"2016-01-26 09:00","2016","01","26","09:00","5.6","","3.0","","83","","21","","27","","24.1","","98.33","","","","","","NA"
"2016-01-26 10:00","2016","01","26","10:00","6.5","","3.1","","79","","23","","32","","24.1","","98.28","","","","","","Cloudy"
"2016-01-26 11:00","2016","01","26","11:00","6.0","","1.9","","75","","24","","40","","24.1","","98.35","","","","","","Rain"
"2016-01-26 12:00","2016","01","26","12:00","4.2","","0.9","","79","","25","","39","","19.3","","98.43","","","","","","Rain"
"2016-01-26 13:00","2016","01","26","13:00","4.1","","-1.3","","68","","26","","41","","24.1","","98.47","","","","","","Cloudy"
"2016-01-26 14:00","2016","01","26","14:00","3.7","","-1.9","","67","","26","","40","","24.1","","98.60","","","","","","NA"
"2016-01-26 15:00","2016","01","26","15:00","3.2","","-1.9","","69","","26","","42","","24.1","","98.72","","","","","","NA"
"2016-01-26 16:00","2016","01","26","16:00","3.3","","-2.2","","67","","26","","28","","24.1","","98.82","","","","","","Cloudy"
"2016-01-26 17:00","2016","01","26","17:00","2.8","","-2.3","","69","","26","","43","","19.3","","98.91","","","","","","NA"
"2016-01-26 18:00","2016","01","26","18:00","2.3","","-2.6","","70","","25","","22","","24.1","","99.03","","","","","","NA"
"2016-01-26 19:00","2016","01","26","19:00","2.1","","-3.2","","68","","26","","34","","24.1","","99.12","","","","","","Cloudy"
"2016-01-26 20:00","2016","01","26","20:00","1.3","","-2.3","","77","","25","","25","","16.1","","99.19","","","","","","Snow Showers"
"2016-01-26 21:00","2016","01","26","21:00","0.9","","-1.8","","82","","24","","21","","16.1","","99.21","","","","","","Snow Showers"
"2016-01-26 22:00","2016","01","26","22:00","1.2","","-2.4","","77","","25","","29","","19.3","","99.21","","","","","","Snow Showers"
"2016-01-26 23:00","2016","01","26","23:00","1.0","","-2.4","","78","","25","","18","","19.3","","99.25","","","","","","Snow Showers"
"2016-01-27 00:00","2016","01","27","00:00","0.9","","-2.3","","79","","24","","22","","12.9","","99.26","","","","","","Snow Showers"
"2016-01-27 01:00","2016","01","27","01:00","0.4","","-2.0","","84","","25","","21","","12.9","","99.27","","","","","","Snow Showers"
"2016-01-27 02:00","2016","01","27","02:00","0.4","","-1.8","","85","","24","","16","","12.9","","99.25","","","","","","NA"
"2016-01-27 03:00","2016","01","27","03:00","0.3","","-1.8","","86","","25","","22","","16.1","","99.29","","","","","","Snow Showers"
"2016-01-27 04:00","2016","01","27","04:00","-0.5","","-2.4","","87","","34","","16","","16.1","","99.35","","","","-5","","Snow Showers"
"2016-01-27 05:00","2016","01","27","05:00","-2.0","","-4.2","","85","","34","","16","","16.1","","99.48","","","","-7","","Snow Showers"
"2016-01-27 06:00","2016","01","27","06:00","-2.5","","-5.0","","83","","31","","15","","24.1","","99.58","","","","-7","","NA"
"2016-01-27 07:00","2016","01","27","07:00","-2.3","","-7.6","","67","","31","","29","","24.1","","99.71","","","","-9","","Mostly Cloudy"
"2016-01-27 08:00","2016","01","27","08:00","-2.8","","-8.1","","67","","29","","21","","24.1","","99.81","","","","-9","","NA"
"2016-01-27 09:00","2016","01","27","09:00","-2.5","","-8.0","","66","","30","","23","","24.1","","99.89","","","","-9","","NA"
"2016-01-27 10:00","2016","01","27","10:00","-2.3","","-8.2","","64","","29","","19","","24.1","","99.89","","","","-8","","Mostly Cloudy"
"2016-01-27 11:00","2016","01","27","11:00","-1.8","","-8.8","","59","","31","","18","","24.1","","99.96","","","","-7","","NA"
"2016-01-27 12:00","2016","01","27","12:00","-1.1","","-10.0","","51","","30","","21","","24.1","","99.93","","","","-7","","NA"
"2016-01-27 13:00","2016","01","27","13:00","-0.2","","-9.9","","48","","30","","22","","24.1","","99.94","","","","-6","","Mainly Clear"
"2016-01-27 14:00","2016","01","27","14:00","-0.5","","-9.7","","50","","31","","22","","24.1","","99.86","","","","-6","","NA"
"2016-01-27 15:00","2016","01","27","15:00","1.0","","-10.0","","44","","28","","21","","24.1","","99.77","","","","","","NA"
"2016-01-27 16:00","2016","01","27","16:00","-0.2","","-9.4","","50","","25","","16","","24.1","","99.73","","","","-5","","Mostly Cloudy"
"2016-01-27 17:00","2016","01","27","17:00","-0.4","","-8.6","","54","","25","","17","","24.1","","99.70","","","","-5","","NA"
"2016-01-27 18:00","2016","01","27","18:00","-0.7","","-9.6","","51","","25","","21","","24.1","","99.70","","","","-6","","NA"
"2016-01-27 19:00","2016","01","27","19:00","-0.4","","-10.4","","47","","21","","11","","24.1","","99.60","","","","-4","","Cloudy"
"2016-01-27 20:00","2016","01","27","20:00","-0.4","","-9.9","","49","","19","","13","","24.1","","99.55","","","","-5","","NA"
"2016-01-27 21:00","2016","01","27","21:00","-0.4","","-5.8","","67","","21","","23","","24.1","","99.48","","","","-6","","NA"
"2016-01-27 22:00","2016","01","27","22:00","-0.6","","-7.4","","60","","22","","26","","24.1","","99.45","","","","-7","","Cloudy"
"2016-01-27 23:00","2016","01","27","23:00","-0.6","","-7.2","","61","","22","","28","","24.1","","99.38","","","","-7","","NA"
"2016-01-28 00:00","2016","01","28","00:00","-0.9","","-7.9","","59","","22","","35","","24.1","","99.28","","","","-8","","Snow"
"2016-01-28 01:00","2016","01","28","01:00","-1.1","","-7.7","","61","","22","","30","","24.1","","99.13","","","","-8","","Snow"
"2016-01-28 02:00","2016","01","28","02:00","-1.3","","-7.9","","61","","22","","29","","24.1","","99.00","","","","-8","","NA"
"2016-01-28 03:00","2016","01","28","03:00","-1.4","","-7.2","","65","","23","","24","","24.1","","98.94","","","","-8","","NA"
"2016-01-28 04:00","2016","01","28","04:00","-1.4","","-7.2","","65","","20","","26","","24.1","","98.80","","","","-8","","Cloudy"
"2016-01-28 05:00","2016","01","28","05:00","-1.7","","-7.1","","67","","22","","23","","24.1","","98.71","","","","-8","","NA"
"2016-01-28 06:00","2016","01","28","06:00","-1.5","","-6.7","","68","","20","","21","","24.1","","98.61","","","","-7","","NA"
"2016-01-28 07:00","2016","01","28","07:00","-1.7","","-5.7","","74","","18","","20","","16.1","","98.54","","","","-7","","Cloudy"
"2016-01-28 08:00","2016","01","28","08:00","-1.6","","-5.3","","76","","20","","21","","19.3","","98.45","","","","-7","","NA"
"2016-01-28 09:00","2016","01","28","09:00","-1.6","","-5.3","","76","","21","","27","","19.3","","98.39","","","","-8","","NA"
"2016-01-28 10:00","2016","01","28","10:00","-1.2","","-5.1","","75","","22","","18","","24.1","","98.33","","","","-6","","Cloudy"
"2016-01-28 11:00","2016","01","28","11:00","-0.5","","-4.8","","73","","21","","21","","24.1","","98.21","","","","-6","","NA"
"2016-01-28 12:00","2016","01","28","12:00","0.4","","-4.8","","68","","22","","29","","24.1","","98.10","","","","","","NA"
"2016-01-28 13:00","2016","01","28","13:00","1.3","","-4.4","","66","","22","","23","","24.1","","98.01","","","","","","Cloudy"
"2016-01-28 14:00","2016","01","28","14:00","1.2","","-4.1","","68","","22","","27","","24.1","","97.94","","","","","","NA"
"2016-01-28 15:00","2016","01","28","15:00","1.4","","-3.9","","68","","22","","23","","19.3","","97.91","","","","","","NA"
"2016-01-28 16:00","2016","01","28","16:00","0.4","","-1.7","","86","","21","","12","","3.2","","97.93","","","","","","Snow Showers"
"2016-01-28 17:00","2016","01","28","17:00","0.4","","-1.7","","86","","21","","16","","2.4","","97.92","","","","","","Snow Showers"
"2016-01-28 18:00","2016","01","28","18:00","0.2","","-1.1","","91","","21","","12","","4.8","","97.91","","","","","","Snow Showers"
"2016-01-28 19:00","2016","01","28","19:00","0.5","","-1.0","","90","","21","","16","","8.1","","97.90","","","","","","Snow Showers"
"2016-01-28 20:00","2016","01","28","20:00","0.6","","-0.9","","90","","21","","11","","6.4","","97.88","","","","","","Snow Showers"
"2016-01-28 21:00","2016","01","28","21:00","0.8","","-0.8","","89","","23","","15","","8.1","","97.82","","","","","","Snow Showers"
"2016-01-28 22:00","2016","01","28","22:00","0.8","","-0.8","","89","","25","","19","","9.7","","97.80","","","","","","Snow Showers"
"2016-01-28 23:00","2016","01","28","23:00","0.7","","-2.0","","82","","28","","17","","24.1","","97.81","","","","","","NA"
"2016-01-29 00:00","2016","01","29","00:00","0.0","","-2.7","","82","","26","","14","","24.1","","97.82","","","","-4","","NA"
"2016-01-29 01:00","2016","01","29","01:00","-0.3","","-2.4","","86","","27","","12","","16.1","","97.81","","","","-4","","Snow"
"2016-01-29 02:00","2016","01","29","02:00","-0.8","","-4.0","","79","","28","","23","","19.3","","97.82","","","","-7","","Snow"
"2016-01-29 03:00","2016","01","29","03:00","-1.5","","-5.7","","73","","29","","33","","24.1","","97.84","","","","-9","","NA"
"2016-01-29 04:00","2016","01","29","04:00","-2.1","","-6.5","","72","","29","","29","","24.1","","97.89","","","","-9","","Mostly Cloudy"
"2016-01-29 05:00","2016","01","29","05:00","-3.3","","-7.3","","74","","30","","27","","24.1","","97.98","","","","-10","","NA"
"2016-01-29 06:00","2016","01","29","06:00","-5.0","","-10.6","","65","","30","","35","","24.1","","98.08","","","","-14","","NA"
"2016-01-29 07:00","2016","01","29","07:00","-5.9","","-10.7","","69","","31","","32","","24.1","","98.18","","","","-14","","Mostly Cloudy"
"2016-01-29 08:00","2016","01","29","08:00","-6.6","","-10.5","","74","","31","","25","","24.1","","98.27","","","","-14","","NA"
"2016-01-29 09:00","2016","01","29","09:00","-7.2","","-12.9","","64","","31","","32","","24.1","","98.36","","","","-16","","NA"
"2016-01-29 10:00","2016","01","29","10:00","-7.9","","-14.0","","62","","32","","39","","24.1","","98.46","","","","-18","","Mostly Cloudy"
"2016-01-29 11:00","2016","01","29","11:00","-7.2","","-13.3","","62","","32","","41","","24.1","","98.53","","","","-17","","NA"
"2016-01-29 12:00","2016","01","29","12:00","-6.6","","-12.5","","63","","31","","31","","24.1","","98.57","","","","-15","","NA"
"2016-01-29 13:00","2016","01","29","13:00","-5.9","","-12.5","","60","","30","","22","","24.1","","98.59","","","","-13","","Mainly Clear"
"2016-01-29 14:00","2016","01","29","14:00","-5.3","","-12.3","","58","","30","","30","","24.1","","98.62","","","","-13","","NA"
"2016-01-29 15:00","2016","01","29","15:00","-5.1","","-12.1","","58","","30","","36","","24.1","","98.73","","","","-14","","NA"
"2016-01-29 16:00","2016","01","29","16:00","-5.7","","-12.5","","59","","31","","31","","24.1","","98.86","","","","-14","","Mainly Clear"
"2016-01-29 17:00","2016","01","29","17:00","-6.6","","-12.7","","62","","30","","33","","24.1","","99.00","","","","-15","","NA"
"2016-01-29 18:00","2016","01","29","18:00","-7.6","","-13.3","","64","","31","","31","","24.1","","99.11","","","","-17","","NA"
"2016-01-29 19:00","2016","01","29","19:00","-8.1","","-13.0","","68","","29","","24","","24.1","","99.24","","","","-16","","Mainly Clear"
"2016-01-29 20:00","2016","01","29","20:00","-8.5","","-13.2","","69","","31","","18","","24.1","","99.28","","","","-16","","NA"
"2016-01-29 21:00","2016","01","29","21:00","-9.1","","-13.4","","71","","32","","11","","24.1","","99.30","","","","-15","","NA"
"2016-01-29 22:00","2016","01","29","22:00","-8.8","","-13.2","","71","","31","","11","","24.1","","99.28","","","","-14","","Clear"
"2016-01-29 23:00","2016","01","29","23:00","-9.1","","-12.9","","74","","28","","6","","24.1","","99.33","","","","-12","","NA"
"2016-01-30 00:00","2016","01","30","00:00","-8.8","","-12.1","","77","","24","","9","","24.1","","99.32","","","","-13","","NA"
"2016-01-30 01:00","2016","01","30","01:00","-8.3","","-12.0","","75","","21","","5","","24.1","","99.32","","","","-11","","Mostly Cloudy"
"2016-01-30 02:00","2016","01","30","02:00","-7.8","","-11.5","","75","","12","","6","","24.1","","99.27","","","","-11","","NA"
"2016-01-30 03:00","2016","01","30","03:00","-6.8","","-10.5","","75","","19","","6","","24.1","","99.29","","","","-10","","NA"
"2016-01-30 04:00","2016","01","30","04:00","-5.7","","-9.8","","73","","18","","9","","24.1","","99.21","","","","-10","","Cloudy"
"2016-01-30 05:00","2016","01","30","05:00","-5.1","","-9.2","","73","","16","","7","","24.1","","99.15","","","","-8","","NA"
"2016-01-30 06:00","2016","01","30","06:00","-4.3","","-7.6","","78","","16","","13","","24.1","","99.03","","","","-9","","NA"
"2016-01-30 07:00","2016","01","30","07:00","-2.7","","-6.2","","77","","17","","18","","24.1","","98.89","","","","-8","","Mostly Cloudy"
"2016-01-30 08:00","2016","01","30","08:00","-1.3","","-5.4","","74","","16","","20","","24.1","","98.82","","","","-7","","NA"
"2016-01-30 09:00","2016","01","30","09:00","0.0","","-5.0","","69","","17","","25","","24.1","","98.69","","","","-6","","NA"
"2016-01-30 10:00","2016","01","30","10:00","1.0","","-4.9","","65","","18","","18","","24.1","","98.63","","","","","","Mostly Cloudy"
"2016-01-30 11:00","2016","01","30","11:00","2.6","","-5.1","","57","","20","","16","","24.1","","98.55","","","","","","NA"
"2016-01-30 12:00","2016","01","30","12:00","3.7","","-4.8","","54","","21","","27","","24.1","","98.39","","","","","","NA"
"2016-01-30 13:00","2016","01","30","13:00","5.8","","-3.3","","52","","23","","30","","24.1","","98.32","","","","","","Mostly Cloudy"
"2016-01-30 14:00","2016","01","30","14:00","5.1","","-3.2","","55","","22","","24","","24.1","","98.23","","","","","","NA"
"2016-01-30 15:00","2016","01","30","15:00","5.1","","-2.7","","57","","24","","19","","24.1","","98.27","","","","","","NA"
"2016-01-30 16:00","2016","01","30","16:00","5.3","","-2.1","","59","","25","","21","","24.1","","98.30","","","","","","Cloudy"
"2016-01-30 17:00","2016","01","30","17:00","4.3","","-2.1","","63","","25","","15","","24.1","","98.35","","","","","","NA"
"2016-01-30 18:00","2016","01","30","18:00","4.6","","-1.8","","63","","22","","8","","24.1","","98.41","","","","","","NA"
"2016-01-30 19:00","2016","01","30","19:00","4.0","","-1.6","","67","","22","","14","","24.1","","98.48","","","","","","Mostly Cloudy"
"2016-01-30 20:00","2016","01","30","20:00","3.9","","-1.5","","68","","23","","10","","24.1","","98.50","","","","","","NA"
"2016-01-30 21:00","2016","01","30","21:00","3.9","","-1.3","","69","","23","","12","","24.1","","98.49","","","","","","NA"
"2016-01-30 22:00","2016","01","30","22:00","2.5","","-1.3","","76","","25","","14","","24.1","","98.50","","","","","","Mostly Cloudy"
"2016-01-30 23:00","2016","01","30","23:00","2.3","","-1.5","","76","","26","","16","","24.1","","98.54","","","","","","NA"
"2016-01-31 00:00","2016","01","31","00:00","1.7","","-1.2","","81","","26","","9","","24.1","","98.55","","","","","","NA"
"2016-01-31 01:00","2016","01","31","01:00","2.0","","-0.9","","81","","25","","10","","24.1","","98.51","","","","","","Mostly Cloudy"
"2016-01-31 02:00","2016","01","31","02:00","2.3","","-1.3","","77","","22","","7","","24.1","","98.56","","","","","","NA"
"2016-01-31 03:00","2016","01","31","03:00","1.0","","-1.7","","82","","24","","8","","24.1","","98.57","","","","","","NA"
"2016-01-31 04:00","2016","01","31","04:00","1.3","","-1.4","","82","","22","","10","","24.1","","98.56","","","","","","Mainly Clear"
"2016-01-31 05:00","2016","01","31","05:00","1.7","","-0.7","","84","","25","","9","","24.1","","98.58","","","","","","NA"
"2016-01-31 06:00","2016","01","31","06:00","2.1","","-0.3","","84","","24","","4","","24.1","","98.59","","","","","","NA"
"2016-01-31 07:00","2016","01","31","07:00","3.4","","0.1","","79","","20","","8","","24.1","","98.59","","","","","","Cloudy"
"2016-01-31 08:00","2016","01","31","08:00","2.8","","0.0","","82","","25","","9","","24.1","","98.66","","","","","","NA"
"2016-01-31 09:00","2016","01","31","09:00","4.0","","0.7","","79","","16","","13","","24.1","","98.46","","","","","","NA"
"2016-01-31 10:00","2016","01","31","10:00","4.2","","1.2","","81","","25","","12","","24.1","","98.66","","","","","","Cloudy"
"2016-01-31 11:00","2016","01","31","11:00","5.5","","1.8","","77","","24","","7","","24.1","","98.57","","","","","","NA"
"2016-01-31 12:00","2016","01","31","12:00","7.7","","2.4","","69","","25","","7","","24.1","","98.39","","","","","","NA"
"2016-01-31 13:00","2016","01","31","13:00","9.6","","2.9","","63","","21","","14","","24.1","","98.31","","","","","","Mostly Cloudy"
"2016-01-31 14:00","2016","01","31","14:00","9.6","","3.2","","64","","15","","9","","24.1","","98.21","","","","","","NA"
"2016-01-31 15:00","2016","01","31","15:00","9.2","","2.8","","64","","15","","16","","24.1","","98.12","","","","","","NA"
"2016-01-31 16:00","2016","01","31","16:00","7.2","","2.9","","74","","15","","13","","24.1","","98.07","","","","","","Cloudy"
"2016-01-31 17:00","2016","01","31","17:00","6.1","","4.8","","91","","15","","12","","11.3","","98.10","","","","","","Rain"
"2016-01-31 18:00","2016","01","31","18:00","5.9","","5.0","","94","","15","","11","","6.4","","98.04","","","","","","Rain,Fog"
"2016-01-31 19:00","2016","01","31","19:00","6.0","","5.1","","94","","16","","13","","16.1","","97.99","","","","","","Rain"
"2016-01-31 20:00","2016","01","31","20:00","6.5","","5.5","","93","","17","","11","","12.9","","97.87","","","","","","Drizzle"
"2016-01-31 21:00","2016","01","31","21:00","9.1","","8.0","","93","","21","","16","","16.1","","97.79","","","","","","NA"
"2016-01-31 22:00","2016","01","31","22:00","10.0","","7.8","","86","","21","","16","","16.1","","97.69","","","","","","Rain"
"2016-01-31 23:00","2016","01","31","23:00","10.3","","7.9","","85","","22","","29","","16.1","","97.64","","","","","","Rain"
