"Station Name","TORONTO LESTER B. PEARSON INT'L A"
"Province","ONTARIO"
"Latitude","43.68"
"Longitude","-79.63"
"Elevation","173.40"
"Climate Identifier","6158733"
"WMO Identifier","71624"
"TC Identifier","YYZ"
"All times are specified in Local Standard Time (LST). Add 1 hour to adjust for Daylight Saving Time where and when it is observed."

"Legend"
"E","Estimated"
"M","Missing"
"NA","Not Available"

"Date/Time","Year","Month","Day","Time","Temp (°C)","Temp Flag","Dew Point Temp (°C)","Dew Point Temp Flag","Rel Hum (%)","Rel Hum Flag","Wind Dir (10s deg)","Wind Dir Flag","Wind Spd (km/h)","Wind Spd Flag","Visibility (km)","Visibility Flag","Stn Press (kPa)","Stn Press Flag","Hmdx","Hmdx Flag","Wind Chill","Wind Chill Flag","Weather"
"1958-07-01 00:00","1958","07","01","00:00","23.9","","17.2","","66","","23","","6","","12.9","","99.48","","29","","","","Mostly Cloudy"
"1958-07-01 01:00","1958","07","01","01:00","22.2","","17.2","","73","","23","","10","","11.3","","99.48","","28","","","","Mainly Clear"
"1958-07-01 02:00","1958","07","01","02:00","21.7","","16.7","","73","","20","","10","","11.3","","99.50","","27","","","","Mainly Clear"
"1958-07-01 03:00","1958","07","01","03:00","22.2","","16.1","","68","","18","","6","","11.3","","99.48","","27","","","","Mainly Clear"
"1958-07-01 04:00","1958","07","01","04:00","20.6","","16.1","","76","","18","","10","","11.3","","99.45","","25","","","","Mostly Cloudy"
"1958-07-01 05:00","1958","07","01","05:00","20.0","","16.1","","78","","18","","13","","8.0","","99.44","","25","","","","Haze"
"1958-07-01 06:00","1958","07","01","06:00","21.1","","16.7","","76","","18","","10","","9.7","","99.52","","26","","","","Haze"
"1958-07-01 07:00","1958","07","01","07:00","21.7","","17.2","","76","","20","","11","","9.7","","99.58","","27","","","","Haze"
"1958-07-01 08:00","1958","07","01","08:00","25.6","","16.7","","58","","25","","14","","12.9","","99.51","","31","","","","Mainly Clear"
"1958-07-01 09:00","1958","07","01","09:00","27.2","","16.7","","53","","25","","23","","16.1","","99.47","","32","","","","Mostly Cloudy"
"1958-07-01 10:00","1958","07","01","10:00","27.8","","16.7","","51","","25","","26","","16.1","","99.48","","33","","","","Mostly Cloudy"
"1958-07-01 11:00","1958","07","01","11:00","29.4","","16.1","","45","","25","","27","","19.3","","99.43","","34","","","","Mostly Cloudy"
"1958-07-01 12:00","1958","07","01","12:00","28.9","","15.0","","43","","25","","32","","19.3","","99.41","","33","","","","Mostly Cloudy"
"1958-07-01 13:00","1958","07","01","13:00","30.6","","15.6","","41","","23","","35","","19.3","","99.36","","35","","","","Mostly Cloudy"
"1958-07-01 14:00","1958","07","01","14:00","31.1","","13.3","","34","","25","","40","","19.3","","99.31","","34","","","","Mostly Cloudy"
"1958-07-01 15:00","1958","07","01","15:00","31.1","","13.3","","34","","23","","40","","19.3","","99.22","","34","","","","Mostly Cloudy"
"1958-07-01 16:00","1958","07","01","16:00","30.0","","14.4","","39","","23","","40","","19.3","","99.04","","34","","","","Mostly Cloudy"
"1958-07-01 17:00","1958","07","01","17:00","29.4","","16.7","","46","","23","","40","","16.1","","99.14","","34","","","","Mostly Cloudy"
"1958-07-01 18:00","1958","07","01","18:00","28.9","","15.6","","45","","23","","26","","12.9","","99.13","","33","","","","Mostly Cloudy"
"1958-07-01 19:00","1958","07","01","19:00","27.8","","15.6","","48","","25","","26","","12.9","","99.26","","32","","","","Mostly Cloudy"
"1958-07-01 20:00","1958","07","01","20:00","26.7","","15.0","","49","","23","","19","","16.1","","99.31","","31","","","","Mostly Cloudy"
"1958-07-01 21:00","1958","07","01","21:00","26.7","","15.0","","49","","23","","24","","16.1","","99.29","","31","","","","Cloudy"
"1958-07-01 22:00","1958","07","01","22:00","25.6","","16.1","","56","","23","","19","","16.1","","99.32","","30","","","","Mostly Cloudy"
"1958-07-01 23:00","1958","07","01","23:00","25.0","","15.6","","56","","23","","16","","24.1","","99.31","","29","","","","Mainly Clear"
"1958-07-02 00:00","1958","07","02","00:00","24.4","","15.6","","58","","23","","16","","24.1","","99.31","","29","","","","Mainly Clear"
"1958-07-02 01:00","1958","07","02","01:00","23.9","","16.1","","62","","18","","13","","24.1","","99.28","","29","","","","Cloudy"
"1958-07-02 02:00","1958","07","02","02:00","23.3","","14.4","","58","","18","","13","","24.1","","99.21","","27","","","","Mainly Clear"
"1958-07-02 03:00","1958","07","02","03:00","22.8","","14.4","","59","","23","","16","","24.1","","99.16","","26","","","","Mostly Cloudy"
"1958-07-02 04:00","1958","07","02","04:00","24.4","","16.1","","60","","23","","6","","16.1","","99.12","","29","","","","Mainly Clear"
"1958-07-02 05:00","1958","07","02","05:00","23.3","","16.1","","64","","23","","10","","16.1","","99.16","","28","","","","Mainly Clear"
"1958-07-02 06:00","1958","07","02","06:00","23.9","","16.1","","62","","23","","6","","16.1","","99.23","","29","","","","Mainly Clear"
"1958-07-02 07:00","1958","07","02","07:00","25.6","","18.3","","64","","23","","10","","11.3","","99.25","","32","","","","Mainly Clear"
"1958-07-02 08:00","1958","07","02","08:00","26.1","","18.9","","65","","27","","16","","11.3","","99.24","","33","","","","Mainly Clear"
"1958-07-02 09:00","1958","07","02","09:00","27.2","","19.4","","63","","27","","19","","11.3","","99.24","","34","","","","Mainly Clear"
"1958-07-02 10:00","1958","07","02","10:00","28.3","","20.0","","61","","27","","16","","12.9","","99.25","","36","","","","Mainly Clear"
"1958-07-02 11:00","1958","07","02","11:00","30.0","","20.6","","57","","27","","16","","12.9","","99.23","","38","","","","Mostly Cloudy"
"1958-07-02 12:00","1958","07","02","12:00","30.0","","20.6","","57","","27","","16","","11.3","","99.27","","38","","","","Mostly Cloudy"
"1958-07-02 13:00","1958","07","02","13:00","30.0","","21.1","","59","","27","","23","","11.3","","99.25","","39","","","","Mostly Cloudy"
"1958-07-02 14:00","1958","07","02","14:00","30.0","","21.1","","59","","27","","26","","11.3","","99.22","","39","","","","Mostly Cloudy"
"1958-07-02 15:00","1958","07","02","15:00","30.0","","21.1","","59","","27","","26","","9.7","","99.22","","39","","","","Haze"
"1958-07-02 16:00","1958","07","02","16:00","30.0","","20.0","","55","","27","","24","","9.7","","99.19","","38","","","","Haze"
"1958-07-02 17:00","1958","07","02","17:00","29.4","","20.0","","57","","27","","31","","9.7","","99.19","","37","","","","Haze"
"1958-07-02 18:00","1958","07","02","18:00","28.9","","19.4","","57","","29","","24","","9.7","","99.21","","36","","","","Haze"
"1958-07-02 19:00","1958","07","02","19:00","27.8","","18.9","","60","","32","","19","","9.7","","99.23","","34","","","","Haze"
"1958-07-02 20:00","1958","07","02","20:00","25.0","","20.0","","74","","32","","13","","9.7","","99.38","","33","","","","Thunderstorms,Rain Showers,Haze"
"1958-07-02 21:00","1958","07","02","21:00","22.8","","19.4","","82","","32","","13","","19.3","","99.37","","30","","","","Cloudy"
"1958-07-02 22:00","1958","07","02","22:00","22.8","","16.1","","66","","34","","19","","19.3","","99.30","","27","","","","Mostly Cloudy"
"1958-07-02 23:00","1958","07","02","23:00","22.8","","18.9","","79","","34","","13","","19.3","","99.28","","29","","","","Mostly Cloudy"
"1958-07-03 00:00","1958","07","03","00:00","21.7","","16.7","","73","","5","","6","","24.1","","99.36","","27","","","","Cloudy"
"1958-07-03 01:00","1958","07","03","01:00","20.6","","16.7","","79","","36","","5","","19.3","","99.44","","26","","","","Rain Showers"
"1958-07-03 02:00","1958","07","03","02:00","20.0","","16.1","","78","","34","","5","","24.1","","99.43","","25","","","","Cloudy"
"1958-07-03 03:00","1958","07","03","03:00","19.4","","15.6","","78","","34","","8","","24.1","","99.41","","","","","","Cloudy"
"1958-07-03 04:00","1958","07","03","04:00","18.9","","16.1","","84","","36","","6","","24.1","","99.40","","","","","","Mostly Cloudy"
"1958-07-03 05:00","1958","07","03","05:00","18.3","","16.1","","87","","36","","6","","19.3","","99.43","","","","","","Mostly Cloudy"
"1958-07-03 06:00","1958","07","03","06:00","18.3","","15.6","","84","","2","","11","","19.3","","99.43","","","","","","Mostly Cloudy"
"1958-07-03 07:00","1958","07","03","07:00","18.9","","16.1","","84","","36","","21","","19.3","","99.49","","","","","","Mostly Cloudy"
"1958-07-03 08:00","1958","07","03","08:00","21.1","","16.7","","76","","36","","23","","16.1","","99.48","","26","","","","Mostly Cloudy"
"1958-07-03 09:00","1958","07","03","09:00","21.7","","16.1","","71","","2","","23","","19.3","","99.50","","26","","","","Mostly Cloudy"
"1958-07-03 10:00","1958","07","03","10:00","22.8","","14.4","","59","","2","","13","","16.1","","99.53","","26","","","","Mainly Clear"
"1958-07-03 11:00","1958","07","03","11:00","23.3","","13.9","","56","","36","","13","","16.1","","99.57","","27","","","","Mostly Cloudy"
"1958-07-03 12:00","1958","07","03","12:00","25.0","","14.4","","52","","2","","13","","16.1","","99.60","","29","","","","Mostly Cloudy"
"1958-07-03 13:00","1958","07","03","13:00","25.6","","14.4","","50","","2","","10","","19.3","","99.57","","29","","","","Mostly Cloudy"
"1958-07-03 14:00","1958","07","03","14:00","26.7","","12.8","","42","","2","","13","","25.0","","99.53","","29","","","","Mainly Clear"
"1958-07-03 15:00","1958","07","03","15:00","26.7","","13.3","","44","","2","","5","","25.0","","99.51","","30","","","","Mainly Clear"
"1958-07-03 16:00","1958","07","03","16:00","27.2","","15.6","","49","","18","","13","","25.0","","99.49","","32","","","","Mostly Cloudy"
"1958-07-03 17:00","1958","07","03","17:00","27.2","","15.6","","49","","16","","16","","24.1","","99.49","","32","","","","Mainly Clear"
"1958-07-03 18:00","1958","07","03","18:00","25.6","","15.0","","52","","18","","11","","25.0","","99.51","","30","","","","Mostly Cloudy"
"1958-07-03 19:00","1958","07","03","19:00","25.0","","15.6","","56","","18","","8","","25.0","","99.54","","29","","","","Mostly Cloudy"
"1958-07-03 20:00","1958","07","03","20:00","23.9","","15.0","","58","","36","","5","","25.0","","99.56","","28","","","","Mostly Cloudy"
"1958-07-03 21:00","1958","07","03","21:00","21.7","","12.8","","57","","36","","16","","25.0","","99.63","","","","","","Mostly Cloudy"
"1958-07-03 22:00","1958","07","03","22:00","20.0","","11.7","","59","","36","","10","","25.0","","99.65","","","","","","Mainly Clear"
"1958-07-03 23:00","1958","07","03","23:00","18.9","","11.7","","63","","36","","10","","25.0","","99.66","","","","","","Mostly Cloudy"
"1958-07-04 00:00","1958","07","04","00:00","17.8","","10.6","","63","","36","","10","","25.0","","99.67","","","","","","Mostly Cloudy"
"1958-07-04 01:00","1958","07","04","01:00","17.2","","10.0","","63","","36","","8","","25.0","","99.65","","","","","","Mostly Cloudy"
"1958-07-04 02:00","1958","07","04","02:00","16.7","","10.6","","67","","36","","11","","25.0","","99.62","","","","","","Mostly Cloudy"
"1958-07-04 03:00","1958","07","04","03:00","16.7","","11.7","","72","","36","","8","","25.0","","99.62","","","","","","Cloudy"
"1958-07-04 04:00","1958","07","04","04:00","16.7","","13.9","","84","","27","","6","","12.9","","99.67","","","","","","Rain"
"1958-07-04 05:00","1958","07","04","05:00","16.1","","14.4","","90","","36","","5","","4.8","","99.71","","","","","","Moderate Rain,Fog"
"1958-07-04 06:00","1958","07","04","06:00","16.1","","15.6","","97","","7","","3","","3.2","","99.71","","","","","","Rain,Fog"
"1958-07-04 07:00","1958","07","04","07:00","16.1","","15.6","","97","","2","","11","","3.2","","99.68","","","","","","Rain,Fog"
"1958-07-04 08:00","1958","07","04","08:00","14.4","","13.9","","96","","7","","10","","3.2","","99.68","","","","","","Rain,Fog"
"1958-07-04 09:00","1958","07","04","09:00","14.4","","13.9","","96","","7","","13","","3.2","","99.66","","","","","","Rain,Fog"
"1958-07-04 10:00","1958","07","04","10:00","15.6","","15.0","","97","","7","","10","","3.2","","99.65","","","","","","Rain,Fog"
"1958-07-04 11:00","1958","07","04","11:00","15.6","","15.0","","97","","7","","10","","3.2","","99.67","","","","","","Moderate Rain,Fog"
"1958-07-04 12:00","1958","07","04","12:00","15.6","","15.0","","97","","9","","10","","3.2","","99.63","","","","","","Rain,Fog"
"1958-07-04 13:00","1958","07","04","13:00","16.1","","15.0","","93","","9","","14","","6.4","","99.60","","","","","","Rain,Fog"
"1958-07-04 14:00","1958","07","04","14:00","16.1","","15.0","","93","","9","","14","","9.7","","99.59","","","","","","Rain,Fog"
"1958-07-04 15:00","1958","07","04","15:00","16.1","","15.0","","93","","7","","13","","16.1","","99.60","","","","","","Cloudy"
"1958-07-04 16:00","1958","07","04","16:00","16.7","","15.0","","90","","7","","10","","16.1","","99.61","","","","","","Rain"
"1958-07-04 17:00","1958","07","04","17:00","16.1","","15.0","","93","","2","","10","","6.4","","99.67","","","","","","Rain,Fog"
"1958-07-04 18:00","1958","07","04","18:00","16.1","","15.6","","97","","9","","8","","12.9","","99.56","","","","","","Cloudy"
"1958-07-04 19:00","1958","07","04","19:00","16.7","","15.6","","93","","7","","6","","12.9","","99.53","","","","","","Cloudy"
"1958-07-04 20:00","1958","07","04","20:00","16.7","","16.1","","96","","11","","6","","12.9","","99.57","","","","","","Cloudy"
"1958-07-04 21:00","1958","07","04","21:00","16.7","","15.0","","90","","9","","13","","12.9","","99.60","","","","","","Cloudy"
"1958-07-04 22:00","1958","07","04","22:00","16.1","","15.0","","93","","9","","10","","16.1","","99.58","","","","","","Cloudy"
"1958-07-04 23:00","1958","07","04","23:00","16.7","","15.0","","90","","9","","10","","16.1","","99.62","","","","","","Cloudy"
"1958-07-05 00:00","1958","07","05","00:00","16.7","","15.0","","90","","9","","11","","16.1","","99.62","","","","","","Cloudy"
"1958-07-05 01:00","1958","07","05","01:00","16.7","","14.4","","87","","9","","13","","16.1","","99.61","","","","","","Cloudy"
"1958-07-05 02:00","1958","07","05","02:00","16.7","","13.9","","84","","9","","13","","19.3","","99.57","","","","","","Cloudy"
"1958-07-05 03:00","1958","07","05","03:00","16.7","","12.2","","75","","9","","16","","24.1","","99.51","","","","","","Cloudy"
"1958-07-05 04:00","1958","07","05","04:00","16.7","","10.6","","67","","11","","23","","24.1","","99.51","","","","","","Cloudy"
"1958-07-05 05:00","1958","07","05","05:00","16.7","","8.9","","60","","9","","21","","24.1","","99.50","","","","","","Cloudy"
"1958-07-05 06:00","1958","07","05","06:00","16.7","","10.0","","65","","9","","24","","24.1","","99.48","","","","","","Cloudy"
"1958-07-05 07:00","1958","07","05","07:00","16.7","","10.6","","67","","9","","19","","24.1","","99.47","","","","","","Cloudy"
"1958-07-05 08:00","1958","07","05","08:00","17.2","","11.7","","70","","11","","19","","24.1","","99.46","","","","","","Cloudy"
"1958-07-05 09:00","1958","07","05","09:00","17.8","","12.8","","73","","11","","16","","24.1","","99.43","","","","","","Cloudy"
"1958-07-05 10:00","1958","07","05","10:00","18.3","","12.8","","70","","9","","19","","24.1","","99.39","","","","","","Cloudy"
"1958-07-05 11:00","1958","07","05","11:00","18.9","","13.9","","73","","11","","16","","16.1","","99.40","","","","","","Cloudy"
"1958-07-05 12:00","1958","07","05","12:00","19.4","","15.6","","78","","14","","14","","8.0","","99.39","","","","","","Haze"
"1958-07-05 13:00","1958","07","05","13:00","20.0","","16.1","","78","","11","","10","","6.4","","99.37","","25","","","","Haze"
"1958-07-05 14:00","1958","07","05","14:00","22.2","","16.1","","68","","11","","13","","8.0","","99.28","","27","","","","Haze"
"1958-07-05 15:00","1958","07","05","15:00","21.7","","16.7","","71","","14","","13","","8.0","","99.24","","27","","","","Haze"
"1958-07-05 16:00","1958","07","05","16:00","21.1","","16.7","","76","","14","","16","","8.0","","99.20","","26","","","","Haze"
"1958-07-05 17:00","1958","07","05","17:00","21.7","","16.7","","73","","14","","16","","9.7","","99.14","","27","","","","Haze"
"1958-07-05 18:00","1958","07","05","18:00","21.7","","16.7","","73","","14","","16","","9.7","","99.14","","27","","","","Haze"
"1958-07-05 19:00","1958","07","05","19:00","21.1","","16.7","","76","","14","","24","","8.0","","99.16","","26","","","","Haze"
"1958-07-05 20:00","1958","07","05","20:00","19.4","","16.7","","84","","32","","19","","11.3","","99.36","","","","","","Moderate Rain Showers"
"1958-07-05 21:00","1958","07","05","21:00","17.2","","16.1","","93","","7","","11","","16.1","","99.29","","","","","","Cloudy"
"1958-07-05 22:00","1958","07","05","22:00","16.7","","14.4","","87","","9","","14","","19.3","","99.22","","","","","","Mainly Clear"
"1958-07-05 23:00","1958","07","05","23:00","16.7","","13.9","","84","","14","","10","","19.3","","99.24","","","","","","Mainly Clear"
"1958-07-06 00:00","1958","07","06","00:00","16.1","","13.9","","87","","27","","3","","19.3","","99.24","","","","","","Mostly Cloudy"
"1958-07-06 01:00","1958","07","06","01:00","16.1","","14.4","","90","","","","0","","16.1","","99.23","","","","","","Cloudy"
"1958-07-06 02:00","1958","07","06","02:00","15.6","","13.9","","90","","2","","3","","16.1","","99.22","","","","","","Cloudy"
"1958-07-06 03:00","1958","07","06","03:00","15.6","","13.9","","90","","","","0","","16.1","","99.19","","","","","","Mostly Cloudy"
"1958-07-06 04:00","1958","07","06","04:00","16.1","","14.4","","90","","","","0","","12.9","","99.20","","","","","","Cloudy"
"1958-07-06 05:00","1958","07","06","05:00","16.1","","15.0","","93","","","","0","","1.2","","99.24","","","","","","Fog"
"1958-07-06 06:00","1958","07","06","06:00","16.1","","15.0","","93","","","","0","","0.8","","99.32","","","","","","Fog"
"1958-07-06 07:00","1958","07","06","07:00","16.7","","15.6","","93","","","","0","","2.4","","99.40","","","","","","Fog"
"1958-07-06 08:00","1958","07","06","08:00","18.3","","16.7","","90","","","","0","","4.0","","99.41","","","","","","Fog"
"1958-07-06 09:00","1958","07","06","09:00","21.1","","17.8","","81","","","","0","","8.0","","99.42","","27","","","","Haze"
"1958-07-06 10:00","1958","07","06","10:00","22.2","","17.2","","73","","27","","8","","25.0","","99.48","","28","","","","Mostly Cloudy"
"1958-07-06 11:00","1958","07","06","11:00","22.2","","17.2","","73","","27","","10","","25.0","","99.50","","28","","","","Cloudy"
"1958-07-06 12:00","1958","07","06","12:00","22.8","","16.7","","69","","29","","16","","25.0","","99.49","","28","","","","Cloudy"
"1958-07-06 13:00","1958","07","06","13:00","22.8","","15.6","","64","","29","","14","","25.0","","99.50","","27","","","","Cloudy"
"1958-07-06 14:00","1958","07","06","14:00","22.8","","15.0","","62","","29","","18","","25.0","","99.46","","27","","","","Mostly Cloudy"
"1958-07-06 15:00","1958","07","06","15:00","24.4","","15.0","","56","","32","","26","","25.0","","99.47","","28","","","","Mainly Clear"
"1958-07-06 16:00","1958","07","06","16:00","24.4","","15.0","","56","","36","","13","","25.0","","99.48","","28","","","","Mostly Cloudy"
"1958-07-06 17:00","1958","07","06","17:00","24.4","","15.0","","56","","36","","10","","25.0","","99.52","","28","","","","Mostly Cloudy"
"1958-07-06 18:00","1958","07","06","18:00","23.3","","16.1","","64","","36","","13","","25.0","","99.54","","28","","","","Mostly Cloudy"
"1958-07-06 19:00","1958","07","06","19:00","23.3","","15.0","","60","","36","","6","","25.0","","99.56","","27","","","","Mostly Cloudy"
"1958-07-06 20:00","1958","07","06","20:00","21.1","","15.6","","71","","2","","5","","25.0","","99.57","","25","","","","Mostly Cloudy"
"1958-07-06 21:00","1958","07","06","21:00","20.6","","15.6","","73","","36","","3","","25.0","","99.67","","25","","","","Mostly Cloudy"
"1958-07-06 22:00","1958","07","06","22:00","18.3","","15.6","","84","","36","","6","","25.0","","99.68","","","","","","Mainly Clear"
"1958-07-06 23:00","1958","07","06","23:00","17.8","","15.0","","84","","36","","5","","25.0","","99.70","","","","","","Mainly Clear"
"1958-07-07 00:00","1958","07","07","00:00","17.2","","14.4","","84","","36","","5","","25.0","","99.71","","","","","","Mainly Clear"
"1958-07-07 01:00","1958","07","07","01:00","16.7","","14.4","","87","","36","","5","","25.0","","99.73","","","","","","Mainly Clear"
"1958-07-07 02:00","1958","07","07","02:00","15.6","","14.4","","93","","36","","5","","25.0","","99.71","","","","","","Mainly Clear"
"1958-07-07 03:00","1958","07","07","03:00","15.0","","13.9","","93","","2","","5","","24.1","","99.69","","","","","","Mostly Cloudy"
"1958-07-07 04:00","1958","07","07","04:00","15.0","","13.3","","90","","36","","5","","24.1","","99.70","","","","","","Mainly Clear"
"1958-07-07 05:00","1958","07","07","05:00","15.0","","13.3","","90","","36","","3","","19.3","","99.74","","","","","","Mostly Cloudy"
"1958-07-07 06:00","1958","07","07","06:00","15.6","","13.9","","90","","7","","3","","25.0","","99.75","","","","","","Mostly Cloudy"
"1958-07-07 07:00","1958","07","07","07:00","16.7","","14.4","","87","","","","0","","11.3","","99.77","","","","","","Mainly Clear"
"1958-07-07 08:00","1958","07","07","08:00","18.3","","15.6","","84","","9","","6","","8.0","","99.74","","","","","","Smoke,Haze"
"1958-07-07 09:00","1958","07","07","09:00","16.7","","15.6","","93","","16","","10","","16.1","","99.76","","","","","","Cloudy"
"1958-07-07 10:00","1958","07","07","10:00","20.0","","14.4","","70","","11","","13","","19.3","","99.73","","","","","","Cloudy"
"1958-07-07 11:00","1958","07","07","11:00","20.0","","15.6","","76","","14","","11","","8.0","","99.74","","","","","","Smoke,Haze"
"1958-07-07 12:00","1958","07","07","12:00","20.6","","15.6","","73","","14","","10","","9.7","","99.68","","25","","","","Smoke,Haze"
"1958-07-07 13:00","1958","07","07","13:00","21.7","","16.7","","73","","9","","6","","8.0","","99.64","","27","","","","Smoke,Haze"
"1958-07-07 14:00","1958","07","07","14:00","22.2","","16.1","","68","","14","","6","","8.0","","99.58","","27","","","","Smoke,Haze"
"1958-07-07 15:00","1958","07","07","15:00","22.2","","16.1","","68","","11","","8","","6.4","","99.55","","27","","","","Smoke,Haze"
"1958-07-07 16:00","1958","07","07","16:00","22.2","","16.7","","71","","11","","8","","6.4","","99.49","","27","","","","Smoke,Haze"
"1958-07-07 17:00","1958","07","07","17:00","22.2","","16.1","","68","","9","","8","","4.8","","99.44","","27","","","","Smoke,Haze"
"1958-07-07 18:00","1958","07","07","18:00","22.2","","16.7","","71","","9","","6","","4.8","","99.43","","27","","","","Smoke,Haze"
"1958-07-07 19:00","1958","07","07","19:00","22.2","","16.7","","71","","11","","6","","4.8","","99.41","","27","","","","Smoke,Haze"
"1958-07-07 20:00","1958","07","07","20:00","20.0","","16.1","","78","","18","","5","","4.8","","99.41","","25","","","","Smoke,Haze"
"1958-07-07 21:00","1958","07","07","21:00","19.4","","16.1","","81","","","","0","","4.8","","99.39","","","","","","Smoke,Haze"
"1958-07-07 22:00","1958","07","07","22:00","18.9","","16.1","","84","","18","","5","","4.8","","99.36","","","","","","Smoke,Haze"
"1958-07-07 23:00","1958","07","07","23:00","18.3","","16.1","","87","","","","0","","4.8","","99.41","","","","","","Smoke,Haze"
"1958-07-08 00:00","1958","07","08","00:00","18.3","","15.6","","84","","","","0","","6.4","","99.37","","","","","","Smoke,Haze"
"1958-07-08 01:00","1958","07","08","01:00","18.3","","16.1","","87","","","","0","","6.4","","99.33","","","","","","Haze"
"1958-07-08 02:00","1958","07","08","02:00","17.8","","16.1","","90","","","","0","","6.4","","99.30","","","","","","Haze"
"1958-07-08 03:00","1958","07","08","03:00","17.8","","16.1","","90","","","","0","","6.4","","99.27","","","","","","Fog"
"1958-07-08 04:00","1958","07","08","04:00","17.2","","15.6","","90","","","","0","","3.2","","99.30","","","","","","Fog"
"1958-07-08 05:00","1958","07","08","05:00","16.7","","15.6","","93","","","","0","","3.2","","99.28","","","","","","Fog"
"1958-07-08 06:00","1958","07","08","06:00","16.7","","16.1","","97","","34","","3","","4.0","","99.30","","","","","","Fog"
"1958-07-08 07:00","1958","07","08","07:00","17.8","","16.1","","90","","","","0","","4.0","","99.30","","","","","","Fog"
"1958-07-08 08:00","1958","07","08","08:00","19.4","","18.3","","93","","","","0","","4.0","","99.40","","","","","","Fog"
"1958-07-08 09:00","1958","07","08","09:00","20.6","","17.8","","84","","36","","11","","4.8","","99.40","","26","","","","Haze"
"1958-07-08 10:00","1958","07","08","10:00","20.6","","17.8","","84","","36","","14","","4.8","","99.47","","26","","","","Haze"
"1958-07-08 11:00","1958","07","08","11:00","21.7","","17.2","","76","","36","","11","","6.4","","99.48","","27","","","","Haze"
"1958-07-08 12:00","1958","07","08","12:00","22.8","","14.4","","59","","32","","21","","25.0","","99.49","","26","","","","Mostly Cloudy"
"1958-07-08 13:00","1958","07","08","13:00","22.8","","13.3","","55","","36","","13","","25.0","","99.53","","26","","","","Mostly Cloudy"
"1958-07-08 14:00","1958","07","08","14:00","23.9","","12.2","","48","","29","","23","","25.0","","99.54","","26","","","","Mostly Cloudy"
"1958-07-08 15:00","1958","07","08","15:00","22.8","","10.0","","44","","32","","29","","25.0","","99.56","","","","","","Mostly Cloudy"
"1958-07-08 16:00","1958","07","08","16:00","23.3","","10.0","","43","","29","","32","","25.0","","99.58","","25","","","","Mostly Cloudy"
"1958-07-08 17:00","1958","07","08","17:00","21.7","","8.9","","44","","29","","29","","25.0","","99.59","","","","","","Mostly Cloudy"
"1958-07-08 18:00","1958","07","08","18:00","20.0","","8.9","","49","","32","","32","","25.0","","99.64","","","","","","Mainly Clear"
"1958-07-08 19:00","1958","07","08","19:00","20.0","","9.4","","51","","32","","29","","25.0","","99.73","","","","","","Mainly Clear"
"1958-07-08 20:00","1958","07","08","20:00","17.8","","9.4","","58","","32","","24","","25.0","","99.81","","","","","","Mainly Clear"
"1958-07-08 21:00","1958","07","08","21:00","16.1","","10.0","","67","","32","","13","","25.0","","99.90","","","","","","Mainly Clear"
"1958-07-08 22:00","1958","07","08","22:00","15.6","","10.0","","70","","32","","8","","25.0","","99.92","","","","","","Mainly Clear"
"1958-07-08 23:00","1958","07","08","23:00","14.4","","10.0","","75","","29","","13","","25.0","","99.96","","","","","","Mainly Clear"
"1958-07-09 00:00","1958","07","09","00:00","13.3","","10.0","","80","","29","","8","","25.0","","100.01","","","","","","Clear"
"1958-07-09 01:00","1958","07","09","01:00","13.3","","10.0","","80","","29","","8","","25.0","","100.04","","","","","","Clear"
"1958-07-09 02:00","1958","07","09","02:00","12.8","","10.0","","83","","32","","8","","25.0","","100.06","","","","","","Clear"
"1958-07-09 03:00","1958","07","09","03:00","12.2","","8.3","","77","","29","","6","","25.0","","100.09","","","","","","Clear"
"1958-07-09 04:00","1958","07","09","04:00","11.7","","8.9","","83","","32","","5","","25.0","","100.13","","","","","","Mainly Clear"
"1958-07-09 05:00","1958","07","09","05:00","12.2","","8.9","","80","","29","","6","","25.0","","100.18","","","","","","Mainly Clear"
"1958-07-09 06:00","1958","07","09","06:00","13.3","","9.4","","77","","32","","10","","25.0","","100.28","","","","","","Mainly Clear"
"1958-07-09 07:00","1958","07","09","07:00","15.6","","10.0","","70","","34","","10","","25.0","","100.28","","","","","","Mainly Clear"
"1958-07-09 08:00","1958","07","09","08:00","18.3","","11.1","","63","","36","","5","","25.0","","100.35","","","","","","Mainly Clear"
"1958-07-09 09:00","1958","07","09","09:00","20.6","","11.7","","57","","36","","6","","25.0","","100.39","","","","","","Mainly Clear"
"1958-07-09 10:00","1958","07","09","10:00","21.7","","7.2","","39","","36","","5","","25.0","","100.36","","","","","","Mainly Clear"
"1958-07-09 11:00","1958","07","09","11:00","23.3","","11.1","","46","","16","","11","","25.0","","100.35","","25","","","","Mainly Clear"
"1958-07-09 12:00","1958","07","09","12:00","23.3","","10.0","","43","","18","","10","","25.0","","100.32","","25","","","","Mainly Clear"
"1958-07-09 13:00","1958","07","09","13:00","24.4","","10.6","","43","","16","","16","","25.0","","100.27","","26","","","","Mainly Clear"
"1958-07-09 14:00","1958","07","09","14:00","23.9","","8.9","","39","","16","","23","","25.0","","100.24","","25","","","","Mainly Clear"
"1958-07-09 15:00","1958","07","09","15:00","25.0","","8.9","","36","","16","","19","","25.0","","100.19","","26","","","","Mainly Clear"
"1958-07-09 16:00","1958","07","09","16:00","25.0","","8.9","","36","","18","","23","","25.0","","100.18","","26","","","","Mainly Clear"
"1958-07-09 17:00","1958","07","09","17:00","25.0","","10.6","","40","","18","","23","","25.0","","100.13","","27","","","","Mainly Clear"
"1958-07-09 18:00","1958","07","09","18:00","24.4","","11.1","","43","","18","","23","","25.0","","100.11","","26","","","","Mostly Cloudy"
"1958-07-09 19:00","1958","07","09","19:00","23.3","","11.7","","48","","18","","19","","25.0","","100.11","","25","","","","Mainly Clear"
"1958-07-09 20:00","1958","07","09","20:00","21.7","","11.7","","53","","18","","16","","25.0","","100.10","","","","","","Mainly Clear"
"1958-07-09 21:00","1958","07","09","21:00","22.2","","8.3","","41","","18","","10","","25.0","","100.16","","","","","","Mainly Clear"
"1958-07-09 22:00","1958","07","09","22:00","18.9","","8.9","","52","","18","","6","","25.0","","100.12","","","","","","Mainly Clear"
"1958-07-09 23:00","1958","07","09","23:00","18.9","","11.1","","61","","18","","8","","25.0","","100.09","","","","","","Mainly Clear"
"1958-07-10 00:00","1958","07","10","00:00","20.0","","9.4","","51","","20","","5","","25.0","","100.07","","","","","","Clear"
"1958-07-10 01:00","1958","07","10","01:00","17.2","","11.1","","67","","25","","5","","25.0","","100.07","","","","","","Mainly Clear"
"1958-07-10 02:00","1958","07","10","02:00","16.7","","11.1","","70","","","","0","","24.1","","100.01","","","","","","Mostly Cloudy"
"1958-07-10 03:00","1958","07","10","03:00","17.8","","9.4","","58","","","","0","","24.1","","99.93","","","","","","Mostly Cloudy"
"1958-07-10 04:00","1958","07","10","04:00","16.1","","11.1","","72","","","","0","","24.1","","99.94","","","","","","Mostly Cloudy"
"1958-07-10 05:00","1958","07","10","05:00","16.1","","11.1","","72","","27","","3","","24.1","","99.88","","","","","","Mostly Cloudy"
"1958-07-10 06:00","1958","07","10","06:00","16.7","","11.1","","70","","9","","5","","9.7","","99.86","","","","","","Haze"
"1958-07-10 07:00","1958","07","10","07:00","18.3","","12.8","","70","","14","","5","","4.8","","99.83","","","","","","Haze"
"1958-07-10 08:00","1958","07","10","08:00","20.6","","14.4","","68","","18","","13","","12.9","","99.71","","","","","","Mainly Clear"
"1958-07-10 09:00","1958","07","10","09:00","21.7","","15.0","","66","","18","","14","","11.3","","99.76","","26","","","","Mostly Cloudy"
"1958-07-10 10:00","1958","07","10","10:00","23.3","","16.1","","64","","18","","16","","9.7","","99.63","","28","","","","Haze"
"1958-07-10 11:00","1958","07","10","11:00","24.4","","16.7","","62","","18","","23","","9.7","","99.57","","29","","","","Haze"
"1958-07-10 12:00","1958","07","10","12:00","23.9","","16.7","","64","","18","","19","","9.7","","99.51","","29","","","","Haze"
"1958-07-10 13:00","1958","07","10","13:00","26.1","","18.3","","62","","18","","23","","8.0","","99.39","","32","","","","Haze"
"1958-07-10 14:00","1958","07","10","14:00","26.1","","18.9","","65","","20","","24","","6.4","","99.35","","33","","","","Haze"
"1958-07-10 15:00","1958","07","10","15:00","25.6","","18.9","","67","","23","","24","","11.3","","99.27","","32","","","","Mostly Cloudy"
"1958-07-10 16:00","1958","07","10","16:00","27.8","","20.0","","63","","23","","27","","9.7","","99.16","","35","","","","Haze"
"1958-07-10 17:00","1958","07","10","17:00","27.8","","20.0","","63","","23","","24","","9.7","","99.13","","35","","","","Haze"
"1958-07-10 18:00","1958","07","10","18:00","26.7","","21.1","","72","","23","","35","","3.2","","99.06","","35","","","","Thunderstorms,Heavy Rain Showers"
"1958-07-10 19:00","1958","07","10","19:00","22.2","","18.3","","79","","25","","16","","11.3","","99.17","","28","","","","Cloudy"
"1958-07-10 20:00","1958","07","10","20:00","21.7","","16.1","","71","","27","","16","","12.9","","99.21","","26","","","","Mostly Cloudy"
"1958-07-10 21:00","1958","07","10","21:00","22.2","","16.7","","73","","27","","10","","24.1","","99.29","","27","","","","Mostly Cloudy"
"1958-07-10 22:00","1958","07","10","22:00","21.1","","17.8","","81","","25","","8","","19.3","","99.33","","27","","","","Rain Showers"
"1958-07-10 23:00","1958","07","10","23:00","20.0","","17.2","","84","","5","","5","","19.3","","99.32","","25","","","","Rain Showers"
"1958-07-11 00:00","1958","07","11","00:00","19.4","","16.1","","81","","","","0","","25.0","","99.33","","","","","","Rain"
"1958-07-11 01:00","1958","07","11","01:00","18.9","","15.6","","81","","36","","13","","25.0","","99.32","","","","","","Rain"
"1958-07-11 02:00","1958","07","11","02:00","17.2","","15.6","","90","","36","","6","","19.3","","99.32","","","","","","Cloudy"
"1958-07-11 03:00","1958","07","11","03:00","16.7","","15.6","","93","","36","","3","","19.3","","99.29","","","","","","Cloudy"
"1958-07-11 04:00","1958","07","11","04:00","17.2","","15.6","","90","","36","","3","","19.3","","99.29","","","","","","Cloudy"
"1958-07-11 05:00","1958","07","11","05:00","16.7","","14.4","","87","","36","","6","","19.3","","99.26","","","","","","Cloudy"
"1958-07-11 06:00","1958","07","11","06:00","16.7","","12.2","","75","","36","","5","","25.0","","99.27","","","","","","Mostly Cloudy"
"1958-07-11 07:00","1958","07","11","07:00","16.7","","12.8","","78","","36","","6","","25.0","","99.28","","","","","","Mostly Cloudy"
"1958-07-11 08:00","1958","07","11","08:00","18.3","","11.7","","65","","36","","10","","25.0","","99.30","","","","","","Mainly Clear"
"1958-07-11 09:00","1958","07","11","09:00","19.4","","12.2","","63","","36","","6","","25.0","","99.28","","","","","","Mainly Clear"
"1958-07-11 10:00","1958","07","11","10:00","21.7","","12.8","","57","","32","","23","","25.0","","99.28","","","","","","Mainly Clear"
"1958-07-11 11:00","1958","07","11","11:00","22.2","","11.7","","51","","29","","26","","25.0","","99.28","","","","","","Mainly Clear"
"1958-07-11 12:00","1958","07","11","12:00","22.8","","12.2","","51","","29","","16","","25.0","","99.29","","25","","","","Mostly Cloudy"
"1958-07-11 13:00","1958","07","11","13:00","22.8","","12.2","","51","","29","","10","","25.0","","99.25","","25","","","","Mostly Cloudy"
"1958-07-11 14:00","1958","07","11","14:00","22.8","","12.8","","53","","29","","10","","25.0","","99.23","","25","","","","Mostly Cloudy"
"1958-07-11 15:00","1958","07","11","15:00","23.9","","12.2","","48","","29","","10","","25.0","","99.18","","26","","","","Mostly Cloudy"
"1958-07-11 16:00","1958","07","11","16:00","23.9","","13.3","","52","","32","","14","","25.0","","99.13","","27","","","","Mostly Cloudy"
"1958-07-11 17:00","1958","07","11","17:00","23.3","","12.8","","52","","36","","8","","25.0","","99.13","","26","","","","Cloudy"
"1958-07-11 18:00","1958","07","11","18:00","23.3","","12.8","","52","","32","","5","","25.0","","99.16","","26","","","","Mostly Cloudy"
"1958-07-11 19:00","1958","07","11","19:00","22.8","","13.3","","55","","23","","5","","25.0","","99.14","","26","","","","Mostly Cloudy"
"1958-07-11 20:00","1958","07","11","20:00","19.4","","13.9","","70","","18","","5","","25.0","","99.14","","","","","","Mostly Cloudy"
"1958-07-11 21:00","1958","07","11","21:00","19.4","","13.9","","70","","5","","10","","25.0","","99.14","","","","","","Mostly Cloudy"
"1958-07-11 22:00","1958","07","11","22:00","18.3","","13.3","","73","","5","","10","","25.0","","99.11","","","","","","Cloudy"
"1958-07-11 23:00","1958","07","11","23:00","17.8","","13.3","","75","","2","","6","","25.0","","99.11","","","","","","Cloudy"
"1958-07-12 00:00","1958","07","12","00:00","17.2","","13.9","","81","","2","","6","","25.0","","99.13","","","","","","Cloudy"
"1958-07-12 01:00","1958","07","12","01:00","16.7","","13.9","","84","","36","","5","","25.0","","99.10","","","","","","Mostly Cloudy"
"1958-07-12 02:00","1958","07","12","02:00","16.7","","13.9","","84","","36","","3","","25.0","","99.05","","","","","","Mostly Cloudy"
"1958-07-12 03:00","1958","07","12","03:00","16.1","","13.9","","87","","36","","3","","25.0","","99.01","","","","","","Mostly Cloudy"
"1958-07-12 04:00","1958","07","12","04:00","16.1","","13.9","","87","","2","","6","","16.1","","98.93","","","","","","Rain"
"1958-07-12 05:00","1958","07","12","05:00","16.1","","14.4","","90","","36","","5","","16.1","","98.95","","","","","","Rain"
"1958-07-12 06:00","1958","07","12","06:00","15.6","","14.4","","93","","32","","5","","24.1","","98.97","","","","","","Mostly Cloudy"
"1958-07-12 07:00","1958","07","12","07:00","16.7","","15.0","","90","","29","","5","","24.1","","99.07","","","","","","Cloudy"
"1958-07-12 08:00","1958","07","12","08:00","17.2","","14.4","","84","","32","","6","","24.1","","99.05","","","","","","Cloudy"
"1958-07-12 09:00","1958","07","12","09:00","18.9","","13.9","","73","","29","","3","","24.1","","99.08","","","","","","Mostly Cloudy"
"1958-07-12 10:00","1958","07","12","10:00","20.0","","13.3","","66","","","","0","","24.1","","99.12","","","","","","Mostly Cloudy"
"1958-07-12 11:00","1958","07","12","11:00","22.2","","14.4","","61","","23","","6","","24.1","","99.15","","26","","","","Mostly Cloudy"
"1958-07-12 12:00","1958","07","12","12:00","23.9","","14.4","","56","","23","","11","","24.1","","99.13","","28","","","","Mainly Clear"
"1958-07-12 13:00","1958","07","12","13:00","25.0","","14.4","","52","","18","","8","","24.1","","99.12","","29","","","","Mainly Clear"
"1958-07-12 14:00","1958","07","12","14:00","23.9","","16.1","","62","","16","","13","","24.1","","99.09","","29","","","","Mostly Cloudy"
"1958-07-12 15:00","1958","07","12","15:00","25.0","","16.1","","58","","18","","16","","24.1","","99.13","","30","","","","Mostly Cloudy"
"1958-07-12 16:00","1958","07","12","16:00","26.1","","16.1","","54","","18","","14","","24.1","","99.09","","31","","","","Mostly Cloudy"
"1958-07-12 17:00","1958","07","12","17:00","26.1","","15.6","","52","","18","","14","","24.1","","99.09","","30","","","","Mainly Clear"
"1958-07-12 18:00","1958","07","12","18:00","25.0","","16.1","","58","","18","","10","","24.1","","99.16","","30","","","","Mostly Cloudy"
"1958-07-12 19:00","1958","07","12","19:00","25.0","","16.1","","58","","18","","10","","24.1","","99.19","","30","","","","Mainly Clear"
"1958-07-12 20:00","1958","07","12","20:00","25.0","","16.7","","60","","18","","6","","24.1","","99.24","","30","","","","Mainly Clear"
"1958-07-12 21:00","1958","07","12","21:00","21.7","","16.1","","71","","36","","6","","24.1","","99.35","","26","","","","Mainly Clear"
"1958-07-12 22:00","1958","07","12","22:00","20.6","","13.9","","66","","36","","6","","24.1","","99.37","","","","","","Mainly Clear"
"1958-07-12 23:00","1958","07","12","23:00","19.4","","14.4","","73","","36","","5","","25.0","","99.36","","","","","","Clear"
"1958-07-13 00:00","1958","07","13","00:00","18.3","","14.4","","78","","36","","3","","25.0","","99.40","","","","","","Clear"
"1958-07-13 01:00","1958","07","13","01:00","17.2","","13.9","","81","","","","0","","25.0","","99.43","","","","","","Clear"
"1958-07-13 02:00","1958","07","13","02:00","15.6","","12.8","","84","","","","0","","25.0","","99.45","","","","","","Clear"
"1958-07-13 03:00","1958","07","13","03:00","15.0","","13.3","","90","","","","0","","25.0","","99.50","","","","","","Clear"
"1958-07-13 04:00","1958","07","13","04:00","14.4","","13.3","","93","","","","0","","25.0","","99.55","","","","","","Mainly Clear"
"1958-07-13 05:00","1958","07","13","05:00","14.4","","12.2","","87","","","","0","","24.1","","99.63","","","","","","Mainly Clear"
"1958-07-13 06:00","1958","07","13","06:00","15.0","","12.8","","87","","","","0","","25.0","","99.69","","","","","","Mainly Clear"
"1958-07-13 07:00","1958","07","13","07:00","17.2","","13.9","","81","","2","","3","","25.0","","99.72","","","","","","Mainly Clear"
"1958-07-13 08:00","1958","07","13","08:00","21.7","","15.6","","68","","5","","3","","25.0","","99.78","","26","","","","Mainly Clear"
"1958-07-13 09:00","1958","07","13","09:00","25.0","","13.9","","50","","14","","5","","24.1","","99.80","","28","","","","Clear"
"1958-07-13 10:00","1958","07","13","10:00","25.6","","14.4","","50","","14","","16","","24.1","","99.82","","29","","","","Mainly Clear"
"1958-07-13 11:00","1958","07","13","11:00","25.0","","14.4","","52","","16","","16","","24.1","","99.85","","29","","","","Mainly Clear"
"1958-07-13 12:00","1958","07","13","12:00","26.1","","13.9","","47","","16","","19","","24.1","","99.82","","29","","","","Mainly Clear"
"1958-07-13 13:00","1958","07","13","13:00","25.6","","13.9","","49","","16","","18","","24.1","","99.82","","29","","","","Mainly Clear"
"1958-07-13 14:00","1958","07","13","14:00","27.8","","15.0","","46","","16","","16","","24.1","","99.81","","32","","","","Mainly Clear"
"1958-07-13 15:00","1958","07","13","15:00","26.7","","13.3","","44","","14","","16","","24.1","","99.85","","30","","","","Mainly Clear"
"1958-07-13 16:00","1958","07","13","16:00","27.2","","12.8","","41","","16","","16","","24.1","","99.77","","30","","","","Mainly Clear"
"1958-07-13 17:00","1958","07","13","17:00","26.7","","11.7","","39","","14","","13","","24.1","","99.75","","29","","","","Mainly Clear"
"1958-07-13 18:00","1958","07","13","18:00","26.1","","11.1","","39","","14","","10","","24.1","","99.73","","28","","","","Mainly Clear"
"1958-07-13 19:00","1958","07","13","19:00","26.1","","13.9","","47","","16","","10","","24.1","","99.76","","29","","","","Mainly Clear"
"1958-07-13 20:00","1958","07","13","20:00","22.8","","11.7","","50","","9","","6","","24.1","","99.76","","25","","","","Mainly Clear"
"1958-07-13 21:00","1958","07","13","21:00","21.7","","11.7","","53","","9","","6","","24.1","","99.78","","","","","","Mainly Clear"
"1958-07-13 22:00","1958","07","13","22:00","20.6","","12.8","","61","","7","","6","","24.1","","99.78","","","","","","Mainly Clear"
"1958-07-13 23:00","1958","07","13","23:00","19.4","","13.3","","68","","7","","5","","25.0","","99.75","","","","","","Mainly Clear"
"1958-07-14 00:00","1958","07","14","00:00","19.4","","13.9","","70","","7","","5","","25.0","","99.76","","","","","","Mainly Clear"
"1958-07-14 01:00","1958","07","14","01:00","20.6","","15.6","","73","","14","","5","","25.0","","99.74","","25","","","","Mainly Clear"
"1958-07-14 02:00","1958","07","14","02:00","18.3","","16.1","","87","","9","","6","","19.3","","99.69","","","","","","Mainly Clear"
"1958-07-14 03:00","1958","07","14","03:00","18.3","","16.1","","87","","5","","5","","19.3","","99.69","","","","","","Mainly Clear"
"1958-07-14 04:00","1958","07","14","04:00","18.3","","15.6","","84","","","","0","","19.3","","99.67","","","","","","Mostly Cloudy"
"1958-07-14 05:00","1958","07","14","05:00","18.3","","16.1","","87","","","","0","","9.7","","99.66","","","","","","Haze"
"1958-07-14 06:00","1958","07","14","06:00","18.9","","16.7","","87","","","","0","","12.9","","99.66","","","","","","Mostly Cloudy"
"1958-07-14 07:00","1958","07","14","07:00","21.1","","16.7","","76","","14","","11","","12.9","","99.65","","26","","","","Mainly Clear"
"1958-07-14 08:00","1958","07","14","08:00","22.8","","17.2","","71","","14","","13","","11.3","","99.62","","28","","","","Mostly Cloudy"
"1958-07-14 09:00","1958","07","14","09:00","23.9","","17.8","","69","","16","","16","","12.9","","99.58","","30","","","","Mostly Cloudy"
"1958-07-14 10:00","1958","07","14","10:00","25.0","","18.9","","69","","18","","13","","19.3","","99.53","","32","","","","Mostly Cloudy"
"1958-07-14 11:00","1958","07","14","11:00","26.1","","18.9","","65","","18","","19","","19.3","","99.53","","33","","","","Mostly Cloudy"
"1958-07-14 12:00","1958","07","14","12:00","26.1","","18.9","","65","","16","","23","","24.1","","99.49","","33","","","","Mostly Cloudy"
"1958-07-14 13:00","1958","07","14","13:00","26.7","","18.9","","63","","18","","23","","19.3","","99.47","","33","","","","Mostly Cloudy"
"1958-07-14 14:00","1958","07","14","14:00","22.8","","21.1","","90","","18","","6","","16.1","","99.44","","31","","","","Rain Showers"
"1958-07-14 15:00","1958","07","14","15:00","25.0","","21.7","","82","","16","","6","","25.0","","99.33","","34","","","","Mainly Clear"
"1958-07-14 16:00","1958","07","14","16:00","26.7","","23.9","","85","","16","","14","","16.1","","99.26","","38","","","","Mostly Cloudy"
"1958-07-14 17:00","1958","07","14","17:00","26.1","","20.0","","69","","16","","14","","12.9","","99.23","","34","","","","Mostly Cloudy"
"1958-07-14 18:00","1958","07","14","18:00","24.4","","19.4","","74","","14","","14","","11.3","","99.21","","31","","","","Mostly Cloudy"
"1958-07-14 19:00","1958","07","14","19:00","23.9","","19.4","","76","","14","","10","","9.7","","99.14","","31","","","","Haze"
"1958-07-14 20:00","1958","07","14","20:00","23.9","","19.4","","76","","11","","5","","8.0","","99.20","","31","","","","Haze"
"1958-07-14 21:00","1958","07","14","21:00","22.8","","20.0","","84","","23","","35","","4.0","","99.28","","30","","","","Heavy Rain Showers"
"1958-07-14 22:00","1958","07","14","22:00","21.7","","20.6","","93","","23","","10","","16.1","","99.25","","30","","","","Cloudy"
"1958-07-14 23:00","1958","07","14","23:00","22.2","","20.6","","90","","23","","11","","25.0","","99.27","","30","","","","Mainly Clear"
"1958-07-15 00:00","1958","07","15","00:00","21.1","","19.4","","90","","23","","11","","24.1","","99.21","","28","","","","Mainly Clear"
"1958-07-15 01:00","1958","07","15","01:00","20.6","","19.4","","93","","20","","10","","24.1","","99.20","","28","","","","Mainly Clear"
"1958-07-15 02:00","1958","07","15","02:00","20.6","","18.9","","90","","23","","14","","16.1","","99.20","","27","","","","Mostly Cloudy"
"1958-07-15 03:00","1958","07","15","03:00","20.0","","18.9","","93","","18","","10","","16.1","","99.19","","27","","","","Mainly Clear"
"1958-07-15 04:00","1958","07","15","04:00","20.0","","18.9","","93","","18","","5","","24.1","","99.18","","27","","","","Mainly Clear"
"1958-07-15 05:00","1958","07","15","05:00","19.4","","18.3","","93","","18","","5","","25.0","","99.18","","","","","","Mainly Clear"
"1958-07-15 06:00","1958","07","15","06:00","20.0","","19.4","","96","","18","","6","","25.0","","99.19","","27","","","","Mostly Cloudy"
"1958-07-15 07:00","1958","07","15","07:00","21.1","","20.0","","93","","23","","6","","25.0","","99.21","","29","","","","Mostly Cloudy"
"1958-07-15 08:00","1958","07","15","08:00","23.3","","21.1","","88","","23","","11","","19.3","","99.18","","32","","","","Mostly Cloudy"
"1958-07-15 09:00","1958","07","15","09:00","25.6","","21.1","","77","","23","","11","","19.3","","99.14","","34","","","","Mainly Clear"
"1958-07-15 10:00","1958","07","15","10:00","27.2","","20.0","","65","","23","","13","","24.1","","99.15","","35","","","","Mainly Clear"
"1958-07-15 11:00","1958","07","15","11:00","28.9","","19.4","","57","","23","","23","","24.1","","99.14","","36","","","","Mostly Cloudy"
"1958-07-15 12:00","1958","07","15","12:00","29.4","","20.0","","59","","23","","19","","24.1","","99.14","","37","","","","Mostly Cloudy"
"1958-07-15 13:00","1958","07","15","13:00","28.3","","21.7","","67","","23","","19","","24.1","","99.12","","37","","","","Mostly Cloudy"
"1958-07-15 14:00","1958","07","15","14:00","30.6","","20.6","","55","","23","","23","","24.1","","99.12","","39","","","","Mostly Cloudy"
"1958-07-15 15:00","1958","07","15","15:00","30.0","","20.6","","57","","23","","23","","24.1","","98.89","","38","","","","Mostly Cloudy"
"1958-07-15 16:00","1958","07","15","16:00","30.6","","20.6","","55","","23","","31","","24.1","","98.89","","39","","","","Mainly Clear"
"1958-07-15 17:00","1958","07","15","17:00","30.0","","20.0","","55","","23","","19","","19.3","","98.86","","38","","","","Mostly Cloudy"
"1958-07-15 18:00","1958","07","15","18:00","28.9","","20.0","","59","","23","","16","","16.1","","98.86","","36","","","","Mostly Cloudy"
"1958-07-15 19:00","1958","07","15","19:00","27.8","","21.1","","67","","23","","16","","12.9","","98.87","","36","","","","Mostly Cloudy"
"1958-07-15 20:00","1958","07","15","20:00","22.8","","20.0","","84","","5","","10","","12.9","","98.94","","30","","","","Cloudy"
"1958-07-15 21:00","1958","07","15","21:00","21.7","","21.1","","97","","27","","5","","16.1","","98.95","","30","","","","Rain Showers"
"1958-07-15 22:00","1958","07","15","22:00","21.7","","20.0","","90","","36","","3","","19.3","","98.95","","29","","","","Cloudy"
"1958-07-15 23:00","1958","07","15","23:00","21.7","","20.6","","93","","14","","3","","16.1","","98.96","","30","","","","Mostly Cloudy"
"1958-07-16 00:00","1958","07","16","00:00","21.1","","20.6","","97","","2","","3","","12.9","","98.89","","29","","","","Cloudy"
"1958-07-16 01:00","1958","07","16","01:00","21.1","","20.6","","97","","34","","10","","11.3","","98.90","","29","","","","Rain Showers"
"1958-07-16 02:00","1958","07","16","02:00","21.1","","20.0","","93","","29","","3","","24.1","","98.85","","29","","","","Cloudy"
"1958-07-16 03:00","1958","07","16","03:00","20.6","","20.0","","97","","27","","6","","24.1","","98.86","","28","","","","Rain Showers"
"1958-07-16 04:00","1958","07","16","04:00","20.6","","20.0","","97","","34","","10","","24.1","","98.87","","28","","","","Rain Showers"
"1958-07-16 05:00","1958","07","16","05:00","20.6","","20.0","","97","","27","","6","","24.1","","98.90","","28","","","","Rain Showers"
"1958-07-16 06:00","1958","07","16","06:00","20.0","","16.7","","81","","29","","11","","25.0","","98.94","","25","","","","Mostly Cloudy"
"1958-07-16 07:00","1958","07","16","07:00","20.0","","16.7","","81","","29","","11","","25.0","","98.97","","25","","","","Mostly Cloudy"
"1958-07-16 08:00","1958","07","16","08:00","21.1","","16.7","","76","","29","","8","","25.0","","99.03","","26","","","","Mainly Clear"
"1958-07-16 09:00","1958","07","16","09:00","23.3","","16.1","","64","","29","","23","","25.0","","99.06","","28","","","","Mainly Clear"
"1958-07-16 10:00","1958","07","16","10:00","24.4","","12.8","","48","","32","","27","","25.0","","99.07","","27","","","","Mainly Clear"
"1958-07-16 11:00","1958","07","16","11:00","25.6","","13.3","","47","","32","","31","","25.0","","99.11","","29","","","","Mainly Clear"
"1958-07-16 12:00","1958","07","16","12:00","26.1","","13.9","","47","","29","","27","","25.0","","99.13","","29","","","","Mainly Clear"
"1958-07-16 13:00","1958","07","16","13:00","25.6","","13.9","","49","","29","","24","","25.0","","99.17","","29","","","","Mostly Cloudy"
"1958-07-16 14:00","1958","07","16","14:00","25.6","","14.4","","50","","27","","27","","25.0","","99.16","","29","","","","Mostly Cloudy"
"1958-07-16 15:00","1958","07","16","15:00","26.1","","15.0","","51","","29","","31","","25.0","","99.17","","30","","","","Mostly Cloudy"
"1958-07-16 16:00","1958","07","16","16:00","23.9","","13.3","","52","","32","","37","","25.0","","99.25","","27","","","","Mostly Cloudy"
"1958-07-16 17:00","1958","07","16","17:00","22.8","","13.9","","57","","32","","35","","25.0","","99.36","","26","","","","Mostly Cloudy"
"1958-07-16 18:00","1958","07","16","18:00","19.4","","13.3","","68","","36","","24","","19.3","","99.42","","","","","","Mainly Clear"
"1958-07-16 19:00","1958","07","16","19:00","19.4","","14.4","","73","","36","","13","","24.1","","99.47","","","","","","Mainly Clear"
"1958-07-16 20:00","1958","07","16","20:00","17.8","","12.8","","73","","36","","13","","25.0","","99.56","","","","","","Mainly Clear"
"1958-07-16 21:00","1958","07","16","21:00","16.7","","11.7","","72","","36","","19","","25.0","","99.65","","","","","","Mainly Clear"
"1958-07-16 22:00","1958","07","16","22:00","15.6","","11.7","","78","","34","","8","","25.0","","99.73","","","","","","Clear"
"1958-07-16 23:00","1958","07","16","23:00","15.0","","11.7","","81","","36","","6","","25.0","","99.79","","","","","","Clear"
"1958-07-17 00:00","1958","07","17","00:00","14.4","","11.7","","84","","32","","5","","25.0","","99.83","","","","","","Clear"
"1958-07-17 01:00","1958","07","17","01:00","13.9","","11.7","","87","","32","","6","","25.0","","99.90","","","","","","Clear"
"1958-07-17 02:00","1958","07","17","02:00","13.3","","11.1","","86","","32","","5","","25.0","","99.96","","","","","","Clear"
"1958-07-17 03:00","1958","07","17","03:00","12.8","","11.1","","90","","32","","8","","25.0","","99.97","","","","","","Clear"
"1958-07-17 04:00","1958","07","17","04:00","11.7","","11.1","","96","","36","","5","","25.0","","99.99","","","","","","Mainly Clear"
"1958-07-17 05:00","1958","07","17","05:00","12.2","","10.6","","90","","34","","8","","25.0","","100.03","","","","","","Mainly Clear"
"1958-07-17 06:00","1958","07","17","06:00","11.7","","10.0","","90","","32","","6","","25.0","","100.09","","","","","","Mainly Clear"
"1958-07-17 07:00","1958","07","17","07:00","14.4","","10.6","","78","","36","","3","","25.0","","100.14","","","","","","Mainly Clear"
"1958-07-17 08:00","1958","07","17","08:00","17.2","","10.0","","63","","36","","6","","25.0","","100.22","","","","","","Mainly Clear"
"1958-07-17 09:00","1958","07","17","09:00","19.4","","7.2","","45","","36","","8","","25.0","","100.19","","","","","","Mainly Clear"
"1958-07-17 10:00","1958","07","17","10:00","20.0","","5.6","","39","","36","","10","","25.0","","100.18","","","","","","Mainly Clear"
"1958-07-17 11:00","1958","07","17","11:00","21.1","","4.4","","34","","36","","10","","25.0","","100.18","","","","","","Mainly Clear"
"1958-07-17 12:00","1958","07","17","12:00","22.8","","6.7","","35","","36","","11","","25.0","","100.16","","","","","","Mainly Clear"
"1958-07-17 13:00","1958","07","17","13:00","22.2","","5.0","","33","","36","","10","","25.0","","100.14","","","","","","Mainly Clear"
"1958-07-17 14:00","1958","07","17","14:00","22.8","","6.1","","34","","14","","19","","25.0","","100.09","","","","","","Mainly Clear"
"1958-07-17 15:00","1958","07","17","15:00","24.4","","7.2","","33","","18","","18","","25.0","","100.08","","","","","","Mainly Clear"
"1958-07-17 16:00","1958","07","17","16:00","23.9","","7.8","","36","","16","","19","","25.0","","100.05","","","","","","Mostly Cloudy"
"1958-07-17 17:00","1958","07","17","17:00","23.3","","7.2","","36","","18","","18","","25.0","","100.01","","","","","","Mostly Cloudy"
"1958-07-17 18:00","1958","07","17","18:00","22.2","","7.8","","39","","16","","13","","25.0","","99.98","","","","","","Mostly Cloudy"
"1958-07-17 19:00","1958","07","17","19:00","21.1","","8.9","","46","","18","","10","","24.1","","99.99","","","","","","Mostly Cloudy"
"1958-07-17 20:00","1958","07","17","20:00","20.0","","10.0","","53","","18","","10","","24.1","","99.95","","","","","","Mostly Cloudy"
"1958-07-17 21:00","1958","07","17","21:00","18.9","","10.0","","56","","20","","11","","25.0","","99.97","","","","","","Mostly Cloudy"
"1958-07-17 22:00","1958","07","17","22:00","17.8","","10.6","","63","","25","","8","","25.0","","99.98","","","","","","Mostly Cloudy"
"1958-07-17 23:00","1958","07","17","23:00","17.8","","11.1","","65","","23","","14","","25.0","","99.92","","","","","","Mainly Clear"
"1958-07-18 00:00","1958","07","18","00:00","16.1","","11.1","","72","","27","","6","","25.0","","99.89","","","","","","Mainly Clear"
"1958-07-18 01:00","1958","07","18","01:00","15.6","","11.7","","78","","29","","11","","25.0","","99.86","","","","","","Mainly Clear"
"1958-07-18 02:00","1958","07","18","02:00","14.4","","11.1","","81","","36","","3","","25.0","","99.86","","","","","","Mainly Clear"
"1958-07-18 03:00","1958","07","18","03:00","13.9","","10.0","","77","","36","","5","","25.0","","99.84","","","","","","Mostly Cloudy"
"1958-07-18 04:00","1958","07","18","04:00","13.9","","9.4","","75","","","","0","","25.0","","99.78","","","","","","Mostly Cloudy"
"1958-07-18 05:00","1958","07","18","05:00","13.3","","9.4","","77","","","","0","","25.0","","99.74","","","","","","Mostly Cloudy"
"1958-07-18 06:00","1958","07","18","06:00","13.9","","10.0","","77","","36","","3","","24.1","","99.70","","","","","","Mostly Cloudy"
"1958-07-18 07:00","1958","07","18","07:00","15.0","","11.1","","78","","","","0","","24.1","","99.66","","","","","","Mostly Cloudy"
"1958-07-18 08:00","1958","07","18","08:00","18.9","","13.3","","70","","","","0","","16.1","","99.62","","","","","","Mainly Clear"
"1958-07-18 09:00","1958","07","18","09:00","21.7","","10.6","","51","","","","0","","16.1","","99.50","","","","","","Mainly Clear"
"1958-07-18 10:00","1958","07","18","10:00","22.2","","11.1","","49","","18","","5","","12.9","","99.42","","","","","","Mainly Clear"
"1958-07-18 11:00","1958","07","18","11:00","22.8","","12.2","","51","","16","","8","","11.3","","99.37","","25","","","","Mainly Clear"
"1958-07-18 12:00","1958","07","18","12:00","22.8","","11.7","","51","","16","","11","","11.3","","99.28","","25","","","","Mostly Cloudy"
"1958-07-18 13:00","1958","07","18","13:00","23.3","","12.2","","50","","18","","16","","12.9","","99.23","","26","","","","Mostly Cloudy"
"1958-07-18 14:00","1958","07","18","14:00","22.8","","11.7","","50","","14","","13","","12.9","","99.08","","25","","","","Mostly Cloudy"
"1958-07-18 15:00","1958","07","18","15:00","23.9","","12.2","","48","","18","","10","","12.9","","99.06","","26","","","","Mostly Cloudy"
"1958-07-18 16:00","1958","07","18","16:00","23.9","","12.2","","48","","18","","19","","12.9","","98.92","","26","","","","Mostly Cloudy"
"1958-07-18 17:00","1958","07","18","17:00","23.3","","13.3","","54","","18","","19","","9.7","","98.84","","26","","","","Haze"
"1958-07-18 18:00","1958","07","18","18:00","22.2","","15.0","","64","","18","","13","","9.7","","98.75","","26","","","","Haze"
"1958-07-18 19:00","1958","07","18","19:00","22.8","","15.0","","62","","20","","16","","9.7","","98.67","","27","","","","Haze"
"1958-07-18 20:00","1958","07","18","20:00","21.7","","16.1","","71","","20","","13","","8.0","","98.55","","26","","","","Haze"
"1958-07-18 21:00","1958","07","18","21:00","20.6","","17.8","","84","","27","","16","","9.7","","98.56","","26","","","","Haze"
"1958-07-18 22:00","1958","07","18","22:00","20.0","","17.2","","84","","27","","19","","12.9","","98.54","","25","","","","Mostly Cloudy"
"1958-07-18 23:00","1958","07","18","23:00","19.4","","16.1","","81","","27","","19","","12.9","","98.49","","","","","","Mostly Cloudy"
"1958-07-19 00:00","1958","07","19","00:00","18.9","","15.6","","81","","29","","16","","11.3","","98.53","","","","","","Mostly Cloudy"
"1958-07-19 01:00","1958","07","19","01:00","18.3","","15.0","","81","","29","","23","","12.9","","98.52","","","","","","Mostly Cloudy"
"1958-07-19 02:00","1958","07","19","02:00","16.7","","13.9","","84","","29","","19","","25.0","","98.50","","","","","","Mostly Cloudy"
"1958-07-19 03:00","1958","07","19","03:00","15.6","","12.8","","84","","27","","16","","25.0","","98.47","","","","","","Clear"
"1958-07-19 04:00","1958","07","19","04:00","15.0","","13.9","","93","","27","","16","","25.0","","98.47","","","","","","Mainly Clear"
"1958-07-19 05:00","1958","07","19","05:00","15.6","","13.9","","90","","25","","19","","25.0","","98.48","","","","","","Mostly Cloudy"
"1958-07-19 06:00","1958","07","19","06:00","15.6","","13.9","","90","","25","","19","","25.0","","98.48","","","","","","Rain Showers"
"1958-07-19 07:00","1958","07","19","07:00","17.2","","13.9","","81","","25","","19","","25.0","","98.46","","","","","","Mainly Clear"
"1958-07-19 08:00","1958","07","19","08:00","18.3","","11.7","","65","","29","","35","","25.0","","98.50","","","","","","Mostly Cloudy"
"1958-07-19 09:00","1958","07","19","09:00","17.8","","12.2","","70","","27","","32","","25.0","","98.56","","","","","","Mostly Cloudy"
"1958-07-19 10:00","1958","07","19","10:00","17.8","","12.2","","70","","29","","29","","25.0","","98.60","","","","","","Cloudy"
"1958-07-19 11:00","1958","07","19","11:00","19.4","","11.1","","59","","29","","39","","25.0","","98.62","","","","","","Mostly Cloudy"
"1958-07-19 12:00","1958","07","19","12:00","19.4","","11.1","","59","","29","","45","","25.0","","98.64","","","","","","Mostly Cloudy"
"1958-07-19 13:00","1958","07","19","13:00","18.9","","10.6","","58","","29","","40","","25.0","","98.70","","","","","","Mostly Cloudy"
"1958-07-19 14:00","1958","07","19","14:00","18.9","","11.7","","63","","32","","42","","25.0","","98.71","","","","","","Mostly Cloudy"
"1958-07-19 15:00","1958","07","19","15:00","19.4","","11.1","","59","","29","","42","","25.0","","98.72","","","","","","Mostly Cloudy"
"1958-07-19 16:00","1958","07","19","16:00","18.9","","11.1","","61","","29","","42","","25.0","","98.80","","","","","","Mostly Cloudy"
"1958-07-19 17:00","1958","07","19","17:00","17.8","","10.6","","63","","29","","43","","25.0","","98.84","","","","","","Mainly Clear"
"1958-07-19 18:00","1958","07","19","18:00","16.7","","10.0","","65","","29","","34","","25.0","","98.87","","","","","","Mostly Cloudy"
"1958-07-19 19:00","1958","07","19","19:00","16.1","","10.0","","67","","29","","29","","25.0","","98.89","","","","","","Mostly Cloudy"
"1958-07-19 20:00","1958","07","19","20:00","16.1","","10.6","","70","","29","","19","","24.1","","98.94","","","","","","Cloudy"
"1958-07-19 21:00","1958","07","19","21:00","15.6","","10.0","","70","","34","","26","","24.1","","99.00","","","","","","Cloudy"
"1958-07-19 22:00","1958","07","19","22:00","15.0","","8.9","","67","","34","","43","","24.1","","99.09","","","","","","Cloudy"
"1958-07-19 23:00","1958","07","19","23:00","14.4","","8.9","","69","","36","","23","","24.1","","99.15","","","","","","Cloudy"
"1958-07-20 00:00","1958","07","20","00:00","14.4","","8.9","","69","","36","","19","","24.1","","99.23","","","","","","Cloudy"
"1958-07-20 01:00","1958","07","20","01:00","13.9","","8.9","","72","","36","","16","","24.1","","99.22","","","","","","Mostly Cloudy"
"1958-07-20 02:00","1958","07","20","02:00","12.2","","8.9","","80","","36","","16","","24.1","","99.33","","","","","","Mainly Clear"
"1958-07-20 03:00","1958","07","20","03:00","11.7","","7.8","","77","","36","","16","","24.1","","99.37","","","","","","Clear"
"1958-07-20 04:00","1958","07","20","04:00","10.6","","6.1","","74","","34","","16","","24.1","","99.38","","","","","","Mainly Clear"
"1958-07-20 05:00","1958","07","20","05:00","9.4","","5.6","","77","","36","","13","","24.1","","99.40","","","","","","Mainly Clear"
"1958-07-20 06:00","1958","07","20","06:00","10.6","","6.1","","74","","36","","13","","25.0","","99.44","","","","","","Mainly Clear"
"1958-07-20 07:00","1958","07","20","07:00","12.8","","7.8","","72","","32","","16","","25.0","","99.52","","","","","","Mainly Clear"
"1958-07-20 08:00","1958","07","20","08:00","15.6","","7.8","","60","","32","","26","","25.0","","99.55","","","","","","Mainly Clear"
"1958-07-20 09:00","1958","07","20","09:00","17.2","","6.7","","50","","36","","21","","25.0","","99.61","","","","","","Mainly Clear"
"1958-07-20 10:00","1958","07","20","10:00","18.9","","7.8","","48","","36","","18","","25.0","","99.61","","","","","","Mainly Clear"
"1958-07-20 11:00","1958","07","20","11:00","20.0","","4.4","","36","","32","","27","","25.0","","99.61","","","","","","Mainly Clear"
"1958-07-20 12:00","1958","07","20","12:00","20.6","","5.0","","36","","36","","18","","25.0","","99.61","","","","","","Mainly Clear"
"1958-07-20 13:00","1958","07","20","13:00","21.1","","5.0","","35","","36","","24","","25.0","","99.61","","","","","","Mainly Clear"
"1958-07-20 14:00","1958","07","20","14:00","22.8","","5.6","","34","","34","","23","","25.0","","99.61","","","","","","Mainly Clear"
"1958-07-20 15:00","1958","07","20","15:00","22.2","","3.3","","29","","36","","21","","25.0","","99.56","","","","","","Mainly Clear"
"1958-07-20 16:00","1958","07","20","16:00","22.8","","4.4","","30","","36","","16","","25.0","","99.55","","","","","","Mainly Clear"
"1958-07-20 17:00","1958","07","20","17:00","22.2","","3.9","","30","","36","","21","","25.0","","99.54","","","","","","Mainly Clear"
"1958-07-20 18:00","1958","07","20","18:00","21.1","","5.0","","35","","36","","19","","25.0","","99.55","","","","","","Mainly Clear"
"1958-07-20 19:00","1958","07","20","19:00","20.0","","5.6","","39","","2","","14","","25.0","","99.57","","","","","","Mainly Clear"
"1958-07-20 20:00","1958","07","20","20:00","17.8","","6.7","","48","","36","","10","","25.0","","99.60","","","","","","Mainly Clear"
"1958-07-20 21:00","1958","07","20","21:00","16.7","","8.3","","58","","2","","13","","25.0","","99.67","","","","","","Mainly Clear"
"1958-07-20 22:00","1958","07","20","22:00","15.0","","8.3","","64","","36","","13","","25.0","","99.70","","","","","","Clear"
"1958-07-20 23:00","1958","07","20","23:00","13.9","","8.3","","69","","36","","8","","25.0","","99.69","","","","","","Clear"
"1958-07-21 00:00","1958","07","21","00:00","13.3","","7.2","","66","","36","","8","","25.0","","99.71","","","","","","Mainly Clear"
"1958-07-21 01:00","1958","07","21","01:00","13.3","","7.2","","66","","34","","6","","25.0","","99.72","","","","","","Mainly Clear"
"1958-07-21 02:00","1958","07","21","02:00","13.3","","7.8","","69","","36","","8","","25.0","","99.74","","","","","","Mainly Clear"
"1958-07-21 03:00","1958","07","21","03:00","12.8","","6.7","","66","","36","","6","","25.0","","99.75","","","","","","Clear"
"1958-07-21 04:00","1958","07","21","04:00","11.7","","7.2","","74","","36","","8","","25.0","","99.77","","","","","","Mainly Clear"
"1958-07-21 05:00","1958","07","21","05:00","11.1","","7.2","","77","","36","","10","","25.0","","99.77","","","","","","Mainly Clear"
"1958-07-21 06:00","1958","07","21","06:00","12.2","","7.2","","71","","36","","10","","25.0","","99.80","","","","","","Clear"
"1958-07-21 07:00","1958","07","21","07:00","14.4","","8.9","","69","","36","","6","","25.0","","99.82","","","","","","Mainly Clear"
"1958-07-21 08:00","1958","07","21","08:00","17.8","","10.6","","63","","2","","5","","25.0","","99.84","","","","","","Mainly Clear"
"1958-07-21 09:00","1958","07","21","09:00","20.6","","10.0","","51","","18","","6","","25.0","","99.83","","","","","","Mainly Clear"
"1958-07-21 10:00","1958","07","21","10:00","21.7","","10.6","","49","","18","","10","","12.9","","99.82","","","","","","Mainly Clear"
"1958-07-21 11:00","1958","07","21","11:00","22.8","","7.2","","37","","16","","14","","25.0","","99.81","","","","","","Mainly Clear"
"1958-07-21 12:00","1958","07","21","12:00","22.8","","8.9","","41","","16","","13","","25.0","","99.80","","","","","","Mainly Clear"
"1958-07-21 13:00","1958","07","21","13:00","23.9","","7.2","","34","","18","","16","","25.0","","99.88","","","","","","Mainly Clear"
"1958-07-21 14:00","1958","07","21","14:00","25.6","","7.2","","31","","23","","13","","25.0","","99.72","","26","","","","Mainly Clear"
"1958-07-21 15:00","1958","07","21","15:00","24.4","","6.1","","31","","16","","16","","19.3","","99.67","","","","","","Mainly Clear"
"1958-07-21 16:00","1958","07","21","16:00","25.0","","7.8","","33","","16","","14","","24.1","","99.64","","25","","","","Mainly Clear"
"1958-07-21 17:00","1958","07","21","17:00","24.4","","8.3","","36","","14","","13","","24.1","","99.59","","25","","","","Mainly Clear"
"1958-07-21 18:00","1958","07","21","18:00","23.9","","8.9","","39","","14","","13","","25.0","","99.57","","25","","","","Mainly Clear"
"1958-07-21 19:00","1958","07","21","19:00","22.8","","8.3","","40","","14","","8","","25.0","","99.56","","","","","","Mainly Clear"
"1958-07-21 20:00","1958","07","21","20:00","20.6","","7.8","","44","","9","","10","","25.0","","99.55","","","","","","Mainly Clear"
"1958-07-21 21:00","1958","07","21","21:00","18.9","","6.7","","45","","9","","8","","25.0","","99.60","","","","","","Mainly Clear"
"1958-07-21 22:00","1958","07","21","22:00","17.2","","7.2","","52","","9","","6","","25.0","","99.60","","","","","","Mainly Clear"
"1958-07-21 23:00","1958","07","21","23:00","15.0","","8.3","","64","","36","","5","","25.0","","99.59","","","","","","Mainly Clear"
"1958-07-22 00:00","1958","07","22","00:00","14.4","","7.8","","64","","36","","6","","25.0","","99.55","","","","","","Mainly Clear"
"1958-07-22 01:00","1958","07","22","01:00","13.9","","7.8","","67","","36","","8","","25.0","","99.52","","","","","","Mainly Clear"
"1958-07-22 02:00","1958","07","22","02:00","13.3","","7.2","","66","","36","","6","","25.0","","99.49","","","","","","Mainly Clear"
"1958-07-22 03:00","1958","07","22","03:00","12.8","","6.7","","66","","36","","6","","25.0","","99.45","","","","","","Mainly Clear"
"1958-07-22 04:00","1958","07","22","04:00","12.8","","7.2","","69","","36","","6","","25.0","","99.45","","","","","","Mainly Clear"
"1958-07-22 05:00","1958","07","22","05:00","12.2","","7.2","","71","","36","","6","","25.0","","99.48","","","","","","Mostly Cloudy"
"1958-07-22 06:00","1958","07","22","06:00","12.8","","8.3","","74","","36","","10","","25.0","","99.47","","","","","","Mostly Cloudy"
"1958-07-22 07:00","1958","07","22","07:00","14.4","","9.4","","72","","36","","8","","25.0","","99.48","","","","","","Mostly Cloudy"
"1958-07-22 08:00","1958","07","22","08:00","18.3","","13.3","","73","","5","","8","","25.0","","99.45","","","","","","Mostly Cloudy"
"1958-07-22 09:00","1958","07","22","09:00","21.1","","14.4","","66","","5","","8","","19.3","","99.44","","25","","","","Cloudy"
"1958-07-22 10:00","1958","07","22","10:00","21.7","","14.4","","64","","16","","13","","8.0","","99.43","","25","","","","Smoke,Haze"
"1958-07-22 11:00","1958","07","22","11:00","22.8","","14.4","","59","","16","","13","","9.7","","99.42","","26","","","","Smoke,Haze"
"1958-07-22 12:00","1958","07","22","12:00","23.3","","13.9","","56","","16","","16","","12.9","","99.40","","27","","","","Cloudy"
"1958-07-22 13:00","1958","07","22","13:00","22.8","","13.3","","55","","16","","16","","12.9","","99.36","","26","","","","Cloudy"
"1958-07-22 14:00","1958","07","22","14:00","22.8","","13.3","","55","","18","","16","","12.9","","99.38","","26","","","","Cloudy"
"1958-07-22 15:00","1958","07","22","15:00","21.7","","13.3","","59","","16","","13","","16.1","","99.33","","25","","","","Mostly Cloudy"
"1958-07-22 16:00","1958","07","22","16:00","22.2","","13.9","","59","","11","","8","","14.5","","99.32","","26","","","","Mostly Cloudy"
"1958-07-22 17:00","1958","07","22","17:00","22.2","","14.4","","61","","14","","10","","12.9","","99.27","","26","","","","Mostly Cloudy"
"1958-07-22 18:00","1958","07","22","18:00","21.1","","14.4","","66","","18","","10","","12.9","","99.33","","25","","","","Mostly Cloudy"
"1958-07-22 19:00","1958","07","22","19:00","21.1","","14.4","","66","","18","","8","","9.7","","99.27","","25","","","","Haze"
"1958-07-22 20:00","1958","07","22","20:00","20.0","","14.4","","70","","16","","8","","8.0","","99.29","","","","","","Haze"
"1958-07-22 21:00","1958","07","22","21:00","18.9","","15.6","","81","","","","0","","12.9","","99.22","","","","","","Mainly Clear"
"1958-07-22 22:00","1958","07","22","22:00","17.8","","15.0","","84","","","","0","","11.3","","99.33","","","","","","Mainly Clear"
"1958-07-22 23:00","1958","07","22","23:00","17.2","","15.0","","87","","","","0","","9.7","","99.23","","","","","","Haze"
"1958-07-23 00:00","1958","07","23","00:00","16.7","","14.4","","87","","","","0","","8.0","","99.22","","","","","","Haze"
"1958-07-23 01:00","1958","07","23","01:00","16.7","","14.4","","87","","","","0","","8.0","","99.14","","","","","","Haze"
"1958-07-23 02:00","1958","07","23","02:00","15.6","","13.3","","87","","","","0","","6.4","","99.20","","","","","","Haze"
"1958-07-23 03:00","1958","07","23","03:00","15.6","","13.3","","87","","","","0","","6.4","","99.20","","","","","","Haze"
"1958-07-23 04:00","1958","07","23","04:00","15.0","","13.3","","90","","","","0","","6.4","","99.18","","","","","","Fog"
"1958-07-23 05:00","1958","07","23","05:00","13.9","","13.3","","96","","","","0","","2.4","","99.23","","","","","","Fog"
"1958-07-23 06:00","1958","07","23","06:00","15.6","","13.3","","87","","","","0","","4.0","","99.29","","","","","","Fog"
"1958-07-23 07:00","1958","07","23","07:00","16.1","","14.4","","90","","29","","5","","6.4","","99.33","","","","","","Fog"
"1958-07-23 08:00","1958","07","23","08:00","20.0","","13.9","","68","","36","","5","","11.3","","99.34","","","","","","Mostly Cloudy"
"1958-07-23 09:00","1958","07","23","09:00","21.1","","14.4","","66","","2","","5","","11.3","","99.35","","25","","","","Cloudy"
"1958-07-23 10:00","1958","07","23","10:00","23.9","","14.4","","56","","18","","3","","12.9","","99.33","","28","","","","Mostly Cloudy"
"1958-07-23 11:00","1958","07","23","11:00","24.4","","15.6","","58","","27","","5","","11.3","","99.33","","29","","","","Mostly Cloudy"
"1958-07-23 12:00","1958","07","23","12:00","26.1","","16.1","","54","","18","","10","","9.7","","99.32","","31","","","","Haze"
"1958-07-23 13:00","1958","07","23","13:00","26.7","","16.1","","52","","18","","16","","9.7","","99.32","","31","","","","Haze"
"1958-07-23 14:00","1958","07","23","14:00","26.1","","15.6","","52","","16","","19","","9.7","","99.27","","30","","","","Haze"
"1958-07-23 15:00","1958","07","23","15:00","26.7","","15.0","","49","","14","","16","","9.7","","99.24","","31","","","","Haze"
"1958-07-23 16:00","1958","07","23","16:00","26.7","","15.0","","49","","16","","16","","12.9","","99.20","","31","","","","Mainly Clear"
"1958-07-23 17:00","1958","07","23","17:00","26.7","","15.0","","49","","18","","16","","16.1","","99.18","","31","","","","Mainly Clear"
"1958-07-23 18:00","1958","07","23","18:00","26.1","","15.0","","51","","16","","10","","16.1","","99.20","","30","","","","Mainly Clear"
"1958-07-23 19:00","1958","07","23","19:00","25.0","","16.7","","60","","14","","6","","16.1","","99.22","","30","","","","Mainly Clear"
"1958-07-23 20:00","1958","07","23","20:00","23.3","","13.3","","54","","5","","8","","19.3","","99.25","","26","","","","Mainly Clear"
"1958-07-23 21:00","1958","07","23","21:00","22.2","","12.8","","55","","2","","10","","24.1","","99.29","","25","","","","Mainly Clear"
"1958-07-23 22:00","1958","07","23","22:00","20.6","","10.6","","53","","36","","13","","25.0","","99.29","","","","","","Mainly Clear"
"1958-07-23 23:00","1958","07","23","23:00","18.3","","11.1","","63","","36","","10","","25.0","","99.28","","","","","","Mainly Clear"
"1958-07-24 00:00","1958","07","24","00:00","17.2","","11.7","","70","","36","","11","","25.0","","99.29","","","","","","Clear"
"1958-07-24 01:00","1958","07","24","01:00","17.2","","11.1","","67","","36","","10","","25.0","","99.29","","","","","","Clear"
"1958-07-24 02:00","1958","07","24","02:00","16.1","","10.6","","70","","36","","8","","25.0","","99.29","","","","","","Clear"
"1958-07-24 03:00","1958","07","24","03:00","15.6","","11.1","","75","","36","","10","","25.0","","99.29","","","","","","Clear"
"1958-07-24 04:00","1958","07","24","04:00","15.0","","10.6","","75","","36","","6","","25.0","","99.29","","","","","","Mainly Clear"
"1958-07-24 05:00","1958","07","24","05:00","13.9","","10.6","","80","","36","","6","","25.0","","99.31","","","","","","Mainly Clear"
"1958-07-24 06:00","1958","07","24","06:00","15.0","","11.1","","78","","36","","5","","24.1","","99.34","","","","","","Mainly Clear"
"1958-07-24 07:00","1958","07","24","07:00","16.7","","12.2","","75","","36","","3","","24.1","","99.35","","","","","","Mainly Clear"
"1958-07-24 08:00","1958","07","24","08:00","21.1","","12.8","","59","","36","","3","","24.1","","99.35","","","","","","Mainly Clear"
"1958-07-24 09:00","1958","07","24","09:00","22.8","","12.2","","51","","2","","3","","24.1","","99.32","","25","","","","Mostly Cloudy"
"1958-07-24 10:00","1958","07","24","10:00","25.0","","11.1","","42","","5","","3","","24.1","","99.29","","27","","","","Mostly Cloudy"
"1958-07-24 11:00","1958","07","24","11:00","26.7","","11.1","","38","","9","","5","","24.1","","99.23","","29","","","","Mostly Cloudy"
"1958-07-24 12:00","1958","07","24","12:00","27.8","","11.7","","37","","34","","13","","24.1","","99.16","","30","","","","Mainly Clear"
"1958-07-24 13:00","1958","07","24","13:00","28.3","","13.3","","40","","18","","14","","24.1","","99.15","","31","","","","Mainly Clear"
"1958-07-24 14:00","1958","07","24","14:00","27.8","","12.8","","40","","16","","19","","16.1","","99.08","","30","","","","Mainly Clear"
"1958-07-24 15:00","1958","07","24","15:00","29.4","","12.8","","36","","18","","19","","12.9","","99.02","","32","","","","Mainly Clear"
"1958-07-24 16:00","1958","07","24","16:00","28.3","","12.8","","38","","18","","19","","12.9","","98.99","","31","","","","Mainly Clear"
"1958-07-24 17:00","1958","07","24","17:00","28.3","","13.3","","40","","18","","16","","12.9","","98.97","","31","","","","Mainly Clear"
"1958-07-24 18:00","1958","07","24","18:00","26.7","","13.3","","44","","18","","16","","19.3","","98.91","","30","","","","Mainly Clear"
"1958-07-24 19:00","1958","07","24","19:00","26.1","","13.9","","47","","18","","13","","19.3","","98.86","","29","","","","Mainly Clear"
"1958-07-24 20:00","1958","07","24","20:00","23.9","","14.4","","56","","18","","13","","9.7","","98.83","","28","","","","Haze"
"1958-07-24 21:00","1958","07","24","21:00","22.2","","15.0","","64","","18","","6","","16.1","","98.90","","26","","","","Mainly Clear"
"1958-07-24 22:00","1958","07","24","22:00","20.6","","15.6","","73","","","","0","","16.1","","98.92","","25","","","","Mainly Clear"
"1958-07-24 23:00","1958","07","24","23:00","19.4","","15.0","","76","","32","","8","","25.0","","98.92","","","","","","Mainly Clear"
"1958-07-25 00:00","1958","07","25","00:00","18.9","","13.9","","73","","27","","10","","16.1","","98.92","","","","","","Clear"
"1958-07-25 01:00","1958","07","25","01:00","20.0","","13.3","","66","","29","","10","","16.1","","98.90","","","","","","Clear"
"1958-07-25 02:00","1958","07","25","02:00","18.9","","13.3","","70","","29","","6","","16.1","","98.86","","","","","","Clear"
"1958-07-25 03:00","1958","07","25","03:00","18.9","","13.3","","70","","27","","5","","16.1","","98.82","","","","","","Clear"
"1958-07-25 04:00","1958","07","25","04:00","16.7","","12.8","","78","","32","","5","","16.1","","98.81","","","","","","Clear"
"1958-07-25 05:00","1958","07","25","05:00","17.2","","13.3","","78","","2","","6","","16.1","","98.79","","","","","","Mainly Clear"
"1958-07-25 06:00","1958","07","25","06:00","18.3","","13.3","","73","","27","","5","","12.9","","98.80","","","","","","Mainly Clear"
"1958-07-25 07:00","1958","07","25","07:00","19.4","","13.3","","68","","14","","10","","11.3","","98.80","","","","","","Clear"
"1958-07-25 08:00","1958","07","25","08:00","22.8","","14.4","","59","","18","","10","","9.7","","98.83","","26","","","","Haze"
"1958-07-25 09:00","1958","07","25","09:00","25.0","","14.4","","52","","18","","10","","9.7","","98.84","","29","","","","Haze"
"1958-07-25 10:00","1958","07","25","10:00","26.1","","15.0","","51","","18","","11","","9.7","","98.84","","30","","","","Haze"
"1958-07-25 11:00","1958","07","25","11:00","27.2","","13.3","","43","","23","","16","","11.3","","98.82","","30","","","","Mostly Cloudy"
"1958-07-25 12:00","1958","07","25","12:00","27.8","","12.8","","40","","23","","19","","11.3","","98.79","","30","","","","Mostly Cloudy"
"1958-07-25 13:00","1958","07","25","13:00","27.8","","15.6","","48","","23","","24","","11.3","","98.77","","32","","","","Cloudy"
"1958-07-25 14:00","1958","07","25","14:00","28.9","","16.1","","46","","18","","19","","11.3","","98.71","","34","","","","Mostly Cloudy"
"1958-07-25 15:00","1958","07","25","15:00","28.3","","15.0","","44","","20","","27","","8.0","","98.69","","32","","","","Haze"
"1958-07-25 16:00","1958","07","25","16:00","28.3","","13.9","","41","","23","","19","","9.7","","98.63","","32","","","","Haze"
"1958-07-25 17:00","1958","07","25","17:00","28.3","","13.9","","41","","20","","18","","8.0","","98.63","","32","","","","Haze"
"1958-07-25 18:00","1958","07","25","18:00","27.2","","16.7","","53","","23","","23","","8.0","","98.59","","32","","","","Haze"
"1958-07-25 19:00","1958","07","25","19:00","26.7","","16.7","","54","","23","","21","","9.7","","98.64","","32","","","","Haze"
"1958-07-25 20:00","1958","07","25","20:00","24.4","","15.0","","56","","23","","8","","9.7","","98.68","","28","","","","Haze"
"1958-07-25 21:00","1958","07","25","21:00","23.9","","15.6","","60","","20","","8","","9.7","","98.73","","28","","","","Haze"
"1958-07-25 22:00","1958","07","25","22:00","23.3","","16.7","","66","","20","","6","","9.7","","98.77","","28","","","","Haze"
"1958-07-25 23:00","1958","07","25","23:00","22.2","","16.7","","71","","20","","10","","9.7","","98.78","","27","","","","Haze"
"1958-07-26 00:00","1958","07","26","00:00","21.1","","16.7","","76","","20","","8","","12.9","","98.76","","26","","","","Mainly Clear"
"1958-07-26 01:00","1958","07","26","01:00","20.0","","16.7","","81","","20","","8","","12.9","","98.76","","25","","","","Mainly Clear"
"1958-07-26 02:00","1958","07","26","02:00","20.6","","17.2","","81","","34","","11","","12.9","","98.79","","26","","","","Mainly Clear"
"1958-07-26 03:00","1958","07","26","03:00","21.1","","17.8","","81","","34","","16","","12.9","","98.85","","27","","","","Mainly Clear"
"1958-07-26 04:00","1958","07","26","04:00","20.0","","16.7","","81","","34","","14","","12.9","","98.90","","25","","","","Mainly Clear"
"1958-07-26 05:00","1958","07","26","05:00","18.3","","15.6","","84","","34","","16","","6.4","","98.95","","","","","","Haze"
"1958-07-26 06:00","1958","07","26","06:00","17.8","","15.0","","84","","34","","11","","6.4","","99.03","","","","","","Haze"
"1958-07-26 07:00","1958","07","26","07:00","18.9","","15.6","","81","","34","","16","","8.0","","99.10","","","","","","Haze"
"1958-07-26 08:00","1958","07","26","08:00","22.2","","14.4","","61","","36","","16","","16.1","","99.20","","26","","","","Clear"
"1958-07-26 09:00","1958","07","26","09:00","23.3","","13.9","","56","","36","","14","","24.1","","99.25","","27","","","","Mainly Clear"
"1958-07-26 10:00","1958","07","26","10:00","25.0","","10.6","","40","","36","","19","","24.1","","99.30","","27","","","","Mainly Clear"
"1958-07-26 11:00","1958","07","26","11:00","25.6","","12.2","","44","","36","","16","","25.0","","99.36","","28","","","","Mainly Clear"
"1958-07-26 12:00","1958","07","26","12:00","26.7","","12.8","","42","","36","","14","","25.0","","99.36","","29","","","","Mostly Cloudy"
"1958-07-26 13:00","1958","07","26","13:00","27.8","","12.8","","40","","5","","13","","25.0","","99.36","","30","","","","Mostly Cloudy"
"1958-07-26 14:00","1958","07","26","14:00","27.8","","11.7","","37","","36","","11","","25.0","","99.39","","30","","","","Mostly Cloudy"
"1958-07-26 15:00","1958","07","26","15:00","28.3","","11.7","","36","","36","","13","","25.0","","99.38","","30","","","","Mostly Cloudy"
"1958-07-26 16:00","1958","07","26","16:00","28.9","","11.7","","35","","32","","11","","25.0","","99.38","","31","","","","Mainly Clear"
"1958-07-26 17:00","1958","07","26","17:00","28.3","","10.0","","32","","32","","14","","25.0","","99.39","","30","","","","Mostly Cloudy"
"1958-07-26 18:00","1958","07","26","18:00","28.3","","10.0","","32","","27","","13","","25.0","","99.39","","30","","","","Mainly Clear"
"1958-07-26 19:00","1958","07","26","19:00","26.7","","12.8","","42","","2","","11","","25.0","","99.41","","29","","","","Mainly Clear"
"1958-07-26 20:00","1958","07","26","20:00","23.9","","13.9","","54","","5","","6","","25.0","","99.50","","27","","","","Mainly Clear"
"1958-07-26 21:00","1958","07","26","21:00","22.8","","12.2","","51","","36","","5","","25.0","","99.59","","25","","","","Mainly Clear"
"1958-07-26 22:00","1958","07","26","22:00","21.1","","12.8","","59","","36","","3","","25.0","","99.65","","","","","","Mainly Clear"
"1958-07-26 23:00","1958","07","26","23:00","20.0","","12.2","","61","","","","0","","25.0","","99.68","","","","","","Clear"
"1958-07-27 00:00","1958","07","27","00:00","17.8","","11.7","","68","","36","","5","","25.0","","99.70","","","","","","Clear"
"1958-07-27 01:00","1958","07","27","01:00","17.2","","11.7","","70","","36","","5","","25.0","","99.70","","","","","","Clear"
"1958-07-27 02:00","1958","07","27","02:00","15.0","","11.7","","81","","36","","10","","25.0","","99.68","","","","","","Clear"
"1958-07-27 03:00","1958","07","27","03:00","15.0","","11.1","","78","","36","","10","","25.0","","99.69","","","","","","Clear"
"1958-07-27 04:00","1958","07","27","04:00","14.4","","11.1","","81","","36","","13","","25.0","","99.72","","","","","","Clear"
"1958-07-27 05:00","1958","07","27","05:00","13.9","","10.6","","80","","36","","10","","25.0","","99.78","","","","","","Clear"
"1958-07-27 06:00","1958","07","27","06:00","15.0","","10.6","","75","","36","","6","","25.0","","99.79","","","","","","Mainly Clear"
"1958-07-27 07:00","1958","07","27","07:00","17.2","","12.2","","72","","36","","8","","25.0","","99.80","","","","","","Mainly Clear"
"1958-07-27 08:00","1958","07","27","08:00","21.1","","13.3","","61","","9","","3","","25.0","","99.86","","","","","","Mainly Clear"
"1958-07-27 09:00","1958","07","27","09:00","25.6","","11.7","","42","","9","","6","","25.0","","99.82","","28","","","","Mainly Clear"
"1958-07-27 10:00","1958","07","27","10:00","26.1","","11.7","","41","","9","","5","","25.0","","99.77","","28","","","","Mainly Clear"
"1958-07-27 11:00","1958","07","27","11:00","27.2","","11.7","","38","","18","","10","","25.0","","99.77","","29","","","","Mainly Clear"
"1958-07-27 12:00","1958","07","27","12:00","27.8","","10.0","","33","","18","","11","","25.0","","99.77","","29","","","","Mainly Clear"
"1958-07-27 13:00","1958","07","27","13:00","27.8","","10.0","","33","","11","","13","","25.0","","99.74","","29","","","","Mainly Clear"
"1958-07-27 14:00","1958","07","27","14:00","28.9","","9.4","","30","","16","","11","","25.0","","99.70","","30","","","","Mainly Clear"
"1958-07-27 15:00","1958","07","27","15:00","29.4","","9.4","","29","","16","","14","","25.0","","99.64","","30","","","","Mostly Cloudy"
"1958-07-27 16:00","1958","07","27","16:00","27.8","","13.3","","41","","16","","11","","25.0","","99.68","","31","","","","Mostly Cloudy"
"1958-07-27 17:00","1958","07","27","17:00","28.3","","12.2","","37","","14","","16","","25.0","","99.66","","31","","","","Mostly Cloudy"
"1958-07-27 18:00","1958","07","27","18:00","27.2","","11.1","","37","","14","","16","","25.0","","99.60","","29","","","","Mainly Clear"
"1958-07-27 19:00","1958","07","27","19:00","25.6","","10.6","","39","","16","","11","","25.0","","99.56","","27","","","","Mainly Clear"
"1958-07-27 20:00","1958","07","27","20:00","23.9","","11.7","","46","","14","","10","","25.0","","99.51","","26","","","","Mainly Clear"
"1958-07-27 21:00","1958","07","27","21:00","23.3","","12.2","","50","","14","","11","","25.0","","99.52","","26","","","","Mainly Clear"
"1958-07-27 22:00","1958","07","27","22:00","22.8","","13.3","","55","","14","","11","","25.0","","99.50","","26","","","","Mainly Clear"
"1958-07-27 23:00","1958","07","27","23:00","22.2","","15.0","","64","","14","","6","","25.0","","99.45","","26","","","","Mostly Cloudy"
"1958-07-28 00:00","1958","07","28","00:00","20.0","","13.3","","66","","9","","6","","25.0","","99.31","","","","","","Mostly Cloudy"
"1958-07-28 01:00","1958","07","28","01:00","20.0","","13.3","","66","","36","","5","","25.0","","99.32","","","","","","Mostly Cloudy"
"1958-07-28 02:00","1958","07","28","02:00","18.9","","13.9","","73","","36","","5","","25.0","","99.27","","","","","","Cloudy"
"1958-07-28 03:00","1958","07","28","03:00","19.4","","15.6","","78","","5","","6","","24.1","","99.17","","","","","","Cloudy"
"1958-07-28 04:00","1958","07","28","04:00","19.4","","16.7","","84","","5","","5","","24.1","","99.13","","","","","","Cloudy"
"1958-07-28 05:00","1958","07","28","05:00","20.0","","17.2","","84","","9","","5","","16.1","","99.11","","25","","","","Rain"
"1958-07-28 06:00","1958","07","28","06:00","20.6","","17.2","","81","","11","","5","","16.1","","99.07","","26","","","","Cloudy"
"1958-07-28 07:00","1958","07","28","07:00","21.1","","17.8","","81","","14","","6","","11.3","","99.02","","27","","","","Cloudy"
"1958-07-28 08:00","1958","07","28","08:00","22.8","","19.4","","82","","16","","11","","6.4","","98.98","","30","","","","Haze"
"1958-07-28 09:00","1958","07","28","09:00","24.4","","19.4","","74","","20","","16","","6.4","","98.95","","31","","","","Haze"
"1958-07-28 10:00","1958","07","28","10:00","25.6","","19.4","","69","","25","","23","","8.0","","98.88","","33","","","","Haze"
"1958-07-28 11:00","1958","07","28","11:00","26.1","","20.0","","69","","23","","23","","9.7","","98.88","","34","","","","Haze"
"1958-07-28 12:00","1958","07","28","12:00","27.8","","18.9","","59","","23","","26","","11.3","","98.86","","34","","","","Mostly Cloudy"
"1958-07-28 13:00","1958","07","28","13:00","27.2","","19.4","","63","","25","","21","","11.3","","98.84","","34","","","","Mostly Cloudy"
"1958-07-28 14:00","1958","07","28","14:00","29.4","","18.9","","53","","25","","23","","16.1","","98.81","","36","","","","Mostly Cloudy"
"1958-07-28 15:00","1958","07","28","15:00","30.0","","19.4","","53","","25","","21","","19.3","","98.75","","37","","","","Mostly Cloudy"
"1958-07-28 16:00","1958","07","28","16:00","29.4","","19.4","","55","","25","","19","","19.3","","98.71","","36","","","","Mostly Cloudy"
"1958-07-28 17:00","1958","07","28","17:00","27.8","","19.4","","61","","25","","24","","19.3","","98.68","","35","","","","Cloudy"
"1958-07-28 18:00","1958","07","28","18:00","27.2","","20.0","","65","","25","","19","","19.3","","98.68","","35","","","","Mostly Cloudy"
"1958-07-28 19:00","1958","07","28","19:00","26.7","","19.4","","65","","23","","13","","19.3","","98.69","","34","","","","Cloudy"
"1958-07-28 20:00","1958","07","28","20:00","25.6","","20.6","","74","","25","","10","","19.3","","98.69","","34","","","","Mostly Cloudy"
"1958-07-28 21:00","1958","07","28","21:00","23.3","","20.0","","82","","27","","6","","19.3","","98.76","","31","","","","Mostly Cloudy"
"1958-07-28 22:00","1958","07","28","22:00","22.8","","19.4","","82","","27","","6","","19.3","","98.79","","30","","","","Mostly Cloudy"
"1958-07-28 23:00","1958","07","28","23:00","21.7","","18.3","","81","","27","","6","","24.1","","98.80","","28","","","","Mainly Clear"
"1958-07-29 00:00","1958","07","29","00:00","21.1","","17.8","","81","","27","","10","","24.1","","98.81","","27","","","","Mostly Cloudy"
"1958-07-29 01:00","1958","07","29","01:00","21.1","","17.8","","81","","29","","8","","25.0","","98.81","","27","","","","Mostly Cloudy"
"1958-07-29 02:00","1958","07","29","02:00","19.4","","17.2","","87","","29","","10","","25.0","","98.78","","","","","","Mostly Cloudy"
"1958-07-29 03:00","1958","07","29","03:00","20.0","","17.8","","87","","29","","6","","25.0","","98.84","","26","","","","Mostly Cloudy"
"1958-07-29 04:00","1958","07","29","04:00","20.0","","17.2","","84","","29","","14","","25.0","","98.89","","25","","","","Mostly Cloudy"
"1958-07-29 05:00","1958","07","29","05:00","18.3","","16.1","","87","","27","","10","","25.0","","98.90","","","","","","Mainly Clear"
"1958-07-29 06:00","1958","07","29","06:00","18.9","","17.2","","90","","27","","11","","24.1","","98.92","","","","","","Mainly Clear"
"1958-07-29 07:00","1958","07","29","07:00","20.6","","17.2","","81","","27","","14","","24.1","","98.98","","26","","","","Mainly Clear"
"1958-07-29 08:00","1958","07","29","08:00","22.8","","16.7","","69","","27","","19","","24.1","","98.99","","28","","","","Mainly Clear"
"1958-07-29 09:00","1958","07","29","09:00","23.3","","15.0","","60","","27","","26","","24.1","","99.00","","27","","","","Mainly Clear"
"1958-07-29 10:00","1958","07","29","10:00","25.0","","13.9","","50","","27","","31","","24.1","","98.99","","28","","","","Mainly Clear"
"1958-07-29 11:00","1958","07","29","11:00","26.1","","12.2","","42","","29","","29","","25.0","","99.01","","28","","","","Mostly Cloudy"
"1958-07-29 12:00","1958","07","29","12:00","27.2","","10.6","","35","","27","","29","","25.0","","99.00","","29","","","","Mostly Cloudy"
"1958-07-29 13:00","1958","07","29","13:00","27.8","","9.4","","32","","27","","32","","25.0","","98.98","","29","","","","Mainly Clear"
"1958-07-29 14:00","1958","07","29","14:00","28.3","","11.1","","34","","27","","29","","25.0","","98.90","","30","","","","Mostly Cloudy"
"1958-07-29 15:00","1958","07","29","15:00","28.9","","11.7","","35","","27","","32","","25.0","","98.86","","31","","","","Mostly Cloudy"
"1958-07-29 16:00","1958","07","29","16:00","28.3","","10.0","","32","","27","","24","","25.0","","98.79","","30","","","","Mostly Cloudy"
"1958-07-29 17:00","1958","07","29","17:00","26.7","","12.2","","41","","25","","14","","25.0","","98.75","","29","","","","Mostly Cloudy"
"1958-07-29 18:00","1958","07","29","18:00","25.0","","16.1","","58","","23","","40","","16.1","","98.76","","30","","","","Thunderstorms,Moderate Rain Showers"
"1958-07-29 19:00","1958","07","29","19:00","19.4","","17.2","","87","","23","","8","","9.7","","98.73","","","","","","Thunderstorms,Moderate Rain Showers"
"1958-07-29 20:00","1958","07","29","20:00","19.4","","17.2","","87","","29","","11","","16.1","","98.78","","","","","","Thunderstorms,Heavy Rain Showers"
"1958-07-29 21:00","1958","07","29","21:00","18.9","","16.7","","87","","27","","8","","25.0","","98.75","","","","","","Mostly Cloudy"
"1958-07-29 22:00","1958","07","29","22:00","19.4","","16.7","","84","","27","","11","","25.0","","98.77","","","","","","Mostly Cloudy"
"1958-07-29 23:00","1958","07","29","23:00","18.9","","16.7","","87","","29","","8","","25.0","","98.79","","","","","","Mostly Cloudy"
"1958-07-30 00:00","1958","07","30","00:00","18.9","","16.7","","87","","27","","8","","25.0","","98.84","","","","","","Cloudy"
"1958-07-30 01:00","1958","07","30","01:00","18.3","","16.1","","87","","27","","10","","25.0","","98.83","","","","","","Mostly Cloudy"
"1958-07-30 02:00","1958","07","30","02:00","18.3","","16.1","","87","","32","","13","","25.0","","98.84","","","","","","Mainly Clear"
"1958-07-30 03:00","1958","07","30","03:00","17.2","","15.6","","90","","32","","3","","25.0","","98.84","","","","","","Mainly Clear"
"1958-07-30 04:00","1958","07","30","04:00","17.2","","15.6","","90","","27","","3","","25.0","","98.84","","","","","","Mainly Clear"
"1958-07-30 05:00","1958","07","30","05:00","16.7","","15.0","","90","","27","","6","","19.3","","98.89","","","","","","Mainly Clear"
"1958-07-30 06:00","1958","07","30","06:00","17.2","","15.6","","90","","27","","16","","24.1","","98.90","","","","","","Clear"
"1958-07-30 07:00","1958","07","30","07:00","18.3","","15.6","","84","","27","","21","","25.0","","98.97","","","","","","Clear"
"1958-07-30 08:00","1958","07","30","08:00","19.4","","16.7","","84","","27","","29","","24.1","","99.06","","","","","","Mainly Clear"
"1958-07-30 09:00","1958","07","30","09:00","22.2","","16.7","","71","","25","","26","","19.3","","99.04","","27","","","","Mostly Cloudy"
"1958-07-30 10:00","1958","07","30","10:00","23.9","","14.4","","56","","27","","27","","19.3","","99.06","","28","","","","Mainly Clear"
"1958-07-30 11:00","1958","07","30","11:00","24.4","","12.2","","47","","27","","34","","24.1","","99.06","","27","","","","Mostly Cloudy"
"1958-07-30 12:00","1958","07","30","12:00","25.6","","10.0","","38","","29","","37","","25.0","","99.08","","27","","","","Mostly Cloudy"
"1958-07-30 13:00","1958","07","30","13:00","26.1","","10.6","","38","","27","","40","","25.0","","99.07","","28","","","","Mostly Cloudy"
"1958-07-30 14:00","1958","07","30","14:00","26.7","","10.0","","35","","27","","45","","25.0","","99.11","","28","","","","Mostly Cloudy"
"1958-07-30 15:00","1958","07","30","15:00","27.2","","10.0","","34","","29","","34","","25.0","","99.07","","28","","","","Mostly Cloudy"
"1958-07-30 16:00","1958","07","30","16:00","27.2","","10.0","","34","","27","","26","","25.0","","99.03","","28","","","","Mostly Cloudy"
"1958-07-30 17:00","1958","07","30","17:00","26.7","","10.6","","37","","29","","23","","25.0","","99.01","","28","","","","Mostly Cloudy"
"1958-07-30 18:00","1958","07","30","18:00","25.6","","13.3","","47","","23","","26","","25.0","","99.05","","29","","","","Mostly Cloudy"
"1958-07-30 19:00","1958","07","30","19:00","24.4","","13.3","","50","","25","","23","","25.0","","99.08","","27","","","","Mostly Cloudy"
"1958-07-30 20:00","1958","07","30","20:00","23.9","","14.4","","56","","25","","16","","25.0","","99.11","","28","","","","Mostly Cloudy"
"1958-07-30 21:00","1958","07","30","21:00","22.2","","15.0","","64","","25","","11","","25.0","","99.17","","26","","","","Mostly Cloudy"
"1958-07-30 22:00","1958","07","30","22:00","22.2","","14.4","","61","","27","","18","","25.0","","99.21","","26","","","","Mostly Cloudy"
"1958-07-30 23:00","1958","07","30","23:00","21.7","","13.9","","61","","34","","10","","25.0","","99.25","","25","","","","Mainly Clear"
"1958-07-31 00:00","1958","07","31","00:00","20.0","","13.3","","66","","36","","6","","25.0","","99.23","","","","","","Mainly Clear"
"1958-07-31 01:00","1958","07","31","01:00","18.3","","12.8","","70","","36","","10","","25.0","","99.23","","","","","","Mainly Clear"
"1958-07-31 02:00","1958","07","31","02:00","16.7","","12.2","","75","","34","","8","","25.0","","99.26","","","","","","Mostly Cloudy"
"1958-07-31 03:00","1958","07","31","03:00","16.1","","12.2","","78","","36","","6","","25.0","","99.27","","","","","","Mainly Clear"
"1958-07-31 04:00","1958","07","31","04:00","16.1","","11.7","","75","","32","","5","","25.0","","99.31","","","","","","Mainly Clear"
"1958-07-31 05:00","1958","07","31","05:00","15.0","","10.6","","75","","32","","3","","25.0","","99.37","","","","","","Mainly Clear"
"1958-07-31 06:00","1958","07","31","06:00","15.6","","10.6","","72","","34","","5","","25.0","","99.41","","","","","","Mostly Cloudy"
"1958-07-31 07:00","1958","07","31","07:00","16.7","","11.1","","70","","36","","10","","25.0","","99.49","","","","","","Cloudy"
"1958-07-31 08:00","1958","07","31","08:00","18.9","","11.1","","61","","36","","11","","25.0","","99.50","","","","","","Mostly Cloudy"
"1958-07-31 09:00","1958","07","31","09:00","20.6","","9.4","","49","","34","","10","","25.0","","99.50","","","","","","Mostly Cloudy"
"1958-07-31 10:00","1958","07","31","10:00","21.7","","7.2","","39","","34","","16","","25.0","","99.49","","","","","","Mostly Cloudy"
"1958-07-31 11:00","1958","07","31","11:00","21.7","","8.3","","42","","34","","16","","25.0","","99.49","","","","","","Mostly Cloudy"
"1958-07-31 12:00","1958","07","31","12:00","22.8","","8.9","","41","","34","","16","","25.0","","99.50","","","","","","Mostly Cloudy"
"1958-07-31 13:00","1958","07","31","13:00","22.8","","8.3","","40","","36","","13","","25.0","","99.52","","","","","","Mostly Cloudy"
"1958-07-31 14:00","1958","07","31","14:00","22.8","","8.9","","41","","34","","16","","25.0","","99.54","","","","","","Mostly Cloudy"
"1958-07-31 15:00","1958","07","31","15:00","23.3","","8.3","","38","","36","","11","","25.0","","99.48","","","","","","Mostly Cloudy"
"1958-07-31 16:00","1958","07","31","16:00","23.3","","9.4","","41","","34","","13","","25.0","","99.45","","","","","","Cloudy"
"1958-07-31 17:00","1958","07","31","17:00","22.8","","9.4","","43","","5","","11","","25.0","","99.42","","","","","","Mostly Cloudy"
"1958-07-31 18:00","1958","07","31","18:00","22.8","","10.6","","46","","2","","14","","25.0","","99.44","","","","","","Mostly Cloudy"
"1958-07-31 19:00","1958","07","31","19:00","22.2","","11.7","","51","","2","","8","","25.0","","99.47","","","","","","Mostly Cloudy"
"1958-07-31 20:00","1958","07","31","20:00","20.6","","12.8","","61","","36","","10","","25.0","","99.50","","","","","","Mostly Cloudy"
"1958-07-31 21:00","1958","07","31","21:00","17.8","","10.6","","63","","36","","10","","25.0","","99.58","","","","","","Mainly Clear"
"1958-07-31 22:00","1958","07","31","22:00","16.1","","11.1","","72","","36","","8","","25.0","","99.63","","","","","","Mainly Clear"
"1958-07-31 23:00","1958","07","31","23:00","15.6","","9.4","","67","","36","","8","","25.0","","99.66","","","","","","Mainly Clear"
